{
  "updated_utc": "2026-07-10T19:46Z",
  "metar": {
    "RJAA": "METAR RJAA 101800Z AUTO 18003KT 9999 NCD 21/21 Q1015 NOSIG",
    "PANC": "METAR PANC 101753Z 15005KT 10SM SCT026 BKN060 16/11 A2996 RMK AO2 SLP145 T01560111 10156 20122 58002",
    "PAFA": "METAR PAFA 101753Z 00000KT 10SM SCT012 SCT024 BKN065 17/13 A2995 RMK AO2 SLP146 T01720133 10172 20139 58001 $",
    "PAED": "METAR PAED 101755Z 00000KT 10SM SCT020 BKN026 16/11 A2994 RMK AO2A SLP135 T01630108 $",
    "KSEA": "METAR KSEA 101753Z VRB04KT 10SM FEW020 FEW060 SCT140 19/12 A2995 RMK AO2 SLP147 T01940117 10200 20133 58006 $",
    "ZSPD": "METAR ZSPD 101800Z 11005MPS 9999 BKN008 28/27 Q1005 NOSIG",
    "ZSSS": "METAR ZSSS 101800Z 11004MPS 9999 FEW016 29/25 Q1005 NOSIG",
    "RJFR": "METAR RJFR 101800Z AUTO 07008KT 9999 NCD 25/24 Q1013",
    "VHHH": "METAR VHHH 101800Z 00000KT CAVOK 29/24 Q1000 NOSIG",
    "RCTP": "METAR RCTP 101800Z 02018G31KT 5000 -SHRA FEW010 BKN020 BKN035 28/26 Q0992 RESHRA WS ALL RWY NOSIG RMK QFF 992.2HPA A2930 RA AMT 3.0MM",
    "ZGSZ": "METAR ZGSZ 101800Z 20002MPS CAVOK 28/27 Q1000 NOSIG",
    "WSSS": "METAR WSSS 101800Z VRB06KT 9999 FEW016 BKN300 29/25 Q1011 NOSIG",
    "WMKK": "METAR WMKK 101800Z 00000KT 9000 FEW017CB 26/24 Q1009 NOSIG",
    "WIDD": "METAR WIDD 101800Z 16002KT 9000 FEW014 27/25 Q1011 NOSIG",
    "VTBS": "METAR VTBS 101800Z 26006KT 9999 FEW020 30/21 Q1007 NOSIG",
    "VTBU": "METAR VTBU 101800Z 27009KT 9999 FEW020 30/26 Q1008 NOSIG",
    "ROAH": "METAR ROAH 101800Z AUTO 12040G56KT 3200 R36R/P2000N R36L/P2000N RA BR SCT012 SCT016 BKN019 //////TCU 27/25 Q0993",
    "VVDN": "METAR VVDN 101800Z 23003KT 9999 FEW020 SCT070 29/22 Q1002 NOSIG",
    "RCKH": "METAR RCKH 101800Z 34021G31KT 9999 FEW014 FEW016TCU SCT025 BKN150 29/24 Q0990 NOSIG RMK TCU W QFF 990.9HPA A2926",
    "KLAX": "METAR KLAX 101753Z 23004KT 10SM FEW009 FEW015 23/16 A2990 RMK AO2 SLP122 T02330161 10233 20183 53002 $",
    "KONT": "METAR KONT 101753Z VRB04KT 7SM CLR 28/16 A2989 RMK AO2 SLP105 T02830156 10283 20172 55004 $",
    "KSFO": "METAR KSFO 101756Z 27013G21KT 10SM FEW005 BKN014 16/11 A2993 RMK AO2 SLP135 T01560106 10156 20128 53009",
    "KOAK": "METAR KOAK 101753Z 24009KT 10SM FEW002 BKN010 16/11 A2994 RMK AO2 SLP137 T01610111 10161 20128 53009",
    "KMHR": "METAR KMHR 101755Z AUTO 22006KT 10SM CLR 26/12 A2983 RMK AO2 T02640118 10264 20136 51004 $",
    "KDFW": "METAR KDFW 101753Z 22013G20KT 10SM CLR 35/18 A2998 RMK AO2 SLP142 T03500183 10350 20267 58005 $",
    "KIAH": "METAR KIAH 101753Z 14011KT 10SM SCT035 SCT150 BKN180 BKN250 32/24 A3003 RMK AO2 SLP168 CB AND SHRA DSNT W-N-E MOVG N T03170239 10317 20250 58006",
    "KORD": "METAR KORD 101751Z 04007KT 10SM FEW018 FEW032 BKN250 27/17 A2994 RMK AO2 SLP133 T02670172 10267 20211 50004",
    "KJFK": "METAR KJFK 101751Z 32010G16KT 10SM FEW050 FEW095 BKN240 30/18 A2982 RMK SLP098 T03000183 10311 20261 50000 $",
    "KRFD": "METAR KRFD 101754Z VRB03KT 10SM SCT027 SCT100 OVC230 27/21 A2995 RMK AO2 SLP137 T02720206 10278 20206 58001",
    "KIND": "METAR KIND 101754Z 24007KT 10SM BKN025 BKN250 28/22 A2994 RMK AO2 SLP132 T02780217 10283 20222 50003",
    "KDTW": "METAR KDTW 101753Z VRB05KT 10SM BKN030 BKN050 OVC250 27/20 A2991 RMK AO2 SLP124 T02720200 10278 20222 58005",
    "KMSP": "METAR KMSP 101753Z 18005KT 10SM FEW045 BKN250 29/17 A2995 RMK AO2 SLP136 T02890167 10289 20217 53005 $",
    "CYEG": "METAR CYEG 101800Z 13003KT 080V180 20SM BKN026 BKN043 BKN100 19/14 A2978 RMK SC6SC1AC1 SC TR SLP088 DENSITY ALT 3600FT",
    "EHAM": "METAR EHAM 101755Z 04009KT 010V070 CAVOK 25/16 Q1018 NOSIG",
    "EBBR": "METAR EBBR 101750Z 05009KT CAVOK 28/13 Q1017 NOSIG",
    "EDDF": "METAR EDDF 101750Z AUTO 01012KT 350V050 CAVOK 30/08 Q1015 NOSIG",
    "EDFH": "METAR EDFH 101750Z 36009KT CAVOK 27/09 Q1017",
    "EDDL": "METAR EDDL 101750Z AUTO 03010KT CAVOK 28/13 Q1016 NOSIG",
    "EDDK": "METAR EDDK 101750Z AUTO 01009KT 340V040 CAVOK 28/13 Q1016 NOSIG",
    "EBLG": "METAR EBLG 101750Z 03010KT CAVOK 27/12 Q1017 NOSIG",
    "LSZH": "METAR LSZH 101750Z 10007KT 060V120 CAVOK 30/11 Q1014 NOSIG",
    "LIMC": "METAR LIMC 101750Z 25010G22KT 230V290 8000 BKN040TCU 30/20 Q1014 NOSIG",
    "LIRF": "METAR LIRF 101750Z 22005KT 190V250 CAVOK 29/23 Q1014 NOSIG",
    "EINN": "METAR EINN 101800Z 02008KT 360V060 9999 FEW040 27/17 Q1018 NOSIG",
    "EGLL": "METAR EGLL 101750Z AUTO 11012KT 9999 NCD 28/10 Q1017",
    "EGSS": "METAR EGSS 101750Z AUTO 08009KT 9999 NCD 27/11 Q1019",
    "EPWA": "METAR EPWA 101800Z 33013KT 9999 FEW030 17/14 Q1013 NOSIG",
    "UHPP": "METAR UHPP 101800Z 31003MPS CAVOK 13/08 Q1010 R34L/CLRD62 NOSIG RMK QFE754/1006",
    "EFHK": "METAR EFHK 101750Z 13006KT CAVOK 19/11 Q1019 NOSIG",
    "LBBG": "METAR LBBG 101800Z AUTO 13007KT 9999 NCD 21/16 Q1016 NOSIG",
    "LTAC": "METAR LTAC 101750Z 03008KT CAVOK 22/11 Q1017 NOSIG RMK RWY21C 01008KT RWY03L 03007KT 350V050 RWY21R 36008KT RWY03R 36008KT RWY21L 01008KT",
    "UBBB": "METAR UBBB 101800Z 21004KT CAVOK 26/21 Q1009 NOSIG",
    "UTAA": "METAR UTAA 101800Z 22004KT 9999 NSC 34/14 Q1007 R88/CLRD70 NOSIG",
    "UACC": "METAR UACC 101800Z 09003MPS CAVOK 20/12 Q1017 NOSIG RMK QFE731/0975",
    "UAAA": "METAR UAAA 101800Z 20002MPS 9999 NSC 22/12 Q1010 NOSIG",
    "UZTT": "METAR UZTT 101800Z 10004KT CAVOK 30/15 Q1004 NOSIG",
    "ZWWW": "METAR ZWWW 101800Z 16002MPS CAVOK 27/08 Q1010 NOSIG",
    "ZLXY": "METAR ZLXY 101800Z 01003MPS CAVOK 30/23 Q1000 NOSIG",
    "ZBAA": "METAR ZBAA 101800Z VRB01MPS 8000 SCT010 OVC040 25/25 Q1001 NOSIG",
    "ZBHH": "METAR ZBHH 101800Z VRB01MPS 9999 BKN033 19/18 Q1007 NOSIG",
    "ZSQD": "METAR ZSQD 101800Z 16006MPS 8000 BKN008 25/25 Q1005 BECMG TL1930 BKN004",
    "ZMCK": "METAR ZMCK 101800Z 05005MPS 9999 -SHRA SCT027CB SCT030 16/16 Q1005 NOSIG RMK QFE639.8 100 NT",
    "UUEE": "METAR UUEE 101800Z 09005MPS CAVOK 24/17 Q1014 R06R/CLRD62 R06C/CLRD62 NOSIG",
    "UUDD": "METAR UUDD 101800Z 12005MPS CAVOK 26/17 Q1014 R88/CLRD65 NOSIG",
    "ULLI": "METAR ULLI 101800Z 06003MPS 9999 SCT048 21/12 Q1018 R88/090065 NOSIG",
    "USSS": "METAR USSS 101800Z VRB01MPS 8000 -TSRA BKN031CB 19/19 Q1015 R08R/290545 R08L/290536 TEMPO VRB25MPS SQ RMK QFE741/0989",
    "UNNT": "METAR UNNT 101800Z 25004MPS 9999 BKN034 22/12 Q1010 R25/CLRD// R34/////// NOSIG RMK QFE747/0997",
    "UNKL": "METAR UNKL 101800Z 28001MPS 8000 NSC 12/11 Q1013 R29/CLRD// NOSIG RMK QFE734",
    "UIBB": "METAR UIBB 101800Z AUTO 24002MPS 9999 // NCD 08/06 Q1012 RMK QFE716/0955",
    "UEEE": "METAR UEEE 101800Z 33004MPS 9999 SCT050CB 14/10 Q1003 R23/09//65 NOSIG RMK QFE744",
    "UHHH": "METAR UHHH 101800Z VRB01MPS 9999 BKN019CB 22/22 Q1004 R23L/290045 NOSIG RMK QFE747/0996",
    "UHSS": "METAR UHSS 101800Z 20001MPS 0700 0500S R01/1100D FG VV003 18/17 Q1011 R01/CLRD70 NOSIG RMK QBB100 MT OBSC QFE757/1009"
  },
  "taf": {
    "RJAA": "TAF RJAA 101705Z 1018/1200 16008KT 9999 FEW015 SCT030",
    "PANC": "TAF PANC 101735Z 1018/1124 28006KT P6SM SCT028 SCT100 FM102100 28007KT P6SM FEW050 FEW250 FM110600 16010G20KT P6SM BKN100 FM111700 17010G20KT P6SM OVC080",
    "PAFA": "TAF PAFA 101738Z 1018/1124 VRB02KT P6SM SCT020 BKN060 FM102000 18003KT P6SM BKN050 FM110400 09004KT P6SM SCT070 FM112100 22010G23KT P6SM VCSH SCT070",
    "PAED": "TAF COR PAED 101300Z 1013/1119 17003KT 9999 BKN025 QNH2995INS BECMG 1020/1021 24005KT 9999 SCT040 QNH2992INS TX21/1017Z TN13/1015Z",
    "KSEA": "TAF KSEA 101744Z 1018/1124 20005KT P6SM SCT025 SCT060 FM110200 30007KT P6SM SCT025 SCT060 BKN120 FM110600 22005KT P6SM SCT025 SCT060 BKN120",
    "ZSPD": "TAF ZSPD 101517Z 1018/1124 13004MPS 8000 BKN008 TX30/1106Z TN25/1021Z TN25/1121Z BECMG 1018/1019 07004MPS BECMG 1023/1024 08009G15MPS BKN010 BECMG 1105/1106 09015G20MPS TEMPO 1122/1124 SHRA BKN008 FEW030CB",
    "ZSSS": "TAF ZSSS 101515Z 1018/1124 13004MPS 8000 BKN020 TX32/1106Z TN26/1021Z TN26/1121Z BECMG 1019/1020 08004MPS BECMG 1103/1104 09009G15MPS TEMPO 1122/1124 SHRA BKN010 FEW030CB",
    "RJFR": "TAF RJFR 101705Z 1018/1200 09018KT 9999 FEW020 BECMG 1109/1112 07014KT TEMPO 1121/1200 BKN005",
    "VHHH": "TAF VHHH 101700Z 1018/1124 VRB05KT 9999 FEW015 TX34/1106Z TN28/1022Z TN29/1122Z BECMG 1100/1102 30010KT TEMPO 1103/1108 4000 HZ BECMG 1110/1112 24015KT",
    "RCTP": "TAF RCTP 101700Z 1018/1124 02018G35KT 6000 FEW015 BKN032 TEMPO 1018/1024 36028G42KT 4000 SHRA FEW006 BKN012 TEMPO 1100/1106 30035G45KT 2000 SHRA FEW003 BKN006 FEW010CB TEMPO 1106/1112 27036G46KT 2500 SHRA FEW004 BKN008 FEW010CB BECMG 1112/1114 23030G42KT TEMPO 1116/1122 23035G45KT 4000 RA FEW006 BKN012",
    "ZGSZ": "TAF ZGSZ 101506Z 1018/1124 20004MPS 8000 FEW030 TX34/1106Z TN28/1022Z TN29/1122Z BECMG 1021/1023 30004MPS BECMG 1106/1107 21004MPS",
    "WSSS": "TAF WSSS 101700Z 1018/1200 17008KT 9999 FEW015 SCT020",
    "WMKK": "TAF WMKK 101700Z 1018/1200 VRB03KT 9000 FEW030",
    "VTBS": "TAF VTBS 101700Z 1018/1124 22008KT 9999 FEW020",
    "VTBU": "TAF VTBU 101700Z 1018/1118 26008KT 9999 FEW020",
    "ROAH": "TAF ROAH 101713Z 1018/1200 12040KT 6000 -SHRA FEW008 BKN012 TEMPO 1018/1103 12045G60KT 2000 +SHRA BR FEW005 BKN008 SCT015CB TEMPO 1103/1109 14045G60KT 4000 SHRA BR FEW005 BKN008 FEW015CB TEMPO 1109/1115 15035G50KT BECMG 1112/1115 17026KT",
    "VVDN": "TAF VVDN 101700Z 1018/1118 21006KT 9999 FEW020 SCT060",
    "RCKH": "TAF RCKH 101700Z 1018/1124 34010G20KT 8000 FEW015 BKN032 TEMPO 1018/1024 30018G30KT TEMPO 1100/1106 27025G42KT 4000 SHRA FEW006 FEW010CB BKN012 TEMPO 1106/1112 26015G30KT 5000 RA FEW010 BKN020 BECMG 1112/1114 24018G30KT",
    "KLAX": "TAF KLAX 101721Z 1018/1124 28006KT P6SM FEW007 SCT013 FM102100 25012KT P6SM SKC FM110400 25006KT P6SM OVC008 FM111100 13005KT 4SM BR FEW005 OVC007 FM111700 25008KT P6SM SCT010",
    "KONT": "TAF KONT 101727Z 1018/1124 VRB05KT 6SM HZ SKC FM102000 26011G18KT P6SM SKC FM110500 VRB04KT P6SM SKC FM112100 25011G18KT P6SM SKC",
    "KSFO": "TAF KSFO 101756Z 1018/1124 28015KT P6SM BKN015 FM101830 28015KT P6SM SCT015 FM102000 28018KT P6SM SKC FM110500 28011KT P6SM BKN010 FM111700 29012KT P6SM SCT012",
    "KOAK": "TAF KOAK 101739Z 1018/1124 26010KT P6SM SCT010 FM102100 27013KT P6SM SKC FM110500 22008KT P6SM BKN012 FM111200 23006KT P6SM OVC007 FM111800 26008KT P6SM SCT010",
    "KMHR": "TAF KMHR 101720Z 1018/1118 20008KT P6SM SKC FM102100 20009G17KT P6SM SKC FM110200 19010KT P6SM SKC FM110600 16006KT P6SM SKC",
    "KDFW": "TAF KDFW 101727Z 1018/1124 19016G26KT P6SM FEW250 FM110200 17011KT P6SM FEW250",
    "KIAH": "TAF KIAH 101720Z 1018/1124 17010KT P6SM VCSH SCT035 SCT050 BKN180 TEMPO 1019/1022 VRB15G25KT 4SM TSRA SCT035CB BKN050 FM110100 15009KT P6SM SCT050 SCT250 FM110400 VRB04KT P6SM FEW020 FEW035 SCT250 PROB30 1112/1117 VRB10G20KT 6SM -SHRA SCT035 SCT050 FM111700 16008KT P6SM VCSH SCT040 SCT050 PROB30 1118/1122 VRB15G25KT 4SM TSRA BKN035CB BKN050",
    "KORD": "TAF KORD 101720Z 1018/1124 04011KT P6SM SCT040 SCT100 BKN250 FM110300 02005KT P6SM FEW050 BKN250 FM111300 05012KT P6SM FEW300",
    "KJFK": "TAF KJFK 101727Z 1018/1124 31010G18KT P6SM SCT050 BKN150 FM102100 25010KT P6SM SCT040 BKN150 PROB30 1021/1101 4SM TSRA BKN040CB FM110100 31006KT P6SM FEW050 BKN150 FM110600 01006KT P6SM FEW050 BKN200 FM111200 05008KT P6SM SCT050 BKN200",
    "KRFD": "TAF KRFD 101720Z 1018/1118 03009KT P6SM SCT035 BKN250 TEMPO 1018/1019 BKN030 FM110300 02003KT P6SM BKN250 FM111300 05010KT P6SM FEW300",
    "KIND": "TAF KIND 101728Z 1018/1124 23010KT P6SM SCT025 BKN035 FM102000 23010KT P6SM SCT030 BKN050 PROB30 1020/1102 4SM -TSRA BR OVC030CB FM110200 22004KT P6SM SCT060 BKN250 FM110800 25003KT P6SM VCSH BKN060",
    "KDTW": "TAF KDTW 101945Z 1020/1124 03007KT P6SM SCT035 BKN050 FM110100 04005KT P6SM SCT050 FM111200 03007KT P6SM SCT030 TEMPO 1114/1116 BKN025 FM111800 08007KT P6SM SCT050",
    "KMSP": "TAF KMSP 101734Z 1018/1124 16005KT P6SM FEW150",
    "CYEG": "TAF CYEG 101740Z 1018/1118 10008KT P6SM BKN030 BKN100 TEMPO 1018/1019 BKN020 FM102000 13008KT P6SM BKN060 TEMPO 1020/1023 P6SM VCTS -SHRA BKN040CB FM102300 12006KT P6SM FEW060 PROB30 1023/1103 VRB25G35KT 3SM +TSRA SCT020 BKN050CB FM110300 13006KT P6SM SCT100 FM110700 08008KT P6SM BKN100 FM110900 09005KT P6SM BKN080 TEMPO 1109/1115 VRB20G30KT P6SM VCTS -SHRA BKN060CB FM111500 35008KT P6SM BKN030 TEMPO 1115/1118 P6SM -SHRA BKN020 RMK NXT FCST BY 102100Z",
    "EHAM": "TAF EHAM 101718Z 1018/1124 04010KT CAVOK PROB40 1101/1107 BKN006 PROB30 TEMPO 1101/1106 7000 BKN003",
    "EBBR": "TAF EBBR 101700Z 1018/1124 05008KT CAVOK",
    "EDDF": "TAF EDDF 101700Z 1018/1124 03009KT CAVOK",
    "EDFH": "TAF EDFH 101700Z 1018/1118 05008KT CAVOK",
    "EDDL": "TAF EDDL 101700Z 1018/1124 03010KT CAVOK BECMG 1020/1023 03004KT BECMG 1109/1111 04010KT BECMG 1120/1123 03004KT",
    "EDDK": "TAF EDDK 101700Z 1018/1124 03010KT CAVOK BECMG 1020/1023 VRB03KT BECMG 1108/1111 05007KT BECMG 1120/1123 VRB03KT",
    "EBLG": "TAF EBLG 101700Z 1018/1124 05010KT CAVOK",
    "LSZH": "TAF LSZH 101725Z 1018/1124 07007KT CAVOK TX34/1115Z TN16/1103Z BECMG 1019/1022 32004KT BECMG 1108/1111 05007KT BECMG 1121/1124 32004KT",
    "LIMC": "TAF LIMC 101700Z 1018/1124 VRB05KT 9999 SCT030 PROB40 TEMPO 1018/1020 20010KT 4000 TSRA TEMPO 1115/1118 4000 SHRA",
    "LIRF": "TAF LIRF 101700Z 1018/1124 VRB05KT CAVOK BECMG 1106/1108 19011KT BECMG 1118/1120 VRB05KT",
    "EINN": "TAF EINN 101700Z 1018/1118 02009KT 9999 FEW030",
    "EGLL": "TAF EGLL 101653Z 1018/1124 10010KT CAVOK BECMG 1100/1103 03005KT BECMG 1111/1114 09010KT",
    "EGSS": "TAF EGSS 101659Z 1018/1124 10010KT CAVOK BECMG 1100/1103 04009KT PROB40 1103/1108 9000 BKN004 BECMG 1121/1124 BKN012",
    "EPWA": "TAF EPWA 101730Z 1018/1118 30010KT 9999 BKN030 TEMPO 1018/1020 SHRA BKN030CB BECMG 1022/1101 4000 BR BKN010 PROB30 1101/1105 BKN005 BECMG 1105/1107 9999 SCT030 TEMPO 1106/1118 30015G25KT SHRA BKN025CB PROB40 TEMPO 1110/1118 3000 TSRA ",
    "UHPP": "TAF UHPP 101650Z 1018/1124 30003G12MPS 9999 NSC TX28/1104Z TN12/1017Z",
    "EFHK": "TAF EFHK 101729Z 1018/1118 11005KT 9999 FEW040 BECMG 1102/1104 02012KT PROB40 TEMPO 1107/1112 FEW050CB TEMPO 1112/1117 SHRA FEW040CB",
    "LBBG": "TAF LBBG 101700Z 1018/1118 VRB04KT 9999 SCT040 BECMG 1105/1107 26010KT BECMG 1111/1113 14012KT",
    "LTAC": "TAF LTAC 101640Z 1018/1118 VRB02KT CAVOK BECMG 1104/1107 FEW040",
    "UBBB": "TAF UBBB 101702Z 1018/1118 32006KT CAVOK TX31/1110Z TN21/1101Z TEMPO 1018/1020 25005KT TEMPO 1020/1104 VRB04KT SCT010 FEW050CB BECMG 1104/1106 35014KT TEMPO 1106/1118 34020KT FEW015 SCT030",
    "UTAA": "TAF UTAA 101645Z 1018/1118 29016KT 6000 SCT050 TX41/1111Z TEMPO 1018/1103 23012KT TEMPO 1103/1112 31014G24KT 4000 DRDU",
    "UACC": "TAF UACC 101705Z 1018/1118 VRB01MPS 9999 SCT040 BKN100 TX35/1109Z TN18/1023Z BECMG 1104/1105 01005MPS TEMPO 1105/1116 05008MPS SCT030CB",
    "UAAA": "TAF UAAA 101700Z 1018/1118 16002MPS 9999 FEW050 SCT100 TX34/1110Z TN17/1101Z BECMG 1102/1103 33003MPS TEMPO 1104/1115 03002G07MPS",
    "UZTT": "TAF UZTT 101700Z 1018/1118 07010KT CAVOK TX40/1111Z TN25/1100Z TEMPO 1100/1112 24015KT",
    "ZWWW": "TAF ZWWW 101502Z 1018/1124 20004MPS CAVOK TX36/1109Z TN25/1022Z TN26/1122Z BECMG 1102/1103 36004MPS BECMG 1114/1115 18004MPS",
    "ZLXY": "TAF ZLXY 101503Z 1018/1118 26004MPS 6000 NSC TX35/1107Z TN25/1118Z TEMPO 1111/1115 TSRA FEW040CB OVC050 BECMG 1114/1115 SHRA FEW040CB OVC050 TEMPO 1115/1118 +SHRA",
    "ZBAA": "TAF ZBAA 101501Z 1018/1124 16003MPS 3500 BR NSC TX29/1106Z TN24/1021Z TN24/1121Z TEMPO 1112/1118 TSRA SCT040CB BKN040",
    "ZBHH": "TAF ZBHH 101506Z 1018/1118 16002MPS 1000 BR FEW030 TX24/1108Z TN18/1022Z TEMPO 1020/1024 0500 FG BECMG 1100/1101 3000",
    "ZSQD": "TAF ZSQD 101502Z 1018/1118 16006MPS 5000 BR BKN008 TX31/1106Z TN25/1020Z BECMG 1023/1024 SCT020",
    "ZMCK": "TAF COR ZMCK 101657Z 1018/1124 VRB02MPS 9999 RA FEW020 FEW027CB BKN030 TN13/1021Z TX17/1107Z TEMPO 1018/1101 VRB08G13MPS 5000 TSRA FEW017 SCT027CB BKN030 BECMG 1101/1104 31007MPS TEMPO 1104/1112 VRB08G13MPS 6000 TSRA FEW017 SCT027CB BKN030",
    "UUEE": "TAF UUEE 101653Z 1018/1118 09006MPS 9999 BKN020 TX26/1110Z TN19/1102Z TEMPO 1018/1021 15013G25MPS 2100 -TSRAGR SQ BKN016CB PROB40 TEMPO 1021/1107 -TSRA BKN016CB TEMPO 1107/1118 20010G18MPS -TSRA SQ BKN016CB",
    "UUDD": "TAF UUDD 101656Z 1018/1124 10003MPS 9999 BKN020 TX25/1018Z TN19/1101Z TEMPO 1018/1021 13008G15MPS PROB40 TEMPO 1018/1021 -TSRA BKN016CB TEMPO 1109/1119 VRB18MPS 1500 TSRA SQ BKN016CB",
    "ULLI": "TAF ULLI 101653Z 1018/1118 06003G08MPS 8000 BKN017 TEMPO 1018/1024 3100 -TSRA BKN017CB TEMPO 1100/1104 10003MPS 1000 BR FEW005 TEMPO 1114/1118 3100 -TSRA BKN016CB",
    "USSS": "TAF AMD USSS 101702Z 1017/1118 10003G14MPS 6000 -SHRA BKN016CB TEMPO 1017/1019 VRB23MPS -TSRAGR SQ TEMPO 1019/1104 0300 -TSRA FG BKN003 SCT016CB FM110400 18003G14MPS 8000 -SHRA BKN016CB TEMPO 1104/1118 -TSRA",
    "UNNT": "TAF UNNT 101700Z 1018/1118 22003G08MPS 8000 BKN030 TX21/1109Z TN15/1023Z TEMPO 1018/1103 28008G13MPS -TSRA BKN010 BKN020CB BECMG 1103/1105 36006G15MPS TEMPO 1105/1115 -TSRA BKN020CB",
    "UNKL": "TAF UNKL 101642Z 1018/1118 07003G08MPS 6000 SCT040",
    "UIBB": "TAF UIBB 101700Z 1018/1118 29003G08MPS 9999 FEW001 BKN016CB TEMPO 1018/1101 0300 FG VV001",
    "UEEE": "TAF UEEE 101700Z 1018/1124 33005G10MPS 9999 SCT020CB OVC100 TEMPO 1018/1023 VRB17MPS 2400 -TSRA SQ SCT007 BKN017CB OVC070",
    "UHHH": "TAF AMD UHHH 101934Z 1019/1124 VRB01MPS 3000 -SHRA BR SCT005 BKN020CB TX30/1105Z TN21/1019Z TEMPO 1019/1023 VRB08MPS 0700 +TSRA FG BKN003 BKN016CB FM110000 20003MPS 9999 SCT025CB TEMPO 1105/1112 3000 -TSRA FEW010 BKN018CB",
    "UHSS": "TAF UHSS 101645Z 1018/1124 18003MPS 0300 FG VV002 BECMG 1021/1022 9999 NSW BKN004 BKN016CB BECMG 1100/1101 BKN025CB"
  },
  "atis": {
    "RJAA": "[Arrival ATIS] RJAA ARR ATIS F 1450Z S1443 (APCH)ILS Y RWY16R USING RWY 16R DEP FREQ 124.2. TWY A1 CLSD. RWY 16L/34R CLSD TIL 2030. RWY 16R/34L WILL BE CLSD FM 1510 EXC ACFT WITH PRIOR PERMISSION. S 201443Z AUTO 14009KT 3500M -RA BR FEW003// SCT008// BKN017// 21/20 Q1009/A2980= Q/TWO NINE EIGHT ZERO STP\n[Departure ATIS] RJAA DEP ATIS S 1315Z M1300 (APCH)ILS Y RWY16R/ILS Y RWY16L USING RWY 16R/16L DEP FREQ 124.2. TWY A1 CLSD. PARL APCHS INPR. RWY 16L/34R WILL BE CLSD FM 1410. M 201300Z 15010KT 7KM -RA BKN006ST 21/21 Q1010/A2984= Q/TWO NINE EIGHT FOUR STP",
    "PANC": "[Arrival ATIS] PANC ARR ATIS T 1702Z - PANC ATIS INFO T 1702Z SPECIAL. 28009KT 10SM FEW007 FEW120 FEW140 SCT200 11/09 A3021 (THREE ZERO TWO ONE). 7R APPROACHES IN USE. LANDING RWY 7R, DEPARTING RWY 33. NOTICE TO AIRMEN. RWY 7L CLSD. CHECK NOTAMS FOR TAXIWAY CLOSURES. CONTACT TOWER 118.3 FOR TAXI. ...ADVS YOU HAVE INFO T.\n[Departure ATIS] PANC DEP ATIS X 0953Z ANC ATIS INFO X 0953Z. 12016G27KT 10SM SCT060 BKN085 OVC100 14/07 A2973 (TWO NINER SEVEN THREE). ILS RWY 15 APPROACHES IN USE. LANDING RWY 15, DEPARTING RWY 25L. NOTICE TO",
    "KSEA": "[Arrival ATIS] KSEA ARR ATIS L 0453Z SEA ATIS INFO L 0453Z. 30004KT 10SM SCT080 SCT250 17/12 A3016 (THREE ZERO ONE SIX). ILS, RYS 16R AND 16L , APCH IN USE. DEPG RWY 16L, DEPG ACFT PLAN AND BRIEF NUMBERS FOR BOTH RWYS 16L AND 16C. SIMUL APCHS IN USE, BFI & SEA. TRAFFIC BELOW YOU ON FINAL. SIMUL APCHS IN USE TO PARA RYS. NOTAMS... BIRD ACTIVITY VICINITY ARPT. ...ADVS YOU HAVE INFO L.\n[Departure ATIS] KSEA DEP ATIS A 1653Z - KSEA ATIS INFO A 1653Z. 18005KT 10SM FEW010 SCT020 SCT140 18/12 A2996 (TWO NINER NINER SIX). ILS AND CHARTED VISUAL APPROACH RWYS 16R AND 16L , APCH IN USE. DEPG RWY 16L, DEPG ACFT PLAN AND BRIEF NUMBERS FOR BOTH RWYS 16L AND 16C. SIMUL APCHS IN USE, BFI & SEA. TRAFFIC BELOW YOU ON FINAL. SIMUL APCHS IN USE TO PARA RYS. NOTAMS... BIRD ACTIVITY VICINITY ARPT. ...ADVS YOU HAVE INFO A.",
    "ZSPD": "[Arrival ATIS] ZSPD ARR ATIS A 1700Z EXP ILS APCH LDG RWY 17R WIND RWY 17R TDZ 140/4MPS MID 140/3MPS END 140/3MPS VIS RWY 17R TDZ 8000M MID 6000M END 6000M CLD BKN 360M T 25 /DP 25 QNH 1008 HPA CAUTION THE BIRDS NEAR THE RUNWAY ADZ YOU HAVE INFO A.\n[Departure ATIS] ZSPD DEP ATIS A 1700Z DEP RWY 16R WIND RWY 16R TDZ 160/3MPS MID 160/3MPS END 150/2MPS VIS RWY 16R TDZ 7000M MID 5000M END 5000M CLD BKN 360M T 25 /DP 25 QNH 1008 HPA DELIVERY FREQ 118.4 CAUTION THE BIRDS NEAR THE RUNWAY ADZ YOU HAVE INFO A.",
    "ZSSS": "[Arrival ATIS] ZSSS ARR ATIS F 0700Z EXP ILS APCH LDG RWY 18L WIND RWY 18L TDZ 160/6MPS MID 170/7MPS END 140/6MPS VIS RWY 18L TDZ 10000M MID 10000M END 10000M CLD SCT 1200M T 34 /DP 24 QNH 1005 HPA QNH OF SHA\n[Departure ATIS] ZSSS DEP ATIS P 1245Z DEP RWY 18R WIND RWY 18R TDZ 180/2MPS MID 170/2MPS END 150/2MPS VIS RWY 18R TDZ 10000M MID 10000M END 10000M CLD FEW 990M T 27 /DP 24 QNH 1007 HPA QNH OF SHANGHAI TERMINAL CONTROL AREA 1008 HPA ADZ YOU HAVE INFO P.",
    "VHHH": "[Arrival ATIS] VHHH ARR ATIS D 1704Z ARRIVALS, RWY 07C. EXP ILS APCH, RWY 07C. RWY 07R MAY BE AVAILABLE FOR RNP AR APPROVED CARGO FLIGHTS UPON REQUEST. EXP RWY 07C AFTER 1800Z. WIND 180/11KT. VIS 10KM. CLD FEW 1000FT SCT 3000FT. T29 DP25. QNH 1010HPA. EXP SIG TAILWIND ON BASELEG. ACK INFO D ON FIRST CTC WITH APP.\n[Departure ATIS] VHHH DEP ATIS S 1705Z DEPARTURES, RWY 07R. EXP RWY 07C AFTER 1800Z. WIND 150/06KT. VIS 10KM. CLD FEW 1000FT SCT 3000FT. T29 DP25. QNH 1010HPA. ACK INFO S ON FIRST CTC WITH DELIVERY .",
    "RCTP": "[Arrival ATIS] RCTP ARR ATIS Y 1700Z EXP ILS APCH RWY23L ARR/DEP. RWY23R CLSD BTN 1700Z AND 2230Z FOR INSPECTION. WIND 230/09KT VIS 10 KM OR MORE CLD FEW 800FT T 27 DP 25 QNH 1010HPA NOSIG INFORM TAIPEI APCH OR TAIPEI TOWER ON INITIAL CONTACT YOU HAVE INFORMATION Y\n[Departure ATIS] RCTP DEP ATIS L 0200Z EXP ILS APCH RWY SFC RWY 05L SFC COND 5/5/5 ISSUED AT 0145Z. 100/100/100 NR/NR/NR WET/WET/WET RWY 05R SFC COND 5/5/5 ISSUED AT 0145Z. 100/100/100 NR/NR/NR WET/WET/WET RW",
    "ZGSZ": "[Arrival ATIS] ZGSZ ARR ATIS E 1700Z EXP ILS APCH LDG RWY 15 WIND 160/4MPS VIS 9999M CLD FEW 780M T 28 /DP 26 QNH 1010 HPA SINGLE RUNWAY OPERATION MISSED APPROACH ALTITUDE SETTING 1200METERS WHEN AIRBORNE CONTACT ZHUHAI APPROACH EXPECTED RNP ILS DME Z APPROACH ADZ YOU HAVE INFO E.\n[Departure ATIS] ZGSZ DEP ATIS C 1300Z DEP RWY 15 & 16L WIND 180/4MPS CAVOK T 29 /DP 26 QNH 1002 HPA INDEPENDENT PARALLEL DEPARTURES INDEPENDENT PARALLEL APPROACHES MISSED APPROACH ALTITUDE SETTING 1200METERS",
    "WSSS": "[Arrival ATIS] WSSS ARR ATIS S 0530Z METREPORT 0530Z ILS APCHRWY 20R SIMUL INDEPENDENT ILS AND VISUAL APPROACHES ARE CONDUCTED ON RWY 20. TWY W 9 CLOSED, RWY 02C 20C RAPID EXIT TAXIWAY INDICATOR LIGHTS OFF WIND 180/ 11KT VIS 10KM CLD FEW CB 1700FT FEW TCU 1800FT T29 DP24 QNH 1011HPA CHANGI AD 3 VALID 0530/ 0615 TS AD AND N APCH MOV NE 10KT OBS NC BECMG FM0610 TL0625 NSW ACK ATIS S\n[Departure ATIS] WSSS DEP ATIS K 1530Z METREPORT 1530Z RWY 20C TWY W 9 CLOSED, RWY 02C 20C RAPID EXIT TAXIWAY INDICATOR LIGHTS OFFFOLLOW THE GREENS TRIAL IN PROGRESS. WHEN VACATING THE RWY, PILOTS TO ADHERE TO ATC VERBAL INSTRUCTIONS. WHEN ON TWY, PILOT TO ADHERE TO FOLLOW THE GREENS INSTRUCTIONS. WHEN APPROACHING [A] JUNCTION, KEEP [A] LOOKOUT FOR CONTINUOUS GREENS. [IF] [A] BREAK IN THE GREENS IS OBSERVED, STOP AND CLARIFY WITH ATC. WIND 180/ 03KT VIS 10KM CLD FEW 1800FT T28 DP25 QNH 1012HPA NOSIG DEP,INITIAL CMB 3000FT ACK ATIS K",
    "WMKK": "[Arrival ATIS] WMKK ARR ATIS B 1934Z WMKK ARR INFO B. TIME 1930. INDEPENDENT PARALLEL APPROACHES FOR RWY 14 L AND 15 ARE IN PROGRESS. RWY 14 LEFT. EXP RNAV / ILS APCH FOR RWY 15. WIND RWY 14L CALM. WIND RWY 15 330 DEG, 2 KT. VIS RWY 14L TDZ 4900 M. VIS RWY 15 TDZ 10 KM OR MORE. CLD FEW CB 1700 FT. T 26. DP 24. QNH 1009. NOSIG. AT FIRST CONTACT WITH LUMPUR RADAR, NOTIFY RCPT OF B\n[Departure ATIS] WMKK DEP ATIS Y 1504Z WMKK DEP INFO Y. TIME 1500. INDEPENDENT PARALLEL DEPARTURES FOR RWY 14 R AND 15 ARE IN PROGRESS. RWY 14 RIGHT. RWY 15. WIND RWY 14R DIRECTION NOT AVBL SPEED NOT AVBL. WIND RWY 15 DIRECTION NOT AVBL SPEED NOT AVBL. VIS RWY 14R TDZ NOT AVBL. VIS RWY 15 TDZ NOT AVBL. CLD FEW 3000 FT. T 28. DP 25. QNH 1012. NOSIG. ALL DEP ACFT TO CONTACT LUMPUR DEP AT 135 DECIMAL 25 MHZ WHEN ABN. AT FIRST CONTACT WITH LUMPUR GROUND, NOTIFY RCPT OF Y",
    "VTBS": "[Arrival ATIS] VTBS ARR ATIS J 1700Z VTBS ARR ATIS J 1701Z EXP ILS Z APCH ARR RWY 19 OR RNP APCH RWY 20R ,ALL ACFT WILL BE DLA DUE VIP MOVEMENT ,PILOT SHALL ADZ BKK APCH ON INITIAL CTC IF UNA TO CONDUCT RNP APCH DUE TO OPERATIONAL CONSTRAINT 1700Z WIND 180/3KT VIS 10KM CLD FEW 2000FT T29 DP25 QNH 1011HPA TREND NOSIG ADZ BKK APCH ON INITIAL CONTACT THAT YOU HAVE INFO J\n[Departure ATIS] VTBS DEP ATIS T 1700Z VTBS DEP ATIS T 1717Z DEP RWY 20L RWY 20R CLSD DUE TO WIP , ,AFT AIRBORNE ALL DEPARTING ACFT SHALL CTC 119.25 1700Z WIND 210/3KT VIS 10KM CLD FEW 2000FT T29 DP25 QNH 1011HPA TREND NOSIG ADZ GND WHEN INITIAL CONTACT YOU HAVE INFO T",
    "VTBU": "[Arrival ATIS] VTBU ARR ATIS U 0430Z VTBU ARR ATIS U 0430Z RNP RWY 18 TRL FL130 MOBILE ACFT ARST SYSTEM INSTL ATP SIX HUNDRED AND TEN METERS FM THR RWY 36 CABLE HGT 3 INCHES. 0430Z WIND 360/6KT VRB BTN 320/ AND 020/ VIS 10KM CLD FEW 2000FT T34 DP27 QNH 1010HPA TREND NOSIG ADZ CONTROLLER WHEN INITIAL CONTACT YOU HAVE INFO U\n[Departure ATIS] VTBU DEP ATIS D VTBU ARR/DEP DATIS RPT VTBU ARR ATIS D 0330Z ILS \"Z\" APCH RWY 18 TRL FL130 0330Z WIND 110/4KT VRB BTN 350/ AND 120/ VIS 6KM CLD FEW 2000FT T31 DP27 QNH 1014HPA TREND NOSIG ADZ CONTROLLER WHEN INITIAL CONTACT YOU HAVE INFO D",
    "ROAH": "[Arrival ATIS] ROAH ARR ATIS U 1719Z M1700 (APCH)ILS Z RWY36L USING RWY 36L DEP FREQ 119.1 335.8 RWY18L/36R CLSD. M 101700Z AUTO 12038G55/25KT 7KM FEW022// SCT044// BKN070// //////TCU 29/25 Q0993/A2933 RMK TCU 20KM N AND 40KM NW MOV UNKNOWN= Q/TWO NINE THREE THREE STP\n[Departure ATIS] ROAH DEP ATIS F 1204Z M1200 (APCH)RNP RWY18R LDG RWY 18R DEP RWY 18L DEP FREQ 119.175 316.0 M 201200Z 18011KT 40KM FEW006ST 27/26 Q1012/A2989= Q/TWO NINE EIGHT NINE STP",
    "VVDN": "[Arrival ATIS] VVDN ARR ATIS O 1632Z VVDN INFO O 1632Z. ILS VICTOR APPROACH 35L.. DPTG RWY 35R.. 1632Z. WIND 240/02KT CAVOK T29 DP25 QNH 1009HPA TREND NOSIG. ADZ ON INITIAL CTC YOU HAVE INFO. O.\n[Departure ATIS] VVDN DEP ATIS R 0503Z VVDN INFO R 0503Z. ILS VICTOR APPROACH 35L.. DPTG RWY 35R.. 0502Z. WIND 090/05KT VRB BTN 070/ AND 140/ CAVOK T37 DP23 QNH 1007HPA TREND NOSIG. ADZ ON INITIAL CTC YOU HAVE INFO. R.",
    "RCKH": "[Arrival ATIS] RCKH ARR ATIS J 1802Z EXPECT ILS APPROACH RWY 09 ARR/DEP TAXIWAY JULIETT, TAXIWAY BRAVO, TAXIWAY DELTA AND TAXIWAY ECHO CLOSED DUE MAINTENANCE.RUNWAY 0 9 ARRIVALS PLAN VACATE VIA CHARLIE OR F\n[Departure ATIS] RCKH DEP ATIS J 0630Z EXPECT ILS APPROACH RWY 27 ARR/DEP TAXIWAY JULIETT, TAXIWAY BRAVO, TAXIWAY DELTA AND TAXIWAY ECHO CLOSED DUE MAINTENANCE.RUNWAY 2 7 ARRIVALS PLAN VACATE VIA CHARLIE OR A",
    "KLAX": "[Arrival ATIS] KLAX ARR ATIS Z 0553Z - KLAX ATIS INFO Z 0553Z. 22005KT 10SM CLR 19/16 A2988 (TWO NINER EIGHT EIGHT) RMK AO2 SLP116 T01940161 10228 20194 51004. INST APCHS AND RNAV RNP APCHS RY 24R AND 25L, OR VCTR FOR VISUAL APCH WILL BE PROVIDED, SIMUL VISUAL APCHS TO ALL RWYS ARE IN PROG, SIMUL INSTR DEPARTURES IN PROG RWYS 24 AND 25. CTC L A GC ON 121.75 FOR PUSH OR TAXI ON A. TWY B CLSD BTN TWY, C10 AND TWY C7 , , TWY B6 CLSD, TWY B7 CLSD, TWY C CLSD BTN TWY, C1 AND TWY C3, TWY C1 CLSD, TWY C9 CLSD BTN TWY, B AND TWY C, TWY C8 CLSD BTN TWY, B AND TWY C. RY 25R SFL OTS, RY 24L ALSF-2 OTS. LAX VOR UNMONITORED. USE CAUTION FOR INCREASED DRONE ACTIVIY IN THE VICINITY OF SOFI STADIUM AT OR BELOW 200FT AGL DURING THE WORLD CUP FROM JUNE TWELFTH TWENTY TWENTY SIX THROUGH JULY TENTH TWENTY TWENTY SIX. HAZD WX INFO FOR LAX AREA AVBL FM FSS. BIRD ACTIVITY VICINITY ARPT. INCLUDE YOUR CALL SIGN IN ALL READBACKS. USE CAUTION WHEN EXITING RY24R AT TWY V, W, AND Y, TO HOLD SHORT OF RY24L. MULTIPLE RUNWAY INCURSIONS HAVE OCCURRED. ...ADVS YOU HAVE INFO Z.\n[Departure ATIS] KLAX DEP ATIS T 2053Z - KLAX ATIS INFO T 2053Z. 26008KT 9SM FEW009 SCT016 23/17 A2989 (TWO NINER EIGHT NINER) RMK AO2 SLP120 T02330167 58006. INST APCHS AND RNAV RNP APCHS RY 24R AND 25L, OR VCTR FOR VISUAL APCH WILL BE PROVIDED, SIMUL INSTR DEPARTURES IN PROG RWYS 24 AND 25. CTC L A GC ON 121.75 FOR PUSH OR TAXI ON A. TWY B CLSD BTN TWY, C10 AND TWY C7 , , TWY B6 CLSD, TWY B7 CLSD, TWY C CLSD BTN TWY, C1 AND TWY C3, TWY C1 CLSD, TWY C9 CLSD BTN TWY, B AND TWY C, TWY C8 CLSD BTN TWY, B AND TWY C. RY 25R SFL OTS, RY 24L ALSF-2 OTS. LAX VOR UNMONITORED. USE CAUTION FOR INCREASED DRONE ACTIVIY IN THE VICINITY OF SOFI STADIUM AT OR BELOW 200FT AGL DURING THE WORLD CUP FROM JUNE TWELFTH TWENTY TWENTY SIX THROUGH JULY TENTH TWENTY TWENTY SIX. HAZD WX INFO FOR LAX AREA AVBL FM FSS. BIRD ACTIVITY VICINITY ARPT. INCLUDE YOUR CALL SIGN IN ALL READBACKS. USE CAUTION WHEN EXITING RY24R AT TWY V, W, AND Y, TO HOLD SHORT OF RY24L. MULTIPLE RUNWAY INCURSIONS HAVE OCCURRED. ...ADVS YOU HAVE INFO T.",
    "KONT": "[Arrival ATIS] KONT ARR ATIS M 1553Z - KONT ATIS INFO M 1553Z. 21006KT 10SM FEW022 18/12 A3000 (THREE ZERO ZERO ZERO). ILS AND VIS APR IN USE, RY26L & RY26R. LNDG AND DEPG RY 26L AND RY 26R. NOTAMS... TAXIWAY SIERRA CLSD BETWEEN SIERRA 8 AND W TAXIWAY Q SOUTH OF RWY 26L CLSD TAXIWAY T CLSD TAXIWAY SIERRA 5 CLSD. RY 26L IM OTS. USE CAUTION FOR NUMEROUS BIRDS OBSERVED IN VICINITY OF ONT. PILOTS READBACK RWY ASSIGNMENTS AND HOLD SHORT INSTRUCTIONS. ...ADVS YOU HAVE INFO M.\n[Departure ATIS] KONT DEP ATIS N 0553Z - KONT ATIS INFO N 0553Z. 24004KT 10SM BKN250 22/15 A2988 (TWO NINER EIGHT EIGHT) RMK AO2 SLP100. ILS AND VIS APR IN USE, RY26L & RY26R. LNDG AND DEPG RY 26L AND RY 26R. NOTAMS... TAXIWAY SIERRA CLSD BETWEEN SIERRA 8 AND W TAXIWAY Q SOUTH OF RWY 26L CLSD TAXIWAY T CLSD TAXIWAY SIERRA 5 CLSD. RY 26L IM OTS, RY 26R ALS OTS. USE CAUTION FOR NUMEROUS BIRDS OBSERVED IN VICINITY OF ONT. HAZD WX INFO FOR SOUTHERN CA AVBL ON FSS FREQUENCIES. PILOTS READBACK RWY ASSIGNMENTS AND HOLD SHORT INSTRUCTIONS. ...ADVS YOU HAVE INFO N.",
    "KSFO": "[Arrival ATIS] KSFO ARR ATIS P 1656Z SFO ATIS INFO P 1656Z. 25007KT 10SM FEW024 BKN032 19/10 A3000 (THREE ZERO ZERO ZERO) RMK AO2 SLP157 T01890100. SIMUL CLSLY SPCD DPNDNT ILS RY 28R AND ILS RY 28L APP IN USE. DEPG RWYS 28L, 28R. RY 1L, 1R CLSD. NUMEROUS TWY CLOSURES FOR CONSTRUCTION ON THE FIELD, PILOTS CHECK NOTAMS. DEPG ACFT WAITING ON FINAL NUMBERS ADVISE GROUND PRIOR TO ENTERING TWY F. ...ADVS YOU HAVE INFO P.\n[Departure ATIS] KSFO DEP ATIS U 1613Z SFO ATIS INFO U 1613Z SPECIAL. 27012KT 10SM FEW005 SCT012 14/11 A2992 (TWO NINER NINER TWO). SIMUL CLSLY SPCD DPNDNT ILS RY 28R AND ILS RY 28L APP IN USE. DEPG RWYS 28L, 28R. DEPG ACFT SHOULD BE PREPARED FOR A SHORT NOTICE RY CHANGE. RY 1L, 1R CLSD. NUMEROUS TWY CLOSURES FOR CONSTRUCTION ON THE FIELD, PILOTS CHECK NOTAMS. DEPG ACFT WAITING ON FINAL NUMBERS ADVISE GROUND PRIOR TO ENTERING TWY F. ...ADVS YOU HAVE INFO U.",
    "KOAK": "[Arrival ATIS] KOAK ARR ATIS A 0353Z - KOAK ATIS INFO A 0353Z. 25010KT 10SM FEW003 OVC007 14/12 A3004 (THREE ZERO ZERO FOUR). RNAV, RWY 30. ILS, RWY 28R. FLOW TO LAX, LAS, SAN, SEA. ILS RWY 30, OTS, RWY 28R RAIL, OTS. UNN LIT CLOSE-IN OBSTACLES FOR RWY 30 DEPARTURES. RWY 30 DEPARTURES ARE ADVISED TO AVOID TURNING LEFT PRIOR TO DEPARTURE END OF RUNWAY. CTN, CRANE 1 POINT 6 NAUTICAL MILES, , AT 140 FEET AGL. CAUTION, BIRDS NEAR AIRPORT. ...ADVS YOU HAVE INFO A.\n[Departure ATIS] KOAK DEP ATIS O 1953Z OAK ATIS INFO O 1953Z. 28014KT 10SM FEW005 22/14 A2988 (TWO NINER EIGHT EIGHT). RNAV Z/VA RWY 30 ILS/VA RWY 28R. FLOW TO LAX, LAS, SAN. ILS RWY 30, OTS. UNN LIT CLOSE-IN OBSTACLES FOR RWY 30 DEPARTURES. RWY 30 DEPARTURES ARE ADVISED TO AVOID TURNING LEFT PRIOR TO DEPARTURE END OF RUNWAY. SIGNATURE UNI-COM OUT OF SERVICE. CAUTION, BIRDS NEAR AIRPORT. ...ADVS YOU HAVE INFO O.",
    "KDFW": "[Arrival ATIS] KDFW ARR ATIS B 1634Z DFW ARR INFO B 1634Z SPECIAL. 14003KT 10SM BKN026 BKN032 29/23 A2996 (TWO NINER NINER SIX) RMK AO2 T02890228. SIMUL APCH IN USE. EXPECT ILS TO RWYS, 13R, 18R, 17C, 17L. LDG RWY 17C EXP LAHSO TWY B 10460 FT AVAIL, LDG RWY 18R EXP LAHSO TWY B 10100 FT AVL. NOTICE TO AIRMEN. RWY 18L ILS OTS, CL OTS. HAZD WX FOR DFW AVBL ON FSS. BIRD ACTIVITY VCNTY ARPT. ...ADVS YOU HAVE INFO B.\n[Departure ATIS] KDFW DEP ATIS W 1553Z - KDFW DEP INFO W 1553Z. 21022G32KT 10SM FEW025 FEW180 SCT250 31/21 A2994 (TWO NINER NINER FOUR) RMK AO2 PK WND 20032/1547 SLP128 T03110206. SIMUL PARL TRAFFIC DEPG RWYS 17R, 18L. NOTICE TO AIRMEN. WARNING, RWY 18L HAS BEEN SHORTENED, 9273 FT AVAILABLE. RWY 18L CL OTS. BIRD ACTIVITY VCNTY ARPT. ...ADVS YOU HAVE INFO W.",
    "KIAH": "[Arrival ATIS] KIAH ARR ATIS H 1711Z IAH ATIS INFO H 1711Z SPECIAL. 04009KT 10SM TS FEW016 SCT035CB BKN055 OVC200 30/26 A2995 (TWO NINER NINER FIVE) RMK SHRA E-S OCNL LTGIC E-S TS E-S MOV N. ARRIVALS EXPECT ILS OR RNAV Y RY 8R, ILS OR RNAV Y RY 8L. SIMUL APPROACHES IN USE. DEPG RY 15L, RY 15R. NOTICE TO AIRMEN. UNITED RAMP CONTROL IN EFFECT. CODED DEPARTURE ROUTES IN EFFECT. HAZD WX INFO FOR IAH AREA AVBL FM FSS. BIRD ACTIVITY VICINITY ARPT. LAHSO RY8R. TWY SA CLSD BTN TWY, SG AND TWY SK , TWY SB CLSD BTN TWY, SG AND TWY SK , , TWY SG CLSD, TWY EA CLSD. NOTAM ATIS IN USE ON FREQUENCY 126.225. ...ADVS YOU HAVE INFO H.\n[Departure ATIS] KIAH DEP ATIS T 0353Z IAH ATIS INFO T 0353Z. 15007KT 10SM FEW035 FEW180 BKN250 27/23 A2996 (TWO NINER NINER SIX). ARRIVALS EXPECT ILS OR RNAV Y RY 8R, ILS OR RNAV Y RY 8L. DEPG RY 15R. NOTICE TO AIRMEN. UNITED RAMP CONTROL IN EFFECT. RY 15L, 33R CLSD. HAZD WX INFO FOR IAH AREA AVBL FM FSS. BIRD ACTIVITY VICINITY ARPT. CRANES ARE DOWN. TWY SA CLSD BTN TWY, SF AND TWY SK , TWY SB CLSD BTN TWY, SF AND TWY SK , , TWY WB CLSD BTN TWY, WG AND TWY WH . TWY EA CLSD. NOTAM ATIS IN USE ON FREQUENCY 126.225. ...ADVS YOU HAVE INFO T.",
    "KORD": "[Arrival ATIS] KORD ARR ATIS D 1851Z ORD ATIS INFO D 1851Z. 06007KT 10SM FEW018 FEW032 BKN250 27/18 A2993 (TWO NINER NINER THREE) RMK AO2 SLP132 T02720178. ARR EXP VECTORS ILS RWY 9L APCH, ILS PRM RWY 10C APCH, ILS PRM Y RY 10R APCH. CTN RY 10R LOC IS OFFSET 2.5 DEGREES. SIMUL APCHS IN USE. DEPS EXP RWYS 9C FROM F F 9200 FT AVL, 10L FROM DD. 10,093 FT AVBL. ATTN PILOTS. SIMUL PARL DEPS IN USE. EXP TO INITIALLY FLY RWY. HDG ON DEP. PILOTS MUST READ BACK DRCTN OF TURNS BY ATC. RWY 4L, 22R CLSD. RWY 22R LOC OTS, RWY 28L GS OTS, RWY 9L IM OTS, RWY 9C IM OTS, RWY 10L IM OTS, RWY 10R IM OTS, RWY 27R IM OTS, RWY 28L IM OTS, RWY 28R IM OTS, RWY 9L PAPI OTS, RWY 27R PAPI OTS. PILOTS USE CTN FOR BIRD ACTIVITY IN THE VICINITY OF THE ARPT. HAZD WX INFO FOR ORD AREA AVBL ON FSS. USE CTN FOR PERSONNEL AND EQUIP AT NUMEROUS SITES ON THE FIELD. READBACK ALL RWY HOLD SHORT INSTRUCTIONS. WHEN READY TO TAXI CONTACT GND METERING ON FREQ 121.67. ...ADVS YOU HAVE INFO D.\n[Departure ATIS] KORD DEP ATIS B 1651Z ORD ATIS INFO B 1651Z. 03008KT 10SM FEW018 SCT035 BKN070 BKN250 26/17 A2995 (TWO NINER NINER FIVE) RMK AO2 SLP137 T02560167. ARR EXP VECTORS ILS RWY 9L APCH, ILS PRM RWY 10C APCH, ILS PRM Y RY 10R APCH. CTN RY 10R LOC IS OFFSET 2.5 DEGREES. SIMUL APCHS IN USE. DEPS EXP RWYS 9C FROM F F 9200 FT AVL, 10L FROM DD. 10,093 FT AVBL. ATTN PILOTS. SIMUL PARL DEPS IN USE. EXP TO INITIALLY FLY RWY. HDG ON DEP. PILOTS MUST READ BACK DRCTN OF TURNS BY ATC. RWY 4L, 22R CLSD. RWY 22R LOC OTS, RWY 28L GS OTS, RWY 9L IM OTS, RWY 9C IM OTS, RWY 10L IM OTS, RWY 10R IM OTS, RWY 27R IM OTS, RWY 28L IM OTS, RWY 28R IM OTS, RWY 9L PAPI OTS, RWY 27R PAPI OTS. PILOTS USE CTN FOR BIRD ACTIVITY IN THE VICINITY OF THE ARPT. HAZD WX INFO FOR ORD AREA AVBL ON FSS. USE CTN FOR PERSONNEL AND EQUIP AT NUMEROUS SITES ON THE FIELD. READBACK ALL RWY HOLD SHORT INSTRUCTIONS. WHEN READY TO TAXI CONTACT GND METERING ON FREQ 121.67. ...ADVS YOU HAVE INFO B.",
    "KJFK": "[Arrival ATIS] KJFK ARR ATIS X 1651Z - KJFK ATIS INFO X 1651Z. 31015G24KT 10SM SCT065 SCT120 SCT250 27/09 A2976 (TWO NINER SEVEN SIX) RMK AO2 PK WND 29029/1556 SLP077 T02720094. APPROACH IN USE ILS RY 31R, VISUAL APCH RY 31L. DEPG RY 31L. RWY 22L/4R INNER MARKER OTS. NUM CRANES OPERATING AT JFK. BIRD ACTIVITY VICINITY ARPT. READBACK ALL RWY ASSIGNMENTS AND HOLD SHORT INSTRUCTIONS. ...ADVS YOU HAVE INFO X.\n[Departure ATIS] KJFK DEP ATIS Z 1651Z JFK ATIS INFO Z 1651Z. 34008G17KT 10SM FEW050 FEW095 FEW140 BKN250 30/18 A2983 (TWO NINER EIGHT THREE). APPROACH IN USE ILS RY 4R, ILS RY 4L. DEPG RY 4L. RY 31R PAPI OTS, RWY 22L/4R INNER MARKER OTS.RWY 31R PAPI OTS. USE CAUTION FOR A MALFUNCTIONING AMBER FLASHING LIGHT APPROACH END RUNWAY 22L. SWAP IN EFFECT EXPECT REROUTES. NUM CRANES OPERATING AT JFK. BIRD ACTIVITY VICINITY ARPT. READBACK ALL RWY ASSIGNMENTS AND HOLD SHORT INSTRUCTIONS. ...ADVS YOU HAVE INFO Z.",
    "KIND": "[Arrival ATIS] KIND ARR ATIS H 0154Z - KIND ATIS INFO H 0154Z. 30003KT 10SM FEW180 SCT250 27/18 A2996 (TWO NINER NINER SIX). PARL ILS RWY 5R AND 5L APPROACHES IN USE. DEPG RWYS 5L, 5R. CROSS RUNWAY OPERATIONS MAY BE IN EFFECT. NOTICE TO AIRMEN. TWY, P BTN TWY, H AND TWY B CLSD, TWY, P BTN TWY, H AND TWY J CLSD, TWY, H BTN TWY, R AND TWY N CLSD. P PAD CLSD. ILS RUNWAY 5R AND RUNWAY 5L INNER MARKER UNSERVICEABLE. ARPT ADZY FLOCK OF SMALL BIRDS IN THE VICINITY OF THE AIRPORT, ALT UNKN. ...ADVS YOU HAVE INFO H.\n[Departure ATIS] KIND DEP ATIS H 1854Z IND ATIS INFO H 1854Z. 26009G19KT 10SM SCT036 BKN041 BKN170 23/16 A2981 (TWO NINER EIGHT ONE) RMK AO2 SLP088 T02280156. PARL ILS RWY 23R AND 23L APPROACHES IN USE. CROSS RU",
    "KDTW": "[Arrival ATIS] KDTW ARR ATIS K 0953Z DTW ARR INFO K 0953Z. 05003KT 8SM SCT060 BKN140 OVC220 22/20 A2988 (TWO NINER EIGHT EIGHT). SIMUL VISUAL RY 21L, RY 22R USE Z LOC FREQ 111.95 APCH IN USE. NOTICE TO AIRMEN. RWY 21R, 3L CLSD, RWY 27L, 9R CLSD, RWY 27R, 9L CLSD. TWYS Y1 CLSD ;. HAZD WX INFO . CNVTV SIG 64 E, FOR MI , AND, OH . CNVTV SIG 59 E, FOR OH , AND MI AVBL ON FLIGHT SERVICE FREQS. PILOTS USE CTN FOR BIRD ACTIVITY. TWR AND GC COMB ON FREQ 135.0. DEPARTURE ATIS 118.125. ...ADVS YOU HAVE INFO K.\n[Departure ATIS] KDTW DEP ATIS Q 2253Z - KDTW DEP INFO Q 2253Z. 21009KT 10SM FEW050 FEW250 33/24 A2991 (TWO NINER NINER ONE). DEPG RWY 21R, RWY 22L ;. NOTICE TO AIRMEN. RWY 27L, 9R CLSD, RWY 27R, 9L CLSD. PILOTS USE CTN FOR BIRD ACTIVITY. ...ADVS YOU HAVE INFO Q.",
    "KMSP": "[Arrival ATIS] KMSP ARR ATIS G 1853Z MSP ARR INFO G 1853Z. 16007KT 10SM FEW050 BKN250 28/17 A2995 (TWO NINER NINER FIVE) RMK AO2 SLP135 T02830167. VISUAL RWY 12R APCH IN USE, VISUAL RWY 12L APCH IN USE. FINAL APCH, OVER NOISE SENSITIVE AREA. NOTICE TO AIRMEN. RWYS 4, 22 CLSD. TWY R7. R8. R9. R10. CLOSED. TWY R BTWN R6 AND R10 CLSD, USE CAUTION, NUMEROUS TAXIWAY CLOSURES, TWY A7 CLSD, TWY A CLSD BTN TWY, A7 AND TWY D, TWY L CLSD BTN TWY, L7 AND TWY L10, TWY K CLSD BTN TWY, K1 AND TWY K3. ILS RWY 12R OTS, GS RWY 12L OTS, RWYS 12R, 12L, INNER MARKER OTS. AUTHORIZED DRONE OPERATING IN RUNUP PAD NEAR TERMINAL 2. HAZD WX INFO FOR MSP AREA AVBL FM FSS. CTN, BIRDS NEAR MSP. READ BACK HS AND ALT. ALL ACFT TAXI WITH TRANSPONDER AND ALTITUDE ENCODING ON. ADVISE TOWER OF GATE ON INITIAL CONTACT. ...ADVS YOU HAVE INFO G.\n[Departure ATIS] KMSP DEP ATIS Z 1353Z MSP DEP INFO Z 1353Z. 04003KT 10SM BKN250 25/16 A2993 (TWO NINER NINER THREE). DEPARTING RWY 12L, RWY 12R, RWY 17. NOTICE TO AIRMEN. RWYS 4, 22 CLSD. TWY R7. R8. R9. R10. CLOSED. TWY R BTWN R6 AND R10 CLSD, USE CAUTION, NUMEROUS TAXIWAY CLOSURES, TWY A7 CLSD, TWY A CLSD BTN TWY, A7 AND TWY D, TWY L CLSD BTN TWY, L7 AND TWY L10, TWY K CLSD BTN TWY, K1 AND TWY K3. ALL ACFT CTC METERING ON ONE THREE THREE POINT FIVE SEVEN WHEN READY TO PUSHBACK OR TAXI. HAZD WX INFO FOR MSP AREA AVBL FM FSS. CTN, BIRDS NEAR MSP. READ BACK HS AND ALT. ALL ACFT TAXI WITH TRANSPONDER AND ALTITUDE ENCODING ON. ...ADVS YOU HAVE INFO Z.",
    "CYEG": "[Arrival ATIS] CYEG ARR ATIS P 1900Z CYEG ARR ATIS P 1900Z 15006KT 070V180 20SM CIG BKN030 21/14 A2978 APCH RNAV Z OR Y RWY 02, INFORM ARRL OF REQ APCH ON INITIAL CTC. LDG AND DEP RWY 02. SIMUL APPROACHES MAY BE IN EFCT. INFORM CYEG ATC INFO P\n[Departure ATIS] CYEG DEP ATIS O 1900Z CYEG ARR ATIS O 1900Z 15006KT 070V180 20SM CIG BKN030 21/14 A2978 APCH RNAV Z OR Y RWY 02, INFORM ARRL OF REQ APCH ON INITIAL CTC. LDG AND DEP RWY 02. RSC 02 5/5/5 75 PCT WET, 40 PCT WET, 80 PCT WET. VALID JUL 10 1604 - JUL 11 0004. SIMUL APPROACHES MAY BE IN EFCT. INFORM CYEG ATC INFO O",
    "EHAM": "[Arrival ATIS] EHAM ARR ATIS I 1520Z EHAM ARRIVAL INFO I. DEMAND. MAIN LANDING RWY 06. SECONDARY LANDING RWY 36 R. TRANSITION LEVEL 040. WIND 060 DEG, 12 KT, VRB BTN 030 AND 100 DEG. WIND SECONDARY RUNWAY 070 DEG, 9 KT, VRB BTN 340 AND 110 DEG, 15 KT MAX, 5 KT MNM. CAVOK. T 26. DP 15. QNH 1019 HPA. NOSIG. OPERATIONAL REPORT. CONVERGING APPROACHES IN PROGRESS. CONTACT APCH WITH CALLSIGN ONLY. END OF INFO I\n[Departure ATIS] EHAM DEP ATIS Y 1320Z EHAM DEPARTURE INFO Y. DEMAND. MAIN DEPARTURE RWY 36 L. MAIN LANDING RWY 06. WIND 050 DEG, 10 KT, VRB BTN 280 AND 100 DEG. CAVOK. T 26. DP 14. QNH 1019 HPA. OPERATIONAL REPORT. INDEPENDENT PARALLEL DEPARTURES IN PROGRESS CHECK CORRECT SID IN FMS. INFORM SCHIPHOL DEL BY VOICE IF UNABLE TO COMPLY WITH NADP 2. END OF INFO Y",
    "EBBR": "[Arrival ATIS] EBBR ARR ATIS F 1820Z EBBR NAT, EXP VECT FOR ILS APP ARR RWY01 RSCD AT 1548 RWY01 DRY. DEP RWY07R TRL 055 XNG RWY OPS INPR 050/11KT CAVOK T26 DP14 QNH 1017HPA NOSIG CFM ARR F\n[Departure ATIS] EBBR DEP ATIS A 1020Z EBBR NAT, DEP RWY07R RSCD AT 0634 RWY07R DRY. ARR RWY01 TRL 055 XNG RWY OPS INPR 030/8KT VRB BTN 010 AND 080 CAVOK T24 DP16 QNH 1018HPA NOSIG CFM DEP A",
    "EDDF": "[Arrival ATIS] EDDF ARR ATIS L 0550Z ARR-ATIS EDDF L METAR 090550 EXPECT INDEPENDENT PARALLEL ILS Z APCH RWY 25R OR ILS APCH RWY 25L RWY 25R 25L GLS APCH ON REQUEST , DO NOT MISTAKE TWY M FOR RWY 25C WHEN PERFORMING VISUAL APPROACH , TRL 60 VRB02KT CAVOK T20 DP15 QNH1018 TREND NOSIG END OF ATIS L\n[Departure ATIS] EDDF DEP ATIS N 1920Z DEP-ATIS EDDF N METAR 101920 RWY 07C 18 ACFT DEPARTING RWY18 : EXPECT POSSIBLE DEPARTURE FROM INTERSECTION M , TORA 3454 METERS. IF UNABLE , ADVISE TWR ON INITIAL CONTACT , TRL 60 ATTN: BIRDS IN THE VICINITY OF THE RUNWAYS 02014KT RWY18 03011KT CAVOK T27 DP10 QNH1015 TREND NOSIG",
    "EDDL": "[Arrival ATIS] EDDL ARR ATIS J 1350Z -ATIS EDDL J METAR 101350 -EXPECT VECTORS ILS APPROACH -RWY 05R -TWY L2 , L4 AND L5 BTN TWY M AND RWY05R CLOSED ILS RWY05R CAT1 ONLY -TRL 60 - -05012KT 020V080 -CAVOK - - -T29 DP13 -QNH1017 - -TREND NOSIG\n[Departure ATIS] EDDL DEP ATIS R EDDL ARR/DEP DATIS RPT -ATIS EDDL R METAR 020550 -EXPECT VECTORS ILS APPROACH -RWY 23L -TWY L8 CLOSED BETWEEN TWY M AND RWY 23L -TRL 60 - -23010KT -CAVOK - - -T19 DP13 -QNH1020 - -TREND NOSIG",
    "EDDK": "[Arrival ATIS] EDDK ARR ATIS D 1350Z ATIS EDDK D METAR 101350 EXPECT ILS APCH RWY 31R 06 RWY COND RWY 31R AT TIME 1320 RWYCC 6 DEPOSIT TOTAL RWY DRY RWY 06 AT TIME 1320 RWYCC 6 DEPOSIT TOTAL RWY DRY TRL 60 RWY 13R AND RWY 31L CLOSED FOR DEPARTURE AND LANDING: TAXIING BTN THR RWY 13R AND INTERSECTION RWY 24 POSSIBLE : 04009KT 320V090 CAVOK T30 DP13 QNH1016 TREND NOSIG\n[Departure ATIS] EDDK DEP ATIS Q EDDK ARR/DEP DATIS RPT -ATIS EDDK Q METAR 291920 -EXPECT ILS APCH -RWY 31R 06 -RWY COND RWY 31R AT TIME 1830 RWYCC 6 DEPOSIT TOTAL RWY DRY RWY 06 AT TIME 1830 RWYCC 6 DEPOSIT TOTAL RWY DRY -TRL 60 -RWY 13R AND RWY 31L CLOSED FOR DEPARTURE AND LANDING: TAXIING BTN THR RWY 13R AND INTERSECTION RWY 24 POSSIBLE : -04003KT -CAVOK - - -T24 DP13 -QNH1024 - -TREND NOSIG",
    "EBLG": "[Arrival ATIS] EBLG ATIS L 1920Z EBLG INFO, ARR RWY04R DEP RWY04R RWY 04R DRY, RWYCC 666. TRL 055 ADZ ON GND FREQ IF UNABLE S2 030/7KT CAVOK T24 DP12 QNH 1017HPA NOSIG CFM ATIS L",
    "LSZH": "[Arrival ATIS] LSZH ARR ATIS B 1520Z ARRIVALS, EXP ILS APCH, RWY 14. TRL 70. DEP RWY 28. WIND 080 DEG, 7 KT, VRB BTN 040 AND 130 DEG. CAVOK. T 32. DP 12. QNH 1014. NOSIG.\n[Departure ATIS] LSZH DEP ATIS R 1520Z DEP RWY 28. TRL 70. ARRIVALS, EXP ILS APCH, RWY 14. TMA S 1 IS NOT ACT. TMA S 2 AND S 3 ARE NOT ACT. WIND 080 DEG, 7 KT, VRB BTN 040 AND 130 DEG. CAVOK. T 32. DP 12. QNH 1014. NOSIG.",
    "LIMC": "[Arrival ATIS] LIMC ARR ATIS U 1450Z LIMC ARR U 1450Z I.L.S. ZULU RWY IN USE 35R TL 75 WIND TDZ 170/3KT VRB BTN 100/AND 200/ CAVOK T34 DP15 QNH 1013HPA QFE 0987HPA\n[Departure ATIS] LIMC DEP ATIS O 1345Z LIMC DEP O 1345Z RWY IN USE 35L TL 75 WIND END 200/12KT VRB BTN 140/AND 280/ CAVOK T33 DP12 QNH 1013HPA QFE 0987HPA DATALINK CLEARANCE AVAILABLE.... CONTACT 1 3 1 8 8 0 TO BE RELEASED BY THE AIRPORT OPERATOR ...",
    "LIRF": "[Arrival ATIS] LIRF ARR ATIS T 0550Z LIRF ARR T 0550Z RWY 16L ILS W RWY 16R ILS Z RWY IN USE 16L 16R TL 75 DEPENDENT PARL ILS APCH INPR RWY IN USE 16R OR 16L ASSIGNED BY ROME RADAR WIND RWY 16L TDZ 020/3KT VRB BTN 340/AND 060/ RWY 16R TDZ 050/3KT VRB BTN 360/AND 090/ CAVOK T25 DP19 QNH 1010HPA\n[Departure ATIS] LIRF DEP ATIS V 0608Z LIRF DEP V 0608Z RWY IN USE 25 TL 75 RWYS IN USE FOR ARR 16L AND 16R WIND END 090/6KT CAVOK T28 DP20 QNH 1012HPA REA IS SENT AUTOMATICALLY ONCE RLSD BY RAMP WHEN READY CONTACT FIUME RAMP 121.725 RRSM",
    "EINN": "[Arrival ATIS] EINN ARR ATIS Y 1900Z EXPECT I L S CATEGORY 1 LDG RWY06 TKOF RWY06 TRL FL060 35009KT CAVOK 25/17 QNH Q1019 TREND NOSIG ADVISE AT FIRST CONTACT YOU HAVE ATIS INFO Y",
    "EGLL": "[Arrival ATIS] EGLL ARR ATIS O 1720Z LANDING RWY 27L TRANSITION-LEVEL: FL 70 IF STAND GUIDANCE IS OFF OR FAILS, REMAIN ON THE TAXIWAY CENTRELINE AND ADVISE ATC AUTO 21004KT 160V230 9999 NCD 25/17 Q1020 ACKNOWLEDGE RECEIPT OF INFORMATION O\n[Departure ATIS] EGLL DEP ATIS P 1520Z DEPARTURE RWY 09R PILOTS THAT ARE IN RECEIPT OF DATALINK CLEARANCES ARE REMINDED THEY MUST CONTACT DELIVERY ON 121.980 WHEN READY FOR START DATALINK CLEARANCES NOT AVAILABLE FOR CPT DEPARTURES AUTO 09014KT 070V170 9999 NCD 29/14 Q1017 ACKNOWLEDGE RECEIPT OF INFORMATION P AND REPORT AIRCRAFT TYPE AND CURRENT QNH ON FIRST CONTACT WITH HEATHROW",
    "EPWA": "[Arrival ATIS] EPWA ARR ATIS M 0525Z EPWA ARR M. TIME 0523. EXP U ARR ILS Z APCH FOR RWY 33. RWY 33 RCC 5, 5, 5. 1ST PART, WET. 2ND PART, WET. 3RD PART, WET. RWY REPORT END. TRANSITION LEVEL 80. WIND 300 DEG, 9 KT, VRB BTN 270 AND 330 DEG. VIS TDZ 10 KM OR MORE. WX FBL SHRA. CLD FEW 1400 FT, CLD SCT CB 4300 FT. T 14. DP 12. QNH 1008. NOSIG. CAUTION. BIRD ACT LIGHT ICING REPORTED BTN FL 120 AND FL 140. END OF EPWA ARR M\n[Departure ATIS] EPWA DEP ATIS T 1758Z EPWA DEP T. TIME 1758. DEP RWY 29. ARR RWY 33, EXP U ARR ILS Z. REPORT READY FOR STARTUP ON DELIVERY 121 DECIMAL 605. RWY 29 RCC 6, 5, 6. 1ST PART, DRY. 2ND PART, WET. 3RD PART, DRY. RWY REPORT END. TRANSITION LEVEL 80. WIND 330 DEG, 12 KT. VIS MID 10 KM OR MORE. CLD FEW 3000 FT. T 17. DP 14. QNH 1013. NOSIG. MOD ICING REPORTED BTW FL 135 AND FL 150 CAUTION. BIRD ACT. END OF EPWA DEP T",
    "EFHK": "[Arrival ATIS] EFHK ARR ATIS G 1450Z EXPECT ILS APCH ARR RWY 22L RUNWAY 22L CONDITION REPORT AT 1413 UTC RUNWAY CONDITION CODES 6 , 6 , 6 CONTAMINANTS ALL PARTS DRY TRL 60 WIND 090 DEG 5 KT VRB BTN 060 AND 120 DEG VIS 10KM FEW 4100 FT T 21 DP 11 QNH 1018 NOSIG ACK INFO G\n[Departure ATIS] EFHK DEP ATIS H 1620Z DEP RWYS 22R AND 22L RUNWAY 22R CONDITION REPORT AT 1329 UTC RUNWAY CONDITION CODES 6 , 6 , 6 CONTAMINANTS ALL PARTS DRY RUNWAY 22L CONDITION REPORT AT 1330 UTC RUNWAY CONDITION CODES 6 , 6 , 6 CONTAMINANTS ALL PARTS DRY WIND 110 DEG 6 KT VIS 10KM FEW 1400 FT. SCT 1600 FT. FEW TCU 2800 FT T 19 DP 15 QNH 1003 TEMPO CLD FEW CB 3000 FT. ACK INFO H",
    "LTAC": "[Arrival ATIS] LTAC ARR ATIS B 0420Z EXP ILS V APCH 03C DEP RWY 03L RWY 03C WIND VRB 02 KT RWY 03L WIND VRB 01 KT TRL 115 CAVOK T 16 DP 09 QNH 1011 NOSIG FOR DELIVERY CTC 121.9. FOR DELIVERY FIRST USE DIGITAL DEP CLR. CTN BIRD HAZARD OVR AERODROME. APCH FREQUENCY 129.050. TAXIWAY ECHO 1 IS CLOSED. END OF ATIS B",
    "UBBB": "[Arrival ATIS] UBBB ARR ATIS A 1930Z ATIS A EXP ILS/ LDG 16 17 DEP 16 17 IN USE RWY 16 CLEAR DRY 70 RWY 17 CLEAR DRY 70 TLVL 110 WIND WIND RWY 16 CALM WIND RWY 17 250 2 KT SPD MAX 6 MIN 2 VIS CAVOK T 26 / DP 20 QNH 1009 HPA TREND TREND NOSIG MODERATE BIRDS ACT IN VICINITY OF AP END OF ATIS A\n[Departure ATIS] UBBB DEP ATIS P 1400Z ATIS P EXP ILS/ LDG 16 17 DEP 16 17 IN USE RWY 16 CLEAR DRY 70 RWY 17 CLEAR DRY 70 TLVL 110 WIND WIND RWY 16 160 8 KT SPD MAX 10 MIN 6 WIND RWY 17 180 6 KT SPD MAX 10 MIN 4 VIS CAVOK T 29 / DP 20 QNH 1008 HPA TREND TREND NOSIG MODERATE BIRDS ACT IN VICINITY OF AP END OF ATIS P",
    "ZWWW": "[Arrival ATIS] ZWWW ARR ATIS P 1717Z EXP ILSDME Z APCH LDG RWY 26L TA 3000 WIND 290/3MPS CAVOK T 30 /DP 07 QNH 1009 HPA ADZ YOU HAVE INFO P.\n[Departure ATIS] ZWWW DEP ATIS K 1630Z DEP RWY 26L TA 3000 WIND 260/4MPS CAVOK T 31 /DP 07 QNH 1009 HPA ADZ YOU HAVE INFO K.",
    "ZLXY": "[Arrival ATIS] ZLXY ARR ATIS F 1000Z EXP ILS APCH LDG RWY 05L & 06R WIND 030/3MPS VIS 9999M CLD FEW 1500M T 36 /DP 22 QNH 996 HPA VISUAL APPROACH IN PROGRESS ADZ YOU HAVE INFO F.\n[Departure ATIS] ZLXY DEP ATIS T 1200Z DEP RWY 23R & 24R WIND 230/3MPS CAVOK T 20 /DP 18 QNH 1012 HPA VISUAL APPROACH IN PROGRESS ADZ YOU HAVE INFO T.",
    "ZBAA": "[Arrival ATIS] ZBAA ARR ATIS O 1700Z EXP ILS APCH DEPENDENT PARL INSTR APCH LDG RWY 36L & 36R RWY 01 IS CLSD WIND 340 DEG 2 MPS CAVOK T 17 /DP 11 QNH 1010 HPA VISUAL APPROACH IS IN PROGRESS. ADZ YOU HAVE INFO O.\n[Departure ATIS] ZBAA DEP ATIS N 1630Z DEP RWY 36L & 36R RWY 01 IS CLSD WIND 350 DEG 3 MPS CAVOK T 17 /DP 11 QNH 1010 HPA RWY INDEPENDENT PARALLEL DEP VISUAL APPROACH IS IN PROGRESS. ADZ YOU HAVE INFO N.",
    "ZBHH": "[Arrival ATIS] ZBHH ARR ATIS X 0300Z EXP ILSDME APCH LDG RWY 26 TA 3000 /TRL 3600 WIND 340/5MPS CAVOK T 16 /DP 01 QNH 1016 HPA ADZ YOU HAVE INFO X.\n[Departure ATIS] ZBHH DEP ATIS Q 1500Z DEP RWY 08 TA 3000 /TRL 3600 WIND 140/2MPS VIS 5000M BR NSC T 19 /DP 19 QNH 1007 HPA ADZ YOU HAVE INFO Q.",
    "ZSQD": "[Arrival ATIS] ZSQD ARR ATIS J 1100Z EXP ILSDME APCH LDG RWY 35 TA 3000 /TRL 3600 WIND 360/3MPS CAVOK T 28 /DP 17 QNH 1005 HPA SEGREGATED OPERATION VISUAL APPROACH OPERATION IN PROGRESS. WHEN READY CONTACT QINGDAO TOWER ON 118.7 RUNWAY 35,IF MISSED APPROACH,EXPECT FOLLOW THE STANDARD MISSED APPROACH PROCEDURE,CLIMB TO 1200M ON QNH OR BY ATC CAUTION MAYBE THERE IS A FLOCK OF BIRDS IN THE VICINITY OF AIRPORT ADZ YOU HAVE INFO J.\n[Departure ATIS] ZSQD DEP ATIS Z 0400Z DEP RWY 34 TA 3000 /TRL 3600 WIND 290/4MPS VIS 9999M CLD BKN 1200M T 29 /DP 18 QNH 1003 HPA SEGREGATED OPERATION VISUAL APPROACH OPERATION IN PROGRESS. RUNWAY 35,IF MISSED APPROACH,EXPECT FOLLOW THE STANDARD MISSED APPROACH PROCEDURE,CLIMB TO 1200M ON QNH OR BY ATC CAUTION MAYBE THERE IS A FLOCK OF BIRDS IN THE VICINITY OF AIRPORT ADZ YOU HAVE INFO Z."
  },
  "windtemp_alaska": "\n000\nFBAK31 KWNO 101359\nFD1AK1\nDATA BASED ON 101200Z    \nVALID 101800Z   FOR USE 1400-2100Z. TEMPS NEG ABV 24000\n\nFT  3000    6000    9000   12000   18000   24000  30000  34000  39000\nADK 3115 2921+07 2626+01 2536-03 2454-15 2369-25 732236 733745 741453\nADQ 3307 0109+05 0609+02 0412-03 0527-14 0320-26 334842 336650 324754\nAKN 0705 9900+06 1607+02 1507-02 2205-13 2924-24 293941 294650 293957\nANC 9900 0511+08 0612+02 0711-03 0710-15 1109-27 161543 161453 010756\nANN 1510 1505-01 1505-06 1106-12 0914-24 0822-36 091943 120742 190742\nBET 1614 1517+03 1617+00 1719-04 2118-14 2422-25 244142 254852 242754\nBRW 2211 2120+03 2122-03 2226-08 2329-19 2431-31 263447 253054 242146\nBTI 9900 2406+08 2413+01 2518-06 2518-18 2429-30 244046 245155 243052\nBTT 2408 2309+08 2113+02 2214-05 2317-17 2226-29 214146 215854 222651\nCDB 2328 2424+11 2528+06 2528+01 2535-11 2646-23 276637 770346 771058\nCZF 1411 1416+02 1518-02 1517-06 2021-15 2227-28 224543 224552 232850\nEHM 1514 1521+05 1626+00 2022-02 2335-12 2331-24 243341 244852 254054\nFAI 9900 9900+08 9900+02 9900-04 1810-16 1816-27 202644 202953 211758\nFYU 9900 9900+10 0505+03 9900-04 2314-16 2315-27 233144 233254 232458\nGAL 2305 2112+06 2111+00 2015-05 2121-17 2220-30 242246 252452 242150\nGKN 3505 0620+08 0617+03 0716-03 0814-15 0718-26 081943 082053 021059\nHOM 0213 0210+08 0407+02 0305-03 0312-15 3515-27 291543 320952 322053\nJNU 9900 3512+03 0218-01 0319-06 0526-19 0631-31 064346 064052 051947\nLUR 2121 2222+02 2122-03 2119-06 2124-19 2127-31 223246 232953 221846\nMCG 0608 0707+06 1212+00 1409-03 2015-16 2020-29 261944 282752 251952\nMDO 3408 3605+06 3605+02 3605-04 0518-16 0624-27 073044 062653 022253\nOME 1707 1806+03 1907-03 2011-07 1825-19 1924-29 182545 212551 222248\nORT      0308+08 0516+02 0617-03 0517-16 0622-27 062644 062954 051859\nOTZ 2011 2310+02 2211-02 2213-06 2023-18 2123-30 222246 232254 231948\nSNP 0611 1916+07 2125+03 2029-02 2136-14 2243-25 235441 236249 235448\nTKA 0513 0512+08 0708+02 0909-03 1105-16 1510-27 172443 182453 990056\nUNK 9900 1707+04 1915+00 1918-05 1921-17 2024-29 222745 243552 242450\nYAK 9900 0306+06 0314+00 0519-05 0423-18 0429-30 053746 043253 032251\nIKO 2334 2336+10 2339+08 2444+02 2459-11 2473-21 259835 750344 750756\nAFM 2907 2310+03 2115-01 2119-05 2220-18 2321-31 241847 241752 231948\n5AB 2520 2519+04 2619-01 2719-05 3021-16 3224-27 352144 281849 262846\n5AC 3413 3312-02 3112-05 3113-10 3216-24 2820-37 262443 272041 281540\n5AD 2711 2508+03 3009-03 3008-08 3325-20 3333-33 325442 325144 334246\n5AE 2812 2812+07 2815+03 2915-02 3035-12 3138-23 305938 308148 307658\n5AF 3316 3512+01 0113-04 0418-10 0531-20 0642-32 064847 053950 041344\n5AG 3307 3408+06 0211+00 0413-07 0722-19 0628-29 063245 052752 042349\n",
  "vaac_tokyo": [
    {
      "id": "20260710_30027000_0259",
      "year": "2026",
      "volcano": "Sheveluch",
      "psn": "N5639 E16122",
      "issued": "20260710",
      "text": "FVFE01 RJTD 101800\nVA ADVISORY\nDTG: 20260710/1800Z\nVAAC: TOKYO\nVOLCANO: SHEVELUCH 300270\nPSN: N5639 E16122\nAREA: RUSSIA\nSOURCE ELEV: 3283M AMSL\nADVISORY NR: 2026/259\nINFO SOURCE: HIMAWARI-9\nERUPTION DETAILS: VA CONTINUOUSLY OBS IN SATELLITE IMAGERY\nOBS VA DTG: 10/1720Z\nOBS VA CLD: SFC/FL280 N4137 E15914 - N3704 E16500 - N3619 E16500 - \nN4012 E15902 MOV SE 80KT\nFCST VA CLD +6 HR: 10/2320Z SFC/FL290 N3847 E17105 - N3650 E17105 - \nN3650 E16123 - N3824 E16116 - N3802 E16717\nFCST VA CLD +12 HR: 11/0520Z SFC/FL300 N4506 E17545 - N4024 E17443 - \nN3616 E16653 - N3617 E16433 - N4118 E17206 - N4449 E17405\nFCST VA CLD +18 HR: NO VA EXP\nRMK: SOME PART OF VA OBSCURED BY MET CLOUD.\nNXT ADVISORY: 20260711/0000Z=",
      "img_url": "https://ds.data.jma.go.jp/svd/vaac/data/VAGFN/2026/Images/20260710_30027000_0259_QH21_01.png",
      "sat_img_url": "https://ds.data.jma.go.jp/svd/vaac/data/Sat/2026/Images/30027000/09-ir/20260710_1720_202607101800_ir.png",
      "text_url": "https://ds.data.jma.go.jp/svd/vaac/data/TextData/2026/20260710_30027000_0259_Text.html"
    },
    {
      "id": "20260706_27202000_0232",
      "year": "2026",
      "volcano": "Kanlaon",
      "psn": "N1025 E12308",
      "issued": "20260706",
      "text": "FVFE01 RJTD 061545\nVA ADVISORY\nDTG: 20260706/1545Z\nVAAC: TOKYO\nVOLCANO: KANLAON 272020\nPSN: N1025 E12308\nAREA: PHILIPPINES\nSOURCE ELEV: 2435M AMSL\nADVISORY NR: 2026/232\nINFO SOURCE: HIMAWARI-9 PHIVOLCS\nERUPTION DETAILS: ERUPTION AT 20260706/1520Z FL100 EXTD SW REPORTED\nOBS VA DTG: 06/1530Z\nOBS VA CLD: VA NOT IDENTIFIABLE FM SATELLITE DATA WIND FL100 350/5KT\nFCST VA CLD +6 HR: NOT AVBL\nFCST VA CLD +12 HR: NOT AVBL\nFCST VA CLD +18 HR: NOT AVBL\nRMK: WE WILL ISSUE FURTHER ADVISORY IF VA IS DETECTED IN SATELLITE \nIMAGERY.\nNXT ADVISORY: NO FURTHER ADVISORIES=",
      "img_url": "https://ds.data.jma.go.jp/svd/vaac/data/VAGFN/2026/Images/20260706_27202000_0232_QH21_01.png",
      "sat_img_url": null,
      "text_url": "https://ds.data.jma.go.jp/svd/vaac/data/TextData/2026/20260706_27202000_0232_Text.html"
    },
    {
      "id": "20260705_27303000_0717",
      "year": "2026",
      "volcano": "Mayon",
      "psn": "N1315 E12341",
      "issued": "20260705",
      "text": "FVFE01 RJTD 051936\nVA ADVISORY\nDTG: 20260705/1936Z\nVAAC: TOKYO\nVOLCANO: MAYON 273030\nPSN: N1315 E12341\nAREA: PHILIPPINES\nSOURCE ELEV: 2462M AMSL\nADVISORY NR: 2026/717\nINFO SOURCE: HIMAWARI-9 PHIVOLCS\nERUPTION DETAILS: ERUPTION AT 20260705/1914Z FL090 EXTD WSW REPORTED\nOBS VA DTG: 05/1920Z\nOBS VA CLD: VA NOT IDENTIFIABLE FM SATELLITE DATA WIND FL090 050/8KT\nFCST VA CLD +6 HR: NOT AVBL\nFCST VA CLD +12 HR: NOT AVBL\nFCST VA CLD +18 HR: NOT AVBL\nRMK: WE WILL ISSUE FURTHER ADVISORY IF VA IS DETECTED IN SATELLITE \nIMAGERY.\nNXT ADVISORY: NO FURTHER ADVISORIES=",
      "img_url": "https://ds.data.jma.go.jp/svd/vaac/data/VAGFN/2026/Images/20260705_27303000_0717_QH21_01.png",
      "sat_img_url": null,
      "text_url": "https://ds.data.jma.go.jp/svd/vaac/data/TextData/2026/20260705_27303000_0717_Text.html"
    },
    {
      "id": "20260701_30006000_0001",
      "year": "2026",
      "volcano": "Mutnovsky",
      "psn": "N5227 E15812",
      "issued": "20260701",
      "text": "FVFE01 RJTD 012206\nVA ADVISORY\nDTG: 20260701/2206Z\nVAAC: TOKYO\nVOLCANO: MUTNOVSKY 300060\nPSN: N5227 E15812\nAREA: RUSSIA\nSOURCE ELEV: 2288M AMSL\nADVISORY NR: 2026/1\nINFO SOURCE: KVERT KBGS UHPP HIMAWARI-9\nERUPTION DETAILS: ERUPTION AT 20260701/2016Z FL170 EXTD W REPORTED\nOBS VA DTG: 01/2140Z\nOBS VA CLD: VA NOT IDENTIFIABLE FM SATELLITE DATA WIND FL170 120/8KT\nFCST VA CLD +6 HR: NOT AVBL\nFCST VA CLD +12 HR: NOT AVBL\nFCST VA CLD +18 HR: NOT AVBL\nRMK: WE WILL ISSUE FURTHER ADVISORY IF VA IS DETECTED IN SATELLITE \nIMAGERY.\nNXT ADVISORY: NO FURTHER ADVISORIES=",
      "img_url": "https://ds.data.jma.go.jp/svd/vaac/data/VAGFN/2026/Images/20260701_30006000_0001_QH21_01.png",
      "sat_img_url": null,
      "text_url": "https://ds.data.jma.go.jp/svd/vaac/data/TextData/2026/20260701_30006000_0001_Text.html"
    }
  ],
  "vaac_alaska": [
    {
      "text": "\n000\nFVAK21 PAWU 101902\nVAAAK1\nVA ADVISORY\n\nDTG: 20260710/1859Z\n\nVAAC: ANCHORAGE\n\nVOLCANO: SHEVELUCH 300270\n\nPSN: N5639 E16122\n\nAREA: KAMCHATKA PENINSULA\n\nSOURCE ELEV: 10771 FT AMSL\n\nADVISORY NR: 2026/191\n\nRMK: PLEASE SEE FVFE01 RJTD ISSUED BY VAAC TOKYO WHICH DESCRIBES\nCONDITIONS NEAR THE VAAC ANCHORAGE AREA OF RESPONSIBILITY...PD\n\n\n\n",
      "issued": "2026-07-10T19:02:00+00:00",
      "volcano": "Sheveluch",
      "psn": "N5639 E16122"
    }
  ]
}