{
  "updated_utc": "2026-07-18T21:12Z",
  "metar": {
    "RJAA": "METAR RJAA 181930Z AUTO 15003KT 9999 NCD 23/22 Q1008 NOSIG",
    "PANC": "SPECI PANC 181926Z 27006KT 10SM -RA BKN010 OVC017 10/09 A3006 RMK AO2 P0001 T01000089",
    "PAFA": "METAR PAFA 181953Z 00000KT 10SM FEW030 FEW070 BKN110 15/09 A2994 RMK AO2 SLP142 T01500094 $",
    "PAED": "METAR PAED 181955Z 26007KT 10SM -RA OVC009 11/09 A3005 RMK AO2A SLP172 P0000 T01080085 $",
    "KSEA": "METAR KSEA 181953Z COR 26007KT 10SM FEW012 SCT046 21/11 A3017 RMK AO2 SLP222 T02060106 $",
    "ZSPD": "METAR ZSPD 181930Z 14003MPS CAVOK 27/27 Q1001 NOSIG",
    "ZSSS": "METAR ZSSS 181930Z 01001MPS CAVOK 28/25 Q1002 NOSIG",
    "RJFR": "METAR RJFR 182000Z AUTO 35006KT 9999 NSC 27/26 Q1005",
    "VHHH": "METAR VHHH 181930Z 20006KT 9999 FEW010 30/25 Q1005 NOSIG",
    "RCTP": "METAR RCTP 181930Z 22008KT 9999 FEW020 27/24 Q1005 NOSIG RMK A2970",
    "ZGSZ": "METAR ZGSZ 182000Z 16004MPS 9999 FEW020 28/27 Q1005 NOSIG",
    "WSSS": "METAR WSSS 181930Z VRB02KT 9999 FEW018 BKN300 27/25 Q1011 NOSIG",
    "WMKK": "METAR WMKK 181930Z 00000KT 9000 FEW017CB 26/24 Q1010 NOSIG",
    "WIDD": "METAR WIDD 181930Z AUTO 23002KT 9999 NCD 26/25 Q1011 NOSIG",
    "VTBS": "METAR VTBS 181930Z 24005KT 9999 FEW020 29/25 Q1009 NOSIG",
    "VTBU": "METAR VTBU 181930Z 23005KT 8000 FEW020 29/29 Q1009 NOSIG",
    "ROAH": "METAR ROAH 181930Z AUTO 21004KT 9000 BKN004 27/27 Q1006",
    "VVDN": "METAR VVDN 181930Z 24001KT CAVOK 30/22 Q1005 NOSIG",
    "RCKH": "METAR RCKH 182000Z 07004KT 9999 FEW015 SCT025 26/24 Q1007 NOSIG RMK A2975",
    "KLAX": "METAR KLAX 181953Z 27010KT 10SM FEW120 FEW170 25/18 A2998 RMK AO2 SLP149 ACSL DSNT NE T02500178 $",
    "KONT": "METAR KONT 181953Z 30007KT 10SM FEW120 FEW200 33/13 A2997 RMK AO2 SLP128 T03280133 $",
    "KSFO": "METAR KSFO 181956Z 32015KT 10SM FEW022 21/13 A3003 RMK AO2 SLP167 T02110128 $",
    "KOAK": "METAR KOAK 181953Z 28010KT 10SM FEW009 FEW012 19/13 A3004 RMK AO2 SLP172 T01890133",
    "KMHR": "METAR KMHR 181915Z AUTO VRB05KT 10SM CLR 26/12 A2998 RMK AO2 T02640118 $",
    "KDFW": "METAR KDFW 181953Z 18014G18KT 10SM FEW050 BKN250 34/21 A3001 RMK AO2 SLP150 T03390206 $",
    "KIAH": "METAR KIAH 181953Z 18007KT 10SM FEW050 BKN250 35/23 A3005 RMK AO2 SLP173 T03500233 $",
    "KORD": "METAR KORD 181951Z 34011G14KT 10SM SCT042 BKN065 BKN080 BKN250 32/21 A2985 RMK AO2 SLP101 T03170211 $",
    "KJFK": "SPECI KJFK 181929Z 18015KT 3SM -TSRA FU FEW005 BKN060CB OVC110 23/22 A2981 RMK AO2 FRQ LTGIC S TS S MOV E FU BKN060 P0001 T02280217 $",
    "KRFD": "METAR KRFD 181954Z 31010G23KT 10SM FEW046 32/18 A2990 RMK AO2 SLP119 T03170178 $",
    "KIND": "METAR KIND 181954Z 27014G25KT 10SM SCT050 BKN060 33/22 A2988 RMK AO2 PK WND 27031/1906 SLP110 T03330217 $",
    "KDTW": "METAR KDTW 181953Z 27017G28KT 10SM BKN045 BKN220 33/21 A2971 RMK AO2 PK WND 26032/1904 SLP057 T03330211 $",
    "KMSP": "METAR KMSP 181953Z 04011G24KT 10SM FEW070 FEW250 31/13 A2999 RMK AO2 SLP150 T03110128",
    "CYEG": "METAR CYEG 182000Z 29004KT 15SM FEW028 27/21 A2980 RMK CU1 CU TR CB TOP DIST W SLP083 DENSITY ALT 4400FT",
    "EHAM": "METAR EHAM 181925Z 34009KT 310V030 9999 FEW028 17/11 Q1017 NOSIG",
    "EBBR": "METAR EBBR 181920Z 35006KT 9999 FEW026 SCT046 16/13 Q1018 NOSIG",
    "EDDF": "METAR EDDF 181920Z AUTO 03003KT 340V070 9999 VCSH FEW///CB 19/17 Q1014 TEMPO SHRA BKN030CB",
    "EDFH": "METAR EDFH 181920Z 04003KT 360V090 9999 SCT055CB 15/14 Q1016 RESHRA",
    "EDDL": "METAR EDDL 181920Z AUTO 35014KT 9999 FEW034 18/12 Q1016 NOSIG",
    "EDDK": "METAR EDDK 181920Z AUTO 33009KT 300V360 CAVOK 19/10 Q1015 NOSIG",
    "EBLG": "METAR EBLG 181920Z 33010KT 9999 FEW040 18/10 Q1017 NOSIG",
    "LSZH": "METAR LSZH 181920Z 14003KT 9999 FEW060CB 18/17 Q1016 NOSIG",
    "LIMC": "METAR LIMC 181920Z 13007KT 9999 SCT070 29/17 Q1009 RETS NOSIG",
    "LIRF": "METAR LIRF 181920Z 26003KT CAVOK 28/26 Q1010 NOSIG",
    "EINN": "METAR EINN 181930Z 36009KT CAVOK 19/11 Q1024 NOSIG",
    "EGLL": "METAR EGLL 181920Z AUTO 05008KT 010V080 9999 NCD 20/09 Q1020",
    "EGSS": "METAR EGSS 181920Z AUTO 01007KT 9999 FEW037 SCT043 17/10 Q1021",
    "EPWA": "METAR EPWA 181930Z 00000KT CAVOK 20/17 Q1010 NOSIG",
    "UHPP": "METAR UHPP 181930Z 34004MPS 9999 FEW020 BKN100 21/14 Q1018 R34L/CLRD62 NOSIG RMK MT OBSC QFE760/1013",
    "EFHK": "METAR EFHK 181920Z VRB03KT 9999 -SHRA SCT015 SCT040CB BKN045 19/18 Q1002 TEMPO 6000 SHRA",
    "LBBG": "METAR LBBG 181930Z AUTO 13007KT 9999 NCD 24/20 Q1013 NOSIG",
    "LTAC": "METAR LTAC 181920Z 04007KT CAVOK 22/11 Q1015 NOSIG RMK RWY21C 04009KT RWY03L 03010KT RWY21R 02010KT RWY03R 03005KT RWY21L 04006KT",
    "UBBB": "METAR UBBB 181930Z 34012KT CAVOK 26/23 Q1010 NOSIG",
    "UTAA": "METAR UTAA 182000Z 28008KT 9999 NSC 33/18 Q1006 R88/CLRD70 NOSIG",
    "UACC": "METAR UACC 181930Z VRB01MPS CAVOK 25/15 Q1005 NOSIG RMK QFE722/0963",
    "UAAA": "METAR UAAA 181930Z 12002MPS 9999 SCT100 26/11 Q1006 NOSIG",
    "UZTT": "METAR UZTT 181930Z 11004KT 070V160 CAVOK 31/16 Q1001 NOSIG",
    "ZWWW": "METAR ZWWW 181930Z 18002MPS CAVOK 31/12 Q1007 NOSIG",
    "ZLXY": "METAR ZLXY 182000Z 26001MPS CAVOK 21/18 Q1006 NOSIG",
    "ZBAA": "METAR ZBAA 181930Z VRB01MPS CAVOK 21/21 Q1002 NOSIG",
    "ZBHH": "METAR ZBHH 182000Z 03002MPS CAVOK 16/14 Q1008 NOSIG",
    "ZSQD": "METAR ZSQD 182000Z VRB01MPS CAVOK 23/20 Q1003 NOSIG",
    "ZMCK": "METAR ZMCK 181930Z VRB01MPS 9999 FEW033 11/10 Q1004 NOSIG RMK QFE639.2 93 NT",
    "UUEE": "METAR UUEE 181930Z 23003MPS CAVOK 19/14 Q1015 R06R/CLRD62 R06C/CLRD62 NOSIG",
    "UUDD": "METAR UUDD 181930Z VRB01MPS CAVOK 15/13 Q1015 R31L/CLRD65 NOSIG",
    "ULLI": "METAR ULLI 181930Z 14005MPS CAVOK 20/10 Q1007 R88/090065 NOSIG",
    "USSS": "METAR USSS 181930Z 06003MPS 030V100 9999 SCT027CB 19/19 Q1003 R26L/220050 TEMPO -TSRA RMK QFE732/0976",
    "UNNT": "METAR UNNT 181930Z 00000MPS 9000 NSC 19/19 Q1004 R25/CLRD// R16/CLRD// NOSIG RMK QFE743/0991",
    "UNKL": "METAR UNKL 181930Z 00000MPS 9999 4000S BR NSC 17/17 Q1002 R29/CLRD// NOSIG RMK QFE726",
    "UIBB": "METAR UIBB 181930Z AUTO VRB01MPS 9000 // NSC 13/12 Q1001 RMK QFE708/0944",
    "UEEE": "METAR UEEE 181930Z 05001MPS 9999 SCT009 OVC020CB 17/17 Q0997 R23/290150 NOSIG RMK QFE739",
    "UHHH": "METAR UHHH 181930Z 00000MPS 9000 NSC 17/17 Q1005 R88/090060 NOSIG RMK QFE747/0997",
    "UHSS": "METAR UHSS 181930Z 14002MPS 4000 -SHRA SCT033CB 19/19 Q1009 R19/290060 NOSIG RMK MT OBSC QFE755/1007"
  },
  "taf": {
    "RJAA": "TAF RJAA 181705Z 1818/2000 17006KT 9999 FEW015 SCT020",
    "PANC": "TAF PANC 182111Z 1821/1924 24007KT 6SM -RA FEW009 SCT015 OVC040 TEMPO 1821/1823 -RA BKN015 FM182300 14012G24KT P6SM VCSH SCT040 OVC070 FM190800 34005KT 6SM -RA OVC060 WS008/12030KT",
    "PAFA": "TAF PAFA 181730Z 1818/1924 VRB03KT P6SM SCT080 FM190000 17006KT P6SM BKN250",
    "PAED": "TAF PAED 182100Z 1821/2003 24009KT 9999 -RA SCT009 OVC015 620604 QNH3002INS BECMG 1821/1822 25005KT 9999 -SHRA SCT015 BKN035 OVC055 620604 QNH3001INS BECMG 1900/1901 VRB06KT 9999 VCSH SCT050 OVC070 640703 560208 QNH3000INS BECMG 1907/1908 01009KT 9000 -RA SCT035 OVC060 640604 QNH2998INS TX14/1900Z TN10/1913Z",
    "KSEA": "TAF KSEA 182057Z 1821/1924 27006KT P6SM FEW015 SCT050 FM182200 29007KT P6SM FEW020 SCT050 FM190200 01008KT P6SM FEW250 FM191100 02004KT P6SM SCT250 FM191300 01004KT P6SM BKN008 FM191700 35006KT P6SM SCT010 BKN040",
    "ZSPD": "TAF ZSPD 181504Z 1818/1924 04004MPS 8000 SCT030 TX33/1906Z TN27/1821Z TN27/1921Z TEMPO 1905/1909 TSRA BKN011 FEW030CB",
    "ZSSS": "TAF ZSSS 181503Z 1818/1924 11004MPS 8000 SCT030 TX33/1906Z TN27/1821Z TN27/1921Z TEMPO 1904/1908 TSRA BKN011 FEW030CB",
    "RJFR": "TAF RJFR 181705Z 1818/2000 06004KT 9999 FEW020 SCT040 BECMG 1822/1900 09008KT BECMG 1901/1903 06010KT TEMPO 1906/1912 -TSRA FEW015 BKN030 FEW030CB BECMG 1912/1915 16004KT TEMPO 1921/2000 BKN005",
    "VHHH": "TAF VHHH 182000Z 1821/2003 20010KT 9999 FEW010 SCT025 TX31/1906Z TN27/1822Z TN27/1922Z TEMPO 1821/1824 3000 SHRA FEW010CB SCT020 TEMPO 1900/1906 24015G25KT 2500 TSRA SHRA FEW008CB SCT015 TEMPO 1906/1908 3000 SHRA FEW010CB SCT020 PROB30 TEMPO 1922/2003 24015G25KT 2500 TSRA SHRA FEW008CB SCT015",
    "RCTP": "TAF RCTP 181700Z 1818/1924 24010KT 9999 FEW015 TEMPO 1900/1906 25015KT TEMPO 1906/1910 FEW010 FEW015TCU BKN032",
    "ZGSZ": "TAF ZGSZ 181502Z 1818/1924 18004MPS 8000 BKN040 TX30/1906Z TN27/1822Z TN26/1922Z TEMPO 1822/1901 SHRA FEW020CB BKN030 TEMPO 1902/1906 2500 +TSRA SCT010 FEW020CB BKN030",
    "WSSS": "TAF WSSS 181700Z 1818/2000 14006KT 9999 FEW015 SCT020",
    "WMKK": "TAF WMKK 181700Z 1818/2000 VRB03KT 9999 FEW018 PROB30 TEMPO 1820/1823 6000 RA FEW017CB",
    "VTBS": "TAF VTBS 181700Z 1818/1924 22008KT 9999 FEW020",
    "VTBU": "TAF VTBU 181700Z 1818/1918 21006KT 9000 FEW020 BECMG 1819/1821 36004KT BECMG 1900/1902 24008KT",
    "ROAH": "TAF ROAH 181705Z 1818/2000 22006KT 9999 FEW005 BKN010 TEMPO 1818/1821 FEW003 BKN005 TEMPO 1821/1900 FEW005 BKN008 TEMPO 1915/1921 FEW005 BKN008",
    "VVDN": "TAF VVDN 181700Z 1818/1918 24006KT 9999 FEW020 BECMG 1905/1906 01010KT BECMG 1912/1913 24006KT",
    "RCKH": "TAF AMD RCKH 182102Z 1821/1924 09005KT 9999 FEW012 BKN032 TEMPO 1821/1823 25005KT 1800 SHRA FEW005 FEW010CB BKN018 TEMPO 1823/1903 4000 SHRA FEW008 FEW012CB BKN018 BECMG 1903/1905 24012KT TEMPO 1905/1911 21008KT 7000 -SHRA FEW008 FEW012CB BKN025 BECMG 1911/1913 09005KT",
    "KLAX": "TAF KLAX 181803Z 1818/1924 26012KT P6SM FEW020 FM190300 25006KT P6SM FEW015 SCT150 FM190900 VRB03KT P6SM OVC012 FM191700 25006KT P6SM SCT020 FM191900 25012KT P6SM FEW025",
    "KONT": "TAF KONT 181728Z 1818/1924 VRB04KT P6SM FEW200 FM182000 25010G21KT P6SM SCT150 FM190200 25010KT P6SM FEW200 FM190900 VRB04KT P6SM SKC FM192000 25010G20KT P6SM FEW150",
    "KSFO": "TAF KSFO 182103Z 1821/1924 30015G25KT P6SM SKC FM190400 28013KT P6SM BKN015 FM190600 26005KT P6SM SCT009 OVC012 FM191600 31006KT P6SM SCT012 FM192000 31010KT P6SM SKC",
    "KOAK": "TAF KOAK 181737Z 1818/1924 27010KT P6SM FEW008 FM190400 26007KT P6SM SCT009 BKN012 FM190600 29006KT P6SM BKN009 FM191700 28005KT P6SM SCT009",
    "KMHR": "TAF KMHR 181720Z 1818/1918 21007KT P6SM FEW250 FM182200 20012KT P6SM SKC FM190600 19010KT P6SM SKC FM191100 16007KT P6SM SCT250",
    "KDFW": "TAF KDFW 182100Z 1821/1924 18016KT P6SM SCT060 FM190200 18007KT P6SM FEW250 FM191000 19008KT P6SM BKN040 FM191500 19009KT P6SM FEW250",
    "KIAH": "TAF KIAH 182037Z 1821/1924 16009KT P6SM SCT050 SCT250 FM190300 20005KT P6SM FEW020 SCT250",
    "KORD": "TAF KORD 182100Z 1821/1924 05012G17KT P6SM SCT050 FM190100 03011G18KT 5SM FU SCT060 BKN250 FM190800 05008KT 4SM FU SCT060 BKN250",
    "KJFK": "TAF KJFK 181935Z 1820/1924 22009KT 2SM -TSRA FU BKN045CB FM182100 20014G22KT 5SM -SHRA BKN015 OVC050 TEMPO 1823/1903 2SM TSRA BR BKN009 OVC050CB FM190300 24012KT 4SM SHRA BKN025 OVC050 FM190700 28012KT P6SM SCT040 BKN100 FM191200 33013KT P6SM BKN250",
    "KRFD": "TAF KRFD 182100Z 1821/1918 34010KT P6SM SCT050 FM190300 07007KT 4SM FU SCT060 BKN250",
    "KIND": "TAF KIND 182020Z 1820/1924 27014G25KT P6SM BKN050 FM182300 29012KT P6SM VCTS BKN050CB TEMPO 1900/1904 VRB20G30KT 2SM -TSRA BKN035CB FM190400 34007KT P6SM SCT040 BKN150 FM190800 04007KT P6SM SCT050 BKN250",
    "KDTW": "TAF KDTW 182011Z 1820/1924 27015G29KT P6SM SCT030 BKN050 OVC120 TEMPO 1820/1822 26015G35KT 3SM TSRA OVC035CB FM182200 01014G22KT 6SM FU SCT045 BKN060 FM190100 35010KT 3SM FU BKN200 FM190600 01005KT P6SM SKC",
    "KMSP": "TAF KMSP 182056Z 1821/1924 01010G20KT P6SM FEW070 FEW250 FM190200 04005KT P6SM SCT250 FM191600 20010KT P6SM FEW080",
    "CYEG": "TAF CYEG 182040Z 1821/1918 16005KT P6SM FEW020 FM190000 27006KT P6SM FEW050 TEMPO 1900/1904 VRB25G40KT P6SM -SHRA VCTS BKN050CB FM190400 25008KT P6SM FEW012 SCT100 FM191000 27008KT P6SM FEW040 SCT100 TEMPO 1910/1914 VRB25G35KT P6SM VCTS BKN040CB OVC100 FM191400 28015G25KT P6SM BKN040 RMK NXT FCST BY 190000Z",
    "EHAM": "TAF EHAM 181720Z 1818/1924 32013KT 9999 SCT025 BKN030 PROB30 TEMPO 1818/1901 7000 -SHRA -DZRA SCT018 FEW020TCU BECMG 1819/1822 31008KT BECMG 1907/1910 32015KT BECMG 1918/1921 32008KT",
    "EBBR": "TAF EBBR 181703Z 1818/1924 32010KT 9999 SCT030 SCT045",
    "EDDF": "TAF EDDF 181700Z 1818/1924 31009KT 9999 SCT040 PROB30 TEMPO 1818/1821 32015KT SHRA BKN030CB PROB30 TEMPO 1821/1908 BKN040 PROB30 TEMPO 1912/1915 32015G25KT",
    "EDFH": "TAF COR EDFH 181752Z 1818/1918 34007KT 9999 SCT040 TEMPO 1818/1820 34020G30KT TSRA BKN030CB PROB30 TEMPO 1912/1915 32015G25KT",
    "EDDL": "TAF EDDL 181700Z 1818/1924 32011KT 9999 FEW045 BECMG 1819/1822 30006KT BECMG 1907/1910 30012KT PROB40 TEMPO 1913/1917 31015G25KT BECMG 1919/1922 30005KT",
    "EDDK": "TAF EDDK 181700Z 1818/1924 32011KT 9999 FEW045 BECMG 1819/1822 31006KT BECMG 1907/1910 31012KT PROB30 TEMPO 1913/1918 31015G25KT BECMG 1918/1921 33005KT",
    "EBLG": "TAF EBLG 181703Z 1818/1924 31010KT 9999 SCT030 SCT045",
    "LSZH": "TAF LSZH 182025Z 1821/2003 VRB02KT 9999 FEW060 TX24/1915Z TN15/1904Z PROB30 TEMPO 1821/1823 SHRA FEW060TCU PROB40 1823/1905 2000 BCFG PROB40 TEMPO 1907/1915 SHRA SCT050TCU BECMG 1910/1913 30010KT PROB30 TEMPO 1912/1915 32015G25KT TSRA FEW050CB BECMG 1916/1919 03004KT BECMG 1920/1922 CAVOK",
    "LIMC": "TAF LIMC 181700Z 1818/1924 VRB05KT 9999 SCT040 PROB40 TEMPO 1819/1824 TSRA",
    "LIRF": "TAF LIRF 181700Z 1818/1924 27010KT CAVOK BECMG 1819/1821 VRB05KT BECMG 1907/1909 17010KT BECMG 1912/1914 23010KT BECMG 1917/1919 VRB05KT",
    "EINN": "TAF EINN 181700Z 1818/1918 35012KT 9999 FEW025",
    "EGLL": "TAF EGLL 181651Z 1818/1924 03007KT 9999 FEW030",
    "EGSS": "TAF EGSS 181704Z 1818/1924 02009KT 9999 SCT035",
    "EPWA": "TAF EPWA 182030Z 1821/1921 VRB02KT 9999 SCT040 TEMPO 1909/1921 -SHRA SCT040CB PROB40 TEMPO 1916/1920 VRB15G30KT 2000 TSRA BKN020CB",
    "UHPP": "TAF UHPP 181944Z 1821/2003 30003G12MPS 9999 SCT050 BKN100 TX28/1903Z TN18/1916Z TEMPO 1821/1924 36005G12MPS",
    "EFHK": "TAF EFHK 182031Z 1821/1921 18009KT 9999 SCT030 FEW040CB TEMPO 1821/1823 6000 SHRA BECMG 1822/1824 BKN012 FEW040CB BECMG 1900/1902 BKN007 TEMPO 1902/1907 4000 -DZRA BKN004 FEW040CB BECMG 1907/1909 28012KT BKN012 BECMG 1909/1911 BKN015 BECMG 1911/1913 34010KT",
    "LBBG": "TAF LBBG 181700Z 1818/1918 12012KT CAVOK BECMG 1820/1822 VRB03KT TEMPO 1902/1905 3000 BR BKN010 BECMG 1906/1908 12012KT",
    "LTAC": "TAF LTAC 181640Z 1818/1918 05012KT 9999 SCT040 BECMG 1818/1820 CAVOK BECMG 1906/1909 VRB02KT FEW040",
    "UBBB": "TAF UBBB 181700Z 1818/1918 34014KT CAVOK TX30/1910Z TN23/1901Z TEMPO 1820/1903 35008KT FEW050CB PROB40 TEMPO 1820/1902 TS FEW012 SCT040CB BECMG 1903/1905 34020G30KT TEMPO 1906/1918 34026G36KT SCT016 FEW040",
    "UTAA": "TAF UTAA 181655Z 1818/1918 27016KT 6000 SCT050 TX42/1911Z TEMPO 1906/1914 32014G24KT 4000 DRDU",
    "UACC": "TAF UACC 181703Z 1818/1918 15003MPS 9999 SCT040CB BKN100 TX34/1909Z TN20/1823Z TEMPO 1818/1904 22008MPS -TSRA BKN030CB BECMG 1904/1906 24006MPS TEMPO 1904/1916 28009MPS -TSRA BKN030CB TEMPO 1916/1918 32005MPS",
    "UAAA": "TAF UAAA 181701Z 1818/1918 17002MPS 9999 FEW050 SCT100 TX42/1910Z TN23/1900Z BECMG 1903/1904 35005MPS TEMPO 1905/1914 04005G10MPS BECMG 1914/1915 20003MPS",
    "UZTT": "TAF UZTT 181700Z 1818/1918 07010KT 7000 NSC TX44/1911Z TN27/1900Z TEMPO 1906/1916 30015KT",
    "ZWWW": "TAF ZWWW 181502Z 1818/1924 18004MPS CAVOK TX39/1909Z TN28/1823Z TN29/1923Z BECMG 1902/1903 36004MPS BECMG 1913/1914 18004MPS",
    "ZLXY": "TAF ZLXY 181502Z 1818/1918 26003MPS 6000 NSC TX36/1907Z TN21/1821Z",
    "ZBAA": "TAF ZBAA 181501Z 1818/1924 18003MPS CAVOK TX31/1906Z TN21/1821Z TN22/1921Z",
    "ZBHH": "TAF ZBHH 181501Z 1818/1918 06004MPS CAVOK TX30/1908Z TN15/1822Z TEMPO 1909/1912 VRB08G13MPS -TSRA FEW040CB FEW040",
    "ZSQD": "TAF ZSQD 181501Z 1818/1918 18004MPS 3500 BR NSC TX31/1906Z TN22/1820Z",
    "ZMCK": "TAF ZMCK 181636Z 1818/1924 VRB02MPS 9999 FEW030CB SCT033 TN12/1821Z TX24/1907Z BECMG 1900/1902 32005MPS PROB40 TEMPO 1905/1912 VRB09G14MPS TSRA SCT027CB SCT030 BECMG 1911/1913 VRB02MPS",
    "UUEE": "TAF UUEE 181950Z 1821/1921 16003MPS CAVOK TX27/1912Z TN15/1901Z TEMPO 1903/1915 22005MPS",
    "UUDD": "TAF UUDD 181952Z 1821/2003 20003MPS 9999 SCT040 TX27/1912Z TN12/1901Z PROB40 TEMPO 1900/1903 0500 FG",
    "ULLI": "TAF ULLI 181955Z 1821/1921 16005G10MPS 6000 SCT016 TEMPO 1906/1915 3100 -TSRA BKN017CB BECMG 1911/1913 26006G12MPS",
    "USSS": "TAF USSS 181952Z 1821/1921 06003G14MPS 6000 -SHRA BKN016CB TEMPO 1821/1904 -TSRA BKN003 BKN011CB FM190400 04003G14MPS 8000 -SHRA BKN020CB TEMPO 1904/1919 -TSRAGR",
    "UNNT": "TAF UNNT 182000Z 1821/1921 32003G08MPS 8000 SCT040 TX26/1912Z TN16/1822Z TEMPO 1821/1902 0150 FG BKN001 BKN020CB TEMPO 1902/1918 02006G13MPS -TSRA BKN020CB",
    "UNKL": "TAF UNKL 181946Z 1821/1921 27003MPS 6000 NSC TEMPO 1821/1824 0400 FG VV002 TEMPO 1904/1915 -TSRA BKN016CB",
    "UIBB": "TAF UIBB 182000Z 1821/1921 20004MPS 0300 FG BKN001 BKN016CB TEMPO 1821/1823 4000 -SHRA FEW001 BKN017CB FM190100 26005G10MPS 9999 -SHRA BKN017CB TEMPO 1901/1915 VRB10MPS -TSRA",
    "UEEE": "TAF UEEE 182000Z 1821/2003 06003MPS 9999 SCT007 BKN020CB OVC100 TEMPO 1821/1901 0300 -TSRA FG VV002 TEMPO 1901/1915 VRB08MPS 2100 -TSRA",
    "UHHH": "TAF AMD UHHH 182051Z 1821/2003 27003MPS 9999 SCT025CB TX30/1904Z TN19/1917Z TEMPO 1821/1823 0400 FG BKN002 SCT025CB",
    "UHSS": "TAF UHSS 181945Z 1821/2003 36003MPS 5000 -SHRA BKN005 BKN016CB BECMG 1906/1908 9999 NSW BKN020CB"
  },
  "atis": {},
  "windtemp_alaska": "\n000\nFBAK31 KWNO 182000\nFD1AK1\nDATA BASED ON 181800Z    \nVALID 190000Z   FOR USE 2000-0300Z. TEMPS NEG ABV 24000\n\nFT  3000    6000    9000   12000   18000   24000  30000  34000  39000\nADK 3212 3315+03 3223-02 3230-07 3359-16 3383-23 830236 831544 840649\nADQ 1533 1733+04 1835-01 1939-07 2052-14 2057-26 206742 217650 216555\nAKN 1328 1538+01 1638-04 1725-07 1839-19 1967-29 209743 199250 194646\nANC 1510 1620+00 1719-06 2020-08 2240-17 2257-26 227242 227750 226053\nANN 3214 3314+05 3217+04 3217-01 3334-11 3438-24 333441 324250 323853\nBET 1013 1319-02 1218-06 1215-09 1631-21 1636-34 174047 173143 172140\nBRW 0714 0614+01 0612-05 0811-08 0916-20 0922-31 103547 123347 122042\nBTI 9900 1908+05 1809+00 1812-06 1624-18 1536-30 146343 146148 142945\nBTT 9900 9900+03 1605-04 1412-10 1722-24 1728-33 173248 172644 182340\nCDB 2112 2312-01 2412-07 2217-10 2222-21 2127-34 203440 213138 212239\nCZF 0607 0509+00 0609-06 0612-11 0610-24 1207-35 160647 990042 070640\nEHM 1128 1125-01 1421-04 1424-10 1325-22 1430-35 163443 172640 181940\nFAI 1508 2017+03 2013-04 1912-10 2019-21 2230-31 224845 225347 213743\nFYU 9900 2306+03 2411-02 2009-08 1818-21 1824-31 203445 213646 192843\nGAL 1407 1612+00 1612-05 1615-11 1821-24 2026-34 202347 202644 181840\nGKN 1720 1923+01 2022-05 2124-09 2342-15 2350-26 235941 236250 235454\nHOM 1421 1723+00 1924-04 2036-08 2144-15 2155-26 216842 217550 216354\nJNU 2607 3007+02 2910+03 2811+00 3021-12 2920-25 292241 302750 302955\nLUR 1108 1211+01 1111-04 0914-10 0728-21 0638-33 064447 062844 071840\nMCG 9900 1914+00 1716-06 1519-11 2129-20 2133-33 215246 215046 202843\nMDO 1912 2011+00 2321-02 2428-04 2337-14 2236-25 234241 245449 235556\nOME 1612 1808+01 1706-05 9900-11 0409-24 0412-36 041145 060741 070739\nORT      2406+04 2209-03 2218-08 2436-16 2442-26 255341 255451 244152\nOTZ 1218 1314+00 1314-05 1312-11 0909-24 0713-37 071544 091441 101339\nSNP 0122 0124-03 0125-07 0128-12 0132-23 3631-34 353744 354140 343739\nTKA 2008 1825+00 1827-05 1720-11 2225-18 2250-29 238342 228550 225249\nUNK 1410 1614+00 1416-06 1316-12 1615-24 1926-34 192647 192143 181340\nYAK 2808 2610+01 2716+00 2718-02 2527-14 2529-25 262940 273349 273656\nIKO 3332 3333-03 3334-06 3236-10 3233-22 3231-33 323644 324039 323539\nAFM 1409 1616+01 1516-05 1517-11 1619-25 1730-35 173146 152042 141439\n5AB 2510 2813+10 3015+06 3224+02 3243-08 3244-19 326132 327042 328052\n5AC 3219 3222+07 3123+05 3123+01 2924-11 3023-24 312640 312849 302158\n5AD 2221 2120+06 2219+03 2322-01 2429-14 2226-25 212740 213349 213358\n5AE 1935 2037+04 2038+00 2045-04 2067-14 2065-26 207541 207950 206654\n5AF 3115 3017+06 3016+03 3119+00 2820-13 2922-25 302739 303349 302957\n5AG 2411 2514+03 2421+00 2322-02 2428-13 2533-25 263640 264148 253857\n",
  "vaac_active": [
    {
      "volcano": "MAYON",
      "volcano_jp": "マヨン",
      "advisory_nr": "2026/765",
      "obs_time": "2026-07-18 18:16Z",
      "issued_time": "2026-07-18 18:31Z",
      "text_url": "https://www.data.jma.go.jp/vaac/data/TextData/2026/20260718_27303000_0765_Text.html",
      "lat": 13.25,
      "lon": 123.683,
      "text": "FVFE01 RJTD 181831\nVA ADVISORY\nDTG: 20260718/1831Z\nVAAC: TOKYO\nVOLCANO: MAYON 273030\nPSN: N1315 E12341\nAREA: PHILIPPINES\nSOURCE ELEV: 2462M AMSL\nADVISORY NR: 2026/765\nINFO SOURCE: HIMAWARI-9 PHIVOLCS\nERUPTION DETAILS: ERUPTION AT 20260718/1816Z VA CLD UNKNOWN REPORTED\nOBS VA DTG: 18/1810Z\nOBS VA CLD: VA NOT IDENTIFIABLE FM SATELLITE DATA WIND FL180 030/2KT\nFCST VA CLD +6 HR: NOT AVBL\nFCST VA CLD +12 HR: NOT AVBL\nFCST VA CLD +18 HR: NOT AVBL\nRMK: WE WILL ISSUE FURTHER ADVISORY IF VA IS DETECTED IN SATELLITE \nIMAGERY.\nNXT ADVISORY: NO FURTHER ADVISORIES="
    }
  ],
  "vaac_tokyo": [
    {
      "id": "20260718_30027000_0268",
      "year": "2026",
      "volcano": "Sheveluch",
      "psn": "N5639 E16122",
      "issued": "20260718",
      "text": "FVFE01 RJTD 180000\nVA ADVISORY\nDTG: 20260718/0000Z\nVAAC: TOKYO\nVOLCANO: SHEVELUCH 300270\nPSN: N5639 E16122\nAREA: RUSSIA\nSOURCE ELEV: 3283M AMSL\nADVISORY NR: 2026/268\nINFO SOURCE: KVERT HIMAWARI-9\nERUPTION DETAILS: VA CONTINUOUSLY OBS IN SATELLITE IMAGERY\nOBS VA DTG: 17/2320Z\nOBS VA CLD: SFC/FL290 N5601 E16322 - N5605 E16357 - N5546 E16401 - \nN5544 E16326 MOV SE 25KT\nFCST VA CLD +6 HR: 18/0520Z SFC/FL300 N5529 E16617 - N5404 E16714 - \nN5357 E16639 - N5527 E16530\nFCST VA CLD +12 HR: 18/1120Z SFC/FL300 N5352 E17006 - N5152 E17037 - \nN5152 E16936 - N5344 E16817\nFCST VA CLD +18 HR: NO VA EXP\nRMK: SOME PART OF VA OBSCURED BY MET CLOUD.\nNXT ADVISORY: 20260718/0600Z=",
      "img_url": "https://ds.data.jma.go.jp/svd/vaac/data/VAGFN/2026/Images/20260718_30027000_0268_QH21_01.png",
      "sat_img_url": "https://ds.data.jma.go.jp/svd/vaac/data/Sat/2026/Images/30027000/09-ir/20260717_2320_202607180000_ir.png",
      "text_url": "https://ds.data.jma.go.jp/svd/vaac/data/TextData/2026/20260718_30027000_0268_Text.html"
    },
    {
      "id": "20260717_27303000_0761",
      "year": "2026",
      "volcano": "Mayon",
      "psn": "N1315 E12341",
      "issued": "20260717",
      "text": "FVFE01 RJTD 172222\nVA ADVISORY\nDTG: 20260717/2222Z\nVAAC: TOKYO\nVOLCANO: MAYON 273030\nPSN: N1315 E12341\nAREA: PHILIPPINES\nSOURCE ELEV: 2462M AMSL\nADVISORY NR: 2026/761\nINFO SOURCE: HIMAWARI-9 PHIVOLCS\nERUPTION DETAILS: ERUPTION AT 20260717/2208Z FL100 EXTD SSE REPORTED\nOBS VA DTG: 17/2210Z\nOBS VA CLD: VA NOT IDENTIFIABLE FM SATELLITE DATA WIND FL100 360/6KT\nFCST VA CLD +6 HR: NOT AVBL\nFCST VA CLD +12 HR: NOT AVBL\nFCST VA CLD +18 HR: NOT AVBL\nRMK: WE WILL ISSUE FURTHER ADVISORY IF VA IS DETECTED IN SATELLITE \nIMAGERY.\nNXT ADVISORY: NO FURTHER ADVISORIES=",
      "img_url": "https://ds.data.jma.go.jp/svd/vaac/data/VAGFN/2026/Images/20260717_27303000_0761_QH21_01.png",
      "sat_img_url": null,
      "text_url": "https://ds.data.jma.go.jp/svd/vaac/data/TextData/2026/20260717_27303000_0761_Text.html"
    },
    {
      "id": "20260717_27307000_0014",
      "year": "2026",
      "volcano": "Taal",
      "psn": "N1400 E12100",
      "issued": "20260717",
      "text": "FVFE01 RJTD 171113\nVA ADVISORY\nDTG: 20260717/1113Z\nVAAC: TOKYO\nVOLCANO: TAAL 273070\nPSN: N1400 E12100\nAREA: PHILIPPINES\nSOURCE ELEV: 311M AMSL\nADVISORY NR: 2026/14\nINFO SOURCE: HIMAWARI-9 PHIVOLCS\nERUPTION DETAILS: ERUPTION AT 20260717/1051Z FL040 EXTD E REPORTED\nOBS VA DTG: 17/1100Z\nOBS VA CLD: VA NOT IDENTIFIABLE FM SATELLITE DATA WIND FL040 270/8KT\nFCST VA CLD +6 HR: NOT AVBL\nFCST VA CLD +12 HR: NOT AVBL\nFCST VA CLD +18 HR: NOT AVBL\nRMK: WE WILL ISSUE FURTHER ADVISORY IF VA IS DETECTED IN SATELLITE \nIMAGERY.\nNXT ADVISORY: NO FURTHER ADVISORIES=",
      "img_url": "https://ds.data.jma.go.jp/svd/vaac/data/VAGFN/2026/Images/20260717_27307000_0014_QH21_01.png",
      "sat_img_url": null,
      "text_url": "https://ds.data.jma.go.jp/svd/vaac/data/TextData/2026/20260717_27307000_0014_Text.html"
    },
    {
      "id": "20260713_28208001_0083",
      "year": "2026",
      "volcano": null,
      "psn": "N3136 E13039",
      "issued": "20260713",
      "text": "FVFE01 RJTD 130254\nVA ADVISORY\nDTG: 20260713/0254Z\nVAAC: TOKYO\nVOLCANO: SAKURAJIMA (AIRA CALDERA) 282080\nPSN: N3136 E13039\nAREA: JAPAN\nSOURCE ELEV: 1117M AMSL\nADVISORY NR: 2026/83\nINFO SOURCE: JMA HIMAWARI-9\nERUPTION DETAILS: ERUPTED AT 20260713/0152Z FL100 EXTD N\nOBS VA DTG: 13/0230Z\nOBS VA CLD: SFC/FL100 N3136 E13039 - N3142 E13040 - N3141 E13044 - \nN3134 E13042 MOV NE 15KT\nFCST VA CLD +6 HR: 13/0830Z SFC/FL100 N3234 E13121 - N3145 E13155 - \nN3202 E13110 - N3227 E13051\nFCST VA CLD +12 HR: 13/1430Z SFC/FL100 N3318 E13206 - N3142 E13317 - \nN3134 E13226 - N3312 E13118\nFCST VA CLD +18 HR: NO VA EXP\nRMK: NIL\nNXT ADVISORY: 20260713/0600Z=",
      "img_url": "https://ds.data.jma.go.jp/svd/vaac/data/VAGFN/2026/Images/20260713_28208001_0083_QH21_01.png",
      "sat_img_url": "https://ds.data.jma.go.jp/svd/vaac/data/Sat/2026/Images/28208001/09-ir/20260713_0230_202607130254_ir.png",
      "text_url": "https://ds.data.jma.go.jp/svd/vaac/data/TextData/2026/20260713_28208001_0083_Text.html"
    }
  ],
  "vaac_alaska": [
    {
      "text": "\n000\nFVAK21 PAWU 180008\nVAAAK1\nVA ADVISORY\n\nDTG: 20260718/0000Z\n\nVAAC: ANCHORAGE\n\nVOLCANO: SHEVELUCH 300270\n\nPSN: N5639 E16122\n\nAREA: KAMCHATKA PENINSULA\n\nSOURCE ELEV: 10771 FT AMSL\n\nADVISORY NR: 2026/205\n\nRMK: PLEASE SEE FVFE01 RJTD ISSUED BY VAAC TOKYO WHICH DESCRIBES\nCONDITIONS NEAR THE VAAC ANCHORAGE AREA OF RESPONSIBILITY...BS\n\n\n\n",
      "issued": "2026-07-18T00:08:00+00:00",
      "volcano": "Sheveluch",
      "psn": "N5639 E16122"
    }
  ]
}