{
  "updated_utc": "2026-07-21T04:01Z",
  "metar": {
    "RJAA": "METAR RJAA 210230Z VRB03KT 9999 FEW030 BKN110 34/26 Q1008 NOSIG",
    "PANC": "SPECI PANC 210240Z 17004KT 9SM -RA FEW006 BKN023 OVC095 13/12 A3008 RMK AO2 RAE03B38 P0000 T01280122",
    "PAFA": "METAR PAFA 210253Z 21009KT 10SM FEW060 SCT120 BKN180 23/14 A2985 RMK AO2 SLP112 T02280139 58014 $",
    "PAED": "METAR PAED 210255Z 00000KT 10SM FEW002 SCT027 BKN060 OVC085 14/11 A3006 RMK AO2A RAE33 SLP175 P0000 60011 T01380113 51004 $",
    "KSEA": "METAR KSEA 210253Z 00000KT 10SM SCT200 BKN250 26/14 A2994 RMK AO2 SLP143 T02560139 56004 $",
    "ZSPD": "METAR ZSPD 210230Z 21003MPS 140V280 9999 SCT023 33/26 Q1006 NOSIG",
    "ZSSS": "METAR ZSSS 210230Z 26003MPS 180V300 9999 SCT018 31/26 Q1006 NOSIG",
    "RJFR": "METAR RJFR 210300Z 08007KT 9999 FEW030 SCT/// 31/27 Q1009",
    "VHHH": "METAR VHHH 210230Z 20011KT 9999 VCSH FEW010CB SCT025 31/24 Q1008 TEMPO 24022G32KT 2000 TSRA SHRA FEW008CB SCT015",
    "RCTP": "METAR RCTP 210230Z 24016KT 9999 FEW020 SCT150 33/25 Q1009 NOSIG RMK A2981",
    "ZGSZ": "METAR ZGSZ 210300Z 19007MPS 4000 SHRA FEW013 FEW025CB BKN040 27/25 Q1008 RETS NOSIG",
    "WSSS": "METAR WSSS 210230Z 16005KT 100V210 9999 FEW018TCU SCT020 BKN300 29/24 Q1013 NOSIG",
    "WMKK": "METAR WMKK 210230Z 00000KT 9999 FEW018 31/24 Q1012 NOSIG",
    "WIDD": "METAR WIDD 210230Z 17003KT 9999 SCT014 31/25 Q1013 NOSIG",
    "VTBS": "METAR VTBS 210230Z 26007KT 230V300 9999 FEW020 32/21 Q1011 NOSIG",
    "VTBU": "METAR VTBU 210230Z 25009KT 210V270 9000 FEW020 31/27 Q1011 NOSIG",
    "ROAH": "METAR ROAH 210230Z 24008KT 9999 FEW007 30/28 Q1010",
    "VVDN": "METAR VVDN 210230Z 21006KT 170V240 CAVOK 35/20 Q1007 NOSIG",
    "RCKH": "METAR RCKH 210230Z 20005KT 150V250 9999 FEW015 SCT030 BKN100 31/23 Q1009 NOSIG RMK A2982",
    "KLAX": "METAR KLAX 210253Z 24008KT 10SM FEW200 22/18 A2988 RMK AO2 SLP116 T02220183 55001 $",
    "KONT": "METAR KONT 210253Z 24007KT 10SM FEW100 SCT160 BKN200 29/12 A2989 RMK AO2 SLP103 T02890122 55002 $",
    "KSFO": "METAR KSFO 210256Z 30013KT 10SM FEW160 BKN200 18/13 A2989 RMK AO2 SLP122 T01830133 55006 $",
    "KOAK": "SPECI KOAK 210248Z 33004KT 10SM FEW005 BKN160 20/14 A2990 RMK AO2",
    "KMHR": "METAR KMHR 210215Z AUTO 23007KT 9SM CLR 31/02 A2985 RMK AO2 T03130021 $",
    "KDFW": "METAR KDFW 210253Z 16009KT 10SM CLR 33/18 A2985 RMK AO2 SLP099 T03280183 53002 $",
    "KIAH": "METAR KIAH 210253Z 12003KT 10SM CLR 29/26 A2990 RMK AO2 SLP123 T02890256 53007",
    "KORD": "METAR KORD 210251Z 23010KT 6SM HZ BKN250 24/21 A2969 RMK AO2 SLP050 T02440206 56026",
    "KJFK": "METAR KJFK 210251Z 16006KT 10SM SCT250 22/17 A2998 RMK AO2 SLP151 T02220167 50003 $",
    "KRFD": "METAR KRFD 210254Z 21009KT 7SM FEW250 24/22 A2972 RMK AO2 SLP061 T02390217 55008",
    "KIND": "METAR KIND 210254Z 23006KT 9SM FEW100 OVC250 24/19 A2984 RMK AO2 SLP099 T02390194 55005",
    "KDTW": "METAR KDTW 210253Z 15005KT 8SM FEW150 FEW250 23/16 A2976 RMK AO2 SLP072 T02330156 58013",
    "KMSP": "METAR KMSP 210253Z 27009KT 10SM CLR 27/18 A2969 RMK AO2 SLP048 T02720178 53009 $",
    "CYEG": "METAR CYEG 210300Z 02004KT 4SM FU SCT034 BKN250 17/15 A3022 RMK FU4CI2 CC ASOCTD SLP238 DENSITY ALT 2900FT",
    "EHAM": "METAR EHAM 210225Z 31002KT 9999 BKN024 11/10 Q1025 NOSIG",
    "EBBR": "METAR EBBR 210220Z 35003KT CAVOK 11/09 Q1026 NOSIG",
    "EDDF": "METAR EDDF 210220Z AUTO VRB02KT CAVOK 10/08 Q1023 NOSIG",
    "EDFH": "METAR EDFH 210220Z VRB02KT CAVOK 11/08 Q1024",
    "EDDL": "METAR EDDL 210220Z AUTO VRB01KT CAVOK 11/09 Q1024 NOSIG",
    "EDDK": "METAR EDDK 210220Z AUTO 05003KT CAVOK 09/08 Q1024 NOSIG",
    "EBLG": "METAR EBLG 210220Z 01003KT CAVOK 12/10 Q1025 NOSIG",
    "LSZH": "METAR LSZH 210220Z AUTO 31006KT CAVOK 13/06 Q1021 NOSIG",
    "LIMC": "METAR LIMC 210220Z 06005KT 9999 BKN060 24/18 Q1016 NOSIG",
    "LIRF": "METAR LIRF 210220Z 08002KT CAVOK 24/23 Q1013 NOSIG",
    "EINN": "METAR EINN 210230Z 34005KT 9999 FEW009 BKN013 14/12 Q1032 TEMPO SCT015",
    "EGLL": "METAR EGLL 210220Z AUTO 18002KT 9999 NCD 16/10 Q1028",
    "EGSS": "METAR EGSS 210220Z AUTO 34003KT 9999 SCT017 12/10 Q1028",
    "EPWA": "METAR EPWA 210230Z 24008KT 9999 -SHRA BKN008 BKN017CB 14/13 Q1012 RESHRA NOSIG",
    "UHPP": "METAR UHPP 210230Z 13003MPS 090V150 9999 FEW011 BKN024CB BKN045 16/14 Q1000 R16R/150062 NOSIG RMK MT OBSC QFE747/0996",
    "EFHK": "METAR EFHK 210220Z 01009KT 350V050 CAVOK 11/07 Q1015 NOSIG",
    "LBBG": "METAR LBBG 210230Z AUTO 23006KT 9999 NSC 21/19 Q1014 NOSIG",
    "LTAC": "METAR LTAC 210220Z VRB01KT CAVOK 17/07 Q1016 NOSIG RMK RWY21C VRB02KT RWY03L VRB01KT RWY21R 36003KT RWY03R 00000KT RWY21L 06003KT 020V100",
    "UBBB": "METAR UBBB 210230Z 30004KT CAVOK 24/20 Q1013 NOSIG",
    "UTAA": "METAR UTAA 210300Z 32010KT 9999 FEW033CB SCT033 BKN100 26/17 Q1013 R88/CLRD70 NOSIG",
    "UACC": "METAR UACC 210230Z 24003MPS 190V270 9999 -SHRA SCT043CB 19/13 Q0997 NOSIG RMK QFE717/0956",
    "UAAA": "METAR UAAA 210230Z 26003MPS 230V300 9999 FEW050CB SCT100 33/10 Q1000 NOSIG",
    "UZTT": "METAR UZTT 210230Z 17006KT 140V210 CAVOK 27/12 Q1005 NOSIG",
    "ZWWW": "METAR ZWWW 210230Z 16003MPS 120V220 CAVOK 37/09 Q1001 NOSIG",
    "ZLXY": "METAR ZLXY 210300Z 07002MPS 360V120 CAVOK 32/23 Q1005 NOSIG",
    "ZBAA": "METAR ZBAA 210230Z 12002MPS 050V180 8000 NSC 28/22 Q1005 NOSIG",
    "ZBHH": "METAR ZBHH 210300Z VRB01MPS 9999 FEW040 26/16 Q1008 NOSIG",
    "ZSQD": "METAR ZSQD 210300Z VRB01MPS 9999 FEW030 31/21 Q1006 NOSIG",
    "ZMCK": "METAR ZMCK 210230Z VRB02MPS 9999 FEW030CB BKN033 17/12 Q1008 NOSIG RMK QFE641.7 73 MOP",
    "UUEE": "METAR UUEE 210230Z 11001MPS CAVOK 19/15 Q1011 R24C/CLRD62 NOSIG",
    "UUDD": "METAR UUDD 210230Z 13002MPS CAVOK 19/15 Q1011 R13R/CLRD65 NOSIG",
    "ULLI": "METAR ULLI 210230Z 06005MPS 5000 -SHRA SCT009 BKN023CB 12/10 Q1011 R10R/290050 NOSIG",
    "USSS": "METAR USSS 210230Z 33004MPS CAVOK 20/18 Q1008 R08R/CLRD60 NOSIG RMK QFE736/0981",
    "UNNT": "METAR UNNT 210230Z 01002MPS CAVOK 21/16 Q1000 R25/CLRD// R16/CLRD// NOSIG RMK QFE740/0987",
    "UNKL": "METAR UNKL 210230Z 09002MPS 060V130 CAVOK 20/16 Q1000 R11/CLRD// NOSIG RMK QFE725",
    "UIBB": "METAR UIBB 210230Z VRB01MPS 9999 FEW013 19/14 Q1003 R12/CLRD62 NOSIG RMK QFE710/0946",
    "UEEE": "METAR UEEE 210230Z 29002MPS 200V350 CAVOK 20/13 Q1009 R23/09//58 NOSIG RMK QFE748",
    "UHHH": "METAR UHHH 210230Z 10002MPS 010V170 9999 FEW030 29/18 Q1007 R88/090060 NOSIG RMK QFE749/0999",
    "UHSS": "METAR UHSS 210230Z 05002MPS 020V110 9999 SCT040 28/20 Q1004 R01/CLRD70 NOSIG RMK QFE752/1003"
  },
  "taf": {
    "RJAA": "TAF RJAA 202305Z 2100/2206 22006KT 9999 FEW030",
    "PANC": "TAF PANC 210325Z 2103/2206 24006KT P6SM VCSH SCT010 SCT025 OVC060 TEMPO 2103/2106 -SHRA BKN025 FM211000 16008KT P6SM SCT030 BKN040 FM211800 15012G24KT P6SM VCSH SCT040 BKN070",
    "PAFA": "TAF PAFA 202339Z 2100/2206 15005KT P6SM SCT060 BKN120 FM210300 24006KT P6SM VCSH FEW025 BKN050 FM211200 20006KT 6SM -SHRA BR BKN025 OVC050",
    "PAED": "TAF AMD PAED 202220Z 2022/2203 01006KT 9000 -SHRA FEW004 OVC045 620709 QNH3004INS TEMPO 2022/2101 BKN004 BECMG 2107/2108 VRB06KT 6000 BR SCT015 OVC030 620603 QNH3011INS BECMG 2117/2118 35006KT 9999 NSW OVC050 620603 QNH3010INS BECMG 2121/2122 35009KT 9000 -SHRA OVC040 650709 QNH3008INS TX15/2121Z TN10/2113Z",
    "KSEA": "TAF KSEA 210258Z 2103/2206 35005KT P6SM BKN250 FM212000 32007KT P6SM BKN200",
    "ZSPD": "TAF ZSPD 210307Z 2106/2212 22004MPS 6000 BKN030 TX34/2106Z TX32/2206Z TN28/2121Z TEMPO 2107/2110 33007G12MPS TSRA BKN011 FEW030CB TEMPO 2110/2114 33007G12MPS TSRA BKN011 FEW030CB",
    "ZSSS": "TAF ZSSS 210307Z 2106/2212 21004MPS 6000 BKN030 TX34/2106Z TX33/2206Z TN27/2121Z TEMPO 2106/2110 33007G12MPS TSRA BKN011 FEW030CB TEMPO 2110/2113 33007G12MPS TSRA BKN011 FEW030CB",
    "RJFR": "TAF RJFR 202305Z 2100/2206 09006KT 9999 FEW015 SCT040 BECMG 2105/2107 31006KT BECMG 2118/2121 24004KT BECMG 2200/2203 34014KT",
    "VHHH": "TAF AMD VHHH 210352Z 2104/2209 20010KT 9999 FEW010 SCT025 TX31/2106Z TX32/2206Z TN26/2122Z TEMPO 2104/2107 24025G35KT 2000 TSRA +SHRA FEW008CB SCT015 TEMPO 2107/2109 3000 SHRA FEW010CB SCT020",
    "RCTP": "TAF RCTP 202300Z 2100/2206 24015KT 9999 FEW015 TEMPO 2108/2112 5000 SHRA FEW010 FEW015TCU SCT020 BKN032 BECMG 2112/2114 21005KT BECMG 2200/2202 24015KT",
    "ZGSZ": "TAF ZGSZ 210306Z 2106/2212 16004MPS 8000 BKN040 TX30/2106Z TX31/2206Z TN27/2122Z TEMPO 2106/2108 SHRA FEW020 FEW025CB BKN030 TEMPO 2119/2122 SHRA FEW025CB BKN030",
    "WSSS": "TAF WSSS 202300Z 2100/2206 15007KT 9999 FEW015 SCT020 TEMPO 2104/2107 3000 TSRA FEW012CB BKN015",
    "WMKK": "TAF WMKK 202300Z 2100/2206 VRB03KT 9999 FEW018 PROB40 TEMPO 2105/2108 6000 -TSRA FEW017CB",
    "VTBS": "TAF VTBS 202300Z 2100/2206 26005KT 9999 FEW020 BECMG 2105/2107 20008KT TEMPO 2107/2112 VRB15G25KT 4000 TSRA FEW018CB SCT030 BKN100",
    "VTBU": "TAF VTBU 202300Z 2100/2124 36004KT 9999 FEW020 BECMG 2101/2103 23008KT",
    "ROAH": "TAF ROAH 202305Z 2100/2206 25008KT 9999 FEW010 SCT020 TEMPO 2106/2109 4000 SHRA BR FEW005 BKN008 FEW015CB",
    "VVDN": "TAF VVDN 202300Z 2100/2124 21010KT 9999 FEW020 BECMG 2105/2106 10010KT BECMG 2112/2113 22006KT",
    "RCKH": "TAF RCKH 202300Z 2100/2206 22010KT 9999 FEW012 BKN032 TEMPO 2106/2110 28010KT 5000 SHRA FEW010 FEW015TCU BKN020 BKN050 BECMG 2110/2112 17005KT TEMPO 2121/2201 FEW010 FEW015TCU BKN020 BKN050",
    "KLAX": "TAF KLAX 210312Z 2103/2206 25008KT P6SM SCT200 FM210800 VRB03KT P6SM SCT008 FM211000 VRB03KT 6SM BR BKN008 FM211500 18004KT P6SM BKN015 FM211700 26006KT P6SM SCT250 FM212100 26012KT P6SM SCT250 FM220300 26008KT P6SM SCT250",
    "KONT": "TAF KONT 202330Z 2100/2206 25011G18KT P6SM BKN150 FM210300 25009KT P6SM SCT150 FM210600 VRB05KT P6SM FEW150 FM212200 25011G18KT P6SM SCT150 FM220300 25009KT P6SM FEW150",
    "KSFO": "TAF KSFO 210236Z 2103/2206 31009KT P6SM FEW150 BKN180 TEMPO 2113/2117 04004KT P6SM BKN007 OVC150 FM211700 31006KT P6SM SCT010 BKN150 FM212100 30015KT P6SM BKN200 FM220500 28008KT P6SM BKN200",
    "KOAK": "TAF KOAK 202320Z 2100/2206 29011KT P6SM FEW005 BKN180 FM210500 26004KT P6SM BKN007 OVC150 FM211600 27006KT P6SM SCT010 BKN150",
    "KMHR": "TAF KMHR 202324Z 2100/2124 22008KT P6SM SCT250 FM210600 VRB05KT P6SM BKN250",
    "KDFW": "TAF KDFW 210243Z 2103/2206 18008KT P6SM FEW250",
    "KIAH": "TAF KIAH 210305Z 2103/2206 VRB04KT P6SM FEW250 FM211000 26003KT P6SM FEW015 FEW250 FM211500 28006KT P6SM FEW250 FM212100 24005KT P6SM FEW080 FEW250",
    "KORD": "TAF KORD 210357Z 2104/2206 25011G18KT 6SM HZ FEW050 SCT120 BKN250 PROB30 2106/2109 4SM -TSRA BR SCT015 OVC040CB FM211500 30015G23KT P6SM BKN050 FM220100 35012G19KT P6SM FEW200",
    "KJFK": "TAF KJFK 210258Z 2103/2206 16007KT P6SM BKN250 FM211300 15013G22KT P6SM FEW030 BKN080 FM211600 16014G23KT P6SM VCSH SCT025 BKN050 PROB30 2116/2121 3SM -TSRA BKN020CB FM212100 18015G24KT 5SM -SHRA BKN020 OVC050 TEMPO 2121/2201 2SM TSRA BKN020CB FM220100 20014G23KT P6SM VCSH BKN025 BKN100 TEMPO 2201/2204 3SM SHRA",
    "KRFD": "TAF KRFD 210359Z 2104/2124 24009KT 6SM HZ FEW050 SCT120 BKN250 PROB30 2105/2107 4SM -TSRA SCT015 OVC040CB FM211400 32015G23KT P6SM BKN050",
    "KIND": "TAF KIND 210240Z 2103/2206 24007KT P6SM FEW100 BKN150 FM211000 23010KT P6SM -SHRA BKN040 TEMPO 2111/2113 4SM -TSRA OVC030CB FM211400 22010KT P6SM BKN025 FM211700 28008G19KT P6SM SCT035",
    "KDTW": "TAF KDTW 210305Z 2103/2206 20008KT P6SM SCT070 BKN150 PROB30 2108/2112 4SM TSRA BKN040CB OVC060 FM211200 25014G25KT P6SM SCT028 BKN040 BKN080 FM212000 28016G26KT P6SM BKN045 BKN070 FM220000 32014G22KT P6SM SCT050 BKN080",
    "KMSP": "TAF KMSP 210239Z 2103/2206 29012KT P6SM SKC FM210800 32012G20KT P6SM SKC FM211000 32016G23KT P6SM SCT028 FM211600 33016G27KT P6SM FEW050 FM220100 36014G21KT P6SM FEW050",
    "CYEG": "TAF CYEG 210240Z 2103/2124 VRB03KT 4SM FU SCT030 SCT250 TEMPO 2106/2111 BKN070 FM211100 VRB03KT 2SM FU BR FEW007 BKN015 PROB30 2111/2116 3/4SM FU BR VV006 FM211600 18004KT 5SM FU SCT012 BKN030 FM212100 15008KT 6SM FU BKN040 RMK NXT FCST BY 210600Z",
    "EHAM": "TAF EHAM 202310Z 2100/2206 36004KT 9999 FEW025 BECMG 2110/2113 32012KT",
    "EBBR": "TAF EBBR 202302Z 2100/2206 01004KT 9999 FEW045",
    "EDDF": "TAF EDDF 202300Z 2100/2206 02006KT CAVOK BECMG 2119/2121 VRB03KT",
    "EDFH": "TAF EDFH 202300Z 2100/2124 01006KT CAVOK",
    "EDDL": "TAF EDDL 202300Z 2100/2206 36007KT CAVOK BECMG 2100/2103 VRB03KT BECMG 2106/2109 34008KT BECMG 2121/2124 VRB03KT",
    "EDDK": "TAF EDDK 202300Z 2100/2206 VRB03KT CAVOK BECMG 2107/2110 34007KT BECMG 2119/2122 VRB03KT",
    "EBLG": "TAF EBLG 202302Z 2100/2206 36004KT 9999 FEW040",
    "LSZH": "TAF LSZH 210225Z 2103/2209 30006KT CAVOK TX25/2115Z TN12/2104Z TN11/2204Z BECMG 2106/2108 05008KT TEMPO 2108/2121 9999 FEW060 PROB30 TEMPO 2110/2117 08010KT BECMG 2120/2122 35004KT CAVOK",
    "LIMC": "TAF LIMC 202300Z 2100/2206 VRB05KT 9999 FEW050 TEMPO 2102/2110 4000 TSRA TEMPO 2115/2121 4000 SHRA",
    "LIRF": "TAF LIRF 202300Z 2100/2206 VRB05KT CAVOK PROB30 TEMPO 2101/2105 4000 BR BECMG 2106/2108 16010KT BECMG 2112/2114 22012KT BECMG 2118/2120 34008KT BECMG 2202/2204 03012KT",
    "EINN": "TAF EINN 202300Z 2100/2124 35009KT 9999 FEW045",
    "EGLL": "TAF EGLL 202259Z 2100/2206 VRB04KT CAVOK BECMG 2103/2106 02010KT TEMPO 2104/2113 BKN030 BECMG 2119/2122 17005KT BECMG 2203/2206 32010KT",
    "EGSS": "TAF EGSS 202300Z 2100/2206 VRB05KT CAVOK TEMPO 2100/2114 SCT012 BKN030 BECMG 2103/2106 01010KT BECMG 2118/2121 13004KT PROB40 TEMPO 2200/2206 FEW018 BKN030",
    "EPWA": "TAF EPWA 210230Z 2103/2203 24010KT 9999 -RA BKN012 TEMPO 2103/2112 4000 SHRA BKN005 BKN020CB PROB30 TEMPO 2104/2108 BKN003 BECMG 2106/2109 30013KT PROB40 TEMPO 2109/2112 28015G25KT SCT014 BKN020 BECMG 2109/2111 BKN025 TEMPO 2112/2117 30018G30KT 4000 SHRA BKN014 BKN020CB",
    "UHPP": "TAF UHPP 210143Z 2103/2209 18003G10MPS 9999 -SHRA BKN010 OVC020CB TEMPO 2103/2109 2000 SHRA BR VV004 TEMPO 2109/2121 0500 FG VV002",
    "EFHK": "TAF EFHK 210222Z 2103/2203 04011KT CAVOK BECMG 2122/2124 6000 RA BKN013 BECMG 2200/2202 9999 NSW BKN040",
    "LBBG": "TAF LBBG 202300Z 2100/2124 VRB03KT 9999 SCT045 TEMPO 2101/2105 3000 BR PROB30 2102/2104 0800 BCFG SCT003 BECMG 2108/2110 12012KT PROB40 TEMPO 2111/2116 VRB16G26KT 4000 TSRA FEW030CB BKN040 BECMG 2119/2121 VRB03KT",
    "LTAC": "TAF LTAC 202240Z 2100/2124 VRB02KT CAVOK BECMG 2107/2110 FEW040 BECMG 2113/2115 03012KT CAVOK BECMG 2121/2123 VRB02KT",
    "UBBB": "TAF UBBB 202259Z 2100/2124 33008KT 9999 FEW015 TX32/2110Z TN21/2101Z TEMPO 2100/2106 28005KT SCT010 FEW060CB BECMG 2106/2108 14008KT CAVOK TEMPO 2108/2118 18014KT FEW025 BECMG 2120/2122 VRB04KT",
    "UTAA": "TAF UTAA 202245Z 2100/2124 34010G20KT 4000 BLDU BKN020 SCT030CB TEMPO 2100/2106 VRB20G30KT 1000 -TSSHRA BKN009 PROB40 TEMPO 2106/2110 -TSSHRA BECMG 2118/2120 24014KT 6000 SCT050CB SCT050",
    "UACC": "TAF UACC 202302Z 2100/2124 24006MPS 9999 SCT040 BKN100 TX25/2112Z TN17/2100Z TEMPO 2100/2104 3100 -SHRA BKN030CB BECMG 2104/2105 SCT030CB BKN050 TEMPO 2104/2115 VRB20MPS 2000 TSRA SQ BKN020CB TEMPO 2115/2118 VRB16MPS 3100 -TSRA SQ BKN020CB",
    "UAAA": "TAF UAAA 202301Z 2100/2124 21003MPS 9999 SCT050CB BKN100 TX34/2110Z TN26/2100Z TEMPO 2103/2108 32005MPS FM210800 21005MPS 5000 -SHRA SCT015CB OVC050 TEMPO 2110/2116 27007G15MPS 1500 TSRA BLDU TEMPO 2118/2124 15003MPS",
    "UZTT": "TAF COR UZTT 202300Z 2100/2124 22010KT 7000 NSC TX35/2111Z TN25/2100Z TEMPO 2100/2112 34010G20KT FEW060CB",
    "ZWWW": "TAF ZWWW 210305Z 2106/2212 36004MPS CAVOK TX42/2109Z TX32/2209Z TN30/2123Z BECMG 2114/2115 20004MPS BECMG 2118/2119 30008G16MPS TEMPO 2119/2122 2500 SA BECMG 2204/2205 30004G09MPS",
    "ZLXY": "TAF ZLXY 210307Z 2106/2206 06003MPS 6000 NSC TX36/2107Z TN24/2121Z TEMPO 2109/2112 06012G17MPS TSRA FEW040CB OVC050",
    "ZBAA": "TAF ZBAA 210301Z 2106/2212 18003MPS 5000 BR NSC TX30/2106Z TX31/2206Z TN23/2121Z",
    "ZBHH": "TAF ZBHH 210304Z 2106/2206 24004MPS 9999 SCT040 TX30/2107Z TN14/2119Z BECMG 2110/2111 -TSRA SCT040CB SCT040 TEMPO 2111/2113 VRB10G18MPS 2800 +TSRA BECMG 2113/2114 NSW NSC",
    "ZSQD": "TAF ZSQD 210301Z 2106/2206 16004MPS 3500 BR NSC TX31/2106Z TN22/2120Z",
    "ZMCK": "TAF ZMCK 202240Z 2100/2206 VRB02MPS 9999 FEW030CB SCT033 TX25/2107Z TN11/2121Z TEMPO 2100/2113 VRB08G13MPS TSRA SCT027CB SCT030",
    "UUEE": "TAF AMD UUEE 210252Z 2103/2203 20003G08MPS 9999 BKN030 TX25/2113Z TN15/2202Z TEMPO 2103/2115 27008MPS -TSRA BKN016CB",
    "UUDD": "TAF UUDD 210156Z 2103/2209 25003MPS 9999 FEW007 BKN016 TX25/2112Z TN15/2202Z TEMPO 2103/2106 25008G13MPS -TSRA BKN020CB TEMPO 2108/2119 27008G13MPS -TSRA BKN020CB BECMG 2201/2203 19005MPS",
    "ULLI": "TAF ULLI 210153Z 2103/2203 05006G13MPS 6000 BKN010 TEMPO 2103/2115 08008G15MPS 2000 SHRA BR BKN004 BKN017CB PROB40 TEMPO 2103/2115 1000 TSRA BKN004 BKN017CB BECMG 2115/2116 09003MPS BKN016",
    "USSS": "TAF USSS 210146Z 2103/2203 36003G14MPS 9999 BKN030CB TEMPO 2105/2119 -TSRA",
    "UNNT": "TAF UNNT 210200Z 2103/2203 04003G08MPS 9999 BKN040 TX28/2109Z TN17/2122Z TEMPO 2103/2112 -TSRA BKN020CB",
    "UNKL": "TAF UNKL 210144Z 2103/2203 11003G08MPS 9999 SCT040 BECMG 2107/2109 -TSRA BKN030CB BECMG 2110/2112 NSW SCT040",
    "UIBB": "TAF UIBB 210200Z 2103/2203 15002G07MPS 9999 SCT016CB TEMPO 2103/2112 VRB07MPS",
    "UEEE": "TAF UEEE 210200Z 2103/2209 30003G08MPS 9999 SCT030CB BKN100",
    "UHHH": "TAF UHHH 210147Z 2103/2209 15003MPS 9999 SCT030 TX30/2104Z TN18/2119Z",
    "UHSS": "TAF COR UHSS 210217Z 2102/2203 32003MPS 9999 FEW040CB TX30/2102Z TN13/2118Z"
  },
  "atis": {
    "RJAA": "[Arrival ATIS] RJAA ARR ATIS V 0440Z M0430 (APCH)ILS Z RWY16L LDG RWY 16L DEP RWY 16R DEP FREQ 124.2. TWY A1 CLSD. M 240430Z 10008KT 060V120 30KM FEW025CU SCT060SC BKN/// 24/18 Q1012/A2989= Q/TWO NINE EIGHT NINE STP\n[Departure ATIS] RJAA DEP ATIS V 0441Z M0430 (APCH)ILS Z RWY16L LDG RWY 16L DEP RWY 16R DEP FREQ 124.2. TWY A1 CLSD. M 240430Z 10008KT 060V120 30KM FEW025CU SCT060SC BKN/// 24/18 Q1012/A2989= Q/TWO NINE EIGHT NINE STP",
    "PANC": "[Arrival ATIS] PANC ARR ATIS M 0253Z ANC ATIS INFO M 0253Z. 13007KT 10SM BKN013 BKN025 OVC095 13/12 A3008 (THREE ZERO ZERO EIGHT) RMK AO2 RAE03B38E52 SLP185 P0001 60009 T01280117 53004. 7R, 7L APPROACHES IN USE. LANDING RWY 7R, 7L, DEPARTING RWY 7L, 33. NOTICE TO AIRMEN. TWY Q CLSD. TWY K BTWN A AND C RESTRICTED TO AIRCRAFT WITH WINGSPAN LESS THAN 118 FEET. RWY 7R 5 5 5 1258Z, RWY 7L 5 5 5 1258Z, RWY 33 5 5 5 1258Z. ...ADVS YOU HAVE INFO M.\n[Departure ATIS] PANC DEP ATIS H 0053Z - PANC ATIS INFO H 0053Z. 04005KT 8SM -RA BKN006 BKN055 OVC070 13/12 A3007 (THREE ZERO ZERO SEVEN). 7R, 7L APPROACHES IN USE. LANDING RWY 7R, 7L, DEPARTING RWY 7L, 33. NOTICE TO A",
    "KSEA": "[Arrival ATIS] KSEA ARR ATIS C 0353Z - KSEA ATIS INFO C 0353Z. 34004KT 10SM SCT200 BKN250 24/14 A2994 (TWO NINER NINER FOUR). ILS AND CHARTED VISUAL APPROACH RWY 34L, VISUAL APPROACH RY 34R RNAV, GPS, RY 34R , APCH IN USE. DEPG RWY 34R. SIMUL ARRIVALS TO RWY 34L AND DEPARTURES TO RWY 34R ARE IN USE. SIMUL APCHS IN USE TO PARA RYS. NOTAMS... TWY Z CLSD. LOC RWY 34R OTS. BIRD ACTIVITY VICINITY ARPT. ...ADVS YOU HAVE INFO C.\n[Departure ATIS] KSEA DEP ATIS B 0253Z SEA ATIS INFO B 0253Z. 00000KT 10SM SCT200 BKN250 26/14 A2994 (TWO NINER NINER FOUR). ILS AND CHARTED VISUAL APPROACH RWY 34L, VISUAL APPROACH RY 34R RNAV, GPS, RY 34R , APCH IN USE. DEPG RWY 34R. SIMUL ARRIVALS TO RWY 34L AND DEPARTURES TO RWY 34R ARE IN USE. SIMUL APCHS IN USE TO PARA RYS. NOTAMS... LOC RWY 34R OTS. BIRD ACTIVITY VICINITY ARPT. ...ADVS YOU HAVE INFO B.",
    "ZSPD": "[Arrival ATIS] ZSPD ARR ATIS U 0430Z EXP ILS APCH INDEPENDENT PARL INSTR APCH LDG RWY 35L & 34R WIND RWY 35L TDZ 020/6MPS MID 030/5MPS END 030/5MPS RWY 34R TDZ 030/6MPS MID 030/5MPS END 040/5MPS VIS RWY 35L TDZ 10000M MID 10000M END 10000M VIS RWY 34R TDZ 10000M MID 10000M END 10000M CLD BKN 300M T 24 /DP 23 QNH 1004 HPA CAUTION THE BIRDS NEAR THE RUNWAY RWY 35R/35L/34R/34L RWYCC 5/5/5 ISSUED AT 2212 WET/WET/WET DPT NR/NR/NR COV 100PCT/100PCT/100PCT. ADZ YOU HAVE INFO U.\n[Departure ATIS] ZSPD DEP ATIS U 0430Z DEP RWY 35R & 34L WIND RWY 35R TDZ 030/6MPS MID 020/6MPS END 010/6MPS RWY 34L TDZ 030/6MPS MID 040/6MPS END 040/5MPS VIS RWY 35R TDZ 10000M MID 10000M END 10000M VIS RWY 34L TDZ 10000M MID 10000M END 10000M CLD BKN 300M T 24 /DP 23 QNH 1004 HPA CAUTION THE BIRDS NEAR THE RUNWAY RWY 35R/35L/34R/34L RWYCC 5/5/5 ISSUED AT 2212 WET/WET/WET DPT NR/NR/NR COV 100PCT/100PCT/100PCT. ADZ YOU HAVE INFO U.",
    "ZSSS": "[Arrival ATIS] ZSSS ARR ATIS X 0130Z EXP ILS APCH LDG RWY 18L WIND RWY 18L TDZ 260/2MPS MID 270/2MPS VRB BTN 220/ AND 310/ END 200/2MPS VIS RWY 18L TDZ 10000M MID 10000M END 10000M CLD SCT 540M T 30 /DP 27 QNH 1006 HPA RWY18L RWYCC 5/5/5 ISSUED AT 2130 WET/WET/WET DPT NR/NR/NR COV 100PCT/100PCT/100PCT RWY18R RWYCC 5/5/5 ISSUED AT 2130 WET/WET/WET DPT NR/NR/NR COV 100PCT/100PCT/100PCT QNH OF SHANGHAI TERMINAL CONTROL AREA 1006 HPA ADZ YOU HAVE INFO X.\n[Departure ATIS] ZSSS DEP ATIS L 0330Z DEP RWY 36L WIND RWY 36L TDZ 050/4MPS MID 040/4MPS END 040/4MPS VIS RWY 36L TDZ 10000M MID 10000M END 10000M CLD BKN 330M T 24 /DP 21 QNH 1005 HPA RWY36R RWYCC 5/5/5 ISSUED AT 2130 WET/WET/WET DPT NR/NR/NR COV 100PCT/100PCT/100PCT RWY36L RWYCC 5/5/5 ISSUED AT 2130 WET/WET/WET DPT NR/NR/NR COV 100PCT/100PCT/100PCT QNH OF SHANGHAI TERMINAL CONTROL AREA 1005 HPA ADZ YOU HAVE INFO L.",
    "VHHH": "[Arrival ATIS] VHHH ARR ATIS L 0434Z ARRIVALS, RWY 25R/L. EXP ILS APCH, RWY 25L. EXP RNAV TRANSITION TO ILS APCH, RWY 25R. RNP APCH IS AVBL ON REQ, RWY 25R. CAUTION POSSIBLE GP FLUCTUATION RWY 25L. SIG WS FCST RWY 25R & 25L. WIND RWY 25R 220/15KT RWY 25L 170/10KT. VIS RWY 25R 10KM RWY 25L 10KM. CLD FEW 1000FT SCT 2500FT. T34 DP26. QNH 1003HPA. ACK INFO L ON FIRST CTC WITH APP.\n[Departure ATIS] VHHH DEP ATIS Y 0335Z DEPARTURES, RWY 25C/L. INDEPENDENT PARALLEL DEPARTURE IN PROGRESS. SIG WS FCST RWY 25C & 25L. WIND RWY 25C 240/11KT RWY 25L 250/10KT. VIS RWY 25C 10KM RWY 25L 10KM. CLD FEW 1000FT SCT 2500FT. T33 DP27. QNH 1004HPA. ACK INFO Y ON FIRST CTC WITH DELIVERY .",
    "RCTP": "[Arrival ATIS] RCTP ARR ATIS Q 0430Z EXP ILS APCH RWY23R FOR ARR. RWY23L FOR DEP. WIND 290/10KT VIS 10 KM OR MORE CLD FEW 2000FT BKN 15000FT T 34 DP 27 QNH 1003HPA NOSIG DUE TO FLOW CONTROL BY MANILA AND FUKUOKA F-I-R, TRAFFIC CONCERNED MAY BE DELAYED. CTN BIRD ACTIVITY IN THE VCY OF THE AD. INFORM TAIPEI APCH OR TAIPEI TOWER ON INITIAL CONTACT YOU HAVE INFORMATION Q\n[Departure ATIS] RCTP DEP ATIS N 0300Z EXP ILS APCH RWY23L ARR/DEP. RWY23R CLSD BTN 0300Z AND 0330Z FOR INSPECTION. WIND 250/13KT VIS 10 KM OR MORE CLD FEW 2000FT SCT 15000FT T 34 DP 25 QNH 1008HPA N",
    "ZGSZ": "[Arrival ATIS] ZGSZ ARR ATIS C 0330Z EXP ILS APCH 15 EXP ILS OR VIS APCH 16R WIND 170/8MPS VIS 9999M -SHRA CLD FEW 480M /BKN 1290M T 28 /DP 26 QNH 1008 HPA SUPPLEMENT INFO RESHRA INDEPENDENT PARALLEL DEPART\n[Departure ATIS] ZGSZ DEP ATIS H 0400Z DEP RWY 15 & 16L WIND 180/7MPS VIS 9999M CLD FEW 900M T 32 /DP 28 QNH 1003 HPA INDEPENDENT PARALLEL DEPARTURES DEPENDENT PARALLEL APPROACHES MISSED APPROACH ALTITUDE SETTING 1200METERS WHEN AIRBORNE CONTACT ZHUHAI APPROACH EXPECTED RNP ILS DME Z APPROACH ADZ YOU HAVE INFO H.",
    "WSSS": "[Arrival ATIS] WSSS ARR ATIS G 0430Z METREPORT 0430Z ILS APCHRWY 20R SIMUL INDEPENDENT ILS AND VISUAL APPROACHES ARE CONDUCTED ON RWY 20. TWY W 9 CLOSED, RWY 02C 20C RAPID EXIT TAXIWAY INDICATOR LIGHTS OFFTWY CENTRE LINE LIGHTS AT CHANGI AIRPORT WILL BE TURNED ON PROGRESSIVELY DUE TESTING IN PROGRESS WIND 140/ 06KT VRB BTN110 AND180 VIS 10KM TS CLD FEW 1500FT FEW CB 1700FT FEW TCU 1800FT T30 DP25 QNH 1010HPA CHANGI AD 2 VALID 0430/ 0500 TS S APCH MOV NW 8KT FCST NC BECMG FM0515 TL0530 NSW ACK ATIS G\n[Departure ATIS] WSSS DEP ATIS D 0300Z METREPORT 0300Z RWY 20C SIMUL INDEPENDENT ILS AND VISUAL APPROACHES ARE CONDUCTED ON RWY 20. TWY W 9 CLOSED, RWY 02C 20C RAPID EXIT TAXIWAY INDICATOR LIGHTS OFF WIND VRB/ 04KT VIS 10KM CLD FEW 1500FT FEW CB 1700FT FEW TCU 1800FT T30 DP26 QNH 1011HPA NOSIG DEP,INITIAL CMB 3000FT ACK ATIS D",
    "WMKK": "[Arrival ATIS] WMKK ARR ATIS L 0305Z WMKK ARR INFO L. TIME 0300. INDEPENDENT PARALLEL APPROACHES FOR RWY 32 R AND 32 L ARE IN PROGRESS. EXP RNAV / ILS APCH FOR RWY 32 RIGHT. EXP RNAV APCH FOR RWY 32 LEFT. WIND RWY 32R 290 DEG, 7 KT. WIND RWY 32L 260 DEG, 8 KT. WIND RWY 32L 260 DEG, 8 KT. VIS RWY 32R 10 KM OR MORE. VIS RWY 32L 10 KM OR MORE. CLD FEW CB 1700 FT. T 31. DP 25. QNH 1010. NOSIG. AT FIRST CONTACT WITH LUMPUR RADAR, NOTIFY RCPT OF L\n[Departure ATIS] WMKK DEP ATIS O 1704Z WMKK DEP INFO O. TIME 1700. INDEPENDENT PARALLEL DEPARTURES FOR RWY 32 R AND 33 ARE IN PROGRESS. RWY 32 RIGHT. RWY 33. WIND RWY 32R DIRECTION NOT AVBL SPEED NOT AVBL. WIND RWY 32L DIRECTION NOT AVBL SPEED NOT AVBL. WIND RWY 33 DIRECTION NOT AVBL SPEED NOT AVBL. VIS RWY 32R TDZ NOT AVBL. VIS RWY 33 TDZ NOT AVBL. CLD FEW 3000 FT. T 26. DP 23. QNH 1010. NOSIG. ALL DEP ACFT TO CONTACT LUMPUR DEP AT 135 DECIMAL 25 MHZ WHEN ABN. AT FIRST CONTACT WITH LUMPUR GROUND, NOTIFY RCPT OF O",
    "VTBS": "[Arrival ATIS] VTBS ARR ATIS L 0430Z VTBS ARR ATIS L 0430Z SIMULTANEOUS INDEPENDENT PARL APCH IN PROGRESS EXP ILS Z APCH ARR RWY 19 OR RNP APCH RWY 20R , ,PILOT SHALL ADZ BKK APCH ON INITIAL CTC IF UNA TO CONDUCT RNP APCH DUE TO OPERATIONAL CONSTRAINT 0430Z WIND 230/7KT VRB BTN 160/ AND 260/ VIS 10KM CLD FEW 2000FT T34 DP22 QNH 1008HPA TREND NOSIG ADZ BKK APCH ON INITIAL CONTACT THAT YOU HAVE INFO L\n[Departure ATIS] VTBS DEP ATIS K 0200Z VTBS DEP ATIS K 0201Z DEP RWY 20L OR DEP RWY 19 ,ALL ACFT WILL BE DLA DUE PAPI RWY 19 FLTCK ,AFT AIRBORNE ALL DEPARTING ACFT SHALL CTC 119.25 0200Z WIND 260/10KT VRB BTN 230/ AND 310/ VIS 10KM CLD FEW 2000FT T32 DP22 QNH 1009HPA TREND NOSIG ADZ GND WHEN INITIAL CONTACT YOU HAVE INFO K",
    "VTBU": "[Arrival ATIS] VTBU ARR ATIS S 0430Z VTBU ARR ATIS S 0431Z RNP RWY 36 TRL FL130 MOBILE ACFT ARST SYSTEM INSTL ATP SIX HUNDRED AND TEN METERS FM THR RWY 36 CABLE HGT 3 INCHES. 0430Z WIND 330/5KT VRB BTN 290/ AND 030/ VIS 10KM CLD FEW 2000FT T32 DP26 QNH 1009HPA TREND NOSIG ADZ CONTROLLER WHEN INITIAL CONTACT YOU HAVE INFO S\n[Departure ATIS] VTBU DEP ATIS D VTBU ARR/DEP DATIS RPT VTBU ARR ATIS D 0330Z ILS \"Z\" APCH RWY 18 TRL FL130 0330Z WIND 110/4KT VRB BTN 350/ AND 120/ VIS 6KM CLD FEW 2000FT T31 DP27 QNH 1014HPA TREND NOSIG ADZ CONTROLLER WHEN INITIAL CONTACT YOU HAVE INFO D",
    "ROAH": "[Arrival ATIS] ROAH ARR ATIS K 0220Z M0200 (APCH)RNP RWY18R LDG RWY 18R DEP RWY 18L DEP FREQ 126.5 258.3 M 240200Z 16015KT 15KM FEW015CU 32/26 Q1005/A2970= Q/TWO NINE SEVEN ZERO STP\n[Departure ATIS] ROAH DEP ATIS L 0234Z M0230 (APCH)RNP RWY18R LDG RWY 18R DEP RWY 18L DEP FREQ 126.5 258.3 M 240230Z 16015KT 15KM FEW017CU SCT/// 32/26 Q1005/A2970= Q/TWO NINE SEVEN ZERO STP",
    "VVDN": "[Arrival ATIS] VVDN ARR ATIS M 0432Z VVDN INFO M 0432Z. ILS VICTOR APPROACH 35L.. DPTG RWY 35R.. 0432Z. WIND 220/04KT CAVOK T37 DP22 QNH 1004HPA TREND NOSIG. ADZ ON INITIAL CTC YOU HAVE INFO. M.\n[Departure ATIS] VVDN DEP ATIS M 0432Z VVDN INFO M 0432Z. ILS VICTOR APPROACH 35L.. DPTG RWY 35R.. 0432Z. WIND 220/04KT CAVOK T37 DP22 QNH 1004HPA TREND NOSIG. ADZ ON INITIAL CTC YOU HAVE INFO. M.",
    "RCKH": "[Arrival ATIS] RCKH ARR ATIS G 0030Z EXPECT ILS APPROACH RWY 27 ARR/DEP TAXIWAY JULIETT, TAXIWAY BRAVO, TAXIWAY DELTA AND TAXIWAY ECHO CLOSED DUE MAINTENANCE. RUNWAY 2 7 ARRIVALS PLAN VACATE VIA CHARLIE OR ALPHA AND EXPEDITE VACATE. FROM 0 2 5 0 ZULU TO 0 3 3 0 ZULU RUNWAY CLOSED. ALL TAKE-OFF AND LANDING SUSPENDED DUE CONSTRUCTION. WIND 290/09KT VARYING BTN 260 AND 330 VIS 10 KM OR MORE CLD SCT 1200FT SCT 2500FT T 31 DP 25 QNH 1004HPA NOSIG CAUTION BIRD ACTIVITY IN VICINITY OF THE AERODROME. INFORM KAO-HSIUN APCH OR KAO-HSIUN TOWER ON INITIAL CONTACT YOU HAVE INFORMATION G\n[Departure ATIS] RCKH DEP ATIS G 0430Z EXPECT ILS APPROACH RWY 27 ARR/DEP RWY SFC RWY 09 SFC COND 5/5/5 ISSUED AT 0255Z. 100/100/100 NR/NR/NR WET/WET/WET TAXIWAY JULIETT, TAXIWAY BRAVO, TAXIWAY DELTA AND TAX",
    "KLAX": "[Arrival ATIS] KLAX ARR ATIS Q 0353Z - KLAX ATIS INFO Q 0353Z. 25009KT 10SM FEW010 FEW100 SCT150 18/16 A3000 (THREE ZERO ZERO ZERO) RMK AO2 SLP157 T01830156. INST APCHS AND RNAV RNP APCHS RY 24R AND 25L, OR VCTR FOR VISUAL APCH WILL BE PROVIDED, SIMUL VISUAL APCHS TO ALL RWYS ARE IN PROG, AND SIMUL APCHS IN PROG BTWN LAX AND HHR, SIMUL INSTR DEPARTURES IN PROG RWYS 24 AND 25. CTC L A GC ON 121.75 FOR PUSH OR TAXI ON A. TWY C CLSD BTN TWY, C8 AND TWY C9 , , TWY C10 CLSD BTN TWY, B AND TWY C. RY 25R SFL OTS, RY 24L ALSF-2 OTS. LAX VOR UNMONITORED. IF ASSIGNED RUNWAY 25R FOR DEPARTURE, EXPECT DEPARTURE FROM INTERSECTION FOXTROT. TAXIWAY CHARLIE EIGHT BTWN TWY B AND TWY C AND TAXIWAY CHARLIE NINE BTWN TWY B AND TWY C ARE RESTRICTED TO AIRCRAFT WITH A WINGSPAN LESS THAN ONE HUNDRED EIGHTEEN FEET. USE CAUTION FOR INCREASED DRONE ACTIVIY IN THE VICINITY OF SOFI STADIUM AT OR BELOW 200FT AGL DURING THE WORLD CUP FROM 06/12/26 THROUGH 07/10/2026. HAZD WX INFO FOR LAX AREA AVBL FM FSS. BIRD ACTIVITY VICINITY ARPT. INCLUDE YOUR CALL SIGN IN ALL READBACKS. USE CAUTION WHEN EXITING RY24R AT TWY V, W, AND Y, TO HOLD SHORT OF RY24L. MULTIPLE RUNWAY INCURSIONS HAVE OCCURRED. ...ADVS YOU HAVE INFO Q.\n[Departure ATIS] KLAX DEP ATIS S 0153Z LAX ATIS INFO S 0153Z. 25009KT 10SM FEW200 FEW250 23/19 A2987 (TWO NINER EIGHT SEVEN) RMK AO2 SLP113 T02330189. INST APCHS AND RNAV RNP APCHS RY 24R AND 25L, OR VCTR FOR VI",
    "KONT": "[Arrival ATIS] KONT ARR ATIS D 1153Z ONT ATIS INFO D 1153Z. 23004KT 10SM FEW200 21/17 A3001 (THREE ZERO ZERO ONE). ILS AND VIS APR IN USE, RY26L & RY26R. LNDG AND DEPG RY 26L AND RY 26R. NOTAMS... TAXIWAY SIERRA FIVE CLOSED. TAXIWAY SIERRA CLOSED BETWEEN TAXIWAY SIERRA 8 AND TAXIWAY WHISKEY. RY 26L IM OTS, RY 26R ALS OTS. PILOTS READBACK RWY ASSIGNMENTS AND HOLD SHORT INSTRUCTIONS. ...ADVS YOU HAVE INFO D.\n[Departure ATIS] KONT DEP ATIS N 0553Z - KONT ATIS INFO N 0553Z. 24004KT 10SM BKN250 22/15 A2988 (TWO NINER EIGHT EIGHT) RMK AO2 SLP100. ILS AND VIS APR IN USE, RY26L & RY26R. LNDG AND DEPG RY 26L AND RY 26R. NOTAMS... TAXIWAY SIERRA CLSD BETWEEN SIERRA 8 AND W TAXIWAY Q SOUTH OF RWY 26L CLSD TAXIWAY T CLSD TAXIWAY SIERRA 5 CLSD. RY 26L IM OTS, RY 26R ALS OTS. USE CAUTION FOR NUMEROUS BIRDS OBSERVED IN VICINITY OF ONT. HAZD WX INFO FOR SOUTHERN CA AVBL ON FSS FREQUENCIES. PILOTS READBACK RWY ASSIGNMENTS AND HOLD SHORT INSTRUCTIONS. ...ADVS YOU HAVE INFO N.",
    "KSFO": "[Arrival ATIS] KSFO ARR ATIS K 2256Z - KSFO ATIS INFO K 2256Z. 29019KT 10SM FEW008 BKN200 21/14 A2992 (TWO NINER NINER TWO). SIMUL CLSLY SPCD DPNDNT ILS RY 28R AND ILS RY 28L APP IN USE. DEPG RWYS 28L, 28R. DEPG ACFT SHOULD BE PREPARED FOR A SHORT NOTICE RY CHANGE. RY 1L, 1R CLSD. NUMEROUS TWY CLOSURES FOR CONSTRUCTION ON THE FIELD, PILOTS CHECK NOTAMS. HAZWX INFO FOR SFO AREA AVBL FM FSS FREQ. DEPG ACFT WAITING ON FINAL NUMBERS ADVISE GROUND PRIOR TO ENTERING TWY F. ...ADVS YOU HAVE INFO K.\n[Departure ATIS] KSFO DEP ATIS H 1956Z SFO ATIS INFO H 1956Z. 32008KT 10SM FEW006 SCT013 BKN100 19/14 A2995 (TWO NINER NINER FIVE). SIMUL CLSLY SPCD DPNDNT ILS RY 28R AND ILS RY 28L APP IN USE. DEPG RWYS 28L, 28R. DEPG ACFT SHOULD BE PREPARED FOR A SHORT NOTICE RY CHANGE. RY 1L, 1R CLSD. NUMEROUS TWY CLOSURES FOR CONSTRUCTION ON THE FIELD, PILOTS CHECK NOTAMS. DEPG ACFT WAITING ON FINAL NUMBERS ADVISE GROUND PRIOR TO ENTERING TWY F. ...ADVS YOU HAVE INFO H.",
    "KOAK": "[Arrival ATIS] KOAK ARR ATIS G 2353Z - KOAK ATIS INFO G 2353Z. 27013KT 10SM FEW009 FEW015 18/12 A3002 (THREE ZERO ZERO TWO). RNAV, AND VA, RWY 30. ILS, AND VA, RWY 28R. FLOW TO LAX, LAS, SAN, SLC, SEA. ILS RWY 30, OTS. UNN LIT CLOSE-IN OBSTACLES FOR RWY 30 DEPARTURES. RWY 30 DEPARTURES ARE ADVISED TO AVOID TURNING LEFT PRIOR TO DEPARTURE END OF RUNWAY. SIGNATURE UNI-COM OUT OF SERVICE. CTN, CRANE 1 POINT 6 NAUTICAL MILES, , AT 140 FEET AGL. CAUTION, BIRDS NEAR AIRPORT. ...ADVS YOU HAVE INFO G.\n[Departure ATIS] KOAK DEP ATIS O 1953Z OAK ATIS INFO O 1953Z. 28014KT 10SM FEW005 22/14 A2988 (TWO NINER EIGHT EIGHT). RNAV Z/VA RWY 30 ILS/VA RWY 28R. FLOW TO LAX, LAS, SAN. ILS RWY 30, OTS. UNN LIT CLOSE-IN OBSTACLES FOR RWY 30 DEPARTURES. RWY 30 DEPARTURES ARE ADVISED TO AVOID TURNING LEFT PRIOR TO DEPARTURE END OF RUNWAY. SIGNATURE UNI-COM OUT OF SERVICE. CAUTION, BIRDS NEAR AIRPORT. ...ADVS YOU HAVE INFO O.",
    "KDFW": "[Arrival ATIS] KDFW ARR ATIS X 1553Z - KDFW ARR INFO X 1553Z. 20013G18KT 10SM FEW022 FEW190 BKN250 31/22 A3007 (THREE ZERO ZERO SEVEN) RMK AO2 SLP172 T03060217. SIMUL VISUAL APCH TO RWYS, 13R, 18R, 17C, 17L. LDG RWY 17C EXP LAHSO TWY B 10460 FT AVAIL, LDG RWY 18R EXP LAHSO TWY B 10100 FT AVL. NOTICE TO AIRMEN. WARNING, RWY 18L HAS BEEN SHORTENED, 9273 FT AVAILABLE. BIRD ACTIVITY VCNTY ARPT. ...ADVS YOU HAVE INFO X.\n[Departure ATIS] KDFW DEP ATIS J 0253Z DFW DEP INFO J 0253Z. 17008KT 10SM FEW250 31/19 A2994 (TWO NINER NINER FOUR) RMK AO2 SLP128 T03110194 53004. SIMUL PARL TRAFFIC DEPG RWYS 17R, 18L. NOTICE TO AIRMEN. RWY 13L CLSD. RWY 13R CLSD. RWY 17L CLSD. WARNING, RWY 18L HAS BEEN SHORTENED, 9273 FT AVAILABLE. HAZD WX FOR DFW AVBL ON FSS. BIRD ACTIVITY VCNTY ARPT. ...ADVS YOU HAVE INFO J.",
    "KIAH": "[Arrival ATIS] KIAH ARR ATIS U 2353Z IAH ATIS INFO U 2353Z. 00000KT 10SM FEW030 FEW250 36/20 A2988 (TWO NINER EIGHT EIGHT). ARRIVALS EXPECT ILS OR RNAV Y RY 26R, ILS OR RNAV Y RY 26L, ILS OR RNAV Y RY 27. SIMUL APPROACHES IN USE. DEPG RY 15L, RY 15R. NOTICE TO AIRMEN. UNITED RAMP CONTROL IN EFFECT. BIRD ACTIVITY VICINITY ARPT. LAHSO RY26L. CRANES ARE DOWN. TWY SA CLSD BTN TWY, SF AND TWY SK , TWY SB CLSD BTN TWY, SF AND TWY SK , , TWY EA CLSD. NOTAM ATIS IN USE ON FREQUENCY 126.225. ...ADVS YOU HAVE INFO U.\n[Departure ATIS] KIAH DEP ATIS T 0353Z IAH ATIS INFO T 0353Z. 15007KT 10SM FEW035 FEW180 BKN250 27/23 A2996 (TWO NINER NINER SIX). ARRIVALS EXPECT ILS OR RNAV Y RY 8R, ILS OR RNAV Y RY 8L. DEPG RY 15R. NOTICE TO AIRMEN. UNITED RAMP CONTROL IN EFFECT. RY 15L, 33R CLSD. HAZD WX INFO FOR IAH AREA AVBL FM FSS. BIRD ACTIVITY VICINITY ARPT. CRANES ARE DOWN. TWY SA CLSD BTN TWY, SF AND TWY SK , TWY SB CLSD BTN TWY, SF AND TWY SK , , TWY WB CLSD BTN TWY, WG AND TWY WH . TWY EA CLSD. NOTAM ATIS IN USE ON FREQUENCY 126.225. ...ADVS YOU HAVE INFO T.",
    "KORD": "[Arrival ATIS] KORD ARR ATIS X 1651Z - KORD ATIS INFO X 1651Z. 31010KT 10SM -RA BKN034CB BKN045 OVC080 28/22 A2987 (TWO NINER EIGHT SEVEN) RMK AO2 RAB49 SLP110 CB OHD-E MOV SE P0000 T02830222. ARR EXP VECTORS ILS RWY 27R APCH, ILS RWY 28C APCH. LAND AND HOLD SHORT OPERATIONS ARE IN EFFECT. RWY 28C ARR PLAN TO H/S OF TWY Z, 9 THSD 6 HND TEN FT AVBL. DEPS EXP RWYS 22L 27L FROM T T 9960 FT AVL. RWY 4L, 22R CLSD. RWY 22R LOC OTS, RWY 28L GS OTS, RWY 9L IM OTS, RWY 9C IM OTS, RWY 10L IM OTS, RWY 10R IM OTS, RWY 27R IM OTS, RWY 28L IM OTS, RWY 28R IM OTS, RWY 9L PAPI OTS, RWY 27R PAPI OTS. PILOTS USE CTN FOR BIRD ACTIVITY IN THE VICINITY OF THE ARPT. USE CTN FOR PERSONNEL AND EQUIP AT NUMEROUS SITES ON THE FIELD. READBACK ALL RWY HOLD SHORT INSTRUCTIONS. WHEN READY TO TAXI CONTACT GND METERING ON FREQ 121.67. ...ADVS YOU HAVE INFO X.\n[Departure ATIS] KORD DEP ATIS M 2151Z ORD ATIS INFO M 2151Z. 20013G20KT 5SM HZ FEW035 FEW250 28/18 A2975 (TWO NINER SEVEN FIVE) RMK AO2 SLP069 T02780183. ARR EXP VECTORS ILS RWY 27C APCH, ILS RWY 27R APCH, ILS RWY 28C APCH. SIMUL APCHS IN USE. LAND AND HOLD SHORT OPERATIONS ARE IN EFFECT. RWY 27C ARR PLAN TO H/S OF TWY V V, 9 THSD 7 HND 25 FT AVBL, RWY 28C ARR PLAN TO H/S OF TWY Z, 9 THSD 6 HND TEN FT AVBL. DEPS EXP RWYS 22L 27L FROM T T 9960 FT AVL. RWY 4L, 22R CLSD. RWY 22R LOC OTS, RWY 28L GS OTS, RWY 9L IM OTS, RWY 9C IM OTS, RWY 10L IM OTS, RWY 10R IM OTS, RWY 27R IM OTS, RWY 28L IM OTS, RWY 28R IM OTS, RWY 9L PAPI OTS, RWY 27R PAPI OTS. PILOTS USE CTN FOR BIRD ACTIVITY IN THE VICINITY OF THE ARPT. HAZD WX INFO FOR ORD AREA AVBL ON FSS. USE CTN FOR PERSONNEL AND EQUIP AT NUMEROUS SITES ON THE FIELD. READBACK ALL RWY HOLD SHORT INSTRUCTIONS. WHEN READY TO TAXI CONTACT GND METERING ON FREQ 121.67. ...ADVS YOU HAVE INFO M.",
    "KJFK": "[Arrival ATIS] KJFK ARR ATIS X 0251Z JFK ATIS INFO X 0251Z. 17006KT 10SM SCT250 22/17 A2998 (TWO NINER NINER EIGHT) RMK AO2 SLP151 T02220167 50003. APPROACH IN USE RNAV GPS Z RY 13L, RNAV GPS X RY 22L. DEPG RY 13R. CONVERGING RY OPERATIONS IN USE. RWY 4L, 22R CLSD. RY 13L ALS OTS, RY 22L PAPI OTS, RY 13L SFL OTS, RWY 22L/4R INNER MARKER OTS. SWAP IN EFFECT EXPECT REROUTES. NUM CRANES OPERATING AT JFK. BIRD ACTIVITY VICINITY ARPT. READBACK ALL RWY ASSIGNMENTS AND HOLD SHORT INSTRUCTIONS. ...ADVS YOU HAVE INFO X.\n[Departure ATIS] KJFK DEP ATIS U 0051Z - KJFK ATIS INFO U 0051Z. 17007KT 10SM SCT250 22/16 A2998 (TWO NINER NINER EIGHT) RMK AO2 SLP152 T02170156. APPROACH IN USE RNAV GPS Z RY 13L, RNAV GPS X RY 22L. DEPG RY 13R. CONVERGING RY OPERATIONS IN USE. RY 13L ALS OTS, RY 22L PAPI OTS, RY 13L SFL OTS, RWY 22L/4R INNER MARKER OTS. SWAP IN EFFECT EXPECT REROUTES. NUM CRANES OPERATING AT JFK. BIRD ACTIVITY VICINITY ARPT. READBACK ALL RWY ASSIGNMENTS AND HOLD SHORT INSTRUCTIONS. ...ADVS YOU HAVE INFO U.",
    "KIND": "[Arrival ATIS] KIND ARR ATIS K 0354Z IND ATIS INFO K 0354Z. 21006KT 9SM BKN250 23/20 A2984 (TWO NINER EIGHT FOUR). PARL ILS RWY 23R AND 23L APPROACHES IN USE. NOTICE TO AIRMEN. TWY, P BTN TWY, H AND TWY B CLSD, TWY, P BTN TWY, H AND TWY J CLSD, TWY, H BTN TWY, R AND TWY N CLSD. P PAD CLSD. ILS RUNWAY 5R AND RUNWAY 5L INNER MARKER UNSERVICEABLE. ARPT ADZY FLOCK OF SMALL BIRDS IN THE VICINITY OF THE AIRPORT, ALT UNKN. ...ADVS YOU HAVE INFO K.\n[Departure ATIS] KIND DEP ATIS G 0254Z IND ATIS INFO G 0254Z. 03006KT 10SM SCT060 BKN110 BKN190 OVC250 28/22 A3007 (THREE ZERO ZERO SEVEN). PARL ILS RWY 5R AND 5L APPROACHES IN USE. CROSS RUNWAY OPERATIONS MAY BE IN EFFECT. NOTICE TO AIRMEN. TWY, P BTN TWY, H AND TWY B CLSD, TWY, P BTN TWY, H AND TWY J CLSD, TWY, H BTN TWY, R AND TWY N CLSD. P PAD CLSD. ILS RUNWAY 5R AND RUNWAY 5L INNER MARKER UNSERVICEABLE. HIWAS. ARPT ADZY FLOCK OF MEDIUM BIRDS IN THE VICINITY OF THE AIRPORT, ALT UNKN. ...ADVS YOU HAVE INFO G.",
    "KDTW": "[Arrival ATIS] KDTW ARR ATIS K 0153Z - KDTW ARR INFO K 0153Z. 18007KT 8SM FEW080 BKN140 24/16 A2978 (TWO NINER SEVEN EIGHT). SIMUL ILS Z RY 22R AND RY 21L APCH IN USE. NOTICE TO AIRMEN. RWY 21R, 3L CLSD, RWY 27L, 9R CLSD, RWY 27R, 9L CLSD. TWYS Y1 CLSD ;. RY 22L ALS OTS. PILOTS USE CTN FOR BIRD ACTIVITY. DEPARTURE ATIS 118.125. ...ADVS YOU HAVE INFO K.\n[Departure ATIS] KDTW DEP ATIS N 0953Z DTW DEP INFO N 0953Z. 35003KT 1SM R03R/P6000FT FU SCT000 OVC027 22/16 A3004 (THREE ZERO ZERO FOUR) RMK AO2 TWR VIS 2 SLP167 FU SCT000 T02170161. DEPG RWY 4R. . RWY 4R DEPARTURE POINT IS Y 2, DISTANCE REMAINING IS 11, THOUSAND, 450, FT, FULL LENGTH AVAIL UPON REQ ;. NOTICE TO AIRMEN. RWY 21R, 3L CLSD, RWY 27L, 9R CLSD, RWY 27R, 9L CLSD. TWYS Y1 CLSD ;. PILOTS USE CTN FOR BIRD ACTIVITY. TWR AND GC COMB ON FREQ 135.0. ...ADVS YOU HAVE INFO N.",
    "KMSP": "[Arrival ATIS] KMSP ARR ATIS I 0353Z MSP ARR INFO I 0353Z. 26008KT 10SM FEW075 27/18 A2970 (TWO NINER SEVEN ZERO) RMK AO2 SLP050 T02670178. SIMULTANEOUS DEPENDENT, ILS RWY 30L APCH IN USE, ILS RWY 30R APCH IN USE. NOTICE TO AIRMEN. RWYS 4, 22 CLSD. TWY R7. R8. R9. R10. CLOSED. TWY R BTWN R6 AND R10 CLSD, TWY A7 CLSD, TWY A CLSD BTN TWY, A7 AND TWY D. GS RWY 12L OTS, RWYS 12R, 12L, INNER MARKER OTS. HAZD WX INFO FOR MSP AREA AVBL FM FSS. CTN, BIRDS NEAR MSP. READ BACK HS AND ALT. ALL ACFT TAXI WITH TRANSPONDER AND ALTITUDE ENCODING ON. ...ADVS YOU HAVE INFO I.\n[Departure ATIS] KMSP DEP ATIS T 0153Z - KMSP DEP INFO T 0153Z. 28009KT 10SM CLR 28/17 A2968 (TWO NINER SIX EIGHT). DEPARTING RWY 30L, RWY 30R. NOTICE TO AIRMEN. RWYS 4, 22 CLSD. TWY R7. R8. R9. R10. CLOSED. TWY R BTWN R6 AND R10 CLSD, TWY A7 CLSD, TWY A CLSD BTN TWY, A7 AND TWY D. SWAP IN EFCT, INCLUDING CDR. ALL ACFT CTC METERING ON ONE THREE THREE POINT FIVE SEVEN WHEN READY TO PUSHBACK OR TAXI. HAZD WX INFO FOR MSP AREA AVBL FM FSS. CTN, BIRDS NEAR MSP. READ BACK HS AND ALT. ALL ACFT TAXI WITH TRANSPONDER AND ALTITUDE ENCODING ON. ...ADVS YOU HAVE INFO T.",
    "CYEG": "[Arrival ATIS] CYEG ARR ATIS F 0300Z 01004KT 4SM FU SCT034 CIG BKN250 17/15 A3022 APCH RNAV Z OR Y OR ILS RWY 02, INFORM ARRL OF REQ APCH ON INITIAL CTC. LDG AND DEP RWY 02. SIMUL APPROACHES MAY BE IN EFCT. INFORM CYEG ATC INFO F\n[Departure ATIS] CYEG DEP ATIS F 0300Z CYEG ARR ATIS F 0300Z 01004KT 4SM FU SCT034 CIG BKN250 17/15 A3022 APCH RNAV Z OR Y OR ILS RWY 02, INFORM ARRL OF REQ APCH ON INITIAL CTC. LDG AND DEP RWY 02. SIMUL APPROACHES MAY BE IN EFCT. INFORM CYEG ATC INFO F",
    "EHAM": "[Arrival ATIS] EHAM ARR ATIS I 0321Z EHAM ARRIVAL INFO I. DEMAND. MAIN LANDING RWY 06. TRANSITION LEVEL 040. WIND 350 DEG, 3 KT, VRB BTN 290 AND 050 DEG, 8 KT MAX, 2 KT MNM. VIS 10 KM OR MORE. CLD BKN 2500 FT. T 12. DP 10. QNH 1025 HPA. NOSIG. OPERATIONAL REPORT. CONTACT APCH WITH CALLSIGN ONLY. END OF INFO I\n[Departure ATIS] EHAM DEP ATIS O 2020Z EHAM DEPARTURE INFO O. DEMAND. MAIN DEPARTURE RWY 36 L. MAIN LANDING RWY 06. WIND 360 DEG, 6 KT. VIS 10 KM OR MORE. CLD FEW 3000 FT. T 15. DP 9. QNH 1025 HPA. OPERATIONAL REPORT. INFORM SCHIPHOL DEL BY VOICE IF UNABLE TO COMPLY WITH NADP 2. END OF INFO O",
    "EBBR": "[Arrival ATIS] EBBR ARR ATIS T 1659Z EBBR NAT, EXP VECT FOR RNP APP ARR RWY25R RSCD AT 1139 RWY25R DRY. DEP RWY25R TRL 055 RWY 25L CLSD WIP, RWY 19 CLSD WIP 340/6KT VRB BTN 310 AND 020 MNM4 MAX11 VIS ABV 10KM BKN4900FT T19 DP11 QNH 1017HPA NOSIG CFM ARR T\n[Departure ATIS] EBBR DEP ATIS P 1407Z EBBR NAT, DEP RWY25R RSCD AT 1058 RWY25R DRY. ARR RWY25L TRL 055 TWY B1 CLSD. ADV DLC IF UNA TO LINEUP VIA B3 , TORA 2760 M. TAIL OPS 310/8KT VRB BTN 290 AND 010 MNM4 MAX14 CAVOK T21 DP8 QNH 1024HPA NOSIG CFM DEP P",
    "EDDF": "[Arrival ATIS] EDDF ARR ATIS A 0420Z -ARR-ATIS EDDF A METAR 240420 -EXPECT INDEPENDENT PARALLEL ILS Y APCH RWY 07L OR ILS APCH RWY 07R -RWY 07L 07R -GLS APCH ON REQUEST , -TRL 60 - -08003KT -CAVOK - - -T23 DP18 -QNH1019 - -TREND NOSIG\n[Departure ATIS] EDDF DEP ATIS U 1920Z -DEP-ATIS EDDF U METAR 201920 - -RWY 07C 18 -ACFT DEPARTING RWY18 : EXPECT POSSIBLE DEPARTURE FROM INTERSECTION M , TORA 3454 METERS. IF UNABLE , ADVISE TWR ON INITIAL CONTACT , -TRL 60 - -01008KT RWY18 01007KT -CAVOK - - -T19 DP08 -QNH1022 - -TREND NOSIG",
    "EDDL": "[Arrival ATIS] EDDL ARR ATIS Q 0250Z -ATIS EDDL Q METAR 210250 -EXPECT VECTORS ILS APPROACH -RWY 05R - -TRL 60 - -33003KT -CAVOK - - -T11 DP09 -QNH1025 - -TREND NOSIG\n[Departure ATIS] EDDL DEP ATIS R EDDL ARR/DEP DATIS RPT -ATIS EDDL R METAR 020550 -EXPECT VECTORS ILS APPROACH -RWY 23L -TWY L8 CLOSED BETWEEN TWY M AND RWY 23L -TRL 60 - -23010KT -CAVOK - - -T19 DP13 -QNH1020 - -TREND NOSIG",
    "EDDK": "[Arrival ATIS] EDDK ATIS E 1650Z -ATIS EDDK E METAR 181650 -EXPECT ILS APCH -RWY 31R 24 -RWY COND RWY 31R AT TIME 1315 RWYCC 6 DEPOSIT TOTAL RWY DRY RWY 24 AT TIME 1315 RWYCC 6 DEPOSIT TOTAL RWY DRY -TRL 60 -RWY 13R AND RWY 31L CLOSED FOR DEPARTURE AND LANDING: TAXIING BTN THR RWY 13R AND INTERSECTION RWY 24 POSSIBLE : -33012KT 280V360 -9999 - -FEW039 -T23 DP13 -QNH1015 - -TREND NOSIG\n[Departure ATIS] EDDK DEP ATIS E 2050Z -ATIS EDDK E METAR 142050 -EXPECT CDO FOR ILS APCH RWY 31R -RWY 31R 06 -RWY COND RWY 31R AT TIME 1837 RWYCC 6 DEPOSIT TOTAL RWY DRY RWY 06 AT TIME 1837 RWYCC 6 DEPOSIT TOTAL RWY DRY -TRL 60 -RWY 13R AND RWY 31L CLOSED FOR DEPARTURE AND LANDING: TAXIING BTN THR RWY 13R AND INTERSECTION RWY 24 POSSIBLE : -02006KT 350V050 -CAVOK - - -T23 DP14 -QNH1018 - -TREND NOSIG",
    "EBLG": "[Arrival ATIS] EBLG ATIS V 1650Z EBLG INFO, EXP RNAV TO ILS APP ARR RWY22L DEP RWY22L RWY 22L DRY, RWYCC 666. TRL 055 ADZ ON GND FREQ IF UNABLE C4 320/9KT MNM7 MAX16 VIS ABV 10KM FEW3500FT SCT4800FT T21 DP12 QNH 1017HPA NOSIG CFM ATIS V",
    "LSZH": "[Arrival ATIS] LSZH ARR ATIS E 0350Z ARRIVALS, EXP ILS APCH, RWY 34. TRL 70. DEP RWY 32. DEPENDENT OPS ON CONVERGING RWY. TWY E 4 CLSD. WIND 320 DEG, 4 KT, VRB BTN 280 AND 340 DEG. CAVOK. T 12. DP 6. QNH 1022. NOSIG.\n[Departure ATIS] LSZH DEP ATIS X 0350Z DEP RWY 32. DEPENDENT OPS ON CONVERGING RWY. TRL 70. ARRIVALS, EXP ILS APCH, RWY 34. TMA S 1 IS ACT. TMA S 2 AND S 3 ARE ACT. WIND 320 DEG, 5 KT. CAVOK. T 12. DP 6. QNH 1022. NOSIG.",
    "LIMC": "[Arrival ATIS] LIMC ARR ATIS N 0420Z LIMC ARR N 0420Z I.L.S. ZULU RWY IN USE 35R TL 70 INTERSECTIONS DELTA ECHO AND DELTA ALPHA CLOSED WIND TDZ 070/3KT CAVOK T23 DP20 QNH 1018HPA QFE 0992HPA\n[Departure ATIS] LIMC DEP ATIS Y 1150Z LIMC DEP Y 1150Z RWY IN USE 35L TL 70 WIND END 250/3KT VRB BTN 210/AND 320/ CAVOK T33 DP21 QNH 1018HPA QFE 0993HPA DATALINK CLEARANCE AVAILABLE.... CONTACT 1 3 1 8 8 0 TO BE RELEASED BY THE AIRPORT OPERATOR ...",
    "LIRF": "[Arrival ATIS] LIRF ARR ATIS H 0220Z LIRF ARR H 0220Z ILS RWY IN USE 16R TL 70 WIND TDZ 080/4KT VRB BTN 050/AND 110/ CAVOK T24 DP23 QNH 1013HPA\n[Departure ATIS] LIRF DEP ATIS Q 1220Z LIRF DEP Q 1220Z RWY IN USE 25 TL 75 RWYS IN USE FOR ARR 16L AND 16R WIND END 270/8KT VRB BTN 240/AND 310/ CAVOK T32 DP24 QNH 1012HPA REA IS SENT AUTOMATICALLY ONCE RLSD BY RAMP WHEN READY CONTACT FIUME RAMP 121.725 RRSM",
    "EINN": "[Arrival ATIS] EINN ARR ATIS U 0300Z EXPECT I L S CATEGORY 1 LDG RWY06 TKOF RWY06 TRL FL055 VRB02KT 9999 SCT015 BKN028 14/12 QNH Q1032 TREND TEMPO BKN014 ADVISE AT FIRST CONTACT YOU HAVE ATIS INFO U",
    "EGLL": "[Arrival ATIS] EGLL ARR ATIS R 0350Z LANDING RWY 09R TRANSITION-LEVEL: FL 70 RUNWAY 09L REDUCED DECLARED DISTANCES IF STAND GUIDANCE IS OFF OR FAILS, REMAIN ON THE TAXIWAY CENTRELINE AND ADVISE ATC AUTO 02005KT 9999 NCD 16/11 Q1028 ACKNOWLEDGE RECEIPT OF INFORMATION R\n[Departure ATIS] EGLL DEP ATIS X 0020Z DEPARTURE RWY 09R RUNWAY 09L REDUCED DECLARED DISTANCES PILOTS THAT ARE IN RECEIPT OF DATALINK CLEARANCES ARE REMINDED THEY MUST CONTACT DELIVERY ON 121.980 WHEN READY FOR START DATALINK CLEARANCES NOT AVAILABLE FOR CPT DEPARTURES AUTO 14003KT 120V180 9999 NCD 17/10 Q1028 ACKNOWLEDGE RECEIPT OF INFORMATION X AND REPORT AIRCRAFT TYPE AND CURRENT QNH ON FIRST CONTACT WITH HEATHROW",
    "EPWA": "[Arrival ATIS] EPWA ARR ATIS C 0351Z EPWA ARR C. TIME 0349. EXP U ARR ILS Z APCH FOR RWY 33. RWY 33 RCC 5, 5, 5. 1ST PART, WET. 2ND PART, WET. 3RD PART, WET. RWY REPORT END. TRANSITION LEVEL 80. WIND 250 DEG, 8 KT GUSTING FM 3 KT TO 16 KT, VRB BTN 220 AND 290 DEG. VIS TDZ 5 KM. WX FBL SHRA. CLD BKN 700 FT, CLD BKN CB 1400 FT. T 13. DP 13. QNH 1012. TREND TEMPO VIS 4000 M. CAUTION. BIRD ACT. END OF EPWA ARR C\n[Departure ATIS] EPWA DEP ATIS Z 1420Z EPWA DEP Z. TIME 1420. DEP RWY 29. ARR RWY 33, EXP U ARR ILS Z. REPORT READY FOR STARTUP ON DELIVERY 121 DECIMAL 605. RWY 29 RCC 5, 5, 5. 1ST PART, WET. 2ND PART, WET. 3RD PART, WET. RWY REPORT END. TRANSITION LEVEL 80. WIND 270 DEG, 17 KT GUSTING FM 13 KT TO 28 KT. VIS MID 10 KM OR MORE. WX FBL SHRA. CLD BKN CB 3700 FT. T 15. DP 11. QNH 1016. TREND TEMPO WIND 260 DEG, 20 KT, GUSTING TO 32 KT, VIS 4000 M, MOD SHRA. CAUTION. BIRD ACT. END OF EPWA DEP Z",
    "EFHK": "[Arrival ATIS] EFHK ARR ATIS C 0420Z EXPECT ILS APCH ARR RWY 15 RUNWAY 15 CONDITION REPORT AT 0147 UTC RUNWAY CONDITION CODES 5 , 5 , 5 CONTAMINANTS ALL PARTS 100 PERCENT WET TRL 65 WIND 190 DEG 7 KT VIS 10KM FBL RA SCT 4000 FT T 14 DP 12 QNH 1013 NOSIG ACK INFO C\n[Departure ATIS] EFHK DEP ATIS E 0350Z DEP RWYS 22R AND 22L RUNWAY 22R CONDITION REPORT AT 0146 UTC RUNWAY CONDITION CODES 5 , 5 , 5 CONTAMINANTS ALL PARTS 100 PERCENT WET RUNWAY 22L CONDITION REPORT AT 0148 UTC RUNWAY CONDITION CODES 3 , 3 , 3 CONTAMINANTS ALL PARTS 100 PERCENT SLIPPERY WET WIND 180 DEG 6 KT VIS 10KM FBL RA SCT 4500 FT T 13 DP 12 QNH 1013 NOSIG ACK INFO E",
    "LTAC": "[Arrival ATIS] LTAC ARR ATIS K 0220Z EXP ILS V APCH 03C DEP RWY 03L RWY 03C WIND CALM RWY 03L WIND CALM TRL 110 CAVOK T 17 DP 07 QNH 1016 NOSIG FOR DELIVERY CTC 121.9. FOR DELIVERY FIRST USE DIGITAL DEP CLR. CTN BIRD HAZARD OVR AERODROME. APCH FREQUENCY 129.050. END OF ATIS K",
    "UBBB": "[Arrival ATIS] UBBB ARR ATIS J 0400Z ATIS J EXP ILS/ LDG 16 17 DEP 16 17 IN USE RWY 16 CLEAR DRY 70 RWY 17 CLEAR DRY 70 TLVL 110 WIND WIND RWY 16 CALM WIND RWY 17 140 4 KT SPD MAX 6 MIN 2 VIS CAVOK T 25 / DP 13 QNH 1012 HPA TREND TREND NOSIG MODERATE BIRDS ACT IN VICINITY OF AP END OF ATIS J\n[Departure ATIS] UBBB DEP ATIS I 0330Z ATIS I EXP ILS/ LDG 34 35 DEP 34 35 IN USE RWY 34 CLEAR DRY 70 RWY 35 CLEAR DRY 70 TLVL 110 WIND WIND RWY 34 340 4 KT SPD MAX 6 MIN 2 WIND RWY 35 330 4 KT SPD MAX 6 MIN 2 VIS CAVOK T 26 / DP 20 QNH 1013 HPA TREND TREND NOSIG MODERATE BIRDS ACT IN VICINITY OF AP END OF ATIS I",
    "ZWWW": "[Arrival ATIS] ZWWW ARR ATIS J 0330Z EXP ILSDME Z APCH LDG RWY 26R TA 3000 WIND 050/3MPS VRB BTN 010/ AND 110/ CAVOK T 38 /DP 08 QNH 1001 HPA ADZ YOU HAVE INFO J.\n[Departure ATIS] ZWWW DEP ATIS F 0100Z DEP RWY 26L TA 3000 WIND 170/5MPS VRB BTN 150/ AND 210/ CAVOK T 25 /DP 03 QNH 1010 HPA ADZ YOU HAVE INFO F.",
    "ZLXY": "[Arrival ATIS] ZLXY ARR ATIS C 0400Z EXP ILS APCH LDG RWY 05L & 06R WIND 080/4MPS VRB BTN 040/ AND 120/ VIS 9999M CLD FEW 1200M T 28 /DP 20 QNH 1009 HPA VISUAL APPROACH IN PROGRESS ADZ YOU HAVE INFO C.\n[Departure ATIS] ZLXY DEP ATIS C 0400Z DEP RWY 05L & 06L WIND 080/4MPS VRB BTN 040/ AND 120/ VIS 9999M CLD FEW 1200M T 28 /DP 20 QNH 1009 HPA VISUAL APPROACH IN PROGRESS ADZ YOU HAVE INFO C.",
    "ZBAA": "[Arrival ATIS] ZBAA ARR ATIS I 0430Z EXP ILS APCH INDEPENDENT PARL INSTR APCH LDG RWY 36L & 01 WIND 170 DEG 3 MPS 120V210 DEG CAVOK T 28 /DP 20 QNH 1007 HPA ADZ YOU HAVE INFO I.\n[Departure ATIS] ZBAA DEP ATIS I 0430Z DEP RWY 36L & 36R & 01 WIND 170 DEG 3 MPS 120V210 DEG CAVOK T 28 /DP 20 QNH 1007 HPA RWY INDEPENDENT PARALLEL DEP ADZ YOU HAVE INFO I.",
    "ZBHH": "[Arrival ATIS] ZBHH ARR ATIS K 2300Z EXP ILSDME APCH LDG RWY 08 TA 3000 /TRL 3600 WIND 070/2MPS CAVOK T 17 /DP 15 QNH 1009 HPA ADZ YOU HAVE INFO K.\n[Departure ATIS] ZBHH DEP ATIS Q 1500Z DEP RWY 08 TA 3000 /TRL 3600 WIND 140/2MPS VIS 5000M BR NSC T 19 /DP 19 QNH 1007 HPA ADZ YOU HAVE INFO Q.",
    "ZSQD": "[Arrival ATIS] ZSQD ARR ATIS E 0400Z EXP ILSDME APCH LDG RWY 35 TA 3000 /TRL 3600 WIND 140/3MPS VRB BTN 060/ AND 200/ VIS 9999M CLD SCT 990M T 28 /DP 16 QNH 1008 HPA SEGREGATED OPERATION VISUAL APPROACH OPERATION IN PROGRESS. RUNWAY 35,IF MISSED APPROACH,EXPECT FOLLOW THE STANDARD MISSED APPROACH PROCEDURE,CLIMB TO 1200M ON QNH OR BY ATC CAUTION MAYBE THERE IS A FLOCK OF BIRDS IN THE VICINITY OF AIRPORT ADZ YOU HAVE INFO E.\n[Departure ATIS] ZSQD DEP ATIS B 0100Z DEP RWY 34 TA 3000 /TRL 3600 WIND VRB/1MPS VIS 9999M CLD FEW 570M T 24 /DP 19 QNH 1009 HPA SEGREGATED OPERATION VISUAL APPROACH OPERATION IN PROGRESS. RUNWAY 35,IF MISSED APPROACH,EXPECT FOLLOW THE STANDARD MISSED APPROACH PROCEDURE,CLIMB TO 1200M ON QNH OR BY ATC CAUTION MAYBE THERE IS A FLOCK OF BIRDS IN THE VICINITY OF AIRPORT ADZ YOU HAVE INFO B."
  },
  "windtemp_alaska": "\n000\nFBAK31 KWNO 210201\nFD1AK1\nDATA BASED ON 210000Z    \nVALID 210600Z   FOR USE 0200-0900Z. TEMPS NEG ABV 24000\n\nFT  3000    6000    9000   12000   18000   24000  30000  34000  39000\nADK 2730 2728+13 2726+07 2825+01 2928-11 3038-21 314936 316146 326258\nADQ 2408 2111+00 2217-05 2321-09 2727-20 2945-30 297444 294749 251744\nAKN 1621 1716-01 1918-06 2019-09 2419-19 2835-29 266245 274549 252043\nANC 2205 1511+01 1615-04 1622-09 1536-21 1449-32 137445 145245 153043\nANN 9900 9900+15 9900+09 9900+02 2010-13 2016-25 201940 202149 212256\nBET 1520 1523-01 1524-06 1520-10 1710-21 2426-30 243846 242346 241641\nBRW 1221 1413+07 1514+01 1619-03 1723-15 1730-28 164443 173951 162653\nBTI 1018 9900+12 2307+05 2005-01 1508-15 1519-26 151942 141752 161457\nBTT 9900 1315+09 1424+02 1433-03 1432-17 1438-29 144043 133251 143051\nCDB 2236 2432+07 2630+04 2637-01 2745-14 2744-25 274242 284352 284253\nCZF 1313 1321-02 1326-07 1321-11 1410-22 2313-32 223847 241742 241139\nEHM 1532 1536-01 1631-04 1825-07 2635-16 2542-28 255146 264947 272743\nFAI 9900 1710+09 1518+02 1425-04 1435-17 1440-29 143943 153951 153150\nFYU 1112 1314+13 1416+05 1317-01 1322-16 1426-27 143044 143753 163050\nGAL 9900 9900+02 1711-04 1527-08 1440-21 1465-30 138244 147551 143442\nGKN 1718 1729+05 1728-01 1528-05 1539-18 1546-29 145943 146151 164148\nHOM 1812 2011-01 2013-06 1915-11 1918-24 2019-35 252141 211541 201542\nJNU 2805 2310+11 2215+07 2215+01 2018-15 1924-27 202541 212349 202654\nLUR 1712 1613+03 1516-03 1323-08 1340-21 1564-31 149745 147848 133443\nMCG 2006 2009+01 1711-05 1419-10 1333-22 1358-32 139046 145245 153041\nMDO 2412 1911+01 1717-03 1723-08 1633-21 1641-33 154845 164043 173142\nOME 1412 1416+00 1416-06 1416-12 1424-25 1523-36 152543 152440 151639\nORT      9900+11 1511+04 1513-02 1623-16 1629-28 163443 153051 162950\nOTZ 1413 1419+01 1421-05 1325-10 1447-22 1573-31 640045 147647 143341\nSNP 2814 2722+07 2736+05 2839+00 2848-13 2859-26 286942 296949 294946\nTKA 2110 1723+02 1528-03 1527-08 1444-20 1354-30 137445 147249 153543\nUNK 1515 1616+00 1519-06 1421-11 1430-23 1445-35 145745 143342 162241\nYAK 9900 2506+04 2115+03 1922-02 1836-16 1741-27 174342 184450 183751\nIKO 2624 2828+11 2834+05 2835-01 2735-13 2837-24 293940 294151 304153\nAFM 1507 1407+04 1415-01 1424-07 1445-18 1455-29 146443 147051 144547\n5AB 2832 2729+12 2631+07 2634+00 2734-09 2942-19 305034 306144 317955\n5AC 3420 3212+13 3106+08 9900+01 2208-14 2212-25 221740 211749 212256\n5AD 2913 2916+02 2620-02 2526-07 2535-21 2536-35 263642 263543 243243\n5AE 2326 2228+00 2230-03 2434-06 2648-15 2844-26 284444 294655 283350\n5AF 3012 2411+10 2016+06 1922-01 1933-16 1937-27 194341 194349 193854\n5AG 2306 2010+04 1915+00 1724-06 1841-19 1651-31 177543 176746 173946\n",
  "vaac_tokyo": [
    {
      "id": "20260720_30027000_0272",
      "year": "2026",
      "volcano": "Sheveluch",
      "psn": "N5639 E16122",
      "issued": "20260720",
      "text": "FVFE01 RJTD 201500\nVA ADVISORY\nDTG: 20260720/1500Z\nVAAC: TOKYO\nVOLCANO: SHEVELUCH 300270\nPSN: N5639 E16122\nAREA: RUSSIA\nSOURCE ELEV: 3283M AMSL\nADVISORY NR: 2026/272\nINFO SOURCE: HIMAWARI-9\nERUPTION DETAILS: VA CONTINUOUSLY OBS IN SATELLITE IMAGERY\nOBS VA DTG: 20/1420Z\nOBS VA CLD: SFC/FL390 N5626 E16711 - N5644 E16801 - N5334 E17100 - \nN5320 E17046 - N5455 E16741 MOV SE 80KT\nFCST VA CLD +6 HR: 20/2020Z SFC/FL400 N5451 E17745 - N5237 E17715 - \nN5013 E17845 - N5030 E17644 - N5236 E17455 - N5459 E17606\nFCST VA CLD +12 HR: 21/0220Z SFC/FL400 N5255 W17530 - N4753 W17642 - \nN4554 W17523 - N4517 W17545 - N4651 W17824 - N5004 W17948\nFCST VA CLD +18 HR: 21/0820Z SFC/FL400 N5101 W17024 - N4432 W17322 - \nN4036 W16942 - N4024 W17143 - N4405 W17542 - N4722 W17530\nRMK: SOME PART OF VA OBSCURED BY MET CLOUD. THE RESPONSIBILITY FOR \nTHIS ASH EVENT IS BEING TRANSFERRED TO VAAC ANCHORAGE. THE NEXT \nADVISORY WILL BE ISSUED BY VAAC ANCHORAGE BY 1800UTC UNDER HEADER \nFVAK21 PAWU.\nNXT ADVISORY: NO FURTHER ADVISORIES=",
      "img_url": "https://ds.data.jma.go.jp/svd/vaac/data/VAGFN/2026/Images/20260720_30027000_0272_QH21_01.png",
      "sat_img_url": "https://ds.data.jma.go.jp/svd/vaac/data/Sat/2026/Images/30027000/09-ir/20260720_1420_202607201500_ir.png",
      "text_url": "https://ds.data.jma.go.jp/svd/vaac/data/TextData/2026/20260720_30027000_0272_Text.html"
    },
    {
      "id": "20260719_27303000_0769",
      "year": "2026",
      "volcano": "Mayon",
      "psn": "N1315 E12341",
      "issued": "20260719",
      "text": "FVFE01 RJTD 192213\nVA ADVISORY\nDTG: 20260719/2213Z\nVAAC: TOKYO\nVOLCANO: MAYON 273030\nPSN: N1315 E12341\nAREA: PHILIPPINES\nSOURCE ELEV: 2462M AMSL\nADVISORY NR: 2026/769\nINFO SOURCE: HIMAWARI-9 PHIVOLCS\nERUPTION DETAILS: ERUPTION AT 20260719/2148Z FL080 EXTD W REPORTED\nOBS VA DTG: 19/2200Z\nOBS VA CLD: VA NOT IDENTIFIABLE FM SATELLITE DATA WIND FL080 010/2KT\nFCST VA CLD +6 HR: NOT AVBL\nFCST VA CLD +12 HR: NOT AVBL\nFCST VA CLD +18 HR: NOT AVBL\nRMK: WE WILL ISSUE FURTHER ADVISORY IF VA IS DETECTED IN SATELLITE \nIMAGERY.\nNXT ADVISORY: NO FURTHER ADVISORIES=",
      "img_url": "https://ds.data.jma.go.jp/svd/vaac/data/VAGFN/2026/Images/20260719_27303000_0769_QH21_01.png",
      "sat_img_url": null,
      "text_url": "https://ds.data.jma.go.jp/svd/vaac/data/TextData/2026/20260719_27303000_0769_Text.html"
    },
    {
      "id": "20260717_27307000_0014",
      "year": "2026",
      "volcano": "Taal",
      "psn": "N1400 E12100",
      "issued": "20260717",
      "text": "FVFE01 RJTD 171113\nVA ADVISORY\nDTG: 20260717/1113Z\nVAAC: TOKYO\nVOLCANO: TAAL 273070\nPSN: N1400 E12100\nAREA: PHILIPPINES\nSOURCE ELEV: 311M AMSL\nADVISORY NR: 2026/14\nINFO SOURCE: HIMAWARI-9 PHIVOLCS\nERUPTION DETAILS: ERUPTION AT 20260717/1051Z FL040 EXTD E REPORTED\nOBS VA DTG: 17/1100Z\nOBS VA CLD: VA NOT IDENTIFIABLE FM SATELLITE DATA WIND FL040 270/8KT\nFCST VA CLD +6 HR: NOT AVBL\nFCST VA CLD +12 HR: NOT AVBL\nFCST VA CLD +18 HR: NOT AVBL\nRMK: WE WILL ISSUE FURTHER ADVISORY IF VA IS DETECTED IN SATELLITE \nIMAGERY.\nNXT ADVISORY: NO FURTHER ADVISORIES=",
      "img_url": "https://ds.data.jma.go.jp/svd/vaac/data/VAGFN/2026/Images/20260717_27307000_0014_QH21_01.png",
      "sat_img_url": null,
      "text_url": "https://ds.data.jma.go.jp/svd/vaac/data/TextData/2026/20260717_27307000_0014_Text.html"
    },
    {
      "id": "20260713_28208001_0083",
      "year": "2026",
      "volcano": null,
      "psn": "N3136 E13039",
      "issued": "20260713",
      "text": "FVFE01 RJTD 130254\nVA ADVISORY\nDTG: 20260713/0254Z\nVAAC: TOKYO\nVOLCANO: SAKURAJIMA (AIRA CALDERA) 282080\nPSN: N3136 E13039\nAREA: JAPAN\nSOURCE ELEV: 1117M AMSL\nADVISORY NR: 2026/83\nINFO SOURCE: JMA HIMAWARI-9\nERUPTION DETAILS: ERUPTED AT 20260713/0152Z FL100 EXTD N\nOBS VA DTG: 13/0230Z\nOBS VA CLD: SFC/FL100 N3136 E13039 - N3142 E13040 - N3141 E13044 - \nN3134 E13042 MOV NE 15KT\nFCST VA CLD +6 HR: 13/0830Z SFC/FL100 N3234 E13121 - N3145 E13155 - \nN3202 E13110 - N3227 E13051\nFCST VA CLD +12 HR: 13/1430Z SFC/FL100 N3318 E13206 - N3142 E13317 - \nN3134 E13226 - N3312 E13118\nFCST VA CLD +18 HR: NO VA EXP\nRMK: NIL\nNXT ADVISORY: 20260713/0600Z=",
      "img_url": "https://ds.data.jma.go.jp/svd/vaac/data/VAGFN/2026/Images/20260713_28208001_0083_QH21_01.png",
      "sat_img_url": "https://ds.data.jma.go.jp/svd/vaac/data/Sat/2026/Images/28208001/09-ir/20260713_0230_202607130254_ir.png",
      "text_url": "https://ds.data.jma.go.jp/svd/vaac/data/TextData/2026/20260713_28208001_0083_Text.html"
    }
  ],
  "vaac_alaska": [
    {
      "text": "\n000\nFVAK21 PAWU 210244\nVAAAK1\nVA ADVISORY\n\nDTG: 20260721/0242Z\n\nVAAC: ANCHORAGE\n\nVOLCANO: SHEVELUCH 300270\n\nPSN: N5639 E16122\n\nAREA: KAMCHATKA PENINSULA\n\nSOURCE ELEV: 10771 FT AMSL\n\nADVISORY NR: 2026/212\n\nINFO SOURCE: HIMAWARI\n\nERUPTION DETAILS: NIL\n\nOBS VA DTG: 21/0242Z\n\nOBS VA CLD: VA NOT IDENTIFIABLE FROM SATELLITE DATA\n\nFCST VA CLD +6HR: NO VA EXP\n\nFCST VA CLD +12HR: NO VA EXP\n\nFCST VA CLD +18HR: NO VA EXP\n\nRMK: NIL...BH\n\nNXT ADVISORY: NO FURTHER ADVISORIES=\n\n",
      "issued": "2026-07-21T02:44:00+00:00",
      "volcano": "Sheveluch",
      "psn": "N5639 E16122"
    }
  ]
}