{
  "updated_utc": "2026-07-19T04:15Z",
  "metar": {
    "RJAA": "METAR RJAA 190230Z 13010KT 9999 FEW020 BKN030 BKN/// 30/24 Q1008 NOSIG",
    "PANC": "METAR PANC 190253Z 14008KT 10SM FEW020 SCT055 OVC130 14/07 A3008 RMK AO2 SLP188 60000 T01440067 50000",
    "PAFA": "METAR PAFA 190253Z 20003KT 10SM FEW050 SCT075 BKN130 19/06 A2993 RMK AO2 SLP139 T01940061 55002 $",
    "PAED": "METAR PAED 190255Z 34006KT 10SM FEW020 BKN060 OVC120 15/10 A3007 RMK AO2A SLP179 T01470095 53001 $",
    "KSEA": "METAR KSEA 190253Z 33006KT 10SM FEW050 FEW250 22/11 A3012 RMK AO2 SLP205 T02170111 55008 $",
    "ZSPD": "METAR ZSPD 190230Z 08002MPS 040V140 CAVOK 32/27 Q1003 NOSIG",
    "ZSSS": "METAR ZSSS 190230Z VRB02MPS CAVOK 34/26 Q1003 NOSIG",
    "RJFR": "METAR RJFR 190300Z 08008KT 060V140 9999 FEW020 31/27 Q1005",
    "VHHH": "METAR VHHH 190230Z 19012G24KT 170V230 9999 -SHRA FEW010 SCT025 30/25 Q1006 RERA NOSIG",
    "RCTP": "METAR RCTP 190230Z 24021KT 9999 FEW020 BKN035 BKN180 33/25 Q1007 WS R23R NOSIG RMK A2974",
    "ZGSZ": "METAR ZGSZ 190300Z 18007MPS 9999 FEW020 BKN050 31/27 Q1006 BECMG AT0410 TSRA FEW012 FEW025CB BKN033",
    "WSSS": "METAR WSSS 190230Z 16009KT 9999 SCT018 BKN300 30/25 Q1012 NOSIG",
    "WMKK": "METAR WMKK 190230Z VRB02KT 9999 FEW017CB 31/24 Q1012 NOSIG",
    "WIDD": "METAR WIDD 190230Z 13005KT 060V210 9999 FEW014 31/25 Q1012 NOSIG",
    "VTBS": "METAR VTBS 190230Z 28007KT 250V310 9999 FEW020 31/21 Q1010 NOSIG",
    "VTBU": "METAR VTBU 190230Z 28005KT 250V310 9000 FEW020 32/27 Q1010 NOSIG",
    "ROAH": "METAR ROAH 190230Z 31006KT 9999 VCSH FEW007 30/27 Q1007",
    "VVDN": "METAR VVDN 190230Z 24007KT 190V270 CAVOK 34/21 Q1006 NOSIG",
    "RCKH": "METAR RCKH 190230Z 27003KT 180V330 9000 -SHRA FEW009TCU FEW014 SCT026 BKN038 28/26 Q1008 NOSIG RMK 30002KT/R09 TCU SW A2977",
    "KLAX": "METAR KLAX 190253Z 26008KT 10SM SCT010 SCT060 22/18 A2993 RMK AO2 SLP132 T02170183 55001 $",
    "KONT": "METAR KONT 190253Z 23010KT 10SM FEW250 28/15 A2993 RMK AO2 SLP118 T02780150 53006 $",
    "KSFO": "METAR KSFO 190256Z 29018KT 10SM FEW003 SCT008 SCT200 14/12 A2998 RMK AO2 PK WND 29028/0238 SLP151 T01440117 55002 $",
    "KOAK": "METAR KOAK 190253Z 28012KT 10SM FEW005 BKN008 BKN250 15/12 A2998 RMK AO2 SLP153 BKN008 V SCT T01500122 55002",
    "KMHR": "METAR KMHR 190235Z AUTO 22008KT 10SM CLR 31/03 A2988 RMK AO2 T03120034 $",
    "KDFW": "METAR KDFW 190253Z 16008KT 10SM FEW250 31/19 A2994 RMK AO2 SLP128 T03110194 53004 $",
    "KIAH": "METAR KIAH 190253Z 19006KT 10SM FEW250 29/24 A3000 RMK AO2 SLP156 T02940244 53005 $",
    "KORD": "METAR KORD 190251Z 04013KT 5SM FU FEW024 FEW060 24/18 A2997 RMK AO2 SLP142 T02390183 53022 $",
    "KJFK": "SPECI KJFK 190240Z 22013KT 10SM FU FEW007 BKN050 OVC120 24/23 A2967 RMK AO2 RAB14E33 FU BKN050 P0001 T02440228 $",
    "KRFD": "METAR KRFD 190254Z 07006KT 7SM FEW060 SCT250 24/19 A2997 RMK AO2 SLP143 T02390194 53020 $",
    "KIND": "METAR KIND 190254Z 00000KT 10SM FEW040 SCT140 BKN250 24/22 A2992 RMK AO2 SLP124 OCNL LTGIC DSNT S CB DSNT S MOV SE 60001 T02390222 53003 $",
    "KDTW": "METAR KDTW 190253Z 36010KT 8SM FEW040 22/15 A2991 RMK AO2 SLP125 T02220150 51040 $",
    "KMSP": "METAR KMSP 190253Z 03003KT 10SM FEW065 FEW250 26/15 A3000 RMK AO2 SLP152 T02610150 53008",
    "CYEG": "SPECI CYEG 190220Z CCA 06007KT 15SM TS FEW050 BKN130CB OVC250 25/19 A2967 RMK SC1CB5CI3 SC TR CB SH SW MOV NE OCNL LTGCG SLP040 DENSITY ALT 4400FT",
    "EHAM": "METAR EHAM 190225Z 33010KT 9999 -SHRA FEW028TCU 15/12 Q1018 NOSIG",
    "EBBR": "METAR EBBR 190220Z 30005KT 9999 SCT048 14/12 Q1019 NOSIG",
    "EDDF": "METAR EDDF 190220Z AUTO 32009KT CAVOK 17/11 Q1016 NOSIG",
    "EDFH": "METAR EDFH 190220Z 34006KT 9999 SCT017 12/11 Q1018",
    "EDDL": "METAR EDDL 190220Z AUTO 29006KT 260V320 9999 SCT046 14/11 Q1018 NOSIG",
    "EDDK": "METAR EDDK 190220Z AUTO 32007KT 9999 FEW025 14/11 Q1018 NOSIG",
    "EBLG": "METAR EBLG 190220Z 31004KT 9999 FEW023 13/11 Q1019 NOSIG",
    "LSZH": "METAR LSZH 190220Z AUTO 17001KT 9999 FEW075 17/17 Q1016 TEMPO 4000 MIFG",
    "LIMC": "METAR LIMC 190250Z 10005KT 060V120 9999 BKN030 23/19 Q1012 NOSIG",
    "LIRF": "METAR LIRF 190220Z 09005KT 8000 NSC 25/25 Q1011 NOSIG",
    "EINN": "METAR EINN 190230Z 35005KT CAVOK 11/10 Q1026 NOSIG",
    "EGLL": "METAR EGLL 190220Z AUTO 01003KT 330V070 9999 NCD 14/09 Q1023",
    "EGSS": "METAR EGSS 190220Z AUTO 34004KT 9999 NCD 11/09 Q1023",
    "EPWA": "METAR EPWA 190230Z 24002KT CAVOK 16/15 Q1012 NOSIG",
    "UHPP": "METAR UHPP 190230Z 34004MPS 290V030 9999 FEW040 27/16 Q1016 R34L/CLRD62 NOSIG RMK QFE758/1011",
    "EFHK": "METAR EFHK 190220Z 19009KT 9999 SCT008 BKN020 18/16 Q0999 TEMPO BKN008",
    "LBBG": "METAR LBBG 190230Z AUTO 00000KT 9000 NCD 20/19 Q1013 NOSIG",
    "LTAC": "METAR LTAC 190220Z 05007KT CAVOK 17/12 Q1016 NOSIG RMK RWY21C 03008KT RWY03L 03008KT RWY21R 02008KT RWY03R 06005KT RWY21L 03007KT",
    "UBBB": "METAR UBBB 190230Z 32018KT 9999 SCT012 26/23 Q1009 NOSIG",
    "UTAA": "METAR UTAA 190300Z 29008KT 9999 NSC 32/18 Q1008 R88/CLRD70 NOSIG",
    "UACC": "METAR UACC 190230Z 17004MPS CAVOK 23/18 Q1005 NOSIG RMK QFE723/0964",
    "UAAA": "METAR UAAA 190230Z VRB01MPS 9999 BKN100 33/14 Q1007 NOSIG",
    "UZTT": "METAR UZTT 190230Z 08004KT CAVOK 34/15 Q1003 NOSIG",
    "ZWWW": "METAR ZWWW 190230Z 33003MPS 250V360 CAVOK 29/13 Q1009 NOSIG",
    "ZLXY": "METAR ZLXY 190300Z 27002MPS 220V340 CAVOK 31/17 Q1006 NOSIG",
    "ZBAA": "METAR ZBAA 190230Z VRB01MPS 9999 BKN033 30/23 Q1003 NOSIG",
    "ZBHH": "METAR ZBHH 190300Z 17002MPS 100V230 CAVOK 25/17 Q1007 NOSIG",
    "ZSQD": "METAR ZSQD 190300Z 16002MPS 120V210 CAVOK 28/22 Q1004 NOSIG",
    "ZMCK": "METAR ZMCK 190230Z 32004MPS 280V010 9999 FEW030TCU FEW033 19/11 Q1005 NOSIG RMK QFE639.5 58 MOP",
    "UUEE": "SPECI UUEE 190222Z 00000MPS CAVOK 15/12 Q1015 R06R/CLRD62 R06C/CLRD62 NOSIG",
    "UUDD": "METAR UUDD 190230Z 14001MPS 8000 NSC 13/12 Q1016 R31L/CLRD65 NOSIG",
    "ULLI": "METAR ULLI 190230Z 15003MPS 100V200 CAVOK 17/11 Q1004 R10R/090065 NOSIG",
    "USSS": "METAR USSS 190230Z 04003MPS 010V070 9999 BKN015CB 19/19 Q1004 R08R/290050 NOSIG RMK QFE733/0978",
    "UNNT": "METAR UNNT 190230Z 00000MPS CAVOK 21/20 Q1006 R25/CLRD// R16/CLRD// NOSIG RMK QFE744/0993",
    "UNKL": "METAR UNKL 190230Z 01001MPS 9999 TS SCT048CB 19/16 Q1003 R29/CLRD// NOSIG RMK QFE727",
    "UIBB": "METAR UIBB 190230Z VRB01MPS 9999 FEW050CB 20/16 Q1002 R30/CLRD62 NOSIG RMK QFE709/0945",
    "UEEE": "METAR UEEE 190230Z 13002MPS 9999 SCT010 OVC030CB 19/17 Q0998 R23/290160 NOSIG RMK QFE740",
    "UHHH": "METAR UHHH 190230Z 30002MPS 250V340 9999 FEW039 28/18 Q1005 R88/090060 NOSIG RMK QFE748/0997",
    "UHSS": "METAR UHSS 190230Z 15002MPS 3000 -SHRA BR BKN016CB 20/20 Q1007 R19/290060 NOSIG RMK MT OBSC QFE754/1005"
  },
  "taf": {
    "RJAA": "TAF RJAA 182305Z 1900/2006 15010KT 9999 FEW012 BKN020 BECMG 1921/2000 22004KT",
    "PANC": "TAF PANC 190210Z 1902/2006 11006KT P6SM VCSH SCT015 BKN060 FM190300 14012G24KT P6SM VCSH FEW015 SCT030 OVC070 FM190800 34005KT 6SM -RA OVC060 WS008/12030KT FM200000 VRB05G20KT P6SM VCSH SCT050 OVC070 WS008/12030KT",
    "PAFA": "TAF PAFA 182320Z 1900/2006 VRB03KT P6SM SCT050 BKN100",
    "PAED": "TAF PAED 182100Z 1821/2003 24009KT 9999 -RA SCT009 OVC015 620604 QNH3002INS BECMG 1821/1822 25005KT 9999 -SHRA SCT015 BKN035 OVC055 620604 QNH3001INS BECMG 1900/1901 VRB06KT 9999 VCSH SCT050 OVC070 640703 560208 QNH3000INS BECMG 1907/1908 01009KT 9000 -RA SCT035 OVC060 640604 QNH2998INS TX14/1900Z TN10/1913Z",
    "KSEA": "TAF KSEA 190303Z 1903/2006 35008KT P6SM FEW050 FEW250 FM191100 02004KT P6SM SCT250 FM191300 01004KT P6SM BKN008 FM191700 35006KT P6SM SCT010 BKN040 FM192200 33010KT P6SM SCT050",
    "ZSPD": "TAF ZSPD 190309Z 1906/2012 16004MPS 8000 SCT030 TX33/1906Z TX33/2006Z TN27/1921Z TEMPO 1906/1910 33008G15MPS TSRA BKN015 FEW030CB TEMPO 1910/1914 33008G15MPS 2000 TSRA BKN015 FEW030CB",
    "ZSSS": "TAF ZSSS 190309Z 1906/2012 18004MPS 8000 SCT030 TX34/1906Z TX33/2006Z TN27/1921Z TEMPO 1906/1910 33008G15MPS TSRA BKN015 FEW030CB TEMPO 1910/1914 33008G15MPS 2000 TSRA BKN015 FEW030CB",
    "RJFR": "TAF RJFR 182305Z 1900/2006 09010KT 9999 FEW020 SCT040 BECMG 1904/1906 04008KT TEMPO 1906/1909 4000 -TSRA BR FEW025 BKN030 FEW030CB BECMG 1918/1921 11006KT BECMG 2003/2006 05008KT",
    "VHHH": "TAF VHHH 190200Z 1903/2009 20010KT 9999 FEW010 SCT025 TX32/1906Z TX31/2006Z TN27/1922Z TEMPO 1903/1907 24015G25KT 2500 TSRA SHRA FEW008CB SCT015 TEMPO 1907/1909 3000 SHRA FEW010CB SCT020 PROB30 TEMPO 1922/2004 24015G25KT 2500 TSRA SHRA FEW008CB SCT015",
    "RCTP": "TAF RCTP 182300Z 1900/2006 23012KT 9999 FEW010 BKN032 TEMPO 1900/1906 23017KT TEMPO 1906/1912 23019KT TEMPO 1912/1918 22006KT TEMPO 1918/1924 23005KT",
    "ZGSZ": "TAF ZGSZ 190305Z 1906/2012 18004MPS 8000 BKN040 TX31/1906Z TX31/2006Z TN27/1922Z TEMPO 1906/1908 TSRA FEW012 FEW025CB BKN033 TEMPO 1921/1924 1200 +TSRA SCT012 FEW025CB BKN033 TEMPO 2004/2007 TSRA SCT012 FEW025CB BKN033",
    "WSSS": "TAF WSSS 182300Z 1900/2006 14007KT 9999 FEW015 SCT020",
    "WMKK": "TAF WMKK 182300Z 1900/2006 VRB03KT 9999 FEW030",
    "VTBS": "TAF VTBS 182300Z 1900/2006 22008KT 9999 FEW020",
    "VTBU": "TAF VTBU 182300Z 1900/1924 34004KT 9000 FEW020 BECMG 1900/1902 24008KT",
    "ROAH": "TAF AMD ROAH 190131Z 1901/2006 30006KT 9999 FEW005 SCT010 BECMG 1905/1907 23008KT TEMPO 1915/1921 FEW005 BKN008",
    "VVDN": "TAF VVDN 182300Z 1900/1924 23008KT 9999 FEW020 BECMG 1905/1906 01010KT BECMG 1913/1914 24006KT",
    "RCKH": "TAF RCKH 182300Z 1900/2006 21005KT 9999 FEW010 BKN032 TEMPO 1900/1906 24010KT 4000 SHRA FEW010 BKN017 TEMPO 1906/1912 23010KT 4000 SHRA FEW010 BKN017 TEMPO 1912/1918 09005KT 5000 RA FEW010 BKN020 TEMPO 1918/1924 14005KT 4000 SHRA FEW010 BKN017",
    "KLAX": "TAF KLAX 190301Z 1903/2006 25007KT P6SM SCT010 FM191000 VRB03KT P6SM OVC012 FM191700 25006KT P6SM SCT020 FM191900 25012KT P6SM SCT015 FM200300 24006KT P6SM FEW012 SCT200",
    "KONT": "TAF KONT 182329Z 1900/2006 25010G20KT P6SM FEW150 FM190200 25010KT P6SM FEW200 FM190900 VRB04KT P6SM SKC FM192000 25010G20KT P6SM FEW200 FM200500 VRB05KT P6SM FEW200",
    "KSFO": "TAF KSFO 190403Z 1904/2006 28013KT P6SM FEW003 BKN007 FM190600 26005KT P6SM FEW003 BKN007 FM191700 31006KT P6SM SCT012 FM192000 31015KT P6SM SKC",
    "KOAK": "TAF KOAK 190338Z 1904/2006 28012KT P6SM FEW005 BKN008 FM190600 29006KT P6SM FEW005 BKN008 FM191800 28005KT P6SM SCT009 FM192000 30015KT P6SM SKC",
    "KMHR": "TAF KMHR 182325Z 1900/1924 22010KT P6SM SKC FM190600 19010KT P6SM SKC FM191100 16007KT P6SM SCT250 FM191700 24005KT P6SM BKN250",
    "KDFW": "TAF KDFW 190253Z 1903/2006 18008KT P6SM FEW250 FM191000 19008KT P6SM SCT040 FM191500 19010KT P6SM FEW250",
    "KIAH": "TAF KIAH 190248Z 1903/2006 17007KT P6SM FEW020 SCT250 FM190900 21003KT P6SM FEW010 SCT250 FM191300 21004KT P6SM SCT040 SCT250",
    "KORD": "TAF KORD 190300Z 1903/2006 05012KT 4SM FU SCT025 FM190600 04007KT 2SM FU SCT025 FM191400 05009KT 4SM FU SCT025",
    "KJFK": "TAF KJFK 190230Z 1903/2006 20005KT 6SM -SHRA FU BKN025 OVC050 FM190700 28012KT P6SM SCT040 BKN100 FM191200 33013KT P6SM SCT250",
    "KRFD": "TAF KRFD 190300Z 1903/1924 06007KT 6SM FU SCT050 FM190600 04005KT 3SM FU SCT025 FM191400 07007KT 6SM FU FEW025",
    "KIND": "TAF KIND 190214Z 1902/2006 VRB06KT P6SM FEW040 BKN250 FM191200 03007KT P6SM SCT050 BKN250",
    "KDTW": "TAF KDTW 190212Z 1902/2006 01008KT 6SM FU SCT040 FM191400 02008KT 6SM HZ SCT045 FM191700 35007KT P6SM SCT060 FM200000 10003KT P6SM SCT250",
    "KMSP": "TAF KMSP 190248Z 1903/2006 VRB03KT P6SM SKC FM191300 21005KT P6SM FEW250 FM191700 20010KT P6SM FEW070 FEW250",
    "CYEG": "TAF CYEG 190240Z 1903/1924 06010KT P6SM FEW050 BKN130 TEMPO 1903/1905 VRB20G35KT 1SM +TSRA BR OVC030CB FM190500 25008KT P6SM FEW012 SCT100 FM191000 27008KT P6SM FEW040 SCT100 TEMPO 1910/1912 VRB15G25KT 6SM SHRA VCTS BR BKN040CB OVC100 FM191200 28015G25KT P6SM BKN040 BECMG 1917/1919 29020G30KT FM192200 32020G30KT P6SM SCT020 BKN080 TEMPO 1922/1924 P6SM -SHRA VCTS BKN020CB OVC080 RMK NXT FCST BY 190600Z",
    "EHAM": "TAF EHAM 182315Z 1900/2006 32008KT 9999 SCT030 BECMG 1907/1910 32015KT BECMG 1918/1921 32008KT",
    "EBBR": "TAF EBBR 182302Z 1900/2006 33008KT 9999 SCT040",
    "EDDF": "TAF EDDF 182300Z 1900/2006 33005KT CAVOK PROB30 TEMPO 1900/1907 BKN040 BECMG 1907/1909 30010KT BECMG 1919/1921 33004KT",
    "EDFH": "TAF EDFH 182300Z 1900/1924 33004KT 9999 SCT020 BECMG 1906/1909 31009KT BECMG 1919/1921 34004KT",
    "EDDL": "TAF EDDL 182300Z 1900/2006 31005KT 9999 FEW035 BECMG 1907/1910 30012KT PROB40 TEMPO 1913/1917 30015G25KT BECMG 1919/1922 30004KT",
    "EDDK": "TAF EDDK 182300Z 1900/2006 32006KT 9999 FEW040 BECMG 1907/1910 30012KT PROB30 TEMPO 1913/1917 30015G25KT BECMG 1918/1921 32005KT",
    "EBLG": "TAF EBLG 182302Z 1900/2006 33008KT 9999 SCT040",
    "LSZH": "TAF AMD LSZH 190331Z 1903/2009 VRB02KT 9999 FEW060 TX24/1915Z TN14/1904Z TN12/2004Z PROB40 TEMPO 1910/1916 SHRA SCT050TCU BECMG 1910/1913 30010KT PROB30 TEMPO 1912/1915 32015G25KT TSRA FEW050CB BECMG 1916/1919 03005KT BECMG 1920/1922 34004KT BECMG 1920/1922 CAVOK PROB30 2000/2005 8000 NSC BECMG 2006/2009 06006KT",
    "LIMC": "TAF LIMC 182300Z 1900/2006 VRB05KT 9999 SCT040 TEMPO 2000/2006 4000 SHRA",
    "LIRF": "TAF LIRF 182300Z 1900/2006 VRB05KT 7000 FEW006 BECMG 1907/1909 17010KT BECMG 1912/1914 23010KT BECMG 1917/1919 VRB05KT",
    "EINN": "TAF EINN 182300Z 1900/1924 36011KT 9999 FEW025 BECMG 1912/1914 03010KT BECMG 1917/1919 36009KT",
    "EGLL": "TAF EGLL 182252Z 1900/2006 01008KT 9999 FEW045",
    "EGSS": "TAF EGSS 182257Z 1900/2006 36009KT 9999 SCT035",
    "EPWA": "TAF EPWA 190230Z 1903/2003 VRB02KT CAVOK TEMPO 1911/1916 -SHRA SCT050CB TEMPO 1916/1920 VRB20G35KT 2000 TSRA BKN008 BKN020CB BECMG 1918/1921 28010KT PROB30 TEMPO 1920/1923 29015G25KT BKN012 BKN020CB PROB30 2000/2003 BKN008 BKN012",
    "UHPP": "TAF UHPP 190134Z 1903/2009 30003G10MPS 9999 SCT050 TX29/1903Z TN18/1917Z TEMPO 1903/1924 36005G12MPS",
    "EFHK": "TAF EFHK 190235Z 1903/2003 19009KT 9999 SCT008 TEMPO 1903/1907 4000 -DZRA BKN007 FEW040CB BECMG 1907/1909 28012KT BKN012 BECMG 1909/1911 BKN015 BECMG 1911/1913 34010KT BECMG 1917/1919 04008KT",
    "LBBG": "TAF LBBG 182300Z 1900/1924 VRB03KT CAVOK TEMPO 1901/1905 3000 BR BKN008 PROB30 1902/1904 0600 BCFG BKN003 BECMG 1906/1908 12014KT BECMG 1921/1923 VRB03KT",
    "LTAC": "TAF LTAC 182240Z 1900/1924 05012KT CAVOK BECMG 1906/1909 VRB02KT FEW040 BECMG 1915/1918 CAVOK",
    "UBBB": "TAF UBBB 182304Z 1900/1924 33014KT CAVOK TX30/1910Z TN24/1901Z TEMPO 1900/1903 35008KT FEW050CB PROB40 TEMPO 1900/1902 TS FEW012 SCT040CB BECMG 1903/1905 34020G30KT TEMPO 1906/1918 34026G36KT SCT016 FEW040",
    "UTAA": "TAF UTAA 182245Z 1900/1924 33016KT 6000 SCT050 TX40/1910Z TEMPO 1902/1910 30014G24KT 4000 DRDU BECMG 1916/1918 02014KT 6000 SCT100",
    "UACC": "TAF UACC 182301Z 1900/1924 24006MPS 9999 SCT040CB BKN100 TX33/1909Z TN16/1923Z TEMPO 1900/1904 20008MPS -TSRA BKN030CB TEMPO 1904/1916 28010MPS -TSRA BKN030CB BECMG 1916/1918 32005MPS SCT030",
    "UAAA": "TAF UAAA 182303Z 1900/1924 35003MPS 9999 FEW050 SCT100 TX42/1910Z TN23/1900Z TEMPO 1900/1903 20005MPS TEMPO 1905/1914 04005G10MPS BECMG 1914/1915 20005MPS",
    "UZTT": "TAF UZTT 182300Z 1900/1924 07010KT CAVOK TX44/1911Z TN27/1900Z TEMPO 1906/1916 30015KT",
    "ZWWW": "TAF ZWWW 190304Z 1906/2012 36004MPS CAVOK TX39/1909Z TX40/2009Z TN29/1923Z BECMG 1913/1914 18004MPS BECMG 2002/2003 36004MPS",
    "ZLXY": "TAF ZLXY 190302Z 1906/2006 16003MPS 6000 NSC TX36/1907Z TN22/1921Z",
    "ZBAA": "TAF ZBAA 190301Z 1906/2012 18004MPS CAVOK TX31/1906Z TX30/2006Z TN22/1921Z",
    "ZBHH": "TAF ZBHH 190303Z 1906/2006 23004G09MPS 9999 SCT040 TX31/1908Z TN15/1922Z BECMG 1909/1910 VRB09G15MPS -TSRA SCT040 SCT040CB BECMG 1912/1913 NSW NSC TEMPO 1921/2001 FEW040 FEW040CB",
    "ZSQD": "TAF ZSQD 190301Z 1906/2006 16004MPS 3500 BR NSC TX30/1906Z TN21/1920Z",
    "ZMCK": "TAF ZMCK 182240Z 1900/2006 32006MPS 9999 FEW030CB SCT033 TX24/1907Z TN09/1921Z PROB40 TEMPO 1905/1912 VRB09G14MPS TSRA SCT027CB SCT030 BECMG 1911/1913 VRB02MPS BECMG 2001/2003 32005MPS",
    "UUEE": "TAF UUEE 190150Z 1903/2003 20003MPS 9000 NSC TX27/1912Z TN15/2001Z PROB40 TEMPO 1903/1904 0500 PRFG",
    "UUDD": "TAF UUDD 190152Z 1903/2009 20003MPS 8000 NSC TX27/1912Z TN12/1903Z PROB40 TEMPO 1903/1904 0800 FG",
    "ULLI": "TAF ULLI 190154Z 1903/2003 16006G12MPS 6000 BKN016 PROB40 1903/1906 4000 -TSRA BKN010 BKN017CB TEMPO 1910/1918 3100 -TSRA BKN017CB BECMG 1910/1912 26007G14MPS BECMG 1921/1924 35003MPS",
    "USSS": "TAF AMD USSS 190235Z 1903/2003 05003G14MPS 9999 -SHRA BKN016CB TEMPO 1903/1906 -TSRA BKN004 BKN011CB TEMPO 1906/2003 -TSRAGR",
    "UNNT": "TAF UNNT 190200Z 1903/2003 32003G08MPS 8000 SCT040 TX26/1912Z TN16/1922Z TEMPO 1903/1918 02006G13MPS -TSRA BKN020CB",
    "UNKL": "TAF UNKL 190155Z 1903/2003 25003G08MPS 8000 SCT040CB TEMPO 1903/1906 30008G18MPS -TSRA BECMG 1906/1908 30008G18MPS 2100 -TSRAGR BECMG 1909/1911 25003MPS 6000 NSW TEMPO 1911/1914 30008G18MPS -TSRAGR TEMPO 1914/1924 0250 FG BKN002 BKN016CB",
    "UIBB": "TAF UIBB 190200Z 1903/2003 26004G09MPS 9999 -SHRA BKN020CB TEMPO 1903/1915 VRB10MPS -TSRA",
    "UEEE": "TAF UEEE 190200Z 1903/2009 14003G08MPS 9999 SCT007 BKN020CB OVC070 TEMPO 1903/1915 VRB08MPS 1000 TSRA VV003",
    "UHHH": "TAF UHHH 190150Z 1903/2009 30003MPS 9999 SCT025CB TX30/1904Z TN19/1917Z",
    "UHSS": "TAF AMD UHSS 190347Z 1903/2009 15003MPS 5000 -SHRA BKN016CB TEMPO 1903/1922 1200 SHRA BR BKN005 BKN016CB FM200000 30003MPS 9999 SCT030CB"
  },
  "atis": {
    "RJAA": "[Arrival ATIS] RJAA ARR ATIS L 1135Z M1130 (APCH)ILS Z RWY34R LDG RWY 34R DEP RWY 34L DEP FREQ 124.2. TWY A1 CLSD. OBSERVE GEAR DOWN OPS PROC ON FNL. M 231130Z 03011KT 15KM FEW007ST BKN009ST 18/16 Q1013/A2991= Q/TWO NINE NINE ONE STP\n[Departure ATIS] RJAA DEP ATIS L 1147Z M1130 (APCH)ILS Z RWY34R LDG RWY 34R DEP RWY 34L DEP FREQ 124.2. TWY A1 CLSD. OBSERVE GEAR DOWN OPS PROC ON FNL. M 231130Z 03011KT 15KM FEW007ST BKN009ST 18/16 Q1013/A2991= Q/TWO NINE NINE ONE STP",
    "PANC": "[Arrival ATIS] PANC ARR ATIS Q 1153Z ANC ATIS INFO Q 1153Z. 13006KT 10SM SCT044 BKN080 BKN140 13/07 A3008 (THREE ZERO ZERO EIGHT) RMK AO2 PK WND 18027/1107 SLP188 60000 70005 T01280072 10133 20128 51004. ILS RWY 15 APPROACHES IN USE. LANDING RWY 15, DEPARTING RWY 25L. NOTICE TO AIRMEN. RWY 25R CLSD. CHECK NOTAMS FOR TAXIWAY CLOSURES. CAUTION FOR BIRD ACTIVITY IN THE ARPT AREA. CONTACT TOWER 118.3 FOR TAXI. ...ADVS YOU HAVE INFO Q.\n[Departure ATIS] PANC DEP ATIS N 0853Z ANC ATIS INFO N 0853Z. 13015G33KT 10SM FEW039 SCT050 BKN100 13/08 A3007 (THREE ZERO ZERO SEVEN). ILS RWY 15 APPROACHES IN USE. LANDING RWY 15, DEPARTING RWY 25L, 15. NOTICE TO AIRMEN. RWY 25R CLSD. CHECK NOTAMS FOR TAXIWAY CLOSURES. CAUTION FOR BIRD ACTIVITY IN THE ARPT AREA. CONTACT TOWER 118.3 FOR TAXI. ...ADVS YOU HAVE INFO N.",
    "KSEA": "[Arrival ATIS] KSEA ARR ATIS M 0353Z SEA ATIS INFO M 0353Z. 34007KT 10SM FEW050 FEW250 20/11 A3012 (THREE ZERO ONE TWO) RMK AO2 SLP205 T02000106. ILS AND CHARTED VISUAL APPROACH RWYS 34L AND 34R , APCH IN USE.\n[Departure ATIS] KSEA DEP ATIS L 0353Z SEA ATIS INFO L 0353Z. 34007KT 10SM FEW050 FEW250 20/11 A3012 (THREE ZERO ONE TWO) RMK AO2 SLP205 T02000106. ILS AND CHARTED VISUAL APPROACH RWYS 34L AND 34R , APCH IN USE. DEPG RWY 34R. SIMUL ARRIVALS TO RWY 34L AND DEPARTURES TO RWY 34R ARE IN USE. SIMUL APCHS IN USE TO PARA RYS. NOTAMS... BIRD ACTIVITY VICINITY ARPT. STADIUM TFR IN EFFECT CHECK FDC NOTAMS FOR MORE INFO. ...ADVS YOU HAVE INFO L.",
    "ZSPD": "[Arrival ATIS] ZSPD ARR ATIS A 0330Z EXP ILS APCH INDEPENDENT PARL INSTR APCH LDG RWY 17R & 16L WIND RWY 17R TDZ 080/4MPS VRB BTN 060/ AND 120/ MID 090/3MPS END 090/4MPS RWY 16L TDZ 110/4MPS MID 090/3MPS END 100/5MPS VIS RWY 17R TDZ 10000M MID 10000M END 10000M VIS RWY 16L TDZ 10000M MID 10000M END 10000M CLD FEW 690M T 32 /DP 26 QNH 1002 HPA CAUTION THE BIRDS NEAR THE RUNWAY ADZ YOU HAVE INFO A.\n[Departure ATIS] ZSPD DEP ATIS A 1130Z DEP RWY 35R & 34L WIND RWY 35R TDZ 360/4MPS MID 010/3MPS END 020/3MPS RWY 34L TDZ 030/3MPS MID 030/3MPS END 020/3MPS VIS RWY 35R TDZ 10000M MID 10000M END 10000M VIS RWY 34L TDZ 10000M MID 10000M END 10000M CLD BKN 270M T 23 /DP 23 QNH 1004 HPA CAUTION THE BIRDS NEAR THE RUNWAY RWY 35R/35L/34R/34L RWYCC 5/5/5 ISSUED AT 0731 WET/WET/WET DPT NR/NR/NR COV 100PCT/100PCT/100PCT. ADZ YOU HAVE INFO A.",
    "ZSSS": "[Arrival ATIS] ZSSS ARR ATIS D 0330Z EXP ILS APCH LDG RWY 18L WIND RWY 18L TDZ 000/0MPS MID 090/2MPS VRB BTN 050/ AND 120/ END 210/2MPS CAVOK T 35 /DP 26 QNH 1002 HPA VISUAL APCH IN USE QNH OF SHANGHAI TERMINAL CONTROL AREA 1002 HPA ADZ YOU HAVE INFO D.\n[Departure ATIS] ZSSS DEP ATIS C 1100Z DEP RWY 36L WIND RWY 36L TDZ 030/3MPS MID 020/3MPS END 020/3MPS VIS RWY 36L TDZ 10000M MID 10000M END 10000M FBL SHRA CLD BKN 390M T 22 /DP 21 QNH 1004 HPA RWY36L RWYCC 5/5/5 ISSUED AT 0600 WET/WET/WET DPT NR/NR/NR COV 100PCT/100PCT/100PCT RWY36R RWYCC 5/5/5 ISSUED AT 0600 WET/WET/WET DPT NR/NR/NR COV 100PCT/100PCT/100PCT QNH OF SHANGHAI TERMINAL CONTROL AREA 1004 HPA ADZ YOU HAVE INFO C.",
    "VHHH": "[Arrival ATIS] VHHH ARR ATIS D 1134Z ARRIVALS, RWY 25R. EXP RNAV TRANSITION TO ILS APCH, RWY 25R. RNP APCH IS AVBL ON REQ, RWY 25R. RWY 25L MAY BE AVAILABLE FOR RNP AR APPROVED FLIGHTS UPON REQUEST. WIND 190/07KT. VIS 10KM. CLD FEW 1200FT. T31 DP25. QNH 1003HPA. ACK INFO D ON FIRST CTC WITH APP.\n[Departure ATIS] VHHH DEP ATIS S 1134Z DEPARTURES, RWY 25L. WIND VRB05KT. VIS 10KM. CLD FEW 1200FT. T31 DP25. QNH 1003HPA. ACK INFO S ON FIRST CTC WITH DELIVERY .",
    "RCTP": "[Arrival ATIS] RCTP ARR ATIS H 1130Z EXP ILS APCH RWY05L AND RWY05R ARR/DEP. WIND 050/03KT VIS 10 KM OR MORE CLD FEW 2000FT SCT 20000FT T 29 DP 26 QNH 1003HPA NOSIG INFORM TAIPEI APCH OR TAIPEI TOWER ON INITIAL CONTACT YOU HAVE INFORMATION H\n[Departure ATIS] RCTP DEP ATIS H 1130Z EXP ILS APCH RWY05L AND RWY05R ARR/DEP. WIND 050/03KT VIS 10 KM OR MORE CLD FEW 2000FT SCT 20000FT T 29 DP 26 QNH 1003HPA NOSIG INFORM TAIPEI APCH OR TAIPEI TOWER ON INITIAL CONTACT YOU HAVE INFORMATION H",
    "ZGSZ": "[Arrival ATIS] ZGSZ ARR ATIS F 0400Z EXP ILS APCH 15 EXP ILS OR VIS APCH 16R WIND 190/6MPS VIS 9999M CLD FEW 600M /FEW CB 690M /BKN 1500M T 29 /DP 26 QNH 1005 HPA INDEPENDENT PARALLEL DEPARTURES DEPENDENT PARA\n[Departure ATIS] ZGSZ DEP ATIS G 1117Z DEP RWY 15 & 16L WIND 170/8MPS CAVOK T 30 /DP 27 QNH 1003 HPA INDEPENDENT PARALLEL DEPARTURES DEPENDENT PARALLEL APPROACHES MISSED APPROACH ALTITUDE SETTING 1200METERS WHEN AIRBORNE CONTACT ZHUHAI APPROACH EXPECTED RNP ILS DME Z APPROACH ADZ YOU HAVE INFO G.",
    "WSSS": "[Arrival ATIS] WSSS ARR ATIS B 1200Z METREPORT 1200Z ILS APCHRWY 20R SIMUL INDEPENDENT ILS AND VISUAL APPROACHES ARE CONDUCTED ON RWY 20. TWY W 9 CLOSED, RWY 02C 20C RAPID EXIT TAXIWAY INDICATOR LIGHTS OFFFOLLOW THE GREENS TRIAL IN PROGRESS. WHEN VACATING THE RWY, PILOTS TO ADHERE TO ATC VERBAL INSTRUCTIONS. WHEN ON TWY, PILOT TO ADHERE TO FOLLOW THE GREENS INSTRUCTIONS. WHEN APPROACHING [A] JUNCTION, KEEP [A] LOOKOUT FOR CONTINUOUS GREENS. [IF] [A] BREAK IN THE GREENS IS OBSERVED, STOP AND CLARIFY WITH ATC. WIND 210/ 04KT VRB BTN160 AND220 VIS 10KM CLD FEW 1800FT T28 DP24 QNH 1009HPA NOSIG ACK ATIS B\n[Departure ATIS] WSSS DEP ATIS D 1130Z METREPORT 1130Z RWY 20C SIMUL INDEPENDENT ILS AND VISUAL APPROACHES ARE CONDUCTED ON RWY 20. TWY W 9 CLOSED, RWY 02C 20C RAPID EXIT TAXIWAY INDICATOR LIGHTS OFFFOLLOW THE GREENS TRIAL IN PROGRESS. WHEN VACATING THE RWY, PILOTS TO ADHERE TO ATC VERBAL INSTRUCTIONS. WHEN ON TWY, PILOT TO ADHERE TO FOLLOW THE GREENS INSTRUCTIONS. WHEN APPROACHING [A] JUNCTION, KEEP [A] LOOKOUT FOR CONTINUOUS GREENS. [IF] [A] BREAK IN THE GREENS IS OBSERVED, STOP AND CLARIFY WITH ATC. WIND 200/ 08KT VRB BTN180 AND240 VIS 10KM CLD FEW 1800FT T29 DP24 QNH 1008HPA NOSIG DEP,INITIAL CMB 3000FT ACK ATIS D",
    "WMKK": "[Arrival ATIS] WMKK ARR ATIS I 1107Z WMKK ARR INFO I. TIME 1100. INDEPENDENT PARALLEL APPROACHES FOR RWY 32 L AND 33 ARE IN PROGRESS. EXP RNAV / ILS APCH FOR RWY 32 RIGHT. EXP RNAV / ILS APCH FOR RWY 33. WIND RWY 32R DIRECTION NOT AVBL SPEED NOT AVBL. WIND RWY 32L DIRECTION NOT AVBL SPEED NOT AVBL. WIND RWY 33 DIRECTION NOT AVBL SPEED NOT AVBL. VIS RWY 32R TDZ NOT AVBL. VIS RWY 33 TDZ NOT AVBL. CLD FEW CB 1700 FT. T 29. DP 26. QNH 1007. NOSIG. AT FIRST CONTACT WITH LUMPUR RADAR, NOTIFY RCPT OF I\n[Departure ATIS] WMKK DEP ATIS S 0805Z WMKK DEP INFO S. TIME 0800. INDEPENDENT PARALLEL DEPARTURES FOR RWY 32 L AND 33 ARE IN PROGRESS. RWY 32 LEFT. RWY 33. WIND RWY 32L DIRECTION NOT AVBL SPEED NOT AVBL. WIND RWY 33 DIRECTION NOT AVBL SPEED NOT AVBL. VIS RWY 32L TDZ NOT AVBL. VIS RWY 33 TDZ NOT AVBL. WX FBL TSRA. CLD FEW 1000 FT, CLD FEW CB 1700 FT. T 29. DP 27. QNH 1007. NOSIG. ALL DEP ACFT TO CONTACT LUMPUR DEP AT 135 DECIMAL 25 MHZ WHEN ABN. AT FIRST CONTACT WITH LUMPUR GROUND, NOTIFY RCPT OF S",
    "VTBS": "[Arrival ATIS] VTBS ARR ATIS U 1130Z VTBS ARR ATIS U 1130Z SIMULTANEOUS INDEPENDENT PARL APCH IN PROGRESS EXP ILS Z APCH ARR RWY 19 OR RNP APCH RWY 20R , ,PILOT SHALL ADZ BKK APCH ON INITIAL CTC IF UNA TO CONDUCT RNP APCH DUE TO OPERATIONAL CONSTRAINT 1130Z WIND 230/9KT VIS 10KM CLD FEW 2000FT T33 DP23 QNH 1006HPA TREND NOSIG ADZ BKK APCH ON INITIAL CONTACT THAT YOU HAVE INFO U\n[Departure ATIS] VTBS DEP ATIS X 0930Z VTBS DEP ATIS X 0930Z DEP RWY 20L , ,AFT AIRBORNE ALL DEPARTING ACFT SHALL CTC 119.25 0930Z WIND 250/7KT VRB BTN 220/ AND 310/ VIS 10KM CLD FEW 2000FT T35 DP21 QNH 1005HPA TREND NOSIG ADZ GND WHEN INITIAL CONTACT YOU HAVE INFO X",
    "VTBU": "[Arrival ATIS] VTBU ARR ATIS S 0430Z VTBU ARR ATIS S 0431Z RNP RWY 36 TRL FL130 MOBILE ACFT ARST SYSTEM INSTL ATP SIX HUNDRED AND TEN METERS FM THR RWY 36 CABLE HGT 3 INCHES. 0430Z WIND 330/5KT VRB BTN 290/ AND 030/ VIS 10KM CLD FEW 2000FT T32 DP26 QNH 1009HPA TREND NOSIG ADZ CONTROLLER WHEN INITIAL CONTACT YOU HAVE INFO S\n[Departure ATIS] VTBU DEP ATIS D VTBU ARR/DEP DATIS RPT VTBU ARR ATIS D 0330Z ILS \"Z\" APCH RWY 18 TRL FL130 0330Z WIND 110/4KT VRB BTN 350/ AND 120/ VIS 6KM CLD FEW 2000FT T31 DP27 QNH 1014HPA TREND NOSIG ADZ CONTROLLER WHEN INITIAL CONTACT YOU HAVE INFO D",
    "ROAH": "[Arrival ATIS] ROAH ARR ATIS F 0031Z M0030 (APCH)RNP RWY18R LDG RWY 18R DEP RWY 18L DEP FREQ 126.5 258.3 M 190030Z 24005KT 15KM FEW005ST SCT009CU 30/28 Q1007/A2974= Q/TWO NINE SEVEN FOUR STP\n[Departure ATIS] ROAH DEP ATIS Q 1131Z M1130 (APCH)RNP RWY18R LDG RWY 18R DEP RWY 18L DEP FREQ 126.5 258.3 M 181130Z 21006KT 15KM FEW005ST SCT015CU 28/28 Q1006/A2971= Q/TWO NINE SEVEN ONE STP",
    "VVDN": "[Arrival ATIS] VVDN ARR ATIS W 0902Z VVDN INFO W 0902Z. ILS VICTOR APPROACH 35L.. DPTG RWY 35R.. 0902Z. WIND 090/07KT CAVOK T34 DP26 QNH 1002HPA TREND NOSIG. ADZ ON INITIAL CTC YOU HAVE INFO. W.\n[Departure ATIS] VVDN DEP ATIS M 0536Z VVDN INFO M 0536Z. ILS VICTOR APPROACH 35L.. DPTG RWY 35R.. 0536Z. WIND 040/01KT VIS 10KM CLD FEW 6600FT T39 DP24 QNH 1003HPA TREND NOSIG. ADZ ON INITIAL CTC YOU HAVE INFO. M.",
    "RCKH": "[Arrival ATIS] RCKH ARR ATIS K 1100Z EXPECT ILS APPROACH RWY 09 ARR/DEP TAXIWAY JULIETT, TAXIWAY BRAVO, TAXIWAY DELTA AND TAXIWAY ECHO CLOSED DUE MAINTENANCE. RUNWAY 09 ARRIVALS PLAN VACATE VIA CHARLIE OR FOXTROT AND EXPEDITE VACATE. WIND 290/09KT VARYING BTN 260 AND 330 VIS 10 KM OR MORE CLD FEW 2000FT SCT 15000FT T 29 DP 25 QNH 1003HPA NOSIG CAUTION BIRD ACTIVITY IN VICINITY OF THE AERODROME. INFORM KAO-HSIUN APCH OR KAO-HSIUN TOWER ON INITIAL CONTACT YOU HAVE INFORMATION K\n[Departure ATIS] RCKH DEP ATIS M 0900Z EXPECT ILS APPROACH RWY 09 ARR/DEP RWY SFC RWY 09 SFC COND 5/5/5 ISSUED AT 0340Z. 100/100/100 NR/NR/NR WET/WET/WET TAXIWAY JULIETT, TAXIWAY BRAVO, TAXIWAY DELTA AND TAX",
    "KLAX": "[Arrival ATIS] KLAX ARR ATIS U 0353Z LAX ATIS INFO U 0353Z. 23007KT 10SM SCT010 SCT055 21/18 A2994 (TWO NINER NINER FOUR) RMK AO2 SLP137 T02110183. INST APCHS AND RNAV RNP APCHS RY 24R AND 25L, OR VCTR FOR VISUAL APCH WILL BE PROVIDED, SIMUL INSTR DEPARTURES IN PROG RWYS 24 AND 25. CTC L A GC ON 121.75 FOR PUSH OR TAXI ON A. TWY B CLSD BTN TWY, C10 AND TWY C7 , , TWY B6 CLSD, TWY B7 CLSD, TWY C CLSD BTN TWY, C1 AND TWY C3, TWY C1 CLSD, TWY C9 CLSD BTN TWY, B AND TWY C, TWY C8 CLSD BTN TWY, B AND TWY C. PAPI OTS 24R, SEAL BEACH VOR OTS. HAZD WX INFO FOR LAX AREA AVBL FM FSS. BIRD ACTIVITY VICINITY ARPT. INCLUDE YOUR CALL SIGN IN ALL READBACKS. USE CAUTION WHEN EXITING RY24R AT TWY V, W, AND Y, TO HOLD SHORT OF RY24L. MULTIPLE RUNWAY INCURSIONS HAVE OCCURRED. ...ADVS YOU HAVE INFO U.\n[Departure ATIS] KLAX DEP ATIS U 0353Z LAX ATIS INFO U 0353Z. 23007KT 10SM SCT010 SCT055 21/18 A2994 (TWO NINER NINER FOUR) RMK AO2 SLP137 T02110183. INST APCHS AND RNAV RNP APCHS RY 24R AND 25L, OR VCTR FOR VISUAL APCH WILL BE PROVIDED, SIMUL INSTR DEPARTURES IN PROG RWYS 24 AND 25. CTC L A GC ON 121.75 FOR PUSH OR TAXI ON A. TWY B CLSD BTN TWY, C10 AND TWY C7 , , TWY B6 CLSD, TWY B7 CLSD, TWY C CLSD BTN TWY, C1 AND TWY C3, TWY C1 CLSD, TWY C9 CLSD BTN TWY, B AND TWY C, TWY C8 CLSD BTN TWY, B AND TWY C. PAPI OTS 24R, SEAL BEACH VOR OTS. HAZD WX INFO FOR LAX AREA AVBL FM FSS. BIRD ACTIVITY VICINITY ARPT. INCLUDE YOUR CALL SIGN IN ALL READBACKS. USE CAUTION WHEN EXITING RY24R AT TWY V, W, AND Y, TO HOLD SHORT OF RY24L. MULTIPLE RUNWAY INCURSIONS HAVE OCCURRED. ...ADVS YOU HAVE INFO U.",
    "KONT": "[Arrival ATIS] KONT ARR ATIS H 1553Z ONT ATIS INFO H 1553Z. 00000KT 10SM FEW200 24/17 A3002 (THREE ZERO ZERO TWO). ILS AND VIS APR IN USE, RY26L & RY26R. LNDG AND DEPG RY 26L AND RY 26R. NOTAMS... TAXIWAY SIERRA FIVE CLOSED. TAXIWAY SIERRA CLOSED BETWEEN TAXIWAY SIERRA 8 AND TAXIWAY WHISKEY. RY 26L IM OTS, RY 26R ALS OTS. USE CAUTION FOR NUMEROUS BIRDS OBSERVED IN VICINITY OF ONT. PILOTS READBACK RWY ASSIGNMENTS AND HOLD SHORT INSTRUCTIONS. ...ADVS YOU HAVE INFO H.\n[Departure ATIS] KONT DEP ATIS N 0553Z - KONT ATIS INFO N 0553Z. 24004KT 10SM BKN250 22/15 A2988 (TWO NINER EIGHT EIGHT) RMK AO2 SLP100. ILS AND VIS APR IN USE, RY26L & RY26R. LNDG AND DEPG RY 26L AND RY 26R. NOTAMS... TAXIWAY SIERRA CLSD BETWEEN SIERRA 8 AND W TAXIWAY Q SOUTH OF RWY 26L CLSD TAXIWAY T CLSD TAXIWAY SIERRA 5 CLSD. RY 26L IM OTS, RY 26R ALS OTS. USE CAUTION FOR NUMEROUS BIRDS OBSERVED IN VICINITY OF ONT. HAZD WX INFO FOR SOUTHERN CA AVBL ON FSS FREQUENCIES. PILOTS READBACK RWY ASSIGNMENTS AND HOLD SHORT INSTRUCTIONS. ...ADVS YOU HAVE INFO N.",
    "KSFO": "[Arrival ATIS] KSFO ARR ATIS G 2256Z SFO ATIS INFO G 2256Z. 29020KT 10SM FEW005 20/12 A2999 (TWO NINER NINER NINER). SIMUL CLSLY SPCD DPNDNT ILS RY 28R AND ILS RY 28L APP IN USE. DEPG RWYS 28L, 28R. DEPG ACFT SHOULD BE PREPARED FOR A SHORT NOTICE RY CHANGE. RY 1L, 1R CLSD. NUMEROUS TWY CLOSURES FOR CONSTRUCTION ON THE FIELD, PILOTS CHECK NOTAMS. DEPG ACFT WAITING ON FINAL NUMBERS ADVISE GROUND PRIOR TO ENTERING TWY F. ...ADVS YOU HAVE INFO G.\n[Departure ATIS] KSFO DEP ATIS O 0156Z SFO ATIS INFO O 0156Z. 25015KT 10SM FEW007 SCT012 16/12 A2996 (TWO NINER NINER SIX). SIMUL CLSLY SPCD DPNDNT ILS RY 28R AND ILS RY 28L APP IN USE. DEPG RWYS 28L, 28R. DEPG ACFT SHOULD BE PREPARED FOR A SHORT NOTICE RY CHANGE. RY 1L, 1R CLSD. NUMEROUS TWY CLOSURES FOR CONSTRUCTION ON THE FIELD, PILOTS CHECK NOTAMS. MULTIPLE CRANES VCY OF SFO CHECK NOTAMS. DEPG ACFT WAITING ON FINAL NUMBERS ADVISE GROUND PRIOR TO ENTERING TWY F. ...ADVS YOU HAVE INFO O.",
    "KOAK": "[Arrival ATIS] KOAK ARR ATIS Q 0853Z - KOAK ATIS INFO Q 0853Z. 23006KT 10SM FEW003 BKN007 OVC011 14/12 A3000 (THREE ZERO ZERO ZERO). RNAV, RWY 30. ILS, RWY 28R. FLOW TO LAX, LAS. ILS RWY 30, OTS. UNN LIT CLOSE-IN OBSTACLES FOR RWY 30 DEPARTURES. RWY 30 DEPARTURES ARE ADVISED TO AVOID TURNING LEFT PRIOR TO DEPARTURE END OF RUNWAY. SIGNATURE UNI-COM OUT OF SERVICE. CTN, CRANE 1 POINT 6 NAUTICAL MILES, , AT 140 FEET AGL. CAUTION, BIRDS NEAR AIRPORT. ...ADVS YOU HAVE INFO Q.\n[Departure ATIS] KOAK DEP ATIS O 1953Z OAK ATIS INFO O 1953Z. 28014KT 10SM FEW005 22/14 A2988 (TWO NINER EIGHT EIGHT). RNAV Z/VA RWY 30 ILS/VA RWY 28R. FLOW TO LAX, LAS, SAN. ILS RWY 30, OTS. UNN LIT CLOSE-IN OBSTACLES FOR RWY 30 DEPARTURES. RWY 30 DEPARTURES ARE ADVISED TO AVOID TURNING LEFT PRIOR TO DEPARTURE END OF RUNWAY. SIGNATURE UNI-COM OUT OF SERVICE. CAUTION, BIRDS NEAR AIRPORT. ...ADVS YOU HAVE INFO O.",
    "KDFW": "[Arrival ATIS] KDFW ARR ATIS J 0253Z DFW ARR INFO J 0253Z. 17008KT 10SM FEW250 31/19 A2994 (TWO NINER NINER FOUR). SIMUL APCH IN USE. EXPECT ILS TO RWYS, 18R, 17C. LDG RWY 17C EXP LAHSO TWY B 10460 FT AVAIL, LDG RWY 18R EXP LAHSO TWY B 10100 FT AVL. NOTICE TO AIRMEN. RWY 13L CLSD. RWY 13R CLSD. RWY 17L CLSD. WARNING, RWY 18L HAS BEEN SHORTENED, 9273 FT AVAILABLE. RWY 18L ILS OTS, CL OTS. BIRD ACTIVITY VCNTY ARPT. ...ADVS YOU HAVE INFO J.\n[Departure ATIS] KDFW DEP ATIS J 0253Z DFW DEP INFO J 0253Z. 17008KT 10SM FEW250 31/19 A2994 (TWO NINER NINER FOUR) RMK AO2 SLP128 T03110194 53004. SIMUL PARL TRAFFIC DEPG RWYS 17R, 18L. NOTICE TO AIRMEN. RWY 13L CLSD. RWY 13R CLSD. RWY 17L CLSD. WARNING, RWY 18L HAS BEEN SHORTENED, 9273 FT AVAILABLE. HAZD WX FOR DFW AVBL ON FSS. BIRD ACTIVITY VCNTY ARPT. ...ADVS YOU HAVE INFO J.",
    "KIAH": "[Arrival ATIS] KIAH ARR ATIS R 0153Z IAH ATIS INFO R 0153Z. 17008KT 10SM FEW250 31/24 A2998 (TWO NINER NINER EIGHT). ARRIVALS EXPECT ILS OR RNAV Y RY 26R, ILS OR RNAV Y RY 26L. SIMUL APPROACHES IN USE. DEPG RY 15L, RY 15R. NOTICE TO AIRMEN. UNITED RAMP CONTROL IN EFFECT. RY 9, 27 CLSD. BIRD ACTIVITY VICINITY ARPT. CRANES ARE DOWN. TWY SA CLSD BTN TWY, SF AND TWY SK , TWY SB CLSD BTN TWY, SF AND TWY SK , , TWY EA CLSD, SOUTH COMPLEX CLOSED. NOTAM ATIS IN USE ON FREQUENCY 126.225. ...ADVS YOU HAVE INFO R.\n[Departure ATIS] KIAH DEP ATIS T 0353Z IAH ATIS INFO T 0353Z. 15007KT 10SM FEW035 FEW180 BKN250 27/23 A2996 (TWO NINER NINER SIX). ARRIVALS EXPECT ILS OR RNAV Y RY 8R, ILS OR RNAV Y RY 8L. DEPG RY 15R. NOTICE TO AIRMEN. UNITED RAMP CONTROL IN EFFECT. RY 15L, 33R CLSD. HAZD WX INFO FOR IAH AREA AVBL FM FSS. BIRD ACTIVITY VICINITY ARPT. CRANES ARE DOWN. TWY SA CLSD BTN TWY, SF AND TWY SK , TWY SB CLSD BTN TWY, SF AND TWY SK , , TWY WB CLSD BTN TWY, WG AND TWY WH . TWY EA CLSD. NOTAM ATIS IN USE ON FREQUENCY 126.225. ...ADVS YOU HAVE INFO T.",
    "KORD": "[Arrival ATIS] KORD ARR ATIS P 0351Z ORD ATIS INFO P 0351Z. 03011KT 5SM FU FEW030 22/17 A2998 (TWO NINER NINER EIGHT) RMK AO2 SLP146 T02220167. ARR EXP VECTORS ILS RWY 10C APCH. SIMUL APCHS IN USE. DEPS EXP RWYS 9C FROM F F 9200 FT AVL, 10L FROM DD. 10,093 FT AVBL. ATTN PILOTS. SIMUL PARL DEPS IN USE. EXP TO INITIALLY FLY RWY. HDG ON DEP. PILOTS MUST READ BACK DRCTN OF TURNS BY ATC. RWY 4L, 22R CLSD, RWY 9L, 27R CLSD, RWY 9R, 27L CLSD, RWY 10R, 28L CLSD. RWY 22R LOC OTS, RWY 28L GS OTS, RWY 9L IM OTS, RWY 9C IM OTS, RWY 10L IM OTS, RWY 10R IM OTS, RWY 27R IM OTS, RWY 28L IM OTS, RWY 28R IM OTS, RWY 9L PAPI OTS, RWY 27R PAPI OTS. PILOTS USE CTN FOR BIRD ACTIVITY IN THE VICINITY OF THE ARPT. HAZD WX INFO FOR ORD AREA AVBL ON FSS. USE CTN FOR PERSONNEL AND EQUIP AT NUMEROUS SITES ON THE FIELD. READBACK ALL RWY HOLD SHORT INSTRUCTIONS. WHEN READY TO TAXI CONTACT GND METERING ON FREQ 121.67. ...ADVS YOU HAVE INFO P.\n[Departure ATIS] KORD DEP ATIS I 2251Z ORD ATIS INFO I 2251Z. 06012KT 8SM FEW060 FEW250 28/21 A2989 (TWO NINER EIGHT NINER) RMK AO2 SLP116 T02830206. ARR EXP VECTORS ILS RWY 9L APCH, ILS RWY 10C APCH. SIMUL APCHS IN USE. DEPS EXP RWYS 9C FROM F F 9200 FT AVL, 10L FROM DD. 10,093 FT AVBL. ATTN PILOTS. SIMUL PARL DEPS IN USE. EXP TO INITIALLY FLY RWY. HDG ON DEP. PILOTS MUST READ BACK DRCTN OF TURNS BY ATC. RWY 4L, 22R CLSD. RWY 22R LOC OTS, RWY 28L GS OTS, RWY 9L IM OTS, RWY 9C IM OTS, RWY 10L IM OTS, RWY 10R IM OTS, RWY 27R IM OTS, RWY 28L IM OTS, RWY 28R IM OTS, RWY 9L PAPI OTS, RWY 27R PAPI OTS. PILOTS USE CTN FOR BIRD ACTIVITY IN THE VICINITY OF THE ARPT. HAZD WX INFO FOR ORD AREA AVBL ON FSS. USE CTN FOR PERSONNEL AND EQUIP AT NUMEROUS SITES ON THE FIELD. READBACK ALL RWY HOLD SHORT INSTRUCTIONS. WHEN READY TO TAXI CONTACT GND METERING ON FREQ 121.67. ...ADVS YOU HAVE INFO I.",
    "KJFK": "[Arrival ATIS] KJFK ARR ATIS F 1151Z JFK ATIS INFO F 1151Z. 19004KT 1SM R04R/P6000FT BR BKN004 BKN009 OVC014 21/19 A2984 (TWO NINER EIGHT FOUR) RMK AO2 SFC VIS 6 SLP105 70028 T02060194 10211 20194 53005. APPROACH IN USE ILS RY 22L, ILS RY 22R. DEPG RY 22R. RWY 13R, 31L CLSD. RY 22L PAPI OTS, RWY 22L/4R INNER MARKER OTS.RWY 13L FLASHERS OTS. HAZD WX INFO FOR NY METRO AREA AVBL ON FSS. NUM CRANES OPERATING AT JFK. BIRD ACTIVITY VICINITY ARPT. READBACK ALL RWY ASSIGNMENTS AND HOLD SHORT INSTRUCTIONS. ...ADVS YOU HAVE INFO F.\n[Departure ATIS] KJFK DEP ATIS C 0951Z JFK ATIS INFO C 0951Z. 18003KT 1/4SM R04R/P6000FT BR BKN006 OVC018 21/20 A2983 (TWO NINER EIGHT THREE) RMK AO2 SFC VIS 2. APPROACH IN USE ILS RY 22L, ILS RY 22R. DEPG RY 22R. RY 22L PAPI OTS, RWY 22L/4R INNER MARKER OTS.RWY 13L FLASHERS OTS. HAZD WX INFO FOR NY METRO AREA AVBL ON FSS. NUM CRANES OPERATING AT JFK. BIRD ACTIVITY VICINITY ARPT. READBACK ALL RWY ASSIGNMENTS AND HOLD SHORT INSTRUCTIONS. ...ADVS YOU HAVE INFO C.",
    "KIND": "[Arrival ATIS] KIND ARR ATIS V 1054Z - KIND ATIS INFO V 1054Z. 33004KT 10SM CLR 13/11 A3013 (THREE ZERO ONE THREE). PARL ILS RWY 5R AND 5L APPROACHES IN USE. CROSS RUNWAY OPERATIONS MAY BE IN EFFECT. NOTICE TO AIRMEN. RWY 32 GS OTS. TWY, P BTN TWY, H AND TWY B CLSD. P PAD CLSD. ILS RUNWAY 5R AND RUNWAY 5L INNER MARKER UNSERVICEABLE. RUNWAY 32 PAPI OTS. RUNWAY 32 TOUCHDOWN RVR OTS. RUNWAY 14 ROLLOUT RVR OTS. ARPT ADZY FLOCK OF MEDIUM BIRDS IN THE VICINITY OF THE AIRPORT, ALT UNKN. ...ADVS YOU HAVE INFO V.\n[Departure ATIS] KIND DEP ATIS G 0254Z IND ATIS INFO G 0254Z. 03006KT 10SM SCT060 BKN110 BKN190 OVC250 28/22 A3007 (THREE ZERO ZERO SEVEN). PARL ILS RWY 5R AND 5L APPROACHES IN USE. CROSS RUNWAY OPERATIONS MAY BE IN EFFECT. NOTICE TO AIRMEN. TWY, P BTN TWY, H AND TWY B CLSD, TWY, P BTN TWY, H AND TWY J CLSD, TWY, H BTN TWY, R AND TWY N CLSD. P PAD CLSD. ILS RUNWAY 5R AND RUNWAY 5L INNER MARKER UNSERVICEABLE. HIWAS. ARPT ADZY FLOCK OF MEDIUM BIRDS IN THE VICINITY OF THE AIRPORT, ALT UNKN. ...ADVS YOU HAVE INFO G.",
    "KDTW": "[Arrival ATIS] KDTW ARR ATIS K 1233Z - KDTW ARR INFO K 1233Z SPECIAL. 03003KT 1 1/4SM FU OVC016 21/18 A3012 (THREE ZERO ONE TWO) RMK AO2 TWR VIS 1 1/2 FU OVC016 T02110178. SIMUL ILS Z RY 22R AND RY 21L APCH IN USE. SIMULTANEOUS ARRIVAL AND, DEPARTURE OPERATIONS ARE IN USE, ON RY 22R AND RY 22L. NOTICE TO AIRMEN. RWY 21R, 3L CLSD, RWY 27L, 9R CLSD, RWY 27R, 9L CLSD. TWYS Y1 CLSD ;. RY 22L ALS OTS, FREQ 118.4 OTS. PILOTS USE CTN FOR BIRD ACTIVITY. DEPARTURE ATIS 118.125. USE 128.75 FOR RUNWAY 21L. ...ADVS YOU HAVE INFO K.\n[Departure ATIS] KDTW DEP ATIS N 0953Z DTW DEP INFO N 0953Z. 35003KT 1SM R03R/P6000FT FU SCT000 OVC027 22/16 A3004 (THREE ZERO ZERO FOUR) RMK AO2 TWR VIS 2 SLP167 FU SCT000 T02170161. DEPG RWY 4R. . RWY 4R DEPARTURE POINT IS Y 2, DISTANCE REMAINING IS 11, THOUSAND, 450, FT, FULL LENGTH AVAIL UPON REQ ;. NOTICE TO AIRMEN. RWY 21R, 3L CLSD, RWY 27L, 9R CLSD, RWY 27R, 9L CLSD. TWYS Y1 CLSD ;. PILOTS USE CTN FOR BIRD ACTIVITY. TWR AND GC COMB ON FREQ 135.0. ...ADVS YOU HAVE INFO N.",
    "KMSP": "[Arrival ATIS] KMSP ARR ATIS J 0353Z MSP ARR INFO J 0353Z. 09007KT 10SM FEW250 26/16 A3001 (THREE ZERO ZERO ONE). ILS ZULU RWY 35 APCH IN USE E. NOTICE TO AIRMEN. RWYS 4, 22 CLSD. TWY R7. R8. R9. R10. CLOSED. TWY R BTWN R6 AND R10 CLSD, TWY A7 CLSD, TWY A CLSD BTN TWY, A7 AND TWY D. GS RWY 12L OTS, DME RWY 30L, 12R OTS, RWYS 12R, 12L, INNER MARKER OTS. CTN, BIRDS NEAR MSP. READ BACK HS AND ALT. ALL ACFT TAXI WITH TRANSPONDER AND ALTITUDE ENCODING ON. ...ADVS YOU HAVE INFO J.\n[Departure ATIS] KMSP DEP ATIS S 2353Z MSP DEP INFO S 2353Z. 01009KT 10SM FEW065 FEW250 30/14 A2997 (TWO NINER NINER SEVEN) RMK AO2 SLP144 T03000144 10322 20294 57004. DEPARTING RWY 12L, RWY 12R. NOTICE TO AIRMEN. TWY R7. R8. R9. R10. CLOSED. TWY R BTWN R6 AND R10 CLSD, TWY A7 CLSD, TWY A CLSD BTN TWY, A7 AND TWY D. ALL ACFT CTC METERING ON ONE THREE THREE POINT FIVE SEVEN WHEN READY TO PUSHBACK OR TAXI. HAZD WX INFO FOR MSP AREA AVBL FM FSS. CTN, BIRDS NEAR MSP. READ BACK HS AND ALT. ALL ACFT TAXI WITH TRANSPONDER AND ALTITUDE ENCODING ON. ...ADVS YOU HAVE INFO S.",
    "CYEG": "[Arrival ATIS] CYEG ARR ATIS A 0400Z 31018G24KT 8SM TSRA CIG OVC110CB 17/14 A2975 SIGMET A4 IN EFFECT. APCH RNAV Z OR Y RWY 02, INFORM ARRL OF REQ APCH ON INITIAL CTC. LDG AND DEP RWY 02. SIMUL APPROACHES MAY BE IN EFCT. INFORM CYEG ATC INFO A\n[Departure ATIS] CYEG DEP ATIS Y 0353Z CYEG ARR ATIS Y 0353Z 29014G20KT 6SM TSRA CIG OVC100CB 17/14 A2977 SIGMET A3 IN EFFECT. APCH RNAV Z OR Y RWY 02, INFORM ARRL OF REQ APCH ON INITIAL CTC. LDG AND DEP RWY 02. SIMUL APPROACHES MAY BE IN EFCT. INFORM CYEG ATC INFO Y",
    "EHAM": "[Arrival ATIS] EHAM ARR ATIS J 0350Z EHAM ARRIVAL INFO J. DEMAND. MAIN LANDING RWY 06. TRANSITION LEVEL 040. WIND 310 DEG, 8 KT, VRB BTN 270 AND 010 DEG, 10 KT MAX, 3 KT MNM. VIS 10 KM OR MORE. CLD FEW TCU 2800 FT. T 14. DP 10. QNH 1018 HPA. NOSIG. OPERATIONAL REPORT. CONTACT APCH WITH CALLSIGN ONLY. END OF INFO J\n[Departure ATIS] EHAM DEP ATIS Q 0950Z EHAM DEPARTURE INFO Q. DEMAND. MAIN DEPARTURE RWY 18 L. SECONDARY DEPARTURE RWY 24. MAIN LANDING RWY 18 R. WIND 010 DEG, 3 KT, VRB BTN 340 AND 100 DEG. WIND SECONDARY RUNWAY 050 DEG, 6 KT, VRB BTN 340 AND 140 DEG. CAVOK. T 24. DP 16. QNH 1022 HPA. OPERATIONAL REPORT. INFORM SCHIPHOL DEL BY VOICE IF UNABLE TO COMPLY WITH NADP 2. END OF INFO Q",
    "EBBR": "[Arrival ATIS] EBBR ARR ATIS F 0350Z EBBR NAT, EXP VECT FOR ILS APP ARR RWY25L RSCD AT 0312 RWY25L DRY. DEP RWY25R TRL 055 290/3KT VIS ABV 10KM FEW3500FT BKN4500FT T14 DP11 QNH 1020HPA NOSIG CFM ARR F\n[Departure ATIS] EBBR DEP ATIS M 2020Z EBBR NAT, DEP RWY25R RSCD AT 1139 RWY25R DRY. ARR RWY25L TRL 055 B3 CLSD 320/7KT VIS ABV 10KM FEW2600FT SCT4600FT T17 DP12 QNH 1018HPA NOSIG CFM DEP M",
    "EDDF": "[Arrival ATIS] EDDF ARR ATIS Q 0350Z ARR-ATIS EDDF Q METAR 190350 EXPECT DEPENDENT PARALLEL ILS Y APCH RWY 25R OR ILS APCH RWY 25L RWY 25R 25L GLS APCH ON REQUEST , DO NOT MISTAKE TWY M FOR RWY 25C WHEN PERFOR\n[Departure ATIS] EDDF DEP ATIS A 0950Z DEP-ATIS EDDF A METAR 230950 RWY 07C 18 ACFT DEPARTING RWY18 : EXPECT POSSIBLE DEPARTURE FROM INTERSECTION M , TORA 3454 METERS. IF UNABLE , ADVISE TWR ON INITIAL CONTACT , ACFT DEPARTING RWY07C : EXPECT DEPARTURE FROM INTERSECTION L17 , TORA 3312 METERS. IF UNABLE , ADVISE APRON ON INITIAL CONTACT , TRL 60 VRB06KT RWY18 08004KT CAVOK T30 DP19 QNH1020 TREND NOSIG",
    "EDDL": "[Arrival ATIS] EDDL ARR ATIS L 1520Z -ATIS EDDL L METAR 171520 -EXPECT VECTORS ILS APPROACH RWY 23 RIGHT -RWY 23L 23R - -TRL 70 -EXPECT INTENSE BIRD ACTIVITY IN THE VICINITY OF RWY SYSTEM -29013KT 260V320 -CAVOK - - -T27 DP13 -QNH1012 - -TREND NOSIG\n[Departure ATIS] EDDL DEP ATIS R EDDL ARR/DEP DATIS RPT -ATIS EDDL R METAR 020550 -EXPECT VECTORS ILS APPROACH -RWY 23L -TWY L8 CLOSED BETWEEN TWY M AND RWY 23L -TRL 60 - -23010KT -CAVOK - - -T19 DP13 -QNH1020 - -TREND NOSIG",
    "EDDK": "[Arrival ATIS] EDDK ATIS S 1020Z -ATIS EDDK S METAR 231020 -EXPECT ILS APCH RWY 31R -RWY 31R -RWY COND RWY 31R AT TIME 0720 RWYCC 6 DEPOSIT TOTAL RWY DRY -TRL 60 -RWY 13R AND RWY 31L CLOSED FOR DEPARTURE AND LANDING: TAXIING BTN THR RWY 13R AND INTERSECTION RWY 24 POSSIBLE : -34007KT 310V040 -CAVOK - - -T27 DP20 -QNH1022 - -TREND NOSIG\n[Departure ATIS] EDDK DEP ATIS E 2050Z -ATIS EDDK E METAR 142050 -EXPECT CDO FOR ILS APCH RWY 31R -RWY 31R 06 -RWY COND RWY 31R AT TIME 1837 RWYCC 6 DEPOSIT TOTAL RWY DRY RWY 06 AT TIME 1837 RWYCC 6 DEPOSIT TOTAL RWY DRY -TRL 60 -RWY 13R AND RWY 31L CLOSED FOR DEPARTURE AND LANDING: TAXIING BTN THR RWY 13R AND INTERSECTION RWY 24 POSSIBLE : -02006KT 350V050 -CAVOK - - -T23 DP14 -QNH1018 - -TREND NOSIG",
    "EBLG": "[Arrival ATIS] EBLG ATIS A 0920Z EBLG INFO, EXP RNAV TO ILS APP ARR RWY04R DEP RWY04R RWY 04R DRY, RWYCC 666. TRL 055 TWY A4 CLSD 350/6KT VRB BTN 290 AND 010 CAVOK T25 DP20 QNH 1023HPA NOSIG CFM ATIS A",
    "LSZH": "[Arrival ATIS] LSZH ARR ATIS A 0350Z ARRIVALS, EXP ILS APCH, RWY 34. RWY COND REPORT. RWY COND CODE 6, 6, 6. COVERAGE NR, NR, NR. DEPTH NR, NR, NR. DRY AND DRY AND DRY. RWY REPORT END. TRL 70. DEP RWY 32. DEPENDENT OPS ON CONVERGING RWY. WIND VRB, 2 KT. VIS 10 KM OR MORE, TDZ 10 KM OR MORE. MIFG. NSC. T 15. DP 15. QNH 1016. NOSIG.\n[Departure ATIS] LSZH DEP ATIS N 0420Z DEP RWY 32. DEPENDENT OPS ON CONVERGING RWY. RWY COND REPORT. RWY 32. RWY COND CODE 6, 6, 6. COVERAGE NR, NR, NR. DEPTH NR, NR, NR. DRY AND DRY AND DRY. RWY 34. RWY COND CODE 6, 6, 6. COVERAGE NR, NR, NR. DEPTH NR, NR, NR. DRY AND DRY AND DRY. RWY REPORT END. TRL 70. ARRIVALS, EXP ILS APCH, RWY 34. TMA S 1 IS ACT. TMA S 2 AND S 3 ARE ACT. WIND VRB, 1 KT. VIS 10 KM OR MORE. MIFG. NSC. T 16. DP 16. QNH 1016. TREND TEMPO BCFG.",
    "LIMC": "[Arrival ATIS] LIMC ARR ATIS Q 0341Z LIMC ARR Q 0341Z I.L.S. ZULU RWY IN USE 35L TL 70 WIND TDZ 090/5KT VRB BTN 070/AND 140/ VIS 10KM CLD BKN 4000FT T23 DP17 QNH 1013HPA QFE 0988HPA REPORTED TAILWIND 12 KNOTS ON SHORT FINAL RWY 35L\n[Departure ATIS] LIMC DEP ATIS X 1136Z LIMC DEP X 1136Z RWY IN USE 35L TL 70 WIND END 290/7KT VRB BTN 210/AND 320/ CAVOK T33 DP20 QNH 1018HPA QFE 0993HPA DATALINK CLEARANCE AVAILABLE.... CONTACT 1 3 1 8 8 0 TO BE RELEASED BY THE AIRPORT OPERATOR ...",
    "LIRF": "[Arrival ATIS] LIRF ARR ATIS M 0352Z LIRF ARR M 0352Z RWY 16L ILS W RWY 16R ILS Z RWY IN USE 16L 16R TL 75 DEPENDENT PARL ILS APCH INPR RWY IN USE 16R OR 16L ASSIGNED BY ROME RADAR WIND RWY 16L TDZ VRB2KT VRB BTN 050/AND 130/ RWY 16R TDZ 090/4KT VIS RWY 16L 5KM RWY 16R 6KM BR CLD RWY 16L NSC RWY 16R NSC T25 DP25 QNH 1011HPA\n[Departure ATIS] LIRF DEP ATIS W 1350Z LIRF DEP W 1350Z RWY IN USE 25 TL 75 RWYS IN USE FOR ARR 16L AND 16R WIND END 270/9KT CAVOK T32 DP24 QNH 1011HPA REA IS SENT AUTOMATICALLY ONCE RLSD BY RAMP WHEN READY CONTACT FIUME RAMP 121.725 RRSM",
    "EINN": "[Arrival ATIS] EINN ARR ATIS L 0300Z EXPECT I L S CATEGORY 1 LDG RWY06 TKOF RWY06 TRL FL060 35006KT CAVOK 11/10 QNH Q1026 TREND NOSIG ADVISE AT FIRST CONTACT YOU HAVE ATIS INFO L",
    "EGLL": "[Arrival ATIS] EGLL ARR ATIS A 0420Z LANDING RWY 09L TRANSITION-LEVEL: FL 70 RUNWAY 09L REDUCED DECLARED DISTANCES IF STAND GUIDANCE IS OFF OR FAILS, REMAIN ON THE TAXIWAY CENTRELINE AND ADVISE ATC AUTO 36005KT 320V050 9999 NCD 13/09 Q1024 ACKNOWLEDGE RECEIPT OF INFORMATION A AUTO UPDATE ENDS AT 0433\n[Departure ATIS] EGLL DEP ATIS E 2350Z DEPARTURE RWY 09R RUNWAY 09L REDUCED DECLARED DISTANCES PILOTS THAT ARE IN RECEIPT OF DATALINK CLEARANCES ARE REMINDED THEY MUST CONTACT DELIVERY ON 121.980 WHEN READY FOR START DATALINK CLEARANCES NOT AVAILABLE FOR CPT DEPARTURES AUTO 03007KT 9999 NCD 16/09 Q1023 ACKNOWLEDGE RECEIPT OF INFORMATION E AND REPORT AIRCRAFT TYPE AND CURRENT QNH ON FIRST CONTACT WITH HEATHROW",
    "EPWA": "[Arrival ATIS] EPWA ARR ATIS I 0401Z EPWA ARR I. TIME 0400. EXP U ARR ILS Z APCH FOR RWY 33. TRANSITION LEVEL 80. WIND CALM. CAVOK. T 16. DP 15. QNH 1012. NOSIG. CAUTION. BIRD ACT. END OF EPWA ARR I\n[Departure ATIS] EPWA DEP ATIS W 0401Z EPWA DEP W. TIME 0400. DEP RWY 29. ARR RWY 33, EXP U ARR ILS Z. REPORT READY FOR STARTUP ON DELIVERY 121 DECIMAL 605. TRANSITION LEVEL 80. WIND 260 DEG, 3 KT. CAVOK. T 16. DP 15. QNH 1012. NOSIG. CAUTION. BIRD ACT. END OF EPWA DEP W",
    "EFHK": "[Arrival ATIS] EFHK ARR ATIS G 0350Z EXPECT ILS APCH ARR RWY 15 RUNWAY 15 CONDITION REPORT AT 0157 UTC RUNWAY CONDITION CODES 5 , 5 , 5 CONTAMINANTS ALL PARTS 100 PERCENT WET TRL 65 WIND 260 DEG 15 KT VIS 9KM FBL DZ BKN 600 FT. BKN 2000 FT T 16 DP 15 QNH 1000 TEMPO VIS 4000M ACK INFO G\n[Departure ATIS] EFHK DEP ATIS D 2055Z DEP RWY 22R RUNWAY 22R CONDITION REPORT AT 1748 UTC RUNWAY CONDITION CODES 5 , 5 , 5 CONTAMINANTS ALL PARTS 100 PERCENT WET SPECIAL WIND 190 DEG 10 KT VIS 4500M HVY SHRA BKN 1300 FT. SCT CB 4000 FT T 20 DP 18 QNH 1001 BECMG VIS 6KM MOD SHRA CLD SCT 1400 FT. SCT CB 4000 FT. ACK INFO D",
    "LTAC": "[Arrival ATIS] LTAC ARR ATIS J 0120Z EXP ILS V APCH 03C DEP RWY 03L RWY 03C WIND 040 DEG 09 KT RWY 03L WIND 030 DEG 09 KT TRL 110 CAVOK T 18 DP 12 QNH 1016 NOSIG FOR DELIVERY CTC 121.9. FOR DELIVERY FIRST USE DIGITAL DEP CLR. CTN BIRD HAZARD OVR AERODROME. APCH FREQUENCY 129.050. END OF ATIS J",
    "UBBB": "[Arrival ATIS] UBBB ARR ATIS C 0030Z ATIS C EXP ILS/ LDG 34 35 DEP 34 35 IN USE RWY 34 CLEAR DRY 70 RWY 35 CLEAR DRY 70 TLVL 110 WIND WIND RWY 34 330 16 KT SPD MAX 24 MIN 12 WIND RWY 35 320 16 KT SPD MAX 24 MIN 14 VIS 10 KM FEW CB 6000 FT RWY 34 FEW CB 6000 FT RWY 35 T 26 / DP 23 QNH 1009 HPA TREND TREND NOSIG MODERATE BIRDS ACT IN VICINITY OF AP END OF ATIS C\n[Departure ATIS] UBBB DEP ATIS G 0230Z ATIS G EXP ILS/ LDG 34 35 DEP 34 35 IN USE RWY 34 CLEAR DRY 70 RWY 35 CLEAR DRY 70 TLVL 110 WIND WIND RWY 34 320 16 KT SPD MAX 26 MIN 10 WIND RWY 35 320 16 KT SPD MAX 24 MIN 10 VIS 10 KM SCT 1200 FT RWY 34 SCT 1200 FT RWY 35 T 26 / DP 23 QNH 1009 HPA TREND TREND NOSIG MODERATE BIRDS ACT IN VICINITY OF AP END OF ATIS G",
    "ZWWW": "[Arrival ATIS] ZWWW ARR ATIS L 0300Z EXP ILSDME Z APCH LDG RWY 26R TA 3000 WIND 300/2MPS VRB BTN 260/ AND 350/ CAVOK T 29 /DP 14 QNH 1009 HPA ADZ YOU HAVE INFO L.\n[Departure ATIS] ZWWW DEP ATIS Y 1000Z DEP RWY 26L TA 3000 WIND 280/13MPS MAX18 VIS 1700M BLSA CLD SCT 1380M T 26 /DP 09 QNH 1008 HPA ADZ YOU HAVE INFO Y.",
    "ZLXY": "[Arrival ATIS] ZLXY ARR ATIS F 1100Z EXP ILS APCH LDG RWY 05L & 06R WIND 140/3MPS CAVOK T 27 /DP 18 QNH 1006 HPA VISUAL APPROACH IN PROGRESS ADZ YOU HAVE INFO F.\n[Departure ATIS] ZLXY DEP ATIS X 0300Z DEP RWY 05L & 06L WIND 060/4MPS VIS 9999M CLD FEW 2100M T 26 /DP 18 QNH 1007 HPA VISUAL APPROACH IN PROGRESS ADZ YOU HAVE INFO X.",
    "ZBAA": "[Arrival ATIS] ZBAA ARR ATIS Y 0200Z EXP ILS APCH DEPENDENT PARL INSTR APCH LDG RWY 18R & 18L & 19 WIND VRB DEG 1 MPS VIS 9999 CLD FEW 1200M T 28 /DP 23 QNH 1003 HPA VISUAL APPROACH IS IN PROGRESS. ADZ YOU HAVE INFO Y.\n[Departure ATIS] ZBAA DEP ATIS T 1130Z DEP RWY 36L & 36R & 01 WIND VRB DEG 1 MPS CAVOK T 22 /DP 22 QNH 1007 HPA RWY INDEPENDENT PARALLEL DEP RWY 36L RWYCC 5/5/5 ISSUED AT 0942 ALL PARTS WET NR 100PCT RWY 36R RWYCC 5/5/5 ISSUED AT 0942 ALL PARTS WET NR 100PCT RWY 01 RWYCC 5/5/5 ISSUED AT 0942 ALL PARTS WET NR 100PCT ADZ YOU HAVE INFO T.",
    "ZBHH": "[Arrival ATIS] ZBHH ARR ATIS Q 0700Z EXP ILSDME APCH LDG RWY 26 TA 3000 /TRL 3600 WIND 350/6MPS VRB BTN 320/ AND 040/ CAVOK T 26 /DP 04 QNH 1009 HPA ADZ YOU HAVE INFO Q.\n[Departure ATIS] ZBHH DEP ATIS Q 1500Z DEP RWY 08 TA 3000 /TRL 3600 WIND 140/2MPS VIS 5000M BR NSC T 19 /DP 19 QNH 1007 HPA ADZ YOU HAVE INFO Q.",
    "ZSQD": "[Arrival ATIS] ZSQD ARR ATIS H 1100Z EXP ILSDME APCH LDG RWY 17 TA 3000 /TRL 3600 WIND 170/5MPS CAVOK T 24 /DP 17 QNH 1008 HPA SEGREGATED OPERATION VISUAL APPROACH OPERATION IN PROGRESS. WHEN READY CONTACT QINGDAO TOWER ON 118.7 RUNWAY 17,IF MISSED APPROACH,EXPECT FOLLOW THE STANDARD MISSED APPROACH PROCEDURE,CLIMB TO 900M ON QNH OR BY ATC CAUTION MAYBE THERE IS A FLOCK OF BIRDS IN THE VICINITY OF AIRPORT ADZ YOU HAVE INFO H.\n[Departure ATIS] ZSQD DEP ATIS E 0900Z DEP RWY 16 TA 3000 /TRL 3600 WIND 180/6MPS VIS 9999M CLD FEW 990M T 26 /DP 17 QNH 1008 HPA SEGREGATED OPERATION VISUAL APPROACH OPERATION IN PROGRESS. RUNWAY 17,IF MISSED APPROACH,EXPECT FOLLOW THE STANDARD MISSED APPROACH PROCEDURE,CLIMB TO 900M ON QNH OR BY ATC CAUTION MAYBE THERE IS A FLOCK OF BIRDS IN THE VICINITY OF AIRPORT ADZ YOU HAVE INFO E."
  },
  "windtemp_alaska": "\n000\nFBAK31 KWNO 190159\nFD1AK1\nDATA BASED ON 190000Z    \nVALID 190600Z   FOR USE 0200-0900Z. TEMPS NEG ABV 24000\n\nFT  3000    6000    9000   12000   18000   24000  30000  34000  39000\nADK 2909 2810+04 3015-01 3230-05 3360-14 3370-24 338736 339445 339750\nADQ 1625 1730+04 1831+00 1934-04 1955-15 2066-26 197041 197351 196153\nAKN 1430 1634+02 1632-03 1734-08 1848-20 1865-31 199544 187645 193943\nANC 1417 1616+01 1722-04 2034-07 2150-16 2160-25 216141 216650 215654\nANN 3417 3515+04 3319+05 3415+01 3425-12 3524-24 342740 352950 332955\nBET 1118 1117-01 1124-06 1220-09 1424-23 1426-36 152944 162340 161639\nBRW 0613 0805+00 9900-03 1206-07 1116-20 1026-33 103146 122844 122242\nBTI 2413 2214+05 2112-01 2010-06 1524-18 1439-30 144646 153245 162144\nBTT 1506 1509+02 1714-03 1715-09 1315-22 2120-34 213346 202444 192142\nCDB 2308 2409-01 2511-07 2317-10 2225-22 2230-34 222841 212138 201639\nCZF 0910 0908+00 0610-06 0613-12 0709-23 1008-35 071047 040941 030639\nEHM 1124 0919-01 1018-05 1121-11 1321-22 1621-34 172043 171839 161239\nFAI 1813 2014+03 1911-03 1811-10 2214-18 2239-29 237742 238251 213948\nFYU 2306 2206+04 2210-03 2009-09 2013-20 2226-30 245444 235247 212943\nGAL 1409 1607+01 1508-05 1614-11 1924-21 2032-34 203847 193346 172241\nGKN 1723 1925+01 2116-03 2425-06 2343-14 2243-25 224741 235650 235055\nHOM 1238 1533+02 1831-02 1934-06 1953-16 2065-27 207042 207451 206053\nJNU 2605 3308+05 3509+04 3311+01 3210-12 2910-25 301540 312349 313057\nLUR 0907 1307+01 1109-04 0913-10 0723-23 0738-35 074346 072542 081440\nMCG 1105 1010+01 1212-05 1315-11 1322-20 1832-31 205946 206647 183144\nMDO 1319 1622+03 2028+00 2232-05 2231-14 2140-25 214341 214550 213757\nOME 1310 1310+00 1309-06 1307-11 1105-24 1506-36 171146 120541 080739\nORT      2606+04 1911-03 2118-08 2438-13 2338-25 234441 245050 244155\nOTZ 1415 1514+01 1515-05 1514-11 1416-25 1618-37 162144 141441 121239\nSNP 3518 3520-03 3622-05 3629-10 3536-23 3541-35 354443 354640 353840\nTKA 1710 1717-01 1915-05 2130-09 2139-17 2161-26 217142 217451 215151\nUNK 1416 1514+00 1617-06 1617-11 1825-22 1829-35 183648 182544 161540\nYAK 2805 2914+03 2816+02 2618-01 2319-13 2619-25 262440 262649 252758\nIKO 3326 3332-02 3334-06 3335-11 3339-23 3341-34 334543 335239 334440\nAFM 1508 1511+01 1612-04 1615-11 1719-24 1715-34 161847 161843 151640\n5AB 2914 3121+12 3127+06 3132+02 3234-08 3238-20 315933 306843 307753\n5AC 3318 3323+08 3225+05 3126+01 3121-11 2916-23 291739 291449 301158\n5AD 2124 2225+06 2322+03 2222+00 2328-14 2331-25 213140 222949 212958\n5AE 2027 2033+04 2039+00 2044-04 2057-17 2079-26 209242 208350 195850\n5AF 3015 3215+07 3016+04 2914+00 3013-12 3014-24 291439 281348 261558\n5AG 2007 2610+06 2416+02 2419-02 2220-13 2221-24 212340 203050 212758\n",
  "vaac_tokyo": [
    {
      "id": "20260719_27303000_0767",
      "year": "2026",
      "volcano": "Mayon",
      "psn": "N1315 E12341",
      "issued": "20260719",
      "text": "FVFE01 RJTD 190225\nVA ADVISORY\nDTG: 20260719/0225Z\nVAAC: TOKYO\nVOLCANO: MAYON 273030\nPSN: N1315 E12341\nAREA: PHILIPPINES\nSOURCE ELEV: 2462M AMSL\nADVISORY NR: 2026/767\nINFO SOURCE: HIMAWARI-9 PHIVOLCS\nERUPTION DETAILS: ERUPTION AT 20260719/0207Z FL090 REPORTED\nOBS VA DTG: 19/0210Z\nOBS VA CLD: VA NOT IDENTIFIABLE FM SATELLITE DATA WIND FL090 350/1KT\nFCST VA CLD +6 HR: NOT AVBL\nFCST VA CLD +12 HR: NOT AVBL\nFCST VA CLD +18 HR: NOT AVBL\nRMK: WE WILL ISSUE FURTHER ADVISORY IF VA IS DETECTED IN SATELLITE \nIMAGERY.\nNXT ADVISORY: NO FURTHER ADVISORIES=",
      "img_url": "https://ds.data.jma.go.jp/svd/vaac/data/VAGFN/2026/Images/20260719_27303000_0767_QH21_01.png",
      "sat_img_url": null,
      "text_url": "https://ds.data.jma.go.jp/svd/vaac/data/TextData/2026/20260719_27303000_0767_Text.html"
    },
    {
      "id": "20260718_30027000_0268",
      "year": "2026",
      "volcano": "Sheveluch",
      "psn": "N5639 E16122",
      "issued": "20260718",
      "text": "FVFE01 RJTD 180000\nVA ADVISORY\nDTG: 20260718/0000Z\nVAAC: TOKYO\nVOLCANO: SHEVELUCH 300270\nPSN: N5639 E16122\nAREA: RUSSIA\nSOURCE ELEV: 3283M AMSL\nADVISORY NR: 2026/268\nINFO SOURCE: KVERT HIMAWARI-9\nERUPTION DETAILS: VA CONTINUOUSLY OBS IN SATELLITE IMAGERY\nOBS VA DTG: 17/2320Z\nOBS VA CLD: SFC/FL290 N5601 E16322 - N5605 E16357 - N5546 E16401 - \nN5544 E16326 MOV SE 25KT\nFCST VA CLD +6 HR: 18/0520Z SFC/FL300 N5529 E16617 - N5404 E16714 - \nN5357 E16639 - N5527 E16530\nFCST VA CLD +12 HR: 18/1120Z SFC/FL300 N5352 E17006 - N5152 E17037 - \nN5152 E16936 - N5344 E16817\nFCST VA CLD +18 HR: NO VA EXP\nRMK: SOME PART OF VA OBSCURED BY MET CLOUD.\nNXT ADVISORY: 20260718/0600Z=",
      "img_url": "https://ds.data.jma.go.jp/svd/vaac/data/VAGFN/2026/Images/20260718_30027000_0268_QH21_01.png",
      "sat_img_url": "https://ds.data.jma.go.jp/svd/vaac/data/Sat/2026/Images/30027000/09-ir/20260717_2320_202607180000_ir.png",
      "text_url": "https://ds.data.jma.go.jp/svd/vaac/data/TextData/2026/20260718_30027000_0268_Text.html"
    },
    {
      "id": "20260717_27307000_0014",
      "year": "2026",
      "volcano": "Taal",
      "psn": "N1400 E12100",
      "issued": "20260717",
      "text": "FVFE01 RJTD 171113\nVA ADVISORY\nDTG: 20260717/1113Z\nVAAC: TOKYO\nVOLCANO: TAAL 273070\nPSN: N1400 E12100\nAREA: PHILIPPINES\nSOURCE ELEV: 311M AMSL\nADVISORY NR: 2026/14\nINFO SOURCE: HIMAWARI-9 PHIVOLCS\nERUPTION DETAILS: ERUPTION AT 20260717/1051Z FL040 EXTD E REPORTED\nOBS VA DTG: 17/1100Z\nOBS VA CLD: VA NOT IDENTIFIABLE FM SATELLITE DATA WIND FL040 270/8KT\nFCST VA CLD +6 HR: NOT AVBL\nFCST VA CLD +12 HR: NOT AVBL\nFCST VA CLD +18 HR: NOT AVBL\nRMK: WE WILL ISSUE FURTHER ADVISORY IF VA IS DETECTED IN SATELLITE \nIMAGERY.\nNXT ADVISORY: NO FURTHER ADVISORIES=",
      "img_url": "https://ds.data.jma.go.jp/svd/vaac/data/VAGFN/2026/Images/20260717_27307000_0014_QH21_01.png",
      "sat_img_url": null,
      "text_url": "https://ds.data.jma.go.jp/svd/vaac/data/TextData/2026/20260717_27307000_0014_Text.html"
    },
    {
      "id": "20260713_28208001_0083",
      "year": "2026",
      "volcano": null,
      "psn": "N3136 E13039",
      "issued": "20260713",
      "text": "FVFE01 RJTD 130254\nVA ADVISORY\nDTG: 20260713/0254Z\nVAAC: TOKYO\nVOLCANO: SAKURAJIMA (AIRA CALDERA) 282080\nPSN: N3136 E13039\nAREA: JAPAN\nSOURCE ELEV: 1117M AMSL\nADVISORY NR: 2026/83\nINFO SOURCE: JMA HIMAWARI-9\nERUPTION DETAILS: ERUPTED AT 20260713/0152Z FL100 EXTD N\nOBS VA DTG: 13/0230Z\nOBS VA CLD: SFC/FL100 N3136 E13039 - N3142 E13040 - N3141 E13044 - \nN3134 E13042 MOV NE 15KT\nFCST VA CLD +6 HR: 13/0830Z SFC/FL100 N3234 E13121 - N3145 E13155 - \nN3202 E13110 - N3227 E13051\nFCST VA CLD +12 HR: 13/1430Z SFC/FL100 N3318 E13206 - N3142 E13317 - \nN3134 E13226 - N3312 E13118\nFCST VA CLD +18 HR: NO VA EXP\nRMK: NIL\nNXT ADVISORY: 20260713/0600Z=",
      "img_url": "https://ds.data.jma.go.jp/svd/vaac/data/VAGFN/2026/Images/20260713_28208001_0083_QH21_01.png",
      "sat_img_url": "https://ds.data.jma.go.jp/svd/vaac/data/Sat/2026/Images/28208001/09-ir/20260713_0230_202607130254_ir.png",
      "text_url": "https://ds.data.jma.go.jp/svd/vaac/data/TextData/2026/20260713_28208001_0083_Text.html"
    }
  ],
  "vaac_alaska": [
    {
      "text": "\n000\nFVAK21 PAWU 180008\nVAAAK1\nVA ADVISORY\n\nDTG: 20260718/0000Z\n\nVAAC: ANCHORAGE\n\nVOLCANO: SHEVELUCH 300270\n\nPSN: N5639 E16122\n\nAREA: KAMCHATKA PENINSULA\n\nSOURCE ELEV: 10771 FT AMSL\n\nADVISORY NR: 2026/205\n\nRMK: PLEASE SEE FVFE01 RJTD ISSUED BY VAAC TOKYO WHICH DESCRIBES\nCONDITIONS NEAR THE VAAC ANCHORAGE AREA OF RESPONSIBILITY...BS\n\n\n\n",
      "issued": "2026-07-18T00:08:00+00:00",
      "volcano": "Sheveluch",
      "psn": "N5639 E16122"
    }
  ]
}