{
  "updated_utc": "2026-07-16T05:23Z",
  "metar": {
    "RJAA": "METAR RJAA 160330Z 10005KT 080V140 8000 FEW015 BKN/// 31/26 Q1000 NOSIG",
    "PANC": "METAR PANC 160353Z 10SM SCT060 SCT200 17/08 A2998 RMK AO2 SLP152 T01670078",
    "PAFA": "METAR PAFA 160353Z 24006KT 10SM FEW050 BKN070 BKN095 BKN180 16/09 A2982 RMK AO2 RAE07 SLP102 P0000 T01610094",
    "PAED": "METAR PAED 160355Z 26006KT 10SM SCT047 SCT070 17/07 A2996 RMK AO2A SLP141 T01650072 $",
    "KSEA": "METAR KSEA 160353Z 34005KT 10SM FEW050 SCT150 BKN250 23/07 A2997 RMK AO2 SLP151 ACC W T02280072 $",
    "ZSPD": "METAR ZSPD 160330Z 01006MPS CAVOK 37/25 Q1003 NOSIG",
    "ZSSS": "METAR ZSSS 160330Z 31006MPS 280V340 CAVOK 37/24 Q1003 NOSIG",
    "RJFR": "METAR RJFR 160400Z 32015KT 9999 FEW035 BKN/// 33/27 Q1002",
    "VHHH": "METAR VHHH 160330Z 23005KT 180V250 9999 -SHRA FEW008 SCT025 27/25 Q1007 TEMPO FM0400 VRB15G30KT 2500 TSRA SHRA FEW008CB SCT015",
    "RCTP": "METAR RCTP 160330Z 24017KT 9999 FEW020 SCT200 33/25 Q1008 NOSIG RMK A2978",
    "ZGSZ": "METAR ZGSZ 160400Z 20004MPS 9999 -SHRA SCT010 OVC040 27/25 Q1007 NOSIG",
    "WSSS": "METAR WSSS 160330Z 14008KT 9999 FEW016 FEW018TCU BKN300 31/25 Q1013 NOSIG",
    "WMKK": "METAR WMKK 160330Z VRB05KT 9999 FEW017CB SCT018 33/25 Q1012 NOSIG",
    "WIDD": "METAR WIDD 160330Z 14008KT 9999 FEW014 32/26 Q1013 NOSIG",
    "VTBS": "METAR VTBS 160330Z 24009KT 210V280 9999 FEW020 32/22 Q1011 NOSIG",
    "VTBU": "METAR VTBU 160330Z 25012KT 9999 FEW020 32/26 Q1011 NOSIG",
    "ROAH": "METAR ROAH 160330Z 25009KT 9999 FEW005 BKN/// 30/28 Q1009",
    "VVDN": "METAR VVDN 160330Z 22010KT 9999 FEW020 BKN070 33/22 Q1007 NOSIG",
    "RCKH": "METAR RCKH 160330Z 26006KT 220V310 9999 FEW018 SCT030 32/25 Q1010 NOSIG RMK 24006KT/R09 A2983",
    "KLAX": "METAR KLAX 160353Z VRB05KT 10SM FEW010 FEW250 22/19 A2979 RMK AO2 SLP084 T02220194 $",
    "KONT": "METAR KONT 160353Z 24008KT 10SM FEW120 FEW250 29/15 A2981 RMK AO2 SLP074 T02890150 $",
    "KSFO": "METAR KSFO 160356Z 29013KT 10SM CLR 16/11 A2990 RMK AO2 SLP124 T01610106 $",
    "KOAK": "METAR KOAK 160353Z 26006KT 10SM CLR 18/12 A2990 RMK AO2 SLP125 T01780122",
    "KMHR": "METAR KMHR 160335Z AUTO 21007KT 10SM CLR 28/07 A2979 RMK AO2 T02830071 $",
    "KDFW": "METAR KDFW 160353Z 16005KT 10SM BKN110 BKN250 24/21 A3005 RMK AO2 SLP168 T02440206 $",
    "KIAH": "METAR KIAH 160353Z 05005KT 10SM FEW023 BKN180 OVC250 26/24 A3008 RMK AO2 SLP186 T02560244",
    "KORD": "METAR KORD 160351Z 04007KT 10SM SCT250 27/23 A3006 RMK AO2 WSHFT 0304 SLP172 T02670233",
    "KJFK": "METAR KJFK 160351Z 36004KT 10SM BKN048 OVC300 27/13 A2992 RMK AO2 SLP131 FU OVC300 T02670133 $",
    "KRFD": "METAR KRFD 160354Z 18003KT 10SM FEW250 26/24 A3007 RMK AO2 SLP174 T02610239",
    "KIND": "METAR KIND 160354Z 32006KT 10SM BKN300 27/22 A3007 RMK AO2 SLP173 T02720217",
    "KDTW": "METAR KDTW 160353Z 03004KT 1 1/4SM FU SCT000 OVC012 26/19 A3003 RMK AO2 TWR VIS 3 SLP162 FU SCT000 T02610194",
    "KMSP": "METAR KMSP 160353Z 07004KT 1 1/2SM FU OVC019 28/22 A3008 RMK AO2 SLP178 T02780217",
    "CYEG": "METAR CYEG 160400Z 32003KT 20SM BKN140 BKN190 20/18 A3003 RMK AC6AC1 SLP170 DENSITY ALT 3400FT",
    "EHAM": "METAR EHAM 160325Z 03005KT CAVOK 19/16 Q1020 NOSIG",
    "EBBR": "METAR EBBR 160350Z 03002KT CAVOK 15/11 Q1019 NOSIG",
    "EDDF": "METAR EDDF 160350Z AUTO 07005KT CAVOK 20/10 Q1018 NOSIG",
    "EDFH": "METAR EDFH 160350Z 11008KT CAVOK 17/11 Q1019",
    "EDDL": "METAR EDDL 160350Z AUTO VRB02KT CAVOK 17/13 Q1019 NOSIG",
    "EDDK": "METAR EDDK 160350Z AUTO VRB02KT CAVOK 14/11 Q1019 NOSIG",
    "EBLG": "METAR EBLG 160350Z 03006KT CAVOK 17/10 Q1019 NOSIG",
    "LSZH": "METAR LSZH 160350Z COR VRB01KT 9999 MIFG NSC 17/16 Q1020 NOSIG",
    "LIMC": "METAR LIMC 160350Z 02004KT CAVOK 20/19 Q1018 NOSIG",
    "LIRF": "METAR LIRF 160350Z VRB02KT 8000 NSC 23/23 Q1016 NOSIG",
    "EINN": "METAR EINN 160330Z 01003KT CAVOK 17/14 Q1023 NOSIG",
    "EGLL": "METAR EGLL 160350Z AUTO 04005KT 360V070 9999 NCD 16/14 Q1022",
    "EGSS": "METAR EGSS 160350Z AUTO 01006KT 6000 OVC004 15/14 Q1023",
    "EPWA": "METAR EPWA 160330Z 04007KT CAVOK 19/15 Q1021 NOSIG",
    "UHPP": "METAR UHPP 160330Z 15005MPS 9000 -SHRA SCT013 BKN025CB 17/13 Q1018 R16R/CLRD62 NOSIG RMK MT OBSC QFE760/1014",
    "EFHK": "METAR EFHK 160350Z 01004KT 340V040 CAVOK 17/12 Q1021 NOSIG",
    "LBBG": "METAR LBBG 160330Z AUTO 18005KT 9999 NCD 20/17 Q1016 NOSIG",
    "LTAC": "METAR LTAC 160350Z 03008KT CAVOK 17/12 Q1018 NOSIG RMK RWY21C 03007KT RWY03L 02009KT RWY21R 02006KT RWY03R 05003KT 010V080 RWY21L 02009KT",
    "UBBB": "METAR UBBB 160330Z 32020G30KT CAVOK 27/20 Q1010 NOSIG",
    "UTAA": "METAR UTAA 160400Z 30010KT 8000 NSC 32/20 Q1008 R88/CLRD70 NOSIG",
    "UACC": "METAR UACC 160330Z 19005MPS 9999 SCT046CB 24/15 Q1003 NOSIG RMK QFE721/0962",
    "UAAA": "METAR UAAA 160330Z 03002MPS 310V070 9999 NSC 31/11 Q1009 NOSIG",
    "UZTT": "METAR UZTT 160330Z VRB02KT CAVOK 34/12 Q1007 NOSIG",
    "ZWWW": "METAR ZWWW 160330Z 29002MPS 250V330 CAVOK 33/06 Q1009 NOSIG",
    "ZLXY": "METAR ZLXY 160400Z 07004MPS 040V130 9999 FEW030 SCT040 32/23 Q1002 NOSIG",
    "ZBAA": "METAR ZBAA 160330Z 01003MPS CAVOK 32/20 Q1003 NOSIG",
    "ZBHH": "METAR ZBHH 160400Z 08004MPS 9999 SCT040 26/15 Q1009 BECMG TL0530 27005MPS",
    "ZSQD": "METAR ZSQD 160400Z VRB01MPS 9999 FEW015 OVC026 26/24 Q1003 NOSIG",
    "ZMCK": "METAR ZMCK 160330Z VRB02MPS 9999 FEW030CB SCT033 23/08 Q1010 NOSIG RMK QFE642.6 38 MOP",
    "UUEE": "METAR UUEE 160330Z 31004MPS 280V340 9999 FEW038 17/14 Q1010 R24L/CLRD62 R24C/CLRD62 NOSIG",
    "UUDD": "METAR UUDD 160330Z 29005MPS 9999 FEW043 16/15 Q1010 R31L/CLRD65 NOSIG",
    "ULLI": "METAR ULLI 160330Z 05006MPS 360V080 CAVOK 16/11 Q1020 R88/090065 NOSIG",
    "USSS": "METAR USSS 160330Z 27002MPS 9999 SCT008 OVC024CB 18/18 Q0995 R26L/210060 R26R/290040 NOSIG RMK QFE726/0968",
    "UNNT": "METAR UNNT 160330Z 16003MPS 9999 SCT045 23/14 Q1006 R25/CLRD// R34/CLRD// NOSIG RMK QFE745/0993",
    "UNKL": "METAR UNKL 160330Z 08002MPS 030V130 CAVOK 23/13 Q1009 R29/CLRD// NOSIG RMK QFE731",
    "UIBB": "METAR UIBB 160330Z 28004MPS 230V330 9999 BKN026CB 18/12 Q1008 R30/CLRD62 NOSIG RMK QFE713/0951",
    "UEEE": "METAR UEEE 160330Z 10004MPS CAVOK 26/17 Q0996 R23/09//64 NOSIG RMK QFE739",
    "UHHH": "METAR UHHH 160330Z 23008MPS 210V270 9999 SCT041CB 25/15 Q0993 R88/090060 NOSIG RMK QFE739/0985",
    "UHSS": "METAR UHSS 160330Z 24004MPS 9999 BKN021CB 28/23 Q0993 R01/CLRD70 NOSIG RMK MT OBSC QFE744/0992"
  },
  "taf": {
    "RJAA": "TAF RJAA 152305Z 1600/1706 13010KT 9999 FEW020 BKN040 TEMPO 1615/1621 3000 BR FEW005 BKN008",
    "PANC": "TAF PANC 152342Z 1600/1706 19012G20KT P6SM VCSH FEW025 BKN050 FM160600 18008KT P6SM BKN080 FM161400 17007KT P6SM VCSH SCT030 OVC040 FM161800 16010KT P6SM -RA SCT025 OVC040",
    "PAFA": "TAF PAFA 160324Z 1603/1706 24005KT P6SM -RA FEW040 OVC080 FM160600 22009G19KT P6SM -RA SCT025 OVC050 FM161200 23005KT P6SM BKN050",
    "PAED": "TAF PAED 160500Z 1605/1711 24009KT 9999 SCT050 QNH2995INS BECMG 1620/1621 25009KT 9999 -SHRA BKN031 OVC050 640753 QNH2997INS BECMG 1623/1624 32008KT 9000 -RA BKN015 OVC045 640703 QNH2995INS BECMG 1702/1703 33008KT 9999 -SHRA FEW015 FEW025 OVC050 640753 QNH2990INS BECMG 1707/1708 01006KT 9999 NSW BKN008 BKN015 OVC035 650753 QNH2987INS TX16/1605Z TN08/1613Z",
    "KSEA": "TAF KSEA 160307Z 1603/1706 33009KT P6SM FEW050 BKN150 BKN250 FM160600 VRB04KT P6SM VCSH BKN150 FM161200 25005KT P6SM VCSH OVC100 FM161600 21005KT P6SM -SHRA BKN025 OVC040 FM162000 23009KT P6SM VCSH OVC035",
    "ZSPD": "TAF ZSPD 160305Z 1606/1712 18004MPS 8000 SCT030 TX39/1606Z TX38/1706Z TN29/1621Z TEMPO 1606/1610 TSRA BKN011 FEW030CB TEMPO 1706/1710 TSRA BKN011 FEW030CB",
    "ZSSS": "TAF ZSSS 160304Z 1606/1712 18004MPS 8000 SCT030 TX39/1606Z TX38/1706Z TN29/1621Z TEMPO 1606/1610 TSRA BKN011 FEW030CB TEMPO 1706/1710 TSRA BKN011 FEW030CB",
    "RJFR": "TAF RJFR 152305Z 1600/1706 33010KT 9999 FEW045 BECMG 1618/1621 17004KT BECMG 1700/1703 01008KT",
    "VHHH": "TAF VHHH 160500Z 1606/1712 20010KT 9999 FEW010 SCT025 TX30/1606Z TX31/1706Z TN26/1622Z TEMPO 1606/1608 26015G25KT 2000 TSRA +SHRA FEW008CB SCT015 TEMPO 1608/1611 3000 SHRA FEW010CB SCT020 TEMPO 1617/1623 3000 SHRA FEW010CB SCT020 TEMPO 1623/1705 24020G30KT 2500 TSRA SHRA FEW008CB SCT015 TEMPO 1705/1708 3000 SHRA FEW010CB SCT020",
    "RCTP": "TAF RCTP 152300Z 1600/1706 24010KT 9999 FEW010 BKN032 TEMPO 1600/1604 19005KT TEMPO 1604/1610 28015KT TEMPO 1612/1618 18005KT TEMPO 1618/1624 15005KT",
    "ZGSZ": "TAF ZGSZ 160304Z 1606/1712 18005MPS 8000 BKN040 TX28/1606Z TX28/1706Z TN25/1622Z TEMPO 1606/1610 SHRA FEW015 FEW020CB BKN030 TEMPO 1622/1701 SHRA FEW015 FEW020CB BKN030 TEMPO 1703/1707 SHRA FEW015 FEW020CB BKN030",
    "WSSS": "TAF WSSS 152300Z 1600/1706 14008KT 9999 FEW015 SCT020",
    "WMKK": "TAF WMKK 152300Z 1600/1706 11005KT 9999 FEW018",
    "VTBS": "TAF VTBS 152300Z 1600/1706 22008KT 9999 FEW020 TEMPO 1609/1614 VRB15KT 4000 TSRA FEW018CB SCT020 BKN080",
    "VTBU": "TAF VTBU 152300Z 1600/1624 24009KT 9999 FEW020 SCT100",
    "ROAH": "TAF AMD ROAH 160234Z 1602/1706 24010KT 9999 FEW008 BKN012 TEMPO 1602/1605 FEW005 BKN008 TEMPO 1612/1615 FEW005 BKN008 TEMPO 1615/1621 FEW003 BKN005 TEMPO 1621/1703 FEW005 BKN008",
    "VVDN": "TAF VVDN 152300Z 1600/1624 24010KT 9999 FEW020 SCT060 BECMG 1605/1606 01010KT BECMG 1611/1612 22008KT",
    "RCKH": "TAF RCKH 152300Z 1600/1706 18005KT 9999 FEW010 BKN032 TEMPO 1600/1604 08005KT TEMPO 1604/1610 24008KT 5000 SHRA FEW010 BKN020 TEMPO 1619/1701 08005KT 4000 SHRA FEW010 BKN018 TEMPO 1701/1706 24005KT",
    "KLAX": "TAF KLAX 160340Z 1604/1706 26006KT P6SM SKC FM160900 11005KT P6SM SCT008 FM161800 24006KT P6SM FEW010 FM162000 26012KT P6SM SKC FM170300 26005KT P6SM SCT250",
    "KONT": "TAF KONT 160356Z 1604/1706 25008KT P6SM FEW120 FM160700 VRB03KT P6SM FEW200 FM161900 25014G22KT P6SM FEW150",
    "KSFO": "TAF KSFO 160520Z 1606/1712 29015KT P6SM SKC FM161900 30020G30KT P6SM SKC FM170600 28015KT P6SM SKC FM170900 28014KT P6SM SCT010",
    "KOAK": "TAF KOAK 160520Z 1606/1712 26010KT P6SM SKC FM161300 26008KT P6SM FEW005 FM162000 28016KT P6SM SKC FM170600 25010KT P6SM BKN010",
    "KMHR": "TAF KMHR 152320Z 1600/1624 24013G19KT P6SM SKC FM160200 23011KT P6SM SKC FM160500 17006KT P6SM SKC FM161800 20005KT P6SM SKC FM162100 23009KT P6SM SKC",
    "KDFW": "TAF KDFW 160255Z 1603/1706 18011KT P6SM FEW025 BKN100 TEMPO 1614/1616 BKN018 FM161700 17013KT P6SM VCSH SCT035 BKN100 FM162300 18013KT P6SM BKN070",
    "KIAH": "TAF KIAH 160259Z 1603/1706 11006KT P6SM FEW020 BKN170 BKN250 FM161500 16007KT P6SM SCT025 BKN035 BKN250 FM161800 15009KT P6SM SCT035 BKN050 BKN100 FM170200 15004KT P6SM FEW020 SCT250",
    "KORD": "TAF KORD 160252Z 1603/1706 05007KT P6SM BKN300 FM160900 07004KT 5SM FU BKN035",
    "KJFK": "TAF KJFK 160235Z 1603/1706 35008KT 6SM FU BKN050 BKN250 FM160400 30007KT 6SM FU BKN250 FM161500 28012G20KT 5SM FU BKN250 FM162300 31012G21KT 6SM FU BKN250 FM170100 34010KT P6SM SCT250",
    "KRFD": "TAF KRFD 160252Z 1603/1624 VRB03KT P6SM BKN300 TEMPO 1608/1612 5SM BR BCFG FM161200 09003KT 6SM FU BKN035",
    "KIND": "TAF KIND 160221Z 1602/1706 27003KT P6SM SCT250 FM161300 27004KT P6SM FEW050 SCT250 FM161800 23006KT P6SM SCT050 BKN200",
    "KDTW": "TAF KDTW 160520Z 1606/1712 01005KT 1 1/2SM FU SCT040 BKN150 FM161400 35005KT 3SM FU SCT035 BKN200 FM170100 14004KT 4SM FU BKN200",
    "KMSP": "TAF KMSP 160258Z 1603/1706 04004KT 2SM FU OVC022 FM161400 17007KT 6SM FU SCT050 FM170200 13003KT P6SM FEW100",
    "CYEG": "TAF AMD CYEG 160521Z 1605/1624 03005KT P6SM FEW050 SCT120 TEMPO 1605/1610 VRB15G25KT P6SM -SHRA VCTS BKN050CB BKN120 FM161000 VRB03KT P6SM FEW010 PROB30 1610/1614 1SM BR BKN003 FM161700 21006KT P6SM FEW030 FM162100 17008KT P6SM SCT040 RMK NXT FCST BY 160600Z",
    "EHAM": "TAF EHAM 152312Z 1600/1706 04010KT CAVOK BECMG 1623/1702 33007KT PROB30 TEMPO 1702/1706 6000 BKN012",
    "EBBR": "TAF EBBR 152315Z 1600/1706 04008KT CAVOK",
    "EDDF": "TAF EDDF 152300Z 1600/1706 05008KT CAVOK BECMG 1612/1614 14006KT PROB30 TEMPO 1612/1618 20015G30KT TSRA SCT050CB BECMG 1614/1617 20005KT",
    "EDFH": "TAF EDFH 152300Z 1600/1624 10005KT CAVOK PROB40 TEMPO 1612/1615 20015G30KT TSRA SCT050CB BECMG 1615/1618 16006KT TEMPO 1615/1617 25020G40KT 2000 TSGRRA BKN040CB BECMG 1620/1623 23005KT",
    "EDDL": "TAF EDDL 152300Z 1600/1706 03005KT CAVOK BECMG 1600/1602 VRB03KT BECMG 1608/1611 02007KT BECMG 1622/1701 29004KT",
    "EDDK": "TAF EDDK 152300Z 1600/1706 VRB03KT CAVOK BECMG 1611/1614 01006KT PROB30 TEMPO 1612/1616 01015G25KT 3000 TSRA BKN050CB BECMG 1620/1623 16004KT PROB30 TEMPO 1700/1706 SHRA BKN040TCU",
    "EBLG": "TAF EBLG 152315Z 1600/1706 02005KT CAVOK",
    "LSZH": "TAF LSZH 160225Z 1603/1709 VRB02KT CAVOK TX31/1615Z TN17/1604Z TN17/1704Z BECMG 1611/1614 9999 FEW060 PROB40 1615/1618 12010KT TEMPO 1616/1624 SHRA SCT040TCU PROB40 TEMPO 1616/1623 22015G25KT TSRA SCT040CB PROB30 TEMPO 1616/1620 30015G35KT 4500 +RA PROB40 TEMPO 1705/1709 SHRA SCT050CB",
    "LIMC": "TAF LIMC 160500Z 1606/1712 VRB05KT CAVOK BECMG 1618/1620 36010KT TEMPO 1620/1704 4000 TSRA BKN010",
    "LIRF": "TAF LIRF 160500Z 1606/1712 VRB05KT CAVOK BECMG 1609/1611 28013KT BECMG 1618/1620 VRB05KT BECMG 1708/1710 19010KT",
    "EINN": "TAF EINN 160500Z 1606/1706 VRB03KT CAVOK BECMG 1617/1619 33010KT BECMG 1622/1624 01008KT",
    "EGLL": "TAF EGLL 160456Z 1606/1712 03008KT 9999 FEW040 PROB30 TEMPO 1606/1608 BKN009 BECMG 1612/1615 09010KT BECMG 1623/1702 03008KT PROB30 TEMPO 1703/1708 BKN009",
    "EGSS": "TAF EGSS 160455Z 1606/1712 02008KT CAVOK PROB30 TEMPO 1606/1609 8000 BKN006 TEMPO 1700/1708 BKN008",
    "EPWA": "TAF EPWA 160230Z 1603/1703 04005KT CAVOK",
    "UHPP": "TAF UHPP 160455Z 1606/1712 18003G12MPS 6000 -SHRA SCT007 BKN020CB TEMPO 1606/1608 1000 BR VV003 TEMPO 1608/1621 0500 FG VV002 BECMG 1621/1623 BKN020CB",
    "EFHK": "TAF EFHK 160224Z 1603/1703 01007KT CAVOK BECMG 1609/1611 18012KT BECMG 1622/1624 18002KT",
    "LBBG": "TAF LBBG 160500Z 1606/1706 VRB04KT 9999 SCT045 BECMG 1607/1609 12012KT TEMPO 1610/1617 5000 TSRA SCT030CB BKN040 BECMG 1617/1619 VRB04KT",
    "LTAC": "TAF LTAC 160440Z 1606/1706 03008KT CAVOK BECMG 1606/1608 SCT040 BECMG 1616/1618 CAVOK",
    "UBBB": "TAF UBBB 160504Z 1606/1706 33018G28KT 9999 SCT020 TX30/1610Z TN24/1701Z TEMPO 1606/1612 35024G34KT BECMG 1615/1617 34018KT TEMPO 1618/1706 34012G22KT SCT012 FEW040CB",
    "UTAA": "TAF UTAA 152245Z 1600/1624 34016KT 6000 SCT050 TX42/1609Z TEMPO 1600/1603 24018G28KT 3000 DRDU BECMG 1606/1608 02016KT 4000 DRDU BECMG 1616/1618 14014KT TEMPO 1620/1624 20010G20KT",
    "UACC": "TAF UACC 160503Z 1606/1706 26010MPS 9999 SCT040CB BKN050 TX31/1609Z TN16/1623Z TEMPO 1606/1615 VRB23MPS 3100 -TSRA SQ BKN030CB TEMPO 1615/1618 28013MPS -TSRA BKN030CB BECMG 1618/1619 24005MPS SCT040 BKN100 TEMPO 1618/1624 30008MPS TEMPO 1703/1706 SCT030CB",
    "UAAA": "TAF UAAA 160502Z 1606/1706 04002G07MPS 9999 FEW050CB SCT100 TX38/1610Z TN21/1701Z TEMPO 1606/1614 09005G10MPS BECMG 1614/1615 16005MPS BECMG 1703/1704 03003G08MPS",
    "UZTT": "TAF UZTT 160500Z 1606/1706 34012KT CAVOK TX41/1611Z TN26/1700Z TEMPO 1606/1617 30015KT BECMG 1617/1618 07010KT",
    "ZWWW": "TAF ZWWW 160310Z 1606/1712 34004G09MPS CAVOK TX38/1609Z TX39/1709Z TN28/1623Z BECMG 1614/1615 18004MPS BECMG 1702/1703 36004MPS",
    "ZLXY": "TAF ZLXY 160315Z 1606/1706 06004MPS 5000 HZ NSC TX34/1608Z TN22/1621Z BECMG 1608/1609 30008G15MPS 1500 TSRA FEW040CB OVC050 BECMG 1611/1612 26003MPS 3000 -RA OVC050 TEMPO 1612/1615 SHRA FEW040CB OVC050 BECMG 1617/1618 HZ",
    "ZBAA": "TAF ZBAA 160301Z 1606/1712 18004MPS CAVOK TX35/1606Z TX36/1706Z TN24/1621Z",
    "ZBHH": "TAF ZBHH 160311Z 1606/1706 24004G09MPS 9999 SCT040 TX29/1608Z TN16/1622Z BECMG 1606/1607 VRB10G17MPS 2800 TSRA SCT040 FEW040CB BECMG 1610/1611 6000 NSW NSC",
    "ZSQD": "TAF ZSQD 160305Z 1606/1706 04004MPS 5000 BR NSC TX30/1606Z TN22/1620Z BECMG 1619/1620 2500 BECMG 1621/1622 3500",
    "ZMCK": "TAF ZMCK 160447Z 1606/1712 33007MPS 9999 FEW030CB SCT033 TX24/1607Z TN10/1621Z PROB40 TEMPO 1606/1618 VRB08G13MPS TSRA SCT027CB SCT030 BECMG 1610/1613 VRB02MPS",
    "UUEE": "TAF UUEE 160450Z 1606/1706 32006G11MPS 9999 BKN016 TX21/1612Z TN10/1702Z TEMPO 1606/1617 35010G17MPS",
    "UUDD": "TAF UUDD 160454Z 1606/1712 35006MPS 9999 SCT016 TX20/1612Z TN10/1701Z TEMPO 1606/1608 BKN010 TEMPO 1608/1618 36009G17MPS TEMPO 1706/1712 35008G15MPS",
    "ULLI": "TAF ULLI 160450Z 1606/1706 04006G12MPS 9999 SCT020 BECMG 1616/1618 04003MPS",
    "USSS": "TAF USSS 160455Z 1606/1706 27003G14MPS 8000 -SHRA BKN016CB TEMPO 1606/1618 28008G20MPS -TSRAGR",
    "UNNT": "TAF UNNT 160500Z 1606/1706 13003G08MPS 9999 SCT040 TX26/1609Z TN14/1622Z TEMPO 1606/1612 14008G15MPS -TSRA BKN020CB TEMPO 1612/1706 -TSRA BKN016CB BECMG 1700/1704 24005G12MPS",
    "UNKL": "TAF UNKL 160451Z 1606/1706 11003G08MPS 9999 SCT040",
    "UIBB": "TAF UIBB 160500Z 1606/1706 26003G08MPS 9999 BKN030CB TEMPO 1606/1612 VRB08MPS BECMG 1618/1620 20005MPS",
    "UEEE": "TAF UEEE 160500Z 1606/1712 10005G10MPS 9999 SCT030CB OVC100 TX28/1606Z TN16/1618Z TEMPO 1606/1615 VRB16MPS 5000 -TSRA",
    "UHHH": "TAF UHHH 160446Z 1606/1712 24008G13MPS 9999 SCT020CB TX27/1606Z TN18/1618Z TEMPO 1606/1610 5000 -SHRA FEW006 BKN016CB BECMG 1612/1614 20003G08MPS BECMG 1700/1702 24008G13MPS",
    "UHSS": "TAF UHSS 160450Z 1606/1712 27005MPS 9999 BKN025CB BECMG 1612/1614 19003MPS BKN004 BECMG 1623/1701 SCT040"
  },
  "atis": {},
  "windtemp_alaska": "\n000\nFBAK31 KWNO 160159\nFD1AK1\nDATA BASED ON 160000Z    \nVALID 160600Z   FOR USE 0200-0900Z. TEMPS NEG ABV 24000\n\nFT  3000    6000    9000   12000   18000   24000  30000  34000  39000\nADK 0218 3519+02 3323-01 3127-06 3040-18 2946-31 285143 284644 294445\nADQ 2107 2408+02 2510-01 2518-05 2544-15 2659-26 267241 267849 266857\nAKN 1905 2005+01 2008-03 2213-08 2435-17 2561-27 258542 259450 255852\nANC 2006 2308+01 2506-04 2608-09 2825-20 2832-33 274146 275045 263243\nANN 9900 2606+08 2412+06 2512+03 2615-10 2812-23 301340 301150 311160\nBET 2305 2406-02 9900-05 2108-10 2215-22 2119-34 234845 244846 243043\nBRW 9900 9900+00 1908-05 2012-11 2019-20 2124-32 212848 202651 181242\nBTI 0411 0411+04 0508-02 0708-07 0905-18 1208-29 141347 151655 191443\nBTT 2710 9900+04 9900-02 3606-07 9900-20 9900-32 091049 101151 181043\nCDB 1719 1924+02 2232+01 2449-02 2352-14 2454-25 246440 247049 246957\nCZF 2111 2015-01 2015-07 1812-12 2014-23 2020-35 211946 221343 241141\nEHM 9900 1605-02 1807-05 2112-09 2325-19 2257-30 239043 249149 244748\nFAI 2624 2823+01 2919-03 3116-08 3314-21 3511-34 021549 990047 231041\nFYU 2819 2906+03 2906-02 9900-07 0408-20 0723-32 093449 101447 181140\nGAL 9900 1807+01 1606-04 1312-08 1513-21 1606-33 990049 990050 220842\nGKN 1820 2316+02 2614-04 2807-10 3210-24 3017-36 302545 272842 252740\nHOM 2413 2709+02 2809-02 2713-08 2625-19 2756-29 279343 278449 264947\nJNU 2207 2118+05 2323+02 2429+00 2435-12 2431-24 254140 254449 254059\nLUR 0407 1708-01 1909-05 2107-09 2215-22 2125-33 223848 221848 990042\nMCG 2425 2614+00 2413-05 2308-10 2005-21 2306-33 251048 251847 241843\nMDO 2517 2513+01 2615-02 2622-07 2731-20 2757-30 279642 278847 264747\nOME 9900 2006+00 2308-05 9900-11 1514-21 1315-33 111849 121148 990042\nORT      2725+03 2814-04 3011-10 2708-24 1906-37 230743 232039 232439\nOTZ 2405 1706+01 1708-04 1811-09 1812-20 1608-32 141148 140952 990042\nSNP 2911 3213-01 3318-07 3413-10 3513-22 3516-34 311245 252044 261741\nTKA 2017 2310+01 2708-04 2508-10 2609-21 2813-33 272447 272945 252542\nUNK 2813 2908+00 2707-04 2005-10 1410-21 1511-33 141049 180948 231242\nYAK 9900 2407+00 2719-02 2629-07 2552-17 2582-25 258841 258849 245249\nIKO 3318 3021+03 2729+00 2636-05 2458-15 2379-24 238541 239249 236551\nAFM 9900 9900+03 2005-02 2107-08 2006-20 9900-33 110948 120853 190643\n5AB 9900 9900+05 3112+01 3222-03 3245-14 3362-25 348838 349746 348554\n5AC 3013 3011+09 3211+06 3211+02 3409-11 3513-23 361540 011850 351960\n5AD 2616 2720+08 2722+05 2723+00 2630-12 2632-24 273239 283049 282760\n5AE 2214 2317+04 2431+03 2538-01 2539-13 2543-24 265139 265448 255159\n5AF 3017 2714+08 2719+05 2621+01 2629-11 2530-23 252940 262750 262459\n5AG 2812 2915+03 2720+00 2630-03 2653-13 2665-24 266841 267050 265954\n",
  "vaac_active": [
    {
      "volcano": "MAYON",
      "volcano_jp": "マヨン",
      "advisory_nr": "2026/752",
      "obs_time": "2026-07-16 01:44Z",
      "issued_time": "2026-07-16 01:59Z",
      "text_url": "https://www.data.jma.go.jp/vaac/data/TextData/2026/20260716_27303000_0752_Text.html",
      "lat": 13.25,
      "lon": 123.683,
      "text": "FVFE01 RJTD 160159\nVA ADVISORY\nDTG: 20260716/0159Z\nVAAC: TOKYO\nVOLCANO: MAYON 273030\nPSN: N1315 E12341\nAREA: PHILIPPINES\nSOURCE ELEV: 2462M AMSL\nADVISORY NR: 2026/752\nINFO SOURCE: HIMAWARI-9 PHIVOLCS\nERUPTION DETAILS: ERUPTION AT 20260716/0144Z VA CLD UNKNOWN REPORTED\nOBS VA DTG: 16/0140Z\nOBS VA CLD: VA NOT IDENTIFIABLE FM SATELLITE DATA WIND FL180 010/5KT\nFCST VA CLD +6 HR: NOT AVBL\nFCST VA CLD +12 HR: NOT AVBL\nFCST VA CLD +18 HR: NOT AVBL\nRMK: WE WILL ISSUE FURTHER ADVISORY IF VA IS DETECTED IN SATELLITE \nIMAGERY.\nNXT ADVISORY: NO FURTHER ADVISORIES="
    },
    {
      "volcano": "SHEVELUCH",
      "volcano_jp": "シベルチ",
      "advisory_nr": "2026/264",
      "obs_time": "2026-07-16 00:46Z",
      "issued_time": "2026-07-16 01:26Z",
      "text_url": "https://www.data.jma.go.jp/vaac/data/TextData/2026/20260716_30027000_0264_Text.html",
      "lat": 56.65,
      "lon": 161.367,
      "text": "FVFE01 RJTD 160126\nVA ADVISORY\nDTG: 20260716/0126Z\nVAAC: TOKYO\nVOLCANO: SHEVELUCH 300270\nPSN: N5639 E16122\nAREA: RUSSIA\nSOURCE ELEV: 3283M AMSL\nADVISORY NR: 2026/264\nINFO SOURCE: KBGS HIMAWARI-9\nERUPTION DETAILS: ERUPTION AT 20260716/0046Z FL230 REPORTED\nOBS VA DTG: 16/0110Z\nOBS VA CLD: SFC/FL230 N5643 E16119 - N5651 E16135 - N5642 E16139 - \nN5637 E16120 MOV E 15KT\nFCST VA CLD +6 HR: 16/0710Z SFC/FL230 N5535 E16513 - N5528 E16428 - \nN5639 E16340 - N5649 E16127 - N5722 E16124 - N5719 E16423\nFCST VA CLD +12 HR: 16/1310Z SFC/FL230 N5703 E16750 - N5519 E16840 - \nN5411 E16755 - N5421 E16702 - N5631 E16632 - N5637 E16255 - N5746 \nE16242\nFCST VA CLD +18 HR: NO VA EXP\nRMK: NIL\nNXT ADVISORY: 20260716/0600Z="
    },
    {
      "volcano": "TAAL",
      "volcano_jp": "タール",
      "advisory_nr": "2026/13",
      "obs_time": "2026-07-15 23:30Z",
      "issued_time": "2026-07-15 23:48Z",
      "text_url": "https://www.data.jma.go.jp/vaac/data/TextData/2026/20260715_27307000_0013_Text.html",
      "lat": 14.0,
      "lon": 121.0,
      "text": "FVFE01 RJTD 152348\nVA ADVISORY\nDTG: 20260715/2348Z\nVAAC: TOKYO\nVOLCANO: TAAL 273070\nPSN: N1400 E12100\nAREA: PHILIPPINES\nSOURCE ELEV: 311M AMSL\nADVISORY NR: 2026/13\nINFO SOURCE: HIMAWARI-9 PHIVOLCS\nERUPTION DETAILS: ERUPTION AT 20260715/2330Z FL030 EXTD ENE REPORTED\nOBS VA DTG: 15/2340Z\nOBS VA CLD: VA NOT IDENTIFIABLE FM SATELLITE DATA WIND FL030 170/2KT\nFCST VA CLD +6 HR: NOT AVBL\nFCST VA CLD +12 HR: NOT AVBL\nFCST VA CLD +18 HR: NOT AVBL\nRMK: WE WILL ISSUE FURTHER ADVISORY IF VA IS DETECTED IN SATELLITE \nIMAGERY.\nNXT ADVISORY: NO FURTHER ADVISORIES="
    }
  ],
  "vaac_tokyo": [
    {
      "id": "20260716_30027000_0264",
      "year": "2026",
      "volcano": "Sheveluch",
      "psn": "N5639 E16122",
      "issued": "20260716",
      "text": "FVFE01 RJTD 160126\nVA ADVISORY\nDTG: 20260716/0126Z\nVAAC: TOKYO\nVOLCANO: SHEVELUCH 300270\nPSN: N5639 E16122\nAREA: RUSSIA\nSOURCE ELEV: 3283M AMSL\nADVISORY NR: 2026/264\nINFO SOURCE: KBGS HIMAWARI-9\nERUPTION DETAILS: ERUPTION AT 20260716/0046Z FL230 REPORTED\nOBS VA DTG: 16/0110Z\nOBS VA CLD: SFC/FL230 N5643 E16119 - N5651 E16135 - N5642 E16139 - \nN5637 E16120 MOV E 15KT\nFCST VA CLD +6 HR: 16/0710Z SFC/FL230 N5535 E16513 - N5528 E16428 - \nN5639 E16340 - N5649 E16127 - N5722 E16124 - N5719 E16423\nFCST VA CLD +12 HR: 16/1310Z SFC/FL230 N5703 E16750 - N5519 E16840 - \nN5411 E16755 - N5421 E16702 - N5631 E16632 - N5637 E16255 - N5746 \nE16242\nFCST VA CLD +18 HR: NO VA EXP\nRMK: NIL\nNXT ADVISORY: 20260716/0600Z=",
      "img_url": "https://ds.data.jma.go.jp/svd/vaac/data/VAGFN/2026/Images/20260716_30027000_0264_QH21_01.png",
      "sat_img_url": "https://ds.data.jma.go.jp/svd/vaac/data/Sat/2026/Images/30027000/09-ir/20260716_0110_202607160126_ir.png",
      "text_url": "https://ds.data.jma.go.jp/svd/vaac/data/TextData/2026/20260716_30027000_0264_Text.html"
    },
    {
      "id": "20260715_27307000_0013",
      "year": "2026",
      "volcano": "Taal",
      "psn": "N1400 E12100",
      "issued": "20260715",
      "text": "FVFE01 RJTD 152348\nVA ADVISORY\nDTG: 20260715/2348Z\nVAAC: TOKYO\nVOLCANO: TAAL 273070\nPSN: N1400 E12100\nAREA: PHILIPPINES\nSOURCE ELEV: 311M AMSL\nADVISORY NR: 2026/13\nINFO SOURCE: HIMAWARI-9 PHIVOLCS\nERUPTION DETAILS: ERUPTION AT 20260715/2330Z FL030 EXTD ENE REPORTED\nOBS VA DTG: 15/2340Z\nOBS VA CLD: VA NOT IDENTIFIABLE FM SATELLITE DATA WIND FL030 170/2KT\nFCST VA CLD +6 HR: NOT AVBL\nFCST VA CLD +12 HR: NOT AVBL\nFCST VA CLD +18 HR: NOT AVBL\nRMK: WE WILL ISSUE FURTHER ADVISORY IF VA IS DETECTED IN SATELLITE \nIMAGERY.\nNXT ADVISORY: NO FURTHER ADVISORIES=",
      "img_url": "https://ds.data.jma.go.jp/svd/vaac/data/VAGFN/2026/Images/20260715_27307000_0013_QH21_01.png",
      "sat_img_url": null,
      "text_url": "https://ds.data.jma.go.jp/svd/vaac/data/TextData/2026/20260715_27307000_0013_Text.html"
    },
    {
      "id": "20260715_27303000_0751",
      "year": "2026",
      "volcano": "Mayon",
      "psn": "N1315 E12341",
      "issued": "20260715",
      "text": "FVFE01 RJTD 152204\nVA ADVISORY\nDTG: 20260715/2204Z\nVAAC: TOKYO\nVOLCANO: MAYON 273030\nPSN: N1315 E12341\nAREA: PHILIPPINES\nSOURCE ELEV: 2462M AMSL\nADVISORY NR: 2026/751\nINFO SOURCE: HIMAWARI-9 PHIVOLCS\nERUPTION DETAILS: ERUPTION AT 20260715/1842Z FL100 EXTD SSW REPORTED\nOBS VA DTG: 15/2150Z\nOBS VA CLD: VA NOT IDENTIFIABLE FM SATELLITE DATA WIND FL100 320/2KT\nFCST VA CLD +6 HR: NOT AVBL\nFCST VA CLD +12 HR: NOT AVBL\nFCST VA CLD +18 HR: NOT AVBL\nRMK: WE WILL ISSUE FURTHER ADVISORY IF VA IS DETECTED IN SATELLITE \nIMAGERY.\nNXT ADVISORY: NO FURTHER ADVISORIES=",
      "img_url": "https://ds.data.jma.go.jp/svd/vaac/data/VAGFN/2026/Images/20260715_27303000_0751_QH21_01.png",
      "sat_img_url": null,
      "text_url": "https://ds.data.jma.go.jp/svd/vaac/data/TextData/2026/20260715_27303000_0751_Text.html"
    },
    {
      "id": "20260713_28208001_0083",
      "year": "2026",
      "volcano": null,
      "psn": "N3136 E13039",
      "issued": "20260713",
      "text": "FVFE01 RJTD 130254\nVA ADVISORY\nDTG: 20260713/0254Z\nVAAC: TOKYO\nVOLCANO: SAKURAJIMA (AIRA CALDERA) 282080\nPSN: N3136 E13039\nAREA: JAPAN\nSOURCE ELEV: 1117M AMSL\nADVISORY NR: 2026/83\nINFO SOURCE: JMA HIMAWARI-9\nERUPTION DETAILS: ERUPTED AT 20260713/0152Z FL100 EXTD N\nOBS VA DTG: 13/0230Z\nOBS VA CLD: SFC/FL100 N3136 E13039 - N3142 E13040 - N3141 E13044 - \nN3134 E13042 MOV NE 15KT\nFCST VA CLD +6 HR: 13/0830Z SFC/FL100 N3234 E13121 - N3145 E13155 - \nN3202 E13110 - N3227 E13051\nFCST VA CLD +12 HR: 13/1430Z SFC/FL100 N3318 E13206 - N3142 E13317 - \nN3134 E13226 - N3312 E13118\nFCST VA CLD +18 HR: NO VA EXP\nRMK: NIL\nNXT ADVISORY: 20260713/0600Z=",
      "img_url": "https://ds.data.jma.go.jp/svd/vaac/data/VAGFN/2026/Images/20260713_28208001_0083_QH21_01.png",
      "sat_img_url": "https://ds.data.jma.go.jp/svd/vaac/data/Sat/2026/Images/28208001/09-ir/20260713_0230_202607130254_ir.png",
      "text_url": "https://ds.data.jma.go.jp/svd/vaac/data/TextData/2026/20260713_28208001_0083_Text.html"
    }
  ],
  "vaac_alaska": [
    {
      "text": "\n000\nFVAK21 PAWU 151258\nVAAAK1\nVA ADVISORY\n\nDTG: 20260715/1254Z\n\nVAAC: ANCHORAGE\n\nVOLCANO: SHEVELUCH 300270\n\nPSN: N5639 E16122\n\nAREA: KAMCHATKA PENINSULA\n\nSOURCE ELEV: 10771 FT AMSL\n\nADVISORY NR: 2026/201\n\nINFO SOURCE: HIMAWARI\n\nERUPTION DETAILS: VA NOT IDENTIFIABLE FM SATELLITE DATA.\n\nOBS VA DTG: 15/1254Z\n\nOBS VA CLD: VA NOT IDENTIFIABLE FM SATELLITE DATA.\n\nFCST VA CLD +6HR: NOT AVBL\n\nFCST VA CLD +12HR: NOT AVBL\n\nFCST VA CLD +18HR: NOT AVBL\n\nRMK: A NEW ADVISORY WILL BE ISSUED IF VA IS DETECTED IN SATELLITE IMAGERY....SC\n\nNXT ADVISORY: NO FURTHER ADVISORIES=\n\n",
      "issued": "2026-07-15T12:58:00+00:00",
      "volcano": "Sheveluch",
      "psn": "N5639 E16122"
    }
  ]
}