{
  "updated_utc": "2026-07-20T11:20Z",
  "metar": {
    "RJAA": "METAR RJAA 200930Z 16004KT 130V200 9999 FEW030 31/24 Q1007 NOSIG",
    "PANC": "METAR PANC 200953Z COR 33008KT 10SM -RA FEW005 SCT060 OVC080 13/11 A2999 RMK AO2 RAB41 SLP157 P0000 T01280106",
    "PAFA": "METAR PAFA 200953Z 36007KT 10SM SCT060 BKN110 BKN200 17/09 A2993 RMK AO2 SLP138 T01670094 $",
    "PAED": "METAR PAED 200955Z 00000KT 10SM -RA BKN065 12/11 A2998 RMK AO2A RAB55 SLP149 P0000 T01200107 $",
    "KSEA": "METAR KSEA 200953Z 02009KT 10SM BKN250 18/11 A3000 RMK AO2 SLP163 T01780111 $",
    "ZSPD": "METAR ZSPD 200930Z 16004MPS CAVOK 34/26 Q1002 NOSIG",
    "ZSSS": "METAR ZSSS 200930Z 27003MPS 230V300 9999 FEW033 34/25 Q1002 NOSIG",
    "RJFR": "METAR RJFR 201000Z 31009KT 9999 TS FEW020 FEW025CB SCT035 30/25 Q1008",
    "VHHH": "METAR VHHH 200930Z 20009KT 150V220 9999 FEW010 SCT035 30/25 Q1005 NOSIG",
    "RCTP": "METAR RCTP 200930Z 27009KT 9999 FEW020 BKN150 BKN200 32/25 Q1006 NOSIG RMK A2973",
    "ZGSZ": "METAR ZGSZ 201000Z 17006MPS 9000 FEW026 30/27 Q1004 NOSIG",
    "WSSS": "METAR WSSS 200930Z 14007KT 9000 -SHRA FEW016TCU FEW018CB SCT270 29/25 Q1009 NOSIG",
    "WMKK": "METAR WMKK 200930Z VRB01KT 8000 FEW017CB 29/25 Q1008 NOSIG",
    "WIDD": "METAR WIDD 200930Z 19003KT 9999 FEW014 29/23 Q1010 NOSIG",
    "VTBS": "METAR VTBS 200930Z 18008KT 9999 FEW020 34/18 Q1007 NOSIG",
    "VTBU": "METAR VTBU 200930Z 18009KT 9999 FEW020 32/25 Q1008 NOSIG",
    "ROAH": "METAR ROAH 200930Z 23007KT 9999 FEW010 29/27 Q1008",
    "VVDN": "METAR VVDN 200930Z 10006KT 060V130 9999 FEW020 33/23 Q1005 NOSIG",
    "RCKH": "METAR RCKH 200930Z VRB06KT 9999 FEW014 SCT040 BKN170 29/24 Q1007 NOSIG RMK A2976",
    "KLAX": "SPECI KLAX 200938Z 00000KT 10SM FEW008 SCT011 21/18 A2990 RMK AO2 T02060178 $",
    "KONT": "METAR KONT 200953Z 22003KT 10SM SCT160 BKN200 22/16 A2991 RMK AO2 SLP109 T02220161 $",
    "KSFO": "METAR KSFO 200956Z 31007KT 10SM FEW003 BKN170 16/13 A2992 RMK AO2 SLP132 T01560133 $",
    "KOAK": "METAR KOAK 200953Z 32007KT 10SM FEW003 SCT008 BKN180 15/14 A2994 RMK AO2 SLP136 T01500139 $",
    "KMHR": "METAR KMHR 200935Z AUTO 14007KT 10SM CLR 19/11 A2987 RMK AO2 T01930108 $",
    "KDFW": "METAR KDFW 200953Z 21009KT 10SM CLR 28/22 A2991 RMK AO2 SLP119 T02780217 $",
    "KIAH": "METAR KIAH 200953Z 00000KT 7SM CLR 25/25 A2995 RMK AO2 SLP141 T02500250 $",
    "KORD": "METAR KORD 200951Z 00000KT 5SM HZ CLR 19/16 A2995 RMK AO2 SLP136 T01890156 $",
    "KJFK": "METAR KJFK 200951Z 36004KT 10SM FEW250 18/12 A2998 RMK AO2 SLP151 T01780122 $",
    "KRFD": "METAR KRFD 200954Z 00000KT 5SM BR SCT250 14/13 A2995 RMK AO2 SLP139 T01440133 $",
    "KIND": "METAR KIND 200954Z 09006KT 9SM CLR 21/16 A2996 RMK AO2 SLP138 T02060161 $",
    "KDTW": "METAR KDTW 200953Z 31003KT 6SM BR SCT250 16/13 A3000 RMK AO2 SLP156 T01560133 $",
    "KMSP": "SPECI KMSP 200923Z 14017G22KT 5SM -RA FU SCT025 SCT090 BKN110 22/21 A2973 RMK AO2 PK WND 25032/0859 WSHFT 0841 LTG DSNT E-S TSE17 PRESFR P0015 T02170206",
    "CYEG": "METAR CYEG 201000Z 27007KT 12SM -SHRA FEW021 OVC093 14/14 A3003 RMK SC2AC6 ACC EMBD SLP174 DENSITY ALT 2800FT",
    "EHAM": "METAR EHAM 200925Z 35009KT 320V040 9999 FEW038 SCT044 18/09 Q1024 NOSIG",
    "EBBR": "METAR EBBR 200950Z 35006KT 320V020 9999 FEW042 19/09 Q1024 NOSIG",
    "EDDF": "METAR EDDF 200950Z AUTO VRB07KT CAVOK 19/05 Q1022 NOSIG",
    "EDFH": "METAR EDFH 200950Z 33007G17KT 290V360 9999 SCT038 BKN043 15/06 Q1023",
    "EDDL": "METAR EDDL 200950Z AUTO 32008KT 300V010 9999 FEW036 18/09 Q1023 NOSIG",
    "EDDK": "METAR EDDK 200950Z AUTO 31008KT 9999 FEW035 18/09 Q1023 NOSIG",
    "EBLG": "METAR EBLG 200950Z 34007KT 300V040 9999 SCT034 18/09 Q1024 NOSIG",
    "LSZH": "METAR LSZH 200950Z 06005KT 010V110 CAVOK 21/10 Q1021 NOSIG",
    "LIMC": "METAR LIMC 200950Z 13009KT 090V170 9999 SCT030 27/18 Q1016 NOSIG",
    "LIRF": "METAR LIRF 200950Z 20006KT 140V240 CAVOK 32/24 Q1013 NOSIG",
    "EINN": "METAR EINN 200930Z 34005KT 9999 FEW035 18/11 Q1031 NOSIG",
    "EGLL": "METAR EGLL 200950Z AUTO 07005KT 020V120 9999 NCD 20/05 Q1027",
    "EGSS": "METAR EGSS 200950Z AUTO 32005KT 240V050 9999 NCD 20/07 Q1028",
    "EPWA": "METAR EPWA 200930Z 26012KT 9999 SCT034 19/11 Q1015 NOSIG",
    "UHPP": "METAR UHPP 201000Z 08003MPS CAVOK 23/16 Q1009 R34L/CLRD62 NOSIG RMK QFE753/1004",
    "EFHK": "METAR EFHK 200950Z 03011KT 350V060 9999 SCT045 19/07 Q1015 NOSIG",
    "LBBG": "METAR LBBG 200930Z 12010KT 090V150 CAVOK 28/20 Q1015 NOSIG",
    "LTAC": "METAR LTAC 200950Z 20007KT 150V260 9999 SCT040 32/09 Q1016 NOSIG RMK RWY21C 18005KT 110V240 RWY03L 21007KT 150V240 RWY21R VRB04G16KT RWY03R 20006KT 140V260 RWY21L VRB06KT",
    "UBBB": "METAR UBBB 200930Z 35020G30KT 9999 FEW020 28/19 Q1012 NOSIG",
    "UTAA": "METAR UTAA 201000Z 30018KT 9999 FEW100 38/17 Q1006 R88/CLRD70 NOSIG",
    "UACC": "SPECI UACC 200926Z 31005G11MPS 270V340 9999 BKN043 28/09 Q1001 NOSIG RMK QFE720/0960",
    "UAAA": "METAR UAAA 200930Z VRB01MPS 9999 FEW050CB BKN200 41/09 Q1002 NOSIG",
    "UZTT": "METAR UZTT 200930Z 17008KT 130V210 CAVOK 38/18 Q1001 NOSIG",
    "ZWWW": "METAR ZWWW 200930Z 34004MPS 300V030 9999 FEW040CB 41/09 Q1002 NOSIG",
    "ZLXY": "METAR ZLXY 201000Z 07005MPS CAVOK 36/20 Q1001 NOSIG",
    "ZBAA": "METAR ZBAA 200930Z 11002MPS 050V150 CAVOK 26/22 Q1003 NOSIG",
    "ZBHH": "METAR ZBHH 201000Z 11003MPS 070V130 9999 FEW040 21/15 Q1007 NOSIG",
    "ZSQD": "METAR ZSQD 201000Z 16005MPS 9999 BKN030 26/21 Q1004 NOSIG",
    "ZMCK": "METAR ZMCK 200930Z 29006MPS 9999 FEW030CB SCT033 21/11 Q1006 NOSIG RMK QFE640.6 52 MOP",
    "UUEE": "METAR UUEE 200930Z 23003MPS 180V310 CAVOK 26/13 Q1014 R24L/CLRD62 R24C/CLRD62 NOSIG",
    "UUDD": "METAR UUDD 200930Z 21004G09MPS 150V250 CAVOK 27/13 Q1014 R13R/CLRD65 NOSIG",
    "ULLI": "METAR ULLI 200930Z 06005MPS 030V100 9999 OVC027 18/10 Q1014 R88/090065 NOSIG",
    "USSS": "METAR USSS 200930Z 01005MPS 9999 SCT025CB 21/20 Q1006 R08R/290350 NOSIG RMK QFE734/0979",
    "UNNT": "METAR UNNT 200930Z 05004MPS 010V080 CAVOK 29/14 Q1002 R07/CLRD// R16/CLRD// NOSIG RMK QFE742/0989",
    "UNKL": "METAR UNKL 200930Z 06002MPS 030V130 9999 SCT034CB 24/13 Q1004 R29/CLRD// NOSIG RMK QFE727",
    "UIBB": "METAR UIBB 200930Z 06002MPS 9999 SCT006 BKN023CB 17/15 Q1004 R30/220162 NOSIG RMK QBB200 MT OBSC QFE711/0948",
    "UEEE": "METAR UEEE 200930Z 29002MPS 9999 SCT030CB 22/18 Q1005 R23/290154 NOSIG RMK QFE745",
    "UHHH": "METAR UHHH 200930Z 28004G09MPS 250V310 CAVOK 27/17 Q1005 R88/090060 NOSIG RMK QFE747/0997",
    "UHSS": "METAR UHSS 200930Z 29002MPS 9999 NSC 25/20 Q1004 R01/CLRD70 NOSIG RMK QFE752/1002"
  },
  "taf": {
    "RJAA": "TAF RJAA 200505Z 2006/2112 21006KT 9999 FEW030 BECMG 2021/2100 04004KT BECMG 2103/2106 12010KT BECMG 2109/2112 27004KT",
    "PANC": "TAF PANC 200526Z 2006/2112 35004KT P6SM VCSH SCT006 SCT050 OVC070 WS020/12030KT FM201000 16008KT P6SM -RA SCT025 OVC045 FM201400 VRB04KT 5SM -RA BR SCT006 BKN015 OVC025 FM202000 24006KT 5SM -RA BKN006 OVC015 FM210600 18008KT P6SM -RA SCT006 OVC015",
    "PAFA": "TAF PAFA 200530Z 2006/2112 VRB03KT P6SM SCT060 BKN150 FM202100 20005KT P6SM SCT060 BKN150",
    "PAED": "TAF PAED 200500Z 2005/2111 34003KT 9999 FEW005 BKN070 BKN110 520009 520901 640793 QNH2998INS BECMG 2010/2011 33003KT 8000 RA SCT010 BKN025 BKN040 OVC050 640803 QNH2999INS BECMG 2018/2019 01003KT 5000 -RA BR SCT010 BKN015 OVC025 QNH2998INS BECMG 2108/2109 19003KT 8000 -RA SCT010 BKN017 OVC024 QNH3010INS TX13/2005Z TN10/2104Z",
    "KSEA": "TAF KSEA 200904Z 2009/2112 03008KT P6SM BKN250 FM201900 34007KT P6SM BKN250",
    "ZSPD": "TAF ZSPD 200904Z 2012/2118 20004MPS 6000 SCT030 TX29/2012Z TX33/2106Z TN25/2021Z TEMPO 2106/2110 TSRA BKN015 FEW030CB",
    "ZSSS": "TAF ZSSS 200904Z 2012/2118 20004MPS 6000 SCT030 TX29/2012Z TX33/2106Z TN26/2021Z TEMPO 2106/2110 TSRA BKN015 FEW030CB",
    "RJFR": "TAF RJFR 200505Z 2006/2112 10006KT 9999 FEW020 BKN040 TEMPO 2006/2008 -TSRA FEW020 FEW025CB BKN030 BECMG 2007/2009 31006KT BECMG 2016/2018 24005KT BECMG 2021/2100 02006KT",
    "VHHH": "TAF VHHH 201100Z 2012/2118 20010KT 9999 FEW010 SCT025 TX31/2106Z TN26/2022Z TEMPO 2021/2024 3500 SHRA FEW010CB SCT020 TEMPO 2100/2106 24015G25KT 2500 TSRA SHRA FEW008CB SCT015",
    "RCTP": "TAF RCTP 201100Z 2012/2118 21010KT 9999 FEW015 BKN032 BECMG 2101/2103 24015KT TEMPO 2107/2111 5000 SHRA FEW010 FEW015TCU BKN020 BKN050 BECMG 2111/2113 21010KT",
    "ZGSZ": "TAF ZGSZ 200911Z 2012/2118 18004MPS 8000 BKN040 TX29/2012Z TX31/2106Z TN28/2022Z TEMPO 2021/2101 2500 +TSRA SCT020 FEW025CB BKN030 TEMPO 2103/2107 TSRA SCT020 FEW025CB BKN030",
    "WSSS": "TAF WSSS 200500Z 2006/2112 18008KT 9999 FEW015 SCT020",
    "WMKK": "TAF WMKK 200500Z 2006/2112 VRB03KT 9999 SCT030 TEMPO 2006/2008 9000 -RA FEW017CB BECMG 2010/2012 FEW030",
    "VTBS": "TAF VTBS 200500Z 2006/2112 22008KT 9999 FEW020 BECMG 2018/2020 28008KT BECMG 2105/2107 21008KT",
    "VTBU": "TAF VTBU 200500Z 2006/2106 24008KT 9999 FEW020",
    "ROAH": "TAF ROAH 200505Z 2006/2112 22010KT 9999 FEW010 SCT015 TEMPO 2015/2021 FEW005 BKN008 BECMG 2100/2103 29008KT TEMPO 2100/2106 4000 SHRA BR FEW005 BKN008 FEW015CB",
    "VVDN": "TAF VVDN 200500Z 2006/2106 24007KT 9999 FEW017 BECMG 2006/2007 10010KT BECMG 2011/2012 24006KT",
    "RCKH": "TAF RCKH 201100Z 2012/2118 17005KT 9999 FEW015 BKN032 TEMPO 2019/2101 09005KT 5000 SHRA FEW010 FEW015TCU BKN020 BKN050 BECMG 2101/2103 24010KT TEMPO 2107/2111 FEW012 FEW015TCU BKN022 BKN050 BECMG 2111/2113 17005KT",
    "KLAX": "TAF KLAX 201014Z 2010/2112 VRB03KT P6SM SCT010 FM201300 VRB03KT P6SM BKN010 FM201600 26006KT P6SM SCT020 FM201800 26012KT P6SM SCT200 FM210400 26006KT P6SM SCT200 FM210800 VRB03KT P6SM SCT250",
    "KONT": "TAF KONT 200520Z 2006/2112 25009KT P6SM SKC FM200730 VRB05KT P6SM SKC FM202000 25011G20KT P6SM FEW120 FM210400 25009KT P6SM SKC FM210530 VRB05KT P6SM SKC",
    "KSFO": "TAF KSFO 200859Z 2009/2112 29005KT P6SM SCT007 BKN010 TEMPO 2011/2015 OVC007 FM201700 28009KT P6SM BKN150 FM211000 28008KT P6SM SCT010 OVC100",
    "KOAK": "TAF KOAK 200520Z 2006/2112 28008KT P6SM OVC007 FM201700 28006KT P6SM SCT007 BKN015 FM201800 28006KT P6SM FEW015 SCT150 FM202000 30015KT P6SM SCT100 FM210800 31006KT P6SM OVC010",
    "KMHR": "TAF KMHR 200520Z 2006/2106 22009KT P6SM SCT150 FM201200 16005KT P6SM BKN250 FM201800 23008KT P6SM SCT250",
    "KDFW": "TAF KDFW 201120Z 2012/2118 19009KT P6SM FEW060",
    "KIAH": "TAF KIAH 200909Z 2009/2112 21005KT P6SM FEW020 SCT250 FM201000 24004KT 6SM BR FEW015 FM201400 25007KT P6SM FEW035 FEW250 FM210000 21006KT P6SM FEW050 FEW250 FM210600 25006KT P6SM FEW020 SCT250",
    "KORD": "TAF KORD 201120Z 2012/2118 20005KT 5SM FU SCT250 FM201500 23010KT P6SM FEW050 SCT150 FM202100 21014G23KT P6SM FEW050 SCT120 PROB30 2103/2109 34020G30KT 2SM TSRA BR SCT015 OVC040CB FM210900 27011KT P6SM FEW020 SCT050 FM211500 30012G22KT P6SM FEW050",
    "KJFK": "TAF KJFK 200834Z 2009/2112 VRB05KT P6SM SKC FM201300 04006KT P6SM SKC FM201800 16010KT P6SM SCT250 FM210100 16008KT P6SM SCT250",
    "KRFD": "TAF KRFD 200904Z 2009/2106 VRB04KT 5SM FU FEW045 FM201200 18004KT P6SM FEW250 FM201500 22011KT P6SM FEW050 BKN150 FM202100 21014G23KT P6SM FEW050 SCT120 PROB30 2101/2106 34020G30KT 2SM TSRA BR SCT015 OVC040CB",
    "KIND": "TAF KIND 201120Z 2012/2118 13006KT P6SM FEW050 SCT250 FM201900 22008KT P6SM SCT050 BKN250 FM210800 22008KT P6SM SCT220 FM211000 23010KT P6SM -SHRA BKN050 FM211300 22010KT P6SM -SHRA BKN040",
    "KDTW": "TAF KDTW 200905Z 2009/2112 16003KT P6SM SKC FM201500 20010KT P6SM SCT050 SCT250 FM210100 19007KT P6SM SCT100 BKN200 FM210700 22012KT P6SM BKN080 OVC120 PROB30 2107/2111 4SM TSRA BKN040CB OVC060",
    "KMSP": "TAF KMSP 201120Z 2012/2118 21008KT P6SM BKN130 FM201300 21011G20KT P6SM BKN130 FM201500 23010G18KT P6SM SCT250 FM202000 27014G28KT P6SM FEW250 FM210300 31012G24KT P6SM SKC",
    "CYEG": "TAF CYEG 200840Z 2009/2106 30008KT P6SM SCT012 BKN040 TEMPO 2009/2016 5SM -SHRA VCTS BR BKN012CB OVC030 FM201600 35008KT P6SM BKN050 TEMPO 2016/2021 5SM FU BKN030 FM202100 34010KT 6SM FU SCT050 TEMPO 2021/2106 3SM FU PROB40 2021/2106 2SM FU RMK NXT FCST BY 201200Z",
    "EHAM": "TAF EHAM 200450Z 2006/2112 34010KT 9999 BKN040 BECMG 2019/2022 36005KT BECMG 2109/2112 33010KT",
    "EBBR": "TAF EBBR 200500Z 2006/2112 33007KT 9999 SCT040",
    "EDDF": "TAF EDDF 200500Z 2006/2112 33007KT CAVOK BECMG 2019/2021 03007KT",
    "EDFH": "TAF EDFH 200500Z 2006/2106 VRB03KT 9999 SCT030 BECMG 2006/2008 35006KT",
    "EDDL": "TAF EDDL 200500Z 2006/2112 29006KT 9999 SCT040 BECMG 2008/2011 35008KT BECMG 2022/2101 VRB03KT BECMG 2107/2110 33007KT",
    "EDDK": "TAF EDDK 200500Z 2006/2112 VRB03KT 9999 SCT040 BECMG 2006/2009 34008KT BECMG 2019/2022 VRB03KT BECMG 2107/2110 34008KT",
    "EBLG": "TAF EBLG 200500Z 2006/2112 33007KT 9999 SCT040",
    "LSZH": "TAF AMD LSZH 201046Z 2010/2115 06007KT 9999 FEW060 TX26/2015Z TN12/2104Z TX25/2115Z TEMPO 2010/2017 CAVOK PROB30 TEMPO 2015/2018 31008KT BECMG 2017/2019 CAVOK BECMG 2022/2024 VRB02KT BECMG 2107/2110 05008KT",
    "LIMC": "TAF LIMC 200500Z 2006/2112 02006KT 9999 FEW050 BECMG 2008/2010 11010KT BECMG 2015/2017 VRB05KT TEMPO 2103/2110 4000 TSRA",
    "LIRF": "TAF LIRF 200500Z 2006/2112 VRB04KT CAVOK BECMG 2010/2012 25012KT BECMG 2017/2019 VRB05KT",
    "EINN": "TAF EINN 201100Z 2012/2112 35008KT 9999 FEW035",
    "EGLL": "TAF EGLL 201108Z 2012/2118 02006KT CAVOK BECMG 2018/2021 10010KT TEMPO 2100/2113 BKN030 BECMG 2101/2104 02005KT",
    "EGSS": "TAF EGSS 201054Z 2012/2118 01008KT 9999 FEW045 PROB30 2017/2021 11010KT PROB30 TEMPO 2100/2109 BKN014",
    "EPWA": "TAF EPWA 200830Z 2009/2109 26013KT 9999 FEW035 TEMPO 2009/2018 28020G32KT -SHRA SCT040CB PROB40 TEMPO 2013/2018 2000 TSRA PROB40 TEMPO 2018/2024 20010KT -SHRA BKN020CB TEMPO 2100/2109 26015G25KT 4000 SHRA BKN010 BKN015CB",
    "UHPP": "TAF UHPP 200735Z 2009/2115 16003G12MPS 9999 SCT040CB BECMG 2014/2016 4000 -SHRA BR BKN014 OVC020CB TEMPO 2016/2023 1000 -SHRA BR VV003",
    "EFHK": "TAF EFHK 200825Z 2009/2109 03010KT 9999 FEW031 PROB30 TEMPO 2013/2017 05015G25KT TEMPO 2100/2109 04015G25KT",
    "LBBG": "TAF LBBG 201100Z 2012/2112 12014KT 9999 SCT045 PROB30 TEMPO 2013/2016 VRB16G26KT 4000 TSRA FEW030CB BKN040 BECMG 2020/2022 VRB03KT TEMPO 2101/2104 2000 BR TEMPO 2104/2107 5000 SHRA FEW030CB BKN045 BECMG 2108/2110 12012KT",
    "LTAC": "TAF LTAC 201040Z 2012/2112 VRB02KT 9999 SCT040 BECMG 2015/2018 CAVOK TEMPO 2016/2020 02013KT BECMG 2107/2110 FEW040",
    "UBBB": "TAF UBBB 201052Z 2012/2112 35018G28KT 9999 SCT020 TX28/2012Z TN24/2101Z TEMPO 2012/2016 FEW050CB BECMG 2018/2020 36012KT PROB40 TEMPO 2020/2024 -TSRA SCT018 SCT050CB TEMPO 2102/2108 03012KT BECMG 2108/2110 18006KT",
    "UTAA": "TAF UTAA 201049Z 2012/2112 33018KT 6000 SCT050CB SCT050 TEMPO 2012/2017 32022G32KT 2500 BLDU TEMPO 2101/2104 30020G30KT 3000 BLDU PROB30 TEMPO 2104/2108 VRB20G30KT 4000 -TSRA",
    "UACC": "TAF UACC 200503Z 2006/2106 28006MPS 9999 SCT040 BKN100 TX29/2009Z TN17/2024Z TEMPO 2006/2016 24007G12MPS BKN030CB PROB40 TEMPO 2009/2016 TS BKN030CB BECMG 2016/2018 VRB01MPS BECMG 2020/2022 18005MPS SCT030CB BKN070 TEMPO 2020/2106 3100 -TSRA BKN030CB",
    "UAAA": "TAF UAAA 200501Z 2006/2106 30003G08MPS 9999 FEW050CB SCT100 TX43/2010Z TN24/2100Z TEMPO 2006/2013 01005G10MPS BECMG 2013/2014 19005MPS SCT050CB BKN100 BECMG 2102/2103 25003MPS",
    "UZTT": "TAF UZTT 201100Z 2012/2112 34012KT 7000 NSC TX35/2111Z TN25/2100Z TEMPO 2012/2024 30015G25KT 3000 -DS",
    "ZWWW": "TAF ZWWW 200902Z 2012/2118 36004MPS CAVOK TX42/2109Z TN30/2023Z TN30/2118Z BECMG 2014/2015 18004G09MPS BECMG 2102/2103 36004MPS BECMG 2114/2115 20004MPS",
    "ZLXY": "TAF ZLXY 200905Z 2012/2112 06003MPS 6000 NSC TX37/2107Z TN24/2021Z TEMPO 2108/2111 -SHRA FEW040CB OVC050",
    "ZBAA": "TAF ZBAA 200901Z 2012/2118 16004MPS 6000 NSC TX31/2106Z TN21/2021Z TN24/2118Z TEMPO 2012/2016 TSRA FEW040CB BKN040",
    "ZBHH": "TAF ZBHH 200920Z 2012/2112 36004MPS 9999 SCT040 TX30/2107Z TN16/2019Z BECMG 2109/2110 -TSRA FEW040CB SCT040 TEMPO 2110/2112 +TSRA",
    "ZSQD": "TAF ZSQD 200901Z 2012/2112 16004MPS 5000 BR NSC TX31/2106Z TN20/2020Z",
    "ZMCK": "TAF ZMCK 201040Z 2012/2118 VRB02MPS 9999 FEW030CB SCT033 TN10/2021Z TX25/2107Z PROB40 TEMPO 2105/2115 VRB08G13MPS TSRA SCT027CB SCT030",
    "UUEE": "TAF UUEE 200756Z 2009/2109 24003G08MPS 9999 SCT040 TX27/2012Z TN18/2101Z PROB40 TEMPO 2100/2109 -TSRA BKN020CB",
    "UUDD": "TAF UUDD 200753Z 2009/2115 20003MPS 9999 SCT040 TX28/2012Z TN18/2101Z BECMG 2101/2103 26005MPS TEMPO 2104/2115 26008G13MPS -TSRA BKN016CB",
    "ULLI": "TAF ULLI 200753Z 2009/2109 05006G12MPS 6000 BKN016 TEMPO 2021/2024 3100 -SHRA BKN010 BKN017CB BECMG 2100/2101 BKN010 TEMPO 2101/2109 1500 SHRA BR BKN004 BKN017CB PROB40 TEMPO 2101/2109 2100 -TSRA BKN017CB",
    "USSS": "TAF USSS 200751Z 2009/2109 01003G14MPS 9999 -SHRA BKN020CB TEMPO 2009/2021 02008G21MPS -TSRAGR BKN016CB",
    "UNNT": "TAF UNNT 200800Z 2009/2109 10006G12MPS CAVOK TX28/2009Z TN16/2022Z TEMPO 2009/2015 -TSRA BKN020CB BECMG 2010/2014 04003G08MPS",
    "UNKL": "TAF UNKL 200755Z 2009/2109 33003G08MPS 8000 SCT040 TEMPO 2009/2015 -TSRA BKN016CB BECMG 2010/2012 02006G15MPS BECMG 2013/2014 24003G08MPS TEMPO 2100/2109 -TSRA BKN016CB BECMG 2106/2108 02006G15MPS",
    "UIBB": "TAF UIBB 200800Z 2009/2109 29003G08MPS 9999 -SHRA BKN004 BKN016CB TEMPO 2009/2018 VRB10MPS 2900 -TSRA VV001 BECMG 2023/2024 FEW004 BKN016CB",
    "UEEE": "TAF UEEE 200800Z 2009/2115 33003G08MPS 9999 SCT020CB OVC100 TEMPO 2009/2015 VRB15MPS 2100 -TSRA SCT007 BKN020CB OVC070",
    "UHHH": "TAF UHHH 200746Z 2009/2115 25003MPS 9999 SCT030CB TX30/2106Z TN19/2019Z TEMPO 2009/2011 31005MPS BECMG 2014/2015 5000 BR BECMG 2021/2023 9999 NSW",
    "UHSS": "TAF UHSS 200745Z 2009/2115 36003MPS 9999 NSC FM201200 32005MPS 6000 BKN004 BKN016CB FM210000 31003MPS 9999 BKN030CB"
  },
  "atis": {},
  "windtemp_alaska": "\n000\nFBAK31 KWNO 200800\nFD1AK1\nDATA BASED ON 200600Z    \nVALID 201200Z   FOR USE 0800-1500Z. TEMPS NEG ABV 24000\n\nFT  3000    6000    9000   12000   18000   24000  30000  34000  39000\nADK 2816 2918+11 3022+05 3022+00 3131-13 3141-23 325539 326948 327054\nADQ 2111 2015-01 1824-04 1731-09 1751-20 1677-31 660744 169448 174344\nAKN 1816 1713-03 1615-07 1623-12 1634-24 1646-35 165542 174440 172740\nANC 1422 1539+05 1650+01 1655-03 1863-15 1765-26 176343 176352 175154\nANN 3407 3505+13 3305+08 9900+02 9900-12 2306-24 190740 191149 221357\nBET 1712 1609-01 1409-07 1009-14 1415-25 1413-35 141644 151540 170939\nBRW 9900 2008+03 1907-02 1708-07 1817-19 1931-31 225447 192546 171544\nBTI 1705 2207+07 2210-01 2418-03 2435-15 2447-27 245643 246053 234054\nBTT 1322 1518+06 1722+00 1934-05 1844-16 1960-27 197143 196852 184352\nCDB 2615 2618-01 2618-06 2821-11 3032-22 3149-34 326347 314543 302742\nCZF 1706 1508-01 1411-06 1311-12 9900-24 9900-36 990044 310740 990038\nEHM 9900 9900-02 9900-08 9900-14 3212-25 3218-36 311143 300639 270539\nFAI 1412 1619+10 1723+03 1628-03 1837-15 1840-26 185042 184753 183658\nFYU 1612 1614+09 2312+03 2418-02 2030-16 1925-26 193042 203252 192558\nGAL 1413 1419+01 1422-02 1526-07 1641-19 1670-29 179545 178950 154345\nGKN 1630 1732+06 1827+02 1824-01 1730-14 1625-26 182142 182352 202958\nHOM 1615 1718+01 1728-03 1740-06 1670-17 1686-27 169243 169451 175748\nJNU 9900 9900+11 9900+07 2206+01 2009-13 2006-25 180941 191250 201357\nLUR 1411 1210+02 1215-03 1220-10 1122-23 1324-34 132147 122143 101840\nMCG 9900 1605+01 1613-04 1728-09 1644-19 1676-29 660044 670250 164044\nMDO 1636 1631+06 1730+01 1730-03 1836-15 1737-26 173442 173452 183957\nOME 1213 1220+00 1122-06 1222-12 1422-24 1429-35 153346 142440 131438\nORT      1410+11 1617+04 1716+00 1816-14 1822-26 182143 192153 202455\nOTZ 1313 1114+01 1214-04 1319-11 1536-21 1542-33 165647 163544 142140\nSNP 1917 2113+02 2412-01 2612-06 3033-16 3155-27 306943 316351 314246\nTKA 1512 1641+05 1750+00 1752-04 1761-16 1765-26 176743 176552 175755\nUNK 1713 1317+01 1219-05 1125-10 1432-22 1644-33 166246 164744 152740\nYAK 2906 2711+06 2410+04 2015+00 1818-14 1824-26 183042 173551 183256\nIKO 2223 2521+03 2827+01 2930-04 3035-15 3136-26 324742 324951 314249\nAFM 1210 1208+03 1115-03 1223-09 1537-19 1872-29 188746 186750 174244\n5AB 2815 3018+12 3017+07 3019+01 2927-12 2827-23 283236 293646 294157\n5AC 3521 3418+11 3416+08 3314+01 2410-14 2011-25 201740 211849 201958\n5AD 2037 2039+07 1937+02 1937-02 1938-15 1937-26 184141 193950 194058\n5AE 2422 2523-02 2421-06 2319-11 2218-24 2120-36 193045 193141 202340\n5AF 3110 2908+08 2511+06 2412+00 2014-14 1920-26 183041 193550 193356\n5AG 1814 2013+04 1815+04 1914+00 1822-15 1825-27 181542 990051 181655\n",
  "vaac_active": [
    {
      "volcano": "MAYON",
      "volcano_jp": "マヨン",
      "advisory_nr": "2026/770",
      "obs_time": "2026-07-20 10:20Z",
      "issued_time": "2026-07-20 10:48Z",
      "text_url": "https://www.data.jma.go.jp/vaac/data/TextData/2026/20260720_27303000_0770_Text.html",
      "lat": 13.25,
      "lon": 123.683,
      "text": "FVFE01 RJTD 201048\nVA ADVISORY\nDTG: 20260720/1048Z\nVAAC: TOKYO\nVOLCANO: MAYON 273030\nPSN: N1315 E12341\nAREA: PHILIPPINES\nSOURCE ELEV: 2462M AMSL\nADVISORY NR: 2026/770\nINFO SOURCE: HIMAWARI-9 PHIVOLCS\nERUPTION DETAILS: ERUPTION AT 20260720/1020Z VA CLD UNKNOWN REPORTED\nOBS VA DTG: 20/1030Z\nOBS VA CLD: VA NOT IDENTIFIABLE FM SATELLITE DATA WIND FL180 050/12KT\nFCST VA CLD +6 HR: NOT AVBL\nFCST VA CLD +12 HR: NOT AVBL\nFCST VA CLD +18 HR: NOT AVBL\nRMK: WE WILL ISSUE FURTHER ADVISORY IF VA IS DETECTED IN SATELLITE \nIMAGERY.\nNXT ADVISORY: NO FURTHER ADVISORIES="
    },
    {
      "volcano": "SHEVELUCH",
      "volcano_jp": "シベルチ",
      "advisory_nr": "2026/270",
      "obs_time": "2026-07-20 09:20Z",
      "issued_time": "2026-07-20 10:19Z",
      "text_url": "https://www.data.jma.go.jp/vaac/data/TextData/2026/20260720_30027000_0270_Text.html",
      "lat": 56.65,
      "lon": 161.367,
      "text": "FVFE01 RJTD 201019\nVA ADVISORY\nDTG: 20260720/1019Z\nVAAC: TOKYO\nVOLCANO: SHEVELUCH 300270\nPSN: N5639 E16122\nAREA: RUSSIA\nSOURCE ELEV: 3283M AMSL\nADVISORY NR: 2026/270\nINFO SOURCE: HIMAWARI-9\nERUPTION DETAILS: POSS ERUPTION OBS AT 20260720/0920Z FL390 EXTD E\nOBS VA DTG: 20/0940Z\nOBS VA CLD: SFC/FL390 N5643 E16122 - N5654 E16218 - N5638 E16222 - \nN5638 E16123 MOV E 80KT\nFCST VA CLD +6 HR: 20/1540Z SFC/FL400 N5514 E17124 - N5404 E17107 - \nN5622 E16547 - N5551 E16338 - N5653 E16205 - N5700 E16710\nFCST VA CLD +12 HR: 20/2140Z SFC/FL400 N5358 E17858 - N5036 E17858 - \nN5047 E17722 - N5510 E17322 - N5553 E16402 - N5711 E16352 - N5628 \nE17315\nFCST VA CLD +18 HR: 21/0340Z SFC/FL390 N5545 W17909 - N5152 W17523 - \nN4519 W17540 - N4718 W17806 - N5504 E17835 - N5641 E16536 - N5721 \nE16533\nRMK: SOME PART OF VA OBSCURED BY MET CLOUD.\nNXT ADVISORY: 20260720/1200Z="
    }
  ],
  "vaac_tokyo": [
    {
      "id": "20260720_30027000_0270",
      "year": "2026",
      "volcano": "Sheveluch",
      "psn": "N5639 E16122",
      "issued": "20260720",
      "text": "FVFE01 RJTD 201019\nVA ADVISORY\nDTG: 20260720/1019Z\nVAAC: TOKYO\nVOLCANO: SHEVELUCH 300270\nPSN: N5639 E16122\nAREA: RUSSIA\nSOURCE ELEV: 3283M AMSL\nADVISORY NR: 2026/270\nINFO SOURCE: HIMAWARI-9\nERUPTION DETAILS: POSS ERUPTION OBS AT 20260720/0920Z FL390 EXTD E\nOBS VA DTG: 20/0940Z\nOBS VA CLD: SFC/FL390 N5643 E16122 - N5654 E16218 - N5638 E16222 - \nN5638 E16123 MOV E 80KT\nFCST VA CLD +6 HR: 20/1540Z SFC/FL400 N5514 E17124 - N5404 E17107 - \nN5622 E16547 - N5551 E16338 - N5653 E16205 - N5700 E16710\nFCST VA CLD +12 HR: 20/2140Z SFC/FL400 N5358 E17858 - N5036 E17858 - \nN5047 E17722 - N5510 E17322 - N5553 E16402 - N5711 E16352 - N5628 \nE17315\nFCST VA CLD +18 HR: 21/0340Z SFC/FL390 N5545 W17909 - N5152 W17523 - \nN4519 W17540 - N4718 W17806 - N5504 E17835 - N5641 E16536 - N5721 \nE16533\nRMK: SOME PART OF VA OBSCURED BY MET CLOUD.\nNXT ADVISORY: 20260720/1200Z=",
      "img_url": "https://ds.data.jma.go.jp/svd/vaac/data/VAGFN/2026/Images/20260720_30027000_0270_QH21_01.png",
      "sat_img_url": "https://ds.data.jma.go.jp/svd/vaac/data/Sat/2026/Images/30027000/09-ir/20260720_0940_202607201019_ir.png",
      "text_url": "https://ds.data.jma.go.jp/svd/vaac/data/TextData/2026/20260720_30027000_0270_Text.html"
    },
    {
      "id": "20260719_27303000_0769",
      "year": "2026",
      "volcano": "Mayon",
      "psn": "N1315 E12341",
      "issued": "20260719",
      "text": "FVFE01 RJTD 192213\nVA ADVISORY\nDTG: 20260719/2213Z\nVAAC: TOKYO\nVOLCANO: MAYON 273030\nPSN: N1315 E12341\nAREA: PHILIPPINES\nSOURCE ELEV: 2462M AMSL\nADVISORY NR: 2026/769\nINFO SOURCE: HIMAWARI-9 PHIVOLCS\nERUPTION DETAILS: ERUPTION AT 20260719/2148Z FL080 EXTD W REPORTED\nOBS VA DTG: 19/2200Z\nOBS VA CLD: VA NOT IDENTIFIABLE FM SATELLITE DATA WIND FL080 010/2KT\nFCST VA CLD +6 HR: NOT AVBL\nFCST VA CLD +12 HR: NOT AVBL\nFCST VA CLD +18 HR: NOT AVBL\nRMK: WE WILL ISSUE FURTHER ADVISORY IF VA IS DETECTED IN SATELLITE \nIMAGERY.\nNXT ADVISORY: NO FURTHER ADVISORIES=",
      "img_url": "https://ds.data.jma.go.jp/svd/vaac/data/VAGFN/2026/Images/20260719_27303000_0769_QH21_01.png",
      "sat_img_url": null,
      "text_url": "https://ds.data.jma.go.jp/svd/vaac/data/TextData/2026/20260719_27303000_0769_Text.html"
    },
    {
      "id": "20260717_27307000_0014",
      "year": "2026",
      "volcano": "Taal",
      "psn": "N1400 E12100",
      "issued": "20260717",
      "text": "FVFE01 RJTD 171113\nVA ADVISORY\nDTG: 20260717/1113Z\nVAAC: TOKYO\nVOLCANO: TAAL 273070\nPSN: N1400 E12100\nAREA: PHILIPPINES\nSOURCE ELEV: 311M AMSL\nADVISORY NR: 2026/14\nINFO SOURCE: HIMAWARI-9 PHIVOLCS\nERUPTION DETAILS: ERUPTION AT 20260717/1051Z FL040 EXTD E REPORTED\nOBS VA DTG: 17/1100Z\nOBS VA CLD: VA NOT IDENTIFIABLE FM SATELLITE DATA WIND FL040 270/8KT\nFCST VA CLD +6 HR: NOT AVBL\nFCST VA CLD +12 HR: NOT AVBL\nFCST VA CLD +18 HR: NOT AVBL\nRMK: WE WILL ISSUE FURTHER ADVISORY IF VA IS DETECTED IN SATELLITE \nIMAGERY.\nNXT ADVISORY: NO FURTHER ADVISORIES=",
      "img_url": "https://ds.data.jma.go.jp/svd/vaac/data/VAGFN/2026/Images/20260717_27307000_0014_QH21_01.png",
      "sat_img_url": null,
      "text_url": "https://ds.data.jma.go.jp/svd/vaac/data/TextData/2026/20260717_27307000_0014_Text.html"
    },
    {
      "id": "20260713_28208001_0083",
      "year": "2026",
      "volcano": null,
      "psn": "N3136 E13039",
      "issued": "20260713",
      "text": "FVFE01 RJTD 130254\nVA ADVISORY\nDTG: 20260713/0254Z\nVAAC: TOKYO\nVOLCANO: SAKURAJIMA (AIRA CALDERA) 282080\nPSN: N3136 E13039\nAREA: JAPAN\nSOURCE ELEV: 1117M AMSL\nADVISORY NR: 2026/83\nINFO SOURCE: JMA HIMAWARI-9\nERUPTION DETAILS: ERUPTED AT 20260713/0152Z FL100 EXTD N\nOBS VA DTG: 13/0230Z\nOBS VA CLD: SFC/FL100 N3136 E13039 - N3142 E13040 - N3141 E13044 - \nN3134 E13042 MOV NE 15KT\nFCST VA CLD +6 HR: 13/0830Z SFC/FL100 N3234 E13121 - N3145 E13155 - \nN3202 E13110 - N3227 E13051\nFCST VA CLD +12 HR: 13/1430Z SFC/FL100 N3318 E13206 - N3142 E13317 - \nN3134 E13226 - N3312 E13118\nFCST VA CLD +18 HR: NO VA EXP\nRMK: NIL\nNXT ADVISORY: 20260713/0600Z=",
      "img_url": "https://ds.data.jma.go.jp/svd/vaac/data/VAGFN/2026/Images/20260713_28208001_0083_QH21_01.png",
      "sat_img_url": "https://ds.data.jma.go.jp/svd/vaac/data/Sat/2026/Images/28208001/09-ir/20260713_0230_202607130254_ir.png",
      "text_url": "https://ds.data.jma.go.jp/svd/vaac/data/TextData/2026/20260713_28208001_0083_Text.html"
    }
  ],
  "vaac_alaska": [
    {
      "text": "\n000\nFVAK21 PAWU 201030\nVAAAK1\nVA ADVISORY\n\nDTG: 20260720/1026Z\n\nVAAC: ANCHORAGE\n\nVOLCANO: SHEVELUCH 300270\n\nPSN: N5639 E16122\n\nAREA: KAMCHATKA PENINSULA\n\nSOURCE ELEV: 10771 FT AMSL\n\nADVISORY NR: 2026/206\n\nRMK: PLEASE SEE FVFE01 RJTD ISSUED BY VAAC TOKYO WHICH DESCRIBES\nCONDITIONS NEAR THE VAAC ANCHORAGE AREA OF RESPONSIBILITY...SC\n\n\n\n",
      "issued": "2026-07-20T10:30:00+00:00",
      "volcano": "Sheveluch",
      "psn": "N5639 E16122"
    }
  ]
}