{
  "updated_utc": "2026-07-20T15:00Z",
  "metar": {
    "RJAA": "METAR RJAA 201330Z 22003KT CAVOK 27/24 Q1008 NOSIG",
    "PANC": "SPECI PANC 201334Z VRB03KT 7SM RA BKN006 BKN019 OVC070 12/11 A3001 RMK AO2 P0006 T01170111",
    "PAFA": "METAR PAFA 201353Z 02005KT 10SM BKN075 BKN100 BKN150 18/09 A2989 RMK AO2 SLP125 T01780094 $",
    "PAED": "METAR PAED 201355Z COR 02006KT 8SM -RA FEW008 BKN041 OVC070 12/11 A3000 RMK AO2A SLP155 FEW008 E ALNG MTNS P0002 T01210108 $ COR 1407",
    "KSEA": "METAR KSEA 201353Z 03008KT 10SM SCT250 BKN300 17/11 A2999 RMK AO2 SLP161 T01670111 $",
    "ZSPD": "METAR ZSPD 201330Z 18005MPS CAVOK 31/26 Q1004 NOSIG",
    "ZSSS": "SPECI ZSSS 201312Z 35004MPS 9999 -SHRA FEW030CB 28/27 Q1004 RETSRA NOSIG",
    "RJFR": "METAR RJFR 201400Z 00000KT 9999 FEW020 SCT035 BKN050 29/24 Q1009",
    "VHHH": "METAR VHHH 201330Z 17007KT 120V200 9999 FEW010 30/25 Q1006 NOSIG",
    "RCTP": "METAR RCTP 201330Z 11005KT 080V140 9999 FEW015 SCT025 29/24 Q1008 NOSIG RMK A2979",
    "ZGSZ": "METAR ZGSZ 201400Z 16004MPS 9999 FEW020 29/27 Q1007 NOSIG",
    "WSSS": "METAR WSSS 201330Z VRB02KT 9999 FEW018 BKN300 28/23 Q1011 NOSIG",
    "WMKK": "METAR WMKK 201330Z 00000KT 8000 FEW010 27/26 Q1011 NOSIG",
    "WIDD": "METAR WIDD 201330Z 11003KT 070V140 9999 FEW014 27/24 Q1011 NOSIG",
    "VTBS": "METAR VTBS 201330Z 21007KT 9999 FEW020 31/21 Q1008 NOSIG",
    "VTBU": "METAR VTBU 201330Z 17006KT 9999 FEW020 29/27 Q1009 NOSIG",
    "ROAH": "METAR ROAH 201330Z 20007KT 9999 FEW010 28/27 Q1010",
    "VVDN": "METAR VVDN 201330Z VRB02KT 9999 FEW020 31/23 Q1007 NOSIG",
    "RCKH": "METAR RCKH 201330Z VRB04KT 9999 FEW014 SCT120 BKN160 29/24 Q1009 NOSIG RMK A2980",
    "KLAX": "SPECI KLAX 201310Z 00000KT 7SM BKN009 OVC120 20/18 A2993 RMK AO2 T02000183 $",
    "KONT": "METAR KONT 201353Z 25003KT 10SM BKN190 BKN250 23/16 A2995 RMK AO2 SLP124 T02330161 $",
    "KSFO": "METAR KSFO 201356Z 30007KT 10SM FEW003 SCT100 BKN170 16/13 A2995 RMK AO2 SLP142 T01560133 $",
    "KOAK": "METAR KOAK 201353Z 29005KT 10SM BKN008 BKN180 16/14 A2996 RMK AO2 SLP147 T01560139",
    "KMHR": "METAR KMHR 201315Z AUTO 15005KT 10SM CLR 18/12 A2988 RMK AO2 T01800122 $",
    "KDFW": "METAR KDFW 201353Z 19007KT 10SM CLR 29/22 A2996 RMK AO2 SLP134 T02890217 $",
    "KIAH": "SPECI KIAH 201321Z 28006KT 7SM BKN010 OVC250 27/25 A2999 RMK AO2 T02670250",
    "KORD": "METAR KORD 201351Z 22008KT 6SM HZ FEW140 BKN250 23/16 A2992 RMK AO2 SLP126 T02330161",
    "KJFK": "METAR KJFK 201351Z 08008KT 10SM SCT250 23/10 A3001 RMK AO2 SLP163 T02330100 $",
    "KRFD": "METAR KRFD 201354Z 20004KT 5SM FU OVC250 21/18 A2996 RMK AO2 SLP141 T02110178",
    "KIND": "METAR KIND 201354Z 13006KT 6SM HZ BKN038 24/18 A2996 RMK AO2 SLP139 T02390178 $",
    "KDTW": "METAR KDTW 201353Z 20007KT 5SM HZ SCT250 23/14 A2999 RMK AO2 SLP152 T02330144",
    "KMSP": "METAR KMSP 201353Z 20009KT 10SM SCT170 SCT250 24/21 A2976 RMK AO2 SLP071 TCU DSNT S T02440206",
    "CYEG": "SPECI CYEG 201304Z 31005KT 2 1/4SM +RA BR OVC017 15/15 A3008 RMK SC8 SLP192 DENSITY ALT 2800FT",
    "EHAM": "METAR EHAM 201325Z 35010KT 320V030 9999 FEW042 SCT048 19/10 Q1025 NOSIG",
    "EBBR": "METAR EBBR 201320Z VRB11KT CAVOK 20/08 Q1024 NOSIG",
    "EDDF": "METAR EDDF 201320Z AUTO 34007KT 280V050 CAVOK 22/06 Q1022 NOSIG",
    "EDFH": "METAR EDFH 201320Z VRB05KT CAVOK 17/05 Q1023",
    "EDDL": "METAR EDDL 201320Z AUTO 04006KT 320V090 9999 SCT041 20/10 Q1023 NOSIG",
    "EDDK": "METAR EDDK 201320Z AUTO 35008KT 320V030 9999 SCT041 17/10 Q1024 NOSIG",
    "EBLG": "METAR EBLG 201320Z 32008KT 290V030 9999 FEW045 20/07 Q1024 NOSIG",
    "LSZH": "METAR LSZH 201320Z COR 12005KT 050V170 9999 FEW055 24/10 Q1020 NOSIG",
    "LIMC": "METAR LIMC 201320Z 12005KT 050V190 CAVOK 30/15 Q1015 NOSIG",
    "LIRF": "METAR LIRF 201320Z 24010KT 210V270 CAVOK 33/22 Q1013 NOSIG",
    "EINN": "METAR EINN 201330Z 33012KT 300V020 9999 FEW025 SCT030 22/13 Q1030 NOSIG",
    "EGLL": "METAR EGLL 201320Z AUTO 02004KT 310V100 9999 NCD 24/05 Q1026",
    "EGSS": "METAR EGSS 201320Z AUTO 35007KT 280V060 9999 NCD 24/07 Q1027",
    "EPWA": "METAR EPWA 201330Z 26017KT 9999 FEW040TCU 19/10 Q1015 TEMPO TS",
    "UHPP": "METAR UHPP 201400Z 16003MPS 9999 -SHRA SCT040CB BKN074 18/16 Q1008 R34L/CLRD62 NOSIG RMK QFE752/1003",
    "EFHK": "METAR EFHK 201320Z 03010KT 350V060 CAVOK 20/07 Q1015 NOSIG",
    "LBBG": "METAR LBBG 201330Z 12015KT CAVOK 28/21 Q1014 NOSIG",
    "LTAC": "METAR LTAC 201320Z VRB05KT 9999 SCT040 33/10 Q1014 NOSIG RMK RWY21C 25010KT 200V270 RWY03L 27006KT 200V360 RWY21R 22010KT 180V250 RWY03R VRB04KT RWY21L 26008KT 200V300",
    "UBBB": "METAR UBBB 201330Z 36020KT CAVOK 26/18 Q1012 NOSIG",
    "UTAA": "METAR UTAA 201400Z 29016KT 9999 FEW050 BKN100 36/17 Q1006 R88/CLRD70 TEMPO 30020G30KT",
    "UACC": "METAR UACC 201330Z 25006MPS CAVOK 28/08 Q0999 NOSIG RMK QFE719/0959",
    "UAAA": "METAR UAAA 201330Z 12002MPS 9999 SCT050CB BKN200 36/15 Q1001 NOSIG",
    "UZTT": "METAR UZTT 201330Z 34012KT 310V010 CAVOK 41/07 Q0999 NOSIG",
    "ZWWW": "METAR ZWWW 201330Z 03002MPS 350V070 CAVOK 37/10 Q1002 NOSIG",
    "ZLXY": "METAR ZLXY 201400Z 05004MPS CAVOK 29/22 Q1003 NOSIG",
    "ZBAA": "METAR ZBAA 201330Z VRB01MPS 9999 FEW050CB 24/23 Q1004 BECMG AT1410 TS",
    "ZBHH": "METAR ZBHH 201400Z VRB02MPS 9999 FEW040 18/16 Q1008 NOSIG",
    "ZSQD": "METAR ZSQD 201400Z 14003MPS CAVOK 23/23 Q1004 NOSIG",
    "ZMCK": "METAR ZMCK 201330Z VRB02MPS 9999 FEW033 18/10 Q1007 NOSIG RMK QFE641.0 60 NT",
    "UUEE": "METAR UUEE 201330Z 19004MPS CAVOK 27/11 Q1013 R24L/CLRD62 R24C/CLRD62 NOSIG",
    "UUDD": "METAR UUDD 201330Z 22004MPS 190V250 CAVOK 26/13 Q1013 R13R/CLRD65 NOSIG",
    "ULLI": "METAR ULLI 201330Z 05005MPS 020V080 9999 OVC032 18/10 Q1015 R88/090065 NOSIG",
    "USSS": "METAR USSS 201330Z 01004MPS 9999 -TSRA SCT027CB 18/18 Q1007 R08R/290550 NOSIG RMK QFE735/0981",
    "UNNT": "METAR UNNT 201330Z 04003MPS 9999 FEW040CB 24/15 Q1002 R07/CLRD// R16/CLRD// NOSIG RMK QFE742/0989",
    "UNKL": "METAR UNKL 201330Z 00000MPS CAVOK 19/16 Q1004 R29/CLRD// NOSIG RMK QFE727",
    "UIBB": "METAR UIBB 201330Z AUTO 08002MPS 9999 // NCD 14/13 Q1004 RMK QFE711/0948",
    "UEEE": "METAR UEEE 201330Z 32003MPS CAVOK 19/18 Q1006 R23/190063 NOSIG RMK QFE746",
    "UHHH": "METAR UHHH 201330Z 27002MPS CAVOK 23/18 Q1005 R23L/090060 NOSIG RMK QFE748/0997",
    "UHSS": "METAR UHSS 201330Z 33002MPS 9999 NSC 19/19 Q1005 R01/CLRD70 NOSIG RMK QFE752/1003"
  },
  "taf": {
    "RJAA": "TAF RJAA 201105Z 2012/2118 21005KT 9999 FEW030 BECMG 2021/2023 31004KT BECMG 2100/2103 14010KT BECMG 2109/2112 04004KT",
    "PANC": "TAF PANC 201405Z 2014/2118 VRB03KT 6SM -RA OVC020 TEMPO 2014/2018 RA BKN005 FM202000 24006KT 5SM -RA BKN006 OVC015 FM210600 18008KT P6SM -RA SCT006 OVC015",
    "PAFA": "TAF PAFA 201139Z 2012/2118 14005KT P6SM SCT060 BKN150 FM210600 24006KT P6SM VCSH BKN050 FM211200 22006KT 6SM -SHRA BR BKN030 OVC050",
    "PAED": "TAF AMD PAED 201445Z 2014/2119 01003KT 8000 -RA SCT006 OVC040 530008 QNH2998INS BECMG 2020/2021 26005KT 6000 RA BKN020 OVC040 520005 QNH3003INS BECMG 2106/2107 21004KT 8000 -RA SCT015 BKN030 BKN050 QNH3007INS TX13/2021Z TN10/2108Z",
    "KSEA": "TAF KSEA 201121Z 2012/2118 02008KT P6SM BKN250 FM201800 34007KT P6SM BKN250 FM202200 32007KT P6SM BKN250 FM210600 36005KT P6SM SCT250",
    "ZSPD": "TAF ZSPD 200904Z 2012/2118 20004MPS 6000 SCT030 TX29/2012Z TX33/2106Z TN25/2021Z TEMPO 2106/2110 TSRA BKN015 FEW030CB",
    "ZSSS": "TAF AMD ZSSS 201233Z 2012/2118 20004MPS 6000 SCT030 TX29/2012Z TX33/2106Z TN26/2021Z TEMPO 2012/2014 TSRA BKN015 FEW030CB TEMPO 2106/2110 TSRA BKN015 FEW030CB",
    "RJFR": "TAF RJFR 201105Z 2012/2118 31006KT 9999 FEW025 BKN040",
    "VHHH": "TAF VHHH 201400Z 2015/2121 20010KT 9999 FEW010 SCT025 TX31/2106Z TN27/2022Z TEMPO 2021/2024 3500 SHRA FEW010CB SCT020 TEMPO 2100/2106 24015G25KT 2500 TSRA SHRA FEW008CB SCT015",
    "RCTP": "TAF RCTP 201100Z 2012/2118 21010KT 9999 FEW015 BKN032 BECMG 2101/2103 24015KT TEMPO 2107/2111 5000 SHRA FEW010 FEW015TCU BKN020 BKN050 BECMG 2111/2113 21010KT",
    "ZGSZ": "TAF ZGSZ 200911Z 2012/2118 18004MPS 8000 BKN040 TX29/2012Z TX31/2106Z TN28/2022Z TEMPO 2021/2101 2500 +TSRA SCT020 FEW025CB BKN030 TEMPO 2103/2107 TSRA SCT020 FEW025CB BKN030",
    "WSSS": "TAF WSSS 201100Z 2012/2118 18008KT 9999 FEW015 SCT020",
    "WMKK": "TAF WMKK 201100Z 2012/2118 VRB03KT 9999 FEW030",
    "VTBS": "TAF VTBS 201100Z 2012/2118 21008KT 9999 FEW020 BECMG 2018/2020 27008KT TEMPO 2108/2112 VRB15KT 4000 TSRA FEW018CB SCT030 BKN100 BECMG 2112/2114 21008KT",
    "VTBU": "TAF VTBU 201100Z 2012/2112 21008KT 9999 FEW020",
    "ROAH": "TAF ROAH 201105Z 2012/2118 21006KT 9999 FEW008 BKN015 TEMPO 2014/2021 FEW005 BKN008 TEMPO 2103/2109 4000 SHRA BR FEW005 BKN008 FEW015CB BECMG 2106/2109 30006KT BECMG 2112/2115 20006KT",
    "VVDN": "TAF VVDN 201100Z 2012/2112 14010KT 9999 FEW020 BECMG 2012/2013 22006KT BECMG 2105/2106 10010KT",
    "RCKH": "TAF RCKH 201100Z 2012/2118 17005KT 9999 FEW015 BKN032 TEMPO 2019/2101 09005KT 5000 SHRA FEW010 FEW015TCU BKN020 BKN050 BECMG 2101/2103 24010KT TEMPO 2107/2111 FEW012 FEW015TCU BKN022 BKN050 BECMG 2111/2113 17005KT",
    "KLAX": "TAF KLAX 201126Z 2012/2118 VRB03KT P6SM SCT010 FM201300 VRB03KT P6SM BKN010 FM201600 26006KT P6SM SCT020 FM201800 26012KT P6SM SCT200 FM210400 26006KT P6SM SCT200 FM210800 VRB03KT P6SM SCT250 FM211600 26006KT P6SM SCT250",
    "KONT": "TAF KONT 201120Z 2012/2118 VRB05KT P6SM SKC FM202000 25011G20KT P6SM FEW120 FM210400 25009KT P6SM SKC FM210530 VRB05KT P6SM SKC",
    "KSFO": "TAF KSFO 201459Z 2015/2118 34007KT P6SM FEW004 SCT014 BKN100 FM201600 28010KT P6SM BKN150 FM211000 28008KT P6SM BKN007 OVC150 FM211700 28006KT P6SM SCT010 BKN150",
    "KOAK": "TAF KOAK 201120Z 2012/2118 27005KT P6SM SCT007 BKN200 TEMPO 2012/2016 BKN007 FM201600 28010KT P6SM BKN150 FM210900 26004KT P6SM BKN007 OVC150 FM211700 27006KT P6SM SCT010 BKN150",
    "KMHR": "TAF KMHR 201124Z 2012/2112 17005KT P6SM SCT150 OVC250 FM201600 20006KT P6SM BKN250 FM201800 23008KT P6SM SCT250 FM202300 24010KT P6SM OVC250",
    "KDFW": "TAF KDFW 201436Z 2015/2118 19009KT P6SM FEW060",
    "KIAH": "TAF KIAH 201120Z 2012/2118 24004KT 6SM BR FEW015 FM201400 25007KT P6SM FEW035 FEW250 FM210000 21006KT P6SM FEW050 FEW250 FM210600 25006KT P6SM FEW020 SCT250",
    "KORD": "TAF KORD 201120Z 2012/2118 20005KT 5SM FU SCT250 FM201500 23010KT P6SM FEW050 SCT150 FM202100 21014G23KT P6SM FEW050 SCT120 PROB30 2103/2109 34020G30KT 2SM TSRA BR SCT015 OVC040CB FM210900 27011KT P6SM FEW020 SCT050 FM211500 30012G22KT P6SM FEW050",
    "KJFK": "TAF KJFK 201430Z 2014/2118 09008KT P6SM SKC FM201700 16010KT P6SM SCT250 FM210100 16008KT P6SM SCT250 FM211300 15013G20KT P6SM VCSH SCT025 BKN050 PROB30 2113/2118 4SM -TSRA BKN025CB",
    "KRFD": "TAF KRFD 201120Z 2012/2112 18004KT 4SM FU SCT250 FM201400 22011KT P6SM FEW050 BKN150 PROB30 2014/2018 33012G20KT 6SM -SHRA BKN050 FM202100 21014G23KT P6SM FEW050 SCT120 PROB30 2101/2107 34020G30KT 2SM TSRA BR SCT015 OVC040CB FM210700 27011KT P6SM FEW020 SCT050",
    "KIND": "TAF KIND 201120Z 2012/2118 13006KT P6SM FEW050 SCT250 FM201900 22008KT P6SM SCT050 BKN250 FM210800 22008KT P6SM SCT220 FM211000 23010KT P6SM -SHRA BKN050 FM211300 22010KT P6SM -SHRA BKN040",
    "KDTW": "TAF KDTW 201407Z 2014/2118 20008KT 5SM FU SKC FM201600 20010KT P6SM SCT050 SCT250 FM210100 19007KT P6SM SCT100 BKN200 FM210700 22012KT P6SM BKN080 OVC120 PROB30 2107/2111 4SM TSRA BKN040CB OVC060 FM211100 24014G25KT P6SM BKN040",
    "KMSP": "TAF KMSP 201123Z 2012/2118 21008G18KT P6SM BKN050 FM201300 21011G20KT P6SM BKN100 FM201500 23010G18KT P6SM SCT250 FM202000 27014G28KT P6SM FEW250 FM210300 31012G24KT P6SM SKC",
    "CYEG": "TAF CYEG 201443Z 2015/2112 31008KT 3SM -SHRA BR OVC005 TEMPO 2015/2017 6SM -RA BR SCT005 OVC012 FM201700 34010KT P6SM FEW005 BKN012 OVC030 TEMPO 2017/2020 SCT012 BKN030 FM202000 34010KT P6SM SCT040 TEMPO 2020/2104 5SM FU FM210400 VRB03KT 4SM FU SCT100 PROB30 2111/2112 3/4SM FU BR RMK NXT FCST BY 201800Z",
    "EHAM": "TAF EHAM 201103Z 2012/2118 34013KT 9999 SCT040 BECMG 2019/2022 36006KT BECMG 2109/2112 33013KT",
    "EBBR": "TAF EBBR 201102Z 2012/2118 34010KT 9999 FEW045",
    "EDDF": "TAF EDDF 201100Z 2012/2118 33008KT CAVOK BECMG 2020/2022 03007KT",
    "EDFH": "TAF EDFH 201100Z 2012/2112 35008KT 9999 SCT040",
    "EDDL": "TAF EDDL 201100Z 2012/2118 34008KT 9999 SCT040 BECMG 2022/2101 VRB03KT BECMG 2107/2110 33008KT",
    "EDDK": "TAF EDDK 201100Z 2012/2118 34008KT 9999 SCT040 BECMG 2019/2022 VRB03KT BECMG 2107/2110 34007KT",
    "EBLG": "TAF EBLG 201102Z 2012/2118 34008KT 9999 SCT045",
    "LSZH": "TAF LSZH 201425Z 2015/2121 07005KT 9999 FEW060 TX25/2015Z TN12/2104Z TX25/2115Z PROB30 TEMPO 2015/2018 32008KT BECMG 2017/2020 CAVOK PROB30 TEMPO 2018/2022 04010KT BECMG 2022/2024 VRB02KT BECMG 2107/2109 06009KT 9999 FEW070 BECMG 2119/2121 05004KT CAVOK",
    "LIMC": "TAF LIMC 201100Z 2012/2118 12010KT 9999 FEW050 BECMG 2015/2017 VRB05KT TEMPO 2103/2110 4000 TSRA TEMPO 2115/2118 4000 SHRA",
    "LIRF": "TAF LIRF 201100Z 2012/2118 25012KT CAVOK BECMG 2017/2019 VRB05KT PROB30 TEMPO 2101/2105 3000 BR BECMG 2106/2108 16010KT BECMG 2112/2114 22012KT",
    "EINN": "TAF EINN 201100Z 2012/2112 35008KT 9999 FEW035",
    "EGLL": "TAF EGLL 201108Z 2012/2118 02006KT CAVOK BECMG 2018/2021 10010KT TEMPO 2100/2113 BKN030 BECMG 2101/2104 02005KT",
    "EGSS": "TAF EGSS 201054Z 2012/2118 01008KT 9999 FEW045 PROB30 2017/2021 11010KT PROB30 TEMPO 2100/2109 BKN014",
    "EPWA": "TAF EPWA 201430Z 2015/2115 25012KT CAVOK TEMPO 2015/2018 -SHRA SCT040CB PROB30 TEMPO 2015/2018 27020G32KT 2000 TSRA PROB40 TEMPO 2018/2024 19005KT -SHRA BKN020CB TEMPO 2100/2110 26015G25KT 4000 SHRA BKN008 BKN015CB TEMPO 2110/2115 28020G32KT -SHRA BKN012 BKN020CB",
    "UHPP": "TAF UHPP 201338Z 2015/2121 18003G12MPS 9999 -SHRA BKN010 OVC020CB TEMPO 2016/2023 1000 SHRA BR VV002 BECMG 2106/2108 NSW SCT015 BKN030CB TEMPO 2108/2118 1000 BR VV002",
    "EFHK": "TAF EFHK 201423Z 2015/2115 05013KT CAVOK PROB30 TEMPO 2101/2110 04015G25KT",
    "LBBG": "TAF LBBG 201100Z 2012/2112 12014KT 9999 SCT045 PROB30 TEMPO 2013/2016 VRB16G26KT 4000 TSRA FEW030CB BKN040 BECMG 2020/2022 VRB03KT TEMPO 2101/2104 2000 BR TEMPO 2104/2107 5000 SHRA FEW030CB BKN045 BECMG 2108/2110 12012KT",
    "LTAC": "TAF LTAC 201040Z 2012/2112 VRB02KT 9999 SCT040 BECMG 2015/2018 CAVOK TEMPO 2016/2020 02013KT BECMG 2107/2110 FEW040",
    "UBBB": "TAF UBBB 201052Z 2012/2112 35018G28KT 9999 SCT020 TX28/2012Z TN24/2101Z TEMPO 2012/2016 FEW050CB BECMG 2018/2020 36012KT PROB40 TEMPO 2020/2024 -TSRA SCT018 SCT050CB TEMPO 2102/2108 03012KT BECMG 2108/2110 18006KT",
    "UTAA": "TAF UTAA 201049Z 2012/2112 33018KT 6000 SCT050CB SCT050 TEMPO 2012/2017 32022G32KT 2500 BLDU TEMPO 2101/2104 30020G30KT 3000 BLDU PROB30 TEMPO 2104/2108 VRB20G30KT 4000 -TSRA",
    "UACC": "TAF UACC 201104Z 2012/2112 28006MPS 9999 SCT040 BKN100 TX29/2012Z TN16/2024Z TEMPO 2012/2016 24010MPS SCT030CB BECMG 2018/2020 18005MPS BECMG 2021/2023 SCT030CB BKN070 TEMPO 2021/2103 3100 -TSRA BKN030CB TEMPO 2103/2112 VRB16MPS 3100 -TSRA SQ BKN020CB",
    "UAAA": "TAF UAAA 201105Z 2012/2112 19003MPS 9999 SCT050CB BKN100 TX39/2110Z TN24/2100Z TEMPO 2012/2015 06003MPS BECMG 2102/2103 30003G09MPS TEMPO 2108/2112 24006G12MPS 5000 -TSRA BLDU",
    "UZTT": "TAF UZTT 201100Z 2012/2112 34012KT 7000 NSC TX35/2111Z TN25/2100Z TEMPO 2012/2024 30015G25KT 3000 -DS",
    "ZWWW": "TAF ZWWW 200902Z 2012/2118 36004MPS CAVOK TX42/2109Z TN30/2023Z TN30/2118Z BECMG 2014/2015 18004G09MPS BECMG 2102/2103 36004MPS BECMG 2114/2115 20004MPS",
    "ZLXY": "TAF ZLXY 200905Z 2012/2112 06003MPS 6000 NSC TX37/2107Z TN24/2021Z TEMPO 2108/2111 -SHRA FEW040CB OVC050",
    "ZBAA": "TAF ZBAA 200901Z 2012/2118 16004MPS 6000 NSC TX31/2106Z TN21/2021Z TN24/2118Z TEMPO 2012/2016 TSRA FEW040CB BKN040",
    "ZBHH": "TAF ZBHH 200920Z 2012/2112 36004MPS 9999 SCT040 TX30/2107Z TN16/2019Z BECMG 2109/2110 -TSRA FEW040CB SCT040 TEMPO 2110/2112 +TSRA",
    "ZSQD": "TAF ZSQD 200901Z 2012/2112 16004MPS 5000 BR NSC TX31/2106Z TN20/2020Z",
    "ZMCK": "TAF ZMCK 201040Z 2012/2118 VRB02MPS 9999 FEW030CB SCT033 TN10/2021Z TX25/2107Z PROB40 TEMPO 2105/2115 VRB08G13MPS TSRA SCT027CB SCT030",
    "UUEE": "TAF UUEE 201352Z 2015/2115 18003G08MPS 9999 SCT040 TX27/2015Z TN18/2101Z PROB40 TEMPO 2100/2115 -TSRA BKN020CB",
    "UUDD": "TAF UUDD 201353Z 2015/2121 20003MPS 9999 BKN020 TX25/2015Z TN18/2101Z PROB40 TEMPO 2021/2103 -TSRA BKN016CB BECMG 2103/2105 26005MPS TEMPO 2107/2116 26008G13MPS -TSRA BKN016CB BECMG 2116/2118 19003MPS",
    "ULLI": "TAF ULLI 201352Z 2015/2115 05006G12MPS 6000 BKN016 TEMPO 2021/2101 2100 -SHRA BKN010 BKN017CB BECMG 2101/2102 BKN010 TEMPO 2102/2110 1000 SHRA BR BKN004 BKN017CB PROB40 TEMPO 2102/2110 1500 TSRA BKN017CB TEMPO 2110/2115 3100 -SHRA BKN005 BKN017CB",
    "USSS": "TAF USSS 201357Z 2015/2115 02003G14MPS 9999 BKN020CB TEMPO 2015/2021 01008G21MPS -TSRA BKN016CB TEMPO 2109/2115 -TSRA BKN016CB",
    "UNNT": "TAF UNNT 201400Z 2015/2115 04003G08MPS 9999 BKN040 TX28/2109Z TN16/2022Z TEMPO 2015/2018 -TSRA BKN020CB",
    "UNKL": "TAF UNKL 201346Z 2015/2115 VRB01MPS 8000 SCT040 TEMPO 2020/2023 0300 FG BKN002 TEMPO 2106/2112 -TSRA BKN020CB",
    "UIBB": "TAF UIBB 201400Z 2015/2115 10002MPS 0300 FG BKN001 BKN016CB TEMPO 2015/2101 4000 BR FEW003 SCT016CB BECMG 2101/2103 9999 NSW BKN016CB BECMG 2103/2105 25005G10MPS",
    "UEEE": "TAF UEEE 201400Z 2015/2121 30003G08MPS 9999 SCT030CB BKN100 TEMPO 2015/2023 VRB01MPS 0500 FG VV003",
    "UHHH": "TAF UHHH 201346Z 2015/2121 25003MPS 9999 SCT030 TX30/2106Z TN19/2019Z BECMG 2016/2017 5000 BR TEMPO 2017/2022 0400 FG BECMG 2022/2023 9999 NSW",
    "UHSS": "TAF UHSS 201355Z 2015/2121 VRB01MPS 9999 BKN040CB BECMG 2016/2018 BKN004 BKN017CB BECMG 2018/2020 0550 FG BKN002 BKN020CB FM202300 27003MPS 9999 BKN040CB"
  },
  "atis": {
    "RJAA": "[Arrival ATIS] RJAA ARR ATIS L 0045Z M0030 (APCH)ILS Z RWY34R LDG RWY 34R DEP RWY 34L DEP FREQ 124.2. TWY A1 CLSD. OBSERVE GEAR DOWN OPS PROC ON FNL. M 240030Z 06006KT 010V100 25KM FEW020CU BKN060SC BKN/// 22/18 Q1013/A2994= Q/TWO NINE NINE FOUR STP\n[Departure ATIS] RJAA DEP ATIS K 0028Z M0000 (APCH)ILS Z RWY34R LDG RWY 34R DEP RWY 34L DEP FREQ 124.2. TWY A1 CLSD. OBSERVE GEAR DOWN OPS PROC ON FNL. M 240000Z 06006KT 020V100 20KM FEW020CU SCT080AC BKN/// 21/17 Q1014/A2995= Q/TWO NINE NINE FIVE STP",
    "PANC": "[Arrival ATIS] PANC ARR ATIS R 1353Z ANC ATIS INFO R 1353Z. 04003KT 9SM -RA BKN005 BKN055 OVC070 12/11 A3001 (THREE ZERO ZERO ONE). 7R, 7L APPROACHES IN USE. LANDING RWY 7R, 7L, DEPARTING RWY 33. NOTICE TO AIRMEN. TWY Q CLSD. TWY K BTWN A AND C RESTRICTED TO AIRCRAFT WITH WINGSPAN LESS THAN 118 FEET. HAZD WX INFO FOR ANC AREA AVBL FM FSS. CONTACT TOWER 118.3 FOR TAXI. RWY 7R 5 5 5 0730Z, RWY 7L 5 5 5 0730Z, RWY 33 5 5 5 0730Z. ...ADVS YOU HAVE INFO R.\n[Departure ATIS] PANC DEP ATIS V 0053Z ANC ATIS INFO V 0053Z. 35005KT 9SM -RA FEW006 BKN075 OVC100 12/11 A3007 (THREE ZERO ZERO SEVEN) RMK AO2 SLP183 P0005 T01170111. 7R, 7L APPROACHES IN USE. LANDING RWY 7R, 7L, DE",
    "KSEA": "[Arrival ATIS] KSEA ARR ATIS L 1453Z SEA ATIS INFO L 1453Z. 36010KT 10SM FEW250 BKN300 18/11 A3000 (THREE ZERO ZERO ZERO) RMK AO2 SLP162 T01780111 51002. ILS AND CHARTED VISUAL APPROACH RWY 34L , APCH IN USE.\n[Departure ATIS] KSEA DEP ATIS L 1453Z SEA ATIS INFO L 1453Z. 36010KT 10SM FEW250 BKN300 18/11 A3000 (THREE ZERO ZERO ZERO) RMK AO2 SLP162 T01780111 51002. ILS AND CHARTED VISUAL APPROACH RWY 34L , APCH IN USE. DEPG RWY 34R. SIMUL ARRIVALS TO RWY 34L AND DEPARTURES TO RWY 34R ARE IN USE. SIMUL APCHS IN USE TO PARA RYS. NOTAMS... BIRD ACTIVITY VICINITY ARPT. ...ADVS YOU HAVE INFO L.",
    "ZSPD": "[Arrival ATIS] ZSPD ARR ATIS L 0030Z EXP ILS APCH LDG RWY 35L & 34R WIND RWY 35L TDZ 030/4MPS MID 020/4MPS END 030/4MPS RWY 34R TDZ 040/4MPS MID 040/3MPS END 050/4MPS VIS RWY 35L TDZ 10000M MID 10000M END 10000M VIS RWY 34R TDZ 10000M MID 10000M END 10000M FBL SHRA CLD BKN 180M T 23 /DP 23 QNH 1004 HPA CAUTION THE BIRDS NEAR THE RUNWAY RWY 35R/35L/34R/34L RWYCC 5/5/5 ISSUED AT 2212 WET/WET/WET DPT NR/NR/NR COV 100PCT/100PCT/100PCT. ADZ YOU HAVE INFO L.\n[Departure ATIS] ZSPD DEP ATIS L 0030Z DEP RWY 35R & 34L WIND RWY 35R TDZ 040/4MPS MID 020/4MPS END 020/4MPS RWY 34L TDZ 040/4MPS MID 040/4MPS END 040/4MPS VIS RWY 35R TDZ 10000M MID 10000M END 10000M VIS RWY 34L TDZ 10000M MID 10000M END 10000M FBL SHRA CLD BKN 180M T 23 /DP 23 QNH 1004 HPA CAUTION THE BIRDS NEAR THE RUNWAY RWY 35R/35L/34R/34L RWYCC 5/5/5 ISSUED AT 2212 WET/WET/WET DPT NR/NR/NR COV 100PCT/100PCT/100PCT. ADZ YOU HAVE INFO L.",
    "ZSSS": "[Arrival ATIS] ZSSS ARR ATIS F 0030Z EXP ILS APCH LDG RWY 36R WIND RWY 36R TDZ 030/5MPS MID 020/4MPS END 030/4MPS VIS RWY 36R TDZ 7000M MID 10000M END 8000M FBL RA CLD BKN 240M T 22 /DP 21 QNH 1005 HPA RWY36R RWYCC 5/5/5 ISSUED AT 2130 WET/WET/WET DPT NR/NR/NR COV 100PCT/100PCT/100PCT RWY36L RWYCC 5/5/5 ISSUED AT 2130 WET/WET/WET DPT NR/NR/NR COV 100PCT/100PCT/100PCT QNH OF SHANGHAI TERMINAL CONTROL AREA 1004 HPA ADZ YOU HAVE INFO F.\n[Departure ATIS] ZSSS DEP ATIS C 1100Z DEP RWY 36L WIND RWY 36L TDZ 030/3MPS MID 020/3MPS END 020/3MPS VIS RWY 36L TDZ 10000M MID 10000M END 10000M FBL SHRA CLD BKN 390M T 22 /DP 21 QNH 1004 HPA RWY36L RWYCC 5/5/5 ISSUED AT 0600 WET/WET/WET DPT NR/NR/NR COV 100PCT/100PCT/100PCT RWY36R RWYCC 5/5/5 ISSUED AT 0600 WET/WET/WET DPT NR/NR/NR COV 100PCT/100PCT/100PCT QNH OF SHANGHAI TERMINAL CONTROL AREA 1004 HPA ADZ YOU HAVE INFO C.",
    "VHHH": "[Arrival ATIS] VHHH ARR ATIS A 1405Z ARRIVALS, RWY 25R. EXP RNAV TRANSITION TO ILS APCH, RWY 25R. RNP APCH IS AVBL ON REQ, RWY 25R. EXP RWY 25C AFTER 1500Z. WIND 180/07KT. VIS 10KM. CLD FEW 1000FT. T30 DP25. QNH 1007HPA. ACK INFO A ON FIRST CTC WITH APP.\n[Departure ATIS] VHHH DEP ATIS U 0008Z DEPARTURES, RWY 25C/L. INDEPENDENT PARALLEL DEPARTURE IN PROGRESS. WIND RWY 25C 250/05KT RWY 25L VRB05KT. VIS RWY 25C 10KM RWY 25L 10KM. CLD FEW 1000FT. T31 DP25. QNH 1004HPA. ACK INFO U ON FIRST CTC WITH DELIVERY .",
    "RCTP": "[Arrival ATIS] RCTP ARR ATIS I 0030Z EXP ILS APCH RWY23R AND RWY23L ARR/DEP. WIND 250/09KT VARYING BTN 220 AND 280 VIS 10 KM OR MORE CLD FEW 1200FT BKN 2000FT T 31 DP 26 QNH 1004HPA NOSIG DUE TO FLOW CONTROL BY MANILA F-I-R, TRAFFIC CONCERNED MAY BE DELAYED. CTN BIRD ACTIVITY IN THE VCY OF THE AD. INFORM TAIPEI APCH OR TAIPEI TOWER ON INITIAL CONTACT YOU HAVE INFORMATION I\n[Departure ATIS] RCTP DEP ATIS I 0030Z EXP ILS APCH RWY23R AND RWY23L ARR/DEP. WIND 250/09KT VARYING BTN 220 AND 280 VIS 10 KM OR MORE CLD FEW 1200FT BKN 2000FT T 31 DP 26 QNH 1004HPA NOSIG DUE TO FLOW CONTROL BY MANILA F-I-R, TRAFFIC CONCERNED MAY BE DELAYED. CTN BIRD ACTIVITY IN THE VCY OF THE AD. INFORM TAIPEI APCH OR TAIPEI TOWER ON INITIAL CONTACT YOU HAVE INFORMATION I",
    "ZGSZ": "[Arrival ATIS] ZGSZ ARR ATIS J 1400Z EXP ILS APCH 15 EXP ILS OR VIS APCH 16R WIND 160/4MPS VIS 9999M CLD FEW 600M T 29 /DP 27 QNH 1007 HPA INDEPENDENT PARALLEL DEPARTURES INDEPENDENT PARALLEL APPROACHES V17,V18 AVAILABLE AFTER SULAS FLY HEADING 040 MISSED APPROACH ALTITUDE SETTING 1200METERS WHEN AIRBORNE CONTACT ZHUHAI APPROACH EXPECTED RNP ILS DME Z APPROACH ADZ YOU HAVE INFO J.\n[Departure ATIS] ZGSZ DEP ATIS V 2330Z DEP RWY 15 & 16L WIND 170/4MPS VIS 9999M CLD FEW 540M T 30 /DP 28 QNH 1004 HPA INDEPENDENT PARALLEL DEPARTURES V17,V18 AVAILABLE AFTER SULAS FLY HEADING 040 MISSED APPROACH ALTITUDE SETTING 1200METERS WHEN AIRBORNE CONTACT ZHUHAI APPROACH EXPECTED RNP ILS DME Z APPROACH ADZ YOU HAVE INFO V.",
    "WSSS": "[Arrival ATIS] WSSS ARR ATIS T 0030Z METREPORT 0030Z ILS APCHRWY 20R SIMUL INDEPENDENT ILS AND VISUAL APPROACHES ARE CONDUCTED ON RWY 20. RSCD RWY20R 2348Z RWYCC:5.5.5. WHOLE RWY 100% WET. TWY W 9 CLOSED, RWY 02C 20C RAPID EXIT TAXIWAY INDICATOR LIGHTS OFF WIND 300/ 04KT VRB BTN230 AND350 VIS 10KM FBL TSRA CLD FEW CB 1800FT FEW TCU 2000FT T27 DP25 QNH 1011HPA BECMG TL0045 NSW ACK ATIS T\n[Departure ATIS] WSSS DEP ATIS V 0000Z METREPORT 0000Z RWY 20C SIMUL INDEPENDENT ILS AND VISUAL APPROACHES ARE CONDUCTED ON RWY 20. RSCD RWY20C 2348Z RWYCC:5.5.5. WHOLE RWY 100% WET. TWY W 9 CLOSED, RWY 02C 20C RAPID EXIT TAXIWAY INDICATOR LIGHTS OFF WIND 220/ 08KT VRB BTN190 AND270 VIS 4100M FBL TSRA CLD FEW 1200FT FEW CB 1400FT SCT TCU 1600FT T26 DP24 QNH 1010HPA BECMG FM0030 TL0045 VIS6KM NSW DEP,INITIAL CMB 3000FT ACK ATIS V",
    "WMKK": "[Arrival ATIS] WMKK ARR ATIS B 2339Z WMKK ARR INFO B. TIME 2330. INDEPENDENT PARALLEL APPROACHES FOR RWY 32 R AND 33 ARE IN PROGRESS. EXP RNAV / ILS APCH FOR RWY 32 RIGHT. EXP RNAV / ILS APCH FOR RWY 33. WIND RWY 32R 020 DEG, 1 KT. WIND RWY 32L DIRECTION NOT AVBL SPEED NOT AVBL. WIND RWY 33 010 DEG, 4 KT. VIS RWY 32R 10 KM OR MORE. VIS RWY 33 10 KM OR MORE. CLD FEW CB 1700 FT. T 26. DP 24. QNH 1009. NOSIG. AT FIRST CONTACT WITH LUMPUR RADAR, NOTIFY RCPT OF B\n[Departure ATIS] WMKK DEP ATIS O 1704Z WMKK DEP INFO O. TIME 1700. INDEPENDENT PARALLEL DEPARTURES FOR RWY 32 R AND 33 ARE IN PROGRESS. RWY 32 RIGHT. RWY 33. WIND RWY 32R DIRECTION NOT AVBL SPEED NOT AVBL. WIND RWY 32L DIRECTION NOT AVBL SPEED NOT AVBL. WIND RWY 33 DIRECTION NOT AVBL SPEED NOT AVBL. VIS RWY 32R TDZ NOT AVBL. VIS RWY 33 TDZ NOT AVBL. CLD FEW 3000 FT. T 26. DP 23. QNH 1010. NOSIG. ALL DEP ACFT TO CONTACT LUMPUR DEP AT 135 DECIMAL 25 MHZ WHEN ABN. AT FIRST CONTACT WITH LUMPUR GROUND, NOTIFY RCPT OF O",
    "VTBS": "[Arrival ATIS] VTBS ARR ATIS Y 0000Z VTBS ARR ATIS Y 0001Z EXP ILS Z APCH ARR RWY 20L OR RNP APCH RWY 20R ,ALL ACFT WILL BE DLA DUE PAPI RWY 19 FLTCK ,PILOT SHALL ADZ BKK APCH ON INITIAL CTC IF UNA TO CONDUCT RNP APCH DUE TO OPERATIONAL CONSTRAINT 0000Z WIND 250/4KT VRB BTN 210/ AND 280/ VIS 10KM CLD FEW 2000FT T29 DP22 QNH 1008HPA TREND NOSIG ADZ BKK APCH ON INITIAL CONTACT THAT YOU HAVE INFO Y\n[Departure ATIS] VTBS DEP ATIS G 0030Z VTBS DEP ATIS G 0041Z DEP RWY 20L OR DEP RWY 19 ,ALL ACFT WILL BE DLA DUE PAPI RWY 19 FLTCK ,AFT AIRBORNE ALL DEPARTING ACFT SHALL CTC 119.25 0030Z WIND 250/5KT VRB BTN 230/ AND 290/ VIS 10KM CLD FEW 2000FT T30 DP21 QNH 1008HPA TREND NOSIG ADZ GND WHEN INITIAL CONTACT YOU HAVE INFO G",
    "VTBU": "[Arrival ATIS] VTBU ARR ATIS S 0430Z VTBU ARR ATIS S 0431Z RNP RWY 36 TRL FL130 MOBILE ACFT ARST SYSTEM INSTL ATP SIX HUNDRED AND TEN METERS FM THR RWY 36 CABLE HGT 3 INCHES. 0430Z WIND 330/5KT VRB BTN 290/ AND 030/ VIS 10KM CLD FEW 2000FT T32 DP26 QNH 1009HPA TREND NOSIG ADZ CONTROLLER WHEN INITIAL CONTACT YOU HAVE INFO S\n[Departure ATIS] VTBU DEP ATIS D VTBU ARR/DEP DATIS RPT VTBU ARR ATIS D 0330Z ILS \"Z\" APCH RWY 18 TRL FL130 0330Z WIND 110/4KT VRB BTN 350/ AND 120/ VIS 6KM CLD FEW 2000FT T31 DP27 QNH 1014HPA TREND NOSIG ADZ CONTROLLER WHEN INITIAL CONTACT YOU HAVE INFO D",
    "ROAH": "[Arrival ATIS] ROAH ARR ATIS H 0036Z M0030 (APCH)RNP RWY18R LDG RWY 18R DEP RWY 18L DEP FREQ 126.5 258.3 M 240030Z 16017KT 15KM FEW011CU SCT015CU 30/27 Q1005/A2970= Q/TWO NINE SEVEN ZERO STP\n[Departure ATIS] ROAH DEP ATIS Q 1131Z M1130 (APCH)RNP RWY18R LDG RWY 18R DEP RWY 18L DEP FREQ 126.5 258.3 M 181130Z 21006KT 15KM FEW005ST SCT015CU 28/28 Q1006/A2971= Q/TWO NINE SEVEN ONE STP",
    "VVDN": "[Arrival ATIS] VVDN ARR ATIS D 0432Z VVDN INFO D 0432Z. ILS VICTOR APPROACH 35L.. DPTG RWY 35R.. 0432Z. WIND 270/04KT CAVOK T37 DP20 QNH 1005HPA TREND NOSIG. ADZ ON INITIAL CTC YOU HAVE INFO. D.\n[Departure ATIS] VVDN DEP ATIS J 1833Z VVDN INFO J 1833Z. ILS VICTOR APPROACH 35L.. DPTG RWY 35R.. 1833Z. WIND 300/02KT CAVOK T30 DP22 QNH 1006HPA TREND NOSIG. ADZ ON INITIAL CTC YOU HAVE INFO. J.",
    "RCKH": "[Arrival ATIS] RCKH ARR ATIS G 0030Z EXPECT ILS APPROACH RWY 27 ARR/DEP TAXIWAY JULIETT, TAXIWAY BRAVO, TAXIWAY DELTA AND TAXIWAY ECHO CLOSED DUE MAINTENANCE. RUNWAY 2 7 ARRIVALS PLAN VACATE VIA CHARLIE OR ALPHA AND EXPEDITE VACATE. FROM 0 2 5 0 ZULU TO 0 3 3 0 ZULU RUNWAY CLOSED. ALL TAKE-OFF AND LANDING SUSPENDED DUE CONSTRUCTION. WIND 290/09KT VARYING BTN 260 AND 330 VIS 10 KM OR MORE CLD SCT 1200FT SCT 2500FT T 31 DP 25 QNH 1004HPA NOSIG CAUTION BIRD ACTIVITY IN VICINITY OF THE AERODROME. INFORM KAO-HSIUN APCH OR KAO-HSIUN TOWER ON INITIAL CONTACT YOU HAVE INFORMATION G\n[Departure ATIS] RCKH DEP ATIS G 0430Z EXPECT ILS APPROACH RWY 27 ARR/DEP RWY SFC RWY 09 SFC COND 5/5/5 ISSUED AT 0255Z. 100/100/100 NR/NR/NR WET/WET/WET TAXIWAY JULIETT, TAXIWAY BRAVO, TAXIWAY DELTA AND TAX",
    "KLAX": "[Arrival ATIS] KLAX ARR ATIS D 1453Z LAX ATIS INFO D 1453Z. 10005KT 7SM SCT009 BKN014 BKN120 21/18 A2995 (TWO NINER NINER FIVE) RMK AO2 SLP139 T02110178 51015. INST APCHS AND RNAV RNP APCHS RY 24R AND 25L, SIMUL INSTR DEPARTURES IN PROG RWYS 24 AND 25. CTC L A GC ON 121.75 FOR PUSH OR TAXI ON A. TWY B CLSD BTN TWY, C10 AND TWY C7 , , TWY B6 CLSD, TWY B7 CLSD, TWY C CLSD BTN TWY, C1 AND TWY C3, TWY C1 CLSD, TWY C9 CLSD BTN TWY, B AND TWY C, TWY C8 CLSD BTN TWY, B AND TWY C. PAPI OTS 24R, SEAL BEACH VOR OTS. HAZD WX INFO FOR LAX AREA AVBL FM FSS. BIRD ACTIVITY VICINITY ARPT. INCLUDE YOUR CALL SIGN IN ALL READBACKS. USE CAUTION WHEN EXITING RY24R AT TWY V, W, AND Y, TO HOLD SHORT OF RY24L. MULTIPLE RUNWAY INCURSIONS HAVE OCCURRED. ...ADVS YOU HAVE INFO D.\n[Departure ATIS] KLAX DEP ATIS J 0653Z LAX ATIS INFO J 0653Z. 22006KT 10SM FEW008 21/18 A2993 (TWO NINER NINER THREE) RMK AO2 SLP132 T02060178. INST APCHS AND RNAV RNP APCHS 6R, OPP DIRECTION TFC DEPG RY 25, SIMUL INSTR DEPARTURES IN PROG 25R. CTC L A GC ON 121.75 FOR PUSH OR TAXI ON A. TWY B CLSD BTN TWY, C10 AND TWY C7 , , TWY B6 CLSD, TWY B7 CLSD, TWY C CLSD BTN TWY, C1 AND TWY C3, TWY C1 CLSD, TWY C9 CLSD BTN TWY, B AND TWY C, TWY C8 CLSD BTN TWY, B AND TWY C. PAPI OTS 24R, SEAL BEACH VOR OTS. HAZD WX INFO FOR LAX AREA AVBL FM FSS. BIRD ACTIVITY VICINITY ARPT. TWR FREQ FOR ALL RWYS IS 120.95. CD AND GC FREQ IS 121.75. INCLUDE YOUR CALL SIGN IN ALL READBACKS. USE CAUTION WHEN EXITING RY24R AT TWY V, W, AND Y, TO HOLD SHORT OF RY24L. MULTIPLE RUNWAY INCURSIONS HAVE OCCURRED. ...ADVS YOU HAVE INFO J.",
    "KONT": "[Arrival ATIS] KONT ARR ATIS C 1253Z ONT ATIS INFO C 1253Z. 26003KT 10SM BKN170 BKN250 22/16 A2993 (TWO NINER NINER THREE). ILS AND VIS APR IN USE, RY26L & RY26R. LNDG AND DEPG RY 26L AND RY 26R. NOTAMS... TAXIWAY SIERRA FIVE CLOSED. TAXIWAY SIERRA CLOSED BETWEEN TAXIWAY SIERRA 8 AND TAXIWAY WHISKEY. RY 26L IM OTS, RY 26R ALS OTS. USE CAUTION FOR NUMEROUS BIRDS OBSERVED IN VICINITY OF ONT. HAZD WX INFO FOR SOUTHERN CA AVBL ON FSS FREQUENCIES. PILOTS READBACK RWY ASSIGNMENTS AND HOLD SHORT INSTRUCTIONS. ...ADVS YOU HAVE INFO C.\n[Departure ATIS] KONT DEP ATIS N 0553Z - KONT ATIS INFO N 0553Z. 24004KT 10SM BKN250 22/15 A2988 (TWO NINER EIGHT EIGHT) RMK AO2 SLP100. ILS AND VIS APR IN USE, RY26L & RY26R. LNDG AND DEPG RY 26L AND RY 26R. NOTAMS... TAXIWAY SIERRA CLSD BETWEEN SIERRA 8 AND W TAXIWAY Q SOUTH OF RWY 26L CLSD TAXIWAY T CLSD TAXIWAY SIERRA 5 CLSD. RY 26L IM OTS, RY 26R ALS OTS. USE CAUTION FOR NUMEROUS BIRDS OBSERVED IN VICINITY OF ONT. HAZD WX INFO FOR SOUTHERN CA AVBL ON FSS FREQUENCIES. PILOTS READBACK RWY ASSIGNMENTS AND HOLD SHORT INSTRUCTIONS. ...ADVS YOU HAVE INFO N.",
    "KSFO": "[Arrival ATIS] KSFO ARR ATIS A 1256Z SFO ATIS INFO A 1256Z. 27010KT 10SM FEW003 FEW013 BKN170 16/13 A2994 (TWO NINER NINER FOUR) RMK AO2 SLP139 T01560133. ILS RY 28R APP IN USE. DEPG RWYS 28L, 28R. DEPG ACFT SHOULD BE PREPARED FOR A SHORT NOTICE RY CHANGE. RY 1L, 1R CLSD. NUMEROUS TWY CLOSURES FOR CONSTRUCTION ON THE FIELD, PILOTS CHECK NOTAMS. DEPG ACFT WAITING ON FINAL NUMBERS ADVISE GROUND PRIOR TO ENTERING TWY F. ...ADVS YOU HAVE INFO A.\n[Departure ATIS] KSFO DEP ATIS M 2356Z SFO ATIS INFO M 2356Z. 29022KT 10SM FEW005 BKN180 BKN200 18/12 A2991 (TWO NINER NINER ONE) RMK AO2 PK WND 29026/2354 SLP129 T01780122 10189 20172 56010. SIMUL CLSLY SPCD DP",
    "KOAK": "[Arrival ATIS] KOAK ARR ATIS G 2353Z - KOAK ATIS INFO G 2353Z. 27013KT 10SM FEW009 FEW015 18/12 A3002 (THREE ZERO ZERO TWO). RNAV, AND VA, RWY 30. ILS, AND VA, RWY 28R. FLOW TO LAX, LAS, SAN, SLC, SEA. ILS RWY 30, OTS. UNN LIT CLOSE-IN OBSTACLES FOR RWY 30 DEPARTURES. RWY 30 DEPARTURES ARE ADVISED TO AVOID TURNING LEFT PRIOR TO DEPARTURE END OF RUNWAY. SIGNATURE UNI-COM OUT OF SERVICE. CTN, CRANE 1 POINT 6 NAUTICAL MILES, , AT 140 FEET AGL. CAUTION, BIRDS NEAR AIRPORT. ...ADVS YOU HAVE INFO G.\n[Departure ATIS] KOAK DEP ATIS O 1953Z OAK ATIS INFO O 1953Z. 28014KT 10SM FEW005 22/14 A2988 (TWO NINER EIGHT EIGHT). RNAV Z/VA RWY 30 ILS/VA RWY 28R. FLOW TO LAX, LAS, SAN. ILS RWY 30, OTS. UNN LIT CLOSE-IN OBSTACLES FOR RWY 30 DEPARTURES. RWY 30 DEPARTURES ARE ADVISED TO AVOID TURNING LEFT PRIOR TO DEPARTURE END OF RUNWAY. SIGNATURE UNI-COM OUT OF SERVICE. CAUTION, BIRDS NEAR AIRPORT. ...ADVS YOU HAVE INFO O.",
    "KDFW": "[Arrival ATIS] KDFW ARR ATIS A 1353Z - KDFW ARR INFO A 1353Z. 20007KT 10SM CLR 29/22 A2996 (TWO NINER NINER SIX). ILS APCH TO RWYS, 13R, 18R, 17C, 17L. LDG RWY 17C EXP LAHSO TWY B 10460 FT AVAIL, LDG RWY 18R EXP LAHSO TWY B 10100 FT AVL. NOTICE TO AIRMEN. WARNING, RWY 18L HAS BEEN SHORTENED, 9273 FT AVAILABLE. RWY 18L ILS OTS, CL OTS. BIRD ACTIVITY VCNTY ARPT. ...ADVS YOU HAVE INFO A.\n[Departure ATIS] KDFW DEP ATIS J 0253Z DFW DEP INFO J 0253Z. 17008KT 10SM FEW250 31/19 A2994 (TWO NINER NINER FOUR) RMK AO2 SLP128 T03110194 53004. SIMUL PARL TRAFFIC DEPG RWYS 17R, 18L. NOTICE TO AIRMEN. RWY 13L CLSD. RWY 13R CLSD. RWY 17L CLSD. WARNING, RWY 18L HAS BEEN SHORTENED, 9273 FT AVAILABLE. HAZD WX FOR DFW AVBL ON FSS. BIRD ACTIVITY VCNTY ARPT. ...ADVS YOU HAVE INFO J.",
    "KIAH": "[Arrival ATIS] KIAH ARR ATIS C 1153Z - KIAH ATIS INFO C 1153Z. 17003KT 7SM FEW020 SCT120 SCT250 26/25 A3010 (THREE ZERO ONE ZERO). ARRIVALS EXPECT ILS OR RNAV Y RY 26R, ILS OR RNAV Y RY 26L, ILS OR RNAV Y RY 27. SIMUL APPROACHES IN USE. DEPG RY 15L, RY 15R. NOTICE TO AIRMEN. UNITED RAMP CONTROL IN EFFECT. BIRD ACTIVITY VICINITY ARPT. CRANES ARE DOWN. TWY SA CLSD BTN TWY, SF AND TWY SK , TWY SB CLSD BTN TWY, SF AND TWY SK , , TWY EA CLSD. NOTAM ATIS IN USE ON FREQUENCY 126.225. ...ADVS YOU HAVE INFO C.\n[Departure ATIS] KIAH DEP ATIS T 0353Z IAH ATIS INFO T 0353Z. 15007KT 10SM FEW035 FEW180 BKN250 27/23 A2996 (TWO NINER NINER SIX). ARRIVALS EXPECT ILS OR RNAV Y RY 8R, ILS OR RNAV Y RY 8L. DEPG RY 15R. NOTICE TO AIRMEN. UNITED RAMP CONTROL IN EFFECT. RY 15L, 33R CLSD. HAZD WX INFO FOR IAH AREA AVBL FM FSS. BIRD ACTIVITY VICINITY ARPT. CRANES ARE DOWN. TWY SA CLSD BTN TWY, SF AND TWY SK , TWY SB CLSD BTN TWY, SF AND TWY SK , , TWY WB CLSD BTN TWY, WG AND TWY WH . TWY EA CLSD. NOTAM ATIS IN USE ON FREQUENCY 126.225. ...ADVS YOU HAVE INFO T.",
    "KORD": "[Arrival ATIS] KORD ARR ATIS O 1151Z ORD ATIS INFO O 1151Z. 27011KT 10SM FEW150 BKN250 BKN300 26/22 A2987 (TWO NINER EIGHT SEVEN). ARR EXP VECTORS ILS RWY 27C APCH, VISUAL APCH RWY 27R, VISUAL APCH RWY 28C. SIMUL APCHS IN USE. LAND AND HOLD SHORT OPERATIONS ARE IN EFFECT. RWY 27C ARR PLAN TO H/S OF TWY V V, 9 THSD 7 HND 25 FT AVBL, RWY 28C ARR PLAN TO H/S OF TWY Z, 9 THSD 6 HND TEN FT AVBL. DEPS EXP RWYS 22L 28R FROM NOVEMBER 5 9750 FT AVL. RWY 4L, 22R CLSD. RWY 22R LOC OTS, RWY 28L GS OTS, RWY 9L IM OTS, RWY 9C IM OTS, RWY 10L IM OTS, RWY 10R IM OTS, RWY 27R IM OTS, RWY 28L IM OTS, RWY 28R IM OTS, RWY 9L PAPI OTS, RWY 27R PAPI OTS. PILOTS USE CTN FOR BIRD ACTIVITY IN THE VICINITY OF THE ARPT. USE CTN FOR PERSONNEL AND EQUIP AT NUMEROUS SITES ON THE FIELD. READBACK ALL RWY HOLD SHORT INSTRUCTIONS. WHEN READY TO TAXI CONTACT GND METERING ON FREQ 121.67. ...ADVS YOU HAVE INFO O.\n[Departure ATIS] KORD DEP ATIS B 1251Z ORD ATIS INFO B 1251Z. 21005KT 6SM HZ FEW200 BKN250 22/17 A2994 (TWO NINER NINER FOUR) RMK AO2 SLP136 T02170167. ARR EXP VECTORS ILS RWY 27C APCH, ILS RWY 27R APCH, ILS RWY 28C APCH. SIMUL APCHS IN USE. LAND AND HOLD SHORT OPERATIONS ARE IN EFFECT. RWY 27C ARR PLAN TO H/S OF TWY V V, 9 THSD 7 HND 25 FT AVBL, RWY 28C ARR PLAN TO H/S OF TWY Z, 9 THSD 6 HND TEN FT AVBL. DEPS EXP RWYS 22L 28R FROM NOVEMBER 5 9750 FT AVL. RWY 4L, 22R CLSD. RWY 22R LOC OTS, RWY 28L GS OTS, RWY 9L IM OTS, RWY 9C IM OTS, RWY 10L IM OTS, RWY 10R IM OTS, RWY 27R IM OTS, RWY 28L IM OTS, RWY 28R IM OTS, RWY 9L PAPI OTS, RWY 27R PAPI OTS. PILOTS USE CTN FOR BIRD ACTIVITY IN THE VICINITY OF THE ARPT. USE CTN FOR PERSONNEL AND EQUIP AT NUMEROUS SITES ON THE FIELD. READBACK ALL RWY HOLD SHORT INSTRUCTIONS. WHEN READY TO TAXI CONTACT GND METERING ON FREQ 121.67. ...ADVS YOU HAVE INFO B.",
    "KJFK": "[Arrival ATIS] KJFK ARR ATIS F 1351Z JFK ATIS INFO F 1351Z. 09008KT 10SM SCT250 23/10 A3001 (THREE ZERO ZERO ONE). APPROACH IN USE RNAV GPS Z RY 13L. DEPG RY 13R. RWY 4R, 22L CLSD. RY 13L ALS OTS, RY 13L SFL OTS, RWY 22L/4R INNER MARKER OTS. NUM CRANES OPERATING AT JFK. BIRD ACTIVITY VICINITY ARPT. READBACK ALL RWY ASSIGNMENTS AND HOLD SHORT INSTRUCTIONS. ...ADVS YOU HAVE INFO F.\n[Departure ATIS] KJFK DEP ATIS O 2351Z - KJFK ATIS INFO O 2351Z. 35008KT 10SM FEW100 SCT180 BKN250 25/10 A2987 (TWO NINER EIGHT SEVEN). APPROACH IN USE ILS RY 31R, VISUAL APCH RY 31L. DEPG RY 31L. RY 13L SFL OTS, RWY 22L/4R INNER MARKER OTS. SWAP IN EFFECT EXPECT REROUTES. NUM CRANES OPERATING AT JFK. BIRD ACTIVITY VICINITY ARPT. READBACK ALL RWY ASSIGNMENTS AND HOLD SHORT INSTRUCTIONS. ...ADVS YOU HAVE INFO O.",
    "KIND": "[Arrival ATIS] KIND ARR ATIS H 2154Z - KIND ATIS INFO H 2154Z. 33012KT 10SM FEW060 FEW250 24/11 A3013 (THREE ZERO ONE THREE). PARL ILS RWY 5R AND 5L APPROACHES IN USE. CROSS RUNWAY OPERATIONS MAY BE IN EFFECT. NOTICE TO AIRMEN. RWY 32 GS OTS. TWY, P BTN TWY, H AND TWY B CLSD. P PAD CLSD. ILS RUNWAY 5R AND RUNWAY 5L INNER MARKER UNSERVICEABLE. RUNWAY 32 PAPI OTS. RUNWAY 32 TOUCHDOWN RVR OTS. RUNWAY 14 ROLLOUT RVR OTS. ARPT ADZY FLOCK OF MEDIUM BIRDS IN THE VICINITY OF THE AIRPORT, ALT UNKN. ...ADVS YOU HAVE INFO H.\n[Departure ATIS] KIND DEP ATIS G 0254Z IND ATIS INFO G 0254Z. 03006KT 10SM SCT060 BKN110 BKN190 OVC250 28/22 A3007 (THREE ZERO ZERO SEVEN). PARL ILS RWY 5R AND 5L APPROACHES IN USE. CROSS RUNWAY OPERATIONS MAY BE IN EFFECT. NOTICE TO AIRMEN. TWY, P BTN TWY, H AND TWY B CLSD, TWY, P BTN TWY, H AND TWY J CLSD, TWY, H BTN TWY, R AND TWY N CLSD. P PAD CLSD. ILS RUNWAY 5R AND RUNWAY 5L INNER MARKER UNSERVICEABLE. HIWAS. ARPT ADZY FLOCK OF MEDIUM BIRDS IN THE VICINITY OF THE AIRPORT, ALT UNKN. ...ADVS YOU HAVE INFO G.",
    "KDTW": "[Arrival ATIS] KDTW ARR ATIS K 1353Z DTW ARR INFO K 1353Z. 20007KT 5SM HZ SCT250 23/14 A2999 (TWO NINER NINER NINER). SIMUL ILS Z RY 22R AND RY 21L APCH IN USE. NOTICE TO AIRMEN. RWY 21R, 3L CLSD, RWY 27L, 9R CLSD, RWY 27R, 9L CLSD. TWYS Y1 CLSD ;. RY 22L ALS OTS, RWSL OUT OF SERVICE. PILOTS USE CTN FOR BIRD ACTIVITY. DEPARTURE ATIS 118.125. ...ADVS YOU HAVE INFO K.\n[Departure ATIS] KDTW DEP ATIS N 0953Z DTW DEP INFO N 0953Z. 35003KT 1SM R03R/P6000FT FU SCT000 OVC027 22/16 A3004 (THREE ZERO ZERO FOUR) RMK AO2 TWR VIS 2 SLP167 FU SCT000 T02170161. DEPG RWY 4R. . RWY 4R DEPARTURE POINT IS Y 2, DISTANCE REMAINING IS 11, THOUSAND, 450, FT, FULL LENGTH AVAIL UPON REQ ;. NOTICE TO AIRMEN. RWY 21R, 3L CLSD, RWY 27L, 9R CLSD, RWY 27R, 9L CLSD. TWYS Y1 CLSD ;. PILOTS USE CTN FOR BIRD ACTIVITY. TWR AND GC COMB ON FREQ 135.0. ...ADVS YOU HAVE INFO N.",
    "KMSP": "[Arrival ATIS] KMSP ARR ATIS B 1353Z MSP ARR INFO B 1353Z. 20009KT 10SM SCT170 SCT250 24/21 A2976 (TWO NINER SEVEN SIX) RMK AO2 SLP071 TCU DSNT S T02440206. VISUAL RWY 30L APCH IN USE, VISUAL RWY 30R APCH IN USE. FINAL APCH, OVER NOISE SENSITIVE AREA. NOTICE TO AIRMEN. TWY R7. R8. R9. R10. CLOSED. TWY R BTWN R6 AND R10 CLSD, TWY A7 CLSD, TWY A CLSD BTN TWY, A7 AND TWY D. GS RWY 12L OTS, RWYS 12R, 12L, INNER MARKER OTS. HAZD WX INFO FOR MSP AREA AVBL FM FSS. PIREP. 1222Z 45W MSP A321 MODERATE TURB FROM ONE SEVEN THOUSAND THROUGH ONE SIX THOUSAND. CTN, BIRDS NEAR MSP. READ BACK HS AND ALT. ALL ACFT TAXI WITH TRANSPONDER AND ALTITUDE ENCODING ON. ...ADVS YOU HAVE INFO B.\n[Departure ATIS] KMSP DEP ATIS T 0953Z - KMSP DEP INFO T 0953Z. 27006KT 10SM FU FEW100 BKN200 22/20 A2979 (TWO NINER SEVEN NINER) RMK AO2 PK WND 25032/0859 WSHFT 0914 RAE40 TSE17 SLP081 P0017 T02170200. DEPARTING RWY 12L, RWY 12R. NOTICE TO AIRMEN. RWYS 4, 22 CLSD. TWY R7. R8. R9. R10. CLOSED. TWY R BTWN R6 AND R10 CLSD, TWY A8. B8. B BTW A9 AND M. M BTW A AND B. TWY A7 CLSD, TWY A CLSD BTN TWY, A7 AND TWY D. ALL ACFT CTC METERING ON ONE THREE THREE POINT FIVE SEVEN WHEN READY TO PUSHBACK OR TAXI. CTN, BIRDS NEAR MSP. READ BACK HS AND ALT. ALL ACFT TAXI WITH TRANSPONDER AND ALTITUDE ENCODING ON. ...ADVS YOU HAVE INFO T.",
    "CYEG": "[Arrival ATIS] CYEG ARR ATIS M 1500Z 32006KT 4SM -SHRA BR CIG OVC005 16/16 A3012 APCH RNAV Z OR Y OR ILS RWY 02, INFORM ARRL OF REQ APCH ON INITIAL CTC. LDG AND DEP RWY 02. RSC 02 5/5/5 100 PCT WET, 100 PCT WET, 100 PCT WET. VALID JUL 20 1313 - JUL 20 2113. INFORM CYEG ATC INFO M\n[Departure ATIS] CYEG DEP ATIS L 1400Z CYEG ARR ATIS L 1400Z 30005KT 4SM -SHRA BR CIG OVC005 15/15 A3010 APCH RNAV Z OR Y OR ILS RWY 02, INFORM ARRL OF REQ APCH ON INITIAL CTC. LDG AND DEP RWY 02. RSC 02 5/5/5 100 PCT WET, 100 PCT WET, 100 PCT WET. VALID JUL 20 1313 - JUL 20 2113. INFORM CYEG ATC INFO L",
    "EHAM": "[Arrival ATIS] EHAM ARR ATIS G 0050Z EHAM ARRIVAL INFO G. DEMAND. MAIN LANDING RWY 06. TRANSITION LEVEL 040. WIND 130 DEG, 4 KT, VRB BTN 090 AND 150 DEG. CAVOK. T 21. DP 18. QNH 1018 HPA. NOSIG. OPERATIONAL REPORT. CONTACT APCH WITH CALLSIGN ONLY. END OF INFO G\n[Departure ATIS] EHAM DEP ATIS Z 1450Z EHAM DEPARTURE INFO Z. DEMAND. MAIN DEPARTURE RWY 36 L. SECONDARY DEPARTURE RWY 36 C. MAIN LANDING RWY 06. WIND 330 DEG, 6 KT, VRB BTN 290 AND 030 DEG, 14 KT MAX, 3 KT MNM. WIND SECONDARY RUNWAY 340 DEG, 11 KT, VRB BTN 310 AND 030 DEG, 18 KT MAX, 6 KT MNM. VIS 10 KM OR MORE. CLD FEW 3700 FT. T 19. DP 10. QNH 1024 HPA. OPERATIONAL REPORT. INDEPENDENT PARALLEL DEPARTURES IN PROGRESS CHECK CORRECT SID IN FMS. INFORM SCHIPHOL DEL BY VOICE IF UNABLE TO COMPLY WITH NADP 2. END OF INFO Z",
    "EBBR": "[Arrival ATIS] EBBR ARR ATIS I 1344Z EBBR NAT, EXP VECT FOR ILS APP ARR RWY25L RSCD AT 1008 RWY25L DRY. DEP RWY25R TRL 055 ILS 25R NOT AVBL. RNP RWY 25R AVBL AT ATC DISCRETION. TAIL OPS 350/12KT VRB BTN 300 AND 040 CAVOK T20 DP8 QNH 1024HPA NOSIG CFM ARR I\n[Departure ATIS] EBBR DEP ATIS P 1407Z EBBR NAT, DEP RWY25R RSCD AT 1058 RWY25R DRY. ARR RWY25L TRL 055 TWY B1 CLSD. ADV DLC IF UNA TO LINEUP VIA B3 , TORA 2760 M. TAIL OPS 310/8KT VRB BTN 290 AND 010 MNM4 MAX14 CAVOK T21 DP8 QNH 1024HPA NOSIG CFM DEP P",
    "EDDF": "[Arrival ATIS] EDDF ARR ATIS S 1320Z ARR-ATIS EDDF S METAR 201320 EXPECT INDEPENDENT PARALLEL ILS Z APCH RWY 25R OR ILS APCH RWY 25L RWY 25R 25L GLS APCH ON REQUEST , DO NOT MISTAKE TWY M FOR RWY 25C WHEN PERFORMING VISUAL APPROACH , TRL 60 34007KT 280V050 CAVOK T22 DP06 QNH1022 TREND NOSIG END OF ATIS S\n[Departure ATIS] EDDF DEP ATIS C 1420Z -DEP-ATIS EDDF C METAR 201420 - -RWY 25C 18 - -TRL 60 - -32011KT 290V360 RWY18 34008KT -CAVOK - - -T20 DP07 -QNH1022 - -TREND NOSIG",
    "EDDL": "[Arrival ATIS] EDDL ARR ATIS X 0650Z -ATIS EDDL X METAR 180650 -EXPECT VECTORS ILS APPROACH -RWY 23L - -TRL 60 -EXPECT INTENSE BIRD ACTIVITY IN THE VICINITY OF RWY SYSTEM -29007KT 260V320 -9999 - -FEW017 OVC024 -T18 DP13 -QNH1016 - -TREND NOSIG\n[Departure ATIS] EDDL DEP ATIS R EDDL ARR/DEP DATIS RPT -ATIS EDDL R METAR 020550 -EXPECT VECTORS ILS APPROACH -RWY 23L -TWY L8 CLOSED BETWEEN TWY M AND RWY 23L -TRL 60 - -23010KT -CAVOK - - -T19 DP13 -QNH1020 - -TREND NOSIG",
    "EDDK": "[Arrival ATIS] EDDK ATIS B 2320Z -ATIS EDDK B METAR 232320 -EXPECT CDO FOR ILS APCH RWY 13L -RWY 13L 06 -RWY COND RWY 13L AT TIME 1855 RWYCC 6 DEPOSIT TOTAL RWY DRY RWY 06 AT TIME 1855 RWYCC 6 DEPOSIT TOTAL RWY DRY -TRL 60 -RWY 13R AND RWY 31L CLOSED FOR DEPARTURE AND LANDING: TAXIING BTN THR RWY 13R AND INTERSECTION RWY 24 POSSIBLE : -VRB02KT -CAVOK - - -T19 DP18 -QNH1019 - -TREND NOSIG\n[Departure ATIS] EDDK DEP ATIS E 2050Z -ATIS EDDK E METAR 142050 -EXPECT CDO FOR ILS APCH RWY 31R -RWY 31R 06 -RWY COND RWY 31R AT TIME 1837 RWYCC 6 DEPOSIT TOTAL RWY DRY RWY 06 AT TIME 1837 RWYCC 6 DEPOSIT TOTAL RWY DRY -TRL 60 -RWY 13R AND RWY 31L CLOSED FOR DEPARTURE AND LANDING: TAXIING BTN THR RWY 13R AND INTERSECTION RWY 24 POSSIBLE : -02006KT 350V050 -CAVOK - - -T23 DP14 -QNH1018 - -TREND NOSIG",
    "EBLG": "[Arrival ATIS] EBLG ATIS R 1420Z EBLG INFO, EXP RNAV TO ILS APP ARR RWY04R DEP RWY04R RWY 04R DRY, RWYCC 666. TRL 055 ADZ ON GND FREQ IF UNABLE S2 010/7KT VRB BTN 350 AND 050 MNM5 MAX12 VIS ABV 10KM SCT4500FT T20 DP7 QNH 1024HPA NOSIG CFM ATIS R",
    "LSZH": "[Arrival ATIS] LSZH ARR ATIS G 1350Z ARRIVALS, EXP ILS APCH, RWY 14. TRL 70. DEP RWY 28. WIND 130 DEG, 4 KT, VRB BTN 090 AND 200 DEG. VIS 10 KM OR MORE, TDZ 10 KM OR MORE. CLD FEW 6000 FT. T 24. DP 9. QNH 1020. NOSIG.\n[Departure ATIS] LSZH DEP ATIS Z 1350Z DEP RWY 28. TRL 70. ARRIVALS, EXP ILS APCH, RWY 14. TMA S 1 IS NOT ACT. TMA S 2 AND S 3 ARE NOT ACT. WIND 140 DEG, 5 KT, VRB BTN 090 AND 200 DEG. VIS 10 KM OR MORE. CLD FEW 6000 FT. T 24. DP 9. QNH 1020. NOSIG.",
    "LIMC": "[Arrival ATIS] LIMC ARR ATIS R 1330Z LIMC ARR R 1330Z I.L.S. ZULU RWY IN USE 35R TL 70 WIND TDZ 130/7KT VRB BTN 090/AND 170/ CAVOK T30 DP15 QNH 1015HPA QFE 0989HPA\n[Departure ATIS] LIMC DEP ATIS Y 1150Z LIMC DEP Y 1150Z RWY IN USE 35L TL 70 WIND END 250/3KT VRB BTN 210/AND 320/ CAVOK T33 DP21 QNH 1018HPA QFE 0993HPA DATALINK CLEARANCE AVAILABLE.... CONTACT 1 3 1 8 8 0 TO BE RELEASED BY THE AIRPORT OPERATOR ...",
    "LIRF": "[Arrival ATIS] LIRF ARR ATIS D 0050Z LIRF ARR D 0050Z ILS W RWY IN USE 16L TL 70 WIND TDZ VRB1KT VRB BTN 220/AND 310/ CAVOK T22 DP20 QNH 1015HPA\n[Departure ATIS] LIRF DEP ATIS L 0204Z LIRF DEP L 0204Z RWY IN USE 25 TL 75 RWYS IN USE FOR ARR 16L AND 16R WIND END 140/2KT CAVOK T24 DP23 QNH 1012HPA REA IS SENT AUTOMATICALLY ONCE RLSD BY RAMP WHEN READY CONTACT FIUME RAMP 121.725",
    "EINN": "[Arrival ATIS] EINN ARR ATIS Y 1430Z EXPECT I L S CATEGORY 1 LDG RWY06 TKOF RWY06 TRL FL060 36009KT 9999 FEW025 22/12 QNH Q1030 TREND NOSIG ADVISE AT FIRST CONTACT YOU HAVE ATIS INFO Y",
    "EGLL": "[Arrival ATIS] EGLL ARR ATIS O 1456Z LANDING RWY 09L TRANSITION-LEVEL: FL 70 RUNWAY 09L REDUCED DECLARED DISTANCES IF STAND GUIDANCE IS OFF OR FAILS, REMAIN ON THE TAXIWAY CENTRELINE AND ADVISE ATC AUTO VRB10KT 9999 NCD 25/05 Q1026 ACKNOWLEDGE RECEIPT OF INFORMATION O AUTO UPDATE ENDS AT 1551\n[Departure ATIS] EGLL DEP ATIS Q 1211Z DEPARTURE RWY 09R RUNWAY 09L REDUCED DECLARED DISTANCES PILOTS THAT ARE IN RECEIPT OF DATALINK CLEARANCES ARE REMINDED THEY MUST CONTACT DELIVERY ON 121.980 WHEN READY FOR START DATALINK CLEARANCES NOT AVAILABLE FOR CPT DEPARTURES AUTO 01009KT 330V040 9999 NCD 24/05 Q1027 ACKNOWLEDGE RECEIPT OF INFORMATION Q AND REPORT AIRCRAFT TYPE AND CURRENT QNH ON FIRST CONTACT WITH HEATHROW",
    "EPWA": "[Arrival ATIS] EPWA ARR ATIS J 1001Z EPWA ARR J. TIME 1000. EXP U ARR ILS Z APCH FOR RWY 33. RWY 33 RCC 6, 6, 6. 1ST PART, DRY. 2ND PART, DRY. 3RD PART, DRY. RWY REPORT END. TRANSITION LEVEL 80. WIND 250 DEG, 10 KT, VRB BTN 210 AND 300 DEG. VIS TDZ 10 KM OR MORE. CLD SCT 3900 FT. T 19. DP 10. QNH 1015. TREND TEMPO WIND 280 DEG, 15 KT, GUSTING TO 25 KT, CLD SCT CB 4000 FT. CAUTION. BIRD ACT. END OF EPWA ARR J\n[Departure ATIS] EPWA DEP ATIS Z 1420Z EPWA DEP Z. TIME 1420. DEP RWY 29. ARR RWY 33, EXP U ARR ILS Z. REPORT READY FOR STARTUP ON DELIVERY 121 DECIMAL 605. RWY 29 RCC 5, 5, 5. 1ST PART, WET. 2ND PART, WET. 3RD PART, WET. RWY REPORT END. TRANSITION LEVEL 80. WIND 270 DEG, 17 KT GUSTING FM 13 KT TO 28 KT. VIS MID 10 KM OR MORE. WX FBL SHRA. CLD BKN CB 3700 FT. T 15. DP 11. QNH 1016. TREND TEMPO WIND 260 DEG, 20 KT, GUSTING TO 32 KT, VIS 4000 M, MOD SHRA. CAUTION. BIRD ACT. END OF EPWA DEP Z",
    "EFHK": "[Arrival ATIS] EFHK ARR ATIS T 0020Z EXPECT ILS APCH ARR RWY 15 RUNWAY 15 CONDITION REPORT AT 2204 UTC RUNWAY CONDITION CODES 6 , 6 , 6 CONTAMINANTS ALL PARTS DRY TRL 60 WIND 220 DEG 3 KT CAVOK T 14 DP 8 QNH 1015 NOSIG ACK INFO T\n[Departure ATIS] EFHK DEP ATIS S 1250Z DEP RWYS 22R AND 22L RUNWAY 22R CONDITION REPORT AT 1003 UTC RUNWAY CONDITION CODES 6 , 6 , 6 CONTAMINANTS ALL PARTS DRY RUNWAY 22L CONDITION REPORT AT 1004 UTC RUNWAY CONDITION CODES 6 , 6 , 6 CONTAMINANTS ALL PARTS DRY WIND 270 DEG 15 KT VRB BTN 230 AND 300 DEG CAVOK T 19 DP 3 QNH 1018 NOSIG ACK INFO S",
    "LTAC": "[Arrival ATIS] LTAC ARR ATIS N 0020Z EXP ILS V APCH 03C DEP RWY 03L RWY 03C WIND 030 DEG 07 KT RWY 03L WIND 030 DEG 07 KT TRL 110 CAVOK T 14 DP 10 QNH 1015 NOSIG FOR DELIVERY CTC 121.9. FOR DELIVERY FIRST USE DIGITAL DEP CLR. CTN BIRD HAZARD OVR AERODROME. APCH FREQUENCY 129.050. TAXIWAY ECHO 1 IS CLOSED. END OF ATIS N",
    "UBBB": "[Arrival ATIS] UBBB ARR ATIS L 1430Z ATIS L EXP ILS/ LDG 34 35 DEP 34 35 IN USE RWY 34 CLEAR DRY 70 RWY 35 CLEAR DRY 70 TLVL 110 WIND WIND RWY 34 020 14 KT SPD MAX 18 MIN 12 WIND RWY 35 360 14 KT SPD MAX 20 MIN 12 VIS CAVOK T 26 / DP 19 QNH 1012 HPA TREND TREND NOSIG MODERATE BIRDS ACT IN VICINITY OF AP END OF ATIS L\n[Departure ATIS] UBBB DEP ATIS C 1000Z ATIS C EXP ILS/ LDG 34 35 DEP 34 35 IN USE RWY 34 CLEAR DRY 70 RWY 35 CLEAR DRY 70 TLVL 110 WIND WIND RWY 34 360 22 KT SPD MAX 26 MIN 18 WIND RWY 35 350 20 KT SPD MAX 28 MIN 14 VIS 10 KM SCT 2000 FT RWY 34 SCT CLD TYPE NOT AVBL RWY 35 T 29 / DP 19 QNH 1012 HPA TREND TREND NOSIG MODERATE BIRDS ACT IN VICINITY OF AP END OF ATIS C",
    "ZWWW": "[Arrival ATIS] ZWWW ARR ATIS G 0000Z EXP ILSDME Z APCH LDG RWY 26R TA 3000 WIND 180/6MPS VRB BTN 160/ AND 220/ CAVOK T 24 /DP 02 QNH 1010 HPA ADZ YOU HAVE INFO G.\n[Departure ATIS] ZWWW DEP ATIS Y 1000Z DEP RWY 26L TA 3000 WIND 280/13MPS MAX18 VIS 1700M BLSA CLD SCT 1380M T 26 /DP 09 QNH 1008 HPA ADZ YOU HAVE INFO Y.",
    "ZLXY": "[Arrival ATIS] ZLXY ARR ATIS W 2300Z EXP ILS APCH LDG RWY 05L & 06L WIND 060/5MPS VIS 8000M NSC T 23 /DP 19 QNH 1008 HPA VISUAL APPROACH IN PROGRESS ADZ YOU HAVE INFO W.\n[Departure ATIS] ZLXY DEP ATIS X 0300Z DEP RWY 05L & 06L WIND 060/4MPS VIS 9999M CLD FEW 2100M T 26 /DP 18 QNH 1007 HPA VISUAL APPROACH IN PROGRESS ADZ YOU HAVE INFO X.",
    "ZBAA": "[Arrival ATIS] ZBAA ARR ATIS C 1500Z EXP ILS APCH DEPENDENT PARL INSTR APCH LDG RWY 18R & 18L & 19 WIND 130 DEG 3 MPS VIS 9999 CLD BKN 990M /FEW CB 990M T 24 /DP 23 QNH 1004 HPA SUPPLEMENT INFO /RETS RWY 18R RWYCC 5/5/5 ISSUED AT 0800 ALL PARTS WET NR 100PCT RWY 18L RWYCC 5/5/5 ISSUED AT 0800 ALL PARTS WET NR 100PCT RWY 19 RWYCC 5/5/5 ISSUED AT 0800 ALL PARTS WET NR 100PCT ADZ YOU HAVE INFO C.\n[Departure ATIS] ZBAA DEP ATIS V 2230Z DEP RWY 36L & 36R & 01 WIND 360 DEG 2 MPS CAVOK T 21 /DP 20 QNH 1008 HPA RWY INDEPENDENT PARALLEL DEP ADZ YOU HAVE INFO V.",
    "ZBHH": "[Arrival ATIS] ZBHH ARR ATIS H 0000Z EXP ILSDME APCH LDG RWY 26 TA 3000 /TRL 3600 WIND 080/2MPS VRB BTN 020/ AND 120/ CAVOK T 19 /DP 04 QNH 1014 HPA ADZ YOU HAVE INFO H.\n[Departure ATIS] ZBHH DEP ATIS Q 1500Z DEP RWY 08 TA 3000 /TRL 3600 WIND 140/2MPS VIS 5000M BR NSC T 19 /DP 19 QNH 1007 HPA ADZ YOU HAVE INFO Q.",
    "ZSQD": "[Arrival ATIS] ZSQD ARR ATIS A 0000Z EXP ILSDME APCH LDG RWY 35 TA 3000 /TRL 3600 WIND VRB/1MPS VIS 9999M CLD FEW 390M T 23 /DP 19 QNH 1008 HPA SEGREGATED OPERATION VISUAL APPROACH OPERATION IN PROGRESS. RUNWAY 35,IF MISSED APPROACH,EXPECT FOLLOW THE STANDARD MISSED APPROACH PROCEDURE,CLIMB TO 1200M ON QNH OR BY ATC CAUTION MAYBE THERE IS A FLOCK OF BIRDS IN THE VICINITY OF AIRPORT ADZ YOU HAVE INFO A.\n[Departure ATIS] ZSQD DEP ATIS A 0000Z DEP RWY 34 TA 3000 /TRL 3600 WIND VRB/1MPS VIS 9999M CLD FEW 390M T 23 /DP 19 QNH 1008 HPA SEGREGATED OPERATION VISUAL APPROACH OPERATION IN PROGRESS. RUNWAY 35,IF MISSED APPROACH,EXPECT FOLLOW THE STANDARD MISSED APPROACH PROCEDURE,CLIMB TO 1200M ON QNH OR BY ATC CAUTION MAYBE THERE IS A FLOCK OF BIRDS IN THE VICINITY OF AIRPORT ADZ YOU HAVE INFO A."
  },
  "windtemp_alaska": "\n000\nFBAK31 KWNO 201358\nFD1AK1\nDATA BASED ON 201200Z    \nVALID 201800Z   FOR USE 1400-2100Z. TEMPS NEG ABV 24000\n\nFT  3000    6000    9000   12000   18000   24000  30000  34000  39000\nADK 3120 3022+11 3126+06 3126+00 2927-13 3025-23 303638 304147 304558\nADQ 2112 2012-02 1916-06 1921-11 1731-23 1643-35 155943 165042 173442\nAKN 1716 1712-02 1709-08 1713-13 1724-25 1629-36 162842 172240 171540\nANC 1414 1624+03 1638-01 1649-05 1657-16 1657-28 156742 156851 165452\nANN 3608 9900+13 3406+09 9900+02 9900-12 2007-25 191340 191549 201558\nBET 1613 1714-01 1714-07 1611-14 1706-25 3005-36 990042 200740 180640\nBRW 1011 1308+04 1510-02 1413-07 1827-17 2040-29 217045 205652 152447\nBTI 1405 1706+07 2314+01 2418-02 2418-14 2432-27 254343 244553 242654\nBTT 1224 1524+08 1529+02 1638-04 1846-16 1749-27 185843 186052 173451\nCDB 2117 2217+00 2418-05 2621-09 2931-19 3157-28 318344 317252 313746\nCZF 1612 1609-02 1410-07 1410-13 2405-24 2712-35 292144 281040 990039\nEHM 1908 1809-03 1809-07 2307-12 3018-23 3137-34 315344 303042 291141\nFAI 1716 1720+09 1826+02 1827-03 1626-16 1536-27 153942 153652 172355\nFYU 1609 1512+11 1616+04 1620-02 1721-15 1817-26 161942 172153 172357\nGAL 2206 1712+01 1616-03 1523-08 1643-20 1682-29 660343 169350 165346\nGKN 1520 1729+07 1822+02 1622-02 1627-16 1636-27 153242 142851 163155\nHOM 1614 1618+00 1623-04 1631-09 1557-20 1682-30 149443 159749 165145\nJNU 9900 9900+11 2207+07 2208+01 1910-13 1816-25 192141 192550 192257\nLUR 0912 1017+02 1219-04 1320-10 1427-22 1437-34 153748 133343 112540\nMCG 9900 1906+00 1614-04 1521-10 1650-20 1681-30 650243 169549 164945\nMDO 1630 1633+06 1529+00 1632-04 1639-17 1743-27 164942 154851 164854\nOME 1412 1314+00 1218-06 1319-12 1325-25 1329-36 142844 142840 141838\nORT      1708+10 1515+05 1513+00 1517-15 1622-27 173043 173352 172654\nOTZ 0813 0713+01 0814-04 1017-09 1231-22 1347-34 167046 154843 142940\nSNP 1626 1816+02 2718+01 2729-03 2938-15 2842-27 284543 294250 294347\nTKA 1716 1720+03 1733-01 1647-05 1656-17 1659-29 156541 156852 175253\nUNK 1511 1411+00 1514-06 1524-12 1434-23 1550-34 157444 155242 153141\nYAK 2805 2610+05 2010+04 1716+00 1719-15 1726-27 163743 164451 173153\nIKO 2429 2630+07 2628+03 2633-02 2838-13 2938-25 294142 315351 313951\nAFM 1225 1525+03 1418-02 1329-07 1542-18 1769-29 179744 179051 174846\n5AB 2831 2725+12 2723+07 2826+01 2931-14 2931-22 304337 304546 304855\n5AC 3520 3515+12 3412+08 3510+01 2407-14 2012-26 192440 192649 192257\n5AD 2610 2217+05 2127+00 2033-05 1848-17 1857-28 186244 186451 195850\n5AE 2421 2317+00 2419-06 2522-12 2623-24 2623-37 272244 261941 241641\n5AF 2908 2309+09 2316+06 2319+00 2115-15 2020-26 183442 184250 193554\n5AG 1815 2012+04 1815+03 1819-02 1826-15 1826-27 192842 192550 183254\n",
  "vaac_tokyo": [
    {
      "id": "20260720_30027000_0272",
      "year": "2026",
      "volcano": "Sheveluch",
      "psn": "N5639 E16122",
      "issued": "20260720",
      "text": "FVFE01 RJTD 201500\nVA ADVISORY\nDTG: 20260720/1500Z\nVAAC: TOKYO\nVOLCANO: SHEVELUCH 300270\nPSN: N5639 E16122\nAREA: RUSSIA\nSOURCE ELEV: 3283M AMSL\nADVISORY NR: 2026/272\nINFO SOURCE: HIMAWARI-9\nERUPTION DETAILS: VA CONTINUOUSLY OBS IN SATELLITE IMAGERY\nOBS VA DTG: 20/1420Z\nOBS VA CLD: SFC/FL390 N5626 E16711 - N5644 E16801 - N5334 E17100 - \nN5320 E17046 - N5455 E16741 MOV SE 80KT\nFCST VA CLD +6 HR: 20/2020Z SFC/FL400 N5451 E17745 - N5237 E17715 - \nN5013 E17845 - N5030 E17644 - N5236 E17455 - N5459 E17606\nFCST VA CLD +12 HR: 21/0220Z SFC/FL400 N5255 W17530 - N4753 W17642 - \nN4554 W17523 - N4517 W17545 - N4651 W17824 - N5004 W17948\nFCST VA CLD +18 HR: 21/0820Z SFC/FL400 N5101 W17024 - N4432 W17322 - \nN4036 W16942 - N4024 W17143 - N4405 W17542 - N4722 W17530\nRMK: SOME PART OF VA OBSCURED BY MET CLOUD. THE RESPONSIBILITY FOR \nTHIS ASH EVENT IS BEING TRANSFERRED TO VAAC ANCHORAGE. THE NEXT \nADVISORY WILL BE ISSUED BY VAAC ANCHORAGE BY 1800UTC UNDER HEADER \nFVAK21 PAWU.\nNXT ADVISORY: NO FURTHER ADVISORIES=",
      "img_url": "https://ds.data.jma.go.jp/svd/vaac/data/VAGFN/2026/Images/20260720_30027000_0272_QH21_01.png",
      "sat_img_url": null,
      "text_url": "https://ds.data.jma.go.jp/svd/vaac/data/TextData/2026/20260720_30027000_0272_Text.html"
    },
    {
      "id": "20260719_27303000_0769",
      "year": "2026",
      "volcano": "Mayon",
      "psn": "N1315 E12341",
      "issued": "20260719",
      "text": "FVFE01 RJTD 192213\nVA ADVISORY\nDTG: 20260719/2213Z\nVAAC: TOKYO\nVOLCANO: MAYON 273030\nPSN: N1315 E12341\nAREA: PHILIPPINES\nSOURCE ELEV: 2462M AMSL\nADVISORY NR: 2026/769\nINFO SOURCE: HIMAWARI-9 PHIVOLCS\nERUPTION DETAILS: ERUPTION AT 20260719/2148Z FL080 EXTD W REPORTED\nOBS VA DTG: 19/2200Z\nOBS VA CLD: VA NOT IDENTIFIABLE FM SATELLITE DATA WIND FL080 010/2KT\nFCST VA CLD +6 HR: NOT AVBL\nFCST VA CLD +12 HR: NOT AVBL\nFCST VA CLD +18 HR: NOT AVBL\nRMK: WE WILL ISSUE FURTHER ADVISORY IF VA IS DETECTED IN SATELLITE \nIMAGERY.\nNXT ADVISORY: NO FURTHER ADVISORIES=",
      "img_url": "https://ds.data.jma.go.jp/svd/vaac/data/VAGFN/2026/Images/20260719_27303000_0769_QH21_01.png",
      "sat_img_url": null,
      "text_url": "https://ds.data.jma.go.jp/svd/vaac/data/TextData/2026/20260719_27303000_0769_Text.html"
    },
    {
      "id": "20260717_27307000_0014",
      "year": "2026",
      "volcano": "Taal",
      "psn": "N1400 E12100",
      "issued": "20260717",
      "text": "FVFE01 RJTD 171113\nVA ADVISORY\nDTG: 20260717/1113Z\nVAAC: TOKYO\nVOLCANO: TAAL 273070\nPSN: N1400 E12100\nAREA: PHILIPPINES\nSOURCE ELEV: 311M AMSL\nADVISORY NR: 2026/14\nINFO SOURCE: HIMAWARI-9 PHIVOLCS\nERUPTION DETAILS: ERUPTION AT 20260717/1051Z FL040 EXTD E REPORTED\nOBS VA DTG: 17/1100Z\nOBS VA CLD: VA NOT IDENTIFIABLE FM SATELLITE DATA WIND FL040 270/8KT\nFCST VA CLD +6 HR: NOT AVBL\nFCST VA CLD +12 HR: NOT AVBL\nFCST VA CLD +18 HR: NOT AVBL\nRMK: WE WILL ISSUE FURTHER ADVISORY IF VA IS DETECTED IN SATELLITE \nIMAGERY.\nNXT ADVISORY: NO FURTHER ADVISORIES=",
      "img_url": "https://ds.data.jma.go.jp/svd/vaac/data/VAGFN/2026/Images/20260717_27307000_0014_QH21_01.png",
      "sat_img_url": null,
      "text_url": "https://ds.data.jma.go.jp/svd/vaac/data/TextData/2026/20260717_27307000_0014_Text.html"
    },
    {
      "id": "20260713_28208001_0083",
      "year": "2026",
      "volcano": null,
      "psn": "N3136 E13039",
      "issued": "20260713",
      "text": "FVFE01 RJTD 130254\nVA ADVISORY\nDTG: 20260713/0254Z\nVAAC: TOKYO\nVOLCANO: SAKURAJIMA (AIRA CALDERA) 282080\nPSN: N3136 E13039\nAREA: JAPAN\nSOURCE ELEV: 1117M AMSL\nADVISORY NR: 2026/83\nINFO SOURCE: JMA HIMAWARI-9\nERUPTION DETAILS: ERUPTED AT 20260713/0152Z FL100 EXTD N\nOBS VA DTG: 13/0230Z\nOBS VA CLD: SFC/FL100 N3136 E13039 - N3142 E13040 - N3141 E13044 - \nN3134 E13042 MOV NE 15KT\nFCST VA CLD +6 HR: 13/0830Z SFC/FL100 N3234 E13121 - N3145 E13155 - \nN3202 E13110 - N3227 E13051\nFCST VA CLD +12 HR: 13/1430Z SFC/FL100 N3318 E13206 - N3142 E13317 - \nN3134 E13226 - N3312 E13118\nFCST VA CLD +18 HR: NO VA EXP\nRMK: NIL\nNXT ADVISORY: 20260713/0600Z=",
      "img_url": "https://ds.data.jma.go.jp/svd/vaac/data/VAGFN/2026/Images/20260713_28208001_0083_QH21_01.png",
      "sat_img_url": "https://ds.data.jma.go.jp/svd/vaac/data/Sat/2026/Images/28208001/09-ir/20260713_0230_202607130254_ir.png",
      "text_url": "https://ds.data.jma.go.jp/svd/vaac/data/TextData/2026/20260713_28208001_0083_Text.html"
    }
  ],
  "vaac_alaska": [
    {
      "text": "\n000\nFVAK21 PAWU 201208\nVAAAK1\nVA ADVISORY\n\nDTG: 20260720/1206Z\n\nVAAC: ANCHORAGE\n\nVOLCANO: SHEVELUCH 300270\n\nPSN: N5639 E16122\n\nAREA: KAMCHATKA PENINSULA\n\nSOURCE ELEV: 10771 FT AMSL\n\nADVISORY NR: 2026/207\n\nRMK: PLEASE SEE FVFE01 RJTD ISSUED BY VAAC TOKYO WHICH DESCRIBES\nCONDITIONS NEAR THE VAAC ANCHORAGE AREA OF RESPONSIBILITY...SC\n\n\n\n",
      "issued": "2026-07-20T12:08:00+00:00",
      "volcano": "Sheveluch",
      "psn": "N5639 E16122"
    }
  ]
}