{
  "updated_utc": "2026-06-30T17:48Z",
  "metar": {
    "RJAA": "METAR RJAA 301600Z AUTO VRB02KT 3700 R16R/1600VP2000N R16L/1000VP2000D BR OVC000 21/21 Q1011 TEMPO 0300 FG",
    "PANC": "METAR PANC 301553Z 12003KT 10SM -RA FEW023 BKN033 OVC041 08/07 A3005 RMK AO2 SLP176 P0003 T00830067",
    "PAFA": "METAR PAFA 301553Z 23008KT 10SM BKN050 BKN075 11/06 A3000 RMK AO2 SLP162 T01060061 $",
    "PAED": "METAR PAED 301555Z 08004KT 10SM -RA FEW020 SCT029 BKN040 OVC055 08/06 A3004 RMK AO2A SLP169 P0000 T00820058 $",
    "KSEA": "METAR KSEA 301553Z 22009KT 10SM -RA BKN005 BKN015 OVC020 12/10 A3006 RMK AO2 SLP185 P0000 T01220100 $",
    "ZSPD": "METAR ZSPD 301600Z 23003MPS 190V260 CAVOK 26/26 Q1006 NOSIG",
    "ZSSS": "METAR ZSSS 301600Z 25003MPS 9999 BKN026 25/24 Q1006 NOSIG",
    "RJFR": "METAR RJFR 301600Z AUTO 05008KT 9999 BKN009 OVC040 24/22 Q1010",
    "VHHH": "METAR VHHH 301600Z 10006KT 9999 FEW012 29/25 Q1009 NOSIG",
    "RCTP": "METAR RCTP 301600Z 15005KT 9999 FEW020 BKN080 30/25 Q1010 NOSIG RMK A2984",
    "ZGSZ": "METAR ZGSZ 301600Z 10004MPS CAVOK 29/25 Q1009 NOSIG",
    "WSSS": "METAR WSSS 301600Z 16006KT 9999 SCT016 BKN270 27/25 Q1011 NOSIG",
    "WMKK": "METAR WMKK 301600Z 05003KT 360V110 9999 FEW030 28/25 Q1010 NOSIG",
    "WIDD": "METAR WIDD 301600Z 21003KT 9999 FEW014 26/24 Q1011 NOSIG",
    "VTBS": "METAR VTBS 301600Z 19007KT 9999 FEW020 30/25 Q1008 NOSIG",
    "VTBU": "METAR VTBU 301600Z 20009KT 9999 -RA FEW020 SCT100 27/27 Q1009 NOSIG",
    "ROAH": "METAR ROAH 301600Z AUTO 17008KT 9999 NCD 27/26 Q1012",
    "VVDN": "METAR VVDN 301600Z 26002KT 9999 FEW020TCU SCT050 30/27 Q1007 NOSIG",
    "RCKH": "METAR RCKH 301600Z VRB01KT 9999 FEW014 SCT022 30/25 Q1010 NOSIG RMK A2983",
    "KLAX": "METAR KLAX 301553Z 26008KT 10SM FEW009 BKN016 BKN032 19/14 A2996 RMK AO2 SLP143 T01940139 $",
    "KONT": "METAR KONT 301553Z 28004KT 9SM FEW027 OVC034 18/12 A2996 RMK AO2 SLP136 T01780122 $",
    "KSFO": "METAR KSFO 301556Z 14006KT 10SM FEW006 16/11 A2991 RMK AO2 SLP129 T01610111",
    "KOAK": "METAR KOAK 301553Z 18005KT 10SM BKN015 16/12 A2992 RMK AO2 SLP132 T01610122",
    "KMHR": "METAR KMHR 301555Z AUTO 22003KT 9SM CLR 21/11 A2984 RMK AO2 T02060110 $",
    "KDFW": "METAR KDFW 301553Z 18014KT 10SM FEW023 31/21 A3002 RMK AO2 SLP154 T03060211 $",
    "KIAH": "METAR KIAH 301553Z 14007KT 10SM SCT035 31/23 A3006 RMK AO2 SLP177 T03060233",
    "KORD": "METAR KORD 301551Z 22011G18KT 10SM FEW028 BKN300 31/24 A2994 RMK AO2 SLP130 T03060239",
    "KJFK": "METAR KJFK 301551Z 20009KT 10SM FEW047 FEW090 BKN250 28/19 A3012 RMK SLP198 T02830189 $",
    "KRFD": "METAR KRFD 301554Z 23008KT 10SM SCT028 BKN230 30/24 A2994 RMK AO2 SLP132 T03000244",
    "KIND": "METAR KIND 301554Z 23005KT 10SM FEW022 BKN300 29/24 A3006 RMK AO2 SLP173 T02940239",
    "KDTW": "METAR KDTW 301553Z 22010KT 10SM SCT025 BKN035 BKN250 30/24 A2998 RMK AO2 SLP145 T03000239",
    "KMSP": "METAR KMSP 301553Z 23012G24KT 10SM FEW050 SCT250 29/17 A2976 RMK AO2 PK WND 24029/1521 SLP068 CB DSNT SE TCU DSNT S T02890172",
    "CYEG": "METAR CYEG 301600Z 01003KT 290V030 15SM FEW020 SCT250 18/13 A2977 RMK CU1CI4 CU TR SLP083 DENSITY ALT 3500FT",
    "EHAM": "METAR EHAM 301555Z 30004KT 280V350 9999 FEW021 21/13 Q1021 NOSIG",
    "EBBR": "METAR EBBR 301550Z VRB01KT 9999 FEW034 23/14 Q1022 NOSIG",
    "EDDF": "METAR EDDF 301550Z AUTO VRB05KT CAVOK 32/13 Q1017 NOSIG",
    "EDFH": "METAR EDFH 301550Z VRB03KT CAVOK 26/13 Q1020",
    "EDDL": "METAR EDDL 301550Z AUTO 33010KT CAVOK 25/14 Q1020 NOSIG",
    "EDDK": "METAR EDDK 301550Z AUTO 36011KT CAVOK 24/17 Q1020 NOSIG",
    "EBLG": "METAR EBLG 301550Z 34007KT CAVOK 23/14 Q1022 NOSIG",
    "LSZH": "METAR LSZH 301550Z VRB01KT 9999 FEW064 FEW068TCU 31/15 Q1018 NOSIG",
    "LIMC": "METAR LIMC 301550Z 15008KT 120V180 9999 -SHRA SCT065TCU SCT070 32/15 Q1017 RETS NOSIG",
    "LIRF": "METAR LIRF 301550Z 27011KT 240V300 CAVOK 31/22 Q1014 NOSIG",
    "EINN": "METAR EINN 301600Z 28015KT 9999 FEW016 BKN021 17/12 Q1021 NOSIG",
    "EGLL": "METAR EGLL 301550Z AUTO 24013KT 190V260 9999 NCD 23/09 Q1020",
    "EGSS": "METAR EGSS 301550Z AUTO 21008KT 180V250 9999 NCD 24/10 Q1020",
    "EPWA": "METAR EPWA 301600Z 03008KT 330V080 CAVOK 31/16 Q1019 NOSIG",
    "UHPP": "METAR UHPP 301600Z 10002MPS 9999 BKN072 09/09 Q1010 R16R/290262 NOSIG RMK QFE754/1006",
    "EFHK": "METAR EFHK 301550Z 35007KT CAVOK 25/12 Q1017 NOSIG",
    "LBBG": "METAR LBBG 301600Z AUTO 11008KT 9999 NCD 28/16 Q1013 NOSIG",
    "LTAC": "METAR LTAC 301550Z 08010KT 9999 FEW040 31/09 Q1015 NOSIG RMK RWY21C 08009KT RWY03L 08009KT RWY21R 06010KT 030V090 RWY03R 07008KT 030V090 RWY21L 06008KT 030V090",
    "UBBB": "METAR UBBB 301600Z 02012KT 9999 FEW054CB 24/16 Q1012 NOSIG",
    "UTAA": "METAR UTAA 301600Z 32006KT 9999 FEW050 BKN100 30/09 Q1010 R88/CLRD70 NOSIG",
    "UACC": "METAR UACC 301600Z 08004MPS 9999 SCT046 18/13 Q1005 NOSIG RMK QFE723/0964",
    "UAAA": "METAR UAAA 301600Z 11002MPS 060V140 9999 BKN050CB OVC100 28/10 Q1007 NOSIG",
    "UZTT": "METAR UZTT 301600Z 19006KT 150V210 9999 FEW066CB 24/17 Q1009 NOSIG RMK FLASHES",
    "ZWWW": "METAR ZWWW 301600Z 20002MPS CAVOK 32/10 Q1007 NOSIG",
    "ZLXY": "METAR ZLXY 301600Z 06005MPS CAVOK 25/16 Q1008 NOSIG",
    "ZBAA": "METAR ZBAA 301600Z VRB01MPS 9999 FEW050CB 22/22 Q1007 NOSIG",
    "ZBHH": "METAR ZBHH 301600Z 02003MPS 9999 FEW040 FEW040CB 18/15 Q1012 BECMG TL1630 -TSRA",
    "ZSQD": "METAR ZSQD 301600Z 30002MPS 9999 FEW019 23/22 Q1008 NOSIG",
    "ZMCK": "METAR ZMCK 301600Z VRB01MPS 9999 SCT033 19/12 Q1014 NOSIG RMK QFE645.2 64 NT",
    "UUEE": "METAR UUEE 301600Z 28005MPS 240V320 9999 SCT044 25/15 Q1015 R24L/CLRD62 R24C/CLRD62 NOSIG",
    "UUDD": "METAR UUDD 301600Z 31005MPS CAVOK 25/14 Q1015 R31L/CLRD65 NOSIG",
    "ULLI": "METAR ULLI 301600Z 29006MPS 9999 FEW046 24/17 Q1015 R88/090065 NOSIG",
    "USSS": "METAR USSS 301600Z 34003MPS CAVOK 16/15 Q1004 R08R/CLRD60 R08L/CLRD60 NOSIG RMK QFE733/0977",
    "UNNT": "METAR UNNT 301600Z 29002MPS CAVOK 19/13 Q1008 R25/CLRD// R34/////// NOSIG RMK QFE746/0994",
    "UNKL": "METAR UNKL 301600Z 00000MPS 9999 TS SCT043CB 18/18 Q1007 R29/CLRD// TEMPO -TSRA RMK QFE730",
    "UIBB": "METAR UIBB 301600Z AUTO 00000MPS 9000 // ///082/// 15/15 Q1006 RMK QFE712/0949",
    "UEEE": "METAR UEEE 301600Z 08001MPS 9999 SCT050CB 19/15 Q1006 R23/09//67 NOSIG RMK QFE746",
    "UHHH": "METAR UHHH 301600Z 02006MPS 9000 -SHRA FEW003 SCT033CB 14/14 Q1012 R05L/290045 NOSIG RMK QBB110 QFE753/1004",
    "UHSS": "METAR UHSS 301600Z 36007MPS 9999 -SHRA BKN004 BKN028CB 11/10 Q1012 RMK MT OBSC QFE758/1011"
  },
  "taf": {
    "RJAA": "TAF RJAA 301705Z 3018/0200 05004KT 6000 FEW005 BKN012 TEMPO 3018/3022 0300 FG VV001 TEMPO 3022/0100 3000 BR FEW001 BKN003 BECMG 0104/0106 14006KT TEMPO 0115/0200 2000 RA BR FEW001 BKN003",
    "PANC": "TAF PANC 301740Z 3018/0124 06004KT P6SM -RA FEW018 BKN030 OVC045 TEMPO 3018/3020 6SM -RA BR BKN018 FM302000 31005KT P6SM -SHRA SCT030 BKN050 TEMPO 3020/3024 BKN030 FM010000 27007KT P6SM VCSH SCT040 BKN070 FM010800 20005KT P6SM FEW040 BKN100",
    "PAFA": "TAF PAFA 301738Z 3018/0124 25008KT P6SM SCT050 BKN070 FM012100 00000KT P6SM BKN050",
    "PAED": "TAF PAED 301300Z 3013/0119 VRB06KT 9999 -RA SCT030 BKN040 OVC055 650605 QNH3003INS BECMG 3023/3024 33005KT 9999 NSW SCT055 BKN080 QNH3001INS BECMG 0107/0108 12005KT 9999 SCT050 QNH2995INS TX14/0101Z TN09/3014Z",
    "KSEA": "TAF KSEA 301720Z 3018/0124 21008KT P6SM OVC020 FM302200 21008KT P6SM BKN035 FM010300 22005KT P6SM SCT030 BKN050 FM011000 19007KT P6SM BKN025 FM011500 20008KT P6SM SCT008 OVC015",
    "ZSPD": "TAF ZSPD 301507Z 3018/0124 24004MPS 6000 -SHRA BKN015 TX26/0106Z TN22/3021Z TN22/0121Z TEMPO 3022/0104 TSRA BKN008 SCT030CB",
    "ZSSS": "TAF ZSSS 301507Z 3018/0124 24004MPS 6000 -SHRA BKN020 TX26/0106Z TN22/3021Z TN22/0121Z TEMPO 3021/0103 TSRA BKN008 SCT030CB",
    "RJFR": "TAF RJFR 301705Z 3018/0200 07006KT 6000 -SHRA FEW005 SCT007 BKN012 TEMPO 3018/0100 3000 SHRA BR BKN005 BKN007 BECMG 3019/3021 13012KT TEMPO 0100/0103 2000 TSRA BR BKN005 BKN007 FEW012CB TEMPO 0103/0115 3000 TSRA BR FEW007 SCT009 BKN012 FEW012CB BECMG 0112/0115 30010KT TEMPO 0115/0121 FEW004 BKN005",
    "VHHH": "TAF VHHH 301700Z 3018/0124 12010KT 9999 FEW015 TX34/0106Z TN28/3022Z TN29/0122Z TEMPO 0103/0109 24010KT",
    "RCTP": "TAF RCTP 301700Z 3018/0124 13005KT 9999 FEW015 BKN032 TEMPO 3018/3024 18005KT BECMG 0100/0102 33005KT TEMPO 0105/0110 36010KT FEW010 BKN020 BECMG 0112/0114 15005KT",
    "ZGSZ": "TAF ZGSZ 301509Z 3018/0124 11004MPS 8000 FEW040 TX32/0106Z TN28/3022Z TN28/0122Z BECMG 0103/0104 19005MPS BECMG 0111/0112 12004MPS",
    "WSSS": "TAF WSSS 301700Z 3018/0200 17006KT 9999 FEW015 SCT020",
    "WMKK": "TAF WMKK 301700Z 3018/0200 VRB03KT 9999 FEW030",
    "VTBS": "TAF VTBS 301700Z 3018/0124 24008KT 9999 FEW020 TEMPO 0110/0114 VRB10G25KT 4000 TSRA FEW018CB SCT030 BKN100",
    "VTBU": "TAF VTBU 301700Z 3018/0118 36004KT 9000 FEW020 SCT100 BECMG 0100/0102 23008KT",
    "ROAH": "TAF ROAH 301705Z 3018/0200 17010KT 9999 FEW008 SCT012 TEMPO 3018/3021 FEW005 BKN008 TEMPO 0115/0200 FEW005 BKN008",
    "VVDN": "TAF VVDN 301700Z 3018/0118 24006KT 9999 FEW017 BECMG 0103/0104 09010KT TEMPO 0108/0112 26015G27KT 4000 TSRA BKN012 FEW017CB BKN050 BECMG 0113/0114 23007KT",
    "RCKH": "TAF RCKH 301700Z 3018/0124 09005KT 9999 FEW015 BKN032 BECMG 0100/0102 30005KT TEMPO 0105/0110 27010KT FEW010 BKN020 BECMG 0112/0114 06005KT",
    "KLAX": "TAF KLAX 301742Z 3018/0124 27012KT P6SM FEW020 SCT035 FM010300 26008KT P6SM BKN022 FM010700 24005KT P6SM OVC015 FM011700 25010KT P6SM BKN025",
    "KONT": "TAF KONT 301728Z 3018/0124 VRB04KT P6SM BKN030 FM301900 24007KT P6SM FEW030 FM302100 25012G20KT P6SM SKC FM010400 26008KT P6SM FEW020 FM011000 VRB04KT P6SM OVC018 FM011700 VRB04KT P6SM SCT025 FM012100 25011KT P6SM SKC",
    "KSFO": "TAF KSFO 301739Z 3018/0124 28007KT P6SM FEW012 FM302000 27016G25KT P6SM SKC FM010400 26010KT P6SM FEW010 FM011000 24007KT P6SM BKN010 FM011600 25008KT P6SM FEW010 FM012000 27013KT P6SM SKC",
    "KOAK": "TAF KOAK 301739Z 3018/0124 26009KT P6SM FEW015 FM302100 28015G20KT P6SM SKC FM010400 26011KT P6SM FEW010 FM010800 24010KT P6SM BKN010 FM011800 27011KT P6SM FEW010",
    "KMHR": "TAF KMHR 301720Z 3018/0118 23005KT P6SM SKC FM302100 22011KT P6SM SKC FM010500 16007KT P6SM FEW250",
    "KDFW": "TAF KDFW 301729Z 3018/0124 18013G23KT P6SM FEW030 FM010300 16010KT P6SM FEW040 FM011400 18015KT P6SM FEW040",
    "KIAH": "TAF KIAH 301720Z 3018/0124 14012KT P6SM SCT040 SCT050 FM010200 15008KT P6SM FEW025 FEW250 FM011000 VRB03KT P6SM FEW012 SCT020 FM011400 16005KT P6SM SCT025 SCT035 FM011800 15009KT P6SM SCT035 SCT050",
    "KORD": "TAF KORD 301720Z 3018/0124 23012G22KT P6SM BKN035 FM302100 22017G27KT P6SM SCT040 BKN250 FM010130 22011G17KT P6SM SKC FM011200 22012G20KT P6SM SCT020 FM011800 22014G24KT P6SM SCT040",
    "KJFK": "TAF KJFK 301723Z 3018/0124 18014KT P6SM SCT070 SCT250 FM302000 18018G24KT P6SM BKN070 BKN250 FM010000 21015KT P6SM VCSH BKN070 BKN250 FM010500 22010KT P6SM BKN250 FM011600 19014KT P6SM FEW070 SCT250 FM011900 18017G23KT P6SM SCT070 SCT250",
    "KRFD": "TAF KRFD 301720Z 3018/0118 23012G22KT P6SM BKN035 FM302100 22017G27KT P6SM SCT040 BKN250 FM010130 20010KT P6SM SKC FM011200 22011G17KT P6SM SCT020",
    "KIND": "TAF KIND 301727Z 3018/0124 22008KT P6SM FEW030 FEW210 FM010100 21006KT P6SM FEW250 FM011800 22007KT P6SM SKC",
    "KDTW": "TAF KDTW 301740Z 3018/0124 22013G21KT P6SM SCT040 FM010100 23006KT P6SM FEW015 FM011600 24010G19KT P6SM SCT060",
    "KMSP": "TAF KMSP 301720Z 3018/0124 23014G22KT P6SM FEW050 FEW250 FM010100 23006KT P6SM FEW250 FM010800 18006KT P6SM SCT200 PROB30 0112/0115 3SM -TSRA OVC050CB FM011800 20010G19KT P6SM BKN050",
    "CYEG": "TAF CYEG 301740Z 3018/0118 04008KT P6SM SCT040 TEMPO 3018/3019 5SM FU FM301900 04008KT P6SM BKN050 TEMPO 3019/0102 VRB20G30KT 5SM VCTS FU BKN040CB FM010200 07008KT P6SM BKN060 TEMPO 0102/0105 P6SM -SHRA FM010500 18005KT P6SM SCT060 FM011000 24005KT P6SM SCT008 BKN030 RMK NXT FCST BY 302100Z",
    "EHAM": "TAF EHAM 301700Z 3018/0124 VRB02KT CAVOK BECMG 0107/0110 31011KT BECMG 0118/0121 23005KT",
    "EBBR": "TAF EBBR 301704Z 3018/0124 34007KT 9999 FEW040",
    "EDDF": "TAF EDDF 301700Z 3018/0124 34008KT CAVOK PROB40 TEMPO 3023/0104 30020G30KT 2500 +TSRA FEW020 BKN040CB",
    "EDFH": "TAF EDFH 301700Z 3018/0118 01005KT CAVOK BECMG 0101/0103 31006KT",
    "EDDL": "TAF EDDL 301700Z 3018/0124 34009KT CAVOK BECMG 3020/3023 VRB03KT BECMG 0107/0110 30009KT BECMG 0119/0121 VRB03KT",
    "EDDK": "TAF EDDK 301700Z 3018/0124 34010KT CAVOK BECMG 3021/3024 31004KT BECMG 0107/0110 31009KT BECMG 0119/0121 VRB03KT",
    "EBLG": "TAF EBLG 301704Z 3018/0124 35005KT 9999 FEW035",
    "LSZH": "TAF LSZH 301725Z 3018/0124 31009KT 9999 FEW060TCU TX24/0114Z TN15/0124Z BECMG 3018/3020 31005KT 9999 FEW060 PROB40 TEMPO 3018/3024 25015G30KT 4000 TSRA SCT040CB TEMPO 0100/0115 SHRA FEW040TCU PROB40 TEMPO 0102/0115 29012G25KT 4000 TSRA SCT040CB PROB30 TEMPO 0102/0114 16015G30KT 2000 +TSRA BKN014CB PROB30 TEMPO 0115/0119 SHRA FEW040CB",
    "LIMC": "TAF LIMC 301700Z 3018/0124 VRB05KT 9999 SCT050 BECMG 0110/0112 36012KT TEMPO 0111/0115 35020G30KT 4000 TSRA BKN010",
    "LIRF": "TAF LIRF 301700Z 3018/0124 30011KT CAVOK BECMG 3018/3019 VRB05KT BECMG 0108/0110 27010KT",
    "EINN": "TAF EINN 301700Z 3018/0118 28013KT 9999 BKN017 PROB30 TEMPO 3018/3019 31015G25KT BECMG 0106/0108 20010KT BECMG 0114/0116 23015G26KT BKN010",
    "EGLL": "TAF EGLL 301657Z 3018/0124 26008KT 9999 SCT030 PROB40 TEMPO 3018/3024 7000 SHRA PROB30 TEMPO 0101/0107 BKN012",
    "EGSS": "TAF EGSS 301656Z 3018/0124 24008KT 9999 SCT040 PROB30 TEMPO 3019/3024 7000 SHRA PROB30 TEMPO 0103/0107 7000 BKN010",
    "EPWA": "TAF EPWA 301730Z 3018/0118 05010KT CAVOK BECMG 3022/0101 11010KT PROB40 TEMPO 0103/0106 VRB17G30KT 2000 TSRA SCT005 BKN050CB BECMG 0105/0107 VRB02KT BECMG 0110/0113 28012KT PROB30 TEMPO 0113/0118 VRB17G30KT 2000 TSRAGR BKN050CB",
    "UHPP": "TAF UHPP 301640Z 3018/0124 18003G12MPS 9999 BKN020CB TEMPO 3018/3022 0700 FG VV002",
    "EFHK": "TAF EFHK 301728Z 3018/0118 34006KT CAVOK BECMG 0105/0107 10010KT PROB30 TEMPO 0112/0118 FEW050TCU",
    "LBBG": "TAF LBBG 301700Z 3018/0118 VRB03KT CAVOK BECMG 0108/0110 11010KT",
    "LTAC": "TAF LTAC 301640Z 3018/0118 VRB02KT CAVOK BECMG 0108/0110 FEW040 BECMG 0113/0115 CAVOK",
    "UBBB": "TAF UBBB 301716Z 3018/0118 33006KT 9999 FEW060CB TX29/0110Z TN19/0101Z TEMPO 3018/3022 01010KT TEMPO 3022/0105 28006KT -SHRA SCT030CB BKN030 PROB40 TEMPO 3022/0105 TS SCT030CB BECMG 0106/0108 34016G26KT SCT025",
    "UTAA": "TAF UTAA 301645Z 3018/0118 35016KT 6000 SCT050CB SCT050 TEMPO 3018/3022 28014KT TEMPO 3022/0108 30018G28KT 4000 DRDU TEMPO 0110/0116 03014KT",
    "UACC": "TAF UACC 301701Z 3018/0118 12005MPS 9999 SCT030CB BKN060 TX28/0110Z TN15/3023Z TEMPO 3018/3019 06005MPS BKN030CB TEMPO 3019/0106 17009MPS 3100 -TSRA BKN030CB BECMG 0106/0108 22006MPS SCT030 BKN100 TEMPO 0106/0116 24011MPS SCT030CB",
    "UAAA": "TAF UAAA 301704Z 3018/0118 25003G08MPS 9999 BKN040CB OVC100 TX27/0110Z TN20/0101Z TEMPO 3018/0105 19008G15MPS 2200 TSRA BR BECMG 0105/0106 04003G08MPS TEMPO 0105/0114 12003G08MPS 3100 -TSRA BECMG 0114/0115 22003G08MPS",
    "UZTT": "TAF UZTT 301700Z 3018/0118 20010KT 7000 FEW060CB TEMPO 3018/3024 VRB12G22KT -TSRA BKN050CB",
    "ZWWW": "TAF ZWWW 301503Z 3018/0124 18004MPS CAVOK TX40/0109Z TN27/3023Z TN29/0123Z BECMG 0102/0103 36004MPS BECMG 0114/0115 18004MPS",
    "ZLXY": "TAF ZLXY 301503Z 3018/0118 06004MPS 6000 NSC TX35/0108Z TN22/3021Z",
    "ZBAA": "TAF ZBAA 301505Z 3018/0124 15004MPS CAVOK TX30/0107Z TN21/3021Z TN21/0121Z",
    "ZBHH": "TAF ZBHH 301503Z 3018/0118 36004MPS 9999 FEW040 TX31/0108Z TN14/3022Z BECMG 0107/0108 -TSRA SCT040 SCT040CB TEMPO 0108/0111 VRB09G15MPS TSRA BECMG 0111/0112 NSW NSC",
    "ZSQD": "TAF ZSQD 301502Z 3018/0118 16004MPS 6000 NSC TX29/0106Z TN21/3021Z TEMPO 0108/0112 TSRA BKN020 FEW030CB",
    "ZMCK": "TAF ZMCK 301630Z 3018/0124 VRB02MPS 9999 FEW030CB SCT033 TN12/3021Z TX29/0107Z",
    "UUEE": "TAF UUEE 301656Z 3018/0118 29003G08MPS 9999 SCT040 TX28/0113Z TN17/0101Z BECMG 0105/0107 35005MPS TEMPO 0109/0118 33008G13MPS",
    "UUDD": "TAF UUDD 301652Z 3018/0124 33003MPS 9999 SCT040 TX29/0112Z TN15/0101Z TEMPO 0108/0116 35008G13MPS",
    "ULLI": "TAF ULLI 301656Z 3018/0118 29006G12MPS 6000 BKN016 BECMG 3019/3021 35003MPS",
    "USSS": "TAF USSS 301652Z 3018/0118 34003MPS 6000 SCT016 TEMPO 3018/0103 0300 FG VV002 FM010300 28003G12MPS 9999 BKN033CB TEMPO 0106/0118 -TSRA BKN016CB BECMG 0112/0114 34003G13MPS",
    "UNNT": "TAF UNNT 301700Z 3018/0118 26003G08MPS 8000 SCT040 TX30/0109Z TN16/3022Z",
    "UNKL": "TAF AMD UNKL 301705Z 3017/0118 25003MPS 8000 -TSRA SCT040CB BECMG 3019/3021 NSW TEMPO 3021/3024 0300 FG BKN002 BKN020CB TEMPO 0102/0112 28008G16MPS -TSRA",
    "UIBB": "TAF UIBB 301700Z 3018/0118 26003MPS 0300 SHRA FG BKN001 BKN011CB TEMPO 3018/3024 4000 -SHRA BR FEW001 SCT011CB BECMG 0100/0101 6000 -SHRA BKN013CB TEMPO 0101/0115 VRB10MPS -TSRA",
    "UEEE": "TAF UEEE 301700Z 3018/0124 14003G08MPS 9999 SCT030CB OVC070 TX33/0107Z TN18/3018Z TEMPO 3018/0106 VRB19MPS 1000 TSRA SQ VV004",
    "UHHH": "TAF UHHH 301700Z 3018/0124 04005MPS 6000 -SHRA FEW010 SCT016CB TX25/0107Z TN15/3018Z TEMPO 3018/3024 05010MPS SCT003 BKN016CB",
    "UHSS": "TAF UHSS 301650Z 3018/0124 36006MPS 1400 BR BKN003 BKN030CB BECMG 3022/3023 NSW SCT030 BECMG 3023/0102 19003MPS"
  },
  "atis": {
    "RJAA": "[Arrival ATIS] RJAA ARR ATIS Z 0756Z M0730 (APCH)ILS Y RWY16L LDG RWY 16L DEP RWY 16R DEP FREQ 124.2. TWY A1 CLSD. M 170730Z 16011KT 35KM FEW030CU BKN/// 23/17 Q1016/A3003= Q/THREE ZERO ZERO THREE STP\n[Departure ATIS] RJAA DEP ATIS Z 0750Z M0730 (APCH)ILS Y RWY16L LDG RWY 16L DEP RWY 16R DEP FREQ 124.2. TWY A1 CLSD. M 170730Z 16011KT 35KM FEW030CU BKN/// 23/17 Q1016/A3003= Q/THREE ZERO ZERO THREE STP",
    "PANC": "[Arrival ATIS] PANC ARR ATIS I 0753Z ANC ATIS INFO I 0753Z. 18005KT 10SM FEW060 BKN110 14/07 A3011 (THREE ZERO ONE ONE). 7R APPROACHES IN USE. LANDING RWY 7R, DEPARTING RWY 33. NOTICE TO AIRMEN. RWY 7L CLSD. CHECK NOTAMS FOR TAXIWAY CLOSURES. CONTACT TOWER 118.3 FOR TAXI. ...ADVS YOU HAVE INFO I.\n[Departure ATIS] PANC DEP ATIS G 1353Z ANC ATIS INFO G 1353Z. 14012G28KT 10SM SCT060 BKN110 12/09 A3010 (THREE ZERO ONE ZERO) RMK AO2 PK WND 15028/1351 SLP195 T01220089. ILS RWY 15 APPROACHES IN USE. LANDING RWY 15, DEPARTING RWY 25L. NOTICE TO AIRMEN. TWY Q CLSD. TWY K BTWN A AND D RESTRICTED TO AIRCRAFT WITH WINGSPAN LESS THAN 118 FEET. CONTACT TOWER 118.3 FOR TAXI. ...ADVS YOU HAVE INFO G.",
    "KSEA": "[Arrival ATIS] KSEA ARR ATIS L 1653Z SEA ATIS INFO L 1653Z. 20009KT 10SM FEW007 BKN017 OVC025 13/09 A3006 (THREE ZERO ZERO SIX). ILS, RYS 16R AND 16L , APCH IN USE. DEPG RWY 16L, DEPG ACFT PLAN AND BRIEF NUMBERS FOR BOTH RWYS 16L AND 16C. SIMUL APCHS IN USE, BFI & SEA. TRAFFIC BELOW YOU ON FINAL. SIMUL APCHS IN USE TO PARA RYS. NOTAMS... BIRD ACTIVITY VICINITY ARPT. ...ADVS YOU HAVE INFO L.\n[Departure ATIS] KSEA DEP ATIS L 1653Z - KSEA ATIS INFO L 1653Z. 20009KT 10SM FEW007 BKN017 OVC025 13/09 A3006 (THREE ZERO ZERO SIX). ILS, RYS 16R AND 16L , APCH IN USE. DEPG RWY 16L, DEPG ACFT PLAN AND BRIEF NU",
    "ZSPD": "[Arrival ATIS] ZSPD ARR ATIS F 1630Z EXP ILS APCH LDG RWY 17R & 16L WIND RWY 17R TDZ 270/2MPS MID 260/2MPS END 250/2MPS RWY 16L TDZ 270/4MPS MID 250/3MPS END 250/3MPS CAVOK T 26 /DP 25 QNH 1006 HPA CAUTION THE BIRDS NEAR THE RUNWAY RWY 17L/17R/16L/16R RWYCC 5/5/5 ISSUED AT 1500 WET/WET/WET DPT NR/NR/NR COV 100PCT/100PCT/100PCT. ADZ YOU HAVE INFO F.\n[Departure ATIS] ZSPD DEP ATIS D 0730Z DEP RWY 17L & 16R WIND RWY 17L TDZ 110/3MPS MID 090/3MPS VRB BTN 070/ AND 140/ END 110/4MPS RWY 16R TDZ 120/4MPS MID 130/3MPS END 140/3MPS VIS RWY 17L TDZ 8000M MID 8000M END 8000M VIS RWY 16R TDZ 8000M MID 7000M END 8000M CLD BKN 900M T 28 /DP 23 QNH 1007 HPA CAUTION THE BIRDS NEAR THE RUNWAY ADZ YOU HAVE INFO D.",
    "ZSSS": "[Arrival ATIS] ZSSS ARR ATIS W 0730Z EXP ILS APCH LDG RWY 18L WIND RWY 18L TDZ 070/3MPS MID 080/3MPS END 100/3MPS VIS RWY 18L TDZ 10000M MID 10000M END 10000M CLD OVC 1290M T 29 /DP 22 QNH 1007 HPA VISUAL APCH IN USE QNH OF SHANGHAI TERMINAL CONTROL AREA 1007 HPA ADZ YOU HAVE INFO W.\n[Departure ATIS] ZSSS DEP ATIS W 0730Z DEP RWY 18R WIND RWY 18R TDZ 060/3MPS MID 070/3MPS END 090/3MPS VIS RWY 18R TDZ 10000M MID 10000M END 9000M CLD OVC 1290M T 29 /DP 22 QNH 1007 HPA VISUAL APCH IN USE QNH OF SHANGHAI TERMINAL CONTROL AREA 1007 HPA ADZ YOU HAVE INFO W.",
    "VHHH": "[Arrival ATIS] VHHH ARR ATIS K 0725Z ARRIVALS, RWY 25R. EXP RNAV TRANSITION TO ILS APCH, RWY 25R. RNP APCH IS AVBL ON REQ, RWY 25R. RWY 25 RUNWAY CONDITION REPORT AT 0000Z. RWY 25R RUNWAY CONDITION CODES 5 , 5 , 5 . RWY SFC ALL PARTS WET. SIG WS FCST. WIND 190/14KT. VIS 10KM. FBL SHRA. CLD FEW 800FT SCT 1800FT. T28 DP24. QNH 1008HPA. TREND TEMPO 240/20KT MAX30 VIS 1500M TSRA HVY SHRA. ACK INFO K ON FIRST CTC WITH APP.\n[Departure ATIS] VHHH DEP ATIS X 1534Z DEPARTURES, RWY 07R. WIND 070/07KT. VIS 10KM. CLD FEW 1500FT. T29 DP25. QNH 1008HPA. ACK INFO X ON FIRST CTC WITH DELIVERY .",
    "RCTP": "[Arrival ATIS] RCTP ARR ATIS Z 0730Z EXP ILS APCH RWY23R FOR ARR. RWY23L FOR DEP. WIND 240/16KT VIS 10 KM OR MORE CLD FEW 1500FT FEW CB 1800FT SCT 7000FT BKN 10000FT T 31 DP 25 QNH 1010HPA NOSIG DUE TO FLOW CONTROL BY HONGKONG AND FUKUOKA F-I-R, TRAFFIC CONCERNED MAY BE DELAYED. CTN BIRD ACTIVITY IN THE VCY OF THE AD. INFORM TAIPEI APCH OR TAIPEI TOWER ON INITIAL CONTACT YOU HAVE INFORMATION Z\n[Departure ATIS] RCTP DEP ATIS X 0630Z EXP ILS APCH RWY23R FOR ARR. RWY23L FOR DEP. WIND 270/10KT VARYING BTN 230 AND 310 VIS 10 KM OR MORE VCSH CLD FEW 1500FT FEW CB 1800FT SCT 5000FT BKN 18000FT T 32 DP 25 QNH 1010HPA NOSIG DUE TO FLOW CONTROL BY HONGKONG F-I-R, TRAFFIC CONCERNED MAY BE DELAYED. CTN BIRD ACTIVITY IN THE VCY OF THE AD. INFORM TAIPEI APCH OR TAIPEI TOWER ON INITIAL CONTACT YOU HAVE INFORMATION X",
    "ZGSZ": "[Arrival ATIS] ZGSZ ARR ATIS D 0730Z EXP ILS APCH 15 EXP ILS OR VIS APCH 16R WIND 180/10MPS VIS 9999M -SHRA CLD SCT 390M /OVC 990M T 27 /DP 25 QNH 1008 HPA DEPENDENT PARALLEL APPROACHES INDEPENDENT PARALLEL DEPARTURES V17,V18 AVAILABLE AFTER SULAS FLY HEADING 040 MISSED APPROACH ALTITUDE SETTING 1200METERS WHEN AIRBORNE CONTACT ZHUHAI APPROACH EXPECTED RNP ILS DME Z APPROACH ADZ YOU HAVE INFO D.\n[Departure ATIS] ZGSZ DEP ATIS B 0700Z DEP RWY 16L WIND 170/9MPS VIS 8000M -SHRA CLD SCT 390M /FEW CB 750M /BKN 990M T 27 /DP 26 QNH 1008 HPA DEPENDENT PARALLEL APPROACHES V17,V18 AVAILABLE AFTER SULAS FLY HEADING 040 MISSED APPROACH ALTITUDE SETTING 1200METERS WHEN AIRBORNE CONTACT ZHUHAI APPROACH EXPECTED RNP ILS DME Z APPROACH ADZ YOU HAVE INFO B.",
    "WSSS": "[Arrival ATIS] WSSS ARR ATIS S 0730Z METREPORT 0730Z ILS APCHRWY 20R SIMUL INDEPENDENT ILS AND VISUAL APPROACHES ARE CONDUCTED ON RWY 20. RSCD RWY20R 0723Z RWYCC:5.5.6. FIRST PART 100% WET. SECOND PART 100% WET. TWY W 9 CLOSED, RWY 02C 20C RAPID EXIT TAXIWAY INDICATOR LIGHTS OFF WIND 100/ 06KT VRB BTN020 AND190 VIS 10KM FBL SHRA CLD FEW 1500FT FEW CB 1700FT FEW TCU 1800FT SCT 4000FT T29 DP24 QNH 1010HPA CHANGI AD 4 VALID 0710/ 0745 TS S APCH MOV NW 5KT FCST NC NOSIG ACK ATIS S\n[Departure ATIS] WSSS DEP ATIS P 0700Z METREPORT 0700Z RWY 20C SIMUL INDEPENDENT ILS AND VISUAL APPROACHES ARE CONDUCTED ON RWY 20. RSCD RWY20C 2308Z RWYCC:6.5.5. SECOND PART 100% WET. THIRD PART 100% WET. TWY W 9 CLOSED, RWY 02C 20C RAPID EXIT TAXIWAY INDICATOR LIGHTS OFF WIND 210/ 03KT VRB BTN150 AND230 VIS 10KM CLD FEW 1500FT FEW TCU 1800FT T29 DP24 QNH 1011HPA NOSIG DEP,INITIAL CMB 3000FT ACK ATIS P",
    "WMKK": "[Arrival ATIS] WMKK ARR ATIS H 0735Z WMKK ARR INFO H. TIME 0730. INDEPENDENT PARALLEL APPROACHES FOR RWY 14 L AND 15 ARE IN PROGRESS. EXP RNAV / ILS APCH FOR RWY 14 LEFT. EXP RNAV / ILS APCH FOR RWY 15. WIND RWY 14L DIRECTION NOT AVBL SPEED NOT AVBL. WIND RWY 15 DIRECTION NOT AVBL SPEED NOT AVBL. VIS RWY 14L TDZ NOT AVBL. VIS RWY 15 TDZ NOT AVBL. CLD FEW 1800 FT. T 29. DP 25. QNH 1009. NOSIG. AT FIRST CONTACT WITH LUMPUR RADAR, NOTIFY RCPT OF H\n[Departure ATIS] WMKK DEP ATIS Q 0706Z WMKK DEP INFO Q. TIME 0700. INDEPENDENT PARALLEL DEPARTURES FOR RWY 14 R AND 15 ARE IN PROGRESS. RWY 14 RIGHT. RWY 15. WIND RWY 14R DIRECTION NOT AVBL SPEED NOT AVBL. WIND RWY 15 DIRECTION NOT AVBL SPEED NOT AVBL. VIS RWY 14R TDZ NOT AVBL. VIS RWY 15 TDZ NOT AVBL. CLD FEW 1800 FT. T 28. DP 24. QNH 1010. NOSIG. ALL DEP ACFT TO CONTACT LUMPUR DEP AT 135 DECIMAL 25 MHZ WHEN ABN. AT FIRST CONTACT WITH LUMPUR GROUND, NOTIFY RCPT OF Q",
    "VTBS": "[Arrival ATIS] VTBS ARR ATIS N 0730Z VTBS ARR ATIS N 0731Z SIMULTANEOUS INDEPENDENT PARL APCH IN PROGRESS EXP ILS Z APCH ARR RWY 19 OR RNP APCH RWY 20R ,PILOT SHALL ADZ BKK APCH ON INITIAL CTC IF UNA TO CONDUCT RNP APCH DUE TO OPERATIONAL CONSTRAINT 0730Z WIND 260/7KT VRB BTN 240/ AND 330/ VIS 10KM CLD SCT 2000FT T35 DP22 QNH 1008HPA TREND NOSIG ADZ BKK APCH ON INITIAL CONTACT THAT YOU HAVE INFO N\n[Departure ATIS] VTBS DEP ATIS V 0730Z VTBS DEP ATIS V 0731Z SIMULTANEOUS INDEPENDENT PARL DEP IN PROGRESS DEP RWY 20L OR DEP RWY 19 , ,AFT AIRBORNE ALL DEPARTING ACFT SHALL CTC 119.25 0730Z WIND 280/6KT VRB BTN 240/ AND 340/ VIS 10KM CLD SCT 2000FT T35 DP22 QNH 1008HPA TREND NOSIG ADZ GND WHEN INITIAL CONTACT YOU HAVE INFO V",
    "VTBU": "[Arrival ATIS] VTBU ARR ATIS K 1200Z VTBU ARR ATIS K 1200Z RNP RWY 18 TRL FL130 1200Z WIND 200/7KT VIS 10KM CLD FEW 2000FT T29 DP28 QNH 1009HPA TREND NOSIG ADZ CONTROLLER WHEN INITIAL CONTACT YOU HAVE INFO K\n[Departure ATIS] VTBU DEP ATIS D VTBU ARR/DEP DATIS RPT VTBU ARR ATIS D 0330Z ILS \"Z\" APCH RWY 18 TRL FL130 0330Z WIND 110/4KT VRB BTN 350/ AND 120/ VIS 6KM CLD FEW 2000FT T31 DP27 QNH 1014HPA TREND NOSIG ADZ CONTROLLER WHEN INITIAL CONTACT YOU HAVE INFO D",
    "ROAH": "[Arrival ATIS] ROAH ARR ATIS O 0608Z M0600 (APCH)ILS RWY18R LDG RWY 18R DEP RWY 18L DEP FREQ 126.5 258.3 M 170600Z 18011KT 20KM FEW004ST BKN220AC 28/27 Q1013/A2992= Q/TWO NINE NINE TWO STP\n[Departure ATIS] ROAH DEP ATIS O 0603Z M0600 (APCH)ILS RWY18R LDG RWY 18R DEP RWY 18L DEP FREQ 126.5 258.3 M 170600Z 18011KT 20KM FEW004ST BKN220AC 28/27 Q1013/A2992= Q/TWO NINE NINE TWO STP",
    "VVDN": "[Arrival ATIS] VVDN ARR ATIS P 0432Z VVDN INFO P 0432Z. ILS VICTOR APPROACH 35L.. DPTG RWY 35R.. 0432Z. WIND 170/05KT CAVOK T36 DP23 QNH 1007HPA TREND NOSIG. ADZ ON INITIAL CTC YOU HAVE INFO. P.\n[Departure ATIS] VVDN DEP ATIS S 0604Z VVDN INFO S 0604Z. ILS VICTOR APPROACH 35L.. DPTG RWY 35R.. 0604Z. WIND VRB/09KT CAVOK T37 DP24 QNH 1006HPA TREND NOSIG. ADZ ON INITIAL CTC YOU HAVE INFO. S.",
    "RCKH": "[Arrival ATIS] RCKH ARR ATIS Z 0630Z EXPECT ILS APPROACH RWY 09 ARR/DEP RWY SFC RWY 09 SFC COND 5/5/5 ISSUED AT 0500Z. 75/75/75 NR/NR/NR WET/WET/WET TAXIWAY BRAVO, TAXIWAY DELTA AND TAXIWAY ECHO CLOSED DUE MAINTENANCE. RUNWAY 0 9 ARRIVALS PLAN VACATE VIA CHARLIE OR FOXTROT AND EXPEDITE VACATE. WIND 190/07KT VARYING BTN 160 AND 230 VIS 10 KM OR MORE CLD FEW 1200FT SCT 2500FT BKN 12000FT T 31 DP 25 QNH 1011HPA NOSIG CAUTION BIRD ACTIVITY IN VICINITY OF THE AERODROME. INFORM KAO-HSIUN APCH OR KAO-HSIUN TOWER ON INITIAL CONTACT YOU HAVE INFORMATION Z\n[Departure ATIS] RCKH DEP ATIS O 0600Z EXPECT ILS APPROACH RWY 27 ARR/DEP TAXIWAY JULIETT, TAXIWAY BRAVO, TAXIWAY DELTA AND TAXIWAY ECHO CLOSED DUE MAINTENANCE. RUNWAY 2 7 ARRIVALS PLAN VACATE VIA CHARLIE OR",
    "KLAX": "[Arrival ATIS] KLAX ARR ATIS U 2053Z - KLAX ATIS INFO U 2053Z. 26014G20KT 10SM FEW009 FEW025 SCT065 21/14 A3000 (THREE ZERO ZERO ZERO) RMK AO2 SLP156 T02110144 58007. SIMUL INST APCHS AND RNAV RNP RWYS 24R AND 25L APCHS, SIMUL INSTR DEPARTURES IN PROG RWYS 24 AND 25. TWY C CLSD BTN TWY, C8 AND TWY C9 , , TWY C10 CLSD BTN TWY, B AND TWY C. RY 25R SFL OTS, RY 24L ALSF-2 OTS. LAX VOR UNMONITORED. TAXIWAY CHARLIE EIGHT BTWN TWY B AND TWY C AND TAXIWAY CHARLIE NINE BTWN TWY B AND TWY C ARE RESTRICTED TO AIRCRAFT WITH A WINGSPAN LESS THAN ONE HUNDRED EIGHTEEN FEET. USE CAUTION FOR INCREASED DRONE ACTIVIY IN THE VICINITY OF SOFI STADIUM AT OR BELOW 200FT AGL DURING THE WORLD CUP FROM 06/12/26 THROUGH 07/10/2026. HAZD WX INFO FOR LAX AREA AVBL FM FSS. BIRD ACTIVITY VICINITY ARPT. INCLUDE YOUR CALL SIGN IN ALL READBACKS. USE CAUTION WHEN EXITING RY24R AT TWY V, W, AND Y, TO HOLD SHORT OF RY24L. MULTIPLE RUNWAY INCURSIONS HAVE OCCURRED. ...ADVS YOU HAVE INFO U.\n[Departure ATIS] KLAX DEP ATIS J 1338Z LAX ATIS INFO J 1338Z SPECIAL. 25012KT 10SM FEW009 BKN017 OVC038 18/14 A2993 (TWO NINER NINER THREE) RMK AO2 T01780144. INST APCHS AND RNAV RNP APCHS RY 24R AND 25L, SIMUL I",
    "KONT": "[Arrival ATIS] KONT ARR ATIS I 1716Z ONT ATIS INFO I 1716Z SPECIAL. 19005KT 10SM BKN026 OVC037 19/12 A2995 (TWO NINER NINER FIVE). ILS APR IN USE. RY 26R. LNDG AND DEPG RY 26R. NOTAMS... RY 26L, 8R CLSD. TAXIWAY SIERRA FIVE CLOSED. TAXIWAY SIERRA CLOSED BETWEEN TAXIWAY SIERRA 8 AND TAXIWAY WHISKEY. ILS RY 26L OTS, RY 26L IM OTS, RY 26R ALS OTS. USE CAUTION FOR NUMEROUS BIRDS OBSERVED IN VICINITY OF ONT. PILOTS READBACK RWY ASSIGNMENTS AND HOLD SHORT INSTRUCTIONS. ...ADVS YOU HAVE INFO I.\n[Departure ATIS] KONT DEP ATIS N 0553Z - KONT ATIS INFO N 0553Z. 24004KT 10SM BKN250 22/15 A2988 (TWO NINER EIGHT EIGHT) RMK AO2 SLP100. ILS AND VIS APR IN USE, RY26L & RY26R. LNDG AND DEPG RY 26L AND RY 26R. NOTAMS... TAXIWAY SIERRA CLSD BETWEEN SIERRA 8 AND W TAXIWAY Q SOUTH OF RWY 26L CLSD TAXIWAY T CLSD TAXIWAY SIERRA 5 CLSD. RY 26L IM OTS, RY 26R ALS OTS. USE CAUTION FOR NUMEROUS BIRDS OBSERVED IN VICINITY OF ONT. HAZD WX INFO FOR SOUTHERN CA AVBL ON FSS FREQUENCIES. PILOTS READBACK RWY ASSIGNMENTS AND HOLD SHORT INSTRUCTIONS. ...ADVS YOU HAVE INFO N.",
    "KSFO": "[Arrival ATIS] KSFO ARR ATIS E 1656Z SFO ATIS INFO E 1656Z. VRB03KT 10SM FEW006 FEW014 18/12 A2991 (TWO NINER NINER ONE). SIMUL CLSLY SPCD DPNDNT ILS RY 28R AND ILS RY 28L APP IN USE. DEPG RWYS 28L, 28R. DEPG ACFT SHOULD BE PREPARED FOR A SHORT NOTICE RY CHANGE. RY 1L, 1R CLSD. NUMEROUS TWY CLOSURES FOR CONSTRUCTION ON THE FIELD, PILOTS CHECK NOTAMS. SURFACE METERING IN EFFECT. ALL AIRCRAFT CONTACT SFO DEPARTURE METERING ON 126.325 FOR DEPARTURE TIME. MULTIPLE CRANES VCY OF SFO CHECK NOTAMS. DEPG ACFT WAITING ON FINAL NUMBERS ADVISE GROUND PRIOR TO ENTERING TWY F. ...ADVS YOU HAVE INFO E.\n[Departure ATIS] KSFO DEP ATIS C 1556Z SFO ATIS INFO C 1556Z. 13006KT 10SM FEW006 16/11 A2991 (TWO NINER NINER ONE). SIMUL CLSLY SPCD DPNDNT ILS RY 28R AND ILS RY 28L APP IN USE. DEPG RWYS 28L, 28R. DEPG ACFT SH",
    "KOAK": "[Arrival ATIS] KOAK ARR ATIS H 1453Z OAK ATIS INFO H 1453Z. 20004KT 10SM FEW006 BKN015 15/11 A2992 (TWO NINER NINER TWO). RNAV Z 30, ILS 28R. FLOW TO LAX, SAN, SEA. ILS RWY 30, OTS, RWY 28R RAIL, OTS. UNN LIT CLOSE-IN OBSTACLES FOR RWY 30 DEPARTURES. RWY 30 DEPARTURES ARE ADVISED TO AVOID TURNING LEFT PRIOR TO DEPARTURE END OF RUNWAY. CTN, CRANE 1 POINT 6 NAUTICAL MILES, , AT 140 FEET AGL. CAUTION, BIRDS NEAR AIRPORT. ...ADVS YOU HAVE INFO H.\n[Departure ATIS] KOAK DEP ATIS O 1953Z OAK ATIS INFO O 1953Z. 28014KT 10SM FEW005 22/14 A2988 (TWO NINER EIGHT EIGHT). RNAV Z/VA RWY 30 ILS/VA RWY 28R. FLOW TO LAX, LAS, SAN. ILS RWY 30, OTS. UNN LIT CLOSE-IN OBSTACLES FOR RWY 30 DEPARTURES. RWY 30 DEPARTURES ARE ADVISED TO AVOID TURNING LEFT PRIOR TO DEPARTURE END OF RUNWAY. SIGNATURE UNI-COM OUT OF SERVICE. CAUTION, BIRDS NEAR AIRPORT. ...ADVS YOU HAVE INFO O.",
    "KDFW": "[Arrival ATIS] KDFW ARR ATIS H 1553Z DFW ARR INFO H 1553Z. 19014KT 10SM FEW023 31/21 A3002 (THREE ZERO ZERO TWO) RMK AO2 SLP154 T03060211. SIMUL APCH IN USE. EXPECT ILS TO RWYS, 13R, 18R, 17C, 17L. LDG RWY 17C EXP LAHSO TWY B 10460 FT AVAIL, LDG RWY 18R EXP LAHSO TWY B 10100 FT AVL. NOTICE TO AIRMEN. WARNING, RWY 18L HAS BEEN SHORTENED, 9273 FT AVAILABLE. RWY 18L ILS OTS, CL OTS. BIRD ACTIVITY VCNTY ARPT. ...ADVS YOU HAVE INFO H.\n[Departure ATIS] KDFW DEP ATIS W 1553Z - KDFW DEP INFO W 1553Z. 21022G32KT 10SM FEW025 FEW180 SCT250 31/21 A2994 (TWO NINER NINER FOUR) RMK AO2 PK WND 20032/1547 SLP128 T03110206. SIMUL PARL TRAFFIC DEPG RWYS 17R, 18L. NOTICE TO AIRMEN. WARNING, RWY 18L HAS BEEN SHORTENED, 9273 FT AVAILABLE. RWY 18L CL OTS. BIRD ACTIVITY VCNTY ARPT. ...ADVS YOU HAVE INFO W.",
    "KIAH": "[Arrival ATIS] KIAH ARR ATIS G 0953Z IAH ATIS INFO G 0953Z. 18003KT 7SM FEW022 26/24 A3002 (THREE ZERO ZERO TWO) RMK AO2 SLP165 T02560239. ARRIVALS EXPECT ILS OR RNAV Y RY 27, ILS OR RNAV Y RY 8R. DEPG RY 15L. NOTICE TO AIRMEN. UNITED RAMP CONTROL IN EFFECT. BIRD ACTIVITY VICINITY ARPT. CRANES ARE DOWN. TWY SA CLSD BTN TWY, SF AND TWY SK , TWY SB CLSD BTN TWY, SF AND TWY SK , , TWY WB CLSD BTN TWY, WG AND TWY WH . TWY EA CLSD. NOTAM ATIS IN USE ON FREQUENCY 126.225. ...ADVS YOU HAVE INFO G.\n[Departure ATIS] KIAH DEP ATIS A 2053Z IAH ATIS INFO A 2053Z. 19008G16KT 10SM SCT035 BKN250 33/24 A2993 (TWO NINER NINER THREE) RMK AO2 LTG DSNT E TSB02E23 SLP135 CB DSNT NE-E AND SW MOV NE 60000 T03280239 57019. ARRIVALS EXPECT ILS OR RNAV Y RY 26R, ILS OR RNAV Y RY 26L, ILS OR RNAV Y RY 27. SIMUL APPROACHES IN USE. DEPG RY 15L, RY 15R. NOTICE TO AIRMEN. UNITED RAMP CONTROL IN EFFECT. ALL RWY COND CODES, , 5 , , 5 , , 5 , AT 1730Z. HAZD WX INFO FOR IAH AREA AVBL FM FSS. BIRD ACTIVITY VICINITY ARPT. TWY SA CLSD BTN TWY, SG AND TWY SK , TWY SB CLSD BTN TWY, SG AND TWY SK , , TWY SG CLSD, TWY EA CLSD. NOTAM ATIS IN USE ON FREQUENCY 126.225. ...ADVS YOU HAVE INFO A.",
    "KORD": "[Arrival ATIS] KORD ARR ATIS C 2051Z - KORD ATIS INFO C 2051Z. 10007KT 10SM FEW013 BKN055 BKN110 OVC250 19/17 A2998 (TWO NINER NINER EIGHT) RMK AO2 RAB03E37 SLP151 P0000 60007 T01940172 58022. ARR EXP VECTORS ILS RWY 28C APCH, VISUAL APCH RWY 27C, VISUAL APCH RWY 27R. SIMUL APCHS IN USE. DEPS EXP RWYS 22L 27L FROM T T 9960 FT AVL. RWY 4L, 22R CLSD. RWY 22R LOC OTS, RWY 9L IM OTS, RWY 9C IM OTS, RWY 10L IM OTS, RWY 10R IM OTS, RWY 27R IM OTS, RWY 28L IM OTS, RWY 28R IM OTS, RWY 9L PAPI OTS, RWY 27R PAPI OTS. ALL RWYS, COND CODE, 5, 5, 5 AT 1550Z . PILOTS USE CTN FOR BIRD ACTIVITY IN THE VICINITY OF THE ARPT. HAZD WX INFO FOR ORD AREA AVBL ON FSS. USE CTN FOR PERSONNEL AND EQUIP AT NUMEROUS SITES ON THE FIELD. READBACK ALL RWY HOLD SHORT INSTRUCTIONS. WHEN READY TO TAXI CONTACT GND METERING ON FREQ 121.67. ...ADVS YOU HAVE INFO C.\n[Departure ATIS] KORD DEP ATIS J 1651Z ORD ATIS INFO J 1651Z. 24010KT 10SM SCT032 BKN300 32/24 A2994 (TWO NINER NINER FOUR) RMK AO2 SLP131 T03170239. ARR EXP VECTORS ILS RWY 27C APCH, ILS RWY 27R APCH, ILS RWY 28C APCH. SIMUL APCHS IN USE. LAND AND HOLD SHORT OPERATIONS ARE IN EFFECT. RWY 27C ARR PLAN TO H/S OF TWY V V, 9 THSD 7 HND 25 FT AVBL, RWY 28C ARR PLAN TO H/S OF TWY Z, 9 THSD 6 HND TEN FT AVBL. DEPS EXP RWYS 22L 28R FROM NOVEMBER 5 9750 FT AVL. RWY 4L, 22R CLSD. RWY 22R LOC OTS, RWY 9L IM OTS, RWY 9C IM OTS, RWY 10L IM OTS, RWY 10R IM OTS, RWY 27R IM OTS, RWY 28L IM OTS, RWY 28R IM OTS, RWY 9L PAPI OTS, RWY 27R PAPI OTS. PILOTS USE CTN FOR BIRD ACTIVITY IN THE VICINITY OF THE ARPT. USE CTN FOR PERSONNEL AND EQUIP AT NUMEROUS SITES ON THE FIELD. AUTHORIZED DRONE ACTIVITY, HALF MILE NORTH OF AIRPORT, , 400 FEET. READBACK ALL RWY HOLD SHORT INSTRUCTIONS. WHEN READY TO TAXI CONTACT GND METERING ON FREQ 121.67. ...ADVS YOU HAVE INFO J.",
    "KJFK": "[Arrival ATIS] KJFK ARR ATIS A 1651Z JFK ATIS INFO A 1651Z. 20014KT 10SM FEW050 FEW090 BKN250 28/19 A3010 (THREE ZERO ONE ZERO). APPROACH IN USE RNAV GPS Z RY 13L, RNAV GPS X RY 22L. DEPG RY 13R. CONVERGING RY OPERATIONS IN USE. RWY 4L, 22R CLSD. CRI OTS. RWY 22L/4R INNER MARKER OTS. NUM CRANES OPERATING AT JFK. BIRD ACTIVITY VICINITY ARPT. READBACK ALL RWY ASSIGNMENTS AND HOLD SHORT INSTRUCTIONS. ...ADVS YOU HAVE INFO A.\n[Departure ATIS] KJFK DEP ATIS X 1451Z JFK ATIS INFO X 1451Z. 21011KT 10SM FEW090 BKN250 27/18 A3012 (THREE ZERO ONE TWO). APPROACH IN USE ILS RY 31R, VISUAL APCH RY 31L. DEPG RY 31L. RWY 4L, 22R CLSD. CRI OTS. RWY 22L/4R INNER MARKER OTS. NUM CRANES OPERATING AT JFK. BIRD ACTIVITY VICINITY ARPT. READBACK ALL RWY ASSIGNMENTS AND HOLD SHORT INSTRUCTIONS. ...ADVS YOU HAVE INFO X.",
    "KIND": "[Arrival ATIS] KIND ARR ATIS L 1254Z - KIND ATIS INFO L 1254Z. 23008KT 9SM SCT013 SCT250 27/24 A3007 (THREE ZERO ZERO SEVEN). ILS RWY 23R APCH IN USE, RNAV Y 23L. NOTICE TO AIRMEN. RWY 32 GS OTS. RWYS 14 AND 32 CLSD. TWY, P BTN TWY, H AND TWY B CLSD. P PAD CLSD. ILS RUNWAY 5R AND RUNWAY 5L INNER MARKER UNSERVICEABLE. RUNWAY 32 PAPI OTS. RUNWAY 32 TOUCHDOWN RVR OTS. RUNWAY 14 ROLLOUT RVR OTS. ...ADVS YOU HAVE INFO L.\n[Departure ATIS] KIND DEP ATIS H 1854Z IND ATIS INFO H 1854Z. 26009G19KT 10SM SCT036 BKN041 BKN170 23/16 A2981 (TWO NINER EIGHT ONE) RMK AO2 SLP088 T02280156. PARL ILS RWY 23R AND 23L APPROACHES IN USE. CROSS RU",
    "KDTW": "[Arrival ATIS] KDTW ARR ATIS F 1353Z DTW ARR INFO F 1353Z. 21010KT 10SM SCT020 SCT250 29/24 A2999 (TWO NINER NINER NINER). SIMUL ILS Z RY 22R AND RY 21L APCH IN USE. NOTICE TO AIRMEN. RWY 22L, 4R CLSD, RWY 27L, 9R CLSD, RWY 27R, 9L CLSD. PILOTS USE CTN FOR BIRD ACTIVITY. DEPARTURE ATIS 118.125. ...ADVS YOU HAVE INFO F.\n[Departure ATIS] KDTW DEP ATIS Q 1253Z - KDTW DEP INFO Q 1253Z. 21015KT 10SM SCT080 BKN100 BKN200 19/09 A2979 (TWO NINER SEVEN NINER) RMK AO2 SLP086 T01890094. DEPG RWY 21R ;. NOTICE TO AIRMEN. RWY 22L, 4R CLSD, RWY 27L, 9R CLSD, RWY 27R, 9L CLSD. PILOTS USE CTN FOR BIRD ACTIVITY. ...ADVS YOU HAVE INFO Q.",
    "KMSP": "[Arrival ATIS] KMSP ARR ATIS C 1653Z MSP ARR INFO C 1653Z. 21010G19KT 10SM FEW250 31/18 A2977 (TWO NINER SEVEN SEVEN) RMK AO2 SLP072 TCU DSNT SE T03060178. VISUAL RWY 30L APCH IN USE, VISUAL RWY 30R APCH IN USE. NOTICE TO AIRMEN. RWYS 4, 22 CLSD. TWY R7. R8. R9. R10. CLOSED, TWY R BETWEEN R6 AND R10 CLOSED. GS RWY 12L OTS, MSP TDWR OTS, RWYS 12R, 12L, INNER MARKER OTS.. HAZD WX INFO FOR MSP AREA AVBL FM FSS. CTN, BIRDS NEAR MSP. READ BACK HS AND ALT. ALL ACFT TAXI WITH TRANSPONDER AND ALTITUDE ENCODING ON. ...ADVS YOU HAVE INFO C.\n[Departure ATIS] KMSP DEP ATIS W 1353Z MSP DEP INFO W 1353Z. 18007KT 10SM FEW140 FEW200 BKN250 25/18 A2969 (TWO NINER SIX NINER) RMK AO2 PRESRR SLP047 T02500183. DEPARTING RWY 30L, RWY 30R, RWY 17. NOTICE TO AIRMEN. RWYS 4, 22 CLSD. TWY R7. R8. R9. R10. CLOSED, TWY R BETWEEN R6 AND R10 CLOSED, USE CAUTION, NUMEROUS TAXIWAY CLOSURES. ALL ACFT CTC METERING ON ONE THREE THREE POINT FIVE SEVEN WHEN READY TO PUSHBACK OR TAXI. HAZD WX INFO FOR MSP AREA AVBL FM FSS. CTN, BIRDS NEAR MSP. READ BACK HS AND ALT. ALL ACFT TAXI WITH TRANSPONDER AND ALTITUDE ENCODING ON. ...ADVS YOU HAVE INFO W.",
    "CYEG": "[Arrival ATIS] CYEG ARR ATIS D 1700Z CYEG ARR ATIS D 1700Z 02005KT 350V070 15SM SCT026 SCT250 19/13 A2977 SIGMET I3 IN EFFECT. APCH RNAV Z OR Y OR ILS RWY 02, INFORM ARRL OF REQ APCH ON INITIAL CTC. LDG AND DEP RWY 02. SIMUL APPROACHES MAY BE IN EFCT. INFORM CYEG ATC INFO D\n[Departure ATIS] CYEG DEP ATIS D 1700Z CYEG ARR ATIS D 1700Z 02005KT 350V070 15SM SCT026 SCT250 19/13 A2977 SIGMET I3 IN EFFECT. APCH RNAV Z OR Y OR ILS RWY 02, INFORM ARRL OF REQ APCH ON INITIAL CTC. LDG AND DEP RWY 02. SIMUL APPROACHES MAY BE IN EFCT. INFORM CYEG ATC INFO D",
    "EHAM": "[Arrival ATIS] EHAM ARR ATIS I 0721Z EHAM ARRIVAL INFO I. DEMAND. MAIN LANDING RWY 18 R. TRANSITION LEVEL 040. WIND 230 DEG, 11 KT, VRB BTN 200 AND 290 DEG, 14 KT MAX, 6 KT MNM. VIS 10 KM OR MORE. CLD FEW 1200 FT BKN 1500 FT. T 18. DP 15. QNH 1017 HPA. TREND TEMPO CLD SCT 1500 FT. OPERATIONAL REPORT. CONTACT APCH WITH CALLSIGN ONLY. END OF INFO I\n[Departure ATIS] EHAM DEP ATIS O 1122Z EHAM DEPARTURE INFO O. DEMAND. MAIN DEPARTURE RWY 24. MAIN LANDING RWY 18 R. WIND 230 DEG, 8 KT, VRB BTN 180 AND 260 DEG, 9 KT MAX, 3 KT MNM. VIS 10 KM OR MORE. CLD FEW 3200 FT. T 21. DP 12. QNH 1023 HPA. OPERATIONAL REPORT. CONVERGING DEPARTURES AND APPROACHES IN PROGRESS. INFORM SCHIPHOL DEL BY VOICE IF UNABLE TO COMPLY WITH NADP 2. END OF INFO O",
    "EBBR": "[Arrival ATIS] EBBR ARR ATIS O 1623Z EBBR NAT, EXP VECT FOR ILS APP ARR RWY25L RSCD AT 1614 RWY25L DRY, RWYCC 666. DEP RWY25R TRL 055 TWY C6 CLSD. ILS 25R U/S. RNP 25R ATC DISCRETION. RWY 19 CLSD 300/8KT VRB BTN 270 AND 350 VIS ABV 10KM FEW3400FT T22 DP14 QNH 1022HPA NOSIG CFM ARR O\n[Departure ATIS] EBBR DEP ATIS D 1620Z EBBR NAT, DEP RWY25R RSCD AT 1549 RWY25R DRY. ARR RWY25L TRL 055 TWY B3, W41 AND W42 CLSD. RWY 19 AND RWY 25L CLSD. TAIL OPS. RWY STOPBARS U/S 270/7KT VRB BTN 260 AND 320 VIS ABV 10KM FEW3400FT T22 DP14 QNH 1022HPA NOSIG CFM DEP D",
    "EDDF": "[Arrival ATIS] EDDF ARR ATIS O 0728Z ARR-ATIS EDDF O SPECI 170728 EXPECT INDEPENDENT PARALLEL ILS Y APCH RWY 25R OR ILS APCH RWY 25L RWY 25R 25L GLS APCH ON REQUEST , DO NOT MISTAKE TWY M FOR RWY 25C WHEN PERFORMING VISUAL APPROACH , RWY COND AT TIME 0720 : ALL RWYS WET , RWYCC 5 , TRL 60 ATTN : BIRDS IN THE VICINITY OF THE RWYS 25003KT 9999 -SHRA FEW023 FEW///TCU T21 DP16 QNH1020 RESHRA END OF ATIS O\n[Departure ATIS] EDDF DEP ATIS J 1620Z DEP-ATIS EDDF J METAR 301620 RWY 07C 18 ACFT DEPARTING RWY18 : EXPECT POSSIBLE DEPARTURE FROM INTERSECTION M , TORA 3454 METERS. IF UNABLE , ADVISE TWR ON INITIAL CONTACT , TRL 60 VRB06KT RWY18 02006KT CAVOK T31 DP13 QNH1017 TREND NOSIG END OF ATIS J",
    "EDDL": "[Arrival ATIS] EDDL ARR ATIS N 1850Z ATIS EDDL N METAR 241850 EXPECT VECTORS ILS APPROACH RWY 05R 05L K1 CLOSED, VACATE RWY05L VIA K2, OTHERWISE EXPECT BACKTRACK TRL 60 EXPECT INTENSE BIRD ACTIVITY IN THE VICINITY OF RWY SYSTEM 33003KT CAVOK T33 DP20 QNH1017 TREND NOSIG\n[Departure ATIS] EDDL DEP ATIS J 1250Z -ATIS EDDL J METAR 301250 -EXPECT VECTORS ILS APPROACH -RWY 23L -L8 CLOSED TRY TO VACATE LATEST L7 L1 CLOSED CALCULATE TAKEOFF DISTANCE VIA L2 -TRL 60 -EXPECT INTENSE BIRD ACTIVITY IN THE VICINITY OF RWY SYSTEM -33008KT 290V010 -CAVOK - - -T27 DP15 -QNH1021 - -TREND NOSIG",
    "EDDK": "[Arrival ATIS] EDDK ATIS P 0720Z -ATIS EDDK P METAR 170720 -EXPECT ILS APCH -RWY 31R 24 -RWY COND RWY 31R AT TIME 0720 RWYCC 6 DEPOSIT TOTAL RWY DRY RWY 24 AT TIME 0720 RWYCC 6 DEPOSIT TOTAL RWY DRY -TRL 60 -RWY 13R AND RWY 31L CLOSED FOR DEPARTURE AND LANDING: TAXIING BTN THR RWY 13R AND INTERSECTION RWY 24 POSSIBLE : -15003KT 100V190 -CAVOK - - -T19 DP15 -QNH1019 - -TREND NOSIG\n[Departure ATIS] EDDK DEP ATIS Q EDDK ARR/DEP DATIS RPT -ATIS EDDK Q METAR 291920 -EXPECT ILS APCH -RWY 31R 06 -RWY COND RWY 31R AT TIME 1830 RWYCC 6 DEPOSIT TOTAL RWY DRY RWY 06 AT TIME 1830 RWYCC 6 DEPOSIT TOTAL RWY DRY -TRL 60 -RWY 13R AND RWY 31L CLOSED FOR DEPARTURE AND LANDING: TAXIING BTN THR RWY 13R AND INTERSECTION RWY 24 POSSIBLE : -04003KT -CAVOK - - -T24 DP13 -QNH1024 - -TREND NOSIG",
    "EBLG": "[Arrival ATIS] EBLG ATIS R 0650Z EBLG INFO, EXP RNAV TO ILS APP ARR RWY22L DEP RWY22L RWY 22L DRY, RWYCC 666. TRL 055 TWY A4 CLSD. ADZ ON GND FREQ IF UNABLE S4 220/8KT VIS ABV 10KM FEW4500FT T19 DP13 QNH 1020HPA NOSIG CFM ATIS R",
    "LSZH": "[Arrival ATIS] LSZH ARR ATIS I 1720Z ARRIVALS, EXP RNP APCH, RWY 28. TRL 70. DEP RWY 32. INCREASED BIRD ACT. WIND 290 DEG, 9 KT. VIS 10 KM OR MORE, TDZ 10 KM OR MORE. CLD FEW 6400 FT. T 29. DP 17. QNH 1018. NOSIG.\n[Departure ATIS] LSZH DEP ATIS R 1720Z DEP RWY 32. TRL 70. ARRIVALS, EXP RNP APCH, RWY 28. INCREASED BIRD ACT. TMA S 1 IS ACT. TMA S 2 AND S 3 ARE ACT. WIND 290 DEG, 7 KT. VIS 10 KM OR MORE. CLD FEW 6400 FT, FEW TCU 6800 FT. T 29. DP 17. QNH 1018. NOSIG.",
    "LIMC": "[Arrival ATIS] LIMC ARR ATIS Q 1515Z LIMC ARR Q 1515Z I.L.S. ZULU RWY IN USE 35L TL 70 WIND TDZ 140/6KT VRB BTN 100/AND 210/ VIS 10KM TS CLD FEW CB 6000FT SCT 6500FT T34 DP16 QNH 1017HPA QFE 0991HPA TS OBS SOUTH EAST OF THE FIELD RWY 35R CLSD\n[Departure ATIS] LIMC DEP ATIS P 1443Z LIMC DEP P 1443Z RWY IN USE 35L TL 70 WIND END VRB3KT VIS 10KM CLD FEW TCU 6000FT SCT 6600FT T34 DP15 QNH 1017HPA QFE 0991HPA DATALINK CLEARANCE AVAILABLE.... CONTACT 1 3 1 8 8 0 TO BE RELEASED BY THE AIRPORT OPERATOR ...",
    "LIRF": "[Arrival ATIS] LIRF ARR ATIS W 0720Z LIRF ARR W 0720Z RWY 16L ILS W RWY 16R ILS Z RWY IN USE 16L 16R TL 70 DEPENDENT PARL ILS APCH INPR RWY IN USE 16R OR 16L ASSIGNED BY ROME RADAR WIND RWY 16L TDZ VRB2KT VRB BTN 240/AND 010/ RWY 16R TDZ VRB2KT CAVOK T27 DP17 QNH 1019HPA RRSM\n[Departure ATIS] LIRF DEP ATIS G 1650Z LIRF DEP G 1650Z RWY IN USE 25 TL 70 RWYS IN USE FOR ARR 16L AND 16R WIND END 290/10KT VRB BTN 270/AND 330/ CAVOK T29 DP22 QNH 1014HPA REA IS SENT AUTOMATICALLY ONCE RLSD BY RAMP WHEN READY CONTACT FIUME RAMP 121.725",
    "EINN": "[Arrival ATIS] EINN ARR ATIS A 0730Z EXPECT I L S CATEGORY 1 LDG RWY24 TKOF RWY24 TRL FL065 22009KT 9999 FEW010 16/11 QNH Q1012 TREND NOSIG ADVISE AT FIRST CONTACT YOU HAVE ATIS INFO A",
    "EGLL": "[Arrival ATIS] EGLL ARR ATIS M 1720Z RUNWAY 27R REDUCED DECLARED DISTANCES LANDING RWY 27L TRANSITION-LEVEL: FL 70 IF STAND GUIDANCE IS OFF OR FAILS, REMAIN ON THE TAXIWAY CENTRELINE AND ADVISE ATC AUTO 23013KT 190V250 9999 NCD 23/11 Q1020 ACKNOWLEDGE RECEIPT OF INFORMATION M\n[Departure ATIS] EGLL DEP ATIS Z 1720Z RUNWAY 27R REDUCED DECLARED DISTANCES DEPARTURE RWY 27R PILOTS THAT ARE IN RECEIPT OF DATALINK CLEARANCES ARE REMINDED THEY MUST CONTACT DELIVERY ON 121.980 WHEN READY FOR START AUTO 22016KT 190V250 9999 NCD 23/11 Q1020 ACKNOWLEDGE RECEIPT OF INFORMATION Z AND REPORT AIRCRAFT TYPE AND CURRENT QNH ON FIRST CONTACT WITH HEATHROW",
    "EPWA": "[Arrival ATIS] EPWA ARR ATIS A 2131Z EPWA ARR A. TIME 2130. EXP U ARR ILS Z APCH FOR RWY 33. TRANSITION LEVEL 80. WIND 010 DEG, 2 KT. CAVOK. T 18. DP 11. QNH 1018. NOSIG. CAUTION. BIRD ACT. END OF EPWA ARR A\n[Departure ATIS] EPWA DEP ATIS Y 1437Z EPWA DEP Y. TIME 1435. DEP RWY 29. ARR RWY 33, EXP U ARR ILS Z. REPORT READY FOR STARTUP ON DELIVERY 121 DECIMAL 605. TRANSITION LEVEL 80. WIND 360 DEG, 8 KT, VRB BTN 330 AND 120 DEG. CAVOK. T 31. DP 16. QNH 1019. NOSIG. CAUTION. BIRD ACT. END OF EPWA DEP Y",
    "EFHK": "[Arrival ATIS] EFHK ARR ATIS Y 0720Z EXPECT ILS APCH ARR RWYS 22L AND 22R RUNWAY 22L CONDITION REPORT AT 0328 UTC RUNWAY CONDITION CODES 3 , 3 , 3 CONTAMINANTS ALL PARTS 100 PERCENT SLIPPERY WET RUNWAY 22R CONDITION REPORT AT 0330 UTC RUNWAY CONDITION CODES 5 , 5 , 5 CONTAMINANTS ALL PARTS 100 PERCENT WET TRL 65 WIND 280 DEG 14 KT VIS 10KM FBL RA FEW 1000 FT. BKN 1800 FT. BKN 3800 FT T 13 DP 12 QNH 999 TEMPO MOD SHRA CLD BKN 1500 FT. FEW CB 4000 FT. ACK INFO Y\n[Departure ATIS] EFHK DEP ATIS O 0720Z DEP RWYS 22R AND 22L RUNWAY 22R CONDITION REPORT AT 0330 UTC RUNWAY CONDITION CODES 5 , 5 , 5 CONTAMINANTS ALL PARTS 100 PERCENT WET RUNWAY 22L CONDITION REPORT AT 0328 UTC RUNWAY CONDITION CODES 3 , 3 , 3 CONTAMINANTS ALL PARTS 100 PERCENT SLIPPERY WET WIND 280 DEG 14 KT VIS 10KM FBL RA FEW 1000 FT. BKN 1800 FT. BKN 3800 FT T 13 DP 12 QNH 999 TEMPO MOD SHRA CLD BKN 1500 FT. FEW CB 4000 FT. ACK INFO O",
    "LTAC": "[Arrival ATIS] LTAC ARR ATIS A 1720Z EXP ILS V APCH 03C DEP RWY 03C RWY 03C WIND 110 DEG 07 KT RWY 03C WIND 110 DEG 07 KT TRL 110 CAVOK T 28 DP 09 QNH 1015 NOSIG FOR DELIVERY CTC 121.9. FOR DELIVERY FIRST USE DIGITAL DEP CLR. CTN BIRD HAZARD OVR AERODROME. APCH FREQUENCY 129.050. TAXIWAY ECHO 1 IS CLOSED . RWY 03L AND 21R IS CLOSED. SINGLE RWY OPERATION INPR. END OF ATIS A",
    "UBBB": "[Arrival ATIS] UBBB ARR ATIS R 0730Z ATIS R EXP ILS/ LDG 17 DEP 17 IN USE RWY 17 CLEAR DRY 70 TLVL 110 WIND WIND RWY 16 160 14 KT SPD MAX 16 MIN 10 WIND RWY 17 180 14 KT SPD MAX 20 MIN 10 VIS CAVOK T 28 / DP 16 QNH 1016 HPA TREND TREND NOSIG RWY 16 CLSD ONMAINT MODERATE BIRDS ACT IN VICINITY OF AP END OF ATIS R\n[Departure ATIS] UBBB DEP ATIS G 1233Z ATIS G EXP ILS/ LDG 34 35 DEP 34 35 IN USE RWY 34 CLEAR DRY 70 RWY 35 CLEAR DRY 70 TLVL 110 WIND WIND RWY 34 170 2 KT SPD MAX 12 MIN 0 WIND RWY 35 030 8 KT SPD MAX 12 MIN 6 VIS 10 KM FEW CB 5300 FT RWY 34 FEW CB 5600 FT RWY 35 T 28 / DP 12 QNH 1010 HPA TREND TREND NOSIG MODERATE BIRDS ACT IN VICINITY OF AP END OF ATIS G",
    "ZWWW": "[Arrival ATIS] ZWWW ARR ATIS Y 0730Z EXP ILSDME Z APCH LDG RWY 26R TA 3000 WIND 330/4MPS VRB BTN 300/ AND 010/ VIS 9999M CLD FEW CB 1200M T 33 /DP 10 QNH 1010 HPA ADZ YOU HAVE INFO Y.\n[Departure ATIS] ZWWW DEP ATIS I 0100Z DEP RWY 26L TA 3000 WIND 320/2MPS VRB BTN 300/ AND 360/ CAVOK T 29 /DP 08 QNH 1011 HPA ADZ YOU HAVE INFO I.",
    "ZLXY": "[Arrival ATIS] ZLXY ARR ATIS S 0726Z EXP ILS APCH LDG RWY 23R WIND 180/3MPS VRB BTN 150/ AND 210/ CAVOK T 30 /DP 19 QNH 1007 HPA VISUAL APPROACH IN PROGRESS ADZ YOU HAVE INFO S.\n[Departure ATIS] ZLXY DEP ATIS P 0900Z DEP RWY 05L & 06L WIND 080/4MPS VRB BTN 030/ AND 120/ VIS 9999M CLD FEW 1500M /FEW TCU 1500M T 34 /DP 17 QNH 1005 HPA VISUAL APPROACH IN PROGRESS ADZ YOU HAVE INFO P.",
    "ZBAA": "[Arrival ATIS] ZBAA ARR ATIS H 0730Z EXP ILS APCH DEPENDENT PARL INSTR APCH LDG RWY 36L & 36R & 01 WIND 150 DEG 3 MPS 050V200 DEG CAVOK T 32 /DP 18 QNH 1007 HPA VISUAL APPROACH IS IN PROGRESS. ADZ YOU HAVE INFO H.\n[Departure ATIS] ZBAA DEP ATIS C 0500Z DEP RWY 36L & 36R & 01 WIND 030 DEG 3 MPS 310V100 DEG CAVOK T 31 /DP 19 QNH 1008 HPA RWY INDEPENDENT PARALLEL DEP VISUAL APPROACH IS IN PROGRESS. ADZ YOU HAVE INFO C.",
    "ZBHH": "[Arrival ATIS] ZBHH ARR ATIS T 0600Z EXP ILSDME APCH LDG RWY 26 TA 3000 /TRL 3600 WIND 110/2MPS VRB BTN 040/ AND 170/ VIS 9999M CLD FEW 1200M T 29 /DP 10 QNH 1010 HPA ADZ YOU HAVE INFO T.\n[Departure ATIS] ZBHH DEP ATIS K 0100Z DEP RWY 26 TA 3000 /TRL 3600 WIND VRB/2MPS CAVOK T 23 /DP 08 QNH 1010 HPA ADZ YOU HAVE INFO K.",
    "ZSQD": "[Arrival ATIS] ZSQD ARR ATIS L 0600Z EXP ILSDME APCH LDG RWY 17 TA 3000 /TRL 3600 WIND 180/4MPS VRB BTN 150/ AND 210/ VIS 9999M CLD SCT 1200M T 31 /DP 20 QNH 1008 HPA SEGREGATED OPERATION VISUAL APPROACH OPERATION IN PROGRESS. RUNWAY 17,IF MISSED APPROACH,EXPECT FOLLOW THE STANDARD MISSED APPROACH PROCEDURE,CLIMB TO 900M ON QNH OR BY ATC CAUTION MAYBE THERE IS A FLOCK OF BIRDS IN THE VICINITY OF AIRPORT ADZ YOU HAVE INFO L.\n[Departure ATIS] ZSQD DEP ATIS F 0002Z DEP RWY 16 TA 3000 /TRL 3600 WIND 160/5MPS VIS 9999M CLD FEW 900M T 24 /DP 20 QNH 1009 HPA SEGREGATED OPERATION VISUAL APPROACH OPERATION IN PROGRESS. RUNWAY 17,IF MISSED APPROACH,EXPECT FOLLOW THE STANDARD MISSED APPROACH PROCEDURE,CLIMB TO 900M ON QNH OR BY ATC CAUTION MAYBE THERE IS A FLOCK OF BIRDS IN THE VICINITY OF AIRPORT ADZ YOU HAVE INFO F."
  },
  "windtemp_alaska": "\n000\nFBAK31 KWNO 301359\nFD1AK1\nDATA BASED ON 301200Z    \nVALID 301800Z   FOR USE 1400-2100Z. TEMPS NEG ABV 24000\n\nFT  3000    6000    9000   12000   18000   24000  30000  34000  39000\nADK 2330 2337+05 2344+03 2349-02 2266-15 2285-26 721139 731644 238844\nADQ 2910 2711-02 2819-05 2825-10 2856-19 2877-29 289442 288649 285846\nAKN 9900 9900-03 3007-06 2918-10 2943-19 2859-30 288242 288049 285545\nANC 9900 9900-02 1405-08 1310-13 1214-27 1218-39 251642 272240 272040\nANN 3211 3114+03 2914-02 2814-07 2514-19 2722-31 283844 294148 272848\nBET 9900 1510-04 1907-06 2808-10 3023-20 2925-31 283644 284448 284046\nBRW 2621 2430-02 2537-07 2536-13 2533-22 2441-33 234647 233850 242043\nBTI 2618 2813-02 2913-06 2913-11 3109-22 2907-33 351547 990049 201443\nBTT 2309 2611-01 2713-06 2614-13 2311-23 1208-33 101648 091151 990043\nCDB 1326 2325+07 2429+03 2529-02 2746-12 2755-24 276740 277550 276950\nCZF 1908 9900-01 0213-05 3609-08 3214-20 3025-31 282647 273050 272645\nEHM 1307 1608-03 2407-04 2714-07 2830-18 2746-28 276142 275750 274848\nFAI 2908 9900-01 9900-06 2305-12 2107-25 1214-37 121850 140847 190541\nFYU 2515 2722+00 2818-05 2714-11 2411-23 1708-34 091649 121349 181043\nGAL 2408 2105-03 9900-08 1807-12 9900-24 0513-35 032047 011448 311243\nGKN 1606 1607-01 1305-07 1607-12 1318-25 1422-37 161947 211144 241240\nHOM 2806 2908-02 3011-08 2815-14 2829-26 2858-34 296841 295243 283941\nJNU 2407 2206-03 2711-04 2613-08 2411-22 2315-34 231646 221646 221343\nLUR 2411 2521+00 2726-06 2726-12 2620-22 2521-33 243247 253150 261344\nMCG 9900 9900-04 9900-09 9900-13 1005-26 0210-37 341845 321844 291941\nMDO 2415 2313-02 2409-07 2610-12 2616-25 2728-36 283643 283741 283041\nOME 2212 3410+02 3410-05 3411-10 3312-21 3011-33 261048 271252 281744\nORT      3508+01 9900-05 1005-11 1614-24 1629-36 162249 181647 201242\nOTZ 1914 2706+01 2909-05 2910-10 2908-22 2708-33 270848 280952 271045\nSNP 1226 1318+01 1712-01 2215-05 2324-17 2232-30 223743 234846 244845\nTKA 9900 9900-02 0705-07 0707-13 1013-26 1221-40 141145 270641 281440\nUNK 2109 2209-03 2305-06 9900-12 3514-22 3520-33 341947 311750 291844\nYAK 2105 2305-02 2408-07 2308-11 2110-23 2113-35 221446 241845 251742\nIKO 2423 2226+08 2331+05 2437+02 2349-11 2460-24 246839 258546 259048\nAFM 2411 2318-02 2415-07 2610-11 9900-22 9900-33 990047 220551 280644\n5AB 2018 1812+01 1408-01 1707-05 1908-17 2213-28 231744 222343 222741\n5AC 2819 2927+04 2934-01 2838-06 2945-17 3044-26 304841 305250 304755\n5AD 2919 2827+02 2831-02 2948-05 2964-16 2971-26 297541 299150 307554\n5AE 1610 2316+03 2532+01 2641-03 2746-15 2752-26 287640 277650 286952\n5AF 2913 2917+00 2819-04 2813-10 2718-21 2832-33 284344 294846 283445\n5AG 2711 2811-03 2813-05 2816-10 2720-23 2733-34 284745 284745 283443\n",
  "vaac_tokyo": [
    {
      "id": "20260630_27307000_0011",
      "year": "2026",
      "volcano": "Taal",
      "psn": "N1400 E12100",
      "issued": "20260630",
      "text": "FVFE01 RJTD 300656\nVA ADVISORY\nDTG: 20260630/0656Z\nVAAC: TOKYO\nVOLCANO: TAAL 273070\nPSN: N1400 E12100\nAREA: PHILIPPINES\nSOURCE ELEV: 311M AMSL\nADVISORY NR: 2026/11\nINFO SOURCE: HIMAWARI-9 PHIVOLCS\nERUPTION DETAILS: ERUPTION AT 20260630/0634Z FL050 EXTD SW REPORTED\nOBS VA DTG: 30/0640Z\nOBS VA CLD: VA NOT IDENTIFIABLE FM SATELLITE DATA WIND FL050 100/15KT\nFCST VA CLD +6 HR: NOT AVBL\nFCST VA CLD +12 HR: NOT AVBL\nFCST VA CLD +18 HR: NOT AVBL\nRMK: WE WILL ISSUE FURTHER ADVISORY IF VA IS DETECTED IN SATELLITE \nIMAGERY.\nNXT ADVISORY: NO FURTHER ADVISORIES=",
      "img_url": "https://ds.data.jma.go.jp/svd/vaac/data/VAGFN/2026/Images/20260630_27307000_0011_QH21_01.png",
      "sat_img_url": null,
      "text_url": "https://ds.data.jma.go.jp/svd/vaac/data/TextData/2026/20260630_27307000_0011_Text.html"
    },
    {
      "id": "20260629_30027000_0212",
      "year": "2026",
      "volcano": "Sheveluch",
      "psn": "N5639 E16122",
      "issued": "20260629",
      "text": "FVFE01 RJTD 292100\nVA ADVISORY\nDTG: 20260629/2100Z\nVAAC: TOKYO\nVOLCANO: SHEVELUCH 300270\nPSN: N5639 E16122\nAREA: RUSSIA\nSOURCE ELEV: 3283M AMSL\nADVISORY NR: 2026/212\nINFO SOURCE: HIMAWARI-9\nERUPTION DETAILS: POSS VA CONTINUOUSLY OBS IN SATELLITE IMAGERY.\nOBS VA DTG: 29/2020Z\nOBS VA CLD: SFC/FL330 N5821 E15839 - N5824 E15903 - N5810 E15901 - \nN5804 E15841 MOV NW 25KT\nFCST VA CLD +6 HR: 30/0220Z SFC/FL340 N6002 E15936 - N5922 E15845 - \nN5929 E15725 - N6012 E15855\nFCST VA CLD +12 HR: 30/0820Z SFC/FL330 N6015 E16127 - N6000 E16154 - \nN5926 E15906 - N5938 E15730 - N6000 E15744 - N5955 E15929\nFCST VA CLD +18 HR: 30/1420Z SFC/FL330 N5901 E16353 - N5834 E16359 - \nN5820 E15852 - N5900 E15721 - N5921 E15817 - N5846 E16027\nRMK: VA OBSCURED BY MET CLOUD. HOWEVER VA IS STILL EXPECTED IN THE \nAREA.\nNXT ADVISORY: 20260630/0000Z=",
      "img_url": "https://ds.data.jma.go.jp/svd/vaac/data/VAGFN/2026/Images/20260629_30027000_0212_QH21_01.png",
      "sat_img_url": "https://ds.data.jma.go.jp/svd/vaac/data/Sat/2026/Images/30027000/09-ir/20260629_2020_202606292100_ir.png",
      "text_url": "https://ds.data.jma.go.jp/svd/vaac/data/TextData/2026/20260629_30027000_0212_Text.html"
    },
    {
      "id": "20260628_27303000_0707",
      "year": "2026",
      "volcano": "Mayon",
      "psn": "N1315 E12341",
      "issued": "20260628",
      "text": "FVFE01 RJTD 281019\nVA ADVISORY\nDTG: 20260628/1019Z\nVAAC: TOKYO\nVOLCANO: MAYON 273030\nPSN: N1315 E12341\nAREA: PHILIPPINES\nSOURCE ELEV: 2462M AMSL\nADVISORY NR: 2026/707\nINFO SOURCE: HIMAWARI-9 PHIVOLCS\nERUPTION DETAILS: ERUPTION AT 20260628/0950Z FL120 EXTD WSW REPORTED\nOBS VA DTG: 28/1000Z\nOBS VA CLD: VA NOT IDENTIFIABLE FM SATELLITE DATA WIND FL120 050/10KT\nFCST VA CLD +6 HR: NOT AVBL\nFCST VA CLD +12 HR: NOT AVBL\nFCST VA CLD +18 HR: NOT AVBL\nRMK: WE WILL ISSUE FURTHER ADVISORY IF VA IS DETECTED IN SATELLITE \nIMAGERY.\nNXT ADVISORY: NO FURTHER ADVISORIES=",
      "img_url": "https://ds.data.jma.go.jp/svd/vaac/data/VAGFN/2026/Images/20260628_27303000_0707_QH21_01.png",
      "sat_img_url": null,
      "text_url": "https://ds.data.jma.go.jp/svd/vaac/data/TextData/2026/20260628_27303000_0707_Text.html"
    },
    {
      "id": "20260621_28208001_0077",
      "year": "2026",
      "volcano": null,
      "psn": "N3136 E13039",
      "issued": "20260621",
      "text": "FVFE01 RJTD 211018\nVA ADVISORY\nDTG: 20260621/1018Z\nVAAC: TOKYO\nVOLCANO: SAKURAJIMA (AIRA CALDERA) 282080\nPSN: N3136 E13039\nAREA: JAPAN\nSOURCE ELEV: 1117M AMSL\nADVISORY NR: 2026/77\nINFO SOURCE: JMA HIMAWARI-9\nERUPTION DETAILS: EXPLODED AT 20260621/0955Z FL090 EXTD SE\nOBS VA DTG: 21/1000Z\nOBS VA CLD: VA NOT IDENTIFIABLE FM SATELLITE DATA WIND FL090 280/26KT\nFCST VA CLD +6 HR: NOT AVBL\nFCST VA CLD +12 HR: NOT AVBL\nFCST VA CLD +18 HR: NOT AVBL\nRMK: WE WILL ISSUE FURTHER ADVISORY IF VA IS DETECTED IN SATELLITE \nIMAGERY.\nNXT ADVISORY: NO FURTHER ADVISORIES=",
      "img_url": "https://ds.data.jma.go.jp/svd/vaac/data/VAGFN/2026/Images/20260621_28208001_0077_QH21_01.png",
      "sat_img_url": null,
      "text_url": "https://ds.data.jma.go.jp/svd/vaac/data/TextData/2026/20260621_28208001_0077_Text.html"
    }
  ],
  "vaac_alaska": [
    {
      "text": "\n000\nFVAK21 PAWU 292114\nVAAAK1\nVA ADVISORY\n\nDTG: 20260629/2111Z\n\nVAAC: ANCHORAGE\n\nVOLCANO: SHEVELUCH 300270\n\nPSN: N5639 E16122\n\nAREA: KAMCHATKA PENINSULA\n\nSOURCE ELEV: 10771 FT AMSL\n\nADVISORY NR: 2026/163\n\nRMK: PLEASE SEE FVFE01 RJTD ISSUED BY VAAC TOKYO WHICH DESCRIBES\nCONDITIONS NEAR THE VAAC ANCHORAGE AREA OF RESPONSIBILITY...BS\n\n\n\n",
      "issued": "2026-06-29T21:14:00+00:00",
      "volcano": "Sheveluch",
      "psn": "N5639 E16122"
    }
  ]
}