{
  "updated_utc": "2026-07-20T01:03Z",
  "metar": {
    "RJAA": "METAR RJAA 192330Z 19004KT 140V220 9999 FEW020 31/26 Q1008 NOSIG",
    "PANC": "METAR PANC 192353Z 36003KT 10SM -RA FEW015 FEW080 OVC095 12/11 A3008 RMK AO2 SLP187 P0004 60035 T01170111 10117 20106 55005",
    "PAFA": "METAR PAFA 192353Z VRB06KT 10SM FEW050 SCT120 BKN200 21/06 A3001 RMK AO2 SLP165 T02110056 10217 20167 58001 $",
    "PAED": "METAR PAED 192355Z 00000KT 10SM -RA SCT005 SCT010 BKN070 OVC095 13/11 A3006 RMK AO2A SLP176 P0001 60027 T01250111 10131 20104 55003 $",
    "KSEA": "METAR KSEA 192353Z 35011KT 10SM FEW022 26/11 A3005 RMK AO2 SLP179 T02560106 10256 20183 56018 $",
    "ZSPD": "METAR ZSPD 192330Z 16003MPS 9999 BKN013 29/28 Q1003 NOSIG",
    "ZSSS": "METAR ZSSS 192330Z 16003MPS 9999 FEW015 29/26 Q1003 NOSIG",
    "RJFR": "METAR RJFR 200000Z 07005KT 9999 FEW005 SCT060 30/27 Q1008",
    "VHHH": "SPECI VHHH 192315Z 27018KT 2800 1100N R07R/P2000N R25L/P2000N R07L/P2000D R25R/P2000N +SHRA VCTS FEW010 FEW015CB SCT025 27/25 Q1006 TEMPO 24022G32KT 1500 TSRA +SHRA FEW008CB SCT015",
    "RCTP": "METAR RCTP 192330Z 18007KT 160V230 9999 FEW020 31/24 Q1007 NOSIG RMK A2975",
    "ZGSZ": "METAR ZGSZ 200000Z 17005MPS 9999 SCT016 BKN050 27/25 Q1005 NOSIG",
    "WSSS": "METAR WSSS 192330Z 11006KT 9999 FEW018 BKN300 28/24 Q1011 NOSIG",
    "WMKK": "METAR WMKK 192330Z 03003KT 360V100 6000 FEW017CB 27/25 Q1010 NOSIG",
    "WIDD": "METAR WIDD 192330Z 11003KT 020V140 9999 FEW014 27/25 Q1011 NOSIG",
    "VTBS": "METAR VTBS 192330Z 27002KT 9999 FEW020 28/21 Q1009 NOSIG",
    "VTBU": "METAR VTBU 192330Z 31003KT 9999 FEW020 27/27 Q1009 NOSIG",
    "ROAH": "METAR ROAH 192330Z 20007KT 9999 VCSH FEW010 SCT025 30/28 Q1008",
    "VVDN": "METAR VVDN 192330Z 00000KT CAVOK 29/23 Q1006 NOSIG",
    "RCKH": "SPECI RCKH 192328Z 01005KT 340V080 4000 -SHRA SCT008CB FEW012 SCT018 BKN024 28/23 Q1008 TEMPO 2000 SHRA RMK CB W-N A2979",
    "KLAX": "METAR KLAX 192353Z 26016KT 10SM FEW015 FEW090 SCT150 24/19 A2987 RMK AO2 SLP115 T02390189 10256 20239 56015 $",
    "KONT": "METAR KONT 192353Z 24012G19KT 10SM FEW080 FEW120 36/12 A2986 RMK AO2 SLP089 T03560122 10361 20294 56017 $",
    "KSFO": "METAR KSFO 192356Z 30022KT 10SM FEW005 BKN180 BKN200 18/12 A2991 RMK AO2 PK WND 29026/2354 SLP129 T01780122 10189 20172 56010 $",
    "KOAK": "METAR KOAK 192353Z COR 27012G19KT 10SM FEW006 FEW055 BKN150 BKN300 18/13 A2991 RMK AO2 SLP129 T01830128 10200 20167 58012 $",
    "KMHR": "METAR KMHR 192315Z AUTO VRB05KT 10SM CLR 36/08 A2982 RMK AO2 T03600076 $",
    "KDFW": "METAR KDFW 192353Z 21006KT 10SM SCT060 BKN140 BKN250 36/21 A2989 RMK AO2 SLP110 CB DSNT SW-NW-NE MOV NE T03560206 10367 20333 55006 $",
    "KIAH": "METAR KIAH 192353Z 18004KT 10SM FEW055 FEW250 35/22 A2991 RMK AO2 SLP127 T03500222 10361 20328 56014 $",
    "KORD": "METAR KORD 192351Z 02009KT 8SM FEW250 24/13 A2999 RMK AO2 SLP150 T02440133 10267 20244 56007 $",
    "KJFK": "METAR KJFK 192351Z 34008KT 10SM FEW100 SCT180 BKN250 25/10 A2987 RMK AO2 SLP115 FU SCT180 T02500100 10278 20250 53012 $",
    "KRFD": "METAR KRFD 192354Z 10004KT 6SM FU FEW040 SCT250 26/16 A2999 RMK AO2 SLP151 T02560161 10278 20256 56010 $",
    "KIND": "METAR KIND 192354Z 04012KT 5SM HZ SCT042 BKN050 27/18 A2995 RMK AO2 SLP135 T02720178 10300 20272 53003 $",
    "KDTW": "METAR KDTW 192353Z 34006KT 6SM HZ FEW065 25/11 A2998 RMK AO2 SLP147 T02500111 10272 20244 56006 $",
    "KMSP": "METAR KMSP 192353Z 17008KT 5SM FU SCT250 30/17 A2992 RMK AO2 SLP125 T03000167 10322 20294 58013",
    "CYEG": "METAR CYEG 200000Z 30016G24KT 20SM BKN025 BKN039 BKN240 19/15 A2992 RMK SC5SC1CI1 SLP138 DENSITY ALT 3400FT",
    "EHAM": "METAR EHAM 192325Z 33008KT 300V360 9999 -RA FEW030 16/10 Q1023 NOSIG",
    "EBBR": "METAR EBBR 192320Z 29004KT 9999 FEW045 12/09 Q1024 NOSIG",
    "EDDF": "METAR EDDF 192320Z AUTO 33007KT CAVOK 12/07 Q1021 NOSIG",
    "EDFH": "METAR EDFH 192320Z 32003KT 260V010 CAVOK 13/05 Q1022",
    "EDDL": "METAR EDDL 192320Z AUTO 29003KT CAVOK 14/08 Q1022 NOSIG",
    "EDDK": "METAR EDDK 192320Z AUTO 36003KT CAVOK 11/07 Q1022 NOSIG",
    "EBLG": "METAR EBLG 192320Z 31002KT CAVOK 12/07 Q1024 NOSIG",
    "LSZH": "METAR LSZH 192320Z AUTO 33005KT 9999 FEW067 17/09 Q1020 NOSIG",
    "LIMC": "METAR LIMC 192320Z 03005KT CAVOK 25/14 Q1013 NOSIG",
    "LIRF": "METAR LIRF 192320Z 07003KT CAVOK 25/23 Q1013 NOSIG",
    "EINN": "METAR EINN 192330Z 35010KT CAVOK 15/11 Q1029 NOSIG",
    "EGLL": "METAR EGLL 192320Z AUTO 04005KT 010V070 9999 NCD 16/07 Q1026",
    "EGSS": "METAR EGSS 192320Z AUTO 33003KT 9999 NCD 11/07 Q1027",
    "EPWA": "METAR EPWA 192330Z 29010KT 9999 BKN006 BKN027 15/14 Q1013 NOSIG",
    "UHPP": "METAR UHPP 192330Z 22003MPS 150V310 9999 SCT130 24/15 Q1013 R34L/CLRD62 NOSIG RMK QFE756/1008",
    "EFHK": "METAR EFHK 192320Z 03006KT 9999 FEW049 14/10 Q1015 NOSIG",
    "LBBG": "METAR LBBG 192330Z AUTO VRB02KT 9999 NCD 22/18 Q1014 NOSIG",
    "LTAC": "METAR LTAC 192320Z 05010KT CAVOK 21/11 Q1016 NOSIG RMK RWY21C 05008KT RWY03L 04008KT RWY21R 02010KT RWY03R 03007KT RWY21L 04008KT",
    "UBBB": "SPECI UBBB 192310Z 33020G30KT 9999 FEW060CB 25/21 Q1010 NOSIG",
    "UTAA": "METAR UTAA 200000Z 29018KT 9999 SCT100 32/17 Q1006 R88/CLRD70 NOSIG",
    "UACC": "METAR UACC 192330Z 25005MPS 240V300 CAVOK 17/09 Q1002 NOSIG RMK QFE720/0961",
    "UAAA": "METAR UAAA 192330Z VRB01MPS 9999 FEW100 23/09 Q1003 NOSIG",
    "UZTT": "METAR UZTT 192330Z VRB02KT CAVOK 30/14 Q1001 NOSIG",
    "ZWWW": "METAR ZWWW 192330Z 18003MPS 160V230 CAVOK 30/10 Q1005 NOSIG",
    "ZLXY": "METAR ZLXY 200000Z 08003MPS 050V110 CAVOK 27/19 Q1005 NOSIG",
    "ZBAA": "METAR ZBAA 192330Z 33004MPS 290V360 9999 SCT040 24/22 Q1004 NOSIG",
    "ZBHH": "METAR ZBHH 200000Z 06002MPS 020V100 9999 FEW040 19/15 Q1006 RETS NOSIG",
    "ZSQD": "METAR ZSQD 200000Z 12003MPS 9999 FEW015 25/22 Q1005 NOSIG",
    "ZMCK": "METAR ZMCK 192330Z VRB01MPS 9999 FEW033 14/11 Q1007 NOSIG RMK QFE641.0 84 MOP",
    "UUEE": "METAR UUEE 192330Z 00000MPS CAVOK 17/13 Q1014 R24L/CLRD62 R24C/CLRD62 NOSIG",
    "UUDD": "METAR UUDD 192330Z 18002MPS CAVOK 15/13 Q1015 R13R/CLRD65 NOSIG",
    "ULLI": "METAR ULLI 192330Z 36003MPS 9999 BKN021 15/11 Q1013 R28L/090065 NOSIG",
    "USSS": "METAR USSS 192330Z 02004MPS 9999 OVC008 18/18 Q1006 R08R/210060 NOSIG RMK QFE735/0980",
    "UNNT": "METAR UNNT 192330Z 35002MPS 7000 NSC 17/17 Q1005 R07/CLRD// R16/CLRD// NOSIG RMK QFE744/0992",
    "UNKL": "METAR UNKL 192330Z 00000MPS CAVOK 14/14 Q1006 R29/CLRD// NOSIG RMK QFE729",
    "UIBB": "METAR UIBB 192330Z 30002MPS 260V350 9000 4300W BR FEW000 16/15 Q1003 R12/210162 NOSIG RMK QBB020 MT OBSC QFE710/0947",
    "UEEE": "METAR UEEE 192330Z 15002MPS 9999 SCT033CB 21/18 Q1004 R23/190060 NOSIG RMK QFE744",
    "UHHH": "METAR UHHH 192330Z 25005MPS CAVOK 26/22 Q1005 R88/090060 NOSIG RMK QFE748/0997",
    "UHSS": "METAR UHSS 192330Z 36003MPS 9999 BKN020 22/19 Q1005 R01/CLRD70 NOSIG RMK MT OBSC QFE752/1003"
  },
  "taf": {
    "RJAA": "TAF RJAA 192305Z 2000/2106 14008KT 9999 FEW030 BECMG 2021/2100 01004KT BECMG 2103/2106 12010KT",
    "PANC": "TAF PANC 192333Z 2000/2106 35004KT P6SM VCSH FEW010 SCT050 OVC070 WS020/12030KT TEMPO 2000/2002 6SM -RA BR FM200600 15010G20KT P6SM SCT040 OVC060 FM201100 16008KT P6SM -RA SCT015 OVC035 FM201400 VRB04KT 5SM -RA BR BKN015 OVC025 FM202100 24006KT 6SM -RA OVC015",
    "PAFA": "TAF PAFA 192338Z 2000/2106 06005KT P6SM SCT060 BKN150 FM201900 18005KT P6SM SCT060 BKN150",
    "PAED": "TAF PAED 192105Z 1921/2103 36006KT 9999 -RA FEW035 BKN040 OVC080 QNH3004INS BECMG 2001/2002 34003KT 9999 VCSH FEW040 BKN050 OVC080 QNH3001INS BECMG 2010/2011 33003KT 8000 RA SCT010 BKN025 BKN040 OVC050 640803 QNH2999INS BECMG 2018/2019 01003KT 5000 -RA BR SCT010 BKN015 OVC025 QNH2998INS BECMG 2022/2023 34003KT 8000 -SHRA BKN010 OVC015 QNH3000INS TX14/2004Z TN11/2009Z",
    "KSEA": "TAF KSEA 192320Z 2000/2106 35011KT P6SM SKC FM200400 01008KT P6SM SKC FM201000 01006KT P6SM SCT250 FM201900 34007KT P6SM SCT250",
    "ZSPD": "TAF ZSPD 192107Z 2000/2106 20004MPS 6000 SCT030 TX32/2006Z TX32/2106Z TN25/2021Z TEMPO 2006/2010 33008G13MPS TSRA BKN015 FEW030CB",
    "ZSSS": "TAF ZSSS 192107Z 2000/2106 20004MPS 6000 SCT030 TX33/2006Z TX33/2106Z TN26/2021Z TEMPO 2005/2009 33008G13MPS TSRA BKN015 FEW030CB",
    "RJFR": "TAF RJFR 192305Z 2000/2106 10006KT 8000 -SHRA FEW015 BKN030 TEMPO 2003/2009 4000 -TSRA BR FEW015 FEW025CB BKN030 BECMG 2008/2010 32004KT",
    "VHHH": "TAF VHHH 192300Z 2000/2106 20010KT 9999 FEW010 SCT025 TX31/2006Z TX32/2106Z TN27/2022Z TEMPO 2000/2004 24022G32KT 2000 TSRA +SHRA FEW008CB SCT015 TEMPO 2004/2006 3000 SHRA FEW010CB SCT020 TEMPO 2021/2024 3000 SHRA FEW010CB SCT020 PROB30 TEMPO 2100/2106 24015G25KT 2500 TSRA SHRA FEW008CB SCT015",
    "RCTP": "TAF RCTP 192300Z 2000/2106 25012KT 9999 FEW020 BKN032 TEMPO 2008/2012 20005KT FEW012CB FEW015 BKN020 BECMG 2012/2014 18005KT TEMPO 2022/2024 25010KT",
    "ZGSZ": "TAF ZGSZ 192103Z 2000/2106 18004MPS 8000 BKN040 TX31/2006Z TX31/2106Z TN28/2022Z TEMPO 2000/2002 TSRA SCT012 FEW025CB BKN033 TEMPO 2005/2008 TSRA SCT012 FEW025CB BKN033 TEMPO 2021/2024 TSRA SCT012 FEW025CB BKN033",
    "WSSS": "TAF WSSS 192300Z 2000/2106 21008KT 9999 FEW015 SCT020",
    "WMKK": "TAF WMKK 192300Z 2000/2106 VRB03KT 9999 FEW018 TEMPO 2004/2008 5000 TSRA FEW017CB SCT020",
    "VTBS": "TAF VTBS 192300Z 2000/2106 28005KT 9999 FEW020 BECMG 2004/2006 22008KT",
    "VTBU": "TAF VTBU 192300Z 2000/2024 36004KT 9999 FEW020 BECMG 2001/2003 23008KT",
    "ROAH": "TAF ROAH 192305Z 2000/2106 25010KT 9999 FEW008 SCT015 TEMPO 2015/2021 FEW005 BKN008 BECMG 2100/2103 29006KT TEMPO 2103/2106 4000 SHRA BR FEW005 BKN008 FEW015CB",
    "VVDN": "TAF VVDN 192300Z 2000/2024 24004KT 9999 FEW017 BECMG 2005/2006 01010KT BECMG 2012/2013 22007KT",
    "RCKH": "TAF RCKH 192300Z 2000/2106 08005KT 9999 FEW012 BKN032 TEMPO 2000/2006 25007KT 3000 SHRA SCT006 FEW008CB BKN014 TEMPO 2006/2010 24007KT BECMG 2011/2013 18007KT TEMPO 2018/2024 09005KT 5000 SHRA FEW010 FEW012CB BKN020 BECMG 2100/2102 22007KT",
    "KLAX": "TAF KLAX 192336Z 2000/2106 26012KT P6SM SCT200 FM200400 26006KT P6SM FEW012 SCT200 FM200600 VRB03KT P6SM OVC008 FM201100 VRB03KT P6SM OVC013 FM201600 26006KT P6SM SCT020 FM201800 26012KT P6SM SCT200",
    "KONT": "TAF KONT 192326Z 2000/2106 25011G20KT P6SM FEW120 FM200630 VRB05KT P6SM SKC FM202000 25011G20KT P6SM FEW120 FM210530 VRB05KT P6SM SKC",
    "KSFO": "TAF KSFO 192330Z 2000/2106 30015G25KT P6SM BKN150 FM200700 29008KT P6SM SCT007 BKN010 TEMPO 2011/2015 BKN007 FM201700 29008KT P6SM SCT015 SCT150 FM202000 30015KT P6SM SKC",
    "KOAK": "TAF KOAK 192330Z 2000/2106 30015KT P6SM FEW007 BKN150 FM200400 27006KT P6SM OVC007 FM201700 28006KT P6SM SCT007 BKN015 FM201800 28006KT P6SM FEW015 SCT150 FM202000 30015KT P6SM SKC",
    "KMHR": "TAF KMHR 192320Z 2000/2024 21011KT P6SM BKN150 FM200600 17009KT P6SM BKN150 FM201500 VRB05KT P6SM FEW250",
    "KDFW": "TAF KDFW 192334Z 2000/2106 18006KT P6SM VCSH SCT060 FM200200 19009KT P6SM FEW060",
    "KIAH": "TAF KIAH 192325Z 2000/2106 23007KT P6SM FEW050 FEW250 FM200600 21005KT P6SM FEW020 SCT250 FM201400 25007KT P6SM FEW035 FEW250 FM210000 21006KT P6SM FEW050 FEW250",
    "KORD": "TAF KORD 192320Z 2000/2106 08007KT 6SM FU FEW040 SCT250 FM200900 19005KT P6SM FEW250 FM201500 23010KT P6SM FEW050 SCT150 FM202100 21014G23KT P6SM FEW050 SCT120 PROB30 2102/2106 34020G30KT 2SM TSRA BR SCT015 OVC040CB",
    "KJFK": "TAF KJFK 192331Z 2000/2106 33013KT P6SM FEW250 FM200100 33007KT P6SM FEW250 FM200900 VRB05KT P6SM SKC FM201300 04006KT P6SM SKC FM201800 16008KT P6SM SCT250",
    "KRFD": "TAF KRFD 192320Z 2000/2024 VRB04KT 5SM FU FEW045 SCT250 FM200900 18004KT P6SM FEW250 FM201500 22011KT P6SM FEW050 BKN150 FM202100 21014G23KT P6SM FEW050 SCT120",
    "KIND": "TAF KIND 192320Z 2000/2106 06005KT 5SM HZ FEW250 FM201300 13006KT 6SM HZ FEW050 SCT250 FM201900 22008KT 6SM HZ SCT050 BKN250",
    "KDTW": "TAF KDTW 192320Z 2000/2106 34006KT 6SM HZ SCT060 FM200100 16003KT 6SM HZ SKC FM201500 20010KT P6SM SCT050 SCT250 FM210100 19007KT P6SM SCT100 BKN200",
    "KMSP": "TAF KMSP 192328Z 2000/2106 19011KT 6SM FU SCT250 FM200700 19010KT 6SM -SHRA BKN100 TEMPO 2009/2011 VRB15G30KT 2SM TSRA BKN050CB FM201200 22012G20KT P6SM BKN200 FM201900 27015G25KT P6SM FEW200",
    "CYEG": "TAF AMD CYEG 200039Z 2000/2024 29015G25KT P6SM BKN030 BKN080 TEMPO 2000/2001 5SM -SHRA BR BKN020 OVC080 FM200100 30015G25KT P6SM SCT012 BKN020 TEMPO 2001/2006 SCT012 BKN025 BECMG 2004/2006 30008KT FM200600 30008KT P6SM SCT012 BKN030 TEMPO 2006/2011 5SM -SHRA BR BKN012 OVC030 FM201100 01006KT P6SM -RA SCT008 OVC025 TEMPO 2011/2015 3SM -SHRA VCTS BR BKN008 OVC025CB FM201500 34008KT P6SM SCT012 BKN040 TEMPO 2015/2018 4SM FU FM201800 35010KT 6SM FU SCT040 TEMPO 2018/2024 2SM FU BKN040 RMK NXT FCST BY 200300Z",
    "EHAM": "TAF EHAM 192316Z 2000/2106 33007KT 9999 BKN040 BECMG 2009/2012 34012KT BECMG 2019/2022 36006KT",
    "EBBR": "TAF EBBR 192309Z 2000/2106 33007KT 9999 SCT040",
    "EDDF": "TAF EDDF 192300Z 2000/2106 33005KT CAVOK BECMG 2019/2021 03005KT",
    "EDFH": "TAF EDFH 192300Z 2000/2024 35005KT CAVOK",
    "EDDL": "TAF EDDL 192300Z 2000/2106 29003KT 9999 SCT025 BKN045 BECMG 2008/2011 33009KT BECMG 2019/2022 36004KT",
    "EDDK": "TAF EDDK 192300Z 2000/2106 34003KT CAVOK BECMG 2008/2011 33008KT BECMG 2019/2022 VRB03KT",
    "EBLG": "TAF EBLG 192309Z 2000/2106 33007KT 9999 SCT040",
    "LSZH": "TAF LSZH 192325Z 2000/2106 35004KT 9999 FEW070 TX26/2015Z TN12/2004Z TN12/2104Z BECMG 2000/2002 CAVOK BECMG 2006/2009 06006KT TEMPO 2009/2018 9999 FEW050 PROB30 TEMPO 2015/2018 31008KT BECMG 2022/2024 VRB02KT",
    "LIMC": "TAF LIMC 192300Z 2000/2106 VRB05KT 9999 FEW050 PROB40 TEMPO 2001/2008 4000 TSRA BECMG 2008/2010 11010KT BECMG 2015/2017 VRB05KT",
    "LIRF": "TAF LIRF 192300Z 2000/2106 VRB04KT CAVOK TEMPO 2001/2005 3000 BR BECMG 2010/2012 24012KT BECMG 2017/2019 VRB05KT",
    "EINN": "TAF EINN 192300Z 2000/2024 36009KT 9999 FEW050",
    "EGLL": "TAF EGLL 192254Z 2000/2106 02006KT CAVOK BECMG 2018/2021 10010KT TEMPO 2100/2106 BKN025 BECMG 2101/2104 01005KT",
    "EGSS": "TAF EGSS 192254Z 2000/2106 VRB05KT 9999 FEW040 PROB30 2003/2007 8000 BECMG 2015/2018 06010KT BECMG 2020/2023 VRB05KT",
    "EPWA": "TAF EPWA 192330Z 2000/2024 27010KT 9999 SCT030 PROB40 TEMPO 2000/2006 3000 BR BKN004 BKN010 TEMPO 2009/2020 -SHRA BKN030CB PROB40 TEMPO 2012/2018 VRB20G30KT 2500 TSRA BKN014",
    "UHPP": "TAF UHPP 192238Z 2000/2106 34003G10MPS 9999 SCT040CB TX28/2003Z TN14/2017Z TEMPO 2000/2009 28005G12MPS FM201500 18005G12MPS 4000 -SHRA BR BKN014 OVC020CB TEMPO 2015/2023 1000 -SHRA BR VV003",
    "EFHK": "TAF EFHK 192330Z 2000/2024 03008KT 9999 FEW049 PROB40 TEMPO 2013/2017 05015G25KT",
    "LBBG": "TAF LBBG 192300Z 2000/2024 VRB03KT 9999 SCT045 BECMG 2008/2010 13015KT PROB40 TEMPO 2012/2016 VRB17G27KT 4000 TSRA SCT030CB BKN040 BECMG 2019/2021 VRB03KT",
    "LTAC": "TAF LTAC 192240Z 2000/2024 VRB02KT CAVOK BECMG 2006/2009 SCT040 BECMG 2015/2017 CAVOK",
    "UBBB": "TAF UBBB 192259Z 2000/2024 33022G32KT 9999 FEW015 TX28/2010Z TN24/2001Z TEMPO 2000/2009 34028G38KT SCT010 FEW050CB PROB40 TEMPO 2000/2009 -TSRA SCT040CB BECMG 2014/2016 35018G28KT",
    "UTAA": "TAF UTAA 192245Z 2000/2024 02016KT 6000 SCT050CB SCT050 TEMPO 2000/2008 32018G28KT 2000 BLDU TEMPO 2010/2017 34022G32KT 0700 DS VV007 PROB30 TEMPO 2011/2018 VRB34KT TS",
    "UACC": "TAF UACC 192307Z 2000/2024 28006MPS 9999 SCT040 BKN100 TX29/2009Z TN18/2000Z TEMPO 2004/2016 24007G12MPS BKN030CB PROB40 TEMPO 2006/2016 TS BKN030CB BECMG 2016/2018 VRB01MPS TEMPO 2018/2024 24006MPS -TSRA SCT030CB",
    "UAAA": "TAF UAAA 192301Z 2000/2024 24003G08MPS 9999 FEW050CB SCT100 TX41/2010Z TN23/2000Z TEMPO 2000/2006 32005MPS BECMG 2006/2007 32005MPS TEMPO 2006/2015 04003G08MPS BECMG 2015/2016 25005MPS SCT050CB BKN100 TEMPO 2015/2024 18003MPS",
    "UZTT": "TAF COR UZTT 192300Z 2000/2024 21010KT 7000 NSC TX43/2011Z TN26/2000Z TEMPO 2006/2016 31014G24KT",
    "ZWWW": "TAF ZWWW 192105Z 2000/2106 18004MPS CAVOK TX39/2009Z TX41/2106Z TN29/2023Z BECMG 2002/2003 36004MPS BECMG 2013/2014 18004MPS BECMG 2102/2103 36004MPS",
    "ZLXY": "TAF ZLXY 192109Z 2000/2024 06004MPS 6000 NSC TX38/2008Z TN24/2022Z",
    "ZBAA": "TAF ZBAA 192106Z 2000/2106 16004MPS 6000 NSC TX28/2006Z TX30/2106Z TN22/2021Z BECMG 2009/2010 -TSRA FEW030CB BKN040 TEMPO 2011/2013 TSRA FEW040CB BKN040 BECMG 2014/2015 NSW NSC",
    "ZBHH": "TAF AMD ZBHH 192216Z 1918/2018 06004G09MPS 9999 SCT040 TX30/2008Z TN15/1922Z TEMPO 1922/1924 TSRA SCT040 FEW040CB TEMPO 2006/2009 -TSRA SCT040 FEW040CB",
    "ZSQD": "TAF ZSQD 192103Z 2000/2024 06004MPS 5000 BR NSC TX30/2006Z TN21/2020Z",
    "ZMCK": "TAF ZMCK 192244Z 2000/2106 VRB02MPS 9999 FEW030CB SCT033 TX25/2007Z TN10/2021Z BECMG 2002/2004 32005MPS PROB40 TEMPO 2004/2013 VRB08G13MPS TSRA SCT027CB SCT030 BECMG 2010/2012 VRB02MPS",
    "UUEE": "TAF UUEE 192250Z 2000/2024 22003MPS 9999 SCT040 TX27/2012Z TN15/2001Z",
    "UUDD": "TAF UUDD 192254Z 2000/2106 18003MPS 9999 SCT040 TX28/2012Z TN14/2001Z PROB40 TEMPO 2021/2106 -TSRA BKN016CB",
    "ULLI": "TAF ULLI 192251Z 2000/2024 36003MPS 6000 BKN016 PROB40 TEMPO 2000/2004 0700 FG OVC004 BECMG 2006/2008 04005G10MPS",
    "USSS": "TAF USSS 192254Z 2000/2024 02003G13MPS 6000 -SHRA BKN011CB BECMG 2002/2004 BKN020CB TEMPO 2004/2018 VRB21MPS -TSRAGR SQ FM201800 35003G08MPS 9999 SCT040",
    "UNNT": "TAF UNNT 192300Z 2000/2024 06003G08MPS CAVOK TX28/2009Z TN16/2022Z TEMPO 2000/2002 3000 BR TEMPO 2006/2015 09008G13MPS",
    "UNKL": "TAF UNKL 192251Z 2000/2024 29003MPS 8000 SCT040 TEMPO 2000/2001 0400 FG VV002 TEMPO 2001/2015 34005G12MPS -TSRA BKN016CB",
    "UIBB": "TAF UIBB 192300Z 2000/2024 29002G07MPS 9999 BKN020CB TEMPO 2000/2003 0700 FG TEMPO 2003/2012 VRB08MPS -TSRA",
    "UEEE": "TAF UEEE 192300Z 2000/2106 33003G08MPS 9999 SCT020CB OVC070 TEMPO 2000/2015 VRB14MPS 3200 -TSRA SCT007 BKN020CB OVC070",
    "UHHH": "TAF UHHH 192247Z 2000/2106 26003G09MPS 9999 SCT030CB TX30/2005Z TN19/2019Z TEMPO 2000/2009 29008MPS",
    "UHSS": "TAF UHSS 192247Z 2000/2106 36003MPS 9999 BKN025CB FM201400 32005MPS 6000 BKN004 BKN016CB TEMPO 2014/2023 -TSRA FM210000 31003MPS 9999 BKN030CB"
  },
  "atis": {},
  "windtemp_alaska": "\n000\nFBAK31 KWNO 191959\nFD1AK1\nDATA BASED ON 191800Z    \nVALID 200000Z   FOR USE 2000-0300Z. TEMPS NEG ABV 24000\n\nFT  3000    6000    9000   12000   18000   24000  30000  34000  39000\nADK 2211 2812+08 2919+04 2917-01 3130-12 3138-24 313940 313748 304150\nADQ 1815 1827+03 1836-01 1744-06 1762-18 1876-28 680142 189652 185947\nAKN 1520 1622-02 1622-07 1732-10 1749-21 1758-33 176845 176143 173741\nANC 1322 1651+07 1756+02 1854-03 1952-16 1855-27 186342 186551 184856\nANN 3415 3515+10 3512+07 3411+03 3207-12 3311-24 340839 350848 300658\nBET 1612 1513-02 1309-07 1412-12 1519-23 1629-35 163746 162541 151739\nBRW 2610 2412+03 2107-02 1807-08 1609-21 1713-32 141645 141644 131743\nBTI 2105 2209+05 2315-01 2214-07 2322-18 2441-28 247142 247051 222547\nBTT 1215 1219+03 1324-03 1618-08 2042-17 2067-28 207542 198051 195050\nCDB 2921 2923-01 2823-07 2922-13 3023-25 3124-36 312242 301639 281140\nCZF 1005 1206-01 1111-06 1207-12 0507-24 0507-36 090545 990040 990039\nEHM 1305 1306-02 1306-08 1408-13 1412-24 1516-35 151944 161040 160839\nFAI 1612 1821+05 2138+01 2144-04 2047-15 1950-27 205442 205752 204155\nFYU 1412 1513+06 2220+00 2231-03 2241-15 2143-27 224742 214651 213856\nGAL 1312 1413+01 1517-03 1619-09 1729-20 1749-32 188445 187347 164443\nGKN 1525 1836+07 1929+02 1826-03 2029-16 1930-27 192942 202851 203056\nHOM 1319 1622+04 1635+00 1750-04 1756-17 1772-27 188342 188552 186353\nJNU 3005 3607+08 0105+05 9900+01 2408-12 2310-25 231040 231550 221558\nLUR 1310 1414+01 1314-04 1315-10 1315-21 1223-34 122749 112644 112140\nMCG 1011 1213+03 1626-04 1735-09 1848-20 1767-30 179844 189750 174545\nMDO 1630 1727+06 1728+01 1825-03 1934-15 1939-26 193142 192852 193556\nOME 1215 1320-01 1426-06 1426-12 1322-23 1321-35 122247 142141 131339\nORT      1407+10 1711+04 1721-02 1924-15 2025-27 203242 204052 204156\nOTZ 1214 1411+02 1414-04 1527-10 1634-22 1531-35 143048 152944 142141\nSNP 2608 2908+00 3014-04 3117-09 3229-20 3340-31 337443 337446 334343\nTKA 1007 1633+04 1747+00 1852-05 1952-17 1860-27 197042 186951 184854\nUNK 1216 1325+01 1328-05 1429-12 1434-22 1537-34 174846 173843 152841\nYAK 2905 2812+06 2708+04 2509-01 2314-13 2119-25 202741 202750 202358\nIKO 2817 2918+01 2818-05 3024-08 3136-19 3263-27 327840 328147 326349\nAFM 1110 1013+02 1124-04 1214-09 1719-21 1731-33 184248 174346 183842\n5AB 3013 3118+12 3119+07 3124+02 3136-12 3143-23 317038 318946 318054\n5AC 3419 3417+09 3319+07 3321+02 3112-13 2910-25 281240 281349 241258\n5AD 2032 2025+06 2021+03 2024-01 2129-15 2129-27 242142 252052 212655\n5AE 2019 2121-02 2029-04 1935-09 1950-21 1966-32 189344 187345 194442\n5AF 3216 3115+07 2911+05 2913+01 2609-13 2110-25 211141 211250 211258\n5AG 2014 2113+06 2011+01 2115-02 2022-14 2026-26 193642 194151 193856\n",
  "vaac_active": [
    {
      "volcano": "MAYON",
      "volcano_jp": "マヨン",
      "advisory_nr": "2026/769",
      "obs_time": "2026-07-19 21:48Z",
      "issued_time": "2026-07-19 22:13Z",
      "text_url": "https://www.data.jma.go.jp/vaac/data/TextData/2026/20260719_27303000_0769_Text.html",
      "lat": 13.25,
      "lon": 123.683,
      "text": "FVFE01 RJTD 192213\nVA ADVISORY\nDTG: 20260719/2213Z\nVAAC: TOKYO\nVOLCANO: MAYON 273030\nPSN: N1315 E12341\nAREA: PHILIPPINES\nSOURCE ELEV: 2462M AMSL\nADVISORY NR: 2026/769\nINFO SOURCE: HIMAWARI-9 PHIVOLCS\nERUPTION DETAILS: ERUPTION AT 20260719/2148Z FL080 EXTD W REPORTED\nOBS VA DTG: 19/2200Z\nOBS VA CLD: VA NOT IDENTIFIABLE FM SATELLITE DATA WIND FL080 010/2KT\nFCST VA CLD +6 HR: NOT AVBL\nFCST VA CLD +12 HR: NOT AVBL\nFCST VA CLD +18 HR: NOT AVBL\nRMK: WE WILL ISSUE FURTHER ADVISORY IF VA IS DETECTED IN SATELLITE \nIMAGERY.\nNXT ADVISORY: NO FURTHER ADVISORIES="
    }
  ],
  "vaac_tokyo": [
    {
      "id": "20260719_27303000_0769",
      "year": "2026",
      "volcano": "Mayon",
      "psn": "N1315 E12341",
      "issued": "20260719",
      "text": "FVFE01 RJTD 192213\nVA ADVISORY\nDTG: 20260719/2213Z\nVAAC: TOKYO\nVOLCANO: MAYON 273030\nPSN: N1315 E12341\nAREA: PHILIPPINES\nSOURCE ELEV: 2462M AMSL\nADVISORY NR: 2026/769\nINFO SOURCE: HIMAWARI-9 PHIVOLCS\nERUPTION DETAILS: ERUPTION AT 20260719/2148Z FL080 EXTD W REPORTED\nOBS VA DTG: 19/2200Z\nOBS VA CLD: VA NOT IDENTIFIABLE FM SATELLITE DATA WIND FL080 010/2KT\nFCST VA CLD +6 HR: NOT AVBL\nFCST VA CLD +12 HR: NOT AVBL\nFCST VA CLD +18 HR: NOT AVBL\nRMK: WE WILL ISSUE FURTHER ADVISORY IF VA IS DETECTED IN SATELLITE \nIMAGERY.\nNXT ADVISORY: NO FURTHER ADVISORIES=",
      "img_url": "https://ds.data.jma.go.jp/svd/vaac/data/VAGFN/2026/Images/20260719_27303000_0769_QH21_01.png",
      "sat_img_url": null,
      "text_url": "https://ds.data.jma.go.jp/svd/vaac/data/TextData/2026/20260719_27303000_0769_Text.html"
    },
    {
      "id": "20260718_30027000_0268",
      "year": "2026",
      "volcano": "Sheveluch",
      "psn": "N5639 E16122",
      "issued": "20260718",
      "text": "FVFE01 RJTD 180000\nVA ADVISORY\nDTG: 20260718/0000Z\nVAAC: TOKYO\nVOLCANO: SHEVELUCH 300270\nPSN: N5639 E16122\nAREA: RUSSIA\nSOURCE ELEV: 3283M AMSL\nADVISORY NR: 2026/268\nINFO SOURCE: KVERT HIMAWARI-9\nERUPTION DETAILS: VA CONTINUOUSLY OBS IN SATELLITE IMAGERY\nOBS VA DTG: 17/2320Z\nOBS VA CLD: SFC/FL290 N5601 E16322 - N5605 E16357 - N5546 E16401 - \nN5544 E16326 MOV SE 25KT\nFCST VA CLD +6 HR: 18/0520Z SFC/FL300 N5529 E16617 - N5404 E16714 - \nN5357 E16639 - N5527 E16530\nFCST VA CLD +12 HR: 18/1120Z SFC/FL300 N5352 E17006 - N5152 E17037 - \nN5152 E16936 - N5344 E16817\nFCST VA CLD +18 HR: NO VA EXP\nRMK: SOME PART OF VA OBSCURED BY MET CLOUD.\nNXT ADVISORY: 20260718/0600Z=",
      "img_url": "https://ds.data.jma.go.jp/svd/vaac/data/VAGFN/2026/Images/20260718_30027000_0268_QH21_01.png",
      "sat_img_url": "https://ds.data.jma.go.jp/svd/vaac/data/Sat/2026/Images/30027000/09-ir/20260717_2320_202607180000_ir.png",
      "text_url": "https://ds.data.jma.go.jp/svd/vaac/data/TextData/2026/20260718_30027000_0268_Text.html"
    },
    {
      "id": "20260717_27307000_0014",
      "year": "2026",
      "volcano": "Taal",
      "psn": "N1400 E12100",
      "issued": "20260717",
      "text": "FVFE01 RJTD 171113\nVA ADVISORY\nDTG: 20260717/1113Z\nVAAC: TOKYO\nVOLCANO: TAAL 273070\nPSN: N1400 E12100\nAREA: PHILIPPINES\nSOURCE ELEV: 311M AMSL\nADVISORY NR: 2026/14\nINFO SOURCE: HIMAWARI-9 PHIVOLCS\nERUPTION DETAILS: ERUPTION AT 20260717/1051Z FL040 EXTD E REPORTED\nOBS VA DTG: 17/1100Z\nOBS VA CLD: VA NOT IDENTIFIABLE FM SATELLITE DATA WIND FL040 270/8KT\nFCST VA CLD +6 HR: NOT AVBL\nFCST VA CLD +12 HR: NOT AVBL\nFCST VA CLD +18 HR: NOT AVBL\nRMK: WE WILL ISSUE FURTHER ADVISORY IF VA IS DETECTED IN SATELLITE \nIMAGERY.\nNXT ADVISORY: NO FURTHER ADVISORIES=",
      "img_url": "https://ds.data.jma.go.jp/svd/vaac/data/VAGFN/2026/Images/20260717_27307000_0014_QH21_01.png",
      "sat_img_url": null,
      "text_url": "https://ds.data.jma.go.jp/svd/vaac/data/TextData/2026/20260717_27307000_0014_Text.html"
    },
    {
      "id": "20260713_28208001_0083",
      "year": "2026",
      "volcano": null,
      "psn": "N3136 E13039",
      "issued": "20260713",
      "text": "FVFE01 RJTD 130254\nVA ADVISORY\nDTG: 20260713/0254Z\nVAAC: TOKYO\nVOLCANO: SAKURAJIMA (AIRA CALDERA) 282080\nPSN: N3136 E13039\nAREA: JAPAN\nSOURCE ELEV: 1117M AMSL\nADVISORY NR: 2026/83\nINFO SOURCE: JMA HIMAWARI-9\nERUPTION DETAILS: ERUPTED AT 20260713/0152Z FL100 EXTD N\nOBS VA DTG: 13/0230Z\nOBS VA CLD: SFC/FL100 N3136 E13039 - N3142 E13040 - N3141 E13044 - \nN3134 E13042 MOV NE 15KT\nFCST VA CLD +6 HR: 13/0830Z SFC/FL100 N3234 E13121 - N3145 E13155 - \nN3202 E13110 - N3227 E13051\nFCST VA CLD +12 HR: 13/1430Z SFC/FL100 N3318 E13206 - N3142 E13317 - \nN3134 E13226 - N3312 E13118\nFCST VA CLD +18 HR: NO VA EXP\nRMK: NIL\nNXT ADVISORY: 20260713/0600Z=",
      "img_url": "https://ds.data.jma.go.jp/svd/vaac/data/VAGFN/2026/Images/20260713_28208001_0083_QH21_01.png",
      "sat_img_url": "https://ds.data.jma.go.jp/svd/vaac/data/Sat/2026/Images/28208001/09-ir/20260713_0230_202607130254_ir.png",
      "text_url": "https://ds.data.jma.go.jp/svd/vaac/data/TextData/2026/20260713_28208001_0083_Text.html"
    }
  ],
  "vaac_alaska": [
    {
      "text": "\n000\nFVAK21 PAWU 180008\nVAAAK1\nVA ADVISORY\n\nDTG: 20260718/0000Z\n\nVAAC: ANCHORAGE\n\nVOLCANO: SHEVELUCH 300270\n\nPSN: N5639 E16122\n\nAREA: KAMCHATKA PENINSULA\n\nSOURCE ELEV: 10771 FT AMSL\n\nADVISORY NR: 2026/205\n\nRMK: PLEASE SEE FVFE01 RJTD ISSUED BY VAAC TOKYO WHICH DESCRIBES\nCONDITIONS NEAR THE VAAC ANCHORAGE AREA OF RESPONSIBILITY...BS\n\n\n\n",
      "issued": "2026-07-18T00:08:00+00:00",
      "volcano": "Sheveluch",
      "psn": "N5639 E16122"
    }
  ]
}