{
  "updated_utc": "2026-07-03T07:30Z",
  "metar": {
    "RJAA": "METAR RJAA 030600Z 05011KT 010V080 9999 FEW010 BKN015 BKN/// 23/20 Q1011 BECMG 08010KT",
    "PANC": "METAR PANC 030553Z 24005KT 10SM FEW060 BKN120 BKN200 15/08 A2971 RMK AO2 SLP061 T01500083 10183 20150 53009",
    "PAFA": "METAR PAFA 030553Z VRB04KT 10SM SCT060 BKN095 BKN110 BKN200 19/07 A2961 RMK AO2 SLP028 VIRGA CB DSNT E-SE SW-W MOV S T01890072 10233 20189 53002",
    "PAED": "SPECI PAED 030547Z 22013KT 10SM FEW050 BKN110 17/08 A2968 RMK AO2A WSHFT 41 SLP046 $",
    "KSEA": "METAR KSEA 030553Z 20008KT 10SM FEW025 FEW035 BKN050 16/13 A3006 RMK AO2 RAB15E44 SLP183 P0000 60000 T01560133 10189 20156 53007 $",
    "ZSPD": "METAR ZSPD 030600Z 25004MPS 220V030 9999 R17L/P2000N R16R/P2000N R17R/1400D R16L/P2000N BKN030 33/27 Q1007 NOSIG",
    "ZSSS": "METAR ZSSS 030600Z 29003G08MPS 210V020 9999 SCT033 34/25 Q1007 NOSIG",
    "RJFR": "METAR RJFR 030600Z 34008KT 9999 FEW030 BKN/// 27/20 Q1011",
    "VHHH": "SPECI VHHH 030533Z 19007G20KT 130V220 9999 +TSRA FEW008 FEW012CB SCT025 29/26 Q1009 TEMPO 13025G35KT 1500 TSRA +SHRA FEW008CB SCT015",
    "RCTP": "METAR RCTP 030600Z 33008KT 9999 FEW015 SCT040 BKN180 33/26 Q1012 NOSIG RMK A2989",
    "ZGSZ": "METAR ZGSZ 030600Z 14007MPS 6000 +SHRA FEW026CB BKN040 32/26 Q1009 BECMG AT0610 -SHRA",
    "WSSS": "METAR WSSS 030600Z 14005KT 080V190 9999 FEW018TCU FEW020CB SCT280 31/25 Q1010 NOSIG",
    "WMKK": "METAR WMKK 030600Z VRB04KT 9999 FEW018 31/25 Q1009 NOSIG",
    "WIDD": "METAR WIDD 030600Z 06006KT 8000 R22/2000 -TSRA BKN013CB 26/25 Q1011 BECMG FM0800 NSW SCT014 RMK CB OVER THE FIELD",
    "VTBS": "METAR VTBS 030600Z 22011KT 9999 FEW020 29/23 Q1007 NOSIG",
    "VTBU": "METAR VTBU 030600Z 26009KT 8000 -RA FEW018 SCT040 BKN100 29/27 Q1008 NOSIG",
    "ROAH": "METAR ROAH 030600Z 22007KT 9999 FEW015 30/27 Q1013",
    "VVDN": "METAR VVDN 030600Z 19005KT 9999 -RA SCT017 BKN050 29/26 Q1004 TEMPO 4000 RA",
    "RCKH": "METAR RCKH 030600Z 17019G29KT 140V210 9999 FEW024 SCT120 33/23 Q1011 NOSIG RMK A2986",
    "KLAX": "METAR KLAX 030553Z 24009KT 10SM FEW012 18/15 A2995 RMK AO2 SLP138 T01780150 10211 20178 53008 $",
    "KONT": "METAR KONT 030553Z 27004KT 10SM CLR 19/13 A2995 RMK AO2 SLP132 T01940133 10289 20194 52013 $",
    "KSFO": "METAR KSFO 030556Z 32006KT 10SM FEW006 14/11 A2997 RMK AO2 SLP148 T01440111 10211 20144 51008",
    "KOAK": "METAR KOAK 030553Z 29006KT 10SM FEW006 FEW012 14/12 A2998 RMK AO2 SLP150 T01390117 10200 20139 51009 $",
    "KMHR": "METAR KMHR 030535Z AUTO 14005KT 10SM CLR 16/12 A2989 RMK AO2 T01650116",
    "KDFW": "METAR KDFW 030553Z 15008KT 10SM FEW250 28/21 A3000 RMK AO2 SLP148 T02830211 10344 20283 403500261 51011 $",
    "KIAH": "METAR KIAH 030553Z 17004KT 10SM FEW030 FEW250 27/24 A3003 RMK AO2 SLP166 T02720239 10322 20272 403330244 50007",
    "KORD": "METAR KORD 030551Z VRB03KT 3SM -TSRA BR SCT040CB BKN095 OVC150 22/21 A3010 RMK AO2 PK WND 27036/0518 SLP186 CONS LTGICCCCG OHD TS OHD MOV E P0056 60163 T02170206 10333 20217 403500217 51018 $",
    "KJFK": "METAR KJFK 030551Z 27007KT 10SM FEW250 30/22 A2994 RMK SLP138 T03000217 10339 20256 53008 $",
    "KRFD": "METAR KRFD 030554Z 15008KT 10SM FEW049 BKN140 OVC210 22/21 A3006 RMK AO2 RAB16E43 SLP174 FRQ LTGICCG DSNT SE-W CB DSNT SE-W MOV NE P0000 60000 T02220211 10311 20222 403330222 50010",
    "KIND": "METAR KIND 030554Z 19004KT 10SM CLR 28/24 A3008 RMK AO2 SLP177 T02780239 10317 20278 58005",
    "KDTW": "METAR KDTW 030553Z 23003KT 8SM SCT050 BKN090 BKN220 28/22 A3005 RMK AO2 SLP170 OCNL LTGICCC DSNT SW-NW CB DSNT SW-NW MOV E T02780217 10339 20278 50004",
    "KMSP": "METAR KMSP 030553Z 14009KT 10SM OVC160 23/21 A2991 RMK AO2 SLP124 T02330211 10278 20233 402830217 58020",
    "CYEG": "METAR CYEG 030600Z 11010KT 20SM FEW100 FEW140 16/10 A2982 RMK AC1AC1 SLP100 DENSITY ALT 3200FT",
    "EHAM": "METAR EHAM 030555Z 30009KT 260V330 9999 FEW025 17/12 Q1026 NOSIG",
    "EBBR": "METAR EBBR 030550Z 25004KT 9999 SCT048 17/13 Q1028 NOSIG",
    "EDDF": "METAR EDDF 030550Z AUTO 32007KT 280V340 CAVOK 17/11 Q1026 NOSIG",
    "EDFH": "METAR EDFH 030550Z 28003KT 240V300 CAVOK 14/10 Q1027",
    "EDDL": "METAR EDDL 030550Z AUTO 26004KT 230V290 CAVOK 16/11 Q1026 NOSIG",
    "EDDK": "METAR EDDK 030550Z AUTO VRB02KT CAVOK 16/12 Q1027 NOSIG",
    "EBLG": "METAR EBLG 030550Z 21003KT 160V230 CAVOK 16/11 Q1028 NOSIG",
    "LSZH": "METAR LSZH 030550Z 01007KT 9999 FEW037 BKN055 20/14 Q1026 NOSIG",
    "LIMC": "METAR LIMC 030550Z 03003KT CAVOK 23/14 Q1019 NOSIG",
    "LIRF": "METAR LIRF 030550Z 04009KT CAVOK 25/17 Q1013 NOSIG",
    "EINN": "METAR EINN 030600Z 13004KT 9999 FEW018 BKN200 12/10 Q1028 NOSIG",
    "EGLL": "METAR EGLL 030550Z AUTO 31005KT 280V350 9999 NCD 15/09 Q1029",
    "EGSS": "METAR EGSS 030550Z AUTO 28003KT 240V310 9999 NCD 13/09 Q1029",
    "EPWA": "METAR EPWA 030600Z 29010KT 9999 4100W -SHRA SCT023CB BKN033 18/15 Q1014 TEMPO 4000 SHRA",
    "UHPP": "METAR UHPP 030600Z 20005MPS 9999 -SHRA FEW006 BKN022CB BKN060 10/10 Q1015 R16R/290162 NOSIG RMK MT OBSC QFE758/1011",
    "EFHK": "METAR EFHK 030550Z 13009KT 9999 -SHRA FEW009 SCT030CB 16/14 Q1004 TEMPO BKN012",
    "LBBG": "METAR LBBG 030600Z 28005KT 230V010 9999 FEW030 SCT049 25/18 Q1011 NOSIG",
    "LTAC": "METAR LTAC 030550Z VRB02KT 9999 FEW040 SCT100 23/12 Q1012 NOSIG RMK RWY21C 11003KT 030V180 RWY03L VRB02KT RWY21R 08003KT 030V150 RWY03R VRB02KT RWY21L VRB02KT",
    "UBBB": "METAR UBBB 030600Z 14006KT CAVOK 30/16 Q1009 NOSIG",
    "UTAA": "METAR UTAA 030600Z 31008KT 260V350 9999 FEW033 29/09 Q1010 R88/CLRD70 NOSIG",
    "UACC": "METAR UACC 030600Z 20012MPS 9999 SCT040CB BKN043 23/11 Q1002 NOSIG RMK QFE721/0961",
    "UAAA": "METAR UAAA 030600Z 27002MPS 230V320 5000 -RA BR SCT004 OVC033 17/16 Q1016 NOSIG RMK QBB140",
    "UZTT": "METAR UZTT 030600Z 19004KT CAVOK 28/10 Q1010 NOSIG",
    "ZWWW": "METAR ZWWW 030600Z 35005MPS 320V020 CAVOK 36/14 Q1005 NOSIG",
    "ZLXY": "METAR ZLXY 030600Z 09002MPS 350V150 CAVOK 33/16 Q1008 NOSIG",
    "ZBAA": "METAR ZBAA 030600Z 17004MPS 130V210 8000 NSC 34/25 Q1002 NOSIG",
    "ZBHH": "METAR ZBHH 030600Z 22004MPS 170V260 CAVOK 31/18 Q1008 NOSIG",
    "ZSQD": "METAR ZSQD 030600Z 16005MPS 6000 NSC 31/24 Q1006 NOSIG",
    "ZMCK": "METAR ZMCK 030600Z 27003MPS 240V310 9999 FEW030CB SCT033 21/12 Q1011 NOSIG RMK QFE643.7 57 MOP",
    "UUEE": "METAR UUEE 030600Z 33004MPS 290V040 CAVOK 20/13 Q1009 R24L/CLRD62 R24C/CLRD62 NOSIG",
    "UUDD": "METAR UUDD 030600Z 35004MPS 310V010 CAVOK 23/12 Q1009 R31L/CLRD65 NOSIG",
    "ULLI": "METAR ULLI 030600Z 27003MPS 230V300 9999 FEW013 18/13 Q1008 R28R/090065 NOSIG",
    "USSS": "METAR USSS 030600Z 35005MPS 310V010 9999 BKN020CB 19/17 Q1005 R26L/CLRD60 R26R/210060 NOSIG RMK QFE733/0977",
    "UNNT": "METAR UNNT 030600Z 08004MPS 040V130 CAVOK 31/14 Q1008 R07/CLRD// R34/////// NOSIG RMK QFE746/0994",
    "UNKL": "METAR UNKL 030600Z 11002MPS 060V140 CAVOK 28/14 Q1010 R29/CLRD// NOSIG RMK QFE732",
    "UIBB": "METAR UIBB 030600Z 04003MPS 330V120 9999 SCT040CB 26/16 Q1009 R30/CLRD62 NOSIG RMK QFE714/0952",
    "UEEE": "METAR UEEE 030600Z 03004MPS CAVOK 28/01 Q1004 R23/09//70 NOSIG RMK QFE744",
    "UHHH": "METAR UHHH 030600Z 23006MPS 9999 FEW039CB 28/18 Q1004 R23R/090060 NOSIG RMK QFE747/0996",
    "UHSS": "METAR UHSS 030600Z 20005MPS 9999 NSC 15/12 Q1012 R19/CLRD70 NOSIG RMK QFE758/1010"
  },
  "taf": {
    "RJAA": "TAF RJAA 030505Z 0306/0412 05008KT 9999 FEW015 BKN030 BECMG 0306/0308 08008KT TEMPO 0309/0315 FEW001 BKN003 BECMG 0310/0312 05004KT TEMPO 0315/0318 3000 BR FEW001 BKN003 TEMPO 0318/0400 FEW001 BKN003 BECMG 0400/0403 14008KT",
    "PANC": "TAF PANC 030550Z 0306/0412 20007KT P6SM FEW050 BKN110 TEMPO 0306/0310 18008G18KT FM031000 18008KT P6SM VCSH BKN060 FM031600 22006KT P6SM OVC050 FM032000 29007KT P6SM FEW025 SCT040 BKN070 FM032300 28008G16KT P6SM VCSH SCT040 BKN060 FM040600 18010KT 6SM -RA BR OVC040",
    "PAFA": "TAF PAFA 030537Z 0306/0412 VRB03KT P6SM VCTS SCT060CB SCT100 FM031800 VRB02KT P6SM BKN100 FM032100 VRB03KT P6SM -RA BKN050 FM040300 30003KT P6SM BKN100",
    "PAED": "TAF PAED 030500Z 0305/0411 24009KT 9999 FEW050 BKN100 BKN180 QNH2969INS BECMG 0314/0315 02006KT 9999 VCSH SCT020 BKN025 QNH2979INS BECMG 0400/0401 23010KT 9999 NSW SCT030 OVC045 QNH2980INS BECMG 0408/0409 VRB06KT 9999 -RA BKN030 OVC045 QNH2988INS TX17/0322Z TN09/0313Z",
    "KSEA": "TAF KSEA 030520Z 0306/0412 20007KT P6SM SCT030 BKN060 FM030800 21007KT P6SM OVC020 FM031500 21005KT 6SM BR BKN008 OVC015 FM031800 22005KT P6SM OVC025 FM032000 24007KT P6SM BKN045 FM040300 30006KT P6SM SCT050",
    "ZSPD": "TAF ZSPD 030303Z 0306/0412 20004MPS 6000 -SHRA BKN015 TX31/0306Z TX31/0406Z TN24/0321Z TEMPO 0307/0311 33008G13MPS 2000 TSRA BKN010 SCT030CB BECMG 0315/0316 NSW",
    "ZSSS": "TAF ZSSS 030304Z 0306/0412 20004MPS 6000 -SHRA BKN020 TX32/0306Z TX32/0406Z TN24/0321Z TEMPO 0307/0311 33008G13MPS 2000 TSRA BKN010 SCT030CB BECMG 0314/0315 NSW",
    "RJFR": "TAF RJFR 030507Z 0306/0412 34005KT 9999 FEW020 BECMG 0310/0312 11006KT TEMPO 0317/0318 4000 SHRA BR BKN005 BKN007 TEMPO 0318/0403 2000 +TSRA BR BKN005 BKN007 FEW012CB BECMG 0403/0406 30010KT",
    "VHHH": "TAF VHHH 030500Z 0306/0412 12020KT 9999 FEW015 SCT030 TX31/0306Z TX30/0406Z TN26/0322Z TEMPO 0306/0315 13025G35KT 1500 TSRA +SHRA FEW008CB SCT015 TEMPO 0315/0321 13025G35KT 2000 TSRA SHRA FEW008CB SCT020 TEMPO 0321/0324 14020G30KT 1000 +SHRA FEW006CB SCT015 TEMPO 0400/0406 14020G30KT 1200 TSRA +SHRA FEW008CB SCT015 BECMG 0406/0408 18015KT TEMPO 0406/0412 16015G25KT 2500 SHRA FEW010CB SCT020",
    "RCTP": "TAF RCTP 030500Z 0306/0412 30005KT 9999 FEW010 BKN032 TEMPO 0306/0312 28014KT FEW010 FEW015CB BKN020 BECMG 0312/0313 19005KT TEMPO 0313/0317 10005KT TEMPO 0317/0321 25005KT BECMG 0400/0401 33005KT",
    "ZGSZ": "TAF AMD ZGSZ 030559Z 0306/0412 16006G12MPS 8000 BKN040 TX34/0306Z TX30/0406Z TN26/0322Z TEMPO 0306/0309 2000 +TSRA SCT015 FEW020CB BKN030 TEMPO 0311/0314 SHRA SCT015 FEW020CB BKN030 TEMPO 0320/0324 SHRA SCT015 FEW020CB BKN030 TEMPO 0401/0405 SHRA SCT015 FEW020CB BKN030",
    "WSSS": "TAF WSSS 030500Z 0306/0412 14008KT 9999 FEW015 SCT020 TEMPO 0306/0309 3000 TSRA FEW012CB BKN015",
    "WMKK": "TAF WMKK 030500Z 0306/0412 13005KT 9999 FEW018 PROB40 TEMPO 0400/0404 5000 TSRA FEW010 FEW017CB",
    "VTBS": "TAF VTBS 030500Z 0306/0412 22010KT 9999 SCT020 TEMPO 0309/0314 VRB15KT 4000 TSRA FEW018CB SCT020 BKN080",
    "VTBU": "TAF VTBU 030500Z 0306/0406 24010KT 9999 FEW020 SCT100 TEMPO 0309/0314 VRB15KT 4000 TSRA FEW018CB SCT030 BKN090",
    "ROAH": "TAF ROAH 030505Z 0306/0412 20010KT 9999 FEW012",
    "VVDN": "TAF VVDN 030500Z 0306/0406 21010KT 8000 SCT017 BKN050 TEMPO 0306/0308 4500 SHRA BKN013 FEW017CB BKN050 TEMPO 0308/0312 23015G25KT 2800 +TSRA BKN010 SCT017CB BKN050",
    "RCKH": "TAF RCKH 030500Z 0306/0412 16005KT 9999 FEW010 BKN032 TEMPO 0306/0312 17016KT TEMPO 0312/0318 09005KT TEMPO 0318/0324 06005KT TEMPO 0400/0406 09005KT",
    "KLAX": "TAF KLAX 030539Z 0306/0412 26010KT P6SM SKC FM030700 26005KT P6SM SKC FM030900 VRB03KT P6SM OVC012 FM031700 25006KT P6SM BKN015 FM031900 25012KT P6SM FEW015 FM040400 25006KT P6SM SCT015 FM040800 25005KT P6SM BKN015",
    "KONT": "TAF KONT 030520Z 0306/0412 VRB05KT P6SM SKC TEMPO 0313/0315 5SM HZ BKN009 FM032100 25011KT P6SM SKC FM040500 26005KT P6SM SKC",
    "KSFO": "TAF KSFO 030520Z 0306/0412 28011KT P6SM FEW012 FM031000 28006KT P6SM SCT012 FM031700 VRB06KT P6SM FEW014 FM032100 26011KT P6SM SCT250 FM040900 28006KT P6SM SCT007",
    "KOAK": "TAF KOAK 030520Z 0306/0412 28009KT P6SM FEW020 FEW200 FM030900 21006KT P6SM BKN012 FM031100 27007KT P6SM OVC009 FM031700 24005KT P6SM SCT014 FM032100 30011KT P6SM FEW250 FM040700 27007KT P6SM OVC007",
    "KMHR": "TAF KMHR 030526Z 0306/0406 19006KT P6SM SKC FM031800 25006KT P6SM SKC FM040200 22010KT P6SM SKC",
    "KDFW": "TAF KDFW 030520Z 0306/0412 16011KT P6SM SCT180",
    "KIAH": "TAF KIAH 030521Z 0306/0412 14004KT P6SM FEW030 FEW100 TEMPO 0311/0314 17002KT 6SM BR SCT015 FM031400 20006KT P6SM SCT035 SCT050 FM040000 14009KT P6SM FEW040 SCT100 FM040400 18005KT P6SM FEW040",
    "KORD": "TAF KORD 030520Z 0306/0412 20010KT P6SM SCT050 BKN200 TEMPO 0306/0309 16017G27KT 3SM TSRA SCT020 BKN035CB FM031200 25010KT P6SM FEW030 SCT050 PROB30 0319/0324 27015G30KT 3SM TSRA BKN030CB FM040100 20006KT P6SM FEW070 BKN150",
    "KJFK": "TAF KJFK 030535Z 0306/0412 28006KT P6SM FEW250 FM031300 30009KT P6SM FEW250 FM031700 24011KT P6SM FEW070 FEW250 FM031900 21015KT P6SM FEW080 FEW250 FM040100 27008KT P6SM FEW080 SCT250 FM040400 29006KT P6SM SCT250",
    "KRFD": "TAF KRFD 030520Z 0306/0406 18007KT P6SM VCSH SCT040 BKN200 FM031100 25010KT P6SM FEW030 SCT050 PROB30 0318/0322 27015G30KT 3SM TSRA BKN030CB FM040100 20006KT P6SM FEW070 BKN150",
    "KIND": "TAF KIND 030520Z 0306/0412 22004KT P6SM FEW250 FM031600 23008KT P6SM FEW050 SCT250 FM032300 22008KT P6SM VCSH SCT050 SCT250 PROB30 0400/0406 VRB30KT -TSRA BKN050CB FM040800 21004KT P6SM BKN100",
    "KDTW": "TAF KDTW 030520Z 0306/0412 24006KT P6SM SCT060 BKN250 FM031600 25013G20KT P6SM BKN045 FM032200 26010KT P6SM BKN250",
    "KMSP": "TAF KMSP 030539Z 0306/0412 16005KT P6SM SCT120 FM031600 17007KT P6SM SCT040 BKN150 FM040900 10005KT P6SM SCT015 BKN200",
    "CYEG": "TAF CYEG 030540Z 0306/0406 12006KT P6SM SCT100 FM031200 30008KT P6SM BKN100 FM032200 32008KT P6SM BKN060 TEMPO 0322/0402 VRB15G25KT P6SM VCTS BKN040CB FM040200 VRB03KT P6SM SCT080 RMK NXT FCST BY 030900Z",
    "EHAM": "TAF EHAM 030445Z 0306/0412 29008KT CAVOK BECMG 0306/0309 29013KT BECMG 0317/0320 25005KT BECMG 0405/0408 28013KT",
    "EBBR": "TAF EBBR 030500Z 0306/0412 24003KT 9999 FEW040 BECMG 0310/0312 31010KT BECMG 0320/0322 VRB03KT BECMG 0410/0412 27010KT",
    "EDDF": "TAF EDDF 030500Z 0306/0412 31007KT CAVOK",
    "EDFH": "TAF EDFH 030500Z 0306/0406 30004KT CAVOK",
    "EDDL": "TAF EDDL 030500Z 0306/0412 27004KT CAVOK BECMG 0307/0310 29011KT BECMG 0318/0321 32006KT BECMG 0322/0401 VRB02KT BECMG 0404/0406 19006KT",
    "EDDK": "TAF EDDK 030500Z 0306/0412 VRB03KT CAVOK BECMG 0309/0311 31010KT BECMG 0319/0322 33005KT BECMG 0323/0402 VRB02KT BECMG 0408/0410 27011KT",
    "EBLG": "TAF EBLG 030500Z 0306/0412 24003KT 9999 FEW030 BECMG 0310/0312 31010KT BECMG 0320/0322 VRB02KT BECMG 0410/0412 27011KT",
    "LSZH": "TAF LSZH 030525Z 0306/0412 36005KT 9999 FEW040 BKN050 TX26/0315Z TN20/0306Z TN12/0405Z BECMG 0306/0308 05005KT BECMG 0311/0314 35004KT BECMG 0322/0401 CAVOK",
    "LIMC": "TAF LIMC 030500Z 0306/0412 VRB05KT CAVOK",
    "LIRF": "TAF LIRF 030500Z 0306/0412 06010KT 9999 FEW030 BECMG 0309/0311 26014KT BECMG 0318/0320 02012KT BECMG 0410/0412 24010KT",
    "EINN": "TAF EINN 030500Z 0306/0406 VRB03KT 9999 FEW018 BECMG 0308/0310 25010KT PROB40 TEMPO 0314/0320 5000 BR BKN012 BECMG 0320/0322 BKN010 PROB40 TEMPO 0322/0405 4000 -DZ BKN005",
    "EGLL": "TAF EGLL 030457Z 0306/0412 31006KT 9999 FEW045 BECMG 0318/0320 25012KT PROB30 TEMPO 0406/0408 BKN014",
    "EGSS": "TAF EGSS 030502Z 0306/0412 27006KT 9999 FEW040 PROB30 0405/0408 BKN010",
    "EPWA": "TAF AMD EPWA 030628Z 0306/0406 30012KT 9999 SCT030 TEMPO 0306/0308 -SHRA BKN020CB TEMPO 0308/0406 31015G35KT",
    "UHPP": "TAF UHPP 030458Z 0306/0412 20003G12MPS 9999 SCT012 BKN023CB TEMPO 0306/0309 4000 -SHRA BKN005 OVC017CB TEMPO 0309/0321 1000 -SHRA BR VV002",
    "EFHK": "TAF AMD EFHK 030619Z 0306/0406 12010KT 9999 -SHRA FEW009 SCT030CB TEMPO 0306/0317 7000 SHRA PROB40 0308/0317 TSRA BKN012 BKN030CB BECMG 0317/0319 CAVOK TEMPO 0319/0406 FEW050CB PROB30 0400/0403 0700 FG VV002",
    "LBBG": "TAF LBBG 030500Z 0306/0406 27010KT 9999 SCT040 PROB30 TEMPO 0308/0311 VRB16G28KT 4000 TSRA SCT030CB BKN045 BECMG 0311/0312 12010KT TEMPO 0312/0317 VRB16G28KT 3000 TSRA SCT030CB BKN040 BECMG 0318/0319 29010KT BECMG 0400/0402 35012KT",
    "LTAC": "TAF LTAC 030440Z 0306/0406 VRB02KT 9999 FEW040 SCT100 BECMG 0306/0308 32012KT BECMG 0315/0318 VRB02KT CAVOK",
    "UBBB": "TAF UBBB 030509Z 0306/0406 16012KT CAVOK TX33/0309Z TN22/0401Z TEMPO 0308/0315 19016G26KT BECMG 0318/0320 17005KT TEMPO 0400/0403 VRB04KT 3000 BR FEW005",
    "UTAA": "TAF UTAA 030450Z 0306/0406 33016KT 6000 SCT040CB SCT050 TEMPO 0308/0314 32014G24KT 4000 DRDU BECMG 0316/0318 24014KT",
    "UACC": "TAF UACC 030500Z 0306/0406 20010MPS 9999 SCT030CB BKN050 TX25/0310Z TN13/0323Z TEMPO 0306/0318 VRB18MPS 3100 -TSRA SQ BKN020CB BECMG 0318/0320 21004MPS SCT040 BKN100 BECMG 0403/0405 23008MPS SCT030CB TEMPO 0403/0406 VRB16MPS 3100 -TSRA SQ BKN020CB",
    "UAAA": "TAF UAAA 030503Z 0306/0406 02003G08MPS 6000 -SHRA BKN040CB OVC100 TX20/0310Z TN13/0401Z TEMPO 0306/0315 29005G10MPS 2500 TSRA BR SCT005 BKN011CB OVC030 BECMG 0315/0316 19002MPS 3100 BR TEMPO 0316/0402 1000 SCT003 BKN015 OVC030 TEMPO 0402/0406 27005MPS 5000 -SHRA SCT011CB OVC030",
    "UZTT": "TAF UZTT 030500Z 0306/0406 24010KT 7000 SCT060CB TEMPO 0306/0318 VRB12G22KT -TSRA BKN050CB",
    "ZWWW": "TAF ZWWW 030303Z 0306/0412 36004G09MPS CAVOK TX38/0309Z TX36/0409Z TN27/0322Z BECMG 0316/0317 30005G12MPS BECMG 0320/0321 22004MPS BECMG 0402/0403 36004MPS",
    "ZLXY": "TAF ZLXY 030302Z 0306/0406 20003MPS 6000 NSC TX35/0406Z TN22/0321Z",
    "ZBAA": "TAF ZBAA 030301Z 0306/0412 17004MPS 6000 NSC TX37/0306Z TX37/0406Z TN23/0321Z BECMG 0310/0311 -TSRA FEW040CB BKN040 BECMG 0312/0313 NSW NSC",
    "ZBHH": "TAF ZBHH 030302Z 0306/0406 24004MPS 9999 FEW040 TX35/0308Z TN17/0322Z BECMG 0308/0309 -TSRA SCT040CB FEW040 TEMPO 0309/0311 VRB08G15MPS TSRA BECMG 0311/0312 NSW FEW040",
    "ZSQD": "TAF ZSQD 030306Z 0306/0406 16004MPS 3500 BR NSC TX32/0306Z TN23/0321Z",
    "ZMCK": "TAF ZMCK 030457Z 0306/0412 VRB02MPS 9999 FEW030CB BKN033 TX21/0307Z TN13/0321Z TEMPO 0306/0318 VRB09G14MPS 6000 TSRA SCT027CB BKN030 BECMG 0316/0318 RA FEW017 FEW027CB BKN030 TEMPO 0318/0324 VRB08G13MPS 8000 TSRA SCT027CB BKN030",
    "UUEE": "TAF UUEE 030452Z 0306/0406 30003G08MPS 9999 SCT020 TX25/0312Z TN16/0401Z PROB40 TEMPO 0308/0320 -TSRA BKN020CB TEMPO 0321/0406 09008G13MPS -TSRA BKN016CB",
    "UUDD": "TAF UUDD 030456Z 0306/0412 32005G10MPS 9999 SCT030 TX29/0312Z TN17/0403Z PROB40 TEMPO 0306/0315 -TSRA BKN020CB BECMG 0319/0321 11003MPS TEMPO 0400/0412 3000 -TSRA BKN016CB BECMG 0404/0406 33005MPS",
    "ULLI": "TAF ULLI 030453Z 0306/0406 26005MPS 6000 SCT020 BECMG 0307/0309 22003G08MPS TEMPO 0315/0320 3100 -SHRA SCT011 BKN015 BKN020CB BECMG 0320/0322 16005MPS BKN015 TEMPO 0322/0406 2500 -TSRA BR BKN006 BKN017CB",
    "USSS": "TAF USSS 030452Z 0306/0406 34003G14MPS 9999 -SHRA BKN016CB TEMPO 0306/0320 01008G22MPS -TSRAGR FM032000 30003G08MPS 6000 SCT016",
    "UNNT": "TAF UNNT 030500Z 0306/0406 10003G08MPS 9999 SCT040 TX32/0310Z TN17/0322Z TEMPO 0309/0324 -TSRA BKN020CB TEMPO 0403/0406 18005G10MPS",
    "UNKL": "TAF UNKL 030446Z 0306/0406 12003G08MPS 9999 SCT040 TX30/0308Z TN15/0322Z",
    "UIBB": "TAF UIBB 030500Z 0306/0406 33005MPS 9999 SCT040CB TEMPO 0306/0315 VRB10MPS 1900 TSRA VV006 BECMG 0400/0402 03003G08MPS",
    "UEEE": "TAF UEEE 030500Z 0306/0412 09003G10MPS CAVOK TX30/0306Z TN12/0318Z",
    "UHHH": "TAF UHHH 030453Z 0306/0412 23006MPS 9999 SCT025CB TX28/0405Z TN18/0320Z BECMG 0310/0312 18003MPS",
    "UHSS": "TAF COR UHSS 030455Z 0306/0412 20003MPS 9999 NSC BECMG 0310/0313 BKN004 BECMG 0323/0401 SCT040"
  },
  "atis": {
    "RJAA": "[Arrival ATIS] RJAA ARR ATIS A 0707Z M0700 (APCH)ILS Z RWY34R LDG RWY 34R DEP RWY 34L DEP FREQ 124.2. OBSERVE GEAR DOWN OPS PROC ON FNL. M 030700Z 06009KT 020V090 15KM FEW008ST BKN012CU 22/19 Q1011/A2988= Q/TWO NINE EIGHT EIGHT STP\n[Departure ATIS] RJAA DEP ATIS F 0536Z M0530 (APCH)ILS RWY34L/ILS Z RWY34R LDG RWY 34L/34R DEP RWY 34L DEP FREQ 124.2. TWY A1 CLSD. SIMUL PARL APCHS INPR. OBSERVE GEAR DOWN OPS PROC ON FNL. M 180530Z 03010KT 25KM BKN006ST BKN008ST 22/20 Q1007/A2976= Q/TWO NINE SEVEN SIX STP",
    "PANC": "[Arrival ATIS] PANC ARR ATIS E 0453Z - PANC ATIS INFO E 0453Z. 24006KT 10SM FEW050 FEW140 FEW200 14/06 A3031 (THREE ZERO THREE ONE). 7R APPROACHES IN USE. LANDING RWY 7R, DEPARTING RWY 33. NOTICE TO AIRMEN. RWY 7L CLSD. CHECK NOTAMS FOR TAXIWAY CLOSURES. CONTACT TOWER 118.3 FOR TAXI. ...ADVS YOU HAVE INFO E.\n[Departure ATIS] PANC DEP ATIS I 2253Z ANC ATIS INFO I 2253Z. 28006KT 10SM FEW050 FEW110 FEW220 16/07 A2971 (TWO NINER SEVEN ONE). 7R, 7L APPROACHES IN USE. LANDING RWY 7R, 7L, DEPARTING RWY 7L, 33. NOTICE TO AIRMEN. TWY Q CLSD. TWY R CLSD BTWN TWY, S AND TWY U . TWY E CLSD BTWN TWY, L AND TWY M . TWY K BTWN A AND D RESTRICTED TO AIRCRAFT WITH WINGSPAN LESS THAN 118 FEET. CONTACT TOWER 118.3 FOR TAXI. ...ADVS YOU HAVE INFO I.",
    "KSEA": "[Arrival ATIS] KSEA ARR ATIS D 0453Z SEA ATIS INFO D 0453Z. 28004KT 10SM FEW070 FEW210 18/09 A3006 (THREE ZERO ZERO SIX). ILS AND CHARTED VISUAL APPROACH RWYS 34L AND 34R , APCH IN USE. DEPG RWY 34R. SIMUL ARRIVALS TO RWY 34L AND DEPARTURES TO RWY 34R ARE IN USE. SIMUL APCHS IN USE TO PARA RYS. NOTAMS... LOC RWY 34C OTS, RWY 34C GS OTS. BIRD ACTIVITY VICINITY ARPT. APCH AND DEP PATHS ARE OVER NOISE SENSITIVE AREAS. ...ADVS YOU HAVE INFO D.\n[Departure ATIS] KSEA DEP ATIS F 0653Z SEA ATIS INFO F 0653Z. 18009KT 10SM FEW030 SCT045 BKN060 16/13 A3005 (THREE ZERO ZERO FIVE). ILS AND CHARTED VISUAL APPROACH RWY 16C , APCH IN USE. DEPG RWY 16L, DEPG ACFT PLAN AND BRIEF NUMBERS FOR BOTH RWYS 16L AND 16C. SIMUL APCHS IN USE, BFI & SEA. TRAFFIC BELOW YOU ON FINAL. SIMUL APCHS IN USE TO PARA RYS. NOTAMS... BIRD ACTIVITY VICINITY ARPT. STADIUM TFR IN EFFECT CHECK FDC NOTAMS FOR MORE INFO. ...ADVS YOU HAVE INFO F.",
    "ZSPD": "[Arrival ATIS] ZSPD ARR ATIS E 0530Z EXP ILS APCH INDEPENDENT PARL INSTR APCH LDG RWY 17R & 16L WIND RWY 17R TDZ 080/4MPS VRB BTN 040/ AND 100/ MID 070/3MPS END 090/3MPS RWY 16L TDZ 090/3MPS MID 110/3MPS VRB BTN 080/ AND 140/ END 100/3MPS VIS RWY 17R TDZ 10000M MID 10000M END 9000M VIS RWY 16L TDZ 10000M MID 10000M END 10000M CLD BKN 450M T 27 /DP 23 QNH 1008 HPA CAUTION THE BIRDS NEAR THE RUNWAY ADZ YOU HAVE INFO E.\n[Departure ATIS] ZSPD DEP ATIS E 0530Z DEP RWY 17L & 16R WIND RWY 17L TDZ 050/4MPS MID 080/4MPS VRB BTN 040/ AND 100/ END 070/4MPS RWY 16R TDZ 060/4MPS MID 100/4MPS END 080/3MPS VRB BTN 050/ AND 110/ VIS RWY 17L TDZ 10000M MID 10000M END 10000M VIS RWY 16R TDZ 10000M MID 10000M END 10000M CLD BKN 450M T 27 /DP 23 QNH 1008 HPA CAUTION THE BIRDS NEAR THE RUNWAY ADZ YOU HAVE INFO E.",
    "ZSSS": "[Arrival ATIS] ZSSS ARR ATIS Q 0530Z EXP ILS APCH LDG RWY 18L WIND RWY 18L TDZ 100/3MPS MID 110/4MPS VRB BTN 080/ AND 140/ END 150/3MPS VIS RWY 18L TDZ 10000M MID 10000M END 10000M NSC T 30 /DP 22 QNH 1008 HPA VISUAL APCH IN USE QNH OF SHANGHAI TERMINAL CONTROL AREA 1008 HPA ADZ YOU HAVE INFO Q.\n[Departure ATIS] ZSSS DEP ATIS P 0500Z DEP RWY 18R WIND RWY 18R TDZ 110/4MPS MID 120/4MPS END 170/3MPS VIS RWY 18R TDZ 9000M MID 10000M END 9000M FBL RA CLD FEW 780M T 30 /DP 22 QNH 1008 HPA VISUAL APCH IN USE QNH OF SHANGHAI TERMINAL CONTROL AREA 1008 HPA ADZ YOU HAVE INFO P.",
    "VHHH": "[Arrival ATIS] VHHH ARR ATIS G 0537Z ARRIVALS, RWY 25R. EXP RNAV TRANSITION TO ILS APCH, RWY 25R. RNP APCH IS AVBL ON REQ, RWY 25R. RWY 25 RUNWAY CONDITION REPORT AT 0443Z. RWY 25R RUNWAY CONDITION CODES 5 , 5 , 5 . RWY SFC ALL PARTS WET. EXP 30 MINS DELAY DUE WX. SIG WS FCST. MOD TURB FCST. WIND 250/12KT. VIS 2000M. RA. CLD FEW 600FT FEW CB 1000FT SCT 1800FT BKN 4000FT. T25 DP23. QNH 1010HPA. TS RERA. WIND AND VIS CHANGING RAPIDLY DUE PASSING TS. ACK INFO G ON FIRST CTC WITH APP.\n[Departure ATIS] VHHH DEP ATIS Y 0512Z DEPARTURES, RWY 25L. RWY 25 RUNWAY CONDITION REPORT AT 0443Z. RWY 25L RUNWAY CONDITION CODES 2 , 2 , 2 . RWY SFC ALL PARTS 25 PERCENT 04 MILLIMETERS STANDING WATER. EXP SIG DEP DLA DUE WX. SIG WS FCST. MOD TURB FCST. WIND 230/20KT. VIS 800M. HVY RA. CLD FEW 500FT FEW CB 1000FT SCT 1800FT BKN 4000FT. T25 DP24. QNH 1011HPA. TREND TEMPO 240/25KT MAX45 VIS 1500M MOD TSRA HVY SHRA CLD FEW CB 800FT SCT 1500FT. ACK INFO Y ON FIRST CTC WITH DELIVERY .",
    "RCTP": "[Arrival ATIS] RCTP ARR ATIS I 0700Z EXP ILS APCH RWY23R FOR ARR. RWY23L FOR DEP. WIND 330/07KT VARYING BTN 300 AND 360 VIS 10 KM OR MORE CLD SCT 1500FT BKN 4500FT T 32 DP 27 QNH 1012HPA NOSIG CTN BIRD ACTIVITY IN THE VCY OF THE AD. DUE TO FLOW CONTROL BY MANILA AND HONGKONG F-I-R, TRAFFIC CONCERNED MAY BE DELAYED. INFORM TAIPEI APCH OR TAIPEI TOWER ON INITIAL CONTACT YOU HAVE INFORMATION I\n[Departure ATIS] RCTP DEP ATIS T 0530Z EXP ILS APCH RWY23R FOR ARR. RWY23L FOR DEP. WIND 280/12KT VIS 10 KM OR MORE CLD FEW 1500FT SCT 3000FT BKN 18000FT T 33 DP 25 QNH 1010HPA NOSIG DUE TO FLOW CONTROL BY MANILA AND HONG KONG F-I-R, TRAFFIC CONCERNED MAY BE DELAYED. CTN BIRD ACTIVITY IN THE VCY OF THE AD. INFORM TAIPEI APCH OR TAIPEI TOWER ON INITIAL CONTACT YOU HAVE INFORMATION T",
    "ZGSZ": "[Arrival ATIS] ZGSZ ARR ATIS I 0530Z EXP ILS APCH 15 EXP ILS OR VIS APCH 16R WIND 170/4MPS VRB BTN 140/ AND 210/ VIS 6000M -TSRA CLD SCT 300M /FEW CB 600M /BKN 990M T 25 /DP 24 QNH 1010 HPA SUPPLEMENT INFO RESHRA INDEPENDENT PARALLEL DEPARTURES DEPENDENT PARALLEL APPROACHES MISSED APPROACH ALTITUDE SETTING 1200METERS WHEN AIRBORNE CONTACT ZHUHAI APPROACH EXPECTED RNP ILS DME Z APPROACH RWY 15 16L 16R RWYCC 5/5/5 ISSUED AT 2320UTC WET/WET/WET DPT NR/NR/NR COV 100PCT/100PCT/100PCT ADZ YOU HAVE INFO I.\n[Departure ATIS] ZGSZ DEP ATIS S 0200Z DEP RWY 15 & 16L WIND 170/5MPS VRB BTN 140/ AND 200/ VIS 9999M -SHRA CLD BKN 1200M T 29 /DP 26 QNH 1010 HPA SUPPLEMENT INFO RESHRA INDEPENDENT PARALLEL DEPARTURES DEPENDENT PARALLEL APPROACHES V17,V18 AVAILABLE AFTER SULAS FLY HEADING 040 MISSED APPROACH ALTITUDE SETTING 1200METERS WHEN AIRBORNE CONTACT ZHUHAI APPROACH EXPECTED RNP ILS DME Z APPROACH ADZ YOU HAVE INFO S.",
    "WSSS": "[Arrival ATIS] WSSS ARR ATIS I 0530Z METREPORT 0530Z ILS APCHRWY 20R SIMUL INDEPENDENT ILS AND VISUAL APPROACHES ARE CONDUCTED ON RWY 20. TWY W 9 CLOSED, RWY 02C 20C RAPID EXIT TAXIWAY INDICATOR LIGHTS OFF WIND 120/ 08KT VIS 10KM CLD FEW 2200FT T30 DP24 QNH 1011HPA NOSIG ACK ATIS I\n[Departure ATIS] WSSS DEP ATIS Y 0130Z METREPORT 0130Z RWY 20C SIMUL INDEPENDENT ILS AND VISUAL APPROACHES ARE CONDUCTED ON RWY 20. TWY W 9 CLOSED, RWY 02C 20C RAPID EXIT TAXIWAY INDICATOR LIGHTS OFF WIND 170/ 08KT VIS 10KM CLD SCT 1500FT FEW TCU 1800FT FEW CB 2000FT T29 DP26 QNH 1013HPA NOSIG DEP,INITIAL CMB 3000FT ACK ATIS Y",
    "WMKK": "[Arrival ATIS] WMKK ARR ATIS B 0537Z WMKK ARR INFO B. TIME 0530. INDEPENDENT PARALLEL APPROACHES FOR RWY 14 L AND 15 ARE IN PROGRESS. EXP RNAV / ILS APCH FOR RWY 14 LEFT. EXP RNAV / ILS APCH FOR RWY 15. WIND RWY 14L 170 DEG, 7 KT. WIND RWY 15 130 DEG, 8 KT. VIS RWY 14L TDZ 10 KM OR MORE. VIS RWY 15 TDZ 10 KM OR MORE. CLD SCT 1800 FT. T 32. DP 25. QNH 1010. NOSIG. AT FIRST CONTACT WITH LUMPUR RADAR, NOTIFY RCPT OF B\n[Departure ATIS] WMKK DEP ATIS N 0053Z WMKK DEP INFO N. TIME 0030. INDEPENDENT PARALLEL DEPARTURES FOR RWY 14 R AND 15 ARE IN PROGRESS. RWY 14 RIGHT. RWY 15. WIND RWY 14R 070 DEG, 3 KT. WIND RWY 15 100 DEG, 3 KT. VIS RWY 14R TDZ 10 KM OR MORE. VIS RWY 15 TDZ 10 KM OR MORE. CLD FEW 3000 FT. T 27. DP 25. QNH 1011. NOSIG. ALL DEP ACFT TO CONTACT LUMPUR DEP AT 135 DECIMAL 25 MHZ WHEN ABN. AT FIRST CONTACT WITH LUMPUR GROUND, NOTIFY RCPT OF N",
    "VTBS": "[Arrival ATIS] VTBS ARR ATIS R 0502Z SIMULTANEOUS INDEPENDENT PARL APCH IN PROGRESS EXP ILS Z APCH ARR RWY 19 OR RNP APCH RWY 20R , ,PILOT SHALL ADZ BKK APCH ON INITIAL CTC IF UNA TO CONDUCT RNP APCH DUE TO OPERATIONAL CONSTRAINT 0500Z WIND 240/6KT VRB BTN 220/ AND 340/ VIS 10KM CLD FEW 2000FT T34 DP21 QNH 1010HPA TREND NOSIG ADZ BKK APCH ON INITIAL CONTACT THAT YOU HAVE INFO R\n[Departure ATIS] VTBS DEP ATIS Y 0531Z DEP RWY 20L , ,AFT AIRBORNE ALL DEPARTING ACFT SHALL CTC 119.25 0530Z WIND 260/6KT VRB BTN 230/ AND 300/ VIS 10KM CLD FEW 2000FT T35 DP21 QNH 1010HPA TREND NOSIG ADZ GND WHEN INITIAL CONTACT YOU HAVE INFO Y",
    "VTBU": "[Arrival ATIS] VTBU ARR ATIS W 1400Z VTBU ARR ATIS W 1402Z RNP RWY 18 TRL FL130 1400Z WIND 250/3KT VIS 10KM CLD FEW 2000FT T29 DP27 QNH 1007HPA TREND NOSIG ADZ CONTROLLER WHEN INITIAL CONTACT YOU HAVE INFO W\n[Departure ATIS] VTBU DEP ATIS D VTBU ARR/DEP DATIS RPT VTBU ARR ATIS D 0330Z ILS \"Z\" APCH RWY 18 TRL FL130 0330Z WIND 110/4KT VRB BTN 350/ AND 120/ VIS 6KM CLD FEW 2000FT T31 DP27 QNH 1014HPA TREND NOSIG ADZ CONTROLLER WHEN INITIAL CONTACT YOU HAVE INFO D",
    "ROAH": "[Arrival ATIS] ROAH ARR ATIS F 0532Z MS0530 (APCH)ILS RWY18R LDG RWY 18R DEP RWY 18L DEP FREQ 126.5 258.3 ILS FOR RWY36L FLIGHT CHECK IN PROGRESS MS 180530Z 19008KT 25KM FEW003ST SCT005ST BKN/// 29/27 Q1012/A2990= Q/TWO NINE NINE ZERO STP\n[Departure ATIS] ROAH DEP ATIS F 2222Z M2200 (APCH)RNP RWY18R LDG RWY 18R DEP RWY 18L DEP FREQ 126.5 258.3 M 022200Z VRB01KT 35KM FEW015CU 27/27 Q1014/A2997= Q/TWO NINE NINE SEVEN STP",
    "VVDN": "[Arrival ATIS] VVDN ARR ATIS R 0533Z VVDN INFO R 0533Z. ILS VICTOR APPROACH 35L.. DPTG RWY 35R.. 0533Z. WIND 090/09KT CAVOK T37 DP23 QNH 1007HPA TREND NOSIG. ADZ ON INITIAL CTC YOU HAVE INFO. R.\n[Departure ATIS] VVDN DEP ATIS S 0604Z VVDN INFO S 0604Z. ILS VICTOR APPROACH 35L.. DPTG RWY 35R.. 0604Z. WIND VRB/09KT CAVOK T37 DP24 QNH 1006HPA TREND NOSIG. ADZ ON INITIAL CTC YOU HAVE INFO. S.",
    "RCKH": "[Arrival ATIS] RCKH ARR ATIS R 0700Z EXPECT ILS APPROACH RWY 09 ARR/DEP TAXIWAY JULIETT, TAXIWAY BRAVO, TAXIWAY DELTA AND TAXIWAY ECHO CLOSED DUE MAINTENANCE. RUNWAY 0 9 ARRIVALS PLAN VACATE VIA CHARLIE OR\n[Departure ATIS] RCKH DEP ATIS R 0700Z EXPECT ILS APPROACH RWY 09 ARR/DEP TAXIWAY JULIETT, TAXIWAY BRAVO, TAXIWAY DELTA AND TAXIWAY ECHO CLOSED DUE MAINTENANCE. RUNWAY 0 9 ARRIVALS PLAN VACATE VIA CHARLIE OR FO",
    "KLAX": "[Arrival ATIS] KLAX ARR ATIS T KLAX ARR/DEP DATIS RPT LAX ATIS INFO T 1953Z. 23014KT 10SM FEW011 FEW040 SCT065 21/13 A2997 (TWO NINER NINER SEVEN) RMK AO2 SLP146 T02110128. INST APCHS AND RNAV RNP APCHS RY 24R AND 25L, OR VCTR FOR VISUAL APCH WILL BE PROVIDED, SIMUL VISUAL APCHS TO ALL RWYS ARE IN PROG, SIMUL INSTR DEPARTURES IN PROG RWYS 24 AND 25. CTC L A GC ON 121.75 FOR PUSH OR TAXI ON A. TWY B CLSD BTN TWY, J AND TWY C8 , , TWY C10 CLSD BTN TWY, B AND TWY C, TWY C CLSD BTN TWY, C1 AND TWY C3. RY 25R SFL OTS, RY 24L ALSF-2 OTS, PAPI OTS 24R. LAX VOR UNMONITORED. USE CAUTION FOR INCREASED DRONE ACTIVIY IN THE VICINITY OF SOFI STADIUM AT OR BELOW 200FT AGL DURING THE WORLD CUP FROM JUNE TWELFTH TWENTY TWENTY SIX THROUGH JULY TENTH TWENTY TWENTY SIX. TEMPORARY FLIGHT RESTRITIONS IN EFFECT FOR THE LOS ANGELES AREA, CHECK NOTAMS FOR DETAILS. HAZD WX INFO FOR LAX AREA AVBL FM FSS. BIRD ACTIVITY VICINITY ARPT. INCLUDE YOUR CALL SIGN IN ALL READBACKS. USE CAUTION WHEN EXITING RY24R AT TWY V, W, AND Y, TO HOLD SHORT OF RY24L. MULTIPLE RUNWAY INCURSIONS HAVE OCCURRED. ...ADVS YOU HAVE INFO T.\n[Departure ATIS] KLAX DEP ATIS F 1753Z - KLAX ATIS INFO F 1753Z. 25006KT 10SM SCT015 OVC029 19/14 A2999 (TWO NINER NINER NINER) RMK AO2 SLP155 T01940144 10200 20178 51010. INST APCHS AND RNAV RNP APCHS RY 24R AND 25L, OR VCTR FOR VISUAL APCH WILL BE PROVIDED, SIMUL VISUAL APCHS TO ALL RWYS ARE IN PROG, SIMUL INSTR DEPARTURES IN PROG RWYS 24 AND 25. CTC L A GC ON 121.75 FOR PUSH OR TAXI ON A. TWY B CLSD BTN TWY, C10 AND TWY C7 , , TWY C CLSD BTN TWY, C1 AND TWY C3, TWY C9 CLSD BTN TWY, B AND TWY C, TWY C8 CLSD BTN TWY, B AND TWY C. RY 25R SFL OTS, RY 24L ALSF-2 OTS. LAX VOR UNMONITORED. USE CAUTION FOR INCREASED DRONE ACTIVIY IN THE VICINITY OF SOFI STADIUM AT OR BELOW 200FT AGL DURING THE WORLD CUP FROM JUNE TWELFTH TWENTY TWENTY SIX THROUGH JULY TENTH TWENTY TWENTY SIX. HAZD WX INFO FOR LAX AREA AVBL FM FSS. BIRD ACTIVITY VICINITY ARPT. INCLUDE YOUR CALL SIGN IN ALL READBACKS. USE CAUTION WHEN EXITING RY24R AT TWY V, W, AND Y, TO HOLD SHORT OF RY24L. MULTIPLE RUNWAY INCURSIONS HAVE OCCURRED. ...ADVS YOU HAVE INFO F.",
    "KONT": "[Arrival ATIS] KONT ARR ATIS G 0553Z - KONT ATIS INFO G 0553Z. 26004KT 10SM CLR 19/13 A2995 (TWO NINER NINER FIVE) RMK AO2 SLP132. ILS AND VIS APR IN USE, RY26L & RY26R. LNDG AND DEPG RY 26L AND RY 26R. NOTAMS... TAXIWAY SIERRA FIVE CLOSED. TAXIWAY SIERRA CLOSED BETWEEN TAXIWAY SIERRA 8 AND TAXIWAY WHISKEY. RY 26L IM OTS, RY 26R ALS OTS. USE CAUTION FOR NUMEROUS BIRDS OBSERVED IN VICINITY OF ONT. UAS ACTIVITY IN THE IN THE VACINITY OF ONT. PILOTS READBACK RWY ASSIGNMENTS AND HOLD SHORT INSTRUCTIONS. ...ADVS YOU HAVE INFO G.\n[Departure ATIS] KONT DEP ATIS N 0553Z - KONT ATIS INFO N 0553Z. 24004KT 10SM BKN250 22/15 A2988 (TWO NINER EIGHT EIGHT) RMK AO2 SLP100. ILS AND VIS APR IN USE, RY26L & RY26R. LNDG AND DEPG RY 26L AND RY 26R. NOTAMS... TAXIWAY SIERRA CLSD BETWEEN SIERRA 8 AND W TAXIWAY Q SOUTH OF RWY 26L CLSD TAXIWAY T CLSD TAXIWAY SIERRA 5 CLSD. RY 26L IM OTS, RY 26R ALS OTS. USE CAUTION FOR NUMEROUS BIRDS OBSERVED IN VICINITY OF ONT. HAZD WX INFO FOR SOUTHERN CA AVBL ON FSS FREQUENCIES. PILOTS READBACK RWY ASSIGNMENTS AND HOLD SHORT INSTRUCTIONS. ...ADVS YOU HAVE INFO N.",
    "KSFO": "[Arrival ATIS] KSFO ARR ATIS D 0656Z SFO ATIS INFO D 0656Z. 27006KT 10SM FEW006 14/11 A2997 (TWO NINER NINER SEVEN). SIMUL CLSLY SPCD DPNDNT ILS RY 28R AND ILS RY 28L APP IN USE. DEPG RWYS 28L, 28R. DEPG ACFT S\n[Departure ATIS] KSFO DEP ATIS D 0656Z SFO ATIS INFO D 0656Z. 27006KT 10SM FEW006 14/11 A2997 (TWO NINER NINER SEVEN). SIMUL CLSLY SPCD DPNDNT ILS RY 28R AND ILS RY 28L APP IN USE. DEPG RWYS 28L, 28R. DEPG ACFT SH",
    "KOAK": "[Arrival ATIS] KOAK ARR ATIS A 0353Z - KOAK ATIS INFO A 0353Z. 25010KT 10SM FEW003 BKN009 BKN013 16/14 A2988 (TWO NINER EIGHT EIGHT). RNAV Z 3 0, ILS RUNWAY 2 8 RIGHT IN USE. FLOW TO LAX, SAN, SEA, ORD. ILS RWY 30, OTS. UNN LIT CLOSE-IN OBSTACLES FOR RWY 30 DEPARTURES. RWY 30 DEPARTURES ARE ADVISED TO AVOID TURNING LEFT PRIOR TO DEPARTURE END OF RUNWAY. SIGNATURE UNI-COM OUT OF SERVICE. HAZD WX INFO FOR CA ON FLT SRVC FREQ. CAUTION, BIRDS NEAR AIRPORT. ...ADVS YOU HAVE INFO A.\n[Departure ATIS] KOAK DEP ATIS O 1953Z OAK ATIS INFO O 1953Z. 28014KT 10SM FEW005 22/14 A2988 (TWO NINER EIGHT EIGHT). RNAV Z/VA RWY 30 ILS/VA RWY 28R. FLOW TO LAX, LAS, SAN. ILS RWY 30, OTS. UNN LIT CLOSE-IN OBSTACLES FOR RWY 30 DEPARTURES. RWY 30 DEPARTURES ARE ADVISED TO AVOID TURNING LEFT PRIOR TO DEPARTURE END OF RUNWAY. SIGNATURE UNI-COM OUT OF SERVICE. CAUTION, BIRDS NEAR AIRPORT. ...ADVS YOU HAVE INFO O.",
    "KDFW": "[Arrival ATIS] KDFW ARR ATIS Z 1953Z - KDFW ARR INFO Z 1953Z. 20022G29KT 10SM FEW035 SCT180 BKN250 35/21 A2990 (TWO NINER NINER ZERO) RMK AO2 PK WND 18029/1953 SLP115 T03500206. SIMUL VISUAL APCH TO RWYS, 13R, 18R, 17C, 17L. LDG RWY 17C EXP LAHSO TWY B 10460 FT AVAIL, LDG RWY 18R EXP LAHSO TWY B 10100 FT AVL. NOTICE TO AIRMEN. WARNING, RWY 18L HAS BEEN SHORTENED, 9273 FT AVAILABLE. RWY 18L ILS OTS, CL OTS. BIRD ACTIVITY VCNTY ARPT. ...ADVS YOU HAVE INFO Z.\n[Departure ATIS] KDFW DEP ATIS W 1553Z - KDFW DEP INFO W 1553Z. 21022G32KT 10SM FEW025 FEW180 SCT250 31/21 A2994 (TWO NINER NINER FOUR) RMK AO2 PK WND 20032/1547 SLP128 T03110206. SIMUL PARL TRAFFIC DEPG RWYS 17R, 18L. NOTICE TO AIRMEN. WARNING, RWY 18L HAS BEEN SHORTENED, 9273 FT AVAILABLE. RWY 18L CL OTS. BIRD ACTIVITY VCNTY ARPT. ...ADVS YOU HAVE INFO W.",
    "KIAH": "[Arrival ATIS] KIAH ARR ATIS M 0153Z IAH ATIS INFO M 0153Z. 12008KT 10SM FEW040 FEW120 BKN250 28/23 A2999 (TWO NINER NINER NINER) RMK AO2 SLP153 T02830233. ARRIVALS EXPECT ILS OR RNAV Y RY 26R, ILS OR RNAV Y RY 26L, ILS OR RNAV Y RY 27. SIMUL APPROACHES IN USE. DEPG RY 15L, RY 15R. NOTICE TO AIRMEN. UNITED RAMP CONTROL IN EFFECT. CODED DEPARTURE ROUTES IN EFFECT. HAZD WX INFO FOR IAH AREA AVBL FM FSS. BIRD ACTIVITY VICINITY ARPT. CRANES ARE DOWN. TWY SA CLSD BTN TWY, SF AND TWY SK , TWY SB CLSD BTN TWY, SF AND TWY SK , , TWY WB CLSD BTN TWY, WG AND TWY WH . TWY EA CLSD. NOTAM ATIS IN USE ON FREQUENCY 126.225. ...ADVS YOU HAVE INFO M.\n[Departure ATIS] KIAH DEP ATIS D 0453Z IAH ATIS INFO D 0453Z. 19003KT 10SM CLR 25/24 A2963 (TWO NINER SIX THREE). ARRIVALS EXPECT ILS OR RNAV Y RY 26L. DEPG RY 15L. NOTICE TO AIRMEN. UAL RAMP PROCEDURES TERMINATED PUSH BACK AT PILOTS DISCRETION. RY 26R, 8L CLSD. BIRD ACTIVITY VICINITY ARPT. TWY SA CLSD BTN TWY, SG AND TWY SK , TWY SB CLSD BTN TWY, SG AND TWY SK , , TWY SF CLSD BTN TWY, NB AND TWY RB . TWY SG CLSD, TWY EA CLSD. NOTAM ATIS IN USE ON FREQUENCY 126.225. ...ADVS YOU HAVE INFO D.",
    "KORD": "[Arrival ATIS] KORD ARR ATIS Y 0451Z ORD ATIS INFO Y 0451Z. 24011G21KT 10SM FEW055 FEW100 21/16 A2941 (TWO NINER FOUR ONE) RMK AO2 PK WND 26027/0401 SLP957 T02110161. ARR EXP VECTORS ILS RWY 28C APCH. LAND AND HOLD SHORT OPERATIONS ARE IN EFFECT. RWY 28C ARR PLAN TO H/S OF TWY Z, 9 THSD 6 HND TEN FT AVBL. DEPS EXP RWYS 28R FROM NOVEMBER 5 9750 FT AVL. ATTN PILOTS. SIMUL PARL DEPS IN USE. EXP TO INITIALLY FLY RWY. HDG ON DEP. PILOTS MUST READ BACK DRCTN OF TURNS BY ATC. RWY 4L, 22R CLSD, RWY 4R, 22L CLSD, RWY 9L, 27R CLSD, RWY 9C, 27C CLSD, RWY 9R, 27L CLSD, RWY 10R, 28L CLSD. RWY 22L ILS OTS, RWY 22R LOC OTS, RWY 9L IM OTS, RWY 9C IM OTS, RWY 10L IM OTS, RWY 10R IM OTS, RWY 27R IM OTS, RWY 28L IM OTS, RWY 28R IM OTS, RWY 9L PAPI OTS, RWY 27R PAPI OTS. PILOTS USE CTN FOR BIRD ACTIVITY IN THE VICINITY OF THE ARPT. USE CTN FOR PERSONNEL AND EQUIP AT NUMEROUS SITES ON THE FIELD. READBACK ALL RWY HOLD SHORT INSTRUCTIONS. WHEN READY TO TAXI CONTACT GND METERING ON FREQ 121.67. ...ADVS YOU HAVE INFO Y.\n[Departure ATIS] KORD DEP ATIS A 0151Z ORD ATIS INFO A 0151Z. 21009KT 10SM TS SCT050CB BKN150 BKN250 31/22 A2999 (TWO NINER NINER NINER) RMK AO2 TSE0059B11 SLP150 CONS LTGICCG W-N TS W-N MOV NE CB DSNT SW T03110222. ARR EXP VECTORS ILS RWY 27C APCH, ILS RWY 27R APCH, ILS RWY 28C APCH. SIMUL APCHS IN USE. LAND AND HOLD SHORT OPERATIONS ARE IN EFFECT. RWY 27C ARR PLAN TO H/S OF TWY V V, 9 THSD 7 HND 25 FT AVBL, RWY 28C ARR PLAN TO H/S OF TWY Z, 9 THSD 6 HND TEN FT AVBL. DEPS EXP RWYS 22L 27L FROM T T 9960 FT AVL. RWY 4L, 22R CLSD. RWY 22R LOC OTS, RWY 9L IM OTS, RWY 9C IM OTS, RWY 10L IM OTS, RWY 10R IM OTS, RWY 27R IM OTS, RWY 28L IM OTS, RWY 28R IM OTS, RWY 9L PAPI OTS, RWY 27R PAPI OTS. PILOTS USE CTN FOR BIRD ACTIVITY IN THE VICINITY OF THE ARPT. HAZD WX INFO FOR ORD AREA AVBL ON FSS. USE CTN FOR PERSONNEL AND EQUIP AT NUMEROUS SITES ON THE FIELD. READBACK ALL RWY HOLD SHORT INSTRUCTIONS. WHEN READY TO TAXI CONTACT GND METERING ON FREQ 121.67. ...ADVS YOU HAVE INFO A.",
    "KJFK": "[Arrival ATIS] KJFK ARR ATIS X 0651Z - KJFK ATIS INFO X 0651Z. 34013KT 10SM FEW250 32/21 A2994 (TWO NINER NINER FOUR). APPROACH IN USE ILS RY 31R, VISUAL APCH RY 31L. DEPG RY 31L. CRI OTS. RWY 22L/4R INNER MA\n[Departure ATIS] KJFK DEP ATIS D 1451Z JFK ATIS INFO D 1451Z. 36006KT 10SM CLR 37/19 A2998 (TWO NINER NINER EIGHT). APPROACH IN USE ILS RY 31R, VISUAL APCH RY 31L. DEPG RY 31L. RWY 4L, 22R CLSD. CRI OTS. RWY 22L/4R INNER MARKER OTS. NUM CRANES OPERATING AT JFK. BIRD ACTIVITY VICINITY ARPT. READBACK ALL RWY ASSIGNMENTS AND HOLD SHORT INSTRUCTIONS. ...ADVS YOU HAVE INFO D.",
    "KIND": "[Arrival ATIS] KIND ARR ATIS E 0254Z - KIND ATIS INFO E 0254Z. 21005KT 10SM CLR 28/23 A3010 (THREE ZERO ONE ZERO) RMK AO2 SLP183 T02830233 53007. PARL ILS RWY 23R AND 23L APPROACHES IN USE. CROSS RUNWAY OPERATIONS MAY BE IN EFFECT. NOTICE TO AIRMEN. RWY 32 GS OTS. TWY, P BTN TWY, H AND TWY B CLSD. P PAD CLSD. ILS RUNWAY 5R AND RUNWAY 5L INNER MARKER UNSERVICEABLE. RUNWAY 32 PAPI OTS. RUNWAY 32 TOUCHDOWN RVR OTS. RUNWAY 14 ROLLOUT RVR OTS. ...ADVS YOU HAVE INFO E.\n[Departure ATIS] KIND DEP ATIS H 1854Z IND ATIS INFO H 1854Z. 26009G19KT 10SM SCT036 BKN041 BKN170 23/16 A2981 (TWO NINER EIGHT ONE) RMK AO2 SLP088 T02280156. PARL ILS RWY 23R AND 23L APPROACHES IN USE. CROSS RU",
    "KDTW": "[Arrival ATIS] KDTW ARR ATIS H 0453Z DTW ARR INFO H 0453Z. 19010KT 8SM -TSRA SCT008 BKN014 OVC025CB 19/18 A2937 (TWO NINER THREE SEVEN) RMK AO2 SLP943 OCNL LTGICCC NE-S TS NE-S MOV NE P0004 T01940183 402170144. ILS Z RY 22R APCH IN USE. NOTICE TO AIRMEN. RWY 22L, 4R CLSD, RWY 21R, 3L CLSD, RWY 21L, 3R CLSD, RWY 27L, 9R CLSD, RWY 27R, 9L CLSD. FREQ 120.65 OTS. HAZD WX INFO . CNVTV SIG 20 E, FOR MI , AND, DXO . CNVTV SIG 16 E, FOR MI , AND DXO AVBL ON FLIGHT SERVICE FREQS. PILOTS USE CTN FOR BIRD ACTIVITY. BA ADZYS IN EFCT. RWY 21L CONDITION CODE 5 5 5 , AT 2029Z ZULU. TWR AND GC COMB ON FREQ 135.0. DEPARTURE ATIS 118.125. ...ADVS YOU HAVE INFO H.\n[Departure ATIS] KDTW DEP ATIS Q 2253Z - KDTW DEP INFO Q 2253Z. 21009KT 10SM FEW050 FEW250 33/24 A2991 (TWO NINER NINER ONE). DEPG RWY 21R, RWY 22L ;. NOTICE TO AIRMEN. RWY 27L, 9R CLSD, RWY 27R, 9L CLSD. PILOTS USE CTN FOR BIRD ACTIVITY. ...ADVS YOU HAVE INFO Q.",
    "KMSP": "[Arrival ATIS] KMSP ARR ATIS E 0353Z MSP ARR INFO E 0353Z. 21004KT 10SM FEW034 FEW130 SCT250 24/21 A2999 (TWO NINER NINER NINER) RMK AO2 SLP149 T02440206. VISUAL RWY 12R APCH IN USE. FINAL APCH, OVER NOISE SENSITIVE AREA. NOTICE TO AIRMEN. RWYS 12L, 30R CLSD, RWYS 4, 22 CLSD, RWYS 17, 35 CLSD. TWY R7. R8. R9. R10. CLOSED, TWY R BETWEEN R6 AND R10 CLOSED. GS RWY 12L OTS, RWYS 12R, 12L, INNER MARKER OTS.. HAZD WX INFO FOR MSP AREA AVBL FM FSS. CTN, BIRDS NEAR MSP. READ BACK HS AND ALT. ALL ACFT TAXI WITH TRANSPONDER AND ALTITUDE ENCODING ON. ...ADVS YOU HAVE INFO E.\n[Departure ATIS] KMSP DEP ATIS O 0053Z MSP DEP INFO O 0053Z. 18003KT 10SM SCT035 SCT200 SCT250 27/19 A2993 (TWO NINER NINER THREE). DEPARTING RWY 12L, RWY 12R, RWY 17. NOTICE TO AIRMEN. TWY R7. R8. R9. R10. CLOSED, TWY R BETWEEN R6 AND R10 CLOSED. ALL ACFT CTC METERING ON ONE THREE THREE POINT FIVE SEVEN WHEN READY TO PUSHBACK OR TAXI. HAZD WX INFO FOR MSP AREA AVBL FM FSS. CTN, BIRDS NEAR MSP. READ BACK HS AND ALT. ALL ACFT TAXI WITH TRANSPONDER AND ALTITUDE ENCODING ON. ...ADVS YOU HAVE INFO O.",
    "CYEG": "[Arrival ATIS] CYEG ARR ATIS V 0600Z CYEG ARR ATIS V 0600Z 10010KT 20SM FEW100 FEW140 16/10 A2982 APCH RNAV Z OR Y RWY 02, INFORM ARRL OF REQ APCH ON INITIAL CTC. LDG AND DEP RWY 02. TWY B1 CLSD UFN. SIMUL APPROACHES MAY BE IN EFCT. INFORM CYEG ATC INFO V\n[Departure ATIS] CYEG DEP ATIS U 0500Z CYEG ARR ATIS U 0500Z 10006KT 20SM FEW030CB FEW110 FEW140 15/10 A2981 APCH RNAV Z OR Y RWY 02, INFORM ARRL OF REQ APCH ON INITIAL CTC. LDG AND DEP RWY 02. RSC 02 6/6/6 DRY, DRY, DRY. VALID JUL 03 0501 - JUL 03 1301. TWY B1 CLSD UFN. SIMUL APPROACHES MAY BE IN EFCT. INFORM CYEG ATC INFO U",
    "EHAM": "[Arrival ATIS] EHAM ARR ATIS A 0550Z EHAM ARRIVAL INFO A. DEMAND. MAIN LANDING RWY 18 R. SECONDARY LANDING RWY 27. TRANSITION LEVEL 040. WIND 250 DEG, 5 KT, VRB BTN 220 AND 280 DEG. WIND SECONDARY RUNWAY 260 DEG, 5 KT, VRB BTN 230 AND 290 DEG. CAVOK. T 19. DP 16. QNH 1018 HPA. NOSIG. OPERATIONAL REPORT. CONVERGING APPROACHES IN PROGRESS. CONTACT APCH WITH CALLSIGN ONLY. END OF INFO A\n[Departure ATIS] EHAM DEP ATIS Y 0620Z EHAM DEPARTURE INFO Y. DEMAND. MAIN DEPARTURE RWY 24. MAIN LANDING RWY 18 R. WIND 300 DEG, 11 KT, VRB BTN 260 AND 330 DEG, 14 KT MAX, 6 KT MNM. VIS 10 KM OR MORE. CLD FEW 2600 FT. T 18. DP 12. QNH 1026 HPA. OPERATIONAL REPORT. INFORM SCHIPHOL DEL BY VOICE IF UNABLE TO COMPLY WITH NADP 2. END OF INFO Y",
    "EBBR": "[Arrival ATIS] EBBR ARR ATIS Z 0620Z EBBR NAT, EXP VECT FOR ILS APP ARR RWY25L RSCD AT 0251 RWY25L DRY. DEP RWY25R TRL 055 TWY C6 CLSD. ILS RWY 25R U/S. RNP RWY 25R AT ATC DISCRETION 250/4KT VIS ABV 10KM SCT4800FT T17 DP12 QNH 1028HPA NOSIG CFM ARR Z\n[Departure ATIS] EBBR DEP ATIS Z 0650Z EBBR NAT, DEP RWY25R RSCD AT 0630 RWY25R DRY. ARR RWY25L TRL 055 TWY B3 CLSD 250/5KT VIS ABV 10KM FEW4800FT T18 DP12 QNH 1028HPA NOSIG CFM DEP Z",
    "EDDF": "[Arrival ATIS] EDDF ARR ATIS M 2120Z -ARR-ATIS EDDF M METAR 262120 -EXPECT RNP X APCH -RWY 25C -ILS RWY25C ON TEST, DISREGARD ALL SIGNALS -TRL 60 - -VRB01KT -CAVOK - - -T29 DP17 -QNH1016 - -TREND NOSIG\n[Departure ATIS] EDDF DEP ATIS B 0520Z DEP-ATIS EDDF B METAR 030520 RWY 25C 18 TRL 60 32007KT 290V350 RWY18 VRB02KT CAVOK T17 DP11 QNH1026 TREND NOSIG END OF ATIS B",
    "EDDL": "[Arrival ATIS] EDDL ARR ATIS P 0550Z -ATIS EDDL P METAR 030550 -EXPECT VECTORS ILS APPROACH -RWY 23L -TWY L8 CLOSED BETWEEN TWY M AND RWY 23L -TRL 60 - -26004KT 230V290 -CAVOK - - -T16 DP11 -QNH1026 - -TREND NOSIG\n[Departure ATIS] EDDL DEP ATIS R EDDL ARR/DEP DATIS RPT -ATIS EDDL R METAR 020550 -EXPECT VECTORS ILS APPROACH -RWY 23L -TWY L8 CLOSED BETWEEN TWY M AND RWY 23L -TRL 60 - -23010KT -CAVOK - - -T19 DP13 -QNH1020 - -TREND NOSIG",
    "EDDK": "[Arrival ATIS] EDDK ARR ATIS S 0620Z ATIS EDDK S METAR 030620 EXPECT ILS APCH OR RNP APCH RWY 31R 06 RWY COND RWY 31R AT TIME 0020 RWYCC 6 RWY 06 AT TIME 0020 RWYCC 6 TRL 60 RWY 13R AND RWY 31L CLOSED FOR DEPARTURE AND LANDING: TAXIING BTN THR RWY 13R AND INTERSECTION RWY 24 POSSIBLE : 32001KT CAVOK T17 DP12 QNH1027 TREND NOSIG\n[Departure ATIS] EDDK DEP ATIS Q EDDK ARR/DEP DATIS RPT -ATIS EDDK Q METAR 291920 -EXPECT ILS APCH -RWY 31R 06 -RWY COND RWY 31R AT TIME 1830 RWYCC 6 DEPOSIT TOTAL RWY DRY RWY 06 AT TIME 1830 RWYCC 6 DEPOSIT TOTAL RWY DRY -TRL 60 -RWY 13R AND RWY 31L CLOSED FOR DEPARTURE AND LANDING: TAXIING BTN THR RWY 13R AND INTERSECTION RWY 24 POSSIBLE : -04003KT -CAVOK - - -T24 DP13 -QNH1024 - -TREND NOSIG",
    "EBLG": "[Arrival ATIS] EBLG ATIS S 0550Z EBLG INFO, EXP RNAV TO ILS APP ARR RWY22L DEP RWY22L RWY 22L TDZ WET, MID DRY, END DRY, RWYCC 566. TRL 055 TWY A4 CLSD. ADZ ON GND FREQ IF UNABLE S4 210/3KT VRB BTN 160 AND 230 CAVOK T16 DP11 QNH 1028HPA NOSIG CFM ATIS S",
    "LSZH": "[Arrival ATIS] LSZH ARR ATIS B 0620Z ARRIVALS, EXP ILS APCH, RWY 14. TRL 70. DEP RWY 28. WIND 010 DEG, 6 KT. VIS 10 KM OR MORE, TDZ 10 KM OR MORE. CLD FEW 3700 FT, BKN 5700 FT. T 20. DP 14. QNH 1026. NOSIG.\n[Departure ATIS] LSZH DEP ATIS P 0620Z DEP RWY 28. TRL 70. ARRIVALS, EXP ILS APCH, RWY 14. TMA S 1 IS NOT ACT. TMA S 2 AND S 3 ARE NOT ACT. WIND 010 DEG, 7 KT. VIS 10 KM OR MORE. CLD FEW 3700 FT, BKN 5700 FT. T 20. DP 14. QNH 1026. NOSIG.",
    "LIMC": "[Arrival ATIS] LIMC ARR ATIS S 0520Z LIMC ARR S 0520Z I.L.S. ZULU RWY IN USE 35R TL 70 TAXIWAY ECHO WHISKY CLOSED... WIND TDZ 030/3KT VRB BTN 330/AND 060/ CAVOK T23 DP18 QNH 1021HPA QFE 0995HPA\n[Departure ATIS] LIMC DEP ATIS A 1450Z LIMC DEP A 1450Z RWY IN USE 35L TL 70 INTERSECTION ECHO WHISKY CLOSED.. WIND END VRB8KT CAVOK T31 DP16 QNH 1018HPA QFE 0993HPA DATALINK CLEARANCE AVAILABLE.... CONTACT 1 3 1 8 8 0 TO BE RELEASED BY THE AIRPORT OPERATOR ...",
    "LIRF": "[Arrival ATIS] LIRF ARR ATIS X 0620Z LIRF ARR X 0620Z RWY 16L ILS W RWY 16R ILS Z RWY IN USE 16L 16R TL 70 DEPENDENT PARL ILS APCH INPR RWY IN USE 16R OR 16L ASSIGNED BY ROME RADAR WIND RWY 16L TDZ 060/6KT VRB BTN 360/AND 100/ RWY 16R TDZ 060/10KT CAVOK T27 DP17 QNH 1014HPA\n[Departure ATIS] LIRF DEP ATIS Z 0620Z LIRF DEP Z 0620Z RWY IN USE 25 TL 70 RWYS IN USE FOR ARR 16L AND 16R WIND END 090/6KT VRB BTN 040/AND 120/ CAVOK T27 DP17 QNH 1014HPA REA IS SENT AUTOMATICALLY ONCE RLSD BY RAMP WHEN READY CONTACT FIUME RAMP 121.725",
    "EINN": "[Arrival ATIS] EINN ARR ATIS O 0630Z EXPECT I L S CATEGORY 1 LDG RWY24 TKOF RWY24 TRL FL060 14004KT 9999 FEW018 BKN200 12/10 QNH Q1028 TREND NOSIG ADVISE AT FIRST CONTACT YOU HAVE ATIS INFO O",
    "EGLL": "[Arrival ATIS] EGLL ARR ATIS R 0620Z LANDING RWY 27R TRANSITION-LEVEL: FL 70 IF STAND GUIDANCE IS OFF OR FAILS, REMAIN ON THE TAXIWAY CENTRELINE AND ADVISE ATC RUNWAY 27R REDUCED DECLARED DISTANCES WITH TAKE OFF RUN AVAILABLE 3362METRES AND LANDING DISTANCE AVAILABLE 3362METRES DET VOR OOS AUTO 34006KT 300V010 9999 NCD 16/10 Q1030 TURBULENCE POSSIBLE ON THE LAST MILE OF THE APPROACH FOR RUNWAY 27R ACKNOWLEDGE RECEIPT OF INFORMATION R\n[Departure ATIS] EGLL DEP ATIS E 0620Z RUNWAY 27R REDUCED DECLARED DISTANCES WITH TAKE OFF RUN AVAILABLE 3362METRES AND LANDING DISTANCE AVAILABLE 3362METRES DEPARTURE RWY 27L PILOTS THAT ARE IN RECEIPT OF DATALINK CLEARANCES ARE REMINDED THEY MUST CONTACT DELIVERY ON 121.980 WHEN READY FOR START DET VOR OOS AUTO 33009KT 9999 NCD 16/10 Q1030 ACKNOWLEDGE RECEIPT OF INFORMATION E AND REPORT AIRCRAFT TYPE AND CURRENT QNH ON FIRST CONTACT WITH HEATHROW",
    "EPWA": "[Arrival ATIS] EPWA ARR ATIS F 0610Z EPWA ARR F. TIME 0608. EXP U ARR ILS Z APCH FOR RWY 33. RWY 33 RCC 5, 5, 5. 1ST PART, WET. 2ND PART, WET. 3RD PART, WET. RWY REPORT END. TRANSITION LEVEL 80. WIND 300 DEG, 6 KT, VRB BTN 270 AND 330 DEG. VIS TDZ 10 KM OR MORE. WX FBL SHRA. CLD FEW 1700 FT, CLD BKN CB 2300 FT. T 17. DP 15. QNH 1014. NOSIG. CAUTION. BIRD ACT. END OF EPWA ARR F\n[Departure ATIS] EPWA DEP ATIS Y 1437Z EPWA DEP Y. TIME 1435. DEP RWY 29. ARR RWY 33, EXP U ARR ILS Z. REPORT READY FOR STARTUP ON DELIVERY 121 DECIMAL 605. TRANSITION LEVEL 80. WIND 360 DEG, 8 KT, VRB BTN 330 AND 120 DEG. CAVOK. T 31. DP 16. QNH 1019. NOSIG. CAUTION. BIRD ACT. END OF EPWA DEP Y",
    "EFHK": "[Arrival ATIS] EFHK ARR ATIS S 0650Z EXPECT ILS APCH ARR RWY 15 RUNWAY 15 CONDITION REPORT AT 0515 UTC RUNWAY CONDITION CODES 5 , 5 , 5 CONTAMINANTS ALL PARTS 100 PERCENT WET TRL 65 WIND 090 DEG 7 KT VIS 10KM FEW 1400 FT. BKN 2600 FT. FEW CB 3000 FT T 15 DP 14 QNH 1004 TEMPO CLD BKN 1200 FT. ACK INFO S\n[Departure ATIS] EFHK DEP ATIS U 1550Z DEP RWYS 22R AND 22L RUNWAY 22R CONDITION REPORT AT 1252 UTC RUNWAY CONDITION CODES 6 , 6 , 6 CONTAMINANTS ALL PARTS DRY RUNWAY 22L CONDITION REPORT AT 1307 UTC RUNWAY CONDITION CODES 6 , 6 , 6 CONTAMINANTS ALL PARTS DRY WIND 110 DEG 8 KT CAVOK T 22 DP 10 QNH 1016 NOSIG ACK INFO U",
    "LTAC": "[Arrival ATIS] LTAC ARR ATIS O 2120Z EXP ILS V APCH 03C DEP RWY 03L RWY 03C WIND 060 DEG 05 KT VRB BTN 030 DEG AND 090 DEG RWY 03L WIND 050 DEG 06 KT TRL 110 CAVOK T 18 DP 09 QNH 1018 NOSIG FOR DELIVERY CTC 121.9. FOR DELIVERY FIRST USE DIGITAL DEP CLR. CTN BIRD HAZARD OVR AERODROME. APCH FREQUENCY 129.050. TAXIWAY ECHO 1 IS CLOSED. END OF ATIS O",
    "UBBB": "[Arrival ATIS] UBBB ARR ATIS W 2130Z ATIS W EXP ILS/ LDG 34 35 DEP 34 35 IN USE RWY 34 CLEAR DRY 70 RWY 35 CLEAR DRY 70 TLVL 110 WIND WIND RWY 34 340 2 KT SPD MAX 4 MIN 2 WIND RWY 35 320 4 KT SPD MAX 6 MIN 2 VIS 10 KM FEW CB 6000 FT RWY 34 FEW CB 6000 FT RWY 35 T 23 / DP 19 QNH 1010 HPA TREND TREND NOSIG MODERATE BIRDS ACT IN VICINITY OF AP END OF ATIS W\n[Departure ATIS] UBBB DEP ATIS B 0600Z ATIS B EXP ILS/ LDG 16 17 DEP 16 17 IN USE RWY 16 CLEAR DRY 70 RWY 17 CLEAR DRY 70 TLVL 110 WIND WIND RWY 16 170 8 KT SPD MAX 10 MIN 6 WIND RWY 17 170 8 KT SPD MAX 12 MIN 6 VIS CAVOK T 29 / DP 16 QNH 1009 HPA TREND TREND NOSIG MODERATE BIRDS ACT IN VICINITY OF AP END OF ATIS B",
    "ZWWW": "[Arrival ATIS] ZWWW ARR ATIS K 0400Z EXP ILSDME Z APCH LDG RWY 26R TA 3000 WIND 310/5MPS CAVOK T 34 /DP 16 QNH 1007 HPA ADZ YOU HAVE INFO K.\n[Departure ATIS] ZWWW DEP ATIS N 0430Z DEP RWY 26L TA 3000 WIND 010/6MPS VIS 9999M CLD FEW 990M T 28 /DP 14 QNH 1013 HPA ADZ YOU HAVE INFO N.",
    "ZLXY": "[Arrival ATIS] ZLXY ARR ATIS V 0500Z EXP ILS APCH LDG RWY 05L & 06R WIND 030/2MPS VRB BTN 360/ AND 060/ VIS 9999M -RA CLD FEW 330M /SCT 900M /OVC 1800M T 23 /DP 19 QNH 1008 HPA ADZ YOU HAVE INFO V.\n[Departure ATIS] ZLXY DEP ATIS U 0400Z DEP RWY 05L & 06L WIND VRB/1MPS VIS 9999M CLD FEW 450M /SCT 900M /OVC 1800M T 23 /DP 19 QNH 1008 HPA ADZ YOU HAVE INFO U.",
    "ZBAA": "[Arrival ATIS] ZBAA ARR ATIS D 0530Z EXP ILS APCH INDEPENDENT PARL INSTR APCH LDG RWY 36L & 01 WIND 150 DEG 3 MPS 110V190 DEG VIS 7000 CLD SCT 1200M T 29 /DP 22 QNH 1006 HPA ADZ YOU HAVE INFO D.\n[Departure ATIS] ZBAA DEP ATIS C 0500Z DEP RWY 36L & 36R & 01 WIND 120 DEG 2 MPS 070V150 DEG VIS 6000 CLD FEW 1200M T 29 /DP 22 QNH 1006 HPA RWY INDEPENDENT PARALLEL DEP ADZ YOU HAVE INFO C.",
    "ZBHH": "[Arrival ATIS] ZBHH ARR ATIS T 0400Z EXP ILSDME APCH LDG RWY 26 TA 3000 /TRL 3600 WIND 200/4MPS VRB BTN 160/ AND 240/ CAVOK T 29 /DP 15 QNH 1009 HPA ADZ YOU HAVE INFO T.\n[Departure ATIS] ZBHH DEP ATIS K 2300Z DEP RWY 26 TA 3000 /TRL 3600 WIND 060/3MPS VRB BTN 010/ AND 080/ CAVOK T 21 /DP 15 QNH 1010 HPA ADZ YOU HAVE INFO K.",
    "ZSQD": "[Arrival ATIS] ZSQD ARR ATIS N 0400Z EXP ILSDME APCH LDG RWY 17 TA 3000 /TRL 3600 WIND 170/5MPS CAVOK T 27 /DP 20 QNH 1008 HPA SEGREGATED OPERATION VISUAL APPROACH OPERATION IN PROGRESS. RUNWAY 17,IF MISSED APPROACH,EXPECT FOLLOW THE STANDARD MISSED APPROACH PROCEDURE,CLIMB TO 900M ON QNH OR BY ATC CAUTION MAYBE THERE IS A FLOCK OF BIRDS IN THE VICINITY OF AIRPORT ADZ YOU HAVE INFO N.\n[Departure ATIS] ZSQD DEP ATIS F 2200Z DEP RWY 16 TA 3000 /TRL 3600 WIND 160/4MPS VIS 9999M CLD SCT 270M T 23 /DP 22 QNH 1009 HPA VISUAL APPROACH OPERATION IN PROGRESS. RUNWAY 16,IF MISSED APPROACH,EXPECT FOLLOW THE STANDARD MISSED APPROACH PROCEDURE,CLIMB TO 600M ON QNH OR BY ATC CAUTION MAYBE THERE IS A FLOCK OF BIRDS IN THE VICINITY OF AIRPORT ADZ YOU HAVE INFO F."
  },
  "windtemp_alaska": "\n000\nFBAK31 KWNO 030159\nFD1AK1\nDATA BASED ON 030000Z    \nVALID 030600Z   FOR USE 0200-0900Z. TEMPS NEG ABV 24000\n\nFT  3000    6000    9000   12000   18000   24000  30000  34000  39000\nADK 9900 9900+05 2708+02 2615-02 2623-14 2631-27 274342 275251 264959\nADQ 0410 0614+00 0613-04 0513-09 0512-21 0414-33 031446 351048 311143\nAKN 9900 9900+00 9900-04 3406-09 3310-20 3215-32 311247 311551 291543\nANC 9900 9900+02 9900-04 9900-09 1009-22 0514-34 341548 340751 990042\nANN 9900 2206+01 2211-04 2413-09 2718-21 2729-31 284445 284849 273244\nBET 2414 2007+01 1608-05 1809-09 2212-21 2212-33 221549 231649 271343\nBRW 3109 2813-01 2814-05 2718-11 2618-22 3612-33 034946 032647 041144\nBTI 0906 0106+01 3413-05 3413-10 9900-20 2010-31 153646 173553 181244\nBTT 3608 0208+05 0608-03 0305-09 9900-23 2005-35 161249 150948 140843\nCDB 3125 3328+02 3334+00 3229-05 3036-18 2943-30 305946 306353 294048\nCZF 3107 2406-02 2307-06 2010-11 1727-24 1542-35 163646 211241 290740\nEHM 2710 2505+02 2709-03 2822-08 2726-21 2628-33 273748 273550 282644\nFAI 3507 3608+05 0308-02 3408-09 3306-23 0306-35 130949 120750 160743\nFYU 3005 3211+05 3411-03 3610-09 0110-22 1809-33 134048 143051 141143\nGAL 0306 9900+04 2605-03 2705-10 9900-22 9900-35 330850 320748 990043\nGKN 1711 9900+03 0208-03 0309-09 0309-23 9900-35 110948 990047 990042\nHOM 9900 0407+01 0710-04 0812-10 0707-21 0509-33 350848 321051 310742\nJNU 2207 2213-02 2413-05 2812-09 3115-22 3009-35 292348 282645 271440\nLUR 0416 3207+01 3105-04 3006-09 3009-21 3210-33 055846 044849 042345\nMCG 9900 9900+04 0905-03 1505-10 9900-21 9900-34 250949 300551 990043\nMDO 1205 1107+00 0906-05 0806-09 0812-22 0105-34 301148 281149 280742\nOME 1011 1019+01 1121-05 1220-10 1320-21 1320-33 132650 121548 060842\nORT      3415+05 3513-02 3511-09 9900-21 1307-34 080849 150549 990042\nOTZ 0313 0608+03 9900-04 9900-10 9900-21 0505-34 350851 051549 061443\nSNP 3025 2935+03 2941-02 2843-09 2858-19 2866-30 287846 287252 284347\nTKA 2010 3005+03 9900-03 9900-09 0605-22 0508-34 351148 340651 990042\nUNK 1207 1110+03 1315-04 1316-10 1508-22 1007-33 990050 990051 990042\nYAK 2007 2708-01 2908-06 2705-09 9900-22 9900-35 301447 281347 261041\nIKO 3215 3316+05 3121+01 3026-04 2944-15 2945-28 284444 284553 284955\nAFM 0213 0410+04 0906-03 0905-09 3607-21 0113-35 021751 041148 060943\n5AB 9900 9900+04 2505+02 2511-02 2417-15 2523-27 253342 243652 253158\n5AC 2713 2924+05 2825+00 2828-05 2741-17 2856-27 297242 298948 286851\n5AD 2418 2322+02 2222-04 2325-08 2533-19 2538-32 254844 265345 264344\n5AE 3222 3226-01 3323-05 3322-09 3431-20 3437-32 333845 323245 302742\n5AF 1912 2211+00 2311-04 2410-08 2613-20 2620-32 273544 273749 272744\n5AG 1308 1406+00 9900-04 1406-09 9900-21 2605-33 261446 261748 261542\n",
  "vaac_tokyo": [
    {
      "id": "20260703_30027000_0221",
      "year": "2026",
      "volcano": "Sheveluch",
      "psn": "N5639 E16122",
      "issued": "20260703",
      "text": "FVFE01 RJTD 030600\nVA ADVISORY\nDTG: 20260703/0600Z\nVAAC: TOKYO\nVOLCANO: SHEVELUCH 300270\nPSN: N5639 E16122\nAREA: RUSSIA\nSOURCE ELEV: 3283M AMSL\nADVISORY NR: 2026/221\nINFO SOURCE: HIMAWARI-9\nERUPTION DETAILS: VA CONTINUOUSLY OBS IN SATELLITE IMAGERY\nOBS VA DTG: 03/0520Z\nOBS VA CLD: SFC/FL350 N4946 E15201 - N5803 E15753 - N5815 E16030 - \nN5727 E16004 - N5729 E15847 - N4703 E15417 MOV S 55KT\nFCST VA CLD +6 HR: 03/1120Z SFC/FL360 N5908 E16002 - N5240 E15653 - \nN4647 E16143 - N4349 E15513 - N5241 E15447 - N5935 E15821\nFCST VA CLD +12 HR: 03/1720Z SFC/FL370 N6131 E15758 - N5229 E16527 - \nN4739 E16551 - N4336 E16200 - N4958 E15414 - N6054 E15530\nFCST VA CLD +18 HR: 03/2320Z SFC/FL390 N5047 E17034 - N4513 E16656 - \nN4558 E15828 - N5340 E15344 - N6510 E15326\nRMK: SOME PART OF VA OBSCURED BY MET CLOUD.\nNXT ADVISORY: 20260703/0900Z=",
      "img_url": "https://ds.data.jma.go.jp/svd/vaac/data/VAGFN/2026/Images/20260703_30027000_0221_QH21_01.png",
      "sat_img_url": "https://ds.data.jma.go.jp/svd/vaac/data/Sat/2026/Images/30027000/09-ir/20260703_0520_202607030600_ir.png",
      "text_url": "https://ds.data.jma.go.jp/svd/vaac/data/TextData/2026/20260703_30027000_0221_Text.html"
    },
    {
      "id": "20260702_27303000_0714",
      "year": "2026",
      "volcano": "Mayon",
      "psn": "N1315 E12341",
      "issued": "20260702",
      "text": "FVFE01 RJTD 021550\nVA ADVISORY\nDTG: 20260702/1550Z\nVAAC: TOKYO\nVOLCANO: MAYON 273030\nPSN: N1315 E12341\nAREA: PHILIPPINES\nSOURCE ELEV: 2462M AMSL\nADVISORY NR: 2026/714\nINFO SOURCE: HIMAWARI-9 PHIVOLCS\nERUPTION DETAILS: ERUPTION AT 20260702/1535Z FL090 EXTD WSW REPORTED\nOBS VA DTG: 02/1530Z\nOBS VA CLD: VA NOT IDENTIFIABLE FM SATELLITE DATA WIND FL090 100/11KT\nFCST VA CLD +6 HR: NOT AVBL\nFCST VA CLD +12 HR: NOT AVBL\nFCST VA CLD +18 HR: NOT AVBL\nRMK: WE WILL ISSUE FURTHER ADVISORY IF VA IS DETECTED IN SATELLITE \nIMAGERY.\nNXT ADVISORY: NO FURTHER ADVISORIES=",
      "img_url": "https://ds.data.jma.go.jp/svd/vaac/data/VAGFN/2026/Images/20260702_27303000_0714_QH21_01.png",
      "sat_img_url": null,
      "text_url": "https://ds.data.jma.go.jp/svd/vaac/data/TextData/2026/20260702_27303000_0714_Text.html"
    },
    {
      "id": "20260701_30006000_0001",
      "year": "2026",
      "volcano": "Mutnovsky",
      "psn": "N5227 E15812",
      "issued": "20260701",
      "text": "FVFE01 RJTD 012206\nVA ADVISORY\nDTG: 20260701/2206Z\nVAAC: TOKYO\nVOLCANO: MUTNOVSKY 300060\nPSN: N5227 E15812\nAREA: RUSSIA\nSOURCE ELEV: 2288M AMSL\nADVISORY NR: 2026/1\nINFO SOURCE: KVERT KBGS UHPP HIMAWARI-9\nERUPTION DETAILS: ERUPTION AT 20260701/2016Z FL170 EXTD W REPORTED\nOBS VA DTG: 01/2140Z\nOBS VA CLD: VA NOT IDENTIFIABLE FM SATELLITE DATA WIND FL170 120/8KT\nFCST VA CLD +6 HR: NOT AVBL\nFCST VA CLD +12 HR: NOT AVBL\nFCST VA CLD +18 HR: NOT AVBL\nRMK: WE WILL ISSUE FURTHER ADVISORY IF VA IS DETECTED IN SATELLITE \nIMAGERY.\nNXT ADVISORY: NO FURTHER ADVISORIES=",
      "img_url": "https://ds.data.jma.go.jp/svd/vaac/data/VAGFN/2026/Images/20260701_30006000_0001_QH21_01.png",
      "sat_img_url": null,
      "text_url": "https://ds.data.jma.go.jp/svd/vaac/data/TextData/2026/20260701_30006000_0001_Text.html"
    },
    {
      "id": "20260701_27202000_0225",
      "year": "2026",
      "volcano": "Kanlaon",
      "psn": "N1025 E12308",
      "issued": "20260701",
      "text": "FVFE01 RJTD 012010\nVA ADVISORY\nDTG: 20260701/2010Z\nVAAC: TOKYO\nVOLCANO: KANLAON 272020\nPSN: N1025 E12308\nAREA: PHILIPPINES\nSOURCE ELEV: 2435M AMSL\nADVISORY NR: 2026/225\nINFO SOURCE: HIMAWARI-9 PHIVOLCS\nERUPTION DETAILS: ERUPTION AT 20260701/1954Z FL090 EXTD NNW REPORTED\nOBS VA DTG: 01/1950Z\nOBS VA CLD: VA NOT IDENTIFIABLE FM SATELLITE DATA WIND FL090 120/5KT\nFCST VA CLD +6 HR: NOT AVBL\nFCST VA CLD +12 HR: NOT AVBL\nFCST VA CLD +18 HR: NOT AVBL\nRMK: WE WILL ISSUE FURTHER ADVISORY IF VA IS DETECTED IN SATELLITE \nIMAGERY.\nNXT ADVISORY: NO FURTHER ADVISORIES=",
      "img_url": "https://ds.data.jma.go.jp/svd/vaac/data/VAGFN/2026/Images/20260701_27202000_0225_QH21_01.png",
      "sat_img_url": null,
      "text_url": "https://ds.data.jma.go.jp/svd/vaac/data/TextData/2026/20260701_27202000_0225_Text.html"
    }
  ],
  "vaac_alaska": [
    {
      "text": "\n000\nFVAK21 PAWU 030620\nVAAAK1\nVA ADVISORY\n\nDTG: 20260703/0617Z\n\nVAAC: ANCHORAGE\n\nVOLCANO: SHEVELUCH 300270\n\nPSN: N5639 E16122\n\nAREA: KAMCHATKA PENINSULA\n\nSOURCE ELEV: 10771 FT AMSL\n\nADVISORY NR: 2026/165\n\nRMK: PLEASE SEE FVFE01 RJTD ISSUED BY VAAC TOKYO WHICH DESCRIBES\nCONDITIONS NEAR THE VAAC ANCHORAGE AREA OF RESPONSIBILITY...CC\n\n\n\n",
      "issued": "2026-07-03T06:20:00+00:00",
      "volcano": "Sheveluch",
      "psn": "N5639 E16122"
    }
  ]
}