{
  "updated_utc": "2026-07-15T17:01Z",
  "metar": {
    "RJAA": "METAR RJAA 151530Z AUTO 14005KT 9000 BKN013 26/25 Q1001 TEMPO 4000 BR FEW003 BKN008",
    "PANC": "METAR PANC 151553Z 15010G17KT 10SM FEW005 FEW060 OVC070 11/09 A2985 RMK AO2 RAB1458E41 SLP110 P0001 T01060089",
    "PAFA": "METAR PAFA 151553Z 21006KT 10SM FEW055 BKN075 OVC090 12/09 A2974 RMK AO2 RAB06E35 SLP074 P0000 T01170094",
    "PAED": "METAR PAED 151555Z 18015KT 10SM OVC065 11/07 A2984 RMK AO2A SLP101 T01110074 $",
    "KSEA": "METAR KSEA 151553Z 29003KT 10SM FEW130 18/11 A3012 RMK AO2 SLP202 T01780111 $",
    "ZSPD": "METAR ZSPD 151530Z 19004MPS CAVOK 31/27 Q1003 NOSIG",
    "ZSSS": "METAR ZSSS 151530Z 19005MPS CAVOK 32/26 Q1003 NOSIG",
    "RJFR": "METAR RJFR 151600Z AUTO 24004KT 9999 SCT026 BKN030 OVC041 29/26 Q1003",
    "VHHH": "METAR VHHH 151530Z 17013KT 140V200 9999 SHRA FEW008 FEW012CB SCT025 28/25 Q1007 TEMPO 3000 SHRA FEW010CB SCT020",
    "RCTP": "METAR RCTP 151530Z 21006KT 9999 FEW015 SCT025 BKN100 29/25 Q1010 NOSIG RMK A2983",
    "ZGSZ": "METAR ZGSZ 151600Z 18002MPS 140V220 9999 -SHRA SCT009 FEW025CB BKN033 25/25 Q1007 RESHRA BECMG AT1620 SCT011 BKN030",
    "WSSS": "METAR WSSS 151530Z 13008KT 9999 FEW018 BKN300 29/25 Q1012 NOSIG",
    "WMKK": "METAR WMKK 151530Z 13006KT 060V220 9999 FEW030 30/25 Q1011 NOSIG",
    "WIDD": "METAR WIDD 151530Z 14004KT 080V190 9999 FEW014 29/26 Q1013 NOSIG",
    "VTBS": "METAR VTBS 151530Z 23009KT 9999 FEW020 30/23 Q1011 NOSIG",
    "VTBU": "METAR VTBU 151530Z 35003KT 9000 -RA FEW020 SCT100 26/26 Q1012 NOSIG",
    "ROAH": "METAR ROAH 151530Z AUTO 23011KT 9999 SCT005 OVC008 27/27 Q1010",
    "VVDN": "METAR VVDN 151530Z 25006KT 220V290 9999 FEW020 SCT080 31/22 Q1008 NOSIG",
    "RCKH": "METAR RCKH 151530Z 06004KT 9999 FEW014 SCT030 27/25 Q1011 NOSIG RMK A2986",
    "KLAX": "METAR KLAX 151553Z 00000KT 10SM FEW040 FEW160 24/16 A2989 RMK AO2 SLP120 T02440161 $",
    "KONT": "METAR KONT 151553Z 00000KT 10SM FEW140 27/14 A2991 RMK AO2 SLP109 T02670139 $",
    "KSFO": "METAR KSFO 151556Z 31012KT 10SM CLR 19/12 A2997 RMK AO2 SLP148 T01890117",
    "KOAK": "METAR KOAK 151553Z 27006KT 10SM FEW006 18/13 A2998 RMK AO2 SLP150 T01830128",
    "KMHR": "METAR KMHR 151515Z AUTO 20005KT 10SM CLR 27/07 A2989 RMK AO2 T02700069 $",
    "KDFW": "METAR KDFW 151553Z VRB04KT 10SM FEW022 FEW030 SCT120 SCT250 29/22 A3010 RMK AO2 SLP184 T02890217 $",
    "KIAH": "METAR KIAH 151553Z VRB03KT 10SM -RA SCT023 SCT039 BKN110 BKN160 OVC250 27/23 A3013 RMK AO2 RAB37 SLP201 EMBDD TCU DSNT E AND W P0000 T02720228",
    "KORD": "METAR KORD 151551Z 23007KT 10SM FEW300 31/22 A3008 RMK AO2 SLP181 T03110217",
    "KJFK": "METAR KJFK 151551Z 26013G20KT 8SM FEW250 BKN300 34/21 A2983 RMK AO2 SLP102 FU BKN300 T03440211",
    "KRFD": "METAR KRFD 151554Z 00000KT 10SM FEW030 SCT250 30/23 A3012 RMK AO2 SLP193 T03000228",
    "KIND": "METAR KIND 151554Z VRB04KT 9SM SCT040 SCT300 31/21 A3012 RMK AO2 SLP192 T03060206",
    "KDTW": "METAR KDTW 151553Z 25006KT 10SM BKN230 30/22 A3004 RMK AO2 SLP167 T03000222",
    "KMSP": "METAR KMSP 151553Z 27003KT 10SM FEW250 31/23 A3013 RMK AO2 SLP195 T03110228",
    "CYEG": "METAR CYEG 151600Z 17004KT 140V230 20SM BKN017 BKN140 BKN250 19/16 A3010 RMK CU6AC1CI1 AC TR CI TR SLP194 DENSITY ALT 3300FT",
    "EHAM": "METAR EHAM 151525Z 04013KT 350V080 CAVOK 27/11 Q1021 NOSIG",
    "EBBR": "METAR EBBR 151520Z 04008KT CAVOK 29/09 Q1019 NOSIG",
    "EDDF": "METAR EDDF 151520Z AUTO 06011KT 030V100 CAVOK 30/12 Q1017 NOSIG",
    "EDFH": "METAR EDFH 151520Z 05005KT 360V110 CAVOK 26/11 Q1019",
    "EDDL": "METAR EDDL 151520Z AUTO 04013KT 010V090 CAVOK 29/11 Q1019 NOSIG",
    "EDDK": "METAR EDDK 151520Z AUTO 05005KT 320V110 CAVOK 30/11 Q1018 NOSIG",
    "EBLG": "METAR EBLG 151520Z 04011KT 010V070 CAVOK 28/10 Q1019 NOSIG",
    "LSZH": "METAR LSZH 151520Z 24007KT 210V270 9999 FEW070CB 28/16 Q1017 NOSIG",
    "LIMC": "METAR LIMC 151520Z 04015KT CAVOK 27/18 Q1016 NOSIG",
    "LIRF": "METAR LIRF 151520Z 24008KT CAVOK 31/24 Q1015 NOSIG",
    "EINN": "METAR EINN 151530Z 13005KT 040V200 9999 FEW030 29/14 Q1022 NOSIG",
    "EGLL": "METAR EGLL 151520Z AUTO 08009KT 050V120 9999 NCD 27/13 Q1021",
    "EGSS": "METAR EGSS 151520Z AUTO 07013KT 040V110 9999 NCD 27/12 Q1023",
    "EPWA": "METAR EPWA 151530Z 01009KT 330V040 CAVOK 28/14 Q1019 NOSIG",
    "UHPP": "METAR UHPP 151600Z 21004MPS 9999 FEW013 BKN018 14/13 Q1015 R34L/CLRD62 NOSIG RMK QFE758/1010",
    "EFHK": "METAR EFHK 151520Z 30011KT CAVOK 26/13 Q1018 NOSIG",
    "LBBG": "METAR LBBG 151530Z AUTO 12008KT 9999 NSC 28/17 Q1015 NOSIG",
    "LTAC": "METAR LTAC 151550Z 06006KT 020V090 9999 SCT040 27/07 Q1015 NOSIG RMK RWY21C 07006KT RWY03L 05006KT 020V080 RWY21R 06006KT RWY03R 04007KT RWY21L 03005KT 350V070",
    "UBBB": "METAR UBBB 151530Z 33022G32KT CAVOK 26/21 Q1007 NOSIG",
    "UTAA": "METAR UTAA 151600Z 09006KT 9999 NSC 38/07 Q1004 R88/CLRD70 NOSIG",
    "UACC": "METAR UACC 151530Z 29005MPS 250V310 9999 FEW046 27/16 Q1005 NOSIG RMK QFE723/0964",
    "UAAA": "METAR UAAA 151530Z 17003MPS 9999 BKN100 29/10 Q1008 NOSIG",
    "UZTT": "METAR UZTT 151530Z 26004KT 210V310 CAVOK 35/14 Q1005 NOSIG",
    "ZWWW": "METAR ZWWW 151530Z 19003MPS 170V230 CAVOK 29/11 Q1009 NOSIG",
    "ZLXY": "METAR ZLXY 151600Z 03003MPS 9999 FEW070 27/23 Q1004 NOSIG",
    "ZBAA": "METAR ZBAA 151530Z 08002MPS 060V130 CAVOK 27/23 Q1000 NOSIG",
    "ZBHH": "METAR ZBHH 151600Z 10002MPS CAVOK 20/16 Q1009 NOSIG",
    "ZSQD": "METAR ZSQD 151600Z VRB02MPS 1500 R35/P2000U R16/1300N +SHRA SCT007 SCT030 OVC050 21/21 Q1003 BECMG TL1610 3000 -SHRA BR BKN007",
    "ZMCK": "METAR ZMCK 151530Z VRB01MPS 9999 FEW033 17/11 Q1009 NOSIG RMK QFE642.5 64 NT",
    "UUEE": "SPECI UUEE 151516Z 33008G15MPS 290V010 9000 -SHRA SCT014CB 20/16 Q1012 R24L/290345 R24C/290345 TEMPO -TSRA SCT020CB",
    "UUDD": "METAR UUDD 151530Z 32005MPS 9999 FEW040 22/16 Q1011 R31L/CLRD65 NOSIG",
    "ULLI": "METAR ULLI 151530Z 30007MPS 9999 SCT043 23/14 Q1015 R88/090065 NOSIG",
    "USSS": "METAR USSS 151530Z 15002MPS 090V190 9999 -SHRA FEW006 BKN026CB 16/16 Q1000 R08R/290050 R08L/290040 NOSIG RMK QFE730/0973",
    "UNNT": "METAR UNNT 151530Z 02002MPS CAVOK 19/14 Q1008 R07/CLRD// R34/CLRD// NOSIG RMK QFE746/0995",
    "UNKL": "METAR UNKL 151530Z 18001MPS CAVOK 14/13 Q1010 R29/CLRD// NOSIG RMK QFE732",
    "UIBB": "METAR UIBB 151530Z AUTO VRB01MPS 9999 // NSC 14/11 Q1007 RMK QFE712/0950",
    "UEEE": "METAR UEEE 151530Z 36003MPS 9999 SCT050CB 19/18 Q0996 R23/09//74 NOSIG RMK QFE739",
    "UHHH": "METAR UHHH 151530Z 23003MPS 9999 FEW033CB 20/18 Q0991 R23L/090060 NOSIG RMK QFE737/0983",
    "UHSS": "METAR UHSS 151600Z 22002MPS 9000 SCT006 BKN014CB 20/19 Q0994 RMK MT OBSC QFE744/0992"
  },
  "taf": {
    "RJAA": "TAF AMD RJAA 151244Z 1512/1618 17010KT 8000 FEW005 BKN012 TEMPO 1512/1520 4000 BR FEW003 BKN005 BECMG 1522/1600 01004KT BECMG 1600/1603 12010KT TEMPO 1615/1618 3000 BR",
    "PANC": "TAF PANC 151449Z 1515/1618 16010G20KT P6SM -SHRA FEW005 OVC050 FM152200 18012G20KT P6SM VCSH SCT030 OVC050 FM160100 18012KT P6SM BKN050 OVC070 FM160900 16011KT P6SM BKN080",
    "PAFA": "TAF PAFA 151545Z 1516/1618 24008KT P6SM -SHRA SCT025 BKN050 OVC070 FM152100 24010KT P6SM OVC050 TEMPO 1603/1606 P6SM -SHRA BKN025 FM160600 22009G19KT P6SM OVC050 FM161600 23005KT P6SM BKN050",
    "PAED": "TAF AMD PAED 151330Z 1513/1619 21010KT 9999 -SHRA OVC040 620703 540406 QNH2982INS BECMG 1517/1518 22012G22KT 9999 -SHRA SCT045 OVC060 620703 520009 QNH2990INS BECMG 1604/1605 21009KT 9999 NSW SCT050 BKN065 620703 QNH3002INS TX14/1600Z TN10/1514Z",
    "KSEA": "TAF KSEA 151455Z 1515/1618 20005KT P6SM FEW250 FM152100 33007KT P6SM FEW250 FM160600 VRB04KT P6SM VCSH BKN150",
    "ZSPD": "TAF ZSPD 151502Z 1518/1624 18004MPS 8000 SCT030 TX38/1606Z TN29/1521Z TN28/1621Z TEMPO 1606/1610 TSRA BKN008 SCT030CB",
    "ZSSS": "TAF ZSSS 151502Z 1518/1624 18004MPS 8000 SCT030 TX38/1606Z TN29/1521Z TN28/1621Z TEMPO 1606/1610 TSRA BKN011 SCT030CB",
    "RJFR": "TAF RJFR 151105Z 1512/1618 24010KT 9999 FEW013 BECMG 1517/1519 28006KT",
    "VHHH": "TAF VHHH 151400Z 1515/1621 20010KT 9999 FEW010 SCT030 TX31/1606Z TN26/1522Z TEMPO 1515/1517 14010KT 3000 SHRA FEW010CB SCT020 TEMPO 1521/1603 24015G25KT 2000 TSRA +SHRA FEW008CB SCT015 TEMPO 1603/1606 3000 SHRA FEW010CB SCT020",
    "RCTP": "TAF RCTP 151700Z 1518/1624 24013KT 9999 FEW015 BKN032 TEMPO 1518/1524 18005KT FEW010 BKN020 TEMPO 1603/1609 27015G25KT FEW010 BKN020 TEMPO 1612/1618 22005KT",
    "ZGSZ": "TAF ZGSZ 151512Z 1518/1624 18004MPS 8000 BKN040 TX31/1606Z TN26/1522Z TN27/1622Z TEMPO 1518/1521 SHRA SCT011 FEW020CB TEMPO 1522/1601 2000 +SHRA SCT012 FEW020CB BKN030 TEMPO 1602/1605 SHRA SCT011 FEW020CB BKN030 TEMPO 1605/1608 SHRA SCT011 FEW020CB",
    "WSSS": "TAF WSSS 151100Z 1512/1618 15007KT 9999 FEW015 SCT020",
    "WMKK": "TAF WMKK 151100Z 1512/1618 VRB03KT 9999 FEW018",
    "VTBS": "TAF VTBS 151100Z 1512/1618 21008KT 9999 FEW020 TEMPO 1512/1514 -TSRA FEW018CB SCT020 BKN080 TEMPO 1610/1615 VRB15KT 4000 TSRA FEW018CB SCT020 BKN080",
    "VTBU": "TAF VTBU 151100Z 1512/1612 24008KT 9999 FEW020",
    "ROAH": "TAF ROAH 151105Z 1512/1618 22010KT 9999 FEW006 BKN010 TEMPO 1512/1518 FEW003 BKN005 TEMPO 1518/1600 4000 BR FEW003 BKN005 TEMPO 1600/1603 FEW005 BKN008 TEMPO 1612/1618 FEW005 BKN008",
    "VVDN": "TAF VVDN 151100Z 1512/1612 24005KT 9999 FEW020 BECMG 1606/1607 02010KT",
    "RCKH": "TAF RCKH 151700Z 1518/1624 18005KT 9999 FEW015 BKN032 TEMPO 1518/1522 06005KT TEMPO 1523/1605 20011KT 4000 SHRA FEW006 FEW010CB BKN018 TEMPO 1606/1611 21010KT TEMPO 1612/1618 09005KT 4000 RA FEW010 BKN020",
    "KLAX": "TAF KLAX 151524Z 1515/1618 VRB03KT P6SM SKC FM151700 24006KT P6SM SKC FM152000 26012KT P6SM SKC FM160300 26006KT P6SM SKC FM161000 VRB03KT P6SM OVC008",
    "KONT": "TAF KONT 151120Z 1512/1618 VRB04KT P6SM SKC FM152000 25012G22KT P6SM FEW120 FM160500 VRB04KT P6SM SCT120",
    "KSFO": "TAF KSFO 151459Z 1515/1618 30013KT P6SM SKC FM152000 30022G30KT P6SM SKC FM160900 27015G25KT P6SM SKC",
    "KOAK": "TAF KOAK 151120Z 1512/1618 23007KT P6SM SKC FM152000 26013KT P6SM SKC FM160800 23009KT P6SM SCT009",
    "KMHR": "TAF KMHR 151121Z 1512/1612 VRB05KT P6SM SKC FM152100 24008G15KT P6SM SKC FM160000 23012KT P6SM SKC FM160500 16006KT P6SM SKC",
    "KDFW": "TAF KDFW 151512Z 1515/1618 18003KT P6SM SCT020 SCT100 TEMPO 1515/1516 BKN020 FM151900 20007KT P6SM VCSH FEW090 FM160100 18006KT P6SM BKN200",
    "KIAH": "TAF KIAH 151502Z 1515/1618 12006KT P6SM VCSH FEW015 BKN160 OVC250 FM151700 14007KT 6SM SHRA VCTS SCT030CB BKN050 PROB30 1517/1522 4SM TSRA BKN035CB FM152200 13007KT P6SM VCSH SCT035 BKN050 FM160200 VRB04KT P6SM OVC150 FM161400 17007KT P6SM SCT060 BKN150",
    "KORD": "TAF KORD 151458Z 1515/1618 25005KT P6SM FEW250 FM152100 09006KT P6SM FEW050 FEW250 FM161000 04005KT 6SM FU FEW050 SCT250",
    "KJFK": "TAF KJFK 151434Z 1515/1618 24012KT P6SM SCT250 FM151600 26015G23KT 6SM HZ BKN250 FM152000 27018G27KT 6SM FU BKN250 TEMPO 1520/1524 5SM FU FM160000 32013KT 6SM FU BKN250 TEMPO 1600/1604 5SM FU FM160400 31007KT 6SM HZ BKN250 FM161500 27010KT 6SM HZ BKN250",
    "KRFD": "TAF KRFD 151126Z 1512/1612 26005KT P6SM FEW250 FM160600 11005KT 6SM FU FEW050 SCT250",
    "KIND": "TAF KIND 151120Z 1512/1618 VRB03KT P6SM FEW250 FM151600 26005KT P6SM FEW050 SCT250",
    "KDTW": "TAF KDTW 151501Z 1515/1618 26006KT P6SM BKN250 FM151600 29008KT P6SM SCT250 FM152200 33006KT 6SM FU FEW060 BKN200 PROB30 1523/1602 4SM -TSRA BKN060CB BKN150 FM160200 05005KT 4SM FU BKN200",
    "KMSP": "TAF KMSP 151437Z 1515/1618 29003KT P6SM FEW250 FM152200 VRB03KT 5SM FU SCT150 FM160500 09005KT 6SM FU FEW250",
    "CYEG": "TAF AMD CYEG 151607Z 1516/1612 VRB03KT P6SM SCT020 SCT150 TEMPO 1516/1517 BKN020 FM151700 18006KT P6SM FEW030 FM152300 16008G18KT P6SM FEW040 SCT220 TEMPO 1523/1602 P6SM VCTS SCT030CB BKN100 FM160200 26008KT P6SM FEW030 SCT100 PROB30 1602/1606 VRB20G30KT 3SM TSRA OVC050CB FM160600 30006KT P6SM FEW015 RMK NXT FCST BY 151800Z",
    "EHAM": "TAF EHAM 151102Z 1512/1618 05016KT CAVOK BECMG 1519/1522 02008KT",
    "EBBR": "TAF EBBR 151120Z 1512/1618 04008KT 9999 FEW045",
    "EDDF": "TAF EDDF 151100Z 1512/1618 04010KT CAVOK PROB30 TEMPO 1513/1517 04015G30KT TSRA SCT045CB BECMG 1520/1522 03005KT PROB30 TEMPO 1613/1617 04015G30KT TSRA SCT045CB",
    "EDFH": "TAF EDFH 151100Z 1512/1612 06009KT CAVOK PROB30 TEMPO 1513/1517 07015G30KT TSRA BKN050CB BECMG 1523/1602 12005KT",
    "EDDL": "TAF EDDL 151100Z 1512/1618 04012KT CAVOK BECMG 1518/1521 03006KT",
    "EDDK": "TAF EDDK 151100Z 1512/1618 04008KT CAVOK BECMG 1520/1523 VRB03KT BECMG 1610/1612 05005KT",
    "EBLG": "TAF EBLG 151120Z 1512/1618 04008KT 9999 FEW045",
    "LSZH": "TAF AMD LSZH 151600Z 1516/1621 20008KT 9999 FEW050TCU TX27/1516Z TN17/1604Z TX31/1615Z PROB40 TEMPO 1517/1520 29015G25KT TSRA SCT050CB PROB30 TEMPO 1519/1522 SHRA PROB40 TEMPO 1524/1604 26015G30KT TSRA SCT060CB BECMG 1604/1606 CAVOK BECMG 1611/1614 9999 FEW060 BECMG 1615/1617 SCT050TCU TEMPO 1618/1621 25015G40KT 4500 TSRA SCT040CB",
    "LIMC": "TAF LIMC 151100Z 1512/1618 VRB05KT CAVOK TEMPO 1512/1516 4000 TSRA BKN014 TEMPO 1519/1523 4000 TSRA BKN014",
    "LIRF": "TAF LIRF 151100Z 1512/1618 23010KT CAVOK BECMG 1517/1519 VRB05KT TEMPO 1600/1605 4000 BCFG BECMG 1609/1611 25012KT",
    "EINN": "TAF EINN 151100Z 1512/1612 12008KT CAVOK",
    "EGLL": "TAF EGLL 151103Z 1512/1618 09012KT 9999 FEW030 BECMG 1520/1523 03008KT TEMPO 1603/1608 BKN012 PROB30 TEMPO 1603/1607 BKN009 BECMG 1609/1612 09010KT",
    "EGSS": "TAF EGSS 151056Z 1512/1618 06009KT 9999 FEW040 TEMPO 1523/1607 BKN008",
    "EPWA": "TAF EPWA 151430Z 1515/1615 03008KT CAVOK ",
    "UHPP": "TAF UHPP 151332Z 1515/1621 16003G12MPS 9999 BKN030CB TEMPO 1515/1522 0700 FG VV002 TEMPO 1612/1621 1000 BR VV003",
    "EFHK": "TAF EFHK 151431Z 1515/1615 32011KT CAVOK BECMG 1609/1611 16010KT",
    "LBBG": "TAF LBBG 151100Z 1512/1612 12012KT 9999 SCT045 BECMG 1517/1519 VRB04KT BECMG 1609/1611 12012KT",
    "LTAC": "TAF LTAC 151040Z 1512/1612 04012KT 9999 SCT040 BECMG 1515/1518 CAVOK BECMG 1518/1520 VRB02KT BECMG 1606/1609 01012KT SCT040",
    "UBBB": "TAF UBBB 151656Z 1518/1618 33022G32KT 9999 SCT015 TX29/1610Z TN23/1601Z TEMPO 1518/1606 34026G36KT FEW050CB BECMG 1608/1610 35018G28KT TEMPO 1612/1618 34014KT SCT020",
    "UTAA": "TAF UTAA 151045Z 1512/1612 15014KT 6000 SCT050 TX42/1611Z TEMPO 1512/1516 09014KT TEMPO 1516/1522 23012KT BECMG 1522/1524 33016KT TEMPO 1600/1608 29014G24KT 3000 DRDU",
    "UACC": "TAF AMD UACC 151205Z 1512/1612 27005MPS 9999 SCT030 BKN100 TX34/1609Z TN22/1523Z TEMPO 1512/1516 30012MPS BKN030CB BECMG 1516/1518 VRB01MPS TEMPO 1516/1603 18005MPS 3100 -TSRA BKN030CB BECMG 1603/1605 21007MPS SCT030CB BKN050 TEMPO 1603/1612 24011G16MPS 3100 -TSRA BKN030CB",
    "UAAA": "TAF UAAA 151102Z 1512/1612 04003MPS 9999 FEW050CB SCT100 TX38/1610Z TN20/1601Z BECMG 1514/1515 16003MPS BECMG 1603/1604 34003MPS TEMPO 1606/1612 04003G08MPS",
    "UZTT": "TAF UZTT 151100Z 1512/1612 09010KT 7000 NSC TX41/1511Z TN25/1600Z TEMPO 1512/1518 30010G20KT",
    "ZWWW": "TAF ZWWW 151507Z 1518/1624 20004MPS CAVOK TX38/1609Z TN26/1523Z TN28/1623Z BECMG 1602/1603 36004MPS BECMG 1614/1615 18004MPS",
    "ZLXY": "TAF ZLXY 151509Z 1518/1618 06003MPS 6000 NSC TX33/1607Z TN25/1522Z TEMPO 1609/1611 33008G15MPS TSRA FEW030CB OVC050 BECMG 1610/1611 33008G15MPS TSRA FEW030CB OVC050 BECMG 1613/1614 26004MPS NSW NSC",
    "ZBAA": "TAF ZBAA 151501Z 1518/1624 18004MPS CAVOK TX33/1606Z TN24/1521Z TN23/1621Z",
    "ZBHH": "TAF ZBHH 151512Z 1518/1618 04004MPS 9999 FEW040 TX30/1608Z TN16/1522Z TEMPO 1609/1612 -TSRA FEW040CB FEW040",
    "ZSQD": "TAF ZSQD 151502Z 1518/1618 36003MPS 3500 BR BKN020 TX32/1606Z TN21/1520Z",
    "ZMCK": "TAF ZMCK 151645Z 1518/1624 VRB02MPS 9999 FEW030CB SCT033 TN14/1521Z TX23/1607Z PROB40 TEMPO 1519/1609 VRB08MPS 6000 TSRA SCT027CB SCT030 BECMG 1602/1604 32006MPS BECMG 1610/1612 VRB02MPS",
    "UUEE": "TAF UUEE 151351Z 1515/1615 33005MPS 9999 BKN020 TX22/1515Z TN15/1601Z TEMPO 1515/1518 35008G15MPS -TSRA SCT020CB TEMPO 1606/1615 35009G17MPS",
    "UUDD": "TAF AMD UUDD 151636Z 1516/1621 33006MPS 9999 SCT016 TX20/1517Z TN13/1621Z TEMPO 1516/1518 33008G16MPS 1000 TSRA BKN016CB TEMPO 1605/1618 36010G17MPS",
    "ULLI": "TAF ULLI 151351Z 1515/1615 32005G10MPS 9999 SCT030 BECMG 1523/1524 02003MPS BECMG 1606/1608 05003G08MPS",
    "USSS": "TAF USSS 151351Z 1515/1615 15003G10MPS 6000 -SHRA BKN016CB TEMPO 1515/1603 VRB20MPS 0300 -TSRA FG SQ FM160300 27003G14MPS 9999 SCT016CB TEMPO 1603/1615 -TSRA",
    "UNNT": "TAF UNNT 151400Z 1515/1615 13003G08MPS 9999 SCT040 TX25/1611Z TN14/1523Z PROB40 TEMPO 1603/1615 -TSRA BKN030CB",
    "UNKL": "TAF UNKL 151348Z 1515/1615 24003MPS 8000 SCT040 TEMPO 1518/1521 1000 BR TEMPO 1521/1601 0400 FG VV002",
    "UIBB": "TAF UIBB 151400Z 1515/1615 28003G08MPS 9999 -SHRA FEW001 BKN016CB TEMPO 1515/1518 VRB08MPS TEMPO 1518/1601 0300 FG TEMPO 1603/1612 VRB08MPS",
    "UEEE": "TAF UEEE 151400Z 1515/1621 06003G10MPS 9999 BKN020CB OVC100 TEMPO 1515/1523 VRB01MPS 0500 TSRA FG VV002",
    "UHHH": "TAF UHHH 151345Z 1515/1621 18003MPS 9999 SCT020CB TX26/1606Z TN19/1515Z TEMPO 1515/1523 0700 -TSRA FG FEW002 BKN016CB TEMPO 1523/1603 24005G10MPS 2500 -TSRA FEW006 BKN016CB",
    "UHSS": "TAF UHSS 151400Z 1515/1621 21003MPS 6000 -SHRA BKN006 BKN016CB TEMPO 1515/1601 24005G12MPS 0700 +SHRA FG BKN002 BKN012CB BECMG 1605/1607 9999 NSW SCT040"
  },
  "atis": {
    "RJAA": "[Arrival ATIS] RJAA ARR ATIS G 0805Z M0800 (APCH)ILS Z RWY34R LDG RWY 34R DEP RWY 34L DEP FREQ 124.2. TWY A1 CLSD. OBSERVE GEAR DOWN OPS PROC ON FNL. M 220800Z 06008KT 020V090 35KM FEW010CU BKN025SC 20/17 Q1003/A2962= Q/TWO NINE SIX TWO STP\n[Departure ATIS] RJAA DEP ATIS G 0807Z M0800 (APCH)ILS Z RWY34R LDG RWY 34R DEP RWY 34L DEP FREQ 124.2. TWY A1 CLSD. OBSERVE GEAR DOWN OPS PROC ON FNL. M 220800Z 06008KT 020V090 35KM FEW010CU BKN025SC 20/17 Q1003/A2962= Q/TWO NINE SIX TWO STP",
    "PANC": "[Arrival ATIS] PANC ARR ATIS J 1653Z ANC ATIS INFO J 1653Z. 14007KT 10SM -RA FEW008 BKN047 OVC090 11/09 A2987 (TWO NINER EIGHT SEVEN) RMK RAB10. ILS RWY 15 APPROACHES IN USE. LANDING RWY 15, DEPARTING RWY 25L, 15. NOTICE TO AIRMEN. TWY Q CLSD. TWY K BTWN A AND D RESTRICTED TO AIRCRAFT WITH WINGSPAN LESS THAN 118 FEET. HAZD WX INFO FOR ANC AREA AVBL FM FSS. RWY 25L 5 5 5 0421Z, RWY 25R 5 5 5 0421Z, RWY15 5 5 5 0421Z. ...ADVS YOU HAVE INFO J.\n[Departure ATIS] PANC DEP ATIS I 0353Z ANC ATIS INFO I 0353Z. 14016G33KT 10SM OVC055 14/08 A3007 (THREE ZERO ZERO SEVEN). ILS RWY 15 APPROACHES IN USE. LANDING RWY 15, DEPARTING RWY 25L. NOTICE TO AIRMEN. TWY Q",
    "KSEA": "[Arrival ATIS] KSEA ARR ATIS K 1653Z SEA ATIS INFO K 1653Z. 25006KT 10SM FEW080 FEW130 SCT230 19/11 A3011 (THREE ZERO ONE ONE). ILS AND CHARTED VISUAL APPROACH RWYS 34L AND 34R , APCH IN USE. DEPG RWY 34R. SIMUL ARRIVALS TO RWY 34L AND DEPARTURES TO RWY 34R ARE IN USE. SIMUL APCHS IN USE TO PARA RYS. NOTAMS... BIRD ACTIVITY VICINITY ARPT. ...ADVS YOU HAVE INFO K.\n[Departure ATIS] KSEA DEP ATIS K 1653Z SEA ATIS INFO K 1653Z. 25006KT 10SM FEW080 FEW130 SCT230 19/11 A3011 (THREE ZERO ONE ONE). ILS AND CHARTED VISUAL APPROACH RWYS 34L AND 34R , APCH IN USE. DEPG RWY 34R. SIMUL ARRIVALS TO RWY 34L AND DEPARTURES TO RWY 34R ARE IN USE. SIMUL APCHS IN USE TO PARA RYS. NOTAMS... BIRD ACTIVITY VICINITY ARPT. ...ADVS YOU HAVE INFO K.",
    "ZSPD": "[Arrival ATIS] ZSPD ARR ATIS Y 0730Z EXP ILS APCH INDEPENDENT PARL INSTR APCH LDG RWY 17R & 16L WIND RWY 17R TDZ 090/10MPS MID 090/11MPS END 080/11MPS RWY 16L TDZ 100/10MPS MID 090/9MPS END 090/9MPS VIS RWY 17R TDZ 10000M MID 9000M END 10000M VIS RWY 16L TDZ 10000M MID 10000M END 10000M FBL SHRA CLD BKN 150M T 23 /DP 23 QNH 1001 HPA CAUTION THE BIRDS NEAR THE RUNWAY RWY 17L/17R/16L/16R RWYCC 5/5/5 ISSUED AT 0300 WET/WET/WET DPT NR/NR/NR COV 100PCT/100PCT/100PCT ADZ YOU HAVE INFO Y.\n[Departure ATIS] ZSPD DEP ATIS Z 0800Z DEP RWY 17L & 16R WIND RWY 17L TDZ 090/9MPS MID 090/11MPS END 090/11MPS RWY 16R TDZ 100/12MPS MID 100/10MPS END 100/11MPS VIS RWY 17L TDZ 10000M MID 10000M END 10000M VIS RWY 16R TDZ 10000M MID 10000M END 10000M FBL SHRA CLD BKN 150M T 23 /DP 23 QNH 1001 HPA CAUTION THE BIRDS NEAR THE RUNWAY RWY 17L/17R/16L/16R RWYCC 5/5/5 ISSUED AT 0300 WET/WET/WET DPT NR/NR/NR COV 100PCT/100PCT/100PCT ADZ YOU HAVE INFO Z.",
    "ZSSS": "[Arrival ATIS] ZSSS ARR ATIS N 0803Z EXP ILS APCH LDG RWY 36R WIND RWY 36R TDZ 100/5MPS MID 080/4MPS END 090/4MPS VIS RWY 36R TDZ 7000M MID 6000M END 7000M MOD SHRA CLD BKN 240M /FEW CB 900M /BKN 900M T 23 /DP 22 QNH 1001 HPA RWY36L RWYCC 5/5/5 ISSUED AT 0640 WET/WET/WET DPT NR/NR/NR COV 100PCT/100PCT/100PCT RWY36R RWYCC 5/5/5 ISSUED AT 0640 WET/WET/WET DPT NR/NR/NR COV 100PCT/100PCT/100PCT QNH OF SHANGHAI TERMINAL CONTROL AREA 1001 HPA ADZ YOU HAVE INFO N.\n[Departure ATIS] ZSSS DEP ATIS S 0030Z DEP RWY 18R WIND RWY 18R TDZ 110/5MPS VRB BTN 060/ AND 130/ MID 100/5MPS END 120/4MPS VIS RWY 18R TDZ 10000M MID 10000M END 10000M CLD BKN 210M T 24 /DP 23 QNH 1004 HPA RWY18L RWYCC 5/5/5 ISSUED AT 2130 WET/WET/WET DPT NR/NR/NR COV 100PCT/100PCT/100PCT RWY18R RWYCC 5/5/5 ISSUED AT 2130 WET/WET/WET DPT NR/NR/NR COV 100PCT/100PCT/100PCT VISUAL APCH IN USE QNH OF SHANGHAI TERMINAL CONTROL AREA 1005 HPA ADZ YOU HAVE INFO S.",
    "VHHH": "[Arrival ATIS] VHHH ARR ATIS L 0804Z ARRIVALS, RWY 25R. EXP RNAV TRANSITION TO ILS APCH, RWY 25R. RNP APCH IS AVBL ON REQ, RWY 25R. RWY 25C CLSD. WIND 220/16KT. VIS 10KM. CLD FEW 2000FT. T32 DP25. QNH 1004HPA. ACK INFO L ON FIRST CTC WITH APP.\n[Departure ATIS] VHHH DEP ATIS Y 1506Z DEPARTURES, RWY 25L. RWY 25 RUNWAY CONDITION REPORT AT 0745Z. RWY 25L RUNWAY CONDITION CODES 5 , 5 , 5 . RWY SFC ALL PARTS WET. WIND 160/14KT. VIS 10KM. FBL SHRA. CLD FEW 8",
    "RCTP": "[Arrival ATIS] RCTP ARR ATIS A 0800Z EXP ILS APCH RWY23R FOR ARR. RWY23L FOR DEP. WIND 300/08KT VIS 10 KM OR MORE CLD FEW 2500FT SCT 3500FT T 33 DP 26 QNH 1004HPA NOSIG CTN BIRD ACTIVITY IN THE VCY OF THE AD. INFORM TAIPEI APCH OR TAIPEI TOWER ON INITIAL CONTACT YOU HAVE INFORMATION A\n[Departure ATIS] RCTP DEP ATIS U 0500Z EXP ILS APCH RWY23R FOR ARR. RWY23L FOR DEP. WIND 290/11KT VIS 10 KM OR MORE CLD FEW 2000FT T 33 DP 26 QNH 1005HPA NOSIG CTN BIRD ACTIVITY IN THE VCY OF THE AD. INFORM TAIPEI APCH OR TAIPEI TOWER ON INITIAL CONTACT YOU HAVE INFORMATION U",
    "ZGSZ": "[Arrival ATIS] ZGSZ ARR ATIS E 0800Z EXP ILS APCH 15 EXP ILS OR VIS APCH 16R WIND 180/7MPS VIS 9999M CLD FEW 900M T 31 /DP 27 QNH 1004 HPA INDEPENDENT PARALLEL DEPARTURES DEPENDENT PARALLEL APPROACHES V17,V18 AVAILABLE AFTER SULAS FLY HEADING 040 MISSED APPROACH ALTITUDE SETTING 1200METERS WHEN AIRBORNE CONTACT ZHUHAI APPROACH EXPECTED RNP ILS DME Z APPROACH ADZ YOU HAVE INFO E.\n[Departure ATIS] ZGSZ DEP ATIS N 0100Z DEP RWY 15 & 16L WIND 200/5MPS VIS 9999M CLD SCT 900M T 30 /DP 26 QNH 1008 HPA INDEPENDENT PARALLEL DEPARTURES DEPENDENT PARALLEL APPROACHES V17,V18 AVAILABLE AFTER SULAS FLY HEADING 040 MISSED APPROACH ALTITUDE SETTING 1200METERS WHEN AIRBORNE CONTACT ZHUHAI APPROACH EXPECTED RNP ILS DME Z APPROACH ADZ YOU HAVE INFO N.",
    "WSSS": "[Arrival ATIS] WSSS ARR ATIS G 0800Z METREPORT 0800Z ILS APCHRWY 20R SIMUL INDEPENDENT ILS AND VISUAL APPROACHES ARE CONDUCTED ON RWY 20. RSCD RWY20R 0344Z RWYCC:5.5.5. WHOLE RWY 100% WET. TWY W 9 CLOSED, RWY 02C 20C RAPID EXIT TAXIWAY INDICATOR LIGHTS OFF WIND 220/ 04KT VRB BTN190 AND260 VIS 10KM FBL RA CLD FEW 1400FT T27 DP24 QNH 1010HPA NOSIG ACK ATIS G\n[Departure ATIS] WSSS DEP ATIS F 0700Z METREPORT 0700Z RWY 20C SIMUL INDEPENDENT ILS AND VISUAL APPROACHES ARE CONDUCTED ON RWY 20. RSCD RWY20C 0344Z RWYCC:5.5.5. WHOLE RWY 100% WET. TWY W 9 CLOSED, RWY 02C 20C RAPID EXIT TAXIWAY INDICATOR LIGHTS OFFRAIN OVER AIRFIELD, WIND 220/ 07KT VRB BTN190 AND290 VIS 10KM FBL RA CLD FEW 1200FT FEW TCU 1700FT T27 DP25 QNH 1011HPA RERA NOSIG DEP,INITIAL CMB 3000FT ACK ATIS F",
    "WMKK": "[Arrival ATIS] WMKK ARR ATIS I 0704Z WMKK ARR INFO I. TIME 0700. INDEPENDENT PARALLEL APPROACHES FOR RWY 32 R AND 33 ARE IN PROGRESS. EXP RNAV / ILS APCH FOR RWY 32 RIGHT. EXP RNAV / ILS APCH FOR RWY 33. WIND RWY 32R DIRECTION NOT AVBL SPEED NOT AVBL. WIND RWY 32L DIRECTION NOT AVBL SPEED NOT AVBL. WIND RWY 33 DIRECTION NOT AVBL SPEED NOT AVBL. VIS RWY 32R TDZ NOT AVBL. VIS RWY 33 TDZ NOT AVBL. CLD SCT 1800 FT. T 33. DP 24. QNH 1009. NOSIG. AT FIRST CONTACT WITH LUMPUR RADAR, NOTIFY RCPT OF I\n[Departure ATIS] WMKK DEP ATIS Q 0734Z WMKK DEP INFO Q. TIME 0730. INDEPENDENT PARALLEL DEPARTURES FOR RWY 32 L AND 33 ARE IN PROGRESS. RWY 32 LEFT. RWY 33. WIND RWY 32L DIRECTION NOT AVBL SPEED NOT AVBL. WIND RWY 33 DIRECTION NOT AVBL SPEED NOT AVBL. VIS RWY 32L TDZ NOT AVBL. VIS RWY 33 TDZ NOT AVBL. CLD SCT 1800 FT. T 33. DP 23. QNH 1008. NOSIG. ALL DEP ACFT TO CONTACT LUMPUR DEP AT 135 DECIMAL 25 MHZ WHEN ABN. AT FIRST CONTACT WITH LUMPUR GROUND, NOTIFY RCPT OF Q",
    "VTBS": "[Arrival ATIS] VTBS ARR ATIS C 0800Z VTBS ARR ATIS C 0801Z SIMULTANEOUS INDEPENDENT PARL APCH IN PROGRESS EXP ILS Z APCH ARR RWY 19 OR RNP APCH RWY 20R , ,PILOT SHALL ADZ BKK APCH ON INITIAL CTC IF UNA TO CONDUCT RNP APCH DUE TO OPERATIONAL CONSTRAINT 0800Z WIND 310/9KT VRB BTN 260/ AND 350/ VIS 10KM CLD FEW 2000FT T34 DP21 QNH 1007HPA TREND NOSIG ADZ BKK APCH ON INITIAL CONTACT THAT YOU HAVE INFO C\n[Departure ATIS] VTBS DEP ATIS J 0730Z VTBS DEP ATIS J 0731Z DEP RWY 20L , ,AFT AIRBORNE ALL DEPARTING ACFT SHALL CTC 119.25 0730Z WIND 300/6KT VRB BTN 260/ AND 330/ VIS 10KM CLD FEW 2000FT T34 DP20 QNH 1008HPA TREND NOSIG ADZ GND WHEN INITIAL CONTACT YOU HAVE INFO J",
    "VTBU": "[Arrival ATIS] VTBU ARR ATIS U 0430Z VTBU ARR ATIS U 0430Z RNP RWY 18 TRL FL130 MOBILE ACFT ARST SYSTEM INSTL ATP SIX HUNDRED AND TEN METERS FM THR RWY 36 CABLE HGT 3 INCHES. 0430Z WIND 360/6KT VRB BTN 320/ AND 020/ VIS 10KM CLD FEW 2000FT T34 DP27 QNH 1010HPA TREND NOSIG ADZ CONTROLLER WHEN INITIAL CONTACT YOU HAVE INFO U\n[Departure ATIS] VTBU DEP ATIS D VTBU ARR/DEP DATIS RPT VTBU ARR ATIS D 0330Z ILS \"Z\" APCH RWY 18 TRL FL130 0330Z WIND 110/4KT VRB BTN 350/ AND 120/ VIS 6KM CLD FEW 2000FT T31 DP27 QNH 1014HPA TREND NOSIG ADZ CONTROLLER WHEN INITIAL CONTACT YOU HAVE INFO D",
    "ROAH": "[Arrival ATIS] ROAH ARR ATIS D 0807Z M0800 (APCH)RNP RWY18R LDG RWY 18R DEP RWY 18L DEP FREQ 126.5 258.3 M 220800Z 24006KT 50KM FEW015CU 30/26 Q1006/A2972= Q/TWO NINE SEVEN TWO STP\n[Departure ATIS] ROAH DEP ATIS X 0517Z M0500 (APCH)RNP RWY18R LDG RWY 18R DEP RWY 18L DEP FREQ 126.5 258.3 M 220500Z 23007KT 50KM FEW015CU 30/26 Q1007/A2975= Q/TWO NINE SEVEN FIVE STP",
    "VVDN": "[Arrival ATIS] VVDN ARR ATIS R 0732Z VVDN INFO R 0732Z. ILS VICTOR APPROACH 35L.. DPTG RWY 35R.. 0732Z. WIND 070/07KT CAVOK T35 DP25 QNH 1004HPA TREND NOSIG. ADZ ON INITIAL CTC YOU HAVE INFO. R.\n[Departure ATIS] VVDN DEP ATIS N 0423Z VVDN INFO N 0423Z. ILS VICTOR APPROACH 35L.. DPTG RWY 35R.. 0423Z. WIND 010/02KT CAVOK T36 DP24 QNH 1008HPA TREND NOSIG. WS ALL RWY. ADZ ON INITIAL CTC YOU HAVE INFO. N.",
    "RCKH": "[Arrival ATIS] RCKH ARR ATIS J 0700Z EXPECT ILS APPROACH RWY 27 ARR/DEP TAXIWAY JULIETT, TAXIWAY BRAVO, TAXIWAY DELTA AND TAXIWAY ECHO CLOSED DUE MAINTENANCE.RUNWAY 2 7 ARRIVALS PLAN VACATE VIA CHARLIE OR ALPHA AND EXPEDITE VACATE. WIND 270/10KT VARYING BTN 240 AND 320 VIS 10 KM OR MORE CLD FEW 2200FT T 31 DP 24 QNH 1005HPA NOSIG CAUTION BIRD ACTIVITY IN VICINITY OF THE AERODROME. INFORM KAO-HSIUN APCH OR KAO-HSIUN TOWER ON INITIAL CONTACT YOU HAVE INFORMATION J\n[Departure ATIS] RCKH DEP ATIS M 1300Z EXPECT ILS APPROACH RWY 09 ARR/DEP RWY SFC RWY 09 SFC COND 5/5/5 ISSUED AT 2227Z. 100/100/100 NR/NR/NR WET/WET/WET TAXIWAY JULIETT, TAXIWAY BRAVO, TAXIWAY DELTA AND TAX",
    "KLAX": "[Arrival ATIS] KLAX ARR ATIS R 1553Z LAX ATIS INFO R 1553Z. 00000KT 10SM FEW040 FEW160 24/16 A2989 (TWO NINER EIGHT NINER) RMK AO2 SLP120 T02440161. SIMUL INST APCHS AND RNAV RNP RWYS 24R AND 25L APCHS, OR VCTR FOR VISUAL APCH WILL BE PROVIDED, SIMUL VISUAL APCHS TO ALL RWYS ARE IN PROG, AND SIMUL APCHS IN PROG BTWN LAX AND HHR, SIMUL INSTR DEPARTURES IN PROG RWYS 24 AND 25. CTC L A GC ON 121.75 FOR PUSH OR TAXI ON A. TWY B CLSD BTN TWY, C10 AND TWY C7 , , TWY B6 CLSD, TWY B7 CLSD, TWY C CLSD BTN TWY, C1 AND TWY C3, TWY C1 CLSD, TWY C9 CLSD BTN TWY, B AND TWY C, TWY C8 CLSD BTN TWY, B AND TWY C. PAPI OTS 24R, SEAL BEACH VOR OTS. LAX VOR UNMONITORED. HAZD WX INFO FOR LAX AREA AVBL FM FSS. USE CAUTION FOR HANG GLIDING 1 MILE SOUTH LOS ANGELES VOR. BIRD ACTIVITY VICINITY ARPT. INCLUDE YOUR CALL SIGN IN ALL READBACKS. USE CAUTION WHEN EXITING RY24R AT TWY V, W, AND Y, TO HOLD SHORT OF RY24L. MULTIPLE RUNWAY INCURSIONS HAVE OCCURRED. ...ADVS YOU HAVE INFO R.\n[Departure ATIS] KLAX DEP ATIS U 0653Z LAX ATIS INFO U 0653Z. 23008KT 10SM FEW015 17/14 A2990 (TWO NINER NINER ZERO) RMK AO2 SLP124 T01670144. INST APCHS AND RNAV RNP APCHS RY 24R AND 25L, OR VCTR FOR VISUAL APCH WILL BE PROVIDED, SIMUL VISUAL APCHS TO ALL RWYS ARE IN PROG, SIMUL INSTR DEPARTURES IN PROG RWYS 24 AND 25. CTC L A GC ON 121.75 FOR PUSH OR TAXI ON A. TWY C CLSD BTN TWY, C8 AND TWY C9 , , TWY B CLSD BTN TWY, F AND TWY B1, TWY B1 CLSD. ILS RY 25R OTS, RY 25R SFL OTS, RY 24L ALSF-2 OTS. UNAUTHORIZED UAS ACTIVITY IN VICINITY OF AIRPORT. LAX VOR UNMONITORED. IF ASSIGNED RUNWAY 25R FOR DEPARTURE, EXPECT DEPARTURE FROM INTERSECTION FOXTROT. TAXILANE CHARLIE EIGHT RESTRICTED TO AIRCRAFT WITH A WINGSPAN LESS THAN ONE HUNDRED EIGHTEEN FEET. USE CAUTION FOR INCREASED DRONE ACTIVIY IN THE VICINITY OF SOFI STADIUM AT OR BELOW 200FT AGL DURING THE WORLD CUP FROM 06/12/26 THROUGH 07/10/2026. HAZD WX INFO FOR LAX AREA AVBL FM FSS. BIRD ACTIVITY VICINITY ARPT. TWR FREQ FOR ALL RWYS IS 120.95. CD AND GC FREQ IS 121.75. INCLUDE YOUR CALL SIGN IN ALL READBACKS. USE CAUTION WHEN EXITING RY24R AT TWY V, W, AND Y, TO HOLD SHORT OF RY24L. MULTIPLE RUNWAY INCURSIONS HAVE OCCURRED. ...ADVS YOU HAVE INFO U.",
    "KONT": "[Arrival ATIS] KONT ARR ATIS S 1953Z ONT ATIS INFO S 1953Z. 23006G15KT 10SM FEW120 34/16 A2995 (TWO NINER NINER FIVE). ILS AND VIS APR IN USE, RY26L & RY26R. LNDG AND DEPG RY 26L AND RY 26R. NOTAMS... TAXIWAY SIERRA FIVE CLOSED. TAXIWAY SIERRA CLOSED BETWEEN TAXIWAY SIERRA 8 AND TAXIWAY WHISKEY. RY 26L IM OTS, RY 26R ALS OTS. USE CAUTION FOR NUMEROUS BIRDS OBSERVED IN VICINITY OF ONT. HAZD WX INFO FOR SOUTHERN CA AVBL ON FSS FREQUENCIES. PILOTS READBACK RWY ASSIGNMENTS AND HOLD SHORT INSTRUCTIONS. ...ADVS YOU HAVE INFO S.\n[Departure ATIS] KONT DEP ATIS N 0553Z - KONT ATIS INFO N 0553Z. 24004KT 10SM BKN250 22/15 A2988 (TWO NINER EIGHT EIGHT) RMK AO2 SLP100. ILS AND VIS APR IN USE, RY26L & RY26R. LNDG AND DEPG RY 26L AND RY 26R. NOTAMS... TAXIWAY SIERRA CLSD BETWEEN SIERRA 8 AND W TAXIWAY Q SOUTH OF RWY 26L CLSD TAXIWAY T CLSD TAXIWAY SIERRA 5 CLSD. RY 26L IM OTS, RY 26R ALS OTS. USE CAUTION FOR NUMEROUS BIRDS OBSERVED IN VICINITY OF ONT. HAZD WX INFO FOR SOUTHERN CA AVBL ON FSS FREQUENCIES. PILOTS READBACK RWY ASSIGNMENTS AND HOLD SHORT INSTRUCTIONS. ...ADVS YOU HAVE INFO N.",
    "KSFO": "[Arrival ATIS] KSFO ARR ATIS L 0556Z SFO ATIS INFO L 0556Z. 28009KT 10SM FEW004 BKN010 14/12 A2992 (TWO NINER NINER TWO) RMK AO2 SLP131 T01390117 10183 20139 53010. SIMUL CLSLY SPCD DPNDNT ILS RY 28R AND ILS RY 28L APP IN USE. DEPG RWYS 28L, 28R. RY 1L, 1R CLSD. NUMEROUS TWY CLOSURES FOR CONSTRUCTION ON THE FIELD, PILOTS CHECK NOTAMS. DEPG ACFT WAITING ON FINAL NUMBERS ADVISE GROUND PRIOR TO ENTERING TWY F. ...ADVS YOU HAVE INFO L.\n[Departure ATIS] KSFO DEP ATIS T 1456Z SFO ATIS INFO T 1456Z. 00000KT 10SM SCT140 BKN200 18/13 A2991 (TWO NINER NINER ONE) RMK AO2 SLP128 T01780133 53008. SIMUL CLSLY SPCD DPNDNT ILS RY 28R AND ILS RY 28L APP IN USE. DEPG RWYS 28L, 28R. RY 1L, 1R CLSD. NUMEROUS TWY CLOSURES FOR CONSTRUCTION ON THE FIELD, PILOTS CHECK NOTAMS. DEPG ACFT WAITING ON FINAL NUMBERS ADVISE GROUND PRIOR TO ENTERING TWY F. ...ADVS YOU HAVE INFO T.",
    "KOAK": "[Arrival ATIS] KOAK ARR ATIS T 2053Z - KOAK ATIS INFO T 2053Z. 25015KT 10SM FEW008 20/13 A2994 (TWO NINER NINER FOUR). RNAV, AND VA, RWY 30. ILS, AND VA, RWY 28R. FLOW TO LAX, LAS, SAN, SEA. RWY 28L CLSD. TAXIWAYS GOLF, HOTEL, PAPA, JULIET BETWEEN RUNWAYS 28 RIGHT AND 28 LEFT CLOSED. ILS RWY 30, OTS, RWY 28R RAIL, OTS. UNN LIT CLOSE-IN OBSTACLES FOR RWY 30 DEPARTURES. RWY 30 DEPARTURES ARE ADVISED TO AVOID TURNING LEFT PRIOR TO DEPARTURE END OF RUNWAY. CTN, CRANE 1 POINT 6 NAUTICAL MILES, , AT 140 FEET AGL. CAUTION, BIRDS NEAR AIRPORT. ...ADVS YOU HAVE INFO T.\n[Departure ATIS] KOAK DEP ATIS O 1953Z OAK ATIS INFO O 1953Z. 28014KT 10SM FEW005 22/14 A2988 (TWO NINER EIGHT EIGHT). RNAV Z/VA RWY 30 ILS/VA RWY 28R. FLOW TO LAX, LAS, SAN. ILS RWY 30, OTS. UNN LIT CLOSE-IN OBSTACLES FOR RWY 30 DEPARTURES. RWY 30 DEPARTURES ARE ADVISED TO AVOID TURNING LEFT PRIOR TO DEPARTURE END OF RUNWAY. SIGNATURE UNI-COM OUT OF SERVICE. CAUTION, BIRDS NEAR AIRPORT. ...ADVS YOU HAVE INFO O.",
    "KDFW": "[Arrival ATIS] KDFW ARR ATIS H 1553Z DFW ARR INFO H 1553Z. VRB04KT 10SM FEW022 FEW030 SCT120 SCT250 29/22 A3010 (THREE ZERO ONE ZERO) RMK AO2 SLP184 T02890217. SIMUL APCH IN USE. EXPECT ILS TO RWYS, 13R, 18R, 17C, 17L. LDG RWY 17C EXP LAHSO TWY B 10460 FT AVAIL, LDG RWY 18R EXP LAHSO TWY B 10100 FT AVL. NOTICE TO AIRMEN. BIRD ACTIVITY VCNTY ARPT. ...ADVS YOU HAVE INFO H.\n[Departure ATIS] KDFW DEP ATIS F 1453Z DFW DEP INFO F 1453Z. 11005KT 10SM SCT020 BKN030 BKN055 BKN250 27/22 A3008 (THREE ZERO ZERO EIGHT) RMK AO2 SLP178 T02720217 51013. SIMUL PARL TRAFFIC DEPG RWYS 17R, 18L. NOTICE TO AIRMEN. WARNING, RWY 18L HAS BEEN SHORTENED, 9273 FT AVAILABLE. HAZD WX FOR DFW AVBL ON FSS. BIRD ACTIVITY VCNTY ARPT. ...ADVS YOU HAVE INFO F.",
    "KIAH": "[Arrival ATIS] KIAH ARR ATIS M 1453Z IAH ATIS INFO M 1453Z. 12006KT 10SM FEW015 BKN160 OVC250 27/22 A3009 (THREE ZERO ZERO NINER). ARRIVALS EXPECT ILS OR RNAV Y RY 26R, ILS OR RNAV Y RY 26L, ILS OR RNAV Y RY 27. SIMUL APPROACHES IN USE. DEPG RY 15L, RY 15R. NOTICE TO AIRMEN. UNITED RAMP CONTROL IN EFFECT. CODED DEPARTURE ROUTES IN EFFECT. HAZD WX INFO FOR IAH AREA AVBL FM FSS. BIRD ACTIVITY VICINITY ARPT. CRANES ARE DOWN. TWY SA CLSD BTN TWY, SF AND TWY SK , TWY SB CLSD BTN TWY, SF AND TWY SK , , TWY EA CLSD. NOTAM ATIS IN USE ON FREQUENCY 126.225. ...ADVS YOU HAVE INFO M.\n[Departure ATIS] KIAH DEP ATIS T 0353Z IAH ATIS INFO T 0353Z. 15007KT 10SM FEW035 FEW180 BKN250 27/23 A2996 (TWO NINER NINER SIX). ARRIVALS EXPECT ILS OR RNAV Y RY 8R, ILS OR RNAV Y RY 8L. DEPG RY 15R. NOTICE TO AIRMEN. UNITED RAMP CONTROL IN EFFECT. RY 15L, 33R CLSD. HAZD WX INFO FOR IAH AREA AVBL FM FSS. BIRD ACTIVITY VICINITY ARPT. CRANES ARE DOWN. TWY SA CLSD BTN TWY, SF AND TWY SK , TWY SB CLSD BTN TWY, SF AND TWY SK , , TWY WB CLSD BTN TWY, WG AND TWY WH . TWY EA CLSD. NOTAM ATIS IN USE ON FREQUENCY 126.225. ...ADVS YOU HAVE INFO T.",
    "KORD": "[Arrival ATIS] KORD ARR ATIS N 0751Z ORD ATIS INFO N 0751Z. 02011KT 10SM SCT009 BKN015 OVC030 15/13 A2989 (TWO NINER EIGHT NINER) RMK AO2 RAE44 SLP118 P0000 T01500133. ARR EXP VECTORS ILS RWY 10L APCH. DEPS EXP RWYS 9R FROM S S 9870 FT AVL. RWY 4L, 22R CLSD, RWY 4R, 22L CLSD, RWY 9L, 27R CLSD, RWY 9C, 27C CLSD, RWY 10C, 28C CLSD, RWY 10R, 28L CLSD. RWY 22L ILS OTS, RWY 22R LOC OTS, RWY 9L IM OTS, RWY 9C IM OTS, RWY 10L IM OTS, RWY 10R IM OTS, RWY 27R IM OTS, RWY 28L IM OTS, RWY 28R IM OTS, RWY 9L PAPI OTS, RWY 27R PAPI OTS. ALL RWYS, COND CODE, 5, 5, 5 AT 0700Z . PILOTS USE CTN FOR BIRD ACTIVITY IN THE VICINITY OF THE ARPT. HAZD WX INFO FOR ORD AREA AVBL ON FSS. USE CTN FOR PERSONNEL AND EQUIP AT NUMEROUS SITES ON THE FIELD. READBACK ALL RWY HOLD SHORT INSTRUCTIONS. FOR CD GND METERING AND GC CONTACT ORD ON FREQ 121.9. ...ADVS YOU HAVE INFO N.\n[Departure ATIS] KORD DEP ATIS U 2051Z ORD ATIS INFO U 2051Z. 21004KT 10SM FEW060 FEW300 36/19 A3011 (THREE ZERO ONE ONE) RMK AO2 SLP189 T03560194 58014. ARR EXP VECTORS ILS RWY 27C APCH, VISUAL APCH RWY 27R, VI",
    "KJFK": "[Arrival ATIS] KJFK ARR ATIS A 1451Z JFK ATIS INFO A 1451Z. 25012KT 10SM FEW250 BKN300 32/22 A2984 (TWO NINER EIGHT FOUR). APPROACH IN USE ILS RY 22L, ILS RY 22R. DEPG RY 22R. RWY 13L, 31R CLSD. RY 4R PAPI OTS, RY 13L SFL OTS, RWY 22L/4R INNER MARKER OTS. NUM CRANES OPERATING AT JFK. BIRD ACTIVITY VICINITY ARPT. READBACK ALL RWY ASSIGNMENTS AND HOLD SHORT INSTRUCTIONS. ...ADVS YOU HAVE INFO A.\n[Departure ATIS] KJFK DEP ATIS Y 1251Z - KJFK ATIS INFO Y 1251Z. 25016KT 10SM SCT250 28/22 A2988 (TWO NINER EIGHT EIGHT) RMK AO2 SLP117 T02780217. APPROACH IN USE ILS RY 22L, ILS RY 22R. DEPG RY 22R. RWY 13L, 31R CLSD. RY 4R PAPI OTS, RY 13L SFL OTS, RWY 22L/4R INNER MARKER OTS. NUM CRANES OPERATING AT JFK. BIRD ACTIVITY VICINITY ARPT. READBACK ALL RWY ASSIGNMENTS AND HOLD SHORT INSTRUCTIONS. ...ADVS YOU HAVE INFO Y.",
    "KIND": "[Arrival ATIS] KIND ARR ATIS K 0754Z IND ATIS INFO K 0754Z. 02003KT 10SM CLR 22/17 A3017 (THREE ZERO ONE SEVEN). PARL ILS RWY 23R AND 23L APPROACHES IN USE. CROSS RUNWAY OPERATIONS MAY BE IN EFFECT. PARL APCHS IN USE. NOTICE TO AIRMEN. TWY, P BTN TWY, H AND TWY B CLSD, TWY, P BTN TWY, H AND TWY J CLSD, TWY, H BTN TWY, R AND TWY N CLSD. P PAD CLSD. ILS RUNWAY 5R AND RUNWAY 5L INNER MARKER UNSERVICEABLE. ARPT ADZY FLOCK OF SMALL BIRDS IN THE VICINITY OF THE AIRPORT, ALT UNKN. ...ADVS YOU HAVE INFO K.\n[Departure ATIS] KIND DEP ATIS H 1854Z IND ATIS INFO H 1854Z. 26009G19KT 10SM SCT036 BKN041 BKN170 23/16 A2981 (TWO NINER EIGHT ONE) RMK AO2 SLP088 T02280156. PARL ILS RWY 23R AND 23L APPROACHES IN USE. CROSS RU",
    "KDTW": "[Arrival ATIS] KDTW ARR ATIS D 1153Z DTW ARR INFO D 1153Z. 01005KT 10SM FEW035 BKN250 21/18 A3003 (THREE ZERO ZERO THREE). SIMUL ILS Z RY 4L AND RY 3R APCH IN USE. NOTICE TO AIRMEN. RWY 21R, 3L CLSD, RWY 27L, 9R CLSD, RWY 27R, 9L CLSD. TWYS Y1 CLSD ;. RWSL OTS. PILOTS USE CTN FOR BIRD ACTIVITY. DEPARTURE ATIS 118.125. ...ADVS YOU HAVE INFO D.\n[Departure ATIS] KDTW DEP ATIS Q 2253Z - KDTW DEP INFO Q 2253Z. 21009KT 10SM FEW050 FEW250 33/24 A2991 (TWO NINER NINER ONE). DEPG RWY 21R, RWY 22L ;. NOTICE TO AIRMEN. RWY 27L, 9R CLSD, RWY 27R, 9L CLSD. PILOTS USE CTN FOR BIRD ACTIVITY. ...ADVS YOU HAVE INFO Q.",
    "KMSP": "[Arrival ATIS] KMSP ARR ATIS K 1153Z MSP ARR INFO K 1153Z. 00000KT 7SM FEW250 24/22 A3014 (THREE ZERO ONE FOUR) RMK AO2 SLP200 T02440222 10272 20239 51005. VISUAL RWY 12R APCH IN USE, VISUAL RWY 12L APCH IN USE. FINAL APCH, OVER NOISE SENSITIVE AREA. NOTICE TO AIRMEN. RWYS 4, 22 CLSD. TWY R7. R8. R9. R10. CLOSED. TWY R BTWN R6 AND R10 CLSD, USE CAUTION, NUMEROUS TAXIWAY CLOSURES, TWY A7 CLSD, TWY A CLSD BTN TWY, A7 AND TWY D. GS RWY 12L OTS, RWYS 12R, 12L, INNER MARKER OTS. HAZD WX INFO FOR MSP AREA AVBL FM FSS. CTN, BIRDS NEAR MSP. READ BACK HS AND ALT. ALL ACFT TAXI WITH TRANSPONDER AND ALTITUDE ENCODING ON. ...ADVS YOU HAVE INFO K.\n[Departure ATIS] KMSP DEP ATIS P 1553Z - KMSP DEP INFO P 1553Z. 27003KT 10SM FEW250 31/23 A3013 (THREE ZERO ONE THREE) RMK AO2 SLP195 T03110228. DEPARTING RWY 30L, RWY 30R, RWY 17. NOTICE TO AIRMEN. RWYS 4, 22 CLSD. TWY R7. R8. R9. R10. CLOSED. TWY R BTWN R6 AND R10 CLSD, USE CAUTION, NUMEROUS TAXIWAY CLOSURES, TWY A7 CLSD, TWY A CLSD BTN TWY, A7 AND TWY D. ALL ACFT CTC METERING ON ONE THREE THREE POINT FIVE SEVEN WHEN READY TO PUSHBACK OR TAXI. HAZD WX INFO FOR MSP AREA AVBL FM FSS. CTN, BIRDS NEAR MSP. READ BACK HS AND ALT. ALL ACFT TAXI WITH TRANSPONDER AND ALTITUDE ENCODING ON. ...ADVS YOU HAVE INFO P.",
    "CYEG": "[Arrival ATIS] CYEG ARR ATIS S 1500Z CYEG ARR ATIS S 1500Z 15005KT 100V170 20SM FEW140 SCT250 19/15 A3010 SIGMET E2 IN EFFECT. APCH RNAV Z OR Y RWY 20, INFORM ARRL OF REQ APCH ON INITIAL CTC. LDG AND DEP RWY 20. SIMUL APPROACHES MAY BE IN EFCT. INFORM CYEG ATC INFO S\n[Departure ATIS] CYEG DEP ATIS S 1500Z CYEG ARR ATIS S 1500Z 15005KT 100V170 20SM FEW140 SCT250 19/15 A3010 SIGMET E2 IN EFFECT. APCH RNAV Z OR Y RWY 20, INFORM ARRL OF REQ APCH ON INITIAL CTC. LDG AND DEP RWY 20. SIMUL APPROACHES MAY BE IN EFCT. INFORM CYEG ATC INFO S",
    "EHAM": "[Arrival ATIS] EHAM ARR ATIS J 1620Z EHAM ARRIVAL INFO J. DEMAND. MAIN LANDING RWY 06. SECONDARY LANDING RWY 36 R. TRANSITION LEVEL 040. WIND 030 DEG, 17 KT, VRB BTN 010 AND 070 DEG, 21 KT MAX, 10 KT MNM. WIND SECONDARY RUNWAY 040 DEG, 15 KT, VRB BTN 010 AND 080 DEG, 19 KT MAX, 8 KT MNM. CAVOK. T 26. DP 12. QNH 1020 HPA. NOSIG. OPERATIONAL REPORT. CONVERGING APPROACHES IN PROGRESS. CONTACT APCH WITH CALLSIGN ONLY. END OF INFO J\n[Departure ATIS] EHAM DEP ATIS Y 0723Z EHAM DEPARTURE INFO Y. DEMAND. MAIN DEPARTURE RWY 36 L. SECONDARY DEPARTURE RWY 36 C. MAIN LANDING RWY 36 R. WIND 060 DEG, 12 KT, VRB BTN 020 AND 090 DEG, 18 KT MAX, 9 KT MNM. WIND SECONDARY RUNWAY 050 DEG, 14 KT, VRB BTN 010 AND 070 DEG. VIS 10 KM OR MORE. CLD FEW 3500 FT. T 20. DP 13. QNH 1027 HPA. OPERATIONAL REPORT. INDEPENDENT PARALLEL DEPARTURES IN PROGRESS CHECK CORRECT SID IN FMS. INFORM SCHIPHOL DEL BY VOICE IF UNABLE TO COMPLY WITH NADP 2. END OF INFO Y",
    "EBBR": "[Arrival ATIS] EBBR ARR ATIS C 1620Z EBBR NAT, EXP VECT FOR ILS APP ARR RWY01 RSCD AT 1545 RWY01 DRY. DEP RWY07R RWY07L TRL 055 XNG RWY OPS INPR 030/12KT VRB BTN 010 AND 070 MNM6 MAX17 CAVOK T29 DP8 QNH 1019HPA NOSIG CFM ARR C\n[Departure ATIS] EBBR DEP ATIS D 1554Z EBBR NAT, DEP RWY07R RSCD AT 1537 RWY07L RSCD AT 1552 RWY07R DRY. RWY07L DRY. ARR RWY01 TRL 055 XNG RWY OPS INPR. TWY C6 CLSD 040/14KT VRB BTN 010 AND 080 MNM8 MAX20 CAVOK T29 DP8 QNH 1019HPA NOSIG CFM DEP D",
    "EDDF": "[Arrival ATIS] EDDF ARR ATIS R 1620Z ARR-ATIS EDDF R METAR 151620 EXPECT INDEPENDENT PARALLEL ILS Y APCH RWY 07L OR ILS APCH RWY 07R RWY 07L 07R TRL 60 03010KT 350V070 CAVOK T29 DP11 QNH1017 TREND NOSIG END OF ATIS R\n[Departure ATIS] EDDF DEP ATIS H 1050Z DEP-ATIS EDDF H METAR 151050 RWY 07C 18 ACFT DEPARTING RWY18 : EXPECT POSSIBLE DEPARTURE FROM INTERSECTION M , TORA 3454 METERS. IF UNABLE , ADVISE TWR ON INITIAL CONTACT , TRL 60 02009KT 320V060 RWY18 02006KT CAVOK T28 DP14 QNH1019 TREND NOSIG",
    "EDDL": "[Arrival ATIS] EDDL ARR ATIS L 1120Z ATIS EDDL L METAR 111120 EXPECT VECTORS ILS APPROACH RWY 05R TWY L2 , L4 AND L5 BTN TWY M AND RWY05R CLOSED TRL 60 06009KT 010V120 CAVOK T30 DP15 QNH1019 TREND NOSIG\n[Departure ATIS] EDDL DEP ATIS R EDDL ARR/DEP DATIS RPT -ATIS EDDL R METAR 020550 -EXPECT VECTORS ILS APPROACH -RWY 23L -TWY L8 CLOSED BETWEEN TWY M AND RWY 23L -TRL 60 - -23010KT -CAVOK - - -T19 DP13 -QNH1020 - -TREND NOSIG",
    "EDDK": "[Arrival ATIS] EDDK ARR ATIS L 0820Z ATIS EDDK L METAR 150820 EXPECT ILS APCH RWY 13L RWY COND RWY 13L AT TIME 0700 RWYCC 6 DEPOSIT TOTAL RWY DRY TWY A BLOCKED BETWEEN RWY 24 AND A2, LANDING TRAFFIC VACATE A3 OR RWY END* TEMPORARILY AMENDED TOWER FREQUENCY 120.505 TRL 60 RWY 13R AND RWY 31L CLOSED FOR DEPARTURE AND LANDING: TAXIING BTN THR RWY 13R AND INTERSECTION RWY 24 POSSIBLE : 06008KT 020V140 CAVOK T26 DP13 QNH1020 TREND NOSIG\n[Departure ATIS] EDDK DEP ATIS E 2050Z -ATIS EDDK E METAR 142050 -EXPECT CDO FOR ILS APCH RWY 31R -RWY 31R 06 -RWY COND RWY 31R AT TIME 1837 RWYCC 6 DEPOSIT TOTAL RWY DRY RWY 06 AT TIME 1837 RWYCC 6 DEPOSIT TOTAL RWY DRY -TRL 60 -RWY 13R AND RWY 31L CLOSED FOR DEPARTURE AND LANDING: TAXIING BTN THR RWY 13R AND INTERSECTION RWY 24 POSSIBLE : -02006KT 350V050 -CAVOK - - -T23 DP14 -QNH1018 - -TREND NOSIG",
    "EBLG": "[Arrival ATIS] EBLG ATIS I 0744Z EBLG INFO, EXP RNAV TO ILS APP ARR RWY04R DEP RWY04R RWY 04R DRY, RWYCC 666. TRL 055 TWY A4 CLSD 020/6KT CAVOK T24 DP20 QNH 1026HPA NOSIG CFM ATIS I",
    "LSZH": "[Arrival ATIS] LSZH ARR ATIS L 1639Z ARRIVALS, EXP RNP APCH, RWY 28. RWY COND REPORT. RWY COND CODE 5, 5, 5. COVERAGE 100 PER CENT, 100 PER CENT, 100 PER CENT. DEPTH NR, NR, NR. WET AND WET AND WET. RWY REPORT END. TRL 70. DEP RWY 32. INCREASED BIRD ACT. WIND 330 DEG, 22 KT. VIS 10 KM OR MORE, TDZ 10 KM OR MORE. MOD SHRA, TS. CLD FEW 4000 FT, BKN CB 6000 FT. T 22. DP 16. QNH 1020. WS, WIND AT 1700 FT QNH 330 DEG 18 KT, WIND AT 2100 FT QNH 010 DEG 4 KT. WS, SFC WIND 330 DEG 22 KT, WIND AT 725 FT 000 DEG 8 KT. TREND TEMPO VIS 4000 M, MOD TSRA.\n[Departure ATIS] LSZH DEP ATIS R 1639Z DEP RWY 32. RWY COND REPORT. RWY 32. RWY COND CODE 5, 5, 5. COVERAGE 100 PER CENT, 100 PER CENT, 100 PER CENT. DEPTH NR, NR, NR. WET AND WET AND WET. RWY 34. RWY COND CODE 5, 5, 5. COVERAGE 100 PER CENT, 100 PER CENT, 100 PER CENT. DEPTH NR, NR, NR. WET AND WET AND WET. RWY REPORT END. TRL 70. ARRIVALS, EXP RNP APCH, RWY 28. INCREASED BIRD ACT. TMA S 1 IS ACT. TMA S 2 AND S 3 ARE ACT. WIND 080 DEG, 6 KT, VRB BTN 040 AND 120 DEG. VIS 10 KM OR MORE. MOD SHRA, TS. CLD FEW CB 6000 FT. T 22. DP 16. QNH 1020. WS, WIND AT 1700 FT QNH 330 DEG 18 KT, WIND AT 2100 FT QNH 010 DEG 4 KT. WS RWY 10, SFC WIND 330 DEG 22 KT, WIND AT 725 FT 000 DEG 8 KT. WS RWY 14, SFC WIND 330 DEG 22 KT, WIND AT 1000 FT 210 DEG 6 KT. WS RWY 16, SFC WIND 340 DEG 20 KT, WIND AT 1000 FT 210 DEG 6 KT. TREND TEMPO VIS 4000 M, MOD TSRA.",
    "LIMC": "[Arrival ATIS] LIMC ARR ATIS E 0750Z LIMC ARR E 0750Z I.L.S. ZULU RWY IN USE 35L TL 70 WIND TDZ 030/3KT VRB BTN 020/AND 120/ CAVOK T29 DP18 QNH 1024HPA QFE 0998HPA\n[Departure ATIS] LIMC DEP ATIS I 1521Z LIMC DEP I 1521Z RWY IN USE 35R TL 70 BIRDS CONCENTRATION ON RWY STRIP WIND END 040/10KT VRB BTN 360/AND 060/ CAVOK T27 DP17 QNH 1017HPA QFE 0991HPA DATALINK CLEARANCE AVAILABLE.... CONTACT 1 3 1 8 8 0 TO BE RELEASED BY THE AIRPORT OPERATOR ...",
    "LIRF": "[Arrival ATIS] LIRF ARR ATIS Q 1550Z LIRF ARR Q 1550Z RWY 16L ILS W RWY 16R ILS Z RWY IN USE 16L 16R TL 70 DEPENDENT PARL ILS APCH INPR RWY IN USE 16R OR 16L ASSIGNED BY ROME RADAR WIND RWY 16L TDZ 240/8KT VRB BTN 200/AND 260/ RWY 16R TDZ 240/6KT VRB BTN 190/AND 260/ CAVOK T31 DP24 QNH 1015HPA RRSM\n[Departure ATIS] LIRF DEP ATIS H 0550Z LIRF DEP H 0550Z RWY IN USE 25 TL 70 RWYS IN USE FOR ARR 16L AND 16R WIND END 140/6KT CAVOK T27 DP19 QNH 1016HPA REA IS SENT AUTOMATICALLY ONCE RLSD BY RAMP WHEN READY CONTACT FIUME RAMP 121.725 RRSM",
    "EINN": "[Arrival ATIS] EINN ARR ATIS L 0800Z EXPECT I L S CATEGORY 1 LDG RWY06 TKOF RWY06 TRL FL060 VRB01KT CAVOK 16/13 QNH Q1025 TREND NOSIG ADVISE AT FIRST CONTACT YOU HAVE ATIS INFO L",
    "EGLL": "[Arrival ATIS] EGLL ARR ATIS J 0750Z LANDING RWY 09L TRANSITION-LEVEL: FL 70 IF STAND GUIDANCE IS OFF OR FAILS, REMAIN ON THE TAXIWAY CENTRELINE AND ADVISE ATC PILOTS ARE EXPECTED TO CHANGE TO RWY 09L AT AT 05:00 HOURS AUTO 09007KT 050V120 9999 NCD 21/16 Q1026 ACKNOWLEDGE RECEIPT OF INFORMATION J\n[Departure ATIS] EGLL DEP ATIS H 1550Z DEPARTURE RWY 09R PILOTS THAT ARE IN RECEIPT OF DATALINK CLEARANCES ARE REMINDED THEY MUST CONTACT DELIVERY ON 121.980 WHEN READY FOR START DATALINK CLEARANCES NOT AVAILABLE FOR CPT DEPARTURES AUTO 08015KT 060V120 9999 NCD 29/13 Q1021 ACKNOWLEDGE RECEIPT OF INFORMATION H AND REPORT AIRCRAFT TYPE AND CURRENT QNH ON FIRST CONTACT WITH HEATHROW",
    "EPWA": "[Arrival ATIS] EPWA ARR ATIS A 0801Z EPWA ARR A. TIME 0800. EXP U ARR ILS Z APCH FOR RWY 33. TRANSITION LEVEL 80. WIND 320 DEG, 6 KT. VIS TDZ 10 KM OR MORE. CLD FEW 2800 FT. T 22. DP 19. QNH 1023. NOSIG. CAUTION. BIRD ACT. END OF EPWA ARR A\n[Departure ATIS] EPWA DEP ATIS S 1531Z EPWA DEP S. TIME 1530. DEP RWY 29. ARR RWY 33, EXP U ARR ILS Z. REPORT READY FOR STARTUP ON DELIVERY 121 DECIMAL 605. TRANSITION LEVEL 80. WIND 010 DEG, 10 KT, VRB BTN 330 AND 040 DEG. CAVOK. T 28. DP 14. QNH 1019. NOSIG. CAUTION. BIRD ACT. END OF EPWA DEP S",
    "EFHK": "[Arrival ATIS] EFHK ARR ATIS E 1650Z EXPECT ILS APCH ARR RWY 04L RUNWAY 04L CONDITION REPORT AT 1630 UTC RUNWAY CONDITION CODES 6 , 6 , 6 CONTAMINANTS ALL PARTS DRY TRL 60 WIND 290 DEG 3 KT VRB BTN 260 AND 360 DEG CAVOK T 25 DP 14 QNH 1018 NOSIG ACK INFO E\n[Departure ATIS] EFHK DEP ATIS L 0450Z DEP RWY 04R RUNWAY 04R CONDITION REPORT AT 0213 UTC RUNWAY CONDITION CODES 6 , 6 , 6 CONTAMINANTS ALL PARTS DRY WIND 350 DEG 5 KT VRB BTN 320 AND 020 DEG CAVOK T 17 DP 9 QNH 1020 NOSIG ACK INFO L",
    "LTAC": "[Arrival ATIS] LTAC ARR ATIS K 1250Z EXP ILS V APCH 03C DEP RWY 03L RWY 03C WIND 080 DEG 06 KT VRB BTN 040 DEG AND 120 DEG RWY 03L WIND 100 DEG 05 KT VRB BTN 020 DEG AND 190 DEG TRL 110 VIS 9999 VIS 3100 M SCT04000 FT T 28 DP 08 QNH 1016 NOSIG FOR DELIVERY CTC 121.9. FOR DELIVERY FIRST USE DIGITAL DEP CLR. CTN BIRD HAZARD OVR AERODROME. APCH FREQUENCY 129.050. INDEPENDENT PARL DEPS INPR. END OF ATIS K",
    "UBBB": "[Arrival ATIS] UBBB ARR ATIS W 1556Z ATIS W EXP ILS/ LDG 34 35 DEP 34 35 IN USE RWY 34 CLEAR DRY 70 RWY 35 CLEAR DRY 70 TLVL 110 WIND WIND RWY 34 330 18 KT SPD MAX 28 MIN 16 WIND RWY 35 320 22 KT SPD MAX 32 MIN 16 VIS CAVOK T 26 / DP 21 QNH 1007 HPA TREND TREND NOSIG MODERATE BIRDS ACT IN VICINITY OF AP END OF ATIS W\n[Departure ATIS] UBBB DEP ATIS T 1530Z ATIS T EXP ILS/ LDG 34 35 DEP 34 35 IN USE RWY 34 CLEAR DRY 70 RWY 35 CLEAR DRY 70 TLVL 110 WIND WIND RWY 34 330 22 KT SPD MAX 32 MIN 14 WIND RWY 35 330 20 KT SPD MAX 32 MIN 14 VIS CAVOK T 26 / DP 21 QNH 1007 HPA TREND TREND NOSIG MODERATE BIRDS ACT IN VICINITY OF AP END OF ATIS T",
    "ZWWW": "[Arrival ATIS] ZWWW ARR ATIS J 1430Z EXP ILSDME Z APCH LDG RWY 26R TA 3000 WIND 190/5MPS VIS 9999M CLD FEW 1200M T 29 /DP 12 QNH 1008 HPA ADZ YOU HAVE INFO J.\n[Departure ATIS] ZWWW DEP ATIS H 0230Z DEP RWY 26L TA 3000 WIND VRB/1MPS CAVOK T 28 /DP 07 QNH 1008 HPA BIRDS ACTIVITY IN THE VICINITY OF THE AERODROME ADZ YOU HAVE INFO H.",
    "ZLXY": "[Arrival ATIS] ZLXY ARR ATIS A 0800Z EXP ILS APCH LDG RWY 05L & 06R WIND 010/1MPS VIS 9999M CLD SCT 900M T 26 /DP 18 QNH 1007 HPA VISUAL APPROACH IN PROGRESS ADZ YOU HAVE INFO A.\n[Departure ATIS] ZLXY DEP ATIS Z 1100Z DEP RWY 05L & 06L WIND 040/3MPS VRB BTN 010/ AND 070/ VIS 4500M -RA BR CLD SCT 240M /SCT 600M /OVC 1200M T 19 /DP 18 QNH 1011 HPA RUNWAY 05L SURFACE CONDITION CODE 555 RUNWAY 06L SURFACE CONDITION CODE 555 RUNWAY 06R SURFACE CONDITION CODE 555 ADZ YOU HAVE INFO Z.",
    "ZBAA": "[Arrival ATIS] ZBAA ARR ATIS T 0800Z EXP ILS APCH DEPENDENT PARL INSTR APCH LDG RWY 18R & 18L & 19 WIND 190 DEG 7 MPS CAVOK T 31 /DP 15 QNH 1004 HPA VISUAL APPROACH IS IN PROGRESS. ADZ YOU HAVE INFO T.\n[Departure ATIS] ZBAA DEP ATIS O 0530Z DEP RWY 18R & 18L & 19 WIND 210 DEG 6 MPS 150V250 DEG CAVOK T 30 /DP 16 QNH 1005 HPA RWY INDEPENDENT PARALLEL DEP VISUAL APPROACH IS IN PROGRESS. ADZ YOU HAVE INFO O.",
    "ZBHH": "[Arrival ATIS] ZBHH ARR ATIS J 0715Z EXP ILSDME APCH LDG RWY 08 TA 3000 /TRL 3600 WIND 180/5MPS MAX10 VRB BTN 150/ AND 210/ VIS 9999M TS CLD FEW 1200M /SCT CB 1200M T 26 /DP 13 QNH 1005 HPA BETWEEN 0400 AND 1200 UTC, TURBULENCE MAY OCCUR IN LOCAL FIELD. BETWEEN 0600 AND 1000 UTC, WINDSHEAR MAY OCCUR IN LOCAL FIELD. ADZ YOU HAVE INFO J.\n[Departure ATIS] ZBHH DEP ATIS Q 1500Z DEP RWY 08 TA 3000 /TRL 3600 WIND 140/2MPS VIS 5000M BR NSC T 19 /DP 19 QNH 1007 HPA ADZ YOU HAVE INFO Q.",
    "ZSQD": "[Arrival ATIS] ZSQD ARR ATIS Q 0800Z EXP ILSDME APCH LDG RWY 17 TA 3000 /TRL 3600 WIND 170/6MPS CAVOK T 27 /DP 19 QNH 1007 HPA SEGREGATED OPERATION VISUAL APPROACH OPERATION IN PROGRESS. RUNWAY 17,IF MISSED APPROACH,EXPECT FOLLOW THE STANDARD MISSED APPROACH PROCEDURE,CLIMB TO 900M ON QNH OR BY ATC CAUTION MAYBE THERE IS A FLOCK OF BIRDS IN THE VICINITY OF AIRPORT ADZ YOU HAVE INFO Q.\n[Departure ATIS] ZSQD DEP ATIS Y 2112Z DEP RWY 16 TA 3000 /TRL 3600 WIND 140/2MPS VIS 4000M BR CLD FEW 450M T 22 /DP 21 QNH 1009 HPA VISUAL APPROACH OPERATION IN PROGRESS. WHEN READY CONTACT QINGDAO TOWER ON 118.7 RUNWAY 16,IF MISSED APPROACH,EXPECT FOLLOW THE STANDARD MISSED APPROACH PROCEDURE,CLIMB TO 600M ON QNH OR BY ATC CAUTION MAYBE THERE IS A FLOCK OF BIRDS IN THE VICINITY OF AIRPORT ADZ YOU HAVE INFO Y."
  },
  "windtemp_alaska": "\n000\nFBAK31 KWNO 151358\nFD1AK1\nDATA BASED ON 151200Z    \nVALID 151800Z   FOR USE 1400-2100Z. TEMPS NEG ABV 24000\n\nFT  3000    6000    9000   12000   18000   24000  30000  34000  39000\nADK 2815 2732+08 2741+03 2744-01 2650-13 2663-24 266439 266848 266757\nADQ 2822 2823+01 2726-04 2632-08 2658-20 2583-29 750540 750348 266046\nAKN 2721 2723-01 2723-06 2829-10 2833-22 2748-34 266143 265543 254443\nANC 2113 2116+00 2016-05 1915-11 2017-25 1914-35 222241 233239 233040\nANN 3207 9900+09 3206+06 3411+01 3312-13 3415-24 341940 321549 311457\nBET 2620 2717-02 2617-05 2618-10 2414-22 1811-35 201047 252144 252342\nBRW 9900 2205+00 2005-06 2306-11 2112-22 2222-33 223947 212349 171342\nBTI 0714 0607+04 0905-03 1206-09 2010-19 2019-30 213245 213253 201945\nBTT 0605 1006+01 0806-03 9900-08 9900-20 9900-32 131948 131652 181342\nCDB 1909 2213+00 2318-02 2527-04 2550-15 2567-26 268441 268651 267054\nCZF 2606 2805-03 2507-06 2508-12 2108-23 1612-35 142147 190844 241142\nEHM 2720 2722-02 2622-05 2625-10 2626-21 2633-34 254545 264944 264143\nFAI 2316 2411+02 2211-03 2212-08 2012-20 1511-32 081749 151345 191641\nFYU 0505 0610+03 0809-02 1008-07 1509-19 1715-31 142748 142850 181942\nGAL 1609 1614+02 1413-03 1213-08 1109-20 1108-33 990049 090550 191042\nGKN 1621 1930+02 2025-04 2016-10 2025-22 2228-33 223545 233842 223140\nHOM 2525 2524-01 2626-07 2626-11 2627-26 2538-34 255638 255340 243642\nJNU 1711 2321+06 2419+01 2425+00 2527-11 2534-23 253640 263450 263360\nLUR 0708 1410-01 1708-06 2006-11 2213-23 2222-34 223348 221746 990041\nMCG 1909 2213+00 2108-05 2105-09 1306-20 0910-32 071049 990046 231441\nMDO 2319 2218+01 2320-02 2327-09 2351-18 2474-29 740341 740148 245346\nOME 0209 0106+00 0106-06 9900-10 1715-21 1515-33 141547 161151 990043\nORT      2419+04 2419-02 2216-09 2131-21 2232-33 224145 223643 223142\nOTZ 3606 0506+00 0506-04 9900-09 2014-20 1815-32 180948 201052 200642\nSNP 2307 2607-02 2608-06 2611-09 2619-21 2531-33 247144 256346 254244\nTKA 1922 2015+00 2018-06 1917-11 1811-23 1211-34 140746 221841 222340\nUNK 9900 9900+01 9900-04 0906-08 1212-20 1312-33 110848 090650 230842\nYAK 1814 2112+03 2223+00 2334-04 2351-14 2462-24 246640 247150 245754\nIKO 2320 2328+04 2342+04 2448-01 2446-13 2551-24 266239 266848 266658\nAFM 1206 1506+02 1509-03 1611-08 1808-20 1608-33 171048 151052 181043\n5AB 3615 3221+04 3133+01 3050-02 2957-14 2961-24 296939 307248 306354\n5AC 3518 3517+08 3517+06 3515+01 3516-12 3518-24 351740 351549 331158\n5AD 2821 2727+08 2729+06 2627+01 2631-11 2533-23 253840 253950 253460\n5AE 2813 2620+02 2630+00 2642-03 2655-14 2661-24 256640 256749 266358\n5AF 2313 2318+08 2519+05 2620+01 2622-11 2624-23 262440 262250 271960\n5AG 2517 2519+04 2427+02 2436-03 2449-13 2551-24 245940 246150 245958\n",
  "vaac_tokyo": [
    {
      "id": "20260714_27303000_0746",
      "year": "2026",
      "volcano": "Mayon",
      "psn": "N1315 E12341",
      "issued": "20260714",
      "text": "FVFE01 RJTD 142339\nVA ADVISORY\nDTG: 20260714/2339Z\nVAAC: TOKYO\nVOLCANO: MAYON 273030\nPSN: N1315 E12341\nAREA: PHILIPPINES\nSOURCE ELEV: 2462M AMSL\nADVISORY NR: 2026/746\nINFO SOURCE: HIMAWARI-9 PHIVOLCS\nERUPTION DETAILS: ERUPTION AT 20260714/2207Z FL130 EXTD SE REPORTED\nOBS VA DTG: 14/2320Z\nOBS VA CLD: VA NOT IDENTIFIABLE FM SATELLITE DATA WIND FL130 030/3KT\nFCST VA CLD +6 HR: NOT AVBL\nFCST VA CLD +12 HR: NOT AVBL\nFCST VA CLD +18 HR: NOT AVBL\nRMK: VA OF PREVIOUS VAA HAS DISSIPATED IN SATELLITE IMAGERY. NEW \nERUPTION REPORTED. WE WILL ISSUE FURTHER ADVISORY IF VA IS DETECTED \nIN SATELLITE IMAGERY.\nNXT ADVISORY: NO FURTHER ADVISORIES=",
      "img_url": "https://ds.data.jma.go.jp/svd/vaac/data/VAGFN/2026/Images/20260714_27303000_0746_QH21_01.png",
      "sat_img_url": "https://ds.data.jma.go.jp/svd/vaac/data/Sat/2026/Images/27303000/09-ir/20260714_2320_202607142339_ir.png",
      "text_url": "https://ds.data.jma.go.jp/svd/vaac/data/TextData/2026/20260714_27303000_0746_Text.html"
    },
    {
      "id": "20260714_30027000_0263",
      "year": "2026",
      "volcano": "Sheveluch",
      "psn": "N5639 E16122",
      "issued": "20260714",
      "text": "FVFE01 RJTD 141200\nVA ADVISORY\nDTG: 20260714/1200Z\nVAAC: TOKYO\nVOLCANO: SHEVELUCH 300270\nPSN: N5639 E16122\nAREA: RUSSIA\nSOURCE ELEV: 3283M AMSL\nADVISORY NR: 2026/263\nINFO SOURCE: HIMAWARI-9\nERUPTION DETAILS: VA CONTINUOUSLY OBS IN SATELLITE IMAGERY\nOBS VA DTG: 14/1120Z\nOBS VA CLD: SFC/FL390 N5359 E16539 - N5422 E16550 - N5414 E16656 - \nN5349 E16654 MOV SE 40KT\nFCST VA CLD +6 HR: 14/1720Z SFC/FL400 N5233 E17412 - N5141 E17210 - \nN5144 E17002 - N5224 E17116\nFCST VA CLD +12 HR: 14/2320Z SFC/FL400 N5147 W17910 - N5115 W17906 - \nN5025 E17725 - N5008 E17317 - N5113 E17652\nFCST VA CLD +18 HR: 15/0520Z SFC/FL400 N5217 W17056 - N5119 W17200 - \nN4942 W17651 - N4907 E17606 - N5056 W17716\nRMK: THE RESPONSIBILITY FOR THIS ASH EVENT IS BEING TRANSFERRED TO \nVAAC ANCHORAGE. THE NEXT ADVISORY WILL BE ISSUED BY VAAC ANCHORAGE \nBY 1800UTC UNDER HEADER FVAK21 PAWU. SOME PART OF VA OBSCURED BY MET \nCLOUD.\nNXT ADVISORY: NO FURTHER ADVISORIES=",
      "img_url": "https://ds.data.jma.go.jp/svd/vaac/data/VAGFN/2026/Images/20260714_30027000_0263_QH21_01.png",
      "sat_img_url": "https://ds.data.jma.go.jp/svd/vaac/data/Sat/2026/Images/30027000/09-ir/20260714_1120_202607141200_ir.png",
      "text_url": "https://ds.data.jma.go.jp/svd/vaac/data/TextData/2026/20260714_30027000_0263_Text.html"
    },
    {
      "id": "20260713_28208001_0083",
      "year": "2026",
      "volcano": null,
      "psn": "N3136 E13039",
      "issued": "20260713",
      "text": "FVFE01 RJTD 130254\nVA ADVISORY\nDTG: 20260713/0254Z\nVAAC: TOKYO\nVOLCANO: SAKURAJIMA (AIRA CALDERA) 282080\nPSN: N3136 E13039\nAREA: JAPAN\nSOURCE ELEV: 1117M AMSL\nADVISORY NR: 2026/83\nINFO SOURCE: JMA HIMAWARI-9\nERUPTION DETAILS: ERUPTED AT 20260713/0152Z FL100 EXTD N\nOBS VA DTG: 13/0230Z\nOBS VA CLD: SFC/FL100 N3136 E13039 - N3142 E13040 - N3141 E13044 - \nN3134 E13042 MOV NE 15KT\nFCST VA CLD +6 HR: 13/0830Z SFC/FL100 N3234 E13121 - N3145 E13155 - \nN3202 E13110 - N3227 E13051\nFCST VA CLD +12 HR: 13/1430Z SFC/FL100 N3318 E13206 - N3142 E13317 - \nN3134 E13226 - N3312 E13118\nFCST VA CLD +18 HR: NO VA EXP\nRMK: NIL\nNXT ADVISORY: 20260713/0600Z=",
      "img_url": "https://ds.data.jma.go.jp/svd/vaac/data/VAGFN/2026/Images/20260713_28208001_0083_QH21_01.png",
      "sat_img_url": "https://ds.data.jma.go.jp/svd/vaac/data/Sat/2026/Images/28208001/09-ir/20260713_0230_202607130254_ir.png",
      "text_url": "https://ds.data.jma.go.jp/svd/vaac/data/TextData/2026/20260713_28208001_0083_Text.html"
    },
    {
      "id": "20260712_27307000_0012",
      "year": "2026",
      "volcano": "Taal",
      "psn": "N1400 E12100",
      "issued": "20260712",
      "text": "FVFE01 RJTD 121243\nVA ADVISORY\nDTG: 20260712/1243Z\nVAAC: TOKYO\nVOLCANO: TAAL 273070\nPSN: N1400 E12100\nAREA: PHILIPPINES\nSOURCE ELEV: 311M AMSL\nADVISORY NR: 2026/12\nINFO SOURCE: HIMAWARI-9 PHIVOLCS\nERUPTION DETAILS: ERUPTION AT 20260712/1227Z FL050 EXTD NE REPORTED\nOBS VA DTG: 12/1230Z\nOBS VA CLD: VA NOT IDENTIFIABLE FM SATELLITE DATA WIND FL050 230/19KT\nFCST VA CLD +6 HR: NOT AVBL\nFCST VA CLD +12 HR: NOT AVBL\nFCST VA CLD +18 HR: NOT AVBL\nRMK: WE WILL ISSUE FURTHER ADVISORY IF VA IS DETECTED IN SATELLITE \nIMAGERY.\nNXT ADVISORY: NO FURTHER ADVISORIES=",
      "img_url": "https://ds.data.jma.go.jp/svd/vaac/data/VAGFN/2026/Images/20260712_27307000_0012_QH21_01.png",
      "sat_img_url": null,
      "text_url": "https://ds.data.jma.go.jp/svd/vaac/data/TextData/2026/20260712_27307000_0012_Text.html"
    }
  ],
  "vaac_alaska": [
    {
      "text": "\n000\nFVAK21 PAWU 151258\nVAAAK1\nVA ADVISORY\n\nDTG: 20260715/1254Z\n\nVAAC: ANCHORAGE\n\nVOLCANO: SHEVELUCH 300270\n\nPSN: N5639 E16122\n\nAREA: KAMCHATKA PENINSULA\n\nSOURCE ELEV: 10771 FT AMSL\n\nADVISORY NR: 2026/201\n\nINFO SOURCE: HIMAWARI\n\nERUPTION DETAILS: VA NOT IDENTIFIABLE FM SATELLITE DATA.\n\nOBS VA DTG: 15/1254Z\n\nOBS VA CLD: VA NOT IDENTIFIABLE FM SATELLITE DATA.\n\nFCST VA CLD +6HR: NOT AVBL\n\nFCST VA CLD +12HR: NOT AVBL\n\nFCST VA CLD +18HR: NOT AVBL\n\nRMK: A NEW ADVISORY WILL BE ISSUED IF VA IS DETECTED IN SATELLITE IMAGERY....SC\n\nNXT ADVISORY: NO FURTHER ADVISORIES=\n\n",
      "issued": "2026-07-15T12:58:00+00:00",
      "volcano": "Sheveluch",
      "psn": "N5639 E16122"
    }
  ]
}