{
  "updated_utc": "2026-07-16T23:25Z",
  "metar": {
    "RJAA": "METAR RJAA 162130Z 17005KT 140V200 4000 -SHRA BR SCT003 BKN005 BKN012 26/25 Q1003 NOSIG",
    "PANC": "METAR PANC 162153Z 06003KT 5SM -RA BR OVC055 12/09 A3003 RMK AO2 SLP170 P0002 T01170094",
    "PAFA": "METAR PAFA 162153Z 19008KT 10SM FEW050 SCT080 BKN200 18/07 A2993 RMK AO2 SLP140 T01830072",
    "PAED": "METAR PAED 162155Z COR 01005KT 5SM -RA FEW025 BKN040 OVC047 12/09 A3001 RMK AO2A SLP159 P0001 T01220092 $ COR 2157",
    "KSEA": "METAR KSEA 162153Z VRB06KT 10SM BKN009 BKN043 17/13 A3001 RMK AO2 SLP167 T01720133 $",
    "ZSPD": "METAR ZSPD 162130Z 19003MPS CAVOK 29/27 Q1001 NOSIG",
    "ZSSS": "METAR ZSSS 162130Z 19002MPS CAVOK 31/27 Q1001 NOSIG",
    "RJFR": "METAR RJFR 162200Z 01004KT 350V060 9999 FEW015 SCT180 BKN/// 28/26 Q1003",
    "VHHH": "METAR VHHH 162130Z 21010KT 9999 FEW008 SCT020 28/25 Q1005 NOSIG",
    "RCTP": "METAR RCTP 162130Z 21006KT 180V250 9999 FEW015 27/24 Q1007 NOSIG RMK A2974",
    "ZGSZ": "METAR ZGSZ 162200Z 15004MPS 9999 -RA FEW020 SCT050 26/26 Q1005 NOSIG",
    "WSSS": "METAR WSSS 162130Z 16003KT 9999 FEW015 FEW017CB SCT018TCU 27/25 Q1011 NOSIG",
    "WMKK": "METAR WMKK 162130Z 00000KT 9000 FEW017CB 27/25 Q1009 NOSIG",
    "WIDD": "METAR WIDD 162130Z AUTO 15003KT 120V190 9999 -RA FEW017 BKN037 BKN043 26/26 Q1011 NOSIG",
    "VTBS": "METAR VTBS 162130Z 00000KT 9999 FEW020 27/27 Q1009 NOSIG",
    "VTBU": "METAR VTBU 162130Z 25007KT 9000 FEW020 29/27 Q1009 NOSIG",
    "ROAH": "METAR ROAH 162130Z 22009KT 9999 FEW005 BKN007 28/27 Q1007",
    "VVDN": "METAR VVDN 162130Z 20007KT 9999 FEW017 SCT070 30/22 Q1006 NOSIG",
    "RCKH": "METAR RCKH 162200Z 07004KT 9999 FEW010 SCT025 27/25 Q1008 NOSIG RMK A2979",
    "KLAX": "METAR KLAX 162153Z 25010KT 10SM FEW090 26/19 A2981 RMK AO2 SLP093 T02610189 $",
    "KONT": "METAR KONT 162153Z 26012G19KT 10SM FEW110 FEW200 37/15 A2980 RMK AO2 SLP067 CB DSNT SE TCU DSNT E T03670150 $",
    "KSFO": "METAR KSFO 162156Z 28024G30KT 10SM FEW018 20/11 A2991 RMK AO2 PK WND 28030/2155 SLP127 T02000106",
    "KOAK": "METAR KOAK 162153Z 23013KT 10SM FEW012 21/12 A2992 RMK AO2 SLP129 T02060117",
    "KMHR": "METAR KMHR 162135Z AUTO 22008KT 10SM CLR 34/08 A2980 RMK AO2 T03410075 $",
    "KDFW": "METAR KDFW 162153Z 19013KT 10SM SCT060TCU BKN150 BKN250 31/20 A3003 RMK AO2 RAE32 SLP159 OCNL LTGIC DSNT NE-SE-S CB DSNT NE-SE-S MOV NE TCU SW-NW P0000 T03060200 $",
    "KIAH": "METAR KIAH 162153Z 11014KT 10SM SCT046 BKN250 33/25 A3004 RMK AO2 SLP172 T03280250",
    "KORD": "METAR KORD 162151Z 04011KT 3/4SM R10L/4000V5500FT FU VV019 31/16 A3003 RMK AO2 SLP163 T03060156",
    "KJFK": "SPECI KJFK 162149Z 20008KT 6SM FU BKN029 OVC250 28/19 A2983 RMK AO2 FU OVC250 $",
    "KRFD": "METAR KRFD 162154Z VRB04KT 10SM FEW042TCU SCT250 33/22 A3004 RMK AO2 SLP166 TCU N T03280217",
    "KIND": "METAR KIND 162154Z 29007KT 10SM SCT055 BKN190 33/21 A3003 RMK AO2 SLP159 T03330206",
    "KDTW": "METAR KDTW 162153Z 30009KT 1SM R03R/P6000FT FU OVC032 29/14 A3004 RMK AO2 SFC VIS 1 1/4 SLP167 FU OVC032 T02940144",
    "KMSP": "METAR KMSP 162153Z 27008KT 6SM FU SCT065 34/19 A2999 RMK AO2 SLP150 T03390189",
    "CYEG": "METAR CYEG 162200Z 25004KT 180V270 20SM FEW027 SCT250 26/18 A2997 RMK CU1CI3 CU TR SLP145 DENSITY ALT 4100FT",
    "EHAM": "METAR EHAM 162155Z 02004KT 340V060 CAVOK 19/15 Q1016 NOSIG",
    "EBBR": "METAR EBBR 162150Z 03005KT CAVOK 20/13 Q1015 NOSIG",
    "EDDF": "METAR EDDF 162150Z AUTO 18005KT CAVOK 22/15 Q1014 NOSIG",
    "EDFH": "METAR EDFH 162150Z VRB02KT CAVOK 20/14 Q1016",
    "EDDL": "METAR EDDL 162150Z AUTO 03004KT CAVOK 22/13 Q1014 NOSIG",
    "EDDK": "METAR EDDK 162150Z AUTO 06004KT CAVOK 19/15 Q1014 NOSIG",
    "EBLG": "METAR EBLG 162150Z VRB01KT CAVOK 21/14 Q1015 NOSIG",
    "LSZH": "METAR LSZH 162150Z AUTO VRB03KT CAVOK 20/17 Q1017 TEMPO 26015G30KT TSRA",
    "LIMC": "METAR LIMC 162150Z 03007KT 9999 SCT050 26/19 Q1016 NOSIG",
    "LIRF": "METAR LIRF 162150Z 30003KT CAVOK 28/25 Q1016 NOSIG",
    "EINN": "METAR EINN 162130Z 34006KT CAVOK 22/16 Q1020 NOSIG",
    "EGLL": "METAR EGLL 162150Z AUTO 08003KT 9999 NCD 22/12 Q1018",
    "EGSS": "METAR EGSS 162150Z AUTO 03006KT 9999 NCD 18/12 Q1018",
    "EPWA": "METAR EPWA 162130Z 08005KT CAVOK 24/13 Q1018 NOSIG",
    "UHPP": "METAR UHPP 162130Z 21003MPS 150V240 9999 OVC007 15/14 Q1019 R16R/190062 NOSIG RMK MT OBSC QFE761/1015",
    "EFHK": "METAR EFHK 162150Z VRB02KT CAVOK 13/12 Q1021 NOSIG",
    "LBBG": "METAR LBBG 162130Z AUTO VRB02KT 9999 NCD 22/18 Q1015 NOSIG",
    "LTAC": "METAR LTAC 162150Z 05011KT CAVOK 20/12 Q1017 NOSIG RMK RWY21C 05009KT RWY03L 04008KT RWY21R 03009KT RWY03R 02011KT RWY21L 03010KT",
    "UBBB": "METAR UBBB 162130Z 33010KT CAVOK 25/20 Q1008 NOSIG",
    "UTAA": "METAR UTAA 162200Z 28008KT 9000 NSC 32/19 Q1004 R88/CLRD70 NOSIG",
    "UACC": "METAR UACC 162130Z 22004MPS CAVOK 17/12 Q1002 NOSIG RMK QFE721/0961",
    "UAAA": "METAR UAAA 162130Z 16004MPS 9999 NSC 24/08 Q1008 NOSIG",
    "UZTT": "METAR UZTT 162130Z 07008KT CAVOK 29/10 Q1003 NOSIG",
    "ZWWW": "METAR ZWWW 162130Z 18002MPS CAVOK 29/06 Q1009 NOSIG",
    "ZLXY": "METAR ZLXY 162200Z 26003MPS 9999 BKN060 24/19 Q1005 NOSIG",
    "ZBAA": "METAR ZBAA 162130Z VRB01MPS CAVOK 24/22 Q1001 NOSIG",
    "ZBHH": "METAR ZBHH 162200Z VRB01MPS 9999 SCT040 18/16 Q1009 NOSIG",
    "ZSQD": "METAR ZSQD 162200Z 00000MPS 7000 NSC 23/23 Q1001 NOSIG",
    "ZMCK": "METAR ZMCK 162130Z VRB02MPS 9999 FEW030CB BKN033 13/11 Q1010 NOSIG RMK QFE643.0 89 MOP",
    "UUEE": "METAR UUEE 162130Z 35003G08MPS CAVOK 12/06 Q1017 R06R/CLRD62 R06C/CLRD62 NOSIG",
    "UUDD": "METAR UUDD 162130Z 01005MPS CAVOK 12/06 Q1016 R31L/CLRD65 NOSIG",
    "ULLI": "METAR ULLI 162130Z VRB01MPS CAVOK 11/07 Q1021 R88/090065 NOSIG",
    "USSS": "METAR USSS 162130Z 25004MPS 9999 BKN020 16/16 Q0997 R26L/210060 R26R/290340 NOSIG RMK QFE727/0970",
    "UNNT": "METAR UNNT 162130Z 14002MPS 8000 -SHRA BKN040CB 19/19 Q0997 R07/290160 R34/CLRD// NOSIG RMK QFE738/0984",
    "UNKL": "METAR UNKL 162130Z 00000MPS CAVOK 11/11 Q1003 R11/CLRD// NOSIG RMK QFE727",
    "UIBB": "METAR UIBB 162130Z 00000MPS 9999 NSC 11/09 Q1005 R12/CLRD62 NOSIG RMK QFE711/0948",
    "UEEE": "METAR UEEE 162130Z 05004MPS 9999 BKN020CB 19/17 Q0991 R23/290149 NOSIG RMK QFE735",
    "UHHH": "METAR UHHH 162130Z 19003MPS CAVOK 20/18 Q0998 R88/090060 NOSIG RMK QFE742/0990",
    "UHSS": "METAR UHSS 162130Z 22003MPS 4200 -DZ BR OVC006 20/19 Q1004 R19/290060 NOSIG RMK MT OBSC QFE752/1002"
  },
  "taf": {
    "RJAA": "TAF RJAA 161705Z 1618/1800 15010KT 8000 -SHRA FEW005 BKN015 TEMPO 1618/1621 3000 -SHRA BR FEW001 BKN003 TEMPO 1621/1700 4000 -SHRA BR FEW001 BKN005 TEMPO 1700/1706 4000 -TSRA BR FEW005 BKN012 FEW020CB",
    "PANC": "TAF PANC 162321Z 1700/1806 VRB05KT P6SM -RA FEW025 OVC050 TEMPO 1700/1703 15010KT FM170300 15012KT P6SM -RA FEW025 OVC050 FM170700 15006KT P6SM -RA SCT035 OVC045 FM171000 34006KT P6SM FEW030 SCT045 BKN060 FM171700 34003KT 6SM -SHRA OVC045 FM172000 34005KT 5SM -SHRA BKN030",
    "PAFA": "TAF PAFA 162320Z 1700/1806 20007KT P6SM FEW050 BKN100 FM171000 25004KT 6SM -SHRA BR SCT030 OVC050 FM171400 24007KT P6SM OVC050 FM180000 21006KT P6SM VCTS BKN050CB",
    "PAED": "TAF PAED 162100Z 1621/1803 34009KT 9000 -RA FEW025 BKN040 OVC055 650604 QNH2992INS BECMG 1707/1708 35006KT 9000 BR VCSH FEW035 SCT055 OVC085 620852 520208 QNH2983INS BECMG 1718/1719 34005KT 9000 -RA SCT010 BKN025 OVC040 620604 QNH2982INS TX15/1700Z TN10/1713Z",
    "KSEA": "TAF KSEA 162320Z 1700/1806 22010KT P6SM BKN015 BKN020 BKN040 PROB30 1700/1702 3SM TSRA BR BKN020CB BKN040 FM170200 22007KT P6SM BKN040 FM171200 20004KT P6SM SCT010 BKN025 FM171800 23007KT P6SM BKN035 FM172100 24007KT P6SM FEW050",
    "ZSPD": "TAF ZSPD 162107Z 1700/1806 19004MPS 8000 SCT030 TX38/1706Z TX34/1803Z TN28/1721Z TEMPO 1706/1710 TSRA BKN015 FEW030CB TEMPO 1804/1806 TSRA BKN015 FEW030CB",
    "ZSSS": "TAF ZSSS 162107Z 1700/1806 23004MPS 8000 SCT030 TX38/1706Z TX35/1803Z TN28/1721Z TEMPO 1706/1710 TSRA BKN015 FEW030CB TEMPO 1804/1806 TSRA BKN015 FEW030CB",
    "RJFR": "TAF RJFR 161705Z 1618/1800 33007KT 9999 FEW014 BKN030 BECMG 1618/1620 10006KT TEMPO 1704/1709 -TSRA FEW007 BKN020 FEW025CB BECMG 1706/1709 06004KT TEMPO 1709/1800 BKN005 BKN050 BECMG 1721/1800 09008KT",
    "VHHH": "TAF VHHH 162300Z 1700/1806 20010KT 9999 FEW010 SCT025 TX30/1706Z TX31/1806Z TN26/1722Z TEMPO 1700/1705 22020G30KT 2000 TSRA +SHRA FEW008CB SCT015 TEMPO 1705/1708 3000 SHRA FEW010CB SCT020 TEMPO 1722/1802 VRB15G25KT 2500 TSRA SHRA FEW010CB SCT015",
    "RCTP": "TAF RCTP 162300Z 1700/1806 25015KT 9999 FEW015 TEMPO 1706/1712 24018G28KT TEMPO 1718/1724 24010KT",
    "ZGSZ": "TAF ZGSZ 162101Z 1700/1806 18004MPS 8000 BKN040 TX29/1706Z TX30/1806Z TN25/1722Z TEMPO 1700/1703 SHRA FEW020CB BKN030 TEMPO 1704/1708 TSRA FEW020CB BKN030",
    "WSSS": "TAF WSSS 161700Z 1618/1800 14008KT 9999 FEW015 SCT020 TEMPO 1705/1708 3000 TSRA FEW012CB BKN015",
    "WMKK": "TAF WMKK 161700Z 1618/1800 VRB03KT 9999 FEW030",
    "VTBS": "TAF VTBS 161700Z 1618/1724 22008KT 9999 FEW020 TEMPO 1709/1713 VRB15KT 3000 TSRA FEW018CB SCT030 BKN080",
    "VTBU": "TAF VTBU 161700Z 1618/1718 24006KT 9000 FEW020",
    "ROAH": "TAF ROAH 161707Z 1618/1800 23011KT 9999 FEW005 BKN010 TEMPO 1618/1621 FEW003 BKN005 TEMPO 1621/1703 FEW005 BKN008 TEMPO 1712/1800 FEW004 BKN006",
    "VVDN": "TAF VVDN 161700Z 1618/1718 23007KT 9999 FEW017 SCT060 TEMPO 1709/1712 TS SCT013 FEW015CB SCT060",
    "RCKH": "TAF RCKH 162300Z 1700/1806 25007KT 9999 FEW015 BKN032 TEMPO 1701/1704 5000 SHRA FEW010 FEW015TCU BKN020 BECMG 1711/1713 09005KT TEMPO 1711/1714 5000 SHRA FEW010 FEW015CB BKN020 BECMG 1800/1802 26005KT",
    "KLAX": "TAF KLAX 162159Z 1622/1724 27012KT P6SM FEW015 FM170300 26006KT P6SM SCT250 FM170800 11008KT P6SM BKN009 FM171700 14008KT P6SM SCT012 FM172000 24010KT P6SM SCT250",
    "KONT": "TAF KONT 162320Z 1700/1806 25012G20KT P6SM SCT150 FM170300 26010KT P6SM FEW150 FM170700 VRB04KT P6SM FEW150 FM171900 25012G20KT P6SM SCT150 FM180500 VRB05KT P6SM SCT150",
    "KSFO": "TAF KSFO 162105Z 1621/1724 27023G29KT P6SM FEW018 FM170600 28013G23KT P6SM SCT009 FM170900 28011KT P6SM BKN009 FM171700 29014KT P6SM SCT009 FM172000 29021G28KT P6SM SKC",
    "KOAK": "TAF KOAK 161720Z 1618/1724 26009KT P6SM SKC FM162000 26015KT P6SM SKC FM170400 26008KT P6SM SKC FM170800 25006KT P6SM BKN007 FM171700 26008KT P6SM SCT007 FM172000 28015KT P6SM SKC",
    "KMHR": "TAF KMHR 161751Z 1618/1718 19006KT P6SM SKC FM162200 23010G18KT P6SM SKC FM170400 16008KT P6SM SKC",
    "KDFW": "TAF KDFW 162320Z 1700/1806 17010KT P6SM VCTS SCT050CB TEMPO 1700/1701 5SM -TSRA FM170200 16010KT P6SM SCT060 TEMPO 1713/1716 BKN022 FM171600 18016KT P6SM SCT040",
    "KIAH": "TAF KIAH 162059Z 1621/1724 17011G20KT P6SM SCT045 BKN250 FM170200 15007KT P6SM FEW020 SCT250 FM170600 VRB03KT P6SM SCT015 SCT025 FM171400 19007KT P6SM SCT250",
    "KORD": "TAF KORD 162320Z 1700/1806 07008KT 3/4SM FU VV020 FM170300 VRB03KT 1 1/2SM FU VV020 FM171500 24009KT P6SM SCT050 BKN100 PROB30 1718/1724 VRB15G25KT 3SM -TSRA BR BKN040CB",
    "KJFK": "TAF KJFK 162002Z 1620/1724 21011KT 4SM FU SCT040 OVC300 FM162300 32009KT 4SM FU OVC300 TEMPO 1700/1704 2SM FU FM170600 34006KT 5SM FU BKN250 FM171300 34008KT P6SM SCT250 FM171800 21011KT P6SM FEW050 SCT250",
    "KRFD": "TAF KRFD 162320Z 1700/1724 VRB05KT P6SM VCSH BKN040 FM170100 07006KT 1 1/2SM FU BKN020 FM171400 23007KT P6SM SCT050 BKN100 PROB30 1718/1724 VRB15G25KT 3SM -TSRA BR BKN040CB",
    "KIND": "TAF KIND 162039Z 1621/1724 29004KT P6SM SCT060 BKN250 FM170400 28004KT P6SM FEW050 SCT250 FM171200 18003KT P6SM SCT050 FM171800 23007KT P6SM SCT050 BKN200 PROB30 1718/1724 5SM -TSRA BKN035CB",
    "KDTW": "TAF KDTW 162320Z 1700/1806 02004KT 1SM FU OVC028 FM170200 08004KT 3/4SM FU OVC018 FM171600 18008KT 2SM FU SCT035 FM180000 19005KT 6SM HZ SCT060 BKN080",
    "KMSP": "TAF KMSP 162040Z 1621/1724 VRB03KT 6SM FU FEW060 FM170300 17004KT P6SM SKC FM171500 21010G18KT P6SM FEW050",
    "CYEG": "TAF CYEG 162041Z 1621/1718 VRB03KT P6SM SCT030 FM170200 12006KT P6SM SKC FM171000 12006KT P6SM SCT040 PROB30 1710/1715 1SM BR FEW004 RMK NXT FCST BY 170000Z",
    "EHAM": "TAF COR EHAM 161718Z 1618/1724 04010KT CAVOK BECMG 1623/1702 34007KT PROB30 TEMPO 1702/1707 7000 BKN012 BECMG 1710/1713 33015KT PROB30 TEMPO 1712/1714 6000 SHRA SCT030CB BECMG 1718/1721 32008KT",
    "EBBR": "TAF EBBR 162300Z 1700/1806 02005KT CAVOK BECMG 1712/1714 32010KT",
    "EDDF": "TAF AMD EDDF 162117Z 1621/1724 20010KT CAVOK BECMG 1621/1624 19005KT PROB30 TEMPO 1705/1709 TSRA BKN030CB BECMG 1709/1711 26008KT PROB40 TEMPO 1713/1719 26015G30KT TSRA BKN030CB",
    "EDFH": "TAF EDFH 161700Z 1618/1718 14007KT CAVOK PROB30 TEMPO 1618/1620 TSRA SCT040CB BECMG 1621/1623 21005KT PROB30 TEMPO 1704/1709 TSRA BKN020CB BECMG 1706/1709 27008KT PROB40 TEMPO 1712/1716 26015G30KT TSRA BKN020CB",
    "EDDL": "TAF EDDL 161700Z 1618/1724 06007KT CAVOK BECMG 1618/1621 33004KT BECMG 1708/1711 29010KT",
    "EDDK": "TAF EDDK 161700Z 1618/1724 05005KT CAVOK BECMG 1620/1623 VRB03KT PROB30 TEMPO 1706/1711 SHRA BKN040TCU BECMG 1708/1711 29010KT",
    "EBLG": "TAF EBLG 162300Z 1700/1806 02005KT CAVOK BECMG 1712/1715 32010KT",
    "LSZH": "TAF LSZH 162025Z 1621/1803 VRB02KT 9999 FEW070 TX26/1714Z TN17/1704Z PROB30 TEMPO 1621/1624 27015G25KT TSRA FEW050CB BECMG 1700/1702 CAVOK BECMG 1705/1707 9999 FEW050 PROB30 TEMPO 1707/1712 SHRA SCT050TCU PROB40 TEMPO 1712/1718 29015G25KT TSRA FEW050CB PROB30 TEMPO 1718/1724 23015G25KT TSRA FEW050CB",
    "LIMC": "TAF LIMC 162300Z 1700/1806 01010KT 9999 FEW040 PROB40 TEMPO 1700/1706 4000 TSRA BECMG 1709/1711 VRB05KT",
    "LIRF": "TAF LIRF 162300Z 1700/1806 VRB05KT CAVOK PROB30 TEMPO 1700/1705 1500 BCFG BECMG 1704/1706 13010KT BECMG 1709/1711 19010KT BECMG 1717/1719 VRB05KT PROB30 TEMPO 1722/1806 2000 BCFG",
    "EINN": "TAF EINN 162300Z 1700/1724 36008KT CAVOK BECMG 1710/1712 32010KT BECMG 1720/1722 35012KT",
    "EGLL": "TAF EGLL 162255Z 1700/1806 03005KT CAVOK PROB30 TEMPO 1703/1708 BKN006 BECMG 1711/1714 33010KT BECMG 1719/1722 07010KT",
    "EGSS": "TAF EGSS 162259Z 1700/1806 01005KT 9999 FEW045 TEMPO 1701/1708 7000 BKN006 PROB30 TEMPO 1702/1706 0400 BCFG BKN001 PROB30 TEMPO 1800/1806 7000 BKN013",
    "EPWA": "TAF EPWA 162030Z 1621/1721 09005KT CAVOK",
    "UHPP": "TAF UHPP 162245Z 1700/1806 17005G12MPS 9999 SCT030CB BECMG 1709/1712 36003G10MPS TEMPO 1800/1806 17005G12MPS",
    "EFHK": "TAF EFHK 162025Z 1621/1721 18006KT CAVOK",
    "LBBG": "TAF LBBG 162300Z 1700/1724 VRB04KT 9999 SCT045 BECMG 1708/1710 12014KT PROB40 TEMPO 1711/1715 5000 TSRA FEW030CB BKN040 BECMG 1718/1720 VRB04KT",
    "LTAC": "TAF LTAC 162240Z 1700/1724 03011KT CAVOK BECMG 1706/1708 SCT040 TEMPO 1714/1718 02015G25KT BECMG 1716/1718 CAVOK",
    "UBBB": "TAF UBBB 162257Z 1700/1724 33012KT 9999 FEW020 TX31/1710Z TN23/1701Z TEMPO 1700/1706 SCT010 FEW050CB TEMPO 1710/1718 35008KT",
    "UTAA": "TAF UTAA 162245Z 1700/1724 35014KT 6000 SCT050 TX40/1711Z TEMPO 1700/1708 30018G28KT 2000 BLDU BECMG 1716/1718 26014KT",
    "UACC": "TAF UACC 162301Z 1700/1724 25006MPS 9999 SCT030 BKN050 TX32/1709Z TN16/1723Z TEMPO 1703/1714 27012MPS SCT030CB BECMG 1714/1716 VRB01MPS",
    "UAAA": "TAF UAAA 162302Z 1700/1724 16003MPS 9999 FEW100 TX41/1710Z TN20/1701Z BECMG 1703/1704 04003G09MPS BECMG 1713/1714 20003MPS",
    "UZTT": "TAF UZTT 162300Z 1700/1724 07010KT 7000 NSC TX43/1711Z TN26/1700Z TEMPO 1706/1712 32015KT",
    "ZWWW": "TAF ZWWW 162105Z 1700/1806 18004MPS CAVOK TX39/1709Z TX39/1806Z TN28/1723Z BECMG 1702/1703 36004MPS BECMG 1713/1714 18004MPS BECMG 1802/1803 36004MPS",
    "ZLXY": "TAF ZLXY 162105Z 1700/1724 26003MPS 6000 NSC TX33/1708Z TN24/1721Z",
    "ZBAA": "TAF ZBAA 162106Z 1700/1806 18004MPS CAVOK TX35/1707Z TX30/1806Z TN22/1721Z",
    "ZBHH": "TAF ZBHH 162102Z 1700/1724 24004MPS 8000 SCT040 TX29/1708Z TN16/1722Z TEMPO 1709/1712 -TSRA SCT040 FEW040CB",
    "ZSQD": "TAF ZSQD 162108Z 1700/1724 05004MPS 5000 BR BKN020 TX26/1706Z TN21/1720Z TEMPO 1703/1707 2500 +TSRA BKN020 FEW030CB TEMPO 1707/1711 SHRA",
    "ZMCK": "TAF ZMCK 162244Z 1700/1806 VRB02MPS 9999 FEW030CB SCT033 TX25/1707Z TN11/1721Z PROB40 TEMPO 1700/1708 VRB08MPS TSRA SCT027CB SCT030 BECMG 1704/1707 29005MPS BECMG 1710/1712 VRB02MPS BECMG 1802/1804 23005MPS",
    "UUEE": "TAF UUEE 162252Z 1700/1724 35003G08MPS 9999 SCT040 TX21/1712Z TN10/1701Z TEMPO 1709/1718 33008G14MPS",
    "UUDD": "TAF UUDD 162251Z 1700/1806 36005MPS 9999 SCT030 TX23/1712Z TN09/1702Z TEMPO 1708/1715 36008G15MPS",
    "ULLI": "TAF ULLI 162251Z 1700/1724 18003MPS 6000 SCT020 TEMPO 1700/1703 1000 BR MIFG",
    "USSS": "TAF USSS 162236Z 1700/1724 27003G08MPS 6000 SCT006 BKN011 FM170400 29003G14MPS 9999 BKN016CB TEMPO 1704/1718 -TSRA",
    "UNNT": "TAF UNNT 162300Z 1700/1724 18003G08MPS 8000 BKN040 TX25/1710Z TN16/1722Z TEMPO 1700/1703 22008G15MPS -TSRA BKN005 BKN016CB BECMG 1703/1705 26007G15MPS TEMPO 1703/1715 -TSRA BKN016CB BECMG 1712/1714 20003G08MPS",
    "UNKL": "TAF COR UNKL 162259Z 1700/1724 21003G08MPS 8000 SCT040 TEMPO 1706/1712 -TSRA BKN020CB BECMG 1712/1714 4000 -SHRA BKN016CB TEMPO 1714/1719 0300 -TSRA FG BKN003 BKN016CB BECMG 1719/1722 27005G12MPS 6000 -SHRA",
    "UIBB": "TAF UIBB 162300Z 1700/1724 18002G07MPS 9999 BKN016CB BECMG 1701/1703 24005G10MPS",
    "UEEE": "TAF UEEE 162300Z 1700/1806 10005G10MPS 9999 BKN020CB OVC100 TEMPO 1700/1709 VRB01MPS 4000 -SHRA SCT010 BKN017CB OVC070",
    "UHHH": "TAF UHHH 162252Z 1700/1806 21008G13MPS 9999 SCT020CB TX26/1705Z TN18/1717Z TEMPO 1700/1712 2000 TSRA FEW006 BKN016CB",
    "UHSS": "TAF UHSS 162247Z 1700/1806 18003MPS 9999 BKN008 BKN025CB BECMG 1704/1706 BKN025CB"
  },
  "atis": {},
  "windtemp_alaska": "\n000\nFBAK31 KWNO 161959\nFD1AK1\nDATA BASED ON 161800Z    \nVALID 170000Z   FOR USE 2000-0300Z. TEMPS NEG ABV 24000\n\nFT  3000    6000    9000   12000   18000   24000  30000  34000  39000\nADK 2314 2515+03 2717+00 2922-04 3340-12 3347-23 335738 336248 336658\nADQ 1825 1927+03 2130+01 2147-04 2059-15 2064-26 217841 218649 217053\nAKN 1612 1810-01 1812-06 1926-09 2023-22 1936-34 195341 204840 213442\nANC 1313 1431+00 1620-04 2023-06 2241-15 2247-26 225442 225350 214554\nANN 3512 3211+12 3008+07 2710+02 2612-11 2616-24 281039 321149 321059\nBET 3605 0206-01 0406-06 0505-13 9900-23 1605-35 171445 211141 211040\nBRW 0809 9900+01 2508-03 9900-08 1810-20 1721-32 173348 163053 161543\nBTI 3407 0207+04 0113-03 3608-06 0107-18 0307-30 041348 051252 180842\nBTT 2207 9900+03 9900-02 1406-07 1613-20 1618-32 172147 202450 202045\nCDB 3322 3323-01 3021-04 2824-08 2635-20 2550-33 245446 254344 253343\nCZF 1505 1608-03 1612-07 9900-11 9900-23 9900-36 321746 321442 310740\nEHM 3214 3013-02 3008-08 3211-13 3014-23 3119-36 301944 261740 251640\nFAI 9900 2214+03 2112-03 1810-08 1815-18 2221-29 255044 256751 243650\nFYU 2720 2908+04 2906-01 2806-07 2811-19 2407-30 250547 262150 241844\nGAL 9900 9900+00 1710-05 1516-10 1421-21 1633-32 194847 204349 192443\nGKN 1718 1824+02 1919-03 1920-07 2429-14 2443-26 244542 255650 254154\nHOM 1426 1626-01 1928-03 2128-04 2053-15 2064-26 206442 207250 215753\nJNU 9900 0705+06 9900+04 2712+00 2725-12 2630-25 273539 273549 273758\nLUR 9900 1208+00 1412-04 1516-09 1517-21 1515-34 151648 131349 100541\nMCG 1011 1310+00 1311-04 1318-11 1520-19 1833-29 186245 197249 193146\nMDO 1513 1718+01 2025+01 2227-02 2334-14 2337-26 244441 234650 224256\nOME 9900 1806-01 1507-06 1310-12 1315-23 1214-35 121348 130843 990041\nORT      9900+04 2614-02 2512-07 2516-17 2739-28 275843 287250 274751\nOTZ 2709 2306+00 1706-05 1410-10 1318-23 1223-35 112549 121946 151041\nSNP 2722 2822+01 2923-05 2919-10 2922-20 3134-30 820142 329850 323945\nTKA 9900 1618+00 1623-05 1622-10 2134-15 2143-27 225543 226151 223951\nUNK 0305 1007-01 0909-06 1210-11 1319-23 1422-34 173247 172344 181641\nYAK 9900 2806+02 2611+02 2717-02 2729-14 2636-25 263939 264149 274058\nIKO 3321 3222+00 3220-02 3218-07 3224-20 3336-31 346744 345548 313545\nAFM 9900 1106+02 1214-04 1219-09 1321-21 1426-34 152649 162448 171843\n5AB 2624 2725+07 2825+05 2926+01 3027-11 3028-22 312837 302747 301956\n5AC 3420 3513+11 3508+06 9900+02 3208-11 3111-24 331140 361250 021458\n5AD 2315 2518+10 2619+06 2621+01 2629-12 2627-24 263239 263349 262859\n5AE 2531 2436+06 2439+02 2442-03 2364-15 2380-26 239341 229449 227553\n5AF 3212 2913+08 2716+06 2617+01 2620-12 2622-23 262538 262248 262059\n5AG 2005 2310+04 2415+03 2415-01 2421-13 2525-24 253240 242949 233158\n",
  "vaac_active": [
    {
      "volcano": "MAYON",
      "volcano_jp": "マヨン",
      "advisory_nr": "2026/756",
      "obs_time": "2026-07-16 16:23Z",
      "issued_time": "2026-07-16 20:10Z",
      "text_url": "https://www.data.jma.go.jp/vaac/data/TextData/2026/20260716_27303000_0756_Text.html",
      "lat": 13.25,
      "lon": 123.683,
      "text": "FVFE01 RJTD 162010\nVA ADVISORY\nDTG: 20260716/2010Z\nVAAC: TOKYO\nVOLCANO: MAYON 273030\nPSN: N1315 E12341\nAREA: PHILIPPINES\nSOURCE ELEV: 2462M AMSL\nADVISORY NR: 2026/756\nINFO SOURCE: HIMAWARI-9\nERUPTION DETAILS: ERUPTION AT 20260716/1623Z FL130 EXTD SSE REPORTED\nOBS VA DTG: 16/1950Z\nOBS VA CLD: VA NOT IDENTIFIABLE FM SATELLITE DATA WIND FL130 360/5KT\nFCST VA CLD +6 HR: NOT AVBL\nFCST VA CLD +12 HR: NOT AVBL\nFCST VA CLD +18 HR: NOT AVBL\nRMK: WE WILL ISSUE FURTHER ADVISORY IF VA IS DETECTED IN SATELLITE \nIMAGERY.\nNXT ADVISORY: NO FURTHER ADVISORIES="
    },
    {
      "volcano": "MAYON",
      "volcano_jp": "マヨン",
      "advisory_nr": "2026/755",
      "obs_time": "2026-07-16 16:23Z",
      "issued_time": "2026-07-16 19:00Z",
      "text_url": "https://www.data.jma.go.jp/vaac/data/TextData/2026/20260716_27303000_0755_Text.html",
      "lat": 13.25,
      "lon": 123.683,
      "text": "FVFE01 RJTD 161900\nVA ADVISORY\nDTG: 20260716/1900Z\nVAAC: TOKYO\nVOLCANO: MAYON 273030\nPSN: N1315 E12341\nAREA: PHILIPPINES\nSOURCE ELEV: 2462M AMSL\nADVISORY NR: 2026/755\nINFO SOURCE: HIMAWARI-9 PHIVOLCS\nERUPTION DETAILS: ERUPTION AT 20260716/1623Z FL120 EXTD SSE REPORTED\nOBS VA DTG: 16/1840Z\nOBS VA CLD: VA NOT IDENTIFIABLE FM SATELLITE DATA WIND FL120 360/7KT\nFCST VA CLD +6 HR: NOT AVBL\nFCST VA CLD +12 HR: NOT AVBL\nFCST VA CLD +18 HR: NOT AVBL\nRMK: WE WILL ISSUE FURTHER ADVISORY IF VA IS DETECTED IN SATELLITE \nIMAGERY.\nNXT ADVISORY: NO FURTHER ADVISORIES="
    }
  ],
  "vaac_tokyo": [
    {
      "id": "20260716_27303000_0756",
      "year": "2026",
      "volcano": "Mayon",
      "psn": "N1315 E12341",
      "issued": "20260716",
      "text": "FVFE01 RJTD 162010\nVA ADVISORY\nDTG: 20260716/2010Z\nVAAC: TOKYO\nVOLCANO: MAYON 273030\nPSN: N1315 E12341\nAREA: PHILIPPINES\nSOURCE ELEV: 2462M AMSL\nADVISORY NR: 2026/756\nINFO SOURCE: HIMAWARI-9\nERUPTION DETAILS: ERUPTION AT 20260716/1623Z FL130 EXTD SSE REPORTED\nOBS VA DTG: 16/1950Z\nOBS VA CLD: VA NOT IDENTIFIABLE FM SATELLITE DATA WIND FL130 360/5KT\nFCST VA CLD +6 HR: NOT AVBL\nFCST VA CLD +12 HR: NOT AVBL\nFCST VA CLD +18 HR: NOT AVBL\nRMK: WE WILL ISSUE FURTHER ADVISORY IF VA IS DETECTED IN SATELLITE \nIMAGERY.\nNXT ADVISORY: NO FURTHER ADVISORIES=",
      "img_url": "https://ds.data.jma.go.jp/svd/vaac/data/VAGFN/2026/Images/20260716_27303000_0756_QH21_01.png",
      "sat_img_url": null,
      "text_url": "https://ds.data.jma.go.jp/svd/vaac/data/TextData/2026/20260716_27303000_0756_Text.html"
    },
    {
      "id": "20260716_30027000_0266",
      "year": "2026",
      "volcano": "Sheveluch",
      "psn": "N5639 E16122",
      "issued": "20260716",
      "text": "FVFE01 RJTD 161200\nVA ADVISORY\nDTG: 20260716/1200Z\nVAAC: TOKYO\nVOLCANO: SHEVELUCH 300270\nPSN: N5639 E16122\nAREA: RUSSIA\nSOURCE ELEV: 3283M AMSL\nADVISORY NR: 2026/266\nINFO SOURCE: HIMAWARI-9\nERUPTION DETAILS: VA CONTINUOUSLY OBS IN SATELLITE IMAGERY\nOBS VA DTG: 16/1120Z\nOBS VA CLD: SFC/FL230 N5556 E16558 - N5544 E16655 - N5425 E16745 - \nN5359 E17000 - N5312 E16918 - N5403 E16711 MOV SE 35KT\nFCST VA CLD +6 HR: 16/1720Z SFC/FL240 N5329 E17049 - N5230 E17321 - \nN5147 E17227 - N5314 E16939 - N5525 E16945 - N5436 E17056\nFCST VA CLD +12 HR: 16/2320Z SFC/FL250 N5118 E17628 - N5008 E17537 - \nN5210 E17232 - N5303 E17348 - N5459 E17402\nFCST VA CLD +18 HR: NO VA EXP\nRMK: THE RESPONSIBILITY FOR THIS ASH EVENT IS BEING TRANSFERRED TO \nVAAC ANCHORAGE. THE NEXT ADVISORY WILL BE ISSUED BY VAAC ANCHORAGE \nBY 1800UTC UNDER HEADER FVAK21 PAWU. WESTERN PART OF VA OBSCURED BY \nMET CLOUD.\nNXT ADVISORY: NO FURTHER ADVISORIES=",
      "img_url": "https://ds.data.jma.go.jp/svd/vaac/data/VAGFN/2026/Images/20260716_30027000_0266_QH21_01.png",
      "sat_img_url": "https://ds.data.jma.go.jp/svd/vaac/data/Sat/2026/Images/30027000/09-ir/20260716_1120_202607161200_ir.png",
      "text_url": "https://ds.data.jma.go.jp/svd/vaac/data/TextData/2026/20260716_30027000_0266_Text.html"
    },
    {
      "id": "20260715_27307000_0013",
      "year": "2026",
      "volcano": "Taal",
      "psn": "N1400 E12100",
      "issued": "20260715",
      "text": "FVFE01 RJTD 152348\nVA ADVISORY\nDTG: 20260715/2348Z\nVAAC: TOKYO\nVOLCANO: TAAL 273070\nPSN: N1400 E12100\nAREA: PHILIPPINES\nSOURCE ELEV: 311M AMSL\nADVISORY NR: 2026/13\nINFO SOURCE: HIMAWARI-9 PHIVOLCS\nERUPTION DETAILS: ERUPTION AT 20260715/2330Z FL030 EXTD ENE REPORTED\nOBS VA DTG: 15/2340Z\nOBS VA CLD: VA NOT IDENTIFIABLE FM SATELLITE DATA WIND FL030 170/2KT\nFCST VA CLD +6 HR: NOT AVBL\nFCST VA CLD +12 HR: NOT AVBL\nFCST VA CLD +18 HR: NOT AVBL\nRMK: WE WILL ISSUE FURTHER ADVISORY IF VA IS DETECTED IN SATELLITE \nIMAGERY.\nNXT ADVISORY: NO FURTHER ADVISORIES=",
      "img_url": "https://ds.data.jma.go.jp/svd/vaac/data/VAGFN/2026/Images/20260715_27307000_0013_QH21_01.png",
      "sat_img_url": null,
      "text_url": "https://ds.data.jma.go.jp/svd/vaac/data/TextData/2026/20260715_27307000_0013_Text.html"
    },
    {
      "id": "20260713_28208001_0083",
      "year": "2026",
      "volcano": null,
      "psn": "N3136 E13039",
      "issued": "20260713",
      "text": "FVFE01 RJTD 130254\nVA ADVISORY\nDTG: 20260713/0254Z\nVAAC: TOKYO\nVOLCANO: SAKURAJIMA (AIRA CALDERA) 282080\nPSN: N3136 E13039\nAREA: JAPAN\nSOURCE ELEV: 1117M AMSL\nADVISORY NR: 2026/83\nINFO SOURCE: JMA HIMAWARI-9\nERUPTION DETAILS: ERUPTED AT 20260713/0152Z FL100 EXTD N\nOBS VA DTG: 13/0230Z\nOBS VA CLD: SFC/FL100 N3136 E13039 - N3142 E13040 - N3141 E13044 - \nN3134 E13042 MOV NE 15KT\nFCST VA CLD +6 HR: 13/0830Z SFC/FL100 N3234 E13121 - N3145 E13155 - \nN3202 E13110 - N3227 E13051\nFCST VA CLD +12 HR: 13/1430Z SFC/FL100 N3318 E13206 - N3142 E13317 - \nN3134 E13226 - N3312 E13118\nFCST VA CLD +18 HR: NO VA EXP\nRMK: NIL\nNXT ADVISORY: 20260713/0600Z=",
      "img_url": "https://ds.data.jma.go.jp/svd/vaac/data/VAGFN/2026/Images/20260713_28208001_0083_QH21_01.png",
      "sat_img_url": "https://ds.data.jma.go.jp/svd/vaac/data/Sat/2026/Images/28208001/09-ir/20260713_0230_202607130254_ir.png",
      "text_url": "https://ds.data.jma.go.jp/svd/vaac/data/TextData/2026/20260713_28208001_0083_Text.html"
    }
  ],
  "vaac_alaska": [
    {
      "text": "\n000\nFVAK21 PAWU 162126\nVAAAK1\nVA ADVISORY\n\nDTG: 20260716/2122Z\n\nVAAC: ANCHORAGE\n\nVOLCANO: SHEVELUCH 300270\n\nPSN: N5639 E16122\n\nAREA: KAMCHATKA PENINSULA\n\nSOURCE ELEV: 10771 FT AMSL\n\nADVISORY NR: 2026/204\n\nINFO SOURCE: HIMAWARI\n\nERUPTION DETAILS: VA NOT IDENTIFIABLE FM SATELLITE DATA.\n\nOBS VA DTG: 16/2122Z\n\nOBS VA CLD: VA NOT IDENTIFIABLE FM SATELLITE DATA WIND FL100 280/20KT\n\nFCST VA CLD +6HR: NOT AVBL\n\nFCST VA CLD +12HR: NOT AVBL\n\nFCST VA CLD +18HR: NOT AVBL\n\nRMK: A NEW ADVISORY WILL BE ISSUED IF VA IS DETECTED IN SATELLITE IMAGERY....DK\n\nNXT ADVISORY: NO FURTHER ADVISORIES=\n\n",
      "issued": "2026-07-16T21:26:00+00:00",
      "volcano": "Sheveluch",
      "psn": "N5639 E16122"
    }
  ]
}