{
  "updated_utc": "2026-07-03T12:28Z",
  "metar": {
    "RJAA": "METAR RJAA 031030Z 06008KT 8000 FEW003 BKN005 BKN007 20/19 Q1012 BECMG 05008KT",
    "PANC": "METAR PANC 031053Z 20005KT 10SM FEW070 BKN130 12/07 A2978 RMK AO2 SLP086 T01170072",
    "PAFA": "METAR PAFA 031053Z 00000KT 10SM SCT060 SCT100 BKN200 11/08 A2967 RMK AO2 SLP051 T01060083 $",
    "PAED": "METAR PAED 031055Z 24010KT 10SM BKN080 BKN120 12/08 A2976 RMK AO2A SLP074 T01240075 $",
    "KSEA": "METAR KSEA 031053Z 22008KT 10SM SCT014 BKN026 BKN039 15/13 A3006 RMK AO2 SLP185 T01500128 $",
    "ZSPD": "METAR ZSPD 031030Z 27009G15MPS 3000 +TSRA SQ FEW016 SCT030CB 25/25 Q1010 BECMG TL1050 21004MPS -SHRA",
    "ZSSS": "METAR ZSSS 031030Z 10002MPS 040V130 CAVOK 25/23 Q1008 RETS NOSIG",
    "RJFR": "METAR RJFR 031100Z 33003KT 9999 -RA FEW035 SCT070 OVC130 24/19 Q1011",
    "VHHH": "METAR VHHH 031030Z 09008KT 9999 FEW015 SCT025 28/25 Q1008 TEMPO 13015G25KT 2000 TSRA SHRA FEW008CB SCT020",
    "RCTP": "METAR RCTP 031030Z 30006KT 260V340 9999 VCTS VCSH FEW012 FEW015CB BKN018 BKN200 31/27 Q1012 TEMPO 5000 SHRA RMK TS SE MOV N A2989",
    "ZGSZ": "METAR ZGSZ 031100Z 10004MPS 9999 SCT050 28/25 Q1009 NOSIG",
    "WSSS": "METAR WSSS 031030Z 10009KT 9999 FEW018TCU BKN280 30/25 Q1009 NOSIG",
    "WMKK": "METAR WMKK 031030Z VRB02KT 9999 FEW020 30/26 Q1008 NOSIG",
    "WIDD": "METAR WIDD 031030Z 15005KT 9000 FEW013CB SCT014 28/26 Q1009 RETSRA NOSIG RMK CB TO S AND SW",
    "VTBS": "METAR VTBS 031030Z 18011KT 9999 FEW020 31/25 Q1005 NOSIG",
    "VTBU": "METAR VTBU 031030Z 23005KT 9999 FEW020 SCT100 29/27 Q1006 NOSIG",
    "ROAH": "METAR ROAH 031030Z 24003KT 9999 FEW015 28/26 Q1013",
    "VVDN": "METAR VVDN 031030Z 16004KT 9999 FEW017 SCT070 28/26 Q1003 NOSIG",
    "RCKH": "METAR RCKH 031030Z 17013G23KT 130V210 9999 FEW024 SCT090 31/23 Q1011 NOSIG RMK A2986",
    "KLAX": "METAR KLAX 031053Z VRB03KT 10SM FEW011 17/15 A2994 RMK AO2 SLP136 T01720150 $",
    "KONT": "METAR KONT 031053Z 00000KT 10SM CLR 17/13 A2994 RMK AO2 SLP126 T01670133 $",
    "KSFO": "METAR KSFO 031056Z 23003KT 10SM FEW006 BKN013 14/11 A2996 RMK AO2 SLP145 T01390106",
    "KOAK": "METAR KOAK 031053Z 28005KT 10SM FEW005 BKN010 14/12 A2997 RMK AO2 SLP146 T01390117 $",
    "KMHR": "METAR KMHR 031035Z AUTO 14006KT 10SM CLR 12/11 A2991 RMK AO2 T01230108",
    "KDFW": "METAR KDFW 031053Z 17009KT 10SM FEW250 26/22 A3001 RMK AO2 SLP153 T02610217 $",
    "KIAH": "METAR KIAH 031053Z 00000KT 10SM FEW017 24/23 A3004 RMK AO2 SLP170 T02440233",
    "KORD": "METAR KORD 031051Z 19008KT 10SM FEW180 SCT250 22/21 A3001 RMK AO2 SLP157 T02220211 $",
    "KJFK": "METAR KJFK 031051Z 32008KT 10SM CLR 32/20 A2997 RMK SLP150 T03170200 $",
    "KRFD": "METAR KRFD 031054Z 00000KT 10SM FEW038 SCT120 BKN250 21/21 A3004 RMK AO2 SLP166 T02060206",
    "KIND": "METAR KIND 031054Z 20003KT 10SM FEW250 26/24 A3011 RMK AO2 SLP188 T02560239 $",
    "KDTW": "METAR KDTW 031053Z 24006KT 8SM SCT060 BKN150 OVC220 26/21 A3006 RMK AO2 SLP173 T02610206",
    "KMSP": "METAR KMSP 031053Z 14003KT 10SM -RA FEW095 OVC110 21/20 A2995 RMK AO2 RAB39 SLP137 P0000 T02110200",
    "CYEG": "SPECI CYEG 031038Z CCA 33007KT 320V110 10SM SCT007 BKN200 14/13 A2980 RMK SF4CI3 BR SLP094 DENSITY ALT 2900FT",
    "EHAM": "METAR EHAM 031055Z 27013KT 240V300 9999 FEW034 19/10 Q1027 NOSIG",
    "EBBR": "METAR EBBR 031050Z 29007KT 260V340 9999 SCT049 21/10 Q1028 NOSIG",
    "EDDF": "METAR EDDF 031050Z AUTO 31009KT 290V010 CAVOK 23/07 Q1026 NOSIG",
    "EDFH": "METAR EDFH 031050Z VRB05KT CAVOK 20/07 Q1028",
    "EDDL": "METAR EDDL 031050Z AUTO 29009KT 250V320 CAVOK 21/09 Q1027 NOSIG",
    "EDDK": "METAR EDDK 031050Z AUTO 31008KT 270V350 CAVOK 22/09 Q1027 NOSIG",
    "EBLG": "METAR EBLG 031050Z 29004KT 230V360 9999 SCT045 20/10 Q1028 NOSIG",
    "LSZH": "METAR LSZH 031050Z VRB04KT 9999 SCT046 24/13 Q1026 NOSIG",
    "LIMC": "METAR LIMC 031050Z VRB05KT 9999 FEW080 32/10 Q1019 NOSIG",
    "LIRF": "METAR LIRF 031050Z 27009KT 240V310 CAVOK 32/16 Q1015 NOSIG",
    "EINN": "METAR EINN 031030Z 22004KT 180V280 9999 FEW014 BKN060 17/11 Q1028 NOSIG",
    "EGLL": "METAR EGLL 031050Z AUTO 26006KT 200V310 9999 NCD 21/09 Q1029",
    "EGSS": "METAR EGSS 031050Z AUTO VRB04KT 9999 FEW042 21/09 Q1029",
    "EPWA": "METAR EPWA 031030Z 28016KT CAVOK 22/10 Q1015 NOSIG",
    "UHPP": "METAR UHPP 031100Z 18003MPS 6000 -SHRA BKN002 OVC020CB 09/09 Q1016 R16R/290162 NOSIG RMK QFE759/1012",
    "EFHK": "METAR EFHK 031050Z 14011KT 9999 -SHRA FEW013 SCT016 FEW030CB 17/15 Q1004 TEMPO BKN014 FEW030CB",
    "LBBG": "METAR LBBG 031030Z 31011KT 270V350 9999 FEW036CB SCT045 32/18 Q1010 NOSIG",
    "LTAC": "METAR LTAC 031050Z 26010KT 200V320 9999 FEW040 31/07 Q1011 NOSIG RMK RWY21C 29008KT RWY03L VRB07KT RWY21R 26008KT 190V330 RWY03R 33007KT 250V010 RWY21L 25011KT",
    "UBBB": "METAR UBBB 031030Z 16014KT CAVOK 30/19 Q1008 NOSIG",
    "UTAA": "METAR UTAA 031100Z 28008KT 220V330 9999 SCT033 33/10 Q1008 R88/CLRD70 NOSIG",
    "UACC": "METAR UACC 031030Z 21009MPS 9999 SCT040CB BKN043 22/12 Q1003 NOSIG RMK QFE721/0962",
    "UAAA": "METAR UAAA 031030Z VRB01MPS 9999 SCT007 BKN050CB OVC100 17/16 Q1014 NOSIG",
    "UZTT": "METAR UZTT 031030Z 27008KT CAVOK 31/11 Q1008 NOSIG",
    "ZWWW": "METAR ZWWW 031030Z 32005MPS CAVOK 38/15 Q1003 NOSIG",
    "ZLXY": "METAR ZLXY 031100Z VRB01MPS 9999 FEW050 33/17 Q1006 NOSIG",
    "ZBAA": "METAR ZBAA 031030Z 14002MPS CAVOK 34/26 Q1000 NOSIG",
    "ZBHH": "METAR ZBHH 031100Z 36002MPS 300V040 9999 FEW040 FEW040CB 29/14 Q1005 NOSIG",
    "ZSQD": "METAR ZSQD 031100Z 22004MPS CAVOK 28/20 Q1006 NOSIG",
    "ZMCK": "METAR ZMCK 031030Z 01006MPS 8000 SHRA SCT027CB SCT030 16/14 Q1010 NOSIG RMK QFE642.9 85 W E MO",
    "UUEE": "METAR UUEE 031030Z 28005MPS 250V330 CAVOK 25/11 Q1009 R24L/CLRD62 R24C/CLRD62 NOSIG",
    "UUDD": "METAR UUDD 031030Z VRB03MPS CAVOK 26/10 Q1009 R13R/CLRD65 NOSIG",
    "ULLI": "METAR ULLI 031030Z 18004MPS 120V230 9999 SCT033 21/13 Q1007 R10L/090065 NOSIG",
    "USSS": "METAR USSS 031030Z 01003MPS 340V040 9999 SCT029CB 19/19 Q1004 R26L/290050 R26R/290040 NOSIG RMK QFE733/0977",
    "UNNT": "METAR UNNT 031030Z 07004MPS CAVOK 30/13 Q1007 R07/CLRD// R34/////// NOSIG RMK QFE745/0994",
    "UNKL": "METAR UNKL 031030Z 13003MPS CAVOK 29/14 Q1009 R29/CLRD// NOSIG RMK QFE732",
    "UIBB": "METAR UIBB 031030Z 30005MPS 270V330 9999 NSC 26/15 Q1009 R30/CLRD62 NOSIG RMK QFE714/0952",
    "UEEE": "METAR UEEE 031030Z 04002MPS CAVOK 27/05 Q1003 R23/09//65 NOSIG RMK QFE744",
    "UHHH": "METAR UHHH 031030Z 23004MPS 9999 FEW048 24/18 Q1004 R23R/090060 NOSIG RMK QFE746/0995",
    "UHSS": "METAR UHSS 031030Z 19003MPS 9000 BKN003 11/11 Q1012 R19/CLRD70 NOSIG RMK QBB100 MT OBSC QFE758/1010"
  },
  "taf": {
    "RJAA": "TAF RJAA 031105Z 0312/0418 05004KT 6000 FEW005 BKN012 TEMPO 0312/0314 FEW001 BKN003 TEMPO 0314/0322 3000 BR FEW001 BKN003 TEMPO 0322/0400 FEW001 BKN003 BECMG 0400/0403 14010KT TEMPO 0415/0418 4000 BR FEW003 BKN008",
    "PANC": "TAF PANC 031120Z 0312/0418 22006KT P6SM SCT060 BKN120 FM032200 28008G16KT P6SM VCSH SCT040 BKN060 FM040700 18010KT 6SM -SHRA BR SCT025 OVC040",
    "PAFA": "TAF PAFA 031124Z 0312/0418 VRB03KT P6SM SCT060 FM032100 VRB03KT P6SM -RA BKN050 FM040300 30003KT P6SM BKN100",
    "PAED": "TAF PAED 030500Z 0305/0411 24009KT 9999 FEW050 BKN100 BKN180 QNH2969INS BECMG 0314/0315 02006KT 9999 VCSH SCT020 BKN025 QNH2979INS BECMG 0400/0401 23010KT 9999 NSW SCT030 OVC045 QNH2980INS BECMG 0408/0409 VRB06KT 9999 -RA BKN030 OVC045 QNH2988INS TX17/0322Z TN09/0313Z",
    "KSEA": "TAF KSEA 031120Z 0312/0418 21005KT P6SM BKN015 OVC040 FM031500 21005KT 6SM BR BKN008 OVC015 FM031800 22005KT P6SM OVC025 FM032000 24007KT P6SM BKN045 FM040200 30006KT P6SM SCT050 BKN100 FM040900 21005KT P6SM OVC025",
    "ZSPD": "TAF ZSPD 030910Z 0312/0418 20004MPS 6000 BKN015 TX24/0312Z TX31/0406Z TN22/0321Z TEMPO 0406/0410 33008G13MPS 2000 TSRA BKN010 SCT030CB",
    "ZSSS": "TAF ZSSS 030908Z 0312/0418 20004MPS 6000 BKN020 TX27/0312Z TX32/0406Z TN24/0321Z TEMPO 0406/0410 33008G13MPS 2000 TSRA BKN010 SCT030CB",
    "RJFR": "TAF RJFR 031105Z 0312/0418 16004KT 9000 -RA FEW008 BKN050 TEMPO 0316/0319 4000 SHRA BR BKN005 BKN007 TEMPO 0319/0403 3000 +TSRA BR FEW003 SCT004 BKN005 FEW012CB BECMG 0320/0322 10014KT TEMPO 0403/0406 4000 -TSRA BR FEW007 BKN012 FEW012CB BECMG 0403/0406 04006KT BECMG 0409/0412 14004KT",
    "VHHH": "TAF VHHH 031100Z 0312/0418 12015KT 9999 FEW015 SCT030 TX30/0406Z TN26/0322Z TEMPO 0312/0321 13020G35KT 1500 TSRA +SHRA FEW008CB SCT015 TEMPO 0321/0324 14020G30KT 1000 +SHRA FEW006CB SCT015 TEMPO 0400/0406 14020G30KT 1200 TSRA +SHRA FEW008CB SCT015 TEMPO 0406/0412 16015G25KT 2500 SHRA FEW010CB SCT020 TEMPO 0412/0418 3000 SHRA FEW010CB SCT020",
    "RCTP": "TAF COR RCTP 031149Z 0312/0418 21005KT 9999 FEW010 BKN032 TEMPO 0312/0314 16010KT FEW010 FEW015CB BKN017 TEMPO 0314/0318 15005KT TEMPO 0318/0324 13005KT BECMG 0400/0401 30005KT TEMPO 0402/0408 29012KT",
    "ZGSZ": "TAF ZGSZ 030905Z 0312/0418 17006G12MPS 8000 BKN040 TX26/0312Z TX32/0406Z TN25/0322Z TEMPO 0312/0316 SHRA SCT015 FEW020CB BKN030 TEMPO 0320/0324 SHRA SCT015 FEW020CB BKN030 TEMPO 0400/0404 TSRA SCT012 FEW020CB BKN025 TEMPO 0404/0410 SHRA SCT015 FEW020CB BKN030",
    "WSSS": "TAF WSSS 031100Z 0312/0418 14007KT 9999 FEW015 SCT020",
    "WMKK": "TAF WMKK 031100Z 0312/0418 VRB03KT 9999 FEW030 PROB40 TEMPO 0400/0404 5000 TSRA FEW010 FEW017CB",
    "VTBS": "TAF VTBS 031100Z 0312/0418 22008KT 9999 FEW020 TEMPO 0322/0402 -TSRA FEW018CB SCT020 BKN080 TEMPO 0410/0414 VRB15KT 4000 TSRA FEW018CB SCT020 BKN080",
    "VTBU": "TAF VTBU 031100Z 0312/0412 24006KT 9999 FEW020 SCT100 TEMPO 0406/0412 VRB15KT 4000 TSRA FEW018CB SCT030 BKN090",
    "ROAH": "TAF ROAH 031105Z 0312/0418 20006KT 9999 FEW012",
    "VVDN": "TAF VVDN 031100Z 0312/0412 20007KT 9999 SCT017 BKN060 TEMPO 0312/0315 4500 RA TEMPO 0409/0412 24015G25KT 4000 TSRA BKN013 FEW017CB BKN050",
    "RCKH": "TAF RCKH 031100Z 0312/0418 17005KT 9999 FEW010 BKN032 TEMPO 0312/0318 17011KT TEMPO 0318/0324 10005KT TEMPO 0400/0403 30005KT BECMG 0403/0404 21005KT",
    "KLAX": "TAF KLAX 031137Z 0312/0418 VRB03KT P6SM SKC FM031300 VRB03KT P6SM OVC012 FM031700 25006KT P6SM BKN015 FM031900 25012KT P6SM FEW015 FM040400 25006KT P6SM SCT015 FM040900 25005KT P6SM BKN012 FM041700 25006KT P6SM SCT015",
    "KONT": "TAF KONT 031120Z 0312/0418 VRB05KT P6SM SKC TEMPO 0313/0315 5SM HZ BKN009 FM032100 25011KT P6SM FEW250 FM040500 26005KT P6SM SCT200",
    "KSFO": "TAF KSFO 031138Z 0312/0418 28007KT P6SM FEW006 BKN015 FM031700 04006KT P6SM FEW014 FM032100 29015KT P6SM SCT250 FM040800 28006KT P6SM OVC007",
    "KOAK": "TAF KOAK 031138Z 0312/0418 27007KT P6SM OVC009 FM031700 24005KT P6SM SCT010 FM032100 30011KT P6SM FEW250 FM040700 27007KT P6SM OVC007",
    "KMHR": "TAF KMHR 031120Z 0312/0412 16006KT P6SM SKC FM031600 23007KT P6SM SKC FM040000 22010KT P6SM SKC FM040400 15007KT P6SM SKC",
    "KDFW": "TAF KDFW 031120Z 0312/0418 16011KT P6SM SCT180",
    "KIAH": "TAF KIAH 031121Z 0312/0418 16006KT P6SM FEW025 FEW250 TEMPO 0312/0314 17002KT 6SM BR SCT015 FM031800 20006KT P6SM SCT035 SCT050 TEMPO 0409/0412 6SM BR",
    "KORD": "TAF KORD 031124Z 0312/0418 21010KT P6SM FEW050 SCT250 FM031900 25011KT P6SM VCTS SCT040CB BKN100 TEMPO 0320/0323 27015G30KT 3SM TSRA BKN035CB FM040100 20007KT P6SM FEW070 BKN150 PROB30 0405/0411 32015G25KT 3SM TSRA BKN030CB FM041200 23009KT P6SM SCT030 BKN200",
    "KJFK": "TAF KJFK 031120Z 0312/0418 33008KT P6SM FEW250 FM031300 30009KT P6SM FEW250 FM031700 24011KT P6SM FEW070 FEW250 FM031900 21015G24KT P6SM FEW080 FEW250 TEMPO 0319/0321 21015G24KT FM032100 21015KT P6SM FEW080 FEW250 PROB30 0321/0324 -TSRA BKN040CB FM040100 27008KT P6SM FEW080 SCT250 FM040400 29006KT P6SM SCT250 FM041400 26010KT P6SM SCT250",
    "KRFD": "TAF KRFD 031124Z 0312/0412 22008KT P6SM SCT040 BKN250 FM031800 25011KT P6SM VCTS SCT040CB BKN100 TEMPO 0319/0322 27015G30KT 3SM TSRA BKN035CB FM032300 20008KT P6SM FEW070 BKN150 PROB30 0404/0410 32015G25KT 3SM TSRA BKN030CB",
    "KIND": "TAF KIND 031121Z 0312/0418 23003KT P6SM SKC FM031600 23008KT P6SM FEW050 SCT250 FM032300 22008KT P6SM VCSH SCT050 SCT250 PROB30 0400/0403 -TSRA BKN050CB FM040500 21004KT P6SM SCT100",
    "KDTW": "TAF KDTW 031120Z 0312/0418 24006KT P6SM SCT060 SCT090 OVC200 FM031600 25013G20KT P6SM SCT060 SCT100 FM032200 27010KT P6SM BKN250 PROB30 0322/0402 3SM -TSRA BKN050CB FM040200 25003KT P6SM BKN250 FM041400 25007KT P6SM SCT080 BKN250",
    "KMSP": "TAF KMSP 031140Z 0312/0418 16005KT P6SM -SHRA SCT050 OVC090 FM031400 17007KT P6SM SCT040 BKN150 FM040900 12005KT P6SM SCT015 BKN200",
    "CYEG": "TAF CYEG 031140Z 0312/0412 VRB03KT P6SM FEW005 SCT100 BKN240 TEMPO 0312/0313 4SM BR BKN005 BECMG 0312/0313 28010KT FM031300 30008KT P6SM BKN100 BKN200 FM032200 32008KT P6SM BKN060 TEMPO 0322/0402 VRB15G25KT P6SM VCTS BKN040CB FM040200 VRB03KT P6SM FEW080 PROB30 0408/0412 1SM BR RMK NXT FCST BY 031500Z",
    "EHAM": "TAF EHAM 031108Z 0312/0418 29013KT 9999 SCT030 BECMG 0317/0320 25005KT BECMG 0405/0408 28013KT",
    "EBBR": "TAF EBBR 031101Z 0312/0418 32008KT 9999 FEW045 BECMG 0407/0409 26010KT",
    "EDDF": "TAF EDDF 031100Z 0312/0418 31009KT CAVOK BECMG 0319/0321 34004KT BECMG 0410/0412 26010KT",
    "EDFH": "TAF EDFH 031100Z 0312/0412 32005KT CAVOK BECMG 0402/0404 26004KT BECMG 0409/0411 28010KT",
    "EDDL": "TAF EDDL 031100Z 0312/0418 29007KT CAVOK BECMG 0323/0401 19004KT BECMG 0409/0411 25015G25KT",
    "EDDK": "TAF EDDK 031100Z 0312/0418 32010KT CAVOK BECMG 0320/0322 VRB03KT BECMG 0408/0410 28012KT TEMPO 0413/0418 29015G25KT",
    "EBLG": "TAF EBLG 031101Z 0312/0418 32008KT 9999 FEW045 BECMG 0407/0409 26010KT",
    "LSZH": "TAF LSZH 031125Z 0312/0418 35003KT 9999 SCT045 TX26/0315Z TN12/0405Z TX29/0415Z BECMG 0320/0323 CAVOK PROB40 0414/0417 29008KT",
    "LIMC": "TAF LIMC 031100Z 0312/0418 VRB05KT CAVOK",
    "LIRF": "TAF LIRF 031100Z 0312/0418 26014KT 9999 FEW030 BECMG 0318/0320 02012KT BECMG 0410/0412 24010KT",
    "EINN": "TAF EINN 031100Z 0312/0412 25010KT 9999 FEW018 PROB30 TEMPO 0314/0320 BKN012 TEMPO 0320/0406 BKN010 PROB40 TEMPO 0322/0405 4000 -DZ BKN005 PROB40 TEMPO 0406/0412 25015G25KT BKN009",
    "EGLL": "TAF EGLL 031057Z 0312/0418 31004KT 9999 FEW045 BECMG 0316/0319 25012KT PROB30 TEMPO 0405/0408 BKN014",
    "EGSS": "TAF EGSS 031053Z 0312/0418 27006KT 9999 FEW040",
    "EPWA": "TAF EPWA 031130Z 0312/0412 28015KT CAVOK TEMPO 0312/0318 30018G32KT PROB40 TEMPO 0315/0318 SCT050TCU TEMPO 0318/0412 28015G25KT PROB30 TEMPO 0409/0412 30020G35KT -SHRA BKN014 BKN030CB",
    "UHPP": "TAF AMD UHPP 031224Z 0312/0418 17003G12MPS 9999 SCT011 BKN025CB TEMPO 0312/0320 0700 -SHRA VA FG VV002 TEMPO 0401/0410 18008MPS",
    "EFHK": "TAF EFHK 031124Z 0312/0412 15011KT 9999 -SHRA FEW010 SCT014 FEW030CB TEMPO 0312/0317 7000 SHRA BKN009 PROB40 0312/0317 TSRA BECMG 0317/0319 CAVOK TEMPO 0319/0406 FEW050CB PROB30 0400/0403 0700 FG VV002 BECMG 0406/0408 04005KT 7000 SHRA SCT030CB",
    "LBBG": "TAF LBBG 031100Z 0312/0412 27010KT 9999 SCT040 TEMPO 0312/0318 VRB16G28KT 3000 TSRA SCT030CB BKN045 BECMG 0318/0319 29010KT BECMG 0323/0401 35012KT 3000 TSRA SCT030CB BKN040 TEMPO 0401/0409 VRB15G26KT BECMG 0410/0412 09010KT",
    "LTAC": "TAF LTAC 031040Z 0312/0412 32012KT 9999 SCT040 BECMG 0315/0318 VRB02KT CAVOK BECMG 0408/0410 SCT040 TEMPO 0409/0412 34012KT",
    "UBBB": "TAF UBBB 031056Z 0312/0412 16012KT CAVOK TX30/0312Z TN22/0401Z TEMPO 0312/0315 19016KT BECMG 0318/0320 17005KT TEMPO 0400/0403 VRB04KT 3000 BR FEW005 BECMG 0403/0405 18012KT TEMPO 0405/0412 FEW050CB",
    "UTAA": "TAF UTAA 031045Z 0312/0412 33018KT 6000 DRDU SCT040 SCT050CB BECMG 0316/0318 24014KT BECMG 0405/0407 12016KT 4000 DRDU SCT050",
    "UACC": "TAF UACC 031102Z 0312/0412 22010MPS 9999 SCT030CB BKN050 TX26/0410Z TN13/0323Z TEMPO 0312/0318 VRB18MPS 3100 -TSRA SQ BKN020CB BECMG 0318/0320 22004MPS SCT040 BKN100 BECMG 0401/0403 24009MPS SCT030CB TEMPO 0403/0412 VRB16MPS 3100 -TSRA SQ BKN020CB",
    "UAAA": "TAF UAAA 031102Z 0312/0412 21002G07MPS 6000 BKN040CB OVC100 TX18/0410Z TN12/0401Z TEMPO 0312/0316 05005MPS 4000 -TSRA BR SCT005 BKN011CB OVC030 TEMPO 0316/0402 1000 BR SCT003 OVC020 TEMPO 0406/0412 27006G15MPS 3100 -TSRA BR SCT011CB OVC030",
    "UZTT": "TAF UZTT 031100Z 0312/0412 07010KT 7000 SCT060CB TEMPO 0312/0318 VRB12G22KT -TSRA BKN050CB",
    "ZWWW": "TAF ZWWW 030904Z 0312/0418 34004G09MPS CAVOK TX36/0409Z TN27/0323Z TN29/0418Z BECMG 0316/0317 28005G12MPS BECMG 0320/0321 22004MPS BECMG 0402/0403 36004MPS BECMG 0413/0414 18004MPS",
    "ZLXY": "TAF ZLXY 030904Z 0312/0412 17003MPS 6000 NSC TX36/0408Z TN22/0322Z",
    "ZBAA": "TAF AMD ZBAA 031133Z 0312/0418 30009G14MPS 6000 -TSRA FEW040CB BKN040 TX34/0406Z TN23/0321Z TN25/0418Z BECMG 0313/0314 15004MPS NSW NSC TEMPO 0412/0415 TSRA FEW040CB BKN040",
    "ZBHH": "TAF ZBHH 030905Z 0312/0412 06004MPS 9999 FEW040 TX32/0408Z TN17/0322Z TEMPO 0403/0405 TSRA SCT040CB FEW040 BECMG 0409/0410 -TSRA SCT040CB FEW040 TEMPO 0410/0412 VRB08G15MPS TSRA",
    "ZSQD": "TAF ZSQD 030909Z 0312/0412 16004MPS 5000 BR NSC TX32/0406Z TN22/0320Z BECMG 0320/0321 2000 BKN010 BECMG 0323/0324 3500 FEW015",
    "ZMCK": "TAF COR ZMCK 031044Z 0312/0418 VRB02MPS 9999 FEW030CB BKN033 BKN100 TN13/0321Z TX23/0407Z TEMPO 0316/0402 VRB08G13MPS 6000 TSRA SCT027CB BKN030 BKN080 BECMG 0400/0402 33007MPS FEW030CB BKN033 PROB40 TEMPO 0402/0412 VRB09G14MPS TSRA SCT027CB BKN030 BECMG 0410/0413 VRB02MPS FEW030CB SCT033",
    "UUEE": "TAF UUEE 031051Z 0312/0412 33003G08MPS 9999 SCT040 TX26/0313Z TN16/0401Z TEMPO 0312/0316 27008G13MPS TEMPO 0321/0407 09009G16MPS 1200 TSRA FEW004 BKN020CB TEMPO 0407/0412 29009G18MPS 2100 -TSRA BKN016CB",
    "UUDD": "TAF UUDD 031053Z 0312/0418 30003MPS 9999 SCT020 TX27/0312Z TN17/0403Z PROB40 TEMPO 0315/0321 -TSRA BKN020CB TEMPO 0321/0407 12008G15MPS 1600 TSRA FEW003 BKN016CB TEMPO 0407/0418 -TSRA BKN016CB",
    "ULLI": "TAF ULLI 031052Z 0312/0412 18003MPS 6000 BKN016 TEMPO 0321/0404 BKN005 PROB40 TEMPO 0321/0404 2500 -TSRA BR BKN017CB TEMPO 0409/0412 -TSRA BKN011 BKN017CB",
    "USSS": "TAF USSS 031053Z 0312/0412 34003G14MPS 9999 -SHRA BKN016CB TEMPO 0312/0318 01007G21MPS -TSRAGR FM031800 30003G13MPS 6000 SCT016 FM040300 31003G14MPS 9999 SCT030CB",
    "UNNT": "TAF UNNT 031100Z 0312/0412 09003G08MPS 9999 SCT040 TX29/0409Z TN17/0322Z TEMPO 0312/0403 -TSRA BKN020CB BECMG 0404/0408 20005G10MPS",
    "UNKL": "TAF UNKL 031043Z 0312/0412 12003G08MPS 8000 SCT040 TX30/0406Z TN15/0322Z TEMPO 0406/0410 07005MPS",
    "UIBB": "TAF UIBB 031100Z 0312/0412 32005MPS 9999 -TSRA FEW001 BKN020CB TEMPO 0312/0315 VRB15MPS 0700 +SHRAGR VV001 BECMG 0315/0316 NSW BECMG 0400/0402 04003G08MPS",
    "UEEE": "TAF UEEE 031100Z 0312/0418 10003G08MPS CAVOK TX31/0406Z TN12/0318Z",
    "UHHH": "TAF UHHH 031050Z 0312/0418 21003MPS 9999 SCT020 TX28/0405Z TN18/0320Z TEMPO 0318/0403 18008MPS",
    "UHSS": "TAF UHSS 031058Z 0312/0418 22003MPS 0550 FG BKN002 FM032300 17003MPS 9999 BKN007 BECMG 0401/0403 BKN030"
  },
  "atis": {
    "RJAA": "[Arrival ATIS] RJAA ARR ATIS K 0726Z MS0700 (APCH)ILS Z RWY34R LDG RWY 34R DEP RWY 34L DEP FREQ 124.2. TWY A1 CLSD. OBSERVE GEAR DOWN OPS PROC ON FNL. MS 180700Z 36012KT 4000M R34L/2000N M/P2000N E/2000N R34R/P2000N E/P2000N -SHRA BR BKN003ST BKN010CU 21/20 Q1007/A2976= Q/TWO NINE SEVEN SIX STP\n[Departure ATIS] RJAA DEP ATIS K 0713Z MS0700 (APCH)ILS Z RWY34R LDG RWY 34R DEP RWY 34L DEP FREQ 124.2. TWY A1 CLSD. OBSERVE GEAR DOWN OPS PROC ON FNL. MS 180700Z 36012KT 4000M R34L/2000N M/P2000N E/2000N R34R/P2000N E/P2000N -SHRA BR BKN003ST BKN010CU 21/20 Q1007/A2976= Q/TWO NINE SEVEN SIX STP",
    "PANC": "[Arrival ATIS] PANC ARR ATIS G 0653Z ANC ATIS INFO G 0653Z. 25006KT 10SM FEW050 SCT200 12/06 A3033 (THREE ZERO THREE THREE). 7R APPROACHES IN USE. LANDING RWY 7R, DEPARTING RWY 33. NOTICE TO AIRMEN. RWY 7L CLSD. CHECK NOTAMS FOR TAXIWAY CLOSURES. CONTACT TOWER 118.3 FOR TAXI. ...ADVS YOU HAVE INFO G.\n[Departure ATIS] PANC DEP ATIS R 0753Z ANC ATIS INFO R 0753Z. 18006KT 10SM FEW055 FEW070 BKN120 BKN200 14/09 A2973 (TWO NINER SEVEN THREE). 7R, 7L APPROACHES IN USE. LANDING RWY 7R, 7L, DEPARTING RWY 7L, 33. NO",
    "KSEA": "[Arrival ATIS] KSEA ARR ATIS F 0653Z SEA ATIS INFO F 0653Z. 28003KT 10SM FEW120 FEW220 16/09 A3007 (THREE ZERO ZERO SEVEN). ILS AND CHARTED VISUAL APPROACH RWY 34C , APCH IN USE. DEPG RWY 34R. SIMUL ARRIVALS TO RWY 34L AND DEPARTURES TO RWY 34R ARE IN USE. SIMUL APCHS IN USE TO PARA RYS. NOTAMS... RY 34L CLSD. LOC RWY 34C OTS, RWY 34C GS OTS. BIRD ACTIVITY VICINITY ARPT. APCH AND DEP PATHS ARE OVER NOISE SENSITIVE AREAS. ...ADVS YOU HAVE INFO F.\n[Departure ATIS] KSEA DEP ATIS F 0653Z SEA ATIS INFO F 0653Z. 18009KT 10SM FEW030 SCT045 BKN060 16/13 A3005 (THREE ZERO ZERO FIVE). ILS AND CHARTED VISUAL APPROACH RWY 16C , APCH IN USE. DEPG RWY 16L, DEPG ACFT PLAN AND BRIEF NUMBERS FOR BOTH RWYS 16L AND 16C. SIMUL APCHS IN USE, BFI & SEA. TRAFFIC BELOW YOU ON FINAL. SIMUL APCHS IN USE TO PARA RYS. NOTAMS... BIRD ACTIVITY VICINITY ARPT. STADIUM TFR IN EFFECT CHECK FDC NOTAMS FOR MORE INFO. ...ADVS YOU HAVE INFO F.",
    "ZSPD": "[Arrival ATIS] ZSPD ARR ATIS H 0700Z EXP ILS APCH INDEPENDENT PARL INSTR APCH LDG RWY 17R & 16L WIND RWY 17R TDZ 100/4MPS MID 100/4MPS END 090/3MPS VRB BTN 070/ AND 130/ RWY 16L TDZ 100/4MPS MID 110/3MPS END 100/4MPS VIS RWY 17R TDZ 2800M MID 8000M END 10000M VIS RWY 16L TDZ 10000M MID 10000M END 10000M NSC T 28 /DP 23 QNH 1008 HPA CAUTION THE BIRDS NEAR THE RUNWAY ADZ YOU HAVE INFO H.\n[Departure ATIS] ZSPD DEP ATIS E 0530Z DEP RWY 17L & 16R WIND RWY 17L TDZ 050/4MPS MID 080/4MPS VRB BTN 040/ AND 100/ END 070/4MPS RWY 16R TDZ 060/4MPS MID 100/4MPS END 080/3MPS VRB BTN 050/ AND 110/ VIS RWY 17L TDZ 10000M MID 10000M END 10000M VIS RWY 16R TDZ 10000M MID 10000M END 10000M CLD BKN 450M T 27 /DP 23 QNH 1008 HPA CAUTION THE BIRDS NEAR THE RUNWAY ADZ YOU HAVE INFO E.",
    "ZSSS": "[Arrival ATIS] ZSSS ARR ATIS S 0630Z EXP ILS APCH LDG RWY 18L WIND RWY 18L TDZ 100/3MPS MID 080/4MPS END 150/3MPS CAVOK T 31 /DP 21 QNH 1007 HPA VISUAL APCH IN USE QNH OF SHANGHAI TERMINAL CONTROL AREA 1008 HPA ADZ YOU HAVE INFO S.\n[Departure ATIS] ZSSS DEP ATIS R 0600Z DEP RWY 18R WIND RWY 18R TDZ VRB/3MPS MID 090/3MPS END 160/2MPS VRB BTN 120/ AND 230/ VIS RWY 18R TDZ 10000M MID 10000M END 9000M NSC T 30 /DP 21 QNH 1007 HPA VISUAL APCH IN USE QNH OF SHANGHAI TERMINAL CONTROL AREA 1008 HPA ADZ YOU HAVE INFO R.",
    "VHHH": "[Arrival ATIS] VHHH ARR ATIS I 0636Z ARRIVALS, RWY 25R. EXP RNAV TRANSITION TO ILS APCH, RWY 25R. RNP APCH IS AVBL ON REQ, RWY 25R. RWY 25 RUNWAY CONDITION REPORT AT 0548Z. RWY 25R RUNWAY CONDITION CODES 5 , 5 , 5 . RWY SFC ALL PARTS WET. WIND VRB05KT. VIS 10KM. HVY SHRA. CLD FEW 600FT FEW CB 1000FT SCT 1800FT. T26 DP24. QNH 1009HPA. CB. WIND AND VIS CHANGING RAPIDLY IN PASSING TS. ACK INFO I ON FIRST CTC WITH APP.\n[Departure ATIS] VHHH DEP ATIS P 0634Z DEPARTURES, RWY 25L. RWY 25 RUNWAY CONDITION REPORT AT 0548Z. RWY 25L RUNWAY CONDITION CODES 5 , 5 , 5 . RWY SFC ALL PARTS WET. EXP 30 MINS DLA DUE WX. SIG WS FCST. MOD TURB FCST. WIND VRB05KT. VIS 10KM. HVY SHRA. CLD FEW 600FT FEW CB 1000FT SCT 1800FT. T25 DP24. QNH 1009HPA. CB. WIND AND VIS CHANGING RAPIDLY IN PASSING TS. ACK INFO P ON FIRST CTC WITH DELIVERY .",
    "RCTP": "[Arrival ATIS] RCTP ARR ATIS W 0700Z EXP ILS APCH RWY23R FOR ARR. RWY23L FOR DEP. WIND 250/14KT VIS 10 KM OR MORE CLD FEW 1500FT SCT 8000FT BKN 20000FT T 33 DP 25 QNH 1010HPA NOSIG DUE TO FLOW CONTROL BY FUKUOKA, MANILA AND HONG KONG F-I-R, TRAFFIC CONCERNED MAY BE DELAYED. CTN BIRD ACTIVITY IN THE VCY OF THE AD. INFORM TAIPEI APCH OR TAIPEI TOWER ON INITIAL CONTACT YOU HAVE INFORMATION W\n[Departure ATIS] RCTP DEP ATIS W 0700Z EXP ILS APCH RWY23R FOR ARR. RWY23L FOR DEP. WIND 250/14KT VIS 10 KM OR MORE CLD FEW 1500FT SCT 8000FT BKN 20000FT T 33 DP 25 QNH 1010HPA NOSIG DUE TO FLOW CONTROL BY FUKUOKA, MANILA AND HONG KONG F-I-R, TRAFFIC CONCERNED MAY BE DELAYED. CTN BIRD ACTIVITY IN THE VCY OF THE AD. INFORM TAIPEI APCH OR TAIPEI TOWER ON INITIAL CONTACT YOU HAVE INFORMATION W",
    "ZGSZ": "[Arrival ATIS] ZGSZ ARR ATIS X 1200Z EXP ILS APCH 15 EXP ILS OR VIS APCH 16R WIND 100/5MPS VIS 9999M CLD SCT 1500M T 28 /DP 25 QNH 1009 HPA INDEPENDENT PARALLEL DEPARTURES DEPENDENT PARALLEL APPROACHES MISSED APPROACH ALTITUDE SETTING 1200METERS WHEN AIRBORNE CONTACT ZHUHAI APPROACH EXPECTED RNP ILS DME Z APPROACH RWY 15 16L 16R RWYCC 5/5/5 ISSUED AT 0600UTC WET/WET/WET DPT NR/NR/NR COV 100PCT/100PCT/100PCT ADZ YOU HAVE INFO X.\n[Departure ATIS] ZGSZ DEP ATIS S 0200Z DEP RWY 15 & 16L WIND 170/5MPS VRB BTN 140/ AND 200/ VIS 9999M -SHRA CLD BKN 1200M T 29 /DP 26 QNH 1010 HPA SUPPLEMENT INFO RESHRA INDEPENDENT PARALLEL DEPARTURES DEPENDENT PARALLEL APPROACHES V17,V18 AVAILABLE AFTER SULAS FLY HEADING 040 MISSED APPROACH ALTITUDE SETTING 1200METERS WHEN AIRBORNE CONTACT ZHUHAI APPROACH EXPECTED RNP ILS DME Z APPROACH ADZ YOU HAVE INFO S.",
    "WSSS": "[Arrival ATIS] WSSS ARR ATIS L 0700Z METREPORT 0700Z ILS APCHRWY 20R SIMUL INDEPENDENT ILS AND VISUAL APPROACHES ARE CONDUCTED ON RWY 20. TWY W 9 CLOSED, RWY 02C 20C RAPID EXIT TAXIWAY INDICATOR LIGHTS OFF WIND 130/ 10KT VRB BTN090 AND160 VIS 10KM CLD FEW 2200FT T31 DP24 QNH 1010HPA NOSIG ACK ATIS L\n[Departure ATIS] WSSS DEP ATIS M 0700Z METREPORT 0700Z RWY 20C SIMUL INDEPENDENT ILS AND VISUAL APPROACHES ARE CONDUCTED ON RWY 20. TWY W 9 CLOSED, RWY 02C 20C RAPID EXIT TAXIWAY INDICATOR LIGHTS OFF WIND 130/ 10KT VRB BTN100 AND160 VIS 10KM CLD FEW 2200FT T31 DP24 QNH 1010HPA NOSIG DEP,INITIAL CMB 3000FT ACK ATIS M",
    "WMKK": "[Arrival ATIS] WMKK ARR ATIS G 0707Z WMKK ARR INFO G. TIME 0700. INDEPENDENT PARALLEL APPROACHES FOR RWY 14 L AND 15 ARE IN PROGRESS. EXP RNAV / ILS APCH FOR RWY 14 LEFT. EXP RNAV / ILS APCH FOR RWY 15. WIND RWY 14L DIRECTION NOT AVBL SPEED NOT AVBL. WIND RWY 15 DIRECTION NOT AVBL SPEED NOT AVBL. VIS RWY 14L TDZ NOT AVBL. VIS RWY 15 TDZ NOT AVBL. CLD SCT 1800 FT. T 32. DP 26. QNH 1009. NOSIG. AT FIRST CONTACT WITH LUMPUR RADAR, NOTIFY RCPT OF G\n[Departure ATIS] WMKK DEP ATIS W 0711Z WMKK DEP INFO W. TIME 0700. INDEPENDENT PARALLEL DEPARTURES FOR RWY 14 R AND 15 ARE IN PROGRESS. RWY 14 RIGHT. RWY 15. WIND RWY 14R 140 DEG, 8 KT. WIND RWY 15 130 DEG, 10 KT. VIS RWY 14R TDZ 10 KM OR MORE. VIS RWY 15 TDZ 10 KM OR MORE. CLD SCT 1800 FT. T 32. DP 26. QNH 1009. NOSIG. ALL DEP ACFT TO CONTACT LUMPUR DEP AT 135 DECIMAL 25 MHZ WHEN ABN. AT FIRST CONTACT WITH LUMPUR GROUND, NOTIFY RCPT OF W",
    "VTBS": "[Arrival ATIS] VTBS ARR ATIS V 0700Z VTBS ARR ATIS V 0702Z SIMULTANEOUS INDEPENDENT PARL APCH IN PROGRESS EXP ILS Z APCH ARR RWY 19 OR RNP APCH RWY 20R , ,PILOT SHALL ADZ BKK APCH ON INITIAL CTC IF UNA TO CONDUCT RNP APCH DUE TO OPERATIONAL CONSTRAINT 0700Z WIND VRB8KT VIS 10KM CLD FEW 2000FT T34 DP21 QNH 1008HPA TREND NOSIG ADZ BKK APCH ON INITIAL CONTACT THAT YOU HAVE INFO V\n[Departure ATIS] VTBS DEP ATIS A 0600Z VTBS DEP ATIS A 0601Z DEP RWY 20L , ,AFT AIRBORNE ALL DEPARTING ACFT SHALL CTC 119.25 0600Z WIND 270/7KT VRB BTN 230/ AND 300/ VIS 10KM CLD FEW 2000FT T35 DP21 QNH 1009HPA TREND NOSIG ADZ GND WHEN INITIAL CONTACT YOU HAVE INFO A",
    "VTBU": "[Arrival ATIS] VTBU ARR ATIS W 1400Z VTBU ARR ATIS W 1402Z RNP RWY 18 TRL FL130 1400Z WIND 250/3KT VIS 10KM CLD FEW 2000FT T29 DP27 QNH 1007HPA TREND NOSIG ADZ CONTROLLER WHEN INITIAL CONTACT YOU HAVE INFO W\n[Departure ATIS] VTBU DEP ATIS D VTBU ARR/DEP DATIS RPT VTBU ARR ATIS D 0330Z ILS \"Z\" APCH RWY 18 TRL FL130 0330Z WIND 110/4KT VRB BTN 350/ AND 120/ VIS 6KM CLD FEW 2000FT T31 DP27 QNH 1014HPA TREND NOSIG ADZ CONTROLLER WHEN INITIAL CONTACT YOU HAVE INFO D",
    "ROAH": "[Arrival ATIS] ROAH ARR ATIS F 1108Z M1100 (APCH)RNP RWY18R LDG RWY 18R DEP RWY 18L DEP FREQ 126.5 258.3 M 031100Z 23003KT 45KM FEW015CU 28/26 Q1013/A2993= Q/TWO NINE NINE THREE STP\n[Departure ATIS] ROAH DEP ATIS J 0657Z MS0630 (APCH)ILS RWY18R LDG RWY 18R DEP RWY 18L DEP FREQ 126.5 258.3 MS 180630Z 20008KT 25KM FEW002ST SCT005ST BKN/// 28/27 Q1012/A2989= Q/TWO NINE EIGHT NINE STP",
    "VVDN": "[Arrival ATIS] VVDN ARR ATIS S 0601Z VVDN INFO S 0601Z. ILS VICTOR APPROACH 35L.. DPTG RWY 35R.. 0601Z. WIND 160/09KT CAVOK T37 DP24 QNH 1006HPA TREND NOSIG. ADZ ON INITIAL CTC YOU HAVE INFO. S.\n[Departure ATIS] VVDN DEP ATIS S 0604Z VVDN INFO S 0604Z. ILS VICTOR APPROACH 35L.. DPTG RWY 35R.. 0604Z. WIND VRB/09KT CAVOK T37 DP24 QNH 1006HPA TREND NOSIG. ADZ ON INITIAL CTC YOU HAVE INFO. S.",
    "RCKH": "[Arrival ATIS] RCKH ARR ATIS B 1200Z EXPECT ILS APPROACH RWY 09 ARR/DEP TAXIWAY JULIETT, TAXIWAY BRAVO, TAXIWAY DELTA AND TAXIWAY ECHO CLOSED DUE MAINTENANCE. RUNWAY 0 9 ARRIVALS PLAN VACATE VIA CHARLIE OR FO\n[Departure ATIS] RCKH DEP ATIS R 0700Z EXPECT ILS APPROACH RWY 09 ARR/DEP TAXIWAY JULIETT, TAXIWAY BRAVO, TAXIWAY DELTA AND TAXIWAY ECHO CLOSED DUE MAINTENANCE. RUNWAY 0 9 ARRIVALS PLAN VACATE VIA CHARLIE OR FO",
    "KLAX": "[Arrival ATIS] KLAX ARR ATIS D 0329Z - KLAX ATIS INFO D 0329Z SPECIAL. 26010KT 10SM BKN013 18/14 A2995 (TWO NINER NINER FIVE) RMK AO2 T01780144. SIMUL INST APCHS AND RNAV RNP RWYS 24R AND 25L APCHS, SIMUL VISUAL APCHS TO ALL RWYS ARE IN PROG, AND SIMUL APCHS IN PROG BTWN LAX AND HHR, SIMUL INSTR DEPARTURES IN PROG RWYS 24 AND 25. CTC L A GC ON 121.75 FOR PUSH OR TAXI ON A. TWY B CLSD BTN TWY, J AND TWY C8 , , TWY C10 CLSD BTN TWY, B AND TWY C, TWY C CLSD BTN TWY, C1 AND TWY C3. RY 25R SFL OTS, RY 24L ALSF-2 OTS, PAPI OTS 24R. LAX VOR UNMONITORED. USE CAUTION FOR INCREASED DRONE ACTIVIY IN THE VICINITY OF SOFI STADIUM AT OR BELOW 200FT AGL DURING THE WORLD CUP FROM JUNE TWELFTH TWENTY TWENTY SIX THROUGH JULY TENTH TWENTY TWENTY SIX. TEMPORARY FLIGHT RESTRITIONS IN EFFECT FOR THE LOS ANGELES AREA, CHECK NOTAMS FOR DETAILS. HAZD WX INFO FOR LAX AREA AVBL FM FSS. BIRD ACTIVITY VICINITY ARPT. INCLUDE YOUR CALL SIGN IN ALL READBACKS. USE CAUTION WHEN EXITING RY24R AT TWY V, W, AND Y, TO HOLD SHORT OF RY24L. MULTIPLE RUNWAY INCURSIONS HAVE OCCURRED. ...ADVS YOU HAVE INFO D.\n[Departure ATIS] KLAX DEP ATIS V 2153Z LAX ATIS INFO V 2153Z. 24012KT 210V280 10SM FEW014 FEW180 SCT220 21/13 A2995 (TWO NINER NINER FIVE) RMK AO2 SLP141 T02110133. INST APCHS AND RNAV RNP APCHS RY 24R AND 25L, OR VCTR FOR VISUAL APCH WILL BE PROVIDED, SIMUL VISUAL APCHS TO ALL RWYS ARE IN PROG, SIMUL INSTR DEPARTURES IN PROG RWYS 24 AND 25. CTC L A GC ON 121.75 FOR PUSH OR TAXI ON A. TWY B CLSD BTN TWY, J AND TWY C8 , , TWY C10 CLSD BTN TWY, B AND TWY C, TWY C CLSD BTN TWY, C1 AND TWY C3. RY 25R SFL OTS, RY 24L ALSF-2 OTS, PAPI OTS 24R. LAX VOR UNMONITORED. USE CAUTION FOR INCREASED DRONE ACTIVIY IN THE VICINITY OF SOFI STADIUM AT OR BELOW 200FT AGL DURING THE WORLD CUP FROM JUNE TWELFTH TWENTY TWENTY SIX THROUGH JULY TENTH TWENTY TWENTY SIX. TEMPORARY FLIGHT RESTRITIONS IN EFFECT FOR THE LOS ANGELES AREA, CHECK NOTAMS FOR DETAILS. HAZD WX INFO FOR LAX AREA AVBL FM FSS. BIRD ACTIVITY VICINITY ARPT. INCLUDE YOUR CALL SIGN IN ALL READBACKS. USE CAUTION WHEN EXITING RY24R AT TWY V, W, AND Y, TO HOLD SHORT OF RY24L. MULTIPLE RUNWAY INCURSIONS HAVE OCCURRED. ...ADVS YOU HAVE INFO V.",
    "KONT": "[Arrival ATIS] KONT ARR ATIS G 0553Z - KONT ATIS INFO G 0553Z. 26004KT 10SM CLR 19/13 A2995 (TWO NINER NINER FIVE) RMK AO2 SLP132. ILS AND VIS APR IN USE, RY26L & RY26R. LNDG AND DEPG RY 26L AND RY 26R. NOTAMS... TAXIWAY SIERRA FIVE CLOSED. TAXIWAY SIERRA CLOSED BETWEEN TAXIWAY SIERRA 8 AND TAXIWAY WHISKEY. RY 26L IM OTS, RY 26R ALS OTS. USE CAUTION FOR NUMEROUS BIRDS OBSERVED IN VICINITY OF ONT. UAS ACTIVITY IN THE IN THE VACINITY OF ONT. PILOTS READBACK RWY ASSIGNMENTS AND HOLD SHORT INSTRUCTIONS. ...ADVS YOU HAVE INFO G.\n[Departure ATIS] KONT DEP ATIS N 0553Z - KONT ATIS INFO N 0553Z. 24004KT 10SM BKN250 22/15 A2988 (TWO NINER EIGHT EIGHT) RMK AO2 SLP100. ILS AND VIS APR IN USE, RY26L & RY26R. LNDG AND DEPG RY 26L AND RY 26R. NOTAMS... TAXIWAY SIERRA CLSD BETWEEN SIERRA 8 AND W TAXIWAY Q SOUTH OF RWY 26L CLSD TAXIWAY T CLSD TAXIWAY SIERRA 5 CLSD. RY 26L IM OTS, RY 26R ALS OTS. USE CAUTION FOR NUMEROUS BIRDS OBSERVED IN VICINITY OF ONT. HAZD WX INFO FOR SOUTHERN CA AVBL ON FSS FREQUENCIES. PILOTS READBACK RWY ASSIGNMENTS AND HOLD SHORT INSTRUCTIONS. ...ADVS YOU HAVE INFO N.",
    "KSFO": "[Arrival ATIS] KSFO ARR ATIS V 0656Z SFO ATIS INFO V 0656Z. 20010KT 10SM FEW006 16/13 A2989 (TWO NINER EIGHT NINER) RMK AO2 SLP123 T01610128. ILS RY 28R APP IN USE. DEPG RWYS 28L, 28R. RY 1L, 1R CLSD. NUMEROUS TWY CLOSURES FOR CONSTRUCTION ON THE FIELD, PILOTS CHECK NOTAMS. DEPG ACFT WAITING ON FINAL NUMBERS ADVISE GROUND PRIOR TO ENTERING TWY F. ...ADVS YOU HAVE INFO V.\n[Departure ATIS] KSFO DEP ATIS L 1156Z SFO ATIS INFO L 1156Z. 23005KT 10SM FEW006 BKN014 13/11 A2997 (TWO NINER NINER SEVEN) RMK AO2 SLP147 T01330106 10144 20133 53000. ILS RY 28R APP IN USE. DEPG RWYS 28L, 28R.",
    "KOAK": "[Arrival ATIS] KOAK ARR ATIS A 0353Z - KOAK ATIS INFO A 0353Z. 25010KT 10SM FEW003 BKN009 BKN013 16/14 A2988 (TWO NINER EIGHT EIGHT). RNAV Z 3 0, ILS RUNWAY 2 8 RIGHT IN USE. FLOW TO LAX, SAN, SEA, ORD. ILS RWY 30, OTS. UNN LIT CLOSE-IN OBSTACLES FOR RWY 30 DEPARTURES. RWY 30 DEPARTURES ARE ADVISED TO AVOID TURNING LEFT PRIOR TO DEPARTURE END OF RUNWAY. SIGNATURE UNI-COM OUT OF SERVICE. HAZD WX INFO FOR CA ON FLT SRVC FREQ. CAUTION, BIRDS NEAR AIRPORT. ...ADVS YOU HAVE INFO A.\n[Departure ATIS] KOAK DEP ATIS O 1953Z OAK ATIS INFO O 1953Z. 28014KT 10SM FEW005 22/14 A2988 (TWO NINER EIGHT EIGHT). RNAV Z/VA RWY 30 ILS/VA RWY 28R. FLOW TO LAX, LAS, SAN. ILS RWY 30, OTS. UNN LIT CLOSE-IN OBSTACLES FOR RWY 30 DEPARTURES. RWY 30 DEPARTURES ARE ADVISED TO AVOID TURNING LEFT PRIOR TO DEPARTURE END OF RUNWAY. SIGNATURE UNI-COM OUT OF SERVICE. CAUTION, BIRDS NEAR AIRPORT. ...ADVS YOU HAVE INFO O.",
    "KDFW": "[Arrival ATIS] KDFW ARR ATIS G 0753Z DFW ARR INFO G 0753Z. 18011KT 10SM SCT250 27/21 A2999 (TWO NINER NINER NINER). SIMUL VISUAL APCH TO RWYS, 18R, 17C, 17L. LDG RWY 17C EXP LAHSO TWY B 10460 FT AVAIL, LDG RWY 18R EXP LAHSO TWY B 10100 FT AVL. NOTICE TO AIRMEN. RWY 13L CLSD. RWY 13R CLSD. RWY 17R CLSD. WARNING, RWY 18L HAS BEEN SHORTENED, 9273 FT AVAILABLE. RWY 18L ILS OTS, CL OTS. BIRD ACTIVITY VCNTY ARPT. ...ADVS YOU HAVE INFO G.\n[Departure ATIS] KDFW DEP ATIS W 1553Z - KDFW DEP INFO W 1553Z. 21022G32KT 10SM FEW025 FEW180 SCT250 31/21 A2994 (TWO NINER NINER FOUR) RMK AO2 PK WND 20032/1547 SLP128 T03110206. SIMUL PARL TRAFFIC DEPG RWYS 17R, 18L. NOTICE TO AIRMEN. WARNING, RWY 18L HAS BEEN SHORTENED, 9273 FT AVAILABLE. RWY 18L CL OTS. BIRD ACTIVITY VCNTY ARPT. ...ADVS YOU HAVE INFO W.",
    "KIAH": "[Arrival ATIS] KIAH ARR ATIS U 0953Z IAH ATIS INFO U 0953Z. 00000KT 10SM FEW020 24/23 A3002 (THREE ZERO ZERO TWO) RMK AO2 SLP164 T02390233. ARRIVALS EXPECT ILS OR RNAV Y RY 27, ILS OR RNAV Y RY 8R, ILS OR RNAV Y RY 8L. SIMUL APPROACHES IN USE. DEPG RY 15R. NOTICE TO AIRMEN. UNITED RAMP CONTROL IN EFFECT. CODED DEPARTURE ROUTES IN EFFECT. RY 15L, 33R CLSD. HAZD WX INFO FOR IAH AREA AVBL FM FSS. BIRD ACTIVITY VICINITY ARPT. CRANES ARE DOWN. TWY SA CLSD BTN TWY, SF AND TWY SK , TWY SB CLSD BTN TWY, SF AND TWY SK , , TWY WB CLSD BTN TWY, WG AND TWY WH . TWY EA CLSD. NOTAM ATIS IN USE ON FREQUENCY 126.225. ...ADVS YOU HAVE INFO U.\n[Departure ATIS] KIAH DEP ATIS D 0453Z IAH ATIS INFO D 0453Z. 19003KT 10SM CLR 25/24 A2963 (TWO NINER SIX THREE). ARRIVALS EXPECT ILS OR RNAV Y RY 26L. DEPG RY 15L. NOTICE TO AIRMEN. UAL RAMP PROCEDURES TERMINATED PUSH BACK AT PILOTS DISCRETION. RY 26R, 8L CLSD. BIRD ACTIVITY VICINITY ARPT. TWY SA CLSD BTN TWY, SG AND TWY SK , TWY SB CLSD BTN TWY, SG AND TWY SK , , TWY SF CLSD BTN TWY, NB AND TWY RB . TWY SG CLSD, TWY EA CLSD. NOTAM ATIS IN USE ON FREQUENCY 126.225. ...ADVS YOU HAVE INFO D.",
    "KORD": "[Arrival ATIS] KORD ARR ATIS X 1051Z ORD ATIS INFO X 1051Z. 19008KT 10SM FEW180 SCT250 22/21 A3001 (THREE ZERO ZERO ONE) RMK AO2 SLP157 T02220211. ARR EXP VECTORS ILS RWY 27C APCH, ILS RWY 28C APCH. SIMUL APCHS IN USE. LAND AND HOLD SHORT OPERATIONS ARE IN EFFECT. RWY 27C ARR PLAN TO H/S OF TWY V V, 9 THSD 7 HND 25 FT AVBL, RWY 28C ARR PLAN TO H/S OF TWY Z, 9 THSD 6 HND TEN FT AVBL. DEPS EXP RWYS 22L 27L FROM T T 9960 FT AVL. RWY 4L, 22R CLSD. RWY 22R LOC OTS, RWY 9L IM OTS, RWY 9C IM OTS, RWY 10L IM OTS, RWY 10R IM OTS, RWY 27R IM OTS, RWY 28L IM OTS, RWY 28R IM OTS, RWY 9L PAPI OTS, RWY 27R PAPI OTS. PILOTS USE CTN FOR BIRD ACTIVITY IN THE VICINITY OF THE ARPT. HAZD WX INFO FOR ORD AREA AVBL ON FSS. USE CTN FOR PERSONNEL AND EQUIP AT NUMEROUS SITES ON THE FIELD. READBACK ALL RWY HOLD SHORT INSTRUCTIONS. WHEN READY TO TAXI CONTACT GND METERING ON FREQ 121.67. ...ADVS YOU HAVE INFO X.\n[Departure ATIS] KORD DEP ATIS A 0151Z ORD ATIS INFO A 0151Z. 21009KT 10SM TS SCT050CB BKN150 BKN250 31/22 A2999 (TWO NINER NINER NINER) RMK AO2 TSE0059B11 SLP150 CONS LTGICCG W-N TS W-N MOV NE CB DSNT SW T03110222. ARR EXP VECTORS ILS RWY 27C APCH, ILS RWY 27R APCH, ILS RWY 28C APCH. SIMUL APCHS IN USE. LAND AND HOLD SHORT OPERATIONS ARE IN EFFECT. RWY 27C ARR PLAN TO H/S OF TWY V V, 9 THSD 7 HND 25 FT AVBL, RWY 28C ARR PLAN TO H/S OF TWY Z, 9 THSD 6 HND TEN FT AVBL. DEPS EXP RWYS 22L 27L FROM T T 9960 FT AVL. RWY 4L, 22R CLSD. RWY 22R LOC OTS, RWY 9L IM OTS, RWY 9C IM OTS, RWY 10L IM OTS, RWY 10R IM OTS, RWY 27R IM OTS, RWY 28L IM OTS, RWY 28R IM OTS, RWY 9L PAPI OTS, RWY 27R PAPI OTS. PILOTS USE CTN FOR BIRD ACTIVITY IN THE VICINITY OF THE ARPT. HAZD WX INFO FOR ORD AREA AVBL ON FSS. USE CTN FOR PERSONNEL AND EQUIP AT NUMEROUS SITES ON THE FIELD. READBACK ALL RWY HOLD SHORT INSTRUCTIONS. WHEN READY TO TAXI CONTACT GND METERING ON FREQ 121.67. ...ADVS YOU HAVE INFO A.",
    "KJFK": "[Arrival ATIS] KJFK ARR ATIS B 1051Z JFK ATIS INFO B 1051Z. 33008KT 10SM CLR 32/20 A2997 (TWO NINER NINER SEVEN). APPROACH IN USE ILS RY 31R, VISUAL APCH RY 31L. DEPG RY 31L. CRI OTS. RWY 22L/4R INNER MARKER OTS. FLASHING LIGHT ON RIGHT SIDE OF 22L TOUCHDOWN ZONE. NUM CRANES OPERATING AT JFK. BIRD ACTIVITY VICINITY ARPT. READBACK ALL RWY ASSIGNMENTS AND HOLD SHORT INSTRUCTIONS. ...ADVS YOU HAVE INFO B.\n[Departure ATIS] KJFK DEP ATIS Z 0851Z JFK ATIS INFO Z 0851Z. 36010KT 10SM CLR 31/19 A2995 (TWO NINER NINER FIVE). APPROACH IN USE ILS RY 31R, VISUAL APCH RY 31L. DEPG RY 31L. CRI OTS. RWY 22L/4R INNER MARKER OTS. FLASHING LIGHT ON RIGHT SIDE OF 22L TOUCHDOWN ZONE. NUM CRANES OPERATING AT JFK. BIRD ACTIVITY VICINITY ARPT. READBACK ALL RWY ASSIGNMENTS AND HOLD SHORT INSTRUCTIONS. ...ADVS YOU HAVE INFO Z.",
    "KIND": "[Arrival ATIS] KIND ARR ATIS E 0254Z - KIND ATIS INFO E 0254Z. 21005KT 10SM CLR 28/23 A3010 (THREE ZERO ONE ZERO) RMK AO2 SLP183 T02830233 53007. PARL ILS RWY 23R AND 23L APPROACHES IN USE. CROSS RUNWAY OPERATIONS MAY BE IN EFFECT. NOTICE TO AIRMEN. RWY 32 GS OTS. TWY, P BTN TWY, H AND TWY B CLSD. P PAD CLSD. ILS RUNWAY 5R AND RUNWAY 5L INNER MARKER UNSERVICEABLE. RUNWAY 32 PAPI OTS. RUNWAY 32 TOUCHDOWN RVR OTS. RUNWAY 14 ROLLOUT RVR OTS. ...ADVS YOU HAVE INFO E.\n[Departure ATIS] KIND DEP ATIS H 1854Z IND ATIS INFO H 1854Z. 26009G19KT 10SM SCT036 BKN041 BKN170 23/16 A2981 (TWO NINER EIGHT ONE) RMK AO2 SLP088 T02280156. PARL ILS RWY 23R AND 23L APPROACHES IN USE. CROSS RU",
    "KDTW": "[Arrival ATIS] KDTW ARR ATIS G 0953Z DTW ARR INFO G 0953Z. 23006KT 8SM FEW065 BKN140 OVC220 26/20 A3005 (THREE ZERO ZERO FIVE). SIMUL VISUAL RY 21L, RY 22R USE Z LOC FREQ 111.95 APCH IN USE. NOTICE TO AIRMEN. RWY 21R, 3L CLSD, RWY 27L, 9R CLSD, RWY 27R, 9L CLSD. RY 22L ALS OTS, RY 22R PAPI LGTS OTS. HAZD WX INFO . CNVTV SIG 68 C, FOR MI , AND OH AVBL ON FLIGHT SERVICE FREQS. PILOTS USE CTN FOR BIRD ACTIVITY. DEPARTURE ATIS 118.125. ...ADVS YOU HAVE INFO G.\n[Departure ATIS] KDTW DEP ATIS Q 2253Z - KDTW DEP INFO Q 2253Z. 21009KT 10SM FEW050 FEW250 33/24 A2991 (TWO NINER NINER ONE). DEPG RWY 21R, RWY 22L ;. NOTICE TO AIRMEN. RWY 27L, 9R CLSD, RWY 27R, 9L CLSD. PILOTS USE CTN FOR BIRD ACTIVITY. ...ADVS YOU HAVE INFO Q.",
    "KMSP": "[Arrival ATIS] KMSP ARR ATIS C 1053Z MSP ARR INFO C 1053Z. 14003KT 10SM -RA FEW095 OVC110 21/20 A2995 (TWO NINER NINER FIVE) RMK AO2 RAB39 SLP137 P0000 T02110200. SIMULTANEOUS DEPENDENT, ILS RWY 12R APCH IN USE, LOCALIZER RWY 12L APCH IN USE. FINAL APCH, OVER NOISE SENSITIVE AREA. NOTICE TO AIRMEN. RWYS 4, 22 CLSD. TWY R7. R8. R9. R10. CLOSED, TWY R BETWEEN R6 AND R10 CLOSED. GS RWY 12L OTS, RWYS 12R, 12L, INNER MARKER OTS.. HAZD WX INFO FOR MSP AREA AVBL FM FSS. CTN, BIRDS NEAR MSP. READ BACK HS AND ALT. ALL ACFT TAXI WITH TRANSPONDER AND ALTITUDE ENCODING ON. ...ADVS YOU HAVE INFO C.\n[Departure ATIS] KMSP DEP ATIS Q 1153Z - KMSP DEP INFO Q 1153Z. 21006KT 10SM FEW045 SCT055 OVC110 22/20 A3000 (THREE ZERO ZERO ZERO) RMK AO2 LTG DSNT SE AND S RAE1054 SLP153 P0000 60000 T02220200 10233 20211 53018. DEPARTING RWY 12L, RWY 12R, RWY 17. NOTICE TO AIRMEN. RWYS 4, 22 CLSD. TWY R7. R8. R9. R10. CLOSED, TWY R BETWEEN R6 AND R10 CLOSED. ALL ACFT CTC METERING ON ONE THREE THREE POINT FIVE SEVEN WHEN READY TO PUSHBACK OR TAXI. HAZD WX INFO FOR MSP AREA AVBL FM FSS. CTN, BIRDS NEAR MSP. READ BACK HS AND ALT. ALL ACFT TAXI WITH TRANSPONDER AND ALTITUDE ENCODING ON. ...ADVS YOU HAVE INFO Q.",
    "CYEG": "[Arrival ATIS] CYEG ARR ATIS F 1200Z CYEG ARR ATIS F 1200Z 24002KT 4SM BR SCT008 SCT090 CIG BKN110 13/13 A2982 APCH RNAV Z OR Y RWY 02, INFORM ARRL OF REQ APCH ON INITIAL CTC. LDG AND DEP RWY 02. TWY B1 CLSD. SIMUL APPROACHES MAY BE IN EFCT. INFORM CYEG ATC INFO F\n[Departure ATIS] CYEG DEP ATIS F 1200Z CYEG ARR ATIS F 1200Z 24002KT 4SM BR SCT008 SCT090 CIG BKN110 13/13 A2982 APCH RNAV Z OR Y RWY 02, INFORM ARRL OF REQ APCH ON INITIAL CTC. LDG AND DEP RWY 02. TWY B1 CLSD. SIMUL APPROACHES MAY BE IN EFCT. INFORM CYEG ATC INFO F",
    "EHAM": "[Arrival ATIS] EHAM ARR ATIS H 1054Z EHAM ARRIVAL INFO H. DEMAND. MAIN LANDING RWY 36 R. SECONDARY LANDING RWY 36 C. TRANSITION LEVEL 040. WIND 290 DEG, 11 KT, VRB BTN 240 AND 340 DEG, 22 KT MAX, 4 KT MNM. WIND SECONDARY RUNWAY 300 DEG, 14 KT, VRB BTN 230 AND 320 DEG, 16 KT MAX, 5 KT MNM. VIS 10 KM OR MORE. CLD FEW 3400 FT. T 19. DP 10. QNH 1027 HPA. NOSIG. OPERATIONAL REPORT. INDEPENDENT PARALLEL APPROACHES IN PROGRESS. ILS RWY 36 C DOWNGRADED CLASSIFICATION I/C/ 1 SUPPORTS CAT 1. CONTACT APCH WITH CALLSIGN ONLY. END OF INFO H\n[Departure ATIS] EHAM DEP ATIS Z 0951Z EHAM DEPARTURE INFO Z. DEMAND. MAIN DEPARTURE RWY 36 L. SECONDARY DEPARTURE RWY 36 C. MAIN LANDING RWY 36 R. WIND 290 DEG, 10 KT, VRB BTN 220 AND 320 DEG, 19 KT MAX, 5 KT MNM. WIND SECONDARY RUNWAY 270 DEG, 11 KT, VRB BTN 240 AND 330 DEG, 17 KT MAX, 6 KT MNM. VIS 10 KM OR MORE. CLD FEW 3200 FT. T 19. DP 10. QNH 1027 HPA. OPERATIONAL REPORT. INDEPENDENT PARALLEL DEPARTURES IN PROGRESS CHECK CORRECT SID IN FMS. INFORM SCHIPHOL DEL BY VOICE IF UNABLE TO COMPLY WITH NADP 2. END OF INFO Z",
    "EBBR": "[Arrival ATIS] EBBR ARR ATIS I 0920Z EBBR NAT, EXP VECT FOR ILS APP ARR RWY25L RSCD AT 0908 RWY25L DRY. DEP RWY25R TRL 055 TWY C6 CLSD. ILS RWY 25R U/S. RNP RWY 25R AT ATC DISCRETION 270/5KT VRB BTN 240 AND 330 MNM3 MAX11 VIS ABV 10KM SCT4200FT T21 DP10 QNH 1028HPA NOSIG CFM ARR I\n[Departure ATIS] EBBR DEP ATIS K 1050Z EBBR NAT, DEP RWY25R RSCD AT 0630 RWY25R DRY. ARR RWY25L TRL 055 TWY B3 CLSD 260/9KT VRB BTN 250 AND 310 MNM5 MAX15 VIS ABV 10KM SCT4900FT T21 DP10 QNH 1028HPA NOSIG CFM DEP K",
    "EDDF": "[Arrival ATIS] EDDF ARR ATIS Y 0720Z -ARR-ATIS EDDF Y METAR 180720 -EXPECT INDEPENDENT PARALLEL ILS Z APCH RWY 07L OR ILS APCH RWY 07R -RWY 07L 07R -GLS APCH ON REQ , FLOCK OF BIRDS OBSERVED IN THE VCY OF RWYS -TRL 60 - -16003KT 110V250 -CAVOK - - -T25 DP17 -QNH1021 - -TREND NOSIG\n[Departure ATIS] EDDF DEP ATIS I 0850Z DEP-ATIS EDDF I METAR 030850 RWY 25C 18 TRL 60 31009KT 260V020 RWY18 31007KT CAVOK T21 DP08 QNH1027 TREND NOSIG END OF ATIS I",
    "EDDL": "[Arrival ATIS] EDDL ARR ATIS T 0420Z -ATIS EDDL T METAR 270420 -EXPECT VECTORS ILS APPROACH RWY 23R -RWY 23L 23R -K1 CLOSED? -TRL 60 -EXPECT INTENSE BIRD ACTIVITY IN THE VICINITY OF RWY SYSTEM -25003KT -CAVOK - - -T24 DP21 -QNH1016 - -TREND NOSIG\n[Departure ATIS] EDDL DEP ATIS R EDDL ARR/DEP DATIS RPT -ATIS EDDL R METAR 020550 -EXPECT VECTORS ILS APPROACH -RWY 23L -TWY L8 CLOSED BETWEEN TWY M AND RWY 23L -TRL 60 - -23010KT -CAVOK - - -T19 DP13 -QNH1020 - -TREND NOSIG",
    "EDDK": "[Arrival ATIS] EDDK ARR ATIS S 0620Z ATIS EDDK S METAR 030620 EXPECT ILS APCH OR RNP APCH RWY 31R 06 RWY COND RWY 31R AT TIME 0020 RWYCC 6 RWY 06 AT TIME 0020 RWYCC 6 TRL 60 RWY 13R AND RWY 31L CLOSED FOR DEPARTURE AND LANDING: TAXIING BTN THR RWY 13R AND INTERSECTION RWY 24 POSSIBLE : 32001KT CAVOK T17 DP12 QNH1027 TREND NOSIG\n[Departure ATIS] EDDK DEP ATIS Q EDDK ARR/DEP DATIS RPT -ATIS EDDK Q METAR 291920 -EXPECT ILS APCH -RWY 31R 06 -RWY COND RWY 31R AT TIME 1830 RWYCC 6 DEPOSIT TOTAL RWY DRY RWY 06 AT TIME 1830 RWYCC 6 DEPOSIT TOTAL RWY DRY -TRL 60 -RWY 13R AND RWY 31L CLOSED FOR DEPARTURE AND LANDING: TAXIING BTN THR RWY 13R AND INTERSECTION RWY 24 POSSIBLE : -04003KT -CAVOK - - -T24 DP13 -QNH1024 - -TREND NOSIG",
    "EBLG": "[Arrival ATIS] EBLG ATIS D 1050Z EBLG INFO, EXP RNAV TO ILS APP ARR RWY22L DEP RWY22L RWY 22L TDZ WET, MID DRY, END DRY, RWYCC 566. TRL 055 TWY A4 CLSD. ADZ ON GND FREQ IF UNABLE S4 250/7KT VRB BTN 230 AND 360 VIS ABV 10KM SCT4500FT T20 DP10 QNH 1028HPA NOSIG CFM ATIS D",
    "LSZH": "[Arrival ATIS] LSZH ARR ATIS G 0850Z ARRIVALS, EXP ILS APCH, RWY 14. TRL 70. DEP RWY 28. WIND 010 DEG, 3 KT, VRB BTN 340 AND 050 DEG. VIS 10 KM OR MORE, TDZ 10 KM OR MORE. CLD BKN 3400 FT. T 22. DP 14. QNH 1026. NOSIG.\n[Departure ATIS] LSZH DEP ATIS U 0850Z DEP RWY 28. TRL 70. ARRIVALS, EXP ILS APCH, RWY 14. TMA S 1 IS NOT ACT. TMA S 2 AND S 3 ARE NOT ACT. WIND 020 DEG, 5 KT, VRB BTN 340 AND 050 DEG. VIS 10 KM OR MORE. CLD BKN 3400 FT. T 22. DP 14. QNH 1026. NOSIG.",
    "LIMC": "[Arrival ATIS] LIMC ARR ATIS X 0720Z LIMC ARR X 0720Z I.L.S. ZULU RWY IN USE 35R TL 70 TAXIWAY ECHO WHISKY CLOSED... WIND TDZ 060/3KT VRB BTN 030/AND 120/ CAVOK T27 DP18 QNH 1021HPA QFE 0996HPA\n[Departure ATIS] LIMC DEP ATIS B 0923Z LIMC DEP B 0923Z RWY IN USE 35L TL 70 WIND END VRB2KT CAVOK T31 DP10 QNH 1019HPA QFE 0994HPA DATALINK CLEARANCE AVAILABLE.... CONTACT 1 3 1 8 8 0 TO BE RELEASED BY THE AIRPORT OPERATOR ...",
    "LIRF": "[Arrival ATIS] LIRF ARR ATIS I 0853Z LIRF ARR I 0853Z RWY 16L ILS W RWY 16R ILS Z RWY IN USE 16L 16R TL 70 DEPENDENT PARL ILS APCH INPR RWY IN USE 16R OR 16L ASSIGNED BY ROME RADAR WIND RWY 16L TDZ 230/6KT VRB BTN 210/AND 290/ RWY 16R TDZ 260/6KT VRB BTN 230/AND 290/ CAVOK T31 DP17 QNH 1014HPA\n[Departure ATIS] LIRF DEP ATIS G 0825Z LIRF DEP G 0825Z RWY IN USE 25 TL 70 RWYS IN USE FOR ARR 16L AND 16R WIND END VRB6KT CAVOK T30 DP17 QNH 1014HPA REA IS SENT AUTOMATICALLY ONCE RLSD BY RAMP WHEN READY CONTACT FIUME RAMP 121.725",
    "EINN": "[Arrival ATIS] EINN ARR ATIS R 0700Z EXPECT I L S CATEGORY 1 LDG RWY24 RSCD wet TKOF RWY24 RSCD wet TRL FL065 16009KT 9999 FEW007 BKN029 OVC140 15/14 QNH Q1009 TREND NOSIG RUNWAY 24 SURFACE CONDITION CODE 5 5 5 ISSUED AT 0 7 1 1. ALL PARTS. WET. 100 PERCENT ADVISE AT FIRST CONTACT YOU HAVE ATIS INFO R",
    "EGLL": "[Arrival ATIS] EGLL ARR ATIS O 0720Z LANDING RWY 27R TRANSITION-LEVEL: FL 70 IF STAND GUIDANCE IS OFF OR FAILS, REMAIN ON THE TAXIWAY CENTRELINE AND ADVISE ATC AUTO 20010KT 160V240 9999 -RA OVC010 18/16 Q1018 ACKNOWLEDGE RECEIPT OF INFORMATION O\n[Departure ATIS] EGLL DEP ATIS L 0850Z DEPARTURE RWY 27L PILOTS THAT ARE IN RECEIPT OF DATALINK CLEARANCES ARE REMINDED THEY MUST CONTACT DELIVERY ON 121.980 WHEN READY FOR START DET VOR OOS RUNWAY 27R REDUCED DECLARED DISTANCES WITH TAKE OFF RUN AVAILABLE 3362METRES AND LANDING DISTANCE AVAILABLE 3362METRES AUTO 35006KT 260V030 9999 NCD 19/09 Q1030 ACKNOWLEDGE RECEIPT OF INFORMATION L AND REPORT AIRCRAFT TYPE AND CURRENT QNH ON FIRST CONTACT WITH HEATHROW",
    "EPWA": "[Arrival ATIS] EPWA ARR ATIS B 0231Z EPWA ARR B. TIME 0230. EXP U ARR ILS Z APCH FOR RWY 33. TRANSITION LEVEL 80. WIND CALM. CAVOK. T 18. DP 15. QNH 1022. NOSIG. CAUTION. BIRD ACT. END OF EPWA ARR B\n[Departure ATIS] EPWA DEP ATIS Y 1437Z EPWA DEP Y. TIME 1435. DEP RWY 29. ARR RWY 33, EXP U ARR ILS Z. REPORT READY FOR STARTUP ON DELIVERY 121 DECIMAL 605. TRANSITION LEVEL 80. WIND 360 DEG, 8 KT, VRB BTN 330 AND 120 DEG. CAVOK. T 31. DP 16. QNH 1019. NOSIG. CAUTION. BIRD ACT. END OF EPWA DEP Y",
    "EFHK": "[Arrival ATIS] EFHK ARR ATIS C 0950Z EXPECT ILS APCH ARR RWY 15 RUNWAY 15 CONDITION REPORT AT 0928 UTC RUNWAY CONDITION CODES 5 , 5 , 5 CONTAMINANTS ALL PARTS 100 PERCENT WET TRL 65 WIND 140 DEG 9 KT VRB BTN 100 AND 160 DEG VIS 10KM FEW 800 FT. BKN 1000 FT. FEW CB 3000 FT T 18 DP 15 QNH 1004 TEMPO MOD SHRA CLD BKN 800 FT. FEW CB 3000 FT. ACK INFO C\n[Departure ATIS] EFHK DEP ATIS U 1550Z DEP RWYS 22R AND 22L RUNWAY 22R CONDITION REPORT AT 1252 UTC RUNWAY CONDITION CODES 6 , 6 , 6 CONTAMINANTS ALL PARTS DRY RUNWAY 22L CONDITION REPORT AT 1307 UTC RUNWAY CONDITION CODES 6 , 6 , 6 CONTAMINANTS ALL PARTS DRY WIND 110 DEG 8 KT CAVOK T 22 DP 10 QNH 1016 NOSIG ACK INFO U",
    "LTAC": "[Arrival ATIS] LTAC ARR ATIS J 0720Z EXP ILS V APCH 03C DEP RWY 03L RWY 03C WIND VRB 04 KT RWY 03L WIND VRB 04 KT TRL 110 VIS 9999 FEW04000 FT SCT10000 FT T 26 DP 12 QNH 1015 NOSIG FOR DELIVERY CTC 121.9. FOR DELIVERY FIRST USE DIGITAL DEP CLR. CTN BIRD HAZARD OVR AERODROME. APCH FREQUENCY 129.050. TAXIWAY ECHO 1 IS CLOSED. INDEPENDENT PARL DEPS INPR. RUBBER REMOVAL WORKS INPR. END OF ATIS J",
    "UBBB": "[Arrival ATIS] UBBB ARR ATIS Z 0700Z ATIS Z EXP ILS/ LDG 17 DEP 17 IN USE RWY 17 CLEAR DRY 70 TLVL 110 WIND WIND RWY 17 190 8 KT SPD MAX 12 MIN 4 VIS 8 KM NSC T 29 / DP 15 QNH 1015 HPA TREND TREND NOSIG RWY 16 CLSD ONMAINT MODERATE BIRDS ACT IN VICINITY OF AP END OF ATIS Z\n[Departure ATIS] UBBB DEP ATIS G 0830Z ATIS G EXP ILS/ LDG 16 17 DEP 16 17 IN USE RWY 16 CLEAR DRY 70 RWY 17 CLEAR DRY 70 TLVL 110 WIND WIND RWY 16 180 12 KT SPD MAX 16 MIN 10 WIND RWY 17 180 12 KT SPD MAX 16 MIN 10 VIS CAVOK T 30 / DP 18 QNH 1009 HPA TREND TREND NOSIG MODERATE BIRDS ACT IN VICINITY OF AP END OF ATIS G",
    "ZWWW": "[Arrival ATIS] ZWWW ARR ATIS U 0630Z EXP ILSDME Z APCH LDG RWY 26R TA 3000 WIND 020/3MPS VRB BTN 340/ AND 050/ VIS 9999M CLD FEW CB 1200M /FEW 1200M T 30 /DP 12 QNH 1011 HPA ADZ YOU HAVE INFO U.\n[Departure ATIS] ZWWW DEP ATIS N 0430Z DEP RWY 26L TA 3000 WIND 010/6MPS VIS 9999M CLD FEW 990M T 28 /DP 14 QNH 1013 HPA ADZ YOU HAVE INFO N.",
    "ZLXY": "[Arrival ATIS] ZLXY ARR ATIS Y 0710Z EXP ILS APCH LDG RWY 05L & 06R WIND 090/3MPS VIS 9999M -RA CLD FEW 480M /SCT 900M /OVC 1800M T 21 /DP 19 QNH 1008 HPA RUNWAY 06R SURFACE CONDITION CODE 555 ADZ YOU HAVE INFO Y.\n[Departure ATIS] ZLXY DEP ATIS U 0400Z DEP RWY 05L & 06L WIND VRB/1MPS VIS 9999M CLD FEW 450M /SCT 900M /OVC 1800M T 23 /DP 19 QNH 1008 HPA ADZ YOU HAVE INFO U.",
    "ZBAA": "[Arrival ATIS] ZBAA ARR ATIS G 0700Z EXP ILS APCH INDEPENDENT PARL INSTR APCH LDG RWY 36L & 01 WIND 100 DEG 2 MPS 060V150 DEG VIS 6000 CLD FEW 900M T 28 /DP 23 QNH 1005 HPA ADZ YOU HAVE INFO G.\n[Departure ATIS] ZBAA DEP ATIS G 0700Z DEP RWY 36L & 36R & 01 WIND 100 DEG 2 MPS 060V150 DEG VIS 6000 CLD FEW 900M T 28 /DP 23 QNH 1005 HPA RWY INDEPENDENT PARALLEL DEP ADZ YOU HAVE INFO G.",
    "ZBHH": "[Arrival ATIS] ZBHH ARR ATIS S 0700Z EXP ILSDME APCH LDG RWY 26 TA 3000 /TRL 3600 WIND 210/5MPS VRB BTN 180/ AND 240/ VIS 9999M CLD SCT 1200M T 30 /DP 16 QNH 1007 HPA ADZ YOU HAVE INFO S.\n[Departure ATIS] ZBHH DEP ATIS K 2300Z DEP RWY 26 TA 3000 /TRL 3600 WIND 060/3MPS VRB BTN 010/ AND 080/ CAVOK T 21 /DP 15 QNH 1010 HPA ADZ YOU HAVE INFO K.",
    "ZSQD": "[Arrival ATIS] ZSQD ARR ATIS Q 0700Z EXP ILSDME APCH LDG RWY 17 TA 3000 /TRL 3600 WIND 150/6MPS CAVOK T 28 /DP 19 QNH 1007 HPA SEGREGATED OPERATION VISUAL APPROACH OPERATION IN PROGRESS. RUNWAY 17,IF MISSED APPROACH,EXPECT FOLLOW THE STANDARD MISSED APPROACH PROCEDURE,CLIMB TO 900M ON QNH OR BY ATC CAUTION MAYBE THERE IS A FLOCK OF BIRDS IN THE VICINITY OF AIRPORT ADZ YOU HAVE INFO Q.\n[Departure ATIS] ZSQD DEP ATIS F 2200Z DEP RWY 16 TA 3000 /TRL 3600 WIND 160/4MPS VIS 9999M CLD SCT 270M T 23 /DP 22 QNH 1009 HPA VISUAL APPROACH OPERATION IN PROGRESS. RUNWAY 16,IF MISSED APPROACH,EXPECT FOLLOW THE STANDARD MISSED APPROACH PROCEDURE,CLIMB TO 600M ON QNH OR BY ATC CAUTION MAYBE THERE IS A FLOCK OF BIRDS IN THE VICINITY OF AIRPORT ADZ YOU HAVE INFO F."
  },
  "windtemp_alaska": "\n000\nFBAK31 KWNO 030801\nFD1AK1\nDATA BASED ON 030600Z    \nVALID 031200Z   FOR USE 0800-1500Z. TEMPS NEG ABV 24000\n\nFT  3000    6000    9000   12000   18000   24000  30000  34000  39000\nADK 9900 1806+05 2309+02 2514-02 2625-15 2631-27 274542 274952 265159\nADQ 0212 0409+00 0308-05 0206-09 3309-20 3315-33 331748 321750 301643\nAKN 2408 2206-01 2507-04 2707-09 2913-20 2819-33 271749 282151 281944\nANC 2205 9900+02 0305-04 0505-10 0507-22 0408-35 331449 321051 990042\nANN 2113 2015+00 2116-05 2418-09 2526-21 2637-30 264545 264749 263545\nBET 2010 2110-01 2012-05 1914-11 1620-23 1628-35 153149 201344 271142\nBRW 3112 3112-02 3112-06 3012-11 3415-20 3517-32 351546 361450 011144\nBTI 3108 3212-01 3416-05 3516-10 3407-19 2009-30 162548 162353 990043\nBTT 0513 9900+04 3405-03 3506-10 9900-22 9900-35 161149 130749 080744\nCDB 3022 2929+03 2830-02 2831-06 2944-18 2853-30 286346 286454 284650\nCZF 2906 2505-02 1206-06 1213-12 1131-25 1147-37 113345 101440 350540\nEHM 2414 2515+00 2415-06 2519-11 2436-22 2547-34 266247 264346 272243\nFAI 0109 3506+05 3107-03 3308-10 3306-23 9900-34 131350 101051 990043\nFYU 1205 3208+03 3315-03 3316-09 3515-22 0808-32 133048 132153 121143\nGAL 0205 9900+04 2609-04 2610-11 0505-22 0505-36 030650 040649 020544\nGKN 2012 3209+04 3612-04 3610-11 9900-23 9900-36 091150 990049 990042\nHOM 2205 9900+01 0808-05 1011-10 0505-22 0108-34 340949 311251 290943\nJNU 2007 2115-03 2314-05 2313-10 2010-22 2612-34 272947 272448 231541\nLUR 0217 3613+00 3311-04 3311-09 0219-19 0228-30 024346 024452 032548\nMCG 3606 9900+04 1206-04 9900-10 9900-22 9900-35 270550 990051 990043\nMDO 1108 0707-01 0510-05 0507-10 0209-22 3511-35 311348 311149 990042\nOME 0816 0819+02 0918-04 1016-11 0818-22 0719-33 081650 061949 041544\nORT      3315+02 3216-04 3315-10 3211-22 3505-34 081449 100751 990042\nOTZ 9900 0106+02 3606-04 0307-10 0308-21 0210-34 032149 042649 042145\nSNP 3215 3029-01 2939-05 2854-09 2867-20 2878-31 288146 287251 284045\nTKA 2011 3006+02 0506-03 9900-10 9900-23 0108-35 351350 360651 990042\nUNK 1206 1314+03 1413-04 1311-10 1011-22 0611-34 010650 050950 040743\nYAK 9900 2705-02 9900-06 9900-10 9900-23 9900-35 281548 280748 230941\nIKO 2818 2914+05 2818+01 2823-03 2733-16 2743-28 285044 286052 286056\nAFM 9900 9900+04 0805-04 9900-10 3609-21 0114-35 041549 051349 031345\n5AB 1308 9900+05 9900+02 2306-02 2411-15 2417-27 252943 254052 254257\n5AC 2414 2617+03 2522-02 2527-06 2642-17 2558-28 268841 760648 278153\n5AD 2816 2816-02 2615-07 2516-13 2419-22 2522-33 252544 263243 272941\n5AE 3221 3419+00 3423-04 3331-07 3238-19 3145-31 314847 314950 303346\n5AF 2112 2314+00 2518-04 2518-10 2417-22 2421-33 242446 242847 252143\n5AG 1010 0809+00 9900-06 1106-10 1207-22 9900-34 990047 260748 260942\n",
  "vaac_tokyo": [
    {
      "id": "20260703_30027000_0223",
      "year": "2026",
      "volcano": "Sheveluch",
      "psn": "N5639 E16122",
      "issued": "20260703",
      "text": "FVFE01 RJTD 031200\nVA ADVISORY\nDTG: 20260703/1200Z\nVAAC: TOKYO\nVOLCANO: SHEVELUCH 300270\nPSN: N5639 E16122\nAREA: RUSSIA\nSOURCE ELEV: 3283M AMSL\nADVISORY NR: 2026/223\nINFO SOURCE: HIMAWARI-9\nERUPTION DETAILS: VA CONTINUOUSLY OBS IN SATELLITE IMAGERY\nOBS VA DTG: 03/1120Z\nOBS VA CLD: SFC/FL280 N5854 E16050 - N4750 E16255 - N4527 E15839 - \nN4558 E15518 - N5149 E15440 - N5834 E15819 MOV NE 60KT\nFCST VA CLD +6 HR: 03/1720Z SFC/FL320 N4753 E16507 - N4400 E16129 - \nN4951 E15219 - N6034 E15734 - N6038 E15930 - N5847 E16220\nFCST VA CLD +12 HR: 03/2320Z SFC/FL330 N4755 E16822 - N4453 E16801 - \nN4602 E15702 - N4929 E15241 - N6418 E15433 - N5956 E16303\nFCST VA CLD +18 HR: 04/0520Z SFC/FL360 N4502 E15746 - N4943 E15207 - \nN6841 E15118 - N6303 E16042 - N4621 E17332\nRMK: NORTHERN PART OF VA OBSCURED BY MET CLOUD.\nNXT ADVISORY: 20260703/1800Z=",
      "img_url": "https://ds.data.jma.go.jp/svd/vaac/data/VAGFN/2026/Images/20260703_30027000_0223_QH21_01.png",
      "sat_img_url": "https://ds.data.jma.go.jp/svd/vaac/data/Sat/2026/Images/30027000/09-ir/20260703_1120_202607031200_ir.png",
      "text_url": "https://ds.data.jma.go.jp/svd/vaac/data/TextData/2026/20260703_30027000_0223_Text.html"
    },
    {
      "id": "20260702_27303000_0714",
      "year": "2026",
      "volcano": "Mayon",
      "psn": "N1315 E12341",
      "issued": "20260702",
      "text": "FVFE01 RJTD 021550\nVA ADVISORY\nDTG: 20260702/1550Z\nVAAC: TOKYO\nVOLCANO: MAYON 273030\nPSN: N1315 E12341\nAREA: PHILIPPINES\nSOURCE ELEV: 2462M AMSL\nADVISORY NR: 2026/714\nINFO SOURCE: HIMAWARI-9 PHIVOLCS\nERUPTION DETAILS: ERUPTION AT 20260702/1535Z FL090 EXTD WSW REPORTED\nOBS VA DTG: 02/1530Z\nOBS VA CLD: VA NOT IDENTIFIABLE FM SATELLITE DATA WIND FL090 100/11KT\nFCST VA CLD +6 HR: NOT AVBL\nFCST VA CLD +12 HR: NOT AVBL\nFCST VA CLD +18 HR: NOT AVBL\nRMK: WE WILL ISSUE FURTHER ADVISORY IF VA IS DETECTED IN SATELLITE \nIMAGERY.\nNXT ADVISORY: NO FURTHER ADVISORIES=",
      "img_url": "https://ds.data.jma.go.jp/svd/vaac/data/VAGFN/2026/Images/20260702_27303000_0714_QH21_01.png",
      "sat_img_url": null,
      "text_url": "https://ds.data.jma.go.jp/svd/vaac/data/TextData/2026/20260702_27303000_0714_Text.html"
    },
    {
      "id": "20260701_30006000_0001",
      "year": "2026",
      "volcano": "Mutnovsky",
      "psn": "N5227 E15812",
      "issued": "20260701",
      "text": "FVFE01 RJTD 012206\nVA ADVISORY\nDTG: 20260701/2206Z\nVAAC: TOKYO\nVOLCANO: MUTNOVSKY 300060\nPSN: N5227 E15812\nAREA: RUSSIA\nSOURCE ELEV: 2288M AMSL\nADVISORY NR: 2026/1\nINFO SOURCE: KVERT KBGS UHPP HIMAWARI-9\nERUPTION DETAILS: ERUPTION AT 20260701/2016Z FL170 EXTD W REPORTED\nOBS VA DTG: 01/2140Z\nOBS VA CLD: VA NOT IDENTIFIABLE FM SATELLITE DATA WIND FL170 120/8KT\nFCST VA CLD +6 HR: NOT AVBL\nFCST VA CLD +12 HR: NOT AVBL\nFCST VA CLD +18 HR: NOT AVBL\nRMK: WE WILL ISSUE FURTHER ADVISORY IF VA IS DETECTED IN SATELLITE \nIMAGERY.\nNXT ADVISORY: NO FURTHER ADVISORIES=",
      "img_url": "https://ds.data.jma.go.jp/svd/vaac/data/VAGFN/2026/Images/20260701_30006000_0001_QH21_01.png",
      "sat_img_url": null,
      "text_url": "https://ds.data.jma.go.jp/svd/vaac/data/TextData/2026/20260701_30006000_0001_Text.html"
    },
    {
      "id": "20260701_27202000_0225",
      "year": "2026",
      "volcano": "Kanlaon",
      "psn": "N1025 E12308",
      "issued": "20260701",
      "text": "FVFE01 RJTD 012010\nVA ADVISORY\nDTG: 20260701/2010Z\nVAAC: TOKYO\nVOLCANO: KANLAON 272020\nPSN: N1025 E12308\nAREA: PHILIPPINES\nSOURCE ELEV: 2435M AMSL\nADVISORY NR: 2026/225\nINFO SOURCE: HIMAWARI-9 PHIVOLCS\nERUPTION DETAILS: ERUPTION AT 20260701/1954Z FL090 EXTD NNW REPORTED\nOBS VA DTG: 01/1950Z\nOBS VA CLD: VA NOT IDENTIFIABLE FM SATELLITE DATA WIND FL090 120/5KT\nFCST VA CLD +6 HR: NOT AVBL\nFCST VA CLD +12 HR: NOT AVBL\nFCST VA CLD +18 HR: NOT AVBL\nRMK: WE WILL ISSUE FURTHER ADVISORY IF VA IS DETECTED IN SATELLITE \nIMAGERY.\nNXT ADVISORY: NO FURTHER ADVISORIES=",
      "img_url": "https://ds.data.jma.go.jp/svd/vaac/data/VAGFN/2026/Images/20260701_27202000_0225_QH21_01.png",
      "sat_img_url": null,
      "text_url": "https://ds.data.jma.go.jp/svd/vaac/data/TextData/2026/20260701_27202000_0225_Text.html"
    }
  ],
  "vaac_alaska": [
    {
      "text": "\n000\nFVAK21 PAWU 031214\nVAAAK1\nVA ADVISORY\n\nDTG: 20260703/1211Z\n\nVAAC: ANCHORAGE\n\nVOLCANO: SHEVELUCH 300270\n\nPSN: N5639 E16122\n\nAREA: KAMCHATKA PENINSULA\n\nSOURCE ELEV: 10771 FT AMSL\n\nADVISORY NR: 2026/167\n\nRMK: PLEASE SEE FVFE01 RJTD ISSUED BY VAAC TOKYO WHICH DESCRIBES\nCONDITIONS NEAR THE VAAC ANCHORAGE AREA OF RESPONSIBILITY...NS\n\n\n\n",
      "issued": "2026-07-03T12:14:00+00:00",
      "volcano": "Sheveluch",
      "psn": "N5639 E16122"
    }
  ]
}