{
  "updated_utc": "2026-07-14T21:29Z",
  "metar": {
    "RJAA": "METAR RJAA 141930Z AUTO 22003KT 200V260 9999 NSC 25/24 Q1005 NOSIG",
    "PANC": "METAR PANC 141953Z 33003KT 3SM RA BR OVC055 12/08 A2992 RMK AO2 SLP132 P0013 T01170083",
    "PAFA": "METAR PAFA 141953Z 08007KT 10SM SCT085 BKN150 OVC200 17/09 A2979 RMK AO2 SLP090 T01720089 $",
    "KSEA": "METAR KSEA 141953Z 01005KT 10SM FEW150 26/04 A3009 RMK AO2 SLP194 T02610039 $",
    "ZSPD": "METAR ZSPD 141930Z 20003MPS CAVOK 29/26 Q1003 NOSIG",
    "ZSSS": "METAR ZSSS 141930Z 20003MPS CAVOK 30/26 Q1003 NOSIG",
    "RJFR": "METAR RJFR 142000Z AUTO 22007KT 9999 FEW027 29/24 Q1005",
    "VHHH": "METAR VHHH 141930Z 15010KT 9999 -SHRA FEW015 SCT040 28/24 Q1005 NOSIG",
    "RCTP": "METAR RCTP 141930Z 15004KT 9999 FEW015 SCT100 27/25 Q1008 NOSIG RMK A2979",
    "ZGSZ": "METAR ZGSZ 142000Z 14005MPS 9999 SCT033 28/25 Q1004 BECMG AT2140 SHRA FEW026CB BKN033",
    "WSSS": "METAR WSSS 141930Z 12008KT 9999 SCT016 BKN300 29/25 Q1011 NOSIG",
    "WMKK": "METAR WMKK 141930Z 13006KT 060V180 9999 FEW030 28/24 Q1009 NOSIG",
    "WIDD": "METAR WIDD 141930Z 12003KT 9999 SCT017 28/26 Q1011 NOSIG",
    "VTBS": "METAR VTBS 141930Z 23004KT 9999 FEW020 29/23 Q1008 NOSIG",
    "VTBU": "METAR VTBU 141930Z 23004KT 9999 FEW020 SCT100 28/27 Q1009 NOSIG",
    "ROAH": "METAR ROAH 141930Z AUTO 22012KT 9999 NCD 27/25 Q1010",
    "VVDN": "METAR VVDN 141930Z 24003KT 220V290 9999 FEW020 SCT080 30/22 Q1004 NOSIG",
    "RCKH": "METAR RCKH 142000Z 18007KT 140V220 9999 -RA FEW008CB FEW014 SCT022 29/26 Q1009 NOSIG RMK CB NE A2982",
    "KLAX": "METAR KLAX 141953Z 25011KT 10SM FEW009 FEW025 SCT080 SCT160 24/18 A2997 RMK AO2 SLP147 T02390178 $",
    "KONT": "METAR KONT 141953Z 24006G15KT 10SM FEW120 34/16 A2995 RMK AO2 SLP122 T03440161 $",
    "KSFO": "METAR KSFO 141956Z COR 33008KT 10SM FEW065 FEW200 26/14 A2997 RMK AO2 SLP148 T02610144",
    "KOAK": "METAR KOAK 141953Z 29009KT 10SM FEW015 28/14 A2998 RMK AO2 SLP150 T02780144",
    "KMHR": "METAR KMHR 141935Z AUTO 21006KT 10SM CLR 36/10 A2993 RMK AO2 T03640101 $",
    "KDFW": "METAR KDFW 141953Z 12012G19KT 10SM SCT045TCU SCT070 SCT110 BKN250 33/19 A3004 RMK AO2 SLP161 CB DSNT S MOV W TCU ALQDS T03330194 $",
    "KIAH": "METAR KIAH 141953Z 15003KT 10SM FEW009 SCT080 OVC120 25/23 A3009 RMK AO2 SLP188 T02500233",
    "KORD": "METAR KORD 141951Z 11003KT 10SM FEW060 FEW300 34/19 A3012 RMK AO2 SLP194 T03440189",
    "KJFK": "METAR KJFK 141951Z 24019KT 10SM SCT250 BKN320 32/19 A2998 RMK AO2 PK WND 24026/1923 SLP150 FU BKN320 T03170194",
    "KRFD": "METAR KRFD 141954Z 23007KT 10SM FEW250 33/22 A3015 RMK AO2 SLP205 T03330217",
    "KIND": "METAR KIND 141954Z VRB06KT 10SM SCT055 SCT300 32/19 A3016 RMK AO2 SLP204 T03220189 $",
    "KDTW": "METAR KDTW 141953Z 23011G16KT 10SM FEW250 34/23 A3010 RMK AO2 SLP186 T03390228 $",
    "KMSP": "METAR KMSP 141953Z 22009G15KT 10SM CLR 33/20 A3013 RMK AO2 SLP195 T03330200",
    "CYEG": "METAR CYEG 142000Z 13012G18KT 20SM FEW042 FEW056 BKN250 24/14 A3020 RMK CU1SC1CI6 CU TR SC TR SLP231 DENSITY ALT 3700FT",
    "EHAM": "METAR EHAM 141955Z 04013KT 360V070 CAVOK 23/16 Q1021 NOSIG",
    "EBBR": "METAR EBBR 141950Z 05005KT CAVOK 24/12 Q1019 NOSIG",
    "EDDF": "METAR EDDF 141950Z AUTO 06008KT CAVOK 27/15 Q1017 NOSIG",
    "EDFH": "METAR EDFH 141950Z 07003KT 040V110 CAVOK 18/17 Q1019",
    "EDDL": "METAR EDDL 141950Z AUTO 03007KT CAVOK 26/13 Q1018 NOSIG",
    "EDDK": "METAR EDDK 141950Z AUTO 01005KT CAVOK 25/13 Q1018 NOSIG",
    "EBLG": "METAR EBLG 141950Z 02008KT CAVOK 25/12 Q1019 NOSIG",
    "LSZH": "METAR LSZH 141950Z VRB03KT CAVOK 23/18 Q1018 NOSIG",
    "LIMC": "METAR LIMC 141950Z 08005KT CAVOK 29/18 Q1015 NOSIG",
    "LIRF": "METAR LIRF 141950Z 10005KT CAVOK 27/22 Q1016 NOSIG",
    "EINN": "METAR EINN 141930Z 06011KT CAVOK 26/06 Q1021 NOSIG",
    "EGLL": "METAR EGLL 141950Z AUTO 06011KT 9999 NCD 26/11 Q1021",
    "EGSS": "METAR EGSS 141950Z AUTO 04012KT 9999 NCD 23/14 Q1022",
    "EPWA": "METAR EPWA 141930Z 34006KT CAVOK 22/13 Q1019 NOSIG",
    "UHPP": "METAR UHPP 141930Z 29002MPS 260V320 9999 FEW050 SCT110 19/14 Q1012 R34L/CLRD62 NOSIG RMK MT OBSC QFE755/1007",
    "EFHK": "METAR EFHK 141950Z VRB02KT CAVOK 16/14 Q1019 NOSIG",
    "LBBG": "METAR LBBG 141930Z AUTO 04003KT 9000 NCD 21/16 Q1015 NOSIG",
    "LTAC": "METAR LTAC 141950Z 04010KT CAVOK 19/10 Q1017 NOSIG RMK RWY21C 03007KT RWY03L 03009KT RWY21R 01006KT RWY03R 03009KT RWY21L 04006KT",
    "UBBB": "METAR UBBB 141930Z 33008KT CAVOK 26/22 Q1006 NOSIG",
    "UTAA": "METAR UTAA 142000Z 14004KT 110V180 9999 NSC 35/05 Q1006 R88/CLRD70 NOSIG",
    "UACC": "METAR UACC 141930Z 11005MPS CAVOK 27/12 Q1004 NOSIG RMK QFE722/0963",
    "UAAA": "METAR UAAA 141930Z 16003MPS 9999 SCT200 22/11 Q1009 NOSIG",
    "UZTT": "METAR UZTT 141930Z 06006KT CAVOK 29/13 Q1006 NOSIG",
    "ZWWW": "METAR ZWWW 141930Z 26004MPS CAVOK 28/09 Q1009 NOSIG",
    "ZLXY": "METAR ZLXY 142000Z 26003MPS CAVOK 24/20 Q1005 NOSIG",
    "ZBAA": "METAR ZBAA 141930Z 01002MPS CAVOK 24/23 Q0999 NOSIG",
    "ZBHH": "METAR ZBHH 142000Z 06002MPS 030V090 CAVOK 14/14 Q1010 NOSIG",
    "ZSQD": "METAR ZSQD 142000Z VRB01MPS 6000 NSC 22/22 Q1002 NOSIG",
    "ZMCK": "METAR ZMCK 141930Z VRB01MPS CAVOK 11/09 Q1011 NOSIG RMK QFE643.7 85",
    "UUEE": "METAR UUEE 141930Z 29003G09MPS 190V350 9999 SCT038CB 20/17 Q1011 R24L/CLRD62 R24C/CLRD62 NOSIG",
    "UUDD": "METAR UUDD 141930Z 33003MPS 9999 FEW035 20/16 Q1011 R13R/CLRD65 NOSIG",
    "ULLI": "METAR ULLI 141930Z 01003MPS 9999 BKN028 17/11 Q1018 R88/090065 NOSIG",
    "USSS": "METAR USSS 141930Z 09002MPS 9999 SCT024CB 17/17 Q1009 R08R/210060 R08L/210060 NOSIG RMK QFE737/0983",
    "UNNT": "METAR UNNT 141930Z 27001MPS CAVOK 13/11 Q1012 R07/CLRD// R34/CLRD// NOSIG RMK QFE749/0998",
    "UNKL": "METAR UNKL 141930Z 29001MPS CAVOK 14/12 Q1009 R29/CLRD// NOSIG RMK QFE731",
    "UIBB": "METAR UIBB 141930Z AUTO 29005MPS 9999 // ///064/// 16/12 Q1004 RMK QFE711/0948",
    "UEEE": "METAR UEEE 141930Z 16002MPS 9999 -SHRA BKN030CB 21/17 Q0995 R23/09//63 NOSIG RMK QFE737",
    "UHHH": "METAR UHHH 141930Z 17002MPS 130V220 8000 -SHRA SCT037CB 20/20 Q0996 R23L/290045 NOSIG RMK QFE741/0988",
    "UHSS": "METAR UHSS 141930Z 25002MPS 0350 0250S R19/2000D FG OVC002 20/20 Q1002 R19/CLRD70 NOSIG RMK QBB080 MT OBSC QFE750/1000"
  },
  "taf": {
    "RJAA": "TAF RJAA 141705Z 1418/1600 18006KT 9999 FEW030",
    "PANC": "TAF PANC 141741Z 1418/1524 02004KT P6SM -RA SCT035 OVC060 WS015/10035KT FM150000 14020G30KT P6SM VCSH OVC050 FM150400 16011KT 6SM -RA SCT025 BKN035 FM150900 18015G25KT P6SM -SHRA SCT015 BKN025",
    "PAFA": "TAF PAFA 141720Z 1418/1524 12004KT P6SM VCSH OVC060 TEMPO 1512/1513 P6SM -RA OVC050 FM151500 VRB03KT P6SM VCSH OVC030",
    "PAED": "TAF PAED 142100Z 1421/1603 32009KT 9000 -SHRA SCT045 OVC060 650706 530406 QNH2982INS BECMG 1505/1506 33009KT 8000 -SHRA SCT015 OVC020 620706 530406 QNH2979INS BECMG 1518/1519 21012G18KT 9999 VCSH SCT030 OVC045 620606 510003 QNH2986INS TX14/1500Z TN10/1513Z",
    "KSEA": "TAF KSEA 141720Z 1418/1524 34005KT P6SM SKC FM141900 31008KT P6SM SKC FM150700 36004KT P6SM BKN120 FM151500 31003KT P6SM FEW250",
    "ZSPD": "TAF ZSPD 141503Z 1418/1524 18004MPS 8000 SCT030 TX36/1506Z TN28/1421Z TN28/1521Z TEMPO 1505/1509 TSRA BKN008 SCT030CB",
    "ZSSS": "TAF ZSSS 141503Z 1418/1524 18004MPS 8000 SCT030 TX38/1506Z TN28/1421Z TN28/1521Z TEMPO 1506/1509 TSRA BKN011 SCT030CB",
    "RJFR": "TAF RJFR 141705Z 1418/1600 22010KT 9999 FEW020 SCT035 BECMG 1515/1518 27012KT",
    "VHHH": "TAF VHHH 142000Z 1421/1603 16010KT 9999 FEW015 SCT030 TX30/1506Z TN27/1422Z TN28/1522Z TEMPO 1421/1503 20020G35KT 1500 TSRA +SHRA FEW008CB SCT015 TEMPO 1503/1506 3000 SHRA FEW010CB SCT020 TEMPO 1503/1509 24010KT TEMPO 1521/1602 2500 TSRA SHRA FEW008CB SCT015",
    "RCTP": "TAF RCTP 141700Z 1418/1524 17005KT 9999 FEW015 BKN032 TEMPO 1502/1508 25010KT FEW012 FEW015CB BKN025 BECMG 1518/1520 20008KT",
    "ZGSZ": "TAF ZGSZ 141505Z 1418/1524 18006MPS 8000 BKN020 TX31/1506Z TN26/1422Z TN26/1522Z TEMPO 1421/1424 SHRA FEW020 FEW025CB BKN030 TEMPO 1500/1503 2000 +SHRA SCT015 FEW020CB BKN030 TEMPO 1504/1508 TSRA FEW020 FEW025CB BKN030",
    "WSSS": "TAF WSSS 141700Z 1418/1600 12004KT 9999 FEW015 SCT020",
    "WMKK": "TAF WMKK 141700Z 1418/1600 11006KT 9000 FEW030",
    "VTBS": "TAF VTBS 141700Z 1418/1524 20008KT 9999 FEW020 TEMPO 1510/1514 VRB15KT 4000 TSRA FEW018CB SCT030 BKN100",
    "VTBU": "TAF VTBU 141700Z 1418/1518 22006KT 9999 FEW020",
    "ROAH": "TAF AMD ROAH 142103Z 1421/1600 21008KT 9999 FEW008 SCT015 TEMPO 1421/1423 FEW005 BKN008 TEMPO 1515/1600 FEW005 BKN008",
    "VVDN": "TAF VVDN 141700Z 1418/1518 21008KT 9999 FEW020 SCT060 BECMG 1504/1505 02010KT TEMPO 1508/1512 TS SCT013 FEW015CB SCT060 BECMG 1513/1514 21008KT",
    "RCKH": "TAF RCKH 141700Z 1418/1524 17008KT 9999 FEW012 BKN032 TEMPO 1418/1424 12005KT 4000 SHRA FEW010 FEW012CB BKN017 TEMPO 1500/1506 4000 SHRA FEW008 FEW010CB BKN017 TEMPO 1506/1512 22013KT 3500 SHRA FEW008 FEW010CB BKN017 BECMG 1512/1514 13005KT",
    "KLAX": "TAF KLAX 142100Z 1421/1524 26012G18KT P6SM SCT250 FM150300 26010KT P6SM SCT250 FM150700 24005KT P6SM SCT250 FM151000 VRB03KT P6SM SCT006 FM151600 24006KT P6SM FEW006 SCT250 FM152000 26012KT P6SM SCT250",
    "KONT": "TAF KONT 141736Z 1418/1524 VRB04KT P6SM FEW180 FM142000 25012G22KT P6SM FEW180 FM150300 25007KT P6SM SKC FM150700 VRB04KT P6SM SKC",
    "KSFO": "TAF KSFO 142101Z 1421/1524 30015G25KT P6SM SKC FM150400 29014KT P6SM SKC FM150800 26009KT P6SM SKC FM151800 30012KT P6SM SKC FM152100 29015G25KT P6SM SKC",
    "KOAK": "TAF KOAK 141741Z 1418/1524 28007KT P6SM SKC FM142000 29012KT P6SM SKC FM150300 24007KT P6SM SKC FM152100 28013KT P6SM SKC",
    "KMHR": "TAF KMHR 141720Z 1418/1518 VRB05KT P6SM FEW250 FM142100 26008KT P6SM FEW250 FM150300 19008KT P6SM SKC",
    "KDFW": "TAF KDFW 142105Z 1421/1524 14015KT P6SM VCSH SCT040 FM150100 16007KT P6SM BKN100 FM151900 17009KT P6SM VCSH BKN050",
    "KIAH": "TAF KIAH 142124Z 1421/1524 VRB04KT P6SM VCSH FEW009 FEW040 BKN090 FM150300 VRB03KT P6SM SCT030 BKN070 FM151500 13005KT 6SM SHRA SCT030 BKN060 PROB30 1515/1518 4SM TSRA BKN035CB FM151800 16009KT 6SM SHRA BR SCT030 BKN050 FM152200 18007KT P6SM SCT050",
    "KORD": "TAF KORD 142052Z 1421/1524 VRB05KT P6SM FEW060 FEW250 FM150000 27005KT P6SM FEW250 FM152100 09006KT P6SM SCT250",
    "KJFK": "TAF KJFK 142003Z 1420/1524 23019KT P6SM BKN250 FM150100 24015KT P6SM SCT250 FM150500 26013KT P6SM BKN250 FM150900 27010KT P6SM SCT250 FM151400 28014KT 6SM HZ BKN250 FM151600 26015G22KT 6SM HZ BKN250 TEMPO 1517/1520 5SM FU",
    "KRFD": "TAF KRFD 142052Z 1421/1518 25005KT P6SM FEW250",
    "KIND": "TAF KIND 142048Z 1421/1524 08005KT P6SM SCT050 FM142300 VRB03KT P6SM FEW250 FM151600 27005KT P6SM FEW050",
    "KDTW": "TAF KDTW 142022Z 1420/1524 25010KT P6SM SCT250 FM150100 27005KT P6SM SCT250 FM151500 29008KT P6SM SCT250 FM152200 32008KT P6SM FEW060 SCT150 SCT250 PROB30 1522/1524 3SM -TSRA BKN060CB",
    "KMSP": "TAF KMSP 142041Z 1421/1524 26008KT P6SM SKC FM150300 VRB04KT P6SM SKC FM151500 29006KT 6SM FU SKC",
    "CYEG": "TAF CYEG 142040Z 1421/1518 12012G22KT P6SM FEW070 FM142200 13012G22KT P6SM SCT070 FM150200 12012G22KT P6SM SCT050 PROB40 1502/1508 VRB35G45KT 1SM +TSRAGR OVC050CB FM150800 14010KT P6SM SCT150 BECMG 1508/1510 02006KT FM151200 VRB03KT P6SM BKN150 RMK NXT FCST BY 150000Z",
    "EHAM": "TAF EHAM 141659Z 1418/1524 04015KT CAVOK BECMG 1419/1422 04009KT BECMG 1509/1512 05015KT",
    "EBBR": "TAF EBBR 141700Z 1418/1524 04010KT CAVOK",
    "EDDF": "TAF EDDF 141700Z 1418/1524 03008KT 9999 FEW040 PROB30 TEMPO 1418/1419 36013KT TSRA SCT050CB PROB30 TEMPO 1514/1517 TSRA SCT050CB",
    "EDFH": "TAF EDFH 141700Z 1418/1518 04008KT 9999 FEW040 PROB30 TEMPO 1418/1419 36013KT TSRA SCT050CB PROB30 TEMPO 1506/1509 BKN012 PROB30 TEMPO 1514/1517 TSRA SCT050CB",
    "EDDL": "TAF EDDL 141700Z 1418/1524 04012KT CAVOK BECMG 1419/1422 03005KT BECMG 1507/1510 04011KT BECMG 1518/1521 03005KT",
    "EDDK": "TAF EDDK 141700Z 1418/1524 03009KT CAVOK BECMG 1421/1424 VRB03KT BECMG 1508/1511 04009KT BECMG 1520/1523 VRB03KT",
    "EBLG": "TAF EBLG 141700Z 1418/1524 04010KT CAVOK",
    "LSZH": "TAF LSZH 142025Z 1421/1603 VRB02KT 9999 FEW070TCU TX29/1513Z TN17/1504Z BECMG 1421/1422 CAVOK PROB30 TEMPO 1501/1506 9999 FEW070TCU PROB40 1509/1513 08005KT BECMG 1510/1512 9999 FEW080TCU PROB40 TEMPO 1512/1518 21015G25KT TSRA SCT060CB PROB30 TEMPO 1513/1517 24020G35KT 4000 TSGR PROB30 TEMPO 1518/1524 19010KT TSRA SCT060CB",
    "LIMC": "TAF LIMC 141700Z 1418/1524 17010KT 9999 FEW060 BECMG 1418/1420 VRB05KT BECMG 1512/1514 17010KT",
    "LIRF": "TAF LIRF 141700Z 1418/1524 19010KT CAVOK BECMG 1419/1421 12007KT BECMG 1509/1511 22010KT",
    "EINN": "TAF EINN 141700Z 1418/1518 08012KT CAVOK BECMG 1419/1421 05007KT BECMG 1510/1512 08010KT BECMG 1516/1518 VRB03KT",
    "EGLL": "TAF EGLL 141653Z 1418/1524 05010KT 9999 FEW040 PROB40 1501/1508 BKN009",
    "EGSS": "TAF EGSS 141700Z 1418/1524 04012KT 9999 FEW025 PROB40 TEMPO 1418/1420 05015G25KT BECMG 1422/1501 BKN008 PROB30 1502/1506 8000 -DZ BKN004 BECMG 1506/1509 FEW020 PROB30 TEMPO 1509/1512 BKN012 PROB30 TEMPO 1521/1524 BKN012",
    "EPWA": "TAF EPWA 142030Z 1421/1521 01005KT CAVOK PROB40 1500/1507 BKN005 PROB40 TEMPO 1513/1521 2000 TSRA BKN040CB",
    "UHPP": "TAF UHPP 141937Z 1421/1603 33003G08MPS 9999 BKN035CB TX27/1503Z TN13/1518Z TEMPO 1503/1512 -SHRA BKN013CB BKN030",
    "EFHK": "TAF EFHK 142033Z 1421/1521 24004KT CAVOK BECMG 1505/1507 34010KT",
    "LBBG": "TAF LBBG 141700Z 1418/1518 11008KT 9999 SCT045 BECMG 1419/1420 VRB04KT BECMG 1505/1507 13010KT",
    "LTAC": "TAF LTAC 141640Z 1418/1518 34012KT CAVOK BECMG 1418/1420 VRB02KT BECMG 1504/1507 SCT040 BECMG 1515/1517 CAVOK",
    "UBBB": "TAF UBBB 141658Z 1418/1518 33012KT CAVOK TX32/1510Z TN23/1501Z BECMG 1421/1423 34018G28KT SCT025 TEMPO 1423/1506 35024G34KT SCT010 FEW040 TEMPO 1506/1515 34028G38KT",
    "UTAA": "TAF UTAA 141645Z 1418/1518 24014KT 6000 SCT050 TX42/1509 TEMPO 1418/1424 18010KT BECMG 1502/1504 04016KT TEMPO 1504/1510 09014G24KT 4000 DRDU",
    "UACC": "TAF UACC 141705Z 1418/1518 15005MPS 9999 SCT040 BKN100 TX34/1509Z TN22/1423Z TEMPO 1418/1504 21005MPS -TSRA BKN030CB BECMG 1504/1506 26005MPS SCT040CB TEMPO 1504/1516 31011MPS 3100 -TSRA BKN030CB",
    "UAAA": "TAF UAAA 141701Z 1418/1518 16003MPS 9999 SCT100 TX36/1510Z TN20/1501Z TEMPO 1418/1424 21005MPS BECMG 1503/1504 34003MPS TEMPO 1505/1512 04005G10MPS BECMG 1512/1514 16005MPS",
    "UZTT": "TAF UZTT 141700Z 1418/1518 05010KT CAVOK TX41/1511Z TN26/1500Z TEMPO 1500/1506 34010G20KT",
    "ZWWW": "TAF ZWWW 141510Z 1418/1524 20004G09MPS CAVOK TX35/1509Z TN28/1423Z TN26/1523Z BECMG 1500/1501 34004G11MPS BECMG 1507/1508 9999 FEW040CB BECMG 1514/1515 20004MPS CAVOK",
    "ZLXY": "TAF ZLXY 141507Z 1418/1518 23004MPS 6000 NSC TX34/1508Z TN23/1422Z",
    "ZBAA": "TAF ZBAA 141501Z 1418/1524 19004MPS CAVOK TX36/1506Z TN23/1421Z TN24/1521Z",
    "ZBHH": "TAF ZBHH 141501Z 1418/1518 06004MPS 9999 FEW040 TX31/1508Z TN14/1422Z",
    "ZSQD": "TAF ZSQD 141503Z 1418/1518 16003MPS 3000 BR NSC TX28/1506Z TN22/1420Z BECMG 1420/1421 1400 BECMG 1422/1423 3000 TEMPO 1504/1508 SHRA BKN020 FEW030CB TEMPO 1513/1517 +TSRA BKN020 SCT030CB",
    "ZMCK": "TAF ZMCK 141647Z 1418/1524 VRB02MPS 9999 FEW030CB SCT033 TN07/1421Z TX28/1507Z BECMG 1503/1505 28005MPS PROB30 TEMPO 1508/1516 VRB09G14MPS TSRA SCT027CB SCT030 BECMG 1510/1512 VRB02MPS PROB40 TEMPO 1516/1524 VRB08MPS 6000 TSRA SCT027CB BKN030",
    "UUEE": "TAF UUEE 141955Z 1421/1521 33003G08MPS 6000 SCT020 TX25/1512Z TN16/1501Z TEMPO 1421/1504 0300 FG BKN002 TEMPO 1504/1507 BKN010 TEMPO 1507/1517 35008G15MPS",
    "UUDD": "TAF UUDD 141956Z 1421/1603 32003MPS 9999 SCT016 TX25/1512Z TN15/1601Z PROB40 TEMPO 1421/1422 -TSRA BKN020CB TEMPO 1422/1506 BKN007 TEMPO 1509/1516 34008G14MPS",
    "ULLI": "TAF ULLI 141954Z 1421/1521 36003MPS 6000 BKN017 TEMPO 1421/1504 3100 BR BECMG 1505/1507 32005G10MPS",
    "USSS": "TAF USSS 141951Z 1421/1521 08003G08MPS 6000 -SHRA BKN016CB TEMPO 1421/1503 0300 FG BKN004 BKN011CB FM150300 15003G14MPS 8000 -SHRA BKN016CB TEMPO 1503/1518 -TSRAGR",
    "UNNT": "TAF UNNT 142000Z 1421/1521 34003G08MPS 8000 SCT040 TX26/1508Z TN12/1421Z TEMPO 1421/1501 0300 FG SCT002",
    "UNKL": "TAF UNKL 141941Z 1421/1521 26002G07MPS 6000 SCT040 BECMG 1503/1506 29007G16MPS BECMG 1510/1513 28002G07MPS",
    "UIBB": "TAF UIBB 142000Z 1421/1521 29003G08MPS 9999 -SHRA FEW001 BKN016CB TEMPO 1421/1503 VRB08MPS 1900 SHRA VV004 TEMPO 1503/1512 VRB10MPS -TSRA",
    "UEEE": "TAF UEEE 142000Z 1421/1603 12003G10MPS 9999 SCT030CB OVC100 TX26/1506Z TN18/1518Z TEMPO 1421/1506 2100 -TSRA SCT007 BKN020CB OVC100",
    "UHHH": "TAF UHHH 141952Z 1421/1603 08003MPS 9999 -SHRA FEW005 SCT020CB TX26/1508Z TN20/1518Z TEMPO 1421/1512 36005MPS 2100 -SHRA SCT003 BKN015CB",
    "UHSS": "TAF AMD UHSS 142103Z 1421/1603 19003MPS 2000 FG BKN002 OVC015 TEMPO 1421/1423 0550 FG BECMG 1423/1501 9999 NSW BKN016CB BECMG 1504/1506 6000 -SHRA"
  },
  "atis": {},
  "windtemp_alaska": "\n000\nFBAK31 KWNO 142000\nFD1AK1\nDATA BASED ON 141800Z    \nVALID 150000Z   FOR USE 2000-0300Z. TEMPS NEG ABV 24000\n\nFT  3000    6000    9000   12000   18000   24000  30000  34000  39000\nADK 2318 2530+06 2632+03 2642-01 2648-12 2749-23 275439 275848 276060\nADQ 2419 2330+05 2335+02 2342-04 2351-18 2358-31 236543 236343 235343\nAKN 2234 2232+02 2130-01 2229-06 2228-19 2328-32 232745 233541 233341\nANC 1324 1931+04 2036+00 2038-05 2042-17 2048-28 206544 206550 214445\nANN 9900 9900+09 9900+03 2507-01 3413-14 3638-26 015641 366649 014053\nBET 9900 0905+02 9900-01 1912-06 1520-19 1422-30 152048 191447 212341\nBRW 2211 2110+00 1911-05 1812-10 1912-23 2014-36 191647 191644 181041\nBTI 2808 2515+03 2423-03 2319-09 2215-22 2525-33 255446 244048 222343\nBTT 0910 1313+02 1413-03 1612-09 1923-19 2023-31 212647 203350 223444\nCDB 2822 2727+00 2636-01 2643-06 2562-16 2685-26 750141 750850 257049\nCZF 3417 3516-02 3611-05 0109-10 1817-19 1624-31 173048 182149 211341\nEHM 3039 2931-01 2833-05 2731-08 2620-19 2413-31 201346 232844 243340\nFAI 1716 1928+03 1922-02 1920-05 2027-17 2140-28 216143 216352 214148\nFYU 1410 1513+03 1814-02 2115-07 2129-17 2240-28 236144 236253 224247\nGAL 1214 1311+02 1514-03 1921-07 2114-19 2217-31 212046 201850 202444\nGKN 1628 1844+01 2142+01 2248-03 2243-15 2147-27 206242 207951 226052\nHOM 1626 1823+03 1930-01 1932-05 2040-18 2052-30 196245 205545 214043\nJNU 9900 2809+02 2409+03 3008+01 3219-12 3116-23 322239 333149 344159\nLUR 1710 1508-02 1408-07 1808-12 2305-23 2506-36 240546 200744 180641\nMCG 1609 1815+02 1615-01 1920-07 1824-19 1626-30 182146 192650 202643\nMDO 2034 2035+07 2034+02 2136-03 2147-15 2153-26 216342 207350 217051\nOME 0208 0907-01 1108-06 1508-09 1914-20 2132-31 203548 192951 201543\nORT      1612+06 2123+01 2334-03 2338-14 2243-25 225241 226851 245455\nOTZ 1307 1407-01 1410-07 1710-10 1910-22 2125-32 213747 213150 201642\nSNP 2819 2818-03 2819-07 2823-12 2828-24 2835-35 275142 274741 263842\nTKA 1409 1826+01 1921-03 2232-06 1941-17 1944-29 205744 206251 213844\nUNK 1123 1017+00 1115-03 1413-06 1811-18 1811-31 181647 181851 192043\nYAK 2207 2009+01 2519+02 2626-01 2428-13 2430-23 233139 243349 254458\nIKO 2714 2620+02 2635+00 2649-03 2654-14 2665-23 266939 267549 267460\nAFM 1108 1409+00 1713-05 1714-10 2021-21 2129-31 212946 222751 212442\n5AB 2614 2823+09 2833+05 2836+01 2843-12 2848-23 295038 295448 305357\n5AC 3416 3314+06 3311+03 3409-01 0125-12 3638-24 015439 015849 025557\n5AD 2528 2527+09 2530+06 2532+01 2538-13 2538-23 254239 244348 244458\n5AE 2632 2537+03 2541+02 2548-03 2563-14 2584-24 258940 259450 257855\n5AF 2608 2808+05 3012+03 3215+01 3116-11 3018-23 302339 312448 332758\n5AG 1821 2515+09 2325+04 2426-01 2437-13 2339-24 234339 234448 224657\n",
  "vaac_active": [
    {
      "volcano": "MAYON",
      "volcano_jp": "マヨン",
      "advisory_nr": "2026/745",
      "obs_time": "2026-07-14 16:09Z",
      "issued_time": "2026-07-14 18:54Z",
      "text_url": "https://www.data.jma.go.jp/vaac/data/TextData/2026/20260714_27303000_0745_Text.html",
      "lat": 13.25,
      "lon": 123.683,
      "text": "FVFE01 RJTD 141854\nVA ADVISORY\nDTG: 20260714/1854Z\nVAAC: TOKYO\nVOLCANO: MAYON 273030\nPSN: N1315 E12341\nAREA: PHILIPPINES\nSOURCE ELEV: 2462M AMSL\nADVISORY NR: 2026/745\nINFO SOURCE: HIMAWARI-9 PHIVOLCS\nERUPTION DETAILS: ERUPTION AT 20260714/1609Z FL130 EXTD SSE REPORTED\nOBS VA DTG: 14/1830Z\nOBS VA CLD: SFC/FL130 N1316 E12342 - N1314 E12344 - N1312 E12341 - \nN1315 E12340 MOV SE 5KT\nFCST VA CLD +6 HR: 15/0030Z SFC/FL130 N1309 E12344 - N1226 E12354 - \nN1243 E12330 - N1309 E12326\nFCST VA CLD +12 HR: 15/0630Z SFC/FL130 N1316 E12345 - N1218 E12343 - \nN1227 E12306 - N1315 E12316\nFCST VA CLD +18 HR: 15/1230Z SFC/FL130 N1311 E12406 - N1143 E12321 - \nN1224 E12246 - N1319 E12318\nRMK: NIL\nNXT ADVISORY: 20260715/0000Z="
    },
    {
      "volcano": "MAYON",
      "volcano_jp": "マヨン",
      "advisory_nr": "2026/744",
      "obs_time": "2026-07-14 16:09Z",
      "issued_time": "2026-07-14 17:31Z",
      "text_url": "https://www.data.jma.go.jp/vaac/data/TextData/2026/20260714_27303000_0744_Text.html",
      "lat": 13.25,
      "lon": 123.683,
      "text": "FVFE01 RJTD 141731\nVA ADVISORY\nDTG: 20260714/1731Z\nVAAC: TOKYO\nVOLCANO: MAYON 273030\nPSN: N1315 E12341\nAREA: PHILIPPINES\nSOURCE ELEV: 2462M AMSL\nADVISORY NR: 2026/744\nINFO SOURCE: HIMAWARI-9 PHIVOLCS\nERUPTION DETAILS: ERUPTION AT 20260714/1609Z FL130 EXTD SSE REPORTED\nOBS VA DTG: 14/1710Z\nOBS VA CLD: VA NOT IDENTIFIABLE FM SATELLITE DATA WIND FL130 040/5KT\nFCST VA CLD +6 HR: NOT AVBL\nFCST VA CLD +12 HR: NOT AVBL\nFCST VA CLD +18 HR: NOT AVBL\nRMK: WE WILL ISSUE FURTHER ADVISORY IF VA IS DETECTED IN SATELLITE \nIMAGERY.\nNXT ADVISORY: NO FURTHER ADVISORIES="
    },
    {
      "volcano": "SHEVELUCH",
      "volcano_jp": "シベルチ",
      "advisory_nr": "2026/197",
      "obs_time": "2026-07-14 17:16Z",
      "issued_time": "2026-07-14 17:16Z",
      "text_url": "https://www.data.jma.go.jp/vaac/data/TextData/2026/20260714_30027000_0197_AN_Text.html",
      "lat": 56.65,
      "lon": 161.367,
      "text": "FVFE01 RJTD 141735\nVAAAK1\nVA ADVISORY\n\nDTG: 20260714/1716Z\n\nVAAC: ANCHORAGE\n\nVOLCANO: SHEVELUCH 300270\n\nPSN: N5639 E16122\n\nAREA: KAMCHATKA PENINSULA\n\nSOURCE ELEV: 10771 FT AMSL\n\nADVISORY NR: 2026/197\n\nINFO SOURCE: HIMAWARI\n\nERUPTION DETAILS: VA CONTINIOUSLY OBS IN SATELLITE IMAGERY\n\nOBS VA DTG: 14/1716Z\n\nOBS VA CLD: SFC/FL300 N5250 E17045 - N5217 E17219 - N5122 E16957\n- N5217 E16818 - N5250 E17045 MOV SE 30KT\n\nFCST VA CLD +6HR: 14/2316Z SFC/FL300 N5233 E17702 - N5103 E17842\n- N5013 E17327 - N5203 E17135 - N5233 E17702\n\nFCST VA CLD +12HR: 15/0516Z SFC/FL300 N5225 W17753 - N5056\nW17437 - N4917 E17803 - N5047 E17535 - N5225 W17753\n\nFCST VA CLD +18HR: 15/1116Z SFC/FL300 N5249 W17146 - N5153\nW16808 - N4942 W17642 - N5036 W17849 - N5249 W17146 - N5249 W17146\n\nRMK: VAAC TOKYO HAS TRANSFERRED RESPONSIBILITY OF THIS EVENT\nTO VAAC ANCHORAGE. THIS ADVISORY UPDATES MESSAGE FVFE01 RJTD....DK\n\nNXT ADVISORY: WILL BE ISSUED BY 20260714/2316Z="
    },
    {
      "volcano": "MAYON",
      "volcano_jp": "マヨン",
      "advisory_nr": "2026/743",
      "obs_time": "2026-07-14 14:27Z",
      "issued_time": "2026-07-14 15:53Z",
      "text_url": "https://www.data.jma.go.jp/vaac/data/TextData/2026/20260714_27303000_0743_Text.html",
      "lat": 13.25,
      "lon": 123.683,
      "text": "FVFE01 RJTD 141553\nVA ADVISORY\nDTG: 20260714/1553Z\nVAAC: TOKYO\nVOLCANO: MAYON 273030\nPSN: N1315 E12341\nAREA: PHILIPPINES\nSOURCE ELEV: 2462M AMSL\nADVISORY NR: 2026/743\nINFO SOURCE: HIMAWARI-9 PHIVOLCS\nERUPTION DETAILS: ERUPTION AT 20260714/1427Z FL120 EXTD SSE REPORTED\nOBS VA DTG: 14/1540Z\nOBS VA CLD: VA NOT IDENTIFIABLE FM SATELLITE DATA WIND FL120 040/4KT\nFCST VA CLD +6 HR: NOT AVBL\nFCST VA CLD +12 HR: NOT AVBL\nFCST VA CLD +18 HR: NOT AVBL\nRMK: WE WILL ISSUE FURTHER ADVISORY IF VA IS DETECTED IN SATELLITE \nIMAGERY.\nNXT ADVISORY: NO FURTHER ADVISORIES="
    }
  ],
  "vaac_tokyo": [
    {
      "id": "20260714_27303000_0745",
      "year": "2026",
      "volcano": "Mayon",
      "psn": "N1315 E12341",
      "issued": "20260714",
      "text": "FVFE01 RJTD 141854\nVA ADVISORY\nDTG: 20260714/1854Z\nVAAC: TOKYO\nVOLCANO: MAYON 273030\nPSN: N1315 E12341\nAREA: PHILIPPINES\nSOURCE ELEV: 2462M AMSL\nADVISORY NR: 2026/745\nINFO SOURCE: HIMAWARI-9 PHIVOLCS\nERUPTION DETAILS: ERUPTION AT 20260714/1609Z FL130 EXTD SSE REPORTED\nOBS VA DTG: 14/1830Z\nOBS VA CLD: SFC/FL130 N1316 E12342 - N1314 E12344 - N1312 E12341 - \nN1315 E12340 MOV SE 5KT\nFCST VA CLD +6 HR: 15/0030Z SFC/FL130 N1309 E12344 - N1226 E12354 - \nN1243 E12330 - N1309 E12326\nFCST VA CLD +12 HR: 15/0630Z SFC/FL130 N1316 E12345 - N1218 E12343 - \nN1227 E12306 - N1315 E12316\nFCST VA CLD +18 HR: 15/1230Z SFC/FL130 N1311 E12406 - N1143 E12321 - \nN1224 E12246 - N1319 E12318\nRMK: NIL\nNXT ADVISORY: 20260715/0000Z=",
      "img_url": "https://ds.data.jma.go.jp/svd/vaac/data/VAGFN/2026/Images/20260714_27303000_0745_QH21_01.png",
      "sat_img_url": "https://ds.data.jma.go.jp/svd/vaac/data/Sat/2026/Images/27303000/09-ir/20260714_1830_202607141854_ir.png",
      "text_url": "https://ds.data.jma.go.jp/svd/vaac/data/TextData/2026/20260714_27303000_0745_Text.html"
    },
    {
      "id": "20260714_30027000_0263",
      "year": "2026",
      "volcano": "Sheveluch",
      "psn": "N5639 E16122",
      "issued": "20260714",
      "text": "FVFE01 RJTD 141200\nVA ADVISORY\nDTG: 20260714/1200Z\nVAAC: TOKYO\nVOLCANO: SHEVELUCH 300270\nPSN: N5639 E16122\nAREA: RUSSIA\nSOURCE ELEV: 3283M AMSL\nADVISORY NR: 2026/263\nINFO SOURCE: HIMAWARI-9\nERUPTION DETAILS: VA CONTINUOUSLY OBS IN SATELLITE IMAGERY\nOBS VA DTG: 14/1120Z\nOBS VA CLD: SFC/FL390 N5359 E16539 - N5422 E16550 - N5414 E16656 - \nN5349 E16654 MOV SE 40KT\nFCST VA CLD +6 HR: 14/1720Z SFC/FL400 N5233 E17412 - N5141 E17210 - \nN5144 E17002 - N5224 E17116\nFCST VA CLD +12 HR: 14/2320Z SFC/FL400 N5147 W17910 - N5115 W17906 - \nN5025 E17725 - N5008 E17317 - N5113 E17652\nFCST VA CLD +18 HR: 15/0520Z SFC/FL400 N5217 W17056 - N5119 W17200 - \nN4942 W17651 - N4907 E17606 - N5056 W17716\nRMK: THE RESPONSIBILITY FOR THIS ASH EVENT IS BEING TRANSFERRED TO \nVAAC ANCHORAGE. THE NEXT ADVISORY WILL BE ISSUED BY VAAC ANCHORAGE \nBY 1800UTC UNDER HEADER FVAK21 PAWU. SOME PART OF VA OBSCURED BY MET \nCLOUD.\nNXT ADVISORY: NO FURTHER ADVISORIES=",
      "img_url": "https://ds.data.jma.go.jp/svd/vaac/data/VAGFN/2026/Images/20260714_30027000_0263_QH21_01.png",
      "sat_img_url": "https://ds.data.jma.go.jp/svd/vaac/data/Sat/2026/Images/30027000/09-ir/20260714_1120_202607141200_ir.png",
      "text_url": "https://ds.data.jma.go.jp/svd/vaac/data/TextData/2026/20260714_30027000_0263_Text.html"
    },
    {
      "id": "20260713_28208001_0083",
      "year": "2026",
      "volcano": null,
      "psn": "N3136 E13039",
      "issued": "20260713",
      "text": "FVFE01 RJTD 130254\nVA ADVISORY\nDTG: 20260713/0254Z\nVAAC: TOKYO\nVOLCANO: SAKURAJIMA (AIRA CALDERA) 282080\nPSN: N3136 E13039\nAREA: JAPAN\nSOURCE ELEV: 1117M AMSL\nADVISORY NR: 2026/83\nINFO SOURCE: JMA HIMAWARI-9\nERUPTION DETAILS: ERUPTED AT 20260713/0152Z FL100 EXTD N\nOBS VA DTG: 13/0230Z\nOBS VA CLD: SFC/FL100 N3136 E13039 - N3142 E13040 - N3141 E13044 - \nN3134 E13042 MOV NE 15KT\nFCST VA CLD +6 HR: 13/0830Z SFC/FL100 N3234 E13121 - N3145 E13155 - \nN3202 E13110 - N3227 E13051\nFCST VA CLD +12 HR: 13/1430Z SFC/FL100 N3318 E13206 - N3142 E13317 - \nN3134 E13226 - N3312 E13118\nFCST VA CLD +18 HR: NO VA EXP\nRMK: NIL\nNXT ADVISORY: 20260713/0600Z=",
      "img_url": "https://ds.data.jma.go.jp/svd/vaac/data/VAGFN/2026/Images/20260713_28208001_0083_QH21_01.png",
      "sat_img_url": "https://ds.data.jma.go.jp/svd/vaac/data/Sat/2026/Images/28208001/09-ir/20260713_0230_202607130254_ir.png",
      "text_url": "https://ds.data.jma.go.jp/svd/vaac/data/TextData/2026/20260713_28208001_0083_Text.html"
    },
    {
      "id": "20260712_27307000_0012",
      "year": "2026",
      "volcano": "Taal",
      "psn": "N1400 E12100",
      "issued": "20260712",
      "text": "FVFE01 RJTD 121243\nVA ADVISORY\nDTG: 20260712/1243Z\nVAAC: TOKYO\nVOLCANO: TAAL 273070\nPSN: N1400 E12100\nAREA: PHILIPPINES\nSOURCE ELEV: 311M AMSL\nADVISORY NR: 2026/12\nINFO SOURCE: HIMAWARI-9 PHIVOLCS\nERUPTION DETAILS: ERUPTION AT 20260712/1227Z FL050 EXTD NE REPORTED\nOBS VA DTG: 12/1230Z\nOBS VA CLD: VA NOT IDENTIFIABLE FM SATELLITE DATA WIND FL050 230/19KT\nFCST VA CLD +6 HR: NOT AVBL\nFCST VA CLD +12 HR: NOT AVBL\nFCST VA CLD +18 HR: NOT AVBL\nRMK: WE WILL ISSUE FURTHER ADVISORY IF VA IS DETECTED IN SATELLITE \nIMAGERY.\nNXT ADVISORY: NO FURTHER ADVISORIES=",
      "img_url": "https://ds.data.jma.go.jp/svd/vaac/data/VAGFN/2026/Images/20260712_27307000_0012_QH21_01.png",
      "sat_img_url": null,
      "text_url": "https://ds.data.jma.go.jp/svd/vaac/data/TextData/2026/20260712_27307000_0012_Text.html"
    }
  ],
  "vaac_alaska": [
    {
      "text": "\n000\nFVAK21 PAWU 141734\nVAAAK1\nVA ADVISORY\n\nDTG: 20260714/1716Z\n\nVAAC: ANCHORAGE\n\nVOLCANO: SHEVELUCH 300270\n\nPSN: N5639 E16122\n\nAREA: KAMCHATKA PENINSULA\n\nSOURCE ELEV: 10771 FT AMSL\n\nADVISORY NR: 2026/197\n\nINFO SOURCE: HIMAWARI\n\nERUPTION DETAILS: VA CONTINIOUSLY OBS IN SATELLITE IMAGERY\n\nOBS VA DTG: 14/1716Z\n\nOBS VA CLD: SFC/FL300 N5250 E17045 - N5217 E17219 - N5122 E16957\n- N5217 E16818 - N5250 E17045 MOV SE 30KT\n\nFCST VA CLD +6HR: 14/2316Z SFC/FL300 N5233 E17702 - N5103 E17842\n- N5013 E17327 - N5203 E17135 - N5233 E17702\n\nFCST VA CLD +12HR: 15/0516Z SFC/FL300 N5225 W17753 - N5056\nW17437 - N4917 E17803 - N5047 E17535 - N5225 W17753\n\nFCST VA CLD +18HR: 15/1116Z SFC/FL300 N5249 W17146 - N5153\nW16808 - N4942 W17642 - N5036 W17849 - N5249 W17146 - N5249 W17146\n\nRMK: VAAC TOKYO HAS TRANSFERRED RESPONSIBILITY OF THIS EVENT\nTO VAAC ANCHORAGE. THIS ADVISORY UPDATES MESSAGE FVFE01 RJTD....DK\n\nNXT ADVISORY: WILL BE ISSUED BY 20260714/2316Z=\n\n",
      "issued": "2026-07-14T17:34:00+00:00",
      "volcano": "Sheveluch",
      "psn": "N5639 E16122"
    }
  ]
}