{
  "updated_utc": "2026-07-22T11:24Z",
  "metar": {
    "RJAA": "METAR RJAA 220930Z 15004KT 9999 FEW030 31/26 Q1005 NOSIG",
    "PANC": "METAR PANC 220953Z 14015G26KT 10SM -RA BKN047 OVC070 11/07 A3003 RMK AO2 PK WND 16028/0917 SLP169 P0004 T01060067",
    "PAFA": "METAR PAFA 220953Z 22008G17KT 10SM -RA SCT055 OVC070 14/07 A2983 RMK AO2 SLP107 P0000 T01390067",
    "PAED": "METAR PAED 220955Z 32005KT 10SM -RA OVC049 11/08 A3001 RMK AO2A SLP158 P0002 T01050077 $",
    "KSEA": "METAR KSEA 220953Z 02007KT 10SM CLR 23/13 A2992 RMK A02 SLP134 T02280128 $",
    "ZSPD": "METAR ZSPD 220930Z 14005MPS CAVOK 32/27 Q1005 NOSIG",
    "ZSSS": "METAR ZSSS 220930Z 21003MPS 170V260 CAVOK 33/26 Q1005 BECMG TL1010 30006MPS TSRA FEW030CB",
    "RJFR": "METAR RJFR 221000Z 31009KT 9999 FEW020 BKN045 31/24 Q1008",
    "VHHH": "METAR VHHH 220930Z 21010KT 110V230 9999 FEW015 31/24 Q1006 NOSIG",
    "RCTP": "METAR RCTP 220930Z 26008KT 230V290 9999 FEW020 SCT040 BKN200 33/24 Q1007 NOSIG RMK A2976",
    "ZGSZ": "METAR ZGSZ 221000Z 18006MPS 9999 FEW026 30/26 Q1006 NOSIG",
    "WSSS": "METAR WSSS 220930Z 15005KT 100V180 9999 SCT018 BKN270 27/24 Q1010 NOSIG",
    "WMKK": "METAR WMKK 220930Z VRB02KT 9000 FEW018 31/24 Q1009 NOSIG",
    "WIDD": "METAR WIDD 220930Z 10007KT 040V140 6000 BKN012 26/25 Q1010 NOSIG",
    "VTBS": "METAR VTBS 220930Z 19010KT 9999 FEW020 34/22 Q1007 NOSIG",
    "VTBU": "METAR VTBU 220930Z 26008KT 9999 FEW020 32/27 Q1007 NOSIG",
    "ROAH": "METAR ROAH 220930Z 36005KT 9999 FEW015 29/26 Q1009",
    "VVDN": "METAR VVDN 220930Z 09007KT 9999 FEW020 34/22 Q1004 NOSIG",
    "RCKH": "METAR RCKH 220930Z 26007KT 230V310 9999 FEW020 SCT220 31/25 Q1007 NOSIG RMK A2975",
    "KLAX": "METAR KLAX 220953Z 25006KT 4SM BR FEW002 OVC004 21/19 A2997 RMK AO2 SLP146 T02110194",
    "KONT": "METAR KONT 220953Z 26003KT 10SM FEW190 22/14 A2999 RMK AO2 SLP135 T02220144 $",
    "KSFO": "METAR KSFO 220956Z 20016G22KT 10SM FEW011 20/16 A2996 RMK AO2 SLP145 T02000156 $",
    "KOAK": "METAR KOAK 220953Z 33004KT 10SM FEW004 FEW010 18/16 A2996 RMK AO2 SLP145 T01780161",
    "KMHR": "METAR KMHR 220935Z AUTO 16005KT 10SM CLR 21/16 A2991 RMK AO2 T02110158 $",
    "KDFW": "METAR KDFW 220953Z 21004KT 10SM CLR 30/21 A2986 RMK AO2 SLP100 T03000211 $",
    "KIAH": "METAR KIAH 220953Z 26004KT 10SM FEW250 28/21 A2985 RMK AO2 SLP107 T02780211",
    "KORD": "METAR KORD 220951Z 36008KT 10SM FEW035 SCT250 16/12 A2999 RMK AO2 SLP153 T01610117 $",
    "KJFK": "METAR KJFK 220951Z 23011KT 10SM BKN012 OVC023 22/21 A2970 RMK AO2 SLP057 T02220211 $",
    "KRFD": "METAR KRFD 220954Z 36012KT 10SM FEW070 FEW250 16/08 A3005 RMK AO2 SLP172 T01560083 $",
    "KIND": "METAR KIND 220954Z 01014KT 10SM SCT250 19/15 A2993 RMK AO2 SLP129 T01890150",
    "KDTW": "SPECI KDTW 220933Z 33011G19KT 10SM BKN031 OVC060 15/09 A2989 RMK AO2 T01500089",
    "KMSP": "METAR KMSP 220953Z 04005KT 10SM FEW055 17/09 A3010 RMK AO2 SLP192 T01670094",
    "CYEG": "METAR CYEG 221000Z 16005KT 8SM FEW090 15/15 A3004 RMK AC2 FU SLP173 DENSITY ALT 2900FT",
    "EHAM": "METAR EHAM 220925Z 30012KT 9999 -DZRA FEW016 SCT024 BKN029 18/14 Q1023 NOSIG",
    "EBBR": "METAR EBBR 220950Z 01007KT 9999 SCT020 BKN030 17/13 Q1025 NOSIG",
    "EDDF": "METAR EDDF 220950Z AUTO 32010KT 260V360 9999 SCT044 21/10 Q1022 NOSIG",
    "EDFH": "METAR EDFH 220950Z 32007KT 230V010 9999 SCT026 BKN031 16/10 Q1024",
    "EDDL": "METAR EDDL 220950Z AUTO 27007KT 230V310 9999 SCT037 BKN044 18/12 Q1023 NOSIG",
    "EDDK": "METAR EDDK 220950Z AUTO 28010KT 260V320 9999 SCT026 BKN032 OVC048 19/11 Q1023 NOSIG",
    "EBLG": "METAR EBLG 220950Z 31007KT 270V350 9999 BKN019 16/12 Q1025 NOSIG",
    "LSZH": "METAR LSZH 220950Z 33006KT 270V010 CAVOK 23/07 Q1022 NOSIG",
    "LIMC": "METAR LIMC 220950Z 22007KT 170V250 CAVOK 27/13 Q1019 NOSIG",
    "LIRF": "METAR LIRF 220950Z 26009KT 230V300 CAVOK 32/21 Q1013 NOSIG",
    "EINN": "METAR EINN 220930Z 33007KT 9999 FEW020 SCT028 BKN220 18/11 Q1031 NOSIG",
    "EGLL": "METAR EGLL 220950Z AUTO VRB03KT 9999 NCD 23/14 Q1026",
    "EGSS": "METAR EGSS 220950Z AUTO 15004KT 060V240 9999 BKN031 21/12 Q1026",
    "EPWA": "METAR EPWA 220930Z 28013KT 250V310 9999 FEW043 20/10 Q1015 NOSIG",
    "UHPP": "METAR UHPP 221000Z 21005MPS 9999 SCT013 OVC020CB 12/10 Q1008 R16R/290248 NOSIG RMK MT OBSC QFE753/1004",
    "EFHK": "METAR EFHK 220950Z 02004KT 280V070 9999 SCT032 16/08 Q1007 NOSIG",
    "LBBG": "METAR LBBG 220930Z 12014KT 9999 FEW023 SCT045 27/21 Q1010 NOSIG",
    "LTAC": "METAR LTAC 220950Z VRB04KT CAVOK 29/07 Q1015 NOSIG RMK RWY21C VRB04KT RWY03L VRB04KT RWY21R 10006KT 050V150 RWY03R 22005KT 120V280 RWY21L VRB04KT",
    "UBBB": "METAR UBBB 220930Z 17010KT 130V220 CAVOK 32/14 Q1010 NOSIG",
    "UTAA": "METAR UTAA 221000Z 36006KT 290V060 9999 SCT033 36/12 Q1008 R88/CLRD70 NOSIG",
    "UACC": "METAR UACC 220930Z 29005MPS 260V320 9999 VCTS SCT040CB BKN046 22/15 Q1001 TEMPO -TSRA BKN020CB RMK QFE719/0959",
    "UAAA": "METAR UAAA 220930Z 03004MPS 360V070 9999 FEW050CB BKN200 29/14 Q1006 NOSIG",
    "UZTT": "METAR UZTT 220930Z 19010KT 160V230 CAVOK 33/09 Q1006 WS R26L NOSIG",
    "ZWWW": "METAR ZWWW 220930Z 29007MPS CAVOK 29/16 Q1007 NOSIG",
    "ZLXY": "METAR ZLXY 221000Z 05005MPS CAVOK 33/19 Q1000 NOSIG",
    "ZBAA": "METAR ZBAA 220930Z VRB01MPS 9999 FEW030 26/22 Q1003 NOSIG",
    "ZBHH": "METAR ZBHH 221000Z 05003MPS 010V070 9999 FEW040 SCT040CB 26/17 Q1005 BECMG TL1110 -TSRA",
    "ZSQD": "METAR ZSQD 221000Z 15006MPS 9999 SCT020 27/23 Q1004 NOSIG",
    "ZMCK": "METAR ZMCK 220930Z 35003MPS 290V040 9999 FEW030CB FEW033 24/11 Q1007 NOSIG RMK QFE641.0 44 MOP",
    "UUEE": "METAR UUEE 220930Z 21005MPS 170V260 9999 SCT056TCU 24/11 Q1007 R24L/CLRD62 R24C/CLRD62 NOSIG",
    "UUDD": "METAR UUDD 220930Z 23003G08MPS 130V270 9999 SCT036 24/12 Q1008 R13R/CLRD65 NOSIG",
    "ULLI": "METAR ULLI 220930Z 31003MPS 250V360 9999 BKN018 BKN033 17/13 Q1005 R88/090065 NOSIG",
    "USSS": "METAR USSS 220930Z 34005MPS 310V020 9999 SCT040 28/16 Q1010 R26L/CLRD60 R26R/CLRD60 NOSIG RMK QFE737/0982",
    "UNNT": "SPECI UNNT 220928Z VRB01MPS 9999 BKN028CB 20/18 Q0998 R25/290155 R16/CLRD// NOSIG RMK QFE738/0984",
    "UNKL": "METAR UNKL 220930Z 21003MPS CAVOK 22/17 Q0997 R11/CLRD// NOSIG RMK QFE722",
    "UIBB": "METAR UIBB 220930Z 10002MPS 050V170 9999 NSC 26/15 Q1001 R30/CLRD62 NOSIG RMK QFE708/0944",
    "UEEE": "METAR UEEE 220930Z 03003MPS 9999 FEW050CB 23/17 Q1004 R23/09//57 NOSIG RMK QFE745",
    "UHHH": "METAR UHHH 220930Z 05004MPS CAVOK 28/21 Q1005 R88/090060 NOSIG RMK QFE747/0997",
    "UHSS": "METAR UHSS 220930Z 17002MPS 9999 NSC 22/19 Q1006 R01/CLRD70 NOSIG RMK QFE753/1005"
  },
  "taf": {
    "RJAA": "TAF RJAA 220505Z 2206/2312 13008KT 9999 FEW015 BKN030 TEMPO 2206/2208 TS FEW015 FEW020CB BKN030 BECMG 2218/2221 05006KT BECMG 2300/2303 09010KT TEMPO 2309/2312 FEW003 SCT005 BKN008 BECMG 2309/2312 04008KT",
    "PANC": "TAF PANC 221006Z 2210/2312 15015G25KT P6SM -SHRA SCT025 OVC050 FM221800 16010G18KT P6SM SCT045 BKN080 FM230300 16018G26KT P6SM -RA OVC040 FM230800 16018G28KT 5SM -RA BR SCT020 OVC035",
    "PAFA": "TAF PAFA 220815Z 2208/2312 22010KT 6SM -RA BR SCT030 OVC050 FM221500 22006KT P6SM -SHRA SCT030 OVC050 FM222000 18008KT P6SM VCSH OVC050",
    "PAED": "TAF PAED 220500Z 2205/2311 33009KT 9000 -SHRA FEW022 SCT037 OVC060 640703 520106 QNH2996INS BECMG 2210/2211 33009KT 9999 NSW FEW020 OVC040 620604 QNH2996INS BECMG 2302/2303 32007KT 9000 -RA FEW009 BKN055 OVC070 640901 QNH2978INS TX13/2301Z TN09/2212Z",
    "KSEA": "TAF KSEA 221120Z 2212/2318 02007KT P6SM SKC FM221700 33006KT P6SM SKC FM222100 33009KT P6SM SCT250 FM230600 23007KT P6SM SCT120 BKN250 FM231200 21009KT P6SM OVC015",
    "ZSPD": "TAF ZSPD 220905Z 2212/2318 17004MPS 6000 SCT030 TX29/2212Z TX34/2306Z TN27/2221Z TEMPO 2212/2214 30006G12MPS TSRA FEW030CB TEMPO 2307/2312 30006G13MPS TSRA FEW030CB",
    "ZSSS": "TAF AMD ZSSS 221032Z 2206/2312 20004MPS 6000 SCT030 TX33/2206Z TX35/2306Z TN27/2221Z TEMPO 2210/2213 27012G17MPS +TSRA SQ BKN013 SCT030CB",
    "RJFR": "TAF RJFR 220505Z 2206/2312 36010KT 9999 FEW030 BECMG 2208/2210 30010KT BECMG 2221/2300 10004KT BECMG 2303/2306 35012KT",
    "VHHH": "TAF VHHH 221100Z 2212/2318 16010KT 9999 FEW010 SCT025 TX34/2306Z TN28/2222Z TEMPO 2215/2224 VRB05KT BECMG 2304/2306 22010KT BECMG 2310/2312 16010KT TEMPO 2315/2318 VRB05KT",
    "RCTP": "TAF RCTP 221100Z 2212/2318 21005KT 9999 FEW015 TEMPO 2218/2223 15005KT SCT010 BKN017 BECMG 2223/2301 25005KT TEMPO 2302/2308 27010KT TEMPO 2306/2310 FEW010 FEW015TCU BKN020 BECMG 2308/2310 08007KT",
    "ZGSZ": "TAF ZGSZ 220905Z 2212/2318 18004MPS 8000 SCT040 TX30/2212Z TX33/2306Z TN28/2222Z",
    "WSSS": "TAF WSSS 220500Z 2206/2312 19007KT 9999 FEW015 SCT020",
    "WMKK": "TAF WMKK 220500Z 2206/2312 VRB03KT 9000 FEW018 TEMPO 2206/2210 4000 TSRA FEW017CB SCT018",
    "VTBS": "TAF VTBS 220500Z 2206/2312 21008KT 9999 FEW020 TEMPO 2208/2214 VRB15G25KT 4000 TSRA FEW018CB SCT030 BKN100 BECMG 2219/2221 28005KT",
    "VTBU": "TAF VTBU 220500Z 2206/2306 24010KT 9999 FEW020",
    "ROAH": "TAF AMD ROAH 220623Z 2206/2312 28005KT 9999 -SHRA FEW012 BKN020 TEMPO 2206/2209 3000 +SHRA BR FEW008 BKN015 SCT020CB BECMG 2209/2211 21005KT BECMG 2300/2303 02005KT TEMPO 2300/2306 4000 SHRA BR FEW008 BKN015 FEW020CB",
    "VVDN": "TAF VVDN 220500Z 2206/2306 01010KT 9999 FEW020 SCT060 BECMG 2208/2209 10010KT PROB30 TEMPO 2209/2213 4000 TSRA BKN013 FEW015CB BKN050 BECMG 2213/2214 22006KT",
    "RCKH": "TAF RCKH 221100Z 2212/2318 24005KT 9999 FEW015 BKN032 BECMG 2214/2216 07005KT TEMPO 2220/2302 6000 -RA FEW010 BKN022 BECMG 2300/2302 30005KT TEMPO 2303/2309 29010KT BECMG 2316/2318 35005KT",
    "KLAX": "TAF KLAX 221120Z 2212/2318 26008KT 6SM BR OVC006 FM221500 26005KT P6SM BKN008 FM221800 26008KT P6SM SKC FM222000 26015KT P6SM SCT250 FM222300 26015G22KT P6SM SCT250 FM230300 26010KT P6SM SCT250 FM230600 26008KT P6SM BKN008",
    "KONT": "TAF KONT 221120Z 2212/2318 VRB05KT P6SM SKC FM222100 25011G19KT P6SM FEW200 FM230600 VRB05KT P6SM SKC",
    "KSFO": "TAF KSFO 221120Z 2212/2318 20015KT P6SM SCT012 FM221800 22015KT P6SM SKC FM222300 25015KT P6SM SKC FM230600 27010KT P6SM BKN015",
    "KOAK": "TAF KOAK 221120Z 2212/2318 26009KT P6SM FEW008 FM221300 25015KT P6SM BKN015 FM221800 28015KT P6SM SKC FM230500 28010KT P6SM BKN015",
    "KMHR": "TAF KMHR 221120Z 2212/2312 16007KT P6SM FEW250 FM221800 22009G15KT P6SM SKC FM222100 23012G21KT P6SM SKC FM230300 22010KT P6SM SKC FM230600 17005KT P6SM SKC",
    "KDFW": "TAF KDFW 221120Z 2212/2318 01005KT P6SM FEW250 FM221900 06011KT P6SM SCT070",
    "KIAH": "TAF KIAH 221121Z 2212/2318 VRB03KT P6SM BKN250 FM221400 29006KT P6SM FEW070 SCT250 FM221800 34006KT P6SM FEW070 SCT250 FM230600 VRB05KT P6SM SKC",
    "KORD": "TAF KORD 221120Z 2212/2318 35011KT P6SM FEW035 FM221500 02010KT P6SM SCT050 FM230200 VRB04KT P6SM FEW060",
    "KJFK": "TAF KJFK 220833Z 2209/2312 21011KT P6SM SCT015 SCT025 BKN250 TEMPO 2209/2212 BKN015 FM221500 25014G20KT P6SM SCT025 BKN060 FM222200 28011G17KT P6SM SCT070 FM230000 34009KT P6SM FEW090",
    "KRFD": "TAF KRFD 221120Z 2212/2312 36010KT P6SM FEW070 FM230200 VRB04KT P6SM SCT060",
    "KIND": "TAF KIND 221120Z 2212/2318 01011KT P6SM SCT050 FM230100 36007KT P6SM FEW050 FM231300 05006KT P6SM FEW050",
    "KDTW": "TAF KDTW 221120Z 2212/2318 32010KT P6SM SCT035 FM221400 33012G22KT P6SM SCT045 FM221900 31012KT P6SM BKN060 FM230100 30007KT P6SM SCT060 FM230600 34004KT P6SM SKC",
    "KMSP": "TAF KMSP 220837Z 2209/2312 03005KT P6SM FEW050 FM221800 35007KT P6SM FEW060",
    "CYEG": "TAF CYEG 220840Z 2209/2306 VRB03KT P6SM SKC TEMPO 2209/2214 2SM FU BR PROB30 2209/2214 1/2SM FG FU VV002 FM221400 VRB03KT P6SM SKC TEMPO 2214/2216 5SM FU FM222200 VRB03KT P6SM SCT050 RMK NXT FCST BY 221200Z",
    "EHAM": "TAF EHAM 220525Z 2206/2312 32006KT 9999 FEW018 BKN025 PROB30 TEMPO 2208/2211 6000 -RADZ OVC018 BECMG 2209/2212 31015KT BECMG 2217/2220 33007KT BECMG 2309/2312 33011KT",
    "EBBR": "TAF EBBR 220501Z 2206/2312 32006KT 9999 FEW020 SCT040 PROB30 TEMPO 2303/2308 4500 -SHRA BKN012",
    "EDDF": "TAF AMD EDDF 220810Z 2208/2312 30010KT 9999 FEW045 TEMPO 2210/2216 32010G20KT PROB30 TEMPO 2210/2213 BKN045 BECMG 2222/2224 31005KT TEMPO 2306/2310 BKN045 BECMG 2308/2310 31010KT",
    "EDFH": "TAF EDFH 220500Z 2206/2306 32007KT 9999 SCT040 PROB40 TEMPO 2303/2306 BKN014",
    "EDDL": "TAF EDDL 220500Z 2206/2312 25003KT 9999 BKN040 BECMG 2206/2209 29008KT BECMG 2210/2213 30013KT BECMG 2218/2221 30004KT PROB30 TEMPO 2305/2308 BKN010 BECMG 2308/2311 31009KT",
    "EDDK": "TAF EDDK 220500Z 2206/2312 VRB03KT 9999 BKN040 BECMG 2206/2208 31007KT BECMG 2209/2212 31012KT BECMG 2218/2221 32006KT PROB30 TEMPO 2304/2307 BKN010",
    "EBLG": "TAF EBLG 220501Z 2206/2312 32006KT 9999 FEW020 SCT040 PROB30 TEMPO 2305/2310 4500 -SHRA BKN012",
    "LSZH": "TAF LSZH 220825Z 2209/2315 VRB02KT CAVOK TX27/2215Z TN13/2304Z TX27/2315Z PROB40 2212/2218 9999 FEW070 PROB40 TEMPO 2215/2219 30008KT PROB40 2310/2315 9999 FEW060",
    "LIMC": "TAF LIMC 221100Z 2212/2318 VRB05KT 9999 FEW050",
    "LIRF": "TAF LIRF 221100Z 2212/2318 29015KT 9999 FEW030 BECMG 2213/2215 32015KT BECMG 2222/2224 04008KT BECMG 2310/2312 25010KT",
    "EINN": "TAF EINN 221100Z 2212/2312 36009KT 9999 FEW028 SCT035 PROB30 2303/2308 0500 FG BKN001",
    "EGLL": "TAF EGLL 221053Z 2212/2318 04005KT 9999 FEW045 BECMG 2218/2221 11010KT BECMG 2303/2306 22005KT",
    "EGSS": "TAF EGSS 221051Z 2212/2318 04007KT 9999 FEW045 PROB40 2302/2307 6000",
    "EPWA": "TAF EPWA 220830Z 2209/2309 27012KT CAVOK TEMPO 2211/2309 27018G28KT 3000 SHRA SCT045CB PROB40 TEMPO 2303/2307 BKN010",
    "UHPP": "TAF UHPP 221041Z 2212/2318 19003G10MPS 9999 SCT012 BKN030CB TEMPO 2212/2221 0700 FG VV002",
    "EFHK": "TAF EFHK 220831Z 2209/2309 31005KT 9999 SCT045 PROB40 2213/2218 17010KT PROB30 2305/2309 FEW050CB",
    "LBBG": "TAF LBBG 221100Z 2212/2312 34012KT 9999 SCT015 SCT045 TEMPO 2212/2217 VRB20G35KT 3000 TSRA SCT010 SCT025CB BKN030 TEMPO 2222/2306 BKN010 OVC020",
    "LTAC": "TAF LTAC 221040Z 2212/2312 VRB02KT 9999 FEW040 BECMG 2212/2215 CAVOK BECMG 2300/2303 SCT040 SCT100 BECMG 2304/2307 27012KT PROB30 TEMPO 2307/2311 33015G25KT -SHRA FEW025CB BKN030",
    "UBBB": "TAF UBBB 221050Z 2212/2312 17012KT CAVOK TX32/2212Z TN22/2301Z TEMPO 2212/2218 14006KT SCT020 BECMG 2218/2220 VRB04KT TEMPO 2220/2304 30005KT FEW010 BECMG 2304/2306 17008KT",
    "UTAA": "TAF UTAA 221055Z 2211/2312 28016KT 6000 SCT030 SCT050CB TEMPO 2211/2214 22018G28KT 3000 BLDU TEMPO 2214/2218 18014G24KT 4000 DRDU",
    "UACC": "TAF UACC 221100Z 2212/2312 36005MPS 9999 SCT020CB BKN050 TX22/2310Z TN15/2223Z TEMPO 2212/2218 32005MPS -TSRA SCT011 BKN015CB BECMG 2218/2220 36003MPS SCT030 BKN100 TEMPO 2218/2304 02005MPS -SHRA SCT011 BKN020CB BECMG 2304/2306 02006MPS SCT030CB TEMPO 2304/2312 VRB15MPS -TSRA SQ BKN020CB",
    "UAAA": "TAF UAAA 221104Z 2212/2312 22003MPS 9999 SCT050CB BKN100 TX31/2309Z TN18/2300Z TEMPO 2212/2218 16005G12MPS TS TEMPO 2223/2305 28005G10MPS 5000 -TSRA BECMG 2305/2307 34005MPS TEMPO 2308/2312 04006G14MPS 5000 -TSRA BLDU",
    "UZTT": "TAF UZTT 221100Z 2212/2312 32010KT 7000 FEW060CB SCT100 TX35/2311Z TN24/2300Z TEMPO 2212/2218 VRB15G25KT 3000 -TSRA -DS BKN050CB",
    "ZWWW": "TAF ZWWW 220915Z 2212/2318 33004G11MPS 8000 BKN040 TX31/2309Z TN24/2223Z TN26/2318Z BECMG 2306/2307 FEW040CB BKN040 BECMG 2313/2314 18004MPS CAVOK",
    "ZLXY": "TAF ZLXY 220906Z 2212/2312 06004MPS 6000 NSC TX36/2308Z TN25/2221Z TEMPO 2214/2216 30012G20MPS TSRA FEW040CB BKN050",
    "ZBAA": "TAF ZBAA 220900Z 2212/2318 14003MPS 6000 NSC TX29/2306Z TN21/2221Z TN22/2318Z TEMPO 2218/2224 -TSRA FEW030CB BKN040 TEMPO 2311/2315 TS FEW040CB",
    "ZBHH": "TAF ZBHH 220920Z 2212/2312 36004G09MPS 9999 -TSRA SCT040 FEW040CB TX28/2308Z TN15/2222Z TEMPO 2212/2215 VRB09G14MPS +TSRA BECMG 2215/2216 NSW NSC BECMG 2308/2309 -TSRA SCT040 FEW040CB TEMPO 2309/2311 TSRA BECMG 2311/2312 NSW NSC",
    "ZSQD": "TAF ZSQD 220901Z 2212/2312 16005MPS 5000 BR NSC TX31/2306Z TN22/2220Z BECMG 2217/2218 34003MPS BECMG 2305/2306 18005MPS",
    "ZMCK": "TAF ZMCK 221053Z 2212/2318 VRB02MPS 9999 FEW030CB SCT033 TN12/2221Z TX30/2307Z",
    "UUEE": "TAF UUEE 221056Z 2212/2312 21003G08MPS 9999 SCT020 TX24/2212Z TN14/2301Z PROB40 TEMPO 2212/2218 -TSRA BKN016CB TEMPO 2300/2305 BKN010 BECMG 2306/2309 27005MPS PROB40 TEMPO 2306/2312 -TSRA BKN016CB",
    "UUDD": "TAF UUDD 221054Z 2212/2318 21005MPS 9999 BKN016 TX24/2212Z TN14/2301Z PROB40 TEMPO 2212/2218 -TSRA BKN020CB BECMG 2304/2306 27006MPS",
    "ULLI": "TAF ULLI 221053Z 2212/2312 30003G08MPS 6000 BKN016 TEMPO 2212/2217 3100 -TSRA BKN016CB TEMPO 2222/2303 0300 FG SCT003",
    "USSS": "TAF USSS 221050Z 2212/2312 35003G14MPS 9999 SCT040CB TEMPO 2212/2218 -TSRA FM221800 30003MPS 6000 SCT016 FM230300 04003G12MPS 9999 SCT040CB",
    "UNNT": "TAF UNNT 221100Z 2212/2312 31003G08MPS 8000 BKN030 TX25/2309Z TN17/2222Z TEMPO 2212/2218 01008G18MPS -TSRA BKN016CB TEMPO 2218/2302 0300 -TSRA FG BKN002 BKN020CB TEMPO 2302/2312 -TSRA BKN020CB",
    "UNKL": "TAF UNKL 221047Z 2212/2312 22003G08MPS 8000 SCT040 TEMPO 2212/2215 27007G16MPS -TSRAGR BKN010 BKN016CB TEMPO 2215/2218 -TSRA BKN016CB BECMG 2221/2223 27005G12MPS TEMPO 2303/2312 -TSRA BKN017CB",
    "UIBB": "TAF UIBB 221100Z 2212/2312 10003G08MPS 9999 BKN050CB TEMPO 2212/2215 VRB08MPS BECMG 2221/2223 23005MPS",
    "UEEE": "TAF UEEE 221100Z 2212/2318 01003G08MPS 9999 SCT030CB BKN100 TEMPO 2212/2223 VRB01MPS 0500 -TSRA FG VV003",
    "UHHH": "TAF UHHH 221051Z 2212/2318 05003MPS 9999 SCT020CB TX30/2305Z TN20/2218Z",
    "UHSS": "TAF UHSS 221045Z 2212/2318 VRB01MPS 9999 BKN004 BECMG 2213/2216 0700 FG BKN002 BECMG 2222/2301 36003MPS NSW SCT040CB"
  },
  "atis": {},
  "windtemp_alaska": "\n000\nFBAK31 KWNO 220800\nFD1AK1\nDATA BASED ON 220600Z    \nVALID 221200Z   FOR USE 0800-1500Z. TEMPS NEG ABV 24000\n\nFT  3000    6000    9000   12000   18000   24000  30000  34000  39000\nADK 2455 2454+13 2549+10 2446+05 2546-05 2543-16 254631 254441 274954\nADQ 2525 2544+08 2446+04 2443-01 2540-12 2743-21 294634 306045 316057\nAKN 2324 2426+04 2529+02 2538-02 2643-12 2857-19 286735 286944 285153\nANC 1713 2117+01 2219-02 2223-06 2552-17 2565-26 267839 278047 275046\nANN 3424 3315+11 3117+07 3020+03 2824-12 2727-25 292644 302853 263249\nBET 2217 2417+02 2424+00 2426-04 2638-13 2758-21 278535 279445 287548\nBRW 2310 1319+07 1030+02 1032-03 1129-15 1131-27 124444 135050 133247\nBTI 1906 1713+10 1617+03 1526-03 1631-15 1426-27 132441 143150 162450\nBTT 1512 1606+02 1309-03 1219-08 1429-19 1530-31 134345 153442 181640\nCDB 2225 2333+11 2438+05 2539-01 2734-08 2940-18 305832 307143 307755\nCZF 1809 2008+02 2012-02 2117-06 2431-15 2552-23 258139 760544 276844\nEHM 2116 2530+05 2541+01 2540-03 2760-10 2759-19 266234 266745 276850\nFAI 2219 2512+01 2318-04 2322-08 1930-21 1642-30 164343 203239 202141\nFYU 2116 1613+06 1621-02 1625-06 1728-17 1737-28 173045 163947 172543\nGAL 1911 1606+00 1506-04 1313-10 1313-20 1410-33 261841 272237 252039\nGKN 1628 1934+01 2222-02 2228-05 2337-15 2352-25 246942 256449 243646\nHOM 2118 2010+02 2423+00 2534-02 2548-13 2550-23 296237 298647 296853\nJNU 2406 2914+05 3023+03 3127-02 3141-14 3052-25 315943 315753 292146\nLUR 2712 2811+01 9900-03 1607-08 1123-19 1226-32 103646 112942 131540\nMCG 2129 2123+00 2416-06 2318-09 2526-19 2637-30 288338 286640 273941\nMDO 2329 2340+06 2452+03 2454-02 2449-13 2442-24 265438 285350 304553\nOME 9900 0718+01 0817-05 1013-10 1715-20 2216-31 265741 254041 252639\nORT      2110+04 1919+00 2023-04 2131-14 2238-26 234343 255252 232346\nOTZ 1005 1206+01 9900-04 9900-10 1321-20 1422-32 152446 181140 201239\nSNP 2350 2353+11 2451+07 2449+02 2564-07 2575-18 268633 279642 770153\nTKA 1923 2018-01 2126-04 2138-08 2439-20 2567-29 267238 265840 263743\nUNK 1411 1408-01 1411-02 1611-07 2309-20 2620-30 287240 275241 263240\nYAK 2812 2821+03 2933+02 2943-02 2732-13 2729-25 283442 324553 292750\nIKO 2431 2434+12 2442+07 2542+03 2741-06 2841-16 293632 303643 315054\nAFM 1407 1307+02 1308-04 1508-10 1013-18 1118-31 123446 131642 180839\n5AB 2532 2535+11 2537+09 2438+04 2347-07 2367-16 238231 239342 239153\n5AC 3634 3423+09 3318+08 3216+04 2913-11 2814-25 261742 252250 242853\n5AD 2620 2616+07 2614+04 2715-01 2614-13 2812-25 321442 321751 332055\n5AE 2441 2534+08 2535+05 2438-01 2634-11 2834-20 323634 323246 324657\n5AF 3226 3127+07 3225+04 3024+00 2822-12 3023-25 282443 292553 292553\n5AG 2623 2622+06 2624+03 2630-01 2735-14 2730-25 282742 333652 302953\n",
  "vaac_active": [
    {
      "volcano": "SHEVELUCH",
      "volcano_jp": "シベルチ",
      "advisory_nr": "2026/215",
      "obs_time": "2026-07-22 09:30Z",
      "issued_time": "2026-07-22 09:30Z",
      "text_url": "https://www.data.jma.go.jp/vaac/data/TextData/2026/20260722_30027000_0215_AN_Text.html",
      "lat": 56.65,
      "lon": 161.367,
      "text": "FVFE01 RJTD 220945\nVAAAK1\nVA ADVISORY\n\nDTG: 20260722/0930Z\n\nVAAC: ANCHORAGE\n\nVOLCANO: SHEVELUCH 300270\n\nPSN: N5639 E16122\n\nAREA: KAMCHATKA PENINSULA\n\nSOURCE ELEV: 10771 FT AMSL\n\nADVISORY NR: 2026/215\n\nINFO SOURCE: HIMAWARI/GOES\n\nERUPTION DETAILS: VA CONTINUOUSLY OBS IN SATELLITE IMAGERY\n\nOBS VA DTG: 22/0930Z\n\nOBS VA CLD: SFC/FL320 N6507 W16714 - N6212 W16318 - N6201 W17748\n- N6518 W16953 - N6507 W16714 MOV E 100KT\n\nFCST VA CLD +6HR: 22/1530Z SFC/FL320 N6215 W14746 - N6102 W14944\n- N6342 W17247 - N6702 W16420 - N6215 W14746 - N6215 W14746\n\nFCST VA CLD +12HR: 22/2130Z NO VA EXP\n\nFCST VA CLD +18HR: 23/0330Z NO VA EXP\n\nRMK: NIL...BS\n\nNXT ADVISORY: WILL BE ISSUED BY 20260722/1530Z="
    },
    {
      "volcano": "SHEVELUCH",
      "volcano_jp": "シベルチ",
      "advisory_nr": "2026/214",
      "obs_time": "2026-07-22 06:55Z",
      "issued_time": "2026-07-22 06:55Z",
      "text_url": "https://www.data.jma.go.jp/vaac/data/TextData/2026/20260722_30027000_0214_AN_Text.html",
      "lat": 56.65,
      "lon": 161.367,
      "text": "FVFE01 RJTD 220702\nVAAAK1\nVA ADVISORY\n\nDTG: 20260722/0655Z\n\nVAAC: ANCHORAGE\n\nVOLCANO: SHEVELUCH 300270\n\nPSN: N5639 E16122\n\nAREA: KAMCHATKA PENINSULA\n\nSOURCE ELEV: 10771 FT AMSL\n\nADVISORY NR: 2026/214\n\nINFO SOURCE: HIMAWARI/GOES\n\nERUPTION DETAILS: VA FROM 21072026 ERUPTION AT 2050Z\n\nOBS VA DTG: 22/0655Z\n\nOBS VA CLD: SFC/FL370 N6325 W17647 - N6208 W17155 - N5938 E17936\n- N6127 E17648 - N6325 W17647 MOV E 100KT\n\nFCST VA CLD +6HR: 22/1255Z SFC/FL370 N6521 W16946 - N6338 W15627\n- N6228 W16439 - N6354 W17303 - N6521 W16946\n\nFCST VA CLD +12HR: 22/1855Z SFC/FL370 N6430 W14200 - N6152\nW14452 - N6360 W15422 - N6558 W15114 - N6430 W14200 - N6430 W14200\n\nFCST VA CLD +18HR: 23/0055Z NO VA EXP\n\nRMK: VA SIGNAL WEAKENING OF SAT IMAGERY...BH\n\nNXT ADVISORY: WILL BE ISSUED BY 20260722/1255Z="
    },
    {
      "volcano": "SHEVELUCH",
      "volcano_jp": "シベルチ",
      "advisory_nr": "2026/276",
      "obs_time": "2026-07-22 04:30Z",
      "issued_time": "2026-07-22 05:06Z",
      "text_url": "https://www.data.jma.go.jp/vaac/data/TextData/2026/20260722_30027000_0276_Text.html",
      "lat": 56.65,
      "lon": 161.367,
      "text": "FVFE01 RJTD 220506\nVA ADVISORY\nDTG: 20260722/0506Z\nVAAC: TOKYO\nVOLCANO: SHEVELUCH 300270\nPSN: N5639 E16122\nAREA: RUSSIA\nSOURCE ELEV: 3283M AMSL\nADVISORY NR: 2026/276\nINFO SOURCE: HIMAWARI-9\nERUPTION DETAILS: VA CONTINUOUSLY OBS IN SATELLITE IMAGERY\nOBS VA DTG: 22/0430Z\nOBS VA CLD: SFC/FL350 N6057 E17954 - N6010 W17949 - N5908 E17504 - \nN5937 E17453 - N6015 E17614 MOV NE 100KT\nFCST VA CLD +6 HR: 22/1030Z SFC/FL370 N6217 W15947 - N6303 W17404 - \nN6354 W17256 - N6401 W16626\nFCST VA CLD +12 HR: 22/1630Z SFC/FL380 N6204 W14422 - N6050 W14304 - \nN6532 W16429 - N6624 W16339\nFCST VA CLD +18 HR: 22/2230Z SFC/FL390 N6338 W13523 - N5921 W13421 - \nN6726 W15737 - N6713 W15453\nRMK: THE RESPONSIBILITY FOR THIS ASH EVENT IS BEING TRANSFERRED TO \nVAAC ANCHORAGE. THE NEXT ADVISORY WILL BE ISSUED BY VAAC ANCHORAGE \nBY 0700UTC UNDER HEADER FVAK21 PAWU. SOUTHERN PART OF VA OBSCURED BY \nMET CLOUD.\nNXT ADVISORY: NO FURTHER ADVISORIES="
    }
  ],
  "vaac_tokyo": [
    {
      "id": "20260722_30027000_0276",
      "year": "2026",
      "volcano": "Sheveluch",
      "psn": "N5639 E16122",
      "issued": "20260722",
      "text": "FVFE01 RJTD 220506\nVA ADVISORY\nDTG: 20260722/0506Z\nVAAC: TOKYO\nVOLCANO: SHEVELUCH 300270\nPSN: N5639 E16122\nAREA: RUSSIA\nSOURCE ELEV: 3283M AMSL\nADVISORY NR: 2026/276\nINFO SOURCE: HIMAWARI-9\nERUPTION DETAILS: VA CONTINUOUSLY OBS IN SATELLITE IMAGERY\nOBS VA DTG: 22/0430Z\nOBS VA CLD: SFC/FL350 N6057 E17954 - N6010 W17949 - N5908 E17504 - \nN5937 E17453 - N6015 E17614 MOV NE 100KT\nFCST VA CLD +6 HR: 22/1030Z SFC/FL370 N6217 W15947 - N6303 W17404 - \nN6354 W17256 - N6401 W16626\nFCST VA CLD +12 HR: 22/1630Z SFC/FL380 N6204 W14422 - N6050 W14304 - \nN6532 W16429 - N6624 W16339\nFCST VA CLD +18 HR: 22/2230Z SFC/FL390 N6338 W13523 - N5921 W13421 - \nN6726 W15737 - N6713 W15453\nRMK: THE RESPONSIBILITY FOR THIS ASH EVENT IS BEING TRANSFERRED TO \nVAAC ANCHORAGE. THE NEXT ADVISORY WILL BE ISSUED BY VAAC ANCHORAGE \nBY 0700UTC UNDER HEADER FVAK21 PAWU. SOUTHERN PART OF VA OBSCURED BY \nMET CLOUD.\nNXT ADVISORY: NO FURTHER ADVISORIES=",
      "img_url": "https://ds.data.jma.go.jp/svd/vaac/data/VAGFN/2026/Images/20260722_30027000_0276_QH21_01.png",
      "sat_img_url": "https://ds.data.jma.go.jp/svd/vaac/data/Sat/2026/Images/30027000/09-ir/20260722_0430_202607220506_ir.png",
      "text_url": "https://ds.data.jma.go.jp/svd/vaac/data/TextData/2026/20260722_30027000_0276_Text.html"
    },
    {
      "id": "20260722_28505000_0001",
      "year": "2026",
      "volcano": "Tokachidake",
      "psn": "N4325 E14241",
      "issued": "20260722",
      "text": "FVFE01 RJTD 220219\nVA ADVISORY\nDTG: 20260722/0219Z\nVAAC: TOKYO\nVOLCANO: TOKACHIDAKE 285050\nPSN: N4325 E14241\nAREA: JAPAN\nSOURCE ELEV: 2077M AMSL\nADVISORY NR: 2026/1\nINFO SOURCE: JMA HIMAWARI-9\nERUPTION DETAILS: ERUPTED AT 20260722/0207Z FL070 STNR\nOBS VA DTG: 22/0200Z\nOBS VA CLD: VA NOT IDENTIFIABLE FM SATELLITE DATA WIND FL070 290/9KT\nFCST VA CLD +6 HR: NOT AVBL\nFCST VA CLD +12 HR: NOT AVBL\nFCST VA CLD +18 HR: NOT AVBL\nRMK: WE WILL ISSUE FURTHER ADVISORY IF VA IS DETECTED IN SATELLITE \nIMAGERY.\nNXT ADVISORY: NO FURTHER ADVISORIES=",
      "img_url": "https://ds.data.jma.go.jp/svd/vaac/data/VAGFN/2026/Images/20260722_28505000_0001_QH21_01.png",
      "sat_img_url": null,
      "text_url": "https://ds.data.jma.go.jp/svd/vaac/data/TextData/2026/20260722_28505000_0001_Text.html"
    },
    {
      "id": "20260721_27307000_0019",
      "year": "2026",
      "volcano": "Taal",
      "psn": "N1400 E12100",
      "issued": "20260721",
      "text": "FVFE01 RJTD 211319\nVA ADVISORY\nDTG: 20260721/1319Z\nVAAC: TOKYO\nVOLCANO: TAAL 273070\nPSN: N1400 E12100\nAREA: PHILIPPINES\nSOURCE ELEV: 311M AMSL\nADVISORY NR: 2026/19\nINFO SOURCE: HIMAWARI-9 PHIVOLCS\nERUPTION DETAILS: ERUPTION AT 20260721/1209Z FL110 REPORTED\nOBS VA DTG: 21/1250Z\nOBS VA CLD: SFC/FL110 N1404 E12056 - N1359 E12050 - N1354 E12057 - \nN1358 E12100 MOV W 15KT\nFCST VA CLD +6 HR: 21/1850Z SFC/FL130 N1329 E12051 - N1306 E12036 - \nN1322 E11953 - N1339 E12003\nFCST VA CLD +12 HR: 22/0050Z SFC/FL140 N1259 E12029 - N1227 E12001 - \nN1251 E11858 - N1320 E11911\nFCST VA CLD +18 HR: NO VA EXP\nRMK: NIL\nNXT ADVISORY: 20260721/1800Z=",
      "img_url": "https://ds.data.jma.go.jp/svd/vaac/data/VAGFN/2026/Images/20260721_27307000_0019_QH21_01.png",
      "sat_img_url": "https://ds.data.jma.go.jp/svd/vaac/data/Sat/2026/Images/27307000/09-ir/20260721_1250_202607211319_ir.png",
      "text_url": "https://ds.data.jma.go.jp/svd/vaac/data/TextData/2026/20260721_27307000_0019_Text.html"
    },
    {
      "id": "20260721_28208001_0086",
      "year": "2026",
      "volcano": null,
      "psn": "N3136 E13039",
      "issued": "20260721",
      "text": "FVFE01 RJTD 210627\nVA ADVISORY\nDTG: 20260721/0627Z\nVAAC: TOKYO\nVOLCANO: SAKURAJIMA (AIRA CALDERA) 282080\nPSN: N3136 E13039\nAREA: JAPAN\nSOURCE ELEV: 1117M AMSL\nADVISORY NR: 2026/86\nINFO SOURCE: JMA HIMAWARI-9\nERUPTION DETAILS: ERUPTED AT 20260721/0514Z FL140 STNR\nOBS VA DTG: 21/0610Z\nOBS VA CLD: SFC/FL140 N3140 E13037 - N3139 E13043 - N3131 E13043 - \nN3131 E13036 MOV S 5KT\nFCST VA CLD +6 HR: 21/1210Z SFC/FL140 N3207 E13054 - N3118 E13054 - \nN3119 E13021 - N3159 E13012\nFCST VA CLD +12 HR: 21/1810Z SFC/FL140 N3224 E13103 - N3138 E13035 - \nN3138 E12953 - N3315 E13009\nFCST VA CLD +18 HR: NO VA EXP\nRMK: NIL\nNXT ADVISORY: 20260721/1200Z=",
      "img_url": "https://ds.data.jma.go.jp/svd/vaac/data/VAGFN/2026/Images/20260721_28208001_0086_QH21_01.png",
      "sat_img_url": "https://ds.data.jma.go.jp/svd/vaac/data/Sat/2026/Images/28208001/09-ir/20260721_0610_202607210627_ir.png",
      "text_url": "https://ds.data.jma.go.jp/svd/vaac/data/TextData/2026/20260721_28208001_0086_Text.html"
    }
  ],
  "vaac_alaska": [
    {
      "text": "\n000\nFVAK21 PAWU 220942\nVAAAK1\nVA ADVISORY\n\nDTG: 20260722/0930Z\n\nVAAC: ANCHORAGE\n\nVOLCANO: SHEVELUCH 300270\n\nPSN: N5639 E16122\n\nAREA: KAMCHATKA PENINSULA\n\nSOURCE ELEV: 10771 FT AMSL\n\nADVISORY NR: 2026/215\n\nINFO SOURCE: HIMAWARI/GOES\n\nERUPTION DETAILS: VA CONTINUOUSLY OBS IN SATELLITE IMAGERY\n\nOBS VA DTG: 22/0930Z\n\nOBS VA CLD: SFC/FL320 N6507 W16714 - N6212 W16318 - N6201 W17748\n- N6518 W16953 - N6507 W16714 MOV E 100KT\n\nFCST VA CLD +6HR: 22/1530Z SFC/FL320 N6215 W14746 - N6102 W14944\n- N6342 W17247 - N6702 W16420 - N6215 W14746 - N6215 W14746\n\nFCST VA CLD +12HR: 22/2130Z NO VA EXP\n\nFCST VA CLD +18HR: 23/0330Z NO VA EXP\n\nRMK: NIL...BS\n\nNXT ADVISORY: WILL BE ISSUED BY 20260722/1530Z=\n\n",
      "issued": "2026-07-22T09:42:00+00:00",
      "volcano": "Sheveluch",
      "psn": "N5639 E16122"
    }
  ]
}