{
  "updated_utc": "2026-07-04T07:25Z",
  "metar": {
    "RJAA": "METAR RJAA 040530Z 14010KT 9999 VCSH FEW018 SCT035 BKN050 25/21 Q1011 NOSIG",
    "PANC": "METAR PANC 040553Z 20006KT 10SM FEW036 BKN090 BKN130 13/07 A2990 RMK AO2 SLP125 T01280072 10161 20128 53004",
    "PAFA": "METAR PAFA 040553Z 00000KT 10SM FEW070 SCT085 SCT110 BKN200 16/10 A2975 RMK AO2 SLP078 60000 T01610100 10217 20156 58002 $",
    "PAED": "METAR PAED 040555Z 23013KT 10SM BKN035 BKN050 OVC080 14/07 A2988 RMK AO2A SLP114 T01430073 10164 20139 52007 $",
    "KSEA": "METAR KSEA 040553Z 00000KT 10SM SCT150 SCT250 14/12 A3008 RMK AO2 SLP191 T01440117 10228 20144 50001 $",
    "ZSPD": "METAR ZSPD 040530Z 34007MPS 300V040 9999 -SHRA FEW030CB 31/25 Q1007 BECMG TL0600 33008G14MPS SHRA",
    "ZSSS": "METAR ZSSS 040530Z 33004MPS 300V360 9999 FEW030 29/24 Q1008 NOSIG",
    "RJFR": "METAR RJFR 040600Z 09004KT 9999 FEW010 BKN025 BKN030 24/23 Q1007",
    "VHHH": "METAR VHHH 040530Z 15014G24KT 120V190 9999 VCSH FEW010 FEW015CB SCT025 31/25 Q1009 TEMPO 16025G35KT 2000 TSRA +SHRA FEW008CB SCT015",
    "RCTP": "METAR RCTP 040530Z 29013KT 9999 FEW020 BKN220 34/25 Q1011 NOSIG RMK A2986",
    "ZGSZ": "METAR ZGSZ 040600Z 16009MPS 9999 TS FEW023CB BKN030 31/26 Q1009 BECMG AT0620 2000 +TSRA",
    "WSSS": "METAR WSSS 040530Z 13009KT 080V160 9999 FEW020TCU BKN300 32/25 Q1010 NOSIG",
    "WMKK": "METAR WMKK 040530Z VRB05KT 9999 FEW017CB SCT018 33/25 Q1009 NOSIG",
    "WIDD": "METAR WIDD 040530Z 15009KT 110V190 9999 SCT014 32/25 Q1011 NOSIG",
    "VTBS": "METAR VTBS 040530Z 22007KT 190V250 9999 FEW020 30/23 Q1009 NOSIG",
    "VTBU": "METAR VTBU 040530Z VRB02KT 9000 -RA FEW020 BKN100 27/27 Q1009 NOSIG",
    "ROAH": "METAR ROAH 040530Z 23008KT 9999 FEW010 30/27 Q1013",
    "VVDN": "METAR VVDN 040530Z 20011KT 9999 FEW015 SCT070 32/24 Q1005 NOSIG",
    "RCKH": "METAR RCKH 040530Z 19010KT 150V230 9999 FEW030 33/25 Q1011 NOSIG RMK A2986",
    "KLAX": "SPECI KLAX 040527Z 26008KT 10SM BKN009 BKN200 18/16 A3002 RMK AO2 T01780156 $",
    "KONT": "METAR KONT 040553Z 25005KT 10SM SCT250 BKN300 22/12 A3002 RMK AO2 SLP151 T02220117 10317 20217 51016 $",
    "KSFO": "METAR KSFO 040556Z 30011KT 10SM FEW003 13/12 A3001 RMK AO2 SLP161 T01330117 10194 20133 51014 $",
    "KOAK": "METAR KOAK 040553Z 30007KT 10SM FEW003 FEW006 13/12 A3002 RMK AO2 SLP164 T01330122 10194 20133 53013 $",
    "KMHR": "METAR KMHR 040535Z AUTO 19005KT 10SM CLR 20/13 A2992 RMK AO2 T02040128",
    "KDFW": "METAR KDFW 040553Z 17011KT 10SM FEW250 30/21 A2998 RMK AO2 SLP140 T03000206 10350 20294 403670256 50006 $",
    "KIAH": "METAR KIAH 040553Z 21003KT 10SM FEW035 FEW250 28/25 A3003 RMK AO2 SLP168 T02830250 10328 20283 403560239 50013",
    "KORD": "METAR KORD 040551Z 24007KT 10SM -RA FEW065 BKN120 OVC250 21/20 A2998 RMK AO2 SLP146 P0004 60136 T02110200 10283 20211 403110211 58016 $",
    "KJFK": "METAR KJFK 040551Z 27007KT 10SM FEW070 SCT110 BKN250 27/19 A2992 RMK SLP132 60000 T02670189 10333 20250 50000 $",
    "KRFD": "METAR KRFD 040554Z 00000KT 10SM FEW050 FEW070 BKN180 OVC250 21/20 A3000 RMK AO2 SLP157 60032 T02060200 10283 20206 403060200 58001",
    "KIND": "METAR KIND 040554Z 22010KT 10SM BKN250 26/21 A3005 RMK AO2 SLP166 T02560211 10306 20256 53002",
    "KDTW": "METAR KDTW 040553Z 24003KT 10SM FEW040 BKN140 BKN200 22/19 A3000 RMK AO2 SLP153 60000 T02170189 10233 20217 55006 $",
    "KMSP": "METAR KMSP 040553Z 07014G23KT 10SM SCT041 BKN090 OVC110 22/19 A3002 RMK AO2 SLP162 T02170194 10294 20217 403000211 53021",
    "CYEG": "METAR CYEG 040600Z 17002KT 20SM FEW087 FEW250 12/11 A2992 RMK AC1CI2 AC TR SLP139 DENSITY ALT 2600FT",
    "EHAM": "METAR EHAM 040555Z 24009KT CAVOK 19/14 Q1024 NOSIG",
    "EBBR": "METAR EBBR 040550Z 23008KT CAVOK 17/11 Q1027 NOSIG",
    "EDDF": "METAR EDDF 040550Z AUTO 28011KT CAVOK 17/09 Q1027 NOSIG",
    "EDFH": "METAR EDFH 040550Z 28004KT 240V320 CAVOK 13/09 Q1028",
    "EDDL": "METAR EDDL 040550Z AUTO 20006KT 170V240 CAVOK 16/10 Q1026 BECMG 25012KT",
    "EDDK": "METAR EDDK 040550Z AUTO 15004KT 130V190 CAVOK 15/11 Q1027 NOSIG",
    "EBLG": "METAR EBLG 040550Z 20006KT CAVOK 15/10 Q1028 NOSIG",
    "LSZH": "METAR LSZH 040550Z VRB01KT 9999 FEW075 17/10 Q1028 NOSIG",
    "LIMC": "METAR LIMC 040550Z 36006KT CAVOK 24/12 Q1021 NOSIG",
    "LIRF": "METAR LIRF 040550Z 05009KT CAVOK 26/13 Q1017 NOSIG",
    "EINN": "METAR EINN 040530Z 25013KT 7000 -DZ FEW005 BKN007 16/15 Q1027 TEMPO 4000",
    "EGLL": "METAR EGLL 040550Z AUTO 27012KT 9999 OVC009 16/14 Q1027",
    "EGSS": "METAR EGSS 040550Z AUTO 27005KT 230V310 9999 NCD 16/13 Q1027",
    "EPWA": "METAR EPWA 040530Z 27013KT 9999 BKN035 16/09 Q1016 NOSIG",
    "UHPP": "METAR UHPP 040530Z 20004MPS 9999 FEW030CB BKN046 BKN063 14/10 Q1015 R16R/CLRD62 NOSIG RMK MT OBSC QFE758/1011",
    "EFHK": "METAR EFHK 040550Z 08005KT 050V110 9999 VCSH FEW004 BKN011 FEW020CB 17/14 Q1003 TEMPO SCT010 FEW020CB",
    "LBBG": "METAR LBBG 040530Z 35011KT 9999 BKN037 21/14 Q1013 TEMPO 5000 SHRA FEW030CB",
    "LTAC": "METAR LTAC 040550Z VRB02KT CAVOK 21/10 Q1014 NOSIG",
    "UBBB": "METAR UBBB 040530Z 16012KT 130V190 CAVOK 28/15 Q1006 NOSIG",
    "UTAA": "METAR UTAA 040600Z 02006KT 340V070 9999 NSC 33/05 Q1007 R88/CLRD70 NOSIG",
    "UACC": "METAR UACC 040530Z 25006MPS 220V290 9999 BKN030 24/13 Q1006 NOSIG RMK QFE723/0964",
    "UAAA": "METAR UAAA 040530Z 30002MPS 240V350 9999 SCT050CB BKN200 22/16 Q1006 NOSIG",
    "UZTT": "METAR UZTT 040530Z 17004KT CAVOK 27/15 Q1009 NOSIG",
    "ZWWW": "METAR ZWWW 040530Z 29003MPS 250V330 CAVOK 29/13 Q1008 NOSIG",
    "ZLXY": "METAR ZLXY 040600Z 08002MPS 030V140 9999 FEW040 34/18 Q1003 NOSIG",
    "ZBAA": "METAR ZBAA 040530Z VRB01MPS CAVOK 32/23 Q0998 NOSIG",
    "ZBHH": "METAR ZBHH 040600Z 22001MPS 9999 -TSRA SCT040 FEW040CB 26/16 Q1006 BECMG TL0700 03005MPS NSW",
    "ZSQD": "METAR ZSQD 040600Z 14008MPS CAVOK 30/21 Q1003 NOSIG",
    "ZMCK": "METAR ZMCK 040530Z 35007G12MPS 310V010 9999 FEW030CB BKN033 21/11 Q1012 NOSIG RMK QFE644.1 54 MOP",
    "UUEE": "METAR UUEE 040530Z 09004MPS 9999 SCT015CB 19/15 Q1005 R06R/CLRD62 R06C/CLRD62 NOSIG",
    "UUDD": "METAR UUDD 040530Z 06002MPS 020V090 9999 FEW011 19/17 Q1005 R13R/290045 NOSIG",
    "ULLI": "METAR ULLI 040530Z 17002MPS 140V200 9999 OVC007 16/15 Q1004 R88/090065 NOSIG RMK OBST OBSC",
    "USSS": "METAR USSS 040530Z 34006MPS 9999 FEW031 22/16 Q1004 R26R/CLRD60 R26L/220060 NOSIG RMK QFE732/0977",
    "UNNT": "METAR UNNT 040530Z 18004G09MPS 150V220 CAVOK 27/18 Q1006 R25/CLRD// R34/////// NOSIG RMK QFE745/0993",
    "UNKL": "METAR UNKL 040530Z 12006MPS CAVOK 29/17 Q1008 R11/CLRD// NOSIG RMK QFE730",
    "UIBB": "METAR UIBB 040530Z 12003MPS 060V200 9999 SCT043CB 26/14 Q1012 R12/CLRD62 NOSIG RMK QFE716/0955",
    "UEEE": "METAR UEEE 040530Z 15004MPS CAVOK 29/09 Q1004 R23/09//62 NOSIG RMK QFE744",
    "UHHH": "METAR UHHH 040530Z 21003MPS 160V250 9999 FEW039 29/18 Q1003 R23R/090060 NOSIG RMK QFE746/0995",
    "UHSS": "METAR UHSS 040530Z 18007MPS 9999 NSC 22/17 Q1010 R19/CLRD70 NOSIG RMK QFE756/1008"
  },
  "taf": {
    "RJAA": "TAF RJAA 040505Z 0406/0512 15010KT 9999 FEW008 BKN015 TEMPO 0410/0412 FEW005 BKN008 TEMPO 0412/0415 FEW003 BKN005 TEMPO 0415/0500 4000 -RA BR FEW001 BKN003 TEMPO 0500/0503 FEW005 BKN008",
    "PANC": "TAF PANC 040523Z 0406/0512 21007KT P6SM -SHRA SCT025 BKN045 OVC070 FM041200 VRB04KT 5SM -RA BR OVC025 FM042000 30006KT P6SM VCSH SCT025 BKN040 FM050100 16015G25KT P6SM FEW040 BKN080 FM050900 34004KT P6SM VCSH OVC040",
    "PAFA": "TAF PAFA 040520Z 0406/0512 VRB03KT P6SM FEW070 BKN090 FM042100 21004KT P6SM VCSH BKN050 FM050000 22004KT P6SM -SHRA VCTS BKN050CB FM050600 20004KT P6SM SCT060 BKN100",
    "PAED": "TAF PAED 032100Z 0321/0503 24009KT 9999 SCT035 BKN060 620604 QNH2985INS BECMG 0406/0407 20007KT 9999 -SHRA BKN025 OVC040 620258 QNH2994INS BECMG 0410/0411 20006KT 9000 -RA BKN015 OVC020 620159 QNH2995INS TX17/0400Z TN10/0414Z",
    "KSEA": "TAF KSEA 040520Z 0406/0512 35006KT P6SM SCT040 BKN150 FM040800 31004KT P6SM OVC050 FM041200 21004KT P6SM BKN025 OVC030 FM041700 22008KT P6SM BKN050 FM050200 30006KT P6SM SCT250",
    "ZSPD": "TAF ZSPD 040308Z 0406/0512 20004MPS 6000 -SHRA BKN020 TX32/0406Z TX31/0506Z TN24/0421Z TEMPO 0406/0408 33008G13MPS 2800 TSRA BKN010 SCT030CB TEMPO 0408/0412 32008G13MPS 2500 TSRA BKN011 SCT030CB TEMPO 0416/0419 2800 TSRA BKN011 SCT030CB",
    "ZSSS": "TAF ZSSS 040308Z 0406/0512 20004MPS 6000 BKN030 TX34/0406Z TX32/0506Z TN24/0421Z TEMPO 0407/0411 33008G13MPS 2500 TSRA BKN010 SCT030CB TEMPO 0416/0419 2500 TSRA BKN010 SCT030CB",
    "RJFR": "TAF RJFR 040505Z 0406/0512 28008KT 9999 FEW008 SCT025 BKN030 BECMG 0421/0500 10008KT TEMPO 0503/0506 4000 -SHRA BR BKN005 BKN035 TEMPO 0506/0512 BKN005 BKN020 BECMG 0509/0512 06004KT",
    "VHHH": "TAF VHHH 040500Z 0406/0512 16015KT 9999 FEW010 SCT025 TX31/0406Z TX32/0506Z TN27/0422Z TEMPO 0406/0412 16025G35KT 2000 TSRA +SHRA FEW008CB SCT015 PROB30 TEMPO 0418/0424 16015G25KT 2500 TSRA SHRA FEW010CB SCT020 TEMPO 0502/0506 3000 SHRA FEW010CB SCT020",
    "RCTP": "TAF RCTP 040500Z 0406/0512 23008KT 9999 FEW010 BKN032 TEMPO 0406/0411 29013KT 5000 SHRA FEW010 BKN017 FEW022TCU TEMPO 0418/0424 15005KT TEMPO 0502/0508 25013KT",
    "ZGSZ": "TAF AMD ZGSZ 040624Z 0406/0512 17006MPS 8000 BKN040 TX32/0406Z TX31/0506Z TN27/0422Z TEMPO 0406/0409 18011G18MPS 1000 +TSRA SCT012 FEW025CB BKN033 TEMPO 0410/0413 SHRA FEW025CB BKN033 TEMPO 0418/0422 SHRA FEW025CB BKN033 TEMPO 0503/0507 TSRA SCT012 FEW025CB BKN033",
    "WSSS": "TAF WSSS 040500Z 0406/0512 13008KT 9999 FEW015 SCT020",
    "WMKK": "TAF WMKK 040500Z 0406/0512 15005KT 9999 FEW030 PROB30 TEMPO 0406/0410 5000 TSRA FEW017CB",
    "VTBS": "TAF VTBS 040500Z 0406/0512 22008KT 9999 FEW020 TEMPO 0410/0414 VRB15KT 4000 TSRA FEW018CB SCT030 BKN080 TEMPO 0422/0502 -TSRA FEW018CB SCT030 BKN080",
    "VTBU": "TAF VTBU 040500Z 0406/0506 23008KT 9000 FEW020 SCT100 TEMPO 0406/0412 VRB15KT 4000 TSRA FEW018CB SCT030 BKN090",
    "ROAH": "TAF ROAH 040505Z 0406/0512 21006KT 9999 FEW012",
    "VVDN": "TAF VVDN 040500Z 0406/0506 19010KT 8000 FEW017 SCT060",
    "RCKH": "TAF RCKH 040500Z 0406/0512 18008KT 9999 FEW010 BKN032 TEMPO 0406/0412 24013KT TEMPO 0418/0424 14005KT TEMPO 0502/0508 24013KT",
    "KLAX": "TAF KLAX 040548Z 0406/0512 26008KT P6SM BKN009 BKN200 FM041100 VRB03KT P6SM OVC007 FM041600 VRB03KT P6SM BKN010 FM041800 26007KT P6SM SCT250 FM042100 26012KT P6SM SCT250 FM050500 25008KT P6SM BKN250 FM050900 26006KT P6SM SCT015 SCT250",
    "KONT": "TAF KONT 040520Z 0406/0512 VRB05KT P6SM BKN200 FM042100 25011KT P6SM SCT080 BKN120 FM050500 VRB05KT 5SM FU HZ FEW008 SCT150 FM050700 VRB04KT P6SM SCT150",
    "KSFO": "TAF KSFO 040520Z 0406/0512 31014KT P6SM FEW250 FM040700 28006KT P6SM SCT008 FM041600 VRB05KT P6SM FEW010 FM042100 28015KT P6SM SKC FM050300 29009KT P6SM FEW012",
    "KOAK": "TAF KOAK 040520Z 0406/0512 30010KT P6SM FEW250 FM040700 29005KT P6SM OVC007 FM041700 29007KT P6SM SKC FM042100 30013KT P6SM SKC FM050400 29011KT P6SM BKN009",
    "KMHR": "TAF KMHR 040520Z 0406/0506 21007KT P6SM SKC FM041000 16009KT P6SM SKC FM041400 VRB05KT P6SM SKC FM042300 23009KT P6SM SKC",
    "KDFW": "TAF KDFW 040520Z 0406/0512 16010KT P6SM FEW250",
    "KIAH": "TAF KIAH 040525Z 0406/0512 20004KT P6SM FEW040 TEMPO 0410/0413 24004KT 6SM BR FM041300 24006KT P6SM FEW025 FM041900 18007KT P6SM FEW040 FM042200 14009KT P6SM FEW040 FM050200 17006KT P6SM FEW250",
    "KORD": "TAF KORD 040535Z 0406/0512 19008KT P6SM FEW040 OVC100 TEMPO 0406/0407 6SM -RA BR FM041300 23008KT P6SM SCT025 SCT120 FM042000 09009KT P6SM SCT040 BKN150 TEMPO 0420/0424 2SM TSRA BR SCT015 OVC040CB FM050400 05007KT 6SM BR SCT005",
    "KJFK": "TAF KJFK 040521Z 0406/0512 29008KT P6SM SCT150 FM041400 26010KT P6SM FEW060 SCT250 FM041700 24012G17KT P6SM SCT060 SCT250 FM042000 21014KT P6SM SCT060 SCT250 PROB30 0420/0424 27020G35KT 3SM TSRA BKN040CB FM050000 VRB05KT P6SM VCSH BKN060 PROB30 0500/0506 5SM -TSRA BKN040CB FM050600 28008KT P6SM SCT060 BKN100",
    "KRFD": "TAF KRFD 040535Z 0406/0506 VRB05KT P6SM FEW035 SCT120 FM041300 27007KT P6SM SCT025 SCT120 PROB30 0413/0415 3SM -TSRA BKN040CB FM041800 09005KT P6SM SCT040 BKN150 TEMPO 0418/0422 2SM TSRA BR SCT015 OVC040CB FM050000 05007KT P6SM SCT040 BKN100",
    "KIND": "TAF KIND 040520Z 0406/0512 20005KT P6SM SCT250 FM041200 20007KT P6SM SCT250 FM041800 23009KT P6SM SCT050 BKN100 TEMPO 0422/0502 2SM -TSRA OVC035CB FM050200 23004KT P6SM SCT050 BKN100",
    "KDTW": "TAF KDTW 040520Z 0406/0512 22005KT P6SM SCT060 BKN120 TEMPO 0407/0411 6SM -TSRA SCT035 BKN060CB FM041600 27007KT P6SM BKN060 TEMPO 0419/0423 3SM -TSRA BKN050CB FM050000 06006KT P6SM OVC080",
    "KMSP": "TAF KMSP 040523Z 0406/0512 07004KT P6SM SCT050 FM041600 VRB05KT P6SM SCT040 PROB30 0421/0501 4SM -TSRA BR BKN030CB FM050400 02004KT P6SM FEW250",
    "CYEG": "TAF CYEG 040540Z 0406/0506 20005KT P6SM FEW090 FM040800 16006KT P6SM SKC BECMG 0413/0415 26015G25KT FM041500 26015G25KT P6SM FEW080 BKN120 TEMPO 0415/0418 P6SM -SHRA BECMG 0416/0418 30012KT FM041800 30012KT P6SM FEW030 SCT050 FM042000 30010KT P6SM BKN030 PROB30 0422/0502 VRB20G30KT 2SM TSRA OVC020CB FM050200 29008KT P6SM SCT030 TEMPO 0502/0504 P6SM -SHRA VCTS BKN030CB FM050400 26006KT P6SM FEW060 RMK NXT FCST BY 040900Z",
    "EHAM": "TAF EHAM 040445Z 0406/0512 24012KT CAVOK BECMG 0406/0408 27013KT BECMG 0417/0420 27006KT BECMG 0422/0501 29011KT PROB30 TEMPO 0502/0512 BKN018",
    "EBBR": "TAF EBBR 040500Z 0406/0512 23008KT CAVOK BECMG 0412/0414 29010KT",
    "EDDF": "TAF EDDF 040500Z 0406/0512 29010KT CAVOK BECMG 0422/0424 23003KT BECMG 0507/0509 27008KT TEMPO 0510/0512 SHRA BKN025TCU",
    "EDFH": "TAF EDFH 040500Z 0406/0506 28004KT CAVOK BECMG 0408/0410 28010KT PROB30 TEMPO 0413/0416 28015G25KT BECMG 0418/0420 28005KT",
    "EDDL": "TAF EDDL 040500Z 0406/0512 23007KT CAVOK BECMG 0407/0409 26013KT TEMPO 0410/0417 29015G25KT BECMG 0418/0421 26007KT PROB30 TEMPO 0511/0512 SHRA SCT040TCU",
    "EDDK": "TAF EDDK 040500Z 0406/0512 VRB03KT CAVOK BECMG 0407/0409 25006KT BECMG 0409/0411 29012KT PROB40 TEMPO 0412/0417 29015G25KT BECMG 0419/0421 29007KT TEMPO 0423/0507 23004KT",
    "EBLG": "TAF EBLG 040500Z 0406/0512 21007KT CAVOK BECMG 0411/0413 27012KT",
    "LSZH": "TAF LSZH 040525Z 0406/0512 32003KT 9999 FEW060 TX29/0415Z TN17/0406Z TN13/0504Z BECMG 0406/0408 CAVOK PROB40 0413/0417 29008KT BECMG 0510/0512 30010KT",
    "LIMC": "TAF LIMC 040500Z 0406/0512 VRB05KT 9999 FEW070",
    "LIRF": "TAF LIRF 040500Z 0406/0512 04010KT CAVOK BECMG 0410/0412 23010KT BECMG 0414/0416 30012KT BECMG 0421/0423 03008KT BECMG 0510/0512 24010KT",
    "EINN": "TAF EINN 040500Z 0406/0506 25014KT 9999 BKN010 PROB40 TEMPO 0406/0409 4000 -DZ BKN005 BECMG 0408/0410 BKN025 PROB40 TEMPO 0410/0422 BKN012 BECMG 0420/0422 25008KT TEMPO 0422/0506 BKN007",
    "EGLL": "TAF EGLL 040509Z 0406/0512 27009KT 9999 FEW045 PROB30 TEMPO 0406/0408 BKN009",
    "EGSS": "TAF EGSS 040456Z 0406/0512 26008KT 9999 FEW040 PROB30 0406/0408 BKN014",
    "EPWA": "TAF EPWA 040530Z 0406/0506 26013KT 9999 BKN035 TEMPO 0406/0418 28021G33KT SCT040TCU PROB30 TEMPO 0412/0419 -SHRA SCT040CB",
    "UHPP": "TAF UHPP 040448Z 0406/0512 17003G10MPS 9999 BKN025CB TEMPO 0411/0420 0700 FG VV002 TEMPO 0420/0512 3000 -SHRA BR BKN005 BKN017CB",
    "EFHK": "TAF AMD EFHK 040722Z 0407/0506 08007KT 9999 FEW006 SCT017 SCT020CB TEMPO 0407/0422 5000 TSRA PROB40 TEMPO 0407/0422 35015G25KT 2000 +TSRA BECMG 0422/0424 0500 FG VV002 TEMPO 0501/0506 4000 BR BKN005 FEW025CB",
    "LBBG": "TAF LBBG 040500Z 0406/0506 35014KT 9999 SCT040 TEMPO 0406/0410 VRB15G26KT 3000 TSRA SCT030CB BKN040 BECMG 0411/0413 10012KT TEMPO 0416/0419 5000 SHRA FEW030CB BKN040 BECMG 0419/0420 VRB03KT",
    "LTAC": "TAF LTAC 040440Z 0406/0506 VRB02KT CAVOK BECMG 0408/0410 34012KT SCT040 BECMG 0416/0418 VRB02KT CAVOK",
    "UBBB": "TAF UBBB 040504Z 0406/0506 15008KT 9999 SCT040 TX31/0410Z TN21/0501Z TEMPO 0406/0416 19016KT BECMG 0416/0418 VRB04KT TEMPO 0422/0504 21005KT FEW010",
    "UTAA": "TAF UTAA 040445Z 0406/0506 06016KT 6000 SCT050 TEMPO 0406/0414 12016G26KT 4000 DRDU BECMG 0416/0418 18012KT",
    "UACC": "TAF UACC 040501Z 0406/0506 25006MPS 9999 SCT030CB BKN100 TX26/0410Z TN14/0424Z TEMPO 0406/0418 VRB16MPS 3100 -TSRA SQ BKN020CB BECMG 0418/0420 VRB01MPS SCT030 BKN070 TEMPO 0418/0502 3100 BR BKN011 BKN020CB BECMG 0502/0504 27005MPS SCT030CB BKN100 TEMPO 0502/0506 3100 -SHRA BKN020CB",
    "UAAA": "TAF UAAA 040504Z 0406/0506 17003G08MPS 9999 SCT050CB BKN100 TX26/0410Z TN14/0501Z TEMPO 0406/0410 04005G10MPS TEMPO 0410/0418 24006G15MPS 3100 -TSRA BR BKN011CB OVC030 TEMPO 0418/0424 22002MPS 3100 BR FU BECMG 0503/0504 34005MPS",
    "UZTT": "TAF UZTT 040500Z 0406/0506 22010KT 7000 FEW060CB TEMPO 0406/0414 VRB12G22KT -TSRA BKN050CB",
    "ZWWW": "TAF ZWWW 040302Z 0406/0512 36004MPS CAVOK TX35/0409Z TX33/0509Z TN27/0423Z BECMG 0414/0415 18004MPS BECMG 0502/0503 34004G10MPS",
    "ZLXY": "TAF ZLXY 040301Z 0406/0506 15003MPS 6000 NSC TX37/0408Z TN22/0421Z",
    "ZBAA": "TAF AMD ZBAA 040538Z 0406/0512 17004MPS 6000 NSC TX35/0406Z TX30/0506Z TN24/0421Z TEMPO 0415/0418 -TSRA FEW040CB BKN040 TEMPO 0510/0512 -TSRA FEW040CB BKN040",
    "ZBHH": "TAF AMD ZBHH 040613Z 0406/0506 24004MPS 9999 -TSRA SCT040 FEW040CB TX30/0408Z TN14/0422Z TEMPO 0408/0410 VRB08G15MPS TSRA BECMG 0410/0411 NSW NSC",
    "ZSQD": "TAF ZSQD 040301Z 0406/0506 17005MPS 5000 BR NSC TX35/0506Z TN24/0420Z",
    "ZMCK": "TAF COR ZMCK 040638Z 0406/0512 34008MPS 9999 FEW030CB SCT033 TX22/0407Z TN13/0421Z TEMPO 0406/0412 VRB10G15MPS SHRA SCT027CB SCT030 BECMG 0411/0413 VRB02MPS BECMG 0501/0503 34007MPS BECMG 0510/0512 VRB02MPS",
    "UUEE": "TAF UUEE 040454Z 0406/0506 03003G08MPS 9999 BKN016 TX21/0412Z TN16/0501Z TEMPO 0407/0418 28008G16MPS -TSRA BKN016CB TEMPO 0418/0506 BKN005",
    "UUDD": "TAF UUDD 040455Z 0406/0512 30003MPS 8000 FEW005 BKN016 TX22/0410Z TN16/0503Z TEMPO 0406/0418 32008G13MPS -TSRA BKN016CB TEMPO 0420/0506 BKN003 PROB40 TEMPO 0420/0504 0300 FG TEMPO 0509/0512 -TSRA BKN020CB",
    "ULLI": "TAF ULLI 040453Z 0406/0506 18003MPS 6000 BKN010 TEMPO 0406/0408 BKN005 BECMG 0408/0409 BKN016 TEMPO 0409/0418 3100 -TSRA BKN010 BKN020CB TEMPO 0421/0505 0400 FG BKN004",
    "USSS": "TAF USSS 040449Z 0406/0506 33005G15MPS 9999 BKN040 TEMPO 0406/0415 SCT016CB FM041700 27003G08MPS 6000 SCT016CB",
    "UNNT": "TAF UNNT 040500Z 0406/0506 17003G08MPS 8000 SCT040 TX31/0409Z TN17/0422Z TEMPO 0406/0415 19008G15MPS -TSRA BKN016CB TEMPO 0503/0506 -TSRA BKN016CB",
    "UNKL": "TAF UNKL 040449Z 0406/0506 11008G15MPS 9999 SCT040 TX30/0407Z TN16/0422Z BECMG 0407/0409 11003G08MPS TEMPO 0409/0415 30007G15MPS -TSRAGR BKN020CB TEMPO 0415/0424 28005G12MPS -TSRA BKN016CB BECMG 0503/0505 -TSRA BKN020CB",
    "UIBB": "TAF UIBB 040500Z 0406/0506 10003G08MPS 9999 SCT050CB TEMPO 0406/0415 VRB08MPS",
    "UEEE": "TAF UEEE 040500Z 0406/0512 20003G10MPS 9999 SCT030CB TX31/0406Z TN15/0417Z TEMPO 0406/0415 VRB17MPS 5000 -TSRAGR SCT010 BKN030CB",
    "UHHH": "TAF UHHH 040459Z 0406/0512 20003MPS 9999 SCT020CB TX27/0406Z TN15/0415Z FM040800 16003G08MPS 5000 -SHRA FEW010 BKN017CB TEMPO 0408/0424 2000 TSRA BKN003 BKN016CB BECMG 0414/0417 05005MPS",
    "UHSS": "TAF UHSS 040513Z 0406/0512 20005MPS 9999 NSC BECMG 0407/0409 BKN004 BECMG 0410/0413 18003MPS 1400 BR BECMG 0422/0424 9999 NSW BKN025 FM050200 16003MPS 9999 -SHRA BKN017CB"
  },
  "atis": {
    "RJAA": "[Arrival ATIS] RJAA ARR ATIS A 1254Z M1230 (APCH)ILS Z RWY34R LDG RWY 34R DEP RWY 34L DEP FREQ 124.2. TWY A1 CLSD. OBSERVE GEAR DOWN OPS PROC ON FNL. M 181230Z 02006KT 350V060 2400M -SHRA BR BKN002ST 20/19 Q1010/A2983= Q/TWO NINE EIGHT THREE STP\n[Departure ATIS] RJAA DEP ATIS Z 1224Z M1200 (APCH)ILS Z RWY34R LDG RWY 34R DEP RWY 34L DEP FREQ 124.2. TWY A1 CLSD. OBSERVE GEAR DOWN OPS PROC ON FNL. M 181200Z 04006KT 2400M -SHRA BR BKN002ST 20/19 Q1010/A2983= Q/TWO NINE EIGHT THREE STP",
    "PANC": "[Arrival ATIS] PANC ARR ATIS M 1253Z ANC ATIS INFO M 1253Z. 13003KT 10SM CLR 08/07 A3038 (THREE ZERO THREE EIGHT). 7R APPROACHES IN USE. LANDING RWY 7R, DEPARTING RWY 33. NOTICE TO AIRMEN. RWY 7L CLSD. CHECK NOTAMS FOR TAXIWAY CLOSURES. CONTACT TOWER 118.3 FOR TAXI. ...ADVS YOU HAVE INFO M.\n[Departure ATIS] PANC DEP ATIS L 0253Z ANC ATIS INFO L 0253Z. 25006KT 10SM FEW045 BKN085 BKN130 14/08 A2989 (TWO NINER EIGHT NINER). 7R, 7L APPROACHES IN USE. LANDING RWY 7R, 7L, DEPARTING RWY 7L, 33. NOTICE TO",
    "KSEA": "[Arrival ATIS] KSEA ARR ATIS E 0553Z SEA ATIS INFO E 0553Z. 00000KT 10SM SCT150 SCT250 14/12 A3008 (THREE ZERO ZERO EIGHT). ILS, RYS 16R AND 16L , APCH IN USE. DEPG RWY 16L. SIMUL APCHS IN USE, BFI & SEA. TRAFFIC BELOW YOU ON FINAL. SIMUL APCHS IN USE TO PARA RYS. NOTAMS... BIRD ACTIVITY VICINITY ARPT. APCH AND DEP PATHS ARE OVER NOISE SENSITIVE AREAS. ...ADVS YOU HAVE INFO E.\n[Departure ATIS] KSEA DEP ATIS E 0553Z - KSEA ATIS INFO E 0553Z. 00000KT 10SM SCT150 SCT250 14/12 A3008 (THREE ZERO ZERO EIGHT). ILS, RYS 16R AND 16L , APCH IN USE. DEPG RWY 16L. SIMUL APCHS IN USE, BFI & SEA. T",
    "ZSPD": "[Arrival ATIS] ZSPD ARR ATIS T 1300Z EXP ILS APCH INDEPENDENT PARL INSTR APCH LDG RWY 17R & 16L WIND RWY 17R TDZ 130/6MPS MID 120/5MPS END 120/5MPS RWY 16L TDZ 140/5MPS MID 120/5MPS END 120/4MPS VIS RWY 17R TDZ 10000M MID 9000M END 8000M VIS RWY 16L TDZ 10000M MID 10000M END 7000M FBL SHRA CLD SCT 330M T 24 /DP 24 QNH 1009 HPA CAUTION THE BIRDS NEAR THE RUNWAY ADZ YOU HAVE INFO T.\n[Departure ATIS] ZSPD DEP ATIS I 0524Z DEP RWY 35R & 34L WIND RWY 35R TDZ 220/4MPS MID 230/4MPS END 260/3MPS RWY 34L TDZ 230/4MPS MID 240/4MPS VRB BTN 190/ AND 260/ END 260/5MPS CAVOK T 33 /DP 26 QNH 1007 HPA CA",
    "ZSSS": "[Arrival ATIS] ZSSS ARR ATIS K 1300Z EXP ILS APCH LDG RWY 18L WIND RWY 18L TDZ VRB BTN 050/ AND 120/1MPS MID 110/2MPS END 120/3MPS VRB BTN 090/ AND 150/ VIS RWY 18L TDZ 8000M MID 8000M END 8000M FBL SHRA CLD FEW 450M T 25 /DP 22 QNH 1008 HPA RWY18L RWYCC 5/5/5 ISSUED AT 1148 WET/WET/WET DPT NR/NR/NR COV 100PCT/100PCT/100PCT RWY18R RWYCC 5/5/5 ISSUED AT 1210 WET/WET/WET DPT NR/NR/NR COV 100PCT/100PCT/100PCT QNH OF SHANGHAI TERMINAL CONTROL AREA 1009 HPA ADZ YOU HAVE INFO K.\n[Departure ATIS] ZSSS DEP ATIS G 1200Z DEP RWY 18R WIND RWY 18R TDZ 100/3MPS MID 130/5MPS END 120/5MPS VIS RWY 18R TDZ 9000M MID 10000M END 9000M CLD FEW 450M T 26 /DP 22 QNH 1008 HPA RWY18R RWYCC 5/5/5 ISSUED AT 1030 WET/WET/WET DPT NR/NR/NR COV 100PCT/100PCT/100PCT RWY18L RWYCC 5/5/5 ISSUED AT 1148 WET/WET/WET DPT NR/NR/NR COV 100PCT/100PCT/100PCT QNH OF SHANGHAI TERMINAL CONTROL AREA 1008 HPA ADZ YOU HAVE INFO G.",
    "VHHH": "[Arrival ATIS] VHHH ARR ATIS H 1333Z ARRIVALS, RWY 07L. EXP ILS APCH, RWY 07L. RWY 07 RUNWAY CONDITION REPORT AT 0548Z. RWY 07L RUNWAY CONDITION CODES 5 , 5 , 5 . RWY SFC ALL PARTS WET. WIND 120/06KT. VIS 10KM. FBL SHRA. CLD FEW 800FT SCT 2000FT. T27 DP26. QNH 1009HPA. SIG TAILWIND ON BASE LEG. ACK INFO H ON FIRST CTC WITH APP.\n[Departure ATIS] VHHH DEP ATIS O 1305Z DEPARTURES, RWY 07R. RWY 07 RUNWAY CONDITION REPORT AT 0548Z. RWY 07R RUNWAY CONDITION CODES 5 , 5 , 5 . RWY SFC ALL PARTS WET. WIND VRB05KT. VIS 10KM. SHRA. CLD FEW 800FT FEW CB 1200FT SCT 2000FT. T27 DP26. QNH 1009HPA. ACK INFO O ON FIRST CTC WITH DELIVERY .",
    "RCTP": "[Arrival ATIS] RCTP ARR ATIS M 1330Z EXP ILS APCH RWY23R AND RWY23L ARR/DEP. WIND 180/04KT VARYING BTN 140 AND 220 VIS 10 KM OR MORE CLD FEW 1500FT BKN 20000FT T 28 DP 25 QNH 1012HPA NOSIG INFORM TAIPEI APCH OR TAIPEI TOWER ON INITIAL CONTACT YOU HAVE INFORMATION M\n[Departure ATIS] RCTP DEP ATIS H 1100Z EXP ILS APCH RWY23R AND RWY23L ARR/DEP. WIND 240/07KT VARYING BTN 210 AND 270 VIS 10 KM OR MORE CLD FEW 1500FT BKN 3000FT BKN 12000FT T 29 DP 25 QNH 1011HPA NOSIG DUE TO FLOW CONTROL BY HONGKONG F-I-R, TRAFFIC CONCERNED MAY BE DELAYED. INFORM TAIPEI APCH OR TAIPEI TOWER ON INITIAL CONTACT YOU HAVE INFORMATION H",
    "ZGSZ": "[Arrival ATIS] ZGSZ ARR ATIS J 1330Z EXP ILS APCH 15 EXP ILS OR VIS APCH 16R WIND 120/4MPS VIS 9999M -SHRA CLD SCT 1500M T 26 /DP 25 QNH 1009 HPA INDEPENDENT PARALLEL DEPARTURES DEPENDENT PARALLEL APPROACHES MISSED APPROACH ALTITUDE SETTING 1200METERS WHEN AIRBORNE CONTACT ZHUHAI APPROACH EXPECTED RNP ILS DME Z APPROACH RWY 15 16L 16R RWYCC 5/5/5 ISSUED AT 0720UTC WET/WET/WET DPT NR/NR/NR COV 100PCT/100PCT/100PCT ADZ YOU HAVE INFO J.\n[Departure ATIS] ZGSZ DEP ATIS I 1300Z DEP RWY 15 & 16L WIND 110/4MPS VIS 9999M -SHRA CLD SCT 1500M T 26 /DP 25 QNH 1009 HPA INDEPENDENT PARALLEL DEPARTURES DEPENDENT PARALLEL APPROACHES MISSED APPROACH ALTITUDE SETTING 1200METERS WHEN AIRBORNE CONTACT ZHUHAI APPROACH EXPECTED RNP ILS DME Z APPROACH RWY 15 16L 16R RWYCC 5/5/5 ISSUED AT 0720UTC WET/WET/WET DPT NR/NR/NR COV 100PCT/100PCT/100PCT ADZ YOU HAVE INFO I.",
    "WSSS": "[Arrival ATIS] WSSS ARR ATIS Y 1300Z METREPORT 1300Z ILS APCHRWY 20R SIMUL INDEPENDENT ILS AND VISUAL APPROACHES ARE CONDUCTED ON RWY 20. TWY W 9 CLOSED, RWY 02C 20C RAPID EXIT TAXIWAY INDICATOR LIGHTS OFFFOLLOW THE GREENS TRIAL IN PROGRESS. WHEN VACATING THE RWY, PILOTS TO ADHERE TO ATC VERBAL INSTRUCTIONS. WHEN ON TWY, PILOT TO ADHERE TO FOLLOW THE GREENS INSTRUCTIONS. WHEN APPROACHING [A] JUNCTION, KEEP [A] LOOKOUT FOR CONTINUOUS GREENS. [IF] [A] BREAK IN THE GREENS IS OBSERVED, STOP AND CLARIFY WITH ATC. WIND 140/ 07KT VIS 10KM CLD FEW 1600FT T29 DP25 QNH 1010HPA NOSIG ACK ATIS Y\n[Departure ATIS] WSSS DEP ATIS Z 1300Z METREPORT 1300Z RWY 20C SIMUL INDEPENDENT ILS AND VISUAL APPROACHES ARE CONDUCTED ON RWY 20. TWY W 9 CLOSED, RWY 02C 20C RAPID EXIT TAXIWAY INDICATOR LIGHTS OFFFOLLOW THE GREENS TRIAL IN PROGRESS. WHEN VACATING THE RWY, PILOTS TO ADHERE TO ATC VERBAL INSTRUCTIONS. WHEN ON TWY, PILOT TO ADHERE TO FOLLOW THE GREENS INSTRUCTIONS. WHEN APPROACHING [A] JUNCTION, KEEP [A] LOOKOUT FOR CONTINUOUS GREENS. [IF] [A] BREAK IN THE GREENS IS OBSERVED, STOP AND CLARIFY WITH ATC. WIND 150/ 06KT VIS 10KM CLD FEW 1600FT T29 DP25 QNH 1010HPA NOSIG DEP,INITIAL CMB 3000FT ACK ATIS Z",
    "WMKK": "[Arrival ATIS] WMKK ARR ATIS J 0635Z WMKK ARR INFO J. TIME 0630. INDEPENDENT PARALLEL APPROACHES FOR RWY 14 L AND 15 ARE IN PROGRESS. EXP RNAV / ILS APCH FOR RWY 14 LEFT. EXP RNAV / ILS APCH FOR RWY 15. WIND RWY 14L DIRECTION NOT AVBL SPEED NOT AVBL. WIND RWY 15 DIRECTION NOT AVBL SPEED NOT AVBL. VIS RWY 14L TDZ NOT AVBL. VIS RWY 15 TDZ NOT AVBL. CLD FEW CB 1700 FT, CLD SCT 1800 FT. T 32. DP 26. QNH 1009. NOSIG. AT FIRST CONTACT WITH LUMPUR RADAR, NOTIFY RCPT OF J\n[Departure ATIS] WMKK DEP ATIS Y 0738Z WMKK DEP INFO Y. TIME 0730. INDEPENDENT PARALLEL DEPARTURES FOR RWY 14 R AND 15 ARE IN PROGRESS. RWY 14 RIGHT. RWY 15. WIND RWY 14R 170 DEG, 12 KT. WIND RWY 15 130 DEG, 9 KT. VIS RWY 14R 10 KM OR MORE. VIS RWY 15 10 KM OR MORE. CLD SCT 1800 FT. T 32. DP 26. QNH 1009. NOSIG. ALL DEP ACFT TO CONTACT LUMPUR DEP AT 135 DECIMAL 25 MHZ WHEN ABN. AT FIRST CONTACT WITH LUMPUR GROUND, NOTIFY RCPT OF Y",
    "VTBS": "[Arrival ATIS] VTBS ARR ATIS O 1100Z VTBS ARR ATIS O 1102Z SIMULTANEOUS INDEPENDENT PARL APCH IN PROGRESS EXP ILS Z APCH ARR RWY 19 OR RNP APCH RWY 20R 06180900 19 5/5/5 100/100/100 NR/NR/NR WET/WET/WET 06180900 20R 5/5/5 100/100/100 NR/NR/NR WET/WET/WET ,PILOT SHALL ADZ BKK APCH ON INITIAL CTC IF UNA TO CONDUCT RNP APCH DUE TO OPERATIONAL CONSTRAINT 1100Z WIND 310/6KT VIS 10KM FBL TSRA CLD FEW CB 2000FT SCT 4000FT T25 DP25 QNH 1009HPA TREND NOSIG ADZ BKK APCH ON INITIAL CONTACT THAT YOU HAVE INFO O\n[Departure ATIS] VTBS DEP ATIS T 1000Z VTBS DEP ATIS T 1001Z DEP RWY 20L MOD WS IN APCH OBS ATP 0950 06180900 20L 5/5/5 100/100/100 NR/NR/NR WET/WET/WET , ,AFT AIRBORNE ALL DEPARTING ACFT SHALL CTC 119.25 1000Z WIND 250/21KT VIS 700M RVR RWY 20L 900M HVY TSRA CLD FEW CB 1800FT SCT 3000FT T24 DP24 QNH 1009HPA WS IN APCH TREND BECMG TL1040 VIS 3000M MOD TSRA ADZ GND WHEN INITIAL CONTACT YOU HAVE INFO T",
    "VTBU": "[Arrival ATIS] VTBU ARR ATIS E 1000Z VTBU ARR ATIS E 1005Z RNP RWY 18 TRL FL130 1000Z WIND 170/9KT VIS 10KM CLD FEW CB 1800FT T30 DP28 QNH 1009HPA TS IN APCH TREND BECMG TL1045 NSW ADZ CONTROLLER WHEN INITIAL CONTACT YOU HAVE INFO E\n[Departure ATIS] VTBU DEP ATIS D VTBU ARR/DEP DATIS RPT VTBU ARR ATIS D 0330Z ILS \"Z\" APCH RWY 18 TRL FL130 0330Z WIND 110/4KT VRB BTN 350/ AND 120/ VIS 6KM CLD FEW 2000FT T31 DP27 QNH 1014HPA TREND NOSIG ADZ CONTROLLER WHEN INITIAL CONTACT YOU HAVE INFO D",
    "ROAH": "[Arrival ATIS] ROAH ARR ATIS Q 0556Z M0530 (APCH)RNP RWY18R LDG RWY 18R DEP RWY 18L DEP FREQ 126.5 258.3 M 040530Z 24008KT 50KM FEW010CU 30/27 Q1013/A2992= Q/TWO NINE NINE TWO STP\n[Departure ATIS] ROAH DEP ATIS J 0657Z MS0630 (APCH)ILS RWY18R LDG RWY 18R DEP RWY 18L DEP FREQ 126.5 258.3 MS 180630Z 20008KT 25KM FEW002ST SCT005ST BKN/// 28/27 Q1012/A2989= Q/TWO NINE EIGHT NINE STP",
    "VVDN": "[Arrival ATIS] VVDN ARR ATIS N 1332Z VVDN INFO N 1332Z. ILS VICTOR APPROACH 35L.. DPTG RWY 35R.. 1332Z. WIND VRB/01KT CAVOK T28 DP22 QNH 1008HPA TREND NOSIG. ADZ ON INITIAL CTC YOU HAVE INFO. N.\n[Departure ATIS] VVDN DEP ATIS S 0604Z VVDN INFO S 0604Z. ILS VICTOR APPROACH 35L.. DPTG RWY 35R.. 0604Z. WIND VRB/09KT CAVOK T37 DP24 QNH 1006HPA TREND NOSIG. ADZ ON INITIAL CTC YOU HAVE INFO. S.",
    "RCKH": "[Arrival ATIS] RCKH ARR ATIS H 0700Z EXPECT ILS APPROACH RWY 09 ARR/DEP TAXIWAY JULIETT, TAXIWAY BRAVO, TAXIWAY DELTA AND TAXIWAY ECHO CLOSED DUE MAINTENANCE. RUNWAY 0 9 ARRIVALS PLAN VACATE VIA CHARLIE OR\n[Departure ATIS] RCKH DEP ATIS F 0600Z EXPECT ILS APPROACH RWY 09 ARR/DEP TAXIWAY JULIETT, TAXIWAY BRAVO, TAXIWAY DELTA AND TAXIWAY ECHO CLOSED DUE MAINTENANCE. RUNWAY 0 9 ARRIVALS PLAN VACATE VIA CHARLIE OR FO",
    "KLAX": "[Arrival ATIS] KLAX ARR ATIS H 1253Z LAX ATIS INFO H 1253Z. 00000KT 10SM FEW008 SCT016 OVC020 18/14 A2993 (TWO NINER NINER THREE) RMK AO2 SLP134 T01780139. INST APCHS AND RNAV RNP APCHS ILS RY 24R, ILS RY 25L, AND SIMUL APCHS IN PROG BTWN LAX AND HHR, SIMUL INSTR DEPARTURES IN PROG RWYS 24 AND 25. CTC L A GC ON 121.75 FOR PUSH OR TAXI ON A. TWY C CLSD BTN TWY, C8 AND TWY C9 , , TWY B CLSD BTN TWY, F AND TWY B1, TWY B1 CLSD. ILS RY 25R OTS, RY 25R SFL OTS, RY 24L ALSF-2 OTS. LAX VOR UNMONITORED. IF ASSIGNED RUNWAY 25R FOR DEPARTURE, EXPECT DEPARTURE FROM INTERSECTION FOXTROT. TAXILANE CHARLIE EIGHT RESTRICTED TO AIRCRAFT WITH A WINGSPAN LESS THAN ONE HUNDRED EIGHTEEN FEET. USE CAUTION FOR INCREASED DRONE ACTIVIY IN THE VICINITY OF SOFI STADIUM AT OR BELOW 200FT AGL DURING THE WORLD CUP FROM 06/12/26 THROUGH 07/10/2026. HAZD WX INFO FOR LAX AREA AVBL FM FSS. BIRD ACTIVITY VICINITY ARPT. GC FREQ FOR ALL RWYS IS 121.75. INCLUDE YOUR CALL SIGN IN ALL READBACKS. USE CAUTION WHEN EXITING RY24R AT TWY V, W, AND Y, TO HOLD SHORT OF RY24L. MULTIPLE RUNWAY INCURSIONS HAVE OCCURRED. ...ADVS YOU HAVE INFO H.\n[Departure ATIS] KLAX DEP ATIS V 2153Z LAX ATIS INFO V 2153Z. 24012KT 210V280 10SM FEW014 FEW180 SCT220 21/13 A2995 (TWO NINER NINER FIVE) RMK AO2 SLP141 T02110133. INST APCHS AND RNAV RNP APCHS RY 24R AND 25L, OR VCTR FOR VISUAL APCH WILL BE PROVIDED, SIMUL VISUAL APCHS TO ALL RWYS ARE IN PROG, SIMUL INSTR DEPARTURES IN PROG RWYS 24 AND 25. CTC L A GC ON 121.75 FOR PUSH OR TAXI ON A. TWY B CLSD BTN TWY, J AND TWY C8 , , TWY C10 CLSD BTN TWY, B AND TWY C, TWY C CLSD BTN TWY, C1 AND TWY C3. RY 25R SFL OTS, RY 24L ALSF-2 OTS, PAPI OTS 24R. LAX VOR UNMONITORED. USE CAUTION FOR INCREASED DRONE ACTIVIY IN THE VICINITY OF SOFI STADIUM AT OR BELOW 200FT AGL DURING THE WORLD CUP FROM JUNE TWELFTH TWENTY TWENTY SIX THROUGH JULY TENTH TWENTY TWENTY SIX. TEMPORARY FLIGHT RESTRITIONS IN EFFECT FOR THE LOS ANGELES AREA, CHECK NOTAMS FOR DETAILS. HAZD WX INFO FOR LAX AREA AVBL FM FSS. BIRD ACTIVITY VICINITY ARPT. INCLUDE YOUR CALL SIGN IN ALL READBACKS. USE CAUTION WHEN EXITING RY24R AT TWY V, W, AND Y, TO HOLD SHORT OF RY24L. MULTIPLE RUNWAY INCURSIONS HAVE OCCURRED. ...ADVS YOU HAVE INFO V.",
    "KONT": "[Arrival ATIS] KONT ARR ATIS D 0453Z ONT ATIS INFO D 0453Z. 24006KT 10SM BKN250 23/13 A3000 (THREE ZERO ZERO ZERO). ILS AND VIS APR IN USE, RY26L & RY26R. LNDG AND DEPG RY 26L AND RY 26R. NOTAMS... TAXIWAY SIERRA FIVE CLOSED. TAXIWAY SIERRA CLOSED BETWEEN TAXIWAY SIERRA 8 AND TAXIWAY WHISKEY. RY 26L IM OTS, RY 26R ALS OTS. USE CAUTION FOR NUMEROUS BIRDS OBSERVED IN VICINITY OF ONT. PILOTS READBACK RWY ASSIGNMENTS AND HOLD SHORT INSTRUCTIONS. ...ADVS YOU HAVE INFO D.\n[Departure ATIS] KONT DEP ATIS N 0553Z - KONT ATIS INFO N 0553Z. 24004KT 10SM BKN250 22/15 A2988 (TWO NINER EIGHT EIGHT) RMK AO2 SLP100. ILS AND VIS APR IN USE, RY26L & RY26R. LNDG AND DEPG RY 26L AND RY 26R. NOTAMS... TAXIWAY SIERRA CLSD BETWEEN SIERRA 8 AND W TAXIWAY Q SOUTH OF RWY 26L CLSD TAXIWAY T CLSD TAXIWAY SIERRA 5 CLSD. RY 26L IM OTS, RY 26R ALS OTS. USE CAUTION FOR NUMEROUS BIRDS OBSERVED IN VICINITY OF ONT. HAZD WX INFO FOR SOUTHERN CA AVBL ON FSS FREQUENCIES. PILOTS READBACK RWY ASSIGNMENTS AND HOLD SHORT INSTRUCTIONS. ...ADVS YOU HAVE INFO N.",
    "KSFO": "[Arrival ATIS] KSFO ARR ATIS H 0556Z SFO ATIS INFO H 0556Z. 29011KT 10SM FEW003 13/12 A3001 (THREE ZERO ZERO ONE). ILS RY 28R APP IN USE. DEPG RWYS 28L, 28R. DEPG ACFT SHOULD BE PREPARED FOR A SHORT NOTICE RY C\n[Departure ATIS] KSFO DEP ATIS F 0456Z SFO ATIS INFO F 0456Z. 29012KT 10SM FEW003 14/12 A3000 (THREE ZERO ZERO ZERO). SIMUL CLSLY SPCD DPNDNT ILS RY 28R AND ILS RY 28L APP IN USE. DEPG RWYS 28L, 28R. DEPG ACFT SH",
    "KOAK": "[Arrival ATIS] KOAK ARR ATIS A 0353Z - KOAK ATIS INFO A 0353Z. 25010KT 10SM FEW003 BKN009 BKN013 16/14 A2988 (TWO NINER EIGHT EIGHT). RNAV Z 3 0, ILS RUNWAY 2 8 RIGHT IN USE. FLOW TO LAX, SAN, SEA, ORD. ILS RWY 30, OTS. UNN LIT CLOSE-IN OBSTACLES FOR RWY 30 DEPARTURES. RWY 30 DEPARTURES ARE ADVISED TO AVOID TURNING LEFT PRIOR TO DEPARTURE END OF RUNWAY. SIGNATURE UNI-COM OUT OF SERVICE. HAZD WX INFO FOR CA ON FLT SRVC FREQ. CAUTION, BIRDS NEAR AIRPORT. ...ADVS YOU HAVE INFO A.\n[Departure ATIS] KOAK DEP ATIS O 1953Z OAK ATIS INFO O 1953Z. 28014KT 10SM FEW005 22/14 A2988 (TWO NINER EIGHT EIGHT). RNAV Z/VA RWY 30 ILS/VA RWY 28R. FLOW TO LAX, LAS, SAN. ILS RWY 30, OTS. UNN LIT CLOSE-IN OBSTACLES FOR RWY 30 DEPARTURES. RWY 30 DEPARTURES ARE ADVISED TO AVOID TURNING LEFT PRIOR TO DEPARTURE END OF RUNWAY. SIGNATURE UNI-COM OUT OF SERVICE. CAUTION, BIRDS NEAR AIRPORT. ...ADVS YOU HAVE INFO O.",
    "KDFW": "[Arrival ATIS] KDFW ARR ATIS W 2353Z DFW ARR INFO W 2353Z. 18011G17KT 10SM FEW070 FEW200 FEW250 35/18 A2993 (TWO NINER NINER THREE) RMK AO2 SLP125 TCU DSNT E T03500183 10367 20339 56015. SIMUL VISUAL APCH TO RWYS, 13R, 18R, 17C, 17L. LDG RWY 17C EXP LAHSO TWY B 10460 FT AVAIL, LDG RWY 18R EXP LAHSO TWY B 10100 FT AVL. NOTICE TO AIRMEN. WARNING, RWY 18L HAS BEEN SHORTENED, 9273 FT AVAILABLE. BIRD ACTIVITY VCNTY ARPT. ...ADVS YOU HAVE INFO W.\n[Departure ATIS] KDFW DEP ATIS W 1553Z - KDFW DEP INFO W 1553Z. 21022G32KT 10SM FEW025 FEW180 SCT250 31/21 A2994 (TWO NINER NINER FOUR) RMK AO2 PK WND 20032/1547 SLP128 T03110206. SIMUL PARL TRAFFIC DEPG RWYS 17R, 18L. NOTICE TO AIRMEN. WARNING, RWY 18L HAS BEEN SHORTENED, 9273 FT AVAILABLE. RWY 18L CL OTS. BIRD ACTIVITY VCNTY ARPT. ...ADVS YOU HAVE INFO W.",
    "KIAH": "[Arrival ATIS] KIAH ATIS H 2153Z IAH ATIS INFO H 2153Z. 18006KT 10SM FEW055 SCT200 BKN250 31/23 A3000 (THREE ZERO ZERO ZERO) RMK AO2 SLP159 SHRA DSNT SW T03060233. ARRIVALS EXPECT ILS OR RNAV Y RY 26R, ILS OR RNAV Y RY 26L, ILS OR RNAV Y RY 27. SIMUL APPROACHES IN USE. DEPG RY 15L, RY 15R. NOTICE TO AIRMEN. UNITED RAMP CONTROL IN EFFECT. UNAUTHORIZED DRONE ACTIVITY 1700Z 5 MI S, 3000 BLACK. BIRD ACTIVITY VICINITY ARPT. LAHSO RY26L. CRANES ARE DOWN. TWY SA CLSD BTN TWY, SF AND TWY SK , TWY SB CLSD BTN TWY, SF AND TWY SK , , TWY WB CLSD BTN TWY , WG AND TWY WH . TWY EA CLSD. NOTAM ATIS IN USE ON FREQUENCY 126.225. ...ADVS YOU HAVE INFO H.\n[Departure ATIS] KIAH DEP ATIS D 0453Z IAH ATIS INFO D 0453Z. 19003KT 10SM CLR 25/24 A2963 (TWO NINER SIX THREE). ARRIVALS EXPECT ILS OR RNAV Y RY 26L. DEPG RY 15L. NOTICE TO AIRMEN. UAL RAMP PROCEDURES TERMINATED PUSH BACK AT PILOTS DISCRETION. RY 26R, 8L CLSD. BIRD ACTIVITY VICINITY ARPT. TWY SA CLSD BTN TWY, SG AND TWY SK , TWY SB CLSD BTN TWY, SG AND TWY SK , , TWY SF CLSD BTN TWY, NB AND TWY RB . TWY SG CLSD, TWY EA CLSD. NOTAM ATIS IN USE ON FREQUENCY 126.225. ...ADVS YOU HAVE INFO D.",
    "KORD": "[Arrival ATIS] KORD ARR ATIS U 0451Z ORD ATIS INFO U 0451Z. 20008KT 5SM RA BR FEW040 BKN090 OVC120 22/20 A3001 (THREE ZERO ZERO ONE) RMK AO2 TSE27 SLP155 OCNL LTGIC DSNT SE-SW CB DSNT SE-SW MOV NE P0013 T02170200. ARR EXP VECTORS ILS RWY 27R APCH, ILS RWY 28C APCH. SIMUL APCHS IN USE. DEPS EXP RWYS 22L 28R FROM NOVEMBER 5 9750 FT AVL. RWY 4L, 22R CLSD, RWY 10R, 28L CLSD. RWY 22R LOC OTS, RWY 28L GS OTS, RWY 9L IM OTS, RWY 9C IM OTS, RWY 10L IM OTS, RWY 10R IM OTS, RWY 27R IM OTS, RWY 28L IM OTS, RWY 28R IM OTS, RWY 9L PAPI OTS, RWY 27R PAPI OTS. ALL RWYS, COND CODE, 3, 3, 3. AT, 0234Z SLIPPERY WHEN WET. PILOTS USE CTN FOR BIRD ACTIVITY IN THE VICINITY OF THE ARPT. HAZD WX INFO FOR ORD AREA AVBL ON FSS. USE CTN FOR PERSONNEL AND EQUIP AT NUMEROUS SITES ON THE FIELD. READBACK ALL RWY HOLD SHORT INSTRUCTIONS. WHEN READY TO TAXI CONTACT GND METERING ON FREQ 121.67. ...ADVS YOU HAVE INFO U.\n[Departure ATIS] KORD DEP ATIS X 0651Z ORD ATIS INFO X 0651Z. 00000KT 10SM FEW065 FEW120 BKN200 BKN250 21/21 A2998 (TWO NINER NINER EIGHT) RMK AO2 RAE13 SLP147 P0000 T02110206. ARR EXP VECTORS ILS RWY 28C APCH.",
    "KJFK": "[Arrival ATIS] KJFK ARR ATIS A 0551Z - KJFK ATIS INFO A 0551Z. 28007KT 10SM FEW070 SCT110 BKN250 27/19 A2992 (TWO NINER NINER TWO). APPROACH IN USE ILS RY 31R, VISUAL APCH RY 31L. DEPG RY 31L. RWY 4R, 22L CLSD. CRI OTS. RWY 22L/4R INNER MARKER OTS. HAZD WX INFO FOR NY METRO AREA AVBL ON FSS. SWAP IN EFFECT EXPECT REROUTES. NUM CRANES OPERATING AT JFK. BIRD ACTIVITY VICINITY ARPT. READBACK ALL RWY ASSIGNMENTS AND HOLD SHORT INSTRUCTIONS. ...ADVS YOU HAVE INFO A.\n[Departure ATIS] KJFK DEP ATIS N 1951Z JFK ATIS INFO N 1951Z. 21014KT 10SM SCT070 34/22 A2992 (TWO NINER NINER TWO) RMK AO2 SLP131 T03440217. APPROACH IN USE ILS RY 22L, ILS RY 22R. DEPG RY 22R. CRI OTS. RWY 22L/4R INNER MARKER OTS. HAZD WX INFO FOR NY METRO AREA AVBL ON FSS. SWAP IN EFFECT EXPECT REROUTES. NUM CRANES OPERATING AT JFK. BIRD ACTIVITY VICINITY ARPT. READBACK ALL RWY ASSIGNMENTS AND HOLD SHORT INSTRUCTIONS. ...ADVS YOU HAVE INFO N.",
    "KIND": "[Arrival ATIS] KIND ARR ATIS F 0554Z IND ATIS INFO F 0554Z. 22010KT 10SM BKN250 26/21 A3005 (THREE ZERO ZERO FIVE). PARL ILS RWY 23R AND 23L APPROACHES IN USE. CROSS RUNWAY OPERATIONS MAY BE IN EFFECT. NOTICE TO AIRMEN. RWY 32 GS OTS. TWY, P BTN TWY, H AND TWY B CLSD. P PAD CLSD. ILS RUNWAY 5R AND RUNWAY 5L INNER MARKER UNSERVICEABLE. RUNWAY 32 PAPI OTS. RUNWAY 32 TOUCHDOWN RVR OTS. RUNWAY 14 ROLLOUT RVR OTS. HIWAS. ...ADVS YOU HAVE INFO F.\n[Departure ATIS] KIND DEP ATIS H 1854Z IND ATIS INFO H 1854Z. 26009G19KT 10SM SCT036 BKN041 BKN170 23/16 A2981 (TWO NINER EIGHT ONE) RMK AO2 SLP088 T02280156. PARL ILS RWY 23R AND 23L APPROACHES IN USE. CROSS RU",
    "KDTW": "[Arrival ATIS] KDTW ARR ATIS F 0153Z DTW ARR INFO F 0153Z. 00000KT 10SM FEW080 BKN140 OVC230 23/19 A3002 (THREE ZERO ZERO TWO) RMK AO2 SLP161 T02330194. SIMUL VISUAL RY 21L, RY 22R USE Z LOC FREQ 111.95 APCH IN USE. NOTICE TO AIRMEN. RWY 21R, 3L CLSD, RWY 27L, 9R CLSD, RWY 27R, 9L CLSD. RY 22L ALS OTS, RY 22R PAPI LGTS OTS. PILOTS USE CTN FOR BIRD ACTIVITY. UNAUTH LASER ILLUM EVNT AT 0153Z NINER MILES, EAST OF ARPT, FIVE, ONE ONE THSD FT, GRN LASER, FROM THE NORTHEAST, EAST. DEPARTURE ATIS 118.125. ...ADVS YOU HAVE INFO F.\n[Departure ATIS] KDTW DEP ATIS Q 2253Z - KDTW DEP INFO Q 2253Z. 21009KT 10SM FEW050 FEW250 33/24 A2991 (TWO NINER NINER ONE). DEPG RWY 21R, RWY 22L ;. NOTICE TO AIRMEN. RWY 27L, 9R CLSD, RWY 27R, 9L CLSD. PILOTS USE CTN FOR BIRD ACTIVITY. ...ADVS YOU HAVE INFO Q.",
    "KMSP": "[Arrival ATIS] KMSP ARR ATIS A 0315Z MSP ARR INFO A 0315Z SPECIAL. 24006KT 10SM BKN060 27/20 A2996 (TWO NINER NINER SIX). VISUAL RWY 30L APCH IN USE, VISUAL RWY 30R APCH IN USE. LAHSO, ACFT LNDG RWY 30L EXP TO HLDSHRT TWY A9 FOR CRSSGTFC, 8 THSD 1 HND FIFTY FT AVBL. NOTICE TO AIRMEN. RWYS 4, 22 CLSD. TWY R7. R8. R9. R10. CLOSED, TWY R BETWEEN R6 AND R10 CLOSED. GS RWY 12L OTS, RWYS 12R, 12L, INNER MARKER OTS.. HAZD WX INFO FOR MSP AREA AVBL FM FSS. CTN, BIRDS NEAR MSP. READ BACK HS AND ALT. ALL ACFT TAXI WITH TRANSPONDER AND ALTITUDE ENCODING ON. ...ADVS YOU HAVE INFO A.\n[Departure ATIS] KMSP DEP ATIS U 2353Z MSP DEP INFO U 2353Z. 25006KT 10SM FEW048 FEW065 SCT250 29/18 A2994 (TWO NINER NINER FOUR). DEPARTING RWY 30L, RWY 30R, RWY 17. NOTICE TO AIRMEN. TWY R7. R8. R9. R10. CLOSED, TWY R BETWEEN R6 AND R10 CLOSED. ALL ACFT CTC METERING ON ONE THREE THREE POINT FIVE SEVEN WHEN READY TO PUSHBACK OR TAXI. HAZD WX INFO FOR MSP AREA AVBL FM FSS. CTN, BIRDS NEAR MSP. READ BACK HS AND ALT. ALL ACFT TAXI WITH TRANSPONDER AND ALTITUDE ENCODING ON. ...ADVS YOU HAVE INFO U.",
    "CYEG": "[Arrival ATIS] CYEG ARR ATIS L 0600Z CYEG ARR ATIS L 0600Z 16002KT 20SM FEW087 FEW250 12/11 A2992 APCH RNAV Z OR Y RWY 20, INFORM ARRL OF REQ APCH ON INITIAL CTC. LDG AND DEP RWY 20. TWY B1 CLSD. SIMUL APPROA\n[Departure ATIS] CYEG DEP ATIS K 0500Z CYEG ARR ATIS K 0500Z 19005KT 20SM FEW087 FEW230 13/12 A2992 APCH RNAV Z OR Y RWY 20, INFORM ARRL OF REQ APCH ON INITIAL CTC. LDG AND DEP RWY 20. TWY B1 CLSD. SIMUL APPROACHES MAY BE IN EFCT. INFORM CYEG ATC INFO K",
    "EHAM": "[Arrival ATIS] EHAM ARR ATIS I 1323Z EHAM ARRIVAL INFO I. DEMAND. MAIN LANDING RWY 18 R. SECONDARY LANDING RWY 27. TRANSITION LEVEL 040. WIND 230 DEG, 5 KT, VRB BTN 180 AND 300 DEG. WIND SECONDARY RUNWAY 230 DEG, 7 KT, VRB BTN 050 AND 280 DEG, 11 KT MAX, 1 KT MNM. CAVOK. T 27. DP 18. QNH 1017 HPA. NOSIG. OPERATIONAL REPORT. CONVERGING APPROACHES IN PROGRESS. CONTACT APCH WITH CALLSIGN ONLY. END OF INFO I\n[Departure ATIS] EHAM DEP ATIS R 1550Z EHAM DEPARTURE INFO R. DEMAND. MAIN DEPARTURE RWY 36 L. MAIN LANDING RWY 36 R. WIND 310 DEG, 11 KT, VRB BTN 250 AND 350 DEG, 16 KT MAX, 6 KT MNM. VIS 10 KM OR MORE. CLD FEW 3000 FT. T 18. DP 10. QNH 1027 HPA. OPERATIONAL REPORT. INFORM SCHIPHOL DEL BY VOICE IF UNABLE TO COMPLY WITH NADP 2. END OF INFO R",
    "EBBR": "[Arrival ATIS] EBBR ARR ATIS Y 0608Z EBBR NAT, EXP VECT FOR ILS APP ARR RWY19 RSCD AT 0607 RWY19 DRY. DEP RWY19 TRL 055 RWY 25R CLSD 240/10KT CAVOK T17 DP11 QNH 1027HPA NOSIG CFM ARR Y\n[Departure ATIS] EBBR DEP ATIS L 0420Z EBBR NAT, DEP RWY25R RSCD AT 0311 RWY25R DRY. ARR RWY19 TRL 055 TWY B3 CLSD 230/10KT CAVOK T13 DP10 QNH 1027HPA NOSIG CFM DEP L",
    "EDDF": "[Arrival ATIS] EDDF ARR ATIS B 0620Z ARR-ATIS EDDF B METAR 040620 EXPECT INDEPENDENT PARALLEL ILS Y APCH RWY 25R OR ILS APCH RWY 25L RWY 25R 25L DO NOT MISTAKE TWY M FOR RWY 25C WHEN PERFORMING VISUAL APPROACH , GLS APCH ON REQUEST , TRL 60 28008KT 240V300 CAVOK T18 DP09 QNH1027 TREND NOSIG END OF ATIS B\n[Departure ATIS] EDDF DEP ATIS J 1420Z DEP-ATIS EDDF J METAR 271420 RWY 18 TRL 60 12006KT 040V180 RWY18 VRB04KT CAVOK T40 DP12 QNH1015 TREND NOSIG",
    "EDDL": "[Arrival ATIS] EDDL ARR ATIS I 1620Z ATIS EDDL I METAR 271620 EXPECT VECTORS ILS APPROACH RWY 05R TWY L3 CLOSED, VACATE RWY 05R VIA TWY L4 OR L1 TRL 70 EXPECT INTENSE BIRD ACTIVITY IN THE VICINITY OF RWY SYSTEM 10006KT 070V140 9999 -SHRA FEW///TCU T37 DP21 QNH1013 TREND TEMPO SHRA\n[Departure ATIS] EDDL DEP ATIS R EDDL ARR/DEP DATIS RPT -ATIS EDDL R METAR 020550 -EXPECT VECTORS ILS APPROACH -RWY 23L -TWY L8 CLOSED BETWEEN TWY M AND RWY 23L -TRL 60 - -23010KT -CAVOK - - -T19 DP13 -QNH1020 - -TREND NOSIG",
    "EDDK": "[Arrival ATIS] EDDK ARR ATIS E 0620Z ATIS EDDK E METAR 040620 EXPECT ILS APCH RWY 13L RWY 13L 06 RWY COND RWY 13L AT TIME 0020 RWYCC 6 RWY 06 AT TIME 0020 RWYCC 6 TRL 60 RWY 13R AND RWY 31L CLOSED FOR DEPARTURE AND LANDING: TAXIING BTN THR RWY 13R AND INTERSECTION RWY 24 POSSIBLE : 15003KT 100V220 CAVOK T16 DP10 QNH1027 TREND NOSIG\n[Departure ATIS] EDDK DEP ATIS Q EDDK ARR/DEP DATIS RPT -ATIS EDDK Q METAR 291920 -EXPECT ILS APCH -RWY 31R 06 -RWY COND RWY 31R AT TIME 1830 RWYCC 6 DEPOSIT TOTAL RWY DRY RWY 06 AT TIME 1830 RWYCC 6 DEPOSIT TOTAL RWY DRY -TRL 60 -RWY 13R AND RWY 31L CLOSED FOR DEPARTURE AND LANDING: TAXIING BTN THR RWY 13R AND INTERSECTION RWY 24 POSSIBLE : -04003KT -CAVOK - - -T24 DP13 -QNH1024 - -TREND NOSIG",
    "EBLG": "[Arrival ATIS] EBLG ATIS M 0550Z EBLG INFO, EXP RNAV TO ILS APP ARR RWY22L DEP RWY22L RWY 22L DRY, RWYCC 666. TRL 055 TWY A4 DISPLACED. ADZ ON GND FREQ IF UNABLE S4 210/7KT CAVOK T15 DP10 QNH 1028HPA NOSIG CFM ATIS M",
    "LSZH": "[Arrival ATIS] LSZH ARR ATIS F 0641Z ARRIVALS, EXP ILS APCH, RWY 14. TRL 70. DEP RWY 28. WIND VRB, 1 KT. VIS 10 KM OR MORE, TDZ 10 KM OR MORE. NSC. T 19. DP 9. QNH 1028. NOSIG.\n[Departure ATIS] LSZH DEP ATIS T 0620Z DEP RWY 28. TRL 70. ARRIVALS, EXP ILS APCH, RWY 34. TMA S 1 IS ACT. TMA S 2 AND S 3 ARE ACT. WIND VRB, 1 KT. VIS 10 KM OR MORE. CLD FEW 7500 FT. T 19. DP 9. QNH 1028. NOSIG.",
    "LIMC": "[Arrival ATIS] LIMC ARR ATIS P 1620Z LIMC ARR P 1620Z I.L.S. ZULU RWY IN USE 35R TL 70 RWY 35L CLSD WIND TDZ 230/7KT VRB BTN 190/AND 280/ CAVOK T35 DP18 QNH 1019HPA QFE 0993HPA PILOTS ARE REQUESTED TO RESPECT INSTRUCTED PUBLISHED SPEED ON FINAL APPROACH\n[Departure ATIS] LIMC DEP ATIS Y 0552Z LIMC DEP Y 0552Z RWY IN USE 35R TL 70 WIND END 340/3KT CAVOK T24 DP11 QNH 1021HPA QFE 0996HPA DATALINK CLEARANCE AVAILABLE.... CONTACT 1 3 1 8 8 0 TO BE RELEASED BY THE AIRPORT OPERATOR ...",
    "LIRF": "[Arrival ATIS] LIRF ARR ATIS C 0650Z LIRF ARR C 0650Z RWY 16L ILS W RWY 16R ILS Z RWY IN USE 16L 16R TL 70 DEPENDENT PARL ILS APCH INPR RWY IN USE 16R OR 16L ASSIGNED BY ROME RADAR WIND RWY 16L TDZ 050/8KT VRB BTN 360/AND 070/ RWY 16R TDZ 050/7KT CAVOK T29 DP12 QNH 1018HPA RRSM\n[Departure ATIS] LIRF DEP ATIS R 1250Z LIRF DEP R 1250Z RWY IN USE 25 TL 70 RWYS IN USE FOR ARR 16L AND 16R WIND END 260/7KT VRB BTN 230/AND 310/ CAVOK T29 DP21 QNH 1019HPA REA IS SENT AUTOMATICALLY ONCE RLSD BY RAMP WHEN READY CONTACT FIUME RAMP 121.725 RRSM",
    "EINN": "[Arrival ATIS] EINN ARR ATIS E 0630Z EXPECT I L S CATEGORY 1 LDG RWY24 TKOF RWY24 TRL FL060 24016KT 9999 FEW005 BKN007 BKN018 16/14 QNH Q1027 TREND BECMG BKN012 ADVISE AT FIRST CONTACT YOU HAVE ATIS INFO E",
    "EGLL": "[Arrival ATIS] EGLL ARR ATIS B 0720Z LANDING RWY 27R TRANSITION-LEVEL: FL 70 IF STAND GUIDANCE IS OFF OR FAILS, REMAIN ON THE TAXIWAY CENTRELINE AND ADVISE ATC RUNWAY 27R REDUCED DECLARED DISTANCES WITH TAKE OFF RUN AVAILABLE 3362METRES AND LANDING DISTANCE AVAILABLE 3362METRES DET VOR OOS AUTO 27012KT 230V300 9999 BKN014 18/14 Q1027 ACKNOWLEDGE RECEIPT OF INFORMATION B\n[Departure ATIS] EGLL DEP ATIS M 0620Z DEPARTURE RWY 27L RWY27L SURFACE CONDITION CODES: 6/6/6 DRY/DRY/DRY DEPTH: NR/NR/NR COVERAGE: NR/NR/NR RUNWAY ENTRY POINT NB3 UNAVAILABLE FOR 27L PILOTS THAT ARE IN RECEIPT OF DATALINK CLEARANCES ARE REMINDED THEY MUST CONTACT DELIVERY ON 121.980 WHEN READY FOR START DET VOR OOS RUNWAY 27R REDUCED DECLARED DISTANCES WITH TAKE OFF RUN AVAILABLE 3362METRES AND LANDING DISTANCE AVAILABLE 3362METRES AUTO 25009KT 9999 OVC010 17/14 Q1027 ACKNOWLEDGE RECEIPT OF INFORMATION M AND REPORT AIRCRAFT TYPE AND CURRENT QNH ON FIRST CONTACT WITH HEATHROW",
    "EPWA": "[Arrival ATIS] EPWA ARR ATIS H 1601Z EPWA ARR H. TIME 1600. EXP N ARR ILS Z APCH FOR RWY 11. TRANSITION LEVEL 80. WIND 110 DEG, 6 KT, VRB BTN 090 AND 190 DEG. CAVOK. T 34. DP 14. QNH 1019. NOSIG. CAUTION. BIRD ACT. END OF EPWA ARR H\n[Departure ATIS] EPWA DEP ATIS P 1931Z EPWA DEP P. TIME 1930. DEP RWY 29. ARR RWY 33, EXP U ARR ILS Z. REPORT READY FOR STARTUP ON DELIVERY 121 DECIMAL 605. TRANSITION LEVEL 80. WIND 290 DEG, 5 KT, VRB BTN 270 AND 330 DEG. CAVOK. T 18. DP 8. QNH 1016. NOSIG. CAUTION. BIRD ACT. END OF EPWA DEP P",
    "EFHK": "[Arrival ATIS] EFHK ARR ATIS C 1322Z EXPECT ILS APCH ARR RWY 22L RUNWAY 22L CONDITION REPORT AT 1321 UTC RUNWAY CONDITION CODES 6 , 6 , 6 CONTAMINANTS ALL PARTS DRY TRL 65 WIND 240 DEG 8 KT VRB BTN 220 AND 290 DEG CAVOK T 21 DP 8 QNH 1008 NOSIG ACK INFO C\n[Departure ATIS] EFHK DEP ATIS H 1620Z DEP RWYS 22R AND 22L RUNWAY 22R CONDITION REPORT AT 1329 UTC RUNWAY CONDITION CODES 6 , 6 , 6 CONTAMINANTS ALL PARTS DRY RUNWAY 22L CONDITION REPORT AT 1330 UTC RUNWAY CONDITION CODES 6 , 6 , 6 CONTAMINANTS ALL PARTS DRY WIND 110 DEG 6 KT VIS 10KM FEW 1400 FT. SCT 1600 FT. FEW TCU 2800 FT T 19 DP 15 QNH 1003 TEMPO CLD FEW CB 3000 FT. ACK INFO H",
    "LTAC": "[Arrival ATIS] LTAC ARR ATIS M 0620Z EXP ILS V APCH 03C DEP RWY 03L RWY 03C WIND VRB 03 KT RWY 03L WIND VRB 03 KT TRL 110 CAVOK T 23 DP 10 QNH 1013 NOSIG FOR DELIVERY CTC 121.9. FOR DELIVERY FIRST USE DIGITAL DEP CLR. CTN BIRD HAZARD OVR AERODROME. APCH FREQUENCY 129.050. TAXIWAY ECHO 1 IS CLOSED. END OF ATIS M",
    "UBBB": "[Arrival ATIS] UBBB ARR ATIS V 1300Z ATIS V EXP ILS/ LDG 17 DEP 17 IN USE RWY 17 CLEAR DRY 70 TLVL 110 WIND WIND RWY 17 160 10 KT SPD MAX 14 MIN 8 VIS CAVOK T 30 / DP 11 QNH 1013 HPA TREND TREND NOSIG RWY 16 CLSD ONMAINT OBS BIRDS AT 2000 FT MODERATE BIRDS ACT IN VICINITY OF AP END OF ATIS V\n[Departure ATIS] UBBB DEP ATIS F 0830Z ATIS F EXP ILS/ LDG 17 DEP 17 IN USE RWY 17 CLEAR DRY 70 TLVL 110 WIND WIND RWY 17 110 4 KT SPD MAX 10 MIN 2 VIS CAVOK T 30 / DP 14 QNH 1014 HPA TREND TREND NOSIG RWY 16 CLSD ONMAINT OBS BIRDS IN 2000 FT MODERATE BIRDS ACT IN VICINITY OF AP END OF ATIS F",
    "ZWWW": "[Arrival ATIS] ZWWW ARR ATIS H 1300Z EXP ILSDME Z APCH LDG RWY 26R TA 3000 WIND 030/3MPS VIS 9999M CLD FEW TCU 1200M /FEW 1200M T 31 /DP 12 QNH 1010 HPA ADZ YOU HAVE INFO H.\n[Departure ATIS] ZWWW DEP ATIS N 0430Z DEP RWY 26L TA 3000 WIND 010/6MPS VIS 9999M CLD FEW 990M T 28 /DP 14 QNH 1013 HPA ADZ YOU HAVE INFO N.",
    "ZLXY": "[Arrival ATIS] ZLXY ARR ATIS G 1300Z EXP ILS APCH LDG RWY 05L & 06R WIND 350/1MPS VIS 6000M CLD FEW 270M /SCT 900M /OVC 1800M T 20 /DP 19 QNH 1008 HPA RUNWAY 05L SURFACE CONDITION CODE 555 RUNWAY 06L SURFACE CONDITION CODE 555 RUNWAY 06R SURFACE CONDITION CODE 555 ADZ YOU HAVE INFO G.\n[Departure ATIS] ZLXY DEP ATIS U 0400Z DEP RWY 05L & 06L WIND VRB/1MPS VIS 9999M CLD FEW 450M /SCT 900M /OVC 1800M T 23 /DP 19 QNH 1008 HPA ADZ YOU HAVE INFO U.",
    "ZBAA": "[Arrival ATIS] ZBAA ARR ATIS S 1300Z EXP ILS APCH INDEPENDENT PARL INSTR APCH LDG RWY 36L & 01 WIND 100 DEG 2 MPS 050V150 DEG VIS 7000 NSC T 27 /DP 23 QNH 1004 HPA ADZ YOU HAVE INFO S.\n[Departure ATIS] ZBAA DEP ATIS T 1330Z DEP RWY 36L & 36R & 01 WIND 080 DEG 2 MPS 050V120 DEG VIS 7000 NSC T 27 /DP 23 QNH 1005 HPA RWY INDEPENDENT PARALLEL DEP ADZ YOU HAVE INFO T.",
    "ZBHH": "[Arrival ATIS] ZBHH ARR ATIS C 1131Z EXP ILSDME APCH LDG RWY 08 TA 3000 /TRL 3600 WIND 360/3MPS MAX9 VRB BTN 290/ AND 070/ VIS 9999M CLD FEW 1200M /FEW CB 1200M T 24 /DP 09 QNH 1008 HPA BETWEEN 0800 AND 1200 UTC, WINDSHEAR MAY OCCUR IN LOCAL FIELD. ADZ YOU HAVE INFO C.\n[Departure ATIS] ZBHH DEP ATIS K 2300Z DEP RWY 26 TA 3000 /TRL 3600 WIND 060/3MPS VRB BTN 010/ AND 080/ CAVOK T 21 /DP 15 QNH 1010 HPA ADZ YOU HAVE INFO K.",
    "ZSQD": "[Arrival ATIS] ZSQD ARR ATIS W 1200Z EXP ILSDME APCH LDG RWY 17 TA 3000 /TRL 3600 WIND 150/4MPS CAVOK T 23 /DP 19 QNH 1007 HPA SEGREGATED OPERATION VISUAL APPROACH OPERATION IN PROGRESS. WHEN READY CONTACT QINGDAO TOWER ON 118.7 RUNWAY 17,IF MISSED APPROACH,EXPECT FOLLOW THE STANDARD MISSED APPROACH PROCEDURE,CLIMB TO 900M ON QNH OR BY ATC CAUTION MAYBE THERE IS A FLOCK OF BIRDS IN THE VICINITY OF AIRPORT ADZ YOU HAVE INFO W.\n[Departure ATIS] ZSQD DEP ATIS F 2200Z DEP RWY 16 TA 3000 /TRL 3600 WIND 160/4MPS VIS 9999M CLD SCT 270M T 23 /DP 22 QNH 1009 HPA VISUAL APPROACH OPERATION IN PROGRESS. RUNWAY 16,IF MISSED APPROACH,EXPECT FOLLOW THE STANDARD MISSED APPROACH PROCEDURE,CLIMB TO 600M ON QNH OR BY ATC CAUTION MAYBE THERE IS A FLOCK OF BIRDS IN THE VICINITY OF AIRPORT ADZ YOU HAVE INFO F."
  },
  "windtemp_alaska": "\n000\nFBAK31 KWNO 040200\nFD1AK1\nDATA BASED ON 040000Z    \nVALID 040600Z   FOR USE 0200-0900Z. TEMPS NEG ABV 24000\n\nFT  3000    6000    9000   12000   18000   24000  30000  34000  39000\nADK 1012 1009+06 9900+03 2607-01 2615-13 2628-23 255138 257147 258758\nADQ 2511 2416+00 2423-05 2528-10 2641-20 2655-31 266246 275452 262845\nAKN 2318 2415-04 2309-06 2110-12 2326-23 2556-33 257245 254144 252242\nANC 2207 2305+01 1605-04 1509-09 1413-22 1413-35 190850 201149 241142\nANN 1615 1619+00 1616-04 1713-08 2012-22 2110-35 211548 241747 252242\nBET 3010 2106-03 1611-09 1210-14 0722-26 0737-36 072943 060839 320540\nBRW 2914 3114+03 3215-02 3419-07 3536-18 0141-30 016544 026552 013747\nBTI 2825 2921-01 2923-07 3019-10 2919-20 2722-32 253147 291748 341042\nBTT 9900 9900+05 9900-02 3105-09 2709-21 9900-35 990049 050550 030944\nCDB 2809 2522+00 2533-05 2543-10 2561-19 2577-29 268544 277949 275546\nCZF 0307 0625+01 0530-04 0530-10 0632-23 0528-34 053149 042845 031541\nEHM 2714 2507-07 2108-10 2009-15 2213-27 2422-37 252538 261838 271540\nFAI 9900 2706+06 2911-02 3113-09 3107-21 2409-34 171649 161153 990043\nFYU 9900 9900+03 3608-03 3110-09 3014-21 2612-32 201648 191055 990043\nGAL 0105 9900+04 9900-03 2305-09 9900-23 2010-35 211250 060948 061143\nGKN 1712 9900+03 9900-02 9900-08 0605-22 9900-34 131449 140852 250743\nHOM 2014 1818-01 1817-05 1617-11 1719-23 1920-34 242947 252947 251743\nJNU 1808 1910+00 2308-05 2509-09 9900-22 9900-35 990048 990049 250942\nLUR 0123 0119+02 0118-02 0218-05 0326-17 0336-29 046344 056654 044450\nMCG 2417 9900+02 0811-04 0915-09 1218-23 1223-35 121851 131049 990042\nMDO 2507 9900+01 9900-04 9900-08 0806-22 9900-34 292049 282150 271343\nOME 0508 9900+03 9900-04 0806-09 0507-22 0524-34 055347 054149 052745\nORT      3405+04 3515-03 3422-09 3422-22 3616-32 061148 120654 990043\nOTZ 0211 0307+03 9900-03 0407-09 0420-21 0431-32 055447 054950 053246\nSNP 3119 3321-03 3425-07 3530-11 0140-24 0248-34 333341 313541 303143\nTKA 1912 2106+02 9900-03 9900-09 1211-22 1216-35 141050 171050 220742\nUNK 0517 0614+03 0613-03 0713-09 0911-22 0811-35 051150 052148 041443\nYAK 2705 2806-01 2905-04 3305-08 0606-22 0713-34 990049 990050 300742\nIKO 3205 2809+03 2718-01 2730-04 2753-15 2765-26 278740 770247 780457\nAFM 0312 0305+04 9900-02 9900-09 9900-22 0428-33 055047 054349 052245\n5AB 1024 0920+06 1016+02 1014-02 1208-13 2107-24 232540 233750 234057\n5AC 3024 3023-01 2917-06 2817-08 2822-21 2828-34 273843 273942 273842\n5AD 3117 3217+03 3119+00 3123-06 3134-18 3038-30 314646 314854 293648\n5AE 2616 2725+03 2726-02 2632-06 2643-18 2646-30 275046 275353 274350\n5AF 1207 0806+00 0509-03 0405-08 9900-22 2905-34 331347 321548 291643\n5AG 0408 0505+00 0306-04 0107-09 3507-23 9900-35 302146 302048 301343\n",
  "vaac_tokyo": [
    {
      "id": "20260704_27202000_0228",
      "year": "2026",
      "volcano": "Kanlaon",
      "psn": "N1025 E12308",
      "issued": "20260704",
      "text": "FVFE01 RJTD 040601\nVA ADVISORY\nDTG: 20260704/0601Z\nVAAC: TOKYO\nVOLCANO: KANLAON 272020\nPSN: N1025 E12308\nAREA: PHILIPPINES\nSOURCE ELEV: 2435M AMSL\nADVISORY NR: 2026/228\nINFO SOURCE: HIMAWARI-9 PHIVOLCS\nERUPTION DETAILS: ERUPTION AT 20260704/0539Z FL090 EXTD SW REPORTED\nOBS VA DTG: 04/0540Z\nOBS VA CLD: VA NOT IDENTIFIABLE FM SATELLITE DATA WIND FL090 070/7KT\nFCST VA CLD +6 HR: NOT AVBL\nFCST VA CLD +12 HR: NOT AVBL\nFCST VA CLD +18 HR: NOT AVBL\nRMK: WE WILL ISSUE FURTHER ADVISORY IF VA IS DETECTED IN SATELLITE \nIMAGERY.\nNXT ADVISORY: NO FURTHER ADVISORIES=",
      "img_url": "https://ds.data.jma.go.jp/svd/vaac/data/VAGFN/2026/Images/20260704_27202000_0228_QH21_01.png",
      "sat_img_url": null,
      "text_url": "https://ds.data.jma.go.jp/svd/vaac/data/TextData/2026/20260704_27202000_0228_Text.html"
    },
    {
      "id": "20260704_30027000_0228",
      "year": "2026",
      "volcano": "Sheveluch",
      "psn": "N5639 E16122",
      "issued": "20260704",
      "text": "FVFE01 RJTD 040600\nVA ADVISORY\nDTG: 20260704/0600Z\nVAAC: TOKYO\nVOLCANO: SHEVELUCH 300270\nPSN: N5639 E16122\nAREA: RUSSIA\nSOURCE ELEV: 3283M AMSL\nADVISORY NR: 2026/228\nINFO SOURCE: HIMAWARI-9\nERUPTION DETAILS: VA CONTINUOUSLY OBS IN SATELLITE IMAGERY\nOBS VA DTG: 04/0520Z\nOBS VA CLD: SFC/FL280 N6009 E15851 - N6010 E15917 - N5856 E15948 - \nN5845 E15830 - N5908 E15817 MOV N 25KT\nFCST VA CLD +6 HR: 04/1120Z SFC/FL280 N6239 E15836 - N6012 E15850 - \nN6035 E15653 - N6306 E15718\nFCST VA CLD +12 HR: 04/1720Z SFC/FL280 N6517 E15814 - N6156 E15718 - \nN6343 E15548 - N6704 E15619\nFCST VA CLD +18 HR: NO VA EXP\nRMK: VA OF PREVIOUS VAA(FL150) HAS DISSIPATED.  VA HEIGHT UPDATED TO \nFL280 BASED ON SATELLITE DATA.\nNXT ADVISORY: 20260704/1200Z=",
      "img_url": "https://ds.data.jma.go.jp/svd/vaac/data/VAGFN/2026/Images/20260704_30027000_0228_QH21_01.png",
      "sat_img_url": "https://ds.data.jma.go.jp/svd/vaac/data/Sat/2026/Images/30027000/09-ir/20260704_0520_202607040600_ir.png",
      "text_url": "https://ds.data.jma.go.jp/svd/vaac/data/TextData/2026/20260704_30027000_0228_Text.html"
    },
    {
      "id": "20260702_27303000_0714",
      "year": "2026",
      "volcano": "Mayon",
      "psn": "N1315 E12341",
      "issued": "20260702",
      "text": "FVFE01 RJTD 021550\nVA ADVISORY\nDTG: 20260702/1550Z\nVAAC: TOKYO\nVOLCANO: MAYON 273030\nPSN: N1315 E12341\nAREA: PHILIPPINES\nSOURCE ELEV: 2462M AMSL\nADVISORY NR: 2026/714\nINFO SOURCE: HIMAWARI-9 PHIVOLCS\nERUPTION DETAILS: ERUPTION AT 20260702/1535Z FL090 EXTD WSW REPORTED\nOBS VA DTG: 02/1530Z\nOBS VA CLD: VA NOT IDENTIFIABLE FM SATELLITE DATA WIND FL090 100/11KT\nFCST VA CLD +6 HR: NOT AVBL\nFCST VA CLD +12 HR: NOT AVBL\nFCST VA CLD +18 HR: NOT AVBL\nRMK: WE WILL ISSUE FURTHER ADVISORY IF VA IS DETECTED IN SATELLITE \nIMAGERY.\nNXT ADVISORY: NO FURTHER ADVISORIES=",
      "img_url": "https://ds.data.jma.go.jp/svd/vaac/data/VAGFN/2026/Images/20260702_27303000_0714_QH21_01.png",
      "sat_img_url": null,
      "text_url": "https://ds.data.jma.go.jp/svd/vaac/data/TextData/2026/20260702_27303000_0714_Text.html"
    },
    {
      "id": "20260701_30006000_0001",
      "year": "2026",
      "volcano": "Mutnovsky",
      "psn": "N5227 E15812",
      "issued": "20260701",
      "text": "FVFE01 RJTD 012206\nVA ADVISORY\nDTG: 20260701/2206Z\nVAAC: TOKYO\nVOLCANO: MUTNOVSKY 300060\nPSN: N5227 E15812\nAREA: RUSSIA\nSOURCE ELEV: 2288M AMSL\nADVISORY NR: 2026/1\nINFO SOURCE: KVERT KBGS UHPP HIMAWARI-9\nERUPTION DETAILS: ERUPTION AT 20260701/2016Z FL170 EXTD W REPORTED\nOBS VA DTG: 01/2140Z\nOBS VA CLD: VA NOT IDENTIFIABLE FM SATELLITE DATA WIND FL170 120/8KT\nFCST VA CLD +6 HR: NOT AVBL\nFCST VA CLD +12 HR: NOT AVBL\nFCST VA CLD +18 HR: NOT AVBL\nRMK: WE WILL ISSUE FURTHER ADVISORY IF VA IS DETECTED IN SATELLITE \nIMAGERY.\nNXT ADVISORY: NO FURTHER ADVISORIES=",
      "img_url": "https://ds.data.jma.go.jp/svd/vaac/data/VAGFN/2026/Images/20260701_30006000_0001_QH21_01.png",
      "sat_img_url": null,
      "text_url": "https://ds.data.jma.go.jp/svd/vaac/data/TextData/2026/20260701_30006000_0001_Text.html"
    }
  ],
  "vaac_alaska": [
    {
      "text": "\n000\nFVAK21 PAWU 040608\nVAAAK1\nVA ADVISORY\n\nDTG: 20260704/0606Z\n\nVAAC: ANCHORAGE\n\nVOLCANO: SHEVELUCH 300270\n\nPSN: N5639 E16122\n\nAREA: KAMCHATKA PENINSULA\n\nSOURCE ELEV: 10771 FT AMSL\n\nADVISORY NR: 2026/172\n\nRMK: PLEASE SEE FVFE01 RJTD ISSUED BY VAAC TOKYO WHICH DESCRIBES\nCONDITIONS NEAR THE VAAC ANCHORAGE AREA OF RESPONSIBILITY...CC\n\n\n\n",
      "issued": "2026-07-04T06:08:00+00:00",
      "volcano": "Sheveluch",
      "psn": "N5639 E16122"
    }
  ]
}