{
  "updated_utc": "2026-07-09T16:05Z",
  "metar": {
    "RJAA": "METAR RJAA 091430Z AUTO 17003KT 9999 NSC 22/21 Q1016 NOSIG",
    "PANC": "METAR PANC 091453Z 18006KT 10SM FEW033 BKN041 OVC055 12/09 A2991 RMK AO2 SLP130 T01220089 58002",
    "PAFA": "SPECI PAFA 091413Z 25006KT 7SM -RA VCFG BKN012 BKN060 OVC090 13/11 A2979 RMK AO2 FGBANK VC N-NE P0000 T01280111 $",
    "PAED": "METAR PAED 091455Z 18005KT 10SM -RA OVC032 13/08 A2990 RMK AO2A SLP121 PCPN VRY LGT 60000 T01250084 58002 $",
    "KSEA": "METAR KSEA 091453Z 21004KT 10SM SCT014 BKN017 OVC035 13/11 A3018 RMK AO2 SLP224 T01330106 51003 $",
    "ZSPD": "METAR ZSPD 091430Z 15007MPS CAVOK 27/25 Q1007 NOSIG",
    "ZSSS": "METAR ZSSS 091430Z 15005MPS CAVOK 28/24 Q1007 NOSIG",
    "RJFR": "METAR RJFR 091500Z AUTO 10009KT 9999 FEW050 BKN060 26/23 Q1013",
    "VHHH": "METAR VHHH 091430Z 13005KT 090V180 9999 FEW008 29/25 Q1005 NOSIG",
    "RCTP": "METAR RCTP 091430Z 07014KT 9999 FEW015 29/24 Q1005 NOSIG RMK A2970",
    "ZGSZ": "METAR ZGSZ 091500Z 14002MPS 100V170 CAVOK 29/25 Q1005 NOSIG",
    "WSSS": "METAR WSSS 091430Z 18006KT 9999 FEW016 BKN300 27/24 Q1013 NOSIG",
    "WMKK": "METAR WMKK 091430Z VRB02KT 9999 FEW030 28/23 Q1011 NOSIG",
    "WIDD": "METAR WIDD 091430Z 18003KT 9999 FEW014 26/24 Q1013 NOSIG",
    "VTBS": "METAR VTBS 091430Z 23005KT 9999 FEW020 30/24 Q1010 NOSIG",
    "VTBU": "METAR VTBU 091430Z VRB01KT 9000 FEW020 28/28 Q1010 NOSIG",
    "ROAH": "METAR ROAH 091430Z AUTO 08021KT 9999 BKN018 BKN026 BKN032 30/26 Q1004",
    "VVDN": "METAR VVDN 091430Z 22003KT 190V260 9999 FEW020 SCT070 29/22 Q1006 NOSIG",
    "RCKH": "METAR RCKH 091430Z 33010KT 290V360 9999 FEW014 SCT018 30/25 Q1004 NOSIG RMK A2966",
    "KLAX": "METAR KLAX 091453Z 00000KT 6SM HZ FEW009 FEW018 20/17 A2989 RMK AO2 SLP117 T02000167 53003 $",
    "KONT": "METAR KONT 091453Z 00000KT 10SM CLR 21/15 A2990 RMK AO2 SLP109 T02110150 53005 $",
    "KSFO": "METAR KSFO 091456Z COR 00000KT 10SM FEW004 OVC009 13/11 A3000 RMK AO2 SLP158 T01330111 53003 $",
    "KOAK": "METAR KOAK 091453Z 20008KT 10SM BKN006 OVC010 13/12 A3000 RMK AO2 SLP158 T01330117 53003",
    "KMHR": "METAR KMHR 091415Z AUTO 16004KT 10SM CLR 16/12 A2993 RMK AO2 T01570122 $",
    "KDFW": "METAR KDFW 091453Z 22008KT 180V250 10SM CLR 32/21 A3000 RMK AO2 SLP148 T03170206 51010 $",
    "KIAH": "METAR KIAH 091453Z 23004KT 10SM SCT024 30/23 A3007 RMK AO2 SLP183 T03000233 51010",
    "KORD": "METAR KORD 091451Z 24007KT 10SM FEW070 SCT130 BKN160 OVC250 27/20 A2989 RMK AO2 SLP116 T02720200 50000 $",
    "KJFK": "METAR KJFK 091451Z 20008KT 10SM FEW036 FEW140 SCT250 27/21 A2993 RMK SLP133 T02670211 56013 $",
    "KRFD": "METAR KRFD 091454Z 21004KT 10SM SCT085 BKN140 OVC200 24/21 A2992 RMK AO2 RAE09 SLP126 P0000 60000 T02390211 51007",
    "KIND": "SPECI KIND 091425Z 24006KT 10SM BKN012 BKN250 25/22 A2999 RMK AO2 T02500217",
    "KDTW": "METAR KDTW 091453Z 25010KT 10SM SCT055 SCT220 29/20 A2991 RMK AO2 SLP122 T02890200 58000",
    "KMSP": "METAR KMSP 091453Z 02008KT 10SM FEW055 BKN250 24/16 A2993 RMK AO2 SLP130 T02440156 51010",
    "CYEG": "SPECI CYEG 091428Z VRB03KT 15SM BKN078 OVC110 14/13 A2991 RMK AC7AC1 SLP135 DENSITY ALT 2900FT",
    "EHAM": "METAR EHAM 091425Z 07007KT 030V130 9999 FEW040 24/15 Q1019 NOSIG",
    "EBBR": "METAR EBBR 091420Z 04005KT 340V090 CAVOK 27/16 Q1018 NOSIG",
    "EDDF": "METAR EDDF 091420Z AUTO 36006KT 310V040 CAVOK 29/13 Q1016 NOSIG",
    "EDFH": "METAR EDFH 091420Z 34006KT 300V050 CAVOK 25/11 Q1018",
    "EDDL": "METAR EDDL 091420Z AUTO 04007KT 350V090 CAVOK 24/14 Q1018 NOSIG",
    "EDDK": "METAR EDDK 091420Z AUTO VRB06KT CAVOK 26/15 Q1018 NOSIG",
    "EBLG": "METAR EBLG 091420Z 04008KT 010V090 CAVOK 25/14 Q1019 NOSIG",
    "LSZH": "METAR LSZH 091420Z 09005KT 010V160 9999 FEW055 30/15 Q1016 NOSIG",
    "LIMC": "METAR LIMC 091420Z 25010KT 200V290 CAVOK 33/16 Q1010 NOSIG",
    "LIRF": "METAR LIRF 091420Z 24010KT 220V280 CAVOK 30/23 Q1010 NOSIG",
    "EINN": "METAR EINN 091430Z 26006KT 230V290 9999 FEW020 BKN026 22/16 Q1019 NOSIG",
    "EGLL": "METAR EGLL 091420Z AUTO VRB03KT 9999 NCD 33/13 Q1016",
    "EGSS": "METAR EGSS 091420Z AUTO VRB04KT 9999 NCD 34/12 Q1017",
    "EPWA": "METAR EPWA 091430Z 29012KT 9999 FEW040 17/11 Q1010 NOSIG",
    "UHPP": "METAR UHPP 091500Z VRB01MPS 9999 BKN100 12/12 Q1012 R34L/CLRD62 NOSIG RMK QFE755/1007",
    "EFHK": "METAR EFHK 091420Z 36008KT 320V020 9999 VCSH FEW011 SCT016 FEW020CB 17/14 Q1008 TEMPO SCT016",
    "LBBG": "METAR LBBG 091430Z AUTO 13005KT 9999 -RA //////CB 21/19 Q1008 RETSRA NOSIG",
    "LTAC": "METAR LTAC 091420Z 30012KT 270V330 9999 SCT040 30/05 Q1008 NOSIG RMK RWY21C 28013KT 240V310 RWY03L 27010KT 240V320 RWY21R 26012KT RWY03R 25009KT 220V280 RWY21L 28011KT 250V310",
    "UBBB": "METAR UBBB 091430Z 35012KT CAVOK 27/19 Q1007 NOSIG",
    "UTAA": "METAR UTAA 091500Z 25006KT 9999 NSC 38/10 Q1004 R88/CLRD70 NOSIG",
    "UACC": "METAR UACC 091430Z 09004MPS CAVOK 26/11 Q1018 NOSIG RMK QFE732/0976",
    "UAAA": "METAR UAAA 091430Z 16002MPS 9999 BKN050CB 29/15 Q1010 NOSIG",
    "UZTT": "METAR UZTT 091430Z 24008KT 210V270 CAVOK 34/12 Q1004 NOSIG",
    "ZWWW": "SPECI ZWWW 091418Z 25007MPS 9999 TS FEW040CB 26/13 Q1009 NOSIG",
    "ZLXY": "METAR ZLXY 091500Z 07003MPS 020V100 CAVOK 32/22 Q0998 NOSIG",
    "ZBAA": "METAR ZBAA 091430Z 08003MPS 040V130 9999 -SHRA NSC 28/22 Q1002 NOSIG",
    "ZBHH": "METAR ZBHH 091500Z 05006MPS 9999 SCT040 24/13 Q1005 NOSIG",
    "ZSQD": "METAR ZSQD 091500Z 15005MPS CAVOK 26/26 Q1003 NOSIG",
    "ZMCK": "METAR ZMCK 091430Z VRB01MPS 9999 FEW033 17/12 Q1007 NOSIG RMK QFE641.0 69 NT",
    "UUEE": "METAR UUEE 091430Z 20004MPS 170V240 9999 SCT030 20/15 Q1011 R24L/CLRD62 R24C/CLRD62 NOSIG",
    "UUDD": "METAR UUDD 091430Z 22003MPS 130V250 9999 SCT020 21/16 Q1011 R13R/CLRD65 NOSIG",
    "ULLI": "METAR ULLI 091430Z 14003MPS 100V200 9999 SCT038 21/12 Q1008 R88/090065 NOSIG",
    "USSS": "METAR USSS 091430Z 12002MPS 090V150 9999 SCT040 25/20 Q1017 R26L/210060 R26R/210060 NOSIG RMK QFE742/0990",
    "UNNT": "METAR UNNT 091430Z 02002MPS CAVOK 19/10 Q1018 R07/CLRD// R34/////// NOSIG RMK QFE753/1004",
    "UNKL": "METAR UNKL 091430Z 26001MPS CAVOK 12/11 Q1016 R29/CLRD// NOSIG RMK QFE737",
    "UIBB": "METAR UIBB 091430Z AUTO 35003MPS 310V040 9999 // ///090/// 14/08 Q1010 RMK QFE715/0953",
    "UEEE": "METAR UEEE 091430Z 08001MPS CAVOK 25/20 Q0997 R23/09//63 NOSIG RMK QFE739",
    "UHHH": "METAR UHHH 091430Z 11002MPS 9999 FEW040CB 22/21 Q1005 R88/090060 NOSIG RMK QFE747/0996",
    "UHSS": "METAR UHSS 091500Z 22001MPS 8000 NSC 17/16 Q1013 R19/CLRD70 NOSIG RMK QFE758/1011"
  },
  "taf": {
    "RJAA": "TAF RJAA 091105Z 0912/1018 16006KT 9999 FEW030 TEMPO 0917/0920 4000 BR TEMPO 1015/1018 4000 BR",
    "PANC": "TAF PANC 091503Z 0915/1018 18007KT P6SM VCSH SCT045 OVC070 FM091800 21006KT P6SM -RA OVC035 FM092000 VRB04KT P6SM -RA OVC015 FM100200 30005KT P6SM SCT025 OVC050 FM100800 20004KT P6SM FEW015 BKN070",
    "PAFA": "TAF PAFA 091400Z 0914/1018 24005KT P6SM -SHRA SCT015 BKN040 OVC080 FM092300 20005KT P6SM BKN050 FM101000 16003KT P6SM BKN250",
    "PAED": "TAF AMD PAED 091338Z 0913/1019 19010KT 9999 -RA SCT040 OVC060 650606 QNH2991INS BECMG 0917/0918 21008KT 9000 -RA SCT025 OVC040 620606 QNH2989INS BECMG 0922/0923 24004KT 9000 -RA SCT007 OVC025 620606 QNH2987INS BECMG 1001/1002 28005KT 9999 NSW SCT010 BKN035 QNH2987INS BECMG 1005/1006 24005KT 9999 FEW010 SCT035 BKN050 QNH2989INS BECMG 1009/1010 24005KT 9999 OVC025 QNH2989INS TX16/1002Z TN10/1012Z",
    "KSEA": "TAF KSEA 091507Z 0915/1018 VRB02KT P6SM BKN015 OVC035 FM091700 24005KT P6SM SCT025 SCT250 FM092200 29007KT P6SM FEW250 FM101000 22005KT P6SM SCT020 BKN060 FM101200 22005KT P6SM SCT009 BKN015",
    "ZSPD": "TAF ZSPD 091505Z 0918/1024 14004MPS 8000 BKN030 TX32/1006Z TN25/0921Z TN26/1021Z",
    "ZSSS": "TAF ZSSS 091505Z 0918/1024 14004MPS 8000 BKN030 TX33/1006Z TN25/0921Z TN26/1021Z",
    "RJFR": "TAF RJFR 091105Z 0912/1018 10014KT 9999 FEW030 BKN040 TEMPO 0921/0923 FEW005 BKN008 BECMG 1000/1003 06014KT BECMG 1009/1012 10014KT",
    "VHHH": "TAF VHHH 091400Z 0915/1021 VRB05KT 9999 FEW015 TX33/1006Z TN28/0922Z TEMPO 0915/0918 14010KT BECMG 1001/1003 26010KT BECMG 1009/1011 18010KT",
    "RCTP": "TAF RCTP 091100Z 0912/1018 06010KT 9999 FEW015 BKN032 BECMG 1000/1002 04013G23KT TEMPO 1002/1008 02018G28KT 6000 RA FEW010 BKN020 BKN040 BECMG 1008/1010 03020G30KT 6000 FEW010 BKN020 BKN040 TEMPO 1010/1014 01025G35KT 3800 SHRA SCT006 BKN011 FEW015CB TEMPO 1014/1018 36028G40KT 3200 SHRA SCT005 BKN007 FEW012CB",
    "ZGSZ": "TAF ZGSZ 091502Z 0918/1024 08003MPS 8000 SCT020 TX33/1006Z TN28/0922Z TN29/1022Z BECMG 1001/1003 20004MPS BECMG 1018/1020 30004MPS",
    "WSSS": "TAF WSSS 091100Z 0912/1018 16008KT 9999 FEW015 SCT020",
    "WMKK": "TAF WMKK 091100Z 0912/1018 VRB03KT 9999 FEW018 TEMPO 0921/1001 5000 TSRA FEW010 FEW017CB",
    "VTBS": "TAF VTBS 091100Z 0912/1018 22008KT 9999 FEW020 TEMPO 0912/0916 VRB15KT 4000 TSRA FEW018CB SCT030 BKN100 TEMPO 1010/1014 VRB15KT 4000 TSRA FEW018CB SCT030 BKN100",
    "VTBU": "TAF VTBU 091100Z 0912/1012 24006KT 9999 FEW020",
    "ROAH": "TAF ROAH 091105Z 0912/1018 08020KT 9999 FEW012 BKN020 TEMPO 0912/0916 08022G32KT BECMG 0916/0918 10026KT TEMPO 0916/1006 10030G45KT TEMPO 1006/1012 10035G50KT 4000 SHRA BR FEW005 BKN008 FEW015CB TEMPO 1012/1018 11035G50KT",
    "VVDN": "TAF VVDN 091100Z 0912/1012 23008KT 9999 FEW017 SCT060",
    "RCKH": "TAF RCKH 091100Z 0912/1018 33005KT 9999 FEW015 BKN032 TEMPO 0916/0922 06005KT BECMG 0922/0924 33010KT TEMPO 1003/1009 28015KT 7000 -RA FEW010 BKN020 BKN040 BECMG 1012/1014 34015G25KT",
    "KLAX": "TAF KLAX 091424Z 0914/1018 VRB03KT P6SM FEW009 TEMPO 0914/0917 6SM HZ FM091700 20005KT P6SM SKC FM091800 25010KT P6SM SKC FM100700 25005KT P6SM BKN008 FM101100 10005KT P6SM OVC008",
    "KONT": "TAF KONT 091120Z 0912/1018 VRB05KT P6SM SKC FM092000 26011G18KT P6SM SKC FM100500 VRB04KT P6SM SKC TEMPO 1011/1015 6SM HZ FEW008",
    "KSFO": "TAF KSFO 091452Z 0915/1018 27006KT P6SM OVC006 FM091900 31012KT P6SM SCT007 FM092100 29020KT P6SM SKC FM100300 28015KT P6SM OVC010 FM100800 27011KT P6SM OVC010",
    "KOAK": "TAF KOAK 091120Z 0912/1018 22008KT P6SM FEW001 BKN006 OVC010 FM091800 26011KT P6SM SCT010 FM100400 28010KT P6SM BKN010",
    "KMHR": "TAF KMHR 091120Z 0912/1012 16005KT P6SM SKC FM091900 25006KT P6SM SKC FM100200 22011KT P6SM SKC",
    "KDFW": "TAF KDFW 091458Z 0915/1018 20015KT P6SM SKC",
    "KIAH": "TAF KIAH 091514Z 0915/1018 22006KT P6SM SCT025 SCT050 SCT250 FM091800 18009KT P6SM SCT040 SCT250 FM100100 18006KT P6SM FEW020 SCT250 FM101000 VRB03KT P6SM SCT012 SCT035 OVC080",
    "KORD": "TAF KORD 091500Z 0915/1018 23009KT P6SM VCSH SCT050 BKN090 OVC150 PROB30 0915/0917 6SM -SHRA BKN050 FM092000 25011KT P6SM VCTS SCT040CB BKN100 TEMPO 0922/1002 04012KT 1 1/2SM TSRA OVC035CB FM100200 02009KT P6SM VCSH SCT020 BKN035 FM100600 02005KT 6SM BR SCT012 OVC020 FM101300 05007KT P6SM SCT015 BKN025",
    "KJFK": "TAF KJFK 091439Z 0915/1018 24007KT P6SM FEW250 FM091800 19014KT P6SM SCT040 SCT250 TEMPO 0918/0922 4SM TSRA BR BKN040CB FM100000 19010KT 6SM BR VCSH BKN050 FM100300 22008KT P6SM SCT120 FM101500 30009KT P6SM BKN250",
    "KRFD": "TAF KRFD 091500Z 0915/1012 24009KT P6SM VCSH SCT045 BKN090 TEMPO 0915/0916 6SM -SHRA BKN040 FM091800 25009KT P6SM VCTS BKN040CB TEMPO 0921/1001 1 1/2SM TSRA OVC035CB FM100100 36008KT P6SM SCT020 BKN035 FM100800 03005KT 6SM BR SCT012 OVC020",
    "KIND": "TAF KIND 091404Z 0914/1018 23007KT P6SM SCT009 BKN250 TEMPO 0914/0915 BKN009 FM091600 23009G17KT P6SM SCT050 BKN100 FM100000 22007KT P6SM VCSH SCT050 BKN100 PROB30 1001/1005 VRB15G30KT 4SM TSRA BR BKN040CB",
    "KDTW": "TAF KDTW 091431Z 0915/1018 23009KT P6SM SCT060 SCT220 FM091600 24010KT P6SM SCT030 BKN060 BKN250 TEMPO 0918/0922 2SM -TSRA BKN050CB FM092200 26010KT P6SM BKN100 FM100400 25003KT P6SM BKN050 FM101300 01005KT P6SM BKN030",
    "KMSP": "TAF KMSP 091457Z 0915/1018 02005KT P6SM FEW250 FM100200 VRB03KT P6SM SCT250",
    "CYEG": "TAF CYEG 091440Z 0915/1012 VRB03KT P6SM BKN070 OVC250 TEMPO 0915/0916 P6SM -SHRA FM091600 30008KT P6SM BKN060 TEMPO 0916/0922 P6SM -SHRA VCTS BKN030CB FM092200 30010G20KT P6SM BKN040 FM100000 VRB03KT P6SM FEW060 SCT250 BECMG 1002/1004 15008KT FM100900 16008KT P6SM BKN100 TEMPO 1009/1012 P6SM -SHRA BKN050 RMK NXT FCST BY 091800Z",
    "EHAM": "TAF EHAM 091116Z 0912/1018 04010KT 9999 SCT030 BECMG 0921/0924 07007KT BECMG 1015/1018 04010KT",
    "EBBR": "TAF EBBR 091115Z 0912/1018 05006KT CAVOK",
    "EDDF": "TAF EDDF 091100Z 0912/1018 03007KT 9999 BKN045 BECMG 0912/0914 SCT045",
    "EDFH": "TAF EDFH 091100Z 0912/1012 02007KT 9999 FEW035 BECMG 0922/0924 08006KT",
    "EDDL": "TAF EDDL 091100Z 0912/1018 01007KT 9999 BKN025 BECMG 0920/0922 VRB03KT BECMG 1007/1009 03009KT",
    "EDDK": "TAF EDDK 091100Z 0912/1018 35007KT 9999 SCT030 BECMG 0919/0922 VRB03KT BECMG 1009/1011 02007KT",
    "EBLG": "TAF EBLG 091115Z 0912/1018 03005KT 9999 FEW035",
    "LSZH": "TAF LSZH 091425Z 0915/1021 05008KT CAVOK TX31/0915Z TN15/1004Z TX33/1015Z TEMPO 0915/0917 9999 FEW050 TEMPO 0915/0919 10010KT BECMG 0919/0922 VRB02KT BECMG 1008/1010 05009KT BECMG 1019/1021 VRB02KT",
    "LIMC": "TAF LIMC 091100Z 0912/1018 VRB05KT CAVOK TEMPO 0912/0917 18010KT",
    "LIRF": "TAF LIRF 091100Z 0912/1018 23012KT CAVOK BECMG 0918/0920 VRB06KT TEMPO 0923/1003 3000 BR BECMG 1006/1008 22010KT",
    "EINN": "TAF EINN 091100Z 0912/1012 31007KT 9999 FEW015 BKN020 PROB30 TEMPO 1000/1006 4000 BR",
    "EGLL": "TAF EGLL 091053Z 0912/1018 24006KT CAVOK BECMG 0920/0923 15010KT BECMG 1009/1012 08010KT",
    "EGSS": "TAF EGSS 091057Z 0912/1018 20005KT CAVOK BECMG 0914/0917 12012KT",
    "EPWA": "TAF EPWA 091430Z 0915/1015 30012KT CAVOK PROB40 TEMPO 0915/0918 SCT040CB TEMPO 1000/1006 4000 RA BKN010 BKN020 TEMPO 1006/1015 34015G28KT SHRA SCT010 BKN020CB PROB40 TEMPO 1010/1015 4000 TSRA",
    "UHPP": "TAF UHPP 091354Z 0915/1021 36003G10MPS 9999 SCT050 TX25/1004Z TN10/0918Z TEMPO 1000/1009 17005G12MPS",
    "EFHK": "TAF EFHK 091431Z 0915/1015 36008KT 9999 FEW010 SCT015 TEMPO 0915/0920 FEW020CB PROB30 0920/0922 FEW030TCU BECMG 0922/0924 0500 FG VV002 BECMG 1004/1006 9999 NSW FEW010 TEMPO 1009/1015 FEW035TCU",
    "LBBG": "TAF LBBG 091100Z 0912/1012 13010KT 9999 SCT040 TEMPO 0912/0918 VRB16G26KT 3000 TSRA SCT030CB OVC040 BECMG 0918/0920 VRB04KT BECMG 1008/1010 13010KT",
    "LTAC": "TAF LTAC 091040Z 0912/1012 VRB02KT 9999 FEW040 SCT100 TEMPO 0912/0916 24013KT BECMG 0919/0921 CAVOK BECMG 1006/1008 25012KT SCT040",
    "UBBB": "TAF UBBB 091049Z 0912/1012 35016KT CAVOK TX28/0912Z TN22/1001Z TEMPO 0912/0917 SCT015 FEW040 BECMG 0917/0919 34010KT TEMPO 0919/1003 SCT010 SCT040CB TEMPO 1006/1012 04005KT",
    "UTAA": "TAF UTAA 091045Z 0912/1012 34018KT 6000 SCT050 SCT100 TX40/1010Z TEMPO 0912/0916 28014G24KT 4000 DRDU BECMG 0916/0918 21014KT TEMPO 0918/0924 VRB04KT BECMG 1000/1002 02018KT TEMPO 1002/1009 32014G24KT 4000 DRDU",
    "UACC": "TAF UACC 091103Z 0912/1012 07005MPS 9999 SCT040 BKN100 TX33/1009Z TN16/0923Z TEMPO 0912/0916 09010MPS SCT040CB BECMG 0916/0918 VRB01MPS BECMG 1004/1006 07007MPS TEMPO 1004/1012 SCT040CB",
    "UAAA": "TAF UAAA 091104Z 0912/1012 18003MPS 9999 SCT050CB BKN100 TX32/1010Z TN19/1002Z TEMPO 0912/0916 31005G10MPS TS BECMG 1003/1004 01003G09MPS TEMPO 1009/1012 TS",
    "UZTT": "TAF UZTT 091100Z 0912/1012 07010KT CAVOK TX38/1010Z TN24/1000Z TEMPO 0912/0918 32015KT",
    "ZWWW": "TAF ZWWW 091504Z 0918/1024 18004MPS CAVOK TX33/1009Z TN23/0923Z TN25/1023Z BECMG 1002/1003 36004MPS BECMG 1014/1015 18004MPS",
    "ZLXY": "TAF ZLXY 091502Z 0918/1018 06003MPS 6000 NSC TX39/1007Z TN29/0921Z TEMPO 1010/1015 -TSRA FEW040CB OVC060",
    "ZBAA": "TAF ZBAA 091502Z 0918/1024 16004MPS 4000 BR NSC TX30/1006Z TN23/0921Z TN22/1021Z TEMPO 0923/1001 2800 -SHRA FEW040CB BKN040 TEMPO 1007/1012 TSRA FEW040CB BKN040 TEMPO 1012/1016 TSRA FEW040CB BKN040 BECMG 1015/1016 2800 -SHRA BR",
    "ZBHH": "TAF ZBHH 091511Z 0918/1018 06004MPS 9999 SCT030 TX26/1008Z TN18/0922Z BECMG 0922/0924 2800 -RA TEMPO 1002/1006 1400 +TSRA FEW030CB SCT030 TEMPO 1006/1010 RA BECMG 1010/1011 BR",
    "ZSQD": "TAF ZSQD 091501Z 0918/1018 17004MPS 5000 BR NSC TX32/1006Z TN25/0920Z BECMG 0919/0920 2500 BKN010 BECMG 0922/0923 3500 SCT010",
    "ZMCK": "TAF ZMCK 091051Z 0912/1018 VRB02MPS 9999 FEW030CB SCT033 TN11/0921Z TX25/1007Z BECMG 0916/0918 09005MPS BECMG 1000/1002 13007MPS FEW030CB BKN033 TEMPO 1002/1018 VRB10G15MPS 6000 TSRA SCT027CB BKN030 BECMG 1011/1013 VRB02MPS",
    "UUEE": "TAF UUEE 091355Z 0915/1015 18003G08MPS 8000 BKN016 TX27/1012Z TN16/1001Z PROB40 TEMPO 0918/1003 12009G16MPS 3000 -TSRA BKN016CB TEMPO 0920/1005 BKN006 BECMG 1005/1008 08005MPS TEMPO 1009/1015 13009G15MPS -TSRA BKN016CB",
    "UUDD": "TAF UUDD 091354Z 0915/1021 20003MPS 8000 FEW007 BKN016 TX28/1012Z TN15/1001Z PROB40 TEMPO 0915/1003 -TSRA BKN016CB BECMG 1006/1008 09005MPS TEMPO 1010/1021 12008G15MPS -TSRA BKN016CB",
    "ULLI": "TAF ULLI 091353Z 0915/1015 13003MPS 6000 BKN016 TEMPO 0915/0917 17005MPS TEMPO 0922/1003 3100 BR MIFG BKN004 BECMG 1010/1012 07005MPS",
    "USSS": "TAF USSS 091355Z 0915/1015 09003G12MPS 8000 -SHRA BKN016CB TEMPO 0915/1015 -TSRAGR BECMG 1006/1008 18003G14MPS",
    "UNNT": "TAF UNNT 091400Z 0915/1015 36003G08MPS 8000 BKN040 TX25/1010Z TN10/0922Z BECMG 1008/1009 25005G10MPS BECMG 1010/1011 19003G08MPS",
    "UNKL": "TAF UNKL 091354Z 0915/1015 28003MPS 6000 SCT040 TEMPO 0918/0923 0300 FG BECMG 1002/1004 33005G12MPS BECMG 1005/1007 28003G08MPS TEMPO 1007/1012 33005G10MPS",
    "UIBB": "TAF UIBB 091400Z 0915/1015 34004G09MPS 9999 BKN016CB TEMPO 1003/1015 VRB09MPS",
    "UEEE": "TAF UEEE 091400Z 0915/1021 19003MPS CAVOK TX31/1003Z TN19/0918Z FM092200 22003G10MPS 9999 SCT030CB BKN100 TEMPO 1000/1015 VRB17MPS 2100 -TSRAGR SQ",
    "UHHH": "TAF UHHH 091349Z 0915/1021 13003MPS 9999 SCT010 SCT025CB TX27/1006Z TN19/0918Z TEMPO 0917/0924 2000 -SHRA BR SCT002 BKN016CB FM100000 19005MPS 9999 SCT020CB TEMPO 1000/1015 3000 -TSRA FEW010 BKN016CB",
    "UHSS": "TAF UHSS 091350Z 0915/1021 16003MPS 9999 BKN020CB TEMPO 0918/1002 2100 -SHRA BKN007 BKN016CB"
  },
  "atis": {
    "RJAA": "[Arrival ATIS] RJAA ARR ATIS G 0835Z MS0830 (APCH)ILS Y RWY16L LDG RWY 16L DEP RWY 16R DEP FREQ 124.2. TWY A1 CLSD. MS 200830Z 14010KT 15KM -RA BKN010SC 22/20 Q1011/A2987= Q/TWO NINE EIGHT SEVEN STP\n[Departure ATIS] RJAA DEP ATIS F 0826Z MS0800 (APCH)ILS Y RWY16L LDG RWY 16L DEP RWY 16R DEP FREQ 124.2. TWY A1 CLSD. MS 200800Z 14011KT 20KM -RA FEW010ST OVC130AS 22/20 Q1011/A2986= Q/TWO NINE EIGHT SIX STP",
    "PANC": "[Arrival ATIS] PANC ARR ATIS J 0753Z ANC ATIS INFO J 0753Z. 24005KT 10SM FEW050 FEW080 SCT200 12/08 A3018 (THREE ZERO ONE EIGHT). 7R APPROACHES IN USE. LANDING RWY 7R, DEPARTING RWY 33. NOTICE TO AIRMEN. RWY 7L CLSD. CHECK NOTAMS FOR TAXIWAY CLOSURES. NO VFR CLASS C TRANSITIONS DUE TO STAFFING. CONTACT TOWER 118.3 FOR TAXI. ...ADVS YOU HAVE INFO J.\n[Departure ATIS] PANC DEP ATIS X 0953Z ANC ATIS INFO X 0953Z. 12016G27KT 10SM SCT060 BKN085 OVC100 14/07 A2973 (TWO NINER SEVEN THREE). ILS RWY 15 APPROACHES IN USE. LANDING RWY 15, DEPARTING RWY 25L. NOTICE TO",
    "KSEA": "[Arrival ATIS] KSEA ARR ATIS K 1553Z - KSEA ATIS INFO K 1553Z. VRB03KT 10SM SCT013 BKN016 OVC033 14/10 A3018 (THREE ZERO ONE EIGHT). ILS, RYS 16R AND 16L , APCH IN USE. DEPG RWY 16L, DEPG ACFT PLAN AND BRIEF NUMBERS FOR BOTH RWYS 16L AND 16C. SIMUL APCHS IN USE, BFI & SEA. TRAFFIC BELOW YOU ON FINAL. SIMUL APCHS IN USE TO PARA RYS. NOTAMS... BIRD ACTIVITY VICINITY ARPT. ...ADVS YOU HAVE INFO K.\n[Departure ATIS] KSEA DEP ATIS C 1953Z SEA ATIS INFO C 1953Z. 20006KT 10SM FEW013 BKN018 OVC024 18/13 A3022 (THREE ZERO TWO TWO). ILS, RYS 16R AND 16L , APCH IN USE. DEPG RWY 16L, DEPG ACFT PLAN AND BRIEF NUMBERS FOR BOTH RWYS 16L AND 16C. SIMUL APCHS IN USE, BFI & SEA. TRAFFIC BELOW YOU ON FINAL. SIMUL APCHS IN USE TO PARA RYS. NOTAMS... BIRD ACTIVITY VICINITY ARPT. ...ADVS YOU HAVE INFO C.",
    "ZSPD": "[Arrival ATIS] ZSPD ARR ATIS W 1600Z EXP ILS APCH INDEPENDENT PARL INSTR APCH LDG RWY 17R & 16L WIND RWY 17R TDZ 160/5MPS MID 160/4MPS END 160/3MPS RWY 16L TDZ 160/5MPS MID 170/4MPS END 160/4MPS VIS RWY 17R TDZ 10000M MID 9000M END 10000M VIS RWY 16L TDZ 10000M MID 10000M END 10000M NSC T 27 /DP 25 QNH 1007 HPA CAUTION THE BIRDS NEAR THE RUNWAY ADZ YOU HAVE INFO W.\n[Departure ATIS] ZSPD DEP ATIS Y 0630Z DEP RWY 35R & 34L WIND RWY 35R TDZ 260/2MPS MID VRB BTN 340/ AND 070/1MPS END 070/2MPS VRB BTN 030/ AND 160/ RWY 34L TDZ 040/3MPS MID 020/2MPS END 010/2MPS VIS RWY 35R TDZ 10000M MID 8000M END 5000M VIS RWY 34L TDZ 3700M MID 4000M END 4500M FBL SHRA CLD FEW 480M T 27 /DP 25 QNH 1006 HPA CAUTION THE BIRDS NEAR THE RUNWAY RWY 35R/35L/34R/34L RWYCC 5/5/5 ISSUED AT 0430 WET/WET/WET DPT NR/NR/NR COV 100PCT/100PCT/100PCT. ADZ YOU HAVE INFO Y.",
    "ZSSS": "[Arrival ATIS] ZSSS ARR ATIS F 0800Z EXP ILS APCH LDG RWY 36R WIND RWY 36R TDZ 230/2MPS VRB BTN 210/ AND 270/ MID 200/2MPS VRB BTN 170/ AND 230/ END 240/2MPS CAVOK T 27 /DP 24 QNH 1006 HPA QNH OF SHANGHAI TERMINAL CONTROL AREA 1006 HPA ADZ YOU HAVE INFO F.\n[Departure ATIS] ZSSS DEP ATIS F 0800Z DEP RWY 36L WIND RWY 36L TDZ 240/2MPS MID 210/2MPS END 210/2MPS CAVOK T 27 /DP 24 QNH 1006 HPA QNH OF SHANGHAI TERMINAL CONTROL AREA 1006 HPA ADZ YOU HAVE INFO F.",
    "VHHH": "[Arrival ATIS] VHHH ARR ATIS D 0803Z ARRIVALS, RWY 25R. EXP RNAV TRANSITION TO ILS APCH, RWY 25R. RNP APCH IS AVBL ON REQ, RWY 25R. WIND 200/12KT. VIS 10KM. CLD FEW 1200FT SCT 2500FT. T32 DP25. QNH 1009HPA. ACK INFO D ON FIRST CTC WITH APP.\n[Departure ATIS] VHHH DEP ATIS R 0804Z DEPARTURES, RWY 25L. WIND 230/12KT. VIS 10KM. CLD FEW 1200FT SCT 2500FT. T32 DP25. QNH 1009HPA. ACK INFO R ON FIRST CTC WITH DELIVERY .",
    "RCTP": "[Arrival ATIS] RCTP ARR ATIS G 0830Z EXP ILS APCH RWY23R FOR ARR. RWY23L FOR DEP. WIND 230/14KT VIS 10 KM OR MORE CLD FEW 2000FT BKN 20000FT T 32 DP 24 QNH 1009HPA WS ALL RWY NOSIG CTN BIRD ACTIVITY IN THE VCY OF THE AD. INFORM TAIPEI APCH OR TAIPEI TOWER ON INITIAL CONTACT YOU HAVE INFORMATION G\n[Departure ATIS] RCTP DEP ATIS D 1130Z EXP ILS APCH RWY05L AND RWY05R ARR/DEP. WIND 070/12KT VIS 10 KM OR MORE CLD FEW 1500FT SCT 20000FT T 30 DP 23 QNH 1005HPA NOSIG INFORM TAIPEI APCH OR TAIPEI T",
    "ZGSZ": "[Arrival ATIS] ZGSZ ARR ATIS A 0830Z EXP ILS APCH 15 EXP ILS OR VIS APCH 16R WIND 170/8MPS VIS 9999M CLD FEW 990M T 31 /DP 27 QNH 1008 HPA INDEPENDENT PARALLEL DEPARTURES DEPENDENT PARALLEL APPROACHES V17,V18 AVAILABLE AFTER SULAS FLY HEADING 040 MISSED APPROACH ALTITUDE SETTING 1200METERS WHEN AIRBORNE CONTACT ZHUHAI APPROACH EXPECTED RNP ILS DME Z APPROACH ADZ YOU HAVE INFO A.\n[Departure ATIS] ZGSZ DEP ATIS V 0630Z DEP RWY 15 & 16L WIND 170/9MPS VIS 9999M CLD FEW 990M T 31 /DP 27 QNH 1009 HPA INDEPENDENT PARALLEL DEPARTURES DEPENDENT PARALLEL APPROACHES V17,V18 AVAILABLE AFTER SULAS FLY HEADING 040 MISSED APPROACH ALTITUDE SETTING 1200METERS WHEN AIRBORNE CONTACT ZHUHAI APPROACH EXPECTED RNP ILS DME Z APPROACH ADZ YOU HAVE INFO V.",
    "WSSS": "[Arrival ATIS] WSSS ARR ATIS T 0830Z METREPORT 0830Z ILS APCHRWY 20R SIMUL INDEPENDENT ILS AND VISUAL APPROACHES ARE CONDUCTED ON RWY 20. TWY W 9 CLOSED, RWY 02C 20C RAPID EXIT TAXIWAY INDICATOR LIGHTS OFF WIND 190/ 06KT VRB BTN150 AND230 VIS 10KM CLD FEW 1800FT FEW TCU 2000FT T31 DP24 QNH 1009HPA NOSIG ACK ATIS T\n[Departure ATIS] WSSS DEP ATIS Q 0630Z METREPORT 0630Z RWY 20C SIMUL INDEPENDENT ILS AND VISUAL APPROACHES ARE CONDUCTED ON RWY 20. TWY W 9 CLOSED, RWY 02C 20C RAPID EXIT TAXIWAY INDICATOR LIGHTS OFF WIND 220/ 08KT VRB BTN190 AND250 VIS 10KM CLD FEW 1800FT FEW TCU 2000FT T30 DP25 QNH 1010HPA NOSIG DEP,INITIAL CMB 3000FT ACK ATIS Q",
    "WMKK": "[Arrival ATIS] WMKK ARR ATIS D 0804Z WMKK ARR INFO D. TIME 0800. INDEPENDENT PARALLEL APPROACHES FOR RWY 14 L AND 15 ARE IN PROGRESS. EXP RNAV / ILS APCH FOR RWY 14 LEFT. EXP RNAV / ILS APCH FOR RWY 15. WIND RWY 14L DIRECTION NOT AVBL SPEED NOT AVBL. WIND RWY 15 DIRECTION NOT AVBL SPEED NOT AVBL. VIS RWY 14L TDZ NOT AVBL. VIS RWY 15 TDZ NOT AVBL. CLD FEW CB 1700 FT. T 32. DP 24. QNH 1008. NOSIG. AT FIRST CONTACT WITH LUMPUR RADAR, NOTIFY RCPT OF D\n[Departure ATIS] WMKK DEP ATIS W 0733Z WMKK DEP INFO W. TIME 0730. INDEPENDENT PARALLEL DEPARTURES FOR RWY 14 R AND 15 ARE IN PROGRESS. RWY 14 RIGHT. RWY 15. WIND RWY 14R 180 DEG, 7 KT. WIND RWY 15 210 DEG, 8 KT. VIS RWY 14R TDZ 10 KM OR MORE. VIS RWY 15 TDZ 10 KM OR MORE. CLD FEW CB 1700 FT. T 32. DP 25. QNH 1008. NOSIG. ALL DEP ACFT TO CONTACT LUMPUR DEP AT 135 DECIMAL 25 MHZ WHEN ABN. AT FIRST CONTACT WITH LUMPUR GROUND, NOTIFY RCPT OF W",
    "VTBS": "[Arrival ATIS] VTBS ARR ATIS P 0830Z VTBS ARR ATIS P 0831Z SIMULTANEOUS INDEPENDENT PARL APCH IN PROGRESS EXP ILS Z APCH ARR RWY 19 OR RNP APCH RWY 20R , ,PILOT SHALL ADZ BKK APCH ON INITIAL CTC IF UNA TO CONDUCT RNP APCH DUE TO OPERATIONAL CONSTRAINT 0830Z WIND 190/8KT VIS 10KM CLD FEW 2000FT T33 DP21 QNH 1008HPA TREND NOSIG ADZ BKK APCH ON INITIAL CONTACT THAT YOU HAVE INFO P\n[Departure ATIS] VTBS DEP ATIS X 0830Z VTBS DEP ATIS X 0831Z DEP RWY 20L ,AFT AIRBORNE ALL DEPARTING ACFT SHALL CTC 119.25 0830Z WIND 220/6KT VRB BTN 190/ AND 300/ VIS 10KM CLD FEW 2000FT T33 DP21 QNH 1008HPA TREND NOSIG ADZ GND WHEN INITIAL CONTACT YOU HAVE INFO X",
    "VTBU": "[Arrival ATIS] VTBU ARR ATIS U 0430Z VTBU ARR ATIS U 0430Z RNP RWY 18 TRL FL130 MOBILE ACFT ARST SYSTEM INSTL ATP SIX HUNDRED AND TEN METERS FM THR RWY 36 CABLE HGT 3 INCHES. 0430Z WIND 360/6KT VRB BTN 320/ AND 020/ VIS 10KM CLD FEW 2000FT T34 DP27 QNH 1010HPA TREND NOSIG ADZ CONTROLLER WHEN INITIAL CONTACT YOU HAVE INFO U\n[Departure ATIS] VTBU DEP ATIS D VTBU ARR/DEP DATIS RPT VTBU ARR ATIS D 0330Z ILS \"Z\" APCH RWY 18 TRL FL130 0330Z WIND 110/4KT VRB BTN 350/ AND 120/ VIS 6KM CLD FEW 2000FT T31 DP27 QNH 1014HPA TREND NOSIG ADZ CONTROLLER WHEN INITIAL CONTACT YOU HAVE INFO D",
    "ROAH": "[Arrival ATIS] ROAH ARR ATIS N 1549Z S1542 (APCH)ILS Z RWY36L USING RWY 36L DEP FREQ 119.1 335.8 RWY 18L/36R CLSD S 091542Z AUTO 08019G29/12KT 9999 FEW018// SCT023// BKN026// 30/26 Q1003/A2963= Q/TWO\n[Departure ATIS] ROAH DEP ATIS S 0636Z M0630 (APCH)RNP RWY18R LDG RWY 18R DEP RWY 18L DEP FREQ 126.5 258.3 FLIGHT CHECK IN PROGRESS AT ROTM M 200630Z 19009KT 40KM FEW009CU 29/27 Q1012/A2988= Q/TWO NINE EIGHT EIGHT STP",
    "VVDN": "[Arrival ATIS] VVDN ARR ATIS M 0502Z VVDN INFO M 0502Z. ILS VICTOR APPROACH 35L.. DPTG RWY 35R.. 0502Z. WIND 270/05KT CAVOK T33 DP22 QNH 1005HPA TREND NOSIG. ADZ ON INITIAL CTC YOU HAVE INFO. M.\n[Departure ATIS] VVDN DEP ATIS R 0503Z VVDN INFO R 0503Z. ILS VICTOR APPROACH 35L.. DPTG RWY 35R.. 0502Z. WIND 090/05KT VRB BTN 070/ AND 140/ CAVOK T37 DP23 QNH 1007HPA TREND NOSIG. ADZ ON INITIAL CTC YOU HAVE INFO. R.",
    "RCKH": "[Arrival ATIS] RCKH ARR ATIS G 1330Z EXPECT ILS APPROACH RWY 09 ARR/DEP TAXIWAY JULIETT, TAXIWAY BRAVO, TAXIWAY DELTA AND TAXIWAY ECHO CLOSED DUE MAINTENANCE.RUNWAY 0 9 ARRIVALS PLAN VACATE VIA CHARLIE OR FOX\n[Departure ATIS] RCKH DEP ATIS Q 0600Z EXPECT ILS APPROACH RWY 27 ARR/DEP TAXIWAY JULIETT, TAXIWAY BRAVO, TAXIWAY DELTA AND TAXIWAY ECHO CLOSED DUE MAINTENANCE. RUNWAY 2 7 ARRIVALS PLAN VACATE VIA CHARLIE OR A",
    "KLAX": "[Arrival ATIS] KLAX ARR ATIS L 1353Z LAX ATIS INFO L 1353Z. 09003KT 6SM HZ FEW009 FEW015 19/17 A2988 (TWO NINER EIGHT EIGHT) RMK AO2 SLP115 T01890167. INST APCHS AND RNAV RNP APCHS RY 24R AND 25L, OR VCTR FOR VISUAL APCH WILL BE PROVIDED, SIMUL INSTR DEPARTURES IN PROG RWYS 24 AND 25. CTC L A GC ON 121.75 FOR PUSH OR TAXI ON A. TWY B CLSD BTN TWY, C10 AND TWY C7 , , TWY B6 CLSD, TWY B7 CLSD, TWY C CLSD BTN TWY, C1 AND TWY C3, TWY C1 CLSD, TWY C9 CLSD BTN TWY, B AND TWY C, TWY C8 CLSD BTN TWY, B AND TWY C. RY 25R SFL OTS, RY 24L ALSF-2 OTS. LAX VOR UNMONITORED. USE CAUTION FOR INCREASED DRONE ACTIVIY IN THE VICINITY OF SOFI STADIUM AT OR BELOW 200FT AGL DURING THE WORLD CUP FROM JUNE TWELFTH TWENTY TWENTY SIX THROUGH JULY TENTH TWENTY TWENTY SIX. HAZD WX INFO FOR LAX AREA AVBL FM FSS. BIRD ACTIVITY VICINITY ARPT. INCLUDE YOUR CALL SIGN IN ALL READBACKS. USE CAUTION WHEN EXITING RY24R AT TWY V, W, AND Y, TO HOLD SHORT OF RY24L. MULTIPLE RUNWAY INCURSIONS HAVE OCCURRED. ...ADVS YOU HAVE INFO L.\n[Departure ATIS] KLAX DEP ATIS U 0253Z - KLAX ATIS INFO U 0253Z. 25013KT 10SM CLR 20/16 A2990 (TWO NINER NINER ZERO) RMK AO2 SLP124 T02000161 58003. INST APCHS AND RNAV RNP APCHS RY 24R AND 25L, OR VCTR FOR VISUAL APCH WILL BE PROVIDED, SIMUL VISUAL APCHS TO ALL RWYS ARE IN PROG, SIMUL INSTR DEPARTURES IN PROG RWYS 24 AND 25. CTC L A GC ON 121.75 FOR PUSH OR TAXI ON A. TWY B CLSD BTN TWY, C10 AND TWY C7 , , TWY B6 CLSD, TWY B7 CLSD, TWY C CLSD BTN TWY, C1 AND TWY C3, TWY C1 CLSD, TWY C9 CLSD BTN TWY, B AND TWY C, TWY C8 CLSD BTN TWY, B AND TWY C. RY 25R SFL OTS, RY 24L ALSF-2 OTS. LAX VOR UNMONITORED. USE CAUTION FOR INCREASED DRONE ACTIVIY IN THE VICINITY OF SOFI STADIUM AT OR BELOW 200FT AGL DURING THE WORLD CUP FROM JUNE TWELFTH TWENTY TWENTY SIX THROUGH JULY TENTH TWENTY TWENTY SIX. HAZD WX INFO FOR LAX AREA AVBL FM FSS. BIRD ACTIVITY VICINITY ARPT. INCLUDE YOUR CALL SIGN IN ALL READBACKS. USE CAUTION WHEN EXITING RY24R AT TWY V, W, AND Y, TO HOLD SHORT OF RY24L. MULTIPLE RUNWAY INCURSIONS HAVE OCCURRED. ...ADVS YOU HAVE INFO U.",
    "KONT": "[Arrival ATIS] KONT ARR ATIS I 1353Z ONT ATIS INFO I 1353Z. 15004KT 10SM CLR 19/14 A2989 (TWO NINER EIGHT NINER). ILS AND VIS APR IN USE, RY26L & RY26R. LNDG AND DEPG RY 26L AND RY 26R. NOTAMS... TAXIWAY SIERRA FIVE CLOSED. TAXIWAY SIERRA CLOSED BETWEEN TAXIWAY SIERRA 8 AND TAXIWAY WHISKEY. RY 26L IM OTS, RY 26R ALS OTS. USE CAUTION FOR NUMEROUS BIRDS OBSERVED IN VICINITY OF ONT. PILOTS READBACK RWY ASSIGNMENTS AND HOLD SHORT INSTRUCTIONS. ...ADVS YOU HAVE INFO I.\n[Departure ATIS] KONT DEP ATIS N 0553Z - KONT ATIS INFO N 0553Z. 24004KT 10SM BKN250 22/15 A2988 (TWO NINER EIGHT EIGHT) RMK AO2 SLP100. ILS AND VIS APR IN USE, RY26L & RY26R. LNDG AND DEPG RY 26L AND RY 26R. NOTAMS... TAXIWAY SIERRA CLSD BETWEEN SIERRA 8 AND W TAXIWAY Q SOUTH OF RWY 26L CLSD TAXIWAY T CLSD TAXIWAY SIERRA 5 CLSD. RY 26L IM OTS, RY 26R ALS OTS. USE CAUTION FOR NUMEROUS BIRDS OBSERVED IN VICINITY OF ONT. HAZD WX INFO FOR SOUTHERN CA AVBL ON FSS FREQUENCIES. PILOTS READBACK RWY ASSIGNMENTS AND HOLD SHORT INSTRUCTIONS. ...ADVS YOU HAVE INFO N.",
    "KSFO": "[Arrival ATIS] KSFO ARR ATIS J 1356Z SFO ATIS INFO J 1356Z. 24006KT 10SM FEW004 OVC006 13/11 A3000 (THREE ZERO ZERO ZERO) RMK AO2 SLP158 T01280111. SIMUL CLSLY SPCD DPNDNT ILS RY 28R AND ILS RY 28L APP IN USE. DEPG RWYS 28L, 28R. DEPG ACFT SHOULD BE PREPARED FOR A SHORT NOTICE RY CHANGE. RY 1L, 1R CLSD. NUMEROUS TWY CLOSURES FOR CONSTRUCTION ON THE FIELD, PILOTS CHECK NOTAMS. DEPG ACFT WAITING ON FINAL NUMBERS ADVISE GROUND PRIOR TO ENTERING TWY F. ...ADVS YOU HAVE INFO J.\n[Departure ATIS] KSFO DEP ATIS J 1356Z SFO ATIS INFO J 1356Z. 24006KT 10SM FEW004 OVC006 13/11 A3000 (THREE ZERO ZERO ZERO) RMK AO2 SLP158 T01280111. SIMUL CLSLY SPCD DPNDNT ILS RY 28R AND ILS RY 28L APP IN USE. DEPG RWYS 28L, 28R. DEPG ACFT SHOULD BE PREPARED FOR A SHORT NOTICE RY CHANGE. RY 1L, 1R CLSD. NUMEROUS TWY CLOSURES FOR CONSTRUCTION ON THE FIELD, PILOTS CHECK NOTAMS. DEPG ACFT WAITING ON FINAL NUMBERS ADVISE GROUND PRIOR TO ENTERING TWY F. ...ADVS YOU HAVE INFO J.",
    "KOAK": "[Arrival ATIS] KOAK ARR ATIS Y 0453Z - KOAK ATIS INFO Y 0453Z. 23011KT 10SM FEW008 BKN012 14/11 A3008 (THREE ZERO ZERO EIGHT). RNAV, RWY 30. ILS, RWY 28R. FLOW TO LAX. ILS RWY 30, OTS, RWY 28R RAIL, OTS. UNN LIT CLOSE-IN OBSTACLES FOR RWY 30 DEPARTURES. RWY 30 DEPARTURES ARE ADVISED TO AVOID TURNING LEFT PRIOR TO DEPARTURE END OF RUNWAY. CTN, CRANE 1 POINT 6 NAUTICAL MILES, , AT 140 FEET AGL. CAUTION, BIRDS NEAR AIRPORT. ...ADVS YOU HAVE INFO Y.\n[Departure ATIS] KOAK DEP ATIS O 1953Z OAK ATIS INFO O 1953Z. 28014KT 10SM FEW005 22/14 A2988 (TWO NINER EIGHT EIGHT). RNAV Z/VA RWY 30 ILS/VA RWY 28R. FLOW TO LAX, LAS, SAN. ILS RWY 30, OTS. UNN LIT CLOSE-IN OBSTACLES FOR RWY 30 DEPARTURES. RWY 30 DEPARTURES ARE ADVISED TO AVOID TURNING LEFT PRIOR TO DEPARTURE END OF RUNWAY. SIGNATURE UNI-COM OUT OF SERVICE. CAUTION, BIRDS NEAR AIRPORT. ...ADVS YOU HAVE INFO O.",
    "KDFW": "[Arrival ATIS] KDFW ARR ATIS B 1553Z - KDFW ARR INFO B 1553Z. 21009G20KT 10SM CLR 33/20 A3000 (THREE ZERO ZERO ZERO) RMK AO2 SLP147 T03280200. SIMUL VISUAL APCH TO RWYS, 13R, 18R, 17C, 17L. LDG RWY 17C EXP LAHSO TWY B 10460 FT AVAIL, LDG RWY 18R EXP LAHSO TWY B 10100 FT AVL. NOTICE TO AIRMEN. WARNING, RWY 18L HAS BEEN SHORTENED, 9273 FT AVAILABLE. BIRD ACTIVITY VCNTY ARPT. ...ADVS YOU HAVE INFO B.\n[Departure ATIS] KDFW DEP ATIS W 1553Z - KDFW DEP INFO W 1553Z. 21022G32KT 10SM FEW025 FEW180 SCT250 31/21 A2994 (TWO NINER NINER FOUR) RMK AO2 PK WND 20032/1547 SLP128 T03110206. SIMUL PARL TRAFFIC DEPG RWYS 17R, 18L. NOTICE TO AIRMEN. WARNING, RWY 18L HAS BEEN SHORTENED, 9273 FT AVAILABLE. RWY 18L CL OTS. BIRD ACTIVITY VCNTY ARPT. ...ADVS YOU HAVE INFO W.",
    "KIAH": "[Arrival ATIS] KIAH ARR ATIS X 1053Z IAH ATIS INFO X 1053Z. 00000KT 10SM CLR 26/24 A3004 (THREE ZERO ZERO FOUR). ARRIVALS EXPECT RNAV Y RY 27, ILS OR RNAV Y RY 26R, ILS OR RNAV Y RY 26L. SIMUL APPROACHES IN USE. DEPG RY 15L, RY 15R. NOTICE TO AIRMEN. UNITED RAMP CONTROL IN EFFECT. HAZD WX INFO FOR IAH AREA AVBL FM FSS. BIRD ACTIVITY VICINITY ARPT. LAHSO RY26L. CRANES ARE DOWN. TWY SA CLSD BTN TWY, SF AND TWY SK , TWY SB CLSD BTN TWY, SF AND TWY SK , , TWY WB CLSD BTN TWY, WG AND TWY WH . TWY EA CLSD. NOTAM ATIS IN USE ON FREQUENCY 126.225. ...ADVS YOU HAVE INFO X.\n[Departure ATIS] KIAH DEP ATIS T 0353Z IAH ATIS INFO T 0353Z. 15007KT 10SM FEW035 FEW180 BKN250 27/23 A2996 (TWO NINER NINER SIX). ARRIVALS EXPECT ILS OR RNAV Y RY 8R, ILS OR RNAV Y RY 8L. DEPG RY 15R. NOTICE TO AIRMEN. UNITED RAMP CONTROL IN EFFECT. RY 15L, 33R CLSD. HAZD WX INFO FOR IAH AREA AVBL FM FSS. BIRD ACTIVITY VICINITY ARPT. CRANES ARE DOWN. TWY SA CLSD BTN TWY, SF AND TWY SK , TWY SB CLSD BTN TWY, SF AND TWY SK , , TWY WB CLSD BTN TWY, WG AND TWY WH . TWY EA CLSD. NOTAM ATIS IN USE ON FREQUENCY 126.225. ...ADVS YOU HAVE INFO T.",
    "KORD": "[Arrival ATIS] KORD ARR ATIS V 1551Z ORD ATIS INFO V 1551Z. 21006KT 10SM FEW050 BKN110 BKN150 OVC250 27/20 A2990 (TWO NINER NINER ZERO) RMK AO2 SLP119 T02720200. ARR EXP VECTORS ILS RWY 27C APCH, VISUAL APCH RWY 27R, VISUAL APCH RWY 28C. SIMUL APCHS IN USE. LAND AND HOLD SHORT OPERATIONS ARE IN EFFECT. RWY 27C ARR PLAN TO H/S OF TWY V V, 9 THSD 7 HND 25 FT AVBL, RWY 28C ARR PLAN TO H/S OF TWY Z, 9 THSD 6 HND TEN FT AVBL. DEPS EXP RWYS 22L 27L FROM T T 9960 FT AVL. RWY 4L, 22R CLSD. RWY 22R LOC OTS, RWY 28L GS OTS, RWY 9L IM OTS, RWY 9C IM OTS, RWY 10L IM OTS, RWY 10R IM OTS, RWY 27R IM OTS, RWY 28L IM OTS, RWY 28R IM OTS, RWY 9L PAPI OTS, RWY 27R PAPI OTS. PILOTS USE CTN FOR BIRD ACTIVITY IN THE VICINITY OF THE ARPT. HAZD WX INFO FOR ORD AREA AVBL ON FSS. USE CTN FOR PERSONNEL AND EQUIP AT NUMEROUS SITES ON THE FIELD. AUTHORIZED DRONE ACTIVITY, 1 MILE WEST OF ORD AND0.5 MILE NORTH OF ORD, , 400 FEET. READBACK ALL RWY HOLD SHORT INSTRUCTIONS. WHEN READY TO TAXI CONTACT GND METERING ON FREQ 121.67. ...ADVS YOU HAVE INFO V.\n[Departure ATIS] KORD DEP ATIS N 1351Z ORD ATIS INFO N 1351Z. 26006KT 10SM FEW070 BKN140 BKN250 26/21 A2990 (TWO NINER NINER ZERO) RMK AO2 SLP118 T02610206. ARR EXP VECTORS ILS RWY 27C APCH, VISUAL APCH RWY 27R, VI",
    "KJFK": "[Arrival ATIS] KJFK ARR ATIS Q 1551Z JFK ATIS INFO Q 1551Z. 20011KT 10SM SCT035 SCT090 BKN250 27/22 A2993 (TWO NINER NINER THREE). APPROACH IN USE ILS RY 31R, VISUAL APCH RY 31L. DEPG RY 31L. RWY 4L, 22R CLSD. RY 31R PAPI OTS, RWY 22L/4R INNER MARKER OTS.RWY 31R PAPI OTS. HAZD WX INFO FOR NY METRO AREA AVBL ON FSS. SWAP IN EFFECT EXPECT REROUTES. NUM CRANES OPERATING AT JFK. BIRD ACTIVITY VICINITY ARPT. READBACK ALL RWY ASSIGNMENTS AND HOLD SHORT INSTRUCTIONS. ...ADVS YOU HAVE INFO Q.\n[Departure ATIS] KJFK DEP ATIS Q 1851Z JFK ATIS INFO Q 1851Z. 20013KT 10SM FEW045 FEW250 26/18 A3001 (THREE ZERO ZERO ONE). APPROACH IN USE RNAV GPS Z RY 13L, RNAV GPS X RY 22L. DEPG RY 13R. CONVERGING RY OPERATIONS IN USE. RWY 22L/4R INNER MARKER OTS.RWY 31R PAPI OTS. SWAP IN EFFECT EXPECT REROUTES. NUM CRANES OPERATING AT JFK. BIRD ACTIVITY VICINITY ARPT. READBACK ALL RWY ASSIGNMENTS AND HOLD SHORT INSTRUCTIONS. ...ADVS YOU HAVE INFO Q.",
    "KIND": "[Arrival ATIS] KIND ARR ATIS W 1314Z - KIND ATIS INFO W 1314Z SPECIAL. 20008KT 7SM BKN004 23/22 A2998 (TWO NINER NINER EIGHT). ILS RWY 23R APCH IN USE. CROSS RUNWAY OPERATIONS MAY BE IN EFFECT. NOTICE TO AIRMEN. RWYS 23L AND 5R CLSD. TWY, P BTN TWY, H AND TWY B CLSD, TWY, P BTN TWY, H AND TWY J CLSD, TWY, H BTN TWY, R AND TWY N CLSD. P PAD CLSD. ILS RUNWAY 5R AND RUNWAY 5L INNER MARKER UNSERVICEABLE. ...ADVS YOU HAVE INFO W.\n[Departure ATIS] KIND DEP ATIS H 1854Z IND ATIS INFO H 1854Z. 26009G19KT 10SM SCT036 BKN041 BKN170 23/16 A2981 (TWO NINER EIGHT ONE) RMK AO2 SLP088 T02280156. PARL ILS RWY 23R AND 23L APPROACHES IN USE. CROSS RU",
    "KDTW": "[Arrival ATIS] KDTW ARR ATIS K 1353Z - KDTW ARR INFO K 1353Z. 21006KT 10SM FEW050 SCT220 27/20 A2992 (TWO NINER NINER TWO) RMK AO2 SLP126 T02720200. SIMUL VISUAL RY 21L, RY 22R USE Z LOC FREQ 111.95 APCH IN USE. NOTICE TO AIRMEN. RWY 21R, 3L CLSD, RWY 27L, 9R CLSD, RWY 27R, 9L CLSD. TWYS Y1 CLSD ;. PILOTS USE CTN FOR BIRD ACTIVITY. DEPARTURE ATIS 118.125. ...ADVS YOU HAVE INFO K.\n[Departure ATIS] KDTW DEP ATIS Q 2253Z - KDTW DEP INFO Q 2253Z. 21009KT 10SM FEW050 FEW250 33/24 A2991 (TWO NINER NINER ONE). DEPG RWY 21R, RWY 22L ;. NOTICE TO AIRMEN. RWY 27L, 9R CLSD, RWY 27R, 9L CLSD. PILOTS USE CTN FOR BIRD ACTIVITY. ...ADVS YOU HAVE INFO Q.",
    "KMSP": "[Arrival ATIS] KMSP ARR ATIS G 1253Z MSP ARR INFO G 1253Z. 36005KT 10SM FEW050 FEW100 SCT250 22/16 A2992 (TWO NINER NINER TWO) RMK AO2 SLP126 T02220161. VISUAL RWY 30L APCH IN USE, VISUAL RWY 30R APCH IN USE. LAHSO, ACFT LNDG RWY 30L EXP TO HLDSHRT TWY A9 FOR CRSSGTFC, 8 THSD 1 HND FIFTY FT AVBL. NOTICE TO AIRMEN. RWYS 4, 22 CLSD. TWY R7. R8. R9. R10. CLOSED. TWY R BTWN R6 AND R10 CLSD, TWY A7 CLSD, TWY A CLSD BTN TWY, A7 AND TWY D, TWY L CLSD BTN TWY, L7 AND TWY L10, TWY K CLSD BTN TWY, K1 AND TWY K3. GS RWY 12L OTS, RWYS 12R, 12L, INNER MARKER OTS.. CTN, BIRDS NEAR MSP. READ BACK HS AND ALT. ALL ACFT TAXI WITH TRANSPONDER AND ALTITUDE ENCODING ON. ADVISE TOWER OF GATE ON INITIAL CONTACT. ...ADVS YOU HAVE INFO G.\n[Departure ATIS] KMSP DEP ATIS Q 1053Z - KMSP DEP INFO Q 1053Z. 34005KT 10SM SCT022 BKN065 21/17 A2989 (TWO NINER EIGHT NINER) RMK AO2 SLP118 T02060172. DEPARTING RWY 30L, RWY 30R, RWY 17. NOTICE TO AIRMEN. RWYS 4, 22 CLSD. TWY R7. R8. R9. R10. CLOSED. TWY R BTWN R6 AND R10 CLSD, TWY A7 CLSD, TWY A CLSD BTN TWY, A7 AND TWY D. ALL ACFT CTC METERING ON ONE THREE THREE POINT FIVE SEVEN WHEN READY TO PUSHBACK OR TAXI. HAZD WX INFO FOR MSP AREA AVBL FM FSS. CTN, BIRDS NEAR MSP. READ BACK HS AND ALT. ALL ACFT TAXI WITH TRANSPONDER AND ALTITUDE ENCODING ON. ...ADVS YOU HAVE INFO Q.",
    "CYEG": "[Arrival ATIS] CYEG ARR ATIS C 1600Z 02011G18KT 20SM SCT083 CIG BKN140 BKN210 13/09 A2992 APCH RNAV Z OR Y RWY 02, INFORM ARRL OF REQ APCH ON INITIAL CTC. LDG AND DEP RWY 02. RSC 02 5/5/5 100 PCT WET, 100 PCT WET, 100 PCT WET. VALID JUL 09 1558. SIMUL APPROACHES MAY BE IN EFCT. INFORM CYEG ATC INFO C\n[Departure ATIS] CYEG DEP ATIS Y 1500Z CYEG ARR ATIS Y 1500Z 02004KT 20SM -SHRA CIG BKN077 OVC100 15/12 A2992 APCH RNAV Z OR Y RWY 02, INFORM ARRL OF REQ APCH ON INITIAL CTC. LDG AND DEP RWY 02. RSC 02 5/5/5 100 PCT WET, 100 PCT WET, 100 PCT WET. VALID JUL 09 1231. SIMUL APPROACHES MAY BE IN EFCT. INFORM CYEG ATC INFO Y",
    "EHAM": "[Arrival ATIS] EHAM ARR ATIS I 1521Z EHAM ARRIVAL INFO I. DEMAND. MAIN LANDING RWY 06. TRANSITION LEVEL 040. WIND 060 DEG, 9 KT, VRB BTN 010 AND 100 DEG, 12 KT MAX, 4 KT MNM. VIS 10 KM OR MORE. CLD FEW 4500 FT. T 24. DP 15. QNH 1019 HPA. NOSIG. OPERATIONAL REPORT. CONTACT APCH WITH CALLSIGN ONLY. END OF INFO I\n[Departure ATIS] EHAM DEP ATIS N 0801Z EHAM DEPARTURE INFO N. DEMAND. MAIN DEPARTURE RWY 24. SECONDARY DEPARTURE RWY 18 L. MAIN LANDING RWY 18 R. RWY 18 L RCR AT TIME 0709. RWYCC: 5/5/5 WET/WET/WET COVERAGE(%): 100/100/100. WIND 270 DEG, 10 KT, VRB BTN 200 AND 300 DEG, 13 KT MAX, 5 KT MNM. WIND SECONDARY RUNWAY 260 DEG, 7 KT, VRB BTN 200 AND 270 DEG. CAVOK. T 24. DP 17. QNH 1017 HPA. OPERATIONAL REPORT. INFORM SCHIPHOL DEL BY VOICE IF UNABLE TO COMPLY WITH NADP 2. END OF INFO N",
    "EBBR": "[Arrival ATIS] EBBR ARR ATIS L 0820Z EBBR NAT, EXP VECT FOR ILS APP ARR RWY25L RSCD AT 0628 RWY25L DRY. DEP RWY25R TRL 055 ILS RWY 25R U/S. RNP RWY 25R AVBL AT ATC DISCRETION 260/6KT VRB BTN 240 AND 310 CAVOK T25 DP18 QNH 1019HPA NOSIG CFM ARR L\n[Departure ATIS] EBBR DEP ATIS F 1250Z EBBR NAT, DEP RWY07R RSCD AT 1041 RWY07R DRY. ARR RWY01 TRL 055 XNG RWY OPS INPR. EXP NO DEP AND ARR BTN 1410 AND 1445 Z DUE TO MILITARY FLY BY 050/5KT VRB BTN 340 AND 080 MNM1 MAX13 VIS ABV 10KM FEW3800FT T25 DP15 QNH 1019HPA NOSIG CFM DEP F",
    "EDDF": "[Arrival ATIS] EDDF ARR ATIS G 1420Z ARR-ATIS EDDF G METAR 091420 EXPECT INDEPENDENT PARALLEL ILS Z APCH RWY 07L OR ILS APCH RWY 07R RWY 07L 07R GLS APCH ON REQUEST , TRL 60 36006KT 310V040 CAVOK T29 DP13 QNH1016 TREND NOSIG END OF ATIS G\n[Departure ATIS] EDDF DEP ATIS Q 1420Z DEP-ATIS EDDF Q METAR 091420 RWY 07C 18 ACFT DEPARTING RWY18 : EXPECT POSSIBLE DEPARTURE FROM INTERSECTION M , TORA 3454 METERS. IF UNABLE , ADVISE TWR ON INITIAL CONTACT , TRL 60 36006KT 310V040 RWY18 VRB04KT CAVOK T29 DP13 QNH1016 TREND NOSIG END OF ATIS Q",
    "EDDL": "[Arrival ATIS] EDDL ARR ATIS C 1320Z ATIS EDDL C METAR 091320 EXPECT VECTORS ILS APPROACH RWY05L RWY 05R 05L TWY L2 , L4 AND L5 BTN TWY M AND RWY05R CLOSED TRL 60 05005KT 360V130 9999 SCT028 T23 DP14 QNH1019 TREND NOSIG\n[Departure ATIS] EDDL DEP ATIS R EDDL ARR/DEP DATIS RPT -ATIS EDDL R METAR 020550 -EXPECT VECTORS ILS APPROACH -RWY 23L -TWY L8 CLOSED BETWEEN TWY M AND RWY 23L -TRL 60 - -23010KT -CAVOK - - -T19 DP13 -QNH1020 - -TREND NOSIG",
    "EDDK": "[Arrival ATIS] EDDK ARR ATIS F 0950Z -ATIS EDDK F METAR 090950 -EXPECT ILS APCH RWY 31R -RWY 31R 06 -RWY COND RWY 31R AT TIME 0655 RWYCC 6 DEPOSIT TOTAL RWY DRY RWY 06 AT TIME 0655 RWYCC 6 DEPOSIT TOTAL RWY DRY RWY 06/24 ONLY AVAILABLE FOR DEPARTURES -TRL 60 -RWY 13R AND RWY 31L CLOSED FOR DEPARTURE AND LANDING: TAXIING BTN THR RWY 13R AND INTERSECTION RWY 24 POSSIBLE : -33008KT 290V010 -9999 - -BKN028 -T21 DP14 -QNH1019 - -TREND NOSIG\n[Departure ATIS] EDDK DEP ATIS Q EDDK ARR/DEP DATIS RPT -ATIS EDDK Q METAR 291920 -EXPECT ILS APCH -RWY 31R 06 -RWY COND RWY 31R AT TIME 1830 RWYCC 6 DEPOSIT TOTAL RWY DRY RWY 06 AT TIME 1830 RWYCC 6 DEPOSIT TOTAL RWY DRY -TRL 60 -RWY 13R AND RWY 31L CLOSED FOR DEPARTURE AND LANDING: TAXIING BTN THR RWY 13R AND INTERSECTION RWY 24 POSSIBLE : -04003KT -CAVOK - - -T24 DP13 -QNH1024 - -TREND NOSIG",
    "EBLG": "[Arrival ATIS] EBLG ATIS H 1350Z EBLG INFO, EXP RNAV TO ILS APP ARR RWY04R DEP RWY04R RWY 04R DRY, RWYCC 666. TRL 055 ADZ ON GND FREQ IF UNABLE S2 360/7KT VRB BTN 320 AND 080 MNM3 MAX12 CAVOK T25 DP14 QNH 1019HPA NOSIG CFM ATIS H",
    "LSZH": "[Arrival ATIS] LSZH ARR ATIS G 1420Z ARRIVALS, EXP ILS APCH, RWY 14. TRL 70. DEP RWY 28. WIND 130 DEG, 5 KT, VRB BTN 010 AND 160 DEG. VIS 10 KM OR MORE, TDZ 10 KM OR MORE. CLD FEW 5500 FT. T 30. DP 15. QNH 1016. NOSIG.\n[Departure ATIS] LSZH DEP ATIS U 1420Z DEP RWY 28. TRL 70. ARRIVALS, EXP ILS APCH, RWY 14. TMA S 1 IS NOT ACT. TMA S 2 AND S 3 ARE NOT ACT. WIND 090 DEG, 5 KT, VRB BTN 010 AND 160 DEG. VIS 10 KM OR MORE. CLD FEW 5500 FT. T 30. DP 15. QNH 1016. NOSIG.",
    "LIMC": "[Arrival ATIS] LIMC ARR ATIS U 1420Z LIMC ARR U 1420Z I.L.S. ZULU RWY IN USE 35L TL 75 WIND TDZ 240/12KT VRB BTN 210/AND 290/ CAVOK T33 DP17 QNH 1010HPA QFE 0985HPA\n[Departure ATIS] LIMC DEP ATIS Y 0650Z LIMC DEP Y 0650Z RWY IN USE 35R TL 70 WIND END 030/4KT VRB BTN 330/AND 050/ CAVOK T27 DP19 QNH 1021HPA QFE 0996HPA DATALINK CLEARANCE AVAILABLE.... CONTACT 1 3 1 8 8 0 TO BE RELEASED BY THE AIRPORT OPERATOR ...",
    "LIRF": "[Arrival ATIS] LIRF ARR ATIS W 1424Z LIRF ARR W 1424Z RWY 16L ILS X RWY 16R ILS Z RWY IN USE 16L 16R TL 75 DEPENDENT PARL ILS APCH INPR RWY IN USE 16R OR 16L ASSIGNED BY ROME RADAR WIND RWY 16L TDZ 240/11KT VRB BTN 220/AND 280/ RWY 16R TDZ 250/8KT CAVOK T29 DP23 QNH 1010HPA SMOKE NORTH EAST OF THE FIELD RRSM\n[Departure ATIS] LIRF DEP ATIS Y 1420Z LIRF DEP Y 1420Z RWY IN USE 25 TL 75 RWYS IN USE FOR ARR 16L AND 16R WIND END 260/8KT VRB BTN 230/AND 300/ CAVOK T29 DP23 QNH 1010HPA SMOKE NORTH EAST OF THE FIELD REA IS SENT AUTOMATICALLY ONCE RLSD BY RAMP WHEN READY CONTACT FIUME RAMP 121.725 RRSM",
    "EINN": "[Arrival ATIS] EINN ARR ATIS C 0800Z EXPECT I L S CATEGORY 1 LDG RWY24 TKOF RWY24 TRL FL060 25006KT 9999 FEW015 SCT037 15/10 QNH Q1018 TREND NOSIG ADVISE AT FIRST CONTACT YOU HAVE ATIS INFO C",
    "EGLL": "[Arrival ATIS] EGLL ARR ATIS U 0820Z LANDING RWY 27R TRANSITION-LEVEL: FL 70 IF STAND GUIDANCE IS OFF OR FAILS, REMAIN ON THE TAXIWAY CENTRELINE AND ADVISE ATC AUTO 23007KT 200V260 9999 BKN021 21/16 Q1018 ACKNOWLEDGE RECEIPT OF INFORMATION U\n[Departure ATIS] EGLL DEP ATIS F 1550Z DEPARTURE RWY 27L RUNWAY 27R REDUCED DECLARED DISTANCES WITH TAKE OFF RUN AVAILABLE 3362METRES AND LANDING DISTANCE AVAILABLE 3362METRES PILOTS THAT ARE IN RECEIPT OF DATALINK CLEARANCES ARE REMINDED THEY MUST CONTACT DELIVERY ON 121.980 WHEN READY FOR START AUTO 17005KT 140V260 9999 NCD 33/13 Q1016 ACKNOWLEDGE RECEIPT OF INFORMATION F AND REPORT AIRCRAFT TYPE AND CURRENT QNH ON FIRST CONTACT WITH HEATHROW",
    "EPWA": "[Arrival ATIS] EPWA ARR ATIS J 1428Z EPWA ARR J. TIME 1428. EXP U ARR ILS Z APCH FOR RWY 33. RWY 33 RCC 6, 6, 6. 1ST PART, DRY. 2ND PART, DRY. 3RD PART, DRY. RWY REPORT END. TRANSITION LEVEL 80. WIND 300 DEG, 10 KT, VRB BTN 270 AND 340 DEG. VIS TDZ 10 KM OR MORE. CLD FEW 4000 FT. T 17. DP 11. QNH 1010. NOSIG. CAUTION. BIRD ACT. END OF EPWA ARR J\n[Departure ATIS] EPWA DEP ATIS T 1431Z EPWA DEP T. TIME 1430. DEP RWY 29. ARR RWY 33, EXP U ARR ILS Z. REPORT READY FOR STARTUP ON DELIVERY 121. 605 DATALINK DEP CLR UNAVAILABLE. RWY 29 RCC 6, 6, 6. 1ST PART, DRY. 2ND PART, DRY. 3RD PART, DRY. RWY REPORT END. TRANSITION LEVEL 80. WIND 290 DEG, 10 KT. VIS MID 10 KM OR MORE. CLD FEW 4000 FT. T 17. DP 11. QNH 1010. NOSIG. CAUTION. BIRD ACT. END OF EPWA DEP T",
    "EFHK": "[Arrival ATIS] EFHK ARR ATIS M 0820Z EXPECT ILS APCH ARR RWY 15 RUNWAY 15 CONDITION REPORT AT 0748 UTC RUNWAY CONDITION CODES 6 , 6 , 6 CONTAMINANTS ALL PARTS DRY TRL 60 WIND 170 DEG 7 KT VRB BTN 160 AND 220 DEG CAVOK T 20 DP 13 QNH 1019 NOSIG ACK INFO M\n[Departure ATIS] EFHK DEP ATIS H 1620Z DEP RWYS 22R AND 22L RUNWAY 22R CONDITION REPORT AT 1329 UTC RUNWAY CONDITION CODES 6 , 6 , 6 CONTAMINANTS ALL PARTS DRY RUNWAY 22L CONDITION REPORT AT 1330 UTC RUNWAY CONDITION CODES 6 , 6 , 6 CONTAMINANTS ALL PARTS DRY WIND 110 DEG 6 KT VIS 10KM FEW 1400 FT. SCT 1600 FT. FEW TCU 2800 FT T 19 DP 15 QNH 1003 TEMPO CLD FEW CB 3000 FT. ACK INFO H",
    "LTAC": "[Arrival ATIS] LTAC ARR ATIS P 1050Z EXP ILS Z APCH 21C DEP RWY 21R RWY 21C WIND VRB 07 KT RWY 21R WIND 220 DEG 08 KT GUST 20 KT VRB BTN 130 DEG AND 270 DEG TRL 115 VIS 9999 FEW04000 FT T 30 DP 06 QNH 1009 N",
    "UBBB": "[Arrival ATIS] UBBB ARR ATIS L 1500Z ATIS L EXP ILS/ LDG 34 35 DEP 34 35 IN USE RWY 34 CLEAR DRY 70 RWY 35 CLEAR DRY 70 TLVL 110 WIND WIND RWY 34 330 10 KT SPD MAX 14 MIN 8 WIND RWY 35 330 10 KT SPD MAX 16 MIN 8 VIS CAVOK T 26 / DP 20 QNH 1008 HPA TREND TREND NOSIG MODERATE BIRDS ACT IN VICINITY OF AP END OF ATIS L\n[Departure ATIS] UBBB DEP ATIS P 0430Z ATIS P EXP ILS/ LDG 34 35 DEP 34 35 IN USE RWY 34 CLEAR DRY 70 RWY 35 CLEAR DRY 70 TLVL 110 WIND WIND RWY 34 330 16 KT SPD MAX 20 MIN 12 WIND RWY 35 310 14 KT SPD MAX 20 MIN 10 VIS CAVOK T 25 / DP 19 QNH 1007 HPA TREND TREND NOSIG MODERATE BIRDS ACT IN VICINITY OF AP END OF ATIS P",
    "ZWWW": "[Arrival ATIS] ZWWW ARR ATIS Q 1600Z EXP ILSDME Z APCH LDG RWY 26R SFC COND & BA NOTICE:RWYCC 26R 5/5/5 ISSUED AT 1423Z ALL PARTS WET NR NR TA 3000 WIND 180/5MPS VIS 9999M TS CLD FEW CB 1200M T 23 /DP 16 QNH 1010 HPA ADZ YOU HAVE INFO Q.\n[Departure ATIS] ZWWW DEP ATIS T 1000Z DEP RWY 26L TA 3000 WIND 180/3MPS VRB BTN 130/ AND 210/ VIS 9999M CLD FEW CB 1200M T 29 /DP 12 QNH 1007 HPA ADZ YOU HAVE INFO T.",
    "ZLXY": "[Arrival ATIS] ZLXY ARR ATIS P 0800Z EXP ILS APCH LDG RWY 23R WIND 260/4MPS VIS 9999M -RA CLD FEW 1500M /OVC 2100M T 22 /DP 18 QNH 1012 HPA VISUAL APPROACH IN PROGRESS ADZ YOU HAVE INFO P.\n[Departure ATIS] ZLXY DEP ATIS L 0538Z DEP RWY 24R WIND 320/2MPS VIS 9999M CLD FEW CB 1200M /SCT 1500M /BKN 2100M T 26 /DP 20 QNH 1011 HPA VISUAL APPROACH IN PROGRESS ADZ YOU HAVE INFO L.",
    "ZBAA": "[Arrival ATIS] ZBAA ARR ATIS N 1602Z EXP ILS APCH DEPENDENT PARL INSTR APCH LDG RWY 36L & 36R WIND VRB DEG 1 MPS VIS 9999 -SHRA NSC T 25 /DP 23 QNH 1001 HPA RWY 36L RWYCC 5/5/5 ISSUED AT 1452 ALL PARTS WET NR 100PCT RWY 36R RWYCC 5/5/5 ISSUED AT 1452 ALL PARTS WET NR 100PCT RWY 01 RWYCC 5/5/5 ISSUED AT 1452 ALL PARTS WET NR 100PCT ADZ YOU HAVE INFO N.\n[Departure ATIS] ZBAA DEP ATIS X 1030Z DEP RWY 18R & 18L & 19 WIND 160 DEG 3 MPS 130V190 DEG CAVOK T 32 /DP 23 QNH 999 HPA RWY INDEPENDENT PARALLEL DEP ADZ YOU HAVE INFO X.",
    "ZBHH": "[Arrival ATIS] ZBHH ARR ATIS X 0300Z EXP ILSDME APCH LDG RWY 26 TA 3000 /TRL 3600 WIND 340/5MPS CAVOK T 16 /DP 01 QNH 1016 HPA ADZ YOU HAVE INFO X.\n[Departure ATIS] ZBHH DEP ATIS T 2300Z DEP RWY 26 TA 3000 /TRL 3600 WIND 330/5MPS VRB BTN 280/ AND 360/ CAVOK T 10 /DP M01 QNH 1015 HPA ADZ YOU HAVE INFO T.",
    "ZSQD": "[Arrival ATIS] ZSQD ARR ATIS F 0800Z EXP ILSDME APCH LDG RWY 35 TA 3000 /TRL 3600 WIND 330/7MPS CAVOK T 32 /DP 16 QNH 1004 HPA SEGREGATED OPERATION VISUAL APPROACH OPERATION IN PROGRESS. RUNWAY 35,IF MISSED APPROACH,EXPECT FOLLOW THE STANDARD MISSED APPROACH PROCEDURE,CLIMB TO 1200M ON QNH OR BY ATC CAUTION MAYBE THERE IS A FLOCK OF BIRDS IN THE VICINITY OF AIRPORT ADZ YOU HAVE INFO F.\n[Departure ATIS] ZSQD DEP ATIS Z 0400Z DEP RWY 34 TA 3000 /TRL 3600 WIND 290/4MPS VIS 9999M CLD BKN 1200M T 29 /DP 18 QNH 1003 HPA SEGREGATED OPERATION VISUAL APPROACH OPERATION IN PROGRESS. RUNWAY 35,IF MISSED APPROACH,EXPECT FOLLOW THE STANDARD MISSED APPROACH PROCEDURE,CLIMB TO 1200M ON QNH OR BY ATC CAUTION MAYBE THERE IS A FLOCK OF BIRDS IN THE VICINITY OF AIRPORT ADZ YOU HAVE INFO Z."
  },
  "windtemp_alaska": "\n000\nFBAK31 KWNO 091359\nFD1AK1\nDATA BASED ON 091200Z    \nVALID 091800Z   FOR USE 1400-2100Z. TEMPS NEG ABV 24000\n\nFT  3000    6000    9000   12000   18000   24000  30000  34000  39000\nADK 1120 1215+05 1923+05 1934+00 2137-11 2256-21 226637 227247 228159\nADQ 2816 2908+03 3309-02 3415-08 3426-19 3330-32 333149 323149 322845\nAKN 3313 3516+02 0109+00 3608-06 3419-19 3222-32 313047 313150 312746\nANC 2407 3113+03 3410-02 0212-07 0223-19 0333-31 034649 043252 051344\nANN 1914 1722-01 1921-03 2121-08 2230-19 2341-31 246145 245946 253544\nBET 2911 3011+03 2506-02 2706-07 9900-19 9900-32 240647 281451 291847\nBRW 2507 2412+06 2316-01 2218-06 2226-18 2239-31 214647 214054 222348\nBTI 0606 0207+08 3608+02 3507-04 2608-16 2316-28 232844 233654 222456\nBTT 3407 3605+11 9900+03 1106-04 1107-17 1410-29 141845 162456 151854\nCDB 3111 2914+04 2916+01 2921-03 2940-16 2958-27 297842 299551 297354\nCZF 2418 2415+03 2313-03 2211-06 2510-18 2812-31 291847 271652 261747\nEHM 3216 3110+03 3109-02 3013-06 3019-19 3027-31 293846 294151 293748\nFAI 3215 3617+08 0418+01 0619-05 0816-16 1121-29 113447 134654 112251\nFYU 0715 0518+10 0522+03 0620-04 0811-16 1110-27 152745 154455 142155\nGAL 3314 3210+06 3407+00 3607-05 0305-17 0809-30 131147 132056 140750\nGKN 3008 3606+01 0509-03 0515-07 0730-19 0948-32 105948 103948 092046\nHOM 3009 3211+04 3210-02 3414-08 0123-20 0126-32 043849 022851 341744\nJNU 0706 1208+00 1307-04 1108-10 0712-23 1007-34 111645 111744 131042\nLUR 2311 2316+05 2319-01 2219-07 2121-20 2126-33 213647 213151 221846\nMCG 3308 3613+05 0113-01 0115-06 0512-17 0509-30 091747 091957 040648\nMDO 3010 3310+00 0112-02 3512-08 3608-22 0317-35 022050 031545 041342\nOME 2511 2216+04 1816-01 1915-06 1916-19 1921-32 192347 192053 211347\nORT      3605+04 0513-02 0617-05 0826-18 0843-29 105145 116753 112648\nOTZ 2613 2613+06 2512+00 2312-06 2019-19 1933-31 194348 183054 211648\nSNP 2312 1808+03 2210+01 2417-03 2626-16 2740-27 266542 771350 276154\nTKA 2309 3510+03 0226-01 0429-06 0429-17 0431-30 043848 053254 071146\nUNK 2914 3010+05 2905-01 2705-06 1806-18 1616-31 152348 151955 210548\nYAK 3206 0508+02 0615-03 0517-10 0619-23 0722-35 093545 102443 091442\nIKO 1411 2016+06 2321+05 2425+01 2536-12 2644-22 266038 268648 760360\nAFM 3109 3106+06 9900+01 2206-05 2010-17 2019-30 192147 172356 191651\n5AB 0905 9900+02 1306+00 1607-05 2127-15 2043-28 205643 206248 215249\n5AC 2623 2621-02 2533-02 2443-06 2360-18 2483-29 740340 249645 256346\n5AD 3318 3419+01 3323-03 3227-08 3236-21 3142-33 315046 304444 303442\n5AE 3122 3225+02 3231-02 3233-04 3137-18 3050-30 308044 308451 305649\n5AF 9900 0805+01 0910-05 0908-10 1308-22 1409-34 180845 221142 241240\n5AG 0212 0311+00 0313-04 0515-10 0824-22 0622-34 340848 020745 010741\n",
  "vaac_tokyo": [
    {
      "id": "20260708_30027000_0250",
      "year": "2026",
      "volcano": "Sheveluch",
      "psn": "N5639 E16122",
      "issued": "20260708",
      "text": "FVFE01 RJTD 081200\nVA ADVISORY\nDTG: 20260708/1200Z\nVAAC: TOKYO\nVOLCANO: SHEVELUCH 300270\nPSN: N5639 E16122\nAREA: RUSSIA\nSOURCE ELEV: 3283M AMSL\nADVISORY NR: 2026/250\nINFO SOURCE: HIMAWARI-9\nERUPTION DETAILS: VA CONTINUOUSLY OBS IN SATELLITE IMAGERY\nOBS VA DTG: 08/1120Z\nOBS VA CLD: SFC/FL280 N4932 E16000 - N5148 E16308 - N5423 E16933 - \nN5505 E17221 - N5306 E16745 - N5124 E16330 - N4901 E16026 MOV S 15KT \nSFC/FL230 N5012 E15831 - N5147 E16001 - N5139 E16025 - N4958 E15846 \nMOV S 35KT\nFCST VA CLD +6 HR: 08/1720Z SFC/FL280 N5555 E17556 - N5122 E16443 - \nN4646 E16257 - N4644 E16020 - N5129 E16251 - N5527 E17145 SFC/FL230 \nN5039 E16039 - N4856 E16039 - N4702 E15922 - N4719 E15818 - N4901 \nE15944 - N5038 E15950\nFCST VA CLD +12 HR: 08/2320Z SFC/FL280 N5645 W17953 - N5244 E16736 - \nN4651 E16724 - N4426 E16156 - N5133 E16228 - N5635 E17408 SFC/FL220 \nN4702 E16223 - N4456 E16046 - N4502 E15939 - N4745 E16119 - N4914 \nE16026 - N4946 E16119\nFCST VA CLD +18 HR: NO VA EXP\nRMK: THE RESPONSIBILITY FOR VA(FL280) IS BEING TRANSFERRED TO VAAC \nANCHORAGE. THE NEXT ADVISORY FOR THIS VA WILL BE ISSUED BY VAAC \nANCHORAGE BY 1800UTC UNDER HEADER FVAK21 PAWU. NORTHERN PART OF \nVA(FL230) OBSCURED BY MET CLOUD.\nNXT ADVISORY: 20260708/1800Z=",
      "img_url": "https://ds.data.jma.go.jp/svd/vaac/data/VAGFN/2026/Images/20260708_30027000_0250_QH21_01.png",
      "sat_img_url": "https://ds.data.jma.go.jp/svd/vaac/data/Sat/2026/Images/30027000/09-ir/20260708_1120_202607081200_ir.png",
      "text_url": "https://ds.data.jma.go.jp/svd/vaac/data/TextData/2026/20260708_30027000_0250_Text.html"
    },
    {
      "id": "20260706_27202000_0232",
      "year": "2026",
      "volcano": "Kanlaon",
      "psn": "N1025 E12308",
      "issued": "20260706",
      "text": "FVFE01 RJTD 061545\nVA ADVISORY\nDTG: 20260706/1545Z\nVAAC: TOKYO\nVOLCANO: KANLAON 272020\nPSN: N1025 E12308\nAREA: PHILIPPINES\nSOURCE ELEV: 2435M AMSL\nADVISORY NR: 2026/232\nINFO SOURCE: HIMAWARI-9 PHIVOLCS\nERUPTION DETAILS: ERUPTION AT 20260706/1520Z FL100 EXTD SW REPORTED\nOBS VA DTG: 06/1530Z\nOBS VA CLD: VA NOT IDENTIFIABLE FM SATELLITE DATA WIND FL100 350/5KT\nFCST VA CLD +6 HR: NOT AVBL\nFCST VA CLD +12 HR: NOT AVBL\nFCST VA CLD +18 HR: NOT AVBL\nRMK: WE WILL ISSUE FURTHER ADVISORY IF VA IS DETECTED IN SATELLITE \nIMAGERY.\nNXT ADVISORY: NO FURTHER ADVISORIES=",
      "img_url": "https://ds.data.jma.go.jp/svd/vaac/data/VAGFN/2026/Images/20260706_27202000_0232_QH21_01.png",
      "sat_img_url": null,
      "text_url": "https://ds.data.jma.go.jp/svd/vaac/data/TextData/2026/20260706_27202000_0232_Text.html"
    },
    {
      "id": "20260705_27303000_0717",
      "year": "2026",
      "volcano": "Mayon",
      "psn": "N1315 E12341",
      "issued": "20260705",
      "text": "FVFE01 RJTD 051936\nVA ADVISORY\nDTG: 20260705/1936Z\nVAAC: TOKYO\nVOLCANO: MAYON 273030\nPSN: N1315 E12341\nAREA: PHILIPPINES\nSOURCE ELEV: 2462M AMSL\nADVISORY NR: 2026/717\nINFO SOURCE: HIMAWARI-9 PHIVOLCS\nERUPTION DETAILS: ERUPTION AT 20260705/1914Z FL090 EXTD WSW REPORTED\nOBS VA DTG: 05/1920Z\nOBS VA CLD: VA NOT IDENTIFIABLE FM SATELLITE DATA WIND FL090 050/8KT\nFCST VA CLD +6 HR: NOT AVBL\nFCST VA CLD +12 HR: NOT AVBL\nFCST VA CLD +18 HR: NOT AVBL\nRMK: WE WILL ISSUE FURTHER ADVISORY IF VA IS DETECTED IN SATELLITE \nIMAGERY.\nNXT ADVISORY: NO FURTHER ADVISORIES=",
      "img_url": "https://ds.data.jma.go.jp/svd/vaac/data/VAGFN/2026/Images/20260705_27303000_0717_QH21_01.png",
      "sat_img_url": null,
      "text_url": "https://ds.data.jma.go.jp/svd/vaac/data/TextData/2026/20260705_27303000_0717_Text.html"
    },
    {
      "id": "20260701_30006000_0001",
      "year": "2026",
      "volcano": "Mutnovsky",
      "psn": "N5227 E15812",
      "issued": "20260701",
      "text": "FVFE01 RJTD 012206\nVA ADVISORY\nDTG: 20260701/2206Z\nVAAC: TOKYO\nVOLCANO: MUTNOVSKY 300060\nPSN: N5227 E15812\nAREA: RUSSIA\nSOURCE ELEV: 2288M AMSL\nADVISORY NR: 2026/1\nINFO SOURCE: KVERT KBGS UHPP HIMAWARI-9\nERUPTION DETAILS: ERUPTION AT 20260701/2016Z FL170 EXTD W REPORTED\nOBS VA DTG: 01/2140Z\nOBS VA CLD: VA NOT IDENTIFIABLE FM SATELLITE DATA WIND FL170 120/8KT\nFCST VA CLD +6 HR: NOT AVBL\nFCST VA CLD +12 HR: NOT AVBL\nFCST VA CLD +18 HR: NOT AVBL\nRMK: WE WILL ISSUE FURTHER ADVISORY IF VA IS DETECTED IN SATELLITE \nIMAGERY.\nNXT ADVISORY: NO FURTHER ADVISORIES=",
      "img_url": "https://ds.data.jma.go.jp/svd/vaac/data/VAGFN/2026/Images/20260701_30006000_0001_QH21_01.png",
      "sat_img_url": null,
      "text_url": "https://ds.data.jma.go.jp/svd/vaac/data/TextData/2026/20260701_30006000_0001_Text.html"
    }
  ],
  "vaac_alaska": [
    {
      "text": "\n000\nFVAK21 PAWU 091128\nVAAAK1\nVA ADVISORY\n\nDTG: 20260709/1125Z\n\nVAAC: ANCHORAGE\n\nVOLCANO: SHEVELUCH 300270\n\nPSN: N5639 E16122\n\nAREA: KAMCHATKA PENINSULA\n\nSOURCE ELEV: 10771 FT AMSL\n\nADVISORY NR: 2026/189\n\nINFO SOURCE: HIMAWARI\n\nERUPTION DETAILS: VA NOT IDENTIFIABLE FM SATELLITE DATA.\n\nOBS VA DTG: 09/1125Z\n\nOBS VA CLD: VA NOT IDENTIFIABLE FM SATELLITE DATA\n\nFCST VA CLD +6HR: NOT AVBL\n\nFCST VA CLD +12HR: NOT AVBL\n\nFCST VA CLD +18HR: NOT AVBL\n\nRMK: A NEW ADVISORY WILL BE ISSUED IF VA IS DETECTED IN SATELLITE IMAGERY....TS\n\nNXT ADVISORY: NO FURTHER ADVISORIES=\n\n",
      "issued": "2026-07-09T11:28:00+00:00",
      "volcano": "Sheveluch",
      "psn": "N5639 E16122"
    }
  ]
}