{
  "updated_utc": "2026-07-13T17:47Z",
  "metar": {
    "RJAA": "METAR RJAA 131600Z AUTO 23003KT 9999 NSC 24/23 Q1007 NOSIG",
    "PANC": "METAR PANC 131553Z 15009G16KT 5SM -RA BR FEW015 FEW030 OVC060 11/10 A3003 RMK AO2 SLP171 P0003 T01110100 $",
    "PAFA": "METAR PAFA 131553Z 18004KT 10SM FEW050 BKN100 BKN180 13/11 A2993 RMK AO2 SLP139 T01280106 $",
    "PAED": "METAR PAED 131655Z 00000KT 10SM -RA SCT011 OVC050 12/11 A3003 RMK AO2A SLP165 P0002 T01220106 $",
    "KSEA": "METAR KSEA 131553Z 01008KT 10SM FEW250 17/08 A3013 RMK AO2 SLP208 T01670083",
    "ZSPD": "METAR ZSPD 131600Z 18009MPS CAVOK 29/25 Q1003 NOSIG",
    "ZSSS": "METAR ZSSS 131600Z 18007MPS CAVOK 30/25 Q1003 NOSIG",
    "RJFR": "METAR RJFR 131600Z AUTO 23003KT 9999 NCD 28/24 Q1011",
    "VHHH": "METAR VHHH 131600Z 11007KT 9999 FEW015 30/25 Q1003 TEMPO 3500 SHRA FEW010CB SCT020",
    "RCTP": "METAR RCTP 131600Z 17005KT 140V200 9999 FEW015 BKN050 28/26 Q1008 NOSIG RMK A2977",
    "ZGSZ": "METAR ZGSZ 131600Z 10003MPS 9999 FEW050 30/25 Q1003 NOSIG",
    "WSSS": "METAR WSSS 131600Z 13008KT 9999 FEW018 BKN300 29/24 Q1010 NOSIG",
    "WMKK": "METAR WMKK 131600Z 11004KT 070V170 9000 FEW030 29/25 Q1009 NOSIG",
    "WIDD": "METAR WIDD 131600Z 14005KT 9999 FEW014 29/24 Q1011 NOSIG",
    "VTBS": "METAR VTBS 131600Z 22007KT 9999 FEW020 29/23 Q1008 NOSIG",
    "VTBU": "METAR VTBU 131600Z 24005KT 210V270 9999 FEW020 28/26 Q1008 NOSIG",
    "ROAH": "METAR ROAH 131600Z AUTO 17011KT 9999 FEW011 27/25 Q1012",
    "VVDN": "METAR VVDN 131600Z 00000KT 9999 FEW017 BKN080 28/25 Q1005 NOSIG",
    "RCKH": "METAR RCKH 131600Z 16015KT 130V200 6000 -SHRA FEW008 SCT018 BKN050 27/25 Q1008 NOSIG RMK A2979 RA AMT 2.2MM",
    "KLAX": "METAR KLAX 131553Z 25005KT 9SM FEW017 SCT095 BKN160 BKN250 21/18 A2997 RMK AO2 SLP146 T02110178 $",
    "KONT": "METAR KONT 131553Z VRB03KT 10SM BKN130 BKN170 24/17 A2998 RMK AO2 SLP136 VIRGA DSNT E ACC W T02440172 $",
    "KSFO": "METAR KSFO 131556Z 35003KT 10SM SCT140 BKN200 21/13 A2994 RMK AO2 SLP139 T02060133 $",
    "KOAK": "METAR KOAK 131553Z VRB03KT 10SM SCT160 BKN200 20/14 A2994 RMK AO2 SLP139 T02000139",
    "KMHR": "METAR KMHR 131555Z AUTO 00000KT 9SM CLR 26/13 A2990 RMK AO2 T02650125 $",
    "KDFW": "SPECI KDFW 131549Z 13004KT 10SM FEW009 BKN016 BKN055 BKN250 26/23 A3014 RMK AO2 VCSH NW $",
    "KIAH": "METAR KIAH 131553Z 00000KT 10SM SCT025TCU BKN035 BKN170 BKN250 31/24 A3009 RMK AO2 SLP187 TCU AND SHRA SE-S CB DSNT N-E-S MOVG NE T03060239",
    "KORD": "METAR KORD 131551Z 32007KT 10SM FEW100 FEW170 SCT250 30/17 A3020 RMK AO2 SLP220 T03000172",
    "KJFK": "METAR KJFK 131551Z 19010KT 10SM FEW060 SCT100 27/17 A3024 RMK AO2 SLP241 T02670172",
    "KRFD": "METAR KRFD 131554Z 30008KT 10SM FEW250 29/18 A3024 RMK AO2 SLP235 T02890183",
    "KIND": "METAR KIND 131554Z 03011KT 10SM CLR 28/14 A3017 RMK AO2 SLP211 T02830144",
    "KDTW": "METAR KDTW 131553Z 26004KT 10SM BKN250 28/16 A3020 RMK AO2 SLP223 T02830156 $",
    "KMSP": "METAR KMSP 131553Z 26011G17KT 10SM CLR 29/19 A3018 RMK AO2 SLP212 T02940194",
    "CYEG": "METAR CYEG 131600Z 00000KT 20SM FEW082 FEW250 18/04 A3009 RMK ACC1CI1 SLP198 DENSITY ALT 3100FT",
    "EHAM": "METAR EHAM 131555Z 04009KT 350V080 CAVOK 24/15 Q1019 NOSIG",
    "EBBR": "METAR EBBR 131550Z 02010KT CAVOK 29/16 Q1018 NOSIG",
    "EDDF": "METAR EDDF 131550Z AUTO 06010KT 020V110 CAVOK 33/09 Q1016 NOSIG",
    "EDFH": "METAR EDFH 131550Z 08006KT 030V180 CAVOK 29/10 Q1018",
    "EDDL": "METAR EDDL 131550Z AUTO 02009KT 340V050 CAVOK 31/14 Q1017 NOSIG",
    "EDDK": "METAR EDDK 131550Z AUTO 02006KT 360V060 CAVOK 32/15 Q1016 NOSIG",
    "EBLG": "METAR EBLG 131550Z 02011KT CAVOK 29/15 Q1017 NOSIG",
    "LSZH": "METAR LSZH 131550Z 14004KT 9999 NSC 31/13 Q1016 NOSIG",
    "LIMC": "METAR LIMC 131550Z 22005KT 160V300 CAVOK 31/19 Q1017 NOSIG",
    "LIRF": "METAR LIRF 131550Z 26007KT 220V290 CAVOK 31/24 Q1016 NOSIG",
    "EINN": "METAR EINN 131600Z 04016KT CAVOK 25/14 Q1021 NOSIG",
    "EGLL": "METAR EGLL 131550Z AUTO 07015KT 9999 NCD 27/13 Q1020",
    "EGSS": "METAR EGSS 131550Z AUTO 06014KT 9999 NCD 25/16 Q1022",
    "EPWA": "METAR EPWA 131600Z 32007KT 9999 FEW030 25/20 Q1017 NOSIG",
    "UHPP": "METAR UHPP 131600Z 04002MPS 350V080 0350 0300N R16/0800N FG VV002 11/11 Q1011 R16R/CLRD62 NOSIG RMK QFE755/1007",
    "EFHK": "METAR EFHK 131550Z 34009KT 9999 BKN022 19/15 Q1018 NOSIG",
    "LBBG": "METAR LBBG 131600Z AUTO 15007KT 9999 NSC 23/16 Q1013 NOSIG",
    "LTAC": "METAR LTAC 131550Z 30007KT 260V330 9999 FEW040 31/01 Q1011 NOSIG RMK RWY21C 29007KT 250V320 RWY03L 30007KT 260V340 RWY21R 28007KT 240V340 RWY03R 28007KT RWY21L 29008KT 260V320",
    "UBBB": "METAR UBBB 131600Z 33010KT CAVOK 27/22 Q1007 NOSIG",
    "UTAA": "METAR UTAA 131600Z 28004KT 9999 FEW100 37/09 Q1005 R88/CLRD70 NOSIG",
    "UACC": "METAR UACC 131600Z 15003MPS CAVOK 28/20 Q1007 NOSIG RMK QFE724/0966",
    "UAAA": "METAR UAAA 131600Z 15002MPS 110V180 9999 BKN050CB OVC100 27/11 Q1009 NOSIG",
    "UZTT": "METAR UZTT 131600Z 10004KT CAVOK 33/15 Q1004 NOSIG",
    "ZWWW": "METAR ZWWW 131600Z 23003MPS CAVOK 32/06 Q1005 NOSIG",
    "ZLXY": "METAR ZLXY 131600Z 04003MPS CAVOK 29/23 Q1000 NOSIG",
    "ZBAA": "METAR ZBAA 131600Z 14001MPS CAVOK 26/25 Q1001 NOSIG",
    "ZBHH": "METAR ZBHH 131600Z VRB01MPS CAVOK 21/13 Q1009 NOSIG",
    "ZSQD": "METAR ZSQD 131600Z 14005MPS 6000 -RA BKN009 OVC020 26/26 Q0996 BECMG TL1730 RA",
    "ZMCK": "METAR ZMCK 131600Z VRB01MPS 9999 FEW033 14/09 Q1011 NOSIG RMK QFE643.8 74 NT",
    "UUEE": "METAR UUEE 131600Z 24002MPS 220V280 CAVOK 19/16 Q1006 R06R/290151 R06C/290151 NOSIG",
    "UUDD": "METAR UUDD 131600Z 35002MPS CAVOK 21/15 Q1006 R13R/CLRD65 NOSIG",
    "ULLI": "METAR ULLI 131600Z 04004MPS 360V090 9999 SCT046 25/14 Q1013 R88/090065 NOSIG",
    "USSS": "METAR USSS 131600Z 08004MPS 9999 SCT039 19/17 Q1013 R08L/CLRD60 R08R/CLRD60 NOSIG RMK QFE739/0986",
    "UNNT": "METAR UNNT 131600Z 03001MPS 9000 NSC 19/14 Q1005 R07/CLRD// R16/CLRD// NOSIG RMK QFE744/0992",
    "UNKL": "METAR UNKL 131600Z 00000MPS CAVOK 14/12 Q1006 R11/CLRD// NOSIG RMK QFE729",
    "UIBB": "METAR UIBB 131600Z AUTO 27002MPS 9999 // NCD 14/08 Q1009 RMK QFE714/0952",
    "UEEE": "METAR UEEE 131600Z 01003MPS 9999 SCT050CB 21/17 Q0994 R05/09//65 NOSIG RMK QFE737",
    "UHHH": "METAR UHHH 131600Z 21002MPS 9999 FEW040CB 25/23 Q0999 R23L/090060 NOSIG RMK QFE743/0991",
    "UHSS": "METAR UHSS 131600Z 23001MPS 0150 0100S R19/0450D FG VV002 18/17 Q1005 RMK QBB060 MT OBSC QFE752/1003"
  },
  "taf": {
    "RJAA": "TAF RJAA 131705Z 1318/1500 20004KT 9999 FEW030 TEMPO 1319/1321 4000 BR BECMG 1400/1402 03006KT BECMG 1403/1405 14010KT",
    "PANC": "TAF PANC 131733Z 1318/1424 15008G16KT 6SM -RA BR BKN050 OVC080 FM132000 15010G20KT P6SM VCSH BKN050 FM140200 15015G25KT P6SM -SHRA OVC035 FM140900 15015G25KT 6SM -RA BR OVC020",
    "PAFA": "TAF PAFA 131739Z 1318/1424 20005KT P6SM VCSH SCT050 BKN100 FM132100 22006KT P6SM BKN035 OVC050 FM132200 23006KT 6SM -SHRA BR BKN040 OVC050 PROB30 1322/1402 -TSRA BKN040CB FM140600 VRB03KT 6SM -SHRA BR BKN040 OVC050",
    "PAED": "TAF AMD PAED 131720Z 1317/1419 21005KT 9000 -RA SCT006 BKN012 OVC045 620808 QNH2997INS TEMPO 1317/1321 6000 RA BKN006 BKN012 OVC040 BECMG 1320/1321 24006KT 9000 -SHRA FEW015 BKN025 OVC035 620808 QNH3005INS BECMG 1407/1408 15006KT 9000 -RA SCT006 BKN015 OVC020 620808 QNH2990INS TX14/1400Z TN11/1413Z",
    "KSEA": "TAF KSEA 131720Z 1318/1424 35005KT P6SM FEW250 FM132200 31010KT P6SM FEW250 FM140200 36006KT P6SM FEW250 FM140800 01004KT P6SM SKC FM141400 35006KT P6SM SKC",
    "ZSPD": "TAF ZSPD 131503Z 1318/1424 18009G15MPS 8000 BKN020 TX35/1406Z TN28/1321Z TN29/1421Z BECMG 1321/1322 17006MPS",
    "ZSSS": "TAF ZSSS 131503Z 1318/1424 17005MPS 8000 BKN020 TX36/1406Z TN28/1321Z TN29/1421Z",
    "RJFR": "TAF RJFR 131705Z 1318/1500 25004KT 9999 FEW015 SCT045 BECMG 1323/1401 07008KT BECMG 1409/1412 18006KT",
    "VHHH": "TAF VHHH 131700Z 1318/1424 10010KT 9999 FEW015 SCT025 TX31/1406Z TN27/1322Z TN27/1422Z TEMPO 1318/1322 09015G25KT 2000 TSRA SHRA FEW010CB SCT020 TEMPO 1322/1406 12020G30KT 1500 TSRA +SHRA FEW008CB SCT015 TEMPO 1406/1412 18022G32KT 2000 +SHRA FEW010CB SCT020 TEMPO 1412/1421 20015G25KT 3000 SHRA FEW010CB SCT020 TEMPO 1421/1424 20015G25KT 2000 TSRA SHRA FEW008CB SCT020",
    "RCTP": "TAF RCTP 131700Z 1318/1424 17005KT 9999 FEW015 BKN032 TEMPO 1318/1324 11005KT BECMG 1400/1402 36005KT TEMPO 1404/1410 29010KT 5000 SHRA FEW010 FEW015CB BKN020 BECMG 1410/1412 16005KT",
    "ZGSZ": "TAF ZGSZ 131504Z 1318/1424 12004MPS 8000 SCT030 TX30/1406Z TN26/1322Z TN26/1422Z BECMG 1319/1320 03004MPS SHRA SCT010 FEW020CB BKN030 TEMPO 1321/1402 TSRA TEMPO 1404/1409 2800 +TSRA BECMG 1413/1414 NSW BKN040",
    "WSSS": "TAF WSSS 131700Z 1318/1500 16009KT 9999 FEW015 SCT020",
    "WMKK": "TAF WMKK 131700Z 1318/1500 VRB03KT 9999 FEW030",
    "VTBS": "TAF VTBS 131700Z 1318/1424 23008KT 9999 FEW020 TEMPO 1406/1412 VRB15G25KT 4000 TSRA FEW018CB SCT030 BKN100",
    "VTBU": "TAF VTBU 131700Z 1318/1418 25008KT 9999 FEW020",
    "ROAH": "TAF ROAH 131705Z 1318/1500 18010KT 9999 FEW010 SCT015",
    "VVDN": "TAF VVDN 131700Z 1318/1418 22006KT 9999 FEW015 SCT060 BECMG 1404/1405 01010KT PROB40 TEMPO 1409/1413 24015G25KT 4000 TSRA BKN013 FEW015CB BKN050 BECMG 1413/1414 22006KT",
    "RCKH": "TAF RCKH 131700Z 1318/1424 16010G20KT 9999 FEW015 BKN032 TEMPO 1318/1324 13015G25KT 5000 SHRA FEW010 FEW015CB BKN020 TEMPO 1400/1406 6000 -SHRA FEW010 BKN022 BKN040 TEMPO 1406/1412 14015G25KT 4000 SHRA FEW010 FEW015CB BKN017",
    "KLAX": "TAF KLAX 131720Z 1318/1424 26006KT P6SM BKN150 BKN250 FM131900 26012KT P6SM BKN150 BKN250 FM140400 26006KT P6SM BKN250 FM140900 VRB03KT P6SM BKN006 FM141600 26006KT P6SM SCT250 FM141900 26012KT P6SM SCT250",
    "KONT": "TAF KONT 131728Z 1318/1424 VRB04KT P6SM BKN150 FM132200 27012KT P6SM BKN200 FM140500 VRB04KT P6SM SCT200 FM142100 25011KT P6SM SCT200",
    "KSFO": "TAF KSFO 131738Z 1318/1424 29009KT P6SM BKN200 FM132100 30015KT P6SM BKN200 FM140600 29011KT P6SM BKN200 FM141500 30005KT P6SM FEW010 BKN200 FM141900 31012KT P6SM BKN200 FM142100 31015G25KT P6SM BKN150",
    "KOAK": "TAF KOAK 131738Z 1318/1424 30007KT P6SM BKN180 FM132100 30008KT P6SM BKN200 FM141200 29004KT P6SM FEW010 BKN200 FM141800 26007KT P6SM BKN150 FM142100 29012KT P6SM BKN150",
    "KMHR": "TAF KMHR 131726Z 1318/1418 VRB05KT P6SM OVC150 FM132200 23008KT P6SM BKN200 FM140500 VRB05KT P6SM BKN250",
    "KDFW": "TAF KDFW 131725Z 1318/1424 12004KT P6SM VCSH SCT020 BKN060 FM132000 10004KT P6SM VCTS SCT020 BKN060CB TEMPO 1321/1323 06008KT 2SM -TSRA BKN025CB FM140000 09006KT P6SM BKN060 FM140800 12006KT P6SM BKN010 FM141600 14006KT P6SM SCT040",
    "KIAH": "TAF KIAH 131734Z 1318/1424 14015G20KT 6SM -SHRA VCTS BKN011 BKN020CB OVC030 TEMPO 1318/1322 1SM TSRA BKN020CB FM132300 14007KT P6SM -SHRA SCT035 BKN050 TEMPO 1323/1403 4SM TSRA BKN035CB FM140300 VRB03KT P6SM BKN025 FM140900 15004KT P6SM VCTS BKN025CB PROB30 1413/1418 3SM TSRA BKN025CB FM142000 14006KT P6SM OVC050",
    "KORD": "TAF KORD 131724Z 1318/1424 29007KT P6SM FEW250 FM132030 11007KT P6SM FEW050 FM140300 VRB03KT P6SM SKC FM141400 32005KT P6SM SKC FM141900 08006KT P6SM SKC",
    "KJFK": "TAF KJFK 131727Z 1318/1424 19011KT P6SM SCT070 FM132000 18016KT P6SM SCT070 FM140300 22011KT P6SM SKC FM140900 25008KT P6SM FEW250 FM141400 23012KT P6SM FEW250 FM141800 22015G21KT P6SM FEW250",
    "KRFD": "TAF KRFD 131724Z 1318/1418 29008KT P6SM FEW250 FM140300 VRB03KT P6SM SKC FM141600 32005KT P6SM SKC",
    "KIND": "TAF KIND 131720Z 1318/1424 05012KT P6SM SKC FM140000 04007KT P6SM SKC FM140400 04003KT P6SM SKC FM141700 09004KT P6SM FEW050",
    "KDTW": "TAF KDTW 131720Z 1318/1424 24007KT P6SM SCT250 FM140100 23005KT P6SM SCT250 FM141400 26008KT P6SM SCT250",
    "KMSP": "TAF KMSP 131720Z 1318/1424 23010G18KT P6SM SKC FM140100 21008KT P6SM SKC FM141800 24010KT P6SM SKC",
    "CYEG": "TAF CYEG 131740Z 1318/1418 VRB03KT P6SM FEW100 BECMG 1318/1320 12008KT FM140000 12008KT P6SM SCT080 TEMPO 1400/1405 P6SM VCTS SCT060CB FM140500 10006KT P6SM FEW060 RMK NXT FCST BY 132100Z",
    "EHAM": "TAF EHAM 131654Z 1318/1424 04009KT CAVOK BECMG 1405/1408 05013KT",
    "EBBR": "TAF EBBR 131715Z 1318/1424 03010KT CAVOK",
    "EDDF": "TAF EDDF 131700Z 1318/1424 04010KT CAVOK PROB40 TEMPO 1413/1418 31020G35KT 4500 TSRA BKN070CB PROB30 TEMPO 1414/1417 31030G45KT 2000 +TSRAGR",
    "EDFH": "TAF EDFH 131700Z 1318/1418 08007KT CAVOK BECMG 1412/1414 02008KT PROB40 TEMPO 1412/1418 31020G35KT 4000 TSRA BKN060CB PROB30 TEMPO 1413/1416 31030G45KT 2000 +TSRAGR",
    "EDDL": "TAF EDDL 131700Z 1318/1424 03009KT CAVOK BECMG 1323/1402 03004KT BECMG 1407/1410 04011KT BECMG 1419/1422 03006KT",
    "EDDK": "TAF EDDK 131700Z 1318/1424 03007KT CAVOK BECMG 1322/1401 VRB03KT BECMG 1407/1410 04007KT PROB30 TEMPO 1412/1416 03025G40KT 2500 +TSRA BKN040CB BECMG 1416/1419 VRB03KT",
    "EBLG": "TAF EBLG 131715Z 1318/1424 03010KT CAVOK",
    "LSZH": "TAF LSZH 131725Z 1318/1424 11005KT CAVOK TX31/1415Z TN20/1404Z TEMPO 1321/1409 9999 FEW070TCU PROB40 TEMPO 1400/1408 32015G25KT TSRA SCT060CB BECMG 1411/1414 26008KT 9999 FEW070 PROB30 TEMPO 1415/1419 30018G30KT TSRA SCT060CB BECMG 1419/1421 VRB02KT",
    "LIMC": "TAF LIMC 131700Z 1318/1424 VRB05KT 9999 SCT050 BECMG 1414/1416 15010KT BECMG 1418/1420 VRB05KT",
    "LIRF": "TAF LIRF 131700Z 1318/1424 27010KT CAVOK BECMG 1319/1321 VRB05KT PROB40 TEMPO 1400/1405 4000 BCFG BECMG 1409/1411 20010KT BECMG 1417/1419 14006KT",
    "EINN": "TAF EINN 131700Z 1318/1418 04012KT CAVOK PROB30 TEMPO 1318/1322 08010KT BECMG 1322/1324 VRB03KT BECMG 1407/1409 08010KT",
    "EGLL": "TAF EGLL 131657Z 1318/1424 05012KT CAVOK PROB30 TEMPO 1318/1319 07015G25KT PROB30 TEMPO 1320/1323 BKN025 BECMG 1323/1402 BKN020 PROB30 TEMPO 1400/1408 BKN010 BECMG 1409/1412 CAVOK",
    "EGSS": "TAF EGSS 131656Z 1318/1424 05012KT 9999 FEW045 PROB40 TEMPO 1322/1401 BKN010 BECMG 1401/1404 BKN010 PROB30 TEMPO 1402/1407 8000 -DZ BKN008 BECMG 1407/1410 FEW030",
    "EPWA": "TAF EPWA 131730Z 1318/1418 32007KT 9999 SCT030 TEMPO 1321/1406 BKN008 BKN011 PROB40 TEMPO 1400/1406 BKN004 PROB40 TEMPO 1411/1418 -SHRA SCT040CB",
    "UHPP": "TAF UHPP 131635Z 1318/1424 34003G10MPS 9999 SCT050 TEMPO 1318/1321 0500 FG VV002 TEMPO 1401/1410 18006MPS",
    "EFHK": "TAF EFHK 131735Z 1318/1418 35008KT 9999 SCT025 BKN040 PROB30 1404/1407 BKN014",
    "LBBG": "TAF LBBG 131700Z 1318/1418 VRB04KT 9999 SCT045 TEMPO 1318/1320 VRB16G26KT 3000 TSRA SCT030CB BKN040 BECMG 1322/1324 33010KT TEMPO 1409/1415 5000 TSRA SCT033CB BKN040",
    "LTAC": "TAF LTAC 131640Z 1318/1418 VRB02KT CAVOK BECMG 1404/1407 SCT040 TEMPO 1409/1413 30012KT TEMPO 1413/1417 35012KT BECMG 1416/1418 CAVOK",
    "UBBB": "TAF UBBB 131700Z 1318/1418 32008KT CAVOK TX34/1410Z TN23/1401Z TEMPO 1318/1324 35014KT SCT015 BECMG 1404/1406 35012KT TEMPO 1406/1409 01018KT TEMPO 1410/1414 03008KT",
    "UTAA": "TAF UTAA 131645Z 1318/1418 30016KT 6000 SCT050 TX41/1411Z TEMPO 1318/1324 24014KT TEMPO 1322/1408 30016G26KT 3000 BLDU",
    "UACC": "TAF UACC 131705Z 1318/1418 VRB01MPS 9999 SCT030CB BKN100 TX37/1409Z TN18/1324Z TEMPO 1318/1321 16005MPS -TSRA BKN030CB BECMG 1321/1323 SCT030 BKN070 TEMPO 1402/1406 10005MPS BECMG 1406/1408 10006MPS SCT030CB BKN100 TEMPO 1406/1416 VRB16MPS 3100 -TSRA SQ BKN030CB",
    "UAAA": "TAF UAAA 131701Z 1318/1418 16003MPS 9999 SCT050CB BKN100 TX33/1410Z TN21/1401Z TEMPO 1318/1403 22003MPS BECMG 1403/1405 35003MPS TEMPO 1404/1415 05005G10MPS BECMG 1415/1417 17003MPS",
    "UZTT": "TAF UZTT 131700Z 1318/1418 07012KT CAVOK TX39/1411Z TN26/1400Z TEMPO 1318/1324 VRB04KT 4000 FU TEMPO 1406/1418 24015KT",
    "ZWWW": "TAF ZWWW 131505Z 1318/1424 18004MPS CAVOK TX38/1409Z TN27/1323Z TN28/1423Z BECMG 1402/1403 36004MPS BECMG 1414/1415 18004MPS",
    "ZLXY": "TAF ZLXY 131503Z 1318/1418 06004MPS 6000 NSC TX36/1408Z TN25/1322Z TEMPO 1412/1415 TSRA FEW040CB BKN060",
    "ZBAA": "TAF ZBAA 131501Z 1318/1424 04004MPS CAVOK TX35/1407Z TN25/1321Z TN24/1421Z",
    "ZBHH": "TAF ZBHH 131515Z 1318/1418 06004MPS 9999 FEW040 TX29/1408Z TN17/1322Z TEMPO 1407/1411 FEW040 FEW040CB",
    "ZSQD": "TAF ZSQD 131508Z 1318/1418 09005MPS 5000 RA BR BKN009 OVC020 TX32/1406Z TN25/1320Z TEMPO 1318/1320 2500 +RA BR BECMG 1321/1322 30008G14MPS -RA BR BKN020",
    "ZMCK": "TAF ZMCK 131636Z 1318/1424 VRB02MPS 9999 FEW030CB SCT033 TN08/1321Z TX23/1407Z BECMG 1403/1405 29006MPS BECMG 1410/1412 VRB02MPS",
    "UUEE": "TAF UUEE 131652Z 1318/1418 36003MPS 9999 BKN016 TX24/1412Z TN16/1401Z PROB40 TEMPO 1318/1321 -TSRA BKN016CB TEMPO 1321/1405 BKN005 PROB40 TEMPO 1321/1405 0300 FG TEMPO 1410/1416 33010G16MPS PROB40 TEMPO 1410/1416 -TSRA BKN016CB",
    "UUDD": "TAF UUDD 131654Z 1318/1424 34003MPS 8000 BKN020 TX24/1412Z TN15/1401Z TEMPO 1321/1404 0300 FG FEW002 TEMPO 1408/1418 34008G13MPS PROB40 TEMPO 1410/1418 -TSRA BKN016CB",
    "ULLI": "TAF ULLI 131654Z 1318/1418 01005G10MPS 9999 BKN030 TEMPO 1318/1320 3100 -SHRA BKN016CB",
    "USSS": "TAF USSS 131656Z 1318/1418 06003G13MPS 9999 -SHRA BKN020CB TEMPO 1318/1418 -TSRA BECMG 1403/1405 12003G13MPS",
    "UNNT": "TAF UNNT 131700Z 1318/1418 36003G08MPS 8000 SCT040 TX25/1409Z TN13/1323Z TEMPO 1318/1403 -TSRA BKN005 BKN022CB",
    "UNKL": "TAF UNKL 131645Z 1318/1418 21003G08MPS 6000 SCT040 TEMPO 1400/1406 -TSRA BKN016CB BECMG 1402/1404 26006G15MPS TEMPO 1406/1415 -TSRA BKN016CB BECMG 1409/1411 31008G16MPS BECMG 1412/1414 24003G08MPS",
    "UIBB": "TAF UIBB 131700Z 1318/1418 26002MPS 9999 FEW001 SCT050CB TEMPO 1400/1412 VRB07MPS",
    "UEEE": "TAF UEEE 131700Z 1318/1424 11003G10MPS 9999 BKN030CB OVC100 TX29/1406Z TN19/1318Z TEMPO 1318/1406 VRB15MPS 2100 -TSRA SQ SCT010 BKN030CB OVC100",
    "UHHH": "TAF UHHH 131652Z 1318/1424 22003MPS 9999 FEW006 SCT017CB TX31/1406Z TN22/1318Z FM140000 24004MPS 9999 FEW010 SCT020CB TEMPO 1400/1410 26005G10MPS",
    "UHSS": "TAF UHSS 131645Z 1318/1424 21003MPS 0550 FG BKN002 BKN016CB BECMG 1322/1324 1400 BR BKN004 FM140100 22003MPS 9999 SCT030"
  },
  "atis": {
    "RJAA": "[Arrival ATIS] RJAA ARR ATIS V 1133Z M1130 (APCH)ILS Z RWY34R LDG RWY 34R DEP RWY 34L DEP FREQ 124.2. TWY A1 CLSD. OBSERVE GEAR DOWN OPS PROC ON FNL. M 211130Z 03005KT 25KM FEW012CU BKN/// 21/19 Q0999/A2951= Q/TWO NINE FIVE ONE STP\n[Departure ATIS] RJAA DEP ATIS W 1207Z M1200 (APCH)ILS Z RWY34R LDG RWY 34R DEP RWY 34L DEP FREQ 124.2. TWY A1 CLSD. OBSERVE GEAR DOWN OPS PROC ON FNL. M 211200Z 03004KT 360V060 25KM FEW012CU BKN/// 21/19 Q0999/A2952= Q/TWO NINE FIVE TWO STP",
    "PANC": "[Arrival ATIS] PANC ARR ATIS T 1553Z ANC ATIS INFO T 1553Z. 00000KT 10SM OVC019 11/08 A3019 (THREE ZERO ONE NINER). 7R APPROACHES IN USE. LANDING RWY 7R, DEPARTING RWY 33. NOTICE TO AIRMEN. RWY 7L CLSD. CHECK NOTAMS FOR TAXIWAY CLOSURES. CAUTION FOR BIRD ACTIVITY IN THE ARPT AREA. CONTACT TOWER 118.3 FOR TAXI. ...ADVS YOU HAVE INFO T.\n[Departure ATIS] PANC DEP ATIS L 0753Z ANC ATIS INFO L 0753Z. 22006KT 10SM FEW050 FEW130 SCT200 11/08 A3018 (THREE ZERO ONE EIGHT) RMK AO2 SLP222 T01110078. 7R APPROACHES IN USE. LANDING RWY 7R, DEPARTING RWY 33. NOTICE TO AIRMEN. RWY 7L CLSD. CHECK NOTAMS FOR TAXIWAY CLOSURES. CAUTION FOR BIRD ACTIVITY IN THE ARPT AREA. CONTACT TOWER 118.3 FOR TAXI. ...ADVS YOU HAVE INFO L.",
    "KSEA": "[Arrival ATIS] KSEA ARR ATIS I 1553Z SEA ATIS INFO I 1553Z. 28004KT 10SM FEW030 SCT150 15/09 A3010 (THREE ZERO ONE ZERO). ILS RY 16L, RNAV, Y, RY 16R , APCH IN USE. DEPG RWY 16L, DEPG ACFT PLAN AND BRIEF NUMBERS FOR BOTH RWYS 16L AND 16C. SIMUL APCHS IN USE, BFI & SEA. TRAFFIC BELOW YOU ON FINAL. SIMUL APCHS IN USE TO PARA RYS. NOTAMS... ILS RWY 16R OTS. BIRD ACTIVITY VICINITY ARPT. ...ADVS YOU HAVE INFO I.\n[Departure ATIS] KSEA DEP ATIS M 1653Z SEA ATIS INFO M 1653Z. 31005KT 10SM FEW250 18/09 A3013 (THREE ZERO ONE THREE). ILS AND CHARTED VISUAL APPROACH RWYS 34L AND 34R , APCH IN USE. DEPG RWY 34R, DEPG ACFT PLAN AND BRIEF NUMBERS FOR BOTH RWYS 34R AND 34C. SIMUL ARRIVALS TO RWY 34L AND DEPARTURES TO RWY 34R ARE IN USE. SIMUL APCHS IN USE TO PARA RYS. NOTAMS... BIRD ACTIVITY VICINITY ARPT. ...ADVS YOU HAVE INFO M.",
    "ZSPD": "[Arrival ATIS] ZSPD ARR ATIS I 1600Z EXP ILS APCH INDEPENDENT PARL INSTR APCH LDG RWY 17R & 16L WIND RWY 17R TDZ 100/5MPS MID 100/6MPS END 090/5MPS RWY 16L TDZ 110/6MPS MID 100/5MPS END 100/6MPS VIS RWY 17R TDZ 10000M MID 10000M END 10000M VIS RWY 16L TDZ 10000M MID 10000M END 10000M CLD OVC 780M T 24 /DP 23 QNH 1008 HPA CAUTION THE BIRDS NEAR THE RUNWAY RWY 17L/17R/16L/16R RWYCC 5/5/5 ISSUED AT 1245 WET/WET/WET DPT NR/NR/NR COV 100PCT/100PCT/100PCT. ADZ YOU HAVE INFO I.\n[Departure ATIS] ZSPD DEP ATIS G 1500Z DEP RWY 17L WIND RWY 17L TDZ 100/5MPS MID 080/4MPS END 100/3MPS VIS RWY 17L TDZ 10000M MID 10000M END 10000M FBL SHRA CLD OVC 780M T 24 /DP 22 QNH 1009 HPA DELIVERY FREQ 121.7 CAUTION THE BIRDS NEAR THE RUNWAY RWY 17L/17R/16L/16R RWYCC 5/5/5 ISSUED AT 1245 WET/WET/WET DPT NR/NR/NR COV 100PCT/100PCT/100PCT. ADZ YOU HAVE INFO G.",
    "ZSSS": "[Arrival ATIS] ZSSS ARR ATIS R 1300Z EXP ILS APCH LDG RWY 18L WIND RWY 18L TDZ 130/4MPS MID 100/4MPS END 140/4MPS VIS RWY 18L TDZ 9000M MID 8000M END 10000M FBL SHRA CLD BKN 330M /FEW CB 900M T 25 /DP 23 QNH 1009 HPA QNH OF SHANGHAI TERMINAL CONTROL AREA 1009 HPA ADZ YOU HAVE INFO R.\n[Departure ATIS] ZSSS DEP ATIS N 1100Z DEP RWY 18R WIND RWY 18R TDZ 120/3MPS MID 140/4MPS VRB BTN 110/ AND 170/ END 150/3MPS VIS RWY 18R TDZ 8000M MID 8000M END 7000M CLD FEW 450M T 26 /DP 23 QNH 1008 HPA QNH OF SHANGHAI TERMINAL CONTROL AREA 1009 HPA ADZ YOU HAVE INFO N.",
    "VHHH": "[Arrival ATIS] VHHH ARR ATIS G 1605Z ARRIVALS, RWY 25R. EXP RNAV TRANSITION TO ILS APCH, RWY 25R. RNP APCH IS AVBL ON REQ, RWY 25R. RWY 25L IS CLSD FOR MAINT. WIND 190/09KT. VIS 10KM. CLD FEW 1200FT. T29 DP25. QNH 1009HPA. ACK INFO G ON FIRST CTC WITH APP.\n[Departure ATIS] VHHH DEP ATIS X 1637Z DEPARTURES, RWY 07R. WIND 110/06KT. VIS 10KM. CLD FEW 1500FT. T30 DP25. QNH 1002HPA. TREND TEMPO VIS 3500M MOD SHRA CLD FEW CB 1000FT SCT 2000FT. ACK INFO X ON FIRST CTC",
    "RCTP": "[Arrival ATIS] RCTP ARR ATIS S 1600Z EXP ILS APCH RWY05L AND RWY05R ARR/DEP. WIND VRB/02KT VIS 10 KM OR MORE CLD FEW 2000FT T 28 DP 25 QNH 1008HPA NOSIG INFORM TAIPEI APCH OR TAIPEI TOWER ON INITIAL CONTACT YOU HAVE INFORMATION S\n[Departure ATIS] RCTP DEP ATIS M 1300Z EXP ILS APCH RWY23R AND RWY23L ARR/DEP. WIND 200/05KT VIS 10 KM OR MORE CLD FEW 2000FT T 28 DP 24 QNH 1009HPA NOSIG INFORM TAIPEI APCH OR TAIPEI TOWER ON INITIAL CONTACT YOU HAVE INFORMATION M",
    "ZGSZ": "[Arrival ATIS] ZGSZ ARR ATIS Z 1731Z EXP ILS OR VIS APCH LDG RWY 16L WIND 090/3MPS VRB BTN 060/ AND 130/ VIS 9999M CLD FEW 780M /BKN 1290M T 30 /DP 25 QNH 1003 HPA SINGLE RUNWAY OPERATION MISSED APPROACH ALTITUDE SETTING 1200METERS WHEN AIRBORNE CONTACT ZHUHAI APPROACH EXPECTED RNP ILS DME Z APPROACH ADZ YOU HAVE INFO Z.\n[Departure ATIS] ZGSZ DEP ATIS G 1347Z DEP RWY 16L WIND 180/6MPS VIS 9999M CLD FEW 900M T 29 /DP 27 QNH 1009 HPA DELIVERY FREQ 121.8 INDEPENDENT PARALLEL APPROACHES V17,V18 AVAILABLE AFTER SULAS FLY HEADING 040 MISSED APPROACH ALTITUDE SETTING 1200METERS WHEN AIRBORNE CONTACT ZHUHAI APPROACH EXPECTED RNP ILS DME Z APPROACH ADZ YOU HAVE INFO G.",
    "WSSS": "[Arrival ATIS] WSSS ARR ATIS S 1600Z METREPORT 1600Z ILS APCHRWY 02L SIMUL INDEPENDENT ILS AND VISUAL APPROACHES ARE BEING CONDUCTED ON RWY 02. TWY W 9 CLOSED, RWY 02C 20C RAPID EXIT TAXIWAY INDICATOR LIGHTS OFFFOLLOW THE GREENS TRIAL IN PROGRESS. WHEN VACATING THE RWY, PILOTS TO ADHERE TO ATC VERBAL INSTRUCTIONS. WHEN ON TWY, PILOT TO ADHERE TO FOLLOW THE GREENS INSTRUCTIONS. WHEN APPROACHING [A] JUNCTION, KEEP [A] LOOKOUT FOR CONTINUOUS GREENS. [IF] [A] BREAK IN THE GREENS IS OBSERVED, STOP AND CLARIFY WITH ATC. WIND VRB BTN260 AND320 02KT VIS 10KM CLD FEW 1600FT T27 DP25 QNH 1012HPA NOSIG ACK ATIS S\n[Departure ATIS] WSSS DEP ATIS U 1600Z METREPORT 1600Z RWY 02C SIMUL INDEPENDENT ILS AND VISUAL APPROACHES ARE BEING CONDUCTED ON RWY 02. TWY W 9 CLOSED, RWY 02C 20C RAPID EXIT TAXIWAY INDICATOR LIGHTS OFFFOLLOW THE GREENS TRIAL IN PROGRESS. WHEN VACATING THE RWY, PILOTS TO ADHERE TO ATC VERBAL INSTRUCTIONS. WHEN ON TWY, PILOT TO ADHERE TO FOLLOW THE GREENS INSTRUCTIONS. WHEN APPROACHING [A] JUNCTION, KEEP [A] LOOKOUT FOR CONTINUOUS GREENS. [IF] [A] BREAK IN THE GREENS IS OBSERVED, STOP AND CLARIFY WITH ATC. WIND 310/ 06KT VRB BTN270 AND350 VIS 09KM CLD FEW 1600FT T27 DP25 QNH 1012HPA NOSIG DEP,INITIAL CMB 3000FT ACK ATIS U",
    "WMKK": "[Arrival ATIS] WMKK ARR ATIS J 1705Z WMKK ARR INFO J. TIME 1700. INDEPENDENT PARALLEL APPROACHES FOR RWY 14 R AND 15 ARE IN PROGRESS. EXP RNAV / ILS APCH FOR RWY 14 RIGHT. EXP RNAV / ILS APCH FOR RWY 15. WIND RWY 14R 090 DEG, 7 KT. WIND RWY 15 100 DEG, 5 KT. VIS RWY 14R TDZ 8 KM. VIS RWY 15 TDZ 10 KM OR MORE. CLD FEW 3000 FT. T 28. DP 25. QNH 1009. NOSIG. AT FIRST CONTACT WITH LUMPUR RADAR, NOTIFY RCPT OF J\n[Departure ATIS] WMKK DEP ATIS O 1507Z WMKK DEP INFO O. TIME 1500. SINGLE RWY OPS IN PROGRESS. RWY 14 RIGHT. WIND RWY 14R DIRECTION NOT AVBL SPEED NOT AVBL. VIS RWY 14R TDZ NOT AVBL. CLD SCT 3000 FT. T 29. DP 25. QNH 1011. TREND TEMPO VIS 7 KM, FBL RA. ALL DEP ACFT TO CONTACT LUMPUR DEP AT 135 DECIMAL 25 MHZ WHEN ABN. AT FIRST CONTACT WITH LUMPUR GROUND, NOTIFY RCPT OF O",
    "VTBS": "[Arrival ATIS] VTBS ARR ATIS P 1531Z EXP ILS Z APCH ARR RWY 01 OR RNP APCH RWY 02L ,RETIL RWY 01 U/S ,PILOT SHALL ADZ BKK APCH ON INITIAL CTC IF UNA TO CONDUCT RNP APCH DUE TO OPERATIONAL CONSTRAINT 1530Z WIND 320/3KT VRB BTN 300/ AND 040/ VIS 10KM CLD FEW 2000FT T29 DP23 QNH 1011HPA TREND NOSIG ADZ BKK APCH ON INITIAL CONTACT THAT YOU HAVE INFO P\n[Departure ATIS] VTBS DEP ATIS Y 1600Z VTBS DEP ATIS Y 1601Z DEP RWY 02R , ,AFT AIRBORNE ALL DEPARTING ACFT SHALL CTC 119.25 1600Z WIND 350/5KT VIS 10KM CLD FEW 2000FT T29 DP24 QNH 1012HPA TREND NOSIG ADZ GND WHEN INITIAL CONTACT YOU HAVE INFO Y",
    "VTBU": "[Arrival ATIS] VTBU ARR ATIS U 0430Z VTBU ARR ATIS U 0430Z RNP RWY 18 TRL FL130 MOBILE ACFT ARST SYSTEM INSTL ATP SIX HUNDRED AND TEN METERS FM THR RWY 36 CABLE HGT 3 INCHES. 0430Z WIND 360/6KT VRB BTN 320/ AND 020/ VIS 10KM CLD FEW 2000FT T34 DP27 QNH 1010HPA TREND NOSIG ADZ CONTROLLER WHEN INITIAL CONTACT YOU HAVE INFO U\n[Departure ATIS] VTBU DEP ATIS D VTBU ARR/DEP DATIS RPT VTBU ARR ATIS D 0330Z ILS \"Z\" APCH RWY 18 TRL FL130 0330Z WIND 110/4KT VRB BTN 350/ AND 120/ VIS 6KM CLD FEW 2000FT T31 DP27 QNH 1014HPA TREND NOSIG ADZ CONTROLLER WHEN INITIAL CONTACT YOU HAVE INFO D",
    "ROAH": "[Arrival ATIS] ROAH ARR ATIS X 1602Z M1600 (APCH)RNP RWY18L USING RWY 18L DEP FREQ 126.5 258.3 RWY 18R/36L CLSD M 211600Z AUTO 19003KT 9999 NCD 26/25 Q1009/A2982= Q/TWO NINE EIGHT TWO STP\n[Departure ATIS] ROAH DEP ATIS I 0557Z M0530 (APCH)ILS RWY18R LDG RWY 18R DEP RWY 18L DEP FREQ 126.5 258.3 M 120530Z 17022KT 15KM FEW010CU SCT012CU BKN/// 29/26 Q1009/A2980= Q/TWO NINE EIGHT ZERO STP",
    "VVDN": "[Arrival ATIS] VVDN ARR ATIS H 1332Z VVDN INFO H 1332Z. ILS VICTOR APPROACH 35L.. DPTG RWY 35R.. 1332Z. WIND 260/01KT CAVOK T31 DP25 QNH 1009HPA TREND NOSIG. ADZ ON INITIAL CTC YOU HAVE INFO. H.\n[Departure ATIS] VVDN DEP ATIS N 0423Z VVDN INFO N 0423Z. ILS VICTOR APPROACH 35L.. DPTG RWY 35R.. 0423Z. WIND 010/02KT CAVOK T36 DP24 QNH 1008HPA TREND NOSIG. WS ALL RWY. ADZ ON INITIAL CTC YOU HAVE INFO. N.",
    "RCKH": "[Arrival ATIS] RCKH ARR ATIS K 1300Z EXPECT ILS APPROACH RWY 09 ARR/DEP RWY SFC RWY 09 SFC COND 5/5/5 ISSUED AT 1200Z. 100/100/100 NR/NR/NR WET/WET/DRY TAXIWAY JULIETT, TAXIWAY BRAVO, TAXIWAY DELTA AND TAX\n[Departure ATIS] RCKH DEP ATIS V 0752Z EXPECT ILS APPROACH RWY 09 ARR/DEP TAXIWAY JULIETT, TAXIWAY BRAVO, TAXIWAY DELTA AND TAXIWAY ECHO CLOSED DUE MAINTENANCE. RUNWAY 0 9 ARRIVALS PLAN VACATE VIA CHARLIE OR FO",
    "KLAX": "[Arrival ATIS] KLAX ARR ATIS Y 1653Z LAX ATIS INFO Y 1653Z. VRB05KT 9SM FEW019 SCT100 SCT160 BKN250 22/18 A2998 (TWO NINER NINER EIGHT) RMK AO2 SLP149 T02220178. INST APCHS AND RNAV RNP APCHS RY 24R AND 25L, OR VCTR FOR VISUAL APCH WILL BE PROVIDED, SIMUL VISUAL APCHS TO ALL RWYS ARE IN PROG, AND SIMUL APCHS IN PROG BTWN LAX AND HHR, SIMUL INSTR DEPARTURES IN PROG RWYS 24 AND 25. CTC L A GC ON 121.75 FOR PUSH OR TAXI ON A. TWY B CLSD BTN TWY, C10 AND TWY C7 , , TWY B6 CLSD, TWY B7 CLSD, TWY C CLSD BTN TWY, C1 AND TWY C3, TWY C1 CLSD, TWY C9 CLSD BTN TWY, B AND TWY C, TWY C8 CLSD BTN TWY, B AND TWY C. RY 25R SFL OTS, SEAL BEACH VOR OTS. LAX VOR UNMONITORED. HAZD WX INFO FOR LAX AREA AVBL FM FSS. BIRD ACTIVITY VICINITY ARPT. INCLUDE YOUR CALL SIGN IN ALL READBACKS. USE CAUTION WHEN EXITING RY24R AT TWY V, W, AND Y, TO HOLD SHORT OF RY24L. MULTIPLE RUNWAY INCURSIONS HAVE OCCURRED. ...ADVS YOU HAVE INFO Y.\n[Departure ATIS] KLAX DEP ATIS O 0953Z LAX ATIS INFO O 0953Z. 24007KT 10SM CLR 16/14 A2990 (TWO NINER NINER ZERO) RMK AO2 SLP121 T01610139. INST APCHS AND RNAV RNP APCHS 6R, SIMUL INSTR DEPARTURES IN PROG 25R. CTC L A GC ON 121.75 FOR PUSH OR TAXI ON A. TWY C CLSD BTN TWY, C8 AND TWY C9 , , TWY B CLSD BTN TWY, F AND TWY B1, TWY B1 CLSD. ILS RY 25R OTS, RY 25R SFL OTS, RY 24L ALSF-2 OTS. LAX VOR UNMONITORED. IF ASSIGNED RUNWAY 25R FOR DEPARTURE, EXPECT DEPARTURE FROM INTERSECTION FOXTROT. TAXILANE CHARLIE EIGHT RESTRICTED TO AIRCRAFT WITH A WINGSPAN LESS THAN ONE HUNDRED EIGHTEEN FEET. USE CAUTION FOR INCREASED DRONE ACTIVIY IN THE VICINITY OF SOFI STADIUM AT OR BELOW 200FT AGL DURING THE WORLD CUP FROM 06/12/26 THROUGH 07/10/2026. HAZD WX INFO FOR LAX AREA AVBL FM FSS. BIRD ACTIVITY VICINITY ARPT. TWR FREQ FOR ALL RWYS IS 120.95. CD AND GC FREQ IS 121.75. INCLUDE YOUR CALL SIGN IN ALL READBACKS. USE CAUTION WHEN EXITING RY24R AT TWY V, W, AND Y, TO HOLD SHORT OF RY24L. MULTIPLE RUNWAY INCURSIONS HAVE OCCURRED. ...ADVS YOU HAVE INFO O.",
    "KONT": "[Arrival ATIS] KONT ARR ATIS F 0853Z ONT ATIS INFO F 0853Z. 28003KT 6SM HZ CLR 16/11 A2991 (TWO NINER NINER ONE). ILS AND VIS APR IN USE, RY26L & RY26R. LNDG AND DEPG RY 26L AND RY 26R. NOTAMS... TAXIWAY SIERRA CLSD BETWEEN SIERRA 8 AND W TAXIWAY Q SOUTH OF RWY 26L CLSD TAXIWAY T CLSD TAXIWAY SIERRA 5 CLSD. RY 26L IM OTS. PILOTS READBACK RWY ASSIGNMENTS AND HOLD SHORT INSTRUCTIONS. ...ADVS YOU HAVE INFO F.\n[Departure ATIS] KONT DEP ATIS N 0553Z - KONT ATIS INFO N 0553Z. 24004KT 10SM BKN250 22/15 A2988 (TWO NINER EIGHT EIGHT) RMK AO2 SLP100. ILS AND VIS APR IN USE, RY26L & RY26R. LNDG AND DEPG RY 26L AND RY 26R. NOTAMS... TAXIWAY SIERRA CLSD BETWEEN SIERRA 8 AND W TAXIWAY Q SOUTH OF RWY 26L CLSD TAXIWAY T CLSD TAXIWAY SIERRA 5 CLSD. RY 26L IM OTS, RY 26R ALS OTS. USE CAUTION FOR NUMEROUS BIRDS OBSERVED IN VICINITY OF ONT. HAZD WX INFO FOR SOUTHERN CA AVBL ON FSS FREQUENCIES. PILOTS READBACK RWY ASSIGNMENTS AND HOLD SHORT INSTRUCTIONS. ...ADVS YOU HAVE INFO N.",
    "KSFO": "[Arrival ATIS] KSFO ARR ATIS T 1456Z - KSFO ATIS INFO T 1456Z. 21005KT 10SM FEW006 SCT008 OVC010 14/12 A2994 (TWO NINER NINER FOUR). SIMUL CLSLY SPCD DPNDNT ILS RY 28R AND ILS RY 28L APP IN USE. DEPG RWYS 28L, 28R. RY 1L, 1R CLSD. NUMEROUS TWY CLOSURES FOR CONSTRUCTION ON THE FIELD, PILOTS CHECK NOTAMS. DEPG ACFT WAITING ON FINAL NUMBERS ADVISE GROUND PRIOR TO ENTERING TWY F. ...ADVS YOU HAVE INFO T.\n[Departure ATIS] KSFO DEP ATIS T 1456Z SFO ATIS INFO T 1456Z. 00000KT 10SM SCT140 BKN200 18/13 A2991 (TWO NINER NINER ONE) RMK AO2 SLP128 T01780133 53008. SIMUL CLSLY SPCD DPNDNT ILS RY 28R AND ILS RY 28L APP IN USE. DEPG RWYS 28L, 28R. RY 1L, 1R CLSD. NUMEROUS TWY CLOSURES FOR CONSTRUCTION ON THE FIELD, PILOTS CHECK NOTAMS. DEPG ACFT WAITING ON FINAL NUMBERS ADVISE GROUND PRIOR TO ENTERING TWY F. ...ADVS YOU HAVE INFO T.",
    "KOAK": "[Arrival ATIS] KOAK ARR ATIS T 2053Z - KOAK ATIS INFO T 2053Z. 25015KT 10SM FEW008 20/13 A2994 (TWO NINER NINER FOUR). RNAV, AND VA, RWY 30. ILS, AND VA, RWY 28R. FLOW TO LAX, LAS, SAN, SEA. RWY 28L CLSD. TAXIWAYS GOLF, HOTEL, PAPA, JULIET BETWEEN RUNWAYS 28 RIGHT AND 28 LEFT CLOSED. ILS RWY 30, OTS, RWY 28R RAIL, OTS. UNN LIT CLOSE-IN OBSTACLES FOR RWY 30 DEPARTURES. RWY 30 DEPARTURES ARE ADVISED TO AVOID TURNING LEFT PRIOR TO DEPARTURE END OF RUNWAY. CTN, CRANE 1 POINT 6 NAUTICAL MILES, , AT 140 FEET AGL. CAUTION, BIRDS NEAR AIRPORT. ...ADVS YOU HAVE INFO T.\n[Departure ATIS] KOAK DEP ATIS O 1953Z OAK ATIS INFO O 1953Z. 28014KT 10SM FEW005 22/14 A2988 (TWO NINER EIGHT EIGHT). RNAV Z/VA RWY 30 ILS/VA RWY 28R. FLOW TO LAX, LAS, SAN. ILS RWY 30, OTS. UNN LIT CLOSE-IN OBSTACLES FOR RWY 30 DEPARTURES. RWY 30 DEPARTURES ARE ADVISED TO AVOID TURNING LEFT PRIOR TO DEPARTURE END OF RUNWAY. SIGNATURE UNI-COM OUT OF SERVICE. CAUTION, BIRDS NEAR AIRPORT. ...ADVS YOU HAVE INFO O.",
    "KDFW": "[Arrival ATIS] KDFW ARR ATIS B 1453Z DFW ARR INFO B 1453Z. 19016KT 10SM FEW015 FEW250 28/22 A2978 (TWO NINER SEVEN EIGHT) RMK AO2 SLP076 T02830217 58004. SIMUL APCH IN USE. EXPECT ILS TO RWYS, 13R, 18R, 17C, 17L. LDG RWY 17C EXP LAHSO TWY B 10460 FT AVAIL, LDG RWY 18R EXP LAHSO TWY B 10100 FT AVL. NOTICE TO AIRMEN. WARNING, RWY 18L HAS BEEN SHORTENED, 9273 FT AVAILABLE. RWY 18L ILS OTS, CL OTS. BIRD ACTIVITY VCNTY ARPT. ...ADVS YOU HAVE INFO B.\n[Departure ATIS] KDFW DEP ATIS W 1553Z - KDFW DEP INFO W 1553Z. 21022G32KT 10SM FEW025 FEW180 SCT250 31/21 A2994 (TWO NINER NINER FOUR) RMK AO2 PK WND 20032/1547 SLP128 T03110206. SIMUL PARL TRAFFIC DEPG RWYS 17R, 18L. NOTICE TO AIRMEN. WARNING, RWY 18L HAS BEEN SHORTENED, 9273 FT AVAILABLE. RWY 18L CL OTS. BIRD ACTIVITY VCNTY ARPT. ...ADVS YOU HAVE INFO W.",
    "KIAH": "[Arrival ATIS] KIAH ARR ATIS I 1729Z IAH ATIS INFO I 1729Z SPECIAL. 14009KT 1SM +TSRA BR SCT005 BKN020CB OVC030 25/24 A3013 (THREE ZERO ONE THREE) RMK AO2 TS OCNL LTGICCCCG NW-NE-S MOVG E P0049 T02500244. ARRIVALS EXPECT ILS OR RNAV Y RY 8R, ILS OR RNAV Y RY 8L. SIMUL APPROACHES IN USE. DEPG RY 15L, RY 15R. NOTICE TO AIRMEN. UNITED RAMP CONTROL IN EFFECT. CODED DEPARTURE ROUTES IN EFFECT. ALL RWY COND CODES, , 5 , , 5 , , 5 , AT 1652Z. HAZD WX INFO FOR IAH AREA AVBL FM FSS. WIND SHEAR ADZYS IN EFCT. BIRD ACTIVITY VICINITY ARPT. CRANES ARE DOWN. TWY SA CLSD BTN TWY, SF AND TWY SK , TWY SB CLSD BTN TWY, SF AND TWY SK , , TWY EA CLSD. NOTAM ATIS IN USE ON FREQUENCY 126.225. ...ADVS YOU HAVE INFO I.\n[Departure ATIS] KIAH DEP ATIS T 0353Z IAH ATIS INFO T 0353Z. 15007KT 10SM FEW035 FEW180 BKN250 27/23 A2996 (TWO NINER NINER SIX). ARRIVALS EXPECT ILS OR RNAV Y RY 8R, ILS OR RNAV Y RY 8L. DEPG RY 15R. NOTICE TO AIRMEN. UNITED RAMP CONTROL IN EFFECT. RY 15L, 33R CLSD. HAZD WX INFO FOR IAH AREA AVBL FM FSS. BIRD ACTIVITY VICINITY ARPT. CRANES ARE DOWN. TWY SA CLSD BTN TWY, SF AND TWY SK , TWY SB CLSD BTN TWY, SF AND TWY SK , , TWY WB CLSD BTN TWY, WG AND TWY WH . TWY EA CLSD. NOTAM ATIS IN USE ON FREQUENCY 126.225. ...ADVS YOU HAVE INFO T.",
    "KORD": "[Arrival ATIS] KORD ARR ATIS U 1451Z ORD ATIS INFO U 1451Z. 31007KT 10SM FEW090 SCT150 SCT180 BKN300 29/17 A3020 (THREE ZERO TWO ZERO) RMK AO2 SLP220 T02940172 55007. ARR EXP VECTORS ILS RWY 27C APCH, VISUAL APCH RWY 27R, VISUAL APCH RWY 28C. SIMUL APCHS IN USE. LAND AND HOLD SHORT OPERATIONS ARE IN EFFECT. RWY 27C ARR PLAN TO H/S OF TWY V V, 9 THSD 7 HND 25 FT AVBL, RWY 28C ARR PLAN TO H/S OF TWY Z, 9 THSD 6 HND TEN FT AVBL. DEPS EXP RWYS 22L 28R FROM NOVEMBER 5 9750 FT AVL. RWY 4L, 22R CLSD. RWY 22R LOC OTS, RWY 28L GS OTS, RWY 9L IM OTS, RWY 9C IM OTS, RWY 10L IM OTS, RWY 10R IM OTS, RWY 27R IM OTS, RWY 28L IM OTS, RWY 28R IM OTS, RWY 9L PAPI OTS, RWY 27R PAPI OTS. PILOTS USE CTN FOR BIRD ACTIVITY IN THE VICINITY OF THE ARPT. USE CTN FOR PERSONNEL AND EQUIP AT NUMEROUS SITES ON THE FIELD. AUTHORIZED DRONE ACTIVITY, AUTH DRONE .5 MI SOUTHEAST OF RWY 27R AT OR BELOW 140FT AGL. READBACK ALL RWY HOLD SHORT INSTRUCTIONS. WHEN READY TO TAXI CONTACT GND METERING ON FREQ 121.67. ...ADVS YOU HAVE INFO U.\n[Departure ATIS] KORD DEP ATIS L 0951Z ORD ATIS INFO L 0951Z. 24003KT 10SM FEW300 21/16 A3019 (THREE ZERO ONE NINER) RMK AO2 SLP217 T02060156. ARR EXP VECTORS ILS RWY 27C APCH, ILS RWY 28C APCH. SIMUL APCHS IN USE. LAND AND HOLD SHORT OPERATIONS ARE IN EFFECT. RWY 27C ARR PLAN TO H/S OF TWY V V, 9 THSD 7 HND 25 FT AVBL, RWY 28C ARR PLAN TO H/S OF TWY Z, 9 THSD 6 HND TEN FT AVBL. DEPS EXP RWYS 22L 27L FROM T T 9960 FT AVL. RWY 4L, 22R CLSD, RWY 10L, 28R CLSD. RWY 22R LOC OTS, RWY 28L GS OTS, RWY 9L IM OTS, RWY 9C IM OTS, RWY 10L IM OTS, RWY 10R IM OTS, RWY 27R IM OTS, RWY 28L IM OTS, RWY 28R IM OTS, RWY 9L PAPI OTS, RWY 27R PAPI OTS. PILOTS USE CTN FOR BIRD ACTIVITY IN THE VICINITY OF THE ARPT. USE CTN FOR PERSONNEL AND EQUIP AT NUMEROUS SITES ON THE FIELD. READBACK ALL RWY HOLD SHORT INSTRUCTIONS. FOR CD GND METERING AND GC CONTACT ORD ON FREQ 121.9. ...ADVS YOU HAVE INFO L.",
    "KJFK": "[Arrival ATIS] KJFK ARR ATIS W 1551Z JFK ATIS INFO W 1551Z. 23008KT 10SM BKN065 BKN130 BKN250 25/11 A2987 (TWO NINER EIGHT SEVEN). APPROACH IN USE ILS RY 31R, VISUAL APCH RY 31L. DEPG RY 31L. RY 31L PAPI OTS, RWY 22L/4R INNER MARKER OTS. NUM CRANES OPERATING AT JFK. BIRD ACTIVITY VICINITY ARPT. READBACK ALL RWY ASSIGNMENTS AND HOLD SHORT INSTRUCTIONS. ...ADVS YOU HAVE INFO W.\n[Departure ATIS] KJFK DEP ATIS J 0151Z - KJFK ATIS INFO J 0151Z. 21006KT 10SM FEW250 22/18 A3021 (THREE ZERO TWO ONE) RMK AO2 SLP229 T02220183. APPROACH IN USE ILS RY 22L, ILS RY 22R. DEPG RY 22R, ACFT FILED OVER RBV OR DIXIE EXPECT RY 31L KE FOR DEP. RY 4R PAPI OTS. NUM CRANES OPERATING AT JFK. BIRD ACTIVITY VICINITY ARPT. READBACK ALL RWY ASSIGNMENTS AND HOLD SHORT INSTRUCTIONS. ...ADVS YOU HAVE INFO J.",
    "KIND": "[Arrival ATIS] KIND ARR ATIS C 2354Z IND ATIS INFO C 2354Z. 05012KT 10SM FEW055 29/16 A3010 (THREE ZERO ONE ZERO). PARL ILS RWY 5R AND 5L APPROACHES IN USE. CROSS RUNWAY OPERATIONS MAY BE IN EFFECT. NOTICE TO AIRMEN. TWY, P BTN TWY, H AND TWY B CLSD, TWY, P BTN TWY, H AND TWY J CLSD, TWY, H BTN TWY, R AND TWY N CLSD. P PAD CLSD. ILS RUNWAY 5R AND RUNWAY 5L INNER MARKER UNSERVICEABLE. ARPT ADZY FLOCK OF MEDIUM BIRDS IN THE VICINITY OF THE AIRPORT, ALT UNKN. ...ADVS YOU HAVE INFO C.\n[Departure ATIS] KIND DEP ATIS H 1854Z IND ATIS INFO H 1854Z. 26009G19KT 10SM SCT036 BKN041 BKN170 23/16 A2981 (TWO NINER EIGHT ONE) RMK AO2 SLP088 T02280156. PARL ILS RWY 23R AND 23L APPROACHES IN USE. CROSS RU",
    "KDTW": "[Arrival ATIS] KDTW ARR ATIS L 1653Z - KDTW ARR INFO L 1653Z. VRB04KT 10SM BKN250 29/17 A3019 (THREE ZERO ONE NINER) RMK AO2 SLP221 T02940167. SIMUL VISUAL RY 21L, RY 22R USE Z LOC FREQ 111.95 APCH IN USE. NOTICE TO AIRMEN. RWY 21R, 3L CLSD, RWY 27L, 9R CLSD, RWY 27R, 9L CLSD. TWYS Y1 CLSD ;. RWSL OTS. PILOTS USE CTN FOR BIRD ACTIVITY. DEPARTURE ATIS 118.125. ...ADVS YOU HAVE INFO L.\n[Departure ATIS] KDTW DEP ATIS Q 2253Z - KDTW DEP INFO Q 2253Z. 21009KT 10SM FEW050 FEW250 33/24 A2991 (TWO NINER NINER ONE). DEPG RWY 21R, RWY 22L ;. NOTICE TO AIRMEN. RWY 27L, 9R CLSD, RWY 27R, 9L CLSD. PILOTS USE CTN FOR BIRD ACTIVITY. ...ADVS YOU HAVE INFO Q.",
    "KMSP": "[Arrival ATIS] KMSP ARR ATIS L 1553Z MSP ARR INFO L 1553Z. 26011G17KT 10SM CLR 29/19 A3018 (THREE ZERO ONE EIGHT) RMK AO2 SLP212 T02940194. VISUAL RWY 30L APCH IN USE, VISUAL RWY 30R APCH IN USE. LAHSO, ACFT LNDG RWY 30L EXP TO HLDSHRT TWY A9 FOR CRSSGTFC, 8 THSD 1 HND FIFTY FT AVBL. NOTICE TO AIRMEN. RWYS 4, 22 CLSD. TWY R7. R8. R9. R10. CLOSED. TWY R BTWN R6 AND R10 CLSD, TWY A7 CLSD, TWY A CLSD BTN TWY, A7 AND TWY D. GS RWY 12L OTS, RWYS 12R, 12L, INNER MARKER OTS. CTN, BIRDS NEAR MSP. READ BACK HS AND ALT. ALL ACFT TAXI WITH TRANSPONDER AND ALTITUDE ENCODING ON. AUTHORIZED UAS ACTIVITY BETWEEN RUNWAYS 30L AND 30R OVER TERMINAL 1 AT OR BELOW 200 FEET A G L. ...ADVS YOU HAVE INFO L.\n[Departure ATIS] KMSP DEP ATIS Y 1553Z - KMSP DEP INFO Y 1553Z. 26011G17KT 10SM CLR 29/19 A3018 (THREE ZERO ONE EIGHT) RMK AO2 SLP212 T02940194. DEPARTING RWY 30L, RWY 30R, RWY 17. NOTICE TO AIRMEN. RWYS 4, 22 CLSD. TWY R7. R8. R9. R10. CLOSED. TWY R BTWN R6 AND R10 CLSD, TWY A7 CLSD, TWY A CLSD BTN TWY, A7 AND TWY D. ALL ACFT CTC METERING ON ONE THREE THREE POINT FIVE SEVEN WHEN READY TO PUSHBACK OR TAXI. CTN, BIRDS NEAR MSP. READ BACK HS AND ALT. ALL ACFT TAXI WITH TRANSPONDER AND ALTITUDE ENCODING ON. AUTHORIZED UAS ACTIVITY BETWEEN RUNWAYS 30L AND 30R OVER TERMINAL 1 AT OR BELOW 200 FEET A G L. ...ADVS YOU HAVE INFO Y.",
    "CYEG": "[Arrival ATIS] CYEG ARR ATIS E 1700Z CYEG ARR ATIS E 1700Z 05005KT 350V110 20SM FEW066 FEW089 FEW250 19/05 A3008 APCH RNAV Z OR Y RWY 02, INFORM ARRL OF REQ APCH ON INITIAL CTC. LDG AND DEP RWY 02. SIMUL APPROACHES MAY BE IN EFCT. INFORM CYEG ATC INFO E\n[Departure ATIS] CYEG DEP ATIS E 1700Z CYEG ARR ATIS E 1700Z 05005KT 350V110 20SM FEW066 FEW089 FEW250 19/05 A3008 APCH RNAV Z OR Y RWY 02, INFORM ARRL OF REQ APCH ON INITIAL CTC. LDG AND DEP RWY 02. SIMUL APPROACHES MAY BE IN EFCT. INFORM CYEG ATC INFO E",
    "EHAM": "[Arrival ATIS] EHAM ARR ATIS B 1304Z EHAM ARRIVAL INFO B. DEMAND. MAIN LANDING RWY 06. SECONDARY LANDING RWY 36 R. TRANSITION LEVEL 040. WIND 050 DEG, 10 KT, VRB BTN 010 AND 080 DEG, 16 KT MAX, 7 KT MNM. WIND SECONDARY RUNWAY 030 DEG, 10 KT, VRB BTN 360 AND 060 DEG, 16 KT MAX, 8 KT MNM. CAVOK. T 25. DP 14. QNH 1019 HPA. NOSIG. OPERATIONAL REPORT. CONVERGING APPROACHES IN PROGRESS. CONTACT APCH WITH CALLSIGN ONLY. END OF INFO B\n[Departure ATIS] EHAM DEP ATIS Z 1650Z EHAM DEPARTURE INFO Z. DEMAND. MAIN DEPARTURE RWY 36 L. MAIN LANDING RWY 06. WIND 040 DEG, 6 KT, VRB BTN 340 AND 080 DEG, 11 KT MAX, 4 KT MNM. CAVOK. T 24. DP 15. QNH 1019 HPA. OPERATIONAL REPORT. INFORM SCHIPHOL DEL BY VOICE IF UNABLE TO COMPLY WITH NADP 2. END OF INFO Z",
    "EBBR": "[Arrival ATIS] EBBR ARR ATIS T 1320Z EBBR NAT, EXP VECT FOR ILS APP ARR RWY01 RSCD AT 1030 RWY01 DRY. DEP RWY07R TRL 055 XNG RWY OPS INPR 030/9KT MNM5 MAX14 CAVOK T27 DP14 QNH 1017HPA NOSIG CFM ARR T\n[Departure ATIS] EBBR DEP ATIS X 0754Z EBBR NAT, DEP RWY25R RSCD AT 0531 RWY25R WET, RWYCC 555. ARR RWY25L TRL 055 TAIL REP AT 0745, ALT 1000FT, 120 DEG/08 KT 040/4KT VRB BTN 360 AND 060 CAVOK T23 DP20 QNH 1024HPA NOSIG CFM DEP X",
    "EDDF": "[Arrival ATIS] EDDF ARR ATIS K 1250Z ARR-ATIS EDDF K METAR 101250 EXPECT INDEPENDENT PARALLEL ILS Y APCH RWY 07L OR ILS APCH RWY 07R RWY 07L 07R GLS APCH ON REQUEST , TRL 60 ATTN: BIRDS IN THE VICINITY OF THE RUNWAYS 06007KT 020V170 CAVOK T30 DP11 QNH1015 TREND NOSIG END OF ATIS K\n[Departure ATIS] EDDF DEP ATIS I 1550Z -DEP-ATIS EDDF I METAR 211550 - -RWY 25C 18 -ALL DEPARTING ACFT VIA OBOKA , MARUN AND TOBAK EXPECT SID WITH DESIGNATOR F OR G , -TRL 60 - -29006KT 260V320 RWY18 VRB02KT -9999 - -VCSH FEW///CB -T34 DP15 -QNH1022 - -TREND NOSIG",
    "EDDL": "[Arrival ATIS] EDDL ARR ATIS S EDDL ARR/DEP DATIS RPT -ATIS EDDL S METAR 131050 -EXPECT VECTORS ILS APPROACH RWY 05L -RWY 05R 05L -TWY L2 , L4 AND L5 BTN TWY M AND RWY05R CLOSED ATTENTION, RISK OF TWY INCURSION WHEN TAXIING TO RWY05R, CHECK HOT SPOTS T1 AND L9 ON TAXI CHART -TRL 60 - -03008KT 350V080 -CAVOK - - -T29 DP14 -QNH1019 - -TREND NOSIG\n[Departure ATIS] EDDL DEP ATIS R EDDL ARR/DEP DATIS RPT -ATIS EDDL R METAR 020550 -EXPECT VECTORS ILS APPROACH -RWY 23L -TWY L8 CLOSED BETWEEN TWY M AND RWY 23L -TRL 60 - -23010KT -CAVOK - - -T19 DP13 -QNH1020 - -TREND NOSIG",
    "EDDK": "[Arrival ATIS] EDDK ARR ATIS U EDDK ARR/DEP DATIS RPT -ATIS EDDK U METAR 101120 -EXPECT ILS APCH -RWY 31R -RWY COND RWY 31R AT TIME 0640 RWYCC 6 DEPOSIT TOTAL RWY DRY RWY 06 AND RWY 24 AVAILABLE FOR DEPARTURES -TRL 60 -RWY 13R AND RWY 31L CLOSED FOR DEPARTURE AND LANDING: TAXIING BTN THR RWY 13R AND INTERSECTION RWY 24 POSSIBLE : -VRB06KT -CAVOK - - -T28 DP13 -QNH1017 - -TREND NOSIG\n[Departure ATIS] EDDK DEP ATIS Q EDDK ARR/DEP DATIS RPT -ATIS EDDK Q METAR 291920 -EXPECT ILS APCH -RWY 31R 06 -RWY COND RWY 31R AT TIME 1830 RWYCC 6 DEPOSIT TOTAL RWY DRY RWY 06 AT TIME 1830 RWYCC 6 DEPOSIT TOTAL RWY DRY -TRL 60 -RWY 13R AND RWY 31L CLOSED FOR DEPARTURE AND LANDING: TAXIING BTN THR RWY 13R AND INTERSECTION RWY 24 POSSIBLE : -04003KT -CAVOK - - -T24 DP13 -QNH1024 - -TREND NOSIG",
    "EBLG": "[Arrival ATIS] EBLG ATIS T 1250Z EBLG INFO, ARR RWY04R DEP RWY04R RWY 04R DRY, RWYCC 666. TRL 055 ADZ ON GND FREQ IF UNABLE S2 050/11KT MNM7 MAX18 CAVOK T28 DP12 QNH 1017HPA NOSIG CFM ATIS T",
    "LSZH": "[Arrival ATIS] LSZH ARR ATIS J 1320Z ARRIVALS, EXP ILS APCH, RWY 14. TRL 70. DEP RWY 10. DEPENDENT OPS ON CONVERGING RWY. WIND 090 DEG, 8 KT, VRB BTN 050 AND 140 DEG. CAVOK. T 31. DP 14. QNH 1014. NOSIG.\n[Departure ATIS] LSZH DEP ATIS T 1150Z DEP RWY 28. TRL 70. ARRIVALS, EXP ILS APCH, RWY 14. TMA S 1 IS NOT ACT. TMA S 2 AND S 3 ARE NOT ACT. WIND VRB, 3 KT. CAVOK. T 30. DP 12. QNH 1018. NOSIG.",
    "LIMC": "[Arrival ATIS] LIMC ARR ATIS H 1320Z LIMC ARR H 1320Z I.L.S. ZULU RWY IN USE 35R TL 70 WIND TDZ 160/8KT VRB BTN 140/AND 260/ CAVOK T33 DP12 QNH 1013HPA QFE 0988HPA\n[Departure ATIS] LIMC DEP ATIS V 1305Z LIMC DEP V 1305Z RWY IN USE 35R TL 70 WIND END 230/8KT VRB BTN 180/AND 320/ CAVOK T32 DP18 QNH 1018HPA QFE 0992HPA WIND SHEAR AT 1200 FT . RWY 35R DATALINK CLEARANCE AVAILABLE.... CONTACT 1 3 1 8 8 0 TO BE RELEASED BY THE AIRPORT OPERATOR ...",
    "LIRF": "[Arrival ATIS] LIRF ARR ATIS P 1550Z LIRF ARR P 1550Z RWY 16L ILS W RWY 16R ILS Z RWY IN USE 16L 16R TL 70 DEPENDENT PARL ILS APCH INPR RWY IN USE 16R OR 16L ASSIGNED BY ROME RADAR WIND RWY 16L TDZ 240/8KT VRB BTN 210/AND 280/ RWY 16R TDZ 250/8KT CAVOK T30 DP23 QNH 1016HPA\n[Departure ATIS] LIRF DEP ATIS F 0210Z LIRF DEP F 0210Z RWY IN USE 25 TL 70 WIND END 020/5KT CAVOK T21 DP20 QNH 1015HPA REA IS SENT AUTOMATICALLY ONCE RLSD BY RAMP WHEN READY CONTACT FIUME RAMP 121.725",
    "EINN": "[Arrival ATIS] EINN ARR ATIS R 1730Z EXPECT I L S CATEGORY 1 LDG RWY06 TKOF RWY06 TRL FL060 05012KT CAVOK 24/13 QNH Q1021 TREND NOSIG ADVISE AT FIRST CONTACT YOU HAVE ATIS INFO R",
    "EGLL": "[Arrival ATIS] EGLL ARR ATIS I 1150Z LANDING RWY 09L TRANSITION-LEVEL: FL 70 RUNWAY 09L REDUCED DECLARED DISTANCES IF STAND GUIDANCE IS OFF OR FAILS, REMAIN ON THE TAXIWAY CENTRELINE AND ADVISE ATC AUTO 05016KT 010V070 9999 NCD 24/12 Q1022 TURBULENCE POSSIBLE ON FINAL APPROACH ACKNOWLEDGE RECEIPT OF INFORMATION I\n[Departure ATIS] EGLL DEP ATIS I 1550Z DEPARTURE RWY 09R PILOTS THAT ARE IN RECEIPT OF DATALINK CLEARANCES ARE REMINDED THEY MUST CONTACT DELIVERY ON 121.980 WHEN READY FOR START DATALINK CLEARANCES NOT AVAILABLE FOR CPT DEPARTURES DET VOR OOS AUTO 10004KT 040V150 9999 NCD 29/17 Q1024 ACKNOWLEDGE RECEIPT OF INFORMATION I AND REPORT AIRCRAFT TYPE AND CURRENT QNH ON FIRST CONTACT WITH HEATHROW",
    "EPWA": "[Arrival ATIS] EPWA ARR ATIS L 1121Z EPWA ARR L. TIME 1121. EXP U ARR ILS Z APCH FOR RWY 33. RWY 33 RCC 5, 5, 5. 1ST PART, WET. 2ND PART, WET. 3RD PART, WET. RWY REPORT END. TRANSITION LEVEL 80. WIND 310 DEG, 12 KT, VRB BTN 260 AND 340 DEG. VIS TDZ 10 KM OR MORE. WX FBL SHRA. CLD SCT CB 2600 FT. T 19. DP 12. QNH 1011. TREND TEMPO VIS 4000 M, MOD SHRA, CLD BKN CB 3000 FT. MOD ICING REPORTED BTW FL 135 AND FL 150 CAUTION. BIRD ACT. END OF EPWA ARR L\n[Departure ATIS] EPWA DEP ATIS Y 1434Z EPWA DEP Y. TIME 1434. DEP RWY 29. ARR RWY 33, EXP U ARR ILS Z. REPORT READY FOR STARTUP ON DELIVERY 121 DECIMAL 605. RWY 29 RCC 6, 6, 6. 1ST PART, DRY. 2ND PART, DRY. 3RD PART, DRY. RWY REPORT END. TRANSITION LEVEL 80. WIND 300 DEG, 7 KT, VRB BTN 250 AND 330 DEG. VIS MID 10 KM OR MORE. CLD SCT 3000 FT. T 26. DP 20. QNH 1017. NOSIG. CAUTION. BIRD ACT. END OF EPWA DEP Y",
    "EFHK": "[Arrival ATIS] EFHK ARR ATIS M 1520Z EXPECT ILS APCH ARR RWY 22L RUNWAY 22L CONDITION REPORT AT 1044 UTC RUNWAY CONDITION CODES 6 , 6 , 6 CONTAMINANTS ALL PARTS DRY TRL 60 WIND 300 DEG 10 KT VRB BTN 270 AND 330 DEG CAVOK T 26 DP 14 QNH 1016 NOSIG ACK INFO M\n[Departure ATIS] EFHK DEP ATIS N 0850Z DEP RWYS 22R AND 22L RUNWAY 22R CONDITION REPORT AT 0550 UTC RUNWAY CONDITION CODES 6 , 6 , 6 C ONTAMINANTS ALL PARTS DRY RUNWAY 22L CONDITION REPORT AT 0543 UTC RUNWAY CONDITION CODES 6 , 6 , 6 C ONTAMINANTS ALL PARTS DRY WIND 260 DEG 11 KT VIS 10KM FEW 3000 FT T 25 DP 17 QNH 1017 NOSIG ACK INFO N",
    "LTAC": "[Arrival ATIS] LTAC ARR ATIS B 1550Z EXP ILS V APCH 03C DEP RWY 03L RWY 03C WIND 070 DEG 11 KT RWY 03L WIND 070 DEG 11 KT TRL 110 VIS 9999 FEW04000 FT T 25 DP 08 QNH 1020 NOSIG FOR DELIVERY CTC 121.9. FOR DELIVERY FIRST USE DIGITAL DEP CLR. CTN BIRD HAZARD OVR AERODROME. APCH FREQUENCY 129.050. TAXIWAY ECHO 1 IS CLOSED. END OF ATIS B",
    "UBBB": "[Arrival ATIS] UBBB ARR ATIS G 1530Z ATIS G EXP ILS/ LDG 34 35 DEP 34 35 IN USE RWY 34 CLEAR DRY 70 RWY 35 CLEAR DRY 70 TLVL 110 WIND WIND RWY 34 340 12 KT SPD MAX 16 MIN 10 WIND RWY 35 330 12 KT SPD MAX 16 MIN 10 VIS CAVOK T 27 / DP 21 QNH 1007 HPA TREND TREND NOSIG MODERATE BIRDS ACT IN VICINITY OF AP END OF ATIS G\n[Departure ATIS] UBBB DEP ATIS G 1530Z ATIS G EXP ILS/ LDG 34 35 DEP 34 35 IN USE RWY 34 CLEAR DRY 70 RWY 35 CLEAR DRY 70 TLVL 110 WIND WIND RWY 34 340 12 KT SPD MAX 16 MIN 10 WIND RWY 35 330 12 KT SPD MAX 16 MIN 10 VIS CAVOK T 27 / DP 21 QNH 1007 HPA TREND TREND NOSIG MODERATE BIRDS ACT IN VICINITY OF AP END OF ATIS G",
    "ZWWW": "[Arrival ATIS] ZWWW ARR ATIS O 1600Z EXP ILSDME Z APCH LDG RWY 26R TA 3000 WIND 230/3MPS CAVOK T 32 /DP 06 QNH 1005 HPA BIRDS ACTIVITY IN THE VICINITY OF THE AERODROME ADZ YOU HAVE INFO O.\n[Departure ATIS] ZWWW DEP ATIS B 1230Z DEP RWY 26L TA 3000 WIND 310/3MPS CAVOK T 34 /DP 09 QNH 1006 HPA ADZ YOU HAVE INFO B.",
    "ZLXY": "[Arrival ATIS] ZLXY ARR ATIS D 1500Z EXP ILS APCH LDG RWY 05L & 06R WIND 030/3MPS VIS 4500M -RA BR CLD FEW 150M /SCT 300M /OVC 900M T 19 /DP 19 QNH 1012 HPA RUNWAY 05L SURFACE CONDITION CODE 555 RUNWAY 06L SURFACE CONDITION CODE 555 RUNWAY 06R SURFACE CONDITION CODE 555 ADZ YOU HAVE INFO D.\n[Departure ATIS] ZLXY DEP ATIS Z 1100Z DEP RWY 05L & 06L WIND 040/3MPS VRB BTN 010/ AND 070/ VIS 4500M -RA BR CLD SCT 240M /SCT 600M /OVC 1200M T 19 /DP 18 QNH 1011 HPA RUNWAY 05L SURFACE CONDITION CODE 555 RUNWAY 06L SURFACE CONDITION CODE 555 RUNWAY 06R SURFACE CONDITION CODE 555 ADZ YOU HAVE INFO Z.",
    "ZBAA": "[Arrival ATIS] ZBAA ARR ATIS K 1600Z EXP ILS APCH DEPENDENT PARL INSTR APCH LDG RWY 36L & 36R & 01 WIND 150 DEG 2 MPS 120V180 DEG CAVOK T 21 /DP 14 QNH 1009 HPA VISUAL APPROACH IS IN PROGRESS. ADZ YOU HAVE INFO K.\n[Departure ATIS] ZBAA DEP ATIS J 1530Z DEP RWY 36L & 36R & 01 WIND 170 DEG 2 MPS CAVOK T 21 /DP 14 QNH 1009 HPA RWY INDEPENDENT PARALLEL DEP VISUAL APPROACH IS IN PROGRESS. ADZ YOU HAVE INFO J.",
    "ZBHH": "[Arrival ATIS] ZBHH ARR ATIS M 1500Z EXP ILSDME APCH LDG RWY 08 TA 3000 /TRL 3600 WIND 210/2MPS VRB BTN 160/ AND 270/ VIS 9999M CLD FEW 1200M T 18 /DP 08 QNH 1009 HPA ADZ YOU HAVE INFO M.\n[Departure ATIS] ZBHH DEP ATIS Q 1500Z DEP RWY 08 TA 3000 /TRL 3600 WIND 140/2MPS VIS 5000M BR NSC T 19 /DP 19 QNH 1007 HPA ADZ YOU HAVE INFO Q.",
    "ZSQD": "[Arrival ATIS] ZSQD ARR ATIS S 1600Z EXP ILSDME APCH LDG RWY 34 TA 3000 /TRL 3600 WIND 070/2MPS CAVOK T 23 /DP 17 QNH 1009 HPA VISUAL APPROACH OPERATION IN PROGRESS. WHEN READY CONTACT QINGDAO TOWER ON 118.7 RUNWAY 34,IF MISSED APPROACH,EXPECT FOLLOW THE STANDARD MISSED APPROACH PROCEDURE,CLIMB TO 900M ON QNH OR BY ATC CAUTION MAYBE THERE IS A FLOCK OF BIRDS IN THE VICINITY OF AIRPORT ADZ YOU HAVE INFO S.\n[Departure ATIS] ZSQD DEP ATIS D 1501Z DEP RWY 16 TA 3000 /TRL 3600 WIND 150/6MPS VIS 9999M CLD BKN 270M /OVC 600M T 26 /DP 26 QNH 997 HPA VISUAL APPROACH OPERATION IN PROGRESS. WHEN READY CONTACT QINGDAO TOWER ON 118.7 RUNWAY 16,IF MISSED APPROACH,EXPECT FOLLOW THE STANDARD MISSED APPROACH PROCEDURE,CLIMB TO 600M ON QNH OR BY ATC CAUTION MAYBE THERE IS A FLOCK OF BIRDS IN THE VICINITY OF AIRPORT RWY 16 RWYCC 5/5/5 ISSUED AT 1342UTC WET/WET/WET DPT NR/NR/NR COV 100PCT/100PCT/100PCT ADZ YOU HAVE INFO D."
  },
  "windtemp_alaska": "\n000\nFBAK31 KWNO 131359\nFD1AK1\nDATA BASED ON 131200Z    \nVALID 131800Z   FOR USE 1400-2100Z. TEMPS NEG ABV 24000\n\nFT  3000    6000    9000   12000   18000   24000  30000  34000  39000\nADK 2506 3206+05 3309+00 3208-04 2313-14 2518-25 311941 311651 231549\nADQ 1907 2211+02 2516-01 2721-04 2848-13 2875-23 289238 780347 289156\nAKN 1918 2020-01 2120-01 2424-05 2649-16 2678-25 269439 761447 269254\nANC 1611 1718+01 1917-04 1821-10 2319-21 2739-30 287443 276647 263846\nANN 3306 3010+02 3211-01 3309-06 0312-18 0423-31 053647 052853 361145\nBET 2019 2017-01 2019-04 2222-09 2447-22 2580-28 750341 259147 256045\nBRW 2307 2009+02 1913-03 1814-08 1622-20 1532-31 154147 164651 172146\nBTI 9900 9900+06 2011+00 2016-05 2025-17 2028-29 213944 193753 192555\nBTT 2215 2221+01 2220-04 2024-09 1728-22 1636-33 165746 164748 172344\nCDB 2018 2535+09 2443+05 2449-01 2452-12 2563-22 257637 248246 248756\nCZF 2319 2324+00 2222-06 2320-11 2514-24 2408-34 253541 254242 243542\nEHM 1916 1916+01 2321-01 2325-05 2448-17 2572-26 259140 751647 258653\nFAI 2108 2020+02 2124-04 2025-10 1726-22 1737-33 165947 164247 202445\nFYU 2620 2014+05 1822-01 1731-07 1736-19 1743-30 164945 164753 172750\nGAL 2025 2125-01 2227-05 2126-11 2024-23 1921-34 182147 202044 211841\nGKN 1622 1924+02 1919-04 1920-09 1821-22 1827-33 183145 222345 242445\nHOM 2110 1909+00 2013-04 2414-08 2735-16 2759-27 288741 780449 277651\nJNU 2505 2707+00 3208+01 9900-04 9900-16 9900-29 990046 110755 310751\nLUR 1209 1218+00 1323-05 1425-10 1318-23 1219-35 091848 111645 131341\nMCG 2125 2120-01 2117-04 2017-10 2122-24 2328-34 243844 254144 243042\nMDO 1710 1809+01 1911-04 2011-08 2626-17 2949-27 297342 297249 284749\nOME 2115 1813-02 1813-06 2013-10 1807-21 9900-33 300548 241044 221540\nORT      2510+05 2010-01 1920-07 1634-19 1642-31 164746 164552 212247\nOTZ 1318 1418-02 1516-08 1417-12 1207-23 9900-35 990045 161142 181540\nSNP 0305 9900+01 2313-03 2322-05 2440-16 2358-27 237741 229748 236950\nTKA 1815 1915+00 2017-05 1921-10 2117-22 2221-33 274644 264345 252944\nUNK 2021 2229-01 2329-06 2227-11 2021-24 1714-35 201045 232042 232341\nYAK 9900 2307+00 2511-01 2214-06 1926-17 1930-29 183445 192852 262349\nIKO 2223 2241+10 2241+05 2247+00 2152-12 2274-22 218738 219448 208255\nAFM 1517 1622+00 1625-06 1627-12 1533-23 1438-35 153945 172542 182042\n5AB 0216 3415+04 3219+02 3223-01 3136-13 3143-24 325839 326549 326156\n5AC 1109 0911+02 1011-01 0607-04 0315-19 0427-33 012647 363247 331845\n5AD 2308 2310+04 2712+00 3016-02 3231-12 3249-23 338038 338948 318457\n5AE 2118 2316+06 2423+04 2748+00 2651-10 2748-22 276936 277846 277957\n5AF 9900 2707+03 2607-01 2405-04 9900-16 9900-29 990045 341853 333451\n5AG 1815 2012+03 2015-01 1918-07 2321-16 2827-27 306142 306851 304951\n",
  "vaac_tokyo": [
    {
      "id": "20260713_27303000_0734",
      "year": "2026",
      "volcano": "Mayon",
      "psn": "N1315 E12341",
      "issued": "20260713",
      "text": "FVFE01 RJTD 131619\nVA ADVISORY\nDTG: 20260713/1619Z\nVAAC: TOKYO\nVOLCANO: MAYON 273030\nPSN: N1315 E12341\nAREA: PHILIPPINES\nSOURCE ELEV: 2462M AMSL\nADVISORY NR: 2026/734\nINFO SOURCE: HIMAWARI-9 PHIVOLCS\nERUPTION DETAILS: ERUPTION AT 20260713/1201Z FL120 EXTD NE REPORTED\nOBS VA DTG: 13/1600Z\nOBS VA CLD: VA NOT IDENTIFIABLE FM SATELLITE DATA WIND FL120 030/2KT\nFCST VA CLD +6 HR: NOT AVBL\nFCST VA CLD +12 HR: NOT AVBL\nFCST VA CLD +18 HR: NOT AVBL\nRMK: WE WILL ISSUE FURTHER ADVISORY IF VA IS DETECTED IN SATELLITE \nIMAGERY.\nNXT ADVISORY: NO FURTHER ADVISORIES=",
      "img_url": "https://ds.data.jma.go.jp/svd/vaac/data/VAGFN/2026/Images/20260713_27303000_0734_QH21_01.png",
      "sat_img_url": null,
      "text_url": "https://ds.data.jma.go.jp/svd/vaac/data/TextData/2026/20260713_27303000_0734_Text.html"
    },
    {
      "id": "20260713_28208001_0083",
      "year": "2026",
      "volcano": null,
      "psn": "N3136 E13039",
      "issued": "20260713",
      "text": "FVFE01 RJTD 130254\nVA ADVISORY\nDTG: 20260713/0254Z\nVAAC: TOKYO\nVOLCANO: SAKURAJIMA (AIRA CALDERA) 282080\nPSN: N3136 E13039\nAREA: JAPAN\nSOURCE ELEV: 1117M AMSL\nADVISORY NR: 2026/83\nINFO SOURCE: JMA HIMAWARI-9\nERUPTION DETAILS: ERUPTED AT 20260713/0152Z FL100 EXTD N\nOBS VA DTG: 13/0230Z\nOBS VA CLD: SFC/FL100 N3136 E13039 - N3142 E13040 - N3141 E13044 - \nN3134 E13042 MOV NE 15KT\nFCST VA CLD +6 HR: 13/0830Z SFC/FL100 N3234 E13121 - N3145 E13155 - \nN3202 E13110 - N3227 E13051\nFCST VA CLD +12 HR: 13/1430Z SFC/FL100 N3318 E13206 - N3142 E13317 - \nN3134 E13226 - N3312 E13118\nFCST VA CLD +18 HR: NO VA EXP\nRMK: NIL\nNXT ADVISORY: 20260713/0600Z=",
      "img_url": "https://ds.data.jma.go.jp/svd/vaac/data/VAGFN/2026/Images/20260713_28208001_0083_QH21_01.png",
      "sat_img_url": "https://ds.data.jma.go.jp/svd/vaac/data/Sat/2026/Images/28208001/09-ir/20260713_0230_202607130254_ir.png",
      "text_url": "https://ds.data.jma.go.jp/svd/vaac/data/TextData/2026/20260713_28208001_0083_Text.html"
    },
    {
      "id": "20260712_27307000_0012",
      "year": "2026",
      "volcano": "Taal",
      "psn": "N1400 E12100",
      "issued": "20260712",
      "text": "FVFE01 RJTD 121243\nVA ADVISORY\nDTG: 20260712/1243Z\nVAAC: TOKYO\nVOLCANO: TAAL 273070\nPSN: N1400 E12100\nAREA: PHILIPPINES\nSOURCE ELEV: 311M AMSL\nADVISORY NR: 2026/12\nINFO SOURCE: HIMAWARI-9 PHIVOLCS\nERUPTION DETAILS: ERUPTION AT 20260712/1227Z FL050 EXTD NE REPORTED\nOBS VA DTG: 12/1230Z\nOBS VA CLD: VA NOT IDENTIFIABLE FM SATELLITE DATA WIND FL050 230/19KT\nFCST VA CLD +6 HR: NOT AVBL\nFCST VA CLD +12 HR: NOT AVBL\nFCST VA CLD +18 HR: NOT AVBL\nRMK: WE WILL ISSUE FURTHER ADVISORY IF VA IS DETECTED IN SATELLITE \nIMAGERY.\nNXT ADVISORY: NO FURTHER ADVISORIES=",
      "img_url": "https://ds.data.jma.go.jp/svd/vaac/data/VAGFN/2026/Images/20260712_27307000_0012_QH21_01.png",
      "sat_img_url": null,
      "text_url": "https://ds.data.jma.go.jp/svd/vaac/data/TextData/2026/20260712_27307000_0012_Text.html"
    },
    {
      "id": "20260712_30019000_0003",
      "year": "2026",
      "volcano": "Krasheninnikov",
      "psn": "N5436 E16016",
      "issued": "20260712",
      "text": "FVFE01 RJTD 120130\nVA ADVISORY\nDTG: 20260712/0130Z\nVAAC: TOKYO\nVOLCANO: KRASHENINNIKOV 300190\nPSN: N5436 E16016\nAREA: RUSSIA\nSOURCE ELEV: 1816M AMSL\nADVISORY NR: 2026/3\nINFO SOURCE: HIMAWARI-9\nERUPTION DETAILS: VA AT 20260712/0100Z FL080 EXTD SE\nOBS VA DTG: 12/0100Z\nOBS VA CLD: SFC/FL080 N5440 E16023 - N5412 E16045 - N5402 E16033 - \nN5434 E16013 MOV SE 20KT\nFCST VA CLD +6 HR: 12/0700Z SFC/FL080 N5310 E16258 - N5251 E16229 - \nN5302 E16111 - N5436 E16016\nFCST VA CLD +12 HR: 12/1300Z SFC/FL090 N5233 E16425 - N5158 E16444 - \nN5210 E16103 - N5446 E16008 - N5251 E16216\nFCST VA CLD +18 HR: 12/1900Z SFC/FL090 N5142 E16614 - N5044 E16548 - \nN5213 E15943 - N5432 E15924 - N5448 E16118 - N5223 E16227\nRMK: NIL\nNXT ADVISORY: 20260712/0600Z=",
      "img_url": "https://ds.data.jma.go.jp/svd/vaac/data/VAGFN/2026/Images/20260712_30019000_0003_QH21_01.png",
      "sat_img_url": "https://ds.data.jma.go.jp/svd/vaac/data/Sat/2026/Images/30019000/09-ir/20260712_0100_202607120130_ir.png",
      "text_url": "https://ds.data.jma.go.jp/svd/vaac/data/TextData/2026/20260712_30019000_0003_Text.html"
    }
  ],
  "vaac_alaska": [
    {
      "text": "\n000\nFVAK21 PAWU 111230\nVAAAK1\nVA ADVISORY\n\nDTG: 20260711/1224Z\n\nVAAC: ANCHORAGE\n\nVOLCANO: SHEVELUCH 300270\n\nPSN: N5639 E16122\n\nAREA: KAMCHATKA PENINSULA\n\nSOURCE ELEV: 10771 FT AMSL\n\nADVISORY NR: 2026/193\n\nRMK: PLEASE SEE FVXX2 KNES ISSUED BY VAAC WASHINGTON WHICH DESCRIBES\nCONDITIONS NEAR THE VAAC ANCHORAGE AREA OF RESPONSIBILITY...CC\n\n\n\n",
      "issued": "2026-07-11T12:30:00+00:00",
      "volcano": "Sheveluch",
      "psn": "N5639 E16122"
    }
  ]
}