{
  "updated_utc": "2026-07-08T07:34Z",
  "metar": {
    "RJAA": "METAR RJAA 080600Z 11010KT 070V150 9999 FEW030 BKN040 26/20 Q1014 NOSIG",
    "PANC": "METAR PANC 080553Z 15016G33KT 10SM OVC070 16/07 A2971 RMK AO2 PK WND 15034/0536 SLP061 60000 T01560072 10211 20150 50004",
    "PAFA": "METAR PAFA 080553Z 00000KT 10SM FEW060 SCT090 BKN120 18/13 A2960 RMK AO2 SLP025 60003 T01830133 10272 20178 51004 $",
    "PAED": "METAR PAED 080655Z 32006KT 10SM BKN070 BKN085 17/07 A2970 RMK AO2A SLP053 T01670071 $",
    "KSEA": "METAR KSEA 080553Z 03011KT 10SM FEW180 SCT250 18/12 A3011 RMK AO2 SLP202 T01780122 10239 20178 53018 $",
    "ZSPD": "METAR ZSPD 080600Z 26006MPS 230V290 CAVOK 36/24 Q1004 NOSIG",
    "ZSSS": "METAR ZSSS 080600Z 25004MPS 210V290 CAVOK 34/24 Q1004 NOSIG",
    "RJFR": "METAR RJFR 080600Z 06008KT 9999 FEW025 SCT035 28/25 Q1009",
    "VHHH": "METAR VHHH 080600Z 15012KT 120V190 9999 FEW015 SCT025 31/25 Q1006 WS R07R TEMPO 18015G25KT 2000 TSRA SHRA FEW008CB SCT015",
    "RCTP": "METAR RCTP 080600Z 28013KT 9999 FEW015 34/25 Q1008 NOSIG RMK A2977",
    "ZGSZ": "METAR ZGSZ 080600Z 18003MPS 9999 FEW030 BKN050 30/27 Q1006 BECMG AT0700 2800 TSRA SCT012 FEW020CB BKN030",
    "WSSS": "METAR WSSS 080600Z 15006KT 100V180 9999 FEW018 FEW020TCU SCT025 31/25 Q1011 NOSIG",
    "WMKK": "METAR WMKK 080600Z VRB03KT 9999 FEW018 33/21 Q1010 NOSIG",
    "WIDD": "METAR WIDD 080600Z 18007KT 140V220 9999 FEW014 31/25 Q1011 NOSIG",
    "VTBS": "METAR VTBS 080600Z 21011KT 180V250 9999 FEW020 33/22 Q1008 NOSIG",
    "VTBU": "METAR VTBU 080600Z 24009KT 9999 FEW020 33/27 Q1009 NOSIG",
    "ROAH": "METAR ROAH 080600Z 08010KT 040V110 9999 FEW035 33/25 Q1007",
    "VVDN": "METAR VVDN 080600Z 23009KT 9999 FEW020 35/23 Q1004 NOSIG",
    "RCKH": "METAR RCKH 080600Z 28012KT 9999 FEW020 SCT220 33/22 Q1007 NOSIG RMK 28013KT/R09 A2975",
    "KLAX": "METAR KLAX 080553Z 22008KT 10SM CLR 19/14 A2992 RMK AO2 SLP129 T01890139 10233 20189 53006 $",
    "KONT": "METAR KONT 080553Z 27005KT 10SM CLR 22/12 A2995 RMK AO2 SLP124 T02220122 10339 20222 51013 $",
    "KSFO": "METAR KSFO 080556Z 27015G24KT 10SM FEW006 BKN012 14/11 A3009 RMK AO2 SLP188 T01390106 10156 20133 51008",
    "KOAK": "METAR KOAK 080553Z 24013G23KT 10SM FEW008 BKN012 14/11 A3009 RMK AO2 SLP189 T01390111 10172 20139 51008",
    "KMHR": "METAR KMHR 080535Z AUTO 19006KT 9SM CLR 15/12 A2998 RMK AO2 T01550117 $",
    "KDFW": "METAR KDFW 080553Z COR 15006KT 10SM FEW250 28/22 A3003 RMK AO2 SLP158 T02780217 10328 20278 403780250 51010",
    "KIAH": "METAR KIAH 080553Z 00000KT 10SM FEW045 BKN250 24/21 A3007 RMK AO2 SLP182 60000 T02390206 10300 20239 403610239 53006",
    "KORD": "METAR KORD 080551Z 00000KT 10SM CLR 22/14 A3003 RMK AO2 SLP164 T02220139 10283 20222 402940178 57013 $",
    "KJFK": "METAR KJFK 080551Z 02011KT 10SM FEW040 SCT070 SCT085 19/16 A3004 RMK SLP172 T01890161 10211 20189 53010 $",
    "KRFD": "METAR KRFD 080554Z 00000KT 10SM FEW050 21/19 A3005 RMK AO2 SLP171 T02060189 10283 20200 402940150 56010",
    "KIND": "METAR KIND 080554Z 00000KT 10SM SCT250 23/17 A3005 RMK AO2 SLP169 T02330172 10283 20233 58005",
    "KDTW": "METAR KDTW 080553Z 00000KT 7SM FEW045 SCT060 BKN240 23/22 A3005 RMK AO2 SLP170 T02280217 10261 20228 56004",
    "KMSP": "METAR KMSP 080553Z 16005KT 10SM OVC110 25/23 A2999 RMK AO2 LTG DSNT N SLP149 60000 T02500228 10278 20250 402780189 53001",
    "CYEG": "METAR CYEG 080600Z 14011KT 20SM SCT190 18/15 A2991 RMK AC4 SLP127 DENSITY ALT 3400FT",
    "EHAM": "METAR EHAM 080555Z 31010KT 9999 FEW015 BKN017 BKN022 18/15 Q1017 TEMPO SCT017",
    "EBBR": "METAR EBBR 080550Z 30005KT 9999 BKN039 19/15 Q1019 NOSIG",
    "EDDF": "METAR EDDF 080550Z AUTO 31010KT 260V340 CAVOK 21/14 Q1016 NOSIG",
    "EDFH": "METAR EDFH 080550Z 30007KT 260V320 CAVOK 17/12 Q1018",
    "EDDL": "METAR EDDL 080550Z AUTO 31008KT 9999 SCT019 19/14 Q1017 NOSIG",
    "EDDK": "METAR EDDK 080550Z AUTO 31009KT 9999 FEW022 BKN027 BKN031 19/14 Q1017 NOSIG",
    "EBLG": "METAR EBLG 080550Z 29004KT 9999 BKN035 19/14 Q1019 NOSIG",
    "LSZH": "METAR LSZH 080550Z VRB01KT CAVOK 19/13 Q1019 NOSIG",
    "LIMC": "METAR LIMC 080550Z 01005KT CAVOK 23/14 Q1013 NOSIG",
    "LIRF": "METAR LIRF 080550Z 05004KT 5000 BR BKN009 24/22 Q1015 NOSIG",
    "EINN": "METAR EINN 080600Z 32003KT 4000 VCFG FEW002 BKN033 14/12 Q1020 BECMG 9999 NSW",
    "EGLL": "METAR EGLL 080550Z AUTO 34003KT 300V020 9999 NCD 21/13 Q1020",
    "EGSS": "METAR EGSS 080550Z AUTO 28004KT 9999 NCD 19/14 Q1020",
    "EPWA": "METAR EPWA 080600Z 27016KT 9999 BKN020 14/10 Q1003 NOSIG",
    "UHPP": "METAR UHPP 080600Z 16005MPS 9999 FEW050 21/08 Q1011 R34L/CLRD62 NOSIG RMK MT OBSC QFE754/1006",
    "EFHK": "METAR EFHK 080550Z 03005KT 360V060 9999 FEW002 13/11 Q0996 NOSIG",
    "LBBG": "METAR LBBG 080600Z 23008KT CAVOK 25/16 Q1011 NOSIG",
    "LTAC": "METAR LTAC 080550Z 08003KT 360V130 CAVOK 21/10 Q1015 NOSIG RMK RWY21C VRB03KT RWY03L 07005KT 020V110 RWY21R 04004KT 340V120 RWY03R VRB03KT RWY21L VRB03KT",
    "UBBB": "METAR UBBB 080600Z 33022KT CAVOK 27/18 Q1008 NOSIG",
    "UTAA": "METAR UTAA 080600Z 31012KT 9999 NSC 35/09 Q1008 R88/CLRD70 NOSIG",
    "UACC": "METAR UACC 080600Z 10005MPS 060V120 9999 SCT030 29/16 Q1013 NOSIG RMK QFE728/0971",
    "UAAA": "METAR UAAA 080600Z 33003MPS 290V020 9999 SCT050CB BKN100 30/10 Q1008 NOSIG",
    "UZTT": "METAR UZTT 080600Z 18006KT 150V220 CAVOK 34/11 Q1006 NOSIG",
    "ZWWW": "METAR ZWWW 080600Z 20003MPS 160V270 CAVOK 30/12 Q1007 NOSIG",
    "ZLXY": "METAR ZLXY 080600Z 04002MPS 330V100 CAVOK 36/20 Q0999 NOSIG",
    "ZBAA": "METAR ZBAA 080600Z 18003MPS 130V240 9999 FEW040 31/22 Q0998 NOSIG",
    "ZBHH": "METAR ZBHH 080600Z 20004MPS 160V240 9999 FEW040 FEW040CB 30/16 Q1004 BECMG TL0730 33007MPS -TSRA",
    "ZSQD": "METAR ZSQD 080600Z 15006MPS 9999 FEW040 31/24 Q1001 NOSIG",
    "ZMCK": "METAR ZMCK 080600Z 32010MPS 9999 FEW030CB BKN033 23/13 Q1005 NOSIG RMK QFE639.6 54 MOP",
    "UUEE": "METAR UUEE 080600Z 15006MPS 9999 SCT036 18/14 Q1002 R24L/CLRD62 R24C/CLRD62 NOSIG",
    "UUDD": "METAR UUDD 080600Z 19006MPS 160V220 9999 SCT026 20/15 Q1004 R13R/190051 NOSIG",
    "ULLI": "METAR ULLI 080600Z 12003MPS CAVOK 16/12 Q0997 R88/090065 NOSIG",
    "USSS": "METAR USSS 080600Z 17003MPS 140V220 CAVOK 25/20 Q1014 R26L/CLRD60 R26R/220060 NOSIG RMK QFE740/0987",
    "UNNT": "METAR UNNT 080600Z 02005G10MPS CAVOK 25/11 Q1012 R07/CLRD// R34/////// NOSIG RMK QFE749/0999",
    "UNKL": "METAR UNKL 080600Z 35003MPS 300V040 3900 FU SCT030 22/12 Q1009 R29/CLRD// NOSIG RMK QFE731",
    "UIBB": "METAR UIBB 080600Z 32006MPS 270V360 9999 SCT030 24/12 Q1005 R30/CLRD62 NOSIG RMK QFE711/0948",
    "UEEE": "METAR UEEE 080600Z 17004MPS 9999 SCT050CB 35/16 Q0998 R23/09//67 NOSIG RMK QFE740",
    "UHHH": "METAR UHHH 080600Z 08003MPS 040V110 CAVOK 27/21 Q1007 R88/090060 NOSIG RMK QFE749/0999",
    "UHSS": "METAR UHSS 080600Z 21002MPS 9999 BKN029CB 20/17 Q1014 R19/CLRD70 NOSIG RMK MT OBSC QFE759/1012"
  },
  "taf": {
    "RJAA": "TAF RJAA 080505Z 0806/0912 14008KT 9999 FEW020",
    "PANC": "TAF PANC 080537Z 0806/0912 15015G28KT P6SM VCSH BKN060 FM081400 16010G18KT P6SM VCSH BKN050 FM082000 16006G16KT P6SM BKN070",
    "PAFA": "TAF PAFA 080540Z 0806/0912 10005KT P6SM SCT080 BKN150 FM081200 VRB03KT P6SM SCT080 SCT150 FM081900 25010KT P6SM SCT080 BKN150 FM090600 27008KT P6SM VCSH OVC080",
    "PAED": "TAF PAED 080500Z 0805/0911 VRB06KT 9999 BKN050 OVC075 QNH2969INS TEMPO 0805/0809 15010G18KT VCSH BECMG 0822/0823 27009KT 9999 VCSH SCT040 BKN100 QNH2975INS TX20/0902Z TN13/0813Z",
    "KSEA": "TAF KSEA 080520Z 0806/0912 31006KT P6SM SCT180 BKN250 FM080700 33005KT P6SM SCT030 SCT150 FM080900 17005KT P6SM OVC030 FM081100 19005KT P6SM SCT015 OVC027 FM081400 22004KT P6SM SCT008 OVC015 FM081900 24006KT P6SM SCT020 BKN030 FM090000 27006KT P6SM BKN040 FM090600 22006KT P6SM BKN030",
    "ZSPD": "TAF ZSPD 080305Z 0806/0912 17004MPS 8000 SCT030 TX36/0806Z TX35/0906Z TN28/0821Z",
    "ZSSS": "TAF ZSSS 080304Z 0806/0912 18004MPS 8000 SCT030 TX36/0806Z TX35/0906Z TN28/0821Z TEMPO 0818/0822 TSRA BKN013 SCT030CB",
    "RJFR": "TAF RJFR 080505Z 0806/0912 04010KT 9999 FEW025 SCT050 BECMG 0811/0813 12010KT BECMG 0900/0903 07014KT BECMG 0909/0912 10016KT",
    "VHHH": "TAF AMD VHHH 080705Z 0807/0912 16010KT 9999 FEW010 SCT025 TX31/0807Z TX33/0906Z TN28/0822Z TEMPO 0807/0810 18020G30KT 1500 TSRA +SHRA FEW008CB SCT015 TEMPO 0821/0824 3000 SHRA FEW008CB SCT020 TEMPO 0904/0909 24010KT",
    "RCTP": "TAF RCTP 080500Z 0806/0912 28012KT 9999 FEW015 BECMG 0812/0814 22005KT BECMG 0900/0902 02010KT BECMG 0906/0908 03015KT TEMPO 0908/0912 04020KT",
    "ZGSZ": "TAF AMD ZGSZ 080615Z 0806/0912 18004MPS 8000 BKN040 TX31/0806Z TX32/0906Z TN26/0822Z TEMPO 0806/0808 18009G14MPS 2000 +TSRA FEW020CB BKN033 TEMPO 0820/0824 SHRA FEW025CB BKN033 TEMPO 0906/0909 TSRA FEW020CB BKN033",
    "WSSS": "TAF WSSS 080500Z 0806/0912 17008KT 9999 FEW015 SCT020",
    "WMKK": "TAF WMKK 080500Z 0806/0912 VRB03KT 9999 FEW018 TEMPO 0807/0811 5000 TSRA FEW017CB",
    "VTBS": "TAF VTBS 080500Z 0806/0912 21008KT 9999 FEW020 TEMPO 0810/0814 VRB15KT 4000 TSRA FEW018CB SCT030 BKN100 BECMG 0814/0816 27008KT TEMPO 0908/0912 VRB15G25KT 4000 TSRA FEW018CB SCT030 BKN100",
    "VTBU": "TAF VTBU 080500Z 0806/0906 22010KT 9999 FEW020",
    "ROAH": "TAF ROAH 080505Z 0806/0912 06012KT 9999 FEW020 SCT025",
    "VVDN": "TAF VVDN 080500Z 0806/0906 23012KT 9999 FEW020",
    "RCKH": "TAF RCKH 080500Z 0806/0912 25005KT 9999 FEW015 TEMPO 0806/0812 28010KT BECMG 0814/0816 06005KT BECMG 0901/0903 30010KT TEMPO 0904/0910 32015KT",
    "KLAX": "TAF KLAX 080538Z 0806/0912 25006KT P6SM SKC FM080900 VRB03KT 5SM BR SCT008 FM081700 25012KT P6SM SKC FM090300 26006KT P6SM SKC FM090900 VRB03KT P6SM SKC",
    "KONT": "TAF KONT 080520Z 0806/0912 VRB05KT P6SM SKC FM082000 25010KT P6SM SKC FM090400 VRB04KT P6SM SKC",
    "KSFO": "TAF KSFO 080520Z 0806/0912 27015KT P6SM BKN013 FM080900 27012KT P6SM OVC008 FM081700 29013KT P6SM BKN015 FM081900 29020KT P6SM FEW015 FM090300 29020KT P6SM BKN015 FM090900 28012KT P6SM OVC008",
    "KOAK": "TAF KOAK 080520Z 0806/0912 25015KT P6SM OVC013 FM080900 26010KT P6SM OVC008 FM081800 27010KT P6SM BKN015 FM082100 28014KT P6SM FEW015 FM090300 28015KT P6SM BKN015 FM090900 26010KT P6SM OVC008",
    "KMHR": "TAF KMHR 080520Z 0806/0906 20011KT P6SM SKC FM081200 17008KT P6SM SKC FM081800 22008KT P6SM SKC",
    "KDFW": "TAF KDFW 080520Z 0806/0912 15008KT P6SM FEW100 FM081300 22008KT P6SM FEW100 FM082100 17014KT P6SM SCT060",
    "KIAH": "TAF KIAH 080531Z 0806/0912 VRB04KT P6SM FEW050 BKN250 FM081400 24006KT P6SM SCT025 SCT035 FM081800 18007KT P6SM VCSH SCT050 SCT250 PROB30 0819/0901 4SM -TSRA BKN050CB FM090200 18006KT P6SM FEW040 SCT100 BKN250 FM090600 VRB04KT P6SM SCT250",
    "KORD": "TAF KORD 080526Z 0806/0912 21004KT P6SM SKC FM081500 23011KT P6SM SCT050 FM090800 22010KT P6SM SCT040 BKN200",
    "KJFK": "TAF KJFK 080525Z 0806/0912 01008KT P6SM FEW035 TEMPO 0806/0808 BKN030 FM081800 19009KT P6SM FEW045 FM090400 22008KT P6SM FEW060",
    "KRFD": "TAF KRFD 080526Z 0806/0906 VRB03KT P6SM FEW040 FM081500 23009KT P6SM SCT050",
    "KIND": "TAF KIND 080520Z 0806/0912 36004KT P6SM SCT250 FM081500 25005KT P6SM FEW050 FM090000 22003KT P6SM SCT250",
    "KDTW": "TAF KDTW 080520Z 0806/0912 20003KT P6SM SKC FM080900 VRB02KT 3SM BR SKC TEMPO 0809/0812 1 1/2SM BR FM081200 24006KT P6SM SCT250 FM090000 23004KT P6SM SCT250",
    "KMSP": "TAF KMSP 080613Z 0806/0912 VRB04KT P6SM VCTS SCT050CB BKN150 FM080800 VRB04KT P6SM SCT040 BKN080 TEMPO 0809/0813 4SM -TSRA BR BKN040CB FM081400 31008KT P6SM SCT050 BKN100 FM081800 23007KT P6SM BKN040 PROB30 0818/0822 3SM -TSRA BR BKN030CB FM090000 01006KT P6SM BKN050",
    "CYEG": "TAF AMD CYEG 080721Z 0807/0906 14012G22KT P6SM SCT190 BECMG 0808/0809 14012KT FM080900 14012KT P6SM FEW120 SCT190 TEMPO 0809/0811 P6SM VCTS SCT090CB SCT120 BKN190 FM081100 14008KT P6SM SCT200 BKN250 BECMG 0812/0814 16012KT SCT130 BKN200 FM081600 18005KT P6SM BKN130 TEMPO 0818/0820 P6SM -SHRA OVC110 BECMG 0818/0820 VRB03KT FM082000 30005KT P6SM SCT120 BKN240 BECMG 0821/0823 32012KT FM082300 32015KT P6SM FEW050CB SCT240 FM090200 34010KT P6SM SKC BECMG 0904/0906 34005KT RMK NXT FCST BY 080900Z",
    "EHAM": "TAF EHAM 080428Z 0806/0912 31009KT 9999 FEW030 PROB30 TEMPO 0806/0808 BKN018 PROB40 TEMPO 0903/0907 BKN010",
    "EBBR": "TAF EBBR 080510Z 0806/0912 34007KT 9999 SCT030",
    "EDDF": "TAF EDDF 080500Z 0806/0912 30009KT 9999 FEW035 TEMPO 0806/0811 BKN035 BECMG 0820/0822 VRB03KT TEMPO 0904/0910 BKN030 BECMG 0906/0908 01006KT",
    "EDFH": "TAF EDFH 080500Z 0806/0906 30007KT 9999 SCT020 BECMG 0819/0821 02004KT",
    "EDDL": "TAF EDDL 080500Z 0806/0912 32007KT 9999 BKN030 BECMG 0820/0823 VRB02KT PROB30 TEMPO 0904/0907 BKN014 BECMG 0906/0909 35007KT",
    "EDDK": "TAF EDDK 080500Z 0806/0912 32009KT 9999 BKN030 BECMG 0818/0821 03003KT BECMG 0906/0909 34008KT",
    "EBLG": "TAF EBLG 080510Z 0806/0912 34007KT 9999 SCT030",
    "LSZH": "TAF LSZH 080525Z 0806/0912 VRB02KT CAVOK TX31/0815Z TN17/0806Z TN17/0904Z BECMG 0810/0813 28008KT TEMPO 0813/0817 34011KT 9999 FEW075 BECMG 0817/0820 VRB02KT 9999 FEW070 BECMG 0900/0903 CAVOK BECMG 0907/0909 05007KT",
    "LIMC": "TAF LIMC 080500Z 0806/0912 VRB06KT CAVOK TEMPO 0812/0816 25010KT TEMPO 0822/0824 01010KT BECMG 0900/0902 VRB04KT",
    "LIRF": "TAF LIRF 080500Z 0806/0912 VRB04KT 3000 BCFG BKN010 BECMG 0806/0808 9999 SCT015 BECMG 0809/0811 24012KT BECMG 0818/0820 VRB05KT TEMPO 0823/0904 BKN010 BECMG 0909/0911 22012KT",
    "EINN": "TAF AMD EINN 080613Z 0806/0906 VRB03KT 4000 BR FEW002 BKN030 BECMG 0806/0808 9999 NSW BECMG 0809/0811 27010KT BECMG 0815/0817 30008KT BECMG 0819/0821 VRB03KT TEMPO 0822/0906 3000 BR BKN007 PROB30 TEMPO 0900/0906 1200 BR BKN004",
    "EGLL": "TAF EGLL 080504Z 0806/0912 35004KT CAVOK BECMG 0816/0819 23010KT",
    "EGSS": "TAF EGSS 080505Z 0806/0912 33005KT CAVOK BECMG 0817/0820 10010KT BECMG 0823/0902 18005KT",
    "EPWA": "TAF EPWA 080530Z 0806/0906 27015KT 9999 BKN025 TEMPO 0806/0817 28023G35KT PROB40 TEMPO 0812/0906 4000 SHRA SCT033CB",
    "UHPP": "TAF UHPP 080448Z 0806/0912 17005G12MPS 9999 SCT040 BECMG 0809/0812 02003G10MPS BECMG 0822/0824 17005G12MPS",
    "EFHK": "TAF EFHK 080529Z 0806/0906 04005KT CAVOK PROB30 TEMPO 0810/0821 FEW030CB TEMPO 0903/0906 01015G25KT 6000 SHRA SCT030CB",
    "LBBG": "TAF LBBG 080500Z 0806/0906 24010KT 9999 SCT040 BECMG 0810/0812 13014KT PROB40 TEMPO 0812/0817 5000 TSRA FEW030CB BKN040 BECMG 0818/0820 VRB04KT",
    "LTAC": "TAF LTAC 080440Z 0806/0906 VRB02KT CAVOK BECMG 0806/0808 SCT040 TEMPO 0812/0816 30012KT BECMG 0816/0818 CAVOK",
    "UBBB": "TAF UBBB 080503Z 0806/0906 33016G26KT 9999 SCT020 TX27/0810Z TN22/0801Z TEMPO 0806/0814 34022G32KT FEW030CB BECMG 0814/0816 34014KT TEMPO 0818/0906 FEW040CB SCT040",
    "UTAA": "TAF UTAA 080445Z 0806/0906 02016KT 6000 SCT050 TX41/0811Z TEMPO 0806/0812 32014G24KT 4000 DRDU BECMG 0816/0818 23014KT",
    "UACC": "TAF UACC 080505Z 0806/0906 05006MPS 9999 SCT030 BKN060 TX31/0810Z TN17/0823Z TEMPO 0806/0818 VRB18MPS -TSRA SQ BKN030CB TEMPO 0818/0906 08006MPS",
    "UAAA": "TAF UAAA 080507Z 0806/0906 26003G08MPS 9999 SCT050CB BKN100 TX31/0810Z TN19/0902Z TEMPO 0806/0812 31006G15MPS 5000 -TSRA BLDU TEMPO 0812/0816 20005MPS TS BECMG 0816/0817 18003MPS BECMG 0903/0904 02003G08MPS",
    "UZTT": "TAF UZTT 080500Z 0806/0906 35012KT CAVOK TX38/0810Z TN23/0900Z TEMPO 0806/0818 32015KT BECMG 0818/0819 07010KT",
    "ZWWW": "TAF ZWWW 080303Z 0806/0912 26004G09MPS CAVOK TX30/0809Z TX32/0909Z TN25/0823Z BECMG 0905/0906 32006G11MPS 9999 -SHRA FEW040CB BKN040",
    "ZLXY": "TAF ZLXY 080305Z 0806/0906 12003MPS 6000 NSC TX39/0808Z TN26/0822Z",
    "ZBAA": "TAF ZBAA 080312Z 0806/0912 17004MPS CAVOK TX33/0807Z TX33/0906Z TN22/0821Z TEMPO 0807/0810 -TSRA FEW040CB BKN040 TEMPO 0815/0819 -TSRA FEW040CB BKN040",
    "ZBHH": "TAF ZBHH 080305Z 0806/0906 24004MPS 9999 FEW040 TX31/0808Z TN16/0822Z BECMG 0807/0808 -TSRA FEW040 FEW040CB TEMPO 0808/0809 VRB10G15MPS TSRA BECMG 0810/0811 NSW",
    "ZSQD": "TAF ZSQD 080302Z 0806/0906 17005MPS 5000 BR NSC TX31/0806Z TN23/0820Z TEMPO 0818/0822 2800 -SHRA BKN020 FEW030CB",
    "ZMCK": "TAF ZMCK 080444Z 0806/0912 32009MPS 9999 FEW030CB SCT033 TX22/0807Z TN11/0821Z PROB40 TEMPO 0806/0813 VRB10G15MPS TSRA SCT027CB SCT030 BECMG 0813/0815 VRB02MPS BECMG 0818/0820 5000 BR BECMG 0901/0903 32007MPS 9999 NSW",
    "UUEE": "TAF UUEE 080450Z 0806/0906 15005MPS 9999 BKN016 TX23/0813Z TN15/0905Z TEMPO 0807/0812 16009G14MPS TEMPO 0812/0901 16011G19MPS -TSRA BKN020CB PROB40 TEMPO 0812/0818 -SHGR BKN020CB TEMPO 0901/0906 3000 -SHRA BKN007 BKN020CB",
    "UUDD": "TAF UUDD 080455Z 0806/0912 16005MPS 8000 FEW010 BKN020 TX23/0812Z TN15/0901Z TEMPO 0806/0811 18008G13MPS TEMPO 0811/0824 18009G16MPS -TSRA BKN020CB TEMPO 0900/0909 20010G18MPS 2100 -TSRA FEW005 BKN016CB",
    "ULLI": "TAF ULLI 080454Z 0806/0906 09005G10MPS 6000 BKN016 BECMG 0818/0819 BKN010 TEMPO 0819/0824 1500 SHRA BKN005 BKN017CB TEMPO 0900/0904 15003MPS 3100 -SHRA BKN004 BKN017CB BECMG 0904/0905 15003MPS BKN016",
    "USSS": "TAF USSS 080452Z 0806/0906 30003G14MPS 9999 -SHRA BKN020CB TEMPO 0806/0906 34010G25MPS -TSRAGR BKN016CB",
    "UNNT": "TAF UNNT 080500Z 0806/0906 02003G08MPS 8000 BKN040 TX26/0809Z TN14/0822Z TEMPO 0806/0814 01008G14MPS",
    "UNKL": "TAF UNKL 080455Z 0806/0906 32003G08MPS 3100 FU SCT025 TEMPO 0806/0807 1400 FU BECMG 0807/0809 6000 NSW TEMPO 0809/0812 2500 FU BECMG 0903/0905 01005MPS 3500 FU",
    "UIBB": "TAF UIBB 080500Z 0806/0906 32006G13MPS 9999 -SHRA BKN016CB TEMPO 0806/0815 VRB11MPS",
    "UEEE": "TAF UEEE 080500Z 0806/0912 19005G10MPS 9999 SCT030CB BKN100 TX35/0806Z TN17/0818Z TEMPO 0806/0818 VRB15MPS 3200 -TSRA",
    "UHHH": "TAF UHHH 080447Z 0806/0912 12003MPS 9999 SCT030CB TX26/0806Z TN20/0818Z TEMPO 0806/0817 5000 -TSRA BECMG 0817/0818 5000 -SHRA BR BKN006 BKN016CB TEMPO 0818/0903 15008MPS 2000 TSRA BR FEW003 BKN016CB",
    "UHSS": "TAF UHSS 080450Z 0806/0912 20003MPS 9999 BKN025CB"
  },
  "atis": {
    "RJAA": "[Arrival ATIS] RJAA ARR ATIS E 2122Z S2117 (APCH)ILS Y RWY16L LDG RWY 16L DEP RWY 16R DEP FREQ 124.2. TWY A1 CLSD. S 192117Z 07008KT 5000M BR FEW005ST BKN006ST 20/18 Q1013/A2993= Q/TWO NINE NINE THREE STP\n[Departure ATIS] RJAA DEP ATIS V 1353Z MS1330 (APCH)ILS Y RWY16R/ILS Y RWY16L USING RWY 16R/16L DEP FREQ 124.2. TWY A1 CLSD. PARL APCHS INPR. RWY 16L/34R WILL BE CLSD FM 1410. MS 191330Z 09006KT 10KM FEW003ST BKN004ST 21/19 Q1013/A2992= Q/TWO NINE NINE TWO STP",
    "PANC": "[Arrival ATIS] PANC ARR ATIS X 2053Z ANC ATIS INFO X 2053Z. VRB04KT 10SM FEW045 BKN200 17/08 A3023 (THREE ZERO TWO THREE). 7R APPROACHES IN USE. LANDING RWY 7R, DEPARTING RWY 33. NOTICE TO AIRMEN. RWY 7L CLSD. CHECK NOTAMS FOR TAXIWAY CLOSURES. NO VFR CLASS C TRANSITIONS DUE TO STAFFING. ...ADVS YOU HAVE INFO X.\n[Departure ATIS] PANC DEP ATIS Q 0253Z ANC ATIS INFO Q 0253Z. 14018G32KT 10SM -RA SCT085 SCT200 16/09 A2970 (TWO NINER SEVEN ZERO) RMK AO2 PK WND 14032/0247 RAB53 SLP057 P0000 60000 T01610089 53006. ILS RWY 15 A",
    "KSEA": "[Arrival ATIS] KSEA ARR ATIS M 0553Z SEA ATIS INFO M 0553Z. 01011KT 10SM FEW180 SCT250 18/12 A3011 (THREE ZERO ONE ONE). ILS AND CHARTED VISUAL APPROACH RWYS 34L AND 34R , APCH IN USE. DEPG RWY 34R, DEPG ACFT PLAN AND BRIEF NUMBERS FOR BOTH RWYS 34R AND 34C. SIMUL ARRIVALS TO RWY 34L AND DEPARTURES TO RWY 34R ARE IN USE. SIMUL APCHS IN USE TO PARA RYS. NOTAMS... BIRD ACTIVITY VICINITY ARPT. APCH AND DEP PATHS ARE OVER NOISE SENSITIVE AREAS. ...ADVS YOU HAVE INFO M.\n[Departure ATIS] KSEA DEP ATIS G 2353Z SEA ATIS INFO G 2353Z. 26005KT 10SM FEW190 BKN240 23/11 A3006 (THREE ZERO ZERO SIX). ILS AND CHARTED VISUAL APPROACH RWYS 34L AND 34R , APCH IN USE. DEPG RWY 34R, DEPG ACFT",
    "ZSPD": "[Arrival ATIS] ZSPD ARR ATIS X 2100Z EXP ILS APCH LDG RWY 35L RWY 35R IS CLSD RWY 34R IS CLSD WIND RWY 35L TDZ 230/2MPS MID 220/3MPS VRB BTN 190/ AND 250/ END 280/2MPS VIS RWY 35L TDZ 10000M MID 4000M END 10000M FBL SHRA CLD BKN 990M T 26 /DP 26 QNH 1003 HPA CAUTION THE BIRDS NEAR THE RUNWAY RWY 35R/35L/34R/34L RWYCC 5/5/5 ISSUED AT 1305 WET/WET/WET DPT NR/NR/NR COV 100PCT/100PCT/100PCT. ADZ YOU HAVE INFO X.\n[Departure ATIS] ZSPD DEP ATIS W 2030Z DEP RWY 34L RWY 35R IS CLSD RWY 34R IS CLSD WIND RWY 34L TDZ 320/2MPS MID 310/3MPS END 300/3MPS VIS RWY 34L TDZ 10000M MID 10000M END 10000M FBL SHRA CLD BKN 990M T 26 /DP 26 QNH 1003 HPA DELIVERY FREQ 118.4 CAUTION THE BIRDS NEAR THE RUNWAY RWY 35R/35L/34R/34L RWYCC 5/5/5 ISSUED AT 1305 WET/WET/WET DPT NR/NR/NR COV 100PCT/100PCT/100PCT. ADZ YOU HAVE INFO W.",
    "ZSSS": "[Arrival ATIS] ZSSS ARR ATIS Y 1830Z EXP ILS APCH LDG RWY 18L WIND RWY 18L TDZ 290/4MPS MID 290/4MPS END 290/4MPS VIS RWY 18L TDZ 5000M MID 4600M END 7000M FBL SHRA CLD BKN 450M /FEW CB 900M T 25 /DP 23 QNH 1003 HPA SUPPLEMENT INFO RESHRA RWY18R RWYCC 5/5/5 ISSUED AT 1050 WET/WET/WET DPT NR/NR/NR COV 100PCT/100PCT/100PCT RWY18L RWYCC 5/5/5 ISSUED AT 1050 WET/WET/WET DPT NR/NR/NR COV 100PCT/100PCT/100PCT QNH OF SHANGHAI TERMINAL CONTROL AREA 1002 HPA ADZ YOU HAVE INFO Y.\n[Departure ATIS] ZSSS DEP ATIS J 1100Z DEP RWY 18R WIND RWY 18R TDZ 210/5MPS MID 210/5MPS END 220/4MPS VIS RWY 18R TDZ 10000M MID 10000M END 10000M FBL SHRA NSC T 27 /DP 24 QNH 1000 HPA RWY18R RWYCC 5/5/5 ISSUED AT 1050 WET/WET/WET DPT NR/NR/NR COV 100PCT/100PCT/100PCT RWY18L RWYCC 5/5/5 ISSUED AT 1050 WET/WET/WET DPT NR/NR/NR COV 100PCT/100PCT/100PCT QNH OF SHANGHAI TERMINAL CONTROL AREA 1000 HPA ADZ YOU HAVE INFO J.",
    "VHHH": "[Arrival ATIS] VHHH ARR ATIS B 2103Z ARRIVALS, RWY 25R. EXP RNAV TRANSITION TO ILS APCH, RWY 25R. RNP APCH IS AVBL ON REQ, RWY 25R. RWY 25 RUNWAY CONDITION REPORT AT 1728Z. RWY 25R RUNWAY CONDITION CODES 5 , 5 , 5 . RWY SFC ALL PARTS WET. WIND 190/12KT. VIS 10KM. CLD FEW 1000FT SCT 2200FT. T29 DP25. QNH 1009HPA. ACK INFO B ON FIRST CTC WITH APP.\n[Departure ATIS] VHHH DEP ATIS P 2016Z DEPARTURES, RWY 25R. RWY 25 RUNWAY CONDITION REPORT AT 1728Z. RWY 25R RUNWAY CONDITION CODES 5 , 5 , 5 . RWY SFC ALL PARTS WET. WIND 200/11KT. VIS 10KM. MOD SHRA. CLD FEW 1000FT SCT 2500FT. T29 DP25. QNH 1009HPA. ACK INFO P ON FIRST CTC WITH DELIVERY .",
    "RCTP": "[Arrival ATIS] RCTP ARR ATIS F 2100Z EXP ILS APCH RWY23R ARR/DEP. RWY23L CLSD BTN 1700Z AND 2230Z FOR INSPECTION. WIND 180/06KT VIS 10 KM OR MORE CLD FEW 2000FT T 26 DP 23 QNH 1009HPA NOSIG INFORM TAIPEI APCH OR TAIPEI TOWER ON INITIAL CONTACT YOU HAVE INFORMATION F\n[Departure ATIS] RCTP DEP ATIS X 1700Z EXP ILS APCH RWY23R ARR/DEP. RWY23L CLSD BTN 1700Z AND 2230Z FOR INSPECTION. WIND 210/09KT VIS 10 KM OR MORE CLD FEW 2000FT T 28 DP 24 QNH 1010HPA NOSIG INFORM TAIPEI APCH OR TAIPEI TOWER ON INITIAL CONTACT YOU HAVE INFORMATION X",
    "ZGSZ": "[Arrival ATIS] ZGSZ ARR ATIS U 2100Z EXP ILS OR VIS APCH LDG RWY 16L WIND 170/5MPS VIS 9999M CLD SCT 600M /BKN 1290M T 28 /DP 27 QNH 1008 HPA SINGLE RUNWAY OPERATION MISSED APPROACH ALTITUDE SETTING 1200METERS WHEN AIRBORNE CONTACT ZHUHAI APPROACH EXPECTED RNP ILS DME Z APPROACH ADZ YOU HAVE INFO U.\n[Departure ATIS] ZGSZ DEP ATIS U 2100Z DEP RWY 16L WIND 170/5MPS VIS 9999M CLD SCT 600M /BKN 1290M T 28 /DP 27 QNH 1008 HPA DELIVERY FREQ 121.8 SINGLE RUNWAY OPERATION MISSED APPROACH ALTITUDE SETTING 1200METERS WHEN AIRBORNE CONTACT ZHUHAI APPROACH EXPECTED RNP ILS DME Z APPROACH ADZ YOU HAVE INFO U.",
    "WSSS": "[Arrival ATIS] WSSS ARR ATIS X 2100Z METREPORT 2100Z ILS APCHRWY 02L RWY 02C 20C CLSD. TWY W 9 CLOSED, RWY 02C 20C RAPID EXIT TAXIWAY INDICATOR LIGHTS OFFFOLLOW THE GREENS TRIAL IN PROGRESS. WHEN VACATING THE RWY, PILOTS TO ADHERE TO ATC VERBAL INSTRUCTIONS. WHEN ON TWY, PILOT TO ADHERE TO FOLLOW THE GREENS INSTRUCTIONS. WHEN APPROACHING [A] JUNCTION, KEEP [A] LOOKOUT FOR CONTINUOUS GREENS. [IF] [A] BREAK IN THE GREENS IS OBSERVED, STOP AND CLARIFY WITH ATC. WIND VRB BTN300 AND030 02KT VIS 10KM CLD FEW 1800FT FEW CB 2000FT T26 DP25 QNH 1010HPA NOSIG ACK ATIS X\n[Departure ATIS] WSSS DEP ATIS Y 2100Z METREPORT 2100Z RWY 02L RWY 02C 20C CLSD. TWY W 9 CLOSED, RWY 02C 20C RAPID EXIT TAXIWAY INDICATOR LIGHTS OFFFOLLOW THE GREENS TRIAL IN PROGRESS. WHEN VACATING THE RWY, PILOTS TO ADHERE TO ATC VERBAL INSTRUCTIONS. WHEN ON TWY, PILOT TO ADHERE TO FOLLOW THE GREENS INSTRUCTIONS. WHEN APPROACHING [A] JUNCTION, KEEP [A] LOOKOUT FOR CONTINUOUS GREENS. [IF] [A] BREAK IN THE GREENS IS OBSERVED, STOP AND CLARIFY WITH ATC. WIND 290/ 02KT VIS 10KM CLD FEW 1800FT FEW CB 2000FT T26 DP25 QNH 1010HPA NOSIG DEP,INITIAL CMB 3000FT ACK ATIS Y",
    "WMKK": "[Arrival ATIS] WMKK ARR ATIS B 2104Z WMKK ARR INFO B. TIME 2100. INDEPENDENT PARALLEL APPROACHES FOR RWY 14 L AND 15 ARE IN PROGRESS. EXP RNAV / ILS APCH FOR RWY 14 LEFT. EXP RNAV / ILS APCH FOR RWY 15. WIND RWY 14L DIRECTION NOT AVBL SPEED NOT AVBL. WIND RWY 15 DIRECTION NOT AVBL SPEED NOT AVBL. VIS RWY 14L TDZ NOT AVBL. VIS RWY 15 TDZ NOT AVBL. CLD FEW CB 1700 FT. T 26. DP 24. QNH 1010. NOSIG. AT FIRST CONTACT WITH LUMPUR RADAR, NOTIFY RCPT OF B\n[Departure ATIS] WMKK DEP ATIS O 1804Z WMKK DEP INFO O. TIME 1800. INDEPENDENT PARALLEL DEPARTURES FOR RWY 14 L AND 15 ARE IN PROGRESS. RWY 14 LEFT. RWY 15. WIND RWY 14L DIRECTION NOT AVBL SPEED NOT AVBL. WIND RWY 15 DIRECTION NOT AVBL SPEED NOT AVBL. VIS RWY 14L TDZ NOT AVBL. VIS RWY 15 TDZ NOT AVBL. CLD FEW CB 1700 FT. T 27. DP 24. QNH 1010. NOSIG. ALL DEP ACFT TO CONTACT LUMPUR DEP AT 135 DECIMAL 25 MHZ WHEN ABN. AT FIRST CONTACT WITH LUMPUR GROUND, NOTIFY RCPT OF O",
    "VTBS": "[Arrival ATIS] VTBS ARR ATIS N 2100Z VTBS ARR ATIS N 2100Z EXP ILS Z APCH ARR RWY 19 RWY 20R AND 20L CLSD DUE TO WIP 06191020 19 5/5/5 100/100/100 NR/NR/NR WET/WET/WET ,RETIL RWY 19 U/S , 2100Z WIND VRB BTN 350/ AND 050/1KT VIS 10KM FBL RA CLD FEW 2000FT T27 DP26 QNH 1009HPA TREND NOSIG ADZ BKK APCH ON INITIAL CONTACT THAT YOU HAVE INFO N\n[Departure ATIS] VTBS DEP ATIS R 1830Z VTBS DEP ATIS R 1851Z DEP RWY 19 06191029 20L 5/5/5 100/100/100 NR/NR/NR WET/WET/WET ,AFT AIRBORNE ALL DEPARTING ACFT SHALL CTC 119.25 1830Z WIND 180/6KT VIS 10KM FBL RA CLD FEW 2000FT T26 DP25 QNH 1010HPA TREND NOSIG ADZ GND WHEN INITIAL CONTACT YOU HAVE INFO R",
    "VTBU": "[Arrival ATIS] VTBU ARR ATIS U 0430Z VTBU ARR ATIS U 0430Z RNP RWY 18 TRL FL130 MOBILE ACFT ARST SYSTEM INSTL ATP SIX HUNDRED AND TEN METERS FM THR RWY 36 CABLE HGT 3 INCHES. 0430Z WIND 360/6KT VRB BTN 320/ AND 020/ VIS 10KM CLD FEW 2000FT T34 DP27 QNH 1010HPA TREND NOSIG ADZ CONTROLLER WHEN INITIAL CONTACT YOU HAVE INFO U\n[Departure ATIS] VTBU DEP ATIS D VTBU ARR/DEP DATIS RPT VTBU ARR ATIS D 0330Z ILS \"Z\" APCH RWY 18 TRL FL130 0330Z WIND 110/4KT VRB BTN 350/ AND 120/ VIS 6KM CLD FEW 2000FT T31 DP27 QNH 1014HPA TREND NOSIG ADZ CONTROLLER WHEN INITIAL CONTACT YOU HAVE INFO D",
    "ROAH": "[Arrival ATIS] ROAH ARR ATIS W 2002Z M2000 (APCH)RNP RWY18R USING RWY 18R DEP FREQ 126.5 258.3 RWY 18L/36R CLSD M 192000Z AUTO 18008KT 9999 NCD 26/25 Q1011/A2988= Q/TWO NINE EIGHT EIGHT STP\n[Departure ATIS] ROAH DEP ATIS Q 1044Z M1030 (APCH)ILS Z RWY36L LDG RWY 36L DEP RWY 36R DEP FREQ 119.1 335.8 M 071030Z 15008KT 60KM FEW025CU 30/25 Q1009/A2980= Q/TWO NINE EIGHT ZERO STP",
    "VVDN": "[Arrival ATIS] VVDN ARR ATIS M 1331Z VVDN INFO M 1331Z. ILS VICTOR APPROACH 35L.. DPTG RWY 35R.. 1331Z. WIND 340/01KT VIS 10KM CLD BKN 5300FT T30 DP26 QNH 1008HPA TREND NOSIG. ADZ ON INITIAL CTC YOU HAVE INFO. M.\n[Departure ATIS] VVDN DEP ATIS X 0632Z VVDN INFO X 0632Z. ILS VICTOR APPROACH 35L.. DPTG RWY 35R.. 0632Z. WIND 130/0KT CAVOK T34 DP26 QNH 1006HPA TREND NOSIG. ADZ ON INITIAL CTC YOU HAVE INFO. X.",
    "RCKH": "[Arrival ATIS] RCKH ARR ATIS W 0500Z EXPECT ILS APPROACH RWY 27 ARR/DEP TAXIWAY JULIETT, TAXIWAY BRAVO, TAXIWAY DELTA AND TAXIWAY ECHO CLOSED DUE MAINTENANCE. RUNWAY 2 7 ARRIVALS PLAN VACATE VIA CHARLIE OR\n[Departure ATIS] RCKH DEP ATIS G 2100Z EXPECT ILS APPROACH RWY 09 ARR TAXIWAY JULIETT, TAXIWAY BRAVO, TAXIWAY DELTA AND TAXIWAY ECHO CLOSED DUE MAINTENANCE. RUNWAY 0 9 ARRIVALS PLAN VACATE VIA CHARLIE OR FOX",
    "KLAX": "[Arrival ATIS] KLAX ARR ATIS H 1353Z LAX ATIS INFO H 1353Z. 24003KT 10SM FEW009 FEW012 SCT029 18/16 A2994 (TWO NINER NINER FOUR) RMK AO2 SLP135 T01830161. INST APCHS AND RNAV RNP APCHS RY 24R AND 25L, OR VCTR FOR VISUAL APCH WILL BE PROVIDED, SIMUL VISUAL APCHS TO ALL RWYS ARE IN PROG, SIMUL INSTR DEPARTURES IN PROG RWYS 24 AND 25. CTC L A GC ON 121.75 FOR PUSH OR TAXI ON A. TWY B CLSD BTN TWY, C10 AND TWY C7 , , TWY B6 CLSD, TWY B7 CLSD, TWY C CLSD BTN TWY, C1 AND TWY C3, TWY C1 CLSD, TWY C9 CLSD BTN TWY, B AND TWY C, TWY C8 CLSD BTN TWY, B AND TWY C. RY 25R SFL OTS, RY 24L ALSF-2 OTS. LAX VOR UNMONITORED. USE CAUTION FOR INCREASED DRONE ACTIVIY IN THE VICINITY OF SOFI STADIUM AT OR BELOW 200FT AGL DURING THE WORLD CUP FROM JUNE TWELFTH TWENTY TWENTY SIX THROUGH JULY TENTH TWENTY TWENTY SIX. HAZD WX INFO FOR LAX AREA AVBL FM FSS. BIRD ACTIVITY VICINITY ARPT. INCLUDE YOUR CALL SIGN IN ALL READBACKS. USE CAUTION WHEN EXITING RY24R AT TWY V, W, AND Y, TO HOLD\n[Departure ATIS] KLAX DEP ATIS D 0653Z LAX ATIS INFO D 0653Z. 28011KT 10SM FEW012 BKN018 17/14 A2998 (TWO NINER NINER EIGHT) RMK AO2 SLP151 T01720144. INST APCHS AND RNAV RNP APCHS RY 24R AND 25L, OR VCTR FOR VISUAL APCH WILL BE PROVIDED, SIMUL VISUAL APCHS TO ALL RWYS ARE IN PROG. CTC L A GC ON 121.75 FOR PUSH OR TAXI ON A. TWY C CLSD BTN TWY, C8 AND TWY C9 , , TWY B CLSD BTN TWY, F AND TWY B1, TWY B1 CLSD. ILS RY 25R OTS, RY 25R SFL OTS, RY 24L ALSF-2 OTS. LAX VOR UNMONITORED. IF ASSIGNED RUNWAY 25R FOR DEPARTURE, EXPECT DEPARTURE FROM INTERSECTION FOXTROT. TAXILANE CHARLIE EIGHT RESTRICTED TO AIRCRAFT WITH A WINGSPAN LESS THAN ONE HUNDRED EIGHTEEN FEET. USE CAUTION FOR INCREASED DRONE ACTIVIY IN THE VICINITY OF SOFI STADIUM AT OR BELOW 200FT AGL DURING THE WORLD CUP FROM 06/12/26 THROUGH 07/10/2026. HAZD WX INFO FOR LAX AREA AVBL FM FSS. BIRD ACTIVITY VICINITY ARPT. TWR FREQ FOR ALL RWYS IS 120.95. INCLUDE YOUR CALL SIGN IN ALL READBACKS. USE CAUTION WHEN EXITING RY24R AT TWY V, W, AND Y, TO HOLD SHORT OF RY24L. MULTIPLE RUNWAY INCURSIONS HAVE OCCURRED. ...ADVS YOU HAVE INFO D.",
    "KONT": "[Arrival ATIS] KONT ARR ATIS J 1353Z - KONT ATIS INFO J 1353Z. 15003KT 10SM CLR 19/13 A2995 (TWO NINER NINER FIVE). ILS AND VIS APR IN USE, RY26L & RY26R. LNDG AND DEPG RY 26L AND RY 26R. NOTAMS... TAXIWAY SIERRA FIVE CLOSED. TAXIWAY SIERRA CLOSED BETWEEN TAXIWAY SIERRA 8 AND TAXIWAY WHISKEY. RY 26L IM OTS, RY 26R ALS OTS. USE CAUTION FOR NUMEROUS BIRDS OBSERVED IN VICINITY OF ONT. PILOTS READBACK RWY ASSIGNMENTS AND HOLD SHORT INSTRUCTIONS. ...ADVS YOU HAVE INFO J.\n[Departure ATIS] KONT DEP ATIS N 0553Z - KONT ATIS INFO N 0553Z. 24004KT 10SM BKN250 22/15 A2988 (TWO NINER EIGHT EIGHT) RMK AO2 SLP100. ILS AND VIS APR IN USE, RY26L & RY26R. LNDG AND DEPG RY 26L AND RY 26R. NOTAMS... TAXIWAY SIERRA CLSD BETWEEN SIERRA 8 AND W TAXIWAY Q SOUTH OF RWY 26L CLSD TAXIWAY T CLSD TAXIWAY SIERRA 5 CLSD. RY 26L IM OTS, RY 26R ALS OTS. USE CAUTION FOR NUMEROUS BIRDS OBSERVED IN VICINITY OF ONT. HAZD WX INFO FOR SOUTHERN CA AVBL ON FSS FREQUENCIES. PILOTS READBACK RWY ASSIGNMENTS AND HOLD SHORT INSTRUCTIONS. ...ADVS YOU HAVE INFO N.",
    "KSFO": "[Arrival ATIS] KSFO ARR ATIS R 1856Z SFO ATIS INFO R 1856Z. 20012KT 10SM FEW007 BKN024 19/12 A3000 (THREE ZERO ZERO ZERO). SIMUL CLSLY SPCD DPNDNT ILS RY 28R AND ILS RY 28L APP IN USE. DEPG RWYS 28L, 28R. RY 1L, 1R CLSD. NUMEROUS TWY CLOSURES FOR CONSTRUCTION ON THE FIELD, PILOTS CHECK NOTAMS. HAZWX INFO FOR SFO AREA AVBL FM FSS FREQ. MULTIPLE CRANES VCY OF SFO CHECK NOTAMS. DEPG ACFT WAITING ON FINAL NUMBERS ADVISE GROUND PRIOR TO ENTERING TWY F. ...ADVS YOU HAVE INFO R.\n[Departure ATIS] KSFO DEP ATIS S 0256Z SFO ATIS INFO S 0256Z. 27016G24KT 10SM FEW007 BKN014 14/11 A3006 (THREE ZERO ZERO SIX). SIMUL CLSLY SPCD DPNDNT ILS RY 28R AND ILS RY 28L APP IN USE. DEPG RWYS 28L, 28R. DEPG ACFT SHOULD BE PREPARED FOR A SHORT NOTICE RY CHANGE. RY 1L, 1R CLSD. NUMEROUS TWY CLOSURES FOR CONSTRUCTION ON THE FIELD, PILOTS CHECK NOTAMS. RY 28R PAPI OTS. MOWING BTN RWY 28L AND RWY 28R AT TWY R. DEPG ACFT WAITING ON FINAL NUMBERS ADVISE GROUND PRIOR TO ENTERING TWY F. ...ADVS YOU HAVE INFO S.",
    "KOAK": "[Arrival ATIS] KOAK ARR ATIS W KOAK ARR/DEP DATIS RPT OAK ATIS INFO W 0553Z. 24015KT 10SM FEW003 BKN007 OVC011 14/12 A3002 (THREE ZERO ZERO TWO). RNAV, RWY 30. ILS, RWY 28R. TWY S CLSD BETWEEN B AND GATE 1. ILS RWY 30, OTS, RWY 28R RAIL, OTS. UNN LIT CLOSE-IN OBSTACLES FOR RWY 30 DEPARTURES. RWY 30 DEPARTURES ARE ADVISED TO AVOID TURNING LEFT PRIOR TO DEPARTURE END OF RUNWAY. CTN, CRANE 1 POINT 6 NAUTICAL MILES, , AT 140 FEET AGL. CAUTION, BIRDS NEAR AIRPORT. ...ADVS YOU HAVE INFO W.\n[Departure ATIS] KOAK DEP ATIS O 1953Z OAK ATIS INFO O 1953Z. 28014KT 10SM FEW005 22/14 A2988 (TWO NINER EIGHT EIGHT). RNAV Z/VA RWY 30 ILS/VA RWY 28R. FLOW TO LAX, LAS, SAN. ILS RWY 30, OTS. UNN LIT CLOSE-IN OBSTACLES FOR RWY 30 DEPARTURES. RWY 30 DEPARTURES ARE ADVISED TO AVOID TURNING LEFT PRIOR TO DEPARTURE END OF RUNWAY. SIGNATURE UNI-COM OUT OF SERVICE. CAUTION, BIRDS NEAR AIRPORT. ...ADVS YOU HAVE INFO O.",
    "KDFW": "[Arrival ATIS] KDFW ARR ATIS M 0453Z DFW ARR INFO M 0453Z. 14006KT 10SM FEW080 FEW250 28/21 A3002 (THREE ZERO ZERO TWO) RMK AO2 SLP156 T02780206. SIMUL VISUAL APCH TO RWYS, 13R, 18R, 17C. LDG RWY 17C EXP LAHSO TWY B 10460 FT AVAIL, LDG RWY 18R EXP LAHSO TWY B 10100 FT AVL. NOTICE TO AIRMEN. RWY 13L CLSD. RWY 17L CLSD. RWY 18L CLSD, WARNING, RWY 18L HAS BEEN SHORTENED, 9273 FT AVAILABLE. RWY 18L ILS OTS, CL OTS. HAZD WX FOR DFW AVBL ON FSS. BIRD ACTIVITY VCNTY ARPT. ...ADVS YOU HAVE INFO M.\n[Departure ATIS] KDFW DEP ATIS W 1553Z - KDFW DEP INFO W 1553Z. 21022G32KT 10SM FEW025 FEW180 SCT250 31/21 A2994 (TWO NINER NINER FOUR) RMK AO2 PK WND 20032/1547 SLP128 T03110206. SIMUL PARL TRAFFIC DEPG RWYS 17R, 18L. NOTICE TO AIRMEN. WARNING, RWY 18L HAS BEEN SHORTENED, 9273 FT AVAILABLE. RWY 18L CL OTS. BIRD ACTIVITY VCNTY ARPT. ...ADVS YOU HAVE INFO W.",
    "KIAH": "[Arrival ATIS] KIAH ARR ATIS F 2053Z IAH ATIS INFO F 2053Z. 02008KT 10SM SCT037 SCT130 BKN170 BKN250 31/24 A2987 (TWO NINER EIGHT SEVEN) RMK AO2 SLP113 CB DSNT NE AND W MOV NE TCU DSNT SE 60000 T03060239 58017. ARRIVALS EXPECT ILS OR RNAV Y RY 26R, ILS OR RNAV Y RY 26L, ILS OR RNAV Y RY 27. SIMUL APPROACHES IN USE. DEPG RY 15L, RY 15R. NOTICE TO AIRMEN. UNITED RAMP CONTROL IN EFFECT. CODED DEPARTURE ROUTES IN EFFECT. HAZD WX INFO FOR IAH AREA AVBL FM FSS. WIND SHEAR ADZYS IN EFCT. BIRD ACTIVITY VICINITY ARPT. TWY SA CLSD BTN TWY, SG AND TWY SK , TWY SB CLSD BTN TWY, SG AND TWY SK , , TWY SG CLSD, TWY EA CLSD. NOTAM ATIS IN USE ON FREQUENCY 126.225. ...ADVS YOU HAVE INFO F.\n[Departure ATIS] KIAH DEP ATIS T 0353Z IAH ATIS INFO T 0353Z. 15007KT 10SM FEW035 FEW180 BKN250 27/23 A2996 (TWO NINER NINER SIX). ARRIVALS EXPECT ILS OR RNAV Y RY 8R, ILS OR RNAV Y RY 8L. DEPG RY 15R. NOTICE TO AIRMEN. UNITED RAMP CONTROL IN EFFECT. RY 15L, 33R CLSD. HAZD WX INFO FOR IAH AREA AVBL FM FSS. BIRD ACTIVITY VICINITY ARPT. CRANES ARE DOWN. TWY SA CLSD BTN TWY, SF AND TWY SK , TWY SB CLSD BTN TWY, SF AND TWY SK , , TWY WB CLSD BTN TWY, WG AND TWY WH . TWY EA CLSD. NOTAM ATIS IN USE ON FREQUENCY 126.225. ...ADVS YOU HAVE INFO T.",
    "KORD": "[Arrival ATIS] KORD ARR ATIS H 0451Z ORD ATIS INFO H 0451Z. 19003KT 10SM CLR 24/13 A3005 (THREE ZERO ZERO FIVE) RMK AO2 SLP169 T02390128. ARR EXP VECTORS ILS RWY 10C APCH. DEPS EXP RWYS 22L 9C FROM F F 9200 FT AVL. RWY 4L, 22R CLSD, RWY 9L, 27R CLSD, RWY 10L, 28R CLSD, RWY 10R, 28L CLSD. RWY 22L ILS OTS, RWY 22R LOC OTS, RWY 28L GS OTS, RWY 9L IM OTS, RWY 9C IM OTS, RWY 10L IM OTS, RWY 10R IM OTS, RWY 27R IM OTS, RWY 28L IM OTS, RWY 28R IM OTS, RWY 9L PAPI OTS, RWY 27R PAPI OTS. PILOTS USE CTN FOR BIRD ACTIVITY IN THE VICINITY OF THE ARPT. NOISE ABATEMENT PROCEDURES ARE IN EFFECT. USE CTN FOR PERSONNEL AND EQUIP AT NUMEROUS SITES ON THE FIELD. READBACK ALL RWY HOLD SHORT INSTRUCTIONS. FOR CD GND METERING AND GC CONTACT ORD ON FREQ 121.9. ...ADVS YOU HAVE INFO H.\n[Departure ATIS] KORD DEP ATIS G 0351Z ORD ATIS INFO G 0351Z. 20003KT 10SM CLR 24/13 A3006 (THREE ZERO ZERO SIX) RMK AO2 SLP173 T02440128. ARR EXP VECTORS ILS RWY 10C APCH. DEPS EXP RWYS 22L 9C FROM F F 9200 FT AVL. RWY 4L, 22R CLSD, RWY 9L, 27R CLSD, RWY 10L, 28R CLSD, RWY 10R, 28L CLSD. RWY 22L ILS OTS, RWY 22R LOC OTS, RWY 28L GS OTS, RWY 9L IM OTS, RWY 9C IM OTS, RWY 10L IM OTS, RWY 10R IM OTS, RWY 27R IM OTS, RWY 28L IM OTS, RWY 28R IM OTS, RWY 9L PAPI OTS, RWY 27R PAPI OTS. PILOTS USE CTN FOR BIRD ACTIVITY IN THE VICINITY OF THE ARPT. NOISE ABATEMENT PROCEDURES ARE IN EFFECT. USE CTN FOR PERSONNEL AND EQUIP AT NUMEROUS SITES ON THE FIELD. READBACK ALL RWY HOLD SHORT INSTRUCTIONS. FOR CD GND METERING AND GC CONTACT ORD ON FREQ 121.9. ...ADVS YOU HAVE INFO G.",
    "KJFK": "[Arrival ATIS] KJFK ARR ATIS X 1951Z JFK ATIS INFO X 1951Z. 28018G24KT 10SM SCT070 SCT100 SCT190 BKN250 28/11 A2965 (TWO NINER SIX FIVE). APPROACH IN USE ILS RY 22L, ILS RY 22R, RNAV RY 22R. DEPG RY 22R, ACFT FILED OVER RBV OR DIXIE EXPECT RY 31L KE FOR DEP. RWY 22L/4R INNER MARKER OTS. NUM CRANES OPERATING AT JFK. BIRD ACTIVITY VICINITY ARPT. READBACK ALL RWY ASSIGNMENTS AND HOLD SHORT INSTRUCTIONS. ...ADVS YOU HAVE INFO X.\n[Departure ATIS] KJFK DEP ATIS T 1751Z JFK ATIS INFO T 1751Z. 28013G22KT 10SM FEW060 FEW140 BKN250 27/12 A2967 (TWO NINER SIX SEVEN). APPROACH IN USE ILS RY 31R, VISUAL APCH RY 31L. DEPG RY 31L. RWY 22L/4R INNER MARKER OTS. NUM CRANES OPERATING AT JFK. BIRD ACTIVITY VICINITY ARPT. READBACK ALL RWY ASSIGNMENTS AND HOLD SHORT INSTRUCTIONS. ...ADVS YOU HAVE INFO T.",
    "KIND": "[Arrival ATIS] KIND ARR ATIS P 1354Z - KIND ATIS INFO P 1354Z. 03006KT 10SM FEW022 BKN300 25/20 A3009 (THREE ZERO ZERO NINER) RMK AO2 SLP181 T02500200. PARL ILS RWY 5R AND 5L APPROACHES IN USE. CROSS RUNWAY OPERATIONS MAY BE IN EFFECT. NOTICE TO AIRMEN. RWY 32 GS OTS. TWY, P BTN TWY, H AND TWY B CLSD, TWY, P BTN TWY, B AND TWY J CLSD, TWY, H BTN TWY, R AND TWY N CLSD. P PAD CLSD. ILS RUNWAY 5R AND RUNWAY 5L INNER MARKER UNSERVICEABLE. RUNWAY 32 TOUCHDOWN RVR OTS. RUNWAY 14 ROLLOUT RVR OTS. ...ADVS YOU HAVE INFO P.\n[Departure ATIS] KIND DEP ATIS H 1854Z IND ATIS INFO H 1854Z. 26009G19KT 10SM SCT036 BKN041 BKN170 23/16 A2981 (TWO NINER EIGHT ONE) RMK AO2 SLP088 T02280156. PARL ILS RWY 23R AND 23L APPROACHES IN USE. CROSS RU",
    "KDTW": "[Arrival ATIS] KDTW ARR ATIS F 0053Z DTW ARR INFO F 0053Z. 17004KT 10SM BKN044 BKN055 26/22 A3004 (THREE ZERO ZERO FOUR). SIMUL ILS Z RY 22R AND RY 21L APCH IN USE. NOTICE TO AIRMEN. RWY 21R, 3L CLSD, RWY 27L, 9R CLSD, RWY 27R, 9L CLSD. TWYS Y1 CLSD ;. PILOTS USE CTN FOR BIRD ACTIVITY. DEPARTURE ATIS 118.125. ...ADVS YOU HAVE INFO F.\n[Departure ATIS] KDTW DEP ATIS Q 2253Z - KDTW DEP INFO Q 2253Z. 21009KT 10SM FEW050 FEW250 33/24 A2991 (TWO NINER NINER ONE). DEPG RWY 21R, RWY 22L ;. NOTICE TO AIRMEN. RWY 27L, 9R CLSD, RWY 27R, 9L CLSD. PILOTS USE CTN FOR BIRD ACTIVITY. ...ADVS YOU HAVE INFO Q.",
    "KMSP": "[Arrival ATIS] KMSP ARR ATIS A 1953Z MSP ARR INFO A 1953Z. 21011G20KT 10SM BKN041 BKN050 22/12 A2989 (TWO NINER EIGHT NINER). VISUAL RWY 30L APCH IN USE, VISUAL RWY 30R APCH IN USE. NOTICE TO AIRMEN. RWYS 4, 22 CLSD. TWY R7. R8. R9. R10. CLOSED, TWY R BETWEEN R6 AND R10 CLOSED. GS RWY 12L OTS, RWYS 12R, 12L, INNER MARKER OTS.. RWY 30L CONDITION CODES, 5 5 5 AT 1605Z, RWY 30R CONDITION CODES, 5 5 5 AT 1605Z, RWY 17 CONDITION CODES, 5 5 5 AT 1605Z. HAZD WX INFO FOR MSP AREA AVBL FM FSS. CTN, BIRDS NEAR MSP. READ BACK HS AND ALT. ALL ACFT TAXI WITH TRANSPONDER AND ALTITUDE ENCODING ON. ...ADVS YOU HAVE INFO A.\n[Departure ATIS] KMSP DEP ATIS U 0153Z - KMSP DEP INFO U 0153Z. 13006KT 10SM FEW045 FEW050 BKN250 27/22 A2999 (TWO NINER NINER NINER) RMK AO2 SLP151 T02670222. DEPARTING RWY 12L, RWY 12R, RWY 17. NOTICE TO AIRMEN. RWYS 4, 22 CLSD. TWY R7. R8. R9. R10. CLOSED, TWY R BETWEEN R6 AND R10 CLOSED, TWY A7 CLSD. ALL ACFT CTC METERING ON ONE THREE THREE POINT FIVE SEVEN WHEN READY TO PUSHBACK OR TAXI. HAZD WX INFO FOR MSP AREA AVBL FM FSS. CTN, BIRDS NEAR MSP. READ BACK HS AND ALT. ALL ACFT TAXI WITH TRANSPONDER AND ALTITUDE ENCODING ON. ...ADVS YOU HAVE INFO U.",
    "CYEG": "[Arrival ATIS] CYEG ARR ATIS U 0600Z CYEG ARR ATIS U 0600Z 13011KT 20SM SCT190 18/15 A2991 APCH RNAV Z OR Y RWY 20, INFORM ARRL OF REQ APCH ON INITIAL CTC. LDG AND DEP RWY 20. SIMUL APPROACHES MAY BE IN EFCT. INFORM CYEG ATC INFO U\n[Departure ATIS] CYEG DEP ATIS R 0300Z CYEG ARR ATIS R 0300Z 13009KT 20SM FEW052 SCT250 22/16 A2992 APCH RNAV Z OR Y RWY 20, INFORM ARRL OF REQ APCH ON INITIAL CTC. LDG AND DEP RWY 20. SIMUL APPROACHES MAY BE IN EFCT. INFORM CYEG ATC INFO R",
    "EHAM": "[Arrival ATIS] EHAM ARR ATIS I 2123Z EHAM ARRIVAL INFO I. DEMAND. MAIN LANDING RWY 18 R. TRANSITION LEVEL 040. RWY 18 R RCR AT TIME 1947. RWYCC: 5/5/5 WET/WET/WET COVERAGE(%): 100/100/100. WIND 260 DEG, 1 KT. VIS 9 KM. WX -TSRA. CLD FEW 3000 FT SCT CB 7000 FT. T 21. DP 19. QNH 1016 HPA. TREND BECMG -SHRA. OPERATIONAL REPORT. CONTACT APCH WITH CALLSIGN ONLY. END OF INFO I\n[Departure ATIS] EHAM DEP ATIS X 1752Z EHAM DEPARTURE INFO X. DEMAND. MAIN DEPARTURE RWY 24. MAIN LANDING RWY 18 R. WIND 250 DEG, 5 KT. CAVOK. T 30. DP 19. QNH 1012 HPA. OPERATIONAL REPORT. INFORM SCHIPHOL DEL BY VOICE IF UNABLE TO COMPLY WITH NADP 2. END OF INFO X",
    "EBBR": "[Arrival ATIS] EBBR ARR ATIS F 0620Z EBBR NAT, EXP VECT FOR ILS APP ARR RWY25L RSCD AT 0317 RWY25L DRY. DEP RWY25R TRL 055 TWY C6 CLSD. ILS RWY 25R U/S. RNP RWY 25R AT ATC DISCRETION 310/4KT VIS ABV 10KM BKN3500FT T20 DP15 QNH 1019HPA NOSIG CFM ARR F\n[Departure ATIS] EBBR DEP ATIS A 0720Z EBBR NAT, DEP RWY25R RSCD AT 0551 RWY25R DRY. ARR RWY25L TRL 055 B3 CLSD 320/5KT VRB BTN 290 AND 360 VIS ABV 10KM FEW3300FT BKN4000FT T20 DP16 QNH 1019HPA NOSIG CFM DEP A",
    "EDDF": "[Arrival ATIS] EDDF ARR ATIS W 1520Z -ARR-ATIS EDDF W METAR 071520 -EXPECT INDEPENDENT PARALLEL ILS Y APCH RWY 25R OR ILS APCH RWY 25L -RWY 25R 25L -GLS APCH ON REQUEST , DO NOT MISTAKE TWY M FOR RWY 25C WHEN PERFORMING VISUAL APPROACH , -TRL 70 -ATTN : BIRDS IN THE VICINITY OF THE RWYS , AD WRNG VALID TIL 1800 , SFC WIND 27015KT MAX 30 KTS , FCST WKN , MOD TURB REPORTED AT 1335 BY AIRBUS A 321 IN EASTERN TMA BTN F090 AND A050 -26014KT -CAVOK - - -T30 DP06 -QNH1012 - -TREND NOSIG\n[Departure ATIS] EDDF DEP ATIS O 0550Z DEP-ATIS EDDF O METAR 080550 RWY 25C 18 TRL 60 31010KT 260V340 RWY18 VRB03KT CAVOK T21 DP14 QNH1016 TREND NOSIG END OF ATIS O",
    "EDDL": "[Arrival ATIS] EDDL ARR ATIS J 1320Z -ATIS EDDL J METAR 071320 -EXPECT VECTORS ILS APPROACH -RWY 23L -TWY L2 , L4 AND L5 BTN TWY M AND RWY 23L CLOSED -TRL 70 - -28017KT 250V310 -CAVOK - - -T28 DP13 -QNH1013 - -TREND TEMPO 28020G30KT\n[Departure ATIS] EDDL DEP ATIS R EDDL ARR/DEP DATIS RPT -ATIS EDDL R METAR 020550 -EXPECT VECTORS ILS APPROACH -RWY 23L -TWY L8 CLOSED BETWEEN TWY M AND RWY 23L -TRL 60 - -23010KT -CAVOK - - -T19 DP13 -QNH1020 - -TREND NOSIG",
    "EDDK": "[Arrival ATIS] EDDK ARR ATIS M 0620Z ATIS EDDK M METAR 080620 EXPECT ILS APCH RWY 31R RWY COND RWY 31R AT TIME 1845 RWYCC 6 DEPOSIT TOTAL RWY DRY TRL 60 RWY 13R AND RWY 31L CLOSED FOR DEPARTURE AND LANDING: TAXIING BTN THR RWY 13R AND INTERSECTION RWY 24 POSSIBLE : 33008KT 300V360 9999 FEW026 BKN047 T20 DP14 QNH1017 TREND NOSIG\n[Departure ATIS] EDDK DEP ATIS Q EDDK ARR/DEP DATIS RPT -ATIS EDDK Q METAR 291920 -EXPECT ILS APCH -RWY 31R 06 -RWY COND RWY 31R AT TIME 1830 RWYCC 6 DEPOSIT TOTAL RWY DRY RWY 06 AT TIME 1830 RWYCC 6 DEPOSIT TOTAL RWY DRY -TRL 60 -RWY 13R AND RWY 31L CLOSED FOR DEPARTURE AND LANDING: TAXIING BTN THR RWY 13R AND INTERSECTION RWY 24 POSSIBLE : -04003KT -CAVOK - - -T24 DP13 -QNH1024 - -TREND NOSIG",
    "EBLG": "[Arrival ATIS] EBLG ATIS V 0550Z EBLG INFO, EXP RNAV TO ILS APP ARR RWY22L DEP RWY22L RWY 22L DRY, RWYCC 666. TRL 055 TWY A4 CLSD 290/5KT VIS ABV 10KM BKN3500FT T19 DP14 QNH 1019HPA NOSIG CFM ATIS V",
    "LSZH": "[Arrival ATIS] LSZH ARR ATIS K 0650Z ARRIVALS, EXP ILS APCH, RWY 14. TRL 70. DEP RWY 28. WIND VRB BTN 240 AND 310 DEG, 2 KT. CAVOK. T 22. DP 12. QNH 1019. NOSIG.\n[Departure ATIS] LSZH DEP ATIS W 0650Z DEP RWY 28. TRL 70. ARRIVALS, EXP ILS APCH, RWY 14. TMA S 1 IS NOT ACT. TMA S 2 AND S 3 ARE NOT ACT. WIND VRB, 2 KT. CAVOK. T 22. DP 12. QNH 1019. NOSIG.",
    "LIMC": "[Arrival ATIS] LIMC ARR ATIS D 0620Z LIMC ARR D 0620Z I.L.S. ZULU RWY IN USE 35L TL 70 WIND TDZ 020/3KT CAVOK T24 DP14 QNH 1013HPA QFE 0988HPA\n[Departure ATIS] LIMC DEP ATIS P 1550Z LIMC DEP P 1550Z RWY IN USE 35R TL 70 WIND END 220/10KT CAVOK T32 DP09 QNH 1015HPA QFE 0990HPA DATALINK CLEARANCE AVAILABLE.... CONTACT 1 3 1 8 8 0 TO BE RELEASED BY THE AIRPORT OPERATOR ...",
    "LIRF": "[Arrival ATIS] LIRF ARR ATIS I 0650Z LIRF ARR I 0650Z RWY 16L ILS W RWY 16R ILS Z RWY IN USE 16L 16R TL 70 DEPENDENT PARL ILS APCH INPR RWY IN USE 16R OR 16L ASSIGNED BY ROME RADAR WIND RWY 16L TDZ VRB2KT RWY 16R TDZ VRB3KT VIS RWY 16L 10KM RWY 16R 10KM CLD RWY 16L SCT 1200FT RWY 16R SCT 1200FT T27 DP23 QNH 1015HPA\n[Departure ATIS] LIRF DEP ATIS W 0421Z LIRF DEP W 0421Z RWY IN USE 25 TL 70 LVP INPR RWYS IN USE FOR ARR 16L AND 16R WIND END 120/3KT VIS 3000M BR CLD BKN 1000FT T22 DP22 QNH 1015HPA REA IS SENT AUTOMATICALLY ONCE RLSD BY RAMP WHEN READY CONTACT FIUME RAMP 121.725",
    "EINN": "[Arrival ATIS] EINN ARR ATIS S 0700Z EXPECT I L S CATEGORY 1 LDG RWY24 TKOF RWY24 TRL FL060 VRB02KT 4500 VCFG FEW002 SCT007 BKN021 14/12 QNH Q1020 TREND BECMG 9999 NSW ADVISE AT FIRST CONTACT YOU HAVE ATIS INFO S",
    "EGLL": "[Arrival ATIS] EGLL ARR ATIS T 0720Z LANDING RWY 27L TRANSITION-LEVEL: FL 70 RUNWAY 27R REDUCED DECLARED DISTANCES WITH TAKE OFF RUN AVAILABLE 3362METRES AND LANDING DISTANCE AVAILABLE 3362METRES IF STAND GUIDANCE IS OFF OR FAILS, REMAIN ON THE TAXIWAY CENTRELINE AND ADVISE ATC AUTO 05006KT 340V060 9999 NCD 23/13 Q1020 ACKNOWLEDGE RECEIPT OF INFORMATION T\n[Departure ATIS] EGLL DEP ATIS Y 1850Z DEPARTURE RWY 27R PILOTS THAT ARE IN RECEIPT OF DATALINK CLEARANCES ARE REMINDED THEY MUST CONTACT DELIVERY ON 121.980 WHEN READY FOR START DET VOR OOS AUTO 26013KT 9999 NCD 25/15 Q1013 ACKNOWLEDGE RECEIPT OF INFORMATION Y AND REPORT AIRCRAFT TYPE AND CURRENT QNH ON FIRST CONTACT WITH HEATHROW",
    "EPWA": "[Arrival ATIS] EPWA ARR ATIS B 0606Z EPWA ARR B. TIME 0606. EXP U ARR ILS Z APCH FOR RWY 33. RWY 33 RCC 5, 5, 5. 1ST PART, WET. 2ND PART, WET. 3RD PART, WET. RWY REPORT END. TRANSITION LEVEL 80. WIND 280 DEG, 14 KT GUSTING FM 5 KT TO 24 KT, VRB BTN 240 AND 320 DEG. VIS TDZ 10 KM OR MORE. CLD BKN 2500 FT. T 14. DP 11. QNH 1003. TREND TEMPO WIND 280 DEG, 22 KT, GUSTING TO 35 KT. CAUTION. BIRD ACT. END OF EPWA ARR B\n[Departure ATIS] EPWA DEP ATIS Q 0431Z EPWA DEP Q. TIME 0430. DEP RWY 29. ARR RWY 33, EXP U ARR ILS Z. REPORT READY FOR STARTUP ON DELIVERY 121. 605. RWY 29 RCC 5, 5, 5. 1ST PART, WET. 2ND PART, WET. 3RD PART, WET. RWY REPORT END. TRANSITION LEVEL 80. WIND 270 DEG, 16 KT. VIS MID 10 KM OR MORE. CLD BKN 1800 FT. T 13. DP 11. QNH 1003. NOSIG. CAUTION. BIRD ACT. END OF EPWA DEP Q",
    "EFHK": "[Arrival ATIS] EFHK ARR ATIS M 0623Z EXPECT ILS APCH ARR RWY 04R RUNWAY 04R CONDITION REPORT AT 0622 UTC RUNWAY CONDITION CODES 6 , 6 , 6 CONTAMINANTS ALL PARTS 25 PERCENT WET TRL 65 WIND 020 DEG 6 KT VIS 10KM FEW 300 FT T 13 DP 12 QNH 997 NOSIG ACK INFO M\n[Departure ATIS] EFHK DEP ATIS H 1620Z DEP RWYS 22R AND 22L RUNWAY 22R CONDITION REPORT AT 1329 UTC RUNWAY CONDITION CODES 6 , 6 , 6 CONTAMINANTS ALL PARTS DRY RUNWAY 22L CONDITION REPORT AT 1330 UTC RUNWAY CONDITION CODES 6 , 6 , 6 CONTAMINANTS ALL PARTS DRY WIND 110 DEG 6 KT VIS 10KM FEW 1400 FT. SCT 1600 FT. FEW TCU 2800 FT T 19 DP 15 QNH 1003 TEMPO CLD FEW CB 3000 FT. ACK INFO H",
    "LTAC": "[Arrival ATIS] LTAC ARR ATIS C 1420Z EXP ILS V APCH 03C DEP RWY 03L RWY 03C WIND 040 DEG 07 KT VRB BTN 360 DEG AND 080 DEG RWY 03L WIND 030 DEG 07 KT VRB BTN 350 DEG AND 060 DEG TRL 110 VIS 9999 SCT04000 FT SCT10000 FT T 27 DP 09 QNH 1014 NOSIG FOR DELIVERY CTC 121.9. FOR DELIVERY FIRST USE DIGITAL DEP CLR. CTN BIRD HAZARD OVR AERODROME. APCH FREQUENCY 129.050. TAXIWAY ECHO 1 IS CLOSED. END OF ATIS C",
    "UBBB": "[Arrival ATIS] UBBB ARR ATIS K 0730Z ATIS K EXP ILS/ LDG 34 35 DEP 34 35 IN USE RWY 34 CLEAR DRY 70 RWY 35 CLEAR DRY 70 TLVL 110 WIND WIND RWY 34 350 22 KT SPD MAX 28 MIN 18 WIND RWY 35 340 22 KT SPD MAX 26 MIN 18 VIS 10 KM FEW HEIGHT OF CLD BASE NOT AVBL RWY 34 FEW 2500 FT RWY 35 T 27 / DP 19 QNH 1008 HPA TREND TREND NOSIG MODERATE BIRDS ACT IN VICINITY OF AP END OF ATIS K\n[Departure ATIS] UBBB DEP ATIS P 1800Z ATIS P EXP ILS/ LDG 16 17 DEP 16 17 IN USE RWY 17 CLEAR DRY 70 RWY 16 CLEAR DRY 70 TLVL 110 WIND WIND RWY 16 110 6 KT SPD MAX 8 MIN 6 WIND RWY 17 140 8 KT SPD MAX 10 MIN 6 VIS CAVOK T 26 / DP 20 QNH 1010 HPA TREND TREND NOSIG MODERATE BIRDS ACT IN VICINITY OF AP END OF ATIS P",
    "ZWWW": "[Arrival ATIS] ZWWW ARR ATIS X 2100Z EXP ILSDME Z APCH LDG RWY 26L TA 3000 WIND 180/4MPS CAVOK T 27 /DP 07 QNH 1009 HPA ADZ YOU HAVE INFO X.\n[Departure ATIS] ZWWW DEP ATIS G 0500Z DEP RWY 26L TA 3000 WIND 190/4MPS VRB BTN 170/ AND 230/ CAVOK T 29 /DP 12 QNH 1008 HPA ADZ YOU HAVE INFO G.",
    "ZLXY": "[Arrival ATIS] ZLXY ARR ATIS W 1900Z EXP ILS APCH LDG RWY 06L WIND VRB/1MPS CAVOK T 21 /DP 19 QNH 1005 HPA VISUAL APPROACH IN PROGRESS ADZ YOU HAVE INFO W.\n[Departure ATIS] ZLXY DEP ATIS G 0600Z DEP RWY 05L & 06L WIND VRB/1MPS VIS 9999M CLD SCT 1500M T 29 /DP 19 QNH 1005 HPA VISUAL APPROACH IN PROGRESS ADZ YOU HAVE INFO G.",
    "ZBAA": "[Arrival ATIS] ZBAA ARR ATIS S 2100Z EXP ILS APCH LDG RWY 36L RWY 36R IS CLSD WIND 030 DEG 1 MPS VIS 5000 BR NSC T 21 /DP 20 QNH 1003 HPA RWY 36L RWYCC 5/5/5 ISSUED AT 1411 ALL PARTS WET NR 100PCT VISUAL APPROACH IS IN PROGRESS. ADZ YOU HAVE INFO S.\n[Departure ATIS] ZBAA DEP ATIS Y 0030Z DEP RWY 36L & 36R & 01 WIND VRB DEG 1 MPS CAVOK T 27 /DP 22 QNH 1000 HPA RWY INDEPENDENT PARALLEL DEP VISUAL APPROACH IS IN PROGRESS. ADZ YOU HAVE INFO Y.",
    "ZBHH": "[Arrival ATIS] ZBHH ARR ATIS N 1800Z EXP ILSDME APCH LDG RWY 26 SFC COND & BA NOTICE: RWYCC 26 6/6/6 ISSUED AT 1450Z ALL PARTS DRY NR NR TA 3000 /TRL 3600 WIND 350/5MPS VRB BTN 310/ AND 020/ VIS 9999M CLD FEW 1200M T 14 /DP 04 QNH 1012 HPA ADZ YOU HAVE INFO N.\n[Departure ATIS] ZBHH DEP ATIS K 0600Z DEP RWY 26 TA 3000 /TRL 3600 WIND 240/4MPS VIS 9999M CLD SCT 900M /FEW TCU 900M T 23 /DP 16 QNH 1006 HPA BEFORE 1300 UTC, TURBULENCE MAY OCCUR IN LOCAL FIELD. ADZ YOU HAVE INFO K.",
    "ZSQD": "[Arrival ATIS] ZSQD ARR ATIS L 1800Z EXP ILSDME APCH LDG RWY 17 TA 3000 /TRL 3600 WIND 330/2MPS CAVOK T 22 /DP 20 QNH 1001 HPA VISUAL APPROACH OPERATION IN PROGRESS. WHEN READY CONTACT QINGDAO TOWER ON 118.275 RUNWAY 17,IF MISSED APPROACH,EXPECT FOLLOW THE STANDARD MISSED APPROACH PROCEDURE,CLIMB TO 900M ON QNH OR BY ATC CAUTION MAYBE THERE IS A FLOCK OF BIRDS IN THE VICINITY OF AIRPORT ADZ YOU HAVE INFO L.\n[Departure ATIS] ZSQD DEP ATIS W 0900Z DEP RWY 16 TA 3000 /TRL 3600 WIND 140/2MPS VRB BTN 100/ AND 170/ VIS 9999M CLD BKN 900M T 25 /DP 19 QNH 1002 HPA SEGREGATED OPERATION VISUAL APPROACH OPERATION IN PROGRESS. RUNWAY 17,IF MISSED APPROACH,EXPECT FOLLOW THE STANDARD MISSED APPROACH PROCEDURE,CLIMB TO 900M ON QNH OR BY ATC CAUTION MAYBE THERE IS A FLOCK OF BIRDS IN THE VICINITY OF AIRPORT ADZ YOU HAVE INFO W."
  },
  "windtemp_alaska": "\n000\nFBAK31 KWNO 080200\nFD1AK1\nDATA BASED ON 080000Z    \nVALID 080600Z   FOR USE 0200-0900Z. TEMPS NEG ABV 24000\n\nFT  3000    6000    9000   12000   18000   24000  30000  34000  39000\nADK 3409 3310+03 3114+01 3017-02 2824-16 2727-29 262545 264351 265450\nADQ 1818 1526+04 1424+00 1518-05 2613-17 2429-28 223545 243450 263847\nAKN 1524 1422+02 1613+00 1713-05 1814-18 1915-29 143046 182248 232044\nANC 1611 2005+04 9900-02 9900-07 0709-18 0510-29 071446 040653 320846\nANN 2413 2216-01 2117-07 2119-13 2320-27 2225-37 262438 272138 262140\nBET 1515 1220+01 1221-02 1312-07 1217-19 1219-32 143547 152348 181643\nBRW 9900 2010+07 2110-01 2113-07 2023-19 2031-30 205246 193953 191846\nBTI 1009 1205+10 9900+03 2308-04 1915-16 2111-29 230946 231155 201650\nBTT 0905 1207+10 1109+02 1210-05 1707-18 1716-29 162545 162656 171850\nCDB 2310 2416-01 2531-02 2539-07 2545-21 2468-32 258040 256442 255042\nCZF 0216 0616+03 1015-03 1117-08 1214-21 1319-33 153148 151548 171142\nEHM 1808 1511+01 1515-03 1520-08 1325-21 1428-33 153244 182143 221741\nFAI 1314 1014+10 1018+01 1117-05 1012-17 0914-28 092145 102656 131549\nFYU 1106 1308+10 1508+02 1605-05 1313-16 1313-27 111245 101155 151650\nGAL 0906 1008+07 1409+00 1313-06 1517-19 1527-32 164247 163352 181346\nGKN 1623 1719+03 1610-01 1205-07 0721-19 0730-33 074749 073247 090844\nHOM 1316 1513+04 1612-01 1609-06 1806-18 1708-29 241344 231253 251447\nJNU 9900 1708-01 1509-06 1011-11 1236-24 1154-36 124243 141240 180941\nLUR 1916 1818+06 1818+00 1815-06 1712-20 1414-33 141949 151551 151244\nMCG 1507 1407+06 1710+00 1610-06 1418-19 1518-30 161945 171553 190946\nMDO 1413 1308+02 0605-03 0108-08 0313-21 3431-31 323646 313648 301644\nOME 0307 0811+05 1213-02 1414-08 1417-20 1413-32 141550 131750 171343\nORT      1508+06 1411+00 1113-05 1124-20 1143-32 115649 113750 111445\nOTZ 1305 1411+06 1509-01 1510-07 1515-20 1619-33 162449 172049 161545\nSNP 3337 3438-01 3430-04 3325-08 3228-20 3226-34 312547 302642 282241\nTKA 1818 2009+04 9900-01 9900-06 1013-17 0811-29 092546 081754 990047\nUNK 0809 0811+05 1011-01 1112-07 1416-20 1618-32 182348 192051 171444\nYAK 3105 9900+02 1005-04 0807-10 1121-24 1238-37 112442 110940 990042\nIKO 3129 3037+01 2942+00 2844-04 2854-16 2759-29 276543 267248 266747\nAFM 1210 1113+07 1308+00 1711-06 1620-19 1631-32 175547 174553 161647\n5AB 3209 2810+03 2712+01 2711-02 2517-16 2523-29 263645 275453 263851\n5AC 2921 3026+03 3028-03 2936-08 2949-18 3072-28 308741 318148 296048\n5AD 2016 2012+05 2313+01 2720-04 2846-14 2964-25 298839 299947 780155\n5AE 2622 2421+06 2529+03 2534-01 2644-15 2659-28 269541 269848 257849\n5AF 3516 3515-01 3315-06 3318-12 3224-26 3150-36 305738 303739 292841\n5AG 1505 9900+00 0206-05 3312-10 3227-24 3148-35 315741 313542 302643\n",
  "vaac_tokyo": [
    {
      "id": "20260708_30027000_0249",
      "year": "2026",
      "volcano": "Sheveluch",
      "psn": "N5639 E16122",
      "issued": "20260708",
      "text": "FVFE01 RJTD 080600\nVA ADVISORY\nDTG: 20260708/0600Z\nVAAC: TOKYO\nVOLCANO: SHEVELUCH 300270\nPSN: N5639 E16122\nAREA: RUSSIA\nSOURCE ELEV: 3283M AMSL\nADVISORY NR: 2026/249\nINFO SOURCE: HIMAWARI-9\nERUPTION DETAILS: VA CONTINUOUSLY OBS IN SATELLITE IMAGERY\nOBS VA DTG: 08/0520Z\nOBS VA CLD: SFC/FL230 N5313 E16025 - N5422 E16047 - N5647 E16656 - \nN5629 E16710 MOV S 15KT SFC/FL280 N5139 E16115 - N5213 E16122 - \nN5446 E16959 - N5413 E16922 MOV S 10KT\nFCST VA CLD +6 HR: 08/1120Z SFC/FL230 N5629 E17123 - N5429 E16527 - \nN5052 E15931 - N5403 E16151 - N5635 E16816 SFC/FL280 N5532 E17310 - \nN5446 E17306 - N5249 E16611 - N4825 E15946 - N5026 E16004 - N5353 \nE16648\nFCST VA CLD +12 HR: 08/1720Z SFC/FL230 N5654 E17443 - N5611 E17427 - \nN5351 E16553 - N4818 E16026 - N4813 E15858 - N5416 E16337 - N5615 \nE16849 SFC/FL270 N5625 E17716 - N5532 E17705 - N5241 E16615 - N4631 \nE16235 - N4629 E16028 - N4801 E16045 - N5359 E16626\nFCST VA CLD +18 HR: NO VA EXP\nRMK: NORTHERN PART OF VA(FL230) OBSCURED BY MET CLOUD.\nNXT ADVISORY: 20260708/1200Z=",
      "img_url": "https://ds.data.jma.go.jp/svd/vaac/data/VAGFN/2026/Images/20260708_30027000_0249_QH21_01.png",
      "sat_img_url": "https://ds.data.jma.go.jp/svd/vaac/data/Sat/2026/Images/30027000/09-ir/20260708_0520_202607080600_ir.png",
      "text_url": "https://ds.data.jma.go.jp/svd/vaac/data/TextData/2026/20260708_30027000_0249_Text.html"
    },
    {
      "id": "20260706_27202000_0232",
      "year": "2026",
      "volcano": "Kanlaon",
      "psn": "N1025 E12308",
      "issued": "20260706",
      "text": "FVFE01 RJTD 061545\nVA ADVISORY\nDTG: 20260706/1545Z\nVAAC: TOKYO\nVOLCANO: KANLAON 272020\nPSN: N1025 E12308\nAREA: PHILIPPINES\nSOURCE ELEV: 2435M AMSL\nADVISORY NR: 2026/232\nINFO SOURCE: HIMAWARI-9 PHIVOLCS\nERUPTION DETAILS: ERUPTION AT 20260706/1520Z FL100 EXTD SW REPORTED\nOBS VA DTG: 06/1530Z\nOBS VA CLD: VA NOT IDENTIFIABLE FM SATELLITE DATA WIND FL100 350/5KT\nFCST VA CLD +6 HR: NOT AVBL\nFCST VA CLD +12 HR: NOT AVBL\nFCST VA CLD +18 HR: NOT AVBL\nRMK: WE WILL ISSUE FURTHER ADVISORY IF VA IS DETECTED IN SATELLITE \nIMAGERY.\nNXT ADVISORY: NO FURTHER ADVISORIES=",
      "img_url": "https://ds.data.jma.go.jp/svd/vaac/data/VAGFN/2026/Images/20260706_27202000_0232_QH21_01.png",
      "sat_img_url": null,
      "text_url": "https://ds.data.jma.go.jp/svd/vaac/data/TextData/2026/20260706_27202000_0232_Text.html"
    },
    {
      "id": "20260705_27303000_0717",
      "year": "2026",
      "volcano": "Mayon",
      "psn": "N1315 E12341",
      "issued": "20260705",
      "text": "FVFE01 RJTD 051936\nVA ADVISORY\nDTG: 20260705/1936Z\nVAAC: TOKYO\nVOLCANO: MAYON 273030\nPSN: N1315 E12341\nAREA: PHILIPPINES\nSOURCE ELEV: 2462M AMSL\nADVISORY NR: 2026/717\nINFO SOURCE: HIMAWARI-9 PHIVOLCS\nERUPTION DETAILS: ERUPTION AT 20260705/1914Z FL090 EXTD WSW REPORTED\nOBS VA DTG: 05/1920Z\nOBS VA CLD: VA NOT IDENTIFIABLE FM SATELLITE DATA WIND FL090 050/8KT\nFCST VA CLD +6 HR: NOT AVBL\nFCST VA CLD +12 HR: NOT AVBL\nFCST VA CLD +18 HR: NOT AVBL\nRMK: WE WILL ISSUE FURTHER ADVISORY IF VA IS DETECTED IN SATELLITE \nIMAGERY.\nNXT ADVISORY: NO FURTHER ADVISORIES=",
      "img_url": "https://ds.data.jma.go.jp/svd/vaac/data/VAGFN/2026/Images/20260705_27303000_0717_QH21_01.png",
      "sat_img_url": null,
      "text_url": "https://ds.data.jma.go.jp/svd/vaac/data/TextData/2026/20260705_27303000_0717_Text.html"
    },
    {
      "id": "20260701_30006000_0001",
      "year": "2026",
      "volcano": "Mutnovsky",
      "psn": "N5227 E15812",
      "issued": "20260701",
      "text": "FVFE01 RJTD 012206\nVA ADVISORY\nDTG: 20260701/2206Z\nVAAC: TOKYO\nVOLCANO: MUTNOVSKY 300060\nPSN: N5227 E15812\nAREA: RUSSIA\nSOURCE ELEV: 2288M AMSL\nADVISORY NR: 2026/1\nINFO SOURCE: KVERT KBGS UHPP HIMAWARI-9\nERUPTION DETAILS: ERUPTION AT 20260701/2016Z FL170 EXTD W REPORTED\nOBS VA DTG: 01/2140Z\nOBS VA CLD: VA NOT IDENTIFIABLE FM SATELLITE DATA WIND FL170 120/8KT\nFCST VA CLD +6 HR: NOT AVBL\nFCST VA CLD +12 HR: NOT AVBL\nFCST VA CLD +18 HR: NOT AVBL\nRMK: WE WILL ISSUE FURTHER ADVISORY IF VA IS DETECTED IN SATELLITE \nIMAGERY.\nNXT ADVISORY: NO FURTHER ADVISORIES=",
      "img_url": "https://ds.data.jma.go.jp/svd/vaac/data/VAGFN/2026/Images/20260701_30006000_0001_QH21_01.png",
      "sat_img_url": null,
      "text_url": "https://ds.data.jma.go.jp/svd/vaac/data/TextData/2026/20260701_30006000_0001_Text.html"
    }
  ],
  "vaac_alaska": [
    {
      "text": "\n000\nFVAK21 PAWU 080614\nVAAAK1\nVA ADVISORY\n\nDTG: 20260708/0610Z\n\nVAAC: ANCHORAGE\n\nVOLCANO: SHEVELUCH 300270\n\nPSN: N5639 E16122\n\nAREA: KAMCHATKA PENINSULA\n\nSOURCE ELEV: 10771 FT AMSL\n\nADVISORY NR: 2026/184\n\nRMK: PLEASE SEE FVFE01 RJTD ISSUED BY VAAC TOKYO WHICH DESCRIBES\nCONDITIONS NEAR THE VAAC ANCHORAGE AREA OF RESPONSIBILITY...TS\n\n\n\n",
      "issued": "2026-07-08T06:14:00+00:00",
      "volcano": "Sheveluch",
      "psn": "N5639 E16122"
    }
  ]
}