{
  "updated_utc": "2026-07-16T11:24Z",
  "metar": {
    "RJAA": "METAR RJAA 160930Z 16009KT 8000 FEW008 SCT010 28/26 Q1001 TEMPO FEW008 BKN012",
    "PANC": "METAR PANC 160953Z 18006KT 10SM FEW055 12/08 A3005 RMK AO2 SLP177 T01220083",
    "PAFA": "METAR PAFA 160953Z 24011G16KT 10SM SCT025 BKN040 OVC075 11/07 A2994 RMK AO2 SLP144 T01110067",
    "PAED": "METAR PAED 160955Z 00000KT 10SM BKN049 12/08 A3004 RMK AO2A SLP169 T01180077 $",
    "KSEA": "METAR KSEA 160953Z 30003KT 10SM SCT150 15/09 A2995 RMK AO2 SLP145 T01500094 $",
    "ZSPD": "METAR ZSPD 160930Z 13004MPS CAVOK 35/25 Q1001 NOSIG",
    "ZSSS": "METAR ZSSS 160930Z 22004MPS 180V270 CAVOK 37/23 Q1001 NOSIG",
    "RJFR": "METAR RJFR 161000Z 32009KT 9999 FEW030 SCT150 BKN/// 29/25 Q1002",
    "VHHH": "METAR VHHH 160930Z 06005KT 9999 FEW007 28/24 Q1005 NOSIG",
    "RCTP": "METAR RCTP 160930Z 25016KT 9999 SCT020 31/26 Q1006 NOSIG RMK A2973",
    "ZGSZ": "METAR ZGSZ 161000Z 17003MPS 9999 FEW026 27/25 Q1005 NOSIG",
    "WSSS": "METAR WSSS 160930Z 11008KT 9999 FEW017TCU FEW020CB BKN270 30/24 Q1010 NOSIG",
    "WMKK": "METAR WMKK 160930Z VRB03KT 9999 FEW017CB 32/25 Q1008 NOSIG",
    "WIDD": "METAR WIDD 160930Z 11008KT 9999 SCT014 29/25 Q1010 NOSIG",
    "VTBS": "METAR VTBS 160930Z 19009KT 9999 VCSH FEW020CB SCT035 BKN090 30/24 Q1008 NOSIG",
    "VTBU": "METAR VTBU 160930Z 22010KT 200V260 9999 FEW020 31/27 Q1009 NOSIG",
    "ROAH": "METAR ROAH 160930Z 23008KT 9999 FEW005 BKN/// 28/27 Q1007",
    "VVDN": "METAR VVDN 160930Z 30004KT 250V340 9999 FEW020 SCT080 33/24 Q1005 NOSIG",
    "RCKH": "METAR RCKH 160930Z 24007KT 200V280 9999 3000S -SHRA FEW009TCU FEW014 SCT022 BKN038 28/25 Q1009 NOSIG RMK TCU S A2981",
    "KLAX": "METAR KLAX 160953Z 09006KT 10SM FEW010 21/18 A2981 RMK AO2 SLP091 T02110178 $",
    "KONT": "METAR KONT 160953Z 25004KT 10SM CLR 24/14 A2983 RMK AO2 SLP077 T02440139 $",
    "KSFO": "METAR KSFO 160956Z 30008KT 10SM CLR 14/11 A2992 RMK AO2 SLP130 T01440111 $",
    "KOAK": "METAR KOAK 160953Z 25011KT 10SM CLR 15/11 A2992 RMK AO2 SLP131 T01500111",
    "KMHR": "METAR KMHR 160935Z AUTO 13008KT 10SM CLR 17/07 A2982 RMK AO2 T01660073 $",
    "KDFW": "METAR KDFW 160953Z 12003KT 10SM BKN026 BKN140 OVC210 24/22 A3006 RMK AO2 SLP172 T02390217 $",
    "KIAH": "METAR KIAH 160953Z 03003KT 7SM FEW018 BKN220 25/24 A3006 RMK AO2 SLP177 T02500244 $",
    "KORD": "METAR KORD 160951Z 02006KT 3SM FU SCT045 BKN250 24/19 A3005 RMK AO2 SLP169 T02440189 $",
    "KJFK": "METAR KJFK 160951Z 26008KT 8SM BKN055 OVC300 24/17 A2993 RMK AO2 SLP136 FU OVC300 T02440167 $",
    "KRFD": "METAR KRFD 160954Z 17004KT 4SM FU FEW100 SCT250 22/20 A3007 RMK AO2 SLP175 T02220200",
    "KIND": "METAR KIND 160954Z 25004KT 10SM FEW200 BKN250 23/21 A3006 RMK AO2 SLP172 T02330211",
    "KDTW": "SPECI KDTW 160936Z 35003KT 1SM R03R/P6000FT FU SCT000 OVC027 22/16 A3004 RMK AO2 TWR VIS 2 FU SCT000 T02220156 $",
    "KMSP": "METAR KMSP 160953Z 07006KT 2SM FU OVC022 23/18 A3007 RMK AO2 SLP177 T02330183",
    "CYEG": "SPECI CYEG 160928Z VRB09G17KT 20SM SCT100 BKN150 16/15 A3005 RMK AC3AC4 WSHFT 0923 PRESRR SLP175 DENSITY ALT 3000FT",
    "EHAM": "METAR EHAM 160925Z 07011KT 040V100 9999 FEW024 22/15 Q1020 NOSIG",
    "EBBR": "METAR EBBR 160950Z 35005KT 300V080 CAVOK 26/15 Q1019 NOSIG",
    "EDDF": "METAR EDDF 160950Z AUTO VRB04KT CAVOK 29/12 Q1018 NOSIG",
    "EDFH": "METAR EDFH 160950Z 14005KT 070V210 CAVOK 27/13 Q1020",
    "EDDL": "METAR EDDL 160950Z AUTO 11007KT 080V150 CAVOK 26/12 Q1018 BECMG 04007KT",
    "EDDK": "METAR EDDK 160950Z AUTO VRB04KT CAVOK 27/13 Q1018 NOSIG",
    "EBLG": "METAR EBLG 160950Z 01006KT 310V040 CAVOK 27/14 Q1019 NOSIG",
    "LSZH": "METAR LSZH 160950Z 20004KT 160V290 CAVOK 27/17 Q1020 NOSIG",
    "LIMC": "METAR LIMC 160950Z 20004KT 090V260 CAVOK 30/17 Q1018 NOSIG",
    "LIRF": "METAR LIRF 160950Z 27007KT 240V300 CAVOK 31/25 Q1017 NOSIG",
    "EINN": "METAR EINN 160930Z 04004KT 340V070 CAVOK 24/14 Q1022 NOSIG",
    "EGLL": "METAR EGLL 160950Z AUTO 06008KT 020V100 9999 NCD 24/14 Q1021",
    "EGSS": "METAR EGSS 160950Z AUTO 03008KT 350V060 9999 NCD 25/14 Q1022",
    "EPWA": "METAR EPWA 160930Z 28003KT 210V340 9999 FEW040 26/16 Q1021 NOSIG",
    "UHPP": "METAR UHPP 160930Z 16002MPS 9999 FEW012 BKN040 BKN073 16/11 Q1019 R34L/190062 NOSIG RMK MT OBSC QFE760/1014",
    "EFHK": "METAR EFHK 160950Z 15007KT 080V190 9999 FEW031 BKN036 21/14 Q1022 NOSIG",
    "LBBG": "METAR LBBG 160930Z 13010KT 9999 FEW036 SCT049 30/18 Q1016 NOSIG",
    "LTAC": "METAR LTAC 160950Z VRB06KT 9999 FEW040 26/09 Q1017 NOSIG RMK RWY21C 05010KT RWY03L VRB06KT RWY21R 04007KT 300V090 RWY03R 01006KT 310V030 RWY21L VRB06KT",
    "UBBB": "METAR UBBB 160930Z 35020KT CAVOK 30/20 Q1009 NOSIG",
    "UTAA": "METAR UTAA 161000Z 29008KT 220V330 9999 NSC 41/15 Q1006 R88/CLRD70 NOSIG",
    "UACC": "METAR UACC 160930Z 24010MPS 210V280 9999 VCTS SCT040CB 32/14 Q1000 TEMPO VRB20MPS 3100 -TSRAGR SQ BKN030CB RMK QFE719/0959",
    "UAAA": "METAR UAAA 160930Z 07003MPS 9999 FEW050 38/04 Q1008 NOSIG",
    "UZTT": "METAR UZTT 160930Z 27006KT 200V330 CAVOK 41/07 Q1005 NOSIG",
    "ZWWW": "METAR ZWWW 160930Z 36004MPS 330V040 CAVOK 36/09 Q1007 NOSIG",
    "ZLXY": "METAR ZLXY 161000Z 27004MPS 9999 OVC050 32/24 Q1000 NOSIG",
    "ZBAA": "METAR ZBAA 160930Z 14003MPS CAVOK 31/23 Q1002 NOSIG",
    "ZBHH": "METAR ZBHH 161000Z 30002MPS 270V340 9999 SCT040 24/16 Q1008 NOSIG",
    "ZSQD": "METAR ZSQD 161000Z VRB01MPS CAVOK 28/24 Q1001 NOSIG",
    "ZMCK": "METAR ZMCK 160930Z 02005MPS 9999 SCT030CB SCT033 20/10 Q1009 NOSIG RMK QFE642.5 52 MOP",
    "UUEE": "METAR UUEE 160930Z 34009G16MPS 290V020 9999 SCT030 19/12 Q1012 R24L/CLRD62 R24C/CLRD62 NOSIG",
    "UUDD": "SPECI UUDD 160928Z 36007G13MPS 9999 SCT040 19/11 Q1011 R31L/CLRD65 NOSIG",
    "ULLI": "METAR ULLI 160930Z 07005MPS 030V110 9999 FEW033 18/06 Q1022 R88/090065 NOSIG",
    "USSS": "METAR USSS 160930Z 32003MPS 290V360 9999 SCT026CB 20/18 Q0995 R26L/290350 R26R/290040 TEMPO -TSRA RMK QFE726/0968",
    "UNNT": "METAR UNNT 160930Z 12006MPS CAVOK 29/13 Q1003 R07/CLRD// R34/CLRD// NOSIG RMK QFE742/0990",
    "UNKL": "METAR UNKL 160930Z 15002MPS 050V200 CAVOK 26/10 Q1006 R11/CLRD// NOSIG RMK QFE729",
    "UIBB": "METAR UIBB 160930Z 34002MPS 9999 SCT050CB 22/11 Q1006 R30/CLRD62 NOSIG RMK QFE712/0949",
    "UEEE": "METAR UEEE 160930Z 09003MPS CAVOK 27/16 Q0995 R23/09//63 NOSIG RMK QFE737",
    "UHHH": "METAR UHHH 160930Z 23006MPS 9999 FEW040 24/16 Q0995 R88/090060 NOSIG RMK QFE740/0987",
    "UHSS": "METAR UHSS 160930Z 19004MPS 9999 NSC 24/20 Q0997 R19/CLRD70 NOSIG RMK QFE747/0996"
  },
  "taf": {
    "RJAA": "TAF RJAA 160505Z 1606/1712 12008KT 9999 FEW030 SCT040 TEMPO 1618/1703 4000 -SHRA BR FEW003 BKN008 TEMPO 1706/1712 FEW003 BKN008",
    "PANC": "TAF PANC 160541Z 1606/1712 20008KT P6SM SCT060 FM161600 17007KT P6SM OVC060 FM162000 16010KT P6SM -RA SCT025 OVC045 FM162200 17012KT 5SM -RA SCT015 OVC025 FM170900 34006KT P6SM SCT020 OVC035 WS020/12025KT",
    "PAFA": "TAF PAFA 160527Z 1606/1712 24005KT P6SM -RA FEW040 OVC080 FM160800 22009G19KT P6SM -RA SCT025 OVC050 FM161200 23006KT P6SM BKN050",
    "PAED": "TAF PAED 160500Z 1605/1711 24009KT 9999 SCT050 QNH2995INS BECMG 1620/1621 25009KT 9999 -SHRA BKN031 OVC050 640753 QNH2997INS BECMG 1623/1624 32008KT 9000 -RA BKN015 OVC045 640703 QNH2995INS BECMG 1702/1703 33008KT 9999 -SHRA FEW015 FEW025 OVC050 640753 QNH2990INS BECMG 1707/1708 01006KT 9999 NSW BKN008 BKN015 OVC035 650753 QNH2987INS TX16/1605Z TN08/1613Z",
    "KSEA": "TAF KSEA 160850Z 1609/1712 34005KT P6SM SCT150 FM161200 23005KT P6SM VCSH OVC100 FM161600 21005KT P6SM -SHRA BKN025 OVC040 FM162000 22010KT P6SM VCSH OVC050 FM170700 22007KT P6SM BKN050",
    "ZSPD": "TAF ZSPD 160905Z 1612/1718 18004MPS 8000 SCT030 TX34/1612Z TX38/1706Z TN30/1621Z TEMPO 1706/1710 TSRA BKN015 FEW030CB",
    "ZSSS": "TAF ZSSS 160905Z 1612/1718 18004MPS 8000 SCT030 TX36/1612Z TX38/1706Z TN30/1621Z TEMPO 1706/1710 TSRA BKN015 FEW030CB",
    "RJFR": "TAF RJFR 160505Z 1606/1712 32014KT 9999 FEW050 BECMG 1700/1703 04006KT TEMPO 1703/1709 -TSRA FEW011 BKN030 FEW030CB",
    "VHHH": "TAF VHHH 161100Z 1612/1718 20010KT 9999 FEW010 SCT025 TX30/1706Z TN26/1622Z TEMPO 1612/1613 08010KT TEMPO 1613/1616 VRB15G25KT 2500 TSRA SHRA FEW010CB SCT015 TEMPO 1618/1623 3000 SHRA FEW010CB SCT020 TEMPO 1623/1705 VRB20G30KT 2000 TSRA +SHRA FEW008CB SCT015 TEMPO 1705/1708 3000 SHRA FEW010CB SCT020",
    "RCTP": "TAF RCTP 161100Z 1612/1718 24015KT 9999 FEW015 TEMPO 1616/1622 17010KT TEMPO 1704/1708 24015G25KT TEMPO 1708/1711 FEW010 FEW015TCU BKN025 BECMG 1711/1713 22010KT",
    "ZGSZ": "TAF ZGSZ 160903Z 1612/1718 18005MPS 8000 BKN040 TX27/1612Z TX28/1706Z TN25/1622Z TEMPO 1621/1624 SHRA FEW015 FEW020CB BKN030 TEMPO 1704/1708 SHRA FEW015 FEW020CB BKN030",
    "WSSS": "TAF WSSS 160500Z 1606/1712 14008KT 9999 FEW015 SCT020",
    "WMKK": "TAF WMKK 160500Z 1606/1712 VRB03KT 9999 FEW018",
    "VTBS": "TAF VTBS 160500Z 1606/1712 22008KT 9999 FEW020 TEMPO 1610/1614 VRB15KT 4000 TSRA FEW018CB SCT030 BKN080 TEMPO 1708/1712 VRB15KT 4000 TSRA FEW018CB SCT030 BKN080",
    "VTBU": "TAF VTBU 160500Z 1606/1706 24010KT 9999 FEW020",
    "ROAH": "TAF AMD ROAH 160606Z 1606/1712 22010KT 9999 FEW005 BKN010 TEMPO 1610/1614 FEW005 BKN008 TEMPO 1614/1621 FEW003 BKN005 TEMPO 1621/1703 FEW005 BKN008",
    "VVDN": "TAF VVDN 160500Z 1606/1706 12008KT 9999 FEW020 BKN070 TEMPO 1609/1612 25015KT TS SCT013 FEW017CB BKN070 PROB30 TEMPO 1617/1621 35015KT 4500 TSRA BKN013 FEW017CB BKN060",
    "RCKH": "TAF RCKH 161100Z 1612/1718 16005KT 9999 FEW015 BKN032 BECMG 1617/1619 09005KT TEMPO 1619/1623 16005KT 3000 SHRA SCT010 FEW012CB BKN020 TEMPO 1623/1703 23010KT 4000 SHRA FEW012 FEW015CB BKN022 BECMG 1703/1705 23008KT BECMG 1716/1718 09005KT",
    "KLAX": "TAF KLAX 161123Z 1612/1718 11006KT P6SM SCT008 FM161800 24006KT P6SM SKC FM162000 26012KT P6SM SKC FM170300 26006KT P6SM SCT250 FM170800 11005KT P6SM BKN012 FM171600 11005KT P6SM SCT012",
    "KONT": "TAF KONT 161120Z 1612/1718 VRB04KT P6SM FEW200 FM161900 25014G22KT P6SM SCT150 FM170300 26010KT P6SM FEW200 FM170700 VRB04KT P6SM SKC",
    "KSFO": "TAF KSFO 161120Z 1612/1718 28012KT P6SM SKC FM161800 29020G30KT P6SM SKC FM170600 28015KT P6SM SCT009 FM170900 28012KT P6SM BKN009 FM171700 29014KT P6SM SCT009",
    "KOAK": "TAF KOAK 161120Z 1612/1718 25009KT P6SM SKC FM161900 25014KT P6SM SKC FM170700 25011KT P6SM BKN007 FM171700 25011KT P6SM SCT007",
    "KMHR": "TAF KMHR 161120Z 1612/1712 17006KT P6SM SKC FM161800 20006KT P6SM SKC FM162100 23013G22KT P6SM SKC FM170400 16008KT P6SM SKC",
    "KDFW": "TAF KDFW 161120Z 1612/1718 15007KT P6SM FEW025 BKN100 TEMPO 1612/1615 BKN022 FM161500 17011KT P6SM -SHRA VCTS SCT030CB BKN110 FM161800 18011KT P6SM VCSH SCT035 BKN120 FM162200 18010KT P6SM -SHRA VCTS SCT040CB BKN250 FM170100 16010KT P6SM FEW100 BKN250",
    "KIAH": "TAF KIAH 161120Z 1612/1718 11004KT P6SM FEW020 BKN140 BKN250 FM161500 16007KT P6SM SCT025 BKN035 BKN250 FM161800 15009KT P6SM SCT035 SCT050 SCT100 FM170200 15007KT P6SM FEW020 SCT250 FM170600 VRB03KT P6SM SCT015 SCT025",
    "KORD": "TAF KORD 161120Z 1612/1718 07006KT 3SM FU SCT040 BKN250 TEMPO 1612/1615 1SM FU FM161800 07008KT 4SM FU SCT050 BKN250 FM170000 07005KT 6SM FU FEW050 BKN300 FM171500 24009KT P6SM SCT250",
    "KJFK": "TAF KJFK 161120Z 1612/1718 30009KT 6SM HZ BKN050 BKN250 FM161500 27011KT 5SM FU SCT050 BKN250 FM161800 23014G22KT 5SM FU SCT050 BKN250 TEMPO 1619/1623 3SM FU FM162300 31012G21KT 5SM FU FEW050 BKN250 TEMPO 1623/1701 3SM FU FM170100 34010KT 5SM FU BKN250 FM170600 33006KT 6SM FU BKN250 FM171300 34008KT P6SM SCT250",
    "KRFD": "TAF KRFD 161120Z 1612/1712 VRB03KT 4SM FU FEW050 BKN300 FM162300 07005KT 6SM FU FEW050 BKN300",
    "KIND": "TAF KIND 161120Z 1612/1718 27004KT P6SM SCT250 FM161800 25006KT P6SM SCT050 BKN200",
    "KDTW": "TAF KDTW 161120Z 1612/1718 VRB03KT 1SM FU OVC025 TEMPO 1612/1614 1/2SM FU FM161400 35005KT 3SM FU BKN035 BKN200 FM170100 14004KT 4SM FU BKN200",
    "KMSP": "TAF KMSP 160850Z 1609/1712 04004KT 1SM FU OVC022 FM161200 08002KT 3SM FU OVC022 FM161400 17007KT 6SM FU SCT050 FM162100 18006KT P6SM SCT050",
    "CYEG": "TAF CYEG 160840Z 1609/1706 VRB03KT P6SM FEW070 SCT140 TEMPO 1609/1612 VRB15G25KT P6SM -SHRA VCTS OVC060CB FM161200 VRB03KT P6SM SKC PROB30 1612/1614 1SM BR BKN003 FM161700 21006KT P6SM FEW030 FM162100 17008KT P6SM SCT040 FM170300 11006KT P6SM SKC RMK NXT FCST BY 161200Z",
    "EHAM": "TAF EHAM 160457Z 1606/1712 04010KT CAVOK BECMG 1623/1702 34007KT PROB30 TEMPO 1702/1706 6000 BKN014 BECMG 1709/1712 32014KT",
    "EBBR": "TAF EBBR 160501Z 1606/1712 03008KT CAVOK",
    "EDDF": "TAF EDDF 160500Z 1606/1712 05008KT CAVOK BECMG 1612/1614 14006KT PROB30 TEMPO 1612/1618 20015G30KT TSRA SCT050CB BECMG 1616/1620 20005KT",
    "EDFH": "TAF AMD EDFH 160639Z 1606/1706 15010KT CAVOK PROB40 TEMPO 1612/1618 20015G30KT TSRA SCT050CB BECMG 1618/1620 17005KT BECMG 1620/1623 24005KT",
    "EDDL": "TAF EDDL 160500Z 1606/1712 VRB03KT CAVOK BECMG 1608/1611 01007KT BECMG 1622/1701 31004KT BECMG 1707/1710 28009KT",
    "EDDK": "TAF EDDK 160500Z 1606/1712 VRB03KT CAVOK BECMG 1611/1614 04006KT PROB30 TEMPO 1612/1618 23015G25KT 3000 TSRA BKN050CB BECMG 1620/1623 VRB03KT PROB30 TEMPO 1706/1711 SHRA BKN040TCU BECMG 1707/1710 29009KT",
    "EBLG": "TAF EBLG 160501Z 1606/1712 35007KT CAVOK",
    "LSZH": "TAF LSZH 160825Z 1609/1715 20005KT 9999 FEW035 TX31/1615Z TN17/1704Z TX26/1714Z TEMPO 1609/1612 CAVOK TEMPO 1616/1624 SHRA SCT060TCU TEMPO 1616/1621 26017G30KT TSRA SCT050CB PROB30 TEMPO 1616/1618 29020G35KT 4000 TSGR PROB30 TEMPO 1621/1624 15010KT BECMG 1700/1702 CAVOK BECMG 1705/1707 9999 FEW050 SCT070 PROB40 TEMPO 1707/1711 21013KT SHRA SCT050TCU PROB40 TEMPO 1713/1715 26015G25KT TSRA FEW050CB",
    "LIMC": "TAF LIMC 161100Z 1612/1718 19006KT 9999 SCT040 TEMPO 1614/1617 TSRA BECMG 1615/1617 36010KT TEMPO 1700/1705 4000 TSRA BECMG 1706/1708 VRB05KT",
    "LIRF": "TAF LIRF 161100Z 1612/1718 28012KT CAVOK BECMG 1618/1620 VRB05KT BECMG 1707/1709 18010KT BECMG 1716/1718 VRB05KT",
    "EINN": "TAF EINN 161100Z 1612/1712 03008KT 9999 FEW040 BECMG 1617/1619 33010KT BECMG 1622/1624 01008KT BECMG 1708/1710 33010KT",
    "EGLL": "TAF EGLL 161057Z 1612/1718 09010KT 9999 FEW045 BECMG 1622/1701 02005KT PROB30 TEMPO 1703/1708 BKN008",
    "EGSS": "TAF EGSS 161059Z 1612/1718 05010KT CAVOK BECMG 1623/1702 35005KT TEMPO 1700/1708 BKN008 PROB30 TEMPO 1701/1706 4000 BR BKN004",
    "EPWA": "TAF EPWA 160830Z 1609/1709 VRB04KT CAVOK",
    "UHPP": "TAF UHPP 161036Z 1612/1718 18003G12MPS 9999 SCT007 BKN022CB TEMPO 1612/1621 0500 FG VV002 BECMG 1621/1623 BKN020CB",
    "EFHK": "TAF EFHK 160829Z 1609/1709 10004KT 9999 SCT038 BECMG 1609/1611 16012KT BECMG 1620/1622 18002KT BECMG 1707/1709 18012KT",
    "LBBG": "TAF LBBG 161100Z 1612/1712 12012KT 9999 SCT045 TEMPO 1612/1617 5000 TSRA FEW030CB BKN040 BECMG 1616/1618 VRB04KT BECMG 1707/1709 12012KT TEMPO 1711/1712 5000 TSRA FEW030CB BKN040",
    "LTAC": "TAF LTAC 161040Z 1612/1712 03008KT 9999 SCT040 BECMG 1616/1618 CAVOK BECMG 1706/1708 SCT040",
    "UBBB": "TAF UBBB 161046Z 1612/1712 33014G24KT CAVOK TX30/1612Z TN24/1701Z TEMPO 1618/1706 36018KT SCT015 TEMPO 1706/1712 01016G26KT SCT030",
    "UTAA": "TAF UTAA 161045Z 1612/1712 35016KT 6000 SCT050 TEMPO 1612/1618 29018G28KT 3000 DRDU TEMPO 1618/1622 23014KT",
    "UACC": "TAF UACC 161102Z 1612/1712 26009MPS 9999 SCT040CB BKN050 TX32/1709Z TN16/1623Z TEMPO 1612/1618 VRB25MPS 3100 -TSRAGR SQ BKN030CB BECMG 1618/1619 24005MPS SCT040 BKN100 TEMPO 1618/1704 29006MPS TEMPO 1704/1712 27010MPS SCT030CB",
    "UAAA": "TAF UAAA 161102Z 1612/1712 06003MPS 9999 FEW100 TX40/1710Z TN21/1701Z BECMG 1614/1615 16005MPS BECMG 1703/1704 02003MPS TEMPO 1703/1712 08005MPS",
    "UZTT": "TAF UZTT 161100Z 1612/1712 07010KT 7000 NSC TX42/1711Z TN26/1700Z TEMPO 1612/1617 32015KT",
    "ZWWW": "TAF ZWWW 160902Z 1612/1718 34004G09MPS CAVOK TX39/1709Z TN28/1623Z TN31/1718Z BECMG 1614/1615 18004MPS BECMG 1702/1703 36004MPS BECMG 1714/1715 18004MPS",
    "ZLXY": "TAF ZLXY 160901Z 1612/1712 26004MPS 5000 -RA NSC TX31/1708Z TN23/1621Z TEMPO 1612/1614 2000 SHRA FEW040CB OVC050 BECMG 1617/1618 HZ",
    "ZBAA": "TAF ZBAA 160900Z 1612/1718 18004MPS CAVOK TX35/1707Z TN24/1621Z TN22/1718Z",
    "ZBHH": "TAF ZBHH 160906Z 1612/1712 06004MPS 9999 SCT040 TX29/1708Z TN16/1622Z BECMG 1708/1709 TSRA SCT040 FEW040CB BECMG 1711/1712 NSW NSC",
    "ZSQD": "TAF ZSQD 160903Z 1612/1712 17004MPS 3500 BR BKN010 TX26/1706Z TN22/1620Z BECMG 1702/1703 03005MPS TEMPO 1703/1707 2500 +TSRA BKN020 FEW030CB TEMPO 1707/1711 SHRA",
    "ZMCK": "TAF ZMCK 161040Z 1612/1718 VRB02MPS 9999 FEW030CB SCT033 TN10/1621Z TX24/1707Z TEMPO 1612/1624 VRB08MPS 6000 TSRA FEW023 SCT027CB SCT030 PROB40 TEMPO 1700/1708 VRB08G13MPS TSRA SCT027CB SCT030 BECMG 1704/1706 29005MPS BECMG 1710/1712 VRB02MPS",
    "UUEE": "TAF UUEE 161057Z 1612/1712 35007G12MPS 9999 BKN016 TX21/1712Z TN10/1701Z TEMPO 1612/1617 33010G17MPS",
    "UUDD": "TAF UUDD 161051Z 1612/1718 35007MPS 9999 SCT020 TX22/1712Z TN09/1702Z TEMPO 1612/1616 35010G17MPS TEMPO 1708/1716 35009G15MPS",
    "ULLI": "TAF ULLI 161055Z 1612/1712 04006G12MPS 9999 SCT020 BECMG 1619/1621 22003MPS",
    "USSS": "TAF USSS 161053Z 1612/1712 28003G14MPS 8000 -SHRA BKN016CB TEMPO 1612/1618 27008G20MPS -TSRA FM161800 27003G10MPS 6000 SCT016CB FM170300 28003G14MPS 8000 -SHRA BKN016CB TEMPO 1705/1712 -TSRA",
    "UNNT": "TAF UNNT 161100Z 1612/1712 13003G08MPS 9999 SCT040 TX26/1612Z TN16/1622Z TEMPO 1612/1615 24007G15MPS -TSRA BKN020CB TEMPO 1615/1712 -TSRA BKN016CB BECMG 1622/1702 20005G12MPS BECMG 1703/1707 26006G13MPS",
    "UNKL": "TAF UNKL 161053Z 1612/1712 13003G08MPS 9999 SCT040 BECMG 1706/1708 4500 -TSRA BKN020CB BECMG 1709/1711 08005G12MPS 8000 NSW TEMPO 1711/1712 13003G08MPS -TSRA",
    "UIBB": "TAF UIBB 161100Z 1612/1712 24003G08MPS 9999 FEW001 BKN016CB TEMPO 1612/1618 2900 -SHRA BECMG 1700/1701 18005MPS",
    "UEEE": "TAF UEEE 161100Z 1612/1718 10005G10MPS 9999 -SHRA SCT010 BKN020CB OVC100 TEMPO 1612/1703 VRB16MPS 2100 -TSRA SCT005 BKN017CB OVC070",
    "UHHH": "TAF UHHH 161045Z 1612/1718 21003G08MPS 9999 SCT020CB TX26/1706Z TN18/1618Z FM170000 21008G13MPS 9999 FEW006 BKN016CB TEMPO 1700/1710 2000 TSRA",
    "UHSS": "TAF UHSS 161050Z 1612/1718 18003MPS 9999 NSC BECMG 1617/1619 0600 FG BKN002 FM162300 18006MPS 9999 SCT030"
  },
  "atis": {
    "RJAA": "[Arrival ATIS] RJAA ARR ATIS U 1401Z M1400 (APCH)ILS RWY34L USING RWY 34L DEP FREQ 124.2. TWY A1 CLSD. RWY 16L/34R WILL BE CLSD FM 1410. OBSERVE GEAR DOWN OPS PROC ON FNL. M 221400Z AUTO 08005KT 040V110 9999 SCT010// BKN036// OVC044// 18/16 Q1006/A2973= Q/TWO NINE SEVEN THREE STP\n[Departure ATIS] RJAA DEP ATIS R 1241Z M1230 (APCH)ILS Z RWY34R LDG RWY 34R DEP RWY 34L DEP FREQ 124.2. TWY A1 CLSD. OBSERVE GEAR DOWN OPS PROC ON FNL. M 221230Z 07007KT 010V090 20KM FEW010ST BKN030SC 19/16 Q1006/A2972= Q/TWO NINE SEVEN TWO STP",
    "PANC": "[Arrival ATIS] PANC ARR ATIS Q 1253Z - PANC ATIS INFO Q 1253Z. 10005KT 10SM FEW040 SCT110 BKN180 12/10 A3006 (THREE ZERO ZERO SIX). ILS RWY 15 APPROACHES IN USE. LANDING RWY 15, DEPARTING RWY 25L. NOTICE TO AIRMEN. RWY 25R CLSD. CHECK NOTAMS FOR TAXIWAY CLOSURES. CONTACT TOWER 118.3 FOR TAXI. ...ADVS YOU HAVE INFO Q.\n[Departure ATIS] PANC DEP ATIS I 0353Z ANC ATIS INFO I 0353Z. 14016G33KT 10SM OVC055 14/08 A3007 (THREE ZERO ZERO SEVEN). ILS RWY 15 APPROACHES IN USE. LANDING RWY 15, DEPARTING RWY 25L. NOTICE TO AIRMEN. TWY Q",
    "KSEA": "[Arrival ATIS] KSEA ARR ATIS F 1253Z SEA ATIS INFO F 1253Z. 00000KT 10SM FEW040 FEW250 14/11 A3006 (THREE ZERO ZERO SIX). ILS AND CHARTED VISUAL APPROACH RWYS 34L AND 34R , APCH IN USE. DEPG RWY 34R, DEPG ACFT PLAN AND BRIEF NUMBERS FOR BOTH RWYS 34R AND 34C. SIMUL ARRIVALS TO RWY 34L AND DEPARTURES TO RWY 34R ARE IN USE. SIMUL APCHS IN USE TO PARA RYS. NOTAMS... BIRD ACTIVITY VICINITY ARPT. ...ADVS YOU HAVE INFO F.\n[Departure ATIS] KSEA DEP ATIS C 0853Z SEA ATIS INFO C 0853Z. 26003KT 10SM FEW150 16/10 A2996 (TWO NINER NINER SIX). ILS AND CHARTED VISUAL APPROACH RWY 34C , APCH IN USE. DEPG RWY 34R. SIMUL ARRIVALS TO RWY 34L AND DEPARTURES TO RWY 34R ARE IN USE. SIMUL APCHS IN USE TO PARA RYS. NOTAMS... RY 34L CLSD. APCH AND DEP PATHS ARE OVER NOISE SENSITIVE AREAS. ...ADVS YOU HAVE INFO C.",
    "ZSPD": "[Arrival ATIS] ZSPD ARR ATIS O 1400Z EXP ILS APCH INDEPENDENT PARL INSTR APCH LDG RWY 35L & 34R WIND RWY 35L TDZ 020/5MPS VRB BTN 360/ AND 070/ MID 020/5MPS END 030/3MPS RWY 34R TDZ 030/5MPS MID 040/4MPS END 050/5MPS VIS RWY 35L TDZ 10000M MID 10000M END 10000M VIS RWY 34R TDZ 10000M MID 10000M END 10000M CLD BKN 240M T 23 /DP 23 QNH 1003 HPA CAUTION THE BIRDS NEAR THE RUNWAY RWY 35R/35L/34R/34L RWYCC 5/5/5 ISSUED AT 1750 WET/WET/WET DPT NR/NR/NR COV 100PCT/100PCT/100PCT. ADZ YOU HAVE INFO O.\n[Departure ATIS] ZSPD DEP ATIS M 1300Z DEP RWY 35R & 34L WIND RWY 35R TDZ 030/6MPS MID 030/5MPS END 040/5MPS RWY 34L TDZ 040/6MPS MID 050/6MPS END 040/5MPS VIS RWY 35R TDZ 10000M MID 10000M END 10000M VIS RWY 34L TDZ 10000M MID 10000M END 10000M CLD BKN 150M T 23 /DP 23 QNH 1003 HPA CAUTION THE BIRDS NEAR THE RUNWAY RWY 35R/35L/34R/34L RWYCC 5/5/5 ISSUED AT 1750 WET/WET/WET DPT NR/NR/NR COV 100PCT/100PCT/100PCT. ADZ YOU HAVE INFO M.",
    "ZSSS": "[Arrival ATIS] ZSSS ARR ATIS H 1300Z EXP ILS APCH LDG RWY 36R WIND RWY 36R TDZ 050/4MPS MID 020/4MPS END 050/3MPS VRB BTN 010/ AND 070/ VIS RWY 36R TDZ 10000M MID 10000M END 10000M CLD BKN 180M T 22 /DP 21 QNH 1003 HPA RWY36R RWYCC 5/5/5 ISSUED AT 1250 WET/WET/WET DPT NR/NR/NR COV 100PCT/100PCT/100PCT RWY36L RWYCC 5/5/5 ISSUED AT 1240 WET/WET/WET DPT NR/NR/NR COV 100PCT/100PCT/100PCT QNH OF SHANGHAI TERMINAL CONTROL AREA 1003 HPA ADZ YOU HAVE INFO H.\n[Departure ATIS] ZSSS DEP ATIS D 1200Z DEP RWY 36L WIND RWY 36L TDZ 040/3MPS MID 030/4MPS END 040/5MPS VIS RWY 36L TDZ 10000M MID 10000M END 10000M CLD BKN 210M T 22 /DP 21 QNH 1003 HPA RWY36L RWYCC 5/5/5 ISSUED AT 0640 WET/WET/WET DPT NR/NR/NR COV 100PCT/100PCT/100PCT RWY36R RWYCC 5/5/5 ISSUED AT 0640 WET/WET/WET DPT NR/NR/NR COV 100PCT/100PCT/100PCT QNH OF SHANGHAI TERMINAL CONTROL AREA 1002 HPA ADZ YOU HAVE INFO D.",
    "VHHH": "[Arrival ATIS] VHHH ARR ATIS E 1334Z ARRIVALS, RWY 25R. EXP RNAV TRANSITION TO ILS APCH, RWY 25R. RNP APCH IS AVBL ON REQ, RWY 25R. RWY 25C CLSD. WIND 210/10KT VRB BTN 180/ AND 240/. VIS 10KM. CLD FEW 1500FT. T30 DP25. QNH 1005HPA. ACK INFO E ON FIRST CTC WITH APP.\n[Departure ATIS] VHHH DEP ATIS T 1334Z DEPARTURES, RWY 25L. RWY 25C CLSD. WIND 160/06KT VRB BTN 090/ AND 210/. VIS 10KM. CLD FEW 1500FT. T30 DP25. QNH 1005HPA. ACK INFO T ON FIRST CTC WITH DELIVERY .",
    "RCTP": "[Arrival ATIS] RCTP ARR ATIS M 1400Z EXP ILS APCH RWY23R AND RWY23L ARR/DEP. WIND 080/04KT VIS 10 KM OR MORE CLD FEW 1500FT BKN 3000FT T 30 DP 26 QNH 1005HPA NOSIG INFORM TAIPEI APCH OR TAIPEI TOWER ON INITIAL CONTACT YOU HAVE INFORMATION M\n[Departure ATIS] RCTP DEP ATIS S 0900Z EXP ILS APCH RWY23R FOR ARR. RWY23L FOR DEP. WIND 250/17KT VIS 10 KM OR MORE CLD FEW 2000FT SCT 10000FT T 32 DP 26 QNH 1006HPA NOSIG DUE TO FLOW CONTROL BY MA",
    "ZGSZ": "[Arrival ATIS] ZGSZ ARR ATIS Y 1400Z EXP ILS APCH 15 EXP ILS OR VIS APCH 16R WIND 180/6MPS VIS 9999M CLD SCT 510M T 29 /DP 27 QNH 1005 HPA INDEPENDENT PARALLEL APPROACHES V17,V18 AVAILABLE AFTER SULAS FLY HEADING 040 MISSED APPROACH ALTITUDE SETTING 1200METERS WHEN AIRBORNE CONTACT ZHUHAI APPROACH EXPECTED RNP ILS DME Z APPROACH ADZ YOU HAVE INFO Y.\n[Departure ATIS] ZGSZ DEP ATIS Q 1200Z DEP RWY 15 & 16L WIND 170/7MPS VIS 9999M CLD SCT 1500M T 29 /DP 27 QNH 1004 HPA INDEPENDENT PARALLEL DEPARTURES DEPENDENT PARALLEL APPROACHES V17,V18 AVAILABLE AFTER SULAS FLY HEADING 040 MISSED APPROACH ALTITUDE SETTING 1200METERS WHEN AIRBORNE CONTACT ZHUHAI APPROACH EXPECTED RNP ILS DME Z APPROACH ADZ YOU HAVE INFO Q.",
    "WSSS": "[Arrival ATIS] WSSS ARR ATIS V 1330Z METREPORT 1330Z ILS APCHRWY 02L SIMUL INDEPENDENT ILS AND VISUAL APPROACHES ARE BEING CONDUCTED ON RWY 02. TWY W 9 CLOSED, RWY 02C 20C RAPID EXIT TAXIWAY INDICATOR LIGHTS OFFFOLLOW THE GREENS TRIAL IN PROGRESS. WHEN VACATING THE RWY, PILOTS TO ADHERE TO ATC VERBAL INSTRUCTIONS. WHEN ON TWY, PILOT TO ADHERE TO FOLLOW THE GREENS INSTRUCTIONS. WHEN APPROACHING [A] JUNCTION, KEEP [A] LOOKOUT FOR CONTINUOUS GREENS. [IF] [A] BREAK IN THE GREENS IS OBSERVED, STOP AND CLARIFY WITH ATC. FOLLOW THE GREENS TRIAL IN PROGRESS. WHEN VACATING THE RWY, PILOTS TO ADHERE TO ATC VERBAL INSTRUCTIONS. WHEN ON TWY, PILOT TO ADHERE TO FOLLOW THE GREENS INSTRUCTIONS. WHEN APPROACHING [A] JUNCTION, KEEP [A] LOOKOUT FOR CONTINUOUS GREENS. [IF] [A] BREAK IN THE GREENS IS OBSERVED, STOP AND CLARIFY WITH ATC. WIND 190/ 03KT VRB BTN180 AND250 VIS 10KM CLD FEW 1600FT T26 DP24 QNH 1011HPA NOSIG ACK ATIS V\n[Departure ATIS] WSSS DEP ATIS X 1330Z METREPORT 1330Z RWY 02C SIMUL INDEPENDENT ILS AND VISUAL APPROACHES ARE BEING CONDUCTED ON RWY 02. TWY W 9 CLOSED, RWY 02C 20C RAPID EXIT TAXIWAY INDICATOR LIGHTS OFFFOLLOW THE GREENS TRIAL IN PROGRESS. WHEN VACATING THE RWY, PILOTS TO ADHERE TO ATC VERBAL INSTRUCTIONS. WHEN ON TWY, PILOT TO ADHERE TO FOLLOW THE GREENS INSTRUCTIONS. WHEN APPROACHING [A] JUNCTION, KEEP [A] LOOKOUT FOR CONTINUOUS GREENS. [IF] [A] BREAK IN THE GREENS IS OBSERVED, STOP AND CLARIFY WITH ATC. WIND 240/ 04KT VRB BTN200 AND300 VIS 10KM CLD FEW 1600FT T26 DP24 QNH 1011HPA NOSIG DEP,INITIAL CMB 3000FT ACK ATIS X",
    "WMKK": "[Arrival ATIS] WMKK ARR ATIS J 1303Z WMKK ARR INFO J. TIME 1300. INDEPENDENT PARALLEL APPROACHES FOR RWY 32 R AND 33 ARE IN PROGRESS. EXP RNAV / ILS APCH FOR RWY 32 RIGHT. EXP RNAV / ILS APCH FOR RWY 33. WIND RWY 32R DIRECTION NOT AVBL SPEED NOT AVBL. WIND RWY 32L DIRECTION NOT AVBL SPEED NOT AVBL. WIND RWY 33 DIRECTION NOT AVBL SPEED NOT AVBL. VIS RWY 32R TDZ NOT AVBL. VIS RWY 33 TDZ NOT AVBL. CLD FEW CB 1700 FT. T 29. DP 24. QNH 1010. NOSIG. AT FIRST CONTACT WITH LUMPUR RADAR, NOTIFY RCPT OF J\n[Departure ATIS] WMKK DEP ATIS Q 0734Z WMKK DEP INFO Q. TIME 0730. INDEPENDENT PARALLEL DEPARTURES FOR RWY 32 L AND 33 ARE IN PROGRESS. RWY 32 LEFT. RWY 33. WIND RWY 32L DIRECTION NOT AVBL SPEED NOT AVBL. WIND RWY 33 DIRECTION NOT AVBL SPEED NOT AVBL. VIS RWY 32L TDZ NOT AVBL. VIS RWY 33 TDZ NOT AVBL. CLD SCT 1800 FT. T 33. DP 23. QNH 1008. NOSIG. ALL DEP ACFT TO CONTACT LUMPUR DEP AT 135 DECIMAL 25 MHZ WHEN ABN. AT FIRST CONTACT WITH LUMPUR GROUND, NOTIFY RCPT OF Q",
    "VTBS": "[Arrival ATIS] VTBS ARR ATIS R 1400Z VTBS ARR ATIS R 1401Z Z APCH ARR RWY 01 OR RNP APCH RWY 02L ,RETIL RWY 01 U/S ,PILOT SHALL ADZ BKK APCH ON INITIAL CTC IF UNA TO CONDUCT RNP APCH DUE TO OPERATIONAL CONSTRAINT 1400Z WIND 120/4KT VIS 10KM CLD FEW 2000FT T31 DP25 QNH 1008HPA TREND NOSIG ADZ BKK APCH ON INITIAL CONTACT THAT YOU HAVE INFO R\n[Departure ATIS] VTBS DEP ATIS X 1300Z VTBS DEP ATIS X 1301Z SIMULTANEOUS INDEPENDENT PARL DEP IN PROGRESS DEP RWY 02R OR DEP RWY 01 , ,AFT AIRBORNE ALL DEPARTING ACFT SHALL CTC 119.25 1300Z WIND 340/5KT VRB BTN 300/ AND 360/ VIS 10KM CLD FEW 2000FT T33 DP21 QNH 1007HPA TREND NOSIG ADZ GND WHEN INITIAL CONTACT YOU HAVE INFO X",
    "VTBU": "[Arrival ATIS] VTBU ARR ATIS U 0430Z VTBU ARR ATIS U 0430Z RNP RWY 18 TRL FL130 MOBILE ACFT ARST SYSTEM INSTL ATP SIX HUNDRED AND TEN METERS FM THR RWY 36 CABLE HGT 3 INCHES. 0430Z WIND 360/6KT VRB BTN 320/ AND 020/ VIS 10KM CLD FEW 2000FT T34 DP27 QNH 1010HPA TREND NOSIG ADZ CONTROLLER WHEN INITIAL CONTACT YOU HAVE INFO U\n[Departure ATIS] VTBU DEP ATIS D VTBU ARR/DEP DATIS RPT VTBU ARR ATIS D 0330Z ILS \"Z\" APCH RWY 18 TRL FL130 0330Z WIND 110/4KT VRB BTN 350/ AND 120/ VIS 6KM CLD FEW 2000FT T31 DP27 QNH 1014HPA TREND NOSIG ADZ CONTROLLER WHEN INITIAL CONTACT YOU HAVE INFO D",
    "ROAH": "[Arrival ATIS] ROAH ARR ATIS E 1002Z M1000 (APCH)ILS RWY18R LDG RWY 18R DEP RWY 18L DEP FREQ 126.5 258.3 M 161000Z 23009KT 20KM FEW004ST SCT005ST BKN/// 28/27 Q1007/A2976= Q/TWO NINE SEVEN SIX STP\n[Departure ATIS] ROAH DEP ATIS X 0517Z M0500 (APCH)RNP RWY18R LDG RWY 18R DEP RWY 18L DEP FREQ 126.5 258.3 M 220500Z 23007KT 50KM FEW015CU 30/26 Q1007/A2975= Q/TWO NINE SEVEN FIVE STP",
    "VVDN": "[Arrival ATIS] VVDN ARR ATIS E 1402Z VVDN INFO E 1402Z. ILS VICTOR APPROACH 35L.. DPTG RWY 35R.. 1402Z. WIND VRB/01KT CAVOK T31 DP25 QNH 1006HPA TREND NOSIG. ADZ ON INITIAL CTC YOU HAVE INFO. E.\n[Departure ATIS] VVDN DEP ATIS N 0423Z VVDN INFO N 0423Z. ILS VICTOR APPROACH 35L.. DPTG RWY 35R.. 0423Z. WIND 010/02KT CAVOK T36 DP24 QNH 1008HPA TREND NOSIG. WS ALL RWY. ADZ ON INITIAL CTC YOU HAVE INFO. N.",
    "RCKH": "[Arrival ATIS] RCKH ARR ATIS G 0930Z EXPECT ILS APPROACH RWY 09 ARR/DEP TAXIWAY JULIETT, TAXIWAY BRAVO, TAXIWAY DELTA AND TAXIWAY ECHO CLOSED DUE MAINTENANCE. RUNWAY 0 9 ARRIVALS PLAN VACATE VIA CHARLIE OR\n[Departure ATIS] RCKH DEP ATIS N 0430Z EXPECT ILS APPROACH RWY 27 ARR/DEP TAXIWAY JULIETT, TAXIWAY BRAVO, TAXIWAY DELTA AND TAXIWAY ECHO CLOSED DUE MAINTENANCE. RUNWAY 2 7 ARRIVALS PLAN VACATE VIA CHARLIE OR",
    "KLAX": "[Arrival ATIS] KLAX ARR ATIS I 1353Z LAX ATIS INFO I 1353Z. 24005KT 10SM FEW009 OVC013 17/14 A2992 (TWO NINER NINER TWO) RMK AO2 SLP131 T01720139. SIMUL INST APCHS AND RNAV RNP RWYS 24R AND 25L APCHS, AND SIMUL APCHS IN PROG BTWN LAX AND HHR, SIMUL INSTR DEPARTURES IN PROG RWYS 24 AND 25. CTC L A GC ON 121.75 FOR PUSH OR TAXI ON A. TWY C CLSD BTN TWY, C8 AND TWY C9 , , TWY C10 CLSD BTN TWY, B AND TWY C, TWY B CLSD BTN TWY, F AND TWY B1, TWY B1 CLSD. ILS RY 25R OTS, RY 25R SFL OTS, RY 24L ALSF-2 OTS. LAX VOR UNMONITORED. IF ASSIGNED RUNWAY 25R FOR DEPARTURE, EXPECT DEPARTURE FROM INTERSECTION FOXTROT. TAXIWAY CHARLIE EIGHT BTWN TWY B AND TWY C AND TAXIWAY CHARLIE NINE BTWN TWY B AND TWY C ARE RESTRICTED TO AIRCRAFT WITH A WINGSPAN LESS THAN ONE HUNDRED EIGHTEEN FEET. USE CAUTION FOR INCREASED DRONE ACTIVIY IN THE VICINITY OF SOFI STADIUM AT OR BELOW 200FT AGL DURING THE WORLD CUP FROM 06/12/26 THROUGH 07/10/2026. HAZD WX INFO FOR LAX AREA AVBL FM FSS. BIRD ACTIVITY VICINITY ARPT. INCLUDE YOUR CALL SIGN IN ALL READBACKS. USE CAUTION WHEN EXITING RY24R AT TWY V, W, AND Y, TO HOLD SHORT OF RY24L. MULTIPLE RUNWAY INCURSIONS HAVE OCCURRED. ...ADVS YOU HAVE INFO I.\n[Departure ATIS] KLAX DEP ATIS U 0653Z LAX ATIS INFO U 0653Z. 23008KT 10SM FEW015 17/14 A2990 (TWO NINER NINER ZERO) RMK AO2 SLP124 T01670144. INST APCHS AND RNAV RNP APCHS RY 24R AND 25L, OR VCTR FOR VISUAL APCH WILL BE PROVIDED, SIMUL VISUAL APCHS TO ALL RWYS ARE IN PROG, SIMUL INSTR DEPARTURES IN PROG RWYS 24 AND 25. CTC L A GC ON 121.75 FOR PUSH OR TAXI ON A. TWY C CLSD BTN TWY, C8 AND TWY C9 , , TWY B CLSD BTN TWY, F AND TWY B1, TWY B1 CLSD. ILS RY 25R OTS, RY 25R SFL OTS, RY 24L ALSF-2 OTS. UNAUTHORIZED UAS ACTIVITY IN VICINITY OF AIRPORT. LAX VOR UNMONITORED. IF ASSIGNED RUNWAY 25R FOR DEPARTURE, EXPECT DEPARTURE FROM INTERSECTION FOXTROT. TAXILANE CHARLIE EIGHT RESTRICTED TO AIRCRAFT WITH A WINGSPAN LESS THAN ONE HUNDRED EIGHTEEN FEET. USE CAUTION FOR INCREASED DRONE ACTIVIY IN THE VICINITY OF SOFI STADIUM AT OR BELOW 200FT AGL DURING THE WORLD CUP FROM 06/12/26 THROUGH 07/10/2026. HAZD WX INFO FOR LAX AREA AVBL FM FSS. BIRD ACTIVITY VICINITY ARPT. TWR FREQ FOR ALL RWYS IS 120.95. CD AND GC FREQ IS 121.75. INCLUDE YOUR CALL SIGN IN ALL READBACKS. USE CAUTION WHEN EXITING RY24R AT TWY V, W, AND Y, TO HOLD SHORT OF RY24L. MULTIPLE RUNWAY INCURSIONS HAVE OCCURRED. ...ADVS YOU HAVE INFO U.",
    "KONT": "[Arrival ATIS] KONT ARR ATIS I 1253Z ONT ATIS INFO I 1253Z. 00000KT 6SM HZ FEW080 16/13 A2990 (TWO NINER NINER ZERO). ILS AND VIS APR IN USE, RY26L & RY26R. LNDG AND DEPG RY 26L AND RY 26R. NOTAMS... TAXIWAY SIERRA CLSD BETWEEN SIERRA 8 AND W TAXIWAY Q SOUTH OF RWY 26L CLSD TAXIWAY T CLSD TAXIWAY SIERRA 5 CLSD. RY 26L IM OTS. USE CAUTION FOR NUMEROUS BIRDS OBSERVED IN VICINITY OF ONT. HAZD WX INFO FOR SOUTHERN CA AVBL ON FSS FREQUENCIES. PILOTS READBACK RWY ASSIGNMENTS AND HOLD SHORT INSTRUCTIONS. ...ADVS YOU HAVE INFO I.\n[Departure ATIS] KONT DEP ATIS N 0553Z - KONT ATIS INFO N 0553Z. 24004KT 10SM BKN250 22/15 A2988 (TWO NINER EIGHT EIGHT) RMK AO2 SLP100. ILS AND VIS APR IN USE, RY26L & RY26R. LNDG AND DEPG RY 26L AND RY 26R. NOTAMS... TAXIWAY SIERRA CLSD BETWEEN SIERRA 8 AND W TAXIWAY Q SOUTH OF RWY 26L CLSD TAXIWAY T CLSD TAXIWAY SIERRA 5 CLSD. RY 26L IM OTS, RY 26R ALS OTS. USE CAUTION FOR NUMEROUS BIRDS OBSERVED IN VICINITY OF ONT. HAZD WX INFO FOR SOUTHERN CA AVBL ON FSS FREQUENCIES. PILOTS READBACK RWY ASSIGNMENTS AND HOLD SHORT INSTRUCTIONS. ...ADVS YOU HAVE INFO N.",
    "KSFO": "[Arrival ATIS] KSFO ATIS I NFO K 0656Z. 27012G18KT 10SM CLR 15/11 A2992 (TWO NINER NINER TWO) RMK AO2 SLP131 T01500106. SIMUL CLSLY SPCD DPNDNT ILS RY 28R AND ILS RY 28L APP IN USE. ILS RY 28R APP IN USE. DEPG RWYS 28L, 28R. DEPG ACFT SHOULD BE PREPARED FOR A SHORT NOTICE RY CHANGE. RY 1L, 1R CLSD. NUMEROUS TWY CLOSURES FOR CONSTRUCTION ON THE FIELD, PILOTS CHECK NOTAMS. LLWS ADZYS IN EFCT. DEPG ACFT WAITING ON FINAL NUMBERS ADVISE GROUND PRIOR TO ENTERING TWY F. ...ADVS YOU HAVE INFO K.\n[Departure ATIS] KSFO DEP ATIS T 1456Z SFO ATIS INFO T 1456Z. 00000KT 10SM SCT140 BKN200 18/13 A2991 (TWO NINER NINER ONE) RMK AO2 SLP128 T01780133 53008. SIMUL CLSLY SPCD DPNDNT ILS RY 28R AND ILS RY 28L APP IN USE. DEPG RWYS 28L, 28R. RY 1L, 1R CLSD. NUMEROUS TWY CLOSURES FOR CONSTRUCTION ON THE FIELD, PILOTS CHECK NOTAMS. DEPG ACFT WAITING ON FINAL NUMBERS ADVISE GROUND PRIOR TO ENTERING TWY F. ...ADVS YOU HAVE INFO T.",
    "KOAK": "[Arrival ATIS] KOAK ARR ATIS T 2053Z - KOAK ATIS INFO T 2053Z. 25015KT 10SM FEW008 20/13 A2994 (TWO NINER NINER FOUR). RNAV, AND VA, RWY 30. ILS, AND VA, RWY 28R. FLOW TO LAX, LAS, SAN, SEA. RWY 28L CLSD. TAXIWAYS GOLF, HOTEL, PAPA, JULIET BETWEEN RUNWAYS 28 RIGHT AND 28 LEFT CLOSED. ILS RWY 30, OTS, RWY 28R RAIL, OTS. UNN LIT CLOSE-IN OBSTACLES FOR RWY 30 DEPARTURES. RWY 30 DEPARTURES ARE ADVISED TO AVOID TURNING LEFT PRIOR TO DEPARTURE END OF RUNWAY. CTN, CRANE 1 POINT 6 NAUTICAL MILES, , AT 140 FEET AGL. CAUTION, BIRDS NEAR AIRPORT. ...ADVS YOU HAVE INFO T.\n[Departure ATIS] KOAK DEP ATIS O 1953Z OAK ATIS INFO O 1953Z. 28014KT 10SM FEW005 22/14 A2988 (TWO NINER EIGHT EIGHT). RNAV Z/VA RWY 30 ILS/VA RWY 28R. FLOW TO LAX, LAS, SAN. ILS RWY 30, OTS. UNN LIT CLOSE-IN OBSTACLES FOR RWY 30 DEPARTURES. RWY 30 DEPARTURES ARE ADVISED TO AVOID TURNING LEFT PRIOR TO DEPARTURE END OF RUNWAY. SIGNATURE UNI-COM OUT OF SERVICE. CAUTION, BIRDS NEAR AIRPORT. ...ADVS YOU HAVE INFO O.",
    "KDFW": "[Arrival ATIS] KDFW ARR ATIS I 0953Z - KDFW ARR INFO I 0953Z. 13003KT 10SM BKN026 BKN140 OVC210 24/22 A3006 (THREE ZERO ZERO SIX) RMK AO2 SLP172 T02390217. SIMUL VISUAL APCH TO RWYS, 18R, 17C AND ILS RWY 13R. LDG RWY 18R EXP LAHSO TWY B 10100 FT AVL. NOTICE TO AIRMEN. RWY 13L CLSD. RWY 17L CLSD. WARNING, RWY 18L HAS BEEN SHORTENED, 9273 FT AVAILABLE. HAZD WX FOR DFW AVBL ON FSS. BIRD ACTIVITY VCNTY ARPT. ...ADVS YOU HAVE INFO I.\n[Departure ATIS] KDFW DEP ATIS F 1453Z DFW DEP INFO F 1453Z. 11005KT 10SM SCT020 BKN030 BKN055 BKN250 27/22 A3008 (THREE ZERO ZERO EIGHT) RMK AO2 SLP178 T02720217 51013. SIMUL PARL TRAFFIC DEPG RWYS 17R, 18L. NOTICE TO AIRMEN. WARNING, RWY 18L HAS BEEN SHORTENED, 9273 FT AVAILABLE. HAZD WX FOR DFW AVBL ON FSS. BIRD ACTIVITY VCNTY ARPT. ...ADVS YOU HAVE INFO F.",
    "KIAH": "[Arrival ATIS] KIAH ARR ATIS P 0853Z - KIAH ATIS INFO P 0853Z. 10004KT 7SM FEW019 SCT200 BKN250 25/24 A3005 (THREE ZERO ZERO FIVE) RMK AO2 SLP177 T02500244 55009. ARRIVALS EXPECT ILS OR RNAV Y RY 26L, ILS OR RNAV Y RY 8L. SIMUL APPROACHES IN USE. DEPG RY 15L. NOTICE TO AIRMEN. UAL RAMP PROCEDURES TERMINATED PUSH BACK AT PILOTS DISCRETION. BIRD ACTIVITY VICINITY ARPT. CRANES ARE DOWN. TWY SA CLSD BTN TWY, SF AND TWY SK , TWY SB CLSD BTN TWY, SF AND TWY SK , , TWY EA CLSD. NOTAM ATIS IN USE ON FREQUENCY 126.225. ...ADVS YOU HAVE INFO P.\n[Departure ATIS] KIAH DEP ATIS T 0353Z IAH ATIS INFO T 0353Z. 15007KT 10SM FEW035 FEW180 BKN250 27/23 A2996 (TWO NINER NINER SIX). ARRIVALS EXPECT ILS OR RNAV Y RY 8R, ILS OR RNAV Y RY 8L. DEPG RY 15R. NOTICE TO AIRMEN. UNITED RAMP CONTROL IN EFFECT. RY 15L, 33R CLSD. HAZD WX INFO FOR IAH AREA AVBL FM FSS. BIRD ACTIVITY VICINITY ARPT. CRANES ARE DOWN. TWY SA CLSD BTN TWY, SF AND TWY SK , TWY SB CLSD BTN TWY, SF AND TWY SK , , TWY WB CLSD BTN TWY, WG AND TWY WH . TWY EA CLSD. NOTAM ATIS IN USE ON FREQUENCY 126.225. ...ADVS YOU HAVE INFO T.",
    "KORD": "[Arrival ATIS] KORD ARR ATIS L 1051Z ORD ATIS INFO L 1051Z. 03006KT 2SM FU FEW045 BKN250 24/20 A3006 (THREE ZERO ZERO SIX) RMK AO2 SLP174 T02390200. ARR EXP VECTORS ILS RWY 9L APCH, ILS PRM RWY 10C APCH, ILS PRM Y RY 10R APCH. CTN RY 10R LOC IS OFFSET 2.5 DEGREES. SIMUL APCHS IN USE. DEPS EXP RWYS 9C FROM F F 9200 FT AVL, 10L FROM DD. 10,093 FT AVBL. ATTN PILOTS. SIMUL PARL DEPS IN USE. EXP TO INITIALLY FLY RWY. HDG ON DEP. PILOTS MUST READ BACK DRCTN OF TURNS BY ATC. RWY 4L, 22R CLSD. RWY 22R LOC OTS, RWY 28L GS OTS, RWY 9L IM OTS, RWY 9C IM OTS, RWY 10L IM OTS, RWY 10R IM OTS, RWY 27R IM OTS, RWY 28L IM OTS, RWY 28R IM OTS, RWY 9L PAPI OTS, RWY 27R PAPI OTS. PILOTS USE CTN FOR BIRD ACTIVITY IN THE VICINITY OF THE ARPT. USE CTN FOR PERSONNEL AND EQUIP AT NUMEROUS SITES ON THE FIELD. READBACK ALL RWY HOLD SHORT INSTRUCTIONS. WHEN READY TO TAXI CONTACT GND METERING ON FREQ 121.67. ...ADVS YOU HAVE INFO L.\n[Departure ATIS] KORD DEP ATIS J 2051Z ORD ATIS INFO J 2051Z. 28004KT 10SM FEW050 BKN300 34/20 A3003 (THREE ZERO ZERO THREE) RMK AO2 SLP162 T03440200 58013. ARR EXP VECTORS ILS RWY 10C APCH, VISUAL APCH RWY 9L, V",
    "KJFK": "[Arrival ATIS] KJFK ARR ATIS E 0951Z JFK ATIS INFO E 0951Z. 27008KT 8SM BKN055 OVC300 24/17 A2993 (TWO NINER NINER THREE) RMK FU OVC300. APPROACH IN USE ILS RY 31R, ILS RY 31L. DEPG RY 31L. RWY 4R, 22L CLSD. RY 13L SFL OTS, RWY 22L/4R INNER MARKER OTS. NUM CRANES OPERATING AT JFK. BIRD ACTIVITY VICINITY ARPT. READBACK ALL RWY ASSIGNMENTS AND HOLD SHORT INSTRUCTIONS. ...ADVS YOU HAVE INFO E.\n[Departure ATIS] KJFK DEP ATIS Y 1251Z - KJFK ATIS INFO Y 1251Z. 25016KT 10SM SCT250 28/22 A2988 (TWO NINER EIGHT EIGHT) RMK AO2 SLP117 T02780217. APPROACH IN USE ILS RY 22L, ILS RY 22R. DEPG RY 22R. RWY 13L, 31R CLSD. RY 4R PAPI OTS, RY 13L SFL OTS, RWY 22L/4R INNER MARKER OTS. NUM CRANES OPERATING AT JFK. BIRD ACTIVITY VICINITY ARPT. READBACK ALL RWY ASSIGNMENTS AND HOLD SHORT INSTRUCTIONS. ...ADVS YOU HAVE INFO Y.",
    "KIND": "[Arrival ATIS] KIND ARR ATIS E 0154Z - KIND ATIS INFO E 0154Z. 29005KT 10SM FEW050 BKN300 28/21 A3005 (THREE ZERO ZERO FIVE) RMK FU ALF. PARL ILS RWY 23R AND 23L APPROACHES IN USE. CROSS RUNWAY OPERATIONS MAY BE IN EFFECT. NOTICE TO AIRMEN. LOC RWY 5R OTS. TWY, P BTN TWY, H AND TWY B CLSD, TWY, P BTN TWY, H AND TWY J CLSD, TWY, H BTN TWY, R AND TWY N CLSD. P PAD CLSD. ILS RUNWAY 5R AND RUNWAY 5L INNER MARKER UNSERVICEABLE. ...ADVS YOU HAVE INFO E.\n[Departure ATIS] KIND DEP ATIS H 1854Z IND ATIS INFO H 1854Z. 26009G19KT 10SM SCT036 BKN041 BKN170 23/16 A2981 (TWO NINER EIGHT ONE) RMK AO2 SLP088 T02280156. PARL ILS RWY 23R AND 23L APPROACHES IN USE. CROSS RU",
    "KDTW": "[Arrival ATIS] KDTW ARR ATIS A 0953Z DTW ARR INFO A 0953Z. 35003KT 1SM R03R/P6000FT FU SCT000 OVC027 22/16 A3004 (THREE ZERO ZERO FOUR) RMK AO2 TWR VIS 2 SLP167 FU SCT000 T02170161. SIMUL ILS Z RY 4L AND RY 3R APCH IN USE. NOTICE TO AIRMEN. RWY 21R, 3L CLSD, RWY 27L, 9R CLSD, RWY 27R, 9L CLSD. TWYS Y1 CLSD ;. PILOTS USE CTN FOR BIRD ACTIVITY. TWR AND GC COMB ON FREQ 135.0. DEPARTURE ATIS 118.125. ...ADVS YOU HAVE INFO A.\n[Departure ATIS] KDTW DEP ATIS N 0953Z DTW DEP INFO N 0953Z. 35003KT 1SM R03R/P6000FT FU SCT000 OVC027 22/16 A3004 (THREE ZERO ZERO FOUR) RMK AO2 TWR VIS 2 SLP167 FU SCT000 T02170161. DEPG RWY 4R. . RWY 4R DEPARTURE POINT IS Y 2, DISTANCE REMAINING IS 11, THOUSAND, 450, FT, FULL LENGTH AVAIL UPON REQ ;. NOTICE TO AIRMEN. RWY 21R, 3L CLSD, RWY 27L, 9R CLSD, RWY 27R, 9L CLSD. TWYS Y1 CLSD ;. PILOTS USE CTN FOR BIRD ACTIVITY. TWR AND GC COMB ON FREQ 135.0. ...ADVS YOU HAVE INFO N.",
    "KMSP": "[Arrival ATIS] KMSP ARR ATIS L 1153Z MSP ARR INFO L 1153Z. 00000KT 10SM CLR 15/10 A3006 (THREE ZERO ZERO SIX) RMK AO2 SLP178 T01500100 10172 20133 51018. VISUAL RWY 12R APCH IN USE, VISUAL RWY 12L APCH IN USE. FINAL APCH, OVER NOISE SENSITIVE AREA. NOTICE TO AIRMEN. RWYS 4, 22 CLSD. TWY R7. R8. R9. R10. CLOSED, TWY R BETWEEN R6 AND R10 CLOSED. GS RWY 12L OTS, RWYS 12R, 12L, INNER MARKER OTS.. HAZD WX INFO FOR MSP AREA AVBL FM FSS. CTN, BIRDS NEAR MSP. READ BACK HS AND ALT. ALL ACFT TAXI WITH TRANSPONDER AND ALTITUDE ENCODING ON. ...ADVS YOU HAVE INFO L.\n[Departure ATIS] KMSP DEP ATIS N 1053Z - KMSP DEP INFO N 1053Z. 07005KT 1 3/4SM FU OVC024 23/18 A3008 (THREE ZERO ZERO EIGHT) RMK TWR VIS 2. DEPARTING RWY 12L, RWY 12R, RWY 17. NOTICE TO AIRMEN. RWYS 4, 22 CLSD. TWY R7. R8. R9. R10. CLOSED. TWY R BTWN R6 AND R10 CLSD, USE CAUTION, NUMEROUS TAXIWAY CLOSURES, TWY A7 CLSD, TWY A CLSD BTN TWY, A7 AND TWY D. ALL ACFT CTC METERING ON ONE THREE THREE POINT FIVE SEVEN WHEN READY TO PUSHBACK OR TAXI. HAZD WX INFO FOR MSP AREA AVBL FM FSS. CTN, BIRDS NEAR MSP. READ BACK HS AND ALT. ALL ACFT TAXI WITH TRANSPONDER AND ALTITUDE ENCODING ON. ...ADVS YOU HAVE INFO N.",
    "CYEG": "[Arrival ATIS] CYEG ARR ATIS S 0700Z 13006KT 20SM FEW120 17/16 A3002 APCH RNAV Z OR Y RWY 02, INFORM ARRL OF REQ APCH ON INITIAL CTC. LDG AND DEP RWY 02. SIMUL APPROACHES MAY BE IN EFCT. INFORM CYEG ATC INFO S\n[Departure ATIS] CYEG DEP ATIS Z 1100Z CYEG ARR ATIS Z 1100Z 06002KT 20SM TS FEW030CB CIG BKN100 17/13 A3001 SIGMET E1 IN EFFECT. APCH RNAV Z OR Y RWY 02, INFORM ARRL OF REQ APCH ON INITIAL CTC. LDG AND DEP RWY 02. SIMUL APPROACHES MAY BE IN EFCT. INFORM CYEG ATC INFO Z",
    "EHAM": "[Arrival ATIS] EHAM ARR ATIS A 1350Z EHAM ARRIVAL INFO A. DEMAND. MAIN LANDING RWY 06. SECONDARY LANDING RWY 36 R. TRANSITION LEVEL 040. WIND 060 DEG, 9 KT, VRB BTN 010 AND 080 DEG, 14 KT MAX, 7 KT MNM. WIND SECONDARY RUNWAY 020 DEG, 9 KT, VRB BTN 350 AND 070 DEG, 14 KT MAX, 6 KT MNM. CAVOK. T 25. DP 16. QNH 1026 HPA. NOSIG. OPERATIONAL REPORT. CONVERGING APPROACHES IN PROGRESS. CONTACT APCH WITH CALLSIGN ONLY. END OF INFO A\n[Departure ATIS] EHAM DEP ATIS T 1120Z EHAM DEPARTURE INFO T. DEMAND. MAIN DEPARTURE RWY 36 L. MAIN LANDING RWY 06. WIND 050 DEG, 7 KT, VRB BTN 330 AND 120 DEG, 14 KT MAX, 2 KT MNM. CAVOK. T 24. DP 15. QNH 1019 HPA. OPERATIONAL REPORT. INFORM SCHIPHOL DEL BY VOICE IF UNABLE TO COMPLY WITH NADP 2. END OF INFO T",
    "EBBR": "[Arrival ATIS] EBBR ARR ATIS I 1020Z EBBR NAT, EXP VECT FOR ILS APP ARR RWY01 RSCD AT 0743 RWY01 DRY. DEP RWY07R TRL 055 XNG RWY OPS INPR 350/8KT CAVOK T26 DP14 QNH 1019HPA NOSIG CFM ARR I\n[Departure ATIS] EBBR DEP ATIS E 0850Z EBBR NAT, DEP RWY07R RSCD AT 0637 RWY07L RSCD AT 0648 RWY07R DRY. RWY07L DRY. ARR RWY01 TRL 055 XNG RWY OPS INPR 010/7KT VRB BTN 340 AND 090 CAVOK T24 DP15 QNH 1019HPA NOSIG CFM DEP E",
    "EDDF": "[Arrival ATIS] EDDF ARR ATIS L 1020Z ARR-ATIS EDDF L METAR 161020 EXPECT INDEPENDENT PARALLEL ILS Y APCH RWY 07L OR ILS APCH RWY 07R RWY 07L 07R TRL 60 CAUTION : HIGH BIRD ACTIVITY IN THE VCY OF THE AD , 17006KT 110V230 CAVOK T30 DP11 QNH1018 TREND NOSIG END OF ATIS L\n[Departure ATIS] EDDF DEP ATIS G 1050Z DEP-ATIS EDDF G METAR 161050 RWY 07C 18 ACFT DEPARTING RWY18 : EXPECT POSSIBLE DEPARTURE FROM INTERSECTION M , TORA 3454 METERS. IF UNABLE , ADVISE TWR ON INITIAL CONTACT , TRL 60 CAUTION : HIGH BIRD ACTIVITY IN THE VCY OF THE AD , VRB02KT RWY18 VRB03KT CAVOK T28 DP12 QNH1017 TREND NOSIG",
    "EDDL": "[Arrival ATIS] EDDL ARR ATIS P 1020Z ATIS EDDL P METAR 161020 EXPECT VECTORS ILS APPROACH RWY 05R ATTENTION, RISK OF TWY INCURSION WHEN TAXIING TO RWY05R, CHECK HOT SPOTS T1 AND L9 ON TAXI CHART TRL 60 EXPECT INTENSE BIRD ACTIVITY IN THE VICINITY OF RWY SYSTEM 07007KT 030V150 CAVOK T28 DP13 QNH1018 TREND BECMG 04007KT\n[Departure ATIS] EDDL DEP ATIS R EDDL ARR/DEP DATIS RPT -ATIS EDDL R METAR 020550 -EXPECT VECTORS ILS APPROACH -RWY 23L -TWY L8 CLOSED BETWEEN TWY M AND RWY 23L -TRL 60 - -23010KT -CAVOK - - -T19 DP13 -QNH1020 - -TREND NOSIG",
    "EDDK": "[Arrival ATIS] EDDK ARR ATIS Y 0650Z -ATIS EDDK Y METAR 160650 -EXPECT ILS APCH RWY 13L -RWY 13L 06 -RWY COND RWY 13L AT TIME 0630 RWYCC 6 DEPOSIT TOTAL RWY DRY RWY 06 AT TIME 0630 RWYCC 6 DEPOSIT TOTAL RWY DRY -TRL 60 -RWY 13R AND RWY 31L CLOSED FOR DEPARTURE AND LANDING: TAXIING BTN THR RWY 13R AND INTERSECTION RWY 24 POSSIBLE : -13004KT 050V160 -CAVOK - - -T22 DP12 -QNH1019 - -TREND NOSIG\n[Departure ATIS] EDDK DEP ATIS E 2050Z -ATIS EDDK E METAR 142050 -EXPECT CDO FOR ILS APCH RWY 31R -RWY 31R 06 -RWY COND RWY 31R AT TIME 1837 RWYCC 6 DEPOSIT TOTAL RWY DRY RWY 06 AT TIME 1837 RWYCC 6 DEPOSIT TOTAL RWY DRY -TRL 60 -RWY 13R AND RWY 31L CLOSED FOR DEPARTURE AND LANDING: TAXIING BTN THR RWY 13R AND INTERSECTION RWY 24 POSSIBLE : -02006KT 350V050 -CAVOK - - -T23 DP14 -QNH1018 - -TREND NOSIG",
    "EBLG": "[Arrival ATIS] EBLG ATIS M 1020Z EBLG INFO, EXP RNAV TO ILS APP ARR RWY04R DEP RWY04R RWY 04R DRY, RWYCC 666. TRL 055 ADZ ON GND FREQ IF UNABLE S2. TWY N1 CLSD 010/6KT VRB BTN 350 AND 080 MNM3 MAX11 CAVOK T27 DP13 QNH 1018HPA NOSIG CFM ATIS M",
    "LSZH": "[Arrival ATIS] LSZH ARR ATIS J 1020Z ARRIVALS, EXP ILS APCH, RWY 14. RWY COND REPORT. RWY COND CODE 6, 6, 6. COVERAGE NR, NR, NR. DEPTH NR, NR, NR. DRY AND DRY AND DRY. RWY REPORT END. TRL 70. DEP RWY 28. WIND VRB BTN 090 AND 210 DEG, 2 KT. CAVOK. T 27. DP 16. QNH 1020. NOSIG.\n[Departure ATIS] LSZH DEP ATIS P 1020Z DEP RWY 28. RWY COND REPORT. RWY 28. RWY COND CODE 6, 6, 6. COVERAGE NR, NR, NR. DEPTH NR, NR, NR. DRY AND DRY AND DRY. RWY 16. RWY COND CODE 6, 6, 6. COVERAGE NR, NR, NR. DEPTH NR, NR, NR. DRY AND DRY AND DRY. RWY REPORT END. TRL 70. ARRIVALS, EXP ILS APCH, RWY 14. TMA S 1 IS NOT ACT. TMA S 2 AND S 3 ARE NOT ACT. WIND 150 DEG, 4 KT, VRB BTN 090 AND 210 DEG. CAVOK. T 27. DP 16. QNH 1020. NOSIG.",
    "LIMC": "[Arrival ATIS] LIMC ARR ATIS B 1020Z LIMC ARR B 1020Z I.L.S. ZULU RWY IN USE 35L TL 70 WIND TDZ 270/6KT VRB BTN 250/AND 030/ CAVOK T31 DP18 QNH 1018HPA QFE 0993HPA\n[Departure ATIS] LIMC DEP ATIS V 0920Z LIMC DEP V 0920Z RWY IN USE 35R TL 70 WIND END VRB2KT CAVOK T29 DP17 QNH 1018HPA QFE 0993HPA DATALINK CLEARANCE AVAILABLE.... CONTACT 1 3 1 8 8 0 TO BE RELEASED BY THE AIRPORT OPERATOR ...",
    "LIRF": "[Arrival ATIS] LIRF ARR ATIS I 1020Z LIRF ARR I 1020Z RWY 16L ILS W RWY 16R ILS Z RWY IN USE 16L 16R TL 70 DEPENDENT PARL ILS APCH INPR RWY IN USE 16R OR 16L ASSIGNED BY ROME RADAR WIND RWY 16L TDZ 260/6KT VRB BTN 220/AND 300/ RWY 16R TDZ 240/8KT CAVOK T32 DP25 QNH 1017HPA RRSM\n[Departure ATIS] LIRF DEP ATIS L 1120Z LIRF DEP L 1120Z RWY IN USE 25 TL 70 RWYS IN USE FOR ARR 16L AND 16R WIND END 260/8KT VRB BTN 230/AND 320/ CAVOK T31 DP23 QNH 1017HPA REA IS SENT AUTOMATICALLY ONCE RLSD BY RAMP WHEN READY CONTACT FIUME RAMP 121.725 RRSM",
    "EINN": "[Arrival ATIS] EINN ARR ATIS E 1100Z EXPECT I L S CATEGORY 1 LDG RWY06 TKOF RWY06 TRL FL060 04009KT 340V070 9999 FEW040 26/13 QNH Q1021 TREND NOSIG ADVISE AT FIRST CONTACT YOU HAVE ATIS INFO E",
    "EGLL": "[Arrival ATIS] EGLL ARR ATIS W 1350Z LANDING RWY 09L TRANSITION-LEVEL: FL 70 IF STAND GUIDANCE IS OFF OR FAILS, REMAIN ON THE TAXIWAY CENTRELINE AND ADVISE ATC PILOTS ARE EXPECTED TO CHANGE TO RWY 09L AT AT 05:00 HOURS AUTO 09013KT 9999 NCD 29/17 Q1024 ACKNOWLEDGE RECEIPT OF INFORMATION W\n[Departure ATIS] EGLL DEP ATIS B 1020Z DEPARTURE RWY 09R PILOTS THAT ARE IN RECEIPT OF DATALINK CLEARANCES ARE REMINDED THEY MUST CONTACT DELIVERY ON 121.980 WHEN READY FOR START DATALINK CLEARANCES NOT AVAILABLE FOR CPT DEPARTURES AUTH DRONE WINDSOR CASTLE AT 400 FEET AUTO 07011KT 050V130 9999 NCD 25/14 Q1021 ACKNOWLEDGE RECEIPT OF INFORMATION B AND REPORT AIRCRAFT TYPE AND CURRENT QNH ON FIRST CONTACT WITH HEATHROW",
    "EPWA": "[Arrival ATIS] EPWA ARR ATIS A 0531Z EPWA ARR A. TIME 0530. EXP U ARR ILS Z APCH FOR RWY 33. TRANSITION LEVEL 80. WIND 040 DEG, 5 KT, VRB BTN 360 AND 080 DEG. CAVOK. T 21. DP 16. QNH 1021. NOSIG. CAUTION. BIRD ACT. END OF EPWA ARR A\n[Departure ATIS] EPWA DEP ATIS U 0756Z EPWA DEP U. TIME 0755. DEP RWY 29. ARR RWY 33, EXP U ARR ILS Z. REPORT READY FOR STARTUP ON DELIVERY 121 DECIMAL 605. TRANSITION LEVEL 80. WIND VRB, 5 KT. VIS MID 10 KM OR MORE. CLD FEW 3300 FT. T 25. DP 17. QNH 1021. NOSIG. CAUTION. BIRD ACT. END OF EPWA DEP U",
    "EFHK": "[Arrival ATIS] EFHK ARR ATIS R 1020Z EXPECT ILS APCH ARR RWY 22L RUNWAY 22L CONDITION REPORT AT 0638 UTC RUNWAY CONDITION CODES 6 , 6 , 6 CONTAMINANTS ALL PARTS DRY TRL 60 WIND 110 DEG 8 KT VRB BTN 100 AND 190 DEG VIS 10KM FEW 2700 FT. SCT 3500 FT T 21 DP 14 QNH 1022 NOSIG ACK INFO R\n[Departure ATIS] EFHK DEP ATIS B 1059Z DEP RWY 22R RUNWAY 22R CONDITION REPORT AT 0751 UTC RUNWAY CONDITION CODES 6 , 6 , 6 CONTAMINANTS ALL PARTS DRY WIND 300 DEG 7 KT VRB BTN 250 AND 330 DEG CAVOK T 21 DP 8 QNH 1020 NOSIG ACK INFO B",
    "LTAC": "[Arrival ATIS] LTAC ARR ATIS B 0920Z EXP ILS V APCH 03C DEP RWY 03L RWY 03C WIND 100 DEG 07 KT VRB BTN 030 DEG AND 130 DEG RWY 03L WIND 030 DEG 09 KT VRB BTN 360 DEG AND 090 DEG TRL 110 VIS 9999 FEW04000 FT T 26 DP 07 QNH 1017 NOSIG FOR DELIVERY CTC 121.9. FOR DELIVERY FIRST USE DIGITAL DEP CLR. CTN BIRD HAZARD OVR AERODROME. APCH FREQUENCY 129.050. END OF ATIS B",
    "UBBB": "[Arrival ATIS] UBBB ARR ATIS I 1400Z ATIS I EXP ILS/ LDG 34 35 DEP 34 35 IN USE RWY 34 CLEAR DRY 70 RWY 35 CLEAR DRY 70 TLVL 110 WIND WIND RWY 34 350 20 KT SPD MAX 26 MIN 16 WIND RWY 35 330 18 KT SPD MAX 24 MIN 14 VIS CAVOK T 25 / DP 15 QNH 1014 HPA TREND TREND NOSIG MODERATE BIRDS ACT IN VICINITY OF AP END OF ATIS I\n[Departure ATIS] UBBB DEP ATIS S 0620Z ATIS S EXP ILS/ LDG 34 35 DEP 34 35 IN USE RWY 34 CLEAR DRY 70 RWY 35 CLEAR DRY 70 TLVL 110 WIND WIND RWY 34 340 22 KT SPD MAX 28 MIN 16 WIND RWY 35 330 24 KT SPD MAX 30 MIN 16 VIS CAVOK T 30 / DP 19 QNH 1010 HPA TREND TREND NOSIG MODERATE BIRDS ACT IN VICINITY OF AP END OF ATIS S",
    "ZWWW": "[Arrival ATIS] ZWWW ARR ATIS Y 0930Z EXP ILSDME Z APCH LDG RWY 26R TA 3000 WIND 360/4MPS VRB BTN 330/ AND 040/ CAVOK T 36 /DP 09 QNH 1007 HPA BIRDS ACTIVITY IN THE VICINITY OF THE AERODROME ADZ YOU HAVE INFO Y.\n[Departure ATIS] ZWWW DEP ATIS B 1200Z DEP RWY 26L TA 3000 WIND 260/3MPS VRB BTN 230/ AND 290/ CAVOK T 30 /DP 07 QNH 1006 HPA ADZ YOU HAVE INFO B.",
    "ZLXY": "[Arrival ATIS] ZLXY ARR ATIS F 1300Z EXP ILS APCH LDG RWY 05L & 06R WIND 000/0MPS CAVOK T 22 /DP 19 QNH 1007 HPA VISUAL APPROACH IN PROGRESS ADZ YOU HAVE INFO F.\n[Departure ATIS] ZLXY DEP ATIS Z 1100Z DEP RWY 05L & 06L WIND 040/3MPS VRB BTN 010/ AND 070/ VIS 4500M -RA BR CLD SCT 240M /SCT 600M /OVC 1200M T 19 /DP 18 QNH 1011 HPA RUNWAY 05L SURFACE CONDITION CODE 555 RUNWAY 06L SURFACE CONDITION CODE 555 RUNWAY 06R SURFACE CONDITION CODE 555 ADZ YOU HAVE INFO Z.",
    "ZBAA": "[Arrival ATIS] ZBAA ARR ATIS K 1400Z EXP ILS APCH DEPENDENT PARL INSTR APCH LDG RWY 36L & 36R & 01 WIND 310 DEG 4 MPS 270V340 DEG VIS 9999 CLD FEW 480M T 20 /DP 17 QNH 1008 HPA VISUAL APPROACH IS IN PROGRESS. RWY 36L RWYCC 5/5/5 ISSUED AT 1144 ALL PARTS WET NR 100PCT RWY 36R RWYCC 5/5/5 ISSUED AT 1144 ALL PARTS WET NR 100PCT RWY 01 RWYCC 5/5/5 ISSUED AT 1143 ALL PARTS WET NR 100PCT ADZ YOU HAVE INFO K.\n[Departure ATIS] ZBAA DEP ATIS G 1230Z DEP RWY 36L & 36R & 01 WIND 070 DEG 3 MPS 030V100 DEG VIS 9999 -SHRA CLD FEW CB 1500M T 19 /DP 17 QNH 1007 HPA SUPPLEMENT INFO /RETS RWY INDEPENDENT PARALLEL DEP VISUAL APPROACH IS IN PROGRESS. RWY 36L RWYCC 5/5/5 ISSUED AT 1144 ALL PARTS WET NR 100PCT RWY 36R RWYCC 5/5/5 ISSUED AT 1144 ALL PARTS WET NR 100PCT RWY 01 RWYCC 5/5/5 ISSUED AT 1143 ALL PARTS WET NR 100PCT ADZ YOU HAVE INFO G.",
    "ZBHH": "[Arrival ATIS] ZBHH ARR ATIS Y 1400Z EXP ILSDME APCH LDG RWY 08 TA 3000 /TRL 3600 WIND 030/3MPS VIS 9999M CLD FEW 1200M T 17 /DP 12 QNH 1009 HPA ADZ YOU HAVE INFO Y.\n[Departure ATIS] ZBHH DEP ATIS Q 1500Z DEP RWY 08 TA 3000 /TRL 3600 WIND 140/2MPS VIS 5000M BR NSC T 19 /DP 19 QNH 1007 HPA ADZ YOU HAVE INFO Q.",
    "ZSQD": "[Arrival ATIS] ZSQD ARR ATIS E 1400Z EXP ILSDME APCH DEPENDENT PARL INSTR APCH LDG RWY 17 & 16 TA 3000 /TRL 3600 WIND 150/2MPS CAVOK T 22 /DP 20 QNH 1009 HPA VISUAL APPROACH OPERATION IN PROGRESS. WHEN READY CONTACT QINGDAO TOWER ON 118.7 RUNWAY 17,IF MISSED APPROACH,EXPECT FOLLOW THE STANDARD MISSED APPROACH PROCEDURE,CLIMB TO 900M ON QNH OR BY ATC RUNWAY 16,IF MISSED APPROACH,EXPECT FOLLOW THE STANDARD MISSED APPROACH PROCEDURE,CLIMB TO 600M ON QNH OR BY ATC CAUTION MAYBE THERE IS A FLOCK OF BIRDS IN THE VICINITY OF AIRPORT ADZ YOU HAVE INFO E.\n[Departure ATIS] ZSQD DEP ATIS Y 2112Z DEP RWY 16 TA 3000 /TRL 3600 WIND 140/2MPS VIS 4000M BR CLD FEW 450M T 22 /DP 21 QNH 1009 HPA VISUAL APPROACH OPERATION IN PROGRESS. WHEN READY CONTACT QINGDAO TOWER ON 118.7 RUNWAY 16,IF MISSED APPROACH,EXPECT FOLLOW THE STANDARD MISSED APPROACH PROCEDURE,CLIMB TO 600M ON QNH OR BY ATC CAUTION MAYBE THERE IS A FLOCK OF BIRDS IN THE VICINITY OF AIRPORT ADZ YOU HAVE INFO Y."
  },
  "windtemp_alaska": "\n000\nFBAK31 KWNO 160800\nFD1AK1\nDATA BASED ON 160600Z    \nVALID 161200Z   FOR USE 0800-1500Z. TEMPS NEG ABV 24000\n\nFT  3000    6000    9000   12000   18000   24000  30000  34000  39000\nADK 3609 3614+00 3321-02 3226-07 3135-21 3245-33 336042 335343 324346\nADQ 2008 1912+01 1917-02 2232-03 2443-14 2449-26 255441 255849 255657\nAKN 1809 1314-02 1623-04 1921-06 2337-15 2458-26 236842 247951 245852\nANC 9900 1808+01 2208-04 2411-08 2624-19 2746-31 277944 276650 264147\nANN 3207 2909+08 2711+06 2710+02 2813-12 2716-23 271440 261550 271459\nBET 9900 1306-02 1609-06 1611-10 2017-20 2136-33 226945 225747 232643\nBRW 1108 1309+00 1707-04 2013-09 2015-19 1916-32 191947 191953 180742\nBTI 0112 0113+03 0314-02 0411-07 0606-18 0607-29 132247 121654 170543\nBTT 2809 2907+04 3107-02 3106-08 9900-21 1311-32 142549 131252 181043\nCDB 2215 2319+04 2232+00 2240-04 2167-15 2273-26 228141 218848 226851\nCZF 2013 1816-02 1813-08 1810-12 2307-23 2214-36 211846 231142 260841\nEHM 1011 1113-03 1509-06 1509-09 2020-18 2149-29 217943 218149 223845\nFAI 2627 2618+02 2620-03 2712-09 3505-22 0205-34 060549 990047 241342\nFYU 2823 2920+04 3122-01 3220-07 3618-19 0320-32 063050 081248 160641\nGAL 2612 2510+00 2209-04 1912-09 1714-21 1714-33 160849 171248 211643\nGKN 1918 2110+02 2508-04 2711-10 2622-21 2729-33 273646 274246 263343\nHOM 2212 2207+02 2109-02 2213-07 2430-17 2551-27 266742 268151 255753\nJNU 2607 2412+02 2621+01 2631-02 2547-12 2549-24 255241 265351 264856\nLUR 0608 1610+00 1712-05 1811-10 1914-22 2023-33 193147 201848 990042\nMCG 2607 2307-01 1912-06 2114-09 2115-20 2014-34 242946 243348 232244\nMDO 2106 2208+01 2511-02 2516-06 2736-17 2755-27 276941 277651 266454\nOME 9900 2208+00 2210-06 1907-11 1413-23 1122-35 102848 121244 990041\nORT      2919+03 2921-03 2722-10 2612-23 3021-35 292646 272642 252341\nOTZ 2408 1809+01 1810-04 1812-09 1615-21 1312-33 131648 121450 190542\nSNP 3316 3217-04 3322-04 3425-09 3427-22 3325-35 312146 301943 311841\nTKA 1916 2209+01 2106-04 2306-09 2514-20 2623-33 274446 264548 253044\nUNK 2610 2408-01 2009-06 1809-10 1815-22 1916-34 171948 181546 201342\nYAK 2807 2706+00 2917-02 2824-05 2741-18 2675-26 278342 268751 265249\nIKO 3428 3226+00 3027-02 2930-07 2838-20 2744-32 255743 255444 254245\nAFM 9900 1905+03 2106-03 1707-09 1614-21 1614-33 141449 131251 181042\n5AB 2007 2808+05 3016+02 3123-01 3336-11 3449-22 345837 346546 346758\n5AC 3419 3213+09 3211+07 3209+02 3309-11 3510-23 010940 360950 350960\n5AD 2514 2620+08 2721+05 2722+01 2730-13 2630-24 262839 262849 272359\n5AE 2222 2223+04 2436+04 2436+00 2438-14 2443-25 244439 244248 244158\n5AF 3213 2919+07 2926+04 2725+00 2624-12 2627-24 272639 282849 283159\n5AG 2606 2712+03 2717+00 2723-03 2642-13 2644-25 265341 275950 275657\n",
  "vaac_tokyo": [
    {
      "id": "20260716_30027000_0265",
      "year": "2026",
      "volcano": "Sheveluch",
      "psn": "N5639 E16122",
      "issued": "20260716",
      "text": "FVFE01 RJTD 160600\nVA ADVISORY\nDTG: 20260716/0600Z\nVAAC: TOKYO\nVOLCANO: SHEVELUCH 300270\nPSN: N5639 E16122\nAREA: RUSSIA\nSOURCE ELEV: 3283M AMSL\nADVISORY NR: 2026/265\nINFO SOURCE: KVERT UHPP HIMAWARI-9\nERUPTION DETAILS: VA CONTINUOUSLY OBS IN SATELLITE IMAGERY\nOBS VA DTG: 16/0520Z\nOBS VA CLD: SFC/FL230 N5643 E16316 - N5549 E16508 - N5526 E16453 - \nN5618 E16252 MOV SE 30KT\nFCST VA CLD +6 HR: 16/1120Z SFC/FL230 N5454 E16830 - N5356 E16813 - \nN5455 E16603 - N5632 E16536 - N5628 E16636\nFCST VA CLD +12 HR: 16/1720Z SFC/FL240 N5514 E17127 - N5331 E17209 - \nN5238 E17030 - N5338 E16858 - N5450 E16955 - N5609 E16849 - N5609 \nE17030\nFCST VA CLD +18 HR: NO VA EXP\nRMK: WESTERN PART OF VA OBSCURED BY MET CLOUD.\nNXT ADVISORY: 20260716/1200Z=",
      "img_url": "https://ds.data.jma.go.jp/svd/vaac/data/VAGFN/2026/Images/20260716_30027000_0265_QH21_01.png",
      "sat_img_url": "https://ds.data.jma.go.jp/svd/vaac/data/Sat/2026/Images/30027000/09-ir/20260716_0520_202607160600_ir.png",
      "text_url": "https://ds.data.jma.go.jp/svd/vaac/data/TextData/2026/20260716_30027000_0265_Text.html"
    },
    {
      "id": "20260715_27307000_0013",
      "year": "2026",
      "volcano": "Taal",
      "psn": "N1400 E12100",
      "issued": "20260715",
      "text": "FVFE01 RJTD 152348\nVA ADVISORY\nDTG: 20260715/2348Z\nVAAC: TOKYO\nVOLCANO: TAAL 273070\nPSN: N1400 E12100\nAREA: PHILIPPINES\nSOURCE ELEV: 311M AMSL\nADVISORY NR: 2026/13\nINFO SOURCE: HIMAWARI-9 PHIVOLCS\nERUPTION DETAILS: ERUPTION AT 20260715/2330Z FL030 EXTD ENE REPORTED\nOBS VA DTG: 15/2340Z\nOBS VA CLD: VA NOT IDENTIFIABLE FM SATELLITE DATA WIND FL030 170/2KT\nFCST VA CLD +6 HR: NOT AVBL\nFCST VA CLD +12 HR: NOT AVBL\nFCST VA CLD +18 HR: NOT AVBL\nRMK: WE WILL ISSUE FURTHER ADVISORY IF VA IS DETECTED IN SATELLITE \nIMAGERY.\nNXT ADVISORY: NO FURTHER ADVISORIES=",
      "img_url": "https://ds.data.jma.go.jp/svd/vaac/data/VAGFN/2026/Images/20260715_27307000_0013_QH21_01.png",
      "sat_img_url": null,
      "text_url": "https://ds.data.jma.go.jp/svd/vaac/data/TextData/2026/20260715_27307000_0013_Text.html"
    },
    {
      "id": "20260715_27303000_0751",
      "year": "2026",
      "volcano": "Mayon",
      "psn": "N1315 E12341",
      "issued": "20260715",
      "text": "FVFE01 RJTD 152204\nVA ADVISORY\nDTG: 20260715/2204Z\nVAAC: TOKYO\nVOLCANO: MAYON 273030\nPSN: N1315 E12341\nAREA: PHILIPPINES\nSOURCE ELEV: 2462M AMSL\nADVISORY NR: 2026/751\nINFO SOURCE: HIMAWARI-9 PHIVOLCS\nERUPTION DETAILS: ERUPTION AT 20260715/1842Z FL100 EXTD SSW REPORTED\nOBS VA DTG: 15/2150Z\nOBS VA CLD: VA NOT IDENTIFIABLE FM SATELLITE DATA WIND FL100 320/2KT\nFCST VA CLD +6 HR: NOT AVBL\nFCST VA CLD +12 HR: NOT AVBL\nFCST VA CLD +18 HR: NOT AVBL\nRMK: WE WILL ISSUE FURTHER ADVISORY IF VA IS DETECTED IN SATELLITE \nIMAGERY.\nNXT ADVISORY: NO FURTHER ADVISORIES=",
      "img_url": "https://ds.data.jma.go.jp/svd/vaac/data/VAGFN/2026/Images/20260715_27303000_0751_QH21_01.png",
      "sat_img_url": null,
      "text_url": "https://ds.data.jma.go.jp/svd/vaac/data/TextData/2026/20260715_27303000_0751_Text.html"
    },
    {
      "id": "20260713_28208001_0083",
      "year": "2026",
      "volcano": null,
      "psn": "N3136 E13039",
      "issued": "20260713",
      "text": "FVFE01 RJTD 130254\nVA ADVISORY\nDTG: 20260713/0254Z\nVAAC: TOKYO\nVOLCANO: SAKURAJIMA (AIRA CALDERA) 282080\nPSN: N3136 E13039\nAREA: JAPAN\nSOURCE ELEV: 1117M AMSL\nADVISORY NR: 2026/83\nINFO SOURCE: JMA HIMAWARI-9\nERUPTION DETAILS: ERUPTED AT 20260713/0152Z FL100 EXTD N\nOBS VA DTG: 13/0230Z\nOBS VA CLD: SFC/FL100 N3136 E13039 - N3142 E13040 - N3141 E13044 - \nN3134 E13042 MOV NE 15KT\nFCST VA CLD +6 HR: 13/0830Z SFC/FL100 N3234 E13121 - N3145 E13155 - \nN3202 E13110 - N3227 E13051\nFCST VA CLD +12 HR: 13/1430Z SFC/FL100 N3318 E13206 - N3142 E13317 - \nN3134 E13226 - N3312 E13118\nFCST VA CLD +18 HR: NO VA EXP\nRMK: NIL\nNXT ADVISORY: 20260713/0600Z=",
      "img_url": "https://ds.data.jma.go.jp/svd/vaac/data/VAGFN/2026/Images/20260713_28208001_0083_QH21_01.png",
      "sat_img_url": "https://ds.data.jma.go.jp/svd/vaac/data/Sat/2026/Images/28208001/09-ir/20260713_0230_202607130254_ir.png",
      "text_url": "https://ds.data.jma.go.jp/svd/vaac/data/TextData/2026/20260713_28208001_0083_Text.html"
    }
  ],
  "vaac_alaska": [
    {
      "text": "\n000\nFVAK21 PAWU 151258\nVAAAK1\nVA ADVISORY\n\nDTG: 20260715/1254Z\n\nVAAC: ANCHORAGE\n\nVOLCANO: SHEVELUCH 300270\n\nPSN: N5639 E16122\n\nAREA: KAMCHATKA PENINSULA\n\nSOURCE ELEV: 10771 FT AMSL\n\nADVISORY NR: 2026/201\n\nINFO SOURCE: HIMAWARI\n\nERUPTION DETAILS: VA NOT IDENTIFIABLE FM SATELLITE DATA.\n\nOBS VA DTG: 15/1254Z\n\nOBS VA CLD: VA NOT IDENTIFIABLE FM SATELLITE DATA.\n\nFCST VA CLD +6HR: NOT AVBL\n\nFCST VA CLD +12HR: NOT AVBL\n\nFCST VA CLD +18HR: NOT AVBL\n\nRMK: A NEW ADVISORY WILL BE ISSUED IF VA IS DETECTED IN SATELLITE IMAGERY....SC\n\nNXT ADVISORY: NO FURTHER ADVISORIES=\n\n",
      "issued": "2026-07-15T12:58:00+00:00",
      "volcano": "Sheveluch",
      "psn": "N5639 E16122"
    }
  ]
}