{
  "updated_utc": "2026-07-22T22:47Z",
  "metar": {
    "RJAA": "METAR RJAA 222100Z 03004KT 6000 FEW020 BKN080 29/26 Q1007 NOSIG",
    "PANC": "METAR PANC 222053Z 16011G22KT 10SM FEW005 BKN030 OVC050 13/08 A3007 RMK AO2 PK WND 16028/2025 SLP182 T01280078 56003",
    "PAFA": "METAR PAFA 222053Z VRB03KT 10SM FEW075 SCT090 BKN120 16/06 A2992 RMK AO2 SLP134 T01610056 58005",
    "PAED": "METAR PAED 222055Z 27006KT 10SM OVC040 15/10 A3005 RMK AO2A SLP172 T01500096 58000 $",
    "KSEA": "METAR KSEA 222053Z 29009KT 9SM FEW150 SCT250 32/13 A2989 RMK A02 SLP126 ACSL DSNT W T03220133 58012",
    "ZSPD": "METAR ZSPD 222100Z 20003MPS CAVOK 27/27 Q1005 NOSIG",
    "ZSSS": "METAR ZSSS 222100Z 17002MPS CAVOK 28/26 Q1005 NOSIG",
    "RJFR": "METAR RJFR 222100Z VRB02KT 9999 FEW015 28/24 Q1009",
    "VHHH": "METAR VHHH 222100Z VRB02KT 9999 FEW012 29/24 Q1007 TEMPO 4000 SHRA FEW010CB SCT020",
    "RCTP": "METAR RCTP 222100Z 24006KT 9999 FEW015 SCT030 27/25 Q1007 NOSIG RMK A2976",
    "ZGSZ": "METAR ZGSZ 222100Z 20003MPS 170V230 9999 FEW016 SCT050 28/27 Q1007 NOSIG",
    "WSSS": "METAR WSSS 222100Z 18004KT 9999 FEW016 BKN140 27/25 Q1011 NOSIG",
    "WMKK": "METAR WMKK 222100Z 00000KT 6000 FEW010 FEW017CB 25/24 Q1010 NOSIG",
    "WIDD": "METAR WIDD 222100Z 21004KT 9999 FEW014 26/25 Q1011 NOSIG",
    "VTBS": "METAR VTBS 222100Z 22004KT 9999 FEW020 BKN100 28/25 Q1008 NOSIG",
    "VTBU": "METAR VTBU 222100Z 25008KT 220V280 9000 VCTS FEW020CB 26/26 Q1008 NOSIG",
    "ROAH": "METAR ROAH 222100Z 09004KT 9999 FEW020 SCT070 28/26 Q1009",
    "VVDN": "METAR VVDN 222100Z VRB01KT 9999 FEW020 BKN070 29/23 Q1005 NOSIG",
    "RCKH": "METAR RCKH 222100Z 05003KT 9000 FEW016 SCT022 BKN120 28/26 Q1007 NOSIG RMK A2976",
    "KLAX": "METAR KLAX 222053Z 27014KT 10SM FEW009 FEW018 24/18 A2996 RMK AO2 SLP143 T02440183 58010",
    "KONT": "METAR KONT 222053Z 23011G18KT 10SM FEW120 33/18 A2994 RMK AO2 SLP118 T03280178 58017 $",
    "KSFO": "METAR KSFO 222056Z 24015KT 10SM FEW006 SCT025 22/14 A3008 RMK AO2 SLP186 T02220144 53002",
    "KOAK": "METAR KOAK 222053Z 25015KT 10SM FEW008 FEW020 22/16 A3008 RMK AO2 SLP186 T02220156 50001",
    "KMHR": "METAR KMHR 222055Z AUTO 23013G20KT 10SM CLR 30/15 A3001 RMK AO2 T02950150 58009 $",
    "KDFW": "METAR KDFW 222053Z 05007G19KT 10SM SCT075 41/21 A2986 RMK AO2 SLP098 T04060211 56015",
    "KIAH": "METAR KIAH 222053Z 05004KT 10SM FEW060 FEW200 FEW250 38/24 A2981 RMK AO2 SLP095 T03830239 56014",
    "KORD": "METAR KORD 222051Z 02011G16KT 10SM FEW045 23/05 A3009 RMK AO2 SLP187 T02330050 58001 $",
    "KJFK": "METAR KJFK 222051Z 23015KT 10SM SCT065 SCT090 BKN250 31/18 A2977 RMK AO2 SLP081 T03060178 51006 $",
    "KRFD": "METAR KRFD 222054Z 05005KT 10SM BKN070 22/08 A3011 RMK AO2 SLP192 T02170083 56006 $",
    "KIND": "METAR KIND 222054Z 35009KT 10SM BKN055 BKN250 23/10 A3005 RMK AO2 SLP170 T02330100 58004",
    "KDTW": "METAR KDTW 222053Z 33008KT 10SM BKN070 23/07 A3001 RMK AO2 SLP161 T02330072 53002",
    "KMSP": "METAR KMSP 222053Z 03004KT 10SM FEW055 BKN065 21/07 A3014 RMK AO2 SLP204 T02110072 58006",
    "CYEG": "METAR CYEG 222100Z 24005KT 180V270 15SM FEW030 FEW260 27/20 A2996 RMK CU1CI1 SLP143 DENSITY ALT 4200FT",
    "EHAM": "METAR EHAM 222055Z 33006KT 300V360 9999 SCT028 BKN039 17/11 Q1022 NOSIG",
    "EBBR": "METAR EBBR 222050Z 32007KT 9999 FEW025 SCT042 16/11 Q1023 NOSIG",
    "EDDF": "METAR EDDF 222050Z AUTO 30008KT 270V340 CAVOK 18/11 Q1020 NOSIG",
    "EDFH": "METAR EDFH 222050Z 31003KT 280V350 9999 FEW027 14/10 Q1022",
    "EDDL": "METAR EDDL 222050Z AUTO 33010KT 9999 FEW026 SCT033 17/11 Q1021 NOSIG",
    "EDDK": "METAR EDDK 222050Z AUTO 32010KT CAVOK 17/11 Q1021 NOSIG",
    "EBLG": "METAR EBLG 222050Z 31005KT 9999 FEW034 15/10 Q1023 NOSIG",
    "LSZH": "METAR LSZH 222050Z 25003KT CAVOK 18/08 Q1020 NOSIG",
    "LIMC": "METAR LIMC 222050Z 04003KT 030V090 CAVOK 22/15 Q1016 NOSIG",
    "LIRF": "METAR LIRF 222050Z 32005KT 280V010 CAVOK 27/20 Q1013 NOSIG",
    "EINN": "METAR EINN 222100Z 01005KT 9999 FEW035 BKN050 21/14 Q1028 NOSIG",
    "EGLL": "METAR EGLL 222050Z AUTO 07013KT 9999 NCD 22/13 Q1024",
    "EGSS": "METAR EGSS 222050Z AUTO 11006KT 9999 NCD 17/13 Q1025",
    "EPWA": "METAR EPWA 222100Z 24005KT CAVOK 16/12 Q1013 NOSIG",
    "UHPP": "METAR UHPP 222100Z 21004MPS 9999 FEW006 BKN022 12/08 Q1012 R34L/CLRD62 NOSIG RMK MT OBSC QFE755/1007",
    "EFHK": "METAR EFHK 222050Z 26004KT CAVOK 13/10 Q1007 NOSIG",
    "LBBG": "METAR LBBG 222100Z AUTO 29009KT 210V320 9999 SCT025/// BKN029/// 20/15 Q1012 NOSIG",
    "LTAC": "METAR LTAC 222050Z 02006KT 350V050 CAVOK 24/10 Q1013 NOSIG RMK RWY21C VRB02KT RWY03L 02004KT 340V050 RWY21R VRB01KT RWY03R 04003KT 320V090 RWY21L 13003KT 050V150",
    "UBBB": "METAR UBBB 222100Z 00000KT CAVOK 25/18 Q1008 NOSIG",
    "UTAA": "METAR UTAA 222100Z 27006KT 9999 FEW050 BKN100 29/11 Q1007 R88/CLRD70 NOSIG",
    "UACC": "METAR UACC 222100Z VRB01MPS 9999 SCT046 16/14 Q1004 NOSIG RMK QFE722/0962",
    "UAAA": "METAR UAAA 222100Z 21003MPS 9999 -SHRA VCTS BKN050CB OVC100 20/17 Q1008 NOSIG",
    "UZTT": "METAR UZTT 222100Z 08008KT 9999 FEW066CB 25/14 Q1006 NOSIG",
    "ZWWW": "METAR ZWWW 222100Z 28003MPS CAVOK 25/16 Q1008 NOSIG",
    "ZLXY": "METAR ZLXY 222100Z VRB01MPS CAVOK 24/19 Q1002 NOSIG",
    "ZBAA": "METAR ZBAA 222100Z VRB01MPS 9999 BKN040 23/22 Q1004 NOSIG",
    "ZBHH": "METAR ZBHH 222100Z VRB01MPS 9999 FEW040 16/15 Q1007 NOSIG",
    "ZSQD": "METAR ZSQD 222100Z 14001MPS 8000 BKN020 24/24 Q1003 NOSIG",
    "ZMCK": "METAR ZMCK 222100Z 08004MPS CAVOK 12/10 Q1009 NOSIG RMK QFE642.2 89",
    "UUEE": "METAR UUEE 222100Z 18003MPS CAVOK 17/12 Q1006 R24L/CLRD62 R24C/CLRD62 NOSIG",
    "UUDD": "METAR UUDD 222100Z 24006MPS 9000 -SHRA SCT040CB 16/13 Q1007 R13R/290045 NOSIG",
    "ULLI": "METAR ULLI 222100Z 25006MPS 9999 FEW010 SCT023CB BKN039 13/11 Q1005 R88/090065 NOSIG",
    "USSS": "METAR USSS 222100Z 00000MPS 9000 NSC 17/17 Q1011 R08R/CLRD60 R08L/CLRD60 NOSIG RMK QFE738/0985",
    "UNNT": "METAR UNNT 222100Z VRB01MPS 5000 BR NSC 17/17 Q1000 R07/CLRD// R16/290160 NOSIG RMK QFE740/0987",
    "UNKL": "METAR UNKL 222100Z 26005MPS 9999 SCT023 17/17 Q0999 R29/150060 NOSIG RMK QFE724",
    "UIBB": "METAR UIBB 222100Z 12002MPS 8000 -SHRA SCT040CB 17/16 Q0999 R12/CLRD62 NOSIG RMK QFE707/0943",
    "UEEE": "METAR UEEE 222100Z 00000MPS 9999 -SHRA SCT040CB 19/18 Q1003 R23/290159 NOSIG RMK QFE743",
    "UHHH": "METAR UHHH 222100Z 02004MPS CAVOK 20/19 Q1008 R88/090060 NOSIG RMK QFE750/1000",
    "UHSS": "METAR UHSS 222100Z 12002MPS 050V160 3400 BR BKN012 15/15 Q1010 R01/290060 NOSIG RMK MT OBSC QFE756/1008"
  },
  "taf": {
    "RJAA": "TAF RJAA 221705Z 2218/2400 02004KT 9999 FEW030 BECMG 2223/2301 08010KT BECMG 2309/2312 04006KT TEMPO 2312/2315 4000 -SHRA BR FEW005 BKN008 TEMPO 2315/2321 2000 BR FEW002 BKN005 BECMG 2321/2400 08006KT TEMPO 2321/2400 4000 BR FEW005 BKN008",
    "PANC": "TAF PANC 221908Z 2219/2324 15011G20KT P6SM VCSH OVC025 TEMPO 2220/2224 FEW035 OVC060 FM230000 15010G20KT P6SM -RA SCT025 OVC040 FM230300 16015G25KT 5SM -RA SCT015 OVC025 FM230800 16025G40KT 5SM -RA SCT015 OVC030",
    "PAFA": "TAF PAFA 222144Z 2222/2324 18006KT P6SM BKN090 FM230600 15006KT P6SM -RA SCT030 OVC050 FM231000 15006KT 5SM -RA BR BKN015 OVC030",
    "PAED": "TAF PAED 222100Z 2221/2403 02009KT 9999 VCSH OVC040 650604 QNH2999INS BECMG 2300/2301 VRB06KT 9000 -RA OVC035 650357 QNH2980INS BECMG 2309/2310 19010G25KT 6000 RA SCT020 BKN030 OVC040 650604 530008 QNH2978INS BECMG 2314/2315 19020G35KT 6000 -RA BKN030 OVC040 620604 530008 QNH2964INS TEMPO 2315/2318 18025G40KT BECMG 2319/2320 20015G28KT 9999 -SHRA BKN030 530008 QNH2967INS BECMG 2322/2323 20010G20KT 9999 NSW SCT030 SCT060 QNH2971INS TX16/2300Z TN12/2312Z",
    "KSEA": "TAF KSEA 222136Z 2222/2324 28010KT P6SM SCT150 FM230400 25008KT 6SM -TSRA BKN100CB FM230600 23010KT P6SM VCSH SCT120 BKN250 FM231200 21010KT P6SM OVC015 FM231600 21012KT P6SM OVC015",
    "ZSPD": "TAF ZSPD 222125Z 2300/2406 18004MPS 6000 SCT030 TX35/2306Z TX35/2406Z TN28/2321Z TEMPO 2307/2312 23010G15MPS TSRA BKN011 SCT030CB",
    "ZSSS": "TAF ZSSS 222124Z 2300/2406 18004MPS 8000 SCT030 TX36/2306Z TX36/2406Z TN28/2321Z TEMPO 2307/2312 27009G15MPS +TSRA BKN013 SCT030CB",
    "RJFR": "TAF RJFR 221705Z 2218/2400 28004KT 9999 FEW050 BECMG 2303/2305 34012KT BECMG 2315/2318 27006KT",
    "VHHH": "TAF VHHH 222000Z 2221/2403 18010KT 9999 FEW015 SCT030 TX34/2306Z TN28/2222Z TN28/2322Z TEMPO 2221/2224 VRB05KT 4000 SHRA FEW010CB SCT020 BECMG 2304/2306 24010KT BECMG 2310/2312 16010KT TEMPO 2315/2324 VRB05KT",
    "RCTP": "TAF RCTP 221700Z 2218/2324 18005KT 9999 FEW018 BECMG 2300/2302 27010KT TEMPO 2306/2309 -SHRA FEW012CB FEW015 BKN032 BECMG 2310/2312 08007KT BECMG 2318/2320 17005KT",
    "ZGSZ": "TAF ZGSZ 222101Z 2300/2406 18004MPS 8000 SCT040 TX33/2306Z TX33/2406Z TN28/2322Z",
    "WSSS": "TAF WSSS 221700Z 2218/2400 18008KT 9999 FEW015 SCT020",
    "WMKK": "TAF WMKK 221700Z 2218/2400 VRB02KT 9000 FEW030 PROB30 TEMPO 2220/2300 5000 TSRA FEW010 FEW017CB",
    "VTBS": "TAF VTBS 221700Z 2218/2324 21008KT 9999 FEW020 TEMPO 2308/2312 VRB15KT 4000 TSRA FEW018CB SCT030 BKN100",
    "VTBU": "TAF VTBU 221700Z 2218/2318 22006KT 9000 FEW020",
    "ROAH": "TAF ROAH 221705Z 2218/2400 10004KT 9999 FEW012 SCT020 TEMPO 2306/2309 4000 SHRA BR FEW008 BKN015 FEW020CB",
    "VVDN": "TAF VVDN 221700Z 2218/2318 24006KT 9999 FEW020 BECMG 2304/2305 02010KT TEMPO 2308/2313 23015G25KT 3500 TSRA BKN013 FEW015CB BKN060 BECMG 2313/2314 23005KT",
    "RCKH": "TAF RCKH 221700Z 2218/2324 28005KT 9999 FEW015 TEMPO 2220/2224 09005KT BECMG 2302/2303 29008KT TEMPO 2306/2309 30013KT FEW012 FEW015TCU TEMPO 2315/2319 VRB05KT BECMG 2320/2322 36007KT",
    "KLAX": "TAF KLAX 222106Z 2221/2324 26015KT P6SM SKC FM222300 26015G22KT P6SM SKC FM230300 26010KT P6SM FEW250 FM230700 VRB03KT P6SM SCT250 FM231800 26006KT P6SM FEW250 FM232000 26012KT P6SM FEW250",
    "KONT": "TAF KONT 221720Z 2218/2324 VRB05KT P6SM SKC FM222100 25011G19KT P6SM FEW200 FM230600 VRB05KT P6SM SKC FM231800 25008KT P6SM SKC",
    "KSFO": "TAF KSFO 222102Z 2221/2324 25015KT P6SM FEW006 SCT025 TEMPO 2223/2303 26016G26KT FM230600 27010KT P6SM BKN010 FM231700 28016G23KT P6SM BKN015",
    "KOAK": "TAF KOAK 221733Z 2218/2324 22014KT P6SM SKC FM222000 27015KT P6SM SKC FM230500 28010KT P6SM BKN008 FM231700 27009KT P6SM BKN015",
    "KMHR": "TAF KMHR 221720Z 2218/2318 24010KT P6SM SKC FM230200 18012KT P6SM SKC FM230800 15011KT P6SM SKC FM231400 18008KT P6SM FEW250",
    "KDFW": "TAF KDFW 222049Z 2221/2324 04009KT P6SM SCT080 FM230000 07008KT P6SM SCT070 SCT250",
    "KIAH": "TAF KIAH 222116Z 2221/2324 02005KT P6SM FEW060 FEW200 FEW250 TEMPO 2222/2301 4SM TSRA BKN050CB FM230600 VRB05KT P6SM SKC FM231400 04008KT P6SM SKC",
    "KORD": "TAF KORD 222052Z 2221/2324 04011G17KT P6SM SCT050 FM230200 VRB04KT P6SM FEW060 FM231800 03007KT P6SM SCT060",
    "KJFK": "TAF KJFK 221943Z 2220/2324 25014G20KT P6SM SCT060 FM222200 28011G17KT P6SM SCT070 FM230000 34009KT P6SM FEW090 FM230600 36008KT P6SM SKC FM232000 14009KT P6SM FEW040",
    "KRFD": "TAF KRFD 222052Z 2221/2318 36008KT P6SM BKN060 FM230200 VRB04KT P6SM SCT060 FM231600 25007KT P6SM SCT060",
    "KIND": "TAF KIND 222002Z 2220/2324 02009G19KT P6SM BKN050 FM222300 01007KT P6SM FEW050 FM231400 06006KT P6SM FEW050",
    "KDTW": "TAF KDTW 222100Z 2221/2324 32012KT P6SM BKN070 FM230100 30007KT P6SM SCT070 FM230600 34004KT P6SM SKC FM231600 30004KT P6SM SCT050",
    "KMSP": "TAF KMSP 222036Z 2221/2324 33008KT P6SM BKN070 FM230200 14005KT P6SM FEW070 FM230600 20004KT P6SM SKC FM231600 22007KT P6SM FEW250",
    "CYEG": "TAF CYEG 222040Z 2221/2318 21005KT P6SM FEW040 FM230300 16005KT P6SM SKC PROB30 2310/2314 1SM BR FM231400 20006KT P6SM SKC RMK NXT FCST BY 230000Z",
    "EHAM": "TAF EHAM 221658Z 2218/2324 33011KT 9999 SCT022 BKN040 BECMG 2319/2322 VRB02KT",
    "EBBR": "TAF EBBR 221703Z 2218/2324 33009KT 9999 SCT030 PROB30 TEMPO 2302/2309 4500 -SHRA BKN014",
    "EDDF": "TAF EDDF 221700Z 2218/2324 32010KT CAVOK BECMG 2219/2222 30005KT BECMG 2307/2311 33010G20KT BECMG 2318/2322 02005KT",
    "EDFH": "TAF EDFH 221700Z 2218/2318 32006KT 9999 SCT040",
    "EDDL": "TAF EDDL 221700Z 2218/2324 31010KT 9999 BKN040 BECMG 2219/2222 30004KT PROB30 TEMPO 2304/2308 BKN010 BECMG 2308/2311 32009KT BECMG 2318/2320 35003KT",
    "EDDK": "TAF EDDK 221700Z 2218/2324 31011KT 9999 BKN030 BECMG 2218/2221 32005KT PROB30 TEMPO 2304/2308 BKN010 BECMG 2309/2312 32010KT BECMG 2318/2320 01003KT",
    "EBLG": "TAF EBLG 221703Z 2218/2324 32008KT 9999 SCT035 PROB30 TEMPO 2303/2309 4500 -SHRA BKN012",
    "LSZH": "TAF LSZH 222025Z 2221/2403 34004KT CAVOK TX27/2315Z TN12/2304Z PROB40 TEMPO 2305/2309 03005KT TEMPO 2308/2316 9999 FEW050 PROB40 TEMPO 2315/2318 32008KT PROB30 TEMPO 2318/2320 03006KT",
    "LIMC": "TAF LIMC 221700Z 2218/2324 VRB05KT CAVOK BECMG 2319/2321 02010KT",
    "LIRF": "TAF LIRF 221700Z 2218/2324 32015KT 9999 FEW030 BECMG 2222/2224 04008KT BECMG 2310/2312 25012KT BECMG 2318/2320 VRB05KT",
    "EINN": "TAF EINN 221700Z 2218/2318 03010KT 9999 FEW025 BKN035 BECMG 2220/2222 36008KT PROB30 2303/2307 0500 FG BKN001 PROB30 TEMPO 2307/2309 3000 BR BKN004",
    "EGLL": "TAF EGLL 221658Z 2218/2324 04010KT 9999 FEW045 BECMG 2218/2221 11004KT BECMG 2303/2306 22010KT PROB30 TEMPO 2303/2307 9000",
    "EGSS": "TAF AMD EGSS 221839Z 2218/2324 03010KT 9999 FEW045 BECMG 2218/2221 VRB05KT PROB40 2302/2307 6000",
    "EPWA": "TAF EPWA 222030Z 2221/2321 26010KT 9999 FEW045 PROB40 TEMPO 2221/2302 SCT045CB TEMPO 2308/2320 SHRA BKN030CB PROB40 2310/2318 27020G30KT 3000 TSRA BKN020 BECMG 2316/2318 33005KT",
    "UHPP": "TAF UHPP 221939Z 2221/2403 32003G08MPS 9999 BKN025CB TEMPO 2221/2223 BKN004 TEMPO 2223/2309 18005G12MPS",
    "EFHK": "TAF EFHK 222033Z 2221/2321 27005KT CAVOK PROB30 TEMPO 2300/2307 BKN007 FEW020CB TEMPO 2307/2310 SCT020CB TEMPO 2310/2319 SHRA SCT030CB PROB40 TEMPO 2314/2319 2500 TSRA",
    "LBBG": "TAF LBBG 221700Z 2218/2318 34012KT 9999 SCT010 BKN020 BECMG 2306/2308 SCT030",
    "LTAC": "TAF LTAC 221640Z 2218/2318 VRB02KT CAVOK BECMG 2300/2303 SCT040 SCT100 BECMG 2304/2307 25012KT PROB30 TEMPO 2307/2311 31015G25KT -SHRA FEW025CB BKN030 TEMPO 2311/2315 33015G25KT TEMPO 2315/2318 35015G25KT BECMG 2316/2318 CAVOK",
    "UBBB": "TAF UBBB 221702Z 2218/2318 VRB04KT CAVOK TX32/2310Z TN22/2301Z TEMPO 2218/2221 19006KT SCT040 BECMG 2305/2307 15008KT TEMPO 2307/2315 18012KT",
    "UTAA": "TAF UTAA 221645Z 2218/2318 27016KT 6000 SCT030 SCT050CB TEMPO 2218/2224 33012G22KT TEMPO 2300/2308 34016G26KT 4000 DRDU TEMPO 2308/2315 03014KT",
    "UACC": "TAF UACC 221703Z 2218/2318 36003MPS 9999 SCT030 BKN100 TX25/2309Z TN15/2224Z TEMPO 2218/2303 02005MPS 3100 -SHRA BR SCT005 BKN020CB PROB40 TEMPO 2218/2303 TS BKN020CB BECMG 2303/2305 02006MPS SCT030CB BKN050 TEMPO 2303/2315 VRB15MPS 3100 -TSRA SQ BKN020CB",
    "UAAA": "TAF AMD UAAA 222015Z 2220/2318 22005MPS 9999 SCT050CB BKN100 TX31/2309Z TN18/2300Z TEMPO 2220/2305 28006G12MPS 4000 -TSRA BR BECMG 2305/2307 34005MPS TEMPO 2305/2316 04006G14MPS 5000 -TSRA BLDU",
    "UZTT": "TAF UZTT 221700Z 2218/2318 08010KT 7000 FEW060CB BKN100 TX35/2311Z TN22/2300Z TEMPO 2218/2224 VRB15G25KT 4000 -TSRA -DS BKN050CB",
    "ZWWW": "TAF ZWWW 222106Z 2300/2406 33004G11MPS 8000 BKN040 TX31/2309Z TX30/2406Z TN23/2323Z BECMG 2306/2307 FEW040CB BKN040 BECMG 2313/2314 16004MPS CAVOK BECMG 2402/2403 36004MPS",
    "ZLXY": "TAF ZLXY 222117Z 2300/2324 06004MPS 6000 NSC TX36/2308Z TN23/2322Z",
    "ZBAA": "TAF ZBAA 222106Z 2300/2406 14003MPS 5000 BR NSC TX29/2306Z TX30/2406Z TN21/2321Z TEMPO 2311/2315 -TSRA FEW040CB BKN040",
    "ZBHH": "TAF ZBHH 222101Z 2300/2324 24004MPS 9999 SCT040 TX29/2308Z TN16/2322Z TEMPO 2308/2311 VRB09G14MPS -TSRA SCT040 FEW040CB",
    "ZSQD": "TAF ZSQD 222109Z 2300/2324 18004MPS 6000 NSC TX31/2306Z TN24/2322Z TEMPO 2318/2322 SHRA BKN010",
    "ZMCK": "TAF COR ZMCK 222240Z 2300/2406 VRB02MPS 9999 FEW030CB SCT033 TX30/2307Z TN17/2321Z BECMG 2314/2316 09005MPS PROB40 TEMPO 2316/2406 VRB08G13MPS TSRA SCT027CB SCT030",
    "UUEE": "TAF UUEE 221955Z 2221/2321 21003G08MPS 9999 SCT016 TX22/2312Z TN14/2301Z TEMPO 2223/2308 -TSRA BKN010 BKN016CB BECMG 2303/2306 27005MPS PROB40 TEMPO 2308/2312 -TSRA BKN020CB",
    "UUDD": "TAF UUDD 221955Z 2221/2403 21003MPS 6000 BKN016 TX22/2312Z TN12/2401Z PROB40 TEMPO 2221/2312 -TSRA BKN020CB BECMG 2304/2306 27006MPS BECMG 2316/2318 34003MPS",
    "ULLI": "TAF ULLI 221952Z 2221/2321 26004G09MPS 6000 BKN016 TEMPO 2221/2304 1000 BR BKN004 PROB40 TEMPO 2222/2304 0300 FG BKN003 TEMPO 2304/2306 BKN010 TEMPO 2306/2318 30005G10MPS",
    "USSS": "TAF USSS 221943Z 2221/2321 31003MPS 6000 SCT016 TEMPO 2221/2303 0300 FG VV002 FM230300 07003G10MPS 9999 SCT033CB TEMPO 2305/2318 -TSRAGR",
    "UNNT": "TAF UNNT 222000Z 2221/2321 31003G08MPS 8000 BKN030 TX25/2309Z TN16/2222Z TEMPO 2221/2302 0300 -TSRA FG BKN002 BKN020CB TEMPO 2302/2315 -TSRA BKN020CB",
    "UNKL": "TAF UNKL 221944Z 2221/2321 26003G08MPS 6000 SCT016CB TEMPO 2221/2224 -TSRA BKN010 BKN016CB BECMG 2304/2307 27003G08MPS -TSRA BECMG 2308/2311 NSW TEMPO 2311/2314 -TSRA",
    "UIBB": "TAF UIBB 222000Z 2221/2321 24003G08MPS 9999 -SHRA FEW001 BKN020CB TEMPO 2221/2312 VRB10MPS 1900 TSRA BKN004 BKN020CB",
    "UEEE": "TAF UEEE 222000Z 2221/2403 07003G08MPS 9999 SCT020CB OVC100 TX30/2306Z TN19/2318Z TEMPO 2221/2312 VRB14MPS 2100 -TSRA SCT007 BKN020CB OVC100",
    "UHHH": "TAF UHHH 221949Z 2221/2403 05003MPS 9999 SCT020CB TX30/2305Z TN19/2318Z TEMPO 2306/2312 -TSRA",
    "UHSS": "TAF UHSS 221945Z 2221/2403 18003MPS 2100 BR BKN004 BECMG 2222/2301 9999 NSW SCT040CB"
  },
  "atis": {
    "RJAA": "[Arrival ATIS] RJAA ARR ATIS V 0507Z M0500 (APCH)ILS Z RWY16R/ILS Z RWY16L LDG RWY 16R/16L DEP RWY 16R DEP FREQ 124.2. SIMUL PARL APCHS INPR. M 220500Z 14007KT 090V180 10KM FEW030CU BKN035CU 35/29 Q1005/A2970= Q/TWO NINE SEVEN ZERO STP\n[Departure ATIS] RJAA DEP ATIS N 1114Z M1100 (APCH)ILS Y RWY16L LDG RWY 16L DEP RWY 16R DEP FREQ 124.2. TWY A1 CLSD. M 241100Z 09004KT 30KM SCT020CU BKN/// 21/18 Q1013/A2993= Q/TWO NINE NINE THREE STP",
    "PANC": "[Arrival ATIS] PANC ARR ATIS H 1753Z ANC ATIS INFO H 1753Z. 27006KT 10SM SCT007 SCT020 BKN200 12/08 A3007 (THREE ZERO ZERO SEVEN) RMK AO2 SLP182 T01170078 10117 20083 58014. 7R APPROACHES IN USE. LANDING RWY 7R, DEPARTING RWY 33. NOTICE TO AIRMEN. RWY 7L CLSD. CHECK NOTAMS FOR TAXIWAY CLOSURES. CAUTION FOR BIRD ACTIVITY IN THE ARPT AREA. ...ADVS YOU HAVE INFO H.\n[Departure ATIS] PANC DEP ATIS H 1453Z ANC ATIS INFO H 1453Z. 13015G27KT 10SM SCT033 OVC041 11/06 A3005 (THREE ZERO ZERO FIVE) RMK AO2 PK WND 16029/1356 SLP175 T01060061 51003. ILS RWY 15 APPROACHES IN USE. LAN",
    "KSEA": "[Arrival ATIS] KSEA ARR ATIS M 2153Z SEA ATIS INFO M 2153Z. 34009KT 9SM FEW050 SCT150 BKN250 34/13 A2988 (TWO NINER EIGHT EIGHT). ILS AND CHARTED VISUAL APPROACH RWYS 34L AND 34R , APCH IN USE. DEPG RWY 34R, DEPG ACFT PLAN AND BRIEF NUMBERS FOR BOTH RWYS 34R AND 34C. SIMUL APCHS IN USE, BFI & SEA. TRAFFIC BELOW YOU ON FINAL. SIMUL ARRIVALS TO RWY 34L AND DEPARTURES TO RWY 34R ARE IN USE. SIMUL APCHS IN USE TO PARA RYS. NOTAMS... TWY C CLSD BTN RWY, 16L AND TWY B, TWY G CLSD, TWY A BETWEEN TWY G AND CARGO 5 CLOSED. TWY A AND TWY B NORTH OF TWY D CLOSED. CARGO 1 CLOSED. BIRD ACTIVITY VICINITY ARPT. STADIUM TFR IN EFFECT CHECK FDC NOTAMS FOR MORE INFO. PINK SPOT 2A MARKING MISSING ON NORTH END OF ALPHA TWY. ...ADVS YOU HAVE INFO M.\n[Departure ATIS] KSEA DEP ATIS L 2053Z - KSEA ATIS INFO L 2053Z. 27008KT 9SM FEW150 SCT250 32/13 A2990 (TWO NINER NINER ZERO). ILS AND CHARTED VISUAL APPROACH RWYS 34L AND 34R , APCH IN USE. DEPG RWY 34R, DEPG ACFT PLAN AND BRIEF NUMBERS FOR BOTH RWYS 34R AND 34C. SIMUL APCHS IN USE, BFI & SEA. TRAFFIC BELOW YOU ON FINAL. SIMUL ARRIVALS TO RWY 34L AND DEPARTURES TO RWY 34R ARE IN USE. SIMUL APCHS IN USE TO PARA RYS. NOTAMS... TWY C CLSD BTN RWY, 16L AND TWY B, TWY G CLSD, TWY A BETWEEN TWY G AND CARGO 5 CLOSED. TWY A AND TWY B NORTH OF TWY D CLOSED. CARGO 1 CLOSED. BIRD ACTIVITY VICINITY ARPT. STADIUM TFR IN EFFECT CHECK FDC NOTAMS FOR MORE INFO. PINK SPOT 2A MARKING MISSING ON NORTH END OF ALPHA TWY. ...ADVS YOU HAVE INFO L.",
    "ZSPD": "[Arrival ATIS] ZSPD ARR ATIS C 1800Z EXP ILS APCH INDEPENDENT PARL INSTR APCH LDG RWY 35L RWY 35R IS CLSD RWY 34R IS CLSD WIND RWY 35L TDZ 040/4MPS MID 040/4MPS END 040/3MPS VIS RWY 35L TDZ 10000M MID 10000M END 10000M CLD SCT 360M T 22 /DP 22 QNH 1005 HPA CAUTION THE BIRDS NEAR THE RUNWAY RWY 35R/35L/34R/34L RWYCC 5/5/5 ISSUED AT 0314 WET/WET/WET DPT NR/NR/NR COV 100PCT/100PCT/100PCT. ADZ YOU HAVE INFO C.\n[Departure ATIS] ZSPD DEP ATIS C 1800Z DEP RWY 34L RWY 35R IS CLSD RWY 34R IS CLSD WIND RWY 34L TDZ 040/3MPS MID 050/3MPS END 050/3MPS VIS RWY 34L TDZ 10000M MID 10000M END 10000M CLD SCT 360M T 22 /DP 22 QNH 1005 HPA DELIVERY FREQ 118.4 CAUTION THE BIRDS NEAR THE RUNWAY RWY 35R/35L/34R/34L RWYCC 5/5/5 ISSUED AT 0314 WET/WET/WET DPT NR/NR/NR COV 100PCT/100PCT/100PCT. ADZ YOU HAVE INFO C.",
    "ZSSS": "[Arrival ATIS] ZSSS ARR ATIS P 1530Z EXP ILS APCH LDG RWY 18L WIND RWY 18L TDZ 150/2MPS MID 150/3MPS END 160/3MPS CAVOK T 27 /DP 24 QNH 1006 HPA RWY18L RWYCC 5/5/5 ISSUED AT 1030 WET/WET/WET DPT NR/NR/NR COV 100PCT/100PCT/100PCT RWY18R RWYCC 5/5/5 ISSUED AT 1030 WET/WET/WET DPT NR/NR/NR COV 100PCT/100PCT/100PCT QNH OF SHANGHAI TERMINAL CONTROL AREA 1007 HPA ADZ YOU HAVE INFO P.\n[Departure ATIS] ZSSS DEP ATIS D 1132Z DEP RWY 36L WIND RWY 36L TDZ 040/3MPS MID 030/3MPS END 030/3MPS VIS RWY 36L TDZ 10000M MID 10000M END 10000M CLD BKN 480M T 23 /DP 20 QNH 1006 HPA RWY36R RWYCC 5/5/5 ISSUED AT 0905 WET/WET/WET DPT NR/NR/NR COV 100PCT/100PCT/100PCT QNH OF SHANGHAI TERMINAL CONTROL AREA 1005 HPA ADZ YOU HAVE INFO D.",
    "VHHH": "[Arrival ATIS] VHHH ARR ATIS E 1805Z ARRIVALS, RWY 25C. EXP ILS APCH, RWY 25C. RWY 25L IS CLSD FOR MAINT. WIND 200/07KT. VIS 10KM. CLD FEW 1000FT SCT 2500FT. T30 DP26. QNH 1003HPA. ACK INFO E ON FIRST CTC WITH APP.\n[Departure ATIS] VHHH DEP ATIS Q 1807Z DEPARTURES, RWY 25C. RWY 25L IS CLSD FOR MAINT. WIND 230/10KT. VIS 10KM. CLD FEW 1000FT SCT 2500FT. T30 DP26. QNH 1003HPA. ACK INFO Q ON FIRST CTC WITH DELIVERY .",
    "RCTP": "[Arrival ATIS] RCTP ARR ATIS A 2200Z EXP ILS APCH RWY23L ARR/DEP. RWY23R CLSD BTN 1700Z AND 2230Z FOR INSPECTION. TWY-N BTN TWY-P9 AND TWY-P10 CLSD. TWY-P9 AND TWY-P10 AVBL. WIND 220/04KT VARYING BTN 180 AND 240 VIS 10 KM OR MORE CLD FEW 1500FT SCT 3000FT T 27 DP 25 QNH 1008HPA NOSIG INFORM TAIPEI APCH OR TAIPEI TOWER ON INITIAL CONTACT YOU HAVE INFORMATION A\n[Departure ATIS] RCTP DEP ATIS G 1130Z EXP ILS APCH RWY05L AND RWY05R ARR/DEP. WIND 040/04KT VARYING BTN 360 AND 060 VIS 10 KM OR MORE CLD FEW 1000FT BKN 1400FT T 29 DP 26 QNH 1003HPA NOSIG DUE TO FLOW CONTROL BY MANILA F-I-R, TRAFFIC CONCERNED MAY BE DELAYED. INFORM TAIPEI APCH OR TAIPEI TOWER ON INITIAL CONTACT YOU HAVE INFORMATION G",
    "ZGSZ": "[Arrival ATIS] ZGSZ ARR ATIS E 1800Z EXP ILS APCH LDG RWY 15 WIND 180/5MPS VIS 9999M CLD FEW 780M T 30 /DP 28 QNH 1003 HPA SINGLE RUNWAY OPERATION MISSED APPROACH ALTITUDE SETTING 1200METERS WHEN AIRBORNE CONTACT ZHUHAI APPROACH EXPECTED RNP ILS DME Z APPROACH ADZ YOU HAVE INFO E.\n[Departure ATIS] ZGSZ DEP ATIS B 1700Z DEP RWY 15 WIND 180/6MPS VIS 9999M CLD FEW 780M T 30 /DP 28 QNH 1003 HPA DELIVERY FREQ 121.65 INDEPENDENT PARALLEL APPROACHES MISSED APPROACH ALTITUDE SETTING 1200METERS WHEN AIRBORNE CONTACT ZHUHAI APPROACH EXPECTED RNP ILS DME Z APPROACH ADZ YOU HAVE INFO B.",
    "WSSS": "[Arrival ATIS] WSSS ARR ATIS N 1800Z METREPORT 1800Z ILS APCHRWY 20C RWY 20R 02L CLSD. TWY W 9 CLOSED, RWY 02C 20C RAPID EXIT TAXIWAY INDICATOR LIGHTS OFFTWY CENTRE LINE LIGHTS AT CHANGI AIRPORT WILL BE TURNED ON PROGRESSIVELY DUE TESTING IN PROGRESSFOLLOW THE GREENS TRIAL IN PROGRESS. WHEN VACATING THE RWY, PILOTS TO ADHERE TO ATC VERBAL INSTRUCTIONS. WHEN ON TWY, PILOT TO ADHERE TO FOLLOW THE GREENS INSTRUCTIONS. WHEN APPROACHING [A] JUNCTION, KEEP [A] LOOKOUT FOR CONTINUOUS GREENS. [IF] [A] BREAK IN THE GREENS IS OBSERVED, STOP AND CLARIFY WITH ATC. WIND 320/ 04KT VRB BTN240 AND360 VIS 10KM CLD FEW 1600FT T27 DP24 QNH 1011HPA NOSIG ACK ATIS N\n[Departure ATIS] WSSS DEP ATIS Q 1800Z METREPORT 1800Z RWY 20C RWY 20R 02L CLSD. TWY W 9 CLOSED, RWY 02C 20C RAPID EXIT TAXIWAY INDICATOR LIGHTS OFFFOLLOW THE GREENS TRIAL IN PROGRESS. WHEN VACATING THE RWY, PILOTS TO ADHERE TO ATC VERBAL INSTRUCTIONS. WHEN ON TWY, PILOT TO ADHERE TO FOLLOW THE GREENS INSTRUCTIONS. WHEN APPROACHING [A] JUNCTION, KEEP [A] LOOKOUT FOR CONTINUOUS GREENS. [IF] [A] BREAK IN THE GREENS IS OBSERVED, STOP AND CLARIFY WITH ATC. WIND 300/ 04KT VRB BTN240 AND330 VIS 10KM CLD FEW 1600FT T27 DP24 QNH 1011HPA NOSIG DEP, INITIAL CMB 3000 FT, ACK ATIS Q",
    "WMKK": "[Arrival ATIS] WMKK ARR ATIS A 1807Z WMKK ARR INFO A. TIME 1800. EXP RNAV / ILS APCH FOR RWY 32 RIGHT. WIND RWY 32R DIRECTION NOT AVBL SPEED NOT AVBL. WIND RWY 32L DIRECTION NOT AVBL SPEED NOT AVBL. VIS RWY 32R TDZ NOT AVBL. CLD FEW 1000 FT. T 25. DP 24. QNH 1009. NOSIG. AT FIRST CONTACT WITH LUMPUR RADAR, NOTIFY RCPT OF A\n[Departure ATIS] WMKK DEP ATIS U 1509Z WMKK DEP INFO U. TIME 1500. SINGLE RWY OPS IN PROGRESS. RWY 32 LEFT. WIND RWY 32L DIRECTION NOT AVBL SPEED NOT AVBL. VIS RWY 32L TDZ NOT AVBL. WX FBL RA. CLD FEW 1000 FT, CLD SCT 3000 FT. T 25. DP 23. QNH 1012. NOSIG. ALL DEP ACFT TO CONTACT LUMPUR DEP AT 135 DECIMAL 25 MHZ WHEN ABN. AT FIRST CONTACT WITH LUMPUR GROUND, NOTIFY RCPT OF U",
    "VTBS": "[Arrival ATIS] VTBS ARR ATIS A 1730Z VTBS ARR ATIS A 1731Z EXP ILS Z APCH ARR RWY 19 OR RNP APCH RWY 20R 06241532 19 5/5/5 100/100/100 NR/NR/NR WET/WET/WET 06241532 20R 5/5/5 100/100/100 NR/NR/NR WET/WET/WET ,RETIL RWY 19 U/S ,PILOT SHALL ADZ BKK APCH ON INITIAL CTC IF UNA TO CONDUCT RNP APCH DUE TO OPERATIONAL CONSTRAINT 1730Z WIND 170/5KT VIS 10KM FBL RA CLD FEW 2000FT SCT 4000FT T26 DP25 QNH 1008HPA CB IN APCH ADZ BKK APCH ON INITIAL CONTACT THAT YOU HAVE INFO A\n[Departure ATIS] VTBS DEP ATIS G 1800Z VTBS DEP ATIS G 1801Z DEP RWY 20L 06241532 20L 5/5/5 100/100/100 NR/NR/NR WET/WET/WET , ,AFT AIRBORNE ALL DEPARTING ACFT SHALL CTC 119.25 1800Z WIND 180/6KT VIS 10KM FBL RA CLD FEW 2000FT SCT 4000FT T26 DP25 QNH 1008HPA CB IN CLIMB-OUT TREND NOSIG ADZ GND WHEN INITIAL CONTACT YOU HAVE INFO G",
    "VTBU": "[Arrival ATIS] VTBU ARR ATIS S 0430Z VTBU ARR ATIS S 0431Z RNP RWY 36 TRL FL130 MOBILE ACFT ARST SYSTEM INSTL ATP SIX HUNDRED AND TEN METERS FM THR RWY 36 CABLE HGT 3 INCHES. 0430Z WIND 330/5KT VRB BTN 290/ AND 030/ VIS 10KM CLD FEW 2000FT T32 DP26 QNH 1009HPA TREND NOSIG ADZ CONTROLLER WHEN INITIAL CONTACT YOU HAVE INFO S\n[Departure ATIS] VTBU DEP ATIS D VTBU ARR/DEP DATIS RPT VTBU ARR ATIS D 0330Z ILS \"Z\" APCH RWY 18 TRL FL130 0330Z WIND 110/4KT VRB BTN 350/ AND 120/ VIS 6KM CLD FEW 2000FT T31 DP27 QNH 1014HPA TREND NOSIG ADZ CONTROLLER WHEN INITIAL CONTACT YOU HAVE INFO D",
    "ROAH": "[Arrival ATIS] ROAH ARR ATIS B 2204Z M2200 (APCH)RNP RWY18R LDG RWY 18R DEP RWY 18L DEP FREQ 126.5 258.3 M 222200Z 10004KT 35KM FEW020CU 29/27 Q1009/A2980= Q/TWO NINE EIGHT ZERO STP\n[Departure ATIS] ROAH DEP ATIS Z 0805Z M0800 (APCH)RNP RWY18R LDG RWY 18R DEP RWY 18L DEP FREQ 126.5 258.3 M 240800Z 15019KT 25KM FEW020CU BKN/// 31/25 Q1004/A2967= Q/TWO NINE SIX SEVEN STP",
    "VVDN": "[Arrival ATIS] VVDN ARR ATIS E 1332Z VVDN INFO E 1332Z. ILS VICTOR APPROACH 35L.. DPTG RWY 35R.. 1332Z. WIND VRB/02KT CAVOK T33 DP24 QNH 1004HPA TREND NOSIG. ADZ ON INITIAL CTC YOU HAVE INFO. E.\n[Departure ATIS] VVDN DEP ATIS G 1432Z VVDN INFO G 1432Z. ILS VICTOR APPROACH 35L.. DPTG RWY 35R.. 1432Z. WIND VRB/01KT CAVOK T32 DP24 QNH 1004HPA TREND NOSIG. ADZ ON INITIAL CTC YOU HAVE INFO. G.",
    "RCKH": "[Arrival ATIS] RCKH ARR ATIS O 1700Z EXPECT ILS APPROACH RWY 27 ARR/DEP TAXIWAY JULIETT, TAXIWAY BRAVO, TAXIWAY DELTA AND TAXIWAY ECHO CLOSED DUE MAINTENANCE. RUNWAY 2 7 ARRIVALS PLAN VACATE VIA CHARLIE OR ALPHA AND EXPEDITE VACATE. WIND 280/09KT VARYING BTN 240 AND 310 VIS 10 KM OR MORE VCSH CLD SCT 800FT SCT CB 900FT SCT 1400FT BKN 2200FT T 29 DP 27 QNH 1003HPA NOSIG CAUTION BIRD ACTIVITY IN VICINITY OF THE AERODROME. INFORM KAO-HSIUN APCH OR KAO-HSIUN TOWER ON INITIAL CONTACT YOU HAVE INFORMATION O\n[Departure ATIS] RCKH DEP ATIS Z 2230Z EXPECT ILS APPROACH RWY 09 ARR/DEP TAXIWAY JULIETT, TAXIWAY BRAVO, TAXIWAY DELTA AND TAXIWAY ECHO CLOSED DUE MAINTENANCE. RUNWAY 09 ARRIVALS PLAN VACATE VIA CHARLIE OR F",
    "KLAX": "[Arrival ATIS] KLAX ARR ATIS R 1753Z LAX ATIS INFO R 1753Z. 25009KT 9SM FEW009 SCT017 21/15 A3002 (THREE ZERO ZERO TWO) RMK AO2 SLP163 SCT V BKN T02110150 10211 20167 54000. SIMUL INST APCHS AND RNAV RNP RWYS 24R AND 25L APCHS, SIMUL INSTR DEPARTURES IN PROG RWYS 24 AND 25. TWY C CLSD BTN TWY, C8 AND TWY C9 , , TWY C10 CLSD BTN TWY, B AND TWY C. RY 25R SFL OTS, RY 24L ALSF-2 OTS. LAX VOR UNMONITORED. TAXIWAY CHARLIE EIGHT BTWN TWY B AND TWY C AND TAXIWAY CHARLIE NINE BTWN TWY B AND TWY C ARE RESTRICTED TO AIRCRAFT WITH A WINGSPAN LESS THAN ONE HUNDRED EIGHTEEN FEET. USE CAUTION FOR INCREASED DRONE ACTIVIY IN THE VICINITY OF SOFI STADIUM AT OR BELOW 200FT AGL DURING THE WORLD CUP FROM 06/12/26 THROUGH 07/10/2026. HAZD WX INFO FOR LAX AREA AVBL FM FSS. BIRD ACTIVITY VICINITY ARPT. INCLUDE YOUR CALL SIGN IN ALL READBACKS. USE CAUTION WHEN EXITING RY24R AT TWY V, W, AND Y, TO HOLD SHORT OF RY24L. MULTIPLE RUNWAY INCURSIONS HAVE OCCURRED. ...ADVS YOU HAVE INFO R.\n[Departure ATIS] KLAX DEP ATIS R 2153Z LAX ATIS INFO R 2153Z. 25016KT 10SM FEW009 FEW050 25/17 A2994 (TWO NINER NINER FOUR) RMK AO2 SLP135 T02500172. INST APCHS AND RNAV RNP APCHS RY 24R AND 25L, SIMUL INSTR DEPARTURES IN PROG RWYS 24 AND 25. CTC L A GC ON 121.75 FOR PUSH OR TAXI ON A. TWY B CLSD BTN TWY, C10 AND TWY C7 , , TWY B6 CLSD, TWY B7 CLSD, TWY C CLSD BTN TWY, C1 AND TWY C3, TWY C1 CLSD, TWY C9 CLSD BTN TWY, B AND TWY C, TWY C8 CLSD BTN TWY, B AND TWY C. PAPI OTS 24R. HAZD WX INFO FOR LAX AREA AVBL FM FSS. BIRD ACTIVITY VICINITY ARPT. INCLUDE YOUR CALL SIGN IN ALL READBACKS. USE CAUTION WHEN EXITING RY24R AT TWY V, W, AND Y, TO HOLD SHORT OF RY24L. MULTIPLE RUNWAY INCURSIONS HAVE OCCURRED. ...ADVS YOU HAVE INFO R.",
    "KONT": "[Arrival ATIS] KONT ARR ATIS W 0453Z ONT ATIS INFO W 0453Z. 23008KT 10SM CLR 25/12 A3002 (THREE ZERO ZERO TWO) RMK AO2 SLP149 T02500122. ILS AND VIS APR IN USE, RY26L & RY26R. LNDG AND DEPG RY 26L AND RY 26R. NOTAMS... TAXIWAY SIERRA FIVE CLOSED. TAXIWAY SIERRA CLOSED BETWEEN TAXIWAY SIERRA 8 AND TAXIWAY WHISKEY. RY 26L IM OTS, RY 26R ALS OTS. PILOTS READBACK RWY ASSIGNMENTS AND HOLD SHORT INSTRUCTIONS. ...ADVS YOU HAVE INFO W.\n[Departure ATIS] KONT DEP ATIS E 0553Z - KONT ATIS INFO E 0553Z. 24007KT 10SM SCT170 21/14 A3002 (THREE ZERO ZERO TWO). ILS AND VIS APR IN USE, RY 26R. LNDG AND DEPG RY 26R. NOTAMS... RY 26L, 8R CLSD. TAXIWAY SIERRA FIVE CLOSED. TAXIWAY SIERRA CLOSED BETWEEN TAXIWAY SIERRA 8 AND TAXIWAY WHISKEY. RY 26L IM OTS. 8R PAPIS OTS. HAZD WX INFO FOR SOUTHERN CA AVBL ON FSS FREQUENCIES. PILOTS READBACK RWY ASSIGNMENTS AND HOLD SHORT INSTRUCTIONS. ...ADVS YOU HAVE INFO E.",
    "KSFO": "[Arrival ATIS] KSFO ARR ATIS J 1656Z SFO ATIS INFO J 1656Z. 32007KT 10SM FEW006 SCT018 17/11 A3002 (THREE ZERO ZERO TWO). SIMUL CLSLY SPCD DPNDNT ILS RY 28R AND ILS RY 28L APP IN USE. DEPG RWYS 28L. RY 1L, 1R CLSD. NUMEROUS TWY CLOSURES FOR CONSTRUCTION ON THE FIELD, PILOTS CHECK NOTAMS. MOWING ADJ RIGHT SIDE RY 28R, BETWEEN TWY E AND TWY D. DEPG ACFT WAITING ON FINAL NUMBERS ADVISE GROUND PRIOR TO ENTERING TWY F. ...ADVS YOU HAVE INFO J.\n[Departure ATIS] KSFO DEP ATIS Y 1156Z SFO ATIS INFO Y 1156Z. 19021G27KT 10SM SCT014 19/15 A2998 (TWO NINER NINER EIGHT) RMK AO2 PK WND 20027/1155 SLP153 T01890150 10222 20189 53011. ILS RY 28R APP IN USE. DEPG",
    "KOAK": "[Arrival ATIS] KOAK ARR ATIS O 0953Z - KOAK ATIS INFO O 0953Z. 00000KT 10SM FEW004 BKN160 BKN250 18/14 A2989 (TWO NINER EIGHT NINER). RNAV, AND VA, RWY 30. ILS, AND VA, RWY 28R. RWY 28L CLSD. TAXIWAYS G,H,P, CLSD BETWEEN RWYS 28R AND 28L. ILS RWY 30, OTS, RWY 28R GS, OTS, RWY 28R RAIL, OTS. SGD OTS. UNN LIT CLOSE-IN OBSTACLES FOR RWY 30 DEPARTURES. RWY 30 DEPARTURES ARE ADVISED TO AVOID TURNING LEFT PRIOR TO DEPARTURE END OF RUNWAY. CTN, CRANE 1 POINT 6 NAUTICAL MILES, , AT 140 FEET AGL. HAZD WX INFO FOR CA ON FLT SRVC FREQ. CAUTION, BIRDS NEAR AIRPORT. ...ADVS YOU HAVE INFO O.\n[Departure ATIS] KOAK DEP ATIS O 1953Z OAK ATIS INFO O 1953Z. 28014KT 10SM FEW005 22/14 A2988 (TWO NINER EIGHT EIGHT). RNAV Z/VA RWY 30 ILS/VA RWY 28R. FLOW TO LAX, LAS, SAN. ILS RWY 30, OTS. UNN LIT CLOSE-IN OBSTACLES FOR RWY 30 DEPARTURES. RWY 30 DEPARTURES ARE ADVISED TO AVOID TURNING LEFT PRIOR TO DEPARTURE END OF RUNWAY. SIGNATURE UNI-COM OUT OF SERVICE. CAUTION, BIRDS NEAR AIRPORT. ...ADVS YOU HAVE INFO O.",
    "KDFW": "[Arrival ATIS] KDFW ARR ATIS T 1753Z DFW ARR INFO T 1753Z. 22009G17KT 10SM BKN037 BKN250 32/22 A3004 (THREE ZERO ZERO FOUR) RMK AO2 SLP163 T03170217 10328 20261 58005. ILS APCH TO RWYS, 13R, 18R, 17C, 17L. LDG RWY 17C EXP LAHSO TWY B 10460 FT AVAIL, LDG RWY 18R EXP LAHSO TWY B 10100 FT AVL. NOTICE TO AIRMEN. WARNING, RWY 18L HAS BEEN SHORTENED, 9273 FT AVAILABLE. RWY 18L ILS OTS, CL OTS. HIGHSPEED E6 CLSD. BIRD ACTIVITY VCNTY ARPT. ...ADVS YOU HAVE INFO T.\n[Departure ATIS] KDFW DEP ATIS S 2053Z - KDFW DEP INFO S 2053Z. 06007G19KT 10SM SCT075 41/21 A2986 (TWO NINER EIGHT SIX). SIMUL PARL TRAFFIC DEPG RWYS 36R, 35L. NOTICE TO AIRMEN. RWY 36R, INTERSECTION DEPARTURE FROM TWY WM, 9273 FT AVAILABLE. BIRD ACTIVITY VCNTY ARPT. ...ADVS YOU HAVE INFO S.",
    "KIAH": "[Arrival ATIS] KIAH ARR ATIS X 1953Z IAH ATIS INFO X 1953Z. 02005KT 10SM FEW055 FEW200 FEW250 38/24 A2983 (TWO NINER EIGHT THREE). ARRIVALS EXPECT ILS OR RNAV Y RY 26R, ILS OR RNAV Y RY 26L, ILS OR RNAV Y RY 27. SIMUL APPROACHES IN USE. DEPG RY 15L, RY 15R. NOTICE TO AIRMEN. UNITED RAMP CONTROL IN EFFECT. BIRD ACTIVITY VICINITY ARPT. LAHSO RY26L. CRANES ARE DOWN. TWY EA CLSD. NOTAM ATIS IN USE ON FREQUENCY 126.225. ...ADVS YOU HAVE INFO X.\n[Departure ATIS] KIAH DEP ATIS T 0353Z IAH ATIS INFO T 0353Z. 15007KT 10SM FEW035 FEW180 BKN250 27/23 A2996 (TWO NINER NINER SIX). ARRIVALS EXPECT ILS OR RNAV Y RY 8R, ILS OR RNAV Y RY 8L. DEPG RY 15R. NOTICE TO AIRMEN. UNITED RAMP CONTROL IN EFFECT. RY 15L, 33R CLSD. HAZD WX INFO FOR IAH AREA AVBL FM FSS. BIRD ACTIVITY VICINITY ARPT. CRANES ARE DOWN. TWY SA CLSD BTN TWY, SF AND TWY SK , TWY SB CLSD BTN TWY, SF AND TWY SK , , TWY WB CLSD BTN TWY, WG AND TWY WH . TWY EA CLSD. NOTAM ATIS IN USE ON FREQUENCY 126.225. ...ADVS YOU HAVE INFO T.",
    "KORD": "[Arrival ATIS] KORD ARR ATIS E 2051Z ORD ATIS INFO E 2051Z. 02011G16KT 10SM FEW045 23/05 A3009 (THREE ZERO ZERO NINER) RMK AO2 SLP187 T02330050 58001. ARR EXP VECTORS ILS RWY 9L APCH, ILS RWY 10C APCH, VISUAL APCH RWY 10R. PILOTS EXP 2 INTCP THE ILS Y RY 10R FNA CRS. SIMUL APCHS IN USE. DEPS EXP RWYS 9C FROM F F 9200 FT AVL, 10L FROM DD. 10,093 FT AVBL. ATTN PILOTS. SIMUL PARL DEPS IN USE. EXP TO INITIALLY FLY RWY. HDG ON DEP. PILOTS MUST READ BACK DRCTN OF TURNS BY ATC. RWY 4L, 22R CLSD. RWY 22R LOC OTS, RWY 28L GS OTS, RWY 9L IM OTS, RWY 9C IM OTS, RWY 10L IM OTS, RWY 10R IM OTS, RWY 27R IM OTS, RWY 28L IM OTS, RWY 28R IM OTS, RWY 9L PAPI OTS, RWY 27R PAPI OTS. PILOTS USE CTN FOR BIRD ACTIVITY IN THE VICINITY OF THE ARPT. USE CTN FOR PERSONNEL AND EQUIP AT NUMEROUS SITES ON THE FIELD. READBACK ALL RWY HOLD SHORT INSTRUCTIONS. WHEN READY TO TAXI CONTACT GND METERING ON FREQ 121.67. ...ADVS YOU HAVE INFO E.\n[Departure ATIS] KORD DEP ATIS E 2051Z ORD ATIS INFO E 2051Z. 02011G16KT 10SM FEW045 23/05 A3009 (THREE ZERO ZERO NINER) RMK AO2 SLP187 T02330050 58001. ARR EXP VECTORS ILS RWY 9L APCH, ILS RWY 10C APCH, VISUAL",
    "KJFK": "[Arrival ATIS] KJFK ARR ATIS W 1751Z JFK ATIS INFO W 1751Z. 24009G16KT 10SM SCT070 28/09 A2995 (TWO NINER NINER FIVE) RMK AO2 SLP140 T02830094 10283 20211 58006. APPROACH IN USE ILS RY 31R, VISUAL APCH RY 31L. DEPG RY 31L. CRI OTS. RY 22L PAPI OTS, RWY 22L/4R INNER MARKER OTS. NUM CRANES OPERATING AT JFK. BIRD ACTIVITY VICINITY ARPT. READBACK ALL RWY ASSIGNMENTS AND HOLD SHORT INSTRUCTIONS. ...ADVS YOU HAVE INFO W.\n[Departure ATIS] KJFK DEP ATIS Q 1451Z - KJFK ATIS INFO Q 1451Z. 34011G18KT 10SM FEW055 FEW085 26/11 A2997 (TWO NINER NINER SEVEN). APPROACH IN USE VISUAL APCH RY 31L, RNAV GPS RY 31R. DEPG RY 31L. RWY 4L, 22R CLSD. CRI OTS. ILS RWY 31R OTS, RY 22L PAPI OTS, RWY 22L/4R INNER MARKER OTS. NUM CRANES OPERATING AT JFK. BIRD ACTIVITY VICINITY ARPT. READBACK ALL RWY ASSIGNMENTS AND HOLD SHORT INSTRUCTIONS. ...ADVS YOU HAVE INFO Q.",
    "KIND": "[Arrival ATIS] KIND ARR ATIS V KIND ARR/DEP DATIS RPT IND ATIS INFO V 1254Z. 04014KT 10SM FEW050 SCT065 19/08 A3001 (THREE ZERO ZERO ONE). PARL ILS RWY 5R AND 5L APPROACHES IN USE. CROSS RUNWAY OPERATIONS MAY BE IN EFFECT. NOTICE TO AIRMEN. TWY, P BTN TWY, H AND TWY B CLSD, TWY, P BTN TWY, H AND TWY J CLSD, TWY, H BTN TWY, R AND TWY N CLSD. P PAD CLSD. ILS RUNWAY 5R AND RUNWAY 5L INNER MARKER UNSERVICEABLE. ...ADVS YOU HAVE INFO V.\n[Departure ATIS] KIND DEP ATIS G 0254Z IND ATIS INFO G 0254Z. 03006KT 10SM SCT060 BKN110 BKN190 OVC250 28/22 A3007 (THREE ZERO ZERO SEVEN). PARL ILS RWY 5R AND 5L APPROACHES IN USE. CROSS RUNWAY OPERATIONS MAY BE IN EFFECT. NOTICE TO AIRMEN. TWY, P BTN TWY, H AND TWY B CLSD, TWY, P BTN TWY, H AND TWY J CLSD, TWY, H BTN TWY, R AND TWY N CLSD. P PAD CLSD. ILS RUNWAY 5R AND RUNWAY 5L INNER MARKER UNSERVICEABLE. HIWAS. ARPT ADZY FLOCK OF MEDIUM BIRDS IN THE VICINITY OF THE AIRPORT, ALT UNKN. ...ADVS YOU HAVE INFO G.",
    "KDTW": "[Arrival ATIS] KDTW ARR ATIS H 2053Z DTW ARR INFO H 2053Z. 33008KT 10SM BKN070 23/07 A3001 (THREE ZERO ZERO ONE) RMK AO2 SLP161 T02330072 53002. SIMUL VISUAL RY 3R, RY 4L USE Z LOC FREQ 111.95 APCH IN USE. NOTICE TO AIRMEN. RWY 21R, 3L CLSD, RWY 27L, 9R CLSD, RWY 27R, 9L CLSD. TWYS Y1 CLSD ;. PILOTS USE CTN FOR BIRD ACTIVITY. DEPARTURE ATIS 118.125. ...ADVS YOU HAVE INFO H.\n[Departure ATIS] KDTW DEP ATIS N 0953Z DTW DEP INFO N 0953Z. 35003KT 1SM R03R/P6000FT FU SCT000 OVC027 22/16 A3004 (THREE ZERO ZERO FOUR) RMK AO2 TWR VIS 2 SLP167 FU SCT000 T02170161. DEPG RWY 4R. . RWY 4R DEPARTURE POINT IS Y 2, DISTANCE REMAINING IS 11, THOUSAND, 450, FT, FULL LENGTH AVAIL UPON REQ ;. NOTICE TO AIRMEN. RWY 21R, 3L CLSD, RWY 27L, 9R CLSD, RWY 27R, 9L CLSD. TWYS Y1 CLSD ;. PILOTS USE CTN FOR BIRD ACTIVITY. TWR AND GC COMB ON FREQ 135.0. ...ADVS YOU HAVE INFO N.",
    "KMSP": "[Arrival ATIS] KMSP ARR ATIS E 1653Z MSP ARR INFO E 1653Z. 27009KT 10SM SCT030 SCT038 BKN049 24/14 A2995 (TWO NINER NINER FIVE). SIMULTANEOUS DEPENDENT, ILS RWY 30L APCH IN USE, ILS RWY 30R APCH IN USE. NOTICE TO AIRMEN. RWYS 4, 22 CLSD. TWY R7. R8. R9. R10. CLOSED, TWY R BETWEEN R6 AND R10 CLOSED, TWY C CLSD BTN TWY, S AND TWY T, TWY C2 CLSD BTN RWY, 22 AND TWY D. GS RWY 12L OTS, RWYS 12R, 12L, INNER MARKER OTS.. HAZD WX INFO FOR MSP AREA AVBL FM FSS. CTN, BIRDS NEAR MSP. READ BACK HS AND ALT. ALL ACFT TAXI WITH TRANSPONDER AND ALTITUDE ENCODING ON. ...ADVS YOU HAVE INFO E.\n[Departure ATIS] KMSP DEP ATIS U 2153Z MSP DEP INFO U 2153Z. 01006KT 10SM BKN070 22/07 A3014 (THREE ZERO ONE FOUR). DEPARTING RWY 30L, RWY 30R, RWY 17. NOTICE TO AIRMEN. RWYS 4, 22 CLSD. TWY R7. R8. R9. R10. CLOSED. TWY R BTWN R6 AND R10 CLSD, TWY A7 CLSD, TWY A CLSD BTN TWY, A7 AND TWY D. ALL ACFT CTC METERING ON ONE THREE THREE POINT FIVE SEVEN WHEN READY TO PUSHBACK OR TAXI. HAZD WX INFO FOR MSP AREA AVBL FM FSS. CTN, BIRDS NEAR MSP. READ BACK HS AND ALT. ALL ACFT TAXI WITH TRANSPONDER AND ALTITUDE ENCODING ON. ...ADVS YOU HAVE INFO U.",
    "CYEG": "[Arrival ATIS] CYEG ARR ATIS H 2200Z 24006KT 210V270 15SM FEW036 FEW260 27/19 A2995 APCH RNAV Z OR Y RWY 20, INFORM ARRL OF REQ APCH ON INITIAL CTC. LDG AND DEP RWY 20. SIMUL APPROACHES MAY BE IN EFCT. CYYC GDP IN EFCT CTC CYEG FIC ON FREQ 122.375 OR TEL 1-780-890-8386. INFORM CYEG ATC INFO H\n[Departure ATIS] CYEG DEP ATIS H 2200Z CYEG ARR ATIS H 2200Z 24006KT 210V270 15SM FEW036 FEW260 27/19 A2995 APCH RNAV Z OR Y RWY 20, INFORM ARRL OF REQ APCH ON INITIAL CTC. LDG AND DEP RWY 20. SIMUL APPROACHES MAY BE IN EFCT. CYYC GDP IN EFCT CTC CYEG FIC ON FREQ 122.375 OR TEL 1-780-890-8386. INFORM CYEG ATC INFO H",
    "EHAM": "[Arrival ATIS] EHAM ARR ATIS C 1422Z EHAM ARRIVAL INFO C. DEMAND. MAIN LANDING RWY 36 R. TRANSITION LEVEL 040. WIND 330 DEG, 12 KT, VRB BTN 290 AND 350 DEG. VIS 10 KM OR MORE. CLD FEW 1800 FT SCT 2200 FT BKN 4700 FT. T 19. DP 14. QNH 1023 HPA. NOSIG. OPERATIONAL REPORT. CONTACT APCH WITH CALLSIGN ONLY. END OF INFO C\n[Departure ATIS] EHAM DEP ATIS P 1751Z EHAM DEPARTURE INFO P. DEMAND. MAIN DEPARTURE RWY 36 L. MAIN LANDING RWY 06. WIND 010 DEG, 13 KT. CAVOK. T 31. DP 20. QNH 1017 HPA. OPERATIONAL REPORT. INFORM SCHIPHOL DEL BY VOICE IF UNABLE TO COMPLY WITH NADP 2. END OF INFO P",
    "EBBR": "[Arrival ATIS] EBBR ARR ATIS Y 1420Z EBBR NAT, EXP VECT FOR ILS APP ARR RWY25L RSCD AT 1042 RWY25L DRY. DEP RWY25R TRL 055 ILS RWY 25R U/S. RNP RWY 25R AVBL AT ATC DISCRETION 330/14KT MNM6 MAX19 VIS ABV 10KM SCT4000FT T21 DP12 QNH 1024HPA NOSIG CFM ARR Y\n[Departure ATIS] EBBR DEP ATIS Z 1650Z EBBR NAT, DEP RWY07R RSCD AT 1519 RWY07R DRY. ARR RWY07L TRL 055 C6 CLSD 100/3KT VRB BTN 080 AND 140 CAVOK T34 DP20 QNH 1017HPA NOSIG CFM DEP Z",
    "EDDF": "[Arrival ATIS] EDDF ARR ATIS E 2120Z -ARR-ATIS EDDF E METAR 222120 -EXPECT RNP X APCH -RWY 25C -FROM 0250 EXPECT ILS OR GLS APCH , DO NOT MISTAKE TWY M FOR RWY 25C WHEN PERFORMING VISUAL APPROACH , -TRL 60 - -29007KT 260V330 -CAVOK - - -T18 DP11 -QNH1020 - -TREND NOSIG\n[Departure ATIS] EDDF DEP ATIS P 1750Z -DEP-ATIS EDDF P METAR 241750 - -RWY 07C 18 -ACFT DEPARTING RWY07C : EXPECT DEPARTURE FROM INTERSECTION L17 , TORA 3312 METERS. IF UNABLE , ADVISE APRON ON INITIAL CONTACT , ACFT DEPARTING RWY18 : EXPECT POSSIBLE DEPARTURE FROM INTERSECTION M , TORA 3454 METERS. IF UNABLE , ADVISE TWR ON INITIAL CONTACT , -TRL 60 -ATTN: BIRDS IN THE VICINITY OF THE RUNWAYS -03007KT 010V070 RWY18 03007KT -CAVOK - - -T35 DP16 -QNH1016 - -TREND NOSIG",
    "EDDL": "[Arrival ATIS] EDDL ARR ATIS J 1450Z ATIS EDDL J METAR 221450 EXPECT VECTORS ILS APPROACH RWY 23L TRL 60 28014KT 250V310 9999 SCT032 BKN042 T20 DP13 QNH1022 TREND NOSIG\n[Departure ATIS] EDDL DEP ATIS R EDDL ARR/DEP DATIS RPT -ATIS EDDL R METAR 020550 -EXPECT VECTORS ILS APPROACH -RWY 23L -TWY L8 CLOSED BETWEEN TWY M AND RWY 23L -TRL 60 - -23010KT -CAVOK - - -T19 DP13 -QNH1020 - -TREND NOSIG",
    "EDDK": "[Arrival ATIS] EDDK ARR ATIS O EDDK ARR/DEP DATIS RPT -ATIS EDDK O METAR 221050 -EXPECT ILS APCH -RWY 31R 24 -RWY COND RWY 31R AT TIME 0630 RWYCC 6 DEPOSIT TOTAL RWY DRY RWY 24 AT TIME 0630 RWYCC 6 DEPOSIT TOTAL RWY DRY -TRL 60 -RWY 13R AND RWY 31L CLOSED FOR DEPARTURE AND LANDING: TAXIING BTN THR RWY 13R AND INTERSECTION RWY 24 POSSIBLE : -28011KT 240V320 -9999 - -BKN026 BKN035 BKN042 -T20 DP12 -QNH1023 - -TREND NOSIG\n[Departure ATIS] EDDK DEP ATIS E 2050Z -ATIS EDDK E METAR 142050 -EXPECT CDO FOR ILS APCH RWY 31R -RWY 31R 06 -RWY COND RWY 31R AT TIME 1837 RWYCC 6 DEPOSIT TOTAL RWY DRY RWY 06 AT TIME 1837 RWYCC 6 DEPOSIT TOTAL RWY DRY -TRL 60 -RWY 13R AND RWY 31L CLOSED FOR DEPARTURE AND LANDING: TAXIING BTN THR RWY 13R AND INTERSECTION RWY 24 POSSIBLE : -02006KT 350V050 -CAVOK - - -T23 DP14 -QNH1018 - -TREND NOSIG",
    "EBLG": "[Arrival ATIS] EBLG ATIS E 2150Z EBLG INFO, EXP RNAV TO ILS APP ARR RWY04R DEP RWY04R RWY 04R DRY, RWYCC 666. TRL 055 ADZ ON GND FREQ IF UNABLE DEP S2 320/4KT VIS ABV 10KM FEW3400FT T14 DP10 QNH 1023HPA NOSIG CFM ATIS E",
    "LSZH": "[Arrival ATIS] LSZH ARR ATIS G 2050Z ARRIVALS, EXP RNP APCH, RWY 28. TRL 70. DEP RWY 32. TWY E 4 CLSD. WIND VRB BTN 330 AND 050 DEG, 2 KT. CAVOK. T 18. DP 8. QNH 1020. NOSIG.\n[Departure ATIS] LSZH DEP ATIS Q 2050Z DEP RWY 32. TRL 70. ARRIVALS, EXP RNP APCH, RWY 28. TMA S 1 IS ACT. TMA S 2 AND S 3 ARE ACT. WIND 250 DEG, 3 KT. CAVOK. T 18. DP 8. QNH 1020. NOSIG.",
    "LIMC": "[Arrival ATIS] LIMC ARR ATIS L 2050Z LIMC ARR L 2050Z I.L.S. ZULU RWY IN USE 35R TL 70 WIND TDZ VRB1KT CAVOK T22 DP15 QNH 1016HPA QFE 0991HPA\n[Departure ATIS] LIMC DEP ATIS W 2020Z LIMC DEP W 2020Z RWY IN USE 35L TL 70 WIND END 020/3KT VRB BTN 360/AND 070/ CAVOK T23 DP15 QNH 1016HPA QFE 0991HPA DATALINK CLEARANCE AVAILABLE.... CONTACT 1 3 1 8 8 0 TO BE RELEASED BY THE AIRPORT OPERATOR ...",
    "LIRF": "[Arrival ATIS] LIRF ARR ATIS H 2150Z LIRF ARR H 2150Z RWY IN USE 34L TL 70 WIND TDZ 330/4KT CAVOK T25 DP19 QNH 1013HPA\n[Departure ATIS] LIRF DEP ATIS R 1150Z LIRF DEP R 1150Z RWY IN USE 25 TL 70 RWYS IN USE FOR ARR 16L AND 16R WIND END 270/11KT VRB BTN 240/AND 300/ CAVOK T32 DP22 QNH 1013HPA REA IS SENT AUTOMATICALLY ONCE RLSD BY RAMP WHEN READY CONTACT FIUME RAMP 121.725 RRSM",
    "EINN": "[Arrival ATIS] EINN ARR ATIS M 1630Z EXPECT I L S CATEGORY 1 LDG RWY06 TKOF RWY06 TRL FL060 VRB05KT CAVOK 24/08 QNH Q1027 TREND NOSIG ADVISE AT FIRST CONTACT YOU HAVE ATIS INFO M",
    "EGLL": "[Arrival ATIS] EGLL ARR ATIS X 2220Z LANDING RWY 09R TRANSITION-LEVEL: FL 70 RUNWAY 09L REDUCED DECLARED DISTANCES IF STAND GUIDANCE IS OFF OR FAILS, REMAIN ON THE TAXIWAY CENTRELINE AND ADVISE ATC RWY 09R SINGLE RUNWAY OPERATIONS IN FORCE AUTO 09012KT 9999 NCD 19/13 Q1024 ACKNOWLEDGE RECEIPT OF INFORMATION X\n[Departure ATIS] EGLL DEP ATIS I 1750Z DEPARTURE RWY 09R PILOTS THAT ARE IN RECEIPT OF DATALINK CLEARANCES ARE REMINDED THEY MUST CONTACT DELIVERY ON 121.980 WHEN READY FOR START DATALINK CLEARANCES NOT AVAILABLE FOR CPT DEPARTURES DET VOR OOS BROOKMANS PARK VOR OUT OF SERVICE AUTO 04011KT 360V060 9999 NCD 33/20 Q1017 ACKNOWLEDGE RECEIPT OF INFORMATION I AND REPORT AIRCRAFT TYPE AND CURRENT QNH ON FIRST CONTACT WITH HEATHROW",
    "EPWA": "[Arrival ATIS] EPWA ARR ATIS L 1511Z EPWA ARR L. TIME 1511. EXP U ARR ILS Z APCH FOR RWY 33. TRANSITION LEVEL 80. WIND 070 DEG, 10 KT, VRB BTN 030 AND 170 DEG. VIS TDZ 10 KM OR MORE. NSC. T 27. DP 12. QNH 1010. NOSIG. CAUTION. BIRD ACT. END OF EPWA ARR L\n[Departure ATIS] EPWA DEP ATIS O 1401Z EPWA DEP O. TIME 1400. DEP RWY 29. ARR RWY 33, EXP U ARR ILS Z. REPORT READY FOR STARTUP ON DELIVERY 121 DECIMAL 605. TRANSITION LEVEL 80. WIND 260 DEG, 8 KT. CAVOK. T 21. DP 9. QNH 1014. NOSIG. CAUTION. BIRD ACT. END OF EPWA DEP O",
    "EFHK": "[Arrival ATIS] EFHK ARR ATIS A 2020Z EXPECT ILS APCH ARR RWY 22L RUNWAY 22L CONDITION REPORT AT 1759 UTC RUNWAY CONDITION CODES 6 , 6 , 6 CONTAMINANTS ALL PARTS DRY TRL 65 WIND 290 DEG 3 KT VRB BTN 280 AND 340 DEG CAVOK T 13 DP 11 QNH 1007 NOSIG ACK INFO A\n[Departure ATIS] EFHK DEP ATIS N 1320Z DEP RWYS 22R AND 22L RUNWAY 22R CONDITION REPORT AT 1317 UTC RUNWAY CONDITION CODES 6 , 6 , 6 CONTAMINANTS ALL PARTS DRY RUNWAY 22L CONDITION REPORT AT 1317 UTC RUNWAY CONDITION CODES 6 , 6 , 6 CONTAMINANTS ALL PARTS DRY WIND 020 DEG 8 KT VRB BTN 340 AND 040 DEG VIS 10KM FEW 2600 FT T 18 DP 9 QNH 1011 NOSIG ACK INFO N",
    "LTAC": "[Arrival ATIS] LTAC ARR ATIS Y 2050Z EXP ILS V APCH 03C DEP RWY 03L RWY 03C WIND 020 DEG 06 KT VRB BTN 350 DEG AND 050 DEG RWY 03L WIND 020 DEG 04 KT VRB BTN 350 DEG AND 050 DEG TRL 110 CAVOK T 24 DP 10 QNH 1013 NOSIG FOR DELIVERY CTC 121.9. FOR DELIVERY FIRST USE DIGITAL DEP CLR. CTN BIRD HAZARD OVR AERODROME. APCH FREQUENCY 129. 050. END OF ATIS Y",
    "UBBB": "[Arrival ATIS] UBBB ARR ATIS X 2230Z ATIS X EXP ILS/ LDG 16 17 DEP 16 17 IN USE RWY 16 CLEAR DRY 70 RWY 17 CLEAR DRY 70 TLVL 110 WIND WIND RWY 16 CALM WIND RWY 17 200 2 KT SPD MAX 2 MIN 2 VIS CAVOK T 23 / DP 17 QNH 1008 HPA TREND TREND NOSIG MODERATE BIRDS ACT IN VICINITY OF AP END OF ATIS X\n[Departure ATIS] UBBB DEP ATIS X 2230Z ATIS X EXP ILS/ LDG 16 17 DEP 16 17 IN USE RWY 16 CLEAR DRY 70 RWY 17 CLEAR DRY 70 TLVL 110 WIND WIND RWY 16 CALM WIND RWY 17 200 2 KT SPD MAX 2 MIN 2 VIS CAVOK T 23 / DP 17 QNH 1008 HPA TREND TREND NOSIG MODERATE BIRDS ACT IN VICINITY OF AP END OF ATIS X",
    "ZWWW": "[Arrival ATIS] ZWWW ARR ATIS T 1800Z EXP ILSDME Z APCH LDG RWY 26L TA 3000 WIND VRB/3MPS CAVOK T 27 /DP 03 QNH 1009 HPA ADZ YOU HAVE INFO T.\n[Departure ATIS] ZWWW DEP ATIS W 0900Z DEP RWY 08R TA 3000 WIND 030/6MPS VRB BTN 360/ AND 060/ CAVOK T 34 /DP 02 QNH 1007 HPA ADZ YOU HAVE INFO W.",
    "ZLXY": "[Arrival ATIS] ZLXY ARR ATIS R 1700Z EXP ILS APCH LDG RWY 06L WIND VRB/1MPS CAVOK T 24 /DP 18 QNH 1009 HPA VISUAL APPROACH IN PROGRESS ADZ YOU HAVE INFO R.\n[Departure ATIS] ZLXY DEP ATIS H 0900Z DEP RWY 05L & 06L WIND 070/5MPS VRB BTN 040/ AND 100/ CAVOK T 30 /DP 15 QNH 1007 HPA VISUAL APPROACH IN PROGRESS ADZ YOU HAVE INFO H.",
    "ZBAA": "[Arrival ATIS] ZBAA ARR ATIS O 1800Z EXP ILS APCH LDG RWY 36R RWY 36L IS CLSD WIND 020 DEG 2 MPS 330V040 DEG CAVOK T 19 /DP 18 QNH 1008 HPA VISUAL APPROACH IS IN PROGRESS. ADZ YOU HAVE INFO O.\n[Departure ATIS] ZBAA DEP ATIS O 1800Z DEP RWY 36R RWY 36L IS CLSD WIND 020 DEG 2 MPS 330V040 DEG CAVOK T 19 /DP 18 QNH 1008 HPA VISUAL APPROACH IS IN PROGRESS. ADZ YOU HAVE INFO O.",
    "ZBHH": "[Arrival ATIS] ZBHH ARR ATIS X 1600Z EXP ILSDME APCH LDG RWY 26 TA 3000 /TRL 3600 WIND 020/3MPS VRB BTN 330/ AND 050/ CAVOK T 17 /DP 05 QNH 1015 HPA ADZ YOU HAVE INFO X.\n[Departure ATIS] ZBHH DEP ATIS Q 1500Z DEP RWY 08 TA 3000 /TRL 3600 WIND 140/2MPS VIS 5000M BR NSC T 19 /DP 19 QNH 1007 HPA ADZ YOU HAVE INFO Q.",
    "ZSQD": "[Arrival ATIS] ZSQD ARR ATIS R 1500Z EXP ILSDME APCH LDG RWY 17 TA 3000 /TRL 3600 WIND 160/3MPS CAVOK T 22 /DP 19 QNH 1007 HPA SEGREGATED OPERATION VISUAL APPROACH OPERATION IN PROGRESS. WHEN READY CONTACT QINGDAO TOWER ON 118.7 RUNWAY 17,IF MISSED APPROACH,EXPECT FOLLOW THE STANDARD MISSED APPROACH PROCEDURE,CLIMB TO 900M ON QNH OR BY ATC CAUTION MAYBE THERE IS A FLOCK OF BIRDS IN THE VICINITY OF AIRPORT ADZ YOU HAVE INFO R.\n[Departure ATIS] ZSQD DEP ATIS B 0100Z DEP RWY 34 TA 3000 /TRL 3600 WIND VRB/1MPS VIS 9999M CLD FEW 570M T 24 /DP 19 QNH 1009 HPA SEGREGATED OPERATION VISUAL APPROACH OPERATION IN PROGRESS. RUNWAY 35,IF MISSED APPROACH,EXPECT FOLLOW THE STANDARD MISSED APPROACH PROCEDURE,CLIMB TO 1200M ON QNH OR BY ATC CAUTION MAYBE THERE IS A FLOCK OF BIRDS IN THE VICINITY OF AIRPORT ADZ YOU HAVE INFO B."
  },
  "windtemp_alaska": "\n000\nFBAK31 KWNO 221959\nFD1AK1\nDATA BASED ON 221800Z    \nVALID 230000Z   FOR USE 2000-0300Z. TEMPS NEG ABV 24000\n\nFT  3000    6000    9000   12000   18000   24000  30000  34000  39000\nADK 2441 2343+13 2344+09 2443+05 2448-06 2452-16 245832 245742 235654\nADQ 2434 2443+10 2437+05 2434+01 2534-09 2832-19 305733 306744 307756\nAKN 2338 2339+08 2344+04 2444+02 2638-07 2754-17 277332 288043 288055\nANC 1912 2020+01 2320-01 2634-03 2753-10 2756-20 277036 287746 297650\nANN 3423 3217+12 3018+08 3015+03 2920-11 2923-24 322442 333252 282150\nBET 2137 2346+09 2351+06 2352+01 2463-09 2570-20 259134 751343 750450\nBRW 2718 2609+07 1405+01 1115-05 1021-17 1119-28 112545 123047 141643\nBTI 2608 1809+07 1813-01 1718-06 1530-17 1533-27 164045 143348 172342\nBTT 2012 2113+01 2117-04 2016-09 2109-20 2410-32 273740 263139 252540\nCDB 2451 2558+11 2757+08 2756+05 2746-06 2742-16 263831 263842 264255\nCZF 2026 2029+05 2136+01 2247-03 2271-12 2390-21 740335 239543 247840\nEHM 2339 2445+11 2444+08 2444+03 2554-08 2571-17 259032 259642 259553\nFAI 1908 2018+01 2017-04 2217-09 2534-18 2756-26 278939 278044 274543\nFYU 2519 2722+02 2617-03 2418-09 2220-22 2320-34 242838 242838 242340\nGAL 1822 1820+00 1920-03 2021-06 2333-15 2456-25 258339 258244 255543\nGKN 1620 1917+03 2114-02 2422-05 2637-13 2744-21 287637 287747 286351\nHOM 1822 2225+06 2436+04 2540-01 2539-09 2740-20 285634 296945 298654\nJNU 2508 2817+07 2927+05 3027-01 2929-14 2836-24 303538 303950 323851\nLUR 9900 9900+01 1708-04 1509-09 1115-19 0916-31 092045 111242 160840\nMCG 1834 2024+03 2334+00 2437-04 2552-11 2562-22 268036 268746 277947\nMDO 2412 2518+06 2626+02 2629-02 2939-09 2941-19 294736 284746 295153\nOME 1219 1216-01 1216-04 1316-08 1923-17 2023-30 235737 235639 234340\nORT      2520+04 2520-01 2524-05 2639-14 2645-24 288138 297948 274648\nOTZ 1218 1316+00 1317-05 1317-08 1515-19 1912-30 212343 232840 232439\nSNP 2644 2554+10 2561+06 2568+02 2577-08 2490-19 740631 741542 741051\nTKA 1929 1927+00 2125-03 2328-05 2642-12 2767-21 278036 277947 287649\nUNK 1531 1623+01 1923-02 1926-05 2243-15 2366-24 248937 248643 256343\nYAK 1808 2514+04 2728+02 2731-03 2828-12 3035-20 314237 316248 315855\nIKO 2541 2441+13 2440+09 2439+05 2537-06 2541-16 253931 254242 253454\nAFM 1413 1513+01 1417-05 1417-08 1611-19 2212-31 253542 242940 232240\n5AB 2110 2324+12 2328+08 2333+03 2439-08 2450-17 246232 247442 237454\n5AC 3636 3525+11 3519+07 3413+04 3214-11 3011-25 300642 281049 251852\n5AD 2722 2719+08 2618+05 2620+01 2721-11 3019-22 362736 362947 363457\n5AE 2438 2434+11 2438+06 2636+01 2824-08 3126-17 324732 325342 325457\n5AF 3126 3127+08 3025+05 2921+00 2727-12 2830-23 313338 333649 344756\n5AG 2727 2631+07 2632+04 2633-01 2734-12 3141-19 313835 314146 314357\n",
  "vaac_tokyo": [
    {
      "id": "20260722_30027000_0278",
      "year": "2026",
      "volcano": "Sheveluch",
      "psn": "N5639 E16122",
      "issued": "20260722",
      "text": "FVFE01 RJTD 222220\nVA ADVISORY\nDTG: 20260722/2220Z\nVAAC: TOKYO\nVOLCANO: SHEVELUCH 300270\nPSN: N5639 E16122\nAREA: RUSSIA\nSOURCE ELEV: 3283M AMSL\nADVISORY NR: 2026/278\nINFO SOURCE: KBGS UHPP HIMAWARI-9\nERUPTION DETAILS: VA AT 20260722/2128Z FL240 EXTD SW MOV 5KT REPORTED\nOBS VA DTG: 22/2150Z\nOBS VA CLD: SFC/FL200 N5642 E16116 - N5647 E16136 - N5640 E16137 - \nN5636 E16117 MOV E 20KT\nFCST VA CLD +6 HR: 23/0350Z SFC/FL190 N5541 E16303 - N5524 E16305 - \nN5512 E15949 - N5541 E15949\nFCST VA CLD +12 HR: 23/0950Z SFC/FL190 N5442 E16219 - N5349 E15918 - \nN5351 E15636 - N5431 E15706 - N5421 E15858\nFCST VA CLD +18 HR: NO VA EXP\nRMK: NIL\nNXT ADVISORY: 20260723/0000Z=",
      "img_url": "https://ds.data.jma.go.jp/svd/vaac/data/VAGFN/2026/Images/20260722_30027000_0278_QH21_01.png",
      "sat_img_url": "https://ds.data.jma.go.jp/svd/vaac/data/Sat/2026/Images/30027000/09-ir/20260722_2150_202607222220_ir.png",
      "text_url": "https://ds.data.jma.go.jp/svd/vaac/data/TextData/2026/20260722_30027000_0278_Text.html"
    },
    {
      "id": "20260722_28505000_0001",
      "year": "2026",
      "volcano": "Tokachidake",
      "psn": "N4325 E14241",
      "issued": "20260722",
      "text": "FVFE01 RJTD 220219\nVA ADVISORY\nDTG: 20260722/0219Z\nVAAC: TOKYO\nVOLCANO: TOKACHIDAKE 285050\nPSN: N4325 E14241\nAREA: JAPAN\nSOURCE ELEV: 2077M AMSL\nADVISORY NR: 2026/1\nINFO SOURCE: JMA HIMAWARI-9\nERUPTION DETAILS: ERUPTED AT 20260722/0207Z FL070 STNR\nOBS VA DTG: 22/0200Z\nOBS VA CLD: VA NOT IDENTIFIABLE FM SATELLITE DATA WIND FL070 290/9KT\nFCST VA CLD +6 HR: NOT AVBL\nFCST VA CLD +12 HR: NOT AVBL\nFCST VA CLD +18 HR: NOT AVBL\nRMK: WE WILL ISSUE FURTHER ADVISORY IF VA IS DETECTED IN SATELLITE \nIMAGERY.\nNXT ADVISORY: NO FURTHER ADVISORIES=",
      "img_url": "https://ds.data.jma.go.jp/svd/vaac/data/VAGFN/2026/Images/20260722_28505000_0001_QH21_01.png",
      "sat_img_url": null,
      "text_url": "https://ds.data.jma.go.jp/svd/vaac/data/TextData/2026/20260722_28505000_0001_Text.html"
    },
    {
      "id": "20260721_27307000_0019",
      "year": "2026",
      "volcano": "Taal",
      "psn": "N1400 E12100",
      "issued": "20260721",
      "text": "FVFE01 RJTD 211319\nVA ADVISORY\nDTG: 20260721/1319Z\nVAAC: TOKYO\nVOLCANO: TAAL 273070\nPSN: N1400 E12100\nAREA: PHILIPPINES\nSOURCE ELEV: 311M AMSL\nADVISORY NR: 2026/19\nINFO SOURCE: HIMAWARI-9 PHIVOLCS\nERUPTION DETAILS: ERUPTION AT 20260721/1209Z FL110 REPORTED\nOBS VA DTG: 21/1250Z\nOBS VA CLD: SFC/FL110 N1404 E12056 - N1359 E12050 - N1354 E12057 - \nN1358 E12100 MOV W 15KT\nFCST VA CLD +6 HR: 21/1850Z SFC/FL130 N1329 E12051 - N1306 E12036 - \nN1322 E11953 - N1339 E12003\nFCST VA CLD +12 HR: 22/0050Z SFC/FL140 N1259 E12029 - N1227 E12001 - \nN1251 E11858 - N1320 E11911\nFCST VA CLD +18 HR: NO VA EXP\nRMK: NIL\nNXT ADVISORY: 20260721/1800Z=",
      "img_url": "https://ds.data.jma.go.jp/svd/vaac/data/VAGFN/2026/Images/20260721_27307000_0019_QH21_01.png",
      "sat_img_url": "https://ds.data.jma.go.jp/svd/vaac/data/Sat/2026/Images/27307000/09-ir/20260721_1250_202607211319_ir.png",
      "text_url": "https://ds.data.jma.go.jp/svd/vaac/data/TextData/2026/20260721_27307000_0019_Text.html"
    },
    {
      "id": "20260721_28208001_0086",
      "year": "2026",
      "volcano": null,
      "psn": "N3136 E13039",
      "issued": "20260721",
      "text": "FVFE01 RJTD 210627\nVA ADVISORY\nDTG: 20260721/0627Z\nVAAC: TOKYO\nVOLCANO: SAKURAJIMA (AIRA CALDERA) 282080\nPSN: N3136 E13039\nAREA: JAPAN\nSOURCE ELEV: 1117M AMSL\nADVISORY NR: 2026/86\nINFO SOURCE: JMA HIMAWARI-9\nERUPTION DETAILS: ERUPTED AT 20260721/0514Z FL140 STNR\nOBS VA DTG: 21/0610Z\nOBS VA CLD: SFC/FL140 N3140 E13037 - N3139 E13043 - N3131 E13043 - \nN3131 E13036 MOV S 5KT\nFCST VA CLD +6 HR: 21/1210Z SFC/FL140 N3207 E13054 - N3118 E13054 - \nN3119 E13021 - N3159 E13012\nFCST VA CLD +12 HR: 21/1810Z SFC/FL140 N3224 E13103 - N3138 E13035 - \nN3138 E12953 - N3315 E13009\nFCST VA CLD +18 HR: NO VA EXP\nRMK: NIL\nNXT ADVISORY: 20260721/1200Z=",
      "img_url": "https://ds.data.jma.go.jp/svd/vaac/data/VAGFN/2026/Images/20260721_28208001_0086_QH21_01.png",
      "sat_img_url": "https://ds.data.jma.go.jp/svd/vaac/data/Sat/2026/Images/28208001/09-ir/20260721_0610_202607210627_ir.png",
      "text_url": "https://ds.data.jma.go.jp/svd/vaac/data/TextData/2026/20260721_28208001_0086_Text.html"
    }
  ],
  "vaac_alaska": [
    {
      "text": "\n000\nFVAK21 PAWU 222214\nVAAAK1\nVA ADVISORY\n\nDTG: 20260722/2215Z\n\nVAAC: ANCHORAGE\n\nVOLCANO: SHEVELUCH 300270\n\nPSN: N5639 E16122\n\nAREA: KAMCHATKA PENINSULA\n\nSOURCE ELEV: 10771 FT AMSL\n\nADVISORY NR: 2026/219\n\nINFO SOURCE: GOES\n\nERUPTION DETAILS: VA CONTINUOUSLY OBS IN SATELLITE IMAGERY.\n\nOBS VA DTG: 22/2215Z\n\nOBS VA CLD: FL100/FL360 N6859 W14110 - N6417 W13615 - N6013\nW13702 - N6037 W13901 - N6516 W14001 - N6516 W14326 - N6557\nW14336 - N6548 W14032 - N6834 W14247 - N6859 W14110 MOV E 40KT\n\nFCST VA CLD +6HR: 23/0415Z FL100/FL360 N6820 W13227 - N5909\nW13127 - N5915 W13349 - N6703 W13423 - N7011 W14405 - N7112\nW14227 - N6820 W13227 - N6820 W13227\n\nFCST VA CLD +12HR: 23/1015Z NO VA EXP\n\nFCST VA CLD +18HR: 23/1615Z NO VA EXP\n\nRMK: SOME PART OF VA OBSCURED BY MET CLOUD.\nTHE RESPONSIBILITY FOR THIS EVENT IS BEING TRANSFERRED\nTO VAAC MONTREAL. THE NEXT ADVISORY WILL BE ISSUED BY\nVAAC MONTREAL BY 0200 UTC UNDER HEADER FVCN01 CWAO....TS\n\nNXT ADVISORY: NO FURTHER ADVISORIES=\n\n",
      "issued": "2026-07-22T22:14:00+00:00",
      "volcano": "Sheveluch",
      "psn": "N5639 E16122"
    }
  ]
}