{
  "updated_utc": "2026-06-29T20:47Z",
  "metar": {
    "RJAA": "METAR RJAA 291900Z AUTO 19001KT 0100 R16R/P2000N R16L/0800V1700D FG OVC000 19/19 Q1013 NOSIG",
    "PANC": "METAR PANC 291853Z 19007G17KT 10SM SCT055 OVC080 13/07 A3010 RMK AO2 SLP192 T01330067",
    "PAFA": "METAR PAFA 291853Z 23010KT 10SM -RA FEW020 BKN025 OVC055 13/09 A3000 RMK AO2 RAB41 SLP163 P0000 T01280089 $",
    "PAED": "METAR PAED 291855Z 22011KT -SHRA 10SM FEW015 BKN047 OVC055 14/07 A3008 RMK AO2A SLP182 PCPN VRY LGT P0000 T01390067 $",
    "KSEA": "METAR KSEA 291853Z 19007KT 10SM BKN015 OVC025 14/09 A3007 RMK AO2 SLP189 T01390094 $",
    "ZSPD": "METAR ZSPD 291900Z 20002MPS 4000 -SHRA BR SCT008 25/25 Q1008 BECMG TL2030 BKN008",
    "ZSSS": "METAR ZSSS 291900Z 24002MPS 6000 -SHRA BKN009 26/25 Q1009 NOSIG",
    "RJFR": "METAR RJFR 291900Z AUTO 02004KT 9999 FEW009 SCT230 OVC240 23/21 Q1011",
    "VHHH": "METAR VHHH 291900Z 08009KT 9999 FEW015 27/24 Q1008 TEMPO 3000 TSRA +SHRA FEW008CB SCT020",
    "RCTP": "METAR RCTP 291900Z VRB02KT 9999 FEW015 28/25 Q1010 NOSIG RMK A2983",
    "ZGSZ": "METAR ZGSZ 291900Z 15003MPS 9999 SCT023 28/25 Q1007 NOSIG",
    "WSSS": "METAR WSSS 291900Z 30003KT 250V350 9999 FEW018 FEW020CB BKN300 28/24 Q1010 TEMPO FM1930 TL2015 3000 TSRA",
    "WMKK": "METAR WMKK 291900Z 02004KT 350V050 9999 FEW017CB 27/24 Q1009 NOSIG",
    "WIDD": "METAR WIDD 291900Z 24002KT 9999 FEW014 26/26 Q1010 MOSIG",
    "VTBS": "METAR VTBS 291900Z 25003KT 9999 FEW020 28/22 Q1007 NOSIG",
    "VTBU": "METAR VTBU 291900Z 30004KT 9999 FEW020 30/25 Q1007 NOSIG",
    "ROAH": "METAR ROAH 291900Z AUTO 18005KT 9999 SCT008 27/27 Q1013",
    "VVDN": "METAR VVDN 291900Z 24003KT 9999 FEW017 SCT065 27/25 Q1005 NOSIG",
    "RCKH": "METAR RCKH 291900Z 07003KT 9999 FEW014 SCT150 26/24 Q1009 NOSIG RMK A2981",
    "KLAX": "METAR KLAX 291853Z 26006KT 10SM FEW019 OVC025 19/13 A2993 RMK AO2 SLP135 T01890133 $",
    "KONT": "METAR KONT 291853Z 28007KT 10SM BKN035 22/12 A2992 RMK AO2 SLP121 T02220117 $",
    "KSFO": "METAR KSFO 291856Z 04004KT 10SM FEW025 19/13 A2989 RMK AO2 SLP121 T01890128",
    "KOAK": "METAR KOAK 291853Z 25006KT 10SM FEW200 19/11 A2990 RMK AO2 SLP123 T01940111 $",
    "KDFW": "METAR KDFW 291853Z 19019G28KT 10SM CLR 35/20 A2993 RMK AO2 PK WND 19028/1851 SLP124 T03500200 $",
    "KIAH": "METAR KIAH 291853Z 17011KT 10SM SCT050 35/22 A3002 RMK AO2 SLP164 T03500222",
    "KORD": "METAR KORD 291851Z 18014G21KT 10SM SCT035 BKN200 BKN250 32/24 A2990 RMK AO2 SLP120 T03220239 $",
    "KJFK": "METAR KJFK 291851Z 18008KT 10SM FEW060 SCT250 28/18 A3010 RMK SLP191 T02830178",
    "KRFD": "METAR KRFD 291854Z 19017G21KT 10SM SCT030 SCT036 SCT250 32/25 A2989 RMK AO2 SLP115 T03170250",
    "KIND": "METAR KIND 291854Z 20010KT 10SM SCT039 BKN300 32/23 A3003 RMK AO2 SLP159 T03220233",
    "KDTW": "METAR KDTW 291853Z 20007KT 10SM FEW055 BKN220 31/21 A3005 RMK AO2 SLP170 T03060211",
    "KMSP": "METAR KMSP 291853Z 16012G25KT 10SM BKN033 BKN250 32/24 A2965 RMK AO2 PK WND 16028/1835 SLP032 T03170244",
    "CYEG": "METAR CYEG 291900Z 32006KT 280V350 10SM BKN060 BKN180 OVC240 21/16 A2980 RMK FU7AC1CI1 AC TR FU SLP094 DENSITY ALT 3800FT",
    "EHAM": "METAR EHAM 291855Z 34007KT 310V010 CAVOK 19/10 Q1026 NOSIG",
    "EBBR": "METAR EBBR 291850Z 33009KT CAVOK 21/12 Q1025 NOSIG",
    "EDDF": "METAR EDDF 291850Z AUTO 02008KT 9999 FEW048 27/16 Q1023 NOSIG",
    "EDFH": "METAR EDFH 291850Z 04003KT 360V080 CAVOK 22/13 Q1025",
    "EDDL": "METAR EDDL 291850Z AUTO 31007KT CAVOK 26/13 Q1024 NOSIG",
    "EDDK": "METAR EDDK 291850Z AUTO 02004KT CAVOK 26/13 Q1024 NOSIG",
    "EBLG": "METAR EBLG 291850Z 33005KT CAVOK 23/13 Q1025 NOSIG",
    "LSZH": "METAR LSZH 291850Z 04004KT 9999 FEW060 27/16 Q1022 NOSIG",
    "LIMC": "METAR LIMC 291850Z 02013KT CAVOK 29/14 Q1018 NOSIG",
    "LIRF": "METAR LIRF 291850Z 05008KT 360V080 9999 -RA VCSH FEW020TCU SCT035 29/18 Q1015 NOSIG",
    "EINN": "METAR EINN 291900Z 15013KT 8000 -RA FEW015 BKN023 15/13 Q1020 NOSIG",
    "EGLL": "METAR EGLL 291850Z AUTO 30005KT 250V340 9999 NCD 21/09 Q1025",
    "EGSS": "METAR EGSS 291850Z AUTO 31006KT 260V340 9999 NCD 21/10 Q1025",
    "EPWA": "METAR EPWA 291900Z 35010KT CAVOK 32/15 Q1018 NOSIG",
    "UHPP": "METAR UHPP 291900Z 11002MPS 060V140 9999 -SHRA BKN040CB BKN053 08/08 Q1003 R16R/290162 NOSIG RMK MT OBSC QFE749/0999",
    "EFHK": "METAR EFHK 291850Z 18007KT CAVOK 21/15 Q1013 NOSIG",
    "LBBG": "METAR LBBG 291900Z AUTO 07007KT 9999 NCD 26/19 Q1016 NOSIG",
    "LTAC": "METAR LTAC 291850Z 07005KT CAVOK 23/11 Q1018 NOSIG RMK RWY21C 05004KT 020V100 RWY03L 06006KT RWY21R 03005KT RWY03R 05008KT RWY21L 06004KT",
    "UBBB": "METAR UBBB 291900Z 24004KT CAVOK 21/17 Q1014 NOSIG",
    "UTAA": "METAR UTAA 291900Z 28008KT 9999 FEW050 SCT100 27/09 Q1011 R88/CLRD70 NOSIG",
    "UACC": "METAR UACC 291900Z 21004MPS CAVOK 14/11 Q1006 NOSIG RMK QFE723/0965",
    "UAAA": "METAR UAAA 291900Z 11004MPS 080V140 9999 -SHRA BKN050CB OVC100 23/14 Q1013 NOSIG",
    "UZTT": "METAR UZTT 291900Z 02004KT 310V080 9999 FEW066CB 27/15 Q1009 NOSIG",
    "ZWWW": "METAR ZWWW 291900Z 19003MPS CAVOK 26/12 Q1011 NOSIG",
    "ZLXY": "METAR ZLXY 291900Z 06003MPS CAVOK 22/18 Q1009 NOSIG",
    "ZBAA": "SPECI ZBAA 291854Z 22005MPS 180V240 5000 -TSRA BR FEW020 SCT040 SCT040CB 22/20 Q1008 RESHRA NOSIG",
    "ZBHH": "METAR ZBHH 291900Z 00000MPS 9999 FEW040 17/15 Q1012 NOSIG",
    "ZSQD": "METAR ZSQD 291900Z 16007MPS 9999 BKN012 23/21 Q1009 NOSIG",
    "ZMCK": "METAR ZMCK 291900Z 08004MPS CAVOK 12/10 Q1015 NOSIG RMK QFE645.8 86",
    "UUEE": "METAR UUEE 291900Z 36003G10MPS 320V070 CAVOK 19/14 Q1015 R24L/CLRD62 R24C/CLRD62 NOSIG",
    "UUDD": "METAR UUDD 291900Z 31003MPS 9999 SCT028 18/14 Q1015 R13R/CLRD65 NOSIG",
    "ULLI": "METAR ULLI 291900Z 28002MPS 250V310 CAVOK 19/17 Q1014 R88/090065 NOSIG",
    "USSS": "METAR USSS 291900Z 14002MPS 100V170 5000 BR OVC004 14/14 Q0995 R08R/290350 R08L/290040 TEMPO BKN002 RMK QFE727/0969",
    "UNNT": "METAR UNNT 291900Z 06002MPS 9999 -SHRA BKN038CB 21/19 Q1002 R07/290255 R34/////// NOSIG RMK QFE742/0989",
    "UNKL": "METAR UNKL 291900Z 00000MPS 4300 0900S PRFG NSC 14/14 Q1005 R29/290050 NOSIG RMK QFE728",
    "UIBB": "METAR UIBB 291900Z 00000MPS 9999 NSC 15/15 Q1007 R12/210162 NOSIG RMK QFE712/0950",
    "UEEE": "METAR UEEE 291900Z 33001MPS CAVOK 15/10 Q1008 R23/09//63 NOSIG RMK QFE748",
    "UHHH": "METAR UHHH 291900Z 12002MPS 9999 FEW040 16/16 Q1010 R23R/090060 NOSIG RMK QFE751/1002",
    "UHSS": "METAR UHSS 291900Z 00000MPS 9999 FEW002 SCT014 06/06 Q1012 R19/CLRD70 NOSIG RMK QBB060 MT OBSC QFE758/1010"
  },
  "taf": {
    "RJAA": "TAF RJAA 291705Z 2918/0100 09006KT 8000 FEW008 BKN015 TEMPO 2918/2922 0700 FG VV001 TEMPO 2922/3001 2000 BR FEW003 BKN005 BECMG 3009/3012 01006KT TEMPO 3012/3015 FEW003 BKN005 TEMPO 3015/3021 0500 FG VV001 TEMPO 3021/0100 4000 BR FEW001 BKN003",
    "PANC": "TAF PANC 291747Z 2918/3024 18012KT P6SM VCSH SCT035 BKN060 TEMPO 2918/2920 BKN035 FM292000 17012G22KT P6SM -SHRA BKN035 OVC050 FM300100 16012G22KT P6SM VCSH FEW035 BKN050 BKN080 FM300800 16008KT P6SM VCSH SCT035 OVC045",
    "PAFA": "TAF PAFA 291740Z 2918/3024 24011G15KT P6SM VCSH FEW035 SCT045 OVC060 FM300600 25010KT P6SM VCSH SCT050",
    "PAED": "TAF AMD PAED 291545Z 2915/3019 21010G20KT 9999 VCSH FEW010 BKN060 OVC110 620604 QNH3008INS TEMPO 2915/2921 -RA BECMG 2921/2922 21012G22KT 9999 -RA FEW015 SCT040 BKN050 OVC090 620802 QNH3007INS BECMG 3009/3010 18009KT 9999 NSW SCT050 BKN075 QNH3008INS BECMG 3013/3014 VRB05KT 9999 -RA BKN030 BKN060 QNH3006INS TX15/3001Z TN13/2915Z",
    "KSEA": "TAF KSEA 291720Z 2918/3024 20008KT P6SM OVC020 FM292200 22008KT P6SM SCT020 OVC035 FM300000 23007KT P6SM SCT035 BKN050 FM300700 21009KT P6SM BKN030 BKN050 FM301000 20010KT P6SM BKN020 FM301400 20010KT P6SM OVC015",
    "ZSPD": "TAF ZSPD 291503Z 2918/3024 17004MPS 6000 -SHRA BKN011 TX26/3006Z TN21/2921Z TN21/3021Z TEMPO 2918/2921 SHRA BKN008 FEW030CB TEMPO 2921/3003 TSRA BKN008 SCT030CB TEMPO 3006/3010 2500 +SHRA BKN008 SCT030CB",
    "ZSSS": "TAF ZSSS 291505Z 2918/3024 16004MPS 6000 -SHRA BKN013 TX27/3006Z TN22/2921Z TN22/3021Z TEMPO 2918/2921 SHRA BKN008 FEW030CB TEMPO 2921/3003 TSRA BKN008 SCT030CB TEMPO 3006/3010 2500 +SHRA BKN008 SCT030CB",
    "RJFR": "TAF AMD RJFR 291926Z 2919/0100 03004KT 9999 FEW007 BKN015 TEMPO 2919/3002 FEW005 SCT007 BKN008 BECMG 2923/3001 10006KT BECMG 3004/3006 04006KT TEMPO 3015/3018 FEW005 SCT007 BKN008 TEMPO 3018/0100 3000 SHRA BR FEW005 SCT007 BKN008 BECMG 3021/0100 09004KT",
    "VHHH": "TAF VHHH 292000Z 2921/0103 12010KT 9999 FEW015 SCT025 TX33/3006Z TN26/2922Z TN27/3022Z TEMPO 2921/3004 18015G25KT 2500 TSRA SHRA FEW008CB SCT015 TEMPO 3005/3009 27010KT",
    "RCTP": "TAF RCTP 291700Z 2918/3024 15005KT 9999 FEW015 BECMG 3000/3002 32008KT BECMG 3010/3012 22005KT TEMPO 3018/3024 15005KT",
    "ZGSZ": "TAF ZGSZ 291502Z 2918/3024 18004MPS 8000 SCT040 TX32/3006Z TN27/2922Z TN28/3022Z TEMPO 2922/3001 SHRA FEW020CB BKN033",
    "WSSS": "TAF WSSS 291700Z 2918/0100 20007KT 9999 FEW015 SCT020 TEMPO 2918/2920 3000 TSRA FEW012CB BKN015",
    "WMKK": "TAF WMKK 291700Z 2918/0100 VRB02KT 9999 FEW030 PROB30 TEMPO 2919/2923 5000 TSRA FEW017CB",
    "VTBS": "TAF VTBS 291700Z 2918/3024 24008KT 9999 FEW020 TEMPO 3009/3014 VRB15KT 3000 TSRA FEW018CB SCT020 BKN080",
    "VTBU": "TAF VTBU 291700Z 2918/3018 25006KT 9999 FEW020",
    "ROAH": "TAF ROAH 291705Z 2918/0100 18010KT 9999 FEW008 BKN012 TEMPO 2918/2922 FEW003 BKN005 TEMPO 3012/3021 FEW005 BKN008",
    "VVDN": "TAF VVDN 291700Z 2918/3018 22005KT 9999 SCT017 SCT060 TEMPO 2919/2922 4000 SHRA BKN013 FEW015CB BKN050 BECMG 3004/3005 10010KT TEMPO 3008/3011 24018G28KT 2500 +TSRA BKN010 SCT015CB BKN040 TEMPO 3011/3014 4000 TSRA BKN013 FEW015CB BKN050 BECMG 3014/3015 25005KT",
    "RCKH": "TAF RCKH 291700Z 2918/3024 09005KT 9999 FEW015 BECMG 3000/3002 17010KT TEMPO 3004/3010 15013G23KT BECMG 3012/3014 14007KT TEMPO 3018/3024 07005KT",
    "KLAX": "TAF KLAX 291723Z 2918/3024 26012KT P6SM FEW015 SCT020 BKN035 TEMPO 2918/2920 SCT015 OVC020 FM300400 26008KT P6SM BKN025 FM300800 VRB03KT P6SM BKN015 OVC025 FM301600 VRB03KT P6SM BKN025 OVC035 FM301900 26008KT P6SM SCT025 BKN035",
    "KONT": "TAF KONT 291720Z 2918/3024 VRB05KT P6SM SCT035 FM292000 24013G21KT P6SM SKC FM300700 VRB04KT P6SM SCT015 BKN025 FM301400 VRB03KT P6SM OVC035 FM301800 VRB04KT P6SM FEW035 FM302100 25013G21KT P6SM SKC",
    "KSFO": "TAF KSFO 291720Z 2918/3024 04003KT P6SM SKC FM292000 28015G25KT P6SM SKC FM301000 26009KT P6SM SCT015 FM301200 24008KT P6SM BKN015 FM301700 21008KT P6SM SCT015 FM301900 24015G25KT P6SM SKC",
    "KOAK": "TAF KOAK 291720Z 2918/3024 23005KT P6SM SKC FM292000 27010G20KT P6SM SKC FM300500 21009KT P6SM SKC FM301000 22007KT P6SM BKN015 FM301700 26010G20KT P6SM SKC",
    "KMHR": "TAF KMHR 291720Z 2918/3018 VRB05KT P6SM SKC FM291900 31008KT P6SM SKC FM300200 22008KT P6SM SKC FM300700 VRB03KT P6SM SKC AMD NOT SKED",
    "KDFW": "TAF KDFW 292045Z 2921/3024 18018G28KT P6SM FEW040 FM300300 18016KT P6SM FEW250 TEMPO 3009/3012 BKN023",
    "KIAH": "TAF KIAH 291720Z 2918/3024 17011G18KT P6SM FEW035 SCT250 FM300100 15008KT P6SM FEW045 FM301000 16003KT P6SM FEW015 SCT025 FM301500 17007KT P6SM FEW035 SCT250",
    "KORD": "TAF KORD 291720Z 2918/3024 21014G24KT P6SM BKN040 FM300130 19011G17KT P6SM FEW040 FM301400 22014G24KT P6SM SCT035",
    "KJFK": "TAF KJFK 292031Z 2921/3024 19012KT P6SM FEW060 FM300200 19007KT P6SM FEW060 FM301500 19010KT P6SM SCT060 FM301700 19011G19KT P6SM SCT250 FM302000 18017G22KT P6SM SCT250",
    "KRFD": "TAF KRFD 291720Z 2918/3018 20014G24KT P6SM BKN040 FM300130 19011KT P6SM FEW040 WS015/25040KT FM301400 22014G24KT P6SM SCT035",
    "KIND": "TAF KIND 292001Z 2920/3024 21014KT P6SM SCT040 BKN250 FM300100 18007KT P6SM SCT250 FM301300 22009KT P6SM FEW025 FEW250",
    "KDTW": "TAF KDTW 291720Z 2918/3024 17008KT P6SM FEW040 SCT100 FM300100 16005KT P6SM SCT040 SCT100 FM301000 22008KT P6SM SCT250 FM301500 23011KT P6SM SCT060 FM301800 23011G20KT P6SM SCT060",
    "KMSP": "TAF KMSP 292043Z 2921/3024 17018G29KT P6SM BKN035 FM300100 19015G24KT P6SM SCT050 PROB30 3004/3006 4SM -TSRA BR OVC030CB FM300600 21008KT P6SM SCT050 BKN250 FM301200 24012KT P6SM SCT050 BKN250",
    "CYEG": "TAF CYEG 292040Z 2921/3018 32005KT P6SM BKN070 TEMPO 2921/3003 VRB25G35KT P6SM VCTS BKN060CB FM300300 30006KT P6SM SCT100 FM301700 05008KT P6SM BKN080 RMK NXT FCST BY 300000Z",
    "EHAM": "TAF EHAM 291700Z 2918/3024 34007KT CAVOK BECMG 2921/2924 VRB02KT BECMG 3010/3013 30007KT",
    "EBBR": "TAF EBBR 291720Z 2918/3024 33005KT CAVOK",
    "EDDF": "TAF EDDF 291700Z 2918/3024 03006KT CAVOK BECMG 3012/3015 33007KT PROB30 TEMPO 3017/3021 SHRA SCT060CB",
    "EDFH": "TAF EDFH 291700Z 2918/3018 04004KT 9999 FEW045 BECMG 3010/3012 34006KT PROB30 TEMPO 3013/3018 4000 TSRA SCT040CB",
    "EDDL": "TAF EDDL 291700Z 2918/3024 33008KT CAVOK BECMG 2922/3001 VRB03KT BECMG 3010/3012 31007KT",
    "EDDK": "TAF EDDK 291700Z 2918/3024 33007KT CAVOK BECMG 2918/2921 VRB03KT BECMG 3010/3013 33008KT PROB30 TEMPO 3015/3018 SHRA BKN050CB",
    "EBLG": "TAF EBLG 291720Z 2918/3024 32005KT 9999 FEW045",
    "LSZH": "TAF LSZH 292025Z 2921/0103 30008KT 9999 SCT060TCU TX30/3015Z TN18/3004Z PROB40 TEMPO 2921/2923 SHRA BECMG 3000/3003 CAVOK BECMG 3007/3010 06006KT BECMG 3010/3013 9999 FEW060TCU PROB40 TEMPO 3016/3021 24015G30KT 4000 TSRA SCT050CB",
    "LIMC": "TAF LIMC 291700Z 2918/3024 VRB05KT CAVOK TEMPO 3015/3018 TSRA",
    "LIRF": "TAF LIRF 291700Z 2918/3024 VRB05KT 9999 FEW030 BECMG 3008/3010 24010KT BECMG 3014/3016 30007KT",
    "EINN": "TAF EINN 291700Z 2918/3018 14012KT 9999 FEW020 SCT045 PROB30 TEMPO 2920/2924 -RA BKN012 TEMPO 3000/3010 7000 -RA BKN010 PROB30 TEMPO 3000/3007 4000 RADZ BKN008 BECMG 3001/3003 18008KT BECMG 3004/3006 23010KT BECMG 3009/3011 28012KT PROB30 TEMPO 3010/3014 BKN012 PROB30 TEMPO 3014/3018 30015G25KT",
    "EGLL": "TAF EGLL 291654Z 2918/3024 25008KT 9999 SCT045 PROB40 TEMPO 3018/3023 8000 SHRA",
    "EGSS": "TAF EGSS 291654Z 2918/3024 28006KT 9999 SCT045 PROB40 TEMPO 3018/3023 8000 SHRA",
    "EPWA": "TAF EPWA 292030Z 2921/3021 35007KT CAVOK PROB40 TEMPO 2922/3002 VRB15G25KT 3000 TSRA BKN040CB PROB30 TEMPO 3011/3020 BKN050CB",
    "UHPP": "TAF UHPP 291940Z 2921/0103 18003G12MPS 9999 -SHRA BKN025CB TEMPO 3012/3021 36005MPS 1000 BR VV003",
    "EFHK": "TAF EFHK 292025Z 2921/3021 19006KT CAVOK PROB40 TEMPO 3000/3004 7000 TSRA SCT050CB BECMG 3004/3006 27010KT BECMG 3006/3008 33010KT",
    "LBBG": "TAF LBBG 291700Z 2918/3018 VRB03KT CAVOK BECMG 3007/3009 12012KT",
    "LTAC": "TAF LTAC 291640Z 2918/3018 VRB02KT CAVOK BECMG 3008/3010 SCT040 TEMPO 3011/3015 05012KT",
    "UBBB": "TAF UBBB 291702Z 2918/3018 35006KT 9999 SCT025 TX27/3010Z TN19/3001Z BECMG 2920/2922 VRB04KT TEMPO 2922/3004 20005KT SCT010 FEW050CB BECMG 3004/3006 17005KT TEMPO 3006/3013 20012KT FEW040CB BECMG 3013/3015 35006KT",
    "UTAA": "TAF UTAA 291645Z 2918/3018 34018KT 6000 SCT050CB SCT050 TEMPO 2918/3002 27014KT TEMPO 3002/3006 30014G24KT 4000 DRDU",
    "UACC": "TAF UACC 291710Z 2918/3018 21003MPS 9999 SCT030 BKN050 TX26/3010Z TN15/3001Z TEMPO 3000/3006 17006MPS SCT030CB BECMG 3006/3007 20008MPS SCT030CB BKN040 TEMPO 3006/3018 24013MPS -TSRA BKN030CB",
    "UAAA": "TAF UAAA 291702Z 2918/3018 20003G08MPS 9999 SCT050CB BKN100 TX31/3010Z TN20/3001Z TEMPO 2918/2924 32007G15MPS 5000 -TSRA BLDU BECMG 3003/3004 34005MPS TEMPO 3003/3008 04005G10MPS BECMG 3008/3009 26005MPS TEMPO 3008/3018 20008G15MPS 3100 -TSRA BLDU",
    "UZTT": "TAF UZTT 291700Z 2918/3018 07010KT 7000 SCT060CB BKN100 TEMPO 2918/3004 VRB12G22KT -TSRA BKN050CB",
    "ZWWW": "TAF ZWWW 291507Z 2918/3024 18004MPS CAVOK TX38/3009Z TN26/2923Z TN28/3023Z BECMG 3002/3003 36004MPS BECMG 3013/3014 18004MPS",
    "ZLXY": "TAF ZLXY 291502Z 2918/3018 06003MPS 6000 NSC TX34/3008Z TN23/2922Z",
    "ZBAA": "TAF ZBAA 291502Z 2918/3024 12003MPS 6000 NSC TX27/3007Z TN21/2921Z TN22/3021Z TEMPO 2919/2922 2800 -TSRA FEW040CB BKN040 BECMG 3006/3007 -TSRA FEW040CB BKN040 BECMG 3008/3009 NSW NSC",
    "ZBHH": "TAF ZBHH 291515Z 2918/3018 06004MPS 9999 FEW040 TX31/3008Z TN14/2922Z TEMPO 2918/2919 -TSRA FEW040 FEW040CB BECMG 3005/3006 -TSRA FEW040 FEW040CB TEMPO 3006/3009 TSRA BECMG 3009/3010 NSW FEW040",
    "ZSQD": "TAF AMD ZSQD 291949Z 2918/3018 16004MPS 5000 BR BKN012 TX28/3006Z TN22/2920Z TEMPO 2922/2924 TSRA BKN012 SCT030CB",
    "ZMCK": "TAF ZMCK 291635Z 2918/3024 VRB02MPS 9999 FEW030CB SCT033 TN12/2921Z TX27/3007Z TEMPO 3004/3018 VRB09G14MPS 6000 TSRA SCT027CB BKN030",
    "UUEE": "TAF UUEE 291950Z 2921/3021 32003MPS 9999 SCT040 TX26/3012Z TN13/3001Z TEMPO 2921/3002 0500 PRFG TEMPO 3007/3016 26008G13MPS BECMG 3016/3017 25005MPS",
    "UUDD": "TAF UUDD 291952Z 2921/0103 32003MPS 8000 SCT020 TX26/3012Z TN13/3001Z PROB40 TEMPO 2922/3003 0300 FG TEMPO 3007/3016 32008MPS",
    "ULLI": "TAF ULLI 291957Z 2921/3021 28003MPS 6000 BKN016 TEMPO 2921/3004 0300 FG BKN003 TEMPO 3008/3013 3100 -TSRA BKN016CB BECMG 3008/3010 28007G12MPS BECMG 3017/3019 34003MPS",
    "USSS": "TAF USSS 291948Z 2921/3021 15003G08MPS 6000 BKN003 BKN011CB TEMPO 2921/3003 0300 FG VV002 FM300300 21003G14MPS 9999 BKN016CB",
    "UNNT": "TAF UNNT 292000Z 2921/3021 18003G08MPS 8000 BKN040 TX28/3009Z TN18/2923Z TEMPO 2921/3003 24006G12MPS -TSRA BKN020CB BECMG 3003/3007 25006G12MPS",
    "UNKL": "TAF UNKL 291952Z 2921/3021 21003MPS 4000 BR SCT040 TEMPO 2921/2922 0400 FG VV002 BECMG 2922/2923 0400 FG VV002 BECMG 3000/3001 9999 NSW SCT040 TEMPO 3003/3015 26008G16MPS -TSGR BKN020CB",
    "UIBB": "TAF UIBB 292000Z 2921/3021 VRB01MPS 0300 FG BKN001 BKN016CB TEMPO 2921/2924 5000 BR FEW003 BKN016CB BECMG 3000/3001 9999 NSW FEW001 SCT016CB TEMPO 3001/3015 VRB10MPS -TSRA",
    "UEEE": "TAF UEEE 292000Z 2921/0103 35003G08MPS CAVOK TX31/3006Z TN16/3018Z",
    "UHHH": "TAF UHHH 291951Z 2921/0103 23003MPS 9999 FEW010 SCT020CB TX29/3006Z TN15/3017Z TEMPO 3008/3015 VRB08MPS 5000 -TSRA FEW008 BKN016CB",
    "UHSS": "TAF UHSS 291955Z 2921/0103 21003MPS 9999 BKN030CB BECMG 3009/3011 36003MPS SCT040CB"
  },
  "atis": {
    "RJAA": "[Arrival ATIS] RJAA ARR ATIS K 0104Z M0100 (APCH)ILS Y RWY16L LDG RWY 16L DEP RWY 16R DEP FREQ 124.2. TWY A1 CLSD. M 170100Z 16007KT 130V230 40KM FEW035CU SCT/// 25/18 Q1019/A3010= Q/THREE ZERO ONE ZERO STP\n[Departure ATIS] RJAA DEP ATIS J 0044Z M0030 (APCH)ILS Y RWY16L LDG RWY 16L DEP RWY 16R DEP FREQ 124.2. TWY A1 CLSD. M 170030Z 18005KT 150V220 40KM FEW030CU SCT/// 26/17 Q1019/A3010= Q/THREE ZERO ONE ZERO STP",
    "PANC": "[Arrival ATIS] PANC ARR ATIS I 1553Z ANC ATIS INFO I 1553Z. 16007KT 10SM FEW050 BKN060 OVC110 12/08 A3010 (THREE ZERO ONE ZERO). ILS RWY 15 APPROACHES IN USE. LANDING RWY 15, DEPARTING RWY 25L. NOTICE TO AIRMEN. TWY Q CLSD. TWY K BTWN A AND D RESTRICTED TO AIRCRAFT WITH WINGSPAN LESS THAN 118 FEET. CONTACT TOWER 118.3 FOR TAXI. ...ADVS YOU HAVE INFO I.\n[Departure ATIS] PANC DEP ATIS G 1353Z ANC ATIS INFO G 1353Z. 14012G28KT 10SM SCT060 BKN110 12/09 A3010 (THREE ZERO ONE ZERO) RMK AO2 PK WND 15028/1351 SLP195 T01220089. ILS RWY 15 APPROACHES IN USE. LANDING RWY 15, DEPARTING RWY 25L. NOTICE TO AIRMEN. TWY Q CLSD. TWY K BTWN A AND D RESTRICTED TO AIRCRAFT WITH WINGSPAN LESS THAN 118 FEET. CONTACT TOWER 118.3 FOR TAXI. ...ADVS YOU HAVE INFO G.",
    "KSEA": "[Arrival ATIS] KSEA ARR ATIS J 1953Z SEA ATIS INFO J 1953Z. 17007KT 10SM OVC017 15/09 A3007 (THREE ZERO ZERO SEVEN). ILS, RYS 16R AND 16L , APCH IN USE. DEPG RWY 16L, DEPG ACFT PLAN AND BRIEF NUMBERS FOR BOTH RWYS 16L AND 16C. SIMUL APCHS IN USE, BFI & SEA. TRAFFIC BELOW YOU ON FINAL. SIMUL APCHS IN USE TO PARA RYS. NOTAMS... BIRD ACTIVITY VICINITY ARPT. ...ADVS YOU HAVE INFO J.\n[Departure ATIS] KSEA DEP ATIS J 1953Z SEA ATIS INFO J 1953Z. 17007KT 10SM OVC017 15/09 A3007 (THREE ZERO ZERO SEVEN). ILS, RYS 16R AND 16L , APCH IN USE. DEPG RWY 16L, DEPG ACFT PLAN AND BRIEF NUMBERS FOR BOTH RWYS 16L AND 16C. SIMUL APCHS IN USE, BFI & SEA. TRAFFIC BELOW YOU ON FINAL. SIMUL APCHS IN USE TO PARA RYS. NOTAMS... BIRD ACTIVITY VICINITY ARPT. ...ADVS YOU HAVE INFO J.",
    "ZSPD": "[Arrival ATIS] ZSPD ARR ATIS O 0100Z EXP ILS APCH INDEPENDENT PARL INSTR APCH LDG RWY 35L & 34R WIND RWY 35L TDZ VRB BTN 110/ AND 190/1MPS MID VRB/1MPS END VRB BTN 080/ AND 240/1MPS RWY 34R TDZ 070/2MPS VRB BTN 040/ AND 120/ MID VRB BTN 030/ AND 100/1MPS END 090/2MPS VIS RWY 35L TDZ 8000M MID 9000M END 7000M VIS RWY 34R TDZ 10000M MID 10000M END 10000M CLD BKN 390M T 26 /DP 22 QNH 1009 HPA CAUTION THE BIRDS NEAR THE RUNWAY RWY 35R/35L/34R/34L RWYCC 5/5/5 ISSUED AT 2000 WET/WET/WET DPT NR/NR/NR COV 100PCT/100PCT/100PCT ADZ YOU HAVE INFO O.\n[Departure ATIS] ZSPD DEP ATIS O 0100Z DEP RWY 35R & 34L WIND RWY 35R TDZ VRB BTN 230/ AND 320/1MPS MID VRB BTN 030/ AND 170/1MPS END 120/3MPS VRB BTN 080/ AND 160/ RWY 34L TDZ 100/1MPS MID 020/2MPS END 070/2MPS VRB BTN 010/ AND 110/ VIS RWY 35R TDZ 9000M MID 10000M END 10000M VIS RWY 34L TDZ 10000M MID 9000M END 10000M CLD BKN 390M T 26 /DP 22 QNH 1009 HPA CAUTION THE BIRDS NEAR THE RUNWAY RWY 35R/35L/34R/34L RWYCC 5/5/5 ISSUED AT 2000 WET/WET/WET DPT NR/NR/NR COV 100PCT/100PCT/100PCT ADZ YOU HAVE INFO O.",
    "ZSSS": "[Arrival ATIS] ZSSS ARR ATIS H 0100Z EXP ILS APCH LDG RWY 36R WIND RWY 36R TDZ VRB/1MPS MID VRB BTN 170/ AND 280/1MPS END VRB/1MPS VIS RWY 36R TDZ 10000M MID 10000M END 10000M CLD SCT 690M T 28 /DP 21 QNH 1009 HPA QNH OF SHANGHAI TERMINAL CONTROL AREA 1009 HPA ADZ YOU HAVE INFO H.\n[Departure ATIS] ZSSS DEP ATIS G 0030Z DEP RWY 36L WIND RWY 36L TDZ VRB/1MPS MID 330/2MPS END 300/3MPS VRB BTN 250/ AND 320/ VIS RWY 36L TDZ 10000M MID 10000M END 10000M CLD FEW 480M T 27 /DP 21 QNH 1009 HPA QNH OF SHANGHAI TERMINAL CONTROL AREA 1009 HPA ADZ YOU HAVE INFO G.",
    "VHHH": "[Arrival ATIS] VHHH ARR ATIS A 0005Z ARRIVALS, RWY 25R/L. EXP ILS APCH, RWY 25L. EXP RNAV TRANSITION TO ILS APCH, RWY 25R. RWY 25 RUNWAY CONDITION REPORT AT 0000Z. RWY 25L RUNWAY CONDITION CODES 5 , 5 , 5 . RWY SFC ALL PARTS WET. CAUTION POSSIBLE GP FLUCTUATION RWY 25L. WIND RWY 25R 180/08KT RWY 25L 160/10KT. VIS RWY 25L 10KM RWY 25R 10KM. CLD RWY 25L FEW 1000FT SCT 2000FT RWY 25R FEW 1000FT SCT 2000FT. T28 DP24. QNH 1009HPA. TREND TEMPO VIS 3000M MOD SHRA CLD FEW CB 1000FT SCT 2000FT. ACK INFO A ON FIRST CTC WITH APP.\n[Departure ATIS] VHHH DEP ATIS P 0006Z DEPARTURES, RWY 25C/L. RWY 25 RUNWAY CONDITION REPORT AT 0000Z. RWY 25C RUNWAY CONDITION CODES 5 , 5 , 5 . RWY 25L RUNWAY CONDITION CODES 5 , 5 , 5 . RWY SFC ALL PARTS WET. INDEPENDENT PARALLEL DEPARTURE IN PROGRESS. WIND RWY 25C 140/05KT RWY 25L 130/09KT. VIS RWY 25L 10KM RWY 25C 10KM. CLD RWY 25L FEW 1000FT SCT 2000FT RWY 25C FEW 1000FT SCT 2000FT. T28 DP24. QNH 1009HPA. TREND TEMPO VIS 3000M MOD SHRA CLD FEW CB 1000FT SCT 2000FT. ACK INFO P ON FIRST CTC WITH DELIVERY .",
    "RCTP": "[Arrival ATIS] RCTP ARR ATIS M 0100Z EXP ILS APCH RWY23R AND RWY23L ARR/DEP. WIND 190/05KT VARYING BTN 130 AND 240 VIS 10 KM OR MORE CLD FEW 2000FT BKN 18000FT T 30 DP 24 QNH 1011HPA NOSIG DUE TO FLOW CONTROL BY HONGKONG F-I-R, TRAFFIC CONCERNED MAY BE DELAYED. CTN BIRD ACTIVITY IN THE VCY OF THE AD. INFORM TAIPEI APCH OR TAIPEI TOWER ON INITIAL CONTACT YOU HAVE INFORMATION M\n[Departure ATIS] RCTP DEP ATIS L 0030Z EXP ILS APCH RWY23R AND RWY23L ARR/DEP. WIND 180/05KT VARYING BTN 140 AND 250 VIS 10 KM OR MORE CLD FEW 2000FT BKN 18000FT T 29 DP 25 QNH 1011HPA NOSIG DUE TO FLOW CONTROL BY HONGKONG F-I-R, TRAFFIC CONCERNED MAY BE DELAYED. CTN BIRD ACTIVITY IN THE VCY OF THE AD. INFORM TAIPEI APCH OR TAIPEI TOWER ON INITIAL CONTACT YOU HAVE INFORMATION L",
    "ZGSZ": "[Arrival ATIS] ZGSZ ARR ATIS C 2000Z EXP ILS APCH LDG RWY 15 WIND VRB/1MPS VIS 9999M CLD FEW 690M T 28 /DP 25 QNH 1007 HPA SINGLE RUNWAY OPERATION MISSED APPROACH ALTITUDE SETTING 1200METERS WHEN AIRBORNE CO\n[Departure ATIS] ZGSZ DEP ATIS J 0000Z DEP RWY 15 & 16L WIND 170/6MPS VIS 9999M CLD SCT 390M /BKN 900M T 28 /DP 26 QNH 1009 HPA INDEPENDENT PARALLEL DEPARTURES MISSED APPROACH ALTITUDE SETTING 1200METERS WHEN AIRBORNE CONTACT ZHUHAI APPROACH EXPECTED RNP ILS DME Z APPROACH ADZ YOU HAVE INFO J.",
    "WSSS": "[Arrival ATIS] WSSS ARR ATIS U 0100Z METREPORT 0100Z ILS APCHRWY 20R SIMUL INDEPENDENT ILS AND VISUAL APPROACHES ARE CONDUCTED ON RWY 20. RSCD RWY20R 2309Z RWYCC:6.5.5. SECOND PART 100% WET. THIRD PART 100% WET. TWY W 9 CLOSED, RWY 02C 20C RAPID EXIT TAXIWAY INDICATOR LIGHTS OFF WIND 120/ 09KT VIS 10KM CLD FEW 1600FT FEW TCU 2000FT T30 DP25 QNH 1012HPA NOSIG ACK ATIS U\n[Departure ATIS] WSSS DEP ATIS V 0100Z METREPORT 0100Z RWY 20C SIMUL INDEPENDENT ILS AND VISUAL APPROACHES ARE CONDUCTED ON RWY 20. RSCD RWY20C 2308Z RWYCC:6.5.5. SECOND PART 100% WET. THIRD PART 100% WET. TWY W 9 CLOSED, RWY 02C 20C RAPID EXIT TAXIWAY INDICATOR LIGHTS OFF WIND 130/ 08KT VRB BTN100 AND160 VIS 10KM CLD FEW 1600FT FEW TCU 2000FT T30 DP25 QNH 1012HPA NOSIG DEP,INITIAL CMB 3000FT ACK ATIS V",
    "WMKK": "[Arrival ATIS] WMKK ARR ATIS F 0034Z WMKK ARR INFO F. TIME 0030. INDEPENDENT PARALLEL APPROACHES FOR RWY 14 L AND 15 ARE IN PROGRESS. EXP RNAV / ILS APCH FOR RWY 14 LEFT. EXP RNAV / ILS APCH FOR RWY 15. WIND RWY 14L DIRECTION NOT AVBL SPEED NOT AVBL. WIND RWY 15 DIRECTION NOT AVBL SPEED NOT AVBL. VIS RWY 14L TDZ NOT AVBL. VIS RWY 15 TDZ NOT AVBL. WX TS, VCSH. CLD FEW CB 1700 FT. T 26. DP 24. QNH 1012. TREND TEMPO VIS 5 KM, MOD TSRA. AT FIRST CONTACT WITH LUMPUR RADAR, NOTIFY RCPT OF F\n[Departure ATIS] WMKK DEP ATIS P 1534Z WMKK DEP INFO P. TIME 1530. INDEPENDENT PARALLEL DEPARTURES FOR RWY 14 L AND 15 ARE IN PROGRESS. RWY 14 LEFT. RWY 15. WIND RWY 14L DIRECTION NOT AVBL SPEED NOT AVBL. WIND RWY 15 DIRECTION NOT AVBL SPEED NOT AVBL. VIS RWY 14L TDZ NOT AVBL. VIS RWY 15 TDZ NOT AVBL. CLD FEW 3000 FT. T 29. DP 24. QNH 1011. NOSIG. ALL DEP ACFT TO CONTACT LUMPUR DEP AT 135 DECIMAL 25 MHZ WHEN ABN. AT FIRST CONTACT WITH LUMPUR GROUND, NOTIFY RCPT OF P",
    "VTBS": "[Arrival ATIS] VTBS ARR ATIS X 1930Z VTBS ARR ATIS X 1931Z EXP ILS Z APCH ARR RWY 20L OR RNP APCH RWY 20R RWY 19 CLSD DUE TO WIP ,RETIL RWY 20L U/S ,PILOT SHALL ADZ BKK APCH ON INITIAL CTC IF UNA TO CONDUCT RNP APCH DUE TO OPERATIONAL CONSTRAINT 1930Z WIND 230/4KT VIS 10KM CLD FEW 2000FT T28 DP22 QNH 1006HPA TREND NOSIG ADZ BKK APCH ON INITIAL CONTACT THAT YOU HAVE INFO X\n[Departure ATIS] VTBS DEP ATIS N 2000Z VTBS DEP ATIS N 2001Z DEP RWY 19 RWY 20L AND 20R CLSD DUE TO WIP 06161216 19 5/5/5 100/100/100 NR/NR/NR WET/WET/WET , ,AFT AIRBORNE ALL DEPARTING ACFT SHALL CTC 119.25 2000Z WIND VRB BTN 040/ AND 110/1KT VIS 10KM CLD FEW 2000FT T27 DP26 QNH 1009HPA TREND NOSIG ADZ GND WHEN INITIAL CONTACT YOU HAVE INFO N",
    "VTBU": "[Arrival ATIS] VTBU ARR ATIS K 1200Z VTBU ARR ATIS K 1200Z RNP RWY 18 TRL FL130 1200Z WIND 200/7KT VIS 10KM CLD FEW 2000FT T29 DP28 QNH 1009HPA TREND NOSIG ADZ CONTROLLER WHEN INITIAL CONTACT YOU HAVE INFO K\n[Departure ATIS] VTBU DEP ATIS D VTBU ARR/DEP DATIS RPT VTBU ARR ATIS D 0330Z ILS \"Z\" APCH RWY 18 TRL FL130 0330Z WIND 110/4KT VRB BTN 350/ AND 120/ VIS 6KM CLD FEW 2000FT T31 DP27 QNH 1014HPA TREND NOSIG ADZ CONTROLLER WHEN INITIAL CONTACT YOU HAVE INFO D",
    "ROAH": "[Arrival ATIS] ROAH ARR ATIS V 2127Z S2111 (APCH)ILS RWY18R USING RWY 18R DEP FREQ 126.5 258.3 RWY18L/36R CLSD S 162111Z 15007KT 10KM -RA FEW005ST SCT015CU BKN070AS 24/24 Q1013/A2991= Q/TWO NINE NINE ONE STP\n[Departure ATIS] ROAH DEP ATIS Y 0536Z M0530 (APCH)ILS RWY18R LDG RWY 18R DEP RWY 18L DEP FREQ 126.5 258.3 M 290530Z 18010KT 25KM FEW005ST SCT/// 30/29 Q1012/A2989= Q/TWO NINE EIGHT NINE STP",
    "VVDN": "[Arrival ATIS] VVDN ARR ATIS F 0002Z VVDN INFO F 0002Z. ILS VICTOR APPROACH 35L.. DPTG RWY 35R.. 0002Z. WIND VRB/01KT CAVOK T29 DP24 QNH 1009HPA TREND NOSIG. ADZ ON INITIAL CTC YOU HAVE INFO. F.\n[Departure ATIS] VVDN DEP ATIS P 0532Z VVDN INFO P 0532Z. ILS VICTOR APPROACH 35L.. DPTG RWY 35R.. 0532Z. WIND 180/06KT CAVOK T37 DP23 QNH 1006HPA TREND NOSIG. ADZ ON INITIAL CTC YOU HAVE INFO. P.",
    "RCKH": "[Arrival ATIS] RCKH ARR ATIS G 0100Z EXPECT ILS APPROACH RWY 09 ARR/DEP RWY SFC RWY 09 SFC COND 5/5/5 ISSUED AT 2230Z. 100/100/100 NR/NR/NR WET/WET/WET TAXIWAY BRAVO, TAXIWAY DELTA AND TAXIWAY ECHO CLOSED DUE MAINTENANCE. RUNWAY 0 9 ARRIVALS PLAN VACATE VIA CHARLIE OR FOXTROT AND EXPEDITE VACATE. WIND 080/04KT VARYING BTN 050 AND 120 VIS 10 KM OR MORE CLD FEW 1500FT SCT 2500FT BKN 6500FT T 31 DP 26 QNH 1012HPA NOSIG CAUTION BIRD ACTIVITY IN VICINITY OF THE AERODROME. INFORM KAO-HSIUN APCH OR KAO-HSIUN TOWER ON INITIAL CONTACT YOU HAVE INFORMATION G\n[Departure ATIS] RCKH DEP ATIS Z 2200Z EXPECT ILS APPROACH RWY 09 ARR/DEP RWY SFC RWY 09 SFC COND 5/5/5 ISSUED AT 0850Z. 100/100/100 NR/NR/NR WET/WET/WET TAXIWAY BRAVO, TAXIWAY DELTA AND TAXIWAY ECHO CLOSED DUE MAINTENANCE. RUNWAY 0 9 ARRIVALS PLAN VACATE VIA CHARLIE OR FOXTROT AND EXPEDITE VACATE. WIND 060/05KT VIS 8000M -SHRA CLD FEW 600FT SCT TCU 900FT SCT 1400FT BKN 4800FT T 26 DP 24 QNH 1011HPA TEMPO 5000 SHRA CAUTION BIRD ACTIVITY IN VICINITY OF THE AERODROME. INFORM KAO-HSIUN APCH OR KAO-HSIUN TOWER ON INITIAL CONTACT YOU HAVE INFORMATION Z",
    "KLAX": "[Arrival ATIS] KLAX ARR ATIS D 1953Z - KLAX ATIS INFO D 1953Z. 25008KT 10SM FEW015 BKN028 OVC033 19/14 A2992 (TWO NINER NINER TWO) RMK AO2 SLP131 T01940144. SIMUL INST APCHS AND RNAV RNP RWYS 24R AND 25L APCHS, AND SIMUL APCHS IN PROG BTWN LAX AND HHR, SIMUL INSTR DEPARTURES IN PROG RWYS 24 AND 25. CTC L A GC ON 121.75 FOR PUSH OR TAXI ON A. TWY B CLSD BTN TWY, J AND TWY C8 , , TWY C10 CLSD BTN TWY, B AND TWY C, TWY C CLSD BTN TWY, C1 AND TWY C3. RY 25R SFL OTS, RY 24L ALSF-2 OTS, PAPI OTS 24R. LAX VOR UNMONITORED. USE CAUTION FOR INCREASED DRONE ACTIVIY IN THE VICINITY OF SOFI STADIUM AT OR BELOW 200FT AGL DURING THE WORLD CUP FROM JUNE TWELFTH TWENTY TWENTY SIX THROUGH JULY TENTH TWENTY TWENTY SIX. HAZD WX INFO FOR LAX AREA AVBL FM FSS. BIRD ACTIVITY VICINITY ARPT. INCLUDE YOUR CALL SIGN IN ALL READBACKS. USE CAUTION WHEN EXITING RY24R AT TWY V, W, AND Y, TO HOLD SHORT OF RY24L. MULTIPLE RUNWAY INCURSIONS HAVE OCCURRED. ...ADVS YOU HAVE INFO D.\n[Departure ATIS] KLAX DEP ATIS J 1453Z LAX ATIS INFO J 1453Z. 09004KT 9SM OVC011 18/15 A3000 (THREE ZERO ZERO ZERO) RMK AO2 SLP155 T01780150 53010. SIMUL INST APCHS AND RNAV RNP RWYS 24R AND 25L APCHS, AND SIMUL APCHS IN PROG BTWN LAX AND HHR, SIMUL INSTR DEPARTURES IN PROG RWYS 24 AND 25. CTC L A GC ON 121.75 FOR PUSH OR TAXI ON A. TWY C CLSD BTN TWY, C8 AND TWY C9 , , TWY B CLSD BTN TWY, F AND TWY B1, TWY B1 CLSD. ILS RY 25R OTS, RY 25R SFL OTS, RY 24L ALSF-2 OTS. LAX VOR UNMONITORED. IF ASSIGNED RUNWAY 25R FOR DEPARTURE, EXPECT DEPARTURE FROM INTERSECTION FOXTROT. TAXILANE CHARLIE EIGHT RESTRICTED TO AIRCRAFT WITH A WINGSPAN LESS THAN ONE HUNDRED EIGHTEEN FEET. USE CAUTION FOR INCREASED DRONE ACTIVIY IN THE VICINITY OF SOFI STADIUM AT OR BELOW 200FT AGL DURING THE WORLD CUP FROM 06/12/26 THROUGH 07/10/2026. HAZD WX INFO FOR LAX AREA AVBL FM FSS. BIRD ACTIVITY VICINITY ARPT. INCLUDE YOUR CALL SIGN IN ALL READBACKS. USE CAUTION WHEN EXITING RY24R AT TWY V, W, AND Y, TO HOLD SHORT OF RY24L. MULTIPLE RUNWAY INCURSIONS HAVE OCCURRED. ...ADVS YOU HAVE INFO J.",
    "KONT": "[Arrival ATIS] KONT ARR ATIS E 1711Z ONT ATIS INFO E 1711Z SPECIAL. VRB04KT 10SM SCT029 OVC032 19/12 A2993 (TWO NINER NINER THREE) RMK AO2 T01940117. ILS APR IN USE. RY26L & RY26R. LNDG AND DEPG RY 26L AND RY 26R. NOTAMS... TAXIWAY SIERRA FIVE CLOSED. TAXIWAY SIERRA CLOSED BETWEEN TAXIWAY SIERRA 8 AND TAXIWAY WHISKEY. TAXIWAY FOXTROT CLOSED BETWEEN TAXIWAY SIERRA AND RUNWAY 2 6 LEFT. RY 26L IM OTS, RY 26R ALS OTS. USE CAUTION FOR NUMEROUS BIRDS OBSERVED IN VICINITY OF ONT. HAZD WX INFO FOR SOUTHERN CA AVBL ON FSS FREQUENCIES. PILOTS READBACK RWY ASSIGNMENTS AND HOLD SHORT INSTRUCTIONS. ...ADVS YOU HAVE INFO E.\n[Departure ATIS] KONT DEP ATIS N 0553Z - KONT ATIS INFO N 0553Z. 24004KT 10SM BKN250 22/15 A2988 (TWO NINER EIGHT EIGHT) RMK AO2 SLP100. ILS AND VIS APR IN USE, RY26L & RY26R. LNDG AND DEPG RY 26L AND RY 26R. NOTAMS... TAXIWAY SIERRA CLSD BETWEEN SIERRA 8 AND W TAXIWAY Q SOUTH OF RWY 26L CLSD TAXIWAY T CLSD TAXIWAY SIERRA 5 CLSD. RY 26L IM OTS, RY 26R ALS OTS. USE CAUTION FOR NUMEROUS BIRDS OBSERVED IN VICINITY OF ONT. HAZD WX INFO FOR SOUTHERN CA AVBL ON FSS FREQUENCIES. PILOTS READBACK RWY ASSIGNMENTS AND HOLD SHORT INSTRUCTIONS. ...ADVS YOU HAVE INFO N.",
    "KSFO": "[Arrival ATIS] KSFO ARR ATIS C 1656Z SFO ATIS INFO C 1656Z. 06004KT 10SM FEW006 17/12 A2988 (TWO NINER EIGHT EIGHT) RMK AO2 SLP119 T01720117. SIMUL CLSLY SPCD DPNDNT ILS RY 28R AND ILS RY 28L APP IN USE. DEPG RWYS 28L, 28R. DEPG ACFT SHOULD BE PREPARED FOR A SHORT NOTICE RY CHANGE. RY 1L, 1R CLSD. NUMEROUS TWY CLOSURES FOR CONSTRUCTION ON THE FIELD, PILOTS CHECK NOTAMS. MULTIPLE CRANES VCY OF SFO CHECK NOTAMS. DEPG ACFT WAITING ON FINAL NUMBERS ADVISE GROUND PRIOR TO ENTERING TWY F. ...ADVS YOU HAVE INFO C.\n[Departure ATIS] KSFO DEP ATIS F 1956Z SFO ATIS INFO F 1956Z. 30011KT 10SM FEW025 22/12 A2987 (TWO NINER EIGHT SEVEN). SIMUL CLSLY SPCD DPNDNT ILS RY 28R AND ILS RY 28L APP IN USE. DEPG RWYS 28L, 28R. DEPG ACFT S",
    "KOAK": "[Arrival ATIS] KOAK ARR ATIS V 0053Z - KOAK ATIS INFO V 0053Z. 26014KT 10SM FEW008 FEW015 18/13 A2993 (TWO NINER NINER THREE). RNAV Z AND VA APPROACH RUNWAY 3 0, ILS AND VA APPROACH RUNWAY 2 8 RIGHT IN USE. FLOW TO LAX, SAN, SLC, SEA. ILS RWY 30, OTS. UNN LIT CLOSE-IN OBSTACLES FOR RWY 30 DEPARTURES. RWY 30 DEPARTURES ARE ADVISED TO AVOID TURNING LEFT PRIOR TO DEPARTURE END OF RUNWAY. SIGNATURE UNI-COM OUT OF SERVICE. CAUTION, BIRDS NEAR AIRPORT. ...ADVS YOU HAVE INFO V.\n[Departure ATIS] KOAK DEP ATIS O 1953Z OAK ATIS INFO O 1953Z. 28014KT 10SM FEW005 22/14 A2988 (TWO NINER EIGHT EIGHT). RNAV Z/VA RWY 30 ILS/VA RWY 28R. FLOW TO LAX, LAS, SAN. ILS RWY 30, OTS. UNN LIT CLOSE-IN OBSTACLES FOR RWY 30 DEPARTURES. RWY 30 DEPARTURES ARE ADVISED TO AVOID TURNING LEFT PRIOR TO DEPARTURE END OF RUNWAY. SIGNATURE UNI-COM OUT OF SERVICE. CAUTION, BIRDS NEAR AIRPORT. ...ADVS YOU HAVE INFO O.",
    "KDFW": "[Arrival ATIS] KDFW ARR ATIS E 1553Z - KDFW ARR INFO E 1553Z. 20016G24KT 10SM FEW032 FEW250 31/21 A2995 (TWO NINER NINER FIVE) RMK AO2 PK WND 19030/1456 SLP132 T03110211. SIMUL APCH IN USE. EXPECT ILS TO RWYS, 13R, 18R, 17C, 17L. LDG RWY 17C EXP LAHSO TWY B 10460 FT AVAIL, LDG RWY 18R EXP LAHSO TWY B 10100 FT AVL. NOTICE TO AIRMEN. WARNING, RWY 18L HAS BEEN SHORTENED, 9273 FT AVAILABLE. RWY 18L ILS OTS, CL OTS. BIRD ACTIVITY VCNTY ARPT. ...ADVS YOU HAVE INFO E.\n[Departure ATIS] KDFW DEP ATIS W 1553Z - KDFW DEP INFO W 1553Z. 21022G32KT 10SM FEW025 FEW180 SCT250 31/21 A2994 (TWO NINER NINER FOUR) RMK AO2 PK WND 20032/1547 SLP128 T03110206. SIMUL PARL TRAFFIC DEPG RWYS 17R, 18L. NOTICE TO AIRMEN. WARNING, RWY 18L HAS BEEN SHORTENED, 9273 FT AVAILABLE. RWY 18L CL OTS. BIRD ACTIVITY VCNTY ARPT. ...ADVS YOU HAVE INFO W.",
    "KIAH": "[Arrival ATIS] KIAH ARR ATIS R 1253Z IAH ATIS INFO R 1253Z. 13007KT 7SM FEW044 FEW250 27/26 A3014 (THREE ZERO ONE FOUR) RMK AO2 SLP204 T02720256. ARRIVALS EXPECT ILS OR RNAV Y RY 26R, ILS OR RNAV Y RY 26L, ILS OR RNAV Y RY 27. SIMUL APPROACHES IN USE. DEPG RY 15L, RY 15R. NOTICE TO AIRMEN. UNITED RAMP CONTROL IN EFFECT. BIRD ACTIVITY VICINITY ARPT. CRANES ARE DOWN. TWY SA CLSD BTN TWY, SG AND TWY SK , TWY SB CLSD BTN TWY, SG AND TWY SK , , TWY SG CLSD, TWY EA CLSD. NOTAM ATIS IN USE ON FREQUENCY 126.225. ...ADVS YOU HAVE INFO R.\n[Departure ATIS] KIAH DEP ATIS A 2053Z IAH ATIS INFO A 2053Z. 19008G16KT 10SM SCT035 BKN250 33/24 A2993 (TWO NINER NINER THREE) RMK AO2 LTG DSNT E TSB02E23 SLP135 CB DSNT NE-E AND SW MOV NE 60000 T03280239 57019. ARRIVALS EXPECT ILS OR RNAV Y RY 26R, ILS OR RNAV Y RY 26L, ILS OR RNAV Y RY 27. SIMUL APPROACHES IN USE. DEPG RY 15L, RY 15R. NOTICE TO AIRMEN. UNITED RAMP CONTROL IN EFFECT. ALL RWY COND CODES, , 5 , , 5 , , 5 , AT 1730Z. HAZD WX INFO FOR IAH AREA AVBL FM FSS. BIRD ACTIVITY VICINITY ARPT. TWY SA CLSD BTN TWY, SG AND TWY SK , TWY SB CLSD BTN TWY, SG AND TWY SK , , TWY SG CLSD, TWY EA CLSD. NOTAM ATIS IN USE ON FREQUENCY 126.225. ...ADVS YOU HAVE INFO A.",
    "KORD": "[Arrival ATIS] KORD ARR ATIS U 1951Z ORD ATIS INFO U 1951Z. 18013G24KT 10SM SCT039 BKN200 BKN250 33/23 A2989 (TWO NINER EIGHT NINER). ARR EXP VECTORS ILS RWY 27C APCH, VISUAL APCH RWY 27R, VISUAL APCH RWY 28C.\n[Departure ATIS] KORD DEP ATIS U 1951Z ORD ATIS INFO U 1951Z. 18013G24KT 10SM SCT039 BKN200 BKN250 33/23 A2989 (TWO NINER EIGHT NINER). ARR EXP VECTORS ILS RWY 27C APCH, VISUAL APCH RWY 27R, VISUAL APCH RWY 28C.",
    "KJFK": "[Arrival ATIS] KJFK ARR ATIS W 1951Z - KJFK ATIS INFO W 1951Z. 20011KT 10SM FEW060 FEW100 FEW250 29/18 A3009 (THREE ZERO ZERO NINER). APPROACH IN USE RNAV GPS Z RY 13L, RNAV GPS X RY 22L. DEPG RY 13R. CONVERGING RY OPERATIONS IN USE. CRI OTS. RWY 22L/4R INNER MARKER OTS. UNAUTHORIZED UAS EVENT AT, 2005Z 1 MI CRI, AT 005 FEET RED AND WHITE RC AIRPLANE. NUM CRANES OPERATING AT JFK. BIRD ACTIVITY VICINITY ARPT. READBACK ALL RWY ASSIGNMENTS AND HOLD SHORT INSTRUCTIONS. ...ADVS YOU HAVE INFO W.\n[Departure ATIS] KJFK DEP ATIS W 1551Z JFK ATIS INFO W 1551Z. 22014KT 10SM FEW060 FEW250 22/10 A2988 (TWO NINER EIGHT EIGHT). APPROACH IN USE ILS RY 31R, VISUAL APCH RY 31L. DEPG RY 31L. RWY 4L, 22R CLSD. RWY 22L/4R INNER MARKER OTS. NUM CRANES OPERATING AT JFK. BIRD ACTIVITY VICINITY ARPT. READBACK ALL RWY ASSIGNMENTS AND HOLD SHORT INSTRUCTIONS. ...ADVS YOU HAVE INFO W.",
    "KIND": "[Arrival ATIS] KIND ARR ATIS P 1954Z IND ATIS INFO P 1954Z. 22010G18KT 10SM SCT043 BKN300 33/23 A3002 (THREE ZERO ZERO TWO). PARL ILS RWY 23R AND 23L APPROACHES IN USE. CROSS RUNWAY OPERATIONS MAY BE IN EFFECT. NOTICE TO AIRMEN. RWY 32 GS OTS. TWY, P BTN TWY, H AND TWY B CLSD. P PAD CLSD. ILS RUNWAY 5R AND RUNWAY 5L INNER MARKER UNSERVICEABLE. RUNWAY 32 PAPI OTS. RUNWAY 32 TOUCHDOWN RVR OTS. RUNWAY 14 ROLLOUT RVR OTS. ...ADVS YOU HAVE INFO P.\n[Departure ATIS] KIND DEP ATIS H 1854Z IND ATIS INFO H 1854Z. 26009G19KT 10SM SCT036 BKN041 BKN170 23/16 A2981 (TWO NINER EIGHT ONE) RMK AO2 SLP088 T02280156. PARL ILS RWY 23R AND 23L APPROACHES IN USE. CROSS RU",
    "KDTW": "[Arrival ATIS] KDTW ARR ATIS C 0253Z - KDTW ARR INFO C 0253Z. 13003KT 10SM SCT150 BKN250 23/16 A3002 (THREE ZERO ZERO TWO). VISUAL RY 22R USE Z LOC FREQ 111.95 APCH IN USE. NOTICE TO AIRMEN. RWY 22L, 4R CLSD, RWY 21L, 3R CLSD, RWY 27L, 9R CLSD, RWY 27R, 9L CLSD. HAZD WX INFO . CNVTV SIG 45 C, FOR MI , AVBL ON FLIGHT SERVICE FREQS. PILOTS USE CTN FOR BIRD ACTIVITY. TWR AND GC COMB ON FREQ 118.4. DEPARTURE ATIS 118.125. ...ADVS YOU HAVE INFO C.\n[Departure ATIS] KDTW DEP ATIS Q 1253Z - KDTW DEP INFO Q 1253Z. 21015KT 10SM SCT080 BKN100 BKN200 19/09 A2979 (TWO NINER SEVEN NINER) RMK AO2 SLP086 T01890094. DEPG RWY 21R ;. NOTICE TO AIRMEN. RWY 22L, 4R CLSD, RWY 27L, 9R CLSD, RWY 27R, 9L CLSD. PILOTS USE CTN FOR BIRD ACTIVITY. ...ADVS YOU HAVE INFO Q.",
    "KMSP": "[Arrival ATIS] KMSP ARR ATIS I 1953Z MSP ARR INFO I 1953Z. 15020G26KT 10SM BKN033 BKN250 32/25 A2963 (TWO NINER SIX THREE). SIMULTANEOUS DEPENDENT, ILS RWY 12R APCH IN USE, LOCALIZER RWY 12L APCH IN USE. FINAL APCH, OVER NOISE SENSITIVE AREA. NOTICE TO AIRMEN. RWYS 4, 22 CLSD. TWY R7. R8. R9. R10. CLOSED, TWY R BETWEEN R6 AND R10 CLOSED, USE CAUTION, NUMEROUS TAXIWAY CLOSURES. GS RWY 12L OTS, RUNWAY STATUS LIGHTS OTS, MSP TDWR OTS, RWYS 12R, 12L, INNER MARKER OTS.. HAZD WX INFO FOR MSP AREA AVBL FM FSS. CTN, BIRDS NEAR MSP. READ BACK HS AND ALT. ALL ACFT TAXI WITH TRANSPONDER AND ALTITUDE ENCODING ON. ...ADVS YOU HAVE INFO I.\n[Departure ATIS] KMSP DEP ATIS R 1753Z - KMSP DEP INFO R 1753Z. 16014G25KT 10SM BKN027 BKN032 BKN250 31/24 A2965 (TWO NINER SIX FIVE). DEPARTING RWY 12L, RWY 12R, RWY 17. NOTICE TO AIRMEN. TWY R7. R8. R9. R10. CLOSED, TWY R BETWEEN R6 AND R10 CLOSED, USE CAUTION, NUMEROUS TAXIWAY CLOSURES. RUNWAY STATUS LIGHTS OTS, MSP TDWR OTS. ALL ACFT CTC METERING ON ONE THREE THREE POINT FIVE SEVEN WHEN READY TO PUSHBACK OR TAXI. CTN, BIRDS NEAR MSP. READ BACK HS AND ALT. ALL ACFT TAXI WITH TRANSPONDER AND ALTITUDE ENCODING ON. ...ADVS YOU HAVE INFO R.",
    "CYEG": "[Arrival ATIS] CYEG ARR ATIS C 2000Z 32004KT 8SM FEW024 CIG BKN060 OVC240 22/17 A2979 APCH RNAV Z OR Y RWY 02, INFORM ARRL OF REQ APCH ON INITIAL CTC. LDG AND DEP RWY 02. SIMUL APPROACHES MAY BE IN EFCT. INFORM CYEG ATC INFO C\n[Departure ATIS] CYEG DEP ATIS C 2000Z CYEG ARR ATIS C 2000Z 32004KT 8SM FEW024 CIG BKN060 OVC240 22/17 A2979 APCH RNAV Z OR Y RWY 02, INFORM ARRL OF REQ APCH ON INITIAL CTC. LDG AND DEP RWY 02. SIMUL APPROACHES MAY BE IN EFCT. INFORM CYEG ATC INFO C",
    "EHAM": "[Arrival ATIS] EHAM ARR ATIS B 0050Z EHAM ARRIVAL INFO B. DEMAND. MAIN LANDING RWY 06. TRANSITION LEVEL 040. WIND 200 DEG, 3 KT. CAVOK. T 15. DP 14. QNH 1017 HPA. NOSIG. OPERATIONAL REPORT. CONTACT APCH WITH CALLSIGN ONLY. END OF INFO B\n[Departure ATIS] EHAM DEP ATIS S 1359Z EHAM DEPARTURE INFO S. DEMAND. MAIN DEPARTURE RWY 36 L. SECONDARY DEPARTURE RWY 24. MAIN LANDING RWY 27. WIND 300 DEG, 8 KT, VRB BTN 250 AND 360 DEG, 13 KT MAX, 5 KT MNM. WIND SECONDARY RUNWAY 290 DEG, 9 KT, VRB BTN 250 AND 360 DEG, 15 KT MAX, 5 KT MNM. VIS 10 KM OR MORE. CLD FEW 4500 FT. T 22. DP 10. QNH 1025 HPA. OPERATIONAL REPORT. INFORM SCHIPHOL DEL BY VOICE IF UNABLE TO COMPLY WITH NADP 2. END OF INFO S",
    "EBBR": "[Arrival ATIS] EBBR ARR ATIS S 0050Z EBBR NAT, EXP VECT FOR RNP APP ARR RWY25R RSCD AT 2123 RWY25R DRY . DEP RWY25R RWY19 TRL 055 ILS RWY 25R U/S. ILS RWY 25L AVBL AT ATC DISCRETION 260/3KT CAVOK T16 DP15 QNH 1018HPA NOSIG CFM ARR S\n[Departure ATIS] EBBR DEP ATIS W 1350Z EBBR NAT, DEP RWY25R RSCD AT 1114 RWY25R DRY. ARR RWY25L TRL 055 TWY OUTER 6 B3 CLSD. RWY 19 CLSD 330/4KT VRB BTN 250 AND 050 MNM0 MAX9 CAVOK T24 DP13 QNH 1026HPA NOSIG CFM DEP W",
    "EDDF": "[Arrival ATIS] EDDF ARR ATIS F 0620Z -ARR-ATIS EDDF F METAR 240620 -EXPECT INDEPENDENT PARALLEL ILS Y APCH RWY 07L OR ILS APCH RWY 07R -RWY 07L 07R -GLS APCH ON REQUEST , -TRL 60 -ATTN: BIRDS IN THE VICINITY OF THE RUNWAYS -36004KT 320V050 -CAVOK - - -T26 DP18 -QNH1019 - -TREND NOSIG\n[Departure ATIS] EDDF DEP ATIS L 1820Z -DEP-ATIS EDDF L METAR 291820 - -RWY 07C 18 -RWY COND AT TIME 1300 : ALL RWYS DRY , RWYCC 6 , ACFT DEPARTING RWY18 : EXPECT POSSIBLE DEPARTURE FROM INTERSECTION M , TORA 3454 METERS. IF UNABLE , ADVISE TWR ON INITIAL CONTACT , -TRL 60 - -02008KT 350V050 RWY18 03008KT -9999 - -FEW047 -T27 DP16 -QNH1023 - -TREND NOSIG",
    "EDDL": "[Arrival ATIS] EDDL ARR ATIS F 1650Z ATIS EDDL F METAR 291650 EXPECT VECTORS ILS APPROACH RWY23R RWY 23L 23R TRL 60 EXPECT INTENSE BIRD ACTIVITY IN THE VICINITY OF RWY SYSTEM 32005KT 270V360 CAVOK T28 DP11 QNH1023 TREND NOSIG\n[Departure ATIS] EDDL DEP ATIS Y EDDL ARR/DEP DATIS RPT -ATIS EDDL Y METAR 231750 -EXPECT VECTORS ILS APPROACH -RWY 05R -ATTENTION, RISK OF TWY INCURSION WHEN TAXIING TO RWY05R, CHECK HOT SPOTS T1 AND L9 ON TAXI CHART -TRL 60 -EXPECT INTENSE BIRD ACTIVITY IN THE VICINITY OF RWY SYSTEM -VRB02KT -CAVOK - - -T30 DP17 -QNH1019 - -TREND NOSIG",
    "EDDK": "[Arrival ATIS] EDDK ARR ATIS P 0520Z ATIS EDDK P METAR 240520 EXPECT CDO FOR ILS APCH RWY 13L RWY 13L 06 RWY COND RWY 13L AT TIME 0020 RWYCC 6 DEPOSIT TOTAL RWY DRY RWY 06 AT TIME 0020 RWYCC 6 DEPOSIT TOTAL RWY DRY TRL 60 RWY 13R AND RWY 31L CLOSED FOR DEPARTURE AND LANDING: TAXIING BTN THR RWY 13R AND INTERSECTION RWY 24 POSSIBLE : VRB02KT CAVOK T21 DP18 QNH1019 TREND NOSIG\n[Departure ATIS] EDDK DEP ATIS Q EDDK ARR/DEP DATIS RPT -ATIS EDDK Q METAR 291920 -EXPECT ILS APCH -RWY 31R 06 -RWY COND RWY 31R AT TIME 1830 RWYCC 6 DEPOSIT TOTAL RWY DRY RWY 06 AT TIME 1830 RWYCC 6 DEPOSIT TOTAL RWY DRY -TRL 60 -RWY 13R AND RWY 31L CLOSED FOR DEPARTURE AND LANDING: TAXIING BTN THR RWY 13R AND INTERSECTION RWY 24 POSSIBLE : -04003KT -CAVOK - - -T24 DP13 -QNH1024 - -TREND NOSIG",
    "EBLG": "[Arrival ATIS] EBLG ATIS M 2350Z EBLG INFO, EXP RNAV TO ILS APP ARR RWY22L DEP RWY22L RWY 22L DRY, RWYCC 666. TRL 055 TWY A4 DISPLACED. ADZ ON GND FREQ IF UNABLE S4 260/2KT VIS ABV 10KM FEW2800FT T16 DP13 QNH 1019HPA NOSIG CFM ATIS M",
    "LSZH": "[Arrival ATIS] LSZH ARR ATIS I 1720Z ARRIVALS, EXP ILS APCH, RWY 14. RWY COND REPORT. RWY COND CODE 6, 6, 6. COVERAGE NR, NR, NR. DEPTH NR, NR, NR. DRY AND DRY AND DRY. RWY REPORT END. TRL 70. DEP RWY 28. WIND 070 DEG, 5 KT, VRB BTN 030 AND 100 DEG. VIS 10 KM OR MORE, TDZ 10 KM OR MORE. CLD FEW 5600 FT. T 29. DP 16. QNH 1022. NOSIG.\n[Departure ATIS] LSZH DEP ATIS O 1720Z DEP RWY 28. RWY COND REPORT. RWY 28. RWY COND CODE 6, 6, 6. COVERAGE NR, NR, NR. DEPTH NR, NR, NR. DRY AND DRY AND DRY. RWY 16. RWY COND CODE 6, 6, 6. COVERAGE NR, NR, NR. DEPTH NR, NR, NR. DRY AND DRY AND DRY. RWY REPORT END. TRL 70. ARRIVALS, EXP ILS APCH, RWY 14. TMA S 1 IS NOT ACT. TMA S 2 AND S 3 ARE NOT ACT. WIND 060 DEG, 5 KT, VRB BTN 030 AND 100 DEG. VIS 10 KM OR MORE. CLD FEW 5600 FT. T 29. DP 16. QNH 1022. NOSIG.",
    "LIMC": "[Arrival ATIS] LIMC ARR ATIS F 0104Z LIMC ARR F 0104Z I.L.S. ZULU RWY IN USE 35R TL 70 INTERSECTION ECHO WHISKY CLOSED... RWY 3 5 LEFT CLOSED UNTIL 0 3 3 0 HOURS WIND TDZ 350/3KT CAVOK T19 DP15 QNH 1019HPA QFE 0994HPA\n[Departure ATIS] LIMC DEP ATIS Y 2207Z LIMC DEP Y 2207Z RWY IN USE 17L TL 70 INTERSECTION ECHO WHISKY CLOSED.. WIND END 350/4KT VRB BTN 330/AND 030/ CAVOK T21 DP15 QNH 1019HPA QFE 0991HPA DATALINK CLEARANCE AVAILABLE.... CONTACT 1 3 1 8 8 0 TO BE RELEASED BY THE AIRPORT OPERATOR ...",
    "LIRF": "[Arrival ATIS] LIRF ARR ATIS G 1651Z LIRF ARR G 1651Z RWY 16L ILS X RWY 16R ILS Z RWY IN USE 16L 16R TL 70 DEPENDENT PARL ILS APCH INPR RWY IN USE 16R OR 16L ASSIGNED BY ROME RADAR WIND RWY 16L TDZ 060/3KT VRB BTN 340/AND 070/ RWY 16R TDZ VRB2KT VRB BTN 270/AND 010/ VIS RWY 16L 10KM RWY 16R 10KM CLD RWY 16L FEW TCU 2000FT RWY 16R FEW 3500FT T29 DP23 QNH 1015HPA RRSM\n[Departure ATIS] LIRF DEP ATIS P 1950Z LIRF DEP P 1950Z RWY IN USE 25 TL 70 RWYS IN USE FOR ARR 16L AND 16R WIND END VRB2KT VRB BTN 100/AND 170/ VIS 10KM FBL DZ CLD NSC T28 DP18 QNH 1015HPA REA IS SENT AUTOMATICALLY ONCE RLSD BY RAMP WHEN READY CONTACT FIUME RAMP 121.725",
    "EINN": "[Arrival ATIS] EINN ARR ATIS N 0000Z EXPECT I L S CATEGORY 1 LDG RWY24 TKOF RWY24 TRL FL065 21006KT 9999 -RA FEW028 BKN060 BKN100 14/12 QNH Q1010 TREND NOSIG RUNWAY 2 4 SURFACE CONDITION CODE. 5 5 5. ISSUED AT 2235 ZULU. ALL PARTS. WET. 100 PERCENT ADVISE AT FIRST CONTACT YOU HAVE ATIS INFO N",
    "EGLL": "[Arrival ATIS] EGLL ARR ATIS A 1720Z LANDING RWY 27L TRANSITION-LEVEL: FL 70 IF STAND GUIDANCE IS OFF OR FAILS, REMAIN ON THE TAXIWAY CENTRELINE AND ADVISE ATC AUTO 28009KT 250V310 9999 NCD 22/09 Q1025 ACKNOWLEDGE RECEIPT OF INFORMATION A\n[Departure ATIS] EGLL DEP ATIS T 2020Z RUNWAY 27R REDUCED DECLARED DISTANCES DEPARTURE RWY 27R PILOTS THAT ARE IN RECEIPT OF DATALINK CLEARANCES ARE REMINDED THEY MUST CONTACT DELIVERY ON 121.980 WHEN READY FOR START AUTO 27008KT 260V320 9999 NCD 21/10 Q1025 ACKNOWLEDGE RECEIPT OF INFORMATION T AND REPORT AIRCRAFT TYPE AND CURRENT QNH ON FIRST CONTACT WITH HEATHROW",
    "EPWA": "[Arrival ATIS] EPWA ARR ATIS F 0601Z EPWA ARR F. TIME 0600. EXP U ARR ILS Z APCH FOR RWY 33. TRANSITION LEVEL 80. WIND 250 DEG, 3 KT, VRB BTN 180 AND 270 DEG. CAVOK. T 19. DP 12. QNH 1019. NOSIG. CAUTION. BIRD ACT. END OF EPWA ARR F\n[Departure ATIS] EPWA DEP ATIS U 0601Z EPWA DEP U. TIME 0600. DEP RWY 29. ARR RWY 33, EXP U ARR ILS Z. REPORT READY FOR STARTUP ON DELIVERY 121 DECIMAL 605. TRANSITION LEVEL 80. WIND 240 DEG, 5 KT, VRB BTN 210 AND 270 DEG. CAVOK. T 19. DP 12. QNH 1019. NOSIG. CAUTION. BIRD ACT. END OF EPWA DEP U",
    "EFHK": "[Arrival ATIS] EFHK ARR ATIS F 2350Z EXPECT ILS APCH ARR RWY 22L RUNWAY 22L CONDITION REPORT AT 2100 UTC RUNWAY CONDITION CODES 6 , 6 , 6 CONTAMINANTS ALL PARTS DRY TRL 65 WIND 300 DEG 9 KT VIS 10KM SCT 1500 FT T 15 DP 12 QNH 1000 TEMPO CLD BKN 1400 FT. ACK INFO F\n[Departure ATIS] EFHK DEP ATIS O 2100Z DEP RWY 22R RUNWAY 22R CONDITION REPORT AT 2059 UTC RUNWAY CONDITION CODES 6 , 6 , 6 CONTAMINANTS ALL PARTS DRY WIND 300 DEG 4 KT VRB BTN 260 AND 330 DEG CAVOK T 16 DP 10 QNH 1000 NOSIG ACK INFO O",
    "LTAC": "[Arrival ATIS] LTAC ARR ATIS G 2020Z EXP ILS V APCH 03C DEP RWY 03L RWY 03C WIND 090 DEG 05 KT VRB BTN 070 DEG AND 130 DEG RWY 03L WIND 090 DEG 05 KT VRB BTN 060 DEG AND 120 DEG TRL 110 CAVOK T 21 DP 10 QNH 1018 NOSIG FOR DELIVERY CTC 121.9. FOR DELIVERY FIRST USE DIGITAL DEP CLR. CTN BIRD HAZARD OVR AERODROME. APCH FREQUENCY 129.050. TAXIWAY ECHO 1 IS CLOSED. END OF ATIS G",
    "UBBB": "[Arrival ATIS] UBBB ARR ATIS E 0100Z ATIS E EXP ILS/ LDG 16 17 DEP 16 17 IN USE RWY 16 CLEAR DRY 70 RWY 17 CLEAR DRY 70 TLVL 110 WIND WIND RWY 16 CALM WIND RWY 17 260 2 KT SPD MAX 2 MIN 0 VIS 7 KM NSC T 21 / DP 19 QNH 1016 HPA TREND TREND NOSIG MODERATE BIRDS ACT IN VICINITY OF AP END OF ATIS E\n[Departure ATIS] UBBB DEP ATIS C 1800Z ATIS C EXP ILS/ LDG 34 DEP 34 35 IN USE RWY 34 CLEAR DRY 70 RWY 35 CLEAR DRY 70 TLVL 110 WIND WIND RWY 34 330 4 KT SPD MAX 4 MIN 4 WIND RWY 35 320 4 KT SPD MAX 6 MIN 4 VIS CAVOK T 21 / DP 17 QNH 1014 HPA TREND TREND NOSIG MODERATE BIRDS ACT IN VICINITY OF AP END OF ATIS C",
    "ZWWW": "[Arrival ATIS] ZWWW ARR ATIS W 2000Z EXP ILSDME Z APCH LDG RWY 26R TA 3000 WIND 170/3MPS CAVOK T 26 /DP 12 QNH 1011 HPA ADZ YOU HAVE INFO W.\n[Departure ATIS] ZWWW DEP ATIS T 0630Z DEP RWY 26L TA 3000 WIND 020/4MPS VRB BTN 350/ AND 050/ CAVOK T 34 /DP 07 QNH 1008 HPA FLOCKS ACTIVITY IN VICINITY OF AERODROME ADZ YOU HAVE INFO T.",
    "ZLXY": "[Arrival ATIS] ZLXY ARR ATIS J 0000Z EXP ILS APCH LDG RWY 05L & 06L WIND 040/4MPS CAVOK T 26 /DP 18 QNH 1008 HPA VISUAL APPROACH IN PROGRESS ADZ YOU HAVE INFO J.\n[Departure ATIS] ZLXY DEP ATIS P 0900Z DEP RWY 05L & 06L WIND 080/4MPS VRB BTN 030/ AND 120/ VIS 9999M CLD FEW 1500M /FEW TCU 1500M T 34 /DP 17 QNH 1005 HPA VISUAL APPROACH IN PROGRESS ADZ YOU HAVE INFO P.",
    "ZBAA": "[Arrival ATIS] ZBAA ARR ATIS Y 2030Z EXP ILS APCH DEPENDENT PARL INSTR APCH LDG RWY 36L & 36R RWY 01 IS CLSD WIND 130 DEG 2 MPS 090V180 DEG VIS 8000 -TSRA CLD FEW 600M /BKN 1200M /FEW CB 1200M T 20 /DP 19 QNH 1008 HPA RWY 36L RWYCC 5/5/5 ISSUED AT 1530 ALL PARTS NR NR NR RWY 36R RWYCC 5/5/5 ISSUED AT 1530 ALL PARTS NR NR NR ADZ YOU HAVE INFO Y.\n[Departure ATIS] ZBAA DEP ATIS R 0030Z DEP RWY 36L & 36R & 01 WIND 010 DEG 2 MPS 320V080 DEG VIS 7000 NSC T 25 /DP 20 QNH 1009 HPA RWY INDEPENDENT PARALLEL DEP RWY 36L RWYCC 5/5/5 ISSUED AT 2142 ALL PARTS WET NR 100PCT RWY 36R RWYCC 5/5/5 ISSUED AT 2142 ALL PARTS WET NR 100PCT ADZ YOU HAVE INFO R.",
    "ZBHH": "[Arrival ATIS] ZBHH ARR ATIS G 1700Z EXP ILSDME APCH LDG RWY 26 TA 3000 /TRL 3600 WIND VRB/1MPS VIS 9999M CLD FEW 1200M T 18 /DP 15 QNH 1012 HPA ADZ YOU HAVE INFO G.\n[Departure ATIS] ZBHH DEP ATIS K 0100Z DEP RWY 26 TA 3000 /TRL 3600 WIND VRB/2MPS CAVOK T 23 /DP 08 QNH 1010 HPA ADZ YOU HAVE INFO K.",
    "ZSQD": "[Arrival ATIS] ZSQD ARR ATIS D 2300Z EXP ILSDME APCH LDG RWY 17 TA 3000 /TRL 3600 WIND 150/5MPS VIS 9999M CLD SCT 330M T 22 /DP 20 QNH 1009 HPA VISUAL APPROACH OPERATION IN PROGRESS. RUNWAY 17,IF MISSED APPROACH,EXPECT FOLLOW THE STANDARD MISSED APPROACH PROCEDURE,CLIMB TO 900M ON QNH OR BY ATC CAUTION MAYBE THERE IS A FLOCK OF BIRDS IN THE VICINITY OF AIRPORT ADZ YOU HAVE INFO D.\n[Departure ATIS] ZSQD DEP ATIS F 0002Z DEP RWY 16 TA 3000 /TRL 3600 WIND 160/5MPS VIS 9999M CLD FEW 900M T 24 /DP 20 QNH 1009 HPA SEGREGATED OPERATION VISUAL APPROACH OPERATION IN PROGRESS. RUNWAY 17,IF MISSED APPROACH,EXPECT FOLLOW THE STANDARD MISSED APPROACH PROCEDURE,CLIMB TO 900M ON QNH OR BY ATC CAUTION MAYBE THERE IS A FLOCK OF BIRDS IN THE VICINITY OF AIRPORT ADZ YOU HAVE INFO F."
  },
  "windtemp_alaska": "\n000\nFBAK31 KWNO 292000\nFD1AK1\nDATA BASED ON 291800Z    \nVALID 300000Z   FOR USE 2000-0300Z. TEMPS NEG ABV 24000\n\nFT  3000    6000    9000   12000   18000   24000  30000  34000  39000\nADK 1632 1727+07 2025+04 2025-01 1928-13 2044-23 226339 218346 228749\nADQ 2719 2620-02 2620-05 2628-10 2641-23 2649-34 265645 275745 264644\nAKN 2522 2521-04 2617-06 2623-12 2536-25 2649-35 265444 264843 263942\nANC 2005 1809+00 1811-06 1713-11 2122-23 2123-35 192349 212146 241941\nANN 3217 3211+02 3217+00 3115-05 3217-19 3219-31 311244 301447 281446\nBET 2416 2613-04 2614-10 2717-14 2822-26 3030-38 302941 292640 282240\nBRW 2616 2915+00 2620-03 2523-07 2322-19 2222-30 213346 213055 221648\nBTI 3208 3621-01 0116-03 2305-06 9900-18 0710-31 041747 141148 191845\nBTT 2618 2723+00 2621-05 2613-10 9900-21 1207-31 113047 111251 170944\nCDB 2209 2521+01 2526-04 2626-08 2644-17 2664-26 277340 277348 276755\nCZF 2613 2609-03 2909-08 3212-12 3417-23 3521-34 352844 332246 301742\nEHM 2619 2717-04 2717-08 2721-12 2738-24 2844-34 284843 284843 274142\nFAI 2412 2611+01 2411-05 2216-11 2017-23 1817-33 161946 162352 171343\nFYU 2523 2628+00 2733-04 2627-09 2418-21 2413-32 240947 211249 181544\nGAL 2107 9900-01 2107-07 1713-14 1312-24 1122-34 103846 112447 180642\nGKN 1815 1917+01 2210-05 2406-11 2214-22 2118-34 162748 172648 211843\nHOM 2419 2521-02 2415-08 2217-11 2324-24 2326-36 253046 253245 252942\nJNU 2506 2707+00 2907-01 2909-06 2615-20 2618-30 311446 271350 221546\nLUR 2307 2907+01 2811-04 2614-07 2511-20 2112-31 201947 201654 230847\nMCG 2113 2213-03 2110-09 1914-13 1820-26 1721-37 162146 171543 231241\nMDO 2608 3007+00 2506-04 2515-08 2321-22 2425-35 242848 253246 252943\nOME 2110 2110-03 9900-06 0206-11 0416-21 0521-32 083347 062250 990043\nORT      2607+04 2709-03 2408-10 2113-22 2018-32 182546 172952 192044\nOTZ 2219 2219-01 2209-04 9900-09 0712-20 0817-31 081447 081052 990046\nSNP 1910 1806-02 2512-04 2718-08 2827-19 2842-29 278139 278048 275250\nTKA 1910 2013+00 2118-06 1920-12 2020-24 2024-35 173148 182047 221541\nUNK 2106 1913-03 1915-09 1613-14 0914-24 0917-35 083145 081645 990041\nYAK 2609 2713+00 2716-04 2616-08 2621-20 2422-33 202546 212348 241946\nIKO 1619 2017+03 2428+00 2438-03 2640-13 2652-23 276339 760346 279253\nAFM 2409 2521-01 2417-06 2208-10 1008-20 0912-31 102247 101952 150745\n5AB 1625 1629+03 1535+02 1534-03 1732-14 1831-26 183442 193445 203744\n5AC 3327 3231+04 3231+01 3135-04 3142-18 3051-27 304942 305349 294654\n5AD 2625 2625+03 2729-01 2731-06 2744-17 2856-28 286342 297751 285855\n5AE 2620 2628+02 2634-02 2634-08 2648-18 2672-27 278640 278549 276654\n5AF 3120 3121+03 3125-01 3025-06 3027-19 3032-30 294743 294551 292750\n5AG 2620 2621+02 2625-03 2630-07 2527-20 2533-33 264348 254047 262946\n",
  "vaac_tokyo": [
    {
      "id": "20260629_30027000_0211",
      "year": "2026",
      "volcano": "Sheveluch",
      "psn": "N5639 E16122",
      "issued": "20260629",
      "text": "FVFE01 RJTD 291800\nVA ADVISORY\nDTG: 20260629/1800Z\nVAAC: TOKYO\nVOLCANO: SHEVELUCH 300270\nPSN: N5639 E16122\nAREA: RUSSIA\nSOURCE ELEV: 3283M AMSL\nADVISORY NR: 2026/211\nINFO SOURCE: HIMAWARI-9\nERUPTION DETAILS: VA CONTINUOUSLY OBS IN SATELLITE IMAGERY\nOBS VA DTG: 29/1720Z\nOBS VA CLD: SFC/FL330 N5712 E16010 - N5722 E16011 - N5724 E16032 - \nN5715 E16033 MOV NW 25KT\nFCST VA CLD +6 HR: 29/2320Z SFC/FL340 N5937 E15948 - N5850 E15945 - \nN5834 E15831 - N5844 E15753 - N5903 E15845 - N5933 E15853\nFCST VA CLD +12 HR: 30/0520Z SFC/FL340 N6021 E16035 - N6012 E16123 - \nN5916 E15827 - N5929 E15615 - N5952 E15710 - N5943 E15846\nFCST VA CLD +18 HR: 30/1120Z SFC/FL340 N5937 E16327 - N5915 E16357 - \nN5851 E15830 - N5934 E15556 - N5952 E15638 - N5919 E15929\nRMK: SOME PART OF VA OBSCURED BY MET CLOUD.\nNXT ADVISORY: 20260629/2100Z=",
      "img_url": "https://ds.data.jma.go.jp/svd/vaac/data/VAGFN/2026/Images/20260629_30027000_0211_QH21_01.png",
      "sat_img_url": "https://ds.data.jma.go.jp/svd/vaac/data/Sat/2026/Images/30027000/09-ir/20260629_1720_202606291800_ir.png",
      "text_url": "https://ds.data.jma.go.jp/svd/vaac/data/TextData/2026/20260629_30027000_0211_Text.html"
    },
    {
      "id": "20260628_27303000_0707",
      "year": "2026",
      "volcano": "Mayon",
      "psn": "N1315 E12341",
      "issued": "20260628",
      "text": "FVFE01 RJTD 281019\nVA ADVISORY\nDTG: 20260628/1019Z\nVAAC: TOKYO\nVOLCANO: MAYON 273030\nPSN: N1315 E12341\nAREA: PHILIPPINES\nSOURCE ELEV: 2462M AMSL\nADVISORY NR: 2026/707\nINFO SOURCE: HIMAWARI-9 PHIVOLCS\nERUPTION DETAILS: ERUPTION AT 20260628/0950Z FL120 EXTD WSW REPORTED\nOBS VA DTG: 28/1000Z\nOBS VA CLD: VA NOT IDENTIFIABLE FM SATELLITE DATA WIND FL120 050/10KT\nFCST VA CLD +6 HR: NOT AVBL\nFCST VA CLD +12 HR: NOT AVBL\nFCST VA CLD +18 HR: NOT AVBL\nRMK: WE WILL ISSUE FURTHER ADVISORY IF VA IS DETECTED IN SATELLITE \nIMAGERY.\nNXT ADVISORY: NO FURTHER ADVISORIES=",
      "img_url": "https://ds.data.jma.go.jp/svd/vaac/data/VAGFN/2026/Images/20260628_27303000_0707_QH21_01.png",
      "sat_img_url": null,
      "text_url": "https://ds.data.jma.go.jp/svd/vaac/data/TextData/2026/20260628_27303000_0707_Text.html"
    },
    {
      "id": "20260621_28208001_0077",
      "year": "2026",
      "volcano": null,
      "psn": "N3136 E13039",
      "issued": "20260621",
      "text": "FVFE01 RJTD 211018\nVA ADVISORY\nDTG: 20260621/1018Z\nVAAC: TOKYO\nVOLCANO: SAKURAJIMA (AIRA CALDERA) 282080\nPSN: N3136 E13039\nAREA: JAPAN\nSOURCE ELEV: 1117M AMSL\nADVISORY NR: 2026/77\nINFO SOURCE: JMA HIMAWARI-9\nERUPTION DETAILS: EXPLODED AT 20260621/0955Z FL090 EXTD SE\nOBS VA DTG: 21/1000Z\nOBS VA CLD: VA NOT IDENTIFIABLE FM SATELLITE DATA WIND FL090 280/26KT\nFCST VA CLD +6 HR: NOT AVBL\nFCST VA CLD +12 HR: NOT AVBL\nFCST VA CLD +18 HR: NOT AVBL\nRMK: WE WILL ISSUE FURTHER ADVISORY IF VA IS DETECTED IN SATELLITE \nIMAGERY.\nNXT ADVISORY: NO FURTHER ADVISORIES=",
      "img_url": "https://ds.data.jma.go.jp/svd/vaac/data/VAGFN/2026/Images/20260621_28208001_0077_QH21_01.png",
      "sat_img_url": null,
      "text_url": "https://ds.data.jma.go.jp/svd/vaac/data/TextData/2026/20260621_28208001_0077_Text.html"
    },
    {
      "id": "20260619_27202000_0220",
      "year": "2026",
      "volcano": "Kanlaon",
      "psn": "N1025 E12308",
      "issued": "20260619",
      "text": "FVFE01 RJTD 191816\nVA ADVISORY\nDTG: 20260619/1816Z\nVAAC: TOKYO\nVOLCANO: KANLAON 272020\nPSN: N1025 E12308\nAREA: PHILIPPINES\nSOURCE ELEV: 2435M AMSL\nADVISORY NR: 2026/220\nINFO SOURCE: HIMAWARI-9 PHIVOLCS\nERUPTION DETAILS: ERUPTION AT 20260619/1746Z FL100 EXTD SW REPORTED\nOBS VA DTG: 19/1750Z\nOBS VA CLD: VA NOT IDENTIFIABLE FM SATELLITE DATA WIND FL100 050/6KT\nFCST VA CLD +6 HR: NOT AVBL\nFCST VA CLD +12 HR: NOT AVBL\nFCST VA CLD +18 HR: NOT AVBL\nRMK: WE WILL ISSUE FURTHER ADVISORY IF VA IS DETECTED IN SATELLITE \nIMAGERY.\nNXT ADVISORY: NO FURTHER ADVISORIES=",
      "img_url": "https://ds.data.jma.go.jp/svd/vaac/data/VAGFN/2026/Images/20260619_27202000_0220_QH21_01.png",
      "sat_img_url": null,
      "text_url": "https://ds.data.jma.go.jp/svd/vaac/data/TextData/2026/20260619_27202000_0220_Text.html"
    }
  ],
  "vaac_alaska": [
    {
      "text": "\n000\nFVAK21 PAWU 291810\nVAAAK1\nVA ADVISORY\n\nDTG: 20260629/1806Z\n\nVAAC: ANCHORAGE\n\nVOLCANO: SHEVELUCH 300270\n\nPSN: N5639 E16122\n\nAREA: KAMCHATKA PENINSULA\n\nSOURCE ELEV: 10771 FT AMSL\n\nADVISORY NR: 2026/162\n\nRMK: PLEASE SEE FVFE01 RJTD ISSUED BY VAAC TOKYO WHICH DESCRIBES\nCONDITIONS NEAR THE VAAC ANCHORAGE AREA OF RESPONSIBILITY...BS\n\n\n\n",
      "issued": "2026-06-29T18:10:00+00:00",
      "volcano": "Sheveluch",
      "psn": "N5639 E16122"
    }
  ]
}