{
  "updated_utc": "2026-07-16T02:01Z",
  "metar": {
    "RJAA": "METAR RJAA 160030Z 19003KT 8000 FEW013 BKN015 28/25 Q1001 NOSIG",
    "PANC": "METAR PANC 160053Z 19009G17KT 140V250 10SM BKN055 17/08 A2996 RMK AO2 SLP145 T01670078",
    "PAFA": "METAR PAFA 160053Z 28008KT 10SM FEW042 FEW065 BKN080 BKN180 16/09 A2980 RMK AO2 RAE20 SLP094 P0000 T01560089",
    "PAED": "SPECI PAED 160038Z COR 20014G20KT 10SM BKN040 BKN050 BKN090 18/07 A2994 RMK AO2A SLP135 $ COR 0039",
    "KSEA": "METAR KSEA 160053Z 33010KT 10SM FEW050 SCT130 BKN230 28/07 A2998 RMK AO2 SLP155 T02780067 $",
    "ZSPD": "METAR ZSPD 160030Z 23004MPS CAVOK 36/25 Q1003 NOSIG",
    "ZSSS": "METAR ZSSS 160030Z 24004MPS 210V280 CAVOK 35/24 Q1003 NOSIG",
    "RJFR": "METAR RJFR 160100Z 28011KT 9999 FEW025 32/26 Q1003",
    "VHHH": "SPECI VHHH 160015Z VRB05KT 1100 0600W R07R/0550D R25L/1700D R07L/P2000D R25R/P2000U +SHRA FEW008 FEW015CB SCT022 26/24 Q1007 TEMPO VRB15G25KT 1500 TSRA +SHRA FEW008CB SCT015",
    "RCTP": "METAR RCTP 160030Z 23013KT 9999 FEW015 SCT200 31/25 Q1008 NOSIG RMK A2979",
    "ZGSZ": "METAR ZGSZ 160100Z 17007MPS 9999 -SHRA SCT010 BKN033 27/26 Q1007 NOSIG",
    "WSSS": "METAR WSSS 160030Z 10007KT 080V140 9999 FEW015 FEW018TCU BKN300 29/25 Q1012 NOSIG",
    "WMKK": "METAR WMKK 160030Z 07004KT 360V160 9000 FEW017CB 29/25 Q1011 NOSIG",
    "WIDD": "METAR WIDD 160030Z 10003KT 9000 SCT014 28/26 Q1012 NOSIG",
    "VTBS": "METAR VTBS 160030Z 20006KT 9999 -RA FEW020 29/23 Q1011 NOSIG",
    "VTBU": "METAR VTBU 160030Z 23005KT 9999 FEW020 SCT100 29/27 Q1011 NOSIG",
    "ROAH": "METAR ROAH 160030Z 23009KT 9999 SCT005 BKN009 29/27 Q1009",
    "VVDN": "METAR VVDN 160030Z VRB02KT 9999 -RA FEW020 BKN060 31/22 Q1007 NOSIG",
    "RCKH": "METAR RCKH 160030Z 17005KT 120V210 9999 FEW018 SCT220 31/24 Q1010 NOSIG RMK A2984",
    "KLAX": "METAR KLAX 160053Z 26010KT 10SM FEW100 FEW250 24/17 A2977 RMK AO2 SLP081 T02440172 $",
    "KONT": "METAR KONT 160053Z 24012G19KT 10SM FEW120 FEW250 36/14 A2977 RMK AO2 SLP059 T03610144",
    "KSFO": "METAR KSFO 160056Z 29020KT 10SM CLR 20/11 A2991 RMK AO2 PK WND 30028/0003 SLP127 T02000106",
    "KOAK": "METAR KOAK 160053Z 25010KT 10SM CLR 21/12 A2990 RMK AO2 SLP126 T02060122",
    "KMHR": "METAR KMHR 160015Z AUTO 21012G19KT 10SM CLR 39/09 A2978 RMK AO2 T03930090 $",
    "KDFW": "METAR KDFW 160053Z 19008KT 10SM FEW025 FEW090 SCT200 BKN250 26/21 A3003 RMK AO2 SLP159 T02560206 $",
    "KIAH": "METAR KIAH 160053Z 12005KT 10SM BKN140 BKN200 OVC250 27/25 A3002 RMK AO2 SLP165 T02720250",
    "KORD": "METAR KORD 160051Z 27005KT 10SM FEW047 BKN300 32/22 A3002 RMK AO2 SLP158 T03170217",
    "KJFK": "SPECI KJFK 160039Z 02005KT 5SM FU BKN037 OVC300 27/20 A2986 RMK AO2 FU OVC300 T02720200",
    "KRFD": "METAR KRFD 160054Z 21003KT 10SM FEW047 SCT250 30/24 A3005 RMK AO2 SLP168 T03000239",
    "KIND": "METAR KIND 160054Z 29006KT 10SM FEW050 BKN300 30/21 A3005 RMK AO2 SLP167 FU ALF T03000211",
    "KDTW": "METAR KDTW 160053Z 11009KT 6SM FU FEW000 SCT060 OVC200 29/23 A2998 RMK AO2 SLP147 FU FEW000 CB DSNT NW MOV SE T02940228",
    "KMSP": "METAR KMSP 160053Z 03008KT 4SM FU FEW055 BKN250 31/20 A3006 RMK AO2 SLP172 T03060200",
    "CYEG": "METAR CYEG 160100Z 30003KT 20SM FEW140 BKN220 23/20 A3001 RMK AC2CI5 SLP164 DENSITY ALT 3700FT",
    "EHAM": "METAR EHAM 160025Z 03007KT 350V070 CAVOK 20/16 Q1021 NOSIG",
    "EBBR": "METAR EBBR 160020Z 04003KT CAVOK 18/11 Q1020 NOSIG",
    "EDDF": "METAR EDDF 160020Z AUTO 02008KT CAVOK 22/11 Q1019 NOSIG",
    "EDFH": "METAR EDFH 160020Z 09004KT 040V140 CAVOK 19/11 Q1020",
    "EDDL": "METAR EDDL 160020Z AUTO 03004KT CAVOK 19/12 Q1020 NOSIG",
    "EDDK": "METAR EDDK 160020Z AUTO VRB01KT CAVOK 18/11 Q1019 NOSIG",
    "EBLG": "METAR EBLG 160020Z 04006KT CAVOK 19/10 Q1020 NOSIG",
    "LSZH": "METAR LSZH 160020Z AUTO 24006KT CAVOK 18/17 Q1021 NOSIG",
    "LIMC": "METAR LIMC 160020Z VRB01KT CAVOK 22/19 Q1018 NOSIG",
    "LIRF": "METAR LIRF 160020Z 07009KT CAVOK 26/24 Q1016 NOSIG",
    "EINN": "METAR EINN 160030Z 09002KT CAVOK 20/15 Q1023 NOSIG",
    "EGLL": "METAR EGLL 160020Z 05006KT 010V080 CAVOK 19/13 Q1023",
    "EGSS": "METAR EGSS 160020Z AUTO 01007KT 9999 NCD 15/14 Q1023",
    "EPWA": "METAR EPWA 160030Z 04008KT CAVOK 20/16 Q1021 NOSIG",
    "UHPP": "METAR UHPP 160030Z 17003MPS 9999 OVC009 16/13 Q1018 R16R/CLRD62 NOSIG RMK MT OBSC QFE760/1013",
    "EFHK": "METAR EFHK 160020Z 34007KT CAVOK 17/11 Q1020 NOSIG",
    "LBBG": "METAR LBBG 160030Z AUTO 24005KT 9999 NCD 21/17 Q1016 NOSIG",
    "LTAC": "METAR LTAC 160020Z 04011KT CAVOK 18/12 Q1018 NOSIG RMK RWY21C 04009KT RWY03L 03011KT RWY21R 02008KT RWY03R 02009KT RWY21L 04009KT",
    "UBBB": "METAR UBBB 160030Z 33018KT CAVOK 26/20 Q1009 NOSIG",
    "UTAA": "METAR UTAA 160100Z 29016KT 6000 NSC 31/18 Q1006 R88/CLRD70 NOSIG",
    "UACC": "METAR UACC 160030Z 22005MPS 9999 FEW046 21/15 Q1004 NOSIG RMK QFE722/0963",
    "UAAA": "METAR UAAA 160030Z VRB01MPS 9999 NSC 22/09 Q1009 NOSIG",
    "UZTT": "METAR UZTT 160030Z 11006KT CAVOK 27/11 Q1006 NOSIG",
    "ZWWW": "METAR ZWWW 160030Z 17003MPS 150V210 CAVOK 28/08 Q1009 NOSIG",
    "ZLXY": "METAR ZLXY 160100Z 06005MPS 030V090 CAVOK 29/23 Q1004 NOSIG",
    "ZBAA": "METAR ZBAA 160030Z 35004MPS 330V030 CAVOK 27/20 Q1003 NOSIG",
    "ZBHH": "METAR ZBHH 160100Z VRB01MPS 9999 SCT040 22/12 Q1010 NOSIG",
    "ZSQD": "METAR ZSQD 160100Z VRB01MPS 6000 SCT008 OVC026 24/24 Q1003 NOSIG",
    "ZMCK": "METAR ZMCK 160030Z VRB02MPS 9999 SCT030CB SCT033 18/12 Q1011 NOSIG RMK QFE643.5 67 MOP",
    "UUEE": "METAR UUEE 160030Z 29005MPS CAVOK 16/14 Q1011 R24C/290145 NOSIG",
    "UUDD": "METAR UUDD 160030Z 30005MPS CAVOK 16/16 Q1011 R31L/CLRD65 NOSIG",
    "ULLI": "METAR ULLI 160030Z 03004MPS 350V070 CAVOK 18/11 Q1018 R88/090065 NOSIG",
    "USSS": "METAR USSS 160030Z VRB01MPS 9999 SCT007 OVC014CB 15/15 Q0996 R26L/290050 R26R/290040 NOSIG RMK QFE726/0969",
    "UNNT": "METAR UNNT 160030Z 12003MPS CAVOK 21/15 Q1006 R25/CLRD// R34/CLRD// NOSIG RMK QFE745/0993",
    "UNKL": "METAR UNKL 160030Z 00000MPS CAVOK 16/12 Q1009 R29/CLRD// NOSIG RMK QFE732",
    "UIBB": "SPECI UIBB 160014Z 25002MPS 190V300 9999 BKN006 14/12 Q1008 R30/CLRD62 NOSIG RMK QBB190 MT OBSC QFE713/0951",
    "UEEE": "METAR UEEE 160030Z 05003MPS CAVOK 24/18 Q0997 R23/09//64 NOSIG RMK QFE739",
    "UHHH": "METAR UHHH 160030Z 22008MPS 9999 FEW028 24/17 Q0993 R88/090060 NOSIG RMK QFE738/0985",
    "UHSS": "SPECI UHSS 160013Z 19002MPS 6000 -SHRA BKN004 BKN///CB 21/21 Q0992 R19/250259 NOSIG RMK MT OBSC QFE743/0990"
  },
  "taf": {
    "RJAA": "TAF RJAA 152305Z 1600/1706 13010KT 9999 FEW020 BKN040 TEMPO 1615/1621 3000 BR FEW005 BKN008",
    "PANC": "TAF PANC 152342Z 1600/1706 19012G20KT P6SM VCSH FEW025 BKN050 FM160600 18008KT P6SM BKN080 FM161400 17007KT P6SM VCSH SCT030 OVC040 FM161800 16010KT P6SM -RA SCT025 OVC040",
    "PAFA": "TAF PAFA 152320Z 1600/1706 24005KT P6SM -RA FEW025 OVC050 FM160300 25008KT P6SM -RA BKN025 FM160600 22009G19KT P6SM -RA SCT025 OVC050 FM161200 23005KT P6SM BKN050",
    "PAED": "TAF PAED 152100Z 1521/1703 20012G18KT 9000 -SHRA SCT025 OVC040 620608 QNH2989INS BECMG 1607/1608 16009KT 9999 NSW SCT030 OVC045 620804 QNH3000INS BECMG 1619/1620 VRB06KT 9000 -RA FEW030 BKN046 OVC060 650809 QNH3001INS TX15/1601Z TN08/1613Z",
    "KSEA": "TAF KSEA 152333Z 1600/1706 33009KT P6SM FEW050 SCT250 FM160600 VRB04KT P6SM VCSH BKN150 FM161200 25005KT P6SM VCSH OVC100 FM161600 21005KT P6SM VCSH BKN025 OVC040 FM162000 23009KT P6SM VCSH OVC035",
    "ZSPD": "TAF ZSPD 152105Z 1600/1706 18004MPS 8000 SCT030 TX38/1606Z TX38/1706Z TN28/1621Z TEMPO 1606/1610 TSRA BKN008 SCT030CB",
    "ZSSS": "TAF ZSSS 152105Z 1600/1706 18004MPS 8000 SCT030 TX38/1606Z TX38/1706Z TN28/1621Z TEMPO 1606/1610 TSRA BKN011 SCT030CB",
    "RJFR": "TAF RJFR 152305Z 1600/1706 33010KT 9999 FEW045 BECMG 1618/1621 17004KT BECMG 1700/1703 01008KT",
    "VHHH": "TAF VHHH 160200Z 1603/1709 18010KT 9999 FEW010 SCT030 TX30/1606Z TX31/1706Z TN26/1622Z TEMPO 1603/1608 VRB15G30KT 2000 TSRA +SHRA FEW008CB SCT015 TEMPO 1608/1611 3000 SHRA FEW010CB SCT020 TEMPO 1617/1623 3000 SHRA FEW010CB SCT020 PROB30 TEMPO 1623/1705 24015G25KT 2500 TSRA SHRA FEW008CB SCT015",
    "RCTP": "TAF RCTP 152300Z 1600/1706 24010KT 9999 FEW010 BKN032 TEMPO 1600/1604 19005KT TEMPO 1604/1610 28015KT TEMPO 1612/1618 18005KT TEMPO 1618/1624 15005KT",
    "ZGSZ": "TAF ZGSZ 152107Z 1600/1706 18004MPS 8000 BKN040 TX30/1606Z TX31/1706Z TN26/1622Z TEMPO 1600/1603 SHRA FEW015 FEW020CB BKN030 TEMPO 1604/1608 2000 +SHRA SCT015 FEW020CB BKN030 TEMPO 1622/1701 SHRA FEW015 FEW020CB BKN030 TEMPO 1703/1706 SHRA FEW015 FEW020CB BKN030",
    "WSSS": "TAF WSSS 152300Z 1600/1706 14008KT 9999 FEW015 SCT020",
    "WMKK": "TAF WMKK 152300Z 1600/1706 11005KT 9999 FEW018",
    "VTBS": "TAF VTBS 152300Z 1600/1706 22008KT 9999 FEW020 TEMPO 1609/1614 VRB15KT 4000 TSRA FEW018CB SCT020 BKN080",
    "VTBU": "TAF VTBU 152300Z 1600/1624 24009KT 9999 FEW020 SCT100",
    "ROAH": "TAF ROAH 152305Z 1600/1706 24010KT 9999 FEW008 BKN012 TEMPO 1600/1602 FEW005 BKN008 TEMPO 1612/1615 FEW005 BKN008 TEMPO 1615/1621 FEW003 BKN005 TEMPO 1621/1703 FEW005 BKN008",
    "VVDN": "TAF VVDN 152300Z 1600/1624 24010KT 9999 FEW020 SCT060 BECMG 1605/1606 01010KT BECMG 1611/1612 22008KT",
    "RCKH": "TAF RCKH 152300Z 1600/1706 18005KT 9999 FEW010 BKN032 TEMPO 1600/1604 08005KT TEMPO 1604/1610 24008KT 5000 SHRA FEW010 BKN020 TEMPO 1619/1701 08005KT 4000 SHRA FEW010 BKN018 TEMPO 1701/1706 24005KT",
    "KLAX": "TAF KLAX 152350Z 1600/1706 26012KT P6SM SKC FM160300 26006KT P6SM SKC FM160900 11006KT P6SM SCT008 FM161800 24006KT P6SM FEW010 FM162000 26012KT P6SM SKC FM170300 26005KT P6SM SCT250",
    "KONT": "TAF KONT 152329Z 1600/1706 25012G22KT P6SM FEW120 FM160500 27005KT P6SM FEW120 FM160900 VRB03KT P6SM FEW200 FM161900 25014G22KT P6SM FEW150",
    "KSFO": "TAF KSFO 152331Z 1600/1706 29022G30KT P6SM SKC FM160600 29015KT P6SM SKC FM162000 30020G30KT P6SM SKC",
    "KOAK": "TAF KOAK 152331Z 1600/1706 28016KT P6SM SKC FM160600 28010KT P6SM SKC FM161300 26007KT P6SM SCT010 FM162000 28016KT P6SM SKC",
    "KMHR": "TAF KMHR 152320Z 1600/1624 24013G19KT P6SM SKC FM160200 23011KT P6SM SKC FM160500 17006KT P6SM SKC FM161800 20005KT P6SM SKC FM162100 23009KT P6SM SKC",
    "KDFW": "TAF KDFW 152330Z 1600/1706 18011KT P6SM FEW025 BKN100 TEMPO 1613/1615 BKN018 FM161700 17013KT P6SM VCSH SCT035 BKN100 FM162300 18013KT P6SM BKN070",
    "KIAH": "TAF KIAH 152338Z 1600/1706 11004KT P6SM FEW020 BKN160 BKN250 FM161500 16007KT P6SM SCT025 BKN035 BKN250 FM161800 15009KT P6SM SCT035 BKN050 BKN100 FM170200 15004KT P6SM FEW020 SCT250",
    "KORD": "TAF KORD 160143Z 1602/1706 26004KT P6SM BKN300 FM160300 05009KT P6SM BKN300 FM161100 07004KT 6SM FU BKN035",
    "KJFK": "TAF KJFK 160043Z 1601/1706 35007KT 4SM FU BKN250 TEMPO 1603/1604 6SM FU FM160400 30007KT 6SM FU BKN250 FM161500 28012G20KT 5SM FU BKN250 FM162300 31012G21KT 6SM FU BKN250 FM170100 34010KT P6SM SCT250",
    "KRFD": "TAF KRFD 152336Z 1600/1624 26006KT P6SM FEW045 BKN300 FM160200 00000KT P6SM BKN300 TEMPO 1608/1612 5SM BR BCFG FM161200 09003KT 6SM FU BKN035",
    "KIND": "TAF KIND 152320Z 1600/1706 26005KT P6SM FEW050 SCT250 FM160100 26003KT P6SM SCT250 FM161300 27004KT P6SM FEW050 SCT250 FM161800 23006KT P6SM SCT050 BKN200",
    "KDTW": "TAF KDTW 152320Z 1600/1706 31006KT 4SM FU SCT060 BKN150 PROB30 1600/1603 4SM -TSRA BKN060CB BKN150 FM160300 01005KT 2SM FU BKN030 BKN200 FM161400 35005KT 3SM FU BKN035 BKN200 FM170300 11004KT 6SM FU BKN200",
    "KMSP": "TAF KMSP 152320Z 1600/1706 03007KT 5SM FU SCT050 FM160300 08003KT 3SM FU FEW250 FM160900 11003KT 2SM FU FEW250 FM161400 17007KT 6SM FU SCT050 FM170200 13003KT P6SM FEW100",
    "CYEG": "TAF CYEG 152340Z 1600/1624 16008KT P6SM FEW030 BKN240 FM160300 16008KT P6SM SCT030 SCT220 TEMPO 1603/1606 VRB15G25KT P6SM -SHRA VCTS BKN030CB FM160600 VRB03KT P6SM SCT020 TEMPO 1606/1610 P6SM -RA BKN020 FM161000 VRB03KT P6SM SCT008 TEMPO 1610/1616 BKN008 PROB30 1610/1616 1SM BR BKN003 FM161600 VRB03KT P6SM FEW012 FM161800 VRB03KT P6SM SKC RMK NXT FCST BY 160300Z",
    "EHAM": "TAF EHAM 152312Z 1600/1706 04010KT CAVOK BECMG 1623/1702 33007KT PROB30 TEMPO 1702/1706 6000 BKN012",
    "EBBR": "TAF EBBR 152315Z 1600/1706 04008KT CAVOK",
    "EDDF": "TAF EDDF 152300Z 1600/1706 05008KT CAVOK BECMG 1612/1614 14006KT PROB30 TEMPO 1612/1618 20015G30KT TSRA SCT050CB BECMG 1614/1617 20005KT",
    "EDFH": "TAF EDFH 152300Z 1600/1624 10005KT CAVOK PROB40 TEMPO 1612/1615 20015G30KT TSRA SCT050CB BECMG 1615/1618 16006KT TEMPO 1615/1617 25020G40KT 2000 TSGRRA BKN040CB BECMG 1620/1623 23005KT",
    "EDDL": "TAF EDDL 152300Z 1600/1706 03005KT CAVOK BECMG 1600/1602 VRB03KT BECMG 1608/1611 02007KT BECMG 1622/1701 29004KT",
    "EDDK": "TAF EDDK 152300Z 1600/1706 VRB03KT CAVOK BECMG 1611/1614 01006KT PROB30 TEMPO 1612/1616 01015G25KT 3000 TSRA BKN050CB BECMG 1620/1623 16004KT PROB30 TEMPO 1700/1706 SHRA BKN040TCU",
    "EBLG": "TAF EBLG 152315Z 1600/1706 02005KT CAVOK",
    "LSZH": "TAF LSZH 152325Z 1600/1706 34006KT 9999 FEW070 TX31/1615Z TN17/1604Z TN17/1704Z PROB40 TEMPO 1600/1604 SHRA SCT050TCU PROB30 TEMPO 1600/1603 28010KT TSRA SCT050CB BECMG 1602/1605 CAVOK BECMG 1611/1614 9999 FEW060 BECMG 1615/1617 SCT050TCU PROB40 1615/1618 06006KT TEMPO 1616/1706 SHRA SCT040TCU PROB40 TEMPO 1616/1706 25015G25KT TSRA SCT040CB PROB30 TEMPO 1616/1620 30015G35KT 4500 TSGR",
    "LIMC": "TAF LIMC 152300Z 1600/1706 02010KT CAVOK PROB30 TEMPO 1600/1603 TSRA BECMG 1603/1605 VRB05KT BECMG 1618/1620 36010KT TEMPO 1620/1704 4000 TSRA BKN010",
    "LIRF": "TAF LIRF 152300Z 1600/1706 VRB05KT CAVOK TEMPO 1600/1606 3000 BCFG BECMG 1609/1611 28012KT BECMG 1618/1620 VRB05KT",
    "EINN": "TAF EINN 152300Z 1600/1624 13005KT CAVOK BECMG 1617/1619 33010KT BECMG 1622/1624 01008KT",
    "EGLL": "TAF EGLL 152311Z 1600/1706 03008KT 9999 FEW040 TEMPO 1603/1608 BKN012 PROB30 TEMPO 1603/1607 BKN009 BECMG 1615/1618 09010KT BECMG 1623/1702 03008KT",
    "EGSS": "TAF AMD EGSS 160101Z 1601/1706 02008KT CAVOK TEMPO 1601/1607 9000 BKN008 TEMPO 1700/1706 BKN008",
    "EPWA": "TAF EPWA 152330Z 1600/1624 04005KT CAVOK",
    "UHPP": "TAF UHPP 152255Z 1600/1706 18005G12MPS 6000 BKN020CB TEMPO 1600/1609 3000 -DZ BR VV003 TEMPO 1609/1621 0700 FG VV002 BECMG 1609/1612 35003G10MPS BECMG 1623/1702 17005G12MPS",
    "EFHK": "TAF EFHK 152327Z 1600/1624 30008KT CAVOK BECMG 1609/1611 18010KT BECMG 1622/1624 VRB02KT",
    "LBBG": "TAF LBBG 152300Z 1600/1624 VRB04KT 9999 SCT045 BECMG 1608/1610 12012KT TEMPO 1610/1617 5000 TSRA SCT030CB BKN040 BECMG 1617/1619 VRB04KT",
    "LTAC": "TAF LTAC 152240Z 1600/1624 VRB02KT CAVOK BECMG 1606/1608 04012KT SCT040 BECMG 1616/1618 CAVOK BECMG 1619/1621 VRB02KT",
    "UBBB": "TAF UBBB 152302Z 1600/1624 33022G32KT 9999 SCT015 FEW050CB TX29/1610Z TN24/1601Z TEMPO 1600/1606 34026G36KT BECMG 1608/1610 35018G28KT TEMPO 1612/1624 34014KT SCT020",
    "UTAA": "TAF UTAA 152245Z 1600/1624 34016KT 6000 SCT050 TX42/1609Z TEMPO 1600/1603 24018G28KT 3000 DRDU BECMG 1606/1608 02016KT 4000 DRDU BECMG 1616/1618 14014KT TEMPO 1620/1624 20010G20KT",
    "UACC": "TAF COR UACC 152300Z 1600/1624 20007MPS 9999 SCT030CB BKN050 TX30/1609Z TN17/1623Z TEMPO 1600/1606 24009G14MPS 2000 TSRA BKN030CB BECMG 1606/1608 24008MPS TEMPO 1606/1616 28012G17MPS 2000 TSRA BKN030CB BECMG 1616/1618 25004MPS SCT040 BKN100 TEMPO 1616/1624 30005MPS",
    "UAAA": "TAF UAAA 152302Z 1600/1624 35002G07MPS 9999 FEW050CB SCT100 TX38/1610Z TN20/1601Z TEMPO 1600/1603 17003MPS TEMPO 1605/1614 05005G10MPS BECMG 1614/1615 14005MPS",
    "UZTT": "TAF UZTT 152300Z 1600/1624 07010KT 7000 NSC TX41/1611Z TN26/1600Z TEMPO 1606/1616 32015KT",
    "ZWWW": "TAF ZWWW 152105Z 1600/1706 20004MPS CAVOK TX38/1609Z TX38/1706Z TN28/1623Z BECMG 1602/1603 36004MPS BECMG 1614/1615 18004MPS BECMG 1702/1703 36004MPS",
    "ZLXY": "TAF ZLXY 152114Z 1600/1624 06004MPS 5000 HZ NSC TX34/1607Z TN22/1622Z BECMG 1609/1610 33008G15MPS TSRA FEW030CB OVC050 BECMG 1613/1614 26004MPS -RA OVC050 BECMG 1617/1618 HZ",
    "ZBAA": "TAF ZBAA 152104Z 1600/1706 18004MPS CAVOK TX33/1606Z TX33/1706Z TN24/1621Z",
    "ZBHH": "TAF ZBHH 152106Z 1600/1624 23004MPS 9999 FEW040 TX30/1608Z TN16/1622Z TEMPO 1607/1610 -TSRA FEW040CB FEW040",
    "ZSQD": "TAF ZSQD 152107Z 1600/1624 02004MPS 6000 NSC TX30/1606Z TN22/1620Z",
    "ZMCK": "TAF ZMCK 152242Z 1600/1706 VRB02MPS 9999 FEW030CB SCT033 TX23/1607Z TN11/1621Z PROB40 TEMPO 1600/1610 VRB08MPS 6000 TSRA SCT027CB SCT030 BECMG 1602/1605 31006MPS BECMG 1610/1612 VRB02MPS",
    "UUEE": "TAF UUEE 152249Z 1600/1624 32005MPS 9999 SCT020 TX21/1612Z TN14/1618Z TEMPO 1600/1605 1200 BR BKN005 TEMPO 1605/1617 35009G17MPS",
    "UUDD": "TAF UUDD 152251Z 1600/1706 30006MPS 9999 SCT016 TX20/1612Z TN10/1701Z BECMG 1604/1606 36006MPS TEMPO 1606/1618 36009G17MPS",
    "ULLI": "TAF ULLI 152252Z 1600/1624 04005G10MPS 6000 BKN017 BECMG 1616/1618 04003MPS",
    "USSS": "TAF USSS 152246Z 1600/1624 23003G08MPS 6000 BKN016CB TEMPO 1600/1603 0300 -TSRA FG BKN004 BKN011CB FM160300 28003G14MPS 9999 -SHRA BKN020CB TEMPO 1603/1619 -TSRA",
    "UNNT": "TAF UNNT 152300Z 1600/1624 12003G08MPS 9999 SCT040 TX25/1611Z TN14/1622Z PROB40 TEMPO 1603/1615 -TSRA BKN030CB BECMG 1610/1614 09008G15MPS BECMG 1615/1619 23003G08MPS TEMPO 1615/1624 -TSRA BKN020CB",
    "UNKL": "TAF UNKL 152252Z 1600/1624 24003MPS 9999 SCT040",
    "UIBB": "TAF UIBB 152300Z 1600/1624 28003G08MPS 9999 BKN004 BKN016CB TEMPO 1600/1601 0700 FG BECMG 1601/1603 BKN020CB TEMPO 1603/1612 VRB08MPS BECMG 1615/1617 20005MPS",
    "UEEE": "TAF UEEE 152300Z 1600/1706 10003G08MPS 9999 SCT030CB OVC100 TX26/1606Z TN16/1618Z TEMPO 1600/1612 VRB16MPS 3200 -TSRA",
    "UHHH": "TAF UHHH 152252Z 1600/1706 24008MPS 9999 SCT016CB TX26/1606Z TN18/1618Z TEMPO 1600/1610 25008G13MPS 5000 -SHRA FEW006 BKN016CB",
    "UHSS": "TAF UHSS 152252Z 1600/1706 18003MPS 4000 -SHRA BKN005 BKN015CB TEMPO 1600/1606 1400 SHRA BR BKN002 BKN015CB BECMG 1603/1605 25003MPS BECMG 1606/1608 9999 NSW SCT040 BECMG 1611/1613 19003MPS"
  },
  "atis": {},
  "windtemp_alaska": "\n000\nFBAK31 KWNO 152000\nFD1AK1\nDATA BASED ON 151800Z    \nVALID 160000Z   FOR USE 2000-0300Z. TEMPS NEG ABV 24000\n\nFT  3000    6000    9000   12000   18000   24000  30000  34000  39000\nADK 0315 3216+04 2923+01 2928-05 2756-15 2671-26 258641 258749 266050\nADQ 2613 2616+01 2619-03 2728-06 2651-17 2779-27 269341 269049 266751\nAKN 2414 2713-01 2616-04 2621-08 2533-20 2655-31 760343 269149 255546\nANC 2111 2314+00 2515-05 2617-10 2915-24 3314-37 282243 263240 253140\nANN 3207 2606+09 2808+06 2708+01 2811-12 3310-23 351440 361850 281258\nBET 2317 2511-02 2514-05 2417-10 2323-22 2427-34 243247 243345 242842\nBRW 9900 2605+00 2705-05 2314-10 2217-21 2130-32 203348 202651 201042\nBTI 0714 0811+04 0610-02 0905-07 1709-18 1824-29 193946 193754 201644\nBTT 2706 9900+03 9900-02 0205-07 9900-21 9900-32 121249 121351 181442\nCDB 1817 2120+00 2326-01 2337-03 2451-14 2460-25 256940 257549 267257\nCZF 1809 2210-01 2313-07 2011-11 2012-23 2013-35 201347 231243 241242\nEHM 2411 2412-02 2315-05 2317-09 2425-21 2561-30 750244 258249 254645\nFAI 2623 2520+01 2616-03 2613-09 2608-21 0509-33 091750 180745 201540\nFYU 2811 3605+02 9900-02 0605-07 0710-19 0712-32 112947 131848 191741\nGAL 2006 1708+01 1111-03 1108-08 1107-21 1107-33 090649 990050 211042\nGKN 1820 2023+01 2220-05 2215-11 2213-25 2310-38 232441 233239 233340\nHOM 2517 2613+00 2814-04 2816-09 2829-22 2745-34 266444 266143 264543\nJNU 1907 2213+04 2321+02 2424+00 2433-12 2438-23 243840 243750 253460\nLUR 0805 1607-01 1810-06 2008-10 2315-21 2222-34 213348 211948 990042\nMCG 2424 2516+00 2514-04 2513-10 1505-21 1207-33 990048 251047 232041\nMDO 2519 2719+00 2619-05 2426-09 2553-21 2574-31 259740 258844 244644\nOME 9900 2306-01 9900-06 1506-10 1614-20 1511-33 141849 131051 990043\nORT      2614+03 2309-03 2416-10 2024-23 2134-35 224443 223841 233240\nOTZ 3205 9900+00 1906-05 2008-09 1913-20 1812-32 161048 170953 170743\nSNP 2907 3408-02 3206-06 3006-10 2708-22 2516-34 234344 244044 243243\nTKA 1915 2109+00 2508-05 2508-10 2713-23 3107-35 320746 261942 252440\nUNK 2721 2911+00 9900-05 1605-08 1510-21 1308-33 131049 180750 211142\nYAK 2009 2012+01 2222-02 2332-06 2457-14 2471-24 247541 247350 245755\nIKO 2512 2535+07 2447+03 2450-01 2452-14 2457-24 246939 247248 247458\nAFM 9900 2006+02 1906-03 1807-08 1605-20 1307-33 130748 120652 170843\n5AB 0308 3409+03 3317+01 3226-03 3143-14 3155-26 327941 338447 326751\n5AC 3018 3016+08 3111+05 3109+01 3311-12 3617-24 011840 361950 331158\n5AD 2718 2822+09 2826+04 2728+00 2632-12 2533-24 253640 263550 262658\n5AE 2209 2517+02 2535+01 2544-02 2646-14 2649-25 265440 265949 266059\n5AF 2707 2713+07 2617+05 2620+02 2526-12 2626-23 262940 263250 273060\n5AG 2516 2418+03 2523+01 2534-03 2451-13 2562-24 246741 246850 256157\n",
  "vaac_active": [
    {
      "volcano": "SHEVELUCH",
      "volcano_jp": "シベルチ",
      "advisory_nr": "2026/264",
      "obs_time": "2026-07-16 00:46Z",
      "issued_time": "2026-07-16 01:26Z",
      "text_url": "https://www.data.jma.go.jp/vaac/data/TextData/2026/20260716_30027000_0264_Text.html",
      "lat": 56.65,
      "lon": 161.367,
      "text": "FVFE01 RJTD 160126\nVA ADVISORY\nDTG: 20260716/0126Z\nVAAC: TOKYO\nVOLCANO: SHEVELUCH 300270\nPSN: N5639 E16122\nAREA: RUSSIA\nSOURCE ELEV: 3283M AMSL\nADVISORY NR: 2026/264\nINFO SOURCE: KBGS HIMAWARI-9\nERUPTION DETAILS: ERUPTION AT 20260716/0046Z FL230 REPORTED\nOBS VA DTG: 16/0110Z\nOBS VA CLD: SFC/FL230 N5643 E16119 - N5651 E16135 - N5642 E16139 - \nN5637 E16120 MOV E 15KT\nFCST VA CLD +6 HR: 16/0710Z SFC/FL230 N5535 E16513 - N5528 E16428 - \nN5639 E16340 - N5649 E16127 - N5722 E16124 - N5719 E16423\nFCST VA CLD +12 HR: 16/1310Z SFC/FL230 N5703 E16750 - N5519 E16840 - \nN5411 E16755 - N5421 E16702 - N5631 E16632 - N5637 E16255 - N5746 \nE16242\nFCST VA CLD +18 HR: NO VA EXP\nRMK: NIL\nNXT ADVISORY: 20260716/0600Z="
    },
    {
      "volcano": "TAAL",
      "volcano_jp": "タール",
      "advisory_nr": "2026/13",
      "obs_time": "2026-07-15 23:30Z",
      "issued_time": "2026-07-15 23:48Z",
      "text_url": "https://www.data.jma.go.jp/vaac/data/TextData/2026/20260715_27307000_0013_Text.html",
      "lat": 14.0,
      "lon": 121.0,
      "text": "FVFE01 RJTD 152348\nVA ADVISORY\nDTG: 20260715/2348Z\nVAAC: TOKYO\nVOLCANO: TAAL 273070\nPSN: N1400 E12100\nAREA: PHILIPPINES\nSOURCE ELEV: 311M AMSL\nADVISORY NR: 2026/13\nINFO SOURCE: HIMAWARI-9 PHIVOLCS\nERUPTION DETAILS: ERUPTION AT 20260715/2330Z FL030 EXTD ENE REPORTED\nOBS VA DTG: 15/2340Z\nOBS VA CLD: VA NOT IDENTIFIABLE FM SATELLITE DATA WIND FL030 170/2KT\nFCST VA CLD +6 HR: NOT AVBL\nFCST VA CLD +12 HR: NOT AVBL\nFCST VA CLD +18 HR: NOT AVBL\nRMK: WE WILL ISSUE FURTHER ADVISORY IF VA IS DETECTED IN SATELLITE \nIMAGERY.\nNXT ADVISORY: NO FURTHER ADVISORIES="
    },
    {
      "volcano": "MAYON",
      "volcano_jp": "マヨン",
      "advisory_nr": "2026/751",
      "obs_time": "2026-07-15 18:42Z",
      "issued_time": "2026-07-15 22:04Z",
      "text_url": "https://www.data.jma.go.jp/vaac/data/TextData/2026/20260715_27303000_0751_Text.html",
      "lat": 13.25,
      "lon": 123.683,
      "text": "FVFE01 RJTD 152204\nVA ADVISORY\nDTG: 20260715/2204Z\nVAAC: TOKYO\nVOLCANO: MAYON 273030\nPSN: N1315 E12341\nAREA: PHILIPPINES\nSOURCE ELEV: 2462M AMSL\nADVISORY NR: 2026/751\nINFO SOURCE: HIMAWARI-9 PHIVOLCS\nERUPTION DETAILS: ERUPTION AT 20260715/1842Z FL100 EXTD SSW REPORTED\nOBS VA DTG: 15/2150Z\nOBS VA CLD: VA NOT IDENTIFIABLE FM SATELLITE DATA WIND FL100 320/2KT\nFCST VA CLD +6 HR: NOT AVBL\nFCST VA CLD +12 HR: NOT AVBL\nFCST VA CLD +18 HR: NOT AVBL\nRMK: WE WILL ISSUE FURTHER ADVISORY IF VA IS DETECTED IN SATELLITE \nIMAGERY.\nNXT ADVISORY: NO FURTHER ADVISORIES="
    }
  ],
  "vaac_tokyo": [
    {
      "id": "20260716_30027000_0264",
      "year": "2026",
      "volcano": "Sheveluch",
      "psn": "N5639 E16122",
      "issued": "20260716",
      "text": "FVFE01 RJTD 160126\nVA ADVISORY\nDTG: 20260716/0126Z\nVAAC: TOKYO\nVOLCANO: SHEVELUCH 300270\nPSN: N5639 E16122\nAREA: RUSSIA\nSOURCE ELEV: 3283M AMSL\nADVISORY NR: 2026/264\nINFO SOURCE: KBGS HIMAWARI-9\nERUPTION DETAILS: ERUPTION AT 20260716/0046Z FL230 REPORTED\nOBS VA DTG: 16/0110Z\nOBS VA CLD: SFC/FL230 N5643 E16119 - N5651 E16135 - N5642 E16139 - \nN5637 E16120 MOV E 15KT\nFCST VA CLD +6 HR: 16/0710Z SFC/FL230 N5535 E16513 - N5528 E16428 - \nN5639 E16340 - N5649 E16127 - N5722 E16124 - N5719 E16423\nFCST VA CLD +12 HR: 16/1310Z SFC/FL230 N5703 E16750 - N5519 E16840 - \nN5411 E16755 - N5421 E16702 - N5631 E16632 - N5637 E16255 - N5746 \nE16242\nFCST VA CLD +18 HR: NO VA EXP\nRMK: NIL\nNXT ADVISORY: 20260716/0600Z=",
      "img_url": "https://ds.data.jma.go.jp/svd/vaac/data/VAGFN/2026/Images/20260716_30027000_0264_QH21_01.png",
      "sat_img_url": "https://ds.data.jma.go.jp/svd/vaac/data/Sat/2026/Images/30027000/09-ir/20260716_0110_202607160126_ir.png",
      "text_url": "https://ds.data.jma.go.jp/svd/vaac/data/TextData/2026/20260716_30027000_0264_Text.html"
    },
    {
      "id": "20260715_27307000_0013",
      "year": "2026",
      "volcano": "Taal",
      "psn": "N1400 E12100",
      "issued": "20260715",
      "text": "FVFE01 RJTD 152348\nVA ADVISORY\nDTG: 20260715/2348Z\nVAAC: TOKYO\nVOLCANO: TAAL 273070\nPSN: N1400 E12100\nAREA: PHILIPPINES\nSOURCE ELEV: 311M AMSL\nADVISORY NR: 2026/13\nINFO SOURCE: HIMAWARI-9 PHIVOLCS\nERUPTION DETAILS: ERUPTION AT 20260715/2330Z FL030 EXTD ENE REPORTED\nOBS VA DTG: 15/2340Z\nOBS VA CLD: VA NOT IDENTIFIABLE FM SATELLITE DATA WIND FL030 170/2KT\nFCST VA CLD +6 HR: NOT AVBL\nFCST VA CLD +12 HR: NOT AVBL\nFCST VA CLD +18 HR: NOT AVBL\nRMK: WE WILL ISSUE FURTHER ADVISORY IF VA IS DETECTED IN SATELLITE \nIMAGERY.\nNXT ADVISORY: NO FURTHER ADVISORIES=",
      "img_url": "https://ds.data.jma.go.jp/svd/vaac/data/VAGFN/2026/Images/20260715_27307000_0013_QH21_01.png",
      "sat_img_url": null,
      "text_url": "https://ds.data.jma.go.jp/svd/vaac/data/TextData/2026/20260715_27307000_0013_Text.html"
    },
    {
      "id": "20260715_27303000_0751",
      "year": "2026",
      "volcano": "Mayon",
      "psn": "N1315 E12341",
      "issued": "20260715",
      "text": "FVFE01 RJTD 152204\nVA ADVISORY\nDTG: 20260715/2204Z\nVAAC: TOKYO\nVOLCANO: MAYON 273030\nPSN: N1315 E12341\nAREA: PHILIPPINES\nSOURCE ELEV: 2462M AMSL\nADVISORY NR: 2026/751\nINFO SOURCE: HIMAWARI-9 PHIVOLCS\nERUPTION DETAILS: ERUPTION AT 20260715/1842Z FL100 EXTD SSW REPORTED\nOBS VA DTG: 15/2150Z\nOBS VA CLD: VA NOT IDENTIFIABLE FM SATELLITE DATA WIND FL100 320/2KT\nFCST VA CLD +6 HR: NOT AVBL\nFCST VA CLD +12 HR: NOT AVBL\nFCST VA CLD +18 HR: NOT AVBL\nRMK: WE WILL ISSUE FURTHER ADVISORY IF VA IS DETECTED IN SATELLITE \nIMAGERY.\nNXT ADVISORY: NO FURTHER ADVISORIES=",
      "img_url": "https://ds.data.jma.go.jp/svd/vaac/data/VAGFN/2026/Images/20260715_27303000_0751_QH21_01.png",
      "sat_img_url": null,
      "text_url": "https://ds.data.jma.go.jp/svd/vaac/data/TextData/2026/20260715_27303000_0751_Text.html"
    },
    {
      "id": "20260713_28208001_0083",
      "year": "2026",
      "volcano": null,
      "psn": "N3136 E13039",
      "issued": "20260713",
      "text": "FVFE01 RJTD 130254\nVA ADVISORY\nDTG: 20260713/0254Z\nVAAC: TOKYO\nVOLCANO: SAKURAJIMA (AIRA CALDERA) 282080\nPSN: N3136 E13039\nAREA: JAPAN\nSOURCE ELEV: 1117M AMSL\nADVISORY NR: 2026/83\nINFO SOURCE: JMA HIMAWARI-9\nERUPTION DETAILS: ERUPTED AT 20260713/0152Z FL100 EXTD N\nOBS VA DTG: 13/0230Z\nOBS VA CLD: SFC/FL100 N3136 E13039 - N3142 E13040 - N3141 E13044 - \nN3134 E13042 MOV NE 15KT\nFCST VA CLD +6 HR: 13/0830Z SFC/FL100 N3234 E13121 - N3145 E13155 - \nN3202 E13110 - N3227 E13051\nFCST VA CLD +12 HR: 13/1430Z SFC/FL100 N3318 E13206 - N3142 E13317 - \nN3134 E13226 - N3312 E13118\nFCST VA CLD +18 HR: NO VA EXP\nRMK: NIL\nNXT ADVISORY: 20260713/0600Z=",
      "img_url": "https://ds.data.jma.go.jp/svd/vaac/data/VAGFN/2026/Images/20260713_28208001_0083_QH21_01.png",
      "sat_img_url": "https://ds.data.jma.go.jp/svd/vaac/data/Sat/2026/Images/28208001/09-ir/20260713_0230_202607130254_ir.png",
      "text_url": "https://ds.data.jma.go.jp/svd/vaac/data/TextData/2026/20260713_28208001_0083_Text.html"
    }
  ],
  "vaac_alaska": [
    {
      "text": "\n000\nFVAK21 PAWU 151258\nVAAAK1\nVA ADVISORY\n\nDTG: 20260715/1254Z\n\nVAAC: ANCHORAGE\n\nVOLCANO: SHEVELUCH 300270\n\nPSN: N5639 E16122\n\nAREA: KAMCHATKA PENINSULA\n\nSOURCE ELEV: 10771 FT AMSL\n\nADVISORY NR: 2026/201\n\nINFO SOURCE: HIMAWARI\n\nERUPTION DETAILS: VA NOT IDENTIFIABLE FM SATELLITE DATA.\n\nOBS VA DTG: 15/1254Z\n\nOBS VA CLD: VA NOT IDENTIFIABLE FM SATELLITE DATA.\n\nFCST VA CLD +6HR: NOT AVBL\n\nFCST VA CLD +12HR: NOT AVBL\n\nFCST VA CLD +18HR: NOT AVBL\n\nRMK: A NEW ADVISORY WILL BE ISSUED IF VA IS DETECTED IN SATELLITE IMAGERY....SC\n\nNXT ADVISORY: NO FURTHER ADVISORIES=\n\n",
      "issued": "2026-07-15T12:58:00+00:00",
      "volcano": "Sheveluch",
      "psn": "N5639 E16122"
    }
  ]
}