{
  "updated_utc": "2026-07-14T03:43Z",
  "metar": {
    "RJAA": "METAR RJAA 140200Z 12003KT 040V200 9999 FEW030 BKN/// 32/24 Q1007 NOSIG",
    "PANC": "METAR PANC 140153Z 12006G15KT 10SM BKN055 OVC075 15/10 A3007 RMK AO2 SLP184 T01500100",
    "PAFA": "METAR PAFA 140153Z COR 36007KT 10SM SCT042 BKN055 BKN075 16/12 A2993 RMK AO2 RAE08 SLP139 CB DSNT N-E MOV NE P0001 T01610122 $",
    "PAED": "METAR PAED 140155Z 36005KT 10SM FEW013 FEW045 OVC065 14/10 A3006 RMK AO2A SLP176 T01430103 $",
    "KSEA": "METAR KSEA 140153Z 34007KT 10SM FEW100 FEW230 24/07 A3003 RMK AO2 SLP173 HZ FEW100 T02440067",
    "ZSPD": "METAR ZSPD 140200Z 21007MPS 180V240 CAVOK 34/25 Q1004 NOSIG",
    "ZSSS": "METAR ZSSS 140200Z 21005MPS 190V250 CAVOK 34/25 Q1004 NOSIG",
    "RJFR": "METAR RJFR 140200Z 23004KT 9999 FEW020 SCT040 33/24 Q1010",
    "VHHH": "SPECI VHHH 140151Z 07004KT 030V110 7000 2300W SHRA FEW006 SCT025 28/26 Q1002 RERA TEMPO 3500 SHRA FEW010CB SCT020",
    "RCTP": "METAR RCTP 140200Z 01007KT 340V040 9999 FEW020 32/27 Q1008 NOSIG RMK A2979",
    "ZGSZ": "METAR ZGSZ 140200Z 07003MPS 040V100 9999 -SHRA SCT016 FEW020CB BKN033 29/26 Q1002 BECMG AT0220 SHRA",
    "WSSS": "METAR WSSS 140200Z 14012KT 9999 FEW018TCU BKN300 30/24 Q1011 NOSIG",
    "WMKK": "METAR WMKK 140200Z 13010KT 070V190 9000 FEW018 31/26 Q1010 NOSIG",
    "WIDD": "METAR WIDD 140200Z 16006KT 100V210 9999 FEW014 31/25 Q1011 NOSIG",
    "VTBS": "METAR VTBS 140200Z 20009KT 9999 FEW020 BKN070 31/23 Q1008 NOSIG",
    "VTBU": "METAR VTBU 140200Z 23008KT 9999 FEW020 BKN100 30/27 Q1009 NOSIG",
    "ROAH": "METAR ROAH 140200Z 17014KT 9999 FEW010 SCT/// 30/25 Q1012",
    "VVDN": "METAR VVDN 140200Z 23005KT 190V290 9999 FEW020 SCT080 33/23 Q1004 NOSIG",
    "RCKH": "SPECI RCKH 140148Z 18007G17KT 120V210 2500 -SHRA SCT009TCU SCT010 BKN014 OVC022 27/26 Q1009 RESHRA WS R09 TEMPO 1500 SHRA RMK TCU SE A2982",
    "KLAX": "METAR KLAX 140153Z 26014KT 10SM SCT009 SCT110 BKN200 21/17 A2992 RMK AO2 SLP130 T02060172 $",
    "KONT": "METAR KONT 140153Z 24010KT 10SM FEW100 SCT170 BKN250 31/18 A2990 RMK AO2 SLP107 T03060183 $",
    "KSFO": "METAR KSFO 140156Z 33004KT 10SM FEW090 SCT110 BKN170 20/14 A2993 RMK AO2 SLP134 T02000139",
    "KOAK": "METAR KOAK 140153Z 29007KT 10SM SCT080 BKN100 BKN150 21/14 A2993 RMK AO2 RAB31E53 SLP135 P0000 T02110139",
    "KMHR": "METAR KMHR 140155Z AUTO 22006KT 10SM CLR 33/09 A2988 RMK AO2 T03340085 $",
    "KDFW": "METAR KDFW 140153Z 16010KT 10SM FEW030 SCT046 SCT060 BKN160 BKN250 28/22 A3004 RMK AO2 SLP165 OCNL LTGIC DSNT W-NW CB DSNT W-NW MOV W T02830217 $",
    "KIAH": "METAR KIAH 140153Z VRB05KT 10SM FEW007 FEW023 BKN150 25/24 A3005 RMK AO2 SLP176 T02500244",
    "KORD": "METAR KORD 140151Z 28007KT 10SM FEW300 30/19 A3014 RMK AO2 SLP199 T03000189",
    "KJFK": "METAR KJFK 140151Z 20016KT 10SM FEW250 23/18 A3016 RMK AO2 SLP213 T02330183 $",
    "KRFD": "METAR KRFD 140154Z 26004KT 10SM FEW300 26/21 A3016 RMK AO2 SLP208 T02560211",
    "KIND": "METAR KIND 140154Z 05006KT 10SM FEW050 27/16 A3016 RMK AO2 SLP206 T02670161",
    "KDTW": "METAR KDTW 140153Z 18004KT 10SM FEW150 SCT250 26/20 A3015 RMK AO2 SLP203 T02610200 $",
    "KMSP": "METAR KMSP 140153Z 23007KT 10SM CLR 30/21 A3014 RMK AO2 SLP199 T03000206",
    "CYEG": "METAR CYEG 140200Z 08007KT 20SM FEW060TCU FEW100 22/12 A3007 RMK TCU1ACC1 TCU TR SLP187 DENSITY ALT 3600FT",
    "EHAM": "METAR EHAM 140155Z 02006KT 350V050 CAVOK 19/18 Q1018 NOSIG",
    "EBBR": "METAR EBBR 140150Z 35004KT CAVOK 18/17 Q1018 NOSIG",
    "EDDF": "METAR EDDF 140150Z AUTO 02016KT CAVOK 24/13 Q1015 NOSIG",
    "EDFH": "METAR EDFH 140150Z 08006KT 040V140 CAVOK 21/11 Q1017",
    "EDDL": "METAR EDDL 140150Z AUTO 05010KT CAVOK 23/15 Q1016 NOSIG",
    "EDDK": "METAR EDDK 140150Z AUTO VRB01KT CAVOK 18/14 Q1016 NOSIG",
    "EBLG": "METAR EBLG 140150Z VRB02KT CAVOK 19/15 Q1017 NOSIG",
    "LSZH": "METAR LSZH 140150Z AUTO VRB01KT CAVOK 18/15 Q1016 NOSIG",
    "LIMC": "METAR LIMC 140150Z 02005KT 9999 BKN060 25/20 Q1017 NOSIG",
    "LIRF": "METAR LIRF 140150Z VRB02KT CAVOK 23/22 Q1017 NOSIG",
    "EINN": "METAR EINN 140200Z 36005KT CAVOK 14/11 Q1022 NOSIG",
    "EGLL": "METAR EGLL 140150Z AUTO 05007KT 9999 OVC012 17/14 Q1022",
    "EGSS": "METAR EGSS 140150Z AUTO 02010KT 9999 OVC006 16/14 Q1022",
    "EPWA": "METAR EPWA 140200Z 33007KT 9999 SCT008 17/16 Q1018 NOSIG",
    "UHPP": "METAR UHPP 140200Z 35006MPS 320V030 9999 FEW039CB SCT046 BKN070 25/15 Q1009 R34L/CLRD62 NOSIG RMK MT OBSC QFE753/1004",
    "EFHK": "METAR EFHK 140150Z 34006KT CAVOK 14/12 Q1019 NOSIG",
    "LBBG": "METAR LBBG 140200Z AUTO 31012KT 280V340 9999 NCD 20/14 Q1014 NOSIG",
    "LTAC": "METAR LTAC 140150Z 04005KT CAVOK 17/13 Q1012 NOSIG RMK RWY21C 04005KT RWY03L 03004KT RWY21R 01006KT RWY03R 05003KT 010V070 RWY21L 03006KT",
    "UBBB": "METAR UBBB 140200Z 32006KT CAVOK 24/21 Q1008 NOSIG",
    "UTAA": "METAR UTAA 140200Z 30006KT 9999 NSC 31/10 Q1007 R88/CLRD70 NOSIG",
    "UACC": "METAR UACC 140200Z 07005MPS CAVOK 24/15 Q1009 NOSIG RMK QFE725/0967",
    "UAAA": "METAR UAAA 140200Z VRB01MPS 9999 SCT050 BKN100 25/16 Q1009 NOSIG",
    "UZTT": "METAR UZTT 140200Z 04008KT CAVOK 30/12 Q1006 NOSIG",
    "ZWWW": "METAR ZWWW 140200Z 29002MPS CAVOK 30/07 Q1007 NOSIG",
    "ZLXY": "METAR ZLXY 140200Z 05005MPS 020V080 CAVOK 33/25 Q1001 NOSIG",
    "ZBAA": "METAR ZBAA 140200Z 02002MPS 320V080 CAVOK 31/23 Q1000 NOSIG",
    "ZBHH": "METAR ZBHH 140200Z VRB01MPS 9999 BKN040 25/14 Q1009 NOSIG",
    "ZSQD": "METAR ZSQD 140200Z 29007MPS 9999 BKN008 OVC020 28/27 Q0996 BECMG TL0330 BKN010",
    "ZMCK": "METAR ZMCK 140200Z 27004MPS 9999 FEW030CB SCT033 16/11 Q1011 NOSIG RMK QFE643.7 69 MOP",
    "UUEE": "SPECI UUEE 140150Z 32003MPS 290V350 1000 0800SW R24C/1000U PRFG OVC002 16/16 Q1009 R24C/CLRD62 TEMPO 0300 FG RMK QBB060",
    "UUDD": "SPECI UUDD 140145Z 32002MPS 5000 0800W R13R/0900D PRFG FEW004 14/14 Q1008 R13R/CLRD65 NOSIG",
    "ULLI": "METAR ULLI 140200Z 03005MPS 360V060 9999 FEW015 17/13 Q1017 R10R/090065 NOSIG",
    "USSS": "METAR USSS 140200Z 11004MPS 9999 SCT043 17/17 Q1012 R08L/CLRD60 R08R/CLRD60 NOSIG RMK QFE739/0985",
    "UNNT": "METAR UNNT 140200Z 36005MPS 9999 BKN010 17/15 Q1008 R25/CLRD// R16/CLRD// NOSIG RMK QFE746/0995",
    "UNKL": "METAR UNKL 140200Z 27002MPS CAVOK 17/13 Q1005 R29/CLRD// NOSIG RMK QFE729",
    "UIBB": "METAR UIBB 140200Z 25002MPS 9000 NSC 20/12 Q1007 R30/CLRD62 NOSIG RMK QFE712/0950",
    "UEEE": "METAR UEEE 140200Z 12003MPS CAVOK 29/19 Q0992 R23/09//65 NOSIG RMK QFE736",
    "UHHH": "METAR UHHH 140200Z 25008MPS 9999 SCT040CB 29/20 Q0999 R88/090060 NOSIG RMK QFE743/0991",
    "UHSS": "METAR UHSS 140200Z 19003MPS 9999 BKN005 21/19 Q1003 R01/CLRD70 NOSIG RMK MT OBSC QFE751/1002"
  },
  "taf": {
    "RJAA": "TAF RJAA 132305Z 1400/1506 20004KT 9999 FEW030 SCT040 BECMG 1403/1405 14010KT",
    "PANC": "TAF PANC 132338Z 1400/1506 22006KT P6SM SCT020 BKN045 OVC060 TEMPO 1400/1404 -SHRA BKN020 FM140400 17012G20KT P6SM VCSH FEW020 OVC040 FM140900 15015G25KT P6SM -RA SCT020 OVC035 FM141500 14025G35KT 5SM -RA BR SCT020 OVC030 FM142100 13025G35KT P6SM -SHRA SCT020 OVC040",
    "PAFA": "TAF PAFA 132336Z 1400/1506 23006KT 6SM -SHRA BR OVC050 PROB30 1400/1403 -TSRA BKN040CB FM140600 VRB03KT P6SM VCSH BKN040 OVC050 FM141200 17005KT P6SM VCSH OVC050",
    "PAED": "TAF AMD PAED 140242Z 1402/1503 33009KT 9999 FEW013 FEW050 OVC065 620802 QNH3004INS BECMG 1406/1407 33009KT 9999 -SHRA SCT015 BKN030 OVC045 640604 QNH3003INS BECMG 1410/1411 17010G15KT 9000 -RA SCT010 BKN020 OVC040 640604 550109 QNH2986INS BECMG 1421/1422 36009KT 9999 NSW FEW060 BKN085 OVC120 WS013/14035KT 610852 QNH2976INS TX17/1500Z TN10/1414Z",
    "KSEA": "TAF KSEA 140257Z 1403/1506 35007KT P6SM FEW250 FM140800 01004KT P6SM SKC FM141400 35006KT P6SM SKC FM141900 31007KT P6SM SKC",
    "ZSPD": "TAF ZSPD 132104Z 1400/1506 18005MPS 8000 BKN020 TX35/1406Z TX36/1506Z TN29/1421Z",
    "ZSSS": "TAF ZSSS 132102Z 1400/1506 18004MPS 8000 BKN020 TX36/1406Z TX37/1506Z TN29/1421Z",
    "RJFR": "TAF RJFR 132305Z 1400/1506 11006KT 9999 FEW025 BECMG 1401/1403 02010KT BECMG 1408/1410 21004KT",
    "VHHH": "TAF VHHH 140200Z 1403/1509 10010KT 9999 FEW015 SCT025 TX29/1406Z TX30/1506Z TN26/1422Z TEMPO 1403/1406 13020G30KT 1500 TSRA +SHRA FEW008CB SCT015 BECMG 1406/1408 19015KT TEMPO 1406/1412 19020G30KT 2000 +SHRA FEW010CB SCT020 TEMPO 1418/1421 20015G25KT 3000 SHRA FEW010CB SCT020 TEMPO 1421/1506 20015G25KT 2000 TSRA SHRA FEW008CB SCT020",
    "RCTP": "TAF RCTP 132300Z 1400/1506 34007KT 9999 FEW015 TEMPO 1408/1413 13005KT 5000 SHRA FEW012 FEW015TCU BKN020 BECMG 1413/1415 15005KT BECMG 1500/1502 24010KT",
    "ZGSZ": "TAF ZGSZ 132116Z 1400/1506 07004MPS 8000 BKN040 TX30/1406Z TX30/1506Z TN26/1422Z TEMPO 1400/1403 TSRA FEW020 FEW025CB BKN040 TEMPO 1403/1407 2800 +TSRA FEW015 FEW020CB BKN030 BECMG 1406/1407 18004MPS BECMG 1407/1408 SHRA FEW020 FEW025CB BKN040 BECMG 1414/1415 NSW BKN040",
    "WSSS": "TAF WSSS 132300Z 1400/1506 16009KT 9999 FEW015 SCT020",
    "WMKK": "TAF AMD WMKK 140246Z 1402/1506 13009KT 9999 FEW018",
    "VTBS": "TAF VTBS 132300Z 1400/1506 21008KT 9999 FEW020 TEMPO 1406/1412 VRB15G25KT 4000 TSRA FEW018CB SCT030 BKN100",
    "VTBU": "TAF VTBU 132300Z 1400/1424 25010KT 9999 FEW020",
    "ROAH": "TAF ROAH 132305Z 1400/1506 19010KT 9999 FEW010 SCT015 TEMPO 1415/1500 FEW005 BKN008",
    "VVDN": "TAF VVDN 132300Z 1400/1424 22008KT 9999 FEW020 SCT070 BECMG 1404/1405 01010KT TEMPO 1409/1413 TS SCT013 FEW015CB BKN060 BECMG 1413/1414 22006KT",
    "RCKH": "TAF AMD RCKH 140121Z 1401/1506 15013G23KT 9999 FEW015 BKN032 TEMPO 1401/1404 1600 SHRA FEW010 BKN014 FEW020CB TEMPO 1404/1410 17018G28KT 5000 SHRA FEW012 FEW015CB BKN020 BECMG 1412/1414 14008KT TEMPO 1416/1422 5000 SHRA FEW012 BKN022 BECMG 1500/1502 20008KT",
    "KLAX": "TAF KLAX 140304Z 1403/1506 25012KT P6SM BKN009 BKN200 FM140600 VRB03KT P6SM OVC007 FM141400 VRB03KT P6SM BKN012 FM141600 26006KT P6SM SCT012 SCT250 FM141900 26012KT P6SM SCT250 FM150300 26008KT P6SM FEW250",
    "KONT": "TAF KONT 132341Z 1400/1506 25006KT P6SM SCT100 BKN150 FM140400 VRB04KT P6SM SCT150 FM141900 25011KT P6SM FEW150 FM150400 VRB04KT P6SM SKC",
    "KSFO": "TAF KSFO 140300Z 1403/1506 29010KT P6SM BKN200 FM141500 30005KT P6SM FEW010 BKN200 FM141900 31012KT P6SM BKN200 FM142100 31015G25KT P6SM BKN150 FM150400 29015KT P6SM BKN150",
    "KOAK": "TAF KOAK 132322Z 1400/1506 30008KT P6SM BKN150 BKN200 FM141200 29004KT P6SM FEW010 BKN200 FM141800 26007KT P6SM BKN150 FM142100 29012KT P6SM BKN150 FM150300 28010KT P6SM BKN150",
    "KMHR": "TAF KMHR 132327Z 1400/1424 23008KT P6SM OVC150 FM140500 VRB05KT P6SM BKN250 FM142100 24010G17KT P6SM SCT250",
    "KDFW": "TAF KDFW 140303Z 1403/1506 15007KT P6SM SCT045 BKN160 BKN250 TEMPO 1411/1415 6SM BR BKN015 FM141500 11009KT P6SM BKN045 PROB30 1420/1502 -SHRA",
    "KIAH": "TAF KIAH 140302Z 1403/1506 VRB05KT P6SM FEW008 SCT020 OVC150 FM141100 VRB04KT P6SM VCTS SCT015 BKN025CB FM141200 13005KT 5SM SHRA VCTS SCT015 BKN020CB TEMPO 1412/1416 3SM TSRA OVC015CB FM142000 14006KT 6SM SHRA BR SCT025 OVC040 FM142200 15006KT P6SM SCT030 OVC100",
    "KORD": "TAF KORD 140245Z 1403/1506 27006KT P6SM SKC FM141400 32005KT P6SM SKC FM141900 08006KT P6SM SKC",
    "KJFK": "TAF KJFK 140233Z 1403/1506 22014KT P6SM FEW060 FEW250 FM140700 24011KT P6SM FEW250 FM141500 25013G22KT P6SM FEW250 FM141800 22017G25KT P6SM FEW250 FM150300 28013KT P6SM FEW250",
    "KRFD": "TAF KRFD 140245Z 1403/1424 26003KT P6SM SKC FM141500 32005KT P6SM SKC",
    "KIND": "TAF KIND 140222Z 1402/1506 04005KT P6SM FEW250 FM141600 09006KT P6SM FEW050",
    "KDTW": "TAF KDTW 140302Z 1403/1506 23005KT P6SM SCT250 FM141400 26008KT P6SM SCT250 FM142000 25010KT P6SM SKC",
    "KMSP": "TAF KMSP 140248Z 1403/1506 23008KT P6SM SKC",
    "CYEG": "TAF CYEG 140252Z 1403/1424 08007KT P6SM FEW060 FM140900 10005KT P6SM SKC FM142200 08008KT P6SM SCT060 RMK NXT FCST BY 140600Z",
    "EHAM": "TAF EHAM 132317Z 1400/1506 04012KT CAVOK",
    "EBBR": "TAF EBBR 132310Z 1400/1506 01006KT CAVOK",
    "EDDF": "TAF EDDF 132300Z 1400/1506 03008KT CAVOK PROB40 TEMPO 1413/1418 31020G35KT 4500 TSRA BKN070CB PROB30 TEMPO 1414/1416 31030G45KT 2000 +TSRAGR",
    "EDFH": "TAF EDFH 132300Z 1400/1424 08007KT CAVOK BECMG 1412/1414 02009KT PROB40 TEMPO 1412/1418 31020G35KT 4000 TSRA BKN060CB PROB30 TEMPO 1413/1416 31030G45KT 2000 +TSRAGR BECMG 1419/1421 08006KT",
    "EDDL": "TAF EDDL 132300Z 1400/1506 03007KT CAVOK BECMG 1407/1410 04012KT BECMG 1419/1422 03005KT",
    "EDDK": "TAF EDDK 132300Z 1400/1506 VRB03KT CAVOK BECMG 1407/1410 04007KT PROB30 TEMPO 1413/1416 03025G40KT 2500 +TSRA BKN040CB BECMG 1420/1423 VRB03KT",
    "EBLG": "TAF EBLG 132310Z 1400/1506 01006KT CAVOK",
    "LSZH": "TAF LSZH 140225Z 1403/1509 VRB02KT CAVOK TX32/1415Z TN19/1403Z TN18/1504Z PROB40 TEMPO 1406/1408 36010KT PROB30 TEMPO 1407/1410 SHRA FEW080TCU BECMG 1410/1413 9999 FEW070TCU TEMPO 1413/1417 21012KT PROB40 TEMPO 1413/1417 21016G30KT PROB40 TEMPO 1414/1419 TSRA SCT060CB BECMG 1420/1422 CAVOK",
    "LIMC": "TAF LIMC 132300Z 1400/1506 02005KT 9999 FEW060 BECMG 1412/1414 23010KT BECMG 1418/1420 VRB05KT",
    "LIRF": "TAF LIRF 132300Z 1400/1506 VRB05KT CAVOK PROB40 TEMPO 1400/1405 3000 BCFG BECMG 1409/1411 20010KT BECMG 1417/1419 14010KT",
    "EINN": "TAF EINN 132300Z 1400/1424 03007KT CAVOK BECMG 1407/1409 08010KT BECMG 1417/1419 04007KT",
    "EGLL": "TAF EGLL 132255Z 1400/1506 05012KT CAVOK BECMG 1400/1403 BKN020 PROB30 TEMPO 1400/1408 BKN010 BECMG 1409/1412 CAVOK PROB30 TEMPO 1504/1506 BKN010",
    "EGSS": "TAF EGSS 132300Z 1400/1506 03012KT 9999 SCT010 TEMPO 1400/1407 8000 -DZ BKN007 PROB40 1502/1506 BKN007",
    "EPWA": "TAF EPWA 140230Z 1403/1503 33007KT 9999 BKN010 TEMPO 1403/1407 BKN006 PROB40 1403/1405 3000 BR BKN004 BECMG 1408/1410 SCT040",
    "UHPP": "TAF UHPP 140135Z 1403/1509 33005G12MPS 9999 BKN040CB TX25/1404Z TN15/1416Z",
    "EFHK": "TAF EFHK 140226Z 1403/1503 34006KT 9999 FEW025 PROB30 1404/1407 BKN014",
    "LBBG": "TAF LBBG 132300Z 1400/1424 VRB04KT 9999 SCT045 BECMG 1405/1407 35010KT PROB30 TEMPO 1411/1417 5000 SHRA FEW030CB BKN050 BECMG 1415/1417 VRB04KT",
    "LTAC": "TAF LTAC 132240Z 1400/1424 VRB02KT CAVOK BECMG 1404/1407 SCT040 TEMPO 1409/1413 30012KT TEMPO 1413/1417 35012KT BECMG 1416/1418 CAVOK",
    "UBBB": "TAF UBBB 132256Z 1400/1424 32008KT CAVOK TX33/1410Z TN23/1401Z TEMPO 1400/1404 35012KT SCT015 BECMG 1404/1406 35014KT TEMPO 1406/1410 02018KT TEMPO 1410/1414 03008KT TEMPO 1418/1424 34016G26KT SCT012 FEW030CB",
    "UTAA": "TAF UTAA 132245Z 1400/1424 03016KT 6000 SCT050 TX41/1411Z TEMPO 1400/1409 32016G26KT 3000 BLDU BECMG 1416/1418 23012KT",
    "UACC": "TAF UACC 132300Z 1400/1424 VRB01MPS 9999 SCT040 BKN100 TX38/1409Z TN18/1400Z TEMPO 1402/1406 10005MPS BECMG 1406/1408 10006MPS SCT030CB BKN070 TEMPO 1406/1418 VRB16MPS 3100 -TSRA SQ BKN030CB BECMG 1418/1420 14006MPS TEMPO 1418/1424 10010MPS 3100 -SHRA BKN030CB",
    "UAAA": "TAF UAAA 132301Z 1400/1424 35003MPS 9999 FEW050CB SCT100 TX33/1410Z TN22/1401Z TEMPO 1406/1415 05005G10MPS BECMG 1415/1417 15003MPS TEMPO 1415/1424 21003MPS",
    "UZTT": "TAF UZTT 132300Z 1400/1424 06012KT CAVOK TX39/1411Z TN26/1400Z TEMPO 1406/1418 32015KT",
    "ZWWW": "TAF ZWWW 132104Z 1400/1506 18004MPS CAVOK TX38/1409Z TX34/1506Z TN28/1423Z BECMG 1402/1403 36004MPS BECMG 1414/1415 18004MPS BECMG 1502/1503 36004MPS",
    "ZLXY": "TAF ZLXY 132108Z 1400/1424 06004MPS 6000 NSC TX36/1408Z TN25/1421Z TEMPO 1412/1415 TSRA FEW040CB OVC060",
    "ZBAA": "TAF ZBAA 132101Z 1400/1506 02004MPS CAVOK TX35/1406Z TX36/1506Z TN24/1421Z",
    "ZBHH": "TAF ZBHH 132109Z 1400/1424 24004MPS 9999 FEW040 TX29/1408Z TN17/1422Z TEMPO 1409/1412 -TSRA FEW040CB FEW040",
    "ZSQD": "TAF ZSQD 132106Z 1400/1424 30008G13MPS 5000 BR NSC TX32/1406Z TN22/1420Z BECMG 1409/1410 32003MPS",
    "ZMCK": "TAF ZMCK 132249Z 1400/1506 VRB02MPS 9999 FEW030CB SCT033 TX24/1407Z TN10/1421Z BECMG 1403/1405 29006MPS BECMG 1410/1412 VRB02MPS",
    "UUEE": "TAF AMD UUEE 140311Z 1403/1503 36003MPS 6000 BKN002 TX24/1412Z TN17/1403Z TEMPO 1403/1405 0300 FG BECMG 1405/1407 BKN016 TEMPO 1410/1418 33010G16MPS PROB40 TEMPO 1410/1418 -TSRA BKN016CB",
    "UUDD": "TAF UUDD 140155Z 1403/1509 34003MPS 6000 SCT020 TX24/1412Z TN15/1403Z TEMPO 1403/1405 0500 FG BKN002 TEMPO 1408/1417 34008G13MPS PROB40 TEMPO 1410/1417 -TSRA BKN016CB",
    "ULLI": "TAF ULLI 140151Z 1403/1503 03005G10MPS 9999 SCT016 BECMG 1412/1414 34005MPS BECMG 1418/1419 28003MPS",
    "USSS": "TAF USSS 140159Z 1403/1503 12003G13MPS 9999 -SHRA BKN016CB TEMPO 1403/1503 VRB20MPS -TSRA SQ",
    "UNNT": "TAF UNNT 140200Z 1403/1503 35003G08MPS 8000 BKN010 TX25/1409Z TN13/1422Z BECMG 1404/1408 SCT016",
    "UNKL": "TAF UNKL 140149Z 1403/1503 26003G08MPS 8000 SCT040 TEMPO 1403/1415 29008G16MPS -TSRA BKN016CB",
    "UIBB": "TAF UIBB 140200Z 1403/1503 20003G08MPS 9999 BKN050CB TEMPO 1403/1412 VRB08MPS BECMG 1412/1415 30005MPS",
    "UEEE": "TAF UEEE 140200Z 1403/1509 13003G10MPS 9999 SCT030CB BKN100 TX31/1406Z TN18/1418Z TEMPO 1403/1412 VRB18MPS 3200 -TSRA SQ SCT010 BKN030CB OVC100",
    "UHHH": "TAF UHHH 140148Z 1403/1509 24005G10MPS 9999 SCT030CB TX31/1406Z TN22/1420Z TEMPO 1403/1409 26010MPS BECMG 1410/1412 17003MPS BECMG 1422/1424 36005MPS",
    "UHSS": "TAF UHSS 140145Z 1403/1509 19003MPS 9999 BKN006 OVC016 BECMG 1410/1412 1400 BR BKN004 TEMPO 1412/1422 0600 FG BKN002 BECMG 1422/1424 9999 NSW BKN016CB"
  },
  "atis": {},
  "windtemp_alaska": "\n000\nFBAK31 KWNO 140159\nFD1AK1\nDATA BASED ON 140000Z    \nVALID 140600Z   FOR USE 0200-0900Z. TEMPS NEG ABV 24000\n\nFT  3000    6000    9000   12000   18000   24000  30000  34000  39000\nADK 3117 2919+05 2924+02 2831-02 2845-12 2955-25 307541 318551 304851\nADQ 1622 2116+07 2432+05 2444+00 2546-12 2650-23 266539 257648 257957\nAKN 1636 1724+06 2131+03 2339-01 2353-12 2369-23 238039 238649 239856\nANC 1618 1726+02 1919-03 2222-06 2640-16 2654-25 268141 279249 266254\nANN 3410 3207+05 3312+01 3510-04 3514-17 3520-29 342345 352152 331847\nBET 1519 1518+00 1814-03 1820-06 2138-15 2243-27 225043 227050 224647\nBRW 9900 1909+01 2114-03 1918-09 1516-22 1612-33 151349 151847 161342\nBTI 2819 2710+05 1607+00 1612-06 1730-20 1744-31 176647 175652 182047\nBTT 2010 2111+01 2215-05 2117-10 1918-23 1824-36 172249 212543 232341\nCDB 2139 2144+09 2147+04 2153-01 2162-14 2182-25 711239 711448 219252\nCZF 1611 1507-01 1806-04 1909-09 2018-20 2238-29 226944 225850 223143\nEHM 1422 1624+03 2029+02 2132-04 2139-15 2153-27 217642 219149 226148\nFAI 2013 2024+03 2025-03 2122-09 2220-22 2430-33 266845 265545 243744\nFYU 2412 2313+03 2219-03 2119-09 2118-23 1826-35 183247 203045 222744\nGAL 2014 1809-01 1710-06 1911-11 2017-23 2519-33 265045 254543 243543\nGKN 1724 1930+02 1921-03 2115-08 2730-18 2755-27 288141 289150 275550\nHOM 1620 1626+01 1923+01 2124-04 2543-13 2657-24 257840 268550 268454\nJNU 2506 2707+01 2810+01 2507-03 2509-16 2813-28 323244 334352 323049\nLUR 9900 0410+00 0416-05 0415-10 0314-23 0219-36 061647 130543 160841\nMCG 2025 1929+00 1925-04 2125-10 2448-18 2561-28 248243 258650 245647\nMDO 1414 1613+03 2010+00 2314-04 2733-14 2847-23 286939 287549 288056\nOME 1819 1825-02 2021-05 2120-09 2118-20 2013-32 211648 222346 232442\nORT      2617+05 2313-02 2214-08 2321-20 2735-30 297843 286148 273447\nOTZ 2017 1714-02 1812-06 1811-11 2213-21 2318-34 252147 231745 221541\nSNP 0118 3615+01 3312-04 2911-07 2618-19 2223-28 204144 213748 232742\nTKA 1822 1929+01 1925-04 2025-08 2541-18 2659-27 268542 269450 266250\nUNK 1913 1711-02 1815-05 2116-09 2313-20 2322-32 258344 256348 233643\nYAK 9900 2611+01 2612-02 2511-05 2920-14 3032-26 315842 317651 316453\nIKO 3028 2833+04 2839+01 2738-03 2543-15 2444-27 244243 244748 234745\nAFM 1821 1817-01 1922-06 1925-12 1923-24 1913-35 200947 211843 221540\n5AB 2608 2621+03 2937+03 2943-01 2942-11 2946-22 295139 305849 305459\n5AC 0111 0310+04 0208+01 0109-03 3622-16 3531-28 366242 367051 355451\n5AD 2217 2514+07 3126+05 3137+01 3029-11 3126-21 323337 323947 315257\n5AE 2436 2333+11 2441+07 2444+01 2449-12 2441-22 244737 245547 246057\n5AF 2808 3009+03 2708+00 2510-04 3115-14 3228-26 345942 346951 347053\n5AG 2210 2309+03 2412-01 2613-03 3027-12 3037-23 315940 317149 317957\n",
  "vaac_active": [
    {
      "volcano": "MAYON",
      "volcano_jp": "マヨン",
      "advisory_nr": "2026/739",
      "obs_time": "2026-07-14 00:06Z",
      "issued_time": "2026-07-14 02:46Z",
      "text_url": "https://www.data.jma.go.jp/vaac/data/TextData/2026/20260714_27303000_0739_Text.html",
      "lat": 13.25,
      "lon": 123.683,
      "text": "FVFE01 RJTD 140246\nVA ADVISORY\nDTG: 20260714/0246Z\nVAAC: TOKYO\nVOLCANO: MAYON 273030\nPSN: N1315 E12341\nAREA: PHILIPPINES\nSOURCE ELEV: 2462M AMSL\nADVISORY NR: 2026/739\nINFO SOURCE: HIMAWARI-9 PHIVOLCS\nERUPTION DETAILS: ERUPTION AT 20260714/0006Z FL130 EXTD ENE REPORTED\nOBS VA DTG: 14/0230Z\nOBS VA CLD: VA NOT IDENTIFIABLE FM SATELLITE DATA WIND FL130 020/4KT\nFCST VA CLD +6 HR: NOT AVBL\nFCST VA CLD +12 HR: NOT AVBL\nFCST VA CLD +18 HR: NOT AVBL\nRMK: WE WILL ISSUE FURTHER ADVISORY IF VA IS DETECTED IN SATELLITE \nIMAGERY.\nNXT ADVISORY: NO FURTHER ADVISORIES="
    },
    {
      "volcano": "MAYON",
      "volcano_jp": "マヨン",
      "advisory_nr": "2026/738",
      "obs_time": "2026-07-14 00:06Z",
      "issued_time": "2026-07-14 01:46Z",
      "text_url": "https://www.data.jma.go.jp/vaac/data/TextData/2026/20260714_27303000_0738_Text.html",
      "lat": 13.25,
      "lon": 123.683,
      "text": "FVFE01 RJTD 140146\nVA ADVISORY\nDTG: 20260714/0146Z\nVAAC: TOKYO\nVOLCANO: MAYON 273030\nPSN: N1315 E12341\nAREA: PHILIPPINES\nSOURCE ELEV: 2462M AMSL\nADVISORY NR: 2026/738\nINFO SOURCE: HIMAWARI-9 PHIVOLCS\nERUPTION DETAILS: ERUPTION AT 20260714/0006Z FL120 EXTD ENE REPORTED\nOBS VA DTG: 14/0130Z\nOBS VA CLD: VA NOT IDENTIFIABLE FM SATELLITE DATA WIND FL120 020/4KT\nFCST VA CLD +6 HR: NOT AVBL\nFCST VA CLD +12 HR: NOT AVBL\nFCST VA CLD +18 HR: NOT AVBL\nRMK: WE WILL ISSUE FURTHER ADVISORY IF VA IS DETECTED IN SATELLITE \nIMAGERY.\nNXT ADVISORY: NO FURTHER ADVISORIES="
    },
    {
      "volcano": "MAYON",
      "volcano_jp": "マヨン",
      "advisory_nr": "2026/737",
      "obs_time": "2026-07-13 23:32Z",
      "issued_time": "2026-07-14 00:13Z",
      "text_url": "https://www.data.jma.go.jp/vaac/data/TextData/2026/20260714_27303000_0737_Text.html",
      "lat": 13.25,
      "lon": 123.683,
      "text": "FVFE01 RJTD 140013\nVA ADVISORY\nDTG: 20260714/0013Z\nVAAC: TOKYO\nVOLCANO: MAYON 273030\nPSN: N1315 E12341\nAREA: PHILIPPINES\nSOURCE ELEV: 2462M AMSL\nADVISORY NR: 2026/737\nINFO SOURCE: HIMAWARI-9 PHIVOLCS\nERUPTION DETAILS: ERUPTION AT 20260713/2332Z FL110 EXTD ENE REPORTED\nOBS VA DTG: 13/2350Z\nOBS VA CLD: VA NOT IDENTIFIABLE FM SATELLITE DATA WIND FL110 010/3KT\nFCST VA CLD +6 HR: NOT AVBL\nFCST VA CLD +12 HR: NOT AVBL\nFCST VA CLD +18 HR: NOT AVBL\nRMK: WE WILL ISSUE FURTHER ADVISORY IF VA IS DETECTED IN SATELLITE \nIMAGERY.\nNXT ADVISORY: NO FURTHER ADVISORIES="
    }
  ],
  "vaac_tokyo": [
    {
      "id": "20260714_27303000_0739",
      "year": "2026",
      "volcano": "Mayon",
      "psn": "N1315 E12341",
      "issued": "20260714",
      "text": "FVFE01 RJTD 140246\nVA ADVISORY\nDTG: 20260714/0246Z\nVAAC: TOKYO\nVOLCANO: MAYON 273030\nPSN: N1315 E12341\nAREA: PHILIPPINES\nSOURCE ELEV: 2462M AMSL\nADVISORY NR: 2026/739\nINFO SOURCE: HIMAWARI-9 PHIVOLCS\nERUPTION DETAILS: ERUPTION AT 20260714/0006Z FL130 EXTD ENE REPORTED\nOBS VA DTG: 14/0230Z\nOBS VA CLD: VA NOT IDENTIFIABLE FM SATELLITE DATA WIND FL130 020/4KT\nFCST VA CLD +6 HR: NOT AVBL\nFCST VA CLD +12 HR: NOT AVBL\nFCST VA CLD +18 HR: NOT AVBL\nRMK: WE WILL ISSUE FURTHER ADVISORY IF VA IS DETECTED IN SATELLITE \nIMAGERY.\nNXT ADVISORY: NO FURTHER ADVISORIES=",
      "img_url": "https://ds.data.jma.go.jp/svd/vaac/data/VAGFN/2026/Images/20260714_27303000_0739_QH21_01.png",
      "sat_img_url": null,
      "text_url": "https://ds.data.jma.go.jp/svd/vaac/data/TextData/2026/20260714_27303000_0739_Text.html"
    },
    {
      "id": "20260713_28208001_0083",
      "year": "2026",
      "volcano": null,
      "psn": "N3136 E13039",
      "issued": "20260713",
      "text": "FVFE01 RJTD 130254\nVA ADVISORY\nDTG: 20260713/0254Z\nVAAC: TOKYO\nVOLCANO: SAKURAJIMA (AIRA CALDERA) 282080\nPSN: N3136 E13039\nAREA: JAPAN\nSOURCE ELEV: 1117M AMSL\nADVISORY NR: 2026/83\nINFO SOURCE: JMA HIMAWARI-9\nERUPTION DETAILS: ERUPTED AT 20260713/0152Z FL100 EXTD N\nOBS VA DTG: 13/0230Z\nOBS VA CLD: SFC/FL100 N3136 E13039 - N3142 E13040 - N3141 E13044 - \nN3134 E13042 MOV NE 15KT\nFCST VA CLD +6 HR: 13/0830Z SFC/FL100 N3234 E13121 - N3145 E13155 - \nN3202 E13110 - N3227 E13051\nFCST VA CLD +12 HR: 13/1430Z SFC/FL100 N3318 E13206 - N3142 E13317 - \nN3134 E13226 - N3312 E13118\nFCST VA CLD +18 HR: NO VA EXP\nRMK: NIL\nNXT ADVISORY: 20260713/0600Z=",
      "img_url": "https://ds.data.jma.go.jp/svd/vaac/data/VAGFN/2026/Images/20260713_28208001_0083_QH21_01.png",
      "sat_img_url": "https://ds.data.jma.go.jp/svd/vaac/data/Sat/2026/Images/28208001/09-ir/20260713_0230_202607130254_ir.png",
      "text_url": "https://ds.data.jma.go.jp/svd/vaac/data/TextData/2026/20260713_28208001_0083_Text.html"
    },
    {
      "id": "20260712_27307000_0012",
      "year": "2026",
      "volcano": "Taal",
      "psn": "N1400 E12100",
      "issued": "20260712",
      "text": "FVFE01 RJTD 121243\nVA ADVISORY\nDTG: 20260712/1243Z\nVAAC: TOKYO\nVOLCANO: TAAL 273070\nPSN: N1400 E12100\nAREA: PHILIPPINES\nSOURCE ELEV: 311M AMSL\nADVISORY NR: 2026/12\nINFO SOURCE: HIMAWARI-9 PHIVOLCS\nERUPTION DETAILS: ERUPTION AT 20260712/1227Z FL050 EXTD NE REPORTED\nOBS VA DTG: 12/1230Z\nOBS VA CLD: VA NOT IDENTIFIABLE FM SATELLITE DATA WIND FL050 230/19KT\nFCST VA CLD +6 HR: NOT AVBL\nFCST VA CLD +12 HR: NOT AVBL\nFCST VA CLD +18 HR: NOT AVBL\nRMK: WE WILL ISSUE FURTHER ADVISORY IF VA IS DETECTED IN SATELLITE \nIMAGERY.\nNXT ADVISORY: NO FURTHER ADVISORIES=",
      "img_url": "https://ds.data.jma.go.jp/svd/vaac/data/VAGFN/2026/Images/20260712_27307000_0012_QH21_01.png",
      "sat_img_url": null,
      "text_url": "https://ds.data.jma.go.jp/svd/vaac/data/TextData/2026/20260712_27307000_0012_Text.html"
    },
    {
      "id": "20260712_30019000_0003",
      "year": "2026",
      "volcano": "Krasheninnikov",
      "psn": "N5436 E16016",
      "issued": "20260712",
      "text": "FVFE01 RJTD 120130\nVA ADVISORY\nDTG: 20260712/0130Z\nVAAC: TOKYO\nVOLCANO: KRASHENINNIKOV 300190\nPSN: N5436 E16016\nAREA: RUSSIA\nSOURCE ELEV: 1816M AMSL\nADVISORY NR: 2026/3\nINFO SOURCE: HIMAWARI-9\nERUPTION DETAILS: VA AT 20260712/0100Z FL080 EXTD SE\nOBS VA DTG: 12/0100Z\nOBS VA CLD: SFC/FL080 N5440 E16023 - N5412 E16045 - N5402 E16033 - \nN5434 E16013 MOV SE 20KT\nFCST VA CLD +6 HR: 12/0700Z SFC/FL080 N5310 E16258 - N5251 E16229 - \nN5302 E16111 - N5436 E16016\nFCST VA CLD +12 HR: 12/1300Z SFC/FL090 N5233 E16425 - N5158 E16444 - \nN5210 E16103 - N5446 E16008 - N5251 E16216\nFCST VA CLD +18 HR: 12/1900Z SFC/FL090 N5142 E16614 - N5044 E16548 - \nN5213 E15943 - N5432 E15924 - N5448 E16118 - N5223 E16227\nRMK: NIL\nNXT ADVISORY: 20260712/0600Z=",
      "img_url": "https://ds.data.jma.go.jp/svd/vaac/data/VAGFN/2026/Images/20260712_30019000_0003_QH21_01.png",
      "sat_img_url": "https://ds.data.jma.go.jp/svd/vaac/data/Sat/2026/Images/30019000/09-ir/20260712_0100_202607120130_ir.png",
      "text_url": "https://ds.data.jma.go.jp/svd/vaac/data/TextData/2026/20260712_30019000_0003_Text.html"
    }
  ],
  "vaac_alaska": [
    {
      "text": "\n000\nFVAK21 PAWU 111230\nVAAAK1\nVA ADVISORY\n\nDTG: 20260711/1224Z\n\nVAAC: ANCHORAGE\n\nVOLCANO: SHEVELUCH 300270\n\nPSN: N5639 E16122\n\nAREA: KAMCHATKA PENINSULA\n\nSOURCE ELEV: 10771 FT AMSL\n\nADVISORY NR: 2026/193\n\nRMK: PLEASE SEE FVXX2 KNES ISSUED BY VAAC WASHINGTON WHICH DESCRIBES\nCONDITIONS NEAR THE VAAC ANCHORAGE AREA OF RESPONSIBILITY...CC\n\n\n\n",
      "issued": "2026-07-11T12:30:00+00:00",
      "volcano": "Sheveluch",
      "psn": "N5639 E16122"
    }
  ]
}