{
  "updated_utc": "2026-07-22T06:25Z",
  "metar": {
    "RJAA": "METAR RJAA 220430Z 13007KT 090V160 9999 FEW030 BKN035 34/28 Q1005 NOSIG",
    "PANC": "METAR PANC 220453Z 13011G20KT 10SM -RA OVC070 12/06 A3003 RMK AO2 PK WND 15028/0408 RAB0354 SLP170 P0001 T01170061",
    "PAFA": "METAR PAFA 220453Z 00000KT 10SM FEW050 SCT110 BKN200 20/12 A2978 RMK AO2 SLP088 T02000117",
    "PAED": "METAR PAED 220455Z COR 34006KT 6SM -RA FEW037 OVC050 12/09 A3002 RMK AO2A SLP162 P0003 T01180094 $ COR 0456",
    "KSEA": "METAR KSEA 220453Z 34005KT 10SM SCT220 26/12 A2993 RMK A02 SLP138 T02560122 $",
    "ZSPD": "METAR ZSPD 220430Z 19004MPS 150V220 CAVOK 34/26 Q1005 NOSIG",
    "ZSSS": "METAR ZSSS 220430Z 22003MPS 170V250 CAVOK 33/26 Q1005 NOSIG",
    "RJFR": "METAR RJFR 220500Z 02007KT 330V060 9999 FEW025 34/24 Q1008",
    "VHHH": "METAR VHHH 220430Z 14009KT 100V200 9999 FEW010 SCT025 31/25 Q1008 NOSIG",
    "RCTP": "METAR RCTP 220430Z 28013KT 9999 FEW020 34/25 Q1009 NOSIG RMK A2980",
    "ZGSZ": "METAR ZGSZ 220500Z 19006MPS 9999 FEW026 31/27 Q1008 NOSIG",
    "WSSS": "METAR WSSS 220430Z VRB07KT 0800 R20R/P2000N R20C/P2000N R20L/P2000N +TSRA FEW007 FEW015CB BKN017TCU 25/24 Q1013 BECMG TL0500 2500 BECMG FM0515 TL0530 4000 -TSRA BECMG FM0540 TL0550 6000 NSW",
    "WMKK": "METAR WMKK 220430Z VRB02KT 9000 FEW017CB SCT018 30/26 Q1012 NOSIG",
    "WIDD": "METAR WIDD 220430Z 29006KT 9999 -TSRA FEW013CB SCT014 26/24 Q1013 NOSIG RMK CB TO NW-N",
    "VTBS": "METAR VTBS 220430Z 21006KT 180V260 9999 FEW020 32/21 Q1010 NOSIG",
    "VTBU": "METAR VTBU 220430Z 27009KT 9999 FEW020 33/27 Q1010 NOSIG",
    "ROAH": "METAR ROAH 220430Z 24004KT 210V300 9999 -SHRA FEW015 BKN035 30/27 Q1009",
    "VVDN": "METAR VVDN 220430Z 35008KT 9999 FEW020 SCT063 35/21 Q1007 NOSIG",
    "RCKH": "METAR RCKH 220430Z 27009KT 240V300 9999 FEW018 32/25 Q1009 NOSIG RMK 26010KT/R09 A2980",
    "KLAX": "METAR KLAX 220453Z 26011KT 10SM FEW015 23/19 A3000 RMK AO2 SLP155 T02280189",
    "KONT": "METAR KONT 220453Z 24008KT 10SM CLR 25/12 A3002 RMK AO2 SLP149 T02500122 $",
    "KSFO": "METAR KSFO 220456Z 22012KT 10SM FEW011 22/17 A2993 RMK AO2 SLP133 T02220167 $",
    "KOAK": "METAR KOAK 220453Z 31007KT 10SM FEW010 FEW200 21/17 A2994 RMK AO2 SLP139 T02060172",
    "KMHR": "METAR KMHR 220435Z AUTO 22010KT 10SM CLR 29/10 A2986 RMK AO2 T02870098 $",
    "KDFW": "METAR KDFW 220453Z 17004KT 10SM CLR 33/20 A2986 RMK AO2 SLP100 T03280200 $",
    "KIAH": "METAR KIAH 220453Z 00000KT 10SM BKN250 28/23 A2986 RMK AO2 SLP109 T02780228",
    "KORD": "METAR KORD 220451Z 04016KT 10SM BKN023 BKN032 20/14 A2994 RMK AO2 SLP135 T02000139 $",
    "KJFK": "METAR KJFK 220451Z 22008KT 10SM FEW020 BKN190 BKN250 23/21 A2970 RMK AO2 SLP058 T02280206 402720222 $",
    "KRFD": "METAR KRFD 220454Z 04004KT 10SM FEW055 SCT070 21/12 A2997 RMK AO2 SLP143 T02060122",
    "KIND": "METAR KIND 220454Z 32006KT 10SM BKN050 OVC060 24/19 A2987 RMK AO2 SLP107 T02390189 403280228",
    "KDTW": "METAR KDTW 220453Z 32008KT 9SM FEW045 FEW080 SCT180 17/11 A2983 RMK AO2 SLP097 T01720111 403110172",
    "KMSP": "METAR KMSP 220453Z 06008KT 10SM FEW250 19/10 A3006 RMK AO2 SLP175 T01890100",
    "CYEG": "SPECI CYEG 220439Z 15005KT 8SM FEW250 17/16 A3008 RMK CI1 CI TR FU SLP191 DENSITY ALT 3000FT",
    "EHAM": "METAR EHAM 220455Z 31004KT 9999 FEW012 BKN033 15/14 Q1024 NOSIG",
    "EBBR": "METAR EBBR 220450Z 31004KT 270V330 9999 FEW018 BKN040 16/13 Q1025 NOSIG",
    "EDDF": "METAR EDDF 220450Z AUTO VRB02KT CAVOK 12/07 Q1022 NOSIG",
    "EDFH": "METAR EDFH 220450Z 28004KT 250V320 CAVOK 12/08 Q1024",
    "EDDL": "METAR EDDL 220450Z AUTO 25004KT 9999 OVC039 15/12 Q1023 NOSIG",
    "EDDK": "METAR EDDK 220450Z AUTO VRB01KT 9999 FEW025 BKN039 12/10 Q1024 NOSIG",
    "EBLG": "METAR EBLG 220450Z 25002KT 9999 FEW018 BKN033 13/12 Q1025 NOSIG",
    "LSZH": "METAR LSZH 220450Z 34004KT 310V010 CAVOK 11/08 Q1023 NOSIG",
    "LIMC": "METAR LIMC 220450Z 01006KT CAVOK 19/16 Q1019 NOSIG",
    "LIRF": "METAR LIRF 220450Z 04004KT 360V060 CAVOK 24/19 Q1012 NOSIG",
    "EINN": "METAR EINN 220430Z 35007KT 9999 BKN020 14/10 Q1031 NOSIG",
    "EGLL": "METAR EGLL 220450Z AUTO 16004KT 9999 NCD 15/12 Q1026",
    "EGSS": "METAR EGSS 220450Z AUTO 05001KT 9999 BKN043 14/11 Q1027",
    "EPWA": "METAR EPWA 220430Z 27008KT CAVOK 12/09 Q1015 NOSIG",
    "UHPP": "METAR UHPP 220430Z 20006MPS 6000 -SHRA BKN006 OVC017CB 12/12 Q1005 R16R/190062 NOSIG RMK MT OBSC QFE751/1001",
    "EFHK": "METAR EFHK 220450Z 34005KT 9999 FEW035 BKN047 12/10 Q1008 NOSIG",
    "LBBG": "METAR LBBG 220430Z 21003KT 160V240 9999 FEW009 SCT012 24/21 Q1013 NOSIG",
    "LTAC": "METAR LTAC 220450Z VRB03KT CAVOK 20/08 Q1016 NOSIG RMK RWY21C 03008KT RWY03L VRB02KT RWY21R 02007KT 340V040 RWY03R VRB01KT RWY21L 00000KT",
    "UBBB": "METAR UBBB 220430Z 13006KT CAVOK 29/18 Q1010 NOSIG",
    "UTAA": "METAR UTAA 220500Z 30012KT 9999 FEW050 30/16 Q1010 R88/CLRD70 NOSIG",
    "UACC": "METAR UACC 220430Z 29002MPS 220V320 9999 SCT010 BKN030CB 17/16 Q1000 NOSIG RMK QFE719/0959",
    "UAAA": "METAR UAAA 220430Z 02003MPS 360V060 9999 SCT050CB BKN100 24/18 Q1007 NOSIG",
    "UZTT": "METAR UZTT 220430Z 19008KT 130V230 CAVOK 29/16 Q1007 NOSIG",
    "ZWWW": "METAR ZWWW 220430Z 32006MPS 6000 NSC 29/15 Q1007 NOSIG",
    "ZLXY": "METAR ZLXY 220500Z 06006MPS 030V110 9999 FEW050TCU 31/20 Q1004 NOSIG",
    "ZBAA": "METAR ZBAA 220430Z 12003MPS 030V160 9999 BKN016 25/22 Q1005 NOSIG",
    "ZBHH": "METAR ZBHH 220500Z 17002MPS 120V220 9999 SCT040 26/16 Q1007 NOSIG",
    "ZSQD": "METAR ZSQD 220500Z 17005MPS CAVOK 29/23 Q1005 NOSIG",
    "ZMCK": "METAR ZMCK 220430Z 27004MPS 180V330 9999 SCT030CB SCT033 23/11 Q1007 NOSIG RMK QFE641.0 45 MOP",
    "UUEE": "METAR UUEE 220430Z 20003MPS CAVOK 18/14 Q1007 R24L/CLRD62 R24C/CLRD62 NOSIG",
    "UUDD": "METAR UUDD 220430Z 20003MPS CAVOK 18/16 Q1008 R31L/290045 NOSIG",
    "ULLI": "METAR ULLI 220430Z VRB01MPS 9999 BKN003 OVC016 13/12 Q1005 R88/090065 NOSIG RMK QBB110 OBST OBSC",
    "USSS": "METAR USSS 220430Z 30003MPS 270V340 CAVOK 25/18 Q1010 R26R/CLRD60 R26L/CLRD60 NOSIG RMK QFE737/0983",
    "UNNT": "METAR UNNT 220430Z 02003MPS 350V060 CAVOK 25/18 Q0996 R25/CLRD// R16/CLRD// NOSIG RMK QFE737/0983",
    "UNKL": "METAR UNKL 220430Z 10002MPS CAVOK 20/16 Q0997 R11/CLRD// NOSIG RMK QFE722",
    "UIBB": "METAR UIBB 220430Z 12004MPS 050V160 9999 NSC 25/14 Q1002 R12/CLRD62 NOSIG RMK QFE709/0945",
    "UEEE": "METAR UEEE 220430Z 03005MPS 9999 FEW050CB 21/16 Q1007 R23/09//63 NOSIG RMK QFE746",
    "UHHH": "METAR UHHH 220430Z 07005MPS CAVOK 30/20 Q1005 R88/090060 NOSIG RMK QFE747/0997",
    "UHSS": "METAR UHSS 220430Z 20005MPS 9999 FEW040CB 24/20 Q1006 R19/CLRD70 NOSIG RMK QFE753/1004"
  },
  "taf": {
    "RJAA": "TAF RJAA 220505Z 2206/2312 13008KT 9999 FEW015 BKN030 TEMPO 2206/2208 TS FEW015 FEW020CB BKN030 BECMG 2218/2221 05006KT BECMG 2300/2303 09010KT TEMPO 2309/2312 FEW003 SCT005 BKN008 BECMG 2309/2312 04008KT",
    "PANC": "TAF PANC 220521Z 2206/2312 14016G28KT P6SM VCSH FEW030 BKN060 TEMPO 2206/2210 -SHRA FM221400 15015G25KT P6SM -SHRA SCT025 OVC050 FM221800 16010G18KT P6SM SCT045 BKN080 FM230300 16018G26KT P6SM -RA OVC040 FM230800 16018G28KT 5SM -RA BR SCT020 OVC035",
    "PAFA": "TAF PAFA 220520Z 2206/2312 11005KT P6SM FEW050 SCT110 BKN200 FM221200 21004KT 6SM -SHRA BR SCT025 BKN050 FM222000 18005KT P6SM VCSH OVC050",
    "PAED": "TAF PAED 220500Z 2205/2311 33009KT 9000 -SHRA FEW022 SCT037 OVC060 640703 520106 QNH2996INS BECMG 2210/2211 33009KT 9999 NSW FEW020 OVC040 620604 QNH2996INS BECMG 2302/2303 32007KT 9000 -RA FEW009 BKN055 OVC070 640901 QNH2978INS TX13/2301Z TN09/2212Z",
    "KSEA": "TAF KSEA 220522Z 2206/2312 01005KT P6SM FEW250 FM221700 33006KT P6SM SKC FM222100 33009KT P6SM SCT250 FM230600 23007KT P6SM SCT120 BKN250",
    "ZSPD": "TAF ZSPD 220305Z 2206/2312 19004MPS 6000 SCT030 TX34/2206Z TX34/2306Z TN27/2221Z TEMPO 2207/2211 31005MPS TSRA FEW030CB TEMPO 2211/2214 30006G12MPS TSRA FEW030CB",
    "ZSSS": "TAF ZSSS 220305Z 2206/2312 20004MPS 6000 SCT030 TX33/2206Z TX35/2306Z TN27/2221Z TEMPO 2206/2210 33007G12MPS TSRA BKN011 FEW030CB TEMPO 2210/2213 30006G11MPS TSRA BKN013 FEW030CB",
    "RJFR": "TAF RJFR 220505Z 2206/2312 36010KT 9999 FEW030 BECMG 2208/2210 30010KT BECMG 2221/2300 10004KT BECMG 2303/2306 35012KT",
    "VHHH": "TAF VHHH 220500Z 2206/2312 18010KT 9999 FEW010 SCT025 TX33/2206Z TX34/2306Z TN28/2222Z TEMPO 2207/2210 4000 SHRA FEW010CB SCT020 TEMPO 2213/2218 11010KT TEMPO 2218/2224 VRB05KT",
    "RCTP": "TAF RCTP 220500Z 2206/2312 23008KT 9999 FEW015 TEMPO 2206/2210 27015KT FEW010 FEW015TCU BKN020 BECMG 2210/2212 20005KT TEMPO 2218/2223 15005KT SCT010 BKN017 BECMG 2223/2301 23008KT TEMPO 2303/2309 27013KT",
    "ZGSZ": "TAF ZGSZ 220304Z 2206/2312 18004MPS 8000 SCT030 TX32/2206Z TX33/2306Z TN28/2222Z",
    "WSSS": "TAF WSSS 220500Z 2206/2312 19007KT 9999 FEW015 SCT020",
    "WMKK": "TAF WMKK 220500Z 2206/2312 VRB03KT 9000 FEW018 TEMPO 2206/2210 4000 TSRA FEW017CB SCT018",
    "VTBS": "TAF VTBS 220500Z 2206/2312 21008KT 9999 FEW020 TEMPO 2208/2214 VRB15G25KT 4000 TSRA FEW018CB SCT030 BKN100 BECMG 2219/2221 28005KT",
    "VTBU": "TAF VTBU 220500Z 2206/2306 24010KT 9999 FEW020",
    "ROAH": "TAF AMD ROAH 220623Z 2206/2312 28005KT 9999 -SHRA FEW012 BKN020 TEMPO 2206/2209 3000 +SHRA BR FEW008 BKN015 SCT020CB BECMG 2209/2211 21005KT BECMG 2300/2303 02005KT TEMPO 2300/2306 4000 SHRA BR FEW008 BKN015 FEW020CB",
    "VVDN": "TAF VVDN 220500Z 2206/2306 01010KT 9999 FEW020 SCT060 BECMG 2208/2209 10010KT PROB30 TEMPO 2209/2213 4000 TSRA BKN013 FEW015CB BKN050 BECMG 2213/2214 22006KT",
    "RCKH": "TAF RCKH 220500Z 2206/2312 26010KT 9999 FEW015 TEMPO 2210/2214 20005KT BECMG 2214/2216 07005KT FEW015 BKN032 TEMPO 2220/2302 6000 -RA FEW010 BKN022 BECMG 2300/2302 30005KT TEMPO 2304/2310 27010KT",
    "KLAX": "TAF KLAX 220616Z 2206/2312 26008KT P6SM SCT008 BKN010 FM220900 VRB03KT P6SM BKN008 FM221700 26006KT P6SM SKC FM222000 26015KT P6SM SCT250 FM222300 26015G22KT P6SM SCT250 FM230300 26010KT P6SM SCT250 FM230800 26005KT P6SM SKC",
    "KONT": "TAF KONT 220531Z 2206/2312 VRB05KT P6SM SKC FM222100 25011G19KT P6SM FEW200 FM230600 VRB05KT P6SM SKC",
    "KSFO": "TAF KSFO 220520Z 2206/2312 22015KT P6SM FEW010 FM221000 20010KT P6SM OVC010 FM222000 25015KT P6SM OVC200 FM230300 26011KT P6SM BKN250 FM230900 28007KT P6SM OVC010",
    "KOAK": "TAF KOAK 220520Z 2206/2312 31009KT P6SM FEW010 FM220900 25009KT P6SM OVC010 FM222000 28011KT P6SM SCT200 FM230000 28017KT P6SM SCT200 FM230300 28011KT P6SM SCT200 FM230800 28007KT P6SM OVC010",
    "KMHR": "TAF KMHR 220520Z 2206/2306 17009KT P6SM FEW250 FM221600 22009G15KT P6SM SKC FM222100 23012G21KT P6SM SKC",
    "KDFW": "TAF KDFW 220522Z 2206/2312 VRB04KT P6SM FEW080 FM221100 01005KT P6SM FEW250 FM221700 06011KT P6SM SCT060",
    "KIAH": "TAF KIAH 220520Z 2206/2312 VRB03KT P6SM BKN250 FM221400 29006KT P6SM FEW070 SCT250 FM221800 34006KT P6SM FEW070 SCT250",
    "KORD": "TAF KORD 220520Z 2206/2312 02012G20KT P6SM SCT020 SCT050 TEMPO 2206/2208 BKN020 FM220900 35011KT P6SM SCT030 FM221700 02010KT P6SM SCT050 FM230400 29004KT P6SM FEW060",
    "KJFK": "TAF KJFK 220540Z 2206/2312 22012KT P6SM SCT020 SCT040 BKN250 TEMPO 2212/2215 BKN025 FM221500 25014G20KT P6SM SCT025 BKN060 PROB30 2219/2222 4SM -TSRA BKN040CB FM222200 28011G17KT P6SM SCT070 FM230000 34009KT P6SM FEW090",
    "KRFD": "TAF KRFD 220520Z 2206/2306 03009KT P6SM FEW025 SCT070 FM221100 36010KT P6SM SCT040 FM230200 VRB04KT P6SM SCT060",
    "KIND": "TAF KIND 220526Z 2206/2312 34008KT P6SM SCT250 FM220630 02012G20KT P6SM SCT050 FM221100 01010KT P6SM SCT050 FM230100 36007KT P6SM FEW050",
    "KDTW": "TAF KDTW 220523Z 2206/2312 33012KT P6SM BKN035 TEMPO 2206/2210 OVC025 FM221400 33012G20KT P6SM SCT045 FM222000 31012KT P6SM BKN080 FM230100 28007KT P6SM SCT100",
    "KMSP": "TAF KMSP 220520Z 2206/2312 05007KT P6SM FEW250 FM221800 35007KT P6SM FEW060",
    "CYEG": "TAF CYEG 220540Z 2206/2306 VRB03KT P6SM FEW250 TEMPO 2206/2209 3SM FU BR PROB30 2208/2209 3/4SM BR BKN005 FM220900 VRB03KT 1/2SM FG VV002 TEMPO 2209/2214 3SM BR FU FEW002 SCT060 FM221400 16006KT 3/4SM BR BKN005 BECMG 2214/2216 P6SM NSW FEW080 FM222200 VRB03KT P6SM SCT050 RMK NXT FCST BY 220900Z",
    "EHAM": "TAF EHAM 220525Z 2206/2312 32006KT 9999 FEW018 BKN025 PROB30 TEMPO 2208/2211 6000 -RADZ OVC018 BECMG 2209/2212 31015KT BECMG 2217/2220 33007KT BECMG 2309/2312 33011KT",
    "EBBR": "TAF EBBR 220501Z 2206/2312 32006KT 9999 FEW020 SCT040 PROB30 TEMPO 2303/2308 4500 -SHRA BKN012",
    "EDDF": "TAF EDDF 220500Z 2206/2312 VRB03KT CAVOK BECMG 2206/2208 30005KT BECMG 2210/2212 32010KT TEMPO 2212/2216 32010G20KT PROB30 TEMPO 2212/2216 BKN040 BECMG 2222/2301 30005KT PROB30 TEMPO 2306/2310 BKN030 BECMG 2308/2311 31010KT",
    "EDFH": "TAF EDFH 220500Z 2206/2306 32007KT 9999 SCT040 PROB40 TEMPO 2303/2306 BKN014",
    "EDDL": "TAF EDDL 220500Z 2206/2312 25003KT 9999 BKN040 BECMG 2206/2209 29008KT BECMG 2210/2213 30013KT BECMG 2218/2221 30004KT PROB30 TEMPO 2305/2308 BKN010 BECMG 2308/2311 31009KT",
    "EDDK": "TAF EDDK 220500Z 2206/2312 VRB03KT 9999 BKN040 BECMG 2206/2208 31007KT BECMG 2209/2212 31012KT BECMG 2218/2221 32006KT PROB30 TEMPO 2304/2307 BKN010",
    "EBLG": "TAF EBLG 220501Z 2206/2312 32006KT 9999 FEW020 SCT040 PROB30 TEMPO 2305/2310 4500 -SHRA BKN012",
    "LSZH": "TAF LSZH 220525Z 2206/2312 VRB02KT CAVOK TX27/2215Z TN12/2206Z TN13/2304Z PROB40 2212/2218 9999 FEW070 PROB40 TEMPO 2215/2219 30008KT",
    "LIMC": "TAF LIMC 220500Z 2206/2312 VRB05KT 9999 FEW050",
    "LIRF": "TAF LIRF 220500Z 2206/2312 03010KT CAVOK BECMG 2209/2211 29015KT BECMG 2215/2217 34015KT BECMG 2302/2304 04010KT",
    "EINN": "TAF EINN 220500Z 2206/2306 35008KT 9999 BKN016 PROB40 2303/2306 2000 BR BKN003",
    "EGLL": "TAF EGLL 220451Z 2206/2312 13003KT 9999 FEW045 BECMG 2210/2213 04010KT BECMG 2218/2221 14010KT PROB30 2303/2308 20004KT BECMG 2308/2311 20006KT",
    "EGSS": "TAF EGSS 220458Z 2206/2312 09004KT 9999 SCT045",
    "EPWA": "TAF EPWA 220530Z 2206/2306 27011KT CAVOK TEMPO 2210/2220 29017G27KT SCT045TCU PROB40 TEMPO 2215/2219 4000 SHRA BKN040CB PROB40 TEMPO 2300/2306 21005KT -SHRA SCT012 BKN020CB",
    "UHPP": "TAF UHPP 220452Z 2206/2312 20005G12MPS 4500 -SHRA BR BKN006 BKN020CB TEMPO 2206/2221 1000 SHRA BR BKN004 OVC013CB BECMG 2209/2211 27003G08MPS BECMG 2221/2223 20005G12MPS 9999 NSW",
    "EFHK": "TAF EFHK 220525Z 2206/2306 33005KT 9999 SCT045 PROB30 TEMPO 2206/2208 7000 -SHRA BKN012 FEW040CB PROB40 2213/2218 18010KT",
    "LBBG": "TAF LBBG 220500Z 2206/2306 VRB03KT 9999 SCT015 SCT045 BECMG 2206/2208 12014KT TEMPO 2209/2216 VRB18G34KT 5000 TSRA SCT010 SCT030CB BKN040 BECMG 2216/2217 32010KT",
    "LTAC": "TAF LTAC 220440Z 2206/2306 VRB02KT CAVOK PROB30 TEMPO 2214/2218 27012KT BECMG 2303/2306 SCT040 SCT100",
    "UBBB": "TAF UBBB 220503Z 2206/2306 15008KT CAVOK TX33/2210Z TN22/2301Z TEMPO 2206/2214 18016KT SCT020 TEMPO 2214/2218 19005KT BECMG 2218/2220 VRB04KT TEMPO 2220/2304 32005KT FEW010",
    "UTAA": "TAF UTAA 220458Z 2206/2306 28016KT 6000 SCT040 SCT050CB TEMPO 2206/2212 33014G24KT 4000 DRDU TEMPO 2212/2218 36018G28KT 3000 BLDU",
    "UACC": "TAF UACC 220500Z 2206/2306 35005MPS 9999 SCT020CB BKN050 TX21/2210Z TN15/2223Z TEMPO 2206/2216 VRB16MPS 2000 TSRA SQ SCT011 BKN015CB BECMG 2216/2218 36003MPS SCT030 BKN100 TEMPO 2216/2304 02005MPS -SHRA SCT011 BKN020CB",
    "UAAA": "TAF UAAA 220507Z 2206/2306 04003MPS 9999 SCT050CB BKN100 TX27/2209Z TN18/2300Z TEMPO 2206/2214 10005G12MPS TS BECMG 2214/2215 17005MPS TEMPO 2300/2306 26005G10MPS 5000 -TSRA BR",
    "UZTT": "TAF UZTT 220500Z 2206/2306 22010KT 7000 FEW060CB SCT100 TX35/2211Z TN24/2300Z TEMPO 2206/2218 28010G20KT SCT050CB PROB40 TEMPO 2206/2218 -TSRA BKN050CB",
    "ZWWW": "TAF ZWWW 220306Z 2206/2312 33004G11MPS 8000 BKN040 TX32/2209Z TX31/2309Z TN24/2223Z BECMG 2306/2307 FEW040CB BKN040",
    "ZLXY": "TAF AMD ZLXY 220518Z 2206/2306 06004MPS 6000 NSC TX35/2207Z TN23/2221Z TEMPO 2214/2216 30012G20MPS TSRA FEW040CB OVC050",
    "ZBAA": "TAF ZBAA 220303Z 2206/2312 14004MPS 6000 NSC TX27/2206Z TX28/2306Z TN21/2221Z TEMPO 2209/2213 TSRA FEW030CB BKN040",
    "ZBHH": "TAF ZBHH 220312Z 2206/2306 24004G09MPS 9999 SCT040 TX30/2208Z TN15/2222Z TEMPO 2206/2209 SCT040 FEW040CB BECMG 2211/2212 -TSRA SCT040 FEW040CB TEMPO 2212/2214 2800 +TSRA BECMG 2214/2215 NSW NSC",
    "ZSQD": "TAF ZSQD 220301Z 2206/2306 16004MPS 5000 BR NSC TX32/2306Z TN22/2220Z",
    "ZMCK": "TAF ZMCK 220447Z 2206/2312 VRB02MPS 9999 FEW030CB SCT033 TX26/2207Z TN12/2221Z TEMPO 2206/2215 VRB08G13MPS TSRA SCT027CB SCT030",
    "UUEE": "TAF UUEE 220450Z 2206/2306 22003MPS 9999 BKN020 TX25/2212Z TN15/2302Z TEMPO 2209/2218 24008G13MPS PROB40 TEMPO 2212/2218 -TSRA BKN016CB",
    "UUDD": "TAF UUDD 220452Z 2206/2312 21005MPS 9999 BKN020 TX25/2212Z TN14/2301Z TEMPO 2208/2217 21008G13MPS PROB40 TEMPO 2210/2217 -TSRA BKN030CB BECMG 2304/2306 27005MPS",
    "ULLI": "TAF ULLI 220458Z 2206/2306 34003MPS 6000 BKN016 TEMPO 2206/2208 SCT004 TEMPO 2209/2217 3100 -TSRA BKN016CB TEMPO 2222/2303 0400 FG SCT005",
    "USSS": "TAF USSS 220451Z 2206/2306 34003G14MPS 9999 SCT040CB TEMPO 2206/2217 -TSRA FM221800 30003MPS 6000 SCT016 FM230300 07003G12MPS 9999 SCT040",
    "UNNT": "TAF UNNT 220500Z 2206/2306 34003G08MPS 8000 BKN030 TX25/2210Z TN17/2222Z TEMPO 2206/2218 05008G18MPS -TSRA BKN010 BKN020CB TEMPO 2218/2306 -TSRA BKN020CB",
    "UNKL": "TAF UNKL 220451Z 2206/2306 20003G08MPS 8000 SCT040 TEMPO 2206/2212 27007G16MPS -TSRAGR BKN010 BKN016CB TEMPO 2212/2218 -TSRA BKN016CB BECMG 2221/2223 27005G12MPS",
    "UIBB": "TAF UIBB 220500Z 2206/2306 11003G08MPS 9999 SCT050CB TEMPO 2206/2215 VRB08MPS BECMG 2301/2303 23005MPS",
    "UEEE": "TAF UEEE 220500Z 2206/2312 01003G08MPS 9999 BKN033CB OVC100 TEMPO 2206/2218 VRB08MPS 2100 -TSRA SCT010 BKN033CB OVC100",
    "UHHH": "TAF UHHH 220447Z 2206/2312 05003G08MPS 9999 SCT030CB TX31/2206Z TN20/2218Z",
    "UHSS": "TAF UHSS 220446Z 2206/2312 19003MPS 9999 FEW040CB BECMG 2207/2209 VRB01MPS BECMG 2210/2212 BKN004 BECMG 2222/2224 36003MPS SCT030CB"
  },
  "atis": {},
  "windtemp_alaska": "\n000\nFBAK31 KWNO 220200\nFD1AK1\nDATA BASED ON 220000Z    \nVALID 220600Z   FOR USE 0200-0900Z. TEMPS NEG ABV 24000\n\nFT  3000    6000    9000   12000   18000   24000  30000  34000  39000\nADK 2452 2454+09 2549+09 2640+06 2541-05 2643-15 274330 284041 283254\nADQ 2429 2441+09 2447+04 2451-01 2458-13 2546-23 273939 316449 305454\nAKN 2330 2439+06 2538+02 2542-02 2545-12 2552-22 296137 308847 297254\nANC 1420 1729+01 2024-02 2128-04 2243-14 2259-25 246741 246852 243246\nANN 3421 3114+11 2716+07 2618+02 2623-12 2826-26 282944 263252 252849\nBET 2613 2815+00 2823-01 2832-04 2751-15 2876-23 790436 791645 286548\nBRW 1027 1023+11 1024+03 1127-03 1228-15 1223-28 143543 154652 153250\nBTI 1517 1513+13 1513+06 1511-01 1617-15 1624-27 162342 130851 191750\nBTT 1511 1515+03 1517-02 1523-07 1428-18 1522-30 143445 144243 162442\nCDB 2422 2635+08 2633+03 2634-01 2739-09 2944-18 304632 305744 326957\nCZF 9900 3310+01 3011-03 2816-07 2830-18 2872-25 780036 770544 275545\nEHM 2816 2726+04 2629+02 2629-02 2639-12 2754-20 298234 298844 297654\nFAI 2016 1716+05 1720-03 1626-08 1824-17 1924-28 247344 213247 192243\nFYU 9900 2014+06 1723+02 1527-04 1538-17 1453-28 146342 146249 162945\nGAL 1617 1219+00 1120-04 1319-09 1516-20 1224-32 123045 171339 211339\nGKN 1725 1834+01 1928-01 2120-04 2324-16 2537-26 265543 276453 241946\nHOM 2024 2124+02 2334+00 2350-03 2455-13 2456-24 255941 276550 274949\nJNU 2307 2810+05 3015+00 3020-04 3022-17 3148-28 316844 303946 271844\nLUR 3411 3307+02 9900-02 1010-08 1038-19 0957-31 097347 114244 122241\nMCG 1521 1939-01 1836-05 1737-09 1828-20 1932-33 223238 243337 252739\nMDO 1917 2327+06 2536+03 2548-02 2542-14 2637-25 284542 284553 273051\nOME 1008 0919+00 1122-06 1122-11 1312-19 1618-32 211643 252139 252039\nORT      9900+07 1711+00 1816-05 2115-17 2723-27 295544 272050 221645\nOTZ 1108 9900+02 9900-05 1210-11 1615-20 1616-32 132146 151741 181239\nSNP 2030 2233+06 2349+02 2562-02 2665-07 2562-18 267232 278542 278353\nTKA 1719 1826-01 1825-04 2031-06 1932-16 2343-27 227342 237350 232943\nUNK 1322 1118-01 1026-05 1220-08 1111-20 1116-32 240842 262138 262239\nYAK 2811 2817+03 2818+00 2917-03 3032-14 3041-26 305144 304253 291746\nIKO 2621 2527+11 2532+07 2538+03 2834-07 2943-17 293931 304242 305055\nAFM 1308 1812+03 1717-03 1521-09 1516-19 1622-31 162846 142842 162040\n5AB 2436 2436+13 2536+10 2539+05 2459-05 2467-15 248030 247841 248052\n5AC 3530 3420+10 3315+07 3314+03 2915-11 2717-25 272043 262550 243253\n5AD 2616 2713+06 2716+03 2817-01 2717-13 2712-25 260942 271151 291756\n5AE 2445 2335+09 2428+05 2427+00 2433-13 2635-22 313037 336747 336458\n5AF 3227 3123+05 2920+02 3027+00 2929-13 2931-25 292943 313454 302550\n5AG 2621 2720+04 2826+01 2827-02 2833-13 2940-25 284343 283853 293252\n",
  "vaac_active": [
    {
      "volcano": "SHEVELUCH",
      "volcano_jp": "シベルチ",
      "advisory_nr": "2026/276",
      "obs_time": "2026-07-22 04:30Z",
      "issued_time": "2026-07-22 05:06Z",
      "text_url": "https://www.data.jma.go.jp/vaac/data/TextData/2026/20260722_30027000_0276_Text.html",
      "lat": 56.65,
      "lon": 161.367,
      "text": "FVFE01 RJTD 220506\nVA ADVISORY\nDTG: 20260722/0506Z\nVAAC: TOKYO\nVOLCANO: SHEVELUCH 300270\nPSN: N5639 E16122\nAREA: RUSSIA\nSOURCE ELEV: 3283M AMSL\nADVISORY NR: 2026/276\nINFO SOURCE: HIMAWARI-9\nERUPTION DETAILS: VA CONTINUOUSLY OBS IN SATELLITE IMAGERY\nOBS VA DTG: 22/0430Z\nOBS VA CLD: SFC/FL350 N6057 E17954 - N6010 W17949 - N5908 E17504 - \nN5937 E17453 - N6015 E17614 MOV NE 100KT\nFCST VA CLD +6 HR: 22/1030Z SFC/FL370 N6217 W15947 - N6303 W17404 - \nN6354 W17256 - N6401 W16626\nFCST VA CLD +12 HR: 22/1630Z SFC/FL380 N6204 W14422 - N6050 W14304 - \nN6532 W16429 - N6624 W16339\nFCST VA CLD +18 HR: 22/2230Z SFC/FL390 N6338 W13523 - N5921 W13421 - \nN6726 W15737 - N6713 W15453\nRMK: THE RESPONSIBILITY FOR THIS ASH EVENT IS BEING TRANSFERRED TO \nVAAC ANCHORAGE. THE NEXT ADVISORY WILL BE ISSUED BY VAAC ANCHORAGE \nBY 0700UTC UNDER HEADER FVAK21 PAWU. SOUTHERN PART OF VA OBSCURED BY \nMET CLOUD.\nNXT ADVISORY: NO FURTHER ADVISORIES="
    },
    {
      "volcano": "SHEVELUCH",
      "volcano_jp": "シベルチ",
      "advisory_nr": "2026/275",
      "obs_time": "2026-07-22 02:20Z",
      "issued_time": "2026-07-22 03:00Z",
      "text_url": "https://www.data.jma.go.jp/vaac/data/TextData/2026/20260722_30027000_0275_Text.html",
      "lat": 56.65,
      "lon": 161.367,
      "text": "FVFE01 RJTD 220300\nVA ADVISORY\nDTG: 20260722/0300Z\nVAAC: TOKYO\nVOLCANO: SHEVELUCH 300270\nPSN: N5639 E16122\nAREA: RUSSIA\nSOURCE ELEV: 3283M AMSL\nADVISORY NR: 2026/275\nINFO SOURCE: KVERT KBGS HIMAWARI-9\nERUPTION DETAILS: ERUPTIVE ACTIVITY CONTINUING\nOBS VA DTG: 22/0220Z\nOBS VA CLD: SFC/FL350 N5835 E17406 - N5522 E16628 - N5522 E16417 - \nN5559 E16450 - N5554 E16626 - N5750 E16943 - N5913 E17336 MOV NE \n100KT\nFCST VA CLD +6 HR: 22/0820Z SFC/FL370 N6232 W16735 - N5951 W17532 - \nN5841 E17837 - N6226 W17617 - N6309 W17111\nFCST VA CLD +12 HR: 22/1420Z SFC/FL380 N6144 W14757 - N6139 W15400 - \nN6246 W16538 - N6447 W16318 - N6337 W15554\nFCST VA CLD +18 HR: 22/2020Z SFC/FL390 N6351 W13927 - N6031 W13724 - \nN5916 W14023 - N6515 W15334\nRMK: NIL\nNXT ADVISORY: 20260722/0600Z="
    },
    {
      "volcano": "TOKACHIDAKE",
      "volcano_jp": "十勝岳",
      "advisory_nr": "2026/1",
      "obs_time": "2026-07-22 02:07Z",
      "issued_time": "2026-07-22 02:19Z",
      "text_url": "https://www.data.jma.go.jp/vaac/data/TextData/2026/20260722_28505000_0001_Text.html",
      "lat": 43.417,
      "lon": 142.683,
      "text": "FVFE01 RJTD 220219\nVA ADVISORY\nDTG: 20260722/0219Z\nVAAC: TOKYO\nVOLCANO: TOKACHIDAKE 285050\nPSN: N4325 E14241\nAREA: JAPAN\nSOURCE ELEV: 2077M AMSL\nADVISORY NR: 2026/1\nINFO SOURCE: JMA HIMAWARI-9\nERUPTION DETAILS: ERUPTED AT 20260722/0207Z FL070 STNR\nOBS VA DTG: 22/0200Z\nOBS VA CLD: VA NOT IDENTIFIABLE FM SATELLITE DATA WIND FL070 290/9KT\nFCST VA CLD +6 HR: NOT AVBL\nFCST VA CLD +12 HR: NOT AVBL\nFCST VA CLD +18 HR: NOT AVBL\nRMK: WE WILL ISSUE FURTHER ADVISORY IF VA IS DETECTED IN SATELLITE \nIMAGERY.\nNXT ADVISORY: NO FURTHER ADVISORIES="
    },
    {
      "volcano": "SHEVELUCH",
      "volcano_jp": "シベルチ",
      "advisory_nr": "2026/274",
      "obs_time": "2026-07-21 23:20Z",
      "issued_time": "2026-07-22 00:00Z",
      "text_url": "https://www.data.jma.go.jp/vaac/data/TextData/2026/20260722_30027000_0274_Text.html",
      "lat": 56.65,
      "lon": 161.367,
      "text": "FVFE01 RJTD 220000\nVA ADVISORY\nDTG: 20260722/0000Z\nVAAC: TOKYO\nVOLCANO: SHEVELUCH 300270\nPSN: N5639 E16122\nAREA: RUSSIA\nSOURCE ELEV: 3283M AMSL\nADVISORY NR: 2026/274\nINFO SOURCE: KVERT UHPP HIMAWARI-9\nERUPTION DETAILS: VA EMISSIONS CONTINUING\nOBS VA DTG: 21/2320Z\nOBS VA CLD: SFC/FL350 N5639 E16122 - N5607 E16306 - N5657 E16504 - \nN5654 E16551 - N5604 E16505 - N5545 E16203 MOV E 60KT\nFCST VA CLD +6 HR: 22/0520Z SFC/FL350 N6117 E17927 - N6024 W17927 - \nN5510 E16824 - N5438 E16051 - N5626 E16054 - N5642 E16923\nFCST VA CLD +12 HR: 22/1120Z SFC/FL360 N6410 W16710 - N6248 W16117 - \nN6236 W16713 - N5501 E17337 - N5334 E15943 - N5630 E16104 - N5543 \nE17017\nFCST VA CLD +18 HR: 22/1720Z SFC/FL380 N6153 W14342 - N6315 W15826 - \nN5511 E17706 - N5206 E15623 - N5648 E16130 - N5504 E16846 - N6515 \nW15559\nRMK: NIL\nNXT ADVISORY: 20260722/0300Z="
    }
  ],
  "vaac_tokyo": [
    {
      "id": "20260722_30027000_0276",
      "year": "2026",
      "volcano": "Sheveluch",
      "psn": "N5639 E16122",
      "issued": "20260722",
      "text": "FVFE01 RJTD 220506\nVA ADVISORY\nDTG: 20260722/0506Z\nVAAC: TOKYO\nVOLCANO: SHEVELUCH 300270\nPSN: N5639 E16122\nAREA: RUSSIA\nSOURCE ELEV: 3283M AMSL\nADVISORY NR: 2026/276\nINFO SOURCE: HIMAWARI-9\nERUPTION DETAILS: VA CONTINUOUSLY OBS IN SATELLITE IMAGERY\nOBS VA DTG: 22/0430Z\nOBS VA CLD: SFC/FL350 N6057 E17954 - N6010 W17949 - N5908 E17504 - \nN5937 E17453 - N6015 E17614 MOV NE 100KT\nFCST VA CLD +6 HR: 22/1030Z SFC/FL370 N6217 W15947 - N6303 W17404 - \nN6354 W17256 - N6401 W16626\nFCST VA CLD +12 HR: 22/1630Z SFC/FL380 N6204 W14422 - N6050 W14304 - \nN6532 W16429 - N6624 W16339\nFCST VA CLD +18 HR: 22/2230Z SFC/FL390 N6338 W13523 - N5921 W13421 - \nN6726 W15737 - N6713 W15453\nRMK: THE RESPONSIBILITY FOR THIS ASH EVENT IS BEING TRANSFERRED TO \nVAAC ANCHORAGE. THE NEXT ADVISORY WILL BE ISSUED BY VAAC ANCHORAGE \nBY 0700UTC UNDER HEADER FVAK21 PAWU. SOUTHERN PART OF VA OBSCURED BY \nMET CLOUD.\nNXT ADVISORY: NO FURTHER ADVISORIES=",
      "img_url": "https://ds.data.jma.go.jp/svd/vaac/data/VAGFN/2026/Images/20260722_30027000_0276_QH21_01.png",
      "sat_img_url": "https://ds.data.jma.go.jp/svd/vaac/data/Sat/2026/Images/30027000/09-ir/20260722_0430_202607220506_ir.png",
      "text_url": "https://ds.data.jma.go.jp/svd/vaac/data/TextData/2026/20260722_30027000_0276_Text.html"
    },
    {
      "id": "20260722_28505000_0001",
      "year": "2026",
      "volcano": "Tokachidake",
      "psn": "N4325 E14241",
      "issued": "20260722",
      "text": "FVFE01 RJTD 220219\nVA ADVISORY\nDTG: 20260722/0219Z\nVAAC: TOKYO\nVOLCANO: TOKACHIDAKE 285050\nPSN: N4325 E14241\nAREA: JAPAN\nSOURCE ELEV: 2077M AMSL\nADVISORY NR: 2026/1\nINFO SOURCE: JMA HIMAWARI-9\nERUPTION DETAILS: ERUPTED AT 20260722/0207Z FL070 STNR\nOBS VA DTG: 22/0200Z\nOBS VA CLD: VA NOT IDENTIFIABLE FM SATELLITE DATA WIND FL070 290/9KT\nFCST VA CLD +6 HR: NOT AVBL\nFCST VA CLD +12 HR: NOT AVBL\nFCST VA CLD +18 HR: NOT AVBL\nRMK: WE WILL ISSUE FURTHER ADVISORY IF VA IS DETECTED IN SATELLITE \nIMAGERY.\nNXT ADVISORY: NO FURTHER ADVISORIES=",
      "img_url": "https://ds.data.jma.go.jp/svd/vaac/data/VAGFN/2026/Images/20260722_28505000_0001_QH21_01.png",
      "sat_img_url": null,
      "text_url": "https://ds.data.jma.go.jp/svd/vaac/data/TextData/2026/20260722_28505000_0001_Text.html"
    },
    {
      "id": "20260721_27307000_0019",
      "year": "2026",
      "volcano": "Taal",
      "psn": "N1400 E12100",
      "issued": "20260721",
      "text": "FVFE01 RJTD 211319\nVA ADVISORY\nDTG: 20260721/1319Z\nVAAC: TOKYO\nVOLCANO: TAAL 273070\nPSN: N1400 E12100\nAREA: PHILIPPINES\nSOURCE ELEV: 311M AMSL\nADVISORY NR: 2026/19\nINFO SOURCE: HIMAWARI-9 PHIVOLCS\nERUPTION DETAILS: ERUPTION AT 20260721/1209Z FL110 REPORTED\nOBS VA DTG: 21/1250Z\nOBS VA CLD: SFC/FL110 N1404 E12056 - N1359 E12050 - N1354 E12057 - \nN1358 E12100 MOV W 15KT\nFCST VA CLD +6 HR: 21/1850Z SFC/FL130 N1329 E12051 - N1306 E12036 - \nN1322 E11953 - N1339 E12003\nFCST VA CLD +12 HR: 22/0050Z SFC/FL140 N1259 E12029 - N1227 E12001 - \nN1251 E11858 - N1320 E11911\nFCST VA CLD +18 HR: NO VA EXP\nRMK: NIL\nNXT ADVISORY: 20260721/1800Z=",
      "img_url": "https://ds.data.jma.go.jp/svd/vaac/data/VAGFN/2026/Images/20260721_27307000_0019_QH21_01.png",
      "sat_img_url": "https://ds.data.jma.go.jp/svd/vaac/data/Sat/2026/Images/27307000/09-ir/20260721_1250_202607211319_ir.png",
      "text_url": "https://ds.data.jma.go.jp/svd/vaac/data/TextData/2026/20260721_27307000_0019_Text.html"
    },
    {
      "id": "20260721_28208001_0086",
      "year": "2026",
      "volcano": null,
      "psn": "N3136 E13039",
      "issued": "20260721",
      "text": "FVFE01 RJTD 210627\nVA ADVISORY\nDTG: 20260721/0627Z\nVAAC: TOKYO\nVOLCANO: SAKURAJIMA (AIRA CALDERA) 282080\nPSN: N3136 E13039\nAREA: JAPAN\nSOURCE ELEV: 1117M AMSL\nADVISORY NR: 2026/86\nINFO SOURCE: JMA HIMAWARI-9\nERUPTION DETAILS: ERUPTED AT 20260721/0514Z FL140 STNR\nOBS VA DTG: 21/0610Z\nOBS VA CLD: SFC/FL140 N3140 E13037 - N3139 E13043 - N3131 E13043 - \nN3131 E13036 MOV S 5KT\nFCST VA CLD +6 HR: 21/1210Z SFC/FL140 N3207 E13054 - N3118 E13054 - \nN3119 E13021 - N3159 E13012\nFCST VA CLD +12 HR: 21/1810Z SFC/FL140 N3224 E13103 - N3138 E13035 - \nN3138 E12953 - N3315 E13009\nFCST VA CLD +18 HR: NO VA EXP\nRMK: NIL\nNXT ADVISORY: 20260721/1200Z=",
      "img_url": "https://ds.data.jma.go.jp/svd/vaac/data/VAGFN/2026/Images/20260721_28208001_0086_QH21_01.png",
      "sat_img_url": "https://ds.data.jma.go.jp/svd/vaac/data/Sat/2026/Images/28208001/09-ir/20260721_0610_202607210627_ir.png",
      "text_url": "https://ds.data.jma.go.jp/svd/vaac/data/TextData/2026/20260721_28208001_0086_Text.html"
    }
  ],
  "vaac_alaska": [
    {
      "text": "\n000\nFVAK21 PAWU 220318\nVAAAK1\nVA ADVISORY\n\nDTG: 20260722/0315Z\n\nVAAC: ANCHORAGE\n\nVOLCANO: SHEVELUCH 300270\n\nPSN: N5639 E16122\n\nAREA: KAMCHATKA PENINSULA\n\nSOURCE ELEV: 10771 FT AMSL\n\nADVISORY NR: 2026/213\n\nRMK: PLEASE SEE FVFE01 RJTD ISSUED BY VAAC TOKYO WHICH DESCRIBES\nCONDITIONS NEAR THE VAAC ANCHORAGE AREA OF RESPONSIBILITY...BH\n\n\n\n",
      "issued": "2026-07-22T03:18:00+00:00",
      "volcano": "Sheveluch",
      "psn": "N5639 E16122"
    }
  ]
}