{
  "updated_utc": "2026-07-07T01:18Z",
  "metar": {
    "RJAA": "METAR RJAA 062330Z 05004KT 340V120 9999 FEW010 SCT015 BKN040 24/19 Q1014 NOSIG",
    "PANC": "METAR PANC 062353Z 31005KT 10SM FEW040 SCT070 BKN090 BKN180 17/08 A2980 RMK AO2 SLP092 T01670083 10172 20150 58018",
    "PAFA": "METAR PAFA 062353Z 17004KT 10SM SCT075CB BKN110 BKN180 18/11 A2984 RMK AO2 PK WND 02032/2259 WSHFT 2300 RAB03E33 TSE2258B03E23 SLP109 PRSNT WX VCSH SW W CB NE SW W MOV W P0002 600002 T01780106 10256 20161 $",
    "PAED": "METAR PAED 062355Z 27007KT 10SM FEW055 FEW095 SCT130 BKN160 BKN200 17/06 A2978 RMK AO2A LTG DSNT N SLP080 T01720064 10179 20157 57016 $",
    "KSEA": "METAR KSEA 062353Z VRB05KT 10SM FEW250 29/10 A2993 RMK AO2 SLP137 T02940100 10294 20222 58011 $",
    "ZSPD": "METAR ZSPD 062330Z 18007MPS CAVOK 29/25 Q1004 NOSIG",
    "ZSSS": "METAR ZSSS 062330Z 18006MPS CAVOK 30/24 Q1003 NOSIG",
    "RJFR": "METAR RJFR 070000Z 05005KT 9999 FEW003 SCT005 BKN/// 26/24 Q1010",
    "VHHH": "METAR VHHH 062330Z 20011KT 150V250 9999 +TSRA FEW010 FEW015CB SCT025 28/25 Q1007 TEMPO 20015G25KT 2000 TSRA SHRA FEW008CB SCT020",
    "RCTP": "METAR RCTP 062330Z 24009KT 9999 FEW020 31/25 Q1010 NOSIG RMK A2984",
    "ZGSZ": "METAR ZGSZ 070000Z 36003MPS 320V040 9000 -TSRA FEW009 FEW020CB BKN043 26/24 Q1008 RESHRA BECMG AT0030 18005MPS -SHRA",
    "WSSS": "METAR WSSS 062330Z 19003KT 9999 FEW017TCU FEW018CB BKN300 27/25 Q1011 NOSIG",
    "WMKK": "METAR WMKK 062330Z VRB01KT 9000 FEW030 27/26 Q1010 NOSIG",
    "WIDD": "METAR WIDD 062330Z 20003KT 6000 FEW014 26/25 Q1011 NOSIG",
    "VTBS": "METAR VTBS 062330Z 23003KT 9999 FEW020 29/24 Q1009 NOSIG",
    "VTBU": "METAR VTBU 062330Z VRB02KT 8000 FEW020 SCT100 28/28 Q1009 NOSIG",
    "ROAH": "METAR ROAH 062330Z 25004KT 9999 FEW015 30/26 Q1011",
    "VVDN": "METAR VVDN 062330Z VRB01KT 9999 FEW020 BKN070 29/22 Q1006 NOSIG",
    "RCKH": "METAR RCKH 062330Z 07005KT 020V110 9999 FEW016 SCT025 31/24 Q1010 NOSIG RMK A2985",
    "KLAX": "METAR KLAX 062353Z 24014KT 10SM FEW010 22/16 A2991 RMK AO2 SLP127 T02170161 10239 20217 56010",
    "KONT": "METAR KONT 062353Z 25011G18KT 10SM FEW090 33/14 A2988 RMK AO2 SLP101 T03280144 10339 20272 56013",
    "KSFO": "METAR KSFO 062356Z 28017KT 10SM FEW008 FEW200 18/11 A2997 RMK AO2 PK WND 27027/2308 SLP149 T01780111 10200 20172 56006 $",
    "KOAK": "METAR KOAK 062353Z 26014KT 10SM FEW008 FEW012 FEW200 18/12 A2998 RMK AO2 SLP150 T01830117 10194 20167 57008",
    "KMHR": "METAR KMHR 062335Z AUTO 22009KT 10SM CLR 32/04 A2986 RMK AO2 T03240044 $",
    "KDFW": "METAR KDFW 062353Z 16008KT 120V180 10SM SCT070TCU SCT085 SCT250 36/18 A2990 RMK AO2 SLP113 CB DSNT NE AND SE MOV SE TCU OHD AND DSNT S-W T03610178 10372 20333 55008",
    "KIAH": "METAR KIAH 062353Z 25004KT 10SM FEW065 SCT150 BKN250 29/22 A2995 RMK AO2 TSE2258 SLP141 T02940217 10361 20272 50001",
    "KORD": "METAR KORD 062351Z 04010KT 10SM FEW050 FEW250 26/12 A3005 RMK AO2 SLP171 T02560122 10267 20256 56002 $",
    "KJFK": "METAR KJFK 062351Z 07015G20KT 10SM -RA OVC009 19/18 A3006 RMK SLP179 P0000 60007 T01890178 10211 20189 53011 $",
    "KRFD": "METAR KRFD 062354Z VRB05KT 10SM FEW055 27/16 A3006 RMK AO2 SLP175 T02670156 10283 20267 57005",
    "KIND": "METAR KIND 062354Z 33008KT 10SM SCT038 SCT060 BKN250 28/21 A2997 RMK AO2 SLP143 TCU DSNT SE T02780211 10300 20278 51003",
    "KDTW": "METAR KDTW 062353Z 01010KT 10SM SCT040 BKN080 26/16 A3002 RMK AO2 SLP163 T02560161 10278 20239 53003 $",
    "KMSP": "METAR KMSP 062353Z COR 19009KT 10SM SCT045 SCT200 SCT250 30/19 A3002 RMK AO2 SLP158 T03000194 10306 20289 56008 $",
    "CYEG": "METAR CYEG 070000Z 16013KT 20SM FEW062 BKN250 22/09 A3008 RMK CU1CI6 CU TR SLP194 DENSITY ALT 3600FT",
    "EHAM": "METAR EHAM 062325Z 29004KT 260V330 CAVOK 17/16 Q1013 NOSIG",
    "EBBR": "METAR EBBR 062320Z 24009KT CAVOK 22/08 Q1015 NOSIG",
    "EDDF": "METAR EDDF 062320Z AUTO 22003KT CAVOK 18/12 Q1016 NOSIG",
    "EDFH": "METAR EDFH 062320Z 28004KT 250V310 CAVOK 20/09 Q1018",
    "EDDL": "METAR EDDL 062320Z AUTO 24006KT CAVOK 22/11 Q1014 NOSIG",
    "EDDK": "METAR EDDK 062320Z AUTO 22006KT 180V240 CAVOK 21/12 Q1015 NOSIG",
    "EBLG": "METAR EBLG 062320Z 23010KT CAVOK 21/09 Q1016 NOSIG",
    "LSZH": "METAR LSZH 062320Z AUTO 15003KT CAVOK 17/13 Q1021 NOSIG",
    "LIMC": "METAR LIMC 062320Z 36003KT 320V060 CAVOK 23/16 Q1018 NOSIG",
    "LIRF": "METAR LIRF 062320Z 04003KT CAVOK 21/18 Q1017 NOSIG",
    "EINN": "METAR EINN 062330Z 26010KT 9999 BKN016 15/12 Q1018 NOSIG",
    "EGLL": "METAR EGLL 062320Z AUTO 27009KT 9999 NCD 23/09 Q1016",
    "EGSS": "METAR EGSS 062320Z AUTO 25006KT 9999 NCD 23/07 Q1016",
    "EPWA": "METAR EPWA 062330Z 24012KT 9999 BKN024 18/13 Q1008 BECMG BKN012",
    "UHPP": "METAR UHPP 062330Z 20003MPS 160V240 CAVOK 15/08 Q1016 R34L/CLRD62 NOSIG RMK QFE758/1011",
    "EFHK": "METAR EFHK 062320Z 22011KT 9999 -SHRA FEW030CB FEW032 BKN042 09/07 Q0996 TEMPO 6000 SHRA",
    "LBBG": "METAR LBBG 062330Z AUTO 27003KT 9999 NCD 20/14 Q1015 NOSIG",
    "LTAC": "METAR LTAC 062320Z 03011KT CAVOK 17/11 Q1016 NOSIG RMK RWY21C 02012KT RWY03L 02012KT RWY21R 01010KT RWY03R 02009KT RWY21L 01009KT",
    "UBBB": "METAR UBBB 062330Z 32016KT 9999 FEW012 24/21 Q1010 NOSIG",
    "UTAA": "METAR UTAA 070000Z 19004KT 9999 NSC 27/10 Q1008 R88/CLRD70 NOSIG",
    "UACC": "METAR UACC 062330Z 05003MPS 9999 FEW046CB 19/17 Q1012 NOSIG RMK QFE728/0971",
    "UAAA": "METAR UAAA 062330Z VRB01MPS 9999 SCT100 19/13 Q1009 NOSIG",
    "UZTT": "METAR UZTT 062330Z 08006KT CAVOK 23/12 Q1007 NOSIG",
    "ZWWW": "METAR ZWWW 062330Z 19003MPS CAVOK 26/12 Q1009 NOSIG",
    "ZLXY": "METAR ZLXY 070000Z 19002MPS 160V220 CAVOK 26/19 Q1002 NOSIG",
    "ZBAA": "METAR ZBAA 062330Z 36002MPS 300V050 CAVOK 26/22 Q0999 NOSIG",
    "ZBHH": "METAR ZBHH 070000Z 31002MPS 270V330 CAVOK 21/13 Q1006 NOSIG",
    "ZSQD": "METAR ZSQD 070000Z 16004MPS 8000 -SHRA FEW010 22/22 Q1002 NOSIG",
    "ZMCK": "METAR ZMCK 062330Z 09005MPS CAVOK 19/13 Q1010 NOSIG RMK QFE642.8 69",
    "UUEE": "METAR UUEE 062330Z 19003MPS CAVOK 15/12 Q1004 R24L/CLRD62 NOSIG",
    "UUDD": "METAR UUDD 062330Z 17003MPS 9999 SCT011 14/13 Q1005 R13R/290045 NOSIG",
    "ULLI": "METAR ULLI 062330Z 24004MPS CAVOK 10/07 Q0999 R88/090065 NOSIG",
    "USSS": "METAR USSS 062330Z 00000MPS CAVOK 18/18 Q1013 R08L/CLRD60 R08R/CLRD60 NOSIG RMK QFE740/0986",
    "UNNT": "METAR UNNT 062330Z 16001MPS CAVOK 18/18 Q1011 R25/290160 R34/////// NOSIG RMK QFE748/0998",
    "UNKL": "METAR UNKL 062330Z 29005MPS CAVOK 20/18 Q1007 R29/290155 NOSIG RMK QFE730",
    "UIBB": "SPECI UIBB 062325Z 00000MPS 1200 0300W R12/0300N BCFG SCT000 19/18 Q1004 R12/CLRD62 NOSIG RMK QBB020 MT OBSC QFE710/0947",
    "UEEE": "METAR UEEE 062330Z 17002MPS CAVOK 21/10 Q1006 R23/09//65 NOSIG RMK QFE746",
    "UHHH": "METAR UHHH 062330Z 05004MPS 9999 FEW010 SCT022 20/19 Q1013 R88/090060 NOSIG RMK QFE753/1005",
    "UHSS": "METAR UHSS 062330Z 17001MPS 2800 -SHRA BR BKN006 BKN024CB 16/16 Q1015 R01/290060 NOSIG RMK MT OBSC QFE760/1014"
  },
  "taf": {
    "RJAA": "TAF RJAA 062305Z 0700/0806 11008KT 9999 FEW020 BKN040 BECMG 0710/0712 02004KT BECMG 0721/0800 13010KT",
    "PANC": "TAF PANC 062320Z 0700/0806 28008KT P6SM VCSH SCT050 BKN100 FM070800 18005KT P6SM FEW040 BKN120 FM072200 15015G25KT P6SM FEW050 BKN090",
    "PAFA": "TAF PAFA 062331Z 0700/0806 15005KT P6SM VCTS BKN050CB BKN100 FM070500 02005KT P6SM VCSH SCT060 BKN100 FM071000 02003KT P6SM BKN080 FM072100 05005KT P6SM VCSH SCT080",
    "PAED": "TAF PAED 062100Z 0621/0803 23006KT 9999 VCSH FEW045 SCT060 BKN120 BKN200 QNH2975INS TEMPO 0700/0704 22012KT -RA VCTS SCT035 BKN055CB OVC100 BECMG 0708/0709 VRB06KT 9999 NSW SCT045 BKN065 BKN150 QNH2969INS WND 15010G20KT AFT 0800 TX20/0623Z TN12/0713Z",
    "KSEA": "TAF KSEA 062333Z 0700/0806 29005KT P6SM FEW250 FM070600 33005KT P6SM FEW250 FM070900 25005KT P6SM FEW250 FM071200 22005KT P6SM SCT015 FM071700 22007KT P6SM FEW250 FM072300 30006KT P6SM SCT250",
    "ZSPD": "TAF ZSPD 062108Z 0700/0806 18004MPS 6000 BKN020 TX35/0706Z TX34/0806Z TN27/0721Z",
    "ZSSS": "TAF ZSSS 062107Z 0700/0806 17004MPS 6000 BKN030 TX35/0706Z TX34/0806Z TN27/0721Z",
    "RJFR": "TAF AMD RJFR 070029Z 0700/0806 09008KT 9999 FEW004 SCT008 BECMG 0706/0708 05004KT TEMPO 0712/0718 BKN005 BKN015 BECMG 0718/0721 09006KT BECMG 0800/0803 06010KT",
    "VHHH": "TAF AMD VHHH 070054Z 0701/0806 19015KT 9999 FEW010 SCT025 TX31/0706Z TX32/0806Z TN27/0722Z TEMPO 0701/0706 20020G30KT 2000 TSRA SHRA FEW008CB SCT020 TEMPO 0715/0718 3000 SHRA FEW008CB SCT020 TEMPO 0718/0724 20015G25KT 2000 TSRA SHRA FEW008CB SCT020 TEMPO 0800/0806 3000 SHRA FEW008CB SCT020",
    "RCTP": "TAF RCTP 062300Z 0700/0806 24008KT 9999 FEW015 BKN032 TEMPO 0706/0710 27013KT FEW010 FEW015TCU BKN025",
    "ZGSZ": "TAF AMD ZGSZ 062307Z 0618/0724 18005G12MPS 8000 BKN030 TX30/0706Z TN25/0622Z TN26/0722Z TEMPO 0620/0624 2000 +TSRA FEW010 FEW020CB BKN030 TEMPO 0700/0702 TSRA SCT012 FEW020CB BKN030 TEMPO 0702/0706 SHRA FEW020CB BKN030",
    "WSSS": "TAF WSSS 062300Z 0700/0806 17007KT 9999 FEW015 SCT020",
    "WMKK": "TAF WMKK 062300Z 0700/0806 VRB03KT 9999 FEW020 PROB30 TEMPO 0707/0711 5000 TSRA FEW017CB",
    "VTBS": "TAF VTBS 062300Z 0700/0806 20008KT 9999 FEW020 TEMPO 0712/0716 VRB15KT 4000 TSRA FEW018CB SCT030 BKN100",
    "VTBU": "TAF VTBU 062300Z 0700/0724 20010KT 9000 FEW020",
    "ROAH": "TAF ROAH 062305Z 0700/0806 24004KT 9999 FEW020 BECMG 0702/0704 32006KT BECMG 0721/0800 03012KT",
    "VVDN": "TAF VVDN 062300Z 0700/0724 20010KT 9999 FEW020 BKN100",
    "RCKH": "TAF RCKH 062300Z 0700/0806 18008KT 9999 FEW015 TEMPO 0704/0710 22013KT TEMPO 0719/0723 07005KT BECMG 0800/0802 30005KT",
    "KLAX": "TAF KLAX 062347Z 0700/0806 25010G18KT P6SM FEW010 FM070300 25008KT P6SM FEW008 FEW250 FM070900 VRB03KT P6SM SCT008 FM071100 26003KT P6SM BKN015 FM071600 VRB03KT P6SM SCT025 FM071700 25012KT P6SM FEW250 FM080300 26006KT 6SM HZ FEW250",
    "KONT": "TAF KONT 062331Z 0700/0806 25012G19KT P6SM FEW100 FM070400 VRB05KT P6SM SKC FM072000 25012G20KT P6SM SKC FM080400 VRB05KT P6SM SKC",
    "KSFO": "TAF KSFO 062321Z 0700/0806 28016KT P6SM FEW007 FM070300 27015KT P6SM BKN015 FM070600 26009KT P6SM OVC012 FM071500 28015KT P6SM BKN015 FM071830 28020KT P6SM SKC FM080300 27015KT P6SM BKN015",
    "KOAK": "TAF KOAK 062321Z 0700/0806 27013KT P6SM FEW008 FM070200 28014KT P6SM BKN012 FM072000 28015KT P6SM SKC FM080300 28012KT P6SM BKN015",
    "KMHR": "TAF KMHR 062320Z 0700/0724 19008KT P6SM SKC FM070600 16006KT P6SM SKC FM071000 16005KT P6SM BKN040 FM071500 21008KT P6SM FEW150",
    "KDFW": "TAF KDFW 070103Z 0701/0806 21012KT P6SM FEW060 TEMPO 0701/0702 17012KT P6SM TS FEW030CB FM070200 15005KT P6SM FEW060 FM072000 24006KT P6SM VCTS SCT060CB",
    "KIAH": "TAF KIAH 062320Z 0700/0806 17006KT P6SM FEW050 SCT250 TEMPO 0710/0714 VRB02KT FEW015 SCT025 FM071500 23006KT P6SM SCT030 FM071800 18008KT P6SM SCT050 BKN250 FM080200 18006KT P6SM FEW040 SCT250",
    "KORD": "TAF KORD 062326Z 0700/0806 03010KT P6SM FEW040 FEW250 FM070400 35004KT P6SM FEW040 FEW250 FM071800 08008KT P6SM FEW050 FEW250",
    "KJFK": "TAF KJFK 062321Z 0700/0806 05015KT 6SM -RA OVC009 FM070300 06011KT 3SM BR VCSH OVC004 FM071000 03010KT 5SM BR OVC008 FM071600 02010KT P6SM SCT008 BKN012 FM080000 02008KT P6SM BKN020",
    "KRFD": "TAF KRFD 062326Z 0700/0724 05009KT P6SM SCT040 FM070100 VRB04KT P6SM SKC FM071500 34005KT P6SM FEW050 FEW250",
    "KIND": "TAF KIND 062325Z 0700/0806 34010KT P6SM VCSH SCT040 BKN060 FM070130 02006KT P6SM SCT040 SCT080 FM070900 03007KT P6SM SCT015 BKN025 FM071500 04008KT P6SM SCT025 SCT250 FM071800 03010KT P6SM BKN050",
    "KDTW": "TAF KDTW 070020Z 0700/0806 01008KT P6SM BKN045 FM070400 03005KT P6SM SCT045 FM070800 01004KT 4SM BR BKN020 FM071400 02008KT P6SM BKN028 FM071800 05005KT P6SM SCT030 BKN050 FM080000 08003KT P6SM SKC",
    "KMSP": "TAF KMSP 062320Z 0700/0806 17009KT P6SM FEW050 SCT250 FM070400 19006KT P6SM BKN150 PROB30 0706/0709 4SM -TSRA BKN050CB FM071200 24007KT P6SM SCT040 SCT250",
    "CYEG": "TAF CYEG 062340Z 0700/0724 14008KT P6SM FEW060 BKN130 BKN240 FM070300 11006KT P6SM SCT240 BECMG 0708/0710 15010KT BECMG 0716/0718 15012G22KT FM072100 16012G22KT P6SM BKN210 RMK NXT FCST BY 070300Z",
    "EHAM": "TAF EHAM 062255Z 0700/0806 27004KT CAVOK BECMG 0707/0710 29014KT BECMG 0712/0715 32014KT BECMG 0720/0723 30004KT PROB40 TEMPO 0802/0806 BKN014",
    "EBBR": "TAF EBBR 062320Z 0700/0806 23008KT CAVOK",
    "EDDF": "TAF EDDF 062300Z 0700/0806 22005KT 9999 FEW030 BECMG 0706/0708 24011KT TEMPO 0711/0719 26015G25KT PROB30 TEMPO 0713/0716 26020G30KT BECMG 0716/0718 30012KT BECMG 0723/0801 30007KT TEMPO 0801/0806 BKN015",
    "EDFH": "TAF EDFH 062300Z 0700/0724 25007KT CAVOK BECMG 0707/0709 27012KT TEMPO 0711/0718 27015G25KT BECMG 0721/0723 31006KT",
    "EDDL": "TAF EDDL 062300Z 0700/0806 25008KT CAVOK BECMG 0708/0711 27015G25KT PROB30 TEMPO 0712/0717 29020G30KT BECMG 0718/0720 30009KT BECMG 0723/0802 29004KT",
    "EDDK": "TAF EDDK 062300Z 0700/0806 23005KT CAVOK BECMG 0707/0709 27011KT BECMG 0709/0712 29015G25KT PROB30 TEMPO 0713/0718 30020G30KT BECMG 0719/0722 31011KT BECMG 0722/0801 31006KT",
    "EBLG": "TAF EBLG 062320Z 0700/0806 23008KT CAVOK",
    "LSZH": "TAF LSZH 062325Z 0700/0806 VRB02KT CAVOK TX33/0715Z TN14/0704Z TN16/0804Z BECMG 0708/0710 23010KT BECMG 0711/0713 29012KT PROB40 TEMPO 0713/0716 31015G28KT BECMG 0718/0720 31005KT",
    "LIMC": "TAF LIMC 062300Z 0700/0806 VRB05KT CAVOK TEMPO 0712/0716 22010KT",
    "LIRF": "TAF LIRF 062300Z 0700/0806 VRB05KT CAVOK BECMG 0709/0711 26010KT BECMG 0716/0718 VRB05KT BECMG 0722/0724 3000 BCFG PROB40 TEMPO 0800/0806 0700 FG",
    "EINN": "TAF EINN 062300Z 0700/0724 26008KT 9999 SCT012 BKN017 TEMPO 0700/0709 BKN012 TEMPO 0719/0724 BKN012",
    "EGLL": "TAF EGLL 062252Z 0700/0806 26009KT CAVOK BECMG 0714/0717 32012KT BECMG 0800/0803 02002KT",
    "EGSS": "TAF EGSS 062252Z 0700/0806 26007KT CAVOK BECMG 0714/0717 32010KT PROB40 TEMPO 0800/0806 02005KT",
    "EPWA": "TAF EPWA 062330Z 0700/0724 21010KT 9999 BKN020 BECMG 0700/0702 27012KT TEMPO 0701/0707 27015G25KT 3000 RA BKN006 BKN012 TEMPO 0707/0721 26018G28KT 4000 SHRA SCT010 BKN015CB TEMPO 0721/0724 2000 RADZ BKN005 BKN010",
    "UHPP": "TAF UHPP 062242Z 0700/0806 17005G12MPS 9999 BKN030CB BECMG 0709/0712 35003G10MPS TEMPO 0712/0721 0700 FG VV002 BECMG 0723/0802 17005G12MPS",
    "EFHK": "TAF AMD EFHK 070015Z 0700/0724 22012G22KT 9999 -SHRA FEW030CB BKN040 TEMPO 0700/0701 6000 SHRA BECMG 0701/0703 BKN012 FEW025TCU BECMG 0703/0705 3000 SHRA BKN006 SCT025CB BECMG 0705/0707 28010G20KT 9999 -RA FEW006 BKN015 TEMPO 0707/0713 SHRA BKN012 FEW030CB BECMG 0713/0715 22006KT TEMPO 0713/0718 SHRA FEW030CB PROB30 0722/0724 2500 BCFG",
    "LBBG": "TAF LBBG 062300Z 0700/0724 VRB04KT CAVOK BECMG 0710/0711 13012KT SCT045 PROB40 TEMPO 0711/0716 VRB16G26KT 3000 TSRA SCT030CB BKN040 BECMG 0717/0718 VRB04KT TEMPO 0718/0720 4000 TSRA SCT030CB BKN045",
    "LTAC": "TAF LTAC 062240Z 0700/0724 03012KT CAVOK BECMG 0700/0703 SCT040 SCT100 PROB30 TEMPO 0713/0717 -SHRA BKN030 BKN080",
    "UBBB": "TAF UBBB 062302Z 0700/0724 32014KT CAVOK TX28/0709Z TN23/0701Z TEMPO 0700/0704 35020KT FEW012 FEW050CB BECMG 0704/0706 33018G28KT FEW050CB TEMPO 0706/0716 35022G32KT SCT015 SCT040CB",
    "UTAA": "TAF UTAA 062245Z 0700/0724 34016KT 6000 SCT050CB SCT050 TX40/0710Z TEMPO 0700/0703 VRB04KT TEMPO 0703/0710 30014G24KT 4000 DRDU BECMG 0716/0718 24014KT",
    "UACC": "TAF UACC 062302Z 0700/0724 VRB01MPS 9999 SCT030 BKN100 TX27/0710Z TN19/0701Z TEMPO 0700/0704 -SHRA SCT030CB BECMG 0704/0706 02005MPS TEMPO 0704/0716 06008MPS -TSRA BKN030CB",
    "UAAA": "TAF UAAA 062303Z 0700/0724 20003MPS 9999 SCT050CB BKN100 TX32/0710Z TN18/0700Z BECMG 0703/0704 34005MPS TEMPO 0708/0713 03005G10MPS TS BECMG 0713/0715 20003MPS",
    "UZTT": "TAF UZTT 062300Z 0700/0724 06010KT 7000 NSC TX37/0710Z TN21/0700Z TEMPO 0700/0712 32012G22KT",
    "ZWWW": "TAF ZWWW 062101Z 0700/0806 18004MPS CAVOK TX34/0709Z TX31/0806Z TN27/0723Z BECMG 0702/0703 36004MPS BECMG 0713/0714 18004MPS BECMG 0802/0803 36004MPS",
    "ZLXY": "TAF ZLXY 062107Z 0700/0724 06004MPS 6000 NSC TX37/0708Z TN24/0721Z",
    "ZBAA": "TAF ZBAA 062105Z 0700/0806 16003MPS CAVOK TX31/0706Z TX33/0806Z TN22/0721Z TEMPO 0707/0713 -TSRA FEW040CB BKN040",
    "ZBHH": "TAF ZBHH 062102Z 0700/0724 36004MPS 9999 FEW040 TX29/0708Z TN14/0722Z TEMPO 0705/0708 VRB08G13MPS -TSRA FEW040CB FEW040",
    "ZSQD": "TAF ZSQD 062115Z 0700/0724 18004MPS 5000 -RA BKN040 TX26/0706Z TN22/0721Z TEMPO 0700/0704 TSRA BKN030 SCT040CB",
    "ZMCK": "TAF ZMCK 062250Z 0700/0806 09005MPS 9999 FEW030CB SCT033 TX27/0707Z TN14/0721Z BECMG 0701/0703 VRB02MPS PROB40 TEMPO 0712/0720 VRB08MPS TSRA SCT027CB SCT030 TEMPO 0720/0806 VRB08G13MPS 8000 TSRA SCT027CB BKN030 BECMG 0801/0803 30006MPS",
    "UUEE": "TAF UUEE 062256Z 0700/0724 18003MPS 9999 BKN016 TX19/0712Z TN13/0701Z TEMPO 0700/0705 BKN007 BECMG 0703/0705 24006MPS TEMPO 0707/0716 26009G15MPS PROB40 TEMPO 0708/0716 -TSRA BKN016CB BECMG 0716/0719 16005MPS",
    "UUDD": "TAF UUDD 062255Z 0700/0806 18003MPS 8000 FEW009 BKN016 TX20/0711Z TN13/0701Z TEMPO 0700/0706 BKN006 BECMG 0706/0708 24005MPS TEMPO 0708/0715 26008G14MPS BECMG 0715/0717 17003MPS",
    "ULLI": "TAF ULLI 062251Z 0700/0724 24005G10MPS 6000 BKN016 BECMG 0704/0705 18005G10MPS TEMPO 0706/0718 23007G14MPS 2500 -TSRA BKN017CB BECMG 0718/0720 15003MPS",
    "USSS": "TAF USSS 062251Z 0700/0724 18003G14MPS 9999 BKN033CB TEMPO 0700/0724 -TSRAGR",
    "UNNT": "TAF UNNT 062300Z 0700/0724 02003G08MPS 8000 SCT040 TX28/0709Z TN16/0722Z TEMPO 0703/0715 -TSRA BKN020CB",
    "UNKL": "TAF UNKL 062248Z 0700/0724 29005G10MPS 9999 SCT040 TEMPO 0703/0709 -TSRA BKN016CB BECMG 0704/0706 34003G08MPS FM071400 VRB01MPS CAVOK BECMG 0721/0723 1000 BR",
    "UIBB": "TAF UIBB 062300Z 0700/0724 30005G10MPS 0300 TSRA FG BKN001 BKN017CB BECMG 0702/0703 9999 NSW BKN013CB TEMPO 0703/0715 VRB15MPS 0900 +TSRA VV004",
    "UEEE": "TAF UEEE 062300Z 0700/0806 19003G10MPS 9999 SCT030CB TX30/0706Z TN13/0718Z",
    "UHHH": "TAF AMD UHHH 070103Z 0701/0806 04003MPS 9999 SCT016 BKN020CB TX26/0706Z TN19/0718Z",
    "UHSS": "TAF UHSS 062255Z 0700/0806 18003MPS 6000 -SHRA BKN004 BKN030CB TEMPO 0700/0703 1400 BR BECMG 0703/0706 9999 NSW BKN030CB"
  },
  "atis": {
    "RJAA": "[Arrival ATIS] RJAA ARR ATIS O 1033Z M1030 (APCH)ILS Y RWY16L LDG RWY 16L DEP RWY 16R DEP FREQ 124.2. TWY A1 CLSD. M 191030Z 16005KT 25KM FEW015CU BKN030SC 22/20 Q1012/A2990= Q/TWO NINE NINE ZERO STP\n[Departure ATIS] RJAA DEP ATIS L 0916Z M0900 (APCH)ILS Y RWY16L LDG RWY 16L DEP RWY 16R DEP FREQ 124.2. TWY A1 CLSD. M 190900Z 14008KT 080V170 25KM BKN020CU BKN/// 23/20 Q1011/A2986= Q/TWO NINE EIGHT SIX STP",
    "PANC": "[Arrival ATIS] PANC ARR ATIS K 0953Z ANC ATIS INFO K 0953Z. 16008KT 10SM BKN200 16/09 A3029 (THREE ZERO TWO NINER) RMK AO2 SLP258 T01560094. ILS RWY 15 APPROACHES IN USE. LANDING RWY 15, DEPARTING RWY 25L. NOTICE TO AIRMEN. RWY 25R CLSD. CHECK NOTAMS FOR TAXIWAY CLOSURES. CONTACT TOWER 118.3 FOR TAXI. ...ADVS YOU HAVE INFO K.\n[Departure ATIS] PANC DEP ATIS H 1953Z ANC ATIS INFO H 1953Z. VRB03KT 10SM FEW080 SCT110 14/07 A2994 (TWO NINER NINER FOUR). 7R, 7L APPROACHES IN USE. LANDING RWY 7R, 7L, DEPARTING RWY 33. NOTICE TO AIRMEN. TWY Q CLSD. TWY R CLSD BTWN TWY, S AND TWY U . TWY E CLSD BTWN TWY, L AND TWY M . RWY 15 PAPI OTS. TWY K BTWN A AND D RESTRICTED TO AIRCRAFT WITH WINGSPAN LESS THAN 118 FEET. HAZD WX INFO FOR ANC AREA AVBL FM FSS. CONTACT TOWER 118.3 FOR TAXI. ...ADVS YOU HAVE INFO H.",
    "KSEA": "[Arrival ATIS] KSEA ARR ATIS J 0953Z SEA ATIS INFO J 0953Z. 35004KT 10SM BKN210 BKN250 17/09 A2992 (TWO NINER NINER TWO). ILS AND CHARTED VISUAL APPROACH RWYS 34L AND 34R , APCH IN USE. DEPG RWY 34R, DEPG ACFT PLAN AND BRIEF NUMBERS FOR BOTH RWYS 34R AND 34C. SIMUL ARRIVALS TO RWY 34L AND DEPARTURES TO RWY 34R ARE IN USE. SIMUL APCHS IN USE TO PARA RYS. NOTAMS... ILS RWY 34C OTS. BIRD ACTIVITY VICINITY ARPT. APCH AND DEP PATHS ARE OVER NOISE SENSITIVE AREAS. ...ADVS YOU HAVE INFO J.\n[Departure ATIS] KSEA DEP ATIS B 0053Z SEA ATIS INFO B 0053Z. 25007KT 10SM FEW250 28/10 A2992 (TWO NINER NINER TWO). ILS AND CHARTED VISUAL APPROACH RWYS 34L AND 34R , APCH IN USE. DEPG RWY 34R, DEPG ACFT PLAN AND BRIEF NUMBERS FOR BOTH RWYS 34R AND 34C. SIMUL ARRIVALS TO RWY 34L AND DEPARTURES TO RWY 34R ARE IN USE. SIMUL APCHS IN USE TO PARA RYS. NOTAMS... BIRD ACTIVITY VICINITY ARPT. STADIUM TFR IN EFFECT CHECK FDC NOTAMS FOR MORE INFO. ...ADVS YOU HAVE INFO B.",
    "ZSPD": "[Arrival ATIS] ZSPD ARR ATIS V 1030Z EXP ILS APCH INDEPENDENT PARL INSTR APCH LDG RWY 17R & 16L WIND RWY 17R TDZ 230/8MPS MID 230/8MPS END 220/10MPS RWY 16L TDZ 230/12MPS MID 230/9MPS END 230/8MPS VIS RWY 17R TDZ 10000M MID 10000M END 10000M VIS RWY 16L TDZ 10000M MID 10000M END 10000M FBL SHRA NSC T 28 /DP 24 QNH 1001 HPA CAUTION THE BIRDS NEAR THE RUNWAY RWY 17L/17R/16L/16R RWYCC 5/5/5 ISSUED AT 0710 WET/WET/WET DPT NR/NR/NR COV 100PCT/100PCT/100PCT. ADZ YOU HAVE INFO V.\n[Departure ATIS] ZSPD DEP ATIS U 1000Z DEP RWY 17L & 16R WIND RWY 17L TDZ 220/7MPS MID 220/7MPS END 220/7MPS RWY 16R TDZ 230/7MPS MID 230/7MPS END 230/6MPS VIS RWY 17L TDZ 10000M MID 10000M END 10000M VIS RWY 16R TDZ 10000M MID 10000M END 10000M FBL SHRA NSC T 28 /DP 25 QNH 1001 HPA CAUTION THE BIRDS NEAR THE RUNWAY RWY 17L/17R/16L/16R RWYCC 5/5/5 ISSUED AT 0710 WET/WET/WET DPT NR/NR/NR COV 100PCT/100PCT/100PCT. ADZ YOU HAVE INFO U.",
    "ZSSS": "[Arrival ATIS] ZSSS ARR ATIS H 1030Z EXP ILS APCH LDG RWY 18L WIND RWY 18L TDZ 200/6MPS MID 200/6MPS END 200/5MPS VIS RWY 18L TDZ 10000M MID 10000M END 10000M FBL SHRA CLD FEW 600M T 27 /DP 25 QNH 1000 HPA RWY18L RWYCC 5/5/5 ISSUED AT 0730 WET/WET/WET DPT NR/NR/NR COV 100PCT/100PCT/100PCT RWY18R RWYCC 5/5/5 ISSUED AT 0730 WET/WET/WET DPT NR/NR/NR COV 100PCT/100PCT/100PCT QNH OF SHANGHAI TERMINAL CONTROL AREA 1001 HPA ADZ YOU HAVE INFO H.\n[Departure ATIS] ZSSS DEP ATIS H 1030Z DEP RWY 18R WIND RWY 18R TDZ 200/6MPS MID 200/6MPS END 200/6MPS VIS RWY 18R TDZ 10000M MID 10000M END 10000M FBL SHRA CLD FEW 600M T 27 /DP 25 QNH 1000 HPA RWY18L RWYCC 5/5/5 ISSUED AT 0730 WET/WET/WET DPT NR/NR/NR COV 100PCT/100PCT/100PCT RWY18R RWYCC 5/5/5 ISSUED AT 0730 WET/WET/WET DPT NR/NR/NR COV 100PCT/100PCT/100PCT QNH OF SHANGHAI TERMINAL CONTROL AREA 1001 HPA ADZ YOU HAVE INFO H.",
    "VHHH": "[Arrival ATIS] VHHH ARR ATIS K 1005Z ARRIVALS, RWY 25R. EXP RNAV TRANSITION TO ILS APCH, RWY 25R. RNP APCH IS AVBL ON REQ, RWY 25R. SIG WS FCST. WIND 200/12KT. VIS 10KM. CLD FEW 1000FT SCT 2500FT. T31 DP24. QNH 1008HPA. ACK INFO K ON FIRST CTC WITH APP.\n[Departure ATIS] VHHH DEP ATIS N 1005Z DEPARTURES, RWY 25L. SIG WS FCST. WIND 180/15KT. VIS 10KM. CLD FEW 1000FT SCT 2500FT. T31 DP24. QNH 1008HPA. ACK INFO N ON FIRST CTC WITH DELIVERY .",
    "RCTP": "[Arrival ATIS] RCTP ARR ATIS K 1030Z EXP ILS APCH RWY23R AND RWY23L ARR/DEP. WIND 240/14KT VIS 10 KM OR MORE CLD FEW 2000FT SCT 5000FT T 29 DP 25 QNH 1009HPA NOSIG CTN BIRD ACTIVITY IN THE VCY OF THE AD. INFORM TAIPEI APCH OR TAIPEI TOWER ON INITIAL CONTACT YOU HAVE INFORMATION K\n[Departure ATIS] RCTP DEP ATIS H 2230Z EXP ILS APCH RWY23L AND RWY23R CLSD BTN 1700Z AND 2230Z FOR INSPECTION. WIND 230/11KT VIS 10 KM OR MORE CLD FEW 2000FT SCT 4500FT BKN 18000FT T 28 DP 25 QNH",
    "ZGSZ": "[Arrival ATIS] ZGSZ ARR ATIS L 1030Z EXP ILS APCH 15 EXP ILS OR VIS APCH 16R WIND 160/6MPS VIS 9999M CLD SCT 900M T 29 /DP 27 QNH 1008 HPA INDEPENDENT PARALLEL DEPARTURES INDEPENDENT PARALLEL APPROACHES V17,V18 AVAILABLE AFTER SULAS FLY HEADING 040 MISSED APPROACH ALTITUDE SETTING 1200METERS WHEN AIRBORNE CONTACT ZHUHAI APPROACH EXPECTED RNP ILS DME Z APPROACH ADZ YOU HAVE INFO L.\n[Departure ATIS] ZGSZ DEP ATIS L 1030Z DEP RWY 15 & 16L WIND 160/6MPS VIS 9999M CLD SCT 900M T 29 /DP 27 QNH 1008 HPA INDEPENDENT PARALLEL DEPARTURES INDEPENDENT PARALLEL APPROACHES V17,V18 AVAILABLE AFTER SULAS FLY HEADING 040 MISSED APPROACH ALTITUDE SETTING 1200METERS WHEN AIRBORNE CONTACT ZHUHAI APPROACH EXPECTED RNP ILS DME Z APPROACH ADZ YOU HAVE INFO L.",
    "WSSS": "[Arrival ATIS] WSSS ARR ATIS Y 1030Z METREPORT 1030Z ILS APCHRWY 20R SIMUL INDEPENDENT ILS AND VISUAL APPROACHES ARE CONDUCTED ON RWY 20. TWY W 9 CLOSED, RWY 02C 20C RAPID EXIT TAXIWAY INDICATOR LIGHTS OFF WIND 130/ 08KT VRB BTN090 AND170 VIS 10KM CLD FEW TCU 1800FT FEW CB 2000FT T30 DP25 QNH 1009HPA NOSIG ACK ATIS Y\n[Departure ATIS] WSSS DEP ATIS Y 1000Z METREPORT 1000Z RWY 20C SIMUL INDEPENDENT ILS AND VISUAL APPROACHES ARE CONDUCTED ON RWY 20. TWY W 9 CLOSED, RWY 02C 20C RAPID EXIT TAXIWAY INDICATOR LIGHTS OFF WIND 120/ 07KT VRB BTN100 AND170 VIS 10KM CLD FEW TCU 1800FT FEW CB 2000FT T30 DP25 QNH 1009HPA NOSIG DEP,INITIAL CMB 3000FT ACK ATIS Y",
    "WMKK": "[Arrival ATIS] WMKK ARR ATIS K 0035Z WMKK ARR INFO K. TIME 0030. INDEPENDENT PARALLEL APPROACHES FOR RWY 14 L AND 15 ARE IN PROGRESS. EXP RNAV / ILS APCH FOR RWY 14 LEFT. EXP RNAV / ILS APCH FOR RWY 15. WIND RWY 14L DIRECTION NOT AVBL SPEED NOT AVBL. WIND RWY 15 DIRECTION NOT AVBL SPEED NOT AVBL. VIS RWY 14L TDZ NOT AVBL. VIS RWY 15 TDZ NOT AVBL. CLD FEW CB 1700 FT. T 29. DP 26. QNH 1011. NOSIG. AT FIRST CONTACT WITH LUMPUR RADAR, NOTIFY RCPT OF K\n[Departure ATIS] WMKK DEP ATIS U 0717Z WMKK DEP INFO U. TIME 0700. INDEPENDENT PARALLEL DEPARTURES FOR RWY 14 R AND 15 ARE IN PROGRESS. RWY 14 RIGHT. RWY 15. WIND RWY 14R 150 DEG, 8 KT. WIND RWY 15 140 DEG, 8 KT. VIS RWY 14R TDZ 10 KM OR MORE. VIS RWY 15 TDZ 10 KM OR MORE. WX TS, VCSH. CLD FEW CB 1700 FT, CLD SCT 1800 FT. T 30. DP 24. QNH 1008. NOSIG. ALL DEP ACFT TO CONTACT LUMPUR DEP AT 135 DECIMAL 25 MHZ WHEN ABN. AT FIRST CONTACT WITH LUMPUR GROUND, NOTIFY RCPT OF U",
    "VTBS": "[Arrival ATIS] VTBS ARR ATIS R 0900Z VTBS ARR ATIS R 0900Z SIMULTANEOUS INDEPENDENT PARL APCH IN PROGRESS EXP ILS Z APCH ARR RWY 19 OR RNP APCH RWY 20R , ,PILOT SHALL ADZ BKK APCH ON INITIAL CTC IF UNA TO CONDUCT RNP APCH DUE TO OPERATIONAL CONSTRAINT 0900Z WIND 330/8KT VIS 10KM CLD FEW 2000FT SCT 4000FT T34 DP21 QNH 1007HPA TREND NOSIG ADZ BKK APCH ON INITIAL CONTACT THAT YOU HAVE INFO R\n[Departure ATIS] VTBS DEP ATIS A 0800Z VTBS DEP ATIS A 0801Z DEP RWY 20L , ,AFT AIRBORNE ALL DEPARTING ACFT SHALL CTC 119.25 0800Z WIND 320/12KT VRB BTN 270/ AND 330/ VIS 10KM CLD FEW 2000FT T34 DP22 QNH 1007HPA TREND NOSIG ADZ GND WHEN INITIAL CONTACT YOU HAVE INFO A",
    "VTBU": "[Arrival ATIS] VTBU ARR ATIS U 0430Z VTBU ARR ATIS U 0430Z RNP RWY 18 TRL FL130 MOBILE ACFT ARST SYSTEM INSTL ATP SIX HUNDRED AND TEN METERS FM THR RWY 36 CABLE HGT 3 INCHES. 0430Z WIND 360/6KT VRB BTN 320/ AND 020/ VIS 10KM CLD FEW 2000FT T34 DP27 QNH 1010HPA TREND NOSIG ADZ CONTROLLER WHEN INITIAL CONTACT YOU HAVE INFO U\n[Departure ATIS] VTBU DEP ATIS D VTBU ARR/DEP DATIS RPT VTBU ARR ATIS D 0330Z ILS \"Z\" APCH RWY 18 TRL FL130 0330Z WIND 110/4KT VRB BTN 350/ AND 120/ VIS 6KM CLD FEW 2000FT T31 DP27 QNH 1014HPA TREND NOSIG ADZ CONTROLLER WHEN INITIAL CONTACT YOU HAVE INFO D",
    "ROAH": "[Arrival ATIS] ROAH ARR ATIS W 0033Z M0030 (APCH)ILS Z RWY36L LDG RWY 36L DEP RWY 36R DEP FREQ 119.1 335.8 M 070030Z 27005KT 60KM FEW015CU 29/25 Q1011/A2987= Q/TWO NINE EIGHT SEVEN STP\n[Departure ATIS] ROAH DEP ATIS P 0641Z M0630 (APCH)RNP RWY18R LDG RWY 18R DEP RWY 18L DEP FREQ 126.5 258.3 M 190630Z 20010KT 40KM FEW005ST SCT/// 29/27 Q1012/A2989= Q/TWO NINE EIGHT NINE STP",
    "VVDN": "[Arrival ATIS] VVDN ARR ATIS A 0802Z VVDN INFO A 0802Z. ILS VICTOR APPROACH 35L.. DPTG RWY 35R.. 0802Z. WIND 130/09KT CAVOK T33 DP25 QNH 1006HPA TREND NOSIG. ADZ ON INITIAL CTC YOU HAVE INFO. A.\n[Departure ATIS] VVDN DEP ATIS X 0632Z VVDN INFO X 0632Z. ILS VICTOR APPROACH 35L.. DPTG RWY 35R.. 0632Z. WIND 130/0KT CAVOK T34 DP26 QNH 1006HPA TREND NOSIG. ADZ ON INITIAL CTC YOU HAVE INFO. X.",
    "RCKH": "[Arrival ATIS] RCKH ARR ATIS P 1030Z EXPECT ILS APPROACH RWY 09 ARR/DEP TAXIWAY BRAVO, TAXIWAY DELTA AND TAXIWAY ECHO CLOSED DUE MAINTENANCE. RUNWAY 0 9 ARRIVALS PLAN VACATE VIA CHARLIE OR FOXTROT AND EXPEDITE VACATE. WIND 240/06KT VARYING BTN 210 AND 290 VIS 10 KM OR MORE CLD FEW 1800FT SCT 22000FT T 30 DP 25 QNH 1010HPA NOSIG CAUTION BIRD ACTIVITY IN VICINITY OF THE AERODROME. INFORM KAO-HSIUN APCH OR KAO-HSIUN TOWER ON INITIAL CONTACT YOU HAVE INFORMATION P\n[Departure ATIS] RCKH DEP ATIS Q 0630Z EXPECT ILS APPROACH RWY 09 ARR/DEP TAXIWAY JULIETT, TAXIWAY BRAVO, TAXIWAY DELTA AND TAXIWAY ECHO CLOSED DUE MAINTENANCE. RUNWAY 0 9 ARRIVALS PLAN VACATE VIA CHARLIE OR",
    "KLAX": "[Arrival ATIS] KLAX ARR ATIS H 1953Z - KLAX ATIS INFO H 1953Z. 23011KT 10SM CLR 23/16 A2995 (TWO NINER NINER FIVE) RMK AO2 SLP140 T02280156. INST APCHS AND RNAV RNP APCHS RY 24R AND 25L, OR VCTR FOR VISUAL APCH WILL BE PROVIDED, SIMUL VISUAL APCHS TO ALL RWYS ARE IN PROG, SIMUL INSTR DEPARTURES IN PROG RWYS 24 AND 25. CTC L A GC ON 121.75 FOR PUSH OR TAXI ON A. TWY B CLSD BTN TWY, C10 AND TWY C7 , , TWY B6 CLSD, TWY B7 CLSD, TWY C CLSD BTN TWY, C1 AND TWY C3, TWY C1 CLSD, TWY C9 CLSD BTN TWY, B AND TWY C, TWY C8 CLSD BTN TWY, B AND TWY C. RY 25R SFL OTS, RY 24L ALSF-2 OTS. LAX VOR UNMONITORED. USE CAUTION FOR INCREASED DRONE ACTIVIY IN THE VICINITY OF SOFI STADIUM AT OR BELOW 200FT AGL DURING THE WORLD CUP FROM JUNE TWELFTH TWENTY TWENTY SIX THROUGH JULY TENTH TWENTY TWENTY SIX. HAZD WX INFO FOR LAX AREA AVBL FM FSS. USE CAUTION FOR HANG GLIDING 1 MILE SOUTH LOS ANGELES VOR. BIRD ACTIVITY VICINITY ARPT. INCLUDE YOUR CALL SIGN IN ALL READBACKS. USE CAUTION WHEN EXITING RY24R AT TWY V, W, AND Y, TO HOLD SHORT OF RY24L. MULTIPLE RUNWAY INCURSIONS HAVE OCCURRED. ...ADVS YOU HAVE INFO H.\n[Departure ATIS] KLAX DEP ATIS D 0653Z LAX ATIS INFO D 0653Z. 28011KT 10SM FEW012 BKN018 17/14 A2998 (TWO NINER NINER EIGHT) RMK AO2 SLP151 T01720144. INST APCHS AND RNAV RNP APCHS RY 24R AND 25L, OR VCTR FOR VISUAL APCH WILL BE PROVIDED, SIMUL VISUAL APCHS TO ALL RWYS ARE IN PROG. CTC L A GC ON 121.75 FOR PUSH OR TAXI ON A. TWY C CLSD BTN TWY, C8 AND TWY C9 , , TWY B CLSD BTN TWY, F AND TWY B1, TWY B1 CLSD. ILS RY 25R OTS, RY 25R SFL OTS, RY 24L ALSF-2 OTS. LAX VOR UNMONITORED. IF ASSIGNED RUNWAY 25R FOR DEPARTURE, EXPECT DEPARTURE FROM INTERSECTION FOXTROT. TAXILANE CHARLIE EIGHT RESTRICTED TO AIRCRAFT WITH A WINGSPAN LESS THAN ONE HUNDRED EIGHTEEN FEET. USE CAUTION FOR INCREASED DRONE ACTIVIY IN THE VICINITY OF SOFI STADIUM AT OR BELOW 200FT AGL DURING THE WORLD CUP FROM 06/12/26 THROUGH 07/10/2026. HAZD WX INFO FOR LAX AREA AVBL FM FSS. BIRD ACTIVITY VICINITY ARPT. TWR FREQ FOR ALL RWYS IS 120.95. INCLUDE YOUR CALL SIGN IN ALL READBACKS. USE CAUTION WHEN EXITING RY24R AT TWY V, W, AND Y, TO HOLD SHORT OF RY24L. MULTIPLE RUNWAY INCURSIONS HAVE OCCURRED. ...ADVS YOU HAVE INFO D.",
    "KONT": "[Arrival ATIS] KONT ARR ATIS B 0653Z ONT ATIS INFO B 0653Z. 24004KT 9SM BKN015 17/13 A2998 (TWO NINER NINER EIGHT). ILS APR IN USE. RY26L & RY26R. LNDG AND DEPG RY 26L AND RY 26R. NOTAMS... TAXIWAY SIERRA CLSD BETWEEN SIERRA 8 AND W TAXIWAY Q SOUTH OF RWY 26L CLSD TAXIWAY T CLSD TAXIWAY SIERRA 5 CLSD. RY 26L IM OTS. HAZD WX INFO FOR SOUTHERN CA AVBL ON FSS FREQUENCIES. UAS IN THE VICINITY ONTARIO AIRPORT AT OR BELOW TWO HUNDRED. PILOTS READBACK RWY ASSIGNMENTS AND HOLD SHORT INSTRUCTIONS. ...ADVS YOU HAVE INFO B.\n[Departure ATIS] KONT DEP ATIS N 0553Z - KONT ATIS INFO N 0553Z. 24004KT 10SM BKN250 22/15 A2988 (TWO NINER EIGHT EIGHT) RMK AO2 SLP100. ILS AND VIS APR IN USE, RY26L & RY26R. LNDG AND DEPG RY 26L AND RY 26R. NOTAMS... TAXIWAY SIERRA CLSD BETWEEN SIERRA 8 AND W TAXIWAY Q SOUTH OF RWY 26L CLSD TAXIWAY T CLSD TAXIWAY SIERRA 5 CLSD. RY 26L IM OTS, RY 26R ALS OTS. USE CAUTION FOR NUMEROUS BIRDS OBSERVED IN VICINITY OF ONT. HAZD WX INFO FOR SOUTHERN CA AVBL ON FSS FREQUENCIES. PILOTS READBACK RWY ASSIGNMENTS AND HOLD SHORT INSTRUCTIONS. ...ADVS YOU HAVE INFO N.",
    "KSFO": "[Arrival ATIS] KSFO ARR ATIS F 0856Z - KSFO ATIS INFO F 0856Z. 18013KT 10SM FEW009 BKN022 17/12 A2994 (TWO NINER NINER FOUR) RMK AO2 SLP140 T01670122 58001. ILS RY 28R APP IN USE. DEPG RWYS 28L, 28R. RY 1L, 1R CLSD. NUMEROUS TWY CLOSURES FOR CONSTRUCTION ON THE FIELD, PILOTS CHECK NOTAMS. DEPG ACFT WAITING ON FINAL NUMBERS ADVISE GROUND PRIOR TO ENTERING TWY F. ...ADVS YOU HAVE INFO F.\n[Departure ATIS] KSFO DEP ATIS R 1456Z SFO ATIS INFO R 1456Z. 30006KT 10SM FEW006 OVC011 14/11 A3002 (THREE ZERO ZERO TWO). SIMUL CLSLY SPCD DPNDNT ILS RY 28R AND ILS RY 28L APP IN USE. DEPG RWYS 28L, 28R. GATE",
    "KOAK": "[Arrival ATIS] KOAK ARR ATIS I 0753Z - KOAK ATIS INFO I 0753Z. 19015KT 10SM SCT015 17/13 A2995 (TWO NINER NINER FIVE). RNAV 30, ILS 28R. ILS RWY 30, OTS. UNN LIT CLOSE-IN OBSTACLES FOR RWY 30 DEPARTURES. RWY 30 DEPARTURES ARE ADVISED TO AVOID TURNING LEFT PRIOR TO DEPARTURE END OF RUNWAY. SIGNATURE UNI-COM OUT OF SERVICE. HAZD WX INFO FOR CA ON FLT SRVC FREQ. CAUTION, BIRDS NEAR AIRPORT. ...ADVS YOU HAVE INFO I.\n[Departure ATIS] KOAK DEP ATIS O 1953Z OAK ATIS INFO O 1953Z. 28014KT 10SM FEW005 22/14 A2988 (TWO NINER EIGHT EIGHT). RNAV Z/VA RWY 30 ILS/VA RWY 28R. FLOW TO LAX, LAS, SAN. ILS RWY 30, OTS. UNN LIT CLOSE-IN OBSTACLES FOR RWY 30 DEPARTURES. RWY 30 DEPARTURES ARE ADVISED TO AVOID TURNING LEFT PRIOR TO DEPARTURE END OF RUNWAY. SIGNATURE UNI-COM OUT OF SERVICE. CAUTION, BIRDS NEAR AIRPORT. ...ADVS YOU HAVE INFO O.",
    "KDFW": "[Arrival ATIS] KDFW ARR ATIS Y 2353Z - KDFW ARR INFO Y 2353Z. 17008KT 120V180 10SM SCT070TCU SCT085 SCT250 36/18 A2990 (TWO NINER NINER ZERO) RMK AO2 SLP113 CB DSNT NE AND SE MOV SE TCU OHD AND DSNT S-W T03610178 10372 20333 55008. SIMUL VISUAL APCH TO RWYS, 13R, 18R, 17C, 17L. LDG RWY 17C EXP LAHSO TWY B 10460 FT AVAIL, LDG RWY 18R EXP LAHSO TWY B 10100 FT AVL. NOTICE TO AIRMEN. WARNING, RWY 18L HAS BEEN SHORTENED, 9273 FT AVAILABLE. RWY 18L ILS OTS, CL OTS. HAZD WX FOR DFW AVBL ON FSS. BIRD ACTIVITY VCNTY ARPT. ...ADVS YOU HAVE INFO Y.\n[Departure ATIS] KDFW DEP ATIS W 1553Z - KDFW DEP INFO W 1553Z. 21022G32KT 10SM FEW025 FEW180 SCT250 31/21 A2994 (TWO NINER NINER FOUR) RMK AO2 PK WND 20032/1547 SLP128 T03110206. SIMUL PARL TRAFFIC DEPG RWYS 17R, 18L. NOTICE TO AIRMEN. WARNING, RWY 18L HAS BEEN SHORTENED, 9273 FT AVAILABLE. RWY 18L CL OTS. BIRD ACTIVITY VCNTY ARPT. ...ADVS YOU HAVE INFO W.",
    "KIAH": "[Arrival ATIS] KIAH ARR ATIS R 0953Z IAH ATIS INFO R 0953Z. 15005KT 6SM BR FEW011 BKN027 27/26 A2982 (TWO NINER EIGHT TWO) RMK AO2 SLP097 T02720261. ARRIVALS EXPECT ILS OR RNAV Y RY 26R, ILS OR RNAV Y RY 26L, ILS OR RNAV Y RY 27. SIMUL APPROACHES IN USE. DEPG RY 15L. NOTICE TO AIRMEN. UNITED RAMP CONTROL IN EFFECT. BIRD ACTIVITY VICINITY ARPT. TWY SA CLSD BTN TWY, SG AND TWY SK , TWY SB CLSD BTN TWY, SG AND TWY SK , , TWY SG CLSD, TWY EA CLSD. NOTAM ATIS IN USE ON FREQUENCY 126.225. ...ADVS YOU HAVE INFO R.\n[Departure ATIS] KIAH DEP ATIS T 0353Z IAH ATIS INFO T 0353Z. 15007KT 10SM FEW035 FEW180 BKN250 27/23 A2996 (TWO NINER NINER SIX). ARRIVALS EXPECT ILS OR RNAV Y RY 8R, ILS OR RNAV Y RY 8L. DEPG RY 15R. NOTICE TO AIRMEN. UNITED RAMP CONTROL IN EFFECT. RY 15L, 33R CLSD. HAZD WX INFO FOR IAH AREA AVBL FM FSS. BIRD ACTIVITY VICINITY ARPT. CRANES ARE DOWN. TWY SA CLSD BTN TWY, SF AND TWY SK , TWY SB CLSD BTN TWY, SF AND TWY SK , , TWY WB CLSD BTN TWY, WG AND TWY WH . TWY EA CLSD. NOTAM ATIS IN USE ON FREQUENCY 126.225. ...ADVS YOU HAVE INFO T.",
    "KORD": "[Arrival ATIS] KORD ARR ATIS C 2351Z - KORD ATIS INFO C 2351Z. 04010KT 10SM FEW050 FEW250 26/12 A3005 (THREE ZERO ZERO FIVE) RMK AO2 SLP171 T02560122 10267 20256 56002. ARR EXP VECTORS ILS RWY 9L APCH, ILS RWY 10C APCH, VISUAL APCH RWY 10R. PILOTS EXP 2 INTCP THE ILS Y RY 10R FNA CRS. SIMUL APCHS IN USE. DEPS EXP RWYS 9C FROM F F 9200 FT AVL, 10L FROM DD. 10,093 FT AVBL. ATTN PILOTS. SIMUL PARL DEPS IN USE. EXP TO INITIALLY FLY RWY. HDG ON DEP. PILOTS MUST READ BACK DRCTN OF TURNS BY ATC. RWY 4L, 22R CLSD. RWY 22L ILS OTS, RWY 22R LOC OTS, RWY 28L GS OTS, RWY 9L IM OTS, RWY 9C IM OTS, RWY 10L IM OTS, RWY 10R IM OTS, RWY 27R IM OTS, RWY 28L IM OTS, RWY 28R IM OTS, RWY 9L PAPI OTS, RWY 27R PAPI OTS. PILOTS USE CTN FOR BIRD ACTIVITY IN THE VICINITY OF THE ARPT. USE CTN FOR PERSONNEL AND EQUIP AT NUMEROUS SITES ON THE FIELD. READBACK ALL RWY HOLD SHORT INSTRUCTIONS. WHEN READY TO TAXI CONTACT GND METERING ON FREQ 121.67. ...ADVS YOU HAVE INFO C.\n[Departure ATIS] KORD DEP ATIS Y 2051Z ORD ATIS INFO Y 2051Z. 03013KT 10SM SCT032 26/13 A3005 (THREE ZERO ZERO FIVE) RMK AO2 SLP172 T02560133 58001. ARR EXP VECTORS ILS RWY 9L APCH, ILS PRM RWY 10C APCH, VISUAL APCH RWY 10R. PILOTS EXP 2 INTCP THE ILS Y RY 10R FNA CRS. SIMUL APCHS IN USE. DEPS EXP RWYS 9C FROM F F 9200 FT AVL, 10L FROM DD. 10,093 FT AVBL. ATTN PILOTS. SIMUL PARL DEPS IN USE. EXP TO INITIALLY FLY RWY. HDG ON DEP. PILOTS MUST READ BACK DRCTN OF TURNS BY ATC. RWY 4L, 22R CLSD. RWY 22L ILS OTS, RWY 22R LOC OTS, RWY 28L GS OTS, RWY 9L IM OTS, RWY 9C IM OTS, RWY 10L IM OTS, RWY 10R IM OTS, RWY 27R IM OTS, RWY 28L IM OTS, RWY 28R IM OTS, RWY 9L PAPI OTS, RWY 27R PAPI OTS. PILOTS USE CTN FOR BIRD ACTIVITY IN THE VICINITY OF THE ARPT. USE CTN FOR PERSONNEL AND EQUIP AT NUMEROUS SITES ON THE FIELD. READBACK ALL RWY HOLD SHORT INSTRUCTIONS. WHEN READY TO TAXI CONTACT GND METERING ON FREQ 121.67. ...ADVS YOU HAVE INFO Y.",
    "KJFK": "[Arrival ATIS] KJFK ARR ATIS L 0951Z JFK ATIS INFO L 0951Z. 31011KT 10SM SCT170 BKN250 23/11 A2968 (TWO NINER SIX EIGHT) RMK AO2 PK WND 31030/0853 SLP049 T02280111. APPROACH IN USE ILS RY 31R, VISUAL APCH RY 31L. DEPG RY 31L. RWY 22L/4R INNER MARKER OTS. NUM CRANES OPERATING AT JFK. BIRD ACTIVITY VICINITY ARPT. READBACK ALL RWY ASSIGNMENTS AND HOLD SHORT INSTRUCTIONS. ...ADVS YOU HAVE INFO L.\n[Departure ATIS] KJFK DEP ATIS E 1851Z JFK ATIS INFO E 1851Z. 06013KT 10SM -RA BKN008 OVC012 21/19 A3004 (THREE ZERO ZERO FOUR). APPROACH IN USE ILS RY 4R, ILS RY 4L. DEPG RY 4L. CRI OTS. RWY 22L/4R INNER MARKER OTS. HAZD WX INFO FOR NY METRO AREA AVBL ON FSS. SWAP IN EFFECT EXPECT REROUTES. NUM CRANES OPERATING AT JFK. BIRD ACTIVITY VICINITY ARPT. READBACK ALL RWY ASSIGNMENTS AND HOLD SHORT INSTRUCTIONS. ...ADVS YOU HAVE INFO E.",
    "KIND": "[Arrival ATIS] KIND ARR ATIS Z 2354Z IND ATIS INFO Z 2354Z. 33008KT 10SM SCT038 SCT060 BKN250 28/21 A2997 (TWO NINER NINER SEVEN). PARL ILS RWY 5R AND 5L APPROACHES IN USE. CROSS RUNWAY OPERATIONS MAY BE IN EFFECT. NOTICE TO AIRMEN. RWY 32 GS OTS. TWY, P BTN TWY, H AND TWY B CLSD. P PAD CLSD. ILS RUNWAY 5R AND RUNWAY 5L INNER MARKER UNSERVICEABLE. RUNWAY 32 TOUCHDOWN RVR OTS. RUNWAY 14 ROLLOUT RVR OTS. HIWAS. ...ADVS YOU HAVE INFO Z.\n[Departure ATIS] KIND DEP ATIS H 1854Z IND ATIS INFO H 1854Z. 26009G19KT 10SM SCT036 BKN041 BKN170 23/16 A2981 (TWO NINER EIGHT ONE) RMK AO2 SLP088 T02280156. PARL ILS RWY 23R AND 23L APPROACHES IN USE. CROSS RU",
    "KDTW": "[Arrival ATIS] KDTW ARR ATIS H 1653Z DTW ARR INFO H 1653Z. 03008KT 10SM SCT022 BKN030 OVC075 22/17 A3005 (THREE ZERO ZERO FIVE) RMK AO2 SLP171 T02170167. SIMUL ILS Z RY 4L AND RY 3R APCH IN USE. NOTICE TO AIRMEN. RWY 21R, 3L CLSD, RWY 27L, 9R CLSD, RWY 27R, 9L CLSD. TWYS Y1 CLSD ;. HAZD WX INFO . CNVTV SIG 97 E, FOR MI , AND, OH . CNVTV SIG 21 E, FOR MI , AND, LE . CNVTV SIG 12 E, FOR OH , AND MI AVBL ON FLIGHT SERVICE FREQS. PILOTS USE CTN FOR BIRD ACTIVITY. DEPARTURE ATIS 118.125. ...ADVS YOU HAVE INFO H.\n[Departure ATIS] KDTW DEP ATIS Q 2253Z - KDTW DEP INFO Q 2253Z. 21009KT 10SM FEW050 FEW250 33/24 A2991 (TWO NINER NINER ONE). DEPG RWY 21R, RWY 22L ;. NOTICE TO AIRMEN. RWY 27L, 9R CLSD, RWY 27R, 9L CLSD. PILOTS USE CTN FOR BIRD ACTIVITY. ...ADVS YOU HAVE INFO Q.",
    "KMSP": "[Arrival ATIS] KMSP ARR ATIS I 0053Z MSP ARR INFO I 0053Z. 18009KT 10SM SCT045 SCT200 SCT250 29/19 A3001 (THREE ZERO ZERO ONE) RMK AO2 SLP156 T02940194. VISUAL RWY 12R APCH IN USE, VISUAL RWY 12L APCH IN USE. FINAL APCH, OVER NOISE SENSITIVE AREA. NOTICE TO AIRMEN. RWYS 4, 22 CLSD. TWY R7. R8. R9. R10. CLOSED, TWY R BETWEEN R6 AND R10 CLOSED. GS RWY 12L OTS, RWYS 12R, 12L, INNER MARKER OTS.. HAZD WX INFO FOR MSP AREA AVBL FM FSS. CTN, BIRDS NEAR MSP. READ BACK HS AND ALT. ALL ACFT TAXI WITH TRANSPONDER AND ALTITUDE ENCODING ON. ...ADVS YOU HAVE INFO I.\n[Departure ATIS] KMSP DEP ATIS S 2153Z - KMSP DEP INFO S 2153Z. 17011KT 10SM FEW045 SCT060 SCT250 30/19 A3003 (THREE ZERO ZERO THREE) RMK AO2 SLP164 T03000194. DEPARTING RWY 12L, RWY 12R, RWY 17. NOTICE TO AIRMEN. RWYS 4, 22 CLSD. TWY R7. R8. R9. R10. CLOSED, TWY R BETWEEN R6 AND R10 CLOSED. ALL ACFT CTC METERING ON ONE THREE THREE POINT FIVE SEVEN WHEN READY TO PUSHBACK OR TAXI. CTN, BIRDS NEAR MSP. READ BACK HS AND ALT. ALL ACFT TAXI WITH TRANSPONDER AND ALTITUDE ENCODING ON. ...ADVS YOU HAVE INFO S.",
    "CYEG": "[Arrival ATIS] CYEG ARR ATIS M 0100Z 12009KT 20SM FEW062 FEW100 SCT250 22/10 A3007 APCH RNAV Z OR Y RWY 20, INFORM ARRL OF REQ APCH ON INITIAL CTC. LDG AND DEP RWY 20. SIMUL APPROACHES MAY BE IN EFCT. INFORM CYEG ATC INFO M\n[Departure ATIS] CYEG DEP ATIS K 0000Z CYEG ARR ATIS K 0000Z 15013KT 20SM FEW062 CIG BKN250 22/09 A3008 APCH RNAV Z OR Y RWY 20, INFORM ARRL OF REQ APCH ON INITIAL CTC. LDG AND DEP RWY 20. SIMUL APPROACHES MAY BE IN EFCT. INFORM CYEG ATC INFO K",
    "EHAM": "[Arrival ATIS] EHAM ARR ATIS M 1950Z EHAM ARRIVAL INFO M. DEMAND. MAIN LANDING RWY 18 R. TRANSITION LEVEL 040. WIND 260 DEG, 6 KT, VRB BTN 220 AND 280 DEG. CAVOK. T 21. DP 16. QNH 1013 HPA. NOSIG. OPERATIONAL REPORT. CONTACT APCH WITH CALLSIGN ONLY. END OF INFO M\n[Departure ATIS] EHAM DEP ATIS S 1921Z EHAM DEPARTURE INFO S. DEMAND. MAIN DEPARTURE RWY 24. SECONDARY DEPARTURE RWY 18 L. MAIN LANDING RWY 18 R. WIND 260 DEG, 11 KT, 17 KT MAX, 8 KT MNM. WIND SECONDARY RUNWAY 240 DEG, 10 KT, VRB BTN 100 AND 300 DEG, 13 KT MAX, 5 KT MNM. CAVOK. T 21. DP 15. QNH 1013 HPA. OPERATIONAL REPORT. INFORM SCHIPHOL DEL BY VOICE IF UNABLE TO COMPLY WITH NADP 2. END OF INFO S",
    "EBBR": "[Arrival ATIS] EBBR ARR ATIS Y 0050Z EBBR NAT, EXP VECT FOR ILS APP ARR RWY25L RSCD AT 2102 RWY25R RSCD AT 2150 RWY25L DRY. RWY25R DRY. DEP RWY25R RWY19 TRL 055 TWY C6 CLSD. ILS RWY 25R U/S. RNP RWY 25R AT ATC DISCRETION. XNG RWY OPS INPR 240/9KT CAVOK T20 DP8 QNH 1015HPA NOSIG CFM ARR Y\n[Departure ATIS] EBBR DEP ATIS A 0820Z EBBR NAT, DEP RWY25R RSCD AT 0627 RWY25R DRY. ARR RWY25L TRL 055 RWY STOPBARS U/S. TWY B3 OUT6 CLSD 200/10KT VRB BTN 170 AND 230 CAVOK T27 DP19 QNH 1015HPA NOSIG CFM DEP A",
    "EDDF": "[Arrival ATIS] EDDF ARR ATIS H 0050Z ARR-ATIS EDDF H METAR 070050 EXPECT RNP X APCH RWY 25C FROM 0250 EXPECT ILS OR GLS APCH , TRL 60 17002KT CAVOK T16 DP12 QNH1015 TREND NOSIG END OF ATIS H\n[Departure ATIS] EDDF DEP ATIS C 0850Z DEP-ATIS EDDF C METAR 190850 RWY 25C 18 TRL 60 VRB02KT RWY18 VRB04KT CAVOK T31 DP17 QNH1017 TREND BECMG 21005KT END OF ATIS C",
    "EDDL": "[Arrival ATIS] EDDL ARR ATIS O 1720Z ATIS EDDL O METAR 061720 EXPECT VECTORS ILS APPROACH RWY 23L TWY L8 CLOSED BETWEEN TWY M AND RWY 23L TRL 60 29013KT 260V330 CAVOK T29 DP11 QNH1015 TREND NOSIG\n[Departure ATIS] EDDL DEP ATIS R EDDL ARR/DEP DATIS RPT -ATIS EDDL R METAR 020550 -EXPECT VECTORS ILS APPROACH -RWY 23L -TWY L8 CLOSED BETWEEN TWY M AND RWY 23L -TRL 60 - -23010KT -CAVOK - - -T19 DP13 -QNH1020 - -TREND NOSIG",
    "EDDK": "[Arrival ATIS] EDDK ARR ATIS H 1256Z ATIS EDDK H SPECI 061256 EXPECT ILS APCH RWY 31R 24 RWY COND RWY 31R AT TIME 0650 RWYCC 6 DEPOSIT TOTAL RWY DRY RWY 24 AT TIME 0650 RWYCC 6 DEPOSIT TOTAL RWY DRY TRL 60 RWY 13R AND RWY 31L CLOSED FOR DEPARTURE AND LANDING: TAXIING BTN THR RWY 13R AND INTERSECTION RWY 24 POSSIBLE : 29016G26KT CAVOK T28 DP12 QNH1017\n[Departure ATIS] EDDK DEP ATIS Q EDDK ARR/DEP DATIS RPT -ATIS EDDK Q METAR 291920 -EXPECT ILS APCH -RWY 31R 06 -RWY COND RWY 31R AT TIME 1830 RWYCC 6 DEPOSIT TOTAL RWY DRY RWY 06 AT TIME 1830 RWYCC 6 DEPOSIT TOTAL RWY DRY -TRL 60 -RWY 13R AND RWY 31L CLOSED FOR DEPARTURE AND LANDING: TAXIING BTN THR RWY 13R AND INTERSECTION RWY 24 POSSIBLE : -04003KT -CAVOK - - -T24 DP13 -QNH1024 - -TREND NOSIG",
    "EBLG": "[Arrival ATIS] EBLG ATIS E 0020Z EBLG INFO, EXP RNAV TO ILS APP ARR RWY22L DEP RWY22L RWY 22L DRY, RWYCC 666. TRL 055 TWY A4 DISPLACED 230/10KT CAVOK T20 DP8 QNH 1016HPA NOSIG CFM ATIS E",
    "LSZH": "[Arrival ATIS] LSZH ARR ATIS G 2350Z ARRIVALS, EXP RNP APCH, RWY 28. TRL 70. DEP RWY 32. WIND 090 DEG, 3 KT. CAVOK. T 18. DP 13. QNH 1021. NOSIG.\n[Departure ATIS] LSZH DEP ATIS V 1020Z DEP RWY 28. TRL 70. ARRIVALS, EXP ILS APCH, RWY 14. TMA S 1 IS NOT ACT. TMA S 2 AND S 3 ARE NOT ACT. WIND 320 DEG, 5 KT, VRB BTN 260 AND 040 DEG. CAVOK. T 32. DP 15. QNH 1019. NOSIG.",
    "LIMC": "[Arrival ATIS] LIMC ARR ATIS C 0050Z LIMC ARR C 0050Z I.L.S. ZULU RWY IN USE 35L TL 70 RWY 3 5 RIGHT CLOSED UNTIL 0 3 3 0 HOURS... WIND TDZ 060/4KT CAVOK T23 DP16 QNH 1018HPA QFE 0993HPA\n[Departure ATIS] LIMC DEP ATIS G 0850Z LIMC DEP G 0850Z RWY IN USE 35L TL 70 INTERSECTION ECHO WHISKY CLOSED.. WIND END 080/4KT VRB BTN 030/AND 200/ CAVOK T29 DP18 QNH 1020HPA QFE 0995HPA DATALINK CLEARANCE AVAILABLE.... CONTACT 1 3 1 8 8 0 TO BE RELEASED BY THE AIRPORT OPERATOR ...",
    "LIRF": "[Arrival ATIS] LIRF ARR ATIS D 0050Z LIRF ARR D 0050Z RWY 16L ILS W RWY 16R ILS Z RWY IN USE 16L TL 70 RWYS IN USE FOR ARR 16L AND 16R WIND TDZ VRB2KT VRB BTN 030/AND 090/ VIS 10KM CLD FEW 1000FT T22 DP19 QNH 1017HPA\n[Departure ATIS] LIRF DEP ATIS L 1920Z LIRF DEP L 1920Z RWY IN USE 25 TL 70 RWYS IN USE FOR ARR 16L AND 16R WIND END 280/3KT VRB BTN 270/AND 070/ CAVOK T25 DP19 QNH 1016HPA REA IS SENT AUTOMATICALLY ONCE RLSD BY RAMP WHEN READY CONTACT FIUME RAMP 121.725",
    "EINN": "[Arrival ATIS] EINN ARR ATIS P 1030Z EXPECT I L S CATEGORY 1 LDG RWY24 TKOF RWY24 TRL FL065 26009KT 9999 FEW010 BKN019 15/13 QNH Q1006 TREND NOSIG RUNWAY 2 4 SURFACE CONDITION CODE. 5 5 5. ISSUED AT 0 6 3 5. ALL PARTS. WET. 100 PERCENT ADVISE AT FIRST CONTACT YOU HAVE ATIS INFO P",
    "EGLL": "[Arrival ATIS] EGLL ARR ATIS X 0050Z LANDING RWY 27L TRANSITION-LEVEL: FL 70 RUNWAY 27R REDUCED DECLARED DISTANCES WITH TAKE OFF RUN AVAILABLE 3362METRES AND LANDING DISTANCE AVAILABLE 3362METRES IF STAND GUIDANCE IS OFF OR FAILS, REMAIN ON THE TAXIWAY CENTRELINE AND ADVISE ATC RWY 27L SINGLE RUNWAY OPERATIONS IN FORCE AUTO 25008KT 9999 NCD 22/07 Q1016 ACKNOWLEDGE RECEIPT OF INFORMATION X\n[Departure ATIS] EGLL DEP ATIS Y 2120Z DEPARTURE RWY 27L RUNWAY 27R REDUCED DECLARED DISTANCES WITH TAKE OFF RUN AVAILABLE 3362METRES AND LANDING DISTANCE AVAILABLE 3362METRES PILOTS THAT ARE IN RECEIPT OF DATALINK CLEARANCES ARE REMINDED THEY MUST CONTACT DELIVERY ON 121.980 WHEN READY FOR START DET VOR OOS AUTO 26009KT 190V290 9999 NCD 26/06 Q1016 ACKNOWLEDGE RECEIPT OF INFORMATION Y AND REPORT AIRCRAFT TYPE AND CURRENT QNH ON FIRST CONTACT WITH HEATHROW",
    "EPWA": "[Arrival ATIS] EPWA ARR ATIS M 0931Z EPWA ARR M. TIME 0930. EXP U ARR ILS Z APCH FOR RWY 33. TRANSITION LEVEL 80. WIND 330 DEG, 7 KT, VRB BTN 300 AND 360 DEG. VIS TDZ 10 KM OR MORE. CLD FEW 4200 FT. T 24. DP 15. QNH 1021. NOSIG. CAUTION. BIRD ACT. END OF EPWA ARR M\n[Departure ATIS] EPWA DEP ATIS Q 1501Z EPWA DEP Q. TIME 1500. DEP RWY 29. ARR RWY 33, EXP U ARR ILS Z. REPORT READY FOR STARTUP ON DELIVERY 121. 605. TRANSITION LEVEL 80. WIND 250 DEG, 17 KT, VRB BTN 220 AND 280 DEG. CAVOK. T 22. DP 3. QNH 1011. TREND TEMPO WIND 260 DEG, 17 KT, GUSTING TO 27 KT. CAUTION. BIRD ACT. END OF EPWA DEP Q",
    "EFHK": "[Arrival ATIS] EFHK ARR ATIS H 0050Z EXPECT ILS APCH ARR RWY 22L RUNWAY 22L CONDITION REPORT AT 2138 UTC RUNWAY CONDITION CODES 4 DOWNGRADED , 4 DOWNGRADED , 4 DOWNGRADED CONTAMINANTS ALL PARTS 100 PERCENT WET TRL 70 WIND 190 DEG 10 KT VIS 10KM FBL SHRA SCT CB 3000 FT. BKN 3400 FT T 9 DP 8 QNH 995 TEMPO VIS 6KM MOD SHRA CLD BKN 1200 FT. ACK INFO H\n[Departure ATIS] EFHK DEP ATIS H 1620Z DEP RWYS 22R AND 22L RUNWAY 22R CONDITION REPORT AT 1329 UTC RUNWAY CONDITION CODES 6 , 6 , 6 CONTAMINANTS ALL PARTS DRY RUNWAY 22L CONDITION REPORT AT 1330 UTC RUNWAY CONDITION CODES 6 , 6 , 6 CONTAMINANTS ALL PARTS DRY WIND 110 DEG 6 KT VIS 10KM FEW 1400 FT. SCT 1600 FT. FEW TCU 2800 FT T 19 DP 15 QNH 1003 TEMPO CLD FEW CB 3000 FT. ACK INFO H",
    "LTAC": "[Arrival ATIS] LTAC ARR ATIS Z 0020Z EXP ILS V APCH 03C DEP RWY 03L RWY 03C WIND 040 DEG 12 KT RWY 03L WIND 030 DEG 11 KT TRL 110 CAVOK T 16 DP 11 QNH 1016 NOSIG FOR DELIVERY CTC 121.9. FOR DELIVERY FIRST USE DIGITAL DEP CLR. CTN BIRD HAZARD OVR AERODROME. APCH FREQUENCY 129.050. TAXIWAY ECHO 1 IS CLOSED. END OF ATIS Z",
    "UBBB": "[Arrival ATIS] UBBB ARR ATIS I 0100Z ATIS I EXP ILS/ LDG 34 35 DEP 34 35 IN USE RWY 34 CLEAR DRY 70 RWY 35 CLEAR DRY 70 TLVL 110 WIND WIND RWY 34 330 16 KT SPD MAX 22 MIN 14 WIND RWY 35 320 14 KT SPD MAX 24 MIN 10 VIS 10 KM FEW HEIGHT OF CLD BASE NOT AVBL RWY 34 FEW 1000 FT RWY 35 T 23 / DP 20 QNH 1010 HPA TREND TREND NOSIG MODERATE BIRDS ACT IN VICINITY OF AP END OF ATIS I\n[Departure ATIS] UBBB DEP ATIS V 2100Z ATIS V EXP ILS/ LDG 34 35 DEP 34 35 IN USE RWY 34 CLEAR DRY 70 RWY 35 CLEAR DRY 70 TLVL 110 WIND WIND RWY 34 330 12 KT SPD MAX 18 MIN 10 WIND RWY 35 330 16 KT SPD MAX 20 MIN 12 VIS 10 KM BKN 1100 FT RWY 34 BKN 1100 FT RWY 35 T 24 / DP 22 QNH 1010 HPA TREND TREND NOSIG MODERATE BIRDS ACT IN VICINITY OF AP END OF ATIS V",
    "ZWWW": "[Arrival ATIS] ZWWW ARR ATIS B 1030Z EXP ILSDME Z APCH LDG RWY 26R TA 3000 WIND 040/3MPS VRB BTN 360/ AND 060/ CAVOK T 34 /DP 08 QNH 1008 HPA ADZ YOU HAVE INFO B.\n[Departure ATIS] ZWWW DEP ATIS N 0430Z DEP RWY 26L TA 3000 WIND 010/6MPS VIS 9999M CLD FEW 990M T 28 /DP 14 QNH 1013 HPA ADZ YOU HAVE INFO N.",
    "ZLXY": "[Arrival ATIS] ZLXY ARR ATIS L 1000Z EXP ILS APCH LDG RWY 05L & 06R WIND 170/3MPS VRB BTN 120/ AND 220/ CAVOK T 30 /DP 17 QNH 1003 HPA VISUAL APPROACH IN PROGRESS ADZ YOU HAVE INFO L.\n[Departure ATIS] ZLXY DEP ATIS G 0600Z DEP RWY 05L & 06L WIND VRB/1MPS VIS 9999M CLD SCT 1500M T 29 /DP 19 QNH 1005 HPA VISUAL APPROACH IN PROGRESS ADZ YOU HAVE INFO G.",
    "ZBAA": "[Arrival ATIS] ZBAA ARR ATIS R 1030Z EXP ILS APCH DEPENDENT PARL INSTR APCH LDG RWY 36L & 36R & 01 WIND 090 DEG 3 MPS 070V130 DEG VIS 8000 -SHRA CLD FEW 450M /FEW CB 1500M T 22 /DP 21 QNH 1003 HPA SUPPLEMENT INFO /RETS RWY 36L RWYCC 5/5/5 ISSUED AT 0700 ALL PARTS WET NR 100PCT RWY 36R RWYCC 5/5/5 ISSUED AT 0700 ALL PARTS WET NR 100PCT RWY 01 RWYCC 5/5/5 ISSUED AT 0700 ALL PARTS WET NR 100PCT ADZ YOU HAVE INFO R.\n[Departure ATIS] ZBAA DEP ATIS O 0930Z DEP RWY 36L & 36R & 01 WIND 040 DEG 2 MPS VIS 8000 -TSRA CLD FEW 450M /FEW CB 1500M T 22 /DP 22 QNH 1003 HPA RWY INDEPENDENT PARALLEL DEP RWY 36L RWYCC 5/5/5 ISSUED AT 0700 ALL PARTS WET NR 100PCT RWY 36R RWYCC 5/5/5 ISSUED AT 0700 ALL PARTS WET NR 100PCT RWY 01 RWYCC 5/5/5 ISSUED AT 0700 ALL PARTS WET NR 100PCT ADZ YOU HAVE INFO O.",
    "ZBHH": "[Arrival ATIS] ZBHH ARR ATIS A 1015Z EXP ILSDME APCH LDG RWY 08 SFC COND & BA NOTICE: RWYCC 08 5/5/5 ISSUED AT 0834Z ALL PARTS WET NR NR TA 3000 /TRL 3600 WIND VRB/2MPS MAX7 VIS 9999M -SHRA CLD FEW 1200M /FEW CB 1200M T 18 /DP 14 QNH 1008 HPA SUPPLEMENT INFO RETS BEFORE 1300 UTC, TURBULENCE MAY OCCUR IN LOCAL FIELD. ADZ YOU HAVE INFO A.\n[Departure ATIS] ZBHH DEP ATIS K 0600Z DEP RWY 26 TA 3000 /TRL 3600 WIND 240/4MPS VIS 9999M CLD SCT 900M /FEW TCU 900M T 23 /DP 16 QNH 1006 HPA BEFORE 1300 UTC, TURBULENCE MAY OCCUR IN LOCAL FIELD. ADZ YOU HAVE INFO K.",
    "ZSQD": "[Arrival ATIS] ZSQD ARR ATIS X 1000Z EXP ILSDME APCH LDG RWY 17 TA 3000 /TRL 3600 WIND 090/4MPS VIS 9999M -RA CLD BKN 780M T 24 /DP 19 QNH 1002 HPA SEGREGATED OPERATION VISUAL APPROACH OPERATION IN PROGRESS. RUNWAY 17,IF MISSED APPROACH,EXPECT FOLLOW THE STANDARD MISSED APPROACH PROCEDURE,CLIMB TO 900M ON QNH OR BY ATC CAUTION MAYBE THERE IS A FLOCK OF BIRDS IN THE VICINITY OF AIRPORT ADZ YOU HAVE INFO X.\n[Departure ATIS] ZSQD DEP ATIS W 0900Z DEP RWY 16 TA 3000 /TRL 3600 WIND 140/2MPS VRB BTN 100/ AND 170/ VIS 9999M CLD BKN 900M T 25 /DP 19 QNH 1002 HPA SEGREGATED OPERATION VISUAL APPROACH OPERATION IN PROGRESS. RUNWAY 17,IF MISSED APPROACH,EXPECT FOLLOW THE STANDARD MISSED APPROACH PROCEDURE,CLIMB TO 900M ON QNH OR BY ATC CAUTION MAYBE THERE IS A FLOCK OF BIRDS IN THE VICINITY OF AIRPORT ADZ YOU HAVE INFO W."
  },
  "windtemp_alaska": "\n000\nFBAK31 KWNO 062000\nFD1AK1\nDATA BASED ON 061800Z    \nVALID 070000Z   FOR USE 2000-0300Z. TEMPS NEG ABV 24000\n\nFT  3000    6000    9000   12000   18000   24000  30000  34000  39000\nADK 2524 2328+06 2331+02 2335-02 2361-13 2385-23 239738 730247 238856\nADQ 3114 3210+04 3312-03 3317-09 3317-22 3215-34 312247 313746 312644\nAKN 2808 3307+04 3106-02 3309-07 3111-21 3114-35 304045 304247 292645\nANC 3405 0311+04 0517-02 0613-08 0615-21 0715-32 052649 082448 110743\nANN 1740 1931+04 1935-01 1936-04 1948-14 1954-27 206442 207052 216054\nBET 3007 3305+03 9900-03 9900-08 9900-22 9900-35 261147 271847 261345\nBRW 2311 2319+07 2316+01 2214-04 2016-18 1818-31 163046 163453 171950\nBTI 9900 2509+08 2407+02 9900-03 2007-17 1516-29 142846 143654 152352\nBTT 9900 0805+07 1011+00 1012-06 1216-19 1220-31 101846 111955 141549\nCDB 1519 1617+05 1913+01 2416-03 2736-14 2758-26 277440 278650 277555\nCZF 9900 1805+03 1407-03 1509-08 1411-21 1219-34 132049 170848 220945\nEHM 9900 9900+04 1505-02 1807-07 2410-21 2838-30 286945 275950 273547\nFAI 0705 0606+07 0911+00 1114-07 1117-20 1223-31 122146 112554 121946\nFYU 0708 0808+06 1110+01 1215-05 1223-19 1324-31 132646 132454 141948\nGAL 3405 9900+06 9900-01 9900-07 0605-21 0808-33 112148 112252 131046\nGKN 0511 0615+06 1005-01 1010-07 1118-19 1324-32 144148 123350 121244\nHOM 3109 3513+04 3513-02 3514-08 0212-22 0311-33 041749 021047 330843\nJNU 1013 1428+01 1535-04 1535-07 1644-16 1652-28 165545 176453 163247\nLUR 1924 1920+06 1716+01 1616-05 1612-18 1611-31 171047 181053 160949\nMCG 3406 0111+04 0413-01 0411-07 0512-20 0716-33 121449 121752 110544\nMDO 3109 0411+03 0413-03 0315-10 0720-21 0922-34 082648 072045 071141\nOME 2406 1912+05 2011-01 2009-07 2009-21 1811-33 141349 121651 131046\nORT      0815+07 0818-01 1126-08 1230-19 1328-30 153047 133354 131746\nOTZ 2010 1910+05 2010-02 2011-08 1515-19 1318-31 122846 112554 121348\nSNP 1221 1121+02 1422-02 1820-06 2234-17 2334-30 246444 247048 244047\nTKA 0110 0315+06 0721-01 0720-07 0718-21 0920-32 072848 092150 140944\nUNK 9900 9900+05 9900-01 9900-07 1108-21 1214-33 112349 111751 131045\nYAK 9900 0717+02 0930-03 0937-09 1135-18 1138-29 146047 155751 142544\nIKO 2324 2326+10 2430+07 2434+02 2549-11 2567-23 258538 258749 258358\nAFM 9900 9900+06 1511-01 1514-06 1414-19 1215-31 122046 122055 131448\n5AB 3212 3314+00 3212-02 3112-07 3312-21 0120-34 261538 242640 233244\n5AC 2616 2428+04 2338+00 2245-05 2260-17 2275-26 228342 228150 235749\n5AD 3133 3231+01 3233-04 3235-10 3244-23 3256-35 326041 324840 313640\n5AE 3010 3407+03 3311+00 3115-06 3035-19 3063-28 309642 800550 307150\n5AF 2118 1821-02 1627-06 1532-12 1649-25 1667-34 165938 174038 182641\n5AG 0930 0724+00 0728-05 0722-09 0931-21 0936-35 114746 112542 121140\n",
  "vaac_tokyo": [
    {
      "id": "20260706_30027000_0239",
      "year": "2026",
      "volcano": "Sheveluch",
      "psn": "N5639 E16122",
      "issued": "20260706",
      "text": "FVFE01 RJTD 061800\nVA ADVISORY\nDTG: 20260706/1800Z\nVAAC: TOKYO\nVOLCANO: SHEVELUCH 300270\nPSN: N5639 E16122\nAREA: RUSSIA\nSOURCE ELEV: 3283M AMSL\nADVISORY NR: 2026/239\nINFO SOURCE: HIMAWARI-9\nERUPTION DETAILS: VA CONTINUOUSLY OBS IN SATELLITE IMAGERY\nOBS VA DTG: 06/1720Z\nOBS VA CLD: SFC/FL230 N4615 E16224 - N4521 E16440 - N4700 E16656 - \nN4507 E16557 - N4432 E16446 - N4505 E16305 MOV NE 50KT\nFCST VA CLD +6 HR: 06/2320Z SFC/FL250 N4639 E17021 - N4423 E16725 - \nN4342 E16422 - N4430 E16356 - N4444 E16618 - N4714 E16953\nFCST VA CLD +12 HR: 07/0520Z SFC/FL250 N4438 E17106 - N4258 E16725 - \nN4326 E16424 - N4351 E16717 - N4836 E17512\nFCST VA CLD +18 HR: NO VA EXP\nRMK: THE RESPONSIBILITY FOR THIS ASH EVENT IS BEING TRANSFERRED TO \nVAAC ANCHORAGE. THE NEXT ADVISORY WILL BE ISSUED BY VAAC ANCHORAGE \nBY 0000UTC UNDER HEADER FVAK21 PAWU.\nNXT ADVISORY: NO FURTHER ADVISORIES=",
      "img_url": "https://ds.data.jma.go.jp/svd/vaac/data/VAGFN/2026/Images/20260706_30027000_0239_QH21_01.png",
      "sat_img_url": "https://ds.data.jma.go.jp/svd/vaac/data/Sat/2026/Images/30027000/09-ir/20260706_1720_202607061800_ir.png",
      "text_url": "https://ds.data.jma.go.jp/svd/vaac/data/TextData/2026/20260706_30027000_0239_Text.html"
    },
    {
      "id": "20260706_27202000_0232",
      "year": "2026",
      "volcano": "Kanlaon",
      "psn": "N1025 E12308",
      "issued": "20260706",
      "text": "FVFE01 RJTD 061545\nVA ADVISORY\nDTG: 20260706/1545Z\nVAAC: TOKYO\nVOLCANO: KANLAON 272020\nPSN: N1025 E12308\nAREA: PHILIPPINES\nSOURCE ELEV: 2435M AMSL\nADVISORY NR: 2026/232\nINFO SOURCE: HIMAWARI-9 PHIVOLCS\nERUPTION DETAILS: ERUPTION AT 20260706/1520Z FL100 EXTD SW REPORTED\nOBS VA DTG: 06/1530Z\nOBS VA CLD: VA NOT IDENTIFIABLE FM SATELLITE DATA WIND FL100 350/5KT\nFCST VA CLD +6 HR: NOT AVBL\nFCST VA CLD +12 HR: NOT AVBL\nFCST VA CLD +18 HR: NOT AVBL\nRMK: WE WILL ISSUE FURTHER ADVISORY IF VA IS DETECTED IN SATELLITE \nIMAGERY.\nNXT ADVISORY: NO FURTHER ADVISORIES=",
      "img_url": "https://ds.data.jma.go.jp/svd/vaac/data/VAGFN/2026/Images/20260706_27202000_0232_QH21_01.png",
      "sat_img_url": null,
      "text_url": "https://ds.data.jma.go.jp/svd/vaac/data/TextData/2026/20260706_27202000_0232_Text.html"
    },
    {
      "id": "20260705_27303000_0717",
      "year": "2026",
      "volcano": "Mayon",
      "psn": "N1315 E12341",
      "issued": "20260705",
      "text": "FVFE01 RJTD 051936\nVA ADVISORY\nDTG: 20260705/1936Z\nVAAC: TOKYO\nVOLCANO: MAYON 273030\nPSN: N1315 E12341\nAREA: PHILIPPINES\nSOURCE ELEV: 2462M AMSL\nADVISORY NR: 2026/717\nINFO SOURCE: HIMAWARI-9 PHIVOLCS\nERUPTION DETAILS: ERUPTION AT 20260705/1914Z FL090 EXTD WSW REPORTED\nOBS VA DTG: 05/1920Z\nOBS VA CLD: VA NOT IDENTIFIABLE FM SATELLITE DATA WIND FL090 050/8KT\nFCST VA CLD +6 HR: NOT AVBL\nFCST VA CLD +12 HR: NOT AVBL\nFCST VA CLD +18 HR: NOT AVBL\nRMK: WE WILL ISSUE FURTHER ADVISORY IF VA IS DETECTED IN SATELLITE \nIMAGERY.\nNXT ADVISORY: NO FURTHER ADVISORIES=",
      "img_url": "https://ds.data.jma.go.jp/svd/vaac/data/VAGFN/2026/Images/20260705_27303000_0717_QH21_01.png",
      "sat_img_url": null,
      "text_url": "https://ds.data.jma.go.jp/svd/vaac/data/TextData/2026/20260705_27303000_0717_Text.html"
    },
    {
      "id": "20260701_30006000_0001",
      "year": "2026",
      "volcano": "Mutnovsky",
      "psn": "N5227 E15812",
      "issued": "20260701",
      "text": "FVFE01 RJTD 012206\nVA ADVISORY\nDTG: 20260701/2206Z\nVAAC: TOKYO\nVOLCANO: MUTNOVSKY 300060\nPSN: N5227 E15812\nAREA: RUSSIA\nSOURCE ELEV: 2288M AMSL\nADVISORY NR: 2026/1\nINFO SOURCE: KVERT KBGS UHPP HIMAWARI-9\nERUPTION DETAILS: ERUPTION AT 20260701/2016Z FL170 EXTD W REPORTED\nOBS VA DTG: 01/2140Z\nOBS VA CLD: VA NOT IDENTIFIABLE FM SATELLITE DATA WIND FL170 120/8KT\nFCST VA CLD +6 HR: NOT AVBL\nFCST VA CLD +12 HR: NOT AVBL\nFCST VA CLD +18 HR: NOT AVBL\nRMK: WE WILL ISSUE FURTHER ADVISORY IF VA IS DETECTED IN SATELLITE \nIMAGERY.\nNXT ADVISORY: NO FURTHER ADVISORIES=",
      "img_url": "https://ds.data.jma.go.jp/svd/vaac/data/VAGFN/2026/Images/20260701_30006000_0001_QH21_01.png",
      "sat_img_url": null,
      "text_url": "https://ds.data.jma.go.jp/svd/vaac/data/TextData/2026/20260701_30006000_0001_Text.html"
    }
  ],
  "vaac_alaska": [
    {
      "text": "\n000\nFVAK21 PAWU 062058\nVAAAK1\nVA ADVISORY\n\nDTG: 20260706/2100Z\n\nVAAC: ANCHORAGE\n\nVOLCANO: SHEVELUCH 300270\n\nPSN: N5639 E16122\n\nAREA: KAMCHATKA PENINSULA\n\nSOURCE ELEV: 10771 FT AMSL\n\nADVISORY NR: 2026/179\n\nINFO SOURCE: HIMAWARI/GOES\n\nERUPTION DETAILS: VA CONTINUOUSLY OBS IN SATELLITE IMAGERY\n\nOBS VA DTG: 06/2100Z\n\nOBS VA CLD: SFC/FL280 N5221 W17811 - N4512 E17120 - N4539 E16533\n- N4856 E16906 - N5403 W17920 - N5221 W17811 - N5221 W17811 MOV E\n50KT\n\nFCST VA CLD +6HR: 07/0300Z NO VA EXP\n\nFCST VA CLD +12HR: 07/0900Z NO VA EXP\n\nFCST VA CLD +18HR: 07/1500Z NO VA EXP\n\nRMK: NIL...BS\n\nNXT ADVISORY: WILL BE ISSUED BY 20260707/0300Z=\n\n",
      "issued": "2026-07-06T20:58:00+00:00",
      "volcano": "Sheveluch",
      "psn": "N5639 E16122"
    }
  ]
}