{
  "updated_utc": "2026-07-17T11:11Z",
  "metar": {
    "RJAA": "METAR RJAA 170930Z 13010KT 8000 VCSH FEW004 BKN006 BKN008 25/24 Q1005 NOSIG",
    "PANC": "SPECI PANC 170934Z 00000KT 10SM -RA SCT004 BKN070 OVC085 10/09 A2991 RMK AO2 P0000 T01000094",
    "PAFA": "METAR PAFA 170953Z 00000KT 10SM BKN060 OVC090 14/10 A2979 RMK AO2 RAB17E49 SLP092 P0000 T01390100 $",
    "PAED": "SPECI PAED 170926Z 35007KT 10SM OVC075 11/09 A2989 RMK AO2A RAE26 SLP118 $",
    "KSEA": "METAR KSEA 170953Z 18006KT 10SM OVC029 14/12 A3002 RMK AO2 SLP170 T01440117 $",
    "ZSPD": "METAR ZSPD 170930Z 05004MPS 010V080 CAVOK 36/26 Q0999 NOSIG",
    "ZSSS": "METAR ZSSS 170930Z 27003MPS CAVOK 37/24 Q0999 NOSIG",
    "RJFR": "METAR RJFR 171000Z 34005KT 9999 FEW002 SCT060 BKN/// 30/26 Q1002",
    "VHHH": "METAR VHHH 170930Z 18008KT 9999 FEW010 30/25 Q1005 NOSIG",
    "RCTP": "METAR RCTP 170930Z 24017KT 9999 FEW015 FEW016TCU BKN200 32/25 Q1004 WS R23R NOSIG RMK TCU E A2967",
    "ZGSZ": "METAR ZGSZ 171000Z 16006MPS CAVOK 30/27 Q1004 NOSIG",
    "WSSS": "METAR WSSS 170930Z 16006KT 130V190 9999 SCT016 FEW018TCU SCT280 29/26 Q1009 NOSIG",
    "WMKK": "METAR WMKK 170930Z VRB01KT 9000 VCSH FEW017CB 31/25 Q1008 NOSIG",
    "WIDD": "METAR WIDD 170930Z 10005KT 030V160 6000 -TSRA FEW012CB BKN015 27/26 Q1010 NOSIG RMK CB OVER THE FIELD",
    "VTBS": "METAR VTBS 170930Z 21010KT 9999 FEW020 32/23 Q1007 NOSIG",
    "VTBU": "METAR VTBU 170930Z 24007KT 9999 FEW020 30/28 Q1008 NOSIG",
    "ROAH": "METAR ROAH 170930Z 22008KT 9999 FEW008 BKN/// 29/28 Q1005",
    "VVDN": "METAR VVDN 171000Z 14007KT 090V220 9999 FEW020 34/25 Q1004 NOSIG",
    "RCKH": "METAR RCKH 170930Z 26003KT 9999 -RA FEW016 SCT048 BKN080 26/25 Q1007 NOSIG RMK A2976",
    "KLAX": "METAR KLAX 170953Z 10005KT 10SM FEW010 21/18 A2987 RMK AO2 SLP112 T02060178 $",
    "KONT": "METAR KONT 170953Z 25005KT 10SM FEW200 22/17 A2989 RMK AO2 SLP101 T02220172 $",
    "KSFO": "METAR KSFO 170956Z 27008KT 10SM FEW006 SCT012 14/11 A2989 RMK AO2 SLP122 T01390111 $",
    "KOAK": "METAR KOAK 170953Z 00000KT 10SM FEW007 FEW012 14/12 A2989 RMK AO2 SLP121 T01440117",
    "KMHR": "METAR KMHR 170915Z AUTO 18008KT 10SM CLR 17/08 A2981 RMK AO2 T01730081 $",
    "KDFW": "METAR KDFW 170953Z 17008KT 10SM FEW015 FEW120 BKN200 26/22 A3007 RMK AO2 SLP174 T02560222 $",
    "KIAH": "METAR KIAH 170953Z 16004KT 10SM SCT250 26/25 A3010 RMK AO2 SLP191 T02610250 $",
    "KORD": "METAR KORD 170951Z 00000KT 1 1/2SM FU VV020 24/19 A3005 RMK AO2 SLP169 T02390194 $",
    "KJFK": "METAR KJFK 170951Z 34008KT 4SM FU OVC038 22/13 A3000 RMK AO2 SLP158 FU OVC038 T02220133 $",
    "KRFD": "SPECI KRFD 170934Z 00000KT 1 1/4SM FU SCT015 21/18 A3008 RMK AO2 TWR VIS 1 1/2 T02060178 $",
    "KIND": "METAR KIND 170954Z 25004KT 9SM FEW060 SCT120 OVC140 26/23 A3007 RMK AO2 SLP173 T02610228 $",
    "KDTW": "METAR KDTW 170953Z COR 00000KT 2SM BR OVC043 19/17 A3011 RMK AO2 TWR VIS 3 SLP193 T01890167",
    "KMSP": "METAR KMSP 170953Z 22004KT 10SM FEW055 27/21 A2998 RMK AO2 SLP145 T02670211",
    "CYEG": "SPECI CYEG 170945Z 19004KT 8SM FEW250 14/14 A2996 RMK CI1 CI TR BR SLP145 DENSITY ALT 2800FT",
    "EHAM": "METAR EHAM 170925Z 33008KT 9999 FEW021 BKN025 20/15 Q1014 NOSIG",
    "EBBR": "METAR EBBR 170920Z 33006KT 280V020 9999 FEW023 23/16 Q1015 NOSIG",
    "EDDF": "METAR EDDF 170920Z AUTO 23006KT 180V260 9999 FEW026 23/17 Q1014 RESHRA NOSIG",
    "EDFH": "METAR EDFH 170920Z 26010KT 240V300 9999 SCT011 21/18 Q1015",
    "EDDL": "METAR EDDL 170920Z AUTO 30006KT 250V350 CAVOK 24/14 Q1013 NOSIG",
    "EDDK": "METAR EDDK 170920Z AUTO VRB03KT CAVOK 22/15 Q1013 BECMG 30010KT",
    "EBLG": "METAR EBLG 170920Z 35005KT 310V030 CAVOK 23/14 Q1015 NOSIG",
    "LSZH": "METAR LSZH 170920Z 24005KT 220V280 CAVOK 25/15 Q1017 NOSIG",
    "LIMC": "METAR LIMC 170920Z VRB02KT CAVOK 26/18 Q1015 NOSIG",
    "LIRF": "METAR LIRF 170920Z 17007KT 130V190 CAVOK 31/25 Q1014 NOSIG",
    "EINN": "METAR EINN 170930Z 34005KT 240V010 CAVOK 20/15 Q1020 NOSIG",
    "EGLL": "METAR EGLL 170920Z AUTO VRB04KT 9999 NCD 21/12 Q1017",
    "EGSS": "METAR EGSS 170920Z AUTO 35006KT 290V040 9999 NCD 20/13 Q1017",
    "EPWA": "METAR EPWA 170930Z 14007KT 100V170 CAVOK 28/15 Q1015 NOSIG",
    "UHPP": "METAR UHPP 171000Z 15002MPS CAVOK 17/12 Q1018 R34L/CLRD62 NOSIG RMK QFE760/1013",
    "EFHK": "METAR EFHK 170920Z 17008KT 140V200 9999 FEW035 23/14 Q1017 NOSIG",
    "LBBG": "METAR LBBG 170930Z 15009KT 9999 SCT033 32/17 Q1014 NOSIG",
    "LTAC": "METAR LTAC 170920Z 09010KT 060V120 9999 SCT040 26/06 Q1015 NOSIG RMK RWY21C 05013KT 010V100 RWY03L 07011KT 030V120 RWY21R 09010KT RWY03R 05009KT 360V090 RWY21L 08010KT 040V140",
    "UBBB": "METAR UBBB 170930Z 36014KT CAVOK 31/18 Q1007 NOSIG",
    "UTAA": "METAR UTAA 171000Z 30006G18KT 220V020 9999 FEW050 FEW100 38/18 Q1005 R88/CLRD70 NOSIG",
    "UACC": "METAR UACC 170930Z 27005MPS 230V310 9999 BKN043 30/10 Q1004 NOSIG RMK QFE722/0963",
    "UAAA": "METAR UAAA 170930Z 03005MPS 350V110 9999 FEW050 40/07 Q1006 NOSIG",
    "UZTT": "METAR UZTT 170930Z 29008KT 240V040 CAVOK 43/13 Q1002 NOSIG",
    "ZWWW": "METAR ZWWW 170930Z 02003MPS 330V060 CAVOK 40/06 Q1006 NOSIG",
    "ZLXY": "METAR ZLXY 171000Z 21003MPS 170V230 CAVOK 34/18 Q1002 NOSIG",
    "ZBAA": "METAR ZBAA 170930Z 18005MPS CAVOK 31/20 Q1000 NOSIG",
    "ZBHH": "METAR ZBHH 171000Z 19002MPS 160V230 9999 FEW040 FEW040CB 28/16 Q1004 BECMG TL1020 33007MPS TSRA",
    "ZSQD": "METAR ZSQD 171000Z 06002MPS 340V100 3500 RA BR SCT006 OVC030 23/23 Q1000 BECMG TL1020 -RA",
    "ZMCK": "METAR ZMCK 170930Z 32006MPS 290V350 9999 FEW030CB SCT033 24/07 Q1008 NOSIG RMK QFE641.5 34 MOP",
    "UUEE": "SPECI UUEE 170927Z 33008G15MPS CAVOK 19/07 Q1017 R06R/CLRD62 R06C/CLRD62 NOSIG",
    "UUDD": "SPECI UUDD 170916Z 35009G14MPS 320V020 CAVOK 18/06 Q1016 R31L/CLRD65 NOSIG",
    "ULLI": "METAR ULLI 170930Z 19004MPS 140V260 CAVOK 21/08 Q1019 R28R/090065 NOSIG",
    "USSS": "METAR USSS 170930Z 28006MPS 9999 SCT033CB 23/18 Q0999 R26R/210060 R26L/CLRD60 NOSIG RMK QFE728/0971",
    "UNNT": "SPECI UNNT 170925Z 18002MPS 160V230 9999 VCTS SCT043CB 23/18 Q0997 R25/220160 R34/CLRD// NOSIG RMK QFE738/0984",
    "UNKL": "METAR UNKL 170930Z 06001MPS CAVOK 24/16 Q0999 R11/CLRD// NOSIG RMK QFE724",
    "UIBB": "METAR UIBB 170930Z 17003MPS 130V210 9999 SCT050CB 23/10 Q1001 R12/CLRD62 NOSIG RMK QFE708/0944",
    "UEEE": "METAR UEEE 170930Z 14002MPS 9999 BKN040 22/14 Q0993 R23/09//60 NOSIG RMK QFE736",
    "UHHH": "SPECI UHHH 170916Z 28004MPS 9999 SCT040CB 19/17 Q1000 R88/290045 NOSIG RMK QFE744/0992",
    "UHSS": "METAR UHSS 170930Z 18004MPS 9999 NSC 22/20 Q1006 R19/CLRD70 NOSIG RMK QFE753/1005"
  },
  "taf": {
    "RJAA": "TAF RJAA 170505Z 1706/1812 14010KT 7000 FEW008 BKN015 TEMPO 1706/1708 3000 TSRA BR FEW002 BKN005 FEW020CB TEMPO 1708/1715 FEW002 BKN005",
    "PANC": "TAF PANC 170734Z 1708/1812 14008KT P6SM FEW008 BKN050 FM170900 34006KT P6SM FEW010 SCT050 OVC070 FM171500 36003KT P6SM -SHRA FEW030 OVC045 FM172100 20006KT 5SM -SHRA BR FEW015 BKN030 FM180300 16007KT P6SM VCSH SCT035 BKN060",
    "PAFA": "TAF PAFA 170523Z 1706/1812 20007KT P6SM FEW050 BKN100 FM171000 25004KT P6SM -SHRA SCT030 BKN050 FM171400 24007KT P6SM SCT050 FM180000 21006KT P6SM VCTS FEW050CB FM180600 00000KT P6SM SCT050",
    "PAED": "TAF PAED 170500Z 1705/1811 36009KT 9999 -SHRA FEW004 BKN040 OVC070 640703 QNH2985INS BECMG 1708/1709 02008KT 9999 VCSH BKN045 OVC070 610703 520208 QNH2980INS BECMG 1721/1722 34009KT 9999 -RA SCT010 BKN020 OVC045 640604 QNH2982INS TX15/1722Z TN09/1714Z",
    "KSEA": "TAF KSEA 170907Z 1709/1812 20005KT P6SM BKN022 OVC035 FM171800 23007KT P6SM BKN035 FM172100 24007KT P6SM FEW050 FM180300 31006KT P6SM SCT050 BKN100 FM180600 35006KT P6SM BKN100",
    "ZSPD": "TAF ZSPD 170906Z 1712/1818 23004MPS 8000 SCT030 TX35/1712Z TX34/1806Z TN28/1721Z TEMPO 1805/1809 TSRA BKN008 FEW030CB",
    "ZSSS": "TAF ZSSS 170906Z 1712/1818 24004MPS 8000 SCT030 TX36/1712Z TX35/1803Z TN28/1721Z TEMPO 1804/1808 TSRA BKN011 FEW030CB",
    "RJFR": "TAF RJFR 170505Z 1706/1812 30004KT 9999 FEW010 BKN015 TEMPO 1706/1709 4000 -TSRA BR FEW020 BKN030 FEW030CB TEMPO 1717/1721 BKN005 BECMG 1721/1800 09010KT BECMG 1803/1806 06008KT",
    "VHHH": "TAF VHHH 171100Z 1712/1818 21010KT 9999 FEW010 SCT025 TX31/1806Z TN27/1722Z TEMPO 1721/1803 24015G25KT 2500 TSRA SHRA FEW008CB SCT015",
    "RCTP": "TAF RCTP 171100Z 1712/1818 23010KT 9999 FEW015 TEMPO 1716/1722 20005KT BECMG 1722/1724 24015KT TEMPO 1803/1809 25020KT BECMG 1810/1812 23008KT",
    "ZGSZ": "TAF ZGSZ 170905Z 1712/1818 17004MPS 8000 SCT030 TX28/1712Z TX30/1806Z TN26/1722Z TEMPO 1717/1720 SHRA FEW020CB BKN030 TEMPO 1722/1801 SHRA SCT010 FEW020CB BKN030 TEMPO 1805/1808 TSRA SCT010 FEW020CB BKN030",
    "WSSS": "TAF WSSS 170500Z 1706/1812 15008KT 9999 FEW015 SCT020",
    "WMKK": "TAF WMKK 170500Z 1706/1812 13005KT 9999 FEW017CB TEMPO 1706/1710 5000 TSRA FEW010 FEW017CB",
    "VTBS": "TAF VTBS 170500Z 1706/1812 20008KT 9999 FEW020 TEMPO 1710/1714 VRB15KT 4000 TSRA FEW018CB SCT030 BKN100",
    "VTBU": "TAF VTBU 170500Z 1706/1806 25010KT 9999 FEW020",
    "ROAH": "TAF ROAH 170505Z 1706/1812 23010KT 9999 FEW008 SCT012 TEMPO 1712/1803 FEW004 BKN006",
    "VVDN": "TAF VVDN 170500Z 1706/1806 22010KT 9999 FEW020",
    "RCKH": "TAF RCKH 171100Z 1712/1818 08005KT 9999 FEW015 BKN032 TEMPO 1712/1715 5000 SHRA FEW010 FEW012TCU BKN017 TEMPO 1718/1724 28010KT 3500 SHRA SCT006 FEW010CB BKN014 BECMG 1801/1803 26005KT TEMPO 1804/1810 25010KT 4000 SHRA SCT008 FEW010CB BKN016 BECMG 1810/1812 07005KT",
    "KLAX": "TAF KLAX 170910Z 1709/1812 12007KT P6SM FEW010 FM171100 18004KT P6SM OVC008 FM171400 22004KT P6SM OVC012 FM171800 24006KT P6SM SCT250 FM172000 26011KT P6SM SCT250 FM180300 25007KT P6SM BKN010 FM180600 23004KT P6SM OVC012",
    "KONT": "TAF KONT 170520Z 1706/1812 24007KT P6SM FEW200 FM170700 VRB04KT P6SM FEW200 FM172000 25012G20KT P6SM SCT150 FM180500 VRB05KT P6SM FEW200",
    "KSFO": "TAF KSFO 170859Z 1709/1812 26011KT P6SM SCT007 FM171100 26010KT P6SM BKN007 FM171600 27013KT P6SM SCT010 FM172000 28015G25KT P6SM FEW010 FM180600 26009KT P6SM BKN010",
    "KOAK": "TAF KOAK 170520Z 1706/1812 24012KT P6SM SKC FM170900 24008KT P6SM BKN010 FM171800 26010KT P6SM SCT010 FM172000 28015KT P6SM SKC FM180300 25012KT P6SM SCT010 FM180600 25010KT P6SM BKN010",
    "KMHR": "TAF KMHR 170520Z 1706/1806 19007KT P6SM SKC FM172000 22008KT P6SM SKC",
    "KDFW": "TAF KDFW 171024Z 1710/1812 16007KT P6SM SCT190 TEMPO 1711/1715 BKN015 FM171800 19010G20KT P6SM FEW250 FM180000 19007KT P6SM FEW250",
    "KIAH": "TAF KIAH 170835Z 1709/1812 16004KT P6SM FEW020 BKN250 FM171400 18007KT P6SM SCT025 SCT035 SCT250 FM171800 16009KT P6SM SCT040 SCT060 SCT250 FM180300 16004KT P6SM FEW030 SCT250",
    "KORD": "TAF KORD 170839Z 1709/1812 VRB03KT 1 1/2SM FU VV019 TEMPO 1711/1713 3/4SM FU FM171500 22006KT 3SM FU BKN100 FM171800 25009KT P6SM VCSH SCT035 TEMPO 1718/1722 VRB15G25KT 1SM -TSRA BKN030CB FM172200 25009KT P6SM VCTS SCT035CB PROB30 1722/1802 VRB15G25KT 3SM -TSRA BR BKN040CB FM180200 23010KT P6SM BKN050",
    "KJFK": "TAF KJFK 170828Z 1708/1812 32009KT 6SM FU BKN250 FM171300 34009KT P6SM SCT250 FM171600 20011KT P6SM SCT250 FM180000 19007KT 6SM FU BKN250",
    "KRFD": "TAF KRFD 170839Z 1709/1806 VRB03KT 1 1/2SM FU VV018 TEMPO 1711/1713 3/4SM FU FM171500 22006KT 3SM FU BKN100 FM171800 25009KT P6SM VCSH SCT035 TEMPO 1718/1722 VRB15G25KT 1SM -TSRA BKN030CB FM172200 25009KT P6SM VCTS SCT035CB PROB30 1722/1801 VRB15G25KT 3SM -TSRA BR BKN040CB FM180100 23010KT P6SM BKN050",
    "KIND": "TAF KIND 170520Z 1706/1812 VRB03KT P6SM FEW050 SCT100 FM171200 21003KT P6SM SCT080 FM171700 23007KT P6SM -SHRA BKN050 PROB30 1718/1724 4SM -TSRA BKN035CB FM180100 23007KT P6SM BKN120",
    "KDTW": "TAF KDTW 170905Z 1709/1812 08004KT 1 1/2SM FU OVC040 FM171600 18008KT 2SM FU SCT035 FM180000 19005KT 6SM HZ SCT060 BKN080",
    "KMSP": "TAF KMSP 170830Z 1709/1812 18004KT P6SM SKC FM171400 22004KT P6SM SKC FM171700 23010G18KT P6SM FEW050 FM180200 25007KT P6SM SKC",
    "CYEG": "TAF AMD CYEG 171015Z 1710/1806 16004KT 1SM BR SCT004 TEMPO 1710/1714 6SM BR SKC PROB40 1710/1714 1/2SM FG VV002 FM171400 14005KT P6SM FEW010 FM172100 12010KT P6SM FEW040 TEMPO 1721/1802 VRB30G40KT P6SM VCTS BKN040CB FM180200 12008KT P6SM BKN080 PROB30 1802/1804 VRB30G40KT 2SM +TSRA BKN080CB FM180400 13005KT P6SM FEW020 RMK NXT FCST BY 171200Z",
    "EHAM": "TAF EHAM 170515Z 1706/1812 34005KT 9999 FEW015 BECMG 1709/1712 32014KT BECMG 1717/1720 33008KT PROB30 TEMPO 1721/1807 BKN018 BECMG 1809/1812 31014KT BKN030",
    "EBBR": "TAF EBBR 170500Z 1706/1812 33006KT 9999 FEW045",
    "EDDF": "TAF EDDF 170500Z 1706/1812 24005KT CAVOK PROB30 TEMPO 1706/1709 TSRA BKN050CB PROB40 TEMPO 1712/1718 26015G30KT TSRA BKN050CB PROB30 TEMPO 1715/1717 26020G40KT 3000 TSRAGR",
    "EDFH": "TAF EDFH 170500Z 1706/1806 25006KT CAVOK PROB30 TEMPO 1706/1710 TSRA BKN050CB PROB40 TEMPO 1713/1716 26015G30KT TSRA BKN050CB",
    "EDDL": "TAF EDDL 170500Z 1706/1812 33004KT CAVOK BECMG 1710/1713 30011KT BECMG 1719/1722 29004KT PROB30 TEMPO 1804/1807 BKN014 BECMG 1806/1809 27010KT",
    "EDDK": "TAF EDDK 170500Z 1706/1812 VRB03KT CAVOK PROB30 TEMPO 1706/1710 SHRA BKN030CB BECMG 1708/1711 30010KT BECMG 1720/1723 31005KT PROB30 TEMPO 1804/1807 BKN014 BECMG 1807/1810 30010KT",
    "EBLG": "TAF EBLG 170500Z 1706/1812 33006KT 9999 FEW045",
    "LSZH": "TAF LSZH 170825Z 1709/1815 25005KT CAVOK TX27/1714Z TN16/1804Z TX25/1814Z BECMG 1710/1712 9999 FEW060 TEMPO 1710/1719 FEW050TCU BECMG 1711/1713 29012KT PROB40 TEMPO 1716/1718 29017G30KT 4000 TSRA FEW050CB BECMG 1717/1719 17005KT PROB30 TEMPO 1718/1720 SHRA BECMG 1722/1724 CAVOK PROB40 1803/1805 9999 MIFG NSC BECMG 1809/1812 26010KT 9999 FEW060 PROB30 TEMPO 1812/1815 30015G25KT TSRA FEW060CB",
    "LIMC": "TAF LIMC 170500Z 1706/1812 01010KT 9999 FEW040 BECMG 1709/1711 VRB05KT",
    "LIRF": "TAF LIRF 170500Z 1706/1812 VRB05KT CAVOK BECMG 1706/1708 18012KT BECMG 1717/1719 VRB05KT PROB40 TEMPO 1802/1806 1200 BCFG BECMG 1809/1811 28010KT",
    "EINN": "TAF EINN 170500Z 1706/1806 36008KT CAVOK BECMG 1710/1712 32010KT BECMG 1720/1722 35012KT",
    "EGLL": "TAF EGLL 170451Z 1706/1812 03005KT CAVOK PROB30 TEMPO 1706/1708 BKN006 BECMG 1711/1714 33010KT BECMG 1719/1722 08010KT BECMG 1723/1802 02007KT",
    "EGSS": "TAF AMD EGSS 170807Z 1708/1812 01006KT 9999 OVC009 BECMG 1708/1711 FEW045 PROB30 TEMPO 1803/1807 7000 BKN011",
    "EPWA": "TAF EPWA 170830Z 1709/1809 14008KT CAVOK TEMPO 1723/1804 4000 SHRA SCT050CB PROB30 TEMPO 1723/1804 2500 TSRA BKN040CB BECMG 1804/1807 24010KT PROB40 TEMPO 1804/1809 -SHRA BKN012 BKN025CB",
    "UHPP": "TAF UHPP 170744Z 1709/1815 30003G10MPS 9999 SCT050 TEMPO 1709/1712 18005MPS TEMPO 1712/1721 36005MPS 1000 BR VV002 TEMPO 1800/1809 19005G12MPS",
    "EFHK": "TAF EFHK 170826Z 1709/1809 17008KT CAVOK TEMPO 1805/1809 FEW040CB",
    "LBBG": "TAF LBBG 170500Z 1706/1806 VRB04KT 9999 SCT045 BECMG 1708/1710 12014KT PROB40 TEMPO 1711/1715 5000 TSRA FEW030CB BKN040 BECMG 1718/1720 VRB04KT",
    "LTAC": "TAF LTAC 171040Z 1712/1812 03012KT 9999 SCT040 TEMPO 1712/1716 03015G25KT TEMPO 1716/1720 03015G25KT BECMG 1719/1721 CAVOK BECMG 1806/1809 SCT040",
    "UBBB": "TAF UBBB 171049Z 1712/1812 34014KT CAVOK TX31/1712Z TN23/1801Z TEMPO 1712/1715 02016KT TEMPO 1717/1802 33008KT SCT015 FEW040CB TEMPO 1808/1812 35018G28KT",
    "UTAA": "TAF UTAA 171045Z 1712/1812 36016KT 6000 SCT050 TX41/1811Z TEMPO 1712/1716 30012G22KT 4000 DRDU BECMG 1716/1718 26014KT TEMPO 1720/1804 32014KT BECMG 1804/1806 34016KT 4000 DRDU",
    "UACC": "TAF UACC 170501Z 1706/1806 27006MPS 9999 SCT040 BKN100 TX32/1709Z TN16/1723Z TEMPO 1706/1715 28012MPS SCT030CB BECMG 1715/1717 VRB01MPS TEMPO 1717/1804 21005MPS",
    "UAAA": "TAF UAAA 170501Z 1706/1806 01003MPS 9999 FEW100 TX41/1710Z TN22/1800Z TEMPO 1706/1714 06005G10MPS BECMG 1714/1715 19005MPS BECMG 1803/1804 01005MPS",
    "UZTT": "TAF UZTT 171100Z 1712/1812 07010KT CAVOK TX44/1811Z TN27/1800Z TEMPO 1712/1718 32015KT",
    "ZWWW": "TAF ZWWW 170905Z 1712/1818 36004G09MPS CAVOK TX41/1809Z TN29/1723Z TN32/1818Z BECMG 1713/1714 18004MPS BECMG 1802/1803 36004MPS BECMG 1813/1814 18004MPS",
    "ZLXY": "TAF ZLXY 170903Z 1712/1812 15003MPS 6000 NSC TX32/1808Z TN24/1721Z BECMG 1722/1723 28005MPS",
    "ZBAA": "TAF ZBAA 170900Z 1712/1818 18003MPS CAVOK TX31/1806Z TN23/1721Z TN24/1818Z TEMPO 1808/1812 -TSRA FEW040CB BKN040",
    "ZBHH": "TAF AMD ZBHH 171014Z 1706/1806 24004MPS 9999 SCT040 TX29/1708Z TN16/1722Z BECMG 1709/1710 -TSRA SCT040 FEW040CB TEMPO 1710/1713 VRB10G15MPS +TSRA BECMG 1713/1714 NSW NSC",
    "ZSQD": "TAF ZSQD 170904Z 1712/1812 36004MPS 3500 BR BKN020 TX30/1806Z TN22/1720Z BECMG 1720/1721 2000 BKN010 BECMG 1722/1723 3500 FEW015",
    "ZMCK": "TAF ZMCK 171043Z 1712/1818 VRB02MPS 9999 FEW030CB SCT033 TN11/1721Z TX24/1807Z PROB30 TEMPO 1712/1718 VRB08MPS TSRA SCT027CB SCT030 PROB40 TEMPO 1805/1815 VRB08G13MPS TSRA SCT027CB SCT030",
    "UUEE": "TAF UUEE 170750Z 1709/1809 35007MPS 9999 SCT030 TX22/1809Z TN12/1801Z TEMPO 1709/1717 33010G16MPS BECMG 1718/1720 35002MPS",
    "UUDD": "TAF UUDD 170753Z 1709/1815 36008MPS 9999 SCT040 TX26/1812Z TN10/1801Z TEMPO 1709/1715 36010G16MPS BECMG 1715/1717 36003MPS",
    "ULLI": "TAF ULLI 170752Z 1709/1809 18003MPS CAVOK",
    "USSS": "TAF USSS 170756Z 1709/1809 29003G14MPS 9999 BKN020CB TEMPO 1709/1717 -TSRAGR FM171700 33003MPS 6000 SCT016CB TEMPO 1717/1804 0300 -TSRA FG FM180400 08003G14MPS 8000 -SHRA BKN016CB TEMPO 1804/1809 -TSRA",
    "UNNT": "TAF UNNT 170800Z 1709/1809 24003G08MPS 9999 BKN040 TX21/1709Z TN15/1722Z TEMPO 1709/1712 28010G20MPS 1500 TSRAGR BKN005 BKN020CB TEMPO 1712/1809 -TSRA BKN020CB BECMG 1806/1807 30005G10MPS",
    "UNKL": "TAF UNKL 170749Z 1709/1809 12003G08MPS 6000 -SHRA SCT016CB TEMPO 1709/1714 17006G14MPS -TSGRRA BECMG 1714/1716 22005MPS -TSRA BECMG 1717/1720 27003G08MPS NSW TEMPO 1720/1723 1400 SHRA BKN005 BKN016CB BECMG 1805/1808 -TSRA",
    "UIBB": "TAF UIBB 170800Z 1709/1809 17005G10MPS 9999 BKN017CB TEMPO 1709/1718 VRB10MPS -TSRA BECMG 1718/1719 25003G08MPS BKN004 BKN017CB TEMPO 1719/1803 0300 FG VV001 BECMG 1803/1804 BKN017CB",
    "UEEE": "TAF UEEE 170800Z 1709/1815 12003G10MPS 9999 SCT030CB BKN100 TEMPO 1709/1715 5000 -SHRA",
    "UHHH": "TAF UHHH 170747Z 1709/1815 21008G15MPS 9999 -TSRA SCT020CB TX29/1806Z TN20/1717Z TEMPO 1709/1710 0500 +TSRA FEW006 BKN016CB BECMG 1710/1713 20003MPS NSW",
    "UHSS": "TAF UHSS 170745Z 1709/1815 18003MPS 9999 BKN025CB"
  },
  "atis": {
    "RJAA": "[Arrival ATIS] RJAA ARR ATIS G 2238Z M2230 (APCH)ILS Z RWY34R LDG RWY 34R DEP RWY 34L DEP FREQ 124.2. TWY A1 CLSD. OBSERVE GEAR DOWN OPS PROC ON FNL. M 222230Z 04011KT 30KM BKN012CU 19/16 Q1009/A2981= Q/TWO NINE EIGHT ONE STP\n[Departure ATIS] RJAA DEP ATIS G 2238Z M2230 (APCH)ILS Z RWY34R LDG RWY 34R DEP RWY 34L DEP FREQ 124.2. TWY A1 CLSD. OBSERVE GEAR DOWN OPS PROC ON FNL. M 222230Z 04011KT 30KM BKN012CU 19/16 Q1009/A2981= Q/TWO NINE EIGHT ONE STP",
    "PANC": "[Arrival ATIS] PANC ARR ATIS B 2153Z ANC ATIS INFO B 2153Z. 03005KT 10SM FEW020 BKN080 BKN100 16/10 A3006 (THREE ZERO ZERO SIX) RMK AO2 RAE20 SLP180 P0000 T01560100. 7R APPROACHES IN USE. LANDING RWY 7R, DEPARTING RWY 33. NOTICE TO AIRMEN. RWY 7L CLSD. CHECK NOTAMS FOR TAXIWAY CLOSURES. CAUTION FOR BIRD ACTIVITY IN THE ARPT AREA. ...ADVS YOU HAVE INFO B.\n[Departure ATIS] PANC DEP ATIS Z 1953Z ANC ATIS INFO Z 1953Z. 02003KT 10SM FEW010 BKN060 OVC090 13/12 A3007 (THREE ZERO ZERO SEVEN). 7R APPROACHES IN USE. LANDING RWY 7R, DEPARTING RWY 33. NOTICE TO AIRMEN. RWY 7L CLSD. CHECK NOTAMS FOR TAXIWAY CLOSURES. CAUTION FOR BIRD ACTIVITY IN THE ARPT AREA. ...ADVS YOU HAVE INFO Z.",
    "KSEA": "[Arrival ATIS] KSEA ARR ATIS G 1053Z SEA ATIS INFO G 1053Z. 16006KT 10SM SCT012 BKN029 OVC040 14/12 A3001 (THREE ZERO ZERO ONE). ILS, RYS 16C AND 16L , APCH IN USE. DEPG RWY 16L, RWY 16C, DEPG ACFT PLAN AND BRIEF NUMBERS FOR BOTH RWYS 16L AND 16C. SIMUL APCHS IN USE, BFI & SEA. TRAFFIC BELOW YOU ON FINAL. SIMUL APCHS IN USE TO PARA RYS. NOTAMS... RWYS 16R CLSD. TAXIWAY NOVEMBER BETWEEN RUNWAY ONE SIX RIGHT AND TAXIWAY TANGO CLOSED. BIRD ACTIVITY VICINITY ARPT. HAZD WX INFO FOR WESTERN WA CONTACT FLIGHT SERVICE. APCH AND DEP PATHS ARE OVER NOISE SENSITIVE AREAS. ...ADVS YOU HAVE INFO G.\n[Departure ATIS] KSEA DEP ATIS C 0753Z SEA ATIS INFO C 0753Z. 15006KT 10SM FEW020 OVC036 14/11 A3003 (THREE ZERO ZERO THREE). ILS, RYS 16C AND 16L , APCH IN USE. DEPG RWY 16L, RWY 16C, DEPG ACFT PLAN AND BRIEF NUMBERS FOR BOTH RWYS 16L AND 16C. SIMUL APCHS IN USE, BFI & SEA. TRAFFIC BELOW YOU ON FINAL. SIMUL APCHS IN USE TO PARA RYS. NOTAMS... RWYS 16R CLSD. TAXIWAY NOVEMBER BETWEEN RUNWAY ONE SIX RIGHT AND TAXIWAY TANGO CLOSED. BIRD ACTIVITY VICINITY ARPT. HAZD WX INFO FOR WESTERN WA CONTACT FLIGHT SERVICE. APCH AND DEP PATHS ARE OVER NOISE SENSITIVE AREAS. ...ADVS YOU HAVE INFO C.",
    "ZSPD": "[Arrival ATIS] ZSPD ARR ATIS U 1100Z EXP ILS APCH INDEPENDENT PARL INSTR APCH LDG RWY 17R & 16L WIND RWY 17R TDZ 230/3MPS VRB BTN 190/ AND 260/ MID 170/4MPS END 180/2MPS RWY 16L TDZ 210/5MPS MID 190/4MPS END 180/3MPS CAVOK T 35 /DP 24 QNH 999 HPA CAUTION THE BIRDS NEAR THE RUNWAY ADZ YOU HAVE INFO U.\n[Departure ATIS] ZSPD DEP ATIS S 2200Z DEP RWY 35R RWY 34R IS CLSD WIND RWY 35R TDZ 360/5MPS MID 350/6MPS END 360/5MPS VIS RWY 35R TDZ 10000M MID 10000M END 10000M CLD BKN 210M T 22 /DP 22 QNH 1002 HPA CAUTION THE BIRDS NEAR THE RUNWAY RWY 35R/35L/34R/34L RWYCC 5/5/5 ISSUED AT 1800 WET/WET/WET DPT NR/NR/NR COV 100PCT/100PCT/100PCT ADZ YOU HAVE INFO S.",
    "ZSSS": "[Arrival ATIS] ZSSS ARR ATIS S 1830Z EXP ILS APCH LDG RWY 36R WIND RWY 36R TDZ 350/3MPS MID 340/3MPS END 350/2MPS VIS RWY 36R TDZ 7000M MID 7000M END 7000M FBL RA CLD BKN 150M T 22 /DP 21 QNH 1003 HPA RWY36R RWYCC 5/5/5 ISSUED AT 1250 WET/WET/WET DPT NR/NR/NR COV 100PCT/100PCT/100PCT RWY36L RWYCC 5/5/5 ISSUED AT 1240 WET/WET/WET DPT NR/NR/NR COV 100PCT/100PCT/100PCT QNH OF SHANGHAI TERMINAL CONTROL AREA 1002 HPA ADZ YOU HAVE INFO S.\n[Departure ATIS] ZSSS DEP ATIS D 1200Z DEP RWY 36L WIND RWY 36L TDZ 040/3MPS MID 030/4MPS END 040/5MPS VIS RWY 36L TDZ 10000M MID 10000M END 10000M CLD BKN 210M T 22 /DP 21 QNH 1003 HPA RWY36L RWYCC 5/5/5 ISSUED AT 0640 WET/WET/WET DPT NR/NR/NR COV 100PCT/100PCT/100PCT RWY36R RWYCC 5/5/5 ISSUED AT 0640 WET/WET/WET DPT NR/NR/NR COV 100PCT/100PCT/100PCT QNH OF SHANGHAI TERMINAL CONTROL AREA 1002 HPA ADZ YOU HAVE INFO D.",
    "VHHH": "[Arrival ATIS] VHHH ARR ATIS B 2204Z ARRIVALS, RWY 25R. EXP RNAV TRANSITION TO ILS APCH, RWY 25R. RNP APCH IS AVBL ON REQ, RWY 25R. RWY 25C IS CLSD FOR MAINT. RWY 25L NON OPERATIONAL. WIND 230/10KT. VIS 10KM. CLD FEW 1200FT. T29 DP25. QNH 1004HPA. ACK INFO B ON FIRST CTC WITH APP.\n[Departure ATIS] VHHH DEP ATIS Q 2205Z DEPARTURES, RWY 25R. RWY 25C IS CLSD FOR MAINT. RWY 25L NON OPERATIONAL. EXP RWY 25L AFTER 2300Z. WIND 220/08KT. VIS 10KM. CLD FEW 1200FT. T29 DP25. QNH 1004HPA. ACK INFO Q ON FIRST CTC WITH DELIVERY .",
    "RCTP": "[Arrival ATIS] RCTP ARR ATIS C 2200Z EXP ILS APCH RWY23L ARR/DEP. RWY23R CLSD BTN 1700Z AND 2230Z FOR INSPECTION. WIND 230/09KT VIS 10 KM OR MORE CLD FEW 1500FT SCT 20000FT T 28 DP 24 QNH 1003HPA NOSIG INFORM TAIPEI APCH OR TAIPEI TOWER ON INITIAL CONTACT YOU HAVE INFORMATION C\n[Departure ATIS] RCTP DEP ATIS Z 2030Z EXP ILS APCH RWY23L ARR/DEP. RWY23R CLSD BTN 1700Z AND 2230Z FOR INSPECTION. WIND 240/10KT VIS 10 KM OR MORE CLD FEW 1500FT BKN 3000FT T 28 DP 24 QNH 1003HPA NOSIG INFORM TAIPEI APCH OR TAIPEI TOWER ON INITIAL CONTACT YOU HAVE INFORMATION Z",
    "ZGSZ": "[Arrival ATIS] ZGSZ ARR ATIS Z 2230Z EXP ILS APCH 15 EXP ILS OR VIS APCH 16L WIND 180/3MPS VIS 9999M CLD SCT 780M T 29 /DP 27 QNH 1004 HPA INDEPENDENT PARALLEL DEPARTURES DEPENDENT PARALLEL APPROACHES MISSED APPROACH ALTITUDE SETTING 1200METERS WHEN AIRBORNE CONTACT ZHUHAI APPROACH EXPECTED RNP ILS DME Z APPROACH ADZ YOU HAVE INFO Z.\n[Departure ATIS] ZGSZ DEP ATIS D 1600Z DEP RWY 15 & 16L WIND 180/6MPS VIS 9999M CLD FEW 600M T 29 /DP 27 QNH 1004 HPA DELIVERY FREQ 121.8 INDEPENDENT PARALLEL APPROACHES INDEPENDENT PARALLEL DEPARTURES V17,V18 AVAILABLE AFTER SULAS FLY HEADING 040 MISSED APPROACH ALTITUDE SETTING 1200METERS WHEN AIRBORNE CONTACT ZHUHAI APPROACH EXPECTED RNP ILS DME Z APPROACH ADZ YOU HAVE INFO D.",
    "WSSS": "[Arrival ATIS] WSSS ARR ATIS V 2230Z METREPORT 2230Z ILS APCHRWY 20R TWY W 9 CLOSED, RWY 02C 20C RAPID EXIT TAXIWAY INDICATOR LIGHTS OFFFOLLOW THE GREENS TRIAL IN PROGRESS. WHEN VACATING THE RWY, PILOTS TO ADHERE TO ATC VERBAL INSTRUCTIONS. WHEN ON TWY, PILOT TO ADHERE TO FOLLOW THE GREENS INSTRUCTIONS. WHEN APPROACHING [A] JUNCTION, KEEP [A] LOOKOUT FOR CONTINUOUS GREENS. [IF] [A] BREAK IN THE GREENS IS OBSERVED, STOP AND CLARIFY WITH ATC. FOLLOW THE GREENS TRIAL IN PROGRESS. WHEN VACATING THE RWY, PILOTS TO ADHERE TO ATC VERBAL INSTRUCTIONS. WHEN ON TWY, PILOT TO ADHERE TO FOLLOW THE GREENS INSTRUCTIONS. WHEN APPROACHING [A] JUNCTION, KEEP [A] LOOKOUT FOR CONTINUOUS GREENS. [IF] [A] BREAK IN THE GREENS IS OBSERVED, STOP AND CLARIFY WITH ATC. WIND VRB/ 01KT VIS 10KM CLD FEW 1600FT T26 DP24 QNH 1010HPA NOSIG ACK ATIS V\n[Departure ATIS] WSSS DEP ATIS W 2200Z METREPORT 2200Z RWY 20C TWY W 9 CLOSED, RWY 02C 20C RAPID EXIT TAXIWAY INDICATOR LIGHTS OFFFOLLOW THE GREENS TRIAL IN PROGRESS. WHEN VACATING THE RWY, PILOTS TO ADHERE TO ATC VERBAL INSTRUCTIONS. WHEN ON TWY, PILOT TO ADHERE TO FOLLOW THE GREENS INSTRUCTIONS. WHEN APPROACHING [A] JUNCTION, KEEP [A] LOOKOUT FOR CONTINUOUS GREENS. [IF] [A] BREAK IN THE GREENS IS OBSERVED, STOP AND CLARIFY WITH ATC. WIND VRB BTN140 AND230 01KT VIS 10KM CLD FEW 1600FT T26 DP24 QNH 1010HPA NOSIG DEP,INITIAL CMB 3000FT ACK ATIS W",
    "WMKK": "[Arrival ATIS] WMKK ARR ATIS F 2235Z WMKK ARR INFO F. TIME 2230. INDEPENDENT PARALLEL APPROACHES FOR RWY 32 R AND 33 ARE IN PROGRESS. EXP ILS APCH FOR RWY 32 RIGHT. EXP RNAV / ILS APCH FOR RWY 33. WIND RWY 32R DIRECTION NOT AVBL SPEED NOT AVBL. WIND RWY 32L DIRECTION NOT AVBL SPEED NOT AVBL. WIND RWY 33 DIRECTION NOT AVBL SPEED NOT AVBL. VIS RWY 32R TDZ NOT AVBL. VIS RWY 33 TDZ NOT AVBL. CLD FEW 1000 FT, CLD FEW CB 1700 FT. T 27. DP 25. QNH 1009. NOSIG. AT FIRST CONTACT WITH LUMPUR RADAR, NOTIFY RCPT OF F\n[Departure ATIS] WMKK DEP ATIS U 1503Z WMKK DEP INFO U. TIME 1500. INDEPENDENT PARALLEL DEPARTURES FOR RWY 32 L AND 33 ARE IN PROGRESS. RWY 32 LEFT. RWY 33. WIND RWY 32L DIRECTION NOT AVBL SPEED NOT AVBL. WIND RWY 33 DIRECTION NOT AVBL SPEED NOT AVBL. VIS RWY 32L TDZ NOT AVBL. VIS RWY 33 TDZ NOT AVBL. CLD FEW CB 1700 FT. T 28. DP 25. QNH 1011. NOSIG. ALL DEP ACFT TO CONTACT LUMPUR DEP AT 135 DECIMAL 25 MHZ WHEN ABN. AT FIRST CONTACT WITH LUMPUR GROUND, NOTIFY RCPT OF U",
    "VTBS": "[Arrival ATIS] VTBS ARR ATIS Q 2230Z VTBS ARR ATIS Q 2234Z EXP ILS Z APCH ARR RWY 20L RWY 19 CLSD DUE TO WIP ,ALL ACFT WILL BE DLA DUE VIP MOVEMENT ,RETIL RWY 20L U/S 2230Z WIND 290/5KT VIS 10KM CLD FEW 2000FT T29 DP20 QNH 1008HPA TREND NOSIG ADZ BKK APCH ON INITIAL CONTACT THAT YOU HAVE INFO Q\n[Departure ATIS] VTBS DEP ATIS R 2000Z VTBS DEP ATIS R 2000Z DEP RWY 20L RWY 19 CLSD DUE TO WIP ,AFT AIRBORNE ALL DEPARTING ACFT SHALL CTC 119.25 2000Z WIND 260/5KT VIS 10KM CLD FEW 2000FT T30 DP21 QNH 1007HPA TREND NOSIG ADZ GND WHEN INITIAL CONTACT YOU HAVE INFO R",
    "VTBU": "[Arrival ATIS] VTBU ARR ATIS U 0430Z VTBU ARR ATIS U 0430Z RNP RWY 18 TRL FL130 MOBILE ACFT ARST SYSTEM INSTL ATP SIX HUNDRED AND TEN METERS FM THR RWY 36 CABLE HGT 3 INCHES. 0430Z WIND 360/6KT VRB BTN 320/ AND 020/ VIS 10KM CLD FEW 2000FT T34 DP27 QNH 1010HPA TREND NOSIG ADZ CONTROLLER WHEN INITIAL CONTACT YOU HAVE INFO U\n[Departure ATIS] VTBU DEP ATIS D VTBU ARR/DEP DATIS RPT VTBU ARR ATIS D 0330Z ILS \"Z\" APCH RWY 18 TRL FL130 0330Z WIND 110/4KT VRB BTN 350/ AND 120/ VIS 6KM CLD FEW 2000FT T31 DP27 QNH 1014HPA TREND NOSIG ADZ CONTROLLER WHEN INITIAL CONTACT YOU HAVE INFO D",
    "ROAH": "[Arrival ATIS] ROAH ARR ATIS F 2215Z M2200 (APCH)RNP RWY18R LDG RWY 18R DEP RWY 18L DEP FREQ 126.5 258.3 M 222200Z 16013KT 30KM FEW009ST 29/27 Q1005/A2969= Q/TWO NINE SIX NINE STP\n[Departure ATIS] ROAH DEP ATIS X 0517Z M0500 (APCH)RNP RWY18R LDG RWY 18R DEP RWY 18L DEP FREQ 126.5 258.3 M 220500Z 23007KT 50KM FEW015CU 30/26 Q1007/A2975= Q/TWO NINE SEVEN FIVE STP",
    "VVDN": "[Arrival ATIS] VVDN ARR ATIS B 0502Z VVDN INFO B 0502Z. ILS VICTOR APPROACH 35L.. DPTG RWY 35R.. 0502Z. WIND 240/08KT CAVOK T36 DP21 QNH 1005HPA TREND NOSIG. ADZ ON INITIAL CTC YOU HAVE INFO. B.\n[Departure ATIS] VVDN DEP ATIS N 0423Z VVDN INFO N 0423Z. ILS VICTOR APPROACH 35L.. DPTG RWY 35R.. 0423Z. WIND 010/02KT CAVOK T36 DP24 QNH 1008HPA TREND NOSIG. WS ALL RWY. ADZ ON INITIAL CTC YOU HAVE INFO. N.",
    "RCKH": "[Arrival ATIS] RCKH ARR ATIS E 0430Z EXPECT ILS APPROACH RWY 27 ARR/DEP RWY SFC RWY 27 SFC COND 5/5/5 ISSUED AT 0050Z. 100/100/100 NR/NR/NR WET/WET/WET TAXIWAY JULIETT, TAXIWAY BRAVO, TAXIWAY DELTA AND TAX\n[Departure ATIS] RCKH DEP ATIS N 0430Z EXPECT ILS APPROACH RWY 27 ARR/DEP TAXIWAY JULIETT, TAXIWAY BRAVO, TAXIWAY DELTA AND TAXIWAY ECHO CLOSED DUE MAINTENANCE. RUNWAY 2 7 ARRIVALS PLAN VACATE VIA CHARLIE OR",
    "KLAX": "[Arrival ATIS] KLAX ARR ATIS U 2153Z - KLAX ATIS INFO U 2153Z. 25011KT 10SM CLR 22/14 A2994 (TWO NINER NINER FOUR) RMK AO2 SLP138 T02170144. INST APCHS AND RNAV RNP APCHS RY 24R AND 25L, AND SIMUL APCHS IN PROG BTWN LAX AND HHR, SIMUL INSTR DEPARTURES IN PROG RWYS 24 AND 25. CTC L A GC ON 121.75 FOR PUSH OR TAXI ON A. TWY C CLSD BTN TWY, C8 AND TWY C9 , , TWY C10 CLSD BTN TWY, B AND TWY C, TWY B CLSD BTN TWY, F AND TWY B1, TWY B1 CLSD. ILS RY 25R OTS, RY 25R SFL OTS, RY 24L ALSF-2 OTS. LAX VOR UNMONITORED. IF ASSIGNED RUNWAY 25R FOR DEPARTURE, EXPECT DEPARTURE FROM INTERSECTION FOXTROT. TAXIWAY CHARLIE EIGHT BTWN TWY B AND TWY C AND TAXIWAY CHARLIE NINE BTWN TWY B AND TWY C ARE RESTRICTED TO AIRCRAFT WITH A WINGSPAN LESS THAN ONE HUNDRED EIGHTEEN FEET. USE CAUTION FOR INCREASED DRONE ACTIVIY IN THE VICINITY OF SOFI STADIUM AT OR BELOW 200FT AGL DURING THE WORLD CUP FROM 06/12/26 THROUGH 07/10/2026. HAZD WX INFO FOR LAX AREA AVBL FM FSS. BIRD ACTIVITY VICINITY ARPT. INCLUDE YOUR CALL SIGN IN ALL READBACKS. USE CAUTION WHEN EXITING RY24R AT TWY V, W, AND Y, TO HOLD SHORT OF RY24L. MULTIPLE RUNWAY INCURSIONS HAVE OCCURRED. ...ADVS YOU HAVE INFO U.\n[Departure ATIS] KLAX DEP ATIS O 0753Z LAX ATIS INFO O 0753Z. 09010KT 10SM FEW010 21/18 A2987 (TWO NINER EIGHT SEVEN) RMK AO2 SLP110 T02110178 402890206. INST APCHS AND RNAV RNP APCHS RY 24R AND 25L, OR VCTR FOR VISUAL APCH WILL BE PROVIDED, SIMUL VISUAL APCHS TO ALL RWYS ARE IN PROG, SIMUL INSTR DEPARTURES IN PROG RWYS 24 AND 25. CTC L A GC ON 121.75 FOR PUSH OR TAXI ON A. TWY B CLSD BTN TWY, C10 AND TWY C7 , , TWY B6 CLSD, TWY B7 CLSD, TWY C CLSD BTN TWY, C1 AND TWY C3, TWY C1 CLSD, TWY C9 CLSD BTN TWY, B AND TWY C, TWY C8 CLSD BTN TWY, B AND TWY C. PAPI OTS 24R, SEAL BEACH VOR OTS. HAZD WX INFO FOR LAX AREA AVBL FM FSS. BIRD ACTIVITY VICINITY ARPT. TWR FREQ FOR ALL RWYS IS 120.95. CD AND GC FREQ IS 121.75. INCLUDE YOUR CALL SIGN IN ALL READBACKS. USE CAUTION WHEN EXITING RY24R AT TWY V, W, AND Y, TO HOLD SHORT OF RY24L. MULTIPLE RUNWAY INCURSIONS HAVE OCCURRED. ...ADVS YOU HAVE INFO O.",
    "KONT": "[Arrival ATIS] KONT ARR ATIS J 1353Z - KONT ATIS INFO J 1353Z. 00000KT 10SM FEW020 FEW220 23/14 A2984 (TWO NINER EIGHT FOUR) RMK AO2 SLP083 FU FEW020 T02330144. ILS AND VIS APR IN USE, RY26L & RY26R. LNDG AND DEPG RY 26L AND RY 26R. NOTAMS... TAXIWAY SIERRA FIVE CLOSED. TAXIWAY SIERRA CLOSED BETWEEN TAXIWAY SIERRA 8 AND TAXIWAY WHISKEY. RY 26L IM OTS, RY 26R ALS OTS. USE CAUTION FOR NUMEROUS BIRDS OBSERVED IN VICINITY OF ONT. PILOTS READBACK RWY ASSIGNMENTS AND HOLD SHORT INSTRUCTIONS. ...ADVS YOU HAVE INFO J.\n[Departure ATIS] KONT DEP ATIS N 0553Z - KONT ATIS INFO N 0553Z. 24004KT 10SM BKN250 22/15 A2988 (TWO NINER EIGHT EIGHT) RMK AO2 SLP100. ILS AND VIS APR IN USE, RY26L & RY26R. LNDG AND DEPG RY 26L AND RY 26R. NOTAMS... TAXIWAY SIERRA CLSD BETWEEN SIERRA 8 AND W TAXIWAY Q SOUTH OF RWY 26L CLSD TAXIWAY T CLSD TAXIWAY SIERRA 5 CLSD. RY 26L IM OTS, RY 26R ALS OTS. USE CAUTION FOR NUMEROUS BIRDS OBSERVED IN VICINITY OF ONT. HAZD WX INFO FOR SOUTHERN CA AVBL ON FSS FREQUENCIES. PILOTS READBACK RWY ASSIGNMENTS AND HOLD SHORT INSTRUCTIONS. ...ADVS YOU HAVE INFO N.",
    "KSFO": "[Arrival ATIS] KSFO ARR ATIS K 2156Z SFO ATIS INFO K 2156Z. 28018KT 10SM FEW008 19/12 A2995 (TWO NINER NINER FIVE). SIMUL CLSLY SPCD DPNDNT ILS RY 28R AND ILS RY 28L APP IN USE. DEPG RWYS 28L, 28R. GATE HOLD PROCEDURES IN EFCT, ALL A/C CTC GH 124.25 WHEN READY FOR TAXI OR PB. DEPG ACFT SHOULD BE PREPARED FOR A SHORT NOTICE RY CHANGE. RY 1L, 1R CLSD. NUMEROUS TWY CLOSURES FOR CONSTRUCTION ON THE FIELD, PILOTS CHECK NOTAMS. MULTIPLE CRANES VCY OF SFO CHECK NOTAMS. DEPG ACFT WAITING ON FINAL NUMBERS ADVISE GROUND PRIOR TO ENTERING TWY F. ...ADVS YOU HAVE INFO K.\n[Departure ATIS] KSFO DEP ATIS J 0556Z SFO ATIS INFO J 0556Z. 25014KT 10SM FEW007 14/11 A2990 (TWO NINER NINER ZERO). SIMUL CLSLY SPCD DPNDNT ILS RY 28R AND ILS RY 28L APP IN USE. DEPG RWYS 28L, 28R. DEPG ACFT SHOULD BE PREPARED FOR A SHORT NOTICE RY CHANGE. RY 1L, 1R CLSD. NUMEROUS TWY CLOSURES FOR CONSTRUCTION ON THE FIELD, PILOTS CHECK NOTAMS. DEPG ACFT WAITING ON FINAL NUMBERS ADVISE GROUND PRIOR TO ENTERING TWY F. ...ADVS YOU HAVE INFO J.",
    "KOAK": "[Arrival ATIS] KOAK ARR ATIS T 2053Z - KOAK ATIS INFO T 2053Z. 25015KT 10SM FEW008 20/13 A2994 (TWO NINER NINER FOUR). RNAV, AND VA, RWY 30. ILS, AND VA, RWY 28R. FLOW TO LAX, LAS, SAN, SEA. RWY 28L CLSD. TAXIWAYS GOLF, HOTEL, PAPA, JULIET BETWEEN RUNWAYS 28 RIGHT AND 28 LEFT CLOSED. ILS RWY 30, OTS, RWY 28R RAIL, OTS. UNN LIT CLOSE-IN OBSTACLES FOR RWY 30 DEPARTURES. RWY 30 DEPARTURES ARE ADVISED TO AVOID TURNING LEFT PRIOR TO DEPARTURE END OF RUNWAY. CTN, CRANE 1 POINT 6 NAUTICAL MILES, , AT 140 FEET AGL. CAUTION, BIRDS NEAR AIRPORT. ...ADVS YOU HAVE INFO T.\n[Departure ATIS] KOAK DEP ATIS O 1953Z OAK ATIS INFO O 1953Z. 28014KT 10SM FEW005 22/14 A2988 (TWO NINER EIGHT EIGHT). RNAV Z/VA RWY 30 ILS/VA RWY 28R. FLOW TO LAX, LAS, SAN. ILS RWY 30, OTS. UNN LIT CLOSE-IN OBSTACLES FOR RWY 30 DEPARTURES. RWY 30 DEPARTURES ARE ADVISED TO AVOID TURNING LEFT PRIOR TO DEPARTURE END OF RUNWAY. SIGNATURE UNI-COM OUT OF SERVICE. CAUTION, BIRDS NEAR AIRPORT. ...ADVS YOU HAVE INFO O.",
    "KDFW": "[Arrival ATIS] KDFW ARR ATIS E 0253Z DFW ARR INFO E 0253Z. 15011G16KT 10SM FEW110 SCT170 BKN250 26/20 A3005 (THREE ZERO ZERO FIVE) RMK AO2 SLP169 60000 T02560200 51011. SIMUL VISUAL APCH TO RWYS, 13R, 18R, 17C. LDG RWY 17C EXP LAHSO TWY B 10460 FT AVAIL, LDG RWY 18R EXP LAHSO TWY B 10100 FT AVL. NOTICE TO AIRMEN. RWY 13L CLSD. RWY 17L CLSD. WARNING, RWY 18L HAS BEEN SHORTENED, 9273 FT AVAILABLE. HAZD WX FOR DFW AVBL ON FSS. BIRD ACTIVITY VCNTY ARPT. ...ADVS YOU HAVE INFO E.\n[Departure ATIS] KDFW DEP ATIS F 1453Z DFW DEP INFO F 1453Z. 11005KT 10SM SCT020 BKN030 BKN055 BKN250 27/22 A3008 (THREE ZERO ZERO EIGHT) RMK AO2 SLP178 T02720217 51013. SIMUL PARL TRAFFIC DEPG RWYS 17R, 18L. NOTICE TO AIRMEN. WARNING, RWY 18L HAS BEEN SHORTENED, 9273 FT AVAILABLE. HAZD WX FOR DFW AVBL ON FSS. BIRD ACTIVITY VCNTY ARPT. ...ADVS YOU HAVE INFO F.",
    "KIAH": "[Arrival ATIS] KIAH ARR ATIS T 0853Z - KIAH ATIS INFO T 0853Z. 15006KT 10SM BKN250 27/24 A3010 (THREE ZERO ONE ZERO) RMK AO2 SLP193 T02670244 58000. ARRIVALS EXPECT ILS OR RNAV Y RY 26L, ILS OR RNAV Y RY 8L. SIMUL APPROACHES IN USE. DEPG RY 15L. NOTICE TO AIRMEN. UAL RAMP PROCEDURES TERMINATED PUSH BACK AT PILOTS DISCRETION. RY 9, 27 CLSD. HAZD WX INFO FOR IAH AREA AVBL FM FSS. BIRD ACTIVITY VICINITY ARPT. LAHSO RY8R. CRANES ARE DOWN. TWY SA CLSD BTN TWY, SF AND TWY SK , TWY SB CLSD BTN TWY, SF AND TWY SK , , TWY EA CLSD. NOTAM ATIS IN USE ON FREQUENCY 126.225. ...ADVS YOU HAVE INFO T.\n[Departure ATIS] KIAH DEP ATIS T 0353Z IAH ATIS INFO T 0353Z. 15007KT 10SM FEW035 FEW180 BKN250 27/23 A2996 (TWO NINER NINER SIX). ARRIVALS EXPECT ILS OR RNAV Y RY 8R, ILS OR RNAV Y RY 8L. DEPG RY 15R. NOTICE TO AIRMEN. UNITED RAMP CONTROL IN EFFECT. RY 15L, 33R CLSD. HAZD WX INFO FOR IAH AREA AVBL FM FSS. BIRD ACTIVITY VICINITY ARPT. CRANES ARE DOWN. TWY SA CLSD BTN TWY, SF AND TWY SK , TWY SB CLSD BTN TWY, SF AND TWY SK , , TWY WB CLSD BTN TWY, WG AND TWY WH . TWY EA CLSD. NOTAM ATIS IN USE ON FREQUENCY 126.225. ...ADVS YOU HAVE INFO T.",
    "KORD": "[Arrival ATIS] KORD ARR ATIS B 1051Z - KORD ATIS INFO B 1051Z. 00000KT 1SM R10L/P6000FT FU VV016 25/19 A3005 (THREE ZERO ZERO FIVE) RMK AO2 SLP171 T02500194. ARR EXP VECTORS ILS RWY 27C APCH, ILS RWY 27R APCH, ILS RWY 28C APCH. SIMUL APCHS IN USE. DEPS EXP RWYS 22L 28R FROM NOVEMBER 5 9750 FT AVL. RWY 4L, 22R CLSD. RWY 22R LOC OTS, RWY 28L GS OTS, RWY 9L IM OTS, RWY 9C IM OTS, RWY 10L IM OTS, RWY 10R IM OTS, RWY 27R IM OTS, RWY 28L IM OTS, RWY 28R IM OTS, RWY 9L PAPI OTS, RWY 27R PAPI OTS. PILOTS USE CTN FOR BIRD ACTIVITY IN THE VICINITY OF THE ARPT. USE CTN FOR PERSONNEL AND EQUIP AT NUMEROUS SITES ON THE FIELD. READBACK ALL RWY HOLD SHORT INSTRUCTIONS. WHEN READY TO TAXI CONTACT GND METERING ON FREQ 121.67. ...ADVS YOU HAVE INFO B.\n[Departure ATIS] KORD DEP ATIS K 0251Z - KORD ATIS INFO K 0251Z. VRB05KT 3/4SM R10L/P6000FT FU VV015 27/17 A3006 (THREE ZERO ZERO SIX) RMK AO2 SLP174 T02670167 53011. ARR EXP VECTORS ILS RWY 10C APCH. DEPS EXP",
    "KJFK": "[Arrival ATIS] KJFK ARR ATIS J 1051Z JFK ATIS INFO J 1051Z. 36008KT 5SM FU FEW000 SCT038 SCT090 BKN250 23/13 A3002 (THREE ZERO ZERO TWO) RMK AO2 SLP165 FU SCT038 FU FEW000 T02330133. APPROACH IN USE ILS RY 31R, ILS RY 31L. DEPG RY 31L. RY 13L SFL OTS, RWY 22L/4R INNER MARKER OTS. RWY 22L PAPI OTS. NUM CRANES OPERATING AT JFK. BIRD ACTIVITY VICINITY ARPT. READBACK ALL RWY ASSIGNMENTS AND HOLD SHORT INSTRUCTIONS. ...ADVS YOU HAVE INFO J.\n[Departure ATIS] KJFK DEP ATIS H 0851Z JFK ATIS INFO H 0851Z. 33008KT 6SM FU OVC040 24/13 A2998 (TWO NINER NINER EIGHT) RMK AO2 FU OVC040. APPROACH IN USE ILS RY 31R, ILS RY 31L. DEPG RY 31L. RY 13L SFL OTS, RWY 22L/4R INNER MARKER OTS. RWY 22L PAPI OTS. NUM CRANES OPERATING AT JFK. BIRD ACTIVITY VICINITY ARPT. READBACK ALL RWY ASSIGNMENTS AND HOLD SHORT INSTRUCTIONS. ...ADVS YOU HAVE INFO H.",
    "KIND": "[Arrival ATIS] KIND ARR ATIS D 2043Z - KIND ATIS INFO D 2043Z SPECIAL. 03013KT 10SM BKN016 OVC030 19/16 A2997 (TWO NINER NINER SEVEN). ILS RWY 5L APCH IN USE. CROSS RUNWAY OPERATIONS MAY BE IN EFFECT. NOTICE TO AIRMEN. RWY 32 GS OTS. RWYS 23L AND 5R CLSD. TWY, P BTN TWY, H AND TWY B CLSD. P PAD CLSD. ILS RUNWAY 5R AND RUNWAY 5L INNER MARKER UNSERVICEABLE. RUNWAY 32 PAPI OTS. RUNWAY 32 TOUCHDOWN RVR OTS. RUNWAY 14 ROLLOUT RVR OTS. HIWAS. RWY 14 CONDITION CODES. 5 5 5 AT 0849Z. ARPT ADZY FLOCK OF MEDIUM BIRDS IN THE VICINITY OF THE AIRPORT, ALT UNKN. ...ADVS YOU HAVE INFO D.\n[Departure ATIS] KIND DEP ATIS G 0254Z IND ATIS INFO G 0254Z. 03006KT 10SM SCT060 BKN110 BKN190 OVC250 28/22 A3007 (THREE ZERO ZERO SEVEN). PARL ILS RWY 5R AND 5L APPROACHES IN USE. CROSS RUNWAY OPERATIONS MAY BE IN EFFECT. NOTICE TO AIRMEN. TWY, P BTN TWY, H AND TWY B CLSD, TWY, P BTN TWY, H AND TWY J CLSD, TWY, H BTN TWY, R AND TWY N CLSD. P PAD CLSD. ILS RUNWAY 5R AND RUNWAY 5L INNER MARKER UNSERVICEABLE. HIWAS. ARPT ADZY FLOCK OF MEDIUM BIRDS IN THE VICINITY OF THE AIRPORT, ALT UNKN. ...ADVS YOU HAVE INFO G.",
    "KDTW": "[Arrival ATIS] KDTW ARR ATIS A 0853Z DTW ARR INFO A 0853Z. 00000KT 2SM FU OVC044 20/16 A3012 (THREE ZERO ONE TWO) RMK AO2 TWR VIS 3 SLP195 FU OVC044 T02000161 53005. SIMUL ILS Z RY 22R AND RY 21L APCH IN USE. SIMULTANEOUS ARRIVAL AND, DEPARTURE OPERATIONS ARE IN USE, ON RY 22R AND RY 22L. NOTICE TO AIRMEN. RWY 21R, 3L CLSD, RWY 27L, 9R CLSD, RWY 27R, 9L CLSD. TWYS Y1 CLSD ;. RY 22L ALS OTS. PILOTS USE CTN FOR BIRD ACTIVITY. TWR AND GC COMB ON FREQ 135.0. DEPARTURE ATIS 118.125. ...ADVS YOU HAVE INFO A.\n[Departure ATIS] KDTW DEP ATIS N 0953Z DTW DEP INFO N 0953Z. 35003KT 1SM R03R/P6000FT FU SCT000 OVC027 22/16 A3004 (THREE ZERO ZERO FOUR) RMK AO2 TWR VIS 2 SLP167 FU SCT000 T02170161. DEPG RWY 4R. . RWY 4R DEPARTURE POINT IS Y 2, DISTANCE REMAINING IS 11, THOUSAND, 450, FT, FULL LENGTH AVAIL UPON REQ ;. NOTICE TO AIRMEN. RWY 21R, 3L CLSD, RWY 27L, 9R CLSD, RWY 27R, 9L CLSD. TWYS Y1 CLSD ;. PILOTS USE CTN FOR BIRD ACTIVITY. TWR AND GC COMB ON FREQ 135.0. ...ADVS YOU HAVE INFO N.",
    "KMSP": "[Arrival ATIS] KMSP ARR ATIS G 1453Z MSP ARR INFO G 1453Z. 33004KT 2SM FU SCT000 BKN022 BKN050 27/20 A3008 (THREE ZERO ZERO EIGHT) RMK FU SCT000. SIMULTANEOUS DEPENDENT, ILS RWY 12R APCH IN USE, LOCALIZER RWY 12L APCH IN USE. FINAL APCH, OVER NOISE SENSITIVE AREA. NOTICE TO AIRMEN. RWYS 4, 22 CLSD. TWY R7. R8. R9. R10. CLOSED. TWY R BTWN R6 AND R10 CLSD, USE CAUTION, NUMEROUS TAXIWAY CLOSURES, TWY A7 CLSD, TWY A CLSD BTN TWY, A7 AND TWY D, TWY 4/22 CLSD BTN TWY, P AND TWY M6, TWY P CLSD BTN TWY, C AND TWY M. GS RWY 12L OTS, RWYS 12R, 12L, INNER MARKER OTS. CTN, BIRDS NEAR MSP. READ BACK HS AND ALT. ALL ACFT TAXI WITH TRANSPONDER AND ALTITUDE ENCODING ON. 12R ARRIVALS ADVISE GATE ON INITIAL CONTACT. ...ADVS YOU HAVE INFO G.\n[Departure ATIS] KMSP DEP ATIS S 0953Z - KMSP DEP INFO S 0953Z. 22004KT 10SM FEW055 27/21 A2998 (TWO NINER NINER EIGHT). DEPARTING RWY 12L, RWY 12R, RWY 17. NOTICE TO AIRMEN. RWYS 4, 22 CLSD. TWY R7. R8. R9. R10. CLOSED. TWY R BTWN R6 AND R10 CLSD, TWY A7 CLSD, TWY A CLSD BTN TWY, A7 AND TWY D. ALL ACFT CTC METERING ON ONE THREE THREE POINT FIVE SEVEN WHEN READY TO PUSHBACK OR TAXI. CTN, BIRDS NEAR MSP. READ BACK HS AND ALT. ALL ACFT TAXI WITH TRANSPONDER AND ALTITUDE ENCODING ON. ...ADVS YOU HAVE INFO S.",
    "CYEG": "[Arrival ATIS] CYEG ARR ATIS I 1100Z 17003KT 8SM FEW250 15/15 A2996 APCH RNAV Z OR Y RWY 02, INFORM ARRL OF REQ APCH ON INITIAL CTC. LDG AND DEP RWY 02. SIMUL APPROACHES MAY BE IN EFCT. INFORM CYEG ATC INFO I\n[Departure ATIS] CYEG DEP ATIS I 1100Z CYEG ARR ATIS I 1100Z 17003KT 8SM FEW250 15/15 A2996 APCH RNAV Z OR Y RWY 02, INFORM ARRL OF REQ APCH ON INITIAL CTC. LDG AND DEP RWY 02. SIMUL APPROACHES MAY BE IN EFCT. INFORM CYEG ATC INFO I",
    "EHAM": "[Arrival ATIS] EHAM ARR ATIS D 1020Z EHAM ARRIVAL INFO D. DEMAND. MAIN LANDING RWY 06. TRANSITION LEVEL 045. WIND 290 DEG, 7 KT, VRB BTN 240 AND 350 DEG, 17 KT MAX, 5 KT MNM. VIS 10 KM OR MORE. CLD FEW 2300 FT BKN 2700 FT. T 21. DP 15. QNH 1014 HPA. NOSIG. OPERATIONAL REPORT. CONTACT APCH WITH CALLSIGN ONLY. END OF INFO D\n[Departure ATIS] EHAM DEP ATIS Y 1050Z EHAM DEPARTURE INFO Y. DEMAND. MAIN DEPARTURE RWY 36 L. MAIN LANDING RWY 06. WIND 300 DEG, 7 KT, VRB BTN 270 AND 010 DEG. VIS 10 KM OR MORE. CLD FEW 2300 FT BKN 2700 FT. T 22. DP 15. QNH 1014 HPA. OPERATIONAL REPORT. INFORM SCHIPHOL DEL BY VOICE IF UNABLE TO COMPLY WITH NADP 2. END OF INFO Y",
    "EBBR": "[Arrival ATIS] EBBR ARR ATIS R 0750Z EBBR NAT, EXP VECT FOR ILS APP ARR RWY25L RSCD AT 0748 RWY25L DRY. DEP RWY25R TRL 055 ILS 25R NOT AVBL. RNP RWY 25R AVBL AT ATC DISCRETION 020/4KT VRB BTN 270 AND 050 VIS ABV 10KM FEW2000FT T21 DP16 QNH 1015HPA NOSIG CFM ARR R\n[Departure ATIS] EBBR DEP ATIS A 0850Z EBBR NAT, DEP RWY25R RSCD AT 0726 RWY25R DRY. ARR RWY25L TRL 055 B3 CLSD 290/5KT VRB BTN 260 AND 020 MNM2 MAX12 VIS ABV 10KM SCT2200FT T21 DP16 QNH 1015HPA NOSIG CFM DEP A",
    "EDDF": "[Arrival ATIS] EDDF ARR ATIS W 1050Z -ARR-ATIS EDDF W METAR 171050 -EXPECT INDEPENDENT PARALLEL ILS APCH RWY 25L OR ILS Z APCH RWY 25R -RWY 25R 25L -GLS APCH ON REQUEST , DO NOT MISTAKE TWY M FOR RWY 25C WHEN P\n[Departure ATIS] EDDF DEP ATIS T 1820Z DEP-ATIS EDDF T METAR 221820 RWY 07C 18 ACFT DEPARTING RWY18 : EXPECT POSSIBLE DEPARTURE FROM INTERSECTION M , TORA 3454 METERS. IF UNABLE , ADVISE TWR ON INITIAL CONTACT , ACFT DEPARTING RWY07C : EXPECT DEPARTURE FROM INTERSECTION L17 , TORA 3312 METERS. IF UNABLE , ADVISE APRON ON INITIAL CONTACT , TRL 60 ATTN : BIRDS IN THE VCY OF THE AD 01012KT 350V050 RWY18 02012KT CAVOK T32 DP18 QNH1021 TREND NOSIG END OF ATIS T",
    "EDDL": "[Arrival ATIS] EDDL ARR ATIS F 0320Z -ATIS EDDL F METAR 170320 -EXPECT VECTORS ILS APPROACH -RWY 05R -ATTENTION, RISK OF TWY INCURSION WHEN TAXIING TO RWY05R, CHECK HOT SPOTS T1 AND L9 ON TAXI CHART -TRL 70 -EXPECT INTENSE BIRD ACTIVITY IN THE VICINITY OF RWY SYSTEM -02003KT -CAVOK - - -T17 DP14 -QNH1012 - -TREND NOSIG\n[Departure ATIS] EDDL DEP ATIS R EDDL ARR/DEP DATIS RPT -ATIS EDDL R METAR 020550 -EXPECT VECTORS ILS APPROACH -RWY 23L -TWY L8 CLOSED BETWEEN TWY M AND RWY 23L -TRL 60 - -23010KT -CAVOK - - -T19 DP13 -QNH1020 - -TREND NOSIG",
    "EDDK": "[Arrival ATIS] EDDK ARR ATIS A 1450Z ATIS EDDK A METAR 161450 EXPECT ILS APCH RWY 13L RWY 13L 06 RWY COND RWY 13L AT TIME 1315 RWYCC 5 DEPOSIT TOTAL RWY WET RWY 06 AT TIME 1315 RWYCC 5 DEPOSIT TOTAL RWY WET TRL 60 RWY 13R AND RWY 31L CLOSED FOR DEPARTURE AND LANDING: TAXIING BTN THR RWY 13R AND INTERSECTION RWY 24 POSSIBLE : 05010KT 030V090 CAVOK T27 DP14 QNH1016 TREND NOSIG\n[Departure ATIS] EDDK DEP ATIS E 2050Z -ATIS EDDK E METAR 142050 -EXPECT CDO FOR ILS APCH RWY 31R -RWY 31R 06 -RWY COND RWY 31R AT TIME 1837 RWYCC 6 DEPOSIT TOTAL RWY DRY RWY 06 AT TIME 1837 RWYCC 6 DEPOSIT TOTAL RWY DRY -TRL 60 -RWY 13R AND RWY 31L CLOSED FOR DEPARTURE AND LANDING: TAXIING BTN THR RWY 13R AND INTERSECTION RWY 24 POSSIBLE : -02006KT 350V050 -CAVOK - - -T23 DP14 -QNH1018 - -TREND NOSIG",
    "EBLG": "[Arrival ATIS] EBLG ATIS H 0750Z EBLG INFO, EXP RNAV TO ILS APP ARR RWY22L DEP RWY22L RWY 22L DRY, RWYCC 666. TRL 055 ADZ ON GND FREQ IF UNABLE C4 350/7KT VRB BTN 300 AND 360 CAVOK T21 DP14 QNH 1015HPA NOSIG CFM ATIS H",
    "LSZH": "[Arrival ATIS] LSZH ARR ATIS M 0750Z ARRIVALS, EXP ILS APCH, RWY 14. RWY COND REPORT. RWY COND CODE 6, 6, 6. COVERAGE NR, NR, NR. DEPTH NR, NR, NR. DRY AND DRY AND DRY. RWY REPORT END. TRL 70. DEP RWY 28. WIND 250 DEG, 5 KT, VRB BTN 190 AND 260 DEG. CAVOK. T 22. DP 15. QNH 1017. NOSIG.\n[Departure ATIS] LSZH DEP ATIS V 0750Z DEP RWY 28. RWY COND REPORT. RWY 28. RWY COND CODE 6, 6, 6. COVERAGE NR, NR, NR. DEPTH NR, NR, NR. DRY AND DRY AND DRY. RWY 16. RWY COND CODE 6, 6, 6. COVERAGE NR, NR, NR. DEPTH NR, NR, NR. DRY AND DRY AND DRY. RWY REPORT END. TRL 70. ARRIVALS, EXP ILS APCH, RWY 14. TMA S 1 IS NOT ACT. TMA S 2 AND S 3 ARE NOT ACT. WIND 230 DEG, 5 KT, VRB BTN 190 AND 260 DEG. CAVOK. T 22. DP 15. QNH 1017. NOSIG.",
    "LIMC": "[Arrival ATIS] LIMC ARR ATIS F 1622Z LIMC ARR F 1622Z I.L.S. ZULU RWY IN USE 35R TL 70 WIND TDZ 020/4KT VRB BTN 330/AND 090/ CAVOK T31 DP17 QNH 1016HPA QFE 0991HPA\n[Departure ATIS] LIMC DEP ATIS X 0950Z LIMC DEP X 0950Z RWY IN USE 35L RCR AT 0156Z 5/5/5 WET WET WET TL 70 BIRDS CONCENTRATION ON RWY STRIP WIND END VRB4KT CAVOK T27 DP17 QNH 1015HPA QFE 0989HPA DATALINK CLEARANCE AVAILABLE.... CONTACT 1 3 1 8 8 0 TO BE RELEASED BY THE AIRPORT OPERATOR ...",
    "LIRF": "[Arrival ATIS] LIRF ARR ATIS Y 1050Z LIRF ARR Y 1050Z RWY 16L ILS W RWY 16R ILS Z RWY IN USE 16L 16R TL 70 DEPENDENT PARL ILS APCH INPR RWY IN USE 16R OR 16L ASSIGNED BY ROME RADAR WIND RWY 16L TDZ 160/18KT RWY 16R TDZ 170/8KT MAX19 CAVOK T34 DP24 QNH 1013HPA RRSM\n[Departure ATIS] LIRF DEP ATIS S 0850Z LIRF DEP S 0850Z RWY IN USE 25 TL 70 RWYS IN USE FOR ARR 16L AND 16R WIND END 180/10KT VRB BTN 150/AND 210/ CAVOK T32 DP25 QNH 1014HPA REA IS SENT AUTOMATICALLY ONCE RLSD BY RAMP WHEN READY CONTACT FIUME RAMP 121.725 RRSM",
    "EINN": "[Arrival ATIS] EINN ARR ATIS O 0800Z EXPECT I L S CATEGORY 1 LDG RWY06 TKOF RWY06 TRL FL060 33007KT 9999 FEW010 BKN200 17/14 QNH Q1020 TREND NOSIG ADVISE AT FIRST CONTACT YOU HAVE ATIS INFO O",
    "EGLL": "[Arrival ATIS] EGLL ARR ATIS A 1032Z LANDING RWY 27R TRANSITION-LEVEL: FL 70 RUNWAY 27R REDUCED DECLARED DISTANCES WITH TAKE OFF RUN AVAILABLE 3362METRES AND LANDING DISTANCE AVAILABLE 3362METRES IF STAND GUIDANCE IS OFF OR FAILS, REMAIN ON THE TAXIWAY CENTRELINE AND ADVISE ATC AUTO 28004KT 210V340 9999 NCD 25/11 Q1016 ACKNOWLEDGE RECEIPT OF INFORMATION A\n[Departure ATIS] EGLL DEP ATIS P 1112Z DEPARTURE RWY 27L RUNWAY 27R REDUCED DECLARED DISTANCES WITH TAKE OFF RUN AVAILABLE 3362METRES AND LANDING DISTANCE AVAILABLE 3362METRES PILOTS THAT ARE IN RECEIPT OF DATALINK CLEARANCES ARE REMINDED THEY MUST CONTACT DELIVERY ON 121.980 WHEN READY FOR START AUTO 29008KT 190V360 9999 NCD 26/11 Q1016 ACKNOWLEDGE RECEIPT OF INFORMATION P AND REPORT AIRCRAFT TYPE AND CURRENT QNH ON FIRST CONTACT WITH HEATHROW",
    "EPWA": "[Arrival ATIS] EPWA ARR ATIS A 1001Z EPWA ARR A. TIME 1000. EXP N ARR ILS Z APCH FOR RWY 11. TRANSITION LEVEL 80. WIND 110 DEG, 7 KT, VRB BTN 080 AND 140 DEG. CAVOK. T 29. DP 15. QNH 1015. NOSIG. CAUTION. BIRD ACT. END OF EPWA ARR A\n[Departure ATIS] EPWA DEP ATIS X 0831Z EPWA DEP X. TIME 0830. DEP RWY 15. ARR RWY 11, EXP N ARR ILS Z. REPORT READY FOR STARTUP ON DELIVERY 121 DECIMAL 605. TRANSITION LEVEL 80. WIND 130 DEG, 9 KT, VRB BTN 110 AND 180 DEG. CAVOK. T 28. DP 15. QNH 1016. NOSIG. CAUTION. BIRD ACT. END OF EPWA DEP X",
    "EFHK": "[Arrival ATIS] EFHK ARR ATIS Y 1029Z EXPECT ILS APCH ARR RWY 22L RUNWAY 22L CONDITION REPORT AT 0719 UTC RUNWAY CONDITION CODES 6 , 6 , 6 C ONTAMINANTS ALL PARTS DRY TRL 60 WIND 170 DEG 7 KT VRB BTN 120 AND 200 DEG VIS 10KM FEW 3600 FT T 23 DP 14 QNH 1017 NOSIG ACK INFO Y\n[Departure ATIS] EFHK DEP ATIS F 2120Z DEP RWY 22R RUNWAY 22R CONDITION REPORT AT 2114 UTC RUNWAY CONDITION CODES 6 , 6 , 6 CONTAMINANTS ALL PARTS DRY WIND 300 DEG 5 KT CAVOK T 14 DP 4 QNH 1020 NOSIG ACK INFO F",
    "LTAC": "[Arrival ATIS] LTAC ARR ATIS B 1020Z EXP ILS V APCH 03C DEP RWY 03L RWY 03C WIND 080 DEG 12 KT VRB BTN 050 DEG AND 110 DEG RWY 03L WIND 090 DEG 14 KT TRL 110 VIS 9999 SCT04000 FT T 27 DP 07 QNH 1015 NOSIG FOR DELIVERY CTC 121.9. FOR DELIVERY FIRST USE DIGITAL DEP CLR. CTN BIRD HAZARD OVR AERODROME. APCH FREQUENCY 129.050. END OF ATIS B",
    "UBBB": "[Arrival ATIS] UBBB ARR ATIS A 2230Z ATIS A EXP ILS/ LDG 34 35 DEP 34 35 IN USE RWY 34 CLEAR DRY 70 RWY 35 CLEAR DRY 70 TLVL 110 WIND WIND RWY 34 CALM WIND RWY 35 020 2 KT SPD MAX 2 MIN 2 VIS CAVOK T 23 / DP 15 QNH 1016 HPA TREND TREND NOSIG MODERATE BIRDS ACT IN VICINITY OF AP END OF ATIS A\n[Departure ATIS] UBBB DEP ATIS X 2100Z ATIS X EXP ILS/ LDG 34 35 DEP 34 35 IN USE RWY 34 CLEAR DRY 70 RWY 35 CLEAR DRY 70 TLVL 110 WIND WIND RWY 34 360 6 KT SPD MAX 8 MIN 6 WIND RWY 35 350 6 KT SPD MAX 8 MIN 4 VIS 10 KM FEW CB 6000 FT RWY 34 FEW CB 6000 FT RWY 35 T 23 / DP 15 QNH 1015 HPA TREND TREND NOSIG MODERATE BIRDS ACT IN VICINITY OF AP END OF ATIS X",
    "ZWWW": "[Arrival ATIS] ZWWW ARR ATIS A 2230Z EXP ILSDME Z APCH LDG RWY 26L TA 3000 WIND 270/4MPS CAVOK T 26 /DP 04 QNH 1007 HPA ADZ YOU HAVE INFO A.\n[Departure ATIS] ZWWW DEP ATIS N 0530Z DEP RWY 26L TA 3000 WIND VRB/1MPS CAVOK T 39 /DP 06 QNH 1009 HPA ADZ YOU HAVE INFO N.",
    "ZLXY": "[Arrival ATIS] ZLXY ARR ATIS B 1000Z EXP ILS APCH LDG RWY 23R & 24L WIND 210/3MPS VRB BTN 170/ AND 230/ CAVOK T 34 /DP 18 QNH 1002 HPA VISUAL APPROACH IN PROGRESS ADZ YOU HAVE INFO B.\n[Departure ATIS] ZLXY DEP ATIS Q 2200Z DEP RWY 06L WIND 040/2MPS VIS 8000M CLD FEW 1500M T 20 /DP 18 QNH 1007 HPA VISUAL APPROACH IN PROGRESS ADZ YOU HAVE INFO Q.",
    "ZBAA": "[Arrival ATIS] ZBAA ARR ATIS M 2230Z EXP ILS APCH DEPENDENT PARL INSTR APCH LDG RWY 36L & 36R & 01 WIND 340 DEG 3 MPS CAVOK T 20 /DP 18 QNH 1008 HPA VISUAL APPROACH IS IN PROGRESS. ADZ YOU HAVE INFO M.\n[Departure ATIS] ZBAA DEP ATIS L 2200Z DEP RWY 36L & 36R & 01 WIND 360 DEG 2 MPS CAVOK T 20 /DP 18 QNH 1007 HPA RWY INDEPENDENT PARALLEL DEP VISUAL APPROACH IS IN PROGRESS. ADZ YOU HAVE INFO L.",
    "ZBHH": "[Arrival ATIS] ZBHH ARR ATIS H 2200Z EXP ILSDME APCH LDG RWY 26 TA 3000 /TRL 3600 WIND 010/3MPS VIS 9999M CLD FEW 1200M T 16 /DP 07 QNH 1009 HPA ADZ YOU HAVE INFO H.\n[Departure ATIS] ZBHH DEP ATIS Q 1500Z DEP RWY 08 TA 3000 /TRL 3600 WIND 140/2MPS VIS 5000M BR NSC T 19 /DP 19 QNH 1007 HPA ADZ YOU HAVE INFO Q.",
    "ZSQD": "[Arrival ATIS] ZSQD ARR ATIS R 2201Z EXP ILSDME APCH LDG RWY 16 TA 3000 /TRL 3600 WIND VRB/1MPS VIS 5000M BR NSC T 20 /DP 20 QNH 1008 HPA VISUAL APPROACH OPERATION IN PROGRESS. RUNWAY 16,IF MISSED APPROACH,EXPECT FOLLOW THE STANDARD MISSED APPROACH PROCEDURE,CLIMB TO 600M ON QNH OR BY ATC CAUTION MAYBE THERE IS A FLOCK OF BIRDS IN THE VICINITY OF AIRPORT ADZ YOU HAVE INFO R.\n[Departure ATIS] ZSQD DEP ATIS Y 2112Z DEP RWY 16 TA 3000 /TRL 3600 WIND 140/2MPS VIS 4000M BR CLD FEW 450M T 22 /DP 21 QNH 1009 HPA VISUAL APPROACH OPERATION IN PROGRESS. WHEN READY CONTACT QINGDAO TOWER ON 118.7 RUNWAY 16,IF MISSED APPROACH,EXPECT FOLLOW THE STANDARD MISSED APPROACH PROCEDURE,CLIMB TO 600M ON QNH OR BY ATC CAUTION MAYBE THERE IS A FLOCK OF BIRDS IN THE VICINITY OF AIRPORT ADZ YOU HAVE INFO Y."
  },
  "windtemp_alaska": "\n000\nFBAK31 KWNO 170802\nFD1AK1\nDATA BASED ON 170600Z    \nVALID 171200Z   FOR USE 0800-1500Z. TEMPS NEG ABV 24000\n\nFT  3000    6000    9000   12000   18000   24000  30000  34000  39000\nADK 2641 2741+07 2838+04 2836-01 2939-13 2943-22 293838 283647 283857\nADQ 2819 2814+00 2416-04 2422-08 2332-22 2240-35 215043 224542 223742\nAKN 2515 2712-02 2813-07 2717-13 2721-23 2722-35 272745 262542 242240\nANC 1312 1622+01 2021-05 1819-11 1947-20 1954-34 207545 206145 204042\nANN 3409 9900+13 9900+08 2505+02 2310-12 2505-24 990039 990049 350559\nBET 2711 2610-03 9900-08 3007-13 2914-24 2813-35 292346 291842 281240\nBRW 0313 0212+03 0109-01 0309-07 0810-20 1218-31 133247 132753 141344\nBTI 9900 9900+02 0705-02 0705-06 9900-18 3611-30 011246 020949 160844\nBTT 1405 1509+03 1213-03 1023-08 1225-19 1427-28 142546 143052 162446\nCDB 2712 2814-02 2818-03 2623-09 2634-18 2942-29 308243 810051 284448\nCZF 9900 0909-02 0910-08 0906-12 9900-24 3007-35 291646 301242 321140\nEHM 2715 2813-03 2815-07 2918-11 2822-22 2827-33 284047 283344 282241\nFAI 2115 1709+02 1713-04 1918-08 1835-18 1742-31 164647 174450 193343\nFYU 1305 2108+03 1909-03 1613-07 1613-17 2218-27 212245 202852 202749\nGAL 0507 0608+00 0712-05 0915-10 1026-23 1130-33 104548 113046 131140\nGKN 1625 1826+00 2024-03 2030-06 1948-17 2055-29 218744 218651 204647\nHOM 1710 1910+00 1813-05 2018-09 2036-22 2048-34 206245 205142 213541\nJNU 9900 2105+08 2411+06 2511+01 2514-13 2720-24 262540 262749 252658\nLUR 0821 0818+02 0818-03 0915-08 1120-22 1226-34 162249 141347 081041\nMCG 2413 2414-01 2411-06 2407-12 1306-25 9900-35 131345 151640 171140\nMDO 1618 1818+04 1926-01 1929-05 2043-17 2169-27 208143 218552 226150\nOME 0409 9900-01 9900-07 0707-13 0713-24 1017-33 112449 101546 060840\nORT      1905+05 1717-01 2023-04 2139-15 2242-27 226644 217453 215352\nOTZ 0305 0708+01 0911-04 1013-09 1123-22 1124-32 132948 122649 110942\nSNP 1943 1927-02 2024-03 2322-06 2534-17 2551-29 268042 277547 294244\nTKA 1708 1918-01 1815-05 1922-11 1844-22 1859-33 195546 194643 193241\nUNK 9900 9900-01 9900-06 0610-12 1010-23 0611-33 093650 111544 100740\nYAK 9900 2509+05 2416+03 2318-02 2124-13 2332-25 233641 234250 244058\nIKO 2327 2440-01 2748-01 2849-02 2847-13 2840-24 295439 297049 297156\nAFM 0305 0910+02 1016-03 1024-08 1025-21 1224-31 133247 132950 131343\n5AB 2941 2935+10 2930+07 3029+01 3232-11 3235-22 334435 345145 358955\n5AC 3419 3312+10 3409+07 3510+02 3311-12 3412-24 351339 361649 011559\n5AD 2522 2527+08 2431+04 2438-01 2542-13 2443-24 234340 234349 234458\n5AE 2814 2820-03 2725-03 2629-08 2632-20 2735-32 273445 253845 253744\n5AF 3008 2712+09 2613+05 2515+01 2516-12 2514-24 241839 241949 251759\n5AG 2116 2319+07 2219+02 2121-02 2227-13 2134-25 214141 224950 234758\n",
  "vaac_tokyo": [
    {
      "id": "20260717_27307000_0014",
      "year": "2026",
      "volcano": "Taal",
      "psn": "N1400 E12100",
      "issued": "20260717",
      "text": "FVFE01 RJTD 171113\nVA ADVISORY\nDTG: 20260717/1113Z\nVAAC: TOKYO\nVOLCANO: TAAL 273070\nPSN: N1400 E12100\nAREA: PHILIPPINES\nSOURCE ELEV: 311M AMSL\nADVISORY NR: 2026/14\nINFO SOURCE: HIMAWARI-9 PHIVOLCS\nERUPTION DETAILS: ERUPTION AT 20260717/1051Z FL040 EXTD E REPORTED\nOBS VA DTG: 17/1100Z\nOBS VA CLD: VA NOT IDENTIFIABLE FM SATELLITE DATA WIND FL040 270/8KT\nFCST VA CLD +6 HR: NOT AVBL\nFCST VA CLD +12 HR: NOT AVBL\nFCST VA CLD +18 HR: NOT AVBL\nRMK: WE WILL ISSUE FURTHER ADVISORY IF VA IS DETECTED IN SATELLITE \nIMAGERY.\nNXT ADVISORY: NO FURTHER ADVISORIES=",
      "img_url": "https://ds.data.jma.go.jp/svd/vaac/data/VAGFN/2026/Images/20260717_27307000_0014_QH21_01.png",
      "sat_img_url": null,
      "text_url": "https://ds.data.jma.go.jp/svd/vaac/data/TextData/2026/20260717_27307000_0014_Text.html"
    },
    {
      "id": "20260717_27303000_0759",
      "year": "2026",
      "volcano": "Mayon",
      "psn": "N1315 E12341",
      "issued": "20260717",
      "text": "FVFE01 RJTD 171107\nVA ADVISORY\nDTG: 20260717/1107Z\nVAAC: TOKYO\nVOLCANO: MAYON 273030\nPSN: N1315 E12341\nAREA: PHILIPPINES\nSOURCE ELEV: 2462M AMSL\nADVISORY NR: 2026/759\nINFO SOURCE: HIMAWARI-9 PHIVOLCS\nERUPTION DETAILS: ERUPTION AT 20260717/0526Z FL140 EXTD SSW REPORTED\nOBS VA DTG: 17/1050Z\nOBS VA CLD: VA NOT IDENTIFIABLE FM SATELLITE DATA WIND FL140 360/5KT\nFCST VA CLD +6 HR: NOT AVBL\nFCST VA CLD +12 HR: NOT AVBL\nFCST VA CLD +18 HR: NOT AVBL\nRMK: WE WILL ISSUE FURTHER ADVISORY IF VA IS DETECTED IN SATELLITE \nIMAGERY.\nNXT ADVISORY: NO FURTHER ADVISORIES=",
      "img_url": "https://ds.data.jma.go.jp/svd/vaac/data/VAGFN/2026/Images/20260717_27303000_0759_QH21_01.png",
      "sat_img_url": null,
      "text_url": "https://ds.data.jma.go.jp/svd/vaac/data/TextData/2026/20260717_27303000_0759_Text.html"
    },
    {
      "id": "20260716_30027000_0266",
      "year": "2026",
      "volcano": "Sheveluch",
      "psn": "N5639 E16122",
      "issued": "20260716",
      "text": "FVFE01 RJTD 161200\nVA ADVISORY\nDTG: 20260716/1200Z\nVAAC: TOKYO\nVOLCANO: SHEVELUCH 300270\nPSN: N5639 E16122\nAREA: RUSSIA\nSOURCE ELEV: 3283M AMSL\nADVISORY NR: 2026/266\nINFO SOURCE: HIMAWARI-9\nERUPTION DETAILS: VA CONTINUOUSLY OBS IN SATELLITE IMAGERY\nOBS VA DTG: 16/1120Z\nOBS VA CLD: SFC/FL230 N5556 E16558 - N5544 E16655 - N5425 E16745 - \nN5359 E17000 - N5312 E16918 - N5403 E16711 MOV SE 35KT\nFCST VA CLD +6 HR: 16/1720Z SFC/FL240 N5329 E17049 - N5230 E17321 - \nN5147 E17227 - N5314 E16939 - N5525 E16945 - N5436 E17056\nFCST VA CLD +12 HR: 16/2320Z SFC/FL250 N5118 E17628 - N5008 E17537 - \nN5210 E17232 - N5303 E17348 - N5459 E17402\nFCST VA CLD +18 HR: NO VA EXP\nRMK: THE RESPONSIBILITY FOR THIS ASH EVENT IS BEING TRANSFERRED TO \nVAAC ANCHORAGE. THE NEXT ADVISORY WILL BE ISSUED BY VAAC ANCHORAGE \nBY 1800UTC UNDER HEADER FVAK21 PAWU. WESTERN PART OF VA OBSCURED BY \nMET CLOUD.\nNXT ADVISORY: NO FURTHER ADVISORIES=",
      "img_url": "https://ds.data.jma.go.jp/svd/vaac/data/VAGFN/2026/Images/20260716_30027000_0266_QH21_01.png",
      "sat_img_url": "https://ds.data.jma.go.jp/svd/vaac/data/Sat/2026/Images/30027000/09-ir/20260716_1120_202607161200_ir.png",
      "text_url": "https://ds.data.jma.go.jp/svd/vaac/data/TextData/2026/20260716_30027000_0266_Text.html"
    },
    {
      "id": "20260713_28208001_0083",
      "year": "2026",
      "volcano": null,
      "psn": "N3136 E13039",
      "issued": "20260713",
      "text": "FVFE01 RJTD 130254\nVA ADVISORY\nDTG: 20260713/0254Z\nVAAC: TOKYO\nVOLCANO: SAKURAJIMA (AIRA CALDERA) 282080\nPSN: N3136 E13039\nAREA: JAPAN\nSOURCE ELEV: 1117M AMSL\nADVISORY NR: 2026/83\nINFO SOURCE: JMA HIMAWARI-9\nERUPTION DETAILS: ERUPTED AT 20260713/0152Z FL100 EXTD N\nOBS VA DTG: 13/0230Z\nOBS VA CLD: SFC/FL100 N3136 E13039 - N3142 E13040 - N3141 E13044 - \nN3134 E13042 MOV NE 15KT\nFCST VA CLD +6 HR: 13/0830Z SFC/FL100 N3234 E13121 - N3145 E13155 - \nN3202 E13110 - N3227 E13051\nFCST VA CLD +12 HR: 13/1430Z SFC/FL100 N3318 E13206 - N3142 E13317 - \nN3134 E13226 - N3312 E13118\nFCST VA CLD +18 HR: NO VA EXP\nRMK: NIL\nNXT ADVISORY: 20260713/0600Z=",
      "img_url": "https://ds.data.jma.go.jp/svd/vaac/data/VAGFN/2026/Images/20260713_28208001_0083_QH21_01.png",
      "sat_img_url": "https://ds.data.jma.go.jp/svd/vaac/data/Sat/2026/Images/28208001/09-ir/20260713_0230_202607130254_ir.png",
      "text_url": "https://ds.data.jma.go.jp/svd/vaac/data/TextData/2026/20260713_28208001_0083_Text.html"
    }
  ],
  "vaac_alaska": [
    {
      "text": "\n000\nFVAK21 PAWU 162126\nVAAAK1\nVA ADVISORY\n\nDTG: 20260716/2122Z\n\nVAAC: ANCHORAGE\n\nVOLCANO: SHEVELUCH 300270\n\nPSN: N5639 E16122\n\nAREA: KAMCHATKA PENINSULA\n\nSOURCE ELEV: 10771 FT AMSL\n\nADVISORY NR: 2026/204\n\nINFO SOURCE: HIMAWARI\n\nERUPTION DETAILS: VA NOT IDENTIFIABLE FM SATELLITE DATA.\n\nOBS VA DTG: 16/2122Z\n\nOBS VA CLD: VA NOT IDENTIFIABLE FM SATELLITE DATA WIND FL100 280/20KT\n\nFCST VA CLD +6HR: NOT AVBL\n\nFCST VA CLD +12HR: NOT AVBL\n\nFCST VA CLD +18HR: NOT AVBL\n\nRMK: A NEW ADVISORY WILL BE ISSUED IF VA IS DETECTED IN SATELLITE IMAGERY....DK\n\nNXT ADVISORY: NO FURTHER ADVISORIES=\n\n",
      "issued": "2026-07-16T21:26:00+00:00",
      "volcano": "Sheveluch",
      "psn": "N5639 E16122"
    }
  ]
}