{
  "updated_utc": "2026-07-21T23:02Z",
  "metar": {
    "RJAA": "METAR RJAA 212130Z VRB01KT 8000 NSC 28/26 Q1008 NOSIG",
    "PANC": "METAR PANC 212153Z 14014G23KT 10SM FEW025 BKN055 OVC080 13/07 A3008 RMK AO2 PK WND 15030/2130 SLP185 T01330067",
    "PAFA": "METAR PAFA 212153Z 09008KT 10SM FEW026 SCT032 BKN110 17/09 A2993 RMK AO2 SLP140 T01720094",
    "PAED": "METAR PAED 212155Z 01004KT 10SM BKN065 OVC090 14/09 A3006 RMK AO2A SLP175 T01420090 $",
    "KSEA": "METAR KSEA 212153Z 29008KT 10SM FEW200 SCT230 32/14 A2995 RMK AO2 SLP143 T03170139 $",
    "ZSPD": "METAR ZSPD 212130Z 19003MPS CAVOK 27/27 Q1007 NOSIG",
    "ZSSS": "METAR ZSSS 212130Z 19002MPS CAVOK 27/26 Q1006 NOSIG",
    "RJFR": "METAR RJFR 212200Z 26003KT 9999 FEW010 29/25 Q1010",
    "VHHH": "METAR VHHH 212130Z 09006KT 9999 FEW010 SCT025 29/25 Q1008 NOSIG",
    "RCTP": "METAR RCTP 212130Z 20005KT 9999 FEW015 SCT200 26/24 Q1009 NOSIG RMK A2981",
    "ZGSZ": "METAR ZGSZ 212200Z 12004MPS CAVOK 28/25 Q1008 NOSIG",
    "WSSS": "METAR WSSS 212130Z 12004KT 9999 FEW016 BKN300 28/24 Q1010 NOSIG",
    "WMKK": "METAR WMKK 212130Z 00000KT 7000 -TSRA FEW007 FEW017CB SCT030 24/24 Q1010 RETSRA TEMPO 8000 -TSRA",
    "WIDD": "METAR WIDD 212130Z AUTO VRB01KT 9000 SCT023 SCT028 SCT033 26/25 Q1011 NOSIG",
    "VTBS": "METAR VTBS 212130Z 26005KT 9999 FEW020 29/22 Q1009 NOSIG",
    "VTBU": "METAR VTBU 212130Z 27005KT 9000 FEW020 29/26 Q1009 NOSIG",
    "ROAH": "METAR ROAH 212130Z 27002KT 9999 FEW007 28/27 Q1010",
    "VVDN": "METAR VVDN 212130Z VRB01KT 9999 FEW020 27/22 Q1007 NOSIG",
    "RCKH": "METAR RCKH 212200Z 08004KT 9999 FEW014 SCT026 26/24 Q1009 NOSIG RMK A2982",
    "KLAX": "METAR KLAX 212153Z 23011G18KT 10SM FEW100 27/16 A2998 RMK AO2 SLP149 T02670161",
    "KONT": "METAR KONT 212153Z 24009KT 10SM FEW110 SCT180 SCT250 34/11 A2996 RMK AO2 SLP126 T03390106 $",
    "KSFO": "METAR KSFO 212156Z 03011KT 10SM FEW180 26/18 A2989 RMK AO2 SLP123 T02560178",
    "KOAK": "METAR KOAK 212153Z 32010KT 10SM FEW200 30/11 A2991 RMK AO2 SLP129 T03000111",
    "KMHR": "METAR KMHR 212115Z AUTO 21009KT 9SM CLR 38/08 A2986 RMK AO2 LTG DSNT SE T03800080 $",
    "KDFW": "METAR KDFW 212153Z 04006KT 10SM FEW075 40/18 A2984 RMK AO2 SLP094 T04000183 $",
    "KIAH": "METAR KIAH 212153Z 28005KT 10SM FEW250 37/19 A2986 RMK AO2 SLP110 T03670194",
    "KORD": "METAR KORD 212151Z 33015G23KT 10SM SCT060 28/14 A2975 RMK AO2 SLP067 T02830144 $",
    "KJFK": "SPECI KJFK 212115Z 14006KT 10SM SCT011 BKN016 OVC027 25/23 A2973 RMK AO2 T02500228 $",
    "KRFD": "METAR KRFD 212154Z 32013G22KT 10SM SCT050 SCT250 27/16 A2982 RMK AO2 PK WND 31027/2121 SLP092 T02720156",
    "KIND": "METAR KIND 212154Z 31017G25KT 10SM BKN045 BKN250 30/18 A2973 RMK AO2 PK WND 27030/2136 SLP060 CB DSNT SE MOV E T03000178",
    "KDTW": "METAR KDTW 212153Z 31017G26KT 10SM FEW065 SCT080 BKN250 29/16 A2960 RMK AO2 PK WND 30030/2126 SLP018 T02890161",
    "KMSP": "METAR KMSP 212153Z 34012G22KT 9SM BKN060 26/11 A2995 RMK AO2 PK WND 36026/2100 SLP136 T02560106",
    "CYEG": "METAR CYEG 212200Z 12005KT 070V220 4SM FU BKN020 BKN044 22/18 A3012 RMK CU5SC1 SLP203 DENSITY ALT 3500FT",
    "EHAM": "METAR EHAM 212125Z 35005KT 320V020 9999 FEW022 BKN040 17/13 Q1025 NOSIG",
    "EBBR": "METAR EBBR 212120Z 32004KT CAVOK 15/12 Q1026 NOSIG",
    "EDDF": "METAR EDDF 212120Z AUTO 33005KT CAVOK 18/06 Q1023 NOSIG",
    "EDFH": "METAR EDFH 212120Z 33004KT CAVOK 15/05 Q1025",
    "EDDL": "METAR EDDL 212120Z AUTO 35007KT CAVOK 18/10 Q1024 NOSIG",
    "EDDK": "METAR EDDK 212120Z AUTO 34004KT CAVOK 17/09 Q1024 NOSIG",
    "EBLG": "METAR EBLG 212120Z 33006KT CAVOK 16/09 Q1026 NOSIG",
    "LSZH": "METAR LSZH 212120Z 05007KT CAVOK 19/07 Q1023 NOSIG",
    "LIMC": "METAR LIMC 212120Z 11007KT CAVOK 25/17 Q1016 NOSIG",
    "LIRF": "METAR LIRF 212120Z 10005KT 070V170 CAVOK 29/27 Q1012 NOSIG",
    "EINN": "METAR EINN 212130Z 35009KT 9999 FEW025 15/11 Q1032 NOSIG",
    "EGLL": "METAR EGLL 212120Z AUTO 13006KT 9999 NCD 19/12 Q1027",
    "EGSS": "METAR EGSS 212120Z AUTO 06006KT 9999 NCD 15/12 Q1028",
    "EPWA": "METAR EPWA 212130Z 27007KT CAVOK 13/10 Q1016 NOSIG",
    "UHPP": "METAR UHPP 212130Z 20006MPS 9999 BKN006 BKN017CB 14/14 Q1001 R16R/290252 NOSIG RMK MT OBSC QFE747/0997",
    "EFHK": "METAR EFHK 212120Z 32004KT 9999 FEW045 11/10 Q1011 NOSIG",
    "LBBG": "METAR LBBG 212130Z AUTO 05004KT 9999 FEW015/// 21/19 Q1014 NOSIG",
    "LTAC": "METAR LTAC 212120Z 03004KT CAVOK 20/07 Q1017 NOSIG RMK RWY21C 01005KT RWY03L 03004KT RWY21R 36004KT RWY03R 00000KT RWY21L VRB02KT",
    "UBBB": "METAR UBBB 212130Z 00000KT CAVOK 24/19 Q1010 NOSIG",
    "UTAA": "METAR UTAA 212200Z 29004KT 9999 FEW050CB SCT050 BKN100 29/16 Q1009 R88/CLRD70 NOSIG",
    "UACC": "METAR UACC 212130Z 26002MPS 9999 SCT036CB OVC043 16/14 Q0997 NOSIG RMK QFE717/0956",
    "UAAA": "METAR UAAA 212130Z VRB01MPS 9999 SCT050CB OVC100 20/18 Q1007 NOSIG",
    "UZTT": "METAR UZTT 212130Z 11004KT CAVOK 24/13 Q1006 NOSIG",
    "ZWWW": "METAR ZWWW 212130Z 26002MPS 230V300 CAVOK 31/09 Q1000 NOSIG",
    "ZLXY": "METAR ZLXY 212200Z 04003MPS CAVOK 22/19 Q1005 NOSIG",
    "ZBAA": "METAR ZBAA 212130Z 32002MPS 280V030 CAVOK 26/23 Q1004 NOSIG",
    "ZBHH": "METAR ZBHH 212200Z 07002MPS CAVOK 14/13 Q1009 NOSIG",
    "ZSQD": "METAR ZSQD 212200Z 14003MPS CAVOK 23/23 Q1006 NOSIG",
    "ZMCK": "METAR ZMCK 212130Z 08005MPS 9999 FEW033 13/11 Q1006 NOSIG RMK QFE640.4 87 MOP",
    "UUEE": "METAR UUEE 212130Z 29002G07MPS CAVOK 18/15 Q1009 R24L/CLRD62 R24C/CLRD62 NOSIG",
    "UUDD": "METAR UUDD 212130Z 30003MPS CAVOK 19/16 Q1009 R31L/CLRD65 NOSIG",
    "ULLI": "METAR ULLI 212130Z 00000MPS 9999 OVC018 14/12 Q1008 R88/290050 NOSIG",
    "USSS": "METAR USSS 212130Z 32001MPS CAVOK 16/16 Q1010 R08R/CLRD60 R08L/CLRD60 NOSIG RMK QFE737/0983",
    "UNNT": "METAR UNNT 212130Z 01003MPS CAVOK 19/17 Q0996 R25/CLRD// R16/CLRD// NOSIG RMK QFE737/0983",
    "UNKL": "METAR UNKL 212130Z 00000MPS CAVOK 13/13 Q0998 R11/CLRD// NOSIG RMK QFE723",
    "UIBB": "METAR UIBB 212130Z 11001MPS 9999 NSC 13/12 Q1002 R12/CLRD62 NOSIG RMK QFE709/0946",
    "UEEE": "METAR UEEE 212130Z 03004MPS 9999 SCT040 15/12 Q1009 R23/09//65 NOSIG RMK QFE748",
    "UHHH": "METAR UHHH 212130Z 34003G08MPS 240V050 CAVOK 23/21 Q1005 R88/090060 NOSIG RMK QFE747/0997",
    "UHSS": "METAR UHSS 212130Z 00000MPS 9999 NSC 21/18 Q1006 R01/CLRD70 NOSIG RMK QFE753/1004"
  },
  "taf": {
    "RJAA": "TAF RJAA 211705Z 2118/2300 15004KT 9999 FEW030 BECMG 2121/2123 28005KT BECMG 2202/2204 13008KT TEMPO 2204/2209 -TSRA FEW015 BKN025 FEW025CB",
    "PANC": "TAF PANC 211720Z 2118/2224 15007KT P6SM FEW035 SCT050 BKN080 FM212000 15012G22KT P6SM SCT045 BKN060 FM220000 15016G28KT P6SM -RA FEW030 BKN050 FM220300 15016G28KT 5SM -RA FEW025 BKN035 FM220700 15015G25KT P6SM -SHRA SCT035 OVC050 FM221800 16010G18KT P6SM SCT045 BKN080",
    "PAFA": "TAF PAFA 211734Z 2118/2224 20005KT P6SM VCSH FEW006 SCT015 BKN080 FM212100 15004KT P6SM VCSH FEW025 SCT050 BKN100 FM221200 20004KT 6SM -SHRA BR BKN050",
    "PAED": "TAF PAED 212100Z 2121/2303 01009KT 9999 -SHRA SCT045 OVC065 620654 QNH3000INS TEMPO 2122/2202 16010G20KT BECMG 2203/2204 01009KT 6000 -RA SCT020 OVC035 650604 530208 QNH2994INS BECMG 2214/2215 20009KT 9999 -SHRA FEW020 OVC040 620604 QNH2994INS TX15/2123Z TN09/2213Z",
    "KSEA": "TAF KSEA 212100Z 2121/2224 33008KT P6SM SCT250 FM220600 01006KT P6SM FEW250 FM221300 36003KT P6SM SKC",
    "ZSPD": "TAF ZSPD 212102Z 2200/2306 20004MPS 6000 SCT030 TX32/2206Z TX33/2306Z TN27/2221Z",
    "ZSSS": "TAF ZSSS 212102Z 2200/2306 21004MPS 6000 SCT030 TX33/2206Z TX35/2306Z TN27/2221Z TEMPO 2206/2210 33007G12MPS TSRA BKN011 FEW030CB",
    "RJFR": "TAF RJFR 211705Z 2118/2300 23004KT 9999 FEW020 BECMG 2200/2202 06008KT BECMG 2204/2206 35012KT",
    "VHHH": "TAF VHHH 212300Z 2200/2306 18010KT 9999 FEW010 SCT025 TX32/2206Z TX33/2306Z TN28/2222Z TEMPO 2200/2202 12010KT TEMPO 2202/2205 4000 SHRA FEW010CB SCT020 TEMPO 2211/2217 10010KT",
    "RCTP": "TAF RCTP 212300Z 2200/2306 24010KT 9999 FEW010 BKN032 TEMPO 2200/2204 21005KT FEW010 BKN017 TEMPO 2204/2210 27015KT BECMG 2210/2211 20005KT TEMPO 2218/2224 13005KT",
    "ZGSZ": "TAF ZGSZ 212104Z 2200/2306 18004MPS 8000 SCT030 TX31/2206Z TX32/2306Z TN28/2222Z TEMPO 2203/2206 TSRA FEW025 FEW030CB BKN033",
    "WSSS": "TAF WSSS 211700Z 2118/2300 17008KT 9999 FEW015 SCT020 TEMPO 2206/2209 3000 TSRA FEW012CB BKN015",
    "WMKK": "TAF WMKK 211700Z 2118/2300 VRB03KT 9999 FEW030 TEMPO 2119/2123 5000 TSRA FEW017CB SCT027 PROB40 TEMPO 2207/2211 5000 TSRA FEW016CB SCT018",
    "VTBS": "TAF VTBS 211700Z 2118/2224 21008KT 9999 FEW020 TEMPO 2122/2202 -TSRA FEW018CB SCT030 BKN100 TEMPO 2208/2214 VRB15G25KT 4000 TSRA FEW018CB SCT030 BKN100",
    "VTBU": "TAF VTBU 211700Z 2118/2218 23008KT 9000 FEW020",
    "ROAH": "TAF ROAH 211705Z 2118/2300 24006KT 9999 FEW008 SCT015 BECMG 2204/2206 29006KT TEMPO 2204/2209 4000 SHRA BR FEW005 BKN008 FEW015CB BECMG 2209/2212 12004KT",
    "VVDN": "TAF VVDN 211700Z 2118/2218 20005KT 9999 FEW020 BECMG 2206/2207 09010KT PROB40 TEMPO 2210/2214 24015G25KT 4000 TSRA BKN013 FEW015CB BKN050 BECMG 2214/2215 22006KT",
    "RCKH": "TAF RCKH 212300Z 2200/2306 24005KT 9999 FEW010 BKN032 TEMPO 2203/2209 26010KT TEMPO 2212/2218 32005KT TEMPO 2218/2224 06005KT",
    "KLAX": "TAF KLAX 212100Z 2121/2224 26012KT P6SM SCT200 FM220300 26008KT P6SM SKC FM220800 VRB03KT P6SM SKC FM221100 VRB03KT P6SM BKN008 FM221600 26006KT P6SM SKC FM222100 26012KT P6SM SCT250",
    "KONT": "TAF KONT 211732Z 2118/2224 VRB05KT P6SM FEW150 FM212000 25011G18KT P6SM FEW150 FM220200 24010KT P6SM SCT150 FM220800 VRB04KT P6SM SCT200 FM222000 25010KT P6SM FEW200",
    "KSFO": "TAF KSFO 212135Z 2122/2224 03009KT P6SM FEW080 SCT140 FM220000 26014KT P6SM SCT250 FM220600 25006KT P6SM SCT010 BKN150",
    "KOAK": "TAF KOAK 211738Z 2118/2224 29005KT P6SM VCSH BKN180 BKN250 FM212000 28010KT P6SM SCT150 FM220600 28006KT P6SM SCT010 BKN150",
    "KMHR": "TAF KMHR 211720Z 2118/2218 VRB05KT P6SM BKN250 FM212000 24007KT P6SM BKN250 FM220500 17007KT P6SM FEW250",
    "KDFW": "TAF KDFW 212045Z 2121/2224 VRB05KT P6SM SCT070 FM220200 18005KT P6SM FEW250 FM221200 01005KT P6SM FEW250 FM221800 03007KT P6SM SCT060",
    "KIAH": "TAF KIAH 212055Z 2121/2224 26006KT P6SM FEW060 FEW250 FM212300 VRB04KT P6SM SKC FM220800 27006KT P6SM FEW250 FM221700 VRB04KT P6SM FEW150",
    "KORD": "TAF KORD 212110Z 2121/2224 30015G23KT P6SM SCT050 FM220000 02012G19KT P6SM SCT025 BKN050 PROB30 2202/2206 6SM -SHRA BKN025 FM220900 35011KT P6SM SCT040 FM221800 02010KT P6SM SCT040",
    "KJFK": "TAF KJFK 212217Z 2122/2224 18012G18KT 6SM -TSRA BKN025 OVC050CB FM220100 19013G19KT P6SM VCSH BKN025 OVC040 FM220400 20013KT P6SM BKN025 BKN250 FM221200 24014KT P6SM BKN025 OVC040 TEMPO 2212/2214 SCT025 FM221400 24014KT P6SM SCT025 BKN060 FM221900 23012KT P6SM BKN060 PROB30 2219/2223 4SM -TSRA BKN040CB",
    "KRFD": "TAF KRFD 212113Z 2121/2218 31016G25KT P6SM SCT050 FM220000 35012G20KT P6SM SCT050 FM220500 02010G19KT P6SM FEW025 SCT150 FM221100 35010KT P6SM FEW040",
    "KIND": "TAF KIND 212028Z 2120/2224 29012G22KT P6SM SCT030 FM212300 32007KT P6SM SCT250 FM221400 35009KT P6SM SCT050 FM221800 35010KT P6SM BKN050",
    "KDTW": "TAF KDTW 212008Z 2120/2224 28017G27KT P6SM BKN060 FM220100 33012G22KT P6SM SCT030 BKN045 FM220600 31011KT P6SM BKN040 FM221400 32012G20KT P6SM SCT050 FM221800 32011KT P6SM FEW080",
    "KMSP": "TAF KMSP 212058Z 2121/2224 33014G26KT P6SM BKN045 FM220100 02011KT P6SM SCT150 FM220800 35002KT P6SM SKC FM221700 33006KT P6SM FEW250",
    "CYEG": "TAF CYEG 212041Z 2121/2218 14007KT 4SM FU BKN020 TEMPO 2121/2123 6SM VCSH FU SCT020 BKN040 FM212300 15007KT 6SM FU BKN040 FM220200 14005KT P6SM FEW040 FM220600 16005KT P6SM VCFG FEW003 SCT012 FM220900 VRB03KT 1/2SM FG VV002 BECMG 2214/2216 2SM BR BKN004 FM221600 VRB03KT 2SM BR BKN004 BECMG 2216/2217 P6SM NSW SCT008 RMK NXT FCST BY 220000Z",
    "EHAM": "TAF EHAM 211716Z 2118/2224 32011KT 9999 FEW018 BKN025 BECMG 2118/2121 33006KT PROB30 TEMPO 2208/2211 6000 -RADZ SCT014 BKN018 BECMG 2209/2212 31015KT BECMG 2217/2220 33007KT",
    "EBBR": "TAF EBBR 211707Z 2118/2224 34007KT 9999 FEW045",
    "EDDF": "TAF EDDF 211700Z 2118/2224 34004KT CAVOK BECMG 2207/2211 31009KT",
    "EDFH": "TAF EDFH 211700Z 2118/2218 01008KT CAVOK BECMG 2119/2122 30004KT BECMG 2207/2211 31009KT",
    "EDDL": "TAF EDDL 211700Z 2118/2224 33008KT CAVOK BECMG 2122/2201 27004KT BECMG 2206/2209 30010KT BECMG 2219/2221 30005KT",
    "EDDK": "TAF EDDK 211700Z 2118/2224 35008KT CAVOK BECMG 2118/2121 01003KT BECMG 2205/2208 31010KT BECMG 2220/2222 31005KT",
    "EBLG": "TAF EBLG 211707Z 2118/2224 33007KT 9999 FEW045",
    "LSZH": "TAF LSZH 212025Z 2121/2303 02005KT CAVOK TX26/2215Z TN10/2204Z BECMG 2121/2123 34004KT TEMPO 2212/2219 9999 FEW070 PROB40 TEMPO 2215/2219 30008KT",
    "LIMC": "TAF LIMC 211700Z 2118/2224 VRB05KT 9999 FEW050 PROB40 TEMPO 2118/2122 4000 TSRA",
    "LIRF": "TAF LIRF 211700Z 2118/2224 22010KT CAVOK BECMG 2121/2123 VRB05KT BECMG 2203/2205 03010KT BECMG 2209/2211 29015KT BECMG 2215/2217 34015KT",
    "EINN": "TAF EINN 211700Z 2118/2218 36010KT 9999 BKN030",
    "EGLL": "TAF EGLL 211655Z 2118/2224 04008KT 9999 SCT045 BECMG 2118/2121 12010KT BECMG 2203/2206 VRB03KT BECMG 2211/2214 05010KT",
    "EGSS": "TAF EGSS 211704Z 2118/2224 06008KT 9999 SCT040 PROB40 2202/2207 7000",
    "EPWA": "TAF EPWA 212030Z 2121/2221 26005KT CAVOK BECMG 2205/2208 28015KT TEMPO 2208/2212 29016G26KT TEMPO 2212/2219 30018G28KT -SHRA BKN040CB",
    "UHPP": "TAF UHPP 211937Z 2121/2303 20003G10MPS 9999 BKN020CB TEMPO 2121/2206 -SHRA BKN014 OVC020CB TEMPO 2211/2221 1000 BR VV003",
    "EFHK": "TAF EFHK 212024Z 2121/2221 33004KT 9999 FEW012 SCT045 PROB30 TEMPO 2200/2208 BKN012",
    "LBBG": "TAF LBBG 211700Z 2118/2218 12010KT 9999 SCT045 BECMG 2119/2121 VRB03KT TEMPO 2202/2207 3000 SHRA BKN005 SCT020CB OVC040 BECMG 2207/2208 12012KT TEMPO 2208/2215 VRB18G30KT 5000 TSRA SCT030CB BKN040 BECMG 2215/2217 30010KT",
    "LTAC": "TAF LTAC 212240Z 2200/2224 VRB02KT CAVOK PROB30 TEMPO 2214/2218 27012KT",
    "UBBB": "TAF UBBB 212257Z 2200/2224 VRB04KT CAVOK TX33/2210Z TN23/2201Z TEMPO 2200/2204 31005KT BECMG 2206/2208 14006KT TEMPO 2209/2216 18014KT SCT020 TEMPO 2220/2224 VRB04KT",
    "UTAA": "TAF COR UTAA 211805Z 2118/2218 24014KT 4000 DRDU SCT030 SCT050CB PROB30 TEMPO 2118/2124 VRB30KT 2000 DRDU -TSRA BECMG 2207/2209 33014G24KT 3000 DRDU",
    "UACC": "TAF UACC 211704Z 2118/2218 VRB01MPS 9999 SCT030CB BKN050 TX23/2210Z TN15/2123Z TEMPO 2118/2202 27005MPS 3100 -TSRA BR SCT011 BKN020CB BECMG 2202/2204 36005MPS TEMPO 2202/2206 30010MPS 3100 -TSRA BKN020CB TEMPO 2206/2216 VRB16MPS 3100 -TSRA SQ BKN020CB BECMG 2216/2218 VRB01MPS SCT030 BKN100",
    "UAAA": "TAF UAAA 211703Z 2118/2218 16003MPS 9999 BKN050CB OVC100 TX27/2210Z TN18/2200Z TEMPO 2118/2124 22003G08MPS 5000 -TSRA BR BECMG 2203/2205 04003MPS SCT050CB BKN100 TEMPO 2205/2212 12003G08MPS BECMG 2214/2215 16003MPS",
    "UZTT": "TAF UZTT 211700Z 2118/2218 07010KT 9999 FEW060CB SCT100 TX35/2211Z TN25/2200Z TEMPO 2118/2206 30010G20KT SCT050CB PROB40 TEMPO 2118/2206 -TSRA BKN050CB",
    "ZWWW": "TAF ZWWW 212103Z 2200/2306 30008G16MPS 9999 BKN040 TX32/2209Z TX30/2306Z TN24/2223Z BECMG 2203/2204 33004G09MPS BECMG 2215/2216 18004MPS BECMG 2302/2303 36004MPS",
    "ZLXY": "TAF ZLXY 212133Z 2200/2224 06003MPS 6000 NSC TX35/2207Z TN27/2221Z TEMPO 2210/2213 30012G17MPS TSRA FEW040CB OVC050",
    "ZBAA": "TAF ZBAA 212111Z 2200/2306 20004MPS 6000 NSC TX28/2206Z TX29/2306Z TN22/2221Z TEMPO 2200/2202 TSRA FEW030CB BKN040 TEMPO 2207/2211 TSRA FEW030CB BKN040",
    "ZBHH": "TAF ZBHH 212115Z 2200/2224 23004MPS 9999 FEW040 TX29/2207Z TN13/2222Z BECMG 2209/2210 -TSRA SCT040CB SCT040 TEMPO 2211/2213 VRB10G18MPS 2800 +TSRAGR BECMG 2213/2214 NSW NSC",
    "ZSQD": "TAF ZSQD 212103Z 2200/2224 16004MPS 5000 BR NSC TX31/2206Z TN22/2220Z",
    "ZMCK": "TAF ZMCK 212245Z 2200/2306 VRB02MPS 9999 FEW030CB SCT033 TX26/2207Z TN12/2221Z PROB40 TEMPO 2204/2212 VRB08G13MPS TSRA SCT027CB SCT030",
    "UUEE": "TAF UUEE 211950Z 2121/2221 28003MPS 9999 FEW007 BKN016 TX25/2212Z TN15/2202Z PROB40 TEMPO 2121/2204 0300 FG BKN002 TEMPO 2209/2218 23008G13MPS PROB40 TEMPO 2212/2218 -TSRA BKN016CB",
    "UUDD": "TAF UUDD 211954Z 2121/2303 28003MPS 9999 FEW005 BKN016 TX25/2212Z TN15/2202Z PROB40 TEMPO 2121/2124 -TSRA BKN020CB PROB40 TEMPO 2200/2205 0300 FG BKN002 BECMG 2205/2207 22005MPS",
    "ULLI": "TAF ULLI 211956Z 2121/2221 35003MPS 6000 BKN010 TEMPO 2121/2123 0300 FG OVC003 BECMG 2123/2124 0300 FG BKN002 TEMPO 2200/2204 1000 -DZ BR OVC005 BECMG 2204/2205 6000 NSW BKN016 TEMPO 2210/2218 3100 -TSRA BKN016CB",
    "USSS": "TAF USSS 211944Z 2121/2221 32003MPS 6000 SCT016 TEMPO 2121/2202 0300 FG FM220400 34003G13MPS 9999 SCT040 FM221700 30003MPS 6000 SCT016",
    "UNNT": "TAF UNNT 212000Z 2121/2221 03003G08MPS 8000 BKN040 TX25/2210Z TN17/2122Z TEMPO 2121/2215 -TSRA BKN020CB",
    "UNKL": "TAF UNKL 211949Z 2121/2221 16003MPS 6000 SCT040 TEMPO 2200/2206 -TSRA BKN020CB BECMG 2206/2208 -TSRAGR BKN020CB BECMG 2209/2211 27008G16MPS NSW TEMPO 2211/2221 -TSRA BECMG 2212/2214 24003G08MPS",
    "UIBB": "TAF UIBB 212000Z 2121/2221 09002MPS 9999 FEW001 SCT050CB TEMPO 2121/2201 0300 FG VV001 TEMPO 2203/2215 VRB07MPS",
    "UEEE": "TAF UEEE 212000Z 2121/2303 32003MPS 9999 SCT040CB TX26/2206Z TN15/2121Z",
    "UHHH": "TAF AMD UHHH 212149Z 2121/2303 34003G08MPS 9999 SCT015 TX30/2204Z TN18/2218Z TEMPO 2121/2123 2000 BR FEW005 SCT015 FM220000 04003MPS 9999 SCT030 TEMPO 2200/2210 02008MPS SCT020CB TEMPO 2300/2303 04003G08MPS",
    "UHSS": "TAF UHSS 211942Z 2121/2303 VRB01MPS 9999 NSC BECMG 2123/2124 32003MPS"
  },
  "atis": {},
  "windtemp_alaska": "\n000\nFBAK31 KWNO 212000\nFD1AK1\nDATA BASED ON 211800Z    \nVALID 220000Z   FOR USE 2000-0300Z. TEMPS NEG ABV 24000\n\nFT  3000    6000    9000   12000   18000   24000  30000  34000  39000\nADK 2434 2436+11 2438+07 2442+03 2739-07 2742-16 274231 274542 284954\nADQ 2438 2334+08 2345+04 2450-01 2444-14 2540-26 264342 264552 274151\nAKN 2234 2343+05 2445+00 2348-03 2356-13 2462-24 246942 266651 264947\nANC 1419 1626+01 1821-03 2124-05 2428-17 2545-27 256443 256853 232446\nANN 3315 2711+13 2317+07 2322+01 2529-12 2530-26 253944 244750 243850\nBET 1917 2017+03 2416-01 2518-07 2529-18 2630-33 274337 274437 273640\nBRW 0937 0928+10 1023+04 1226-03 1328-15 1325-28 122544 142152 153150\nBTI 1225 1417+14 1514+06 1614-01 1617-15 1622-27 162643 162552 182052\nBTT 2406 2107+04 1518-01 1425-04 1538-17 1347-29 146246 145248 153744\nCDB 2427 2444+09 2451+03 2450-02 2437-11 2736-20 325735 318546 327057\nCZF 0413 0512-02 0114-05 0114-08 2307-19 2510-32 294738 294739 273240\nEHM 2524 2631+06 2641+04 2645-02 2666-14 2779-25 801637 790747 286748\nFAI 1610 1814+04 1719-02 1622-07 1639-18 1442-31 143645 153845 172644\nFYU 2413 2111+07 1416+03 1330-03 1437-16 1441-28 144742 155749 153648\nGAL 1012 1312+01 1417-05 1523-10 1626-19 1728-31 203447 172842 172140\nGKN 1822 1828+03 1923-02 1921-07 2419-18 2624-29 276145 273149 201945\nHOM 1630 1828+02 2123+00 2221-03 2543-14 2545-26 234343 245152 252847\nJNU 2309 2609+07 2213+02 2117-04 1915-20 1612-33 241441 241742 222343\nLUR 0310 0705+03 0706-03 1116-08 1248-19 1166-31 117846 127049 122641\nMCG 1314 1616+00 1723-04 1725-07 1725-19 2036-29 205246 214244 202141\nMDO 1917 2117+00 2321-02 2429-04 2533-15 2739-27 285543 285953 262948\nOME 0910 1017-01 1017-06 1117-11 1411-21 1711-32 160946 190840 200939\nORT      2706+06 2313+01 1916-05 1627-19 1541-31 145942 154947 172245\nOTZ 0908 1010+02 1012-04 1120-11 1229-23 1427-32 133645 133142 151740\nSNP 2310 2414+05 2524+02 2530-02 2535-12 2658-19 278033 289244 790855\nTKA 1814 1726+00 1825-05 1926-08 2224-17 2330-27 255845 245450 212144\nUNK 1124 1129-01 1129-06 1228-10 1514-19 1623-32 183547 191740 211439\nYAK 2910 2609+03 2611-01 2511-05 2715-19 3047-28 305245 283047 231644\nIKO 2718 2530+10 2534+04 2638-02 2838-09 2936-18 314733 315343 336856\nAFM 9900 1506+03 1614-02 1521-09 1346-20 1262-31 126246 134544 152641\n5AB 2445 2444+13 2447+09 2445+05 2553-06 2564-16 256530 256941 267353\n5AC 3525 3315+11 3009+06 2711+02 2813-11 2813-25 261943 253049 242954\n5AD 2513 2714+05 2816+02 2717-02 2621-14 2719-26 272043 292052 271956\n5AE 2347 2434+08 2435+05 2435-01 2435-13 2536-25 263441 293751 293454\n5AF 3225 3020+06 2918+02 2821-03 2831-13 2732-26 273545 284053 253148\n5AG 2819 2718+02 2617-01 2719-05 2936-14 2942-26 304844 315954 282747\n",
  "vaac_active": [
    {
      "volcano": "SHEVELUCH",
      "volcano_jp": "シベルチ",
      "advisory_nr": "2026/273",
      "obs_time": "2026-07-21 21:10Z",
      "issued_time": "2026-07-21 21:58Z",
      "text_url": "https://www.data.jma.go.jp/vaac/data/TextData/2026/20260721_30027000_0273_Text.html",
      "lat": 56.65,
      "lon": 161.367,
      "text": "FVFE01 RJTD 212158\nVA ADVISORY\nDTG: 20260721/2158Z\nVAAC: TOKYO\nVOLCANO: SHEVELUCH 300270\nPSN: N5639 E16122\nAREA: RUSSIA\nSOURCE ELEV: 3283M AMSL\nADVISORY NR: 2026/273\nINFO SOURCE: KBGS HIMAWARI-9\nERUPTION DETAILS: POSS ERUPTION OBS AT 20260721/2110Z FL350 EXTD E\nOBS VA DTG: 21/2130Z\nOBS VA CLD: SFC/FL350 N5640 E16119 - N5648 E16211 - N5635 E16226 - \nN5620 E16204 MOV E 60KT\nFCST VA CLD +6 HR: 22/0330Z SFC/FL330 N5915 E17434 - N5528 E16832 - \nN5448 E16207 - N5609 E15907 - N5617 E16015 - N5511 E16239 - N5529 \nE16641\nFCST VA CLD +12 HR: 22/0930Z SFC/FL350 N5555 E17332 - N6325 W17129 - \nN6248 W17003 - N5517 E17505 - N5320 E16123 - N5632 E15708 - N5413 \nE16405\nFCST VA CLD +18 HR: 22/1530Z SFC/FL350 N6318 W15247 - N6333 W16256 - \nN5359 E17612 - N5244 E15829 - N5631 E15601 - N5514 E17348 - N6513 \nW16411\nRMK: NIL\nNXT ADVISORY: 20260722/0000Z="
    },
    {
      "volcano": "TAAL",
      "volcano_jp": "タール",
      "advisory_nr": "2026/20",
      "obs_time": "2026-07-21 17:20Z",
      "issued_time": "2026-07-21 17:50Z",
      "text_url": "https://www.data.jma.go.jp/vaac/data/TextData/2026/20260721_27307000_0020_Text.html",
      "lat": 14.0,
      "lon": 121.0,
      "text": "FVFE01 RJTD 211750\nVA ADVISORY\nDTG: 20260721/1750Z\nVAAC: TOKYO\nVOLCANO: TAAL 273070\nPSN: N1400 E12100\nAREA: PHILIPPINES\nSOURCE ELEV: 311M AMSL\nADVISORY NR: 2026/20\nINFO SOURCE: HIMAWARI-9\nERUPTION DETAILS: VA IS NOT IDENTIFIABLE IN SATELLITE IMAGERY.\nOBS VA DTG: 21/1720Z\nOBS VA CLD: VA NOT IDENTIFIABLE FM SATELLITE DATA WIND FL180 080/11KT\nFCST VA CLD +6 HR: NOT AVBL\nFCST VA CLD +12 HR: NOT AVBL\nFCST VA CLD +18 HR: NOT AVBL\nRMK: VA IS NOT IDENTIFIABLE DUE TO MET CLOUD OR HAS DISSIPATED. WE \nWILL ISSUE FURTHER ADVISORY IF VA DETECTED IN SATELLITE IMAGERY.\nNXT ADVISORY: NO FURTHER ADVISORIES="
    }
  ],
  "vaac_tokyo": [
    {
      "id": "20260721_30027000_0273",
      "year": "2026",
      "volcano": "Sheveluch",
      "psn": "N5639 E16122",
      "issued": "20260721",
      "text": "FVFE01 RJTD 212158\nVA ADVISORY\nDTG: 20260721/2158Z\nVAAC: TOKYO\nVOLCANO: SHEVELUCH 300270\nPSN: N5639 E16122\nAREA: RUSSIA\nSOURCE ELEV: 3283M AMSL\nADVISORY NR: 2026/273\nINFO SOURCE: KBGS HIMAWARI-9\nERUPTION DETAILS: POSS ERUPTION OBS AT 20260721/2110Z FL350 EXTD E\nOBS VA DTG: 21/2130Z\nOBS VA CLD: SFC/FL350 N5640 E16119 - N5648 E16211 - N5635 E16226 - \nN5620 E16204 MOV E 60KT\nFCST VA CLD +6 HR: 22/0330Z SFC/FL330 N5915 E17434 - N5528 E16832 - \nN5448 E16207 - N5609 E15907 - N5617 E16015 - N5511 E16239 - N5529 \nE16641\nFCST VA CLD +12 HR: 22/0930Z SFC/FL350 N5555 E17332 - N6325 W17129 - \nN6248 W17003 - N5517 E17505 - N5320 E16123 - N5632 E15708 - N5413 \nE16405\nFCST VA CLD +18 HR: 22/1530Z SFC/FL350 N6318 W15247 - N6333 W16256 - \nN5359 E17612 - N5244 E15829 - N5631 E15601 - N5514 E17348 - N6513 \nW16411\nRMK: NIL\nNXT ADVISORY: 20260722/0000Z=",
      "img_url": "https://ds.data.jma.go.jp/svd/vaac/data/VAGFN/2026/Images/20260721_30027000_0273_QH21_01.png",
      "sat_img_url": "https://ds.data.jma.go.jp/svd/vaac/data/Sat/2026/Images/30027000/09-ir/20260721_2130_202607212158_ir.png",
      "text_url": "https://ds.data.jma.go.jp/svd/vaac/data/TextData/2026/20260721_30027000_0273_Text.html"
    },
    {
      "id": "20260721_27307000_0019",
      "year": "2026",
      "volcano": "Taal",
      "psn": "N1400 E12100",
      "issued": "20260721",
      "text": "FVFE01 RJTD 211319\nVA ADVISORY\nDTG: 20260721/1319Z\nVAAC: TOKYO\nVOLCANO: TAAL 273070\nPSN: N1400 E12100\nAREA: PHILIPPINES\nSOURCE ELEV: 311M AMSL\nADVISORY NR: 2026/19\nINFO SOURCE: HIMAWARI-9 PHIVOLCS\nERUPTION DETAILS: ERUPTION AT 20260721/1209Z FL110 REPORTED\nOBS VA DTG: 21/1250Z\nOBS VA CLD: SFC/FL110 N1404 E12056 - N1359 E12050 - N1354 E12057 - \nN1358 E12100 MOV W 15KT\nFCST VA CLD +6 HR: 21/1850Z SFC/FL130 N1329 E12051 - N1306 E12036 - \nN1322 E11953 - N1339 E12003\nFCST VA CLD +12 HR: 22/0050Z SFC/FL140 N1259 E12029 - N1227 E12001 - \nN1251 E11858 - N1320 E11911\nFCST VA CLD +18 HR: NO VA EXP\nRMK: NIL\nNXT ADVISORY: 20260721/1800Z=",
      "img_url": "https://ds.data.jma.go.jp/svd/vaac/data/VAGFN/2026/Images/20260721_27307000_0019_QH21_01.png",
      "sat_img_url": "https://ds.data.jma.go.jp/svd/vaac/data/Sat/2026/Images/27307000/09-ir/20260721_1250_202607211319_ir.png",
      "text_url": "https://ds.data.jma.go.jp/svd/vaac/data/TextData/2026/20260721_27307000_0019_Text.html"
    },
    {
      "id": "20260721_28208001_0086",
      "year": "2026",
      "volcano": null,
      "psn": "N3136 E13039",
      "issued": "20260721",
      "text": "FVFE01 RJTD 210627\nVA ADVISORY\nDTG: 20260721/0627Z\nVAAC: TOKYO\nVOLCANO: SAKURAJIMA (AIRA CALDERA) 282080\nPSN: N3136 E13039\nAREA: JAPAN\nSOURCE ELEV: 1117M AMSL\nADVISORY NR: 2026/86\nINFO SOURCE: JMA HIMAWARI-9\nERUPTION DETAILS: ERUPTED AT 20260721/0514Z FL140 STNR\nOBS VA DTG: 21/0610Z\nOBS VA CLD: SFC/FL140 N3140 E13037 - N3139 E13043 - N3131 E13043 - \nN3131 E13036 MOV S 5KT\nFCST VA CLD +6 HR: 21/1210Z SFC/FL140 N3207 E13054 - N3118 E13054 - \nN3119 E13021 - N3159 E13012\nFCST VA CLD +12 HR: 21/1810Z SFC/FL140 N3224 E13103 - N3138 E13035 - \nN3138 E12953 - N3315 E13009\nFCST VA CLD +18 HR: NO VA EXP\nRMK: NIL\nNXT ADVISORY: 20260721/1200Z=",
      "img_url": "https://ds.data.jma.go.jp/svd/vaac/data/VAGFN/2026/Images/20260721_28208001_0086_QH21_01.png",
      "sat_img_url": "https://ds.data.jma.go.jp/svd/vaac/data/Sat/2026/Images/28208001/09-ir/20260721_0610_202607210627_ir.png",
      "text_url": "https://ds.data.jma.go.jp/svd/vaac/data/TextData/2026/20260721_28208001_0086_Text.html"
    },
    {
      "id": "20260719_27303000_0769",
      "year": "2026",
      "volcano": "Mayon",
      "psn": "N1315 E12341",
      "issued": "20260719",
      "text": "FVFE01 RJTD 192213\nVA ADVISORY\nDTG: 20260719/2213Z\nVAAC: TOKYO\nVOLCANO: MAYON 273030\nPSN: N1315 E12341\nAREA: PHILIPPINES\nSOURCE ELEV: 2462M AMSL\nADVISORY NR: 2026/769\nINFO SOURCE: HIMAWARI-9 PHIVOLCS\nERUPTION DETAILS: ERUPTION AT 20260719/2148Z FL080 EXTD W REPORTED\nOBS VA DTG: 19/2200Z\nOBS VA CLD: VA NOT IDENTIFIABLE FM SATELLITE DATA WIND FL080 010/2KT\nFCST VA CLD +6 HR: NOT AVBL\nFCST VA CLD +12 HR: NOT AVBL\nFCST VA CLD +18 HR: NOT AVBL\nRMK: WE WILL ISSUE FURTHER ADVISORY IF VA IS DETECTED IN SATELLITE \nIMAGERY.\nNXT ADVISORY: NO FURTHER ADVISORIES=",
      "img_url": "https://ds.data.jma.go.jp/svd/vaac/data/VAGFN/2026/Images/20260719_27303000_0769_QH21_01.png",
      "sat_img_url": null,
      "text_url": "https://ds.data.jma.go.jp/svd/vaac/data/TextData/2026/20260719_27303000_0769_Text.html"
    }
  ],
  "vaac_alaska": [
    {
      "text": "\n000\nFVAK21 PAWU 212208\nVAAAK1\nVA ADVISORY\n\nDTG: 20260721/2206Z\n\nVAAC: ANCHORAGE\n\nVOLCANO: SHEVELUCH 300270\n\nPSN: N5639 E16122\n\nAREA: KAMCHATKA PENINSULA\n\nSOURCE ELEV: 10771 FT AMSL\n\nADVISORY NR: 2026/212\n\nRMK: PLEASE SEE FVFE01 RJTD ISSUED BY VAAC TOKYO WHICH DESCRIBES\nCONDITIONS NEAR THE VAAC ANCHORAGE AREA OF RESPONSIBILITY...TS\n\n\n\n",
      "issued": "2026-07-21T22:08:00+00:00",
      "volcano": "Sheveluch",
      "psn": "N5639 E16122"
    }
  ]
}