{
  "updated_utc": "2026-07-11T15:01Z",
  "metar": {
    "RJAA": "METAR RJAA 111330Z 16004KT 9999 VCSH NSC 24/21 Q1013 NOSIG",
    "PANC": "METAR PANC 111353Z 00000KT 10SM FEW050 FEW120 13/09 A2978 RMK AO2 SLP084 T01280094",
    "PAFA": "METAR PAFA 111353Z 00000KT 10SM BKN110 BKN220 14/13 A2965 RMK AO2 SLP044 T01440133",
    "PAED": "METAR PAED 111355Z 06005KT 10SM SCT180 13/10 A2976 RMK AO2A SLP073 T01270099 $",
    "KSEA": "METAR KSEA 111353Z 21004KT 10SM FEW020 BKN070 14/09 A2998 RMK AO2 SLP156 T01440094 $",
    "ZSPD": "METAR ZSPD 111330Z 08014G20MPS 7000 -SHRA BKN013 27/27 Q0997 BECMG TL1430 SHRA",
    "ZSSS": "SPECI ZSSS 111324Z 08012G23MPS 050V110 9999 BKN023 29/24 Q0997 BECMG TL1400 08011G17MPS",
    "RJFR": "METAR RJFR 111400Z 05012KT 9999 FEW008 26/24 Q1013",
    "VHHH": "METAR VHHH 111330Z 21012KT 9999 FEW015 30/26 Q0998 NOSIG",
    "RCTP": "METAR RCTP 111330Z 21027G38KT 9999 -RA FEW008 SCT015 BKN100 26/24 Q0990 WS ALL RWY NOSIG RMK A2926",
    "ZGSZ": "METAR ZGSZ 111400Z 17005MPS CAVOK 30/28 Q0998 NOSIG",
    "WSSS": "METAR WSSS 111330Z 18006KT 9999 FEW018 SCT080 BKN150 28/24 Q1010 NOSIG",
    "WMKK": "METAR WMKK 111330Z VRB02KT 8000 FEW030 27/25 Q1009 NOSIG",
    "WIDD": "METAR WIDD 111330Z 18004KT 9999 SCT014 27/24 Q1010",
    "VTBS": "METAR VTBS 111330Z 28007KT 9999 FEW020 28/21 Q1005 NOSIG",
    "VTBU": "METAR VTBU 111330Z 27009KT 240V300 9000 FEW020 SCT100 31/27 Q1006 NOSIG",
    "ROAH": "METAR ROAH 111330Z 16030KT 7000 SCT011 BKN020 28/26 Q1005",
    "VVDN": "METAR VVDN 111330Z 00000KT 9999 FEW020 SCT082 31/24 Q1001 NOSIG",
    "RCKH": "METAR RCKH 111330Z 06004KT 9999 FEW010CB SCT012 SCT024 BKN032 28/25 Q0997 NOSIG RMK CB SE A2946",
    "KLAX": "METAR KLAX 111353Z 00000KT 6SM HZ FEW008 SCT010 BKN016 20/16 A2989 RMK AO2 SLP119 T02000161 $",
    "KONT": "METAR KONT 111353Z 16004KT 8SM BKN280 18/15 A2990 RMK AO2 SLP111 T01830150 $",
    "KSFO": "METAR KSFO 111356Z 00000KT 10SM FEW008 BKN200 13/10 A2993 RMK AO2 SLP133 T01280100 $",
    "KOAK": "SPECI KOAK 111304Z 25004KT 9SM FEW005 BKN010 BKN200 13/11 A2991 RMK AO2 T01280111",
    "KMHR": "METAR KMHR 111315Z AUTO 14006KT 10SM CLR 12/09 A2983 RMK AO2 T01220090 $",
    "KDFW": "METAR KDFW 111353Z 18011KT 10SM SCT250 28/22 A3004 RMK AO2 SLP162 T02830217 $",
    "KIAH": "METAR KIAH 111353Z 18006KT 10SM FEW030 SCT160 SCT250 30/26 A3007 RMK AO2 SLP181 T03000256",
    "KORD": "METAR KORD 111351Z 04008KT 020V080 10SM FEW012 FEW065 BKN250 24/20 A3004 RMK AO2 SLP169 T02440200 $",
    "KJFK": "METAR KJFK 111351Z 06009KT 10SM FEW044 SCT070 SCT110 OVC200 26/19 A2996 RMK AO2 SLP143 T02610189 $",
    "KRFD": "METAR KRFD 111354Z VRB06KT 10SM SCT250 23/15 A3008 RMK AO2 SLP182 T02330150",
    "KIND": "SPECI KIND 111310Z 27005KT 5SM -RA BR FEW009 BKN014 OVC023 23/21 A3001 RMK AO2 RAB03 P0000 T02280211",
    "KDTW": "METAR KDTW 111353Z 01003KT 7SM FEW020 BKN035 BKN250 23/19 A3005 RMK AO2 SLP174 T02280194 $",
    "KMSP": "METAR KMSP 111353Z 20004KT 10SM FEW100 26/19 A3009 RMK AO2 SLP182 T02610194",
    "CYEG": "METAR CYEG 111400Z 32008KT 15SM FEW020 BKN054 BKN140 OVC250 16/13 A2986 RMK SC1SC7AC1CI1 SC TR AC TR SH DIST W-N SLP115 DENSITY ALT 3100FT",
    "EHAM": "METAR EHAM 111325Z 04010KT 360V080 9999 FEW020 24/17 Q1021 NOSIG",
    "EBBR": "METAR EBBR 111320Z 07007KT 360V110 CAVOK 31/16 Q1019 NOSIG",
    "EDDF": "METAR EDDF 111320Z AUTO 04009KT 330V080 CAVOK 31/12 Q1018 NOSIG",
    "EDFH": "METAR EDFH 111320Z 05006KT 330V130 CAVOK 29/11 Q1020",
    "EDDL": "METAR EDDL 111320Z AUTO 04011KT 360V090 CAVOK 30/13 Q1019 NOSIG",
    "EDDK": "METAR EDDK 111320Z AUTO 03006KT 290V100 CAVOK 31/14 Q1019 NOSIG",
    "EBLG": "METAR EBLG 111320Z 04009KT CAVOK 30/12 Q1019 NOSIG",
    "LSZH": "METAR LSZH 111320Z 09008KT 040V140 9999 FEW075 31/12 Q1017 NOSIG",
    "LIMC": "METAR LIMC 111320Z 24009KT 190V300 CAVOK 32/17 Q1014 NOSIG",
    "LIRF": "METAR LIRF 111320Z 20010KT 170V240 CAVOK 31/23 Q1016 NOSIG",
    "EINN": "METAR EINN 111330Z 06010KT CAVOK 25/15 Q1023 NOSIG",
    "EGLL": "METAR EGLL 111320Z AUTO 08011KT 050V110 9999 NCD 29/12 Q1021",
    "EGSS": "METAR EGSS 111320Z AUTO 06011KT 9999 NCD 27/14 Q1022",
    "EPWA": "METAR EPWA 111330Z 32006KT 290V360 9999 FEW038CB SCT040 21/13 Q1016 TEMPO 4000 SHRA",
    "UHPP": "METAR UHPP 111400Z VRB01MPS CAVOK 11/08 Q1012 R34L/CLRD62 NOSIG RMK QFE756/1008",
    "EFHK": "METAR EFHK 111320Z 03009KT 350V050 CAVOK 27/16 Q1016 NOSIG",
    "LBBG": "METAR LBBG 111330Z AUTO 13016KT 9999 NCD 28/17 Q1016 NOSIG",
    "LTAC": "METAR LTAC 111320Z VRB03KT CAVOK 29/05 Q1018 NOSIG RMK RWY21C 20007KT 160V230 RWY03L 14005KT 080V210 RWY21R 26006KT 190V310 RWY03R VRB03KT RWY21L VRB05KT",
    "UBBB": "METAR UBBB 111330Z 36014KT CAVOK 29/17 Q1011 NOSIG",
    "UTAA": "METAR UTAA 111400Z 28018KT 9999 FEW100 40/15 Q1006 R88/CLRD70 NOSIG",
    "UACC": "METAR UACC 111330Z 07008MPS 9999 FEW036CB BKN040 31/16 Q1012 NOSIG RMK QFE728/0970",
    "UAAA": "METAR UAAA 111330Z VRB01MPS 9999 FEW050CB SCT200 34/08 Q1005 NOSIG",
    "UZTT": "METAR UZTT 111330Z 20010G22KT CAVOK 37/14 Q1001 NOSIG",
    "ZWWW": "METAR ZWWW 111330Z VRB01MPS CAVOK 32/09 Q1006 NOSIG",
    "ZLXY": "METAR ZLXY 111400Z 22001MPS 9999 -SHRA FEW015 SCT033 FEW040CB 26/22 Q1008 NOSIG",
    "ZBAA": "METAR ZBAA 111330Z 15002MPS 9999 -RA SCT010 BKN040 27/26 Q1002 NOSIG",
    "ZBHH": "METAR ZBHH 111400Z 19002MPS 150V210 3000 BR SCT030 19/19 Q1011 BECMG TL1530 2500",
    "ZSQD": "METAR ZSQD 111400Z 16007MPS 9999 BKN012 27/25 Q1007 NOSIG",
    "ZMCK": "METAR ZMCK 111330Z 30008MPS 9999 FEW030CB BKN033 10/09 Q1007 NOSIG RMK QFE640.9 93 NT",
    "UUEE": "METAR UUEE 111330Z 10004MPS 070V130 9999 SCT047CB 27/16 Q1011 R24L/CLRD62 R24C/CLRD62 TEMPO -TSRA BKN020CB",
    "UUDD": "SPECI UUDD 111315Z 20008G13MPS 180V240 9999 BKN014CB 22/18 Q1012 R13R/CLRD65 TEMPO -TSRA",
    "ULLI": "METAR ULLI 111330Z 04005MPS 010V090 9999 FEW046 28/19 Q1014 R88/090065 NOSIG",
    "USSS": "METAR USSS 111330Z 17004MPS 140V210 9999 SCT033CB 27/21 Q1011 R08R/CLRD60 R08L/210060 NOSIG RMK QFE738/0985",
    "UNNT": "METAR UNNT 111330Z 01005MPS CAVOK 18/11 Q1013 R07/CLRD// R34/////// NOSIG RMK QFE750/1000",
    "UNKL": "METAR UNKL 111330Z 32001MPS CAVOK 16/13 Q1012 R29/CLRD// NOSIG RMK QFE733",
    "UIBB": "METAR UIBB 111330Z AUTO 30002MPS 9999 // NSC 13/09 Q1010 RMK QFE714/0953",
    "UEEE": "METAR UEEE 111330Z 36003MPS CAVOK 16/10 Q1006 R23/09//61 NOSIG RMK QFE746",
    "UHHH": "METAR UHHH 111330Z 21002MPS CAVOK 23/23 Q1003 R23L/090060 NOSIG RMK QFE746/0995",
    "UHSS": "SPECI UHSS 111317Z 19004MPS 2900 0700N R19/1600U FG OVC002 18/18 Q1008 R19/290060 NOSIG RMK QBB060 MT OBSC QFE755/1007"
  },
  "taf": {
    "RJAA": "TAF RJAA 111105Z 1112/1218 17006KT 9999 FEW030 TEMPO 1206/1209 FEW003 BKN008 TEMPO 1209/1218 FEW001 BKN005",
    "PANC": "TAF PANC 111459Z 1115/1218 18005KT P6SM FEW045 BKN080 BKN150 FM111700 17010G18KT P6SM OVC060 FM112000 22012G20KT P6SM OVC060 FM120300 16012G20KT P6SM VCSH OVC060 FM121300 15008KT P6SM -SHRA SCT030 OVC060",
    "PAFA": "TAF PAFA 111122Z 1112/1218 09004KT P6SM SCT100 FM112100 19015G28KT P6SM BKN080 FM120600 25008KT P6SM OVC100",
    "PAED": "TAF PAED 111300Z 1113/1219 03004KT 9999 FEW055 SCT180 QNH2975INS BECMG 1120/1121 26010G20KT 9999 SCT200 QNH2975INS BECMG 1208/1209 30005KT 9999 -SHRA BKN030 QNH2979INS TX16 TN10/1212Z",
    "KSEA": "TAF KSEA 111458Z 1115/1218 20004KT P6SM SCT025 BKN070 FM112000 23008KT P6SM SCT035 SCT060 FM120300 22015G23KT P6SM BKN035 BKN060 FM120900 23005KT P6SM SCT020 BKN060",
    "ZSPD": "TAF ZSPD 110924Z 1112/1218 10015G24MPS 6000 SHRA BKN013 TX28/1112Z TX30/1206Z TN26/1121Z TEMPO 1113/1117 +SHRA BKN011 FEW030CB TEMPO 1120/1202 2800 +SHRA BKN009 FEW030CB BECMG 1202/1204 16017G26MPS -SHRA BKN016 TEMPO 1207/1211 SHRA BKN013 FEW030CB BECMG 1213/1215 16012G21MPS",
    "ZSSS": "TAF ZSSS 110924Z 1112/1218 10011G22MPS 6000 SHRA BKN013 TX29/1112Z TX31/1206Z TN27/1121Z TEMPO 1113/1117 +SHRA BKN011 FEW030CB TEMPO 1120/1202 2800 +SHRA BKN009 FEW030CB BECMG 1202/1204 16015G24MPS -SHRA BKN020 BECMG 1207/1209 16010G18MPS TEMPO 1207/1211 SHRA BKN011",
    "RJFR": "TAF RJFR 111105Z 1112/1218 06012KT 9999 FEW030 SCT050 TEMPO 1209/1215 BKN005 BKN050 TEMPO 1215/1218 2000 BR FEW003 BKN005",
    "VHHH": "TAF VHHH 111400Z 1115/1221 22015KT 9999 FEW015 TX34/1206Z TN29/1122Z",
    "RCTP": "TAF RCTP 111100Z 1112/1218 23023G45KT 6000 FEW010 BKN018 BKN040 TEMPO 1112/1118 4000 SHRA FEW006 BKN011 BKN025 TEMPO 1118/1124 23020G40KT BECMG 1200/1202 20012G30KT 9999 FEW015 BKN032 TEMPO 1203/1206 21010G25KT 5000 SHRA FEW010 BKN016 BKN030 BECMG 1206/1208 24010KT TEMPO 1214/1218 18005KT",
    "ZGSZ": "TAF ZGSZ 110903Z 1112/1218 22004MPS 8000 SCT040 TX31/1112Z TX34/1206Z TN29/1122Z",
    "WSSS": "TAF WSSS 111100Z 1112/1218 16008KT 9999 FEW015 SCT020",
    "WMKK": "TAF WMKK 111100Z 1112/1218 VRB03KT 9000 FEW030",
    "VTBS": "TAF VTBS 111100Z 1112/1218 23008KT 9999 FEW020 TEMPO 1112/1116 -TSRA FEW018CB SCT020 BKN080 TEMPO 1210/1214 VRB15KT 4000 TSRA FEW018CB SCT020 BKN080",
    "VTBU": "TAF VTBU 111100Z 1112/1212 24008KT 9999 FEW020",
    "ROAH": "TAF ROAH 111105Z 1112/1218 16030KT 9999 FEW010 BKN015 TEMPO 1112/1121 16035G50KT TEMPO 1121/1206 16025G38KT BECMG 1209/1212 16019KT",
    "VVDN": "TAF VVDN 111100Z 1112/1212 20007KT 9999 FEW020 BECMG 1206/1207 02010KT",
    "RCKH": "TAF COR RCKH 111123Z 1112/1218 26008G18KT 8000 FEW015 BKN032 TEMPO 1117/1122 23013G25KT 5000 SHRA FEW010 FEW015CB BKN018 BECMG 1200/1202 17010KT 9999 TEMPO 1200/1204 4000 SHRA FEW006 FEW010CB BKN014 TEMPO 1214/1218 4000 SHRA FEW006 FEW010CB BKN014",
    "KLAX": "TAF KLAX 111235Z 1113/1218 17005KT P6SM OVC012 FM111700 25008KT P6SM SCT008 BKN014 FM111900 26010KT P6SM FEW008 SCT014 FM120600 25006KT P6SM BKN015 FM120900 VRB03KT P6SM OVC015",
    "KONT": "TAF KONT 111120Z 1112/1218 VRB03KT P6SM FEW250 TEMPO 1112/1116 5SM BR SCT006 FM111600 VRB03KT P6SM SCT150 FM112100 25011G18KT P6SM SCT150 FM120100 25010KT P6SM SCT150 FM120400 25005KT P6SM SCT150 FM120800 VRB03KT P6SM FEW150",
    "KSFO": "TAF KSFO 111132Z 1112/1218 29011KT P6SM SCT009 FM111600 30015KT P6SM SKC FM120800 29011KT P6SM SCT100 FM121500 27006KT P6SM SCT015",
    "KOAK": "TAF KOAK 111327Z 1113/1218 25004KT P6SM FEW005 BKN010 BKN200 FM111600 28011KT P6SM FEW010 FM121200 27007KT P6SM SCT010",
    "KMHR": "TAF KMHR 111120Z 1112/1212 VRB05KT P6SM FEW250 FM120000 23010KT P6SM BKN250 FM120600 VRB05KT P6SM BKN200",
    "KDFW": "TAF KDFW 111457Z 1115/1218 18011KT P6SM SCT250",
    "KIAH": "TAF KIAH 111454Z 1115/1218 17006KT P6SM VCTS SCT025 SCT035CB TEMPO 1115/1119 VRB10G18KT 4SM TSRA SCT025CB BKN120 FM112300 16007KT P6SM FEW035 BKN100 FM120300 17003KT P6SM FEW045",
    "KORD": "TAF KORD 111123Z 1112/1218 05012KT P6SM FEW012 BKN250 FM120400 01005KT P6SM SKC FM121500 06008KT P6SM SKC",
    "KJFK": "TAF KJFK 111431Z 1115/1218 05008KT P6SM SCT080 BKN250 TEMPO 1115/1119 5SM -SHRA BKN050 FM111900 10009KT P6SM SCT050 BKN250 FM112100 12009KT P6SM FEW080 BKN250 FM120300 09006KT P6SM FEW080 BKN250 FM120600 05005KT P6SM FEW080 FM121500 10009KT P6SM FEW080",
    "KRFD": "TAF KRFD 111123Z 1112/1212 04010KT P6SM SCT250 FM120600 VRB04KT P6SM SKC",
    "KIND": "TAF KIND 111409Z 1114/1218 28005KT P6SM VCSH SCT010 BKN035 TEMPO 1114/1115 3SM -SHRA BR BKN009 OVC015 FM111500 28005KT P6SM VCSH SCT020 BKN035 TEMPO 1115/1116 BKN020 FM111800 05006KT P6SM BKN035",
    "KDTW": "TAF KDTW 111420Z 1114/1218 03007KT P6SM SCT035 TEMPO 1114/1116 BKN035 FM111600 08007KT P6SM SCT050 FM120000 05008KT P6SM SKC",
    "KMSP": "TAF KMSP 111447Z 1115/1218 19005KT P6SM FEW100 FM111800 18007KT P6SM FEW070 FEW250 FM121400 21007KT P6SM FEW250",
    "CYEG": "TAF CYEG 111440Z 1115/1212 33005KT P6SM FEW020 SCT060 BKN090 TEMPO 1115/1116 VRB15G25KT P6SM -SHRA VCTS BKN020 BKN060 OVC090CB FM111600 36010KT P6SM SCT008 BKN040 OVC080 TEMPO 1116/1120 P6SM -SHRA BKN008 BKN040 OVC080 PROB30 1116/1120 VRB20G30KT 4SM TSRA BKN008 BKN040 OVC080CB FM112000 30012G22KT P6SM SCT012 BKN050 OVC080 TEMPO 1120/1122 P6SM -SHRA VCTS BKN012 BKN050 OVC080CB FM112200 30012KT P6SM FEW020 SCT080 BKN120 BECMG 1202/1204 VRB03KT FM120800 12005KT P6SM FEW006 FEW080 FM121000 12005KT P6SM SCT004 PROB40 1210/1212 1/2SM FG VV002 RMK NXT FCST BY 111800Z",
    "EHAM": "TAF EHAM 111109Z 1112/1218 05010KT CAVOK",
    "EBBR": "TAF EBBR 111112Z 1112/1218 04008KT CAVOK",
    "EDDF": "TAF EDDF 111100Z 1112/1218 04009KT CAVOK TEMPO 1118/1121 03014KT",
    "EDFH": "TAF EDFH 111100Z 1112/1212 08007KT CAVOK",
    "EDDL": "TAF EDDL 111100Z 1112/1218 04010KT CAVOK BECMG 1119/1122 03004KT BECMG 1207/1210 03009KT",
    "EDDK": "TAF EDDK 111100Z 1112/1218 06007KT CAVOK BECMG 1121/1124 VRB03KT BECMG 1207/1210 04006KT",
    "EBLG": "TAF EBLG 111112Z 1112/1218 05008KT CAVOK",
    "LSZH": "TAF LSZH 111425Z 1115/1221 08008KT CAVOK TX34/1115Z TN16/1203Z TX33/1215Z PROB40 TEMPO 1115/1118 08010KT 9999 FEW060 BECMG 1119/1122 32004KT BECMG 1206/1208 04005KT BECMG 1208/1210 07011KT BECMG 1217/1219 05005KT",
    "LIMC": "TAF LIMC 111100Z 1112/1218 VRB05KT CAVOK PROB40 TEMPO 1117/1120 26015G30KT 4000 TSRA",
    "LIRF": "TAF LIRF 111100Z 1112/1218 22010KT CAVOK BECMG 1116/1118 VRB05KT BECMG 1209/1211 27010KT",
    "EINN": "TAF EINN 111100Z 1112/1212 04009KT CAVOK PROB30 TEMPO 1205/1208 BKN010 BECMG 1208/1210 08010KT",
    "EGLL": "TAF EGLL 111053Z 1112/1218 07009KT CAVOK TEMPO 1123/1207 BKN012 PROB30 TEMPO 1201/1207 BKN008",
    "EGSS": "TAF EGSS 111053Z 1112/1218 05011KT CAVOK BECMG 1121/1124 BKN012 TEMPO 1200/1206 BKN007 BECMG 1206/1209 CAVOK",
    "EPWA": "TAF EPWA 111430Z 1115/1215 33010KT 9999 SCT030 TEMPO 1115/1120 4000 SHRA BKN025CB PROB40 TEMPO 1115/1118 32015G25KT 2500 TSRA BECMG 1123/1202 26007KT BKN010 TEMPO 1203/1210 2500 -DZ BR BKN003 OVC007 BECMG 1210/1213 BKN025",
    "UHPP": "TAF UHPP 111342Z 1115/1221 36003G12MPS 9999 NSC TX28/1203Z TN14/1117Z TEMPO 1202/1209 18005MPS",
    "EFHK": "TAF EFHK 111429Z 1115/1215 01009KT CAVOK TEMPO 1115/1118 SCT035CB PROB30 TEMPO 1116/1118 7000 TSRA BECMG 1118/1120 19012KT 7000 TSRA FEW045CB BECMG 1121/1123 03007KT CAVOK BECMG 1207/1209 SCT035CB TEMPO 1209/1215 6000 TSRA",
    "LBBG": "TAF LBBG 111100Z 1112/1212 13012KT 9999 SCT045 BECMG 1118/1120 VRB04KT BECMG 1208/1210 12012KT",
    "LTAC": "TAF AMD LTAC 111233Z 1112/1212 VRB02KT CAVOK",
    "UBBB": "TAF UBBB 111057Z 1112/1212 34012KT CAVOK TX30/1112Z TN21/1201Z TEMPO 1112/1118 01018KT TEMPO 1118/1124 32010KT FEW012 BECMG 1200/1202 33018G28KT TEMPO 1202/1212 34022G32KT SCT010 FEW060CB",
    "UTAA": "TAF UTAA 111045Z 1112/1212 34018KT 6000 SCT050 TX40/1211Z TEMPO 1112/1114 30020G30KT 2000 BLDU TEMPO 1114/1118 29014G24KT 4000 DRDU TEMPO 1118/1205 28016KT TEMPO 1205/1212 30018G28KT 3000 DRDU",
    "UACC": "TAF UACC 111103Z 1112/1212 VRB01MPS 9999 SCT040 BKN100 TX32/1209Z TN18/1201Z TEMPO 1112/1116 05005G10MPS SCT030CB PROB40 TEMPO 1112/1116 TS BKN030CB BECMG 1116/1118 06005MPS",
    "UAAA": "TAF UAAA 111103Z 1112/1212 21002MPS 9999 FEW050CB TX35/1210Z TN19/1201Z TEMPO 1112/1116 03005MPS TEMPO 1204/1212 34005MPS",
    "UZTT": "TAF COR UZTT 111100Z 1112/1212 20010KT 7000 NSC TX38/1211Z TN25/1200Z TEMPO 1112/1118 30015KT FEW060CB",
    "ZWWW": "TAF ZWWW 110902Z 1112/1218 36004MPS CAVOK TX37/1209Z TN26/1123Z TN28/1218Z BECMG 1114/1115 18004MPS BECMG 1202/1203 36004MPS BECMG 1214/1215 18004MPS",
    "ZLXY": "TAF AMD ZLXY 111434Z 1112/1212 26004MPS 5000 HZ NSC TX35/1207Z TN25/1118Z BECMG 1113/1114 -RA TEMPO 1115/1119 SHRA SCT040CB OVC050 BECMG 1200/1201 BR",
    "ZBAA": "TAF ZBAA 110900Z 1112/1218 12004MPS 3500 BR NSC TX30/1207Z TN24/1121Z TN25/1218Z TEMPO 1112/1118 TSRA SCT030CB BKN040",
    "ZBHH": "TAF ZBHH 110906Z 1112/1212 24004MPS 3500 -RA BKN030 TX24/1208Z TN15/1122Z TEMPO 1112/1116 1600 RA BECMG 1116/1117 2000 BR TEMPO 1118/1121 0800 FG BECMG 1200/1201 6000",
    "ZSQD": "TAF ZSQD 110901Z 1112/1212 16006MPS 3500 BR BKN015 TX32/1204Z TN25/1120Z BECMG 1201/1202 13012G18MPS BECMG 1208/1209 10007MPS",
    "ZMCK": "TAF ZMCK 111046Z 1112/1218 30007MPS 9999 RA FEW020 FEW027CB BKN030 TN07/1121Z TX17/1207Z BECMG 1201/1203 31009MPS NSW FEW030CB SCT033 BECMG 1210/1212 VRB02MPS",
    "UUEE": "TAF UUEE 111350Z 1115/1215 15003G08MPS 9999 BKN020 TX26/1115Z TN17/1201Z TEMPO 1115/1121 VRB19MPS 2100 -TSRA SQ BKN016CB TEMPO 1121/1206 3500 -SHRA BKN006 BKN020CB TEMPO 1210/1215 3000 -TSRA BKN020CB",
    "UUDD": "TAF UUDD 111355Z 1115/1221 34003MPS 6000 -RA FEW007 BKN016 TX21/1211Z TN16/1201Z TEMPO 1115/1121 VRB16MPS 1000 TSRAGR SQ BKN016CB TEMPO 1121/1206 3000 -SHRA BR BKN006 BKN016CB TEMPO 1206/1219 02008G16MPS 2000 TSRA BKN016CB",
    "ULLI": "TAF AMD ULLI 111440Z 1114/1215 06006G13MPS 6000 BKN016 TX30/1115Z TN20/1201Z TEMPO 1114/1122 VRB28MPS 1000 TSRAGR SQ BKN010 BKN017CB BECMG 1122/1123 02003MPS TEMPO 1122/1206 0400 FG BKN002 BECMG 1206/1207 05005G12MPS",
    "USSS": "TAF USSS 111357Z 1115/1215 17003G14MPS 9999 SCT033CB FM111700 21003G08MPS 6000 SCT016CB TEMPO 1117/1201 0300 -TSRA FG FM120100 25003G13MPS 9999 BKN020CB TEMPO 1201/1215 -TSRA",
    "UNNT": "TAF UNNT 111400Z 1115/1215 01003G08MPS 8000 BKN040 TX24/1210Z TN13/1122Z TEMPO 1115/1118 02008G14MPS TEMPO 1203/1212 05008G14MPS",
    "UNKL": "TAF UNKL 111350Z 1115/1215 32003MPS 6000 SCT040 TEMPO 1118/1120 1000 BR BECMG 1120/1122 0400 FG VV002 BECMG 1123/1201 6000 NSW SCT040 BECMG 1204/1206 01005MPS BECMG 1208/1211 09003MPS",
    "UIBB": "TAF UIBB 111400Z 1115/1215 30003MPS 9999 FEW001 BKN020CB TEMPO 1202/1212 VRB08MPS",
    "UEEE": "TAF UEEE 111400Z 1115/1221 34003G10MPS 9999 SCT030CB BKN100",
    "UHHH": "TAF UHHH 111352Z 1115/1221 22003MPS 5000 BR FEW010 SCT016CB TX30/1205Z TN21/1118Z FM111700 VRB01MPS 0400 FG BKN002 BECMG 1121/1123 5000 BR SCT004 FM120200 24003MPS 9999 SCT020CB TEMPO 1202/1209 26008MPS",
    "UHSS": "TAF UHSS 111350Z 1115/1221 18003MPS 0550 FG BKN002 BKN016CB BECMG 1201/1204 9999 NSW BKN016CB"
  },
  "atis": {
    "RJAA": "[Arrival ATIS] RJAA ARR ATIS U 0050Z M0030 (APCH)ILS Z RWY34R LDG RWY 34R DEP RWY 34L DEP FREQ 124.2. TWY A1 CLSD. OBSERVE GEAR DOWN OPS PROC ON FNL. M 210030Z 24011KT 25KM FEW007ST BKN010CU 26/23 Q1000/A2955= Q/TWO NINE FIVE FIVE STP\n[Departure ATIS] RJAA DEP ATIS U 0049Z M0030 (APCH)ILS Z RWY34R LDG RWY 34R DEP RWY 34L DEP FREQ 124.2. TWY A1 CLSD. OBSERVE GEAR DOWN OPS PROC ON FNL. M 210030Z 24011KT 25KM FEW007ST BKN010CU 26/23 Q1000/A2955= Q/TWO NINE FIVE FIVE STP",
    "PANC": "[Arrival ATIS] PANC ARR ATIS D 2353Z ANC ATIS INFO D 2353Z. 26007KT 10SM FEW050 FEW120 SCT200 13/09 A3017 (THREE ZERO ONE SEVEN). 7R APPROACHES IN USE. LANDING RWY 7R, DEPARTING RWY 33. NOTICE TO AIRMEN. RWY 7L CLSD. CHECK NOTAMS FOR TAXIWAY CLOSURES. CAUTION FOR BIRD ACTIVITY IN THE ARPT AREA. CONTACT TOWER 118.3 FOR TAXI. ...ADVS YOU HAVE INFO D.\n[Departure ATIS] PANC DEP ATIS L 0953Z ANC ATIS INFO L 0953Z. 23003KT 10SM FEW045 FEW060 FEW080 FEW220 14/10 A2980 (TWO NINER EIGHT ZERO). 7R, VISUAL APPROACHES IN USE. LNDG AND DEPG RWY 7L, LANDING RWY 7R, 7L, D",
    "KSEA": "[Arrival ATIS] KSEA ARR ATIS H 1253Z SEA ATIS INFO H 1253Z. 25004KT 10SM FEW015 OVC018 13/11 A3017 (THREE ZERO ONE SEVEN). ILS, RYS 16R AND 16L , APCH IN USE. DEPG RWY 16L, DEPG ACFT PLAN AND BRIEF NUMBERS FOR BOTH RWYS 16L AND 16C. SIMUL APCHS IN USE, BFI & SEA. TRAFFIC BELOW YOU ON FINAL. SIMUL APCHS IN USE TO PARA RYS. NOTAMS... BIRD ACTIVITY VICINITY ARPT. ...ADVS YOU HAVE INFO H.\n[Departure ATIS] KSEA DEP ATIS I 1253Z SEA ATIS INFO I 1253Z. 19004KT 10SM FEW010 OVC060 14/11 A2996 (TWO NINER NINER SIX). ILS AND CHARTED VISUAL APPROACH RWYS 16R AND 16L , APCH IN USE. DEPG RWY 16L. SIMUL APCHS IN USE TO PARA RYS. NOTAMS... BIRD ACTIVITY VICINITY ARPT. ...ADVS YOU HAVE INFO I.",
    "ZSPD": "[Arrival ATIS] ZSPD ARR ATIS V 0030Z EXP ILS APCH LDG RWY 17R & 16L WIND RWY 17R TDZ 120/4MPS MID 120/4MPS END 110/4MPS RWY 16L TDZ 120/5MPS MID 120/4MPS END 120/4MPS VIS RWY 17R TDZ 6000M MID 5000M END 5000M VIS RWY 16L TDZ 10000M MID 9000M END 6000M BR CLD BKN 180M T 25 /DP 25 QNH 1010 HPA CAUTION THE BIRDS NEAR THE RUNWAY RWY 17L/17R/16L/16R RWYCC 5/5/5 ISSUED AT 2202 WET/WET/WET DPT NR/NR/NR COV 100PCT/100PCT/100PCT ADZ YOU HAVE INFO V.\n[Departure ATIS] ZSPD DEP ATIS V 0030Z DEP RWY 17L & 16R WIND RWY 17L TDZ 110/5MPS MID 120/4MPS VRB BTN 090/ AND 160/ END 110/4MPS RWY 16R TDZ 120/5MPS MID 120/5MPS END 120/5MPS VIS RWY 17L TDZ 8000M MID 10000M END 6000M VIS RWY 16R TDZ 7000M MID 6000M END 7000M BR CLD BKN 180M T 25 /DP 25 QNH 1010 HPA CAUTION THE BIRDS NEAR THE RUNWAY RWY 17L/17R/16L/16R RWYCC 5/5/5 ISSUED AT 2202 WET/WET/WET DPT NR/NR/NR COV 100PCT/100PCT/100PCT ADZ YOU HAVE INFO V.",
    "ZSSS": "[Arrival ATIS] ZSSS ARR ATIS N 0030Z EXP ILS APCH LDG RWY 18L WIND RWY 18L TDZ 120/2MPS MID 160/2MPS END 140/2MPS VIS RWY 18L TDZ 7000M MID 7000M END 10000M BR CLD BKN 480M T 27 /DP 24 QNH 1010 HPA QNH OF SHANGHAI TERMINAL CONTROL AREA 1010 HPA ADZ YOU HAVE INFO N.\n[Departure ATIS] ZSSS DEP ATIS P 1245Z DEP RWY 18R WIND RWY 18R TDZ 180/2MPS MID 170/2MPS END 150/2MPS VIS RWY 18R TDZ 10000M MID 10000M END 10000M CLD FEW 990M T 27 /DP 24 QNH 1007 HPA QNH OF SHANGHAI TERMINAL CONTROL AREA 1008 HPA ADZ YOU HAVE INFO P.",
    "VHHH": "[Arrival ATIS] VHHH ARR ATIS B 0004Z ARRIVALS, RWY 25R/L. EXP RNAV TRANSITION TO ILS APCH, RWY 25R. RNP APCH IS AVBL ON REQ, RWY 25R. EXP ILS APCH RWY 25L CAUTION POSSIBLE GP FLUCTUATION RWY 25L. WIND RWY 25L 160/08KT RWY 25R 220/06KT. VIS RWY 25L 10KM RWY 25R 10KM. CLD FEW 1200FT SCT 2500FT. T30 DP25. QNH 1011HPA. ACK INFO B ON FIRST CTC WITH APP.\n[Departure ATIS] VHHH DEP ATIS P 0010Z DEPARTURES, RWY 25C/L. INDEPENDENT PARALLEL DEPARTURE IN PROGRESS. WIND RWY 25L 220/05KT RWY 25C 220/05KT. VIS RWY 25L 10KM RWY 25C 10KM. CLD FEW 1200FT SCT 2500FT. T30 DP25. QNH 1011HPA. ACK INFO P ON FIRST CTC WITH DELIVERY .",
    "RCTP": "[Arrival ATIS] RCTP ARR ATIS N 0030Z EXP ILS APCH RWY23R AND RWY23L ARR/DEP. WIND 220/11KT VIS 10 KM OR MORE CLD FEW 2000FT BKN 20000FT T 31 DP 24 QNH 1010HPA NOSIG DUE TO FLOW CONTROL BY HONGKONG F-I-R, TRAFFIC CONCERNED MAY BE DELAYED. CTN BIRD ACTIVITY IN THE VCY OF THE AD. INFORM TAIPEI APCH OR TAIPEI TOWER ON INITIAL CONTACT YOU HAVE INFORMATION N\n[Departure ATIS] RCTP DEP ATIS L 2330Z EXP ILS APCH RWY23R AND RWY23L ARR/DEP. WIND 210/08KT VIS 10 KM OR MORE CLD FEW 1500FT BKN 20000FT T 29 DP 23 QNH 1011HPA NOSIG DUE TO FLOW CONTROL BY HONGKONG F-I-R, TRAFFIC CONCERNED MAY BE DELAYED. CTN BIRD ACTIVITY IN THE VCY OF THE AD. INFORM TAIPEI APCH OR TAIPEI TOWER ON INITIAL CONTACT YOU HAVE INFORMATION L",
    "ZGSZ": "[Arrival ATIS] ZGSZ ARR ATIS V 0000Z EXP ILS APCH 15 EXP ILS OR VIS APCH 16R WIND 160/5MPS VIS 9999M CLD FEW 480M T 29 /DP 27 QNH 1011 HPA INDEPENDENT PARALLEL DEPARTURES DEPENDENT PARALLEL APPROACHES MISSED APPROACH ALTITUDE SETTING 1200METERS WHEN AIRBORNE CONTACT ZHUHAI APPROACH EXPECTED RNP ILS DME Z APPROACH ADZ YOU HAVE INFO V.\n[Departure ATIS] ZGSZ DEP ATIS O 2200Z DEP RWY 15 WIND 150/4MPS VIS 9999M CLD SCT 600M /SCT 1200M T 28 /DP 26 QNH 1010 HPA DELIVERY FREQ 121.65 SINGLE RUNWAY OPERATION MISSED APPROACH ALTITUDE SETTING 1200METERS WHEN AIRBORNE CONTACT ZHUHAI APPROACH EXPECTED RNP ILS DME Z APPROACH ADZ YOU HAVE INFO O.",
    "WSSS": "[Arrival ATIS] WSSS ARR ATIS J 0030Z METREPORT 0030Z ILS APCHRWY 20R SIMUL INDEPENDENT ILS AND VISUAL APPROACHES ARE CONDUCTED ON RWY 20. TWY W 9 CLOSED, RWY 02C 20C RAPID EXIT TAXIWAY INDICATOR LIGHTS OFF WIND VRB BTN240 AND040 02KT VIS 10KM CLD SCT 1600FT FEW TCU 1800FT T29 DP25 QNH 1012HPA NOSIG ACK ATIS J\n[Departure ATIS] WSSS DEP ATIS K 0030Z METREPORT 0030Z RWY 20C SIMUL INDEPENDENT ILS AND VISUAL APPROACHES ARE CONDUCTED ON RWY 20. TWY W 9 CLOSED, RWY 02C 20C RAPID EXIT TAXIWAY INDICATOR LIGHTS OFF WIND VRB BTN050 AND130 01KT VIS 10KM CLD SCT 1600FT FEW TCU 1800FT T29 DP25 QNH 1012HPA NOSIG DEP,INITIAL CMB 3000FT ACK ATIS K",
    "WMKK": "[Arrival ATIS] WMKK ARR ATIS A 0035Z WMKK ARR INFO A. TIME 0030. INDEPENDENT PARALLEL APPROACHES FOR RWY 14 L AND 15 ARE IN PROGRESS. EXP RNAV / ILS APCH FOR RWY 14 LEFT. EXP RNAV / ILS APCH FOR RWY 15. WIND RWY 14L DIRECTION NOT AVBL SPEED NOT AVBL. WIND RWY 15 DIRECTION NOT AVBL SPEED NOT AVBL. VIS RWY 14L TDZ NOT AVBL. VIS RWY 15 TDZ NOT AVBL. CLD FEW CB 1700 FT. T 28. DP 24. QNH 1012. NOSIG. AT FIRST CONTACT WITH LUMPUR RADAR, NOTIFY RCPT OF A\n[Departure ATIS] WMKK DEP ATIS Y 1504Z WMKK DEP INFO Y. TIME 1500. INDEPENDENT PARALLEL DEPARTURES FOR RWY 14 R AND 15 ARE IN PROGRESS. RWY 14 RIGHT. RWY 15. WIND RWY 14R DIRECTION NOT AVBL SPEED NOT AVBL. WIND RWY 15 DIRECTION NOT AVBL SPEED NOT AVBL. VIS RWY 14R TDZ NOT AVBL. VIS RWY 15 TDZ NOT AVBL. CLD FEW 3000 FT. T 28. DP 25. QNH 1012. NOSIG. ALL DEP ACFT TO CONTACT LUMPUR DEP AT 135 DECIMAL 25 MHZ WHEN ABN. AT FIRST CONTACT WITH LUMPUR GROUND, NOTIFY RCPT OF Y",
    "VTBS": "[Arrival ATIS] VTBS ARR ATIS G 0031Z EXP ILS Z APCH ARR RWY 19 OR RNP APCH RWY 20R , ,PILOT SHALL ADZ BKK APCH ON INITIAL CTC IF UNA TO CONDUCT RNP APCH DUE TO OPERATIONAL CONSTRAINT 0030Z WIND 030/3KT VRB BTN 020/ AND 090/ VIS 10KM CLD FEW 2000FT T29 DP28 QNH 1011HPA TREND NOSIG ADZ BKK APCH ON INITIAL CONTACT THAT YOU HAVE INFO G\n[Departure ATIS] VTBS DEP ATIS P 0030Z VTBS DEP ATIS P 0030Z SIMULTANEOUS INDEPENDENT PARL DEP IN PROGRESS DEP RWY 20L OR DEP RWY 19 , ,AFT AIRBORNE ALL DEPARTING ACFT SHALL CTC 119.25 0030Z WIND 090/3KT VRB BTN 050/ AND 160/ VIS 10KM CLD FEW 2000FT T29 DP28 QNH 1011HPA TREND NOSIG ADZ GND WHEN INITIAL CONTACT YOU HAVE INFO P",
    "VTBU": "[Arrival ATIS] VTBU ARR ATIS U 0430Z VTBU ARR ATIS U 0430Z RNP RWY 18 TRL FL130 MOBILE ACFT ARST SYSTEM INSTL ATP SIX HUNDRED AND TEN METERS FM THR RWY 36 CABLE HGT 3 INCHES. 0430Z WIND 360/6KT VRB BTN 320/ AND 020/ VIS 10KM CLD FEW 2000FT T34 DP27 QNH 1010HPA TREND NOSIG ADZ CONTROLLER WHEN INITIAL CONTACT YOU HAVE INFO U\n[Departure ATIS] VTBU DEP ATIS D VTBU ARR/DEP DATIS RPT VTBU ARR ATIS D 0330Z ILS \"Z\" APCH RWY 18 TRL FL130 0330Z WIND 110/4KT VRB BTN 350/ AND 120/ VIS 6KM CLD FEW 2000FT T31 DP27 QNH 1014HPA TREND NOSIG ADZ CONTROLLER WHEN INITIAL CONTACT YOU HAVE INFO D",
    "ROAH": "[Arrival ATIS] ROAH ARR ATIS G 2028Z M2000 (APCH)RNP RWY18L USING RWY 18L DEP FREQ 126.5 258.3 RWY 18R/36L CLSD M 202000Z AUTO 20007KT 9999 FEW012// OVC014// 26/26 Q1011/A2986= Q/TWO NINE EIGHT SIX STP\n[Departure ATIS] ROAH DEP ATIS F 1204Z M1200 (APCH)RNP RWY18R LDG RWY 18R DEP RWY 18L DEP FREQ 119.175 316.0 M 201200Z 18011KT 40KM FEW006ST 27/26 Q1012/A2989= Q/TWO NINE EIGHT NINE STP",
    "VVDN": "[Arrival ATIS] VVDN ARR ATIS A 1332Z VVDN INFO A 1332Z. ILS ZULU RWY 35L. DPTG RWY 35R.. 1332Z. WIND CALM CAVOK T31 DP24 QNH 1001HPA TREND NOSIG. ADZ ON INITIAL CTC YOU HAVE INFO. A.\n[Departure ATIS] VVDN DEP ATIS R 0503Z VVDN INFO R 0503Z. ILS VICTOR APPROACH 35L.. DPTG RWY 35R.. 0502Z. WIND 090/05KT VRB BTN 070/ AND 140/ CAVOK T37 DP23 QNH 1007HPA TREND NOSIG. ADZ ON INITIAL CTC YOU HAVE INFO. R.",
    "RCKH": "[Arrival ATIS] RCKH ARR ATIS M 2000Z EXPECT ILS APPROACH RWY 09 ARR/DEP TAXIWAY JULIETT, TAXIWAY BRAVO, TAXIWAY DELTA AND TAXIWAY ECHO CLOSED DUE MAINTENANCE.RUNWAY 0 9 ARRIVALS PLAN VACATE VIA CHARLIE OR F\n[Departure ATIS] RCKH DEP ATIS J 0630Z EXPECT ILS APPROACH RWY 27 ARR/DEP TAXIWAY JULIETT, TAXIWAY BRAVO, TAXIWAY DELTA AND TAXIWAY ECHO CLOSED DUE MAINTENANCE.RUNWAY 2 7 ARRIVALS PLAN VACATE VIA CHARLIE OR A",
    "KLAX": "[Arrival ATIS] KLAX ARR ATIS Z 1353Z LAX ATIS INFO Z 1353Z. 00000KT 6SM HZ FEW008 SCT010 BKN016 20/16 A2989 (TWO NINER EIGHT NINER) RMK AO2 SLP119 T02000161. INST APCHS AND RNAV RNP APCHS RY 24R AND 25L, SIMUL INSTR DEPARTURES IN PROG 25R. CTC L A GC ON 121.75 FOR PUSH OR TAXI ON A. RWY 2 4 LEFT 6 RIGHT CLSD, RWY 2 4 RIGHT SIX LEFT CLSD. TWY B CLSD BTN TWY, C10 AND TWY C7 , , TWY B6 CLSD, TWY B7 CLSD, TWY C CLSD BTN TWY, C1 AND TWY C3, TWY C1 CLSD, TWY C9 CLSD BTN TWY, B AND TWY C, TWY C8 CLSD BTN TWY, B AND TWY C. RY 25R SFL OTS, RY 24L ALSF-2 OTS. LAX VOR UNMONITORED. USE CAUTION FOR INCREASED DRONE ACTIVIY IN THE VICINITY OF SOFI STADIUM AT OR BELOW 200FT AGL DURING THE WORLD CUP FROM JUNE TWELFTH TWENTY TWENTY SIX THROUGH JULY TENTH TWENTY TWENTY SIX. HAZD WX INFO FOR LAX AREA AVBL FM FSS. USE CAUTION FOR HANG GLIDING 1 MILE SOUTH LOS ANGELES VOR. BIRD ACTIVITY VICINITY ARPT. INCLUDE YOUR CALL SIGN IN ALL READBACKS. USE CAUTION WHEN EXITING RY24R AT TWY V, W, AND Y, TO HOLD SHORT OF RY24L. MULTIPLE RUNWAY INCURSIONS HAVE OCCURRED. ...ADVS YOU HAVE INFO Z.\n[Departure ATIS] KLAX DEP ATIS W 1853Z LAX ATIS INFO W 1853Z. 23010KT 10SM FEW016 SCT022 SCT027 20/13 A3000 (THREE ZERO ZERO ZERO) RMK AO2 SLP158 T02000128. INST APCHS AND RNAV RNP APCHS RY 24R AND 25L, OR VCTR FOR VISUAL APCH WILL BE PROVIDED, SIMUL VISUAL APCHS TO ALL RWYS ARE IN PROG, SIMUL INSTR DEPARTURES IN PROG RWYS 24 AND 25. CTC L A GC ON 121.75 FOR PUSH OR TAXI ON A. TWY C CLSD BTN TWY, C8 AND TWY C9 , , TWY B CLSD BTN TWY, F AND TWY B1, TWY B1 CLSD. ILS RY 25R OTS, RY 25R SFL OTS, RY 24L ALSF-2 OTS. LAX VOR UNMONITORED. IF ASSIGNED RUNWAY 25R FOR DEPARTURE, EXPECT DEPARTURE FROM INTERSECTION FOXTROT. TAXILANE CHARLIE EIGHT RESTRICTED TO AIRCRAFT WITH A WINGSPAN LESS THAN ONE HUNDRED EIGHTEEN FEET. USE CAUTION FOR INCREASED DRONE ACTIVIY IN THE VICINITY OF SOFI STADIUM AT OR BELOW 200FT AGL DURING THE WORLD CUP FROM 06/12/26 THROUGH 07/10/2026. HAZD WX INFO FOR LAX AREA AVBL FM FSS. USE CAUTION FOR HANG GLIDING 1 MILE SOUTH LOS ANGELES VOR. BIRD ACTIVITY VICINITY ARPT. INCLUDE YOUR CALL SIGN IN ALL READBACKS. USE CAUTION WHEN EXITING RY24R AT TWY V, W, AND Y, TO HOLD SHORT OF RY24L. MULTIPLE RUNWAY INCURSIONS HAVE OCCURRED. ...ADVS YOU HAVE INFO W.",
    "KONT": "[Arrival ATIS] KONT ARR ATIS R 2053Z - KONT ATIS INFO R 2053Z. 24008KT 10SM CLR 27/11 A2995 (TWO NINER NINER FIVE). ILS AND VIS APR IN USE, RY26L & RY26R. LNDG AND DEPG RY 26L AND RY 26R. NOTAMS... TAXIWAY SIERRA CLSD BETWEEN SIERRA 8 AND W TAXIWAY Q SOUTH OF RWY 26L CLSD TAXIWAY T CLSD TAXIWAY SIERRA 5 CLSD. RY 26L IM OTS. USE CAUTION FOR NUMEROUS BIRDS OBSERVED IN VICINITY OF ONT. PILOTS READBACK RWY ASSIGNMENTS AND HOLD SHORT INSTRUCTIONS. ...ADVS YOU HAVE INFO R.\n[Departure ATIS] KONT DEP ATIS N 0553Z - KONT ATIS INFO N 0553Z. 24004KT 10SM BKN250 22/15 A2988 (TWO NINER EIGHT EIGHT) RMK AO2 SLP100. ILS AND VIS APR IN USE, RY26L & RY26R. LNDG AND DEPG RY 26L AND RY 26R. NOTAMS... TAXIWAY SIERRA CLSD BETWEEN SIERRA 8 AND W TAXIWAY Q SOUTH OF RWY 26L CLSD TAXIWAY T CLSD TAXIWAY SIERRA 5 CLSD. RY 26L IM OTS, RY 26R ALS OTS. USE CAUTION FOR NUMEROUS BIRDS OBSERVED IN VICINITY OF ONT. HAZD WX INFO FOR SOUTHERN CA AVBL ON FSS FREQUENCIES. PILOTS READBACK RWY ASSIGNMENTS AND HOLD SHORT INSTRUCTIONS. ...ADVS YOU HAVE INFO N.",
    "KSFO": "[Arrival ATIS] KSFO ARR ATIS S 1156Z SFO ATIS INFO S 1156Z. 20003KT 10SM FEW009 12/10 A2990 (TWO NINER NINER ZERO). ILS RY 28R APP IN USE. DEPG RWYS 28L, 28R. RY 1L, 1R CLSD. NUMEROUS TWY CLOSURES FOR CONSTRUC\n[Departure ATIS] KSFO DEP ATIS J 0356Z SFO ATIS INFO J 0356Z. 27015KT 10SM FEW005 SCT011 13/11 A2991 (TWO NINER NINER ONE) RMK PK WND 28026/0321. SIMUL CLSLY SPCD DPNDNT ILS RY 28R AND ILS RY 28L APP IN USE. DEPG RWYS 28L, 28R. DEPG ACFT SHOULD BE PREPARED FOR A SHORT NOTICE RY CHANGE. RY 1L, 1R CLSD. NUMEROUS TWY CLOSURES FOR CONSTRUCTION ON THE FIELD, PILOTS CHECK NOTAMS. DEPG ACFT WAITING ON FINAL NUMBERS ADVISE GROUND PRIOR TO ENTERING TWY F. ...ADVS YOU HAVE INFO J.",
    "KOAK": "[Arrival ATIS] KOAK ARR ATIS A 0353Z - KOAK ATIS INFO A 0353Z. 25010KT 10SM FEW003 OVC007 14/12 A3004 (THREE ZERO ZERO FOUR). RNAV, RWY 30. ILS, RWY 28R. FLOW TO LAX, LAS, SAN, SEA. ILS RWY 30, OTS, RWY 28R RAIL, OTS. UNN LIT CLOSE-IN OBSTACLES FOR RWY 30 DEPARTURES. RWY 30 DEPARTURES ARE ADVISED TO AVOID TURNING LEFT PRIOR TO DEPARTURE END OF RUNWAY. CTN, CRANE 1 POINT 6 NAUTICAL MILES, , AT 140 FEET AGL. CAUTION, BIRDS NEAR AIRPORT. ...ADVS YOU HAVE INFO A.\n[Departure ATIS] KOAK DEP ATIS O 1953Z OAK ATIS INFO O 1953Z. 28014KT 10SM FEW005 22/14 A2988 (TWO NINER EIGHT EIGHT). RNAV Z/VA RWY 30 ILS/VA RWY 28R. FLOW TO LAX, LAS, SAN. ILS RWY 30, OTS. UNN LIT CLOSE-IN OBSTACLES FOR RWY 30 DEPARTURES. RWY 30 DEPARTURES ARE ADVISED TO AVOID TURNING LEFT PRIOR TO DEPARTURE END OF RUNWAY. SIGNATURE UNI-COM OUT OF SERVICE. CAUTION, BIRDS NEAR AIRPORT. ...ADVS YOU HAVE INFO O.",
    "KDFW": "[Arrival ATIS] KDFW ARR ATIS C 1353Z DFW ARR INFO C 1353Z. 19011KT 10SM SCT250 28/22 A3004 (THREE ZERO ZERO FOUR) RMK AO2 SLP162 T02830217. SIMUL VISUAL APCH TO RWYS, 13R, 18R, 17C, 17L. LDG RWY 17C EXP LAHSO TWY B 10460 FT AVAIL, LDG RWY 18R EXP LAHSO TWY B 10100 FT AVL. NOTICE TO AIRMEN. RWY 17C PAPI OTS. WARNING, RWY 18L HAS BEEN SHORTENED, 9273 FT AVAILABLE. BIRD ACTIVITY VCNTY ARPT. ...ADVS YOU HAVE INFO C.\n[Departure ATIS] KDFW DEP ATIS W 1553Z - KDFW DEP INFO W 1553Z. 21022G32KT 10SM FEW025 FEW180 SCT250 31/21 A2994 (TWO NINER NINER FOUR) RMK AO2 PK WND 20032/1547 SLP128 T03110206. SIMUL PARL TRAFFIC DEPG RWYS 17R, 18L. NOTICE TO AIRMEN. WARNING, RWY 18L HAS BEEN SHORTENED, 9273 FT AVAILABLE. RWY 18L CL OTS. BIRD ACTIVITY VCNTY ARPT. ...ADVS YOU HAVE INFO W.",
    "KIAH": "[Arrival ATIS] KIAH ARR ATIS K 1353Z IAH ATIS INFO K 1353Z. 18006KT 10SM FEW030 SCT160 SCT250 30/26 A3007 (THREE ZERO ZERO SEVEN). ARRIVALS EXPECT ILS OR RNAV Y RY 26R, ILS OR RNAV Y RY 26L, ILS OR RNAV Y RY 27. SIMUL APPROACHES IN USE. DEPG RY 15L, RY 15R. NOTICE TO AIRMEN. UNITED RAMP CONTROL IN EFFECT. BIRD ACTIVITY VICINITY ARPT. LAHSO RY26L. CRANES ARE DOWN. TWY SA CLSD BTN TWY, SF AND TWY SK , TWY SB CLSD BTN TWY, SF AND TWY SK , , TWY EA CLSD. NOTAM ATIS IN USE ON FREQUENCY 126.225. ...ADVS YOU HAVE INFO K.\n[Departure ATIS] KIAH DEP ATIS T 0353Z IAH ATIS INFO T 0353Z. 15007KT 10SM FEW035 FEW180 BKN250 27/23 A2996 (TWO NINER NINER SIX). ARRIVALS EXPECT ILS OR RNAV Y RY 8R, ILS OR RNAV Y RY 8L. DEPG RY 15R. NOTICE TO AIRMEN. UNITED RAMP CONTROL IN EFFECT. RY 15L, 33R CLSD. HAZD WX INFO FOR IAH AREA AVBL FM FSS. BIRD ACTIVITY VICINITY ARPT. CRANES ARE DOWN. TWY SA CLSD BTN TWY, SF AND TWY SK , TWY SB CLSD BTN TWY, SF AND TWY SK , , TWY WB CLSD BTN TWY, WG AND TWY WH . TWY EA CLSD. NOTAM ATIS IN USE ON FREQUENCY 126.225. ...ADVS YOU HAVE INFO T.",
    "KORD": "[Arrival ATIS] KORD ARR ATIS M 1251Z ORD ATIS INFO M 1251Z. 23005KT 10SM FEW043 FEW060 BKN160 BKN250 24/21 A2989 (TWO NINER EIGHT NINER) RMK AO2 SLP116 T02440206. ARR EXP VECTORS ILS RWY 27C APCH, VISUAL APCH RWY 27R, VISUAL APCH RWY 28C. SIMUL APCHS IN USE. LAND AND HOLD SHORT OPERATIONS ARE IN EFFECT. RWY 27C ARR PLAN TO H/S OF TWY V V, 9 THSD 7 HND 25 FT AVBL, RWY 28C ARR PLAN TO H/S OF TWY Z, 9 THSD 6 HND TEN FT AVBL. DEPS EXP RWYS 22L 27L FROM T T 9960 FT AVL. RWY 4L, 22R CLSD. RWY 22R LOC OTS, RWY 28L GS OTS, RWY 9L IM OTS, RWY 9C IM OTS, RWY 10L IM OTS, RWY 10R IM OTS, RWY 27R IM OTS, RWY 28L IM OTS, RWY 28R IM OTS, RWY 9L PAPI OTS, RWY 27R PAPI OTS. PILOTS USE CTN FOR BIRD ACTIVITY IN THE VICINITY OF THE ARPT. USE CTN FOR PERSONNEL AND EQUIP AT NUMEROUS SITES ON THE FIELD. READBACK ALL RWY HOLD SHORT INSTRUCTIONS. WHEN READY TO TAXI CONTACT GND METERING ON FREQ 121.67. ...ADVS YOU HAVE INFO M.\n[Departure ATIS] KORD DEP ATIS A 0751Z ORD ATIS INFO A 0751Z. 36006KT 10SM BKN250 19/15 A2997 (TWO NINER NINER SEVEN) RMK AO2 SLP144 T01940150. ARR EXP VECTORS ILS RWY 10L APCH. DEPS EXP RWYS 10L. RWY 4L, 22R CLSD, RWY 4R, 22L CLSD, RWY 9L, 27R CLSD, RWY 9C, 27C CLSD, RWY 9R, 27L CLSD, RWY 10C, 28C CLSD, RWY 10R, 28L CLSD. RWY 22R LOC OTS, RWY 28L GS OTS, RWY 9L IM OTS, RWY 9C IM OTS, RWY 10L IM OTS, RWY 10R IM OTS, RWY 27R IM OTS, RWY 28L IM OTS, RWY 28R IM OTS, RWY 9L PAPI OTS, RWY 27R PAPI OTS. PILOTS USE CTN FOR BIRD ACTIVITY IN THE VICINITY OF THE ARPT. NOISE ABATEMENT PROCEDURES ARE IN EFFECT. USE CTN FOR PERSONNEL AND EQUIP AT NUMEROUS SITES ON THE FIELD. READBACK ALL RWY HOLD SHORT INSTRUCTIONS. FOR CD GND METERING AND GC CONTACT ORD ON FREQ 121.9. ...ADVS YOU HAVE INFO A.",
    "KJFK": "[Arrival ATIS] KJFK ARR ATIS W 1351Z - KJFK ATIS INFO W 1351Z. 07009KT 10SM FEW044 SCT070 SCT110 OVC200 26/19 A2996 (TWO NINER NINER SIX). APPROACH IN USE ILS RY 4R, ILS RY 4L. DEPG RY 4L. YES WE KNOW THERE IS AN AMBER FLASHING LIGHT AT APPROACH END OF RWY 22L. NUM CRANES OPERATING AT JFK. BIRD ACTIVITY VICINITY ARPT. READBACK ALL RWY ASSIGNMENTS AND HOLD SHORT INSTRUCTIONS. ...ADVS YOU HAVE INFO W.\n[Departure ATIS] KJFK DEP ATIS X 1551Z JFK ATIS INFO X 1551Z. 32014G18KT 10SM FEW050 FEW140 BKN250 31/18 A2983 (TWO NINER EIGHT THREE). APPROACH IN USE ILS RY 4R, ILS RY 4L. DEPG RY 4L. RWY 13R, 31L CLSD. RY 31R PAPI OTS, RWY 22L/4R INNER MARKER OTS.RWY 31R PAPI OTS. USE CAUTION FOR A MALFUNCTIONING AMBER FLASHING LIGHT APPROACH END RUNWAY 22L. NUM CRANES OPERATING AT JFK. BIRD ACTIVITY VICINITY ARPT. READBACK ALL RWY ASSIGNMENTS AND HOLD SHORT INSTRUCTIONS. ...ADVS YOU HAVE INFO X.",
    "KIND": "[Arrival ATIS] KIND ARR ATIS W 1314Z - KIND ATIS INFO W 1314Z SPECIAL. 20008KT 7SM BKN004 23/22 A2998 (TWO NINER NINER EIGHT). ILS RWY 23R APCH IN USE. CROSS RUNWAY OPERATIONS MAY BE IN EFFECT. NOTICE TO AIRMEN. RWYS 23L AND 5R CLSD. TWY, P BTN TWY, H AND TWY B CLSD, TWY, P BTN TWY, H AND TWY J CLSD, TWY, H BTN TWY, R AND TWY N CLSD. P PAD CLSD. ILS RUNWAY 5R AND RUNWAY 5L INNER MARKER UNSERVICEABLE. ...ADVS YOU HAVE INFO W.\n[Departure ATIS] KIND DEP ATIS H 1854Z IND ATIS INFO H 1854Z. 26009G19KT 10SM SCT036 BKN041 BKN170 23/16 A2981 (TWO NINER EIGHT ONE) RMK AO2 SLP088 T02280156. PARL ILS RWY 23R AND 23L APPROACHES IN USE. CROSS RU",
    "KDTW": "[Arrival ATIS] KDTW ARR ATIS K 0753Z DTW ARR INFO K 0753Z. 35004KT 10SM FEW030 BKN040 21/18 A2997 (TWO NINER NINER SEVEN). ILS Z RY 22R APCH IN USE. NOTICE TO AIRMEN. RWY 22L, 4R CLSD, RWY 21R, 3L CLSD, RWY 21L, 3R CLSD, RWY 27L, 9R CLSD, RWY 27R, 9L CLSD. TWYS Y1 CLSD ;. RWSL OTS. PILOTS USE CTN FOR BIRD ACTIVITY. TWR AND GC COMB ON FREQ 135.0. DEPARTURE ATIS 118.125. ...ADVS YOU HAVE INFO K.\n[Departure ATIS] KDTW DEP ATIS Q 2253Z - KDTW DEP INFO Q 2253Z. 21009KT 10SM FEW050 FEW250 33/24 A2991 (TWO NINER NINER ONE). DEPG RWY 21R, RWY 22L ;. NOTICE TO AIRMEN. RWY 27L, 9R CLSD, RWY 27R, 9L CLSD. PILOTS USE CTN FOR BIRD ACTIVITY. ...ADVS YOU HAVE INFO Q.",
    "KMSP": "[Arrival ATIS] KMSP ARR ATIS D 1153Z MSP ARR INFO D 1153Z. 14003KT 10SM BKN090 23/19 A3007 (THREE ZERO ZERO SEVEN) RMK AO2 SLP177 T02280194 10256 20217 53017. VISUAL RWY 12R APCH IN USE, VISUAL RWY 12L APCH IN USE. FINAL APCH, OVER NOISE SENSITIVE AREA. NOTICE TO AIRMEN. RWYS 4, 22 CLSD. TWY R7. R8. R9. R10. CLOSED. TWY R BTWN R6 AND R10 CLSD, USE CAUTION, NUMEROUS TAXIWAY CLOSURES, TWY A7 CLSD, TWY A CLSD BTN TWY, A7 AND TWY D. GS RWY 12L OTS, RWYS 12R, 12L, INNER MARKER OTS. HAZD WX INFO FOR MSP AREA AVBL FM FSS. CTN, BIRDS NEAR MSP. READ BACK HS AND ALT. ALL ACFT TAXI WITH TRANSPONDER AND ALTITUDE ENCODING ON. ADVISE TOWER OF GATE ON INITIAL CONTACT. ...ADVS YOU HAVE INFO D.\n[Departure ATIS] KMSP DEP ATIS R 1253Z MSP DEP INFO R 1253Z. 19003KT 10SM FEW100 24/19 A3008 (THREE ZERO ZERO EIGHT) RMK AO2 SLP180 T02440194. DEPARTING RWY 12L, RWY 12R, RWY 17. NOTICE TO AIRMEN. RWYS 4, 22 CLSD. TWY R7. R8. R9. R10. CLOSED. TWY R BTWN R6 AND R10 CLSD, USE CAUTION, NUMEROUS TAXIWAY CLOSURES, TWY A7 CLSD, TWY A CLSD BTN TWY, A7 AND TWY D. ALL ACFT CTC METERING ON ONE THREE THREE POINT FIVE SEVEN WHEN READY TO PUSHBACK OR TAXI. HAZD WX INFO FOR MSP AREA AVBL FM FSS. CTN, BIRDS NEAR MSP. READ BACK HS AND ALT. ALL ACFT TAXI WITH TRANSPONDER AND ALTITUDE ENCODING ON. ...ADVS YOU HAVE INFO R.",
    "CYEG": "[Arrival ATIS] CYEG ARR ATIS N 1500Z CYEG ARR ATIS N 1500Z 02008KT 20SM CIG BKN047 BKN140 BKN250 16/13 A2982 APCH RNAV Z OR Y RWY 02, INFORM ARRL OF REQ APCH ON INITIAL CTC. LDG AND DEP RWY 02. SIMUL APPROACHES MAY BE IN EFCT. INFORM CYEG ATC INFO N\n[Departure ATIS] CYEG DEP ATIS M 1400Z CYEG ARR ATIS M 1400Z 31008KT 15SM FEW020 CIG BKN054 BKN140 OVC250 16/13 A2986 APCH RNAV Z OR Y RWY 02, INFORM ARRL OF REQ APCH ON INITIAL CTC. LDG AND DEP RWY 02. SIMUL APPROACHES MAY BE IN EFCT. INFORM CYEG ATC INFO M",
    "EHAM": "[Arrival ATIS] EHAM ARR ATIS E 0621Z EHAM ARRIVAL INFO E. DEMAND. MAIN LANDING RWY 36 R. SECONDARY LANDING RWY 36 C. TRANSITION LEVEL 040. WIND 050 DEG, 9 KT, VRB BTN 020 AND 100 DEG. WIND SECONDARY RUNWAY 080 DEG, 8 KT, VRB BTN 020 AND 120 DEG, 13 KT MAX, 5 KT MNM. VIS 10 KM OR MORE. CLD FEW 800 FT BKN 1000 FT. T 19. DP 17. QNH 1020 HPA. TREND BECMG CLD SCT 1200 FT. OPERATIONAL REPORT. INDEPENDENT PARALLEL APPROACHES IN PROGRESS. ILS RWY 36 C DOWNGRADED CLASSIFICATION I/C/ 1 SUPPORTS CAT 1. CONTACT APCH WITH CALLSIGN ONLY. END OF INFO E\n[Departure ATIS] EHAM DEP ATIS O 0921Z EHAM DEPARTURE INFO O. DEMAND. MAIN DEPARTURE RWY 36 L. MAIN LANDING RWY 06. WIND 050 DEG, 5 KT, VRB BTN 270 AND 100 DEG, 13 KT MAX, 4 KT MNM. VIS 10 KM OR MORE. CLD FEW 1300 FT. T 20. DP 17. QNH 1021 HPA. OPERATIONAL REPORT. INFORM SCHIPHOL DEL BY VOICE IF UNABLE TO COMPLY WITH NADP 2. END OF INFO O",
    "EBBR": "[Arrival ATIS] EBBR ARR ATIS V 0724Z EBBR NAT, EXP VECT FOR ILS APP ARR RWY01 RSCD AT 0338 RWY01 DRY. DEP RWY07R TRL 055 XNG RWY OPS INPR 060/8KT CAVOK T22 DP17 QNH 1020HPA NOSIG CFM ARR V\n[Departure ATIS] EBBR DEP ATIS U 0850Z EBBR NAT, DEP RWY07R RSCD AT 0642 RWY07R DRY. ARR RWY01 TRL 055 XNG RWY OPS INPR 050/9KT VRB BTN 040 AND 100 CAVOK T24 DP17 QNH 1020HPA NOSIG CFM DEP U",
    "EDDF": "[Arrival ATIS] EDDF ARR ATIS Q 1450Z ARR-ATIS EDDF Q METAR 111450 EXPECT INDEPENDENT PARALLEL ILS Y APCH RWY 07L OR ILS APCH RWY 07R RWY 07L 07R GLS APCH ON REQUEST , TRL 60 04007KT 340V080 CAVOK T31 DP12 QNH1018 TREND NOSIG END OF ATIS Q\n[Departure ATIS] EDDF DEP ATIS W 1050Z DEP-ATIS EDDF W METAR 111050 RWY 07C 18 ACFT DEPARTING RWY18 : EXPECT POSSIBLE DEPARTURE FROM INTERSECTION M , TORA 3454 METERS. IF UNABLE , ADVISE TWR ON INITIAL CONTACT , TRL 60 05010KT 360V080 RWY18 VRB06KT CAVOK T29 DP13 QNH1019 TREND NOSIG",
    "EDDL": "[Arrival ATIS] EDDL ARR ATIS Y 0620Z ATIS EDDL Y METAR 110620 EXPECT VECTORS ILS APPROACH RWY 05R TWY L2 , L4 AND L5 BTN TWY M AND RWY05R CLOSED TRL 60 05007KT CAVOK T21 DP16 QNH1019 TREND NOSIG\n[Departure ATIS] EDDL DEP ATIS R EDDL ARR/DEP DATIS RPT -ATIS EDDL R METAR 020550 -EXPECT VECTORS ILS APPROACH -RWY 23L -TWY L8 CLOSED BETWEEN TWY M AND RWY 23L -TRL 60 - -23010KT -CAVOK - - -T19 DP13 -QNH1020 - -TREND NOSIG",
    "EDDK": "[Arrival ATIS] EDDK ATIS Y 2250Z -ATIS EDDK Y METAR 202250 -EXPECT CDO FOR ILS APCH RWY 31R -RWY 31R 06 -RWY COND RWY 31R AT TIME 1900 RWYCC 6 DEPOSIT TOTAL RWY DRY RWY 06 AT TIME 1900 RWYCC 6 DEPOSIT TOTAL RWY DRY POSSIBLE TAXY DELAY WHEN DEPARTING RWY 31R DUE TO WIP ON TWY A : RWY 06 AVBL FOR DEPARTURES ONLY -TRL 60 -RWY 13R AND RWY 31L CLOSED FOR DEPARTURE AND LANDING: TAXIING BTN THR RWY 13R AND INTERSECTION RWY 24 POSSIBLE : -VRB01KT -CAVOK - - -T23 DP21 -QNH1022 - -TREND NOSIG\n[Departure ATIS] EDDK DEP ATIS Q EDDK ARR/DEP DATIS RPT -ATIS EDDK Q METAR 291920 -EXPECT ILS APCH -RWY 31R 06 -RWY COND RWY 31R AT TIME 1830 RWYCC 6 DEPOSIT TOTAL RWY DRY RWY 06 AT TIME 1830 RWYCC 6 DEPOSIT TOTAL RWY DRY -TRL 60 -RWY 13R AND RWY 31L CLOSED FOR DEPARTURE AND LANDING: TAXIING BTN THR RWY 13R AND INTERSECTION RWY 24 POSSIBLE : -04003KT -CAVOK - - -T24 DP13 -QNH1024 - -TREND NOSIG",
    "EBLG": "[Arrival ATIS] EBLG ATIS G 1320Z EBLG INFO, EXP RNAV TO ILS APP ARR RWY04R DEP RWY04R RWY 04R DRY, RWYCC 666. TRL 055 ADZ ON GND FREQ IF UNABLE S2 030/8KT VRB BTN 350 AND 050 MNM4 MAX14 CAVOK T25 DP14 QNH 1019HPA NOSIG CFM ATIS G",
    "LSZH": "[Arrival ATIS] LSZH ARR ATIS B 0720Z ARRIVALS, EXP ILS APCH, RWY 14. TRL 70. DEP RWY 28. WIND VRB BTN 320 AND 100 DEG, 2 KT. CAVOK. T 24. DP 13. QNH 1018. NOSIG.\n[Departure ATIS] LSZH DEP ATIS Q 0720Z DEP RWY 28. TRL 70. ARRIVALS, EXP ILS APCH, RWY 14. TMA S 1 IS NOT ACT. TMA S 2 AND S 3 ARE NOT ACT. WIND 050 DEG, 3 KT, VRB BTN 320 AND 100 DEG. CAVOK. T 24. DP 13. QNH 1018. NOSIG.",
    "LIMC": "[Arrival ATIS] LIMC ARR ATIS E 0050Z LIMC ARR E 0050Z I.L.S. ZULU RWY IN USE 35L TL 70 RWY 35R CLSD WIND TDZ 050/5KT CAVOK T23 DP18 QNH 1023HPA QFE 0998HPA\n[Departure ATIS] LIMC DEP ATIS P 2350Z LIMC DEP P 2350Z RWY IN USE 17R TL 70 WIND END 020/4KT CAVOK T23 DP19 QNH 1023HPA QFE 0995HPA DATALINK CLEARANCE AVAILABLE.... CONTACT 1 3 1 8 8 0 TO BE RELEASED BY THE AIRPORT OPERATOR ...",
    "LIRF": "[Arrival ATIS] LIRF ARR ATIS Z 0720Z LIRF ARR Z 0720Z RWY 16L ILS W RWY 16R ILS Z RWY IN USE 16L 16R TL 70 DEPENDENT PARL ILS APCH INPR RWY IN USE 16R OR 16L ASSIGNED BY ROME RADAR WIND RWY 16L TDZ 180/5KT VRB BTN 110/AND 210/ RWY 16R TDZ 180/5KT VRB BTN 140/AND 200/ VIS RWY 16L 10KM RWY 16R 10KM CLD RWY 16L FEW 2000FT RWY 16R FEW 2000FT T29 DP23 QNH 1016HPA RRSM\n[Departure ATIS] LIRF DEP ATIS Y 0720Z LIRF DEP Y 0720Z RWY IN USE 25 TL 70 RWYS IN USE FOR ARR 16L AND 16R WIND END 150/8KT VRB BTN 130/AND 220/ VIS 10KM CLD FEW 2000FT T29 DP23 QNH 1016HPA REA IS SENT AUTOMATICALLY ONCE RLSD BY RAMP WHEN READY CONTACT FIUME RAMP 121.725 RRSM",
    "EINN": "[Arrival ATIS] EINN ARR ATIS R 0730Z EXPECT I L S CATEGORY 1 LDG RWY06 TKOF RWY06 TRL FL060 02011KT 9999 FEW003 17/14 QNH Q1023 TREND NOSIG ADVISE AT FIRST CONTACT YOU HAVE ATIS INFO R",
    "EGLL": "[Arrival ATIS] EGLL ARR ATIS N 0720Z LANDING RWY 09L TRANSITION-LEVEL: FL 70 RUNWAY 09L REDUCED DECLARED DISTANCES IF STAND GUIDANCE IS OFF OR FAILS, REMAIN ON THE TAXIWAY CENTRELINE AND ADVISE ATC AUTO 05009KT 9999 NCD 22/16 Q1020 ACKNOWLEDGE RECEIPT OF INFORMATION N\n[Departure ATIS] EGLL DEP ATIS A 0720Z DEPARTURE RWY 09R PILOTS THAT ARE IN RECEIPT OF DATALINK CLEARANCES ARE REMINDED THEY MUST CONTACT DELIVERY ON 121.980 WHEN READY FOR START DATALINK CLEARANCES NOT AVAILABLE FOR CPT DEPARTURES AUTO 08010KT 030V090 9999 NCD 22/16 Q1020 ACKNOWLEDGE RECEIPT OF INFORMATION A AND REPORT AIRCRAFT TYPE AND CURRENT QNH ON FIRST CONTACT WITH HEATHROW",
    "EPWA": "[Arrival ATIS] EPWA ARR ATIS M 0031Z EPWA ARR M. TIME 0030. EXP N ARR ILS Z APCH FOR RWY 11. TRANSITION LEVEL 80. WIND 120 DEG, 2 KT. CAVOK. T 20. DP 15. QNH 1022. NOSIG. CAUTION. BIRD ACT. END OF EPWA ARR M\n[Departure ATIS] EPWA DEP ATIS T 1332Z EPWA DEP T. TIME 1332. DEP RWY 29. ARR RWY 33, EXP U ARR ILS Z. REPORT READY FOR STARTUP ON DELIVERY 121 DECIMAL 605. RWY 29 RCC 5, 5, 5. 1ST PART, WET. 2ND PART, WET. 3RD PART, WET. RWY REPORT END. TRANSITION LEVEL 80. WIND 330 DEG, 6 KT, VRB BTN 290 AND 360 DEG. VIS MID 10 KM OR MORE. CLD FEW CB 3800 FT, CLD SCT 4000 FT. T 22. DP 13. QNH 1015. TREND TEMPO WIND 320 DEG, 15 KT, GUSTING TO 25 KT, VIS 2000 M, MOD TSRA. CAUTION. BIRD ACT. END OF EPWA DEP T",
    "EFHK": "[Arrival ATIS] EFHK ARR ATIS B 0050Z EXPECT ILS APCH ARR RWY 15 RUNWAY 15 CONDITION REPORT AT 0007 UTC RUNWAY CONDITION CODES 5 , 5 , 5 CONTAMINANTS ALL PARTS 100 PERCENT WET TRL 60 WIND 210 DEG 11 KT VIS 10KM FEW 4000 FT. FEW CB 6000 FT T 18 DP 16 QNH 1017 NOSIG ACK INFO B\n[Departure ATIS] EFHK DEP ATIS X 0120Z DEP RWY 04R RUNWAY 04R CONDITION REPORT AT 2010 UTC RUNWAY CONDITION CODES 6 , 6 , 6 CONTAMINANTS ALL PARTS DRY WIND VRB BTN 310 AND 020 DEG 2 KT VIS 10KM FEW 4500 FT T 16 DP 11 QNH 1018 NOSIG ACK INFO X",
    "LTAC": "[Arrival ATIS] LTAC ARR ATIS U 0020Z EXP ILS V APCH 03C DEP RWY 03C RWY 03C WIND 070 DEG 11 KT RWY 03C WIND 070 DEG 11 KT TRL 110 CAVOK T 16 DP 11 QNH 1022 NOSIG FOR DELIVERY CTC 121.9. FOR DELIVERY FIRST USE DIGITAL DEP CLR. CTN BIRD HAZARD OVR AERODROME. APCH FREQUENCY 129. 050. TAXIWAY ECHO 1 IS CLOSED. SINGLE RWY OPERATION INPR. END OF ATIS U",
    "UBBB": "[Arrival ATIS] UBBB ARR ATIS C 0030Z ATIS C EXP ILS/ LDG 34 35 DEP 34 35 IN USE RWY 35 CLEAR DRY 70 RWY 34 CLEAR DRY 70 MOD TURB INAPCH BTN 4000 AND 2000 FT TLVL 110 WIND WIND RWY 34 340 18 KT SPD MAX 22 MIN 14 WIND RWY 35 340 18 KT SPD MAX 22 MIN 14 VIS CAVOK T 25 / DP 19 QNH 1012 HPA TREND TREND NOSIG MODERATE BIRDS ACT IN VICINITY OF AP END OF ATIS C\n[Departure ATIS] UBBB DEP ATIS C 1330Z ATIS C EXP ILS/ LDG 34 35 DEP 34 35 IN USE RWY 34 CLEAR DRY 70 RWY 35 CLEAR DRY 70 TLVL 110 WIND WIND RWY 34 360 14 KT SPD MAX 18 MIN 12 WIND RWY 35 350 16 KT SPD MAX 20 MIN 10 VIS CAVOK T 29 / DP 17 QNH 1011 HPA TREND TREND NOSIG MODERATE BIRDS ACT IN VICINITY OF AP END OF ATIS C",
    "ZWWW": "[Arrival ATIS] ZWWW ARR ATIS F 0030Z EXP ILSDME Z APCH LDG RWY 26R TA 3000 WIND 150/3MPS VRB BTN 120/ AND 190/ CAVOK T 29 /DP 08 QNH 1009 HPA ADZ YOU HAVE INFO F.\n[Departure ATIS] ZWWW DEP ATIS W 2200Z DEP RWY 26L TA 3000 WIND 270/2MPS CAVOK T 29 /DP 07 QNH 1009 HPA ADZ YOU HAVE INFO W.",
    "ZLXY": "[Arrival ATIS] ZLXY ARR ATIS J 0000Z EXP ILS APCH LDG RWY 05L & 06R WIND 000/0MPS CAVOK T 21 /DP 18 QNH 1011 HPA VISUAL APPROACH IN PROGRESS ADZ YOU HAVE INFO J.\n[Departure ATIS] ZLXY DEP ATIS G 2219Z DEP RWY 05L & 06L WIND 320/1MPS CAVOK T 19 /DP 18 QNH 1010 HPA VISUAL APPROACH IN PROGRESS ADZ YOU HAVE INFO G.",
    "ZBAA": "[Arrival ATIS] ZBAA ARR ATIS U 1430Z EXP ILS APCH DEPENDENT PARL INSTR APCH LDG RWY 18R & 18L & 19 WIND VRB DEG 1 MPS VIS 9999 -TSRA CLD BKN 300M /BKN 1200M /FEW CB 1200M T 27 /DP 26 QNH 1002 HPA RWY 18L RWYCC 5/5/5 ISSUED AT 1343 ALL PARTS WET NR 100PCT RWY 18R RWYCC 5/5/5 ISSUED AT 1343 ALL PARTS WET NR 100PCT RWY 19 RWYCC 5/5/5 ISSUED AT 1346 ALL PARTS WET NR 100PCT ADZ YOU HAVE INFO U.\n[Departure ATIS] ZBAA DEP ATIS C 0000Z DEP RWY 36L & 36R & 01 WIND 020 DEG 2 MPS 340V070 DEG CAVOK T 23 /DP 13 QNH 1012 HPA RWY INDEPENDENT PARALLEL DEP VISUAL APPROACH IS IN PROGRESS. ADZ YOU HAVE INFO C.",
    "ZBHH": "[Arrival ATIS] ZBHH ARR ATIS S 2300Z EXP ILSDME APCH LDG RWY 08 TA 3000 /TRL 3600 WIND 070/1MPS CAVOK T 11 /DP 02 QNH 1015 HPA ADZ YOU HAVE INFO S.\n[Departure ATIS] ZBHH DEP ATIS Q 1500Z DEP RWY 08 TA 3000 /TRL 3600 WIND 140/2MPS VIS 5000M BR NSC T 19 /DP 19 QNH 1007 HPA ADZ YOU HAVE INFO Q.",
    "ZSQD": "[Arrival ATIS] ZSQD ARR ATIS Y 2300Z EXP ILSDME APCH LDG RWY 35 TA 3000 /TRL 3600 WIND 330/2MPS CAVOK T 23 /DP 18 QNH 1011 HPA VISUAL APPROACH OPERATION IN PROGRESS. RUNWAY 35,IF MISSED APPROACH,EXPECT FOLLOW THE STANDARD MISSED APPROACH PROCEDURE,CLIMB TO 1200M ON QNH OR BY ATC CAUTION MAYBE THERE IS A FLOCK OF BIRDS IN THE VICINITY OF AIRPORT ADZ YOU HAVE INFO Y.\n[Departure ATIS] ZSQD DEP ATIS A 0000Z DEP RWY 34 TA 3000 /TRL 3600 WIND 020/4MPS CAVOK T 25 /DP 17 QNH 1010 HPA SEGREGATED OPERATION VISUAL APPROACH OPERATION IN PROGRESS. RUNWAY 35,IF MISSED APPROACH,EXPECT FOLLOW THE STANDARD MISSED APPROACH PROCEDURE,CLIMB TO 1200M ON QNH OR BY ATC CAUTION MAYBE THERE IS A FLOCK OF BIRDS IN THE VICINITY OF AIRPORT ADZ YOU HAVE INFO A."
  },
  "windtemp_alaska": "\n000\nFBAK31 KWNO 111358\nFD1AK1\nDATA BASED ON 111200Z    \nVALID 111800Z   FOR USE 1400-2100Z. TEMPS NEG ABV 24000\n\nFT  3000    6000    9000   12000   18000   24000  30000  34000  39000\nADK 2627 2728+04 2631+01 2637-03 2549-13 2564-25 247940 248446 256251\nADQ 2607 2408+06 2214+02 2419-03 2531-13 2536-26 263244 273952 273949\nAKN 2627 2626+00 2635+00 2638-03 2651-16 2659-27 266643 275349 263647\nANC 1510 1717+06 1821+01 1825-03 1728-15 1729-26 172242 162452 211754\nANN 9900 9900+01 9900-04 0905-10 0612-22 0616-35 061848 051344 040842\nBET 2625 2422+03 2418-01 2416-04 2309-17 2616-27 262744 261948 221946\nBRW 9900 2313+01 2315-04 2414-08 2324-19 2431-28 254044 244453 252649\nBTI 9900 2308+07 2315+00 2417-06 2522-18 2526-30 283745 283854 272350\nBTT 1107 1408+07 1510+01 1712-04 2018-16 2116-26 231642 241553 231156\nCDB 2616 2622+05 2527+01 2537-02 2549-13 2675-25 760339 762648 268953\nCZF 2418 2115+01 1911-01 1916-05 1922-17 1924-29 162745 162346 192043\nEHM 2732 2732+01 2635-02 2534-06 2546-16 2549-27 255044 254149 253646\nFAI 2022 1818+09 1617+01 1712-02 2116-14 2014-27 170743 180553 181156\nFYU 1507 1409+09 1609+02 1710-04 2414-16 2716-28 312144 302153 281654\nGAL 1710 1419+06 1425+01 1424-05 1526-16 1523-26 162742 162852 161455\nGKN 1718 1823+07 1918+03 1918-02 1715-14 1618-27 171743 181552 190957\nHOM 1623 1827+05 2029+01 2125-04 1930-15 2137-26 213843 203952 232249\nJNU 9900 0606+04 0414+00 0420-06 0525-18 0637-30 065445 064653 041849\nLUR 0806 1605+03 2010-03 2013-09 2124-18 2235-28 213944 203853 212248\nMCG 1927 1628+04 1424-01 1428-06 1425-15 1325-25 143543 153652 141852\nMDO 1510 1713+07 1917+03 1914-03 1612-15 1412-27 990042 990052 990056\nOME 1124 1224+04 1221+00 1320-05 1524-15 1523-27 153744 154053 182048\nORT      1807+09 1808+02 1812-02 2111-14 2010-27 201043 210953 240758\nOTZ 1021 1324+05 1425-01 1424-06 1921-16 1919-27 182643 183053 192351\nSNP 2337 2343+01 2342-03 2442-09 2447-21 2460-32 246539 255440 254141\nTKA 2012 1819+05 1821+01 1825-04 1727-15 1629-26 162342 162153 181954\nUNK 1425 1432+05 1436+00 1438-05 1324-15 1423-26 152943 153253 161948\nYAK 9900 9900+08 9900+02 9900-04 0712-16 0819-28 072745 073353 061954\nIKO 2422 2430+05 2439+02 2546-02 2570-13 2591-23 741938 753047 259654\nAFM 1315 1513+06 1616+00 1917-06 1821-16 2020-26 212542 202053 201954\n5AB 2825 2821+04 2920+03 3123+01 3119-12 3324-23 353838 354549 353956\n5AC 3611 0211+00 0313-05 0219-10 0134-21 3646-33 357045 355146 352443\n5AD 2011 1807+05 9900+02 9900-02 3217-14 3244-24 313842 315051 317952\n5AE 3227 3026+08 2926+04 2928-01 2734-12 2856-24 289439 781547 279355\n5AF 3608 0209+04 0216+00 0320-06 0327-19 0337-30 034746 024253 012447\n5AG 9900 9900+08 9900+02 0908-04 0708-16 0711-29 071345 041052 352151\n",
  "vaac_tokyo": [
    {
      "id": "20260711_30027000_0260",
      "year": "2026",
      "volcano": "Sheveluch",
      "psn": "N5639 E16122",
      "issued": "20260711",
      "text": "FVFE01 RJTD 110000\nVA ADVISORY\nDTG: 20260711/0000Z\nVAAC: TOKYO\nVOLCANO: SHEVELUCH 300270\nPSN: N5639 E16122\nAREA: RUSSIA\nSOURCE ELEV: 3283M AMSL\nADVISORY NR: 2026/260\nINFO SOURCE: HIMAWARI-9\nERUPTION DETAILS: VA CONTINUOUSLY OBS IN SATELLITE IMAGERY\nOBS VA DTG: 10/2320Z\nOBS VA CLD: SFC/FL280 N3856 E16034 - N3914 E16113 - N3732 E16657 - \nN3911 E17113 - N3852 E17223 - N3641 E16925 - N3652 E16532 MOV E 70KT\nFCST VA CLD +6 HR: 11/0520Z SFC/FL290 N4547 E17734 - N3905 E17405 - \nN3624 E16722 - N3636 E16203 - N4037 E17140 - N4547 E17454\nFCST VA CLD +12 HR: 11/1120Z SFC/FL290 N5003 W17906 - N4523 E17948 - \nN3452 E16722 - N3458 E16449 - N4713 E17654 - N4918 E17614\nFCST VA CLD +18 HR: NO VA EXP\nRMK: THE RESPONSIBILITY FOR THIS ASH EVENT IS BEING TRANSFERRED TO \nVAAC WASHINGTON. THE NEXT ADVISORY WILL BE ISSUED BY VAAC WASHINGTON \nBY 0600UTC UNDER HEADER FVXX22 KNES. SOME PART OF VA OBSCURED BY MET \nCLOUD.\nNXT ADVISORY: NO FURTHER ADVISORIES=",
      "img_url": "https://ds.data.jma.go.jp/svd/vaac/data/VAGFN/2026/Images/20260711_30027000_0260_QH21_01.png",
      "sat_img_url": "https://ds.data.jma.go.jp/svd/vaac/data/Sat/2026/Images/30027000/09-ir/20260710_2320_202607110000_ir.png",
      "text_url": "https://ds.data.jma.go.jp/svd/vaac/data/TextData/2026/20260711_30027000_0260_Text.html"
    },
    {
      "id": "20260706_27202000_0232",
      "year": "2026",
      "volcano": "Kanlaon",
      "psn": "N1025 E12308",
      "issued": "20260706",
      "text": "FVFE01 RJTD 061545\nVA ADVISORY\nDTG: 20260706/1545Z\nVAAC: TOKYO\nVOLCANO: KANLAON 272020\nPSN: N1025 E12308\nAREA: PHILIPPINES\nSOURCE ELEV: 2435M AMSL\nADVISORY NR: 2026/232\nINFO SOURCE: HIMAWARI-9 PHIVOLCS\nERUPTION DETAILS: ERUPTION AT 20260706/1520Z FL100 EXTD SW REPORTED\nOBS VA DTG: 06/1530Z\nOBS VA CLD: VA NOT IDENTIFIABLE FM SATELLITE DATA WIND FL100 350/5KT\nFCST VA CLD +6 HR: NOT AVBL\nFCST VA CLD +12 HR: NOT AVBL\nFCST VA CLD +18 HR: NOT AVBL\nRMK: WE WILL ISSUE FURTHER ADVISORY IF VA IS DETECTED IN SATELLITE \nIMAGERY.\nNXT ADVISORY: NO FURTHER ADVISORIES=",
      "img_url": "https://ds.data.jma.go.jp/svd/vaac/data/VAGFN/2026/Images/20260706_27202000_0232_QH21_01.png",
      "sat_img_url": null,
      "text_url": "https://ds.data.jma.go.jp/svd/vaac/data/TextData/2026/20260706_27202000_0232_Text.html"
    },
    {
      "id": "20260705_27303000_0717",
      "year": "2026",
      "volcano": "Mayon",
      "psn": "N1315 E12341",
      "issued": "20260705",
      "text": "FVFE01 RJTD 051936\nVA ADVISORY\nDTG: 20260705/1936Z\nVAAC: TOKYO\nVOLCANO: MAYON 273030\nPSN: N1315 E12341\nAREA: PHILIPPINES\nSOURCE ELEV: 2462M AMSL\nADVISORY NR: 2026/717\nINFO SOURCE: HIMAWARI-9 PHIVOLCS\nERUPTION DETAILS: ERUPTION AT 20260705/1914Z FL090 EXTD WSW REPORTED\nOBS VA DTG: 05/1920Z\nOBS VA CLD: VA NOT IDENTIFIABLE FM SATELLITE DATA WIND FL090 050/8KT\nFCST VA CLD +6 HR: NOT AVBL\nFCST VA CLD +12 HR: NOT AVBL\nFCST VA CLD +18 HR: NOT AVBL\nRMK: WE WILL ISSUE FURTHER ADVISORY IF VA IS DETECTED IN SATELLITE \nIMAGERY.\nNXT ADVISORY: NO FURTHER ADVISORIES=",
      "img_url": "https://ds.data.jma.go.jp/svd/vaac/data/VAGFN/2026/Images/20260705_27303000_0717_QH21_01.png",
      "sat_img_url": null,
      "text_url": "https://ds.data.jma.go.jp/svd/vaac/data/TextData/2026/20260705_27303000_0717_Text.html"
    },
    {
      "id": "20260701_30006000_0001",
      "year": "2026",
      "volcano": "Mutnovsky",
      "psn": "N5227 E15812",
      "issued": "20260701",
      "text": "FVFE01 RJTD 012206\nVA ADVISORY\nDTG: 20260701/2206Z\nVAAC: TOKYO\nVOLCANO: MUTNOVSKY 300060\nPSN: N5227 E15812\nAREA: RUSSIA\nSOURCE ELEV: 2288M AMSL\nADVISORY NR: 2026/1\nINFO SOURCE: KVERT KBGS UHPP HIMAWARI-9\nERUPTION DETAILS: ERUPTION AT 20260701/2016Z FL170 EXTD W REPORTED\nOBS VA DTG: 01/2140Z\nOBS VA CLD: VA NOT IDENTIFIABLE FM SATELLITE DATA WIND FL170 120/8KT\nFCST VA CLD +6 HR: NOT AVBL\nFCST VA CLD +12 HR: NOT AVBL\nFCST VA CLD +18 HR: NOT AVBL\nRMK: WE WILL ISSUE FURTHER ADVISORY IF VA IS DETECTED IN SATELLITE \nIMAGERY.\nNXT ADVISORY: NO FURTHER ADVISORIES=",
      "img_url": "https://ds.data.jma.go.jp/svd/vaac/data/VAGFN/2026/Images/20260701_30006000_0001_QH21_01.png",
      "sat_img_url": null,
      "text_url": "https://ds.data.jma.go.jp/svd/vaac/data/TextData/2026/20260701_30006000_0001_Text.html"
    }
  ],
  "vaac_alaska": [
    {
      "text": "\n000\nFVAK21 PAWU 111230\nVAAAK1\nVA ADVISORY\n\nDTG: 20260711/1224Z\n\nVAAC: ANCHORAGE\n\nVOLCANO: SHEVELUCH 300270\n\nPSN: N5639 E16122\n\nAREA: KAMCHATKA PENINSULA\n\nSOURCE ELEV: 10771 FT AMSL\n\nADVISORY NR: 2026/193\n\nRMK: PLEASE SEE FVXX2 KNES ISSUED BY VAAC WASHINGTON WHICH DESCRIBES\nCONDITIONS NEAR THE VAAC ANCHORAGE AREA OF RESPONSIBILITY...CC\n\n\n\n",
      "issued": "2026-07-11T12:30:00+00:00",
      "volcano": "Sheveluch",
      "psn": "N5639 E16122"
    }
  ]
}