{
  "updated_utc": "2026-07-11T03:54Z",
  "metar": {
    "RJAA": "METAR RJAA 110200Z 16006KT 120V220 9999 BKN025 BKN/// 30/23 Q1014 NOSIG",
    "PANC": "METAR PANC 110253Z 26005KT 10SM FEW060 FEW200 21/11 A2983 RMK AO2 SLP103 T02060111 56018",
    "PAFA": "METAR PAFA 110253Z VRB03KT 10SM FEW030 FEW130 22/14 A2981 RMK AO2 SLP097 T02220139 57024",
    "PAED": "METAR PAED 110155Z 27006KT 10SM FEW060 21/11 A2983 RMK AO2A SLP097 T02070110 $",
    "KSEA": "METAR KSEA 110253Z 30006KT 10SM SCT060 SCT200 22/13 A2988 RMK AO2 SLP121 T02220128 55002 $",
    "ZSPD": "METAR ZSPD 110200Z 08011MPS 9999 SCT016 30/26 Q1004 NOSIG",
    "ZSSS": "METAR ZSSS 110200Z 11008MPS 080V140 9999 BKN026 32/25 Q1004 NOSIG",
    "RJFR": "METAR RJFR 110200Z 08014KT 9999 FEW015 SCT/// 28/24 Q1013",
    "VHHH": "METAR VHHH 110200Z 33004KT 300V010 9999 FEW012 30/26 Q1000 NOSIG",
    "RCTP": "METAR RCTP 110200Z 33018G31KT 300V360 2000 SHRA SCT005 BKN012 BKN020 27/27 Q0986 WS ALL RWY NOSIG RMK QFF 986.8HPA A2914 RA AMT 3.0MM",
    "ZGSZ": "METAR ZGSZ 110200Z 30003MPS 270V330 9999 FEW020 30/26 Q1000 NOSIG",
    "WSSS": "METAR WSSS 110200Z 13013KT 9999 FEW018 FEW020TCU BKN300 30/24 Q1011 NOSIG",
    "WMKK": "METAR WMKK 110200Z VRB03KT 9999 FEW017CB 29/26 Q1011 NOSIG",
    "WIDD": "METAR WIDD 110200Z 17007KT 9999 SCT014 29/25 Q1012 NOSIG",
    "VTBS": "METAR VTBS 110200Z 23007KT 210V280 9999 FEW020 BKN100 31/23 Q1008 NOSIG",
    "VTBU": "METAR VTBU 110200Z 26010KT 9000 FEW020 31/27 Q1008 NOSIG",
    "ROAH": "METAR ROAH 110200Z 13035G52KT 5000 -SHRA BR FEW015 BKN030 BKN070 27/26 Q0996",
    "VVDN": "METAR VVDN 110200Z 21005KT 170V240 9999 FEW020 33/21 Q1002 NOSIG",
    "RCKH": "METAR RCKH 110200Z 30022G39KT 270V330 9000 -RA FEW010 SCT020 BKN030 30/25 Q0993 TEMPO 3000 SHRA RMK QFF 993.2HPA A2933 RA AMT 0.2MM",
    "KLAX": "METAR KLAX 110253Z 26010KT 10SM FEW010 FEW015 20/17 A2985 RMK AO2 SLP106 T02000167 56007 $",
    "KONT": "METAR KONT 110253Z 24008KT 10SM SCT150 BKN180 28/14 A2984 RMK AO2 SLP089 FU SCT150 T02830139 55003 $",
    "KSFO": "METAR KSFO 110156Z 28012G19KT 10SM FEW005 SCT014 SCT200 16/11 A2992 RMK AO2 SLP130 T01560111 $",
    "KOAK": "METAR KOAK 110253Z 25010KT 10SM FEW007 SCT014 SCT250 15/11 A2993 RMK AO2 SLP134 T01500111 55005",
    "KMHR": "METAR KMHR 110155Z AUTO 20010KT 10SM CLR 30/11 A2978 RMK AO2 T03010110 $",
    "KDFW": "METAR KDFW 110253Z 17013KT 10SM FEW070 FEW250 33/19 A2993 RMK AO2 SLP123 T03280194 52007 $",
    "KIAH": "METAR KIAH 110253Z 17004KT 10SM SCT250 27/24 A2998 RMK AO2 SLP152 T02720239 53001",
    "KORD": "METAR KORD 110251Z 04008KT 10SM SCT210 BKN240 23/15 A3000 RMK AO2 SLP153 T02280150 53013",
    "KJFK": "METAR KJFK 110251Z 28006KT 10SM FEW050 SCT150 BKN250 27/21 A2988 RMK SLP119 T02670211 51018 $",
    "KRFD": "METAR KRFD 110254Z 07005KT 10SM OVC230 23/16 A3001 RMK AO2 SLP156 T02330156 53015",
    "KIND": "METAR KIND 110254Z 00000KT 10SM FEW030 BKN150 BKN250 26/22 A2996 RMK AO2 SLP138 T02610222 51014",
    "KDTW": "METAR KDTW 110253Z 08005KT 10SM SCT040 BKN230 23/21 A2998 RMK AO2 SLP146 T02280206 53020 $",
    "KMSP": "METAR KMSP 110253Z 24004KT 10SM FEW055 FEW250 28/18 A2998 RMK AO2 SLP144 T02780178 53012",
    "CYEG": "METAR CYEG 110200Z CCA 35016G21KT 20SM FEW030CB SCT092 BKN220 19/13 A2981 RMK CB2ACC2CI1 CB SH DIST N-NE MOV E SLP099 DENSITY ALT 3500FT",
    "EHAM": "METAR EHAM 110155Z 04006KT 9999 FEW006 SCT009 18/17 Q1020 BECMG BKN008",
    "EBBR": "METAR EBBR 110220Z 05003KT CAVOK 17/14 Q1019 NOSIG",
    "EDDF": "METAR EDDF 110220Z AUTO 02011KT CAVOK 20/12 Q1017 NOSIG",
    "EDFH": "METAR EDFH 110220Z 10003KT 050V160 CAVOK 16/11 Q1019",
    "EDDL": "METAR EDDL 110220Z AUTO 04004KT CAVOK 15/14 Q1019 NOSIG",
    "EDDK": "METAR EDDK 110220Z AUTO 06005KT CAVOK 14/13 Q1018 NOSIG",
    "EBLG": "METAR EBLG 110220Z 04004KT CAVOK 17/13 Q1019 NOSIG",
    "LSZH": "METAR LSZH 110220Z AUTO 01003KT CAVOK 18/12 Q1016",
    "LIMC": "METAR LIMC 110220Z 03005KT CAVOK 23/18 Q1015 NOSIG",
    "LIRF": "METAR LIRF 110220Z 28002KT CAVOK 22/22 Q1015 NOSIG",
    "EINN": "METAR EINN 110200Z 34007KT CAVOK 16/14 Q1022 NOSIG",
    "EGLL": "METAR EGLL 110220Z AUTO 05006KT 9999 NCD 20/13 Q1020",
    "EGSS": "METAR EGSS 110220Z AUTO 07007KT 9999 NCD 16/15 Q1021",
    "EPWA": "METAR EPWA 110200Z 30007KT 9999 OVC004 14/13 Q1014 TEMPO OVC003",
    "UHPP": "METAR UHPP 110200Z 34003MPS CAVOK 29/05 Q1008 R34L/CLRD62 NOSIG RMK QFE753/1004",
    "EFHK": "METAR EFHK 110220Z 36007KT CAVOK 16/11 Q1018 NOSIG",
    "LBBG": "METAR LBBG 110200Z AUTO 23004KT 9999 NCD 17/15 Q1017 NOSIG",
    "LTAC": "METAR LTAC 110220Z VRB02KT CAVOK 14/09 Q1020 NOSIG RMK RWY21C 04004KT RWY03L VRB01KT RWY21R VRB01KT RWY03R 00000KT RWY21L VRB01KT",
    "UBBB": "METAR UBBB 110200Z 32004KT CAVOK 24/22 Q1010 NOSIG",
    "UTAA": "METAR UTAA 110200Z 28014KT 9999 SCT100 31/19 Q1008 R88/CLRD70 NOSIG",
    "UACC": "METAR UACC 110200Z 09002MPS 060V120 CAVOK 22/12 Q1016 NOSIG RMK QFE730/0974",
    "UAAA": "METAR UAAA 110200Z 30002MPS 220V330 9999 NSC 24/11 Q1008 NOSIG",
    "UZTT": "METAR UZTT 110200Z 07004KT 030V090 CAVOK 28/14 Q1003 NOSIG",
    "ZWWW": "METAR ZWWW 110200Z VRB02MPS CAVOK 29/05 Q1010 NOSIG",
    "ZLXY": "METAR ZLXY 110200Z 25004MPS CAVOK 29/23 Q1004 NOSIG",
    "ZBAA": "METAR ZBAA 110200Z 11002MPS 060V140 8000 NSC 27/26 Q1002 BECMG TL0220 BKN010 OVC033",
    "ZBHH": "METAR ZBHH 110200Z VRB01MPS 4000 -RA BR FEW033 20/20 Q1008 NOSIG",
    "ZSQD": "METAR ZSQD 110200Z 15007MPS 9999 SCT013 29/24 Q1007 NOSIG",
    "ZMCK": "METAR ZMCK 110200Z 29008MPS 9999 -RA FEW017 FEW027CB BKN030 15/15 Q1006 NOSIG RMK QFE640.4 100 NE CM",
    "UUEE": "METAR UUEE 110200Z 14002MPS 090V180 CAVOK 20/17 Q1014 R06C/CLRD62 NOSIG",
    "UUDD": "METAR UUDD 110200Z 00000MPS CAVOK 17/16 Q1013 R13R///99// NOSIG",
    "ULLI": "METAR ULLI 110200Z 08003MPS 9999 -SHRA SCT018CB BKN033 18/16 Q1016 R10R/290050 NOSIG",
    "USSS": "METAR USSS 110200Z 12002MPS 9999 SCT010 OVC028CB 19/19 Q1016 R08R/290050 R08L/290040 NOSIG RMK QFE742/0989",
    "UNNT": "METAR UNNT 110200Z 32006MPS 9999 OVC017 18/14 Q1009 R25/CLRD// R34/////// NOSIG RMK QFE747/0996",
    "UNKL": "METAR UNKL 110200Z VRB01MPS 9999 -SHRA SCT045CB 14/11 Q1011 R29/CLRD// NOSIG RMK QFE733",
    "UIBB": "METAR UIBB 110200Z 33002MPS 270V050 9999 NSC 15/08 Q1011 R30/CLRD62 NOSIG RMK QFE715/0954",
    "UEEE": "METAR UEEE 110200Z 31003MPS 9999 BKN019 BKN040CB 15/10 Q1005 R23/290164 NOSIG RMK QFE745",
    "UHHH": "METAR UHHH 110200Z 22003MPS 180V250 9999 SCT017CB 27/24 Q1005 R88/090060 NOSIG RMK QFE747/0997",
    "UHSS": "METAR UHSS 110200Z 16001MPS 8000 OVC004 20/20 Q1010 R01/290060 NOSIG RMK MT OBSC QFE756/1008"
  },
  "taf": {
    "RJAA": "TAF RJAA 102305Z 1100/1206 16008KT 9999 FEW030",
    "PANC": "TAF PANC 102326Z 1100/1206 29005KT P6SM SKC FM110600 16010G20KT P6SM BKN080 FM111700 17010G20KT P6SM OVC060",
    "PAFA": "TAF PAFA 102320Z 1100/1206 10003KT P6SM SCT070 BKN150 FM110400 09004KT P6SM SCT070 FM112100 22015G28KT P6SM VCSH SCT070",
    "PAED": "TAF PAED 102100Z 1021/1203 27006KT 9999 BKN030 QNH2987INS BECMG 1023/1024 VRB06KT 9999 SCT055 QNH2982INS BECMG 1121/1122 21009KT 9999 SCT035 BKN055 BKN200 QNH2978INS TX20/1102Z TN13/1114Z",
    "KSEA": "TAF KSEA 110234Z 1103/1206 30007KT P6SM SCT060 BKN100 FM110600 22005KT P6SM SCT025 BKN060 BKN100 FM111000 21005KT P6SM BKN035 BKN050 FM111800 24004KT P6SM SCT035 SCT050",
    "ZSPD": "TAF ZSPD 102119Z 1100/1206 08009G15MPS 8000 BKN015 TX30/1106Z TX29/1206Z TN25/1121Z BECMG 1107/1108 09015G22MPS TEMPO 1122/1203 SHRA BKN008 FEW030CB",
    "ZSSS": "TAF ZSSS 102121Z 1100/1206 08004MPS 8000 BKN020 TX32/1106Z TX31/1206Z TN26/1121Z BECMG 1103/1104 09009G15MPS TEMPO 1123/1204 SHRA BKN010 FEW030CB",
    "RJFR": "TAF RJFR 102305Z 1100/1206 09016KT 9999 FEW030 BECMG 1103/1105 07016KT BECMG 1115/1118 09012KT BECMG 1121/1200 06012KT",
    "VHHH": "TAF VHHH 110200Z 1103/1209 30010KT 9999 FEW015 TX35/1106Z TX34/1206Z TN29/1122Z BECMG 1110/1112 24015KT",
    "RCTP": "TAF RCTP 102300Z 1100/1206 35022G40KT 6000 FEW008 BKN017 BKN040 TEMPO 1100/1106 32028G45KT 2000 SHRA FEW003 BKN006 FEW010CB TEMPO 1106/1112 27030G46KT 2500 SHRA FEW004 BKN008 FEW010CB BECMG 1112/1114 23025G40KT TEMPO 1116/1122 23030G45KT 4000 RA FEW006 BKN012 TEMPO 1200/1206 22012G22KT FEW010 BKN032",
    "ZGSZ": "TAF ZGSZ 102100Z 1100/1206 31004MPS 8000 FEW040 TX34/1106Z TX33/1206Z TN29/1122Z BECMG 1108/1109 21004MPS",
    "WSSS": "TAF WSSS 102300Z 1100/1206 17009KT 9999 FEW015 SCT020",
    "WMKK": "TAF WMKK 102300Z 1100/1206 VRB03KT 9999 FEW018 TEMPO 1100/1104 6000 -TSRA FEW010 FEW017CB",
    "VTBS": "TAF VTBS 102300Z 1100/1206 22008KT 9999 FEW020",
    "VTBU": "TAF VTBU 102300Z 1100/1124 24008KT 9999 FEW020",
    "ROAH": "TAF AMD ROAH 110236Z 1102/1206 14035KT 8000 -SHRA FEW008 BKN012 TEMPO 1102/1104 13045G60KT 2000 +SHRA BR FEW005 BKN008 SCT015CB TEMPO 1104/1112 14040G55KT 4000 SHRA BR FEW005 BKN008 FEW015CB TEMPO 1112/1118 15035G50KT BECMG 1200/1203 16024KT",
    "VVDN": "TAF VVDN 102300Z 1100/1124 23010KT 9999 FEW020 SCT060",
    "RCKH": "TAF RCKH 102300Z 1100/1206 30018G32KT 8000 FEW015 BKN032 TEMPO 1100/1106 31023G38KT 4000 SHRA FEW006 FEW010CB BKN012 TEMPO 1106/1112 26015G30KT 5000 RA FEW010 BKN020 BECMG 1112/1114 24013G25KT BECMG 1120/1122 23008G18KT TEMPO 1200/1206 4000 SHRA FEW006 FEW010CB BKN014",
    "KLAX": "TAF KLAX 110305Z 1103/1206 27010KT P6SM FEW008 SCT014 FM110400 26006KT P6SM SCT008 BKN014 FM110600 26004KT 5SM BR BKN008 FM111100 20005KT 4SM BR FEW004 OVC008 FM111700 25008KT P6SM SCT008 BKN014 FM111900 26010KT P6SM FEW008 SCT014",
    "KONT": "TAF KONT 110331Z 1104/1206 24008KT P6SM SKC FM110500 VRB04KT P6SM SKC FM111200 VRB03KT 5SM BR SCT006 FM111600 VRB03KT P6SM SCT100 SCT150 FM112100 25011G18KT P6SM SCT100 SCT150 FM120400 25005KT P6SM SCT100 SCT150",
    "KSFO": "TAF KSFO 110305Z 1103/1206 28015KT P6SM FEW007 FM110900 28009KT P6SM BKN010 FM111700 30015KT P6SM SKC",
    "KOAK": "TAF KOAK 102329Z 1100/1206 27015KT P6SM FEW007 FM110500 26008KT P6SM OVC009 FM111900 28012KT P6SM SKC",
    "KMHR": "TAF KMHR 102327Z 1100/1124 21010G17KT P6SM SKC FM110500 17007KT P6SM SKC FM111400 19006KT P6SM FEW250 FM112100 23010KT P6SM BKN250",
    "KDFW": "TAF KDFW 110252Z 1103/1206 18011KT P6SM SKC",
    "KIAH": "TAF KIAH 110257Z 1103/1206 17004KT P6SM SCT250 PROB30 1106/1111 6SM -SHRA FM111200 VRB05KT P6SM VCSH SCT050 FM111500 17006KT P6SM VCTS SCT025 SCT035CB PROB30 1118/1122 VRB10G18KT 5SM -TSRA SCT035CB BKN120 FM112300 16007KT P6SM FEW035 BKN100 FM120300 17003KT P6SM FEW045",
    "KORD": "TAF KORD 110237Z 1103/1206 03007KT P6SM BKN250 FM111300 05012KT P6SM FEW300",
    "KJFK": "TAF KJFK 110235Z 1103/1206 25008KT P6SM SCT050 BKN250 FM110500 31006KT P6SM SCT150 FM110800 01006KT P6SM FEW050 BKN250 FM111200 07010KT P6SM SCT050 BKN250 PROB30 1112/1118 5SM -SHRA BKN050 FM111800 10009KT P6SM BKN080",
    "KRFD": "TAF KRFD 102320Z 1100/1124 02005KT P6SM BKN250 FM111300 05010KT P6SM FEW300",
    "KIND": "TAF KIND 110240Z 1103/1206 25006KT P6SM SCT030 BKN150 FM110600 25003KT P6SM VCSH BKN060 PROB30 1108/1112 5SM -TSRA BR BKN030CB FM111400 00000KT P6SM BKN035 FM111600 05004KT P6SM BKN035",
    "KDTW": "TAF KDTW 110302Z 1103/1206 04005KT P6SM SCT050 FM111200 03007KT P6SM SCT030 TEMPO 1114/1116 BKN025 FM111800 08007KT P6SM SCT050 FM120000 05008KT P6SM BKN250",
    "KMSP": "TAF KMSP 110245Z 1103/1206 VRB03KT P6SM SKC FM111500 18007KT P6SM FEW050",
    "CYEG": "TAF CYEG 110245Z 1103/1124 03012KT P6SM FEW040 SCT090 BKN220 BECMG 1103/1105 09005KT FEW110 SCT220 FM110900 09005KT P6SM SCT080 BKN110 FM111000 07005KT P6SM VCSH SCT050 BKN080 TEMPO 1110/1114 6SM -SHRA BR SCT020 BKN050 OVC080 PROB30 1111/1114 VRB20G30KT 5SM TSRA BKN020 OVC050CB FM111400 01005KT P6SM SCT012 BKN030 TEMPO 1114/1121 P6SM -SHRA FEW006 BKN012 OVC025 BECMG 1119/1121 30010G20KT FM112200 31010G20KT P6SM FEW030 BKN080 BECMG 1122/1124 32012KT FEW080 RMK NXT FCST BY 110600Z",
    "EHAM": "TAF EHAM 102314Z 1100/1206 04008KT CAVOK BECMG 1101/1104 BKN006 PROB40 TEMPO 1101/1106 4000 BR BKN003 BECMG 1106/1108 CAVOK",
    "EBBR": "TAF EBBR 102304Z 1100/1206 04005KT CAVOK",
    "EDDF": "TAF EDDF 102300Z 1100/1206 03009KT CAVOK",
    "EDFH": "TAF EDFH 102300Z 1100/1124 06007KT CAVOK",
    "EDDL": "TAF EDDL 102300Z 1100/1206 02004KT CAVOK BECMG 1108/1111 04009KT BECMG 1120/1123 02004KT",
    "EDDK": "TAF EDDK 102300Z 1100/1206 VRB03KT CAVOK BECMG 1109/1112 04007KT BECMG 1120/1123 VRB03KT",
    "EBLG": "TAF EBLG 102304Z 1100/1206 05005KT CAVOK",
    "LSZH": "TAF LSZH 110225Z 1103/1209 32005KT CAVOK TX34/1115Z TN16/1103Z TN16/1203Z BECMG 1109/1111 05007KT PROB40 TEMPO 1113/1118 07010KT BECMG 1119/1122 32005KT",
    "LIMC": "TAF LIMC 102300Z 1100/1206 VRB05KT 9999 SCT030 TEMPO 1115/1119 22010KT 4000 TSRA",
    "LIRF": "TAF LIRF 102300Z 1100/1206 VRB05KT 9999 FEW010 BECMG 1106/1108 19011KT BECMG 1117/1119 VRB05KT",
    "EINN": "TAF EINN 102300Z 1100/1124 36009KT 9999 FEW030",
    "EGLL": "TAF EGLL 102256Z 1100/1206 06008KT CAVOK PROB30 TEMPO 1201/1206 BKN009",
    "EGSS": "TAF EGSS 102259Z 1100/1206 04009KT CAVOK PROB30 TEMPO 1104/1108 BKN005 BECMG 1121/1124 BKN012 PROB30 TEMPO 1200/1206 BKN007",
    "EPWA": "TAF EPWA 110230Z 1103/1203 31006KT 9999 BKN005 TEMPO 1103/1105 4000 BR OVC003 BECMG 1106/1109 SCT025 TEMPO 1111/1120 -SHRA BKN025CB PROB40 TEMPO 1112/1118 VRB15G30KT 3000 TSRA",
    "UHPP": "TAF UHPP 110133Z 1103/1209 33003G12MPS 9999 NSC TX31/1104Z TN14/1117Z",
    "EFHK": "TAF EFHK 110227Z 1103/1203 36007KT CAVOK TEMPO 1105/1110 6000 SHRA SCT050CB PROB30 TEMPO 1110/1115 FEW050CB BECMG 1119/1121 7000 SHRA FEW045CB",
    "LBBG": "TAF LBBG 102300Z 1100/1124 VRB03KT CAVOK BECMG 1105/1107 26008KT BECMG 1111/1113 13012KT BECMG 1119/1120 VRB03KT",
    "LTAC": "TAF LTAC 102240Z 1100/1124 VRB02KT CAVOK BECMG 1104/1107 FEW040 BECMG 1114/1117 CAVOK BECMG 1117/1120 04012KT",
    "UBBB": "TAF UBBB 102302Z 1100/1124 34006KT CAVOK TX31/1110Z TN21/1101Z TEMPO 1100/1104 VRB04KT SCT010 BECMG 1104/1106 35012KT TEMPO 1106/1118 34018KT FEW015 SCT030",
    "UTAA": "TAF UTAA 102245Z 1100/1124 28018KT 6000 SCT050 TX41/1111Z TEMPO 1100/1112 32014G24KT 4000 DRDU",
    "UACC": "TAF UACC 102301Z 1100/1124 VRB01MPS 9999 SCT040 BKN100 TX35/1109Z TN16/1101Z BECMG 1104/1105 01005MPS TEMPO 1105/1116 05010MPS SCT030CB BECMG 1116/1118 VRB01MPS TEMPO 1116/1124 08005MPS",
    "UAAA": "TAF UAAA 102300Z 1100/1124 02002G07MPS 9999 FEW050CB SCT100 TX34/1110Z TN17/1101Z TEMPO 1115/1124 16003MPS",
    "UZTT": "TAF UZTT 102300Z 1100/1124 07010KT 7000 NSC TX40/1111Z TN25/1100Z TEMPO 1106/1118 32015KT FEW060CB",
    "ZWWW": "TAF ZWWW 102105Z 1100/1206 20004MPS CAVOK TX36/1109Z TX35/1206Z TN26/1122Z BECMG 1102/1103 36004MPS BECMG 1114/1115 18004MPS BECMG 1202/1203 36004MPS",
    "ZLXY": "TAF ZLXY 102133Z 1100/1124 26004MPS 6000 NSC TX35/1107Z TN25/1118Z TEMPO 1112/1116 TSRA FEW040CB OVC050 BECMG 1115/1116 SHRA FEW040CB OVC050 TEMPO 1116/1122 +SHRA",
    "ZBAA": "TAF ZBAA 102107Z 1100/1206 16003MPS 3500 BR NSC TX29/1106Z TX28/1206Z TN24/1121Z TEMPO 1107/1113 -TSRA SCT040CB BKN040 TEMPO 1113/1119 TSRA SCT040CB BKN040",
    "ZBHH": "TAF AMD ZBHH 102256Z 1018/1118 16002MPS 8000 BKN030 TX24/1108Z TN18/1022Z BECMG 1103/1104 2800 -SHRA TEMPO 1111/1113 -TSRA FEW040CB SCT040",
    "ZSQD": "TAF ZSQD 102108Z 1100/1124 15006G13MPS 5000 BR FEW015 TX31/1106Z TN25/1120Z",
    "ZMCK": "TAF ZMCK 102247Z 1100/1206 VRB02MPS 9999 RA FEW020 FEW027CB BKN030 TX17/1107Z TN09/1121Z BECMG 1101/1104 31007MPS TEMPO 1107/1114 VRB08G13MPS 6000 TSRA FEW017 SCT027CB BKN030 BECMG 1200/1203 NSW FEW030CB SCT033",
    "UUEE": "TAF UUEE 110154Z 1103/1203 09003MPS 9999 BKN020 TX26/1110Z TN17/1201Z PROB40 TEMPO 1103/1107 -TSRA BKN016CB TEMPO 1107/1121 20010G18MPS 2100 -TSRA SQ BKN016CB",
    "UUDD": "TAF UUDD 110157Z 1103/1209 08003MPS 9999 BKN020 TX25/1109Z TN15/1201Z PROB40 TEMPO 1103/1109 -TSRA BKN016CB TEMPO 1109/1120 VRB18MPS 1200 TSRA SQ BKN016CB TEMPO 1120/1209 2500 -SHRA BKN007 BKN016CB",
    "ULLI": "TAF ULLI 110152Z 1103/1203 04003MPS 8000 BKN020 TEMPO 1103/1108 3100 -SHRA BR BKN016CB BECMG 1105/1107 06006G12MPS TEMPO 1108/1116 VRB15MPS 1000 TSRA SQ BKN010 BKN016CB BECMG 1116/1118 02003MPS",
    "USSS": "TAF USSS 110145Z 1103/1203 13003MPS 6000 -SHRA BKN016CB TEMPO 1103/1105 SCT006 BKN020CB FM110500 16003G14MPS 9999 BKN020CB TEMPO 1105/1119 -TSRA",
    "UNNT": "TAF UNNT 110200Z 1103/1203 35006G15MPS 8000 BKN030 TX22/1109Z TN15/1121Z TEMPO 1103/1115 -TSRA BKN020CB",
    "UNKL": "TAF UNKL 110145Z 1103/1203 35003G08MPS 6000 SCT040 TEMPO 1106/1112 07005MPS",
    "UIBB": "TAF UIBB 110200Z 1103/1203 28003G08MPS 9999 BKN030CB TEMPO 1103/1112 VRB08MPS",
    "UEEE": "TAF UEEE 110200Z 1103/1209 32005G10MPS 9999 SCT020CB BKN100",
    "UHHH": "TAF UHHH 110152Z 1103/1209 21003MPS 9999 FEW010 SCT016CB TX29/1105Z TN21/1118Z TEMPO 1103/1115 VRB08MPS 3100 -TSRA FEW004 BKN016CB FM111700 VRB01MPS 3100 -SHRA BR BKN004 BKN016CB FM120300 24003MPS 9999 SCT020CB TEMPO 1203/1209 26008MPS",
    "UHSS": "TAF UHSS 110155Z 1103/1209 18003MPS 9999 BKN007 BKN017CB TEMPO 1103/1106 BKN004 BKN016CB BECMG 1109/1112 BKN005 BKN017CB FM120000 15003MPS 9999 -SHRA BKN007 BKN017CB"
  },
  "atis": {
    "RJAA": "[Arrival ATIS] RJAA ARR ATIS G 2032Z MS2030 (APCH)ILS Y RWY16L LDG RWY 16L DEP RWY 16R DEP FREQ 124.2. TWY A1 CLSD. MS 202030Z AUTO 15013KT 120V180 9999 FEW003// BKN005// OVC007// //////CB 22/22 Q1003/A2962 RMK CB 15KM SE-SW MOV E TCU 25KM N MOV E= Q/TWO NINE SIX TWO STP\n[Departure ATIS] RJAA DEP ATIS S 1315Z M1300 (APCH)ILS Y RWY16R/ILS Y RWY16L USING RWY 16R/16L DEP FREQ 124.2. TWY A1 CLSD. PARL APCHS INPR. RWY 16L/34R WILL BE CLSD FM 1410. M 201300Z 15010KT 7KM -RA BKN006ST 21/21 Q1010/A2984= Q/TWO NINE EIGHT FOUR STP",
    "PANC": "[Arrival ATIS] PANC ARR ATIS Y 1953Z - PANC ATIS INFO Y 1953Z. 28008KT 10SM SCT006 SCT120 11/08 A3021 (THREE ZERO TWO ONE). 7R APPROACHES IN USE. LANDING RWY 7R, DEPARTING RWY 33. NOTICE TO AIRMEN. RWY 7L CLSD. CHECK NOTAMS FOR TAXIWAY CLOSURES. ...ADVS YOU HAVE INFO Y.\n[Departure ATIS] PANC DEP ATIS X 0953Z ANC ATIS INFO X 0953Z. 12016G27KT 10SM SCT060 BKN085 OVC100 14/07 A2973 (TWO NINER SEVEN THREE). ILS RWY 15 APPROACHES IN USE. LANDING RWY 15, DEPARTING RWY 25L. NOTICE TO",
    "KSEA": "[Arrival ATIS] KSEA ARR ATIS L 0253Z SEA ATIS INFO L 0253Z. 28006KT 10SM SCT060 SCT200 22/13 A2988 (TWO NINER EIGHT EIGHT). ILS AND CHARTED VISUAL APPROACH RWYS 34L AND 34R , APCH IN USE. DEPG RWY 34R, RWY 34C. SIMUL ARRIVALS TO RWY 34L AND DEPARTURES TO RWY 34R ARE IN USE. SIMUL APCHS IN USE TO PARA RYS. NOTAMS... BIRD ACTIVITY VICINITY ARPT. ...ADVS YOU HAVE INFO L.\n[Departure ATIS] KSEA DEP ATIS K 0153Z SEA ATIS INFO K 0153Z. 26005KT 10SM FEW050 FEW200 23/12 A2987 (TWO NINER EIGHT SEVEN). ILS AND CHARTED VISUAL APPROACH RWYS 34L AND 34R , APCH IN USE. DEPG RWY 34R, RWY 34C. SIMUL ARRIVALS TO RWY 34L AND DEPARTURES TO RWY 34R ARE IN USE. SIMUL APCHS IN USE TO PARA RYS. NOTAMS... BIRD ACTIVITY VICINITY ARPT. ...ADVS YOU HAVE INFO K.",
    "ZSPD": "[Arrival ATIS] ZSPD ARR ATIS I 2030Z EXP ILS APCH LDG RWY 17R RWY 17L IS CLSD RWY 16L IS CLSD WIND RWY 17R TDZ 150/2MPS MID 150/4MPS END 150/4MPS VIS RWY 17R TDZ 3900M MID 3800M END 3500M BR CLD FEW 210M T 24 /DP 24 QNH 1008 HPA CAUTION THE BIRDS NEAR THE RUNWAY ADZ YOU HAVE INFO I.\n[Departure ATIS] ZSPD DEP ATIS G 1930Z DEP RWY 16R RWY 17L IS CLSD RWY 16L IS CLSD WIND RWY 16R TDZ 160/3MPS MID 170/2MPS END 160/2MPS VIS RWY 16R TDZ 5000M MID 4600M END 5000M BR CLD BKN 210M T 24 /DP 24 QNH 1008 HPA DELIVERY FREQ 118.4 CAUTION THE BIRDS NEAR THE RUNWAY ADZ YOU HAVE INFO G.",
    "ZSSS": "[Arrival ATIS] ZSSS ARR ATIS T 0300Z EXP ILS APCH LDG RWY 18L WIND RWY 18L TDZ 100/7MPS MID 100/10MPS END 110/8MPS VIS RWY 18L TDZ 10000M MID 10000M END 10000M CLD BKN 990M T 32 /DP 25 QNH 1004 HPA QNH OF SHA\n[Departure ATIS] ZSSS DEP ATIS P 1245Z DEP RWY 18R WIND RWY 18R TDZ 180/2MPS MID 170/2MPS END 150/2MPS VIS RWY 18R TDZ 10000M MID 10000M END 10000M CLD FEW 990M T 27 /DP 24 QNH 1007 HPA QNH OF SHANGHAI TERMINAL CONTROL AREA 1008 HPA ADZ YOU HAVE INFO P.",
    "VHHH": "[Arrival ATIS] VHHH ARR ATIS J 0335Z ARRIVALS, RWY 25R/L. EXP RNAV TRANSITION TO ILS APCH, RWY 25R. EXP ILS APCH, RWY 25L. RNP APCH IS AVBL ON REQ, RWY 25R. CAUTION POSSIBLE GP FLUCTUATION RWY 25L. WIND RWY 25R 350/05KT RWY 25L 310/06KT. VIS RWY 25R 10KM RWY 25L 10KM. CLD FEW 1500FT. T31 DP25. QNH 0999HPA. ACK INFO J ON FIRST CTC WITH APP.\n[Departure ATIS] VHHH DEP ATIS Z 0235Z DEPARTURES, RWY 25C/L. INDEPENDENT PARALLEL DEPARTURE IN PROGRESS. WIND RWY 25C 320/05KT RWY 25L 290/06KT. VIS RWY 25C 10KM RWY 25L 10KM. CLD FEW 1500FT. T30 DP25. QNH 0999HPA. ACK INFO Z ON FIRST CTC WITH DELIVERY .",
    "RCTP": "[Arrival ATIS] RCTP ARR ATIS F 2030Z EXP ILS APCH RWY23L ARR/DEP. RWY23R CLSD BTN 1700Z AND 2230Z FOR INSPECTION. WIND 210/09KT VIS 10 KM OR MORE CLD FEW 1200FT T 26 DP 23 QNH 1010HPA NOSIG INFORM TAIPEI APCH OR TAIPEI TOWER ON INITIAL CONTACT YOU HAVE INFORMATION F\n[Departure ATIS] RCTP DEP ATIS E 0100Z EXP ILS APCH RWY SFC RWY 05L SFC COND 5/5/5 ISSUED AT 2230Z. 100/100/100 NR/NR/NR WET/WET/WET RWY 05R SFC COND 5/5/5 ISSUED AT 2257Z. 100/100/100 NR/NR/NR WET/WET/WET RWY05L AND RWY05R ARR/DEP. WIND 340/19KT GUSTING TO 34KT VIS 3000M SHRA CLD SCT 800FT BKN 1200FT BKN 2000FT T 27 DP 26 QNH 0987HPA WS ALL RWY NOSIG LOW LVL WS ADVISORY IN EFFECT. CTN BIRD ACTIVITY IN THE VCY OF THE AD. INFORM TAIPEI APCH OR TAIPEI TOWER ON INITIAL CONTACT YOU HAVE INFORMATION E",
    "ZGSZ": "[Arrival ATIS] ZGSZ ARR ATIS L 2030Z EXP ILS APCH LDG RWY 15 WIND 160/4MPS VIS 9999M CLD FEW 600M T 28 /DP 27 QNH 1010 HPA SINGLE RUNWAY OPERATION MISSED APPROACH ALTITUDE SETTING 1200METERS WHEN AIRBORNE CONTACT ZHUHAI APPROACH EXPECTED RNP ILS DME Z APPROACH ADZ YOU HAVE INFO L.\n[Departure ATIS] ZGSZ DEP ATIS J 1930Z DEP RWY 15 WIND 160/5MPS VIS 9999M CLD FEW 600M T 28 /DP 27 QNH 1010 HPA DELIVERY FREQ 121.65 SINGLE RUNWAY OPERATION MISSED APPROACH ALTITUDE SETTING 1200METERS WHEN AIRBORNE CONTACT ZHUHAI APPROACH EXPECTED RNP ILS DME Z APPROACH ADZ YOU HAVE INFO J.",
    "WSSS": "[Arrival ATIS] WSSS ARR ATIS Y 2030Z METREPORT 2030Z ILS APCHRWY 20R RSCD RWY20R 1916Z RWYCC:5.6.6. FIRST PART 100% WET. TWY W 9 CLOSED, RWY 02C 20C RAPID EXIT TAXIWAY INDICATOR LIGHTS OFFFOLLOW THE GREENS TRIAL IN PROGRESS. WHEN VACATING THE RWY, PILOTS TO ADHERE TO ATC VERBAL INSTRUCTIONS. WHEN ON TWY, PILOT TO ADHERE TO FOLLOW THE GREENS INSTRUCTIONS. WHEN APPROACHING [A] JUNCTION, KEEP [A] LOOKOUT FOR CONTINUOUS GREENS. [IF] [A] BREAK IN THE GREENS IS OBSERVED, STOP AND CLARIFY WITH ATC. WIND VRB BTN260 AND350 01KT VIS 10KM CLD FEW 1400FT FEW TCU 1600FT T27 DP25 QNH 1010HPA NOSIG ACK ATIS Y\n[Departure ATIS] WSSS DEP ATIS U 1916Z METREPORT 1916Z RWY 20C TWY W 9 CLOSED, RWY 02C 20C RAPID EXIT TAXIWAY INDICATOR LIGHTS OFFFOLLOW THE GREENS TRIAL IN PROGRESS. WHEN VACATING THE RWY, PILOTS TO ADHERE TO ATC VERBAL INSTRUCTIONS. WHEN ON TWY, PILOT TO ADHERE TO FOLLOW THE GREENS INSTRUCTIONS. WHEN APPROACHING [A] JUNCTION, KEEP [A] LOOKOUT FOR CONTINUOUS GREENS. [IF] [A] BREAK IN THE GREENS IS OBSERVED, STOP AND CLARIFY WITH ATC. WIND 190/ 03KT VRB BTN160 AND220 VIS 10KM CLD FEW 1600FT T27 DP26 QNH 1011HPA NOSIG DEP,INITIAL CMB 3000FT ACK ATIS U",
    "WMKK": "[Arrival ATIS] WMKK ARR ATIS B 0205Z WMKK ARR INFO B. TIME 0200. INDEPENDENT PARALLEL APPROACHES FOR RWY 14 L AND 15 ARE IN PROGRESS. RWY 14 LEFT. EXP RNAV / ILS APCH FOR RWY 15. WIND RWY 14L 150 DEG, 8 KT, VRB BTN 120 AND 200 DEG. WIND RWY 15 130 DEG, 6 KT. VIS RWY 14L TDZ 10 KM OR MORE. VIS RWY 15 TDZ 10 KM OR MORE. CLD FEW CB 1700 FT. T 29. DP 26. QNH 1011. NOSIG. AT FIRST CONTACT WITH LUMPUR RADAR, NOTIFY RCPT OF B\n[Departure ATIS] WMKK DEP ATIS Y 1504Z WMKK DEP INFO Y. TIME 1500. INDEPENDENT PARALLEL DEPARTURES FOR RWY 14 R AND 15 ARE IN PROGRESS. RWY 14 RIGHT. RWY 15. WIND RWY 14R DIRECTION NOT AVBL SPEED NOT AVBL. WIND RWY 15 DIRECTION NOT AVBL SPEED NOT AVBL. VIS RWY 14R TDZ NOT AVBL. VIS RWY 15 TDZ NOT AVBL. CLD FEW 3000 FT. T 28. DP 25. QNH 1012. NOSIG. ALL DEP ACFT TO CONTACT LUMPUR DEP AT 135 DECIMAL 25 MHZ WHEN ABN. AT FIRST CONTACT WITH LUMPUR GROUND, NOTIFY RCPT OF Y",
    "VTBS": "[Arrival ATIS] VTBS ARR ATIS T 2030Z VTBS ARR ATIS T 2032Z EXP ILS Z APCH ARR RWY 20L RWY 19 AND 20R CLSD DUE TO WIP ,RETIL RWY 20L U/S ,PILOT SHALL ADZ BKK APCH ON INITIAL CTC IF UNA TO CONDUCT RNP APCH DUE TO OPERATIONAL CONSTRAINT 2030Z WIND 230/3KT VIS 10KM CLD FEW 2000FT T29 DP25 QNH 1009HPA TREND NOSIG ADZ BKK APCH ON INITIAL CONTACT THAT YOU HAVE INFO T\n[Departure ATIS] VTBS DEP ATIS X 1900Z VTBS DEP ATIS X 1901Z DEP RWY 20L RWY 20R CLSD DUE TO WIP , ,AFT AIRBORNE ALL DEPARTING ACFT SHALL CTC 119.25 1900Z WIND 210/3KT VIS 10KM CLD FEW 2000FT T29 DP25 QNH 1009HPA TREND NOSIG ADZ GND WHEN INITIAL CONTACT YOU HAVE INFO X",
    "VTBU": "[Arrival ATIS] VTBU ARR ATIS U 0430Z VTBU ARR ATIS U 0430Z RNP RWY 18 TRL FL130 MOBILE ACFT ARST SYSTEM INSTL ATP SIX HUNDRED AND TEN METERS FM THR RWY 36 CABLE HGT 3 INCHES. 0430Z WIND 360/6KT VRB BTN 320/ AND 020/ VIS 10KM CLD FEW 2000FT T34 DP27 QNH 1010HPA TREND NOSIG ADZ CONTROLLER WHEN INITIAL CONTACT YOU HAVE INFO U\n[Departure ATIS] VTBU DEP ATIS D VTBU ARR/DEP DATIS RPT VTBU ARR ATIS D 0330Z ILS \"Z\" APCH RWY 18 TRL FL130 0330Z WIND 110/4KT VRB BTN 350/ AND 120/ VIS 6KM CLD FEW 2000FT T31 DP27 QNH 1014HPA TREND NOSIG ADZ CONTROLLER WHEN INITIAL CONTACT YOU HAVE INFO D",
    "ROAH": "[Arrival ATIS] ROAH ARR ATIS G 2028Z M2000 (APCH)RNP RWY18L USING RWY 18L DEP FREQ 126.5 258.3 RWY 18R/36L CLSD M 202000Z AUTO 20007KT 9999 FEW012// OVC014// 26/26 Q1011/A2986= Q/TWO NINE EIGHT SIX STP\n[Departure ATIS] ROAH DEP ATIS F 1204Z M1200 (APCH)RNP RWY18R LDG RWY 18R DEP RWY 18L DEP FREQ 119.175 316.0 M 201200Z 18011KT 40KM FEW006ST 27/26 Q1012/A2989= Q/TWO NINE EIGHT NINE STP",
    "VVDN": "[Arrival ATIS] VVDN ARR ATIS O 1632Z VVDN INFO O 1632Z. ILS VICTOR APPROACH 35L.. DPTG RWY 35R.. 1632Z. WIND 240/02KT CAVOK T29 DP25 QNH 1009HPA TREND NOSIG. ADZ ON INITIAL CTC YOU HAVE INFO. O.\n[Departure ATIS] VVDN DEP ATIS R 0503Z VVDN INFO R 0503Z. ILS VICTOR APPROACH 35L.. DPTG RWY 35R.. 0502Z. WIND 090/05KT VRB BTN 070/ AND 140/ CAVOK T37 DP23 QNH 1007HPA TREND NOSIG. ADZ ON INITIAL CTC YOU HAVE INFO. R.",
    "RCKH": "[Arrival ATIS] RCKH ARR ATIS M 2000Z EXPECT ILS APPROACH RWY 09 ARR/DEP TAXIWAY JULIETT, TAXIWAY BRAVO, TAXIWAY DELTA AND TAXIWAY ECHO CLOSED DUE MAINTENANCE.RUNWAY 0 9 ARRIVALS PLAN VACATE VIA CHARLIE OR F\n[Departure ATIS] RCKH DEP ATIS J 0630Z EXPECT ILS APPROACH RWY 27 ARR/DEP TAXIWAY JULIETT, TAXIWAY BRAVO, TAXIWAY DELTA AND TAXIWAY ECHO CLOSED DUE MAINTENANCE.RUNWAY 2 7 ARRIVALS PLAN VACATE VIA CHARLIE OR A",
    "KLAX": "[Arrival ATIS] KLAX ARR ATIS W 1853Z LAX ATIS INFO W 1853Z. 23010KT 10SM FEW016 SCT022 SCT027 20/13 A3000 (THREE ZERO ZERO ZERO) RMK AO2 SLP158 T02000128. INST APCHS AND RNAV RNP APCHS RY 24R AND 25L, OR VCTR FOR VISUAL APCH WILL BE PROVIDED, SIMUL VISUAL APCHS TO ALL RWYS ARE IN PROG, SIMUL INSTR DEPARTURES IN PROG RWYS 24 AND 25. CTC L A GC ON 121.75 FOR PUSH OR TAXI ON A. TWY C CLSD BTN TWY, C8 AND TWY C9 , , TWY B CLSD BTN TWY, F AND TWY B1, TWY B1 CLSD. ILS RY 25R OTS, RY 25R SFL OTS, RY 24L ALSF-2 OTS. LAX VOR UNMONITORED. IF ASSIGNED RUNWAY 25R FOR DEPARTURE, EXPECT DEPARTURE FROM INTERSECTION FOXTROT. TAXILANE CHARLIE EIGHT RESTRICTED TO AIRCRAFT WITH A WINGSPAN LESS THAN ONE HUNDRED EIGHTEEN FEET. USE CAUTION FOR INCREASED DRONE ACTIVIY IN THE VICINITY OF SOFI STADIUM AT OR BELOW 200FT AGL DURING THE WORLD CUP FROM 06/12/26 THROUGH 07/10/2026. HAZD WX INFO FOR LAX AREA AVBL FM FSS. USE CAUTION FOR HANG GLIDING 1 MILE SOUTH LOS ANGELES VOR. BIRD ACTIVITY VICINITY ARPT. INCLUDE YOUR CALL SIGN IN ALL READBACKS. USE CAUTION WHEN EXITING RY24R AT TWY V, W, AND Y, TO HOLD SHORT OF RY24L. MULTIPLE RUNWAY INCURSIONS HAVE OCCURRED. ...ADVS YOU HAVE INFO W.\n[Departure ATIS] KLAX DEP ATIS W 1853Z LAX ATIS INFO W 1853Z. 23010KT 10SM FEW016 SCT022 SCT027 20/13 A3000 (THREE ZERO ZERO ZERO) RMK AO2 SLP158 T02000128. INST APCHS AND RNAV RNP APCHS RY 24R AND 25L, OR VCTR FOR VISUAL APCH WILL BE PROVIDED, SIMUL VISUAL APCHS TO ALL RWYS ARE IN PROG, SIMUL INSTR DEPARTURES IN PROG RWYS 24 AND 25. CTC L A GC ON 121.75 FOR PUSH OR TAXI ON A. TWY C CLSD BTN TWY, C8 AND TWY C9 , , TWY B CLSD BTN TWY, F AND TWY B1, TWY B1 CLSD. ILS RY 25R OTS, RY 25R SFL OTS, RY 24L ALSF-2 OTS. LAX VOR UNMONITORED. IF ASSIGNED RUNWAY 25R FOR DEPARTURE, EXPECT DEPARTURE FROM INTERSECTION FOXTROT. TAXILANE CHARLIE EIGHT RESTRICTED TO AIRCRAFT WITH A WINGSPAN LESS THAN ONE HUNDRED EIGHTEEN FEET. USE CAUTION FOR INCREASED DRONE ACTIVIY IN THE VICINITY OF SOFI STADIUM AT OR BELOW 200FT AGL DURING THE WORLD CUP FROM 06/12/26 THROUGH 07/10/2026. HAZD WX INFO FOR LAX AREA AVBL FM FSS. USE CAUTION FOR HANG GLIDING 1 MILE SOUTH LOS ANGELES VOR. BIRD ACTIVITY VICINITY ARPT. INCLUDE YOUR CALL SIGN IN ALL READBACKS. USE CAUTION WHEN EXITING RY24R AT TWY V, W, AND Y, TO HOLD SHORT OF RY24L. MULTIPLE RUNWAY INCURSIONS HAVE OCCURRED. ...ADVS YOU HAVE INFO W.",
    "KONT": "[Arrival ATIS] KONT ARR ATIS P 1853Z ONT ATIS INFO P 1853Z. 22007KT 10SM CLR 23/12 A2998 (TWO NINER NINER EIGHT). ILS AND VIS APR IN USE, RY26L & RY26R. LNDG AND DEPG RY 26L AND RY 26R. NOTAMS... TAXIWAY SIERRA CLSD BETWEEN SIERRA 8 AND W TAXIWAY Q SOUTH OF RWY 26L CLSD TAXIWAY T CLSD TAXIWAY SIERRA 5 CLSD. RY 26L IM OTS. USE CAUTION FOR NUMEROUS BIRDS OBSERVED IN VICINITY OF ONT. PILOTS READBACK RWY ASSIGNMENTS AND HOLD SHORT INSTRUCTIONS. ...ADVS YOU HAVE INFO P.\n[Departure ATIS] KONT DEP ATIS N 0553Z - KONT ATIS INFO N 0553Z. 24004KT 10SM BKN250 22/15 A2988 (TWO NINER EIGHT EIGHT) RMK AO2 SLP100. ILS AND VIS APR IN USE, RY26L & RY26R. LNDG AND DEPG RY 26L AND RY 26R. NOTAMS... TAXIWAY SIERRA CLSD BETWEEN SIERRA 8 AND W TAXIWAY Q SOUTH OF RWY 26L CLSD TAXIWAY T CLSD TAXIWAY SIERRA 5 CLSD. RY 26L IM OTS, RY 26R ALS OTS. USE CAUTION FOR NUMEROUS BIRDS OBSERVED IN VICINITY OF ONT. HAZD WX INFO FOR SOUTHERN CA AVBL ON FSS FREQUENCIES. PILOTS READBACK RWY ASSIGNMENTS AND HOLD SHORT INSTRUCTIONS. ...ADVS YOU HAVE INFO N.",
    "KSFO": "[Arrival ATIS] KSFO ARR ATIS W 1956Z SFO ATIS INFO W 1956Z. 27015G20KT 10SM SCT034 22/11 A2999 (TWO NINER NINER NINER). SIMUL CLSLY SPCD DPNDNT ILS RY 28R AND ILS RY 28L APP IN USE. DEPG RWYS 28L, 28R. RY 1L, 1R CLSD. NUMEROUS TWY CLOSURES FOR CONSTRUCTION ON THE FIELD, PILOTS CHECK NOTAMS. DEPG ACFT WAITING ON FINAL NUMBERS ADVISE GROUND PRIOR TO ENTERING TWY F. ...ADVS YOU HAVE INFO W.\n[Departure ATIS] KSFO DEP ATIS A 1956Z SFO ATIS INFO A 1956Z. 26015KT 10SM FEW005 FEW014 17/11 A2995 (TWO NINER NINER FIVE). SIMUL CLSLY SPCD DPNDNT ILS RY 28R AND ILS RY 28L APP IN USE. DEPG RWYS 28L, 28R. DEPG ACFT SHOULD BE PREPARED FOR A SHORT NOTICE RY CHANGE. RY 1L, 1R CLSD. NUMEROUS TWY CLOSURES FOR CONSTRUCTION ON THE FIELD, PILOTS CHECK NOTAMS. MULTIPLE CRANES VCY OF SFO CHECK NOTAMS. DEPG ACFT WAITING ON FINAL NUMBERS ADVISE GROUND PRIOR TO ENTERING TWY F. ...ADVS YOU HAVE INFO A.",
    "KOAK": "[Arrival ATIS] KOAK ARR ATIS A 0353Z - KOAK ATIS INFO A 0353Z. 25010KT 10SM FEW003 OVC007 14/12 A3004 (THREE ZERO ZERO FOUR). RNAV, RWY 30. ILS, RWY 28R. FLOW TO LAX, LAS, SAN, SEA. ILS RWY 30, OTS, RWY 28R RAIL, OTS. UNN LIT CLOSE-IN OBSTACLES FOR RWY 30 DEPARTURES. RWY 30 DEPARTURES ARE ADVISED TO AVOID TURNING LEFT PRIOR TO DEPARTURE END OF RUNWAY. CTN, CRANE 1 POINT 6 NAUTICAL MILES, , AT 140 FEET AGL. CAUTION, BIRDS NEAR AIRPORT. ...ADVS YOU HAVE INFO A.\n[Departure ATIS] KOAK DEP ATIS O 1953Z OAK ATIS INFO O 1953Z. 28014KT 10SM FEW005 22/14 A2988 (TWO NINER EIGHT EIGHT). RNAV Z/VA RWY 30 ILS/VA RWY 28R. FLOW TO LAX, LAS, SAN. ILS RWY 30, OTS. UNN LIT CLOSE-IN OBSTACLES FOR RWY 30 DEPARTURES. RWY 30 DEPARTURES ARE ADVISED TO AVOID TURNING LEFT PRIOR TO DEPARTURE END OF RUNWAY. SIGNATURE UNI-COM OUT OF SERVICE. CAUTION, BIRDS NEAR AIRPORT. ...ADVS YOU HAVE INFO O.",
    "KDFW": "[Arrival ATIS] KDFW ARR ATIS E 1853Z DFW ARR INFO E 1853Z. VRB04KT 10SM SCT035 SCT250 31/23 A2991 (TWO NINER NINER ONE). SIMUL APCH IN USE. EXPECT ILS TO RWYS, 13R, 18R, 17C, 17L. LDG RWY 17C EXP LAHSO TWY B 10460 FT AVAIL, LDG RWY 18R EXP LAHSO TWY B 10100 FT AVL. NOTICE TO AIRMEN. RWY 18L ILS OTS, CL OTS. HAZD WX FOR DFW AVBL ON FSS. BIRD ACTIVITY VCNTY ARPT. ...ADVS YOU HAVE INFO E.\n[Departure ATIS] KDFW DEP ATIS W 1553Z - KDFW DEP INFO W 1553Z. 21022G32KT 10SM FEW025 FEW180 SCT250 31/21 A2994 (TWO NINER NINER FOUR) RMK AO2 PK WND 20032/1547 SLP128 T03110206. SIMUL PARL TRAFFIC DEPG RWYS 17R, 18L. NOTICE TO AIRMEN. WARNING, RWY 18L HAS BEEN SHORTENED, 9273 FT AVAILABLE. RWY 18L CL OTS. BIRD ACTIVITY VCNTY ARPT. ...ADVS YOU HAVE INFO W.",
    "KIAH": "[Arrival ATIS] KIAH ARR ATIS O 1953Z IAH ATIS INFO O 1953Z. 13007KT 10SM -RA FEW011 SCT024 BKN060 OVC200 27/26 A2992 (TWO NINER NINER TWO). ARRIVALS EXPECT ILS OR RNAV Y RY 8R, ILS OR RNAV Y RY 8L. SIMUL APPROACHES IN USE. DEPG RY 15L, RY 15R. NOTICE TO AIRMEN. UNITED RAMP CONTROL IN EFFECT. CODED DEPARTURE ROUTES IN EFFECT. RWY 15L CONDITION CODES, , 5 , , 5 , , 5 , AT 1720Z, RWY 15R CONDITION CODES, , 5 , , 5 , , 5 , AT 1720Z, RWY 08R CONDITION CODES, , 5 , , 5 , , 5 , AT 1720Z, RWY 08L CONDITION CODES, , 5 , , 5 , , 5 , AT 1720Z, RWY 09 CONDITION CODES, , 5 , , 5 , , 5 , AT 1720Z. HAZD WX INFO FOR IAH AREA AVBL FM FSS. WIND SHEAR ADZYS IN EFCT. BIRD ACTIVITY VICINITY ARPT. TWY SA CLSD BTN TWY, SG AND TWY SK , TWY SB CLSD BTN TWY, SG AND TWY SK , , TWY SG CLSD, TWY EA CLSD. NOTAM ATIS IN USE ON FREQUENCY 126.225. ...ADVS YOU HAVE INFO O.\n[Departure ATIS] KIAH DEP ATIS T 0353Z IAH ATIS INFO T 0353Z. 15007KT 10SM FEW035 FEW180 BKN250 27/23 A2996 (TWO NINER NINER SIX). ARRIVALS EXPECT ILS OR RNAV Y RY 8R, ILS OR RNAV Y RY 8L. DEPG RY 15R. NOTICE TO AIRMEN. UNITED RAMP CONTROL IN EFFECT. RY 15L, 33R CLSD. HAZD WX INFO FOR IAH AREA AVBL FM FSS. BIRD ACTIVITY VICINITY ARPT. CRANES ARE DOWN. TWY SA CLSD BTN TWY, SF AND TWY SK , TWY SB CLSD BTN TWY, SF AND TWY SK , , TWY WB CLSD BTN TWY, WG AND TWY WH . TWY EA CLSD. NOTAM ATIS IN USE ON FREQUENCY 126.225. ...ADVS YOU HAVE INFO T.",
    "KORD": "[Arrival ATIS] KORD ARR ATIS T 0251Z ORD ATIS INFO T 0251Z. 04008KT 10SM SCT210 BKN240 23/15 A3000 (THREE ZERO ZERO ZERO) RMK AO2 SLP153 T02280150 53013. ARR EXP VECTORS ILS RWY 10C APCH. DEPS EXP RWYS 9R FROM S S 9870 FT AVL, 10L FROM DD. 10,093 FT AVBL. ATTN PILOTS. SIMUL PARL DEPS IN USE. EXP TO INITIALLY FLY RWY. HDG ON DEP. PILOTS MUST READ BACK DRCTN OF TURNS BY ATC. RWY 4L, 22R CLSD, RWY 4R, 22L CLSD, RWY 9L, 27R CLSD, RWY 9C, 27C CLSD, RWY 10R, 28L CLSD. RWY 22R LOC OTS, RWY 28L GS OTS, RWY 9L IM OTS, RWY 9C IM OTS, RWY 10L IM OTS, RWY 10R IM OTS, RWY 27R IM OTS, RWY 28L IM OTS, RWY 28R IM OTS, RWY 9L PAPI OTS, RWY 27R PAPI OTS. PILOTS USE CTN FOR BIRD ACTIVITY IN THE VICINITY OF THE ARPT. HAZD WX INFO FOR ORD AREA AVBL ON FSS. USE CTN FOR PERSONNEL AND EQUIP AT NUMEROUS SITES ON THE FIELD. READBACK ALL RWY HOLD SHORT INSTRUCTIONS. WHEN READY TO TAXI CONTACT GND METERING ON FREQ 121.67. ...ADVS YOU HAVE INFO T.\n[Departure ATIS] KORD DEP ATIS R 0151Z ORD ATIS INFO R 0151Z. 04009KT 10SM FEW035 BKN220 BKN250 23/15 A2998 (TWO NINER NINER EIGHT) RMK AO2 SLP146 T02330150. ARR EXP VECTORS ILS RWY 9C APCH, ILS RWY 10C APCH. S",
    "KJFK": "[Arrival ATIS] KJFK ARR ATIS K 0251Z - KJFK ATIS INFO K 0251Z. 29006KT 10SM FEW050 SCT150 BKN250 27/21 A2988 (TWO NINER EIGHT EIGHT) RMK AO2 SLP119 T02670211 51018. APPROACH IN USE ILS RY 31R, VISUAL APCH RY 31L. DEPG RY 31L. RY 31R PAPI OTS, RWY 22L/4R INNER MARKER OTS.RWY 31R PAPI OTS. YES WEE KNOW THERE IS AN AMBER FLASHING LIGHT AT APPROACH END OF RWY 22L. HAZD WX INFO FOR NY METRO AREA AVBL ON FSS. SWAP IN EFFECT EXPECT REROUTES. NUM CRANES OPERATING AT JFK. BIRD ACTIVITY VICINITY ARPT. READBACK ALL RWY ASSIGNMENTS AND HOLD SHORT INSTRUCTIONS. ...ADVS YOU HAVE INFO K.\n[Departure ATIS] KJFK DEP ATIS X 1551Z JFK ATIS INFO X 1551Z. 32014G18KT 10SM FEW050 FEW140 BKN250 31/18 A2983 (TWO NINER EIGHT THREE). APPROACH IN USE ILS RY 4R, ILS RY 4L. DEPG RY 4L. RWY 13R, 31L CLSD. RY 31R PAPI OTS, RWY 22L/4R INNER MARKER OTS.RWY 31R PAPI OTS. USE CAUTION FOR A MALFUNCTIONING AMBER FLASHING LIGHT APPROACH END RUNWAY 22L. NUM CRANES OPERATING AT JFK. BIRD ACTIVITY VICINITY ARPT. READBACK ALL RWY ASSIGNMENTS AND HOLD SHORT INSTRUCTIONS. ...ADVS YOU HAVE INFO X.",
    "KIND": "[Arrival ATIS] KIND ARR ATIS H 0154Z - KIND ATIS INFO H 0154Z. 30003KT 10SM FEW180 SCT250 27/18 A2996 (TWO NINER NINER SIX). PARL ILS RWY 5R AND 5L APPROACHES IN USE. DEPG RWYS 5L, 5R. CROSS RUNWAY OPERATIONS MAY BE IN EFFECT. NOTICE TO AIRMEN. TWY, P BTN TWY, H AND TWY B CLSD, TWY, P BTN TWY, H AND TWY J CLSD, TWY, H BTN TWY, R AND TWY N CLSD. P PAD CLSD. ILS RUNWAY 5R AND RUNWAY 5L INNER MARKER UNSERVICEABLE. ARPT ADZY FLOCK OF SMALL BIRDS IN THE VICINITY OF THE AIRPORT, ALT UNKN. ...ADVS YOU HAVE INFO H.\n[Departure ATIS] KIND DEP ATIS H 1854Z IND ATIS INFO H 1854Z. 26009G19KT 10SM SCT036 BKN041 BKN170 23/16 A2981 (TWO NINER EIGHT ONE) RMK AO2 SLP088 T02280156. PARL ILS RWY 23R AND 23L APPROACHES IN USE. CROSS RU",
    "KDTW": "[Arrival ATIS] KDTW ARR ATIS K 0953Z DTW ARR INFO K 0953Z. 05003KT 8SM SCT060 BKN140 OVC220 22/20 A2988 (TWO NINER EIGHT EIGHT). SIMUL VISUAL RY 21L, RY 22R USE Z LOC FREQ 111.95 APCH IN USE. NOTICE TO AIRMEN. RWY 21R, 3L CLSD, RWY 27L, 9R CLSD, RWY 27R, 9L CLSD. TWYS Y1 CLSD ;. HAZD WX INFO . CNVTV SIG 64 E, FOR MI , AND, OH . CNVTV SIG 59 E, FOR OH , AND MI AVBL ON FLIGHT SERVICE FREQS. PILOTS USE CTN FOR BIRD ACTIVITY. TWR AND GC COMB ON FREQ 135.0. DEPARTURE ATIS 118.125. ...ADVS YOU HAVE INFO K.\n[Departure ATIS] KDTW DEP ATIS Q 2253Z - KDTW DEP INFO Q 2253Z. 21009KT 10SM FEW050 FEW250 33/24 A2991 (TWO NINER NINER ONE). DEPG RWY 21R, RWY 22L ;. NOTICE TO AIRMEN. RWY 27L, 9R CLSD, RWY 27R, 9L CLSD. PILOTS USE CTN FOR BIRD ACTIVITY. ...ADVS YOU HAVE INFO Q.",
    "KMSP": "[Arrival ATIS] KMSP ARR ATIS G 0353Z MSP ARR INFO G 0353Z. 25003KT 10SM FEW055 FEW250 27/18 A2999 (TWO NINER NINER NINER) RMK AO2 SLP149 T02720178. VISUAL RWY 12R APCH IN USE, VISUAL RWY 12L APCH IN USE. FINAL\n[Departure ATIS] KMSP DEP ATIS N 2353Z MSP DEP INFO N 2353Z. 16004KT 10SM FEW060 SCT250 30/16 A2994 (TWO NINER NINER FOUR). DEPARTING RWY 12L, RWY 12R, RWY 17. NOTICE TO AIRMEN. RWYS 4, 22 CLSD. TWY R7. R8. R9. R10. CLOSED. TWY R BTWN R6 AND R10 CLSD, USE CAUTION, NUMEROUS TAXIWAY CLOSURES, TWY A7 CLSD, TWY A CLSD BTN TWY, A7 AND TWY D. ALL ACFT CTC METERING ON ONE THREE THREE POINT FIVE SEVEN WHEN READY TO PUSHBACK OR TAXI. HAZD WX INFO FOR MSP AREA AVBL FM FSS. CTN, BIRDS NEAR MSP. READ BACK HS AND ALT. ALL ACFT TAXI WITH TRANSPONDER AND ALTITUDE ENCODING ON. ...ADVS YOU HAVE INFO N.",
    "CYEG": "[Arrival ATIS] CYEG ARR ATIS H 0300Z CYEG ARR ATIS H 0300Z 06011KT 20SM FEW040CB FEW090 FEW180 CIG BKN240 18/11 A2981 SIGMET O1 E4 IN EFFECT. APCH RNAV Z OR Y RWY 02, INFORM ARRL OF REQ APCH ON INITIAL CTC. LDG AND DEP RWY 02. SIMUL APPROACHES MAY BE IN EFCT. INFORM CYEG ATC INFO H\n[Departure ATIS] CYEG DEP ATIS H 0300Z CYEG ARR ATIS H 0300Z 06011KT 20SM FEW040CB FEW090 FEW180 CIG BKN240 18/11 A2981 SIGMET O1 E4 IN EFFECT. APCH RNAV Z OR Y RWY 02, INFORM ARRL OF REQ APCH ON INITIAL CTC. LDG AND DEP RWY 02. SIMUL APPROACHES MAY BE IN EFCT. INFORM CYEG ATC INFO H",
    "EHAM": "[Arrival ATIS] EHAM ARR ATIS J 0350Z EHAM ARRIVAL INFO J. DEMAND. MAIN LANDING RWY 06. TRANSITION LEVEL 040. WIND 030 DEG, 7 KT, 12 KT MAX, 6 KT MNM. VIS 10 KM OR MORE. CLD FEW 700 FT SCT 900 FT. T 18. DP 17. QNH 1020 HPA. TREND TEMPO CLD BKN 800 FT. OPERATIONAL REPORT. CONTACT APCH WITH CALLSIGN ONLY. END OF INFO J\n[Departure ATIS] EHAM DEP ATIS Y 1320Z EHAM DEPARTURE INFO Y. DEMAND. MAIN DEPARTURE RWY 36 L. MAIN LANDING RWY 06. WIND 050 DEG, 10 KT, VRB BTN 280 AND 100 DEG. CAVOK. T 26. DP 14. QNH 1019 HPA. OPERATIONAL REPORT. INDEPENDENT PARALLEL DEPARTURES IN PROGRESS CHECK CORRECT SID IN FMS. INFORM SCHIPHOL DEL BY VOICE IF UNABLE TO COMPLY WITH NADP 2. END OF INFO Y",
    "EBBR": "[Arrival ATIS] EBBR ARR ATIS L 0350Z EBBR NAT, EXP VECT FOR ILS APP ARR RWY01 RSCD AT 0338 RWY01 DRY. DEP RWY07R TRL 055 XNG RWY OPS INPR 060/4KT CAVOK T16 DP15 QNH 1019HPA NOSIG CFM ARR L\n[Departure ATIS] EBBR DEP ATIS A 1020Z EBBR NAT, DEP RWY07R RSCD AT 0634 RWY07R DRY. ARR RWY01 TRL 055 XNG RWY OPS INPR 030/8KT VRB BTN 010 AND 080 CAVOK T24 DP16 QNH 1018HPA NOSIG CFM DEP A",
    "EDDF": "[Arrival ATIS] EDDF ARR ATIS S 0320Z ARR-ATIS EDDF S METAR 110320 EXPECT DEPENDENT PARALLEL ILS Y APCH RWY 07L OR ILS APCH RWY 07R RWY 07L 07R GLS APCH ON REQUEST , TRL 60 03006KT CAVOK T20 DP12 QNH1017 TREND NOSIG\n[Departure ATIS] EDDF DEP ATIS P 1750Z -DEP-ATIS EDDF P METAR 201750 - -RWY 25C 18 - -TRL 60 -ATTN : BIRDS IN THE VCY OF THE AD -17004KT 110V230 RWY18 20003KT -CAVOK - - -T36 DP15 -QNH1019 - -TREND NOSIG",
    "EDDL": "[Arrival ATIS] EDDL ARR ATIS X 1850Z -ATIS EDDL X METAR 101850 -EXPECT VECTORS ILS APPROACH -RWY 05R -TWY L2 , L4 AND L5 BTN TWY M AND RWY05R CLOSED ILS RWY05R CAT1 ONLY EXPECT POLICE DRONE ACTIVITY BELOW ILS RWY05 AT ABOUT 2.5NM FINAL -TRL 60 - -03008KT -CAVOK - - -T27 DP14 -QNH1017 - -TREND NOSIG\n[Departure ATIS] EDDL DEP ATIS R EDDL ARR/DEP DATIS RPT -ATIS EDDL R METAR 020550 -EXPECT VECTORS ILS APPROACH -RWY 23L -TWY L8 CLOSED BETWEEN TWY M AND RWY 23L -TRL 60 - -23010KT -CAVOK - - -T19 DP13 -QNH1020 - -TREND NOSIG",
    "EDDK": "[Arrival ATIS] EDDK ARR ATIS U 1950Z ATIS EDDK U METAR 101950 EXPECT ILS APCH RWY 31R 06 RWY COND RWY 31R AT TIME 1818 RWYCC 6 DEPOSIT TOTAL RWY DRY RWY 06 AT TIME 1818 RWYCC 6 DEPOSIT TOTAL RWY DRY TRL 60 RWY 13R AND RWY 31L CLOSED FOR DEPARTURE AND LANDING: TAXIING BTN THR RWY 13R AND INTERSECTION RWY 24 POSSIBLE : 04002KT CAVOK T23 DP14 QNH1017 TREND NOSIG\n[Departure ATIS] EDDK DEP ATIS Q EDDK ARR/DEP DATIS RPT -ATIS EDDK Q METAR 291920 -EXPECT ILS APCH -RWY 31R 06 -RWY COND RWY 31R AT TIME 1830 RWYCC 6 DEPOSIT TOTAL RWY DRY RWY 06 AT TIME 1830 RWYCC 6 DEPOSIT TOTAL RWY DRY -TRL 60 -RWY 13R AND RWY 31L CLOSED FOR DEPARTURE AND LANDING: TAXIING BTN THR RWY 13R AND INTERSECTION RWY 24 POSSIBLE : -04003KT -CAVOK - - -T24 DP13 -QNH1024 - -TREND NOSIG",
    "EBLG": "[Arrival ATIS] EBLG ATIS G 0220Z EBLG INFO, ARR RWY04R DEP RWY04R RWY 04R DRY, RWYCC 666. TRL 055 ADZ ON GND FREQ IF UNABLE S2 040/4KT CAVOK T17 DP13 QNH 1019HPA NOSIG CFM ATIS G",
    "LSZH": "[Arrival ATIS] LSZH ARR ATIS J 0920Z ARRIVALS, EXP ILS APCH, RWY 14. TRL 70. DEP RWY 28. WIND VRB, 8 KT. VIS 10 KM OR MORE, TDZ 10 KM OR MORE. CLD FEW 4000 FT. T 25. DP 16. QNH 1018. NOSIG.\n[Departure ATIS] LSZH DEP ATIS R 2020Z DEP RWY 32. DEPENDENT OPS ON CONVERGING RWY. TRL 70. ARRIVALS, EXP ILS APCH, RWY 34. TMA S 1 IS ACT. TMA S 2 AND S 3 ARE ACT. WIND 060 DEG, 4 KT. CAVOK. T 24. DP 13. QNH 1015. NOSIG.",
    "LIMC": "[Arrival ATIS] LIMC ARR ATIS K 2026Z LIMC ARR K 2026Z I.L.S. ZULU RWY IN USE 35R TL 70 WIND TDZ 360/3KT VRB BTN 320/AND 040/ CAVOK T27 DP19 QNH 1022HPA QFE 0997HPA\n[Departure ATIS] LIMC DEP ATIS O 1345Z LIMC DEP O 1345Z RWY IN USE 35L TL 75 WIND END 200/12KT VRB BTN 140/AND 280/ CAVOK T33 DP12 QNH 1013HPA QFE 0987HPA DATALINK CLEARANCE AVAILABLE.... CONTACT 1 3 1 8 8 0 TO BE RELEASED BY THE AIRPORT OPERATOR ...",
    "LIRF": "[Arrival ATIS] LIRF ARR ATIS J 0320Z LIRF ARR J 0320Z RUNWAY 1 6 LEFT ILS WHISKEY RWY IN USE 16L TL 70 WIND TDZ VRB1KT VRB BTN 160/AND 250/ CAVOK T22 DP21 QNH 1015HPA\n[Departure ATIS] LIRF DEP ATIS V 0608Z LIRF DEP V 0608Z RWY IN USE 25 TL 75 RWYS IN USE FOR ARR 16L AND 16R WIND END 090/6KT CAVOK T28 DP20 QNH 1012HPA REA IS SENT AUTOMATICALLY ONCE RLSD BY RAMP WHEN READY CONTACT FIUME RAMP 121.725 RRSM",
    "EINN": "[Arrival ATIS] EINN ARR ATIS J 0330Z EXPECT I L S CATEGORY 1 LDG RWY06 TKOF RWY06 TRL FL060 35006KT CAVOK 15/14 QNH Q1022 TREND NOSIG ADVISE AT FIRST CONTACT YOU HAVE ATIS INFO J",
    "EGLL": "[Arrival ATIS] EGLL ARR ATIS E 0350Z LANDING RWY 09R TRANSITION-LEVEL: FL 70 RUNWAY 09L REDUCED DECLARED DISTANCES IF STAND GUIDANCE IS OFF OR FAILS, REMAIN ON THE TAXIWAY CENTRELINE AND ADVISE ATC RWY 09R SINGLE RUNWAY OPERATIONS IN FORCE AUTO 03007KT 9999 NCD 19/14 Q1020 ACKNOWLEDGE RECEIPT OF INFORMATION E\n[Departure ATIS] EGLL DEP ATIS I 2020Z DEPARTURE RWY 27R PILOTS THAT ARE IN RECEIPT OF DATALINK CLEARANCES ARE REMINDED THEY MUST CONTACT DELIVERY ON 121.980 WHEN READY FOR START DET VOR OOS AUTO 24010KT 9999 FEW032 23/17 Q1022 ACKNOWLEDGE RECEIPT OF INFORMATION I AND REPORT AIRCRAFT TYPE AND CURRENT QNH ON FIRST CONTACT WITH HEATHROW",
    "EPWA": "[Arrival ATIS] EPWA ARR ATIS M 0901Z EPWA ARR M. TIME 0900. EXP U ARR ILS Z APCH FOR RWY 33. RWY 33 RCC 6, 6, 6. 1ST PART, DRY. 2ND PART, DRY. 3RD PART, DRY. RWY REPORT END. TRANSITION LEVEL 80. WIND 310 DEG, 14 KT. VIS TDZ 10 KM OR MORE. CLD SCT TCU 3000 FT. T 18. DP 10. QNH 1008. TREND TEMPO CLD BKN CB 2500 FT. CAUTION. BIRD ACT. END OF EPWA ARR M\n[Departure ATIS] EPWA DEP ATIS T 1758Z EPWA DEP T. TIME 1758. DEP RWY 29. ARR RWY 33, EXP U ARR ILS Z. REPORT READY FOR STARTUP ON DELIVERY 121 DECIMAL 605. RWY 29 RCC 6, 5, 6. 1ST PART, DRY. 2ND PART, WET. 3RD PART, DRY. RWY REPORT END. TRANSITION LEVEL 80. WIND 330 DEG, 12 KT. VIS MID 10 KM OR MORE. CLD FEW 3000 FT. T 17. DP 14. QNH 1013. NOSIG. MOD ICING REPORTED BTW FL 135 AND FL 150 CAUTION. BIRD ACT. END OF EPWA DEP T",
    "EFHK": "[Arrival ATIS] EFHK ARR ATIS Q 2020Z EXPECT ILS APCH ARR RWY 15 RUNWAY 15 CONDITION REPORT AT 1823 UTC RUNWAY CONDITION CODES 6 , 6 , 6 CONTAMINANTS ALL PARTS DRY TRL 60 WIND 210 DEG 11 KT CAVOK T 20 DP 14 QNH 1017 NOSIG ACK INFO Q\n[Departure ATIS] EFHK DEP ATIS X 0120Z DEP RWY 04R RUNWAY 04R CONDITION REPORT AT 2010 UTC RUNWAY CONDITION CODES 6 , 6 , 6 CONTAMINANTS ALL PARTS DRY WIND VRB BTN 310 AND 020 DEG 2 KT VIS 10KM FEW 4500 FT T 16 DP 11 QNH 1018 NOSIG ACK INFO X",
    "LTAC": "[Arrival ATIS] LTAC ARR ATIS N 0950Z EXP ILS Z APCH 21C DEP RWY 21R RWY 21C WIND 270 DEG 11 KT VRB BTN 230 DEG AND 310 DEG RWY 21R WIND 240 DEG 10 KT VRB BTN 190 DEG AND 270 DEG TRL 115 VIS 9999 FEW04000 FT SCT10000 FT T 29 DP 06 QNH 1010 NOSIG FOR DELIVERY CTC 121.9. FOR DELIVERY FIRST USE DIGITAL DEP CLR. CTN BIRD HAZARD OVR AERODROME. APCH FREQUENCY 129.050. TAXIWAY ECHO 1 IS CLOSED. END OF ATIS N",
    "UBBB": "[Arrival ATIS] UBBB ARR ATIS U 2000Z ATIS U EXP ILS/ LDG 34 35 DEP 34 35 IN USE RWY 35 CLEAR DRY 70 RWY 34 CLEAR DRY 70 TLVL 110 WIND WIND RWY 34 330 12 KT SPD MAX 18 MIN 10 WIND RWY 35 330 14 KT SPD MAX 22 MIN 10 VIS CAVOK T 25 / DP 19 QNH 1012 HPA TREND TREND NOSIG MODERATE BIRDS ACT IN VICINITY OF AP END OF ATIS U\n[Departure ATIS] UBBB DEP ATIS P 1400Z ATIS P EXP ILS/ LDG 16 17 DEP 16 17 IN USE RWY 16 CLEAR DRY 70 RWY 17 CLEAR DRY 70 TLVL 110 WIND WIND RWY 16 160 8 KT SPD MAX 10 MIN 6 WIND RWY 17 180 6 KT SPD MAX 10 MIN 4 VIS CAVOK T 29 / DP 20 QNH 1008 HPA TREND TREND NOSIG MODERATE BIRDS ACT IN VICINITY OF AP END OF ATIS P",
    "ZWWW": "[Arrival ATIS] ZWWW ARR ATIS U 1930Z EXP ILSDME Z APCH LDG RWY 26L TA 3000 WIND 220/2MPS VRB BTN 180/ AND 280/ CAVOK T 30 /DP 08 QNH 1009 HPA ADZ YOU HAVE INFO U.\n[Departure ATIS] ZWWW DEP ATIS K 1630Z DEP RWY 26L TA 3000 WIND 260/4MPS CAVOK T 31 /DP 07 QNH 1009 HPA ADZ YOU HAVE INFO K.",
    "ZLXY": "[Arrival ATIS] ZLXY ARR ATIS X 1947Z EXP ILS APCH LDG RWY 24L WIND VRB/1MPS CAVOK T 29 /DP 23 QNH 1000 HPA VISUAL APPROACH IN PROGRESS ADZ YOU HAVE INFO X.\n[Departure ATIS] ZLXY DEP ATIS T 1200Z DEP RWY 23R & 24R WIND 230/3MPS CAVOK T 20 /DP 18 QNH 1012 HPA VISUAL APPROACH IN PROGRESS ADZ YOU HAVE INFO T.",
    "ZBAA": "[Arrival ATIS] ZBAA ARR ATIS V 2030Z EXP ILS APCH DEPENDENT PARL INSTR APCH LDG RWY 36L & 36R RWY 01 IS CLSD WIND 350 DEG 1 MPS CAVOK T 13 /DP 11 QNH 1011 HPA VISUAL APPROACH IS IN PROGRESS. ADZ YOU HAVE INFO V.\n[Departure ATIS] ZBAA DEP ATIS Q 1800Z DEP RWY 36L & 36R RWY 01 IS CLSD WIND 350 DEG 3 MPS CAVOK T 16 /DP 11 QNH 1010 HPA RWY INDEPENDENT PARALLEL DEP VISUAL APPROACH IS IN PROGRESS. ADZ YOU HAVE INFO Q.",
    "ZBHH": "[Arrival ATIS] ZBHH ARR ATIS P 2000Z EXP ILSDME APCH LDG RWY 08 TA 3000 /TRL 3600 WIND 070/2MPS CAVOK T 06 /DP 01 QNH 1015 HPA ADZ YOU HAVE INFO P.\n[Departure ATIS] ZBHH DEP ATIS Q 1500Z DEP RWY 08 TA 3000 /TRL 3600 WIND 140/2MPS VIS 5000M BR NSC T 19 /DP 19 QNH 1007 HPA ADZ YOU HAVE INFO Q.",
    "ZSQD": "[Arrival ATIS] ZSQD ARR ATIS G 2100Z EXP ILSDME APCH LDG RWY 17 TA 3000 /TRL 3600 WIND 160/6MPS VIS 9999M CLD BKN 240M T 25 /DP 25 QNH 1005 HPA VISUAL APPROACH OPERATION IN PROGRESS. WHEN READY CONTACT QINGDAO TOWER ON 118.275 RUNWAY 17,IF MISSED APPROACH,EXPECT FOLLOW THE STANDARD MISSED APPROACH PROCEDURE,CLIMB TO 900M ON QNH OR BY ATC CAUTION MAYBE THERE IS A FLOCK OF BIRDS IN THE VICINITY OF AIRPORT ADZ YOU HAVE INFO G.\n[Departure ATIS] ZSQD DEP ATIS Z 0400Z DEP RWY 34 TA 3000 /TRL 3600 WIND 290/4MPS VIS 9999M CLD BKN 1200M T 29 /DP 18 QNH 1003 HPA SEGREGATED OPERATION VISUAL APPROACH OPERATION IN PROGRESS. RUNWAY 35,IF MISSED APPROACH,EXPECT FOLLOW THE STANDARD MISSED APPROACH PROCEDURE,CLIMB TO 1200M ON QNH OR BY ATC CAUTION MAYBE THERE IS A FLOCK OF BIRDS IN THE VICINITY OF AIRPORT ADZ YOU HAVE INFO Z."
  },
  "windtemp_alaska": "\n000\nFBAK31 KWNO 110159\nFD1AK1\nDATA BASED ON 110000Z    \nVALID 110600Z   FOR USE 0200-0900Z. TEMPS NEG ABV 24000\n\nFT  3000    6000    9000   12000   18000   24000  30000  34000  39000\nADK 2115 2417+05 2423+02 2431-01 2451-12 2469-23 249938 734444 742856\nADQ 1815 1913+08 2114+05 2113-01 2312-13 2415-24 283039 296248 287355\nAKN 1723 1822+08 2020+03 2120-01 2124-14 2334-25 223340 254050 255954\nANC 1707 1812+08 1810+03 1909-01 2207-14 2312-26 311242 301252 302157\nANN 1205 1307+01 0509-02 0215-06 0709-20 0513-33 063049 062247 060843\nBET 1539 1937+07 1936+01 1934-03 1727-14 1622-26 172843 163451 212848\nBRW 2215 2420+02 2419-04 2318-07 2323-18 2329-30 233346 233353 242146\nBTI 1406 9900+06 2715+01 2718-05 2524-18 2431-30 244648 253954 262348\nBTT 2206 2406+08 2209+02 2111-04 2217-17 2317-29 242145 252753 252249\nCDB 2829 2733+09 2637+04 2543-01 2663-12 2769-24 761835 764544 761853\nCZF 1121 1216+01 1613+00 2118-03 1825-16 1429-27 134743 154551 202045\nEHM 2030 2035+07 1935+02 1935-04 1939-17 1843-28 193341 213645 244345\nFAI 1208 1408+09 1609+04 1909-02 2115-16 2221-28 222544 232552 251854\nFYU 2306 2306+10 2208+04 2310-03 2221-17 2330-28 234344 224854 252853\nGAL 1110 1413+07 1716+00 1719-03 1926-17 2120-26 232342 232853 241954\nGKN 1806 1807+09 1711+03 1609-01 9900-14 2206-26 160842 170853 290959\nHOM 1810 1810+08 1909+03 2011-01 2016-14 2314-25 281141 271951 293955\nJNU 9900 0315+06 0426+00 0627-04 0523-17 0324-30 043046 053554 041950\nLUR 2217 2117+02 2118-03 2119-08 2120-20 2129-29 223346 223451 221946\nMCG 1408 1718+08 1823+03 1820-03 1827-16 2120-25 241742 221852 232054\nMDO 2707 9900+07 9900+03 9900-01 3513-14 0119-27 021842 361852 333055\nOME 1013 1217+03 1219-03 1321-08 1626-15 1725-26 182943 194054 201849\nORT      1408+09 1507+04 1408-01 9900-14 9900-27 990043 990053 990061\nOTZ 1010 1508+04 1806-02 2017-07 2022-17 2225-27 233643 234453 222250\nSNP 2828 2833+01 2739-01 2741-06 2746-16 2670-26 267643 266248 255644\nTKA 1907 1710+08 1612+02 1614-02 2113-14 2214-27 291442 281452 281556\nUNK 1218 1519+05 1525+00 1631-06 1926-14 2022-25 192342 193153 202051\nYAK 3305 9900+09 0508+03 0413-03 0614-16 0514-29 052445 052854 032554\nIKO 3015 2720+07 2628+03 2638+00 2658-11 2580-21 751235 752044 751855\nAFM 9900 1914+06 2220+00 2123-05 2027-18 2329-28 274243 274853 242551\n5AB 2637 2637+06 2637+01 2739-03 2741-14 2641-26 303941 313947 283049\n5AC 0407 0411+00 0421-04 0325-10 0322-25 0323-35 032443 021740 361341\n5AD 9900 3605+06 3608+03 3514-02 3519-15 3533-27 345741 337248 337854\n5AE 2112 2310+11 2617+06 2623+01 2524-12 2740-21 287636 289644 289957\n5AF 0110 0217+03 0223-01 0224-05 0429-18 0336-30 044646 044954 022646\n5AG 3210 3408+08 0208+02 0215-04 0214-16 0408-29 030844 041353 362451\n",
  "vaac_tokyo": [
    {
      "id": "20260711_30027000_0260",
      "year": "2026",
      "volcano": "Sheveluch",
      "psn": "N5639 E16122",
      "issued": "20260711",
      "text": "FVFE01 RJTD 110000\nVA ADVISORY\nDTG: 20260711/0000Z\nVAAC: TOKYO\nVOLCANO: SHEVELUCH 300270\nPSN: N5639 E16122\nAREA: RUSSIA\nSOURCE ELEV: 3283M AMSL\nADVISORY NR: 2026/260\nINFO SOURCE: HIMAWARI-9\nERUPTION DETAILS: VA CONTINUOUSLY OBS IN SATELLITE IMAGERY\nOBS VA DTG: 10/2320Z\nOBS VA CLD: SFC/FL280 N3856 E16034 - N3914 E16113 - N3732 E16657 - \nN3911 E17113 - N3852 E17223 - N3641 E16925 - N3652 E16532 MOV E 70KT\nFCST VA CLD +6 HR: 11/0520Z SFC/FL290 N4547 E17734 - N3905 E17405 - \nN3624 E16722 - N3636 E16203 - N4037 E17140 - N4547 E17454\nFCST VA CLD +12 HR: 11/1120Z SFC/FL290 N5003 W17906 - N4523 E17948 - \nN3452 E16722 - N3458 E16449 - N4713 E17654 - N4918 E17614\nFCST VA CLD +18 HR: NO VA EXP\nRMK: THE RESPONSIBILITY FOR THIS ASH EVENT IS BEING TRANSFERRED TO \nVAAC WASHINGTON. THE NEXT ADVISORY WILL BE ISSUED BY VAAC WASHINGTON \nBY 0600UTC UNDER HEADER FVXX22 KNES. SOME PART OF VA OBSCURED BY MET \nCLOUD.\nNXT ADVISORY: NO FURTHER ADVISORIES=",
      "img_url": "https://ds.data.jma.go.jp/svd/vaac/data/VAGFN/2026/Images/20260711_30027000_0260_QH21_01.png",
      "sat_img_url": "https://ds.data.jma.go.jp/svd/vaac/data/Sat/2026/Images/30027000/09-ir/20260710_2320_202607110000_ir.png",
      "text_url": "https://ds.data.jma.go.jp/svd/vaac/data/TextData/2026/20260711_30027000_0260_Text.html"
    },
    {
      "id": "20260706_27202000_0232",
      "year": "2026",
      "volcano": "Kanlaon",
      "psn": "N1025 E12308",
      "issued": "20260706",
      "text": "FVFE01 RJTD 061545\nVA ADVISORY\nDTG: 20260706/1545Z\nVAAC: TOKYO\nVOLCANO: KANLAON 272020\nPSN: N1025 E12308\nAREA: PHILIPPINES\nSOURCE ELEV: 2435M AMSL\nADVISORY NR: 2026/232\nINFO SOURCE: HIMAWARI-9 PHIVOLCS\nERUPTION DETAILS: ERUPTION AT 20260706/1520Z FL100 EXTD SW REPORTED\nOBS VA DTG: 06/1530Z\nOBS VA CLD: VA NOT IDENTIFIABLE FM SATELLITE DATA WIND FL100 350/5KT\nFCST VA CLD +6 HR: NOT AVBL\nFCST VA CLD +12 HR: NOT AVBL\nFCST VA CLD +18 HR: NOT AVBL\nRMK: WE WILL ISSUE FURTHER ADVISORY IF VA IS DETECTED IN SATELLITE \nIMAGERY.\nNXT ADVISORY: NO FURTHER ADVISORIES=",
      "img_url": "https://ds.data.jma.go.jp/svd/vaac/data/VAGFN/2026/Images/20260706_27202000_0232_QH21_01.png",
      "sat_img_url": null,
      "text_url": "https://ds.data.jma.go.jp/svd/vaac/data/TextData/2026/20260706_27202000_0232_Text.html"
    },
    {
      "id": "20260705_27303000_0717",
      "year": "2026",
      "volcano": "Mayon",
      "psn": "N1315 E12341",
      "issued": "20260705",
      "text": "FVFE01 RJTD 051936\nVA ADVISORY\nDTG: 20260705/1936Z\nVAAC: TOKYO\nVOLCANO: MAYON 273030\nPSN: N1315 E12341\nAREA: PHILIPPINES\nSOURCE ELEV: 2462M AMSL\nADVISORY NR: 2026/717\nINFO SOURCE: HIMAWARI-9 PHIVOLCS\nERUPTION DETAILS: ERUPTION AT 20260705/1914Z FL090 EXTD WSW REPORTED\nOBS VA DTG: 05/1920Z\nOBS VA CLD: VA NOT IDENTIFIABLE FM SATELLITE DATA WIND FL090 050/8KT\nFCST VA CLD +6 HR: NOT AVBL\nFCST VA CLD +12 HR: NOT AVBL\nFCST VA CLD +18 HR: NOT AVBL\nRMK: WE WILL ISSUE FURTHER ADVISORY IF VA IS DETECTED IN SATELLITE \nIMAGERY.\nNXT ADVISORY: NO FURTHER ADVISORIES=",
      "img_url": "https://ds.data.jma.go.jp/svd/vaac/data/VAGFN/2026/Images/20260705_27303000_0717_QH21_01.png",
      "sat_img_url": null,
      "text_url": "https://ds.data.jma.go.jp/svd/vaac/data/TextData/2026/20260705_27303000_0717_Text.html"
    },
    {
      "id": "20260701_30006000_0001",
      "year": "2026",
      "volcano": "Mutnovsky",
      "psn": "N5227 E15812",
      "issued": "20260701",
      "text": "FVFE01 RJTD 012206\nVA ADVISORY\nDTG: 20260701/2206Z\nVAAC: TOKYO\nVOLCANO: MUTNOVSKY 300060\nPSN: N5227 E15812\nAREA: RUSSIA\nSOURCE ELEV: 2288M AMSL\nADVISORY NR: 2026/1\nINFO SOURCE: KVERT KBGS UHPP HIMAWARI-9\nERUPTION DETAILS: ERUPTION AT 20260701/2016Z FL170 EXTD W REPORTED\nOBS VA DTG: 01/2140Z\nOBS VA CLD: VA NOT IDENTIFIABLE FM SATELLITE DATA WIND FL170 120/8KT\nFCST VA CLD +6 HR: NOT AVBL\nFCST VA CLD +12 HR: NOT AVBL\nFCST VA CLD +18 HR: NOT AVBL\nRMK: WE WILL ISSUE FURTHER ADVISORY IF VA IS DETECTED IN SATELLITE \nIMAGERY.\nNXT ADVISORY: NO FURTHER ADVISORIES=",
      "img_url": "https://ds.data.jma.go.jp/svd/vaac/data/VAGFN/2026/Images/20260701_30006000_0001_QH21_01.png",
      "sat_img_url": null,
      "text_url": "https://ds.data.jma.go.jp/svd/vaac/data/TextData/2026/20260701_30006000_0001_Text.html"
    }
  ],
  "vaac_alaska": [
    {
      "text": "\n000\nFVAK21 PAWU 101902\nVAAAK1\nVA ADVISORY\n\nDTG: 20260710/1859Z\n\nVAAC: ANCHORAGE\n\nVOLCANO: SHEVELUCH 300270\n\nPSN: N5639 E16122\n\nAREA: KAMCHATKA PENINSULA\n\nSOURCE ELEV: 10771 FT AMSL\n\nADVISORY NR: 2026/191\n\nRMK: PLEASE SEE FVFE01 RJTD ISSUED BY VAAC TOKYO WHICH DESCRIBES\nCONDITIONS NEAR THE VAAC ANCHORAGE AREA OF RESPONSIBILITY...PD\n\n\n\n",
      "issued": "2026-07-10T19:02:00+00:00",
      "volcano": "Sheveluch",
      "psn": "N5639 E16122"
    }
  ]
}