{
  "updated_utc": "2026-07-05T21:35Z",
  "metar": {
    "RJAA": "METAR RJAA 052000Z AUTO 09003KT 9999 NSC 21/20 Q1013 NOSIG",
    "PANC": "METAR PANC 051953Z VRB03KT 10SM FEW080 SCT110 14/07 A2994 RMK AO2 SLP141 T01390067 $",
    "PAFA": "METAR PAFA 051953Z 08003KT 10SM FEW050 SCT120 20/09 A2992 RMK AO2 SLP133 TCU DSNT E NW T02000094 $",
    "PAED": "METAR PAED 051955Z 27005KT 10SM FEW045 FEW070 BKN100 BKN130 15/08 A2992 RMK AO2A SLP128 T01460076 $",
    "KSEA": "METAR KSEA 051953Z 28010G15KT 10SM FEW020 21/11 A3014 RMK AO2 SLP209 T02110111 $",
    "ZSPD": "METAR ZSPD 052000Z 19002MPS 7000 NSC 26/26 Q1005 NOSIG",
    "ZSSS": "METAR ZSSS 052000Z 19002MPS CAVOK 27/25 Q1005 NOSIG",
    "RJFR": "METAR RJFR 052000Z AUTO 35005KT 320V030 1600 +RA BR FEW002 BKN003 BKN005 //////TCU 24/23 Q1008",
    "VHHH": "METAR VHHH 052000Z 19018KT 9999 FEW010 SCT022 30/25 Q1007 NOSIG",
    "RCTP": "METAR RCTP 052000Z 20006KT 9999 FEW015 SCT150 28/24 Q1010 NOSIG RMK A2983",
    "ZGSZ": "METAR ZGSZ 052000Z 17007MPS 9999 FEW020 BKN050 29/27 Q1007 NOSIG",
    "WSSS": "METAR WSSS 052000Z 29003KT 250V320 9000 FEW016 FEW020TCU BKN300 27/25 Q1011 NOSIG",
    "WMKK": "METAR WMKK 052000Z 00000KT 7000 -RA FEW010 FEW017CB SCT030 25/24 Q1011 TEMPO 7000 -TSRA",
    "WIDD": "METAR WIDD 052000Z 28002KT 9999 FEW014 26/25 Q1011 NOSIG",
    "VTBS": "METAR VTBS 052000Z 19011KT 9000 -RA FEW014 SCT030 28/27 Q1009 NOSIG",
    "VTBU": "METAR VTBU 052000Z 10005KT 8000 -RA FEW020 BKN090 25/25 Q1009 RETSRA NOSIG",
    "ROAH": "METAR ROAH 052000Z AUTO 21004KT 9999 NCD 27/26 Q1012",
    "VVDN": "METAR VVDN 052000Z VRB01KT 9999 FEW017 SCT070 30/21 Q1006 NOSIG",
    "RCKH": "METAR RCKH 052000Z 07005KT 050V110 9999 FEW017 27/24 Q1010 NOSIG RMK A2984",
    "KLAX": "METAR KLAX 051953Z 26010KT 10SM FEW010 FEW190 SCT230 SCT280 22/16 A2999 RMK AO2 SLP153 T02220161 $",
    "KONT": "METAR KONT 051953Z 23010KT 9SM FEW250 31/15 A2997 RMK AO2 SLP130 T03060150 $",
    "KSFO": "METAR KSFO 051956Z 28015KT 10SM FEW008 FEW024 20/12 A3001 RMK AO2 SLP161 T02000122 $",
    "KOAK": "METAR KOAK 051953Z 27008KT 10SM FEW016 FEW200 19/12 A3002 RMK AO2 SLP165 T01890122 $",
    "KMHR": "METAR KMHR 051955Z AUTO 21008G15KT 10SM CLR 28/10 A2994 RMK AO2 T02820098",
    "KDFW": "METAR KDFW 051953Z 03009KT 10SM SCT065TCU SCT130 BKN170 BKN250 35/20 A2996 RMK AO2 SLP135 OCNL LTGIC DSNT E CB DSNT E MOV SE TCU N-E T03500200 $",
    "KIAH": "METAR KIAH 051953Z 26006KT 10SM FEW050 BKN250 34/22 A2998 RMK AO2 SLP149 T03390222",
    "KORD": "METAR KORD 051951Z 02009KT 9SM BKN014 BKN025 BKN070 24/21 A2997 RMK AO2 SLP146 T02440206 $",
    "KJFK": "METAR KJFK 051951Z 12007KT 10SM FEW025 SCT075 BKN180 BKN250 27/21 A2997 RMK SLP150 T02670206 $",
    "KRFD": "METAR KRFD 051954Z VRB06KT 10SM BKN026 BKN040 BKN190 26/20 A3000 RMK AO2 SLP155 T02560200 $",
    "KIND": "METAR KIND 051954Z 26005KT 10SM BKN028 BKN039 BKN180 28/21 A2993 RMK AO2 SLP127 T02780211 $",
    "KDTW": "METAR KDTW 051953Z 09007KT 10SM SCT025 BKN065 BKN090 26/20 A2994 RMK AO2 SLP135 T02560200 $",
    "KMSP": "METAR KMSP 051953Z VRB03KT 10SM SCT030 29/17 A3004 RMK AO2 SLP169 T02940167",
    "CYEG": "METAR CYEG 052000Z 31009KT 260V320 20SM FEW040CB FEW150 18/09 A3002 RMK CB2AC1 AC TR CB DIST W MOV E SLP175 DENSITY ALT 3300FT",
    "EHAM": "METAR EHAM 051955Z 28006KT 250V310 9999 FEW016 18/15 Q1021 NOSIG",
    "EBBR": "METAR EBBR 051950Z 32004KT CAVOK 19/14 Q1023 NOSIG",
    "EDDF": "METAR EDDF 051950Z AUTO 30007KT 260V320 9999 FEW042 22/13 Q1020 NOSIG",
    "EDFH": "METAR EDFH 051950Z 30009KT 270V330 9999 FEW032 19/12 Q1022",
    "EDDL": "METAR EDDL 051950Z AUTO 31012KT 9999 FEW031 20/14 Q1021 BECMG 30007KT",
    "EDDK": "METAR EDDK 051950Z AUTO 32008KT 9999 FEW034 20/14 Q1021 NOSIG",
    "EBLG": "METAR EBLG 051950Z 31004KT CAVOK 19/14 Q1023 NOSIG",
    "LSZH": "METAR LSZH 051950Z 33006KT 300V360 9999 FEW070 22/13 Q1022 NOSIG",
    "LIMC": "METAR LIMC 051950Z 04004KT CAVOK 25/16 Q1016 NOSIG",
    "LIRF": "METAR LIRF 051950Z VRB01KT CAVOK 25/22 Q1017 NOSIG",
    "EINN": "METAR EINN 052000Z 26008KT 9999 FEW012 BKN220 20/16 Q1022 NOSIG",
    "EGLL": "METAR EGLL 051950Z AUTO 27012KT 9999 NCD 25/15 Q1022",
    "EGSS": "METAR EGSS 051950Z AUTO 25004KT 9999 NCD 24/14 Q1021",
    "EPWA": "METAR EPWA 052000Z 27008KT 9999 FEW030 16/14 Q1010 NOSIG",
    "UHPP": "METAR UHPP 052000Z 00000MPS 8000 BKN003 10/10 Q1019 R16R/CLRD62 NOSIG RMK MT OBSC QFE761/1014",
    "EFHK": "METAR EFHK 051950Z 31005KT 9999 -SHRA FEW005 BKN013 FEW020CB 15/15 Q0998 BECMG SCT012 FEW025CB",
    "LBBG": "METAR LBBG 052000Z AUTO 01004KT 9999 NSC 21/14 Q1015 NOSIG",
    "LTAC": "METAR LTAC 051950Z 04010KT 9999 SCT040 SCT100 19/11 Q1015 NOSIG",
    "UBBB": "METAR UBBB 052000Z 34004KT CAVOK 24/22 Q1007 NOSIG",
    "UTAA": "METAR UTAA 052000Z 26006KT 9999 NSC 30/07 Q1005 R88/CLRD70 NOSIG",
    "UACC": "METAR UACC 052000Z 27003MPS CAVOK 19/15 Q1008 NOSIG RMK QFE725/0967",
    "UAAA": "METAR UAAA 052000Z VRB01MPS 9999 SCT200 18/12 Q1009 NOSIG",
    "UZTT": "METAR UZTT 052000Z 06008KT CAVOK 26/11 Q1006 NOSIG",
    "ZWWW": "METAR ZWWW 052000Z 20002MPS CAVOK 23/19 Q1012 NOSIG",
    "ZLXY": "METAR ZLXY 052000Z 29001MPS CAVOK 25/19 Q0999 NOSIG",
    "ZBAA": "METAR ZBAA 052000Z 14002MPS CAVOK 19/18 Q0999 NOSIG",
    "ZBHH": "METAR ZBHH 052000Z 02003MPS CAVOK 15/13 Q1006 NOSIG",
    "ZSQD": "METAR ZSQD 052000Z 16002MPS 130V190 9999 FEW033 22/22 Q0998 NOSIG",
    "ZMCK": "METAR ZMCK 052000Z 09003MPS 9999 FEW033 13/11 Q1012 NOSIG RMK QFE644.1 87 NT",
    "UUEE": "METAR UUEE 052000Z 22003MPS CAVOK 16/12 Q0999 R24L/CLRD62 R24C/CLRD62 NOSIG",
    "UUDD": "METAR UUDD 052000Z 25005MPS CAVOK 16/13 Q1000 R13R/CLRD65 NOSIG",
    "ULLI": "METAR ULLI 052000Z 13002MPS 9999 SCT013 SCT019CB BKN030 16/14 Q0996 R88/290050 NOSIG",
    "USSS": "METAR USSS 052000Z 00000MPS CAVOK 19/19 Q1009 R26R/CLRD60 R26L/CLRD60 NOSIG RMK QFE736/0982",
    "UNNT": "METAR UNNT 052000Z 32002MPS 9999 FEW046 19/15 Q1007 R25/CLRD// R34/////// NOSIG RMK QFE745/0994",
    "UNKL": "METAR UNKL 052000Z 28003MPS 9000 -SHRA BKN042CB 19/19 Q1002 R29/290150 NOSIG RMK QFE726",
    "UIBB": "METAR UIBB 052000Z AUTO 10002MPS 9999 // NCD 18/15 Q1005 RMK QFE711/0948",
    "UEEE": "METAR UEEE 052000Z 32001MPS CAVOK 12/04 Q1013 R23/09//61 NOSIG RMK QFE751",
    "UHHH": "METAR UHHH 052000Z COR 03005MPS 9999 OVC002 16/16 Q1009 R05L/090060 NOSIG RMK QBB080 OBST OBSC QFE751/1001",
    "UHSS": "METAR UHSS 052000Z 36005MPS 9999 SCT005 12/11 Q1016 R01/CLRD70 NOSIG RMK MT OBSC QFE761/1014"
  },
  "taf": {
    "RJAA": "TAF RJAA 051705Z 0518/0700 10006KT 9999 FEW012 BKN020 BECMG 0609/0612 02006KT TEMPO 0612/0615 FEW003 BKN005 TEMPO 0615/0621 4000 BR FEW001 BKN003",
    "PANC": "TAF PANC 051726Z 0518/0624 16007KT P6SM VCSH SCT070 OVC100 TEMPO 0518/0521 VRB03KT FM060200 16012G20KT P6SM SCT060 BKN090 FM060900 14006KT P6SM BKN070",
    "PAFA": "TAF PAFA 051720Z 0518/0624 VRB04KT P6SM FEW070 FEW100 FM060000 05004KT P6SM VCTS BKN050CB FM060600 04004KT P6SM BKN070",
    "PAED": "TAF PAED 052100Z 0521/0703 34006KT 9999 VCSH FEW045 BKN060 BKN200 620802 QNH2990INS TEMPO 0603/0606 25005KT -RA SCT030 BKN040 OVC060 BECMG 0610/0611 VRB06KT 9999 NSW FEW035 SCT060 BKN120 BKN200 QNH2984INS WND 23008KT AFT 0618 TX17/0601Z TN09/0612Z",
    "KSEA": "TAF KSEA 052054Z 0521/0624 36010G18KT P6SM FEW020 FM060900 03006KT P6SM SCT035 BKN060 FM061100 36005KT P6SM FEW040 FM061800 33005KT P6SM FEW250",
    "ZSPD": "TAF ZSPD 051504Z 0518/0624 17004MPS 6000 BKN020 TX32/0606Z TN25/0521Z TN26/0621Z",
    "ZSSS": "TAF ZSSS 051502Z 0518/0624 18004MPS 6000 BKN030 TX33/0606Z TN26/0521Z TN26/0621Z",
    "RJFR": "TAF AMD RJFR 052053Z 0520/0700 25004KT 9999 FEW010 SCT035 BECMG 0601/0603 30006KT BECMG 0612/0615 16004KT",
    "VHHH": "TAF VHHH 052000Z 0521/0703 16015KT 9999 FEW010 SCT025 TX32/0606Z TN27/0522Z TN28/0622Z TEMPO 0522/0602 16020G30KT 3000 TSRA SHRA FEW008CB SCT020 TEMPO 0602/0606 16015G25KT 3500 SHRA FEW010CB SCT020 TEMPO 0622/0703 3500 SHRA FEW010CB SCT020",
    "RCTP": "TAF RCTP 051700Z 0518/0624 21005KT 9999 FEW015 BKN032 BECMG 0600/0602 25010KT TEMPO 0604/0608 29015KT TEMPO 0608/0612 FEW012 FEW015TCU BKN022 BKN050 BECMG 0612/0614 21005KT",
    "ZGSZ": "TAF AMD ZGSZ 051918Z 0518/0624 17006MPS 8000 BKN020 TX32/0606Z TN28/0522Z TN27/0622Z TEMPO 0519/0524 SHRA FEW015 FEW025CB BKN030 TEMPO 0604/0607 TSRA SCT015 FEW025CB BKN030 TEMPO 0609/0612 SHRA FEW015 FEW025CB BKN030 TEMPO 0619/0623 2000 +SHRA SCT015 FEW025CB BKN030",
    "WSSS": "TAF WSSS 051700Z 0518/0700 16006KT 9999 FEW015 SCT020",
    "WMKK": "TAF WMKK 051700Z 0518/0700 VRB03KT 9999 FEW030 PROB30 TEMPO 0518/0521 6000 -TSRA FEW017CB",
    "VTBS": "TAF VTBS 051700Z 0518/0624 20008KT 9999 FEW020 TEMPO 0610/0614 VRB15KT 4000 TSRA FEW018CB SCT030 BKN080",
    "VTBU": "TAF VTBU 051700Z 0518/0618 22010KT 4000 TSRA FEW018CB SCT035 BECMG 0518/0520 9000 FEW020 SCT100",
    "ROAH": "TAF ROAH 051705Z 0518/0700 18008KT 9999 FEW015",
    "VVDN": "TAF VVDN 051700Z 0518/0618 22006KT 8000 SCT017 SCT060 TEMPO 0520/0524 4500 RA",
    "RCKH": "TAF RCKH 051700Z 0518/0624 15005KT 9999 FEW015 BECMG 0600/0602 22010KT TEMPO 0604/0608 21012G22KT BECMG 0610/0612 17005KT",
    "KLAX": "TAF KLAX 052102Z 0521/0624 26012KT P6SM SCT250 FM060700 26007KT P6SM FEW008 FM061100 26004KT P6SM BKN008 FM061700 26006KT P6SM SKC FM062100 26012KT P6SM SKC",
    "KONT": "TAF KONT 052019Z 0520/0624 25012KT P6SM FEW250 FM060700 25006KT P6SM FEW250 FM061300 VRB03KT 4SM HZ BKN250 FM062000 25010KT P6SM FEW250",
    "KSFO": "TAF KSFO 052034Z 0521/0624 29016KT P6SM FEW025 FM060300 29013KT P6SM SCT015 FM060700 27008KT P6SM BKN013 FM061800 26010KT P6SM SCT015 FM062000 27015KT P6SM SKC",
    "KOAK": "TAF KOAK 051741Z 0518/0624 27008KT P6SM BKN015 FM051900 27008KT P6SM SCT015 FM052100 28013KT P6SM FEW250 FM060300 28010KT P6SM BKN008 FM061200 26008KT P6SM OVC010 FM061900 29012KT P6SM SCT010",
    "KMHR": "TAF KMHR 051735Z 0518/0618 22011KT P6SM VCSH BKN150 FM060600 16008KT P6SM FEW250",
    "KDFW": "TAF KDFW 052050Z 0521/0624 03010KT P6SM VCTS SCT050CB SCT120 FM052300 09010KT P6SM SCT100 FM060500 16005KT P6SM FEW250",
    "KIAH": "TAF KIAH 052055Z 0521/0624 26006KT P6SM FEW050 BKN250 PROB30 0522/0602 18007KT 6SM -TSRA BR BKN040CB FM060200 03005KT P6SM SCT050 FM060400 19003KT P6SM SCT250 FM061000 VRB02KT P6SM FEW250 FM061400 25006KT P6SM FEW030 SCT250 FM062000 19005KT P6SM SCT050",
    "KORD": "TAF KORD 052058Z 0521/0624 02012KT P6SM BKN015 OVC025 FM060300 02008KT P6SM FEW015 BKN120 FM061400 03012KT P6SM SCT040 SCT250",
    "KJFK": "TAF KJFK 051948Z 0520/0624 13008KT P6SM SCT025 SCT040 BKN150 PROB30 0522/0524 2SM TSRA BKN030CB FM060000 11007KT 5SM -SHRA SCT015 BKN040 PROB30 0600/0601 2SM TSRA SCT015 BKN035CB FM060100 09007KT 4SM -SHRA BR OVC007 PROB30 0601/0604 2SM TSRA OVC007CB FM060600 08007KT 3SM RA BR OVC005 FM061400 06012G18KT 2SM RA BR OVC006",
    "KRFD": "TAF KRFD 052058Z 0521/0618 03008KT P6SM VCTS FEW015 SCT025 BKN035CB TEMPO 0521/0523 3SM SHRA BR BKN015 FM060000 05006KT P6SM FEW035 BKN250 FM061400 04008KT P6SM SCT030 SCT250",
    "KIND": "TAF KIND 052034Z 0521/0624 31007KT P6SM SCT030 BKN040 FM052300 31009KT P6SM VCTS BKN035CB BKN080 FM060200 34007KT P6SM BKN050 BKN080 FM060800 35007KT P6SM BKN010 OVC035 TEMPO 0609/0613 5SM BR OVC005 FM061400 36010KT P6SM SCT010 BKN025 FM062000 36009KT P6SM VCSH BKN035",
    "KDTW": "TAF KDTW 052118Z 0521/0624 06008KT P6SM SCT025 BKN060 PROB30 0521/0601 6SM -SHRA BKN025 FM060100 03007KT P6SM BKN030 BKN100 FM060900 03006KT 5SM BR BKN030 BKN120 PROB30 0609/0613 3SM -SHRA BR OVC020 FM061300 06009KT P6SM BKN030 BKN150 FM061700 05010KT P6SM SCT050 BKN150",
    "KMSP": "TAF KMSP 052045Z 0521/0624 07003KT P6SM FEW050 SCT100 FM060200 10004KT P6SM SKC FM061200 15006KT P6SM FEW250 FM061800 18008KT P6SM FEW050 SCT250",
    "CYEG": "TAF CYEG 052040Z 0521/0618 32010KT P6SM SCT040 TEMPO 0521/0601 P6SM -SHRA BKN040 PROB30 0521/0601 VRB15G25KT 5SM TSRA BKN030CB FM060100 31008KT P6SM SCT040 TEMPO 0601/0603 P6SM -SHRA BKN040 FM060300 30008KT P6SM FEW050 BECMG 0604/0606 23005KT FM061500 VRB03KT P6SM SKC RMK NXT FCST BY 060000Z",
    "EHAM": "TAF EHAM 051711Z 0518/0624 29010KT 9999 FEW020 BECMG 0521/0524 22006KT PROB30 TEMPO 0603/0606 SCT008 BKN012 BECMG 0607/0610 28014KT BECMG 0617/0620 25006KT",
    "EBBR": "TAF EBBR 051705Z 0518/0624 32010KT 9999 FEW040 BECMG 0518/0520 26004KT BECMG 0603/0606 20010KT BECMG 0606/0609 27012KT",
    "EDDF": "TAF EDDF 051700Z 0518/0624 32010KT 9999 FEW040 BECMG 0602/0604 22005KT BECMG 0608/0610 24012KT PROB40 TEMPO 0612/0618 25015G25KT BECMG 0618/0620 25005KT",
    "EDFH": "TAF EDFH 051700Z 0518/0618 32010KT 9999 FEW035 BECMG 0519/0521 32005KT BECMG 0601/0603 26004KT BECMG 0607/0609 27013KT TEMPO 0611/0618 27015G25KT",
    "EDDL": "TAF EDDL 051700Z 0518/0624 30011KT 9999 SCT040 BECMG 0519/0521 30006KT BECMG 0600/0602 21004KT BECMG 0604/0606 22009KT BECMG 0608/0611 27014KT PROB40 TEMPO 0611/0617 29015G25KT BECMG 0617/0619 29009KT BECMG 0619/0622 22005KT",
    "EDDK": "TAF EDDK 051700Z 0518/0624 30012KT 9999 BKN030 BECMG 0520/0522 28006KT BECMG 0601/0603 17004KT BECMG 0607/0609 24008KT BECMG 0609/0612 28013KT PROB30 TEMPO 0612/0618 30015G25KT BECMG 0618/0621 27005KT",
    "EBLG": "TAF EBLG 051705Z 0518/0624 32010KT 9999 FEW040 BECMG 0518/0520 26004KT BECMG 0603/0606 20010KT BECMG 0606/0609 27012KT",
    "LSZH": "TAF LSZH 052025Z 0521/0703 33006KT 9999 FEW070 TX29/0615Z TN15/0604Z BECMG 0521/0523 VRB02KT CAVOK PROB40 TEMPO 0611/0616 29010KT 9999 FEW070",
    "LIMC": "TAF LIMC 051700Z 0518/0624 VRB05KT CAVOK BECMG 0521/0523 01010KT BECMG 0604/0606 VRB05KT",
    "LIRF": "TAF LIRF 051700Z 0518/0624 26010KT CAVOK BECMG 0518/0520 VRB05KT BECMG 0600/0602 2000 BCFG TEMPO 0602/0604 0500 FG BECMG 0604/0606 9999 BECMG 0609/0611 26010KT BECMG 0618/0620 VRB05KT",
    "EINN": "TAF EINN 051700Z 0518/0618 26009KT 9999 FEW020 PROB30 TEMPO 0518/0521 BKN012 BECMG 0521/0523 BKN010 PROB30 TEMPO 0600/0609 -DZ BKN007 BECMG 0609/0611 SCT025",
    "EGLL": "TAF EGLL 051654Z 0518/0624 27012KT 9999 FEW040 PROB30 TEMPO 0604/0608 BKN006 PROB30 TEMPO 0613/0618 27015G25KT",
    "EGSS": "TAF EGSS 051653Z 0518/0624 28007KT 9999 FEW045 PROB30 TEMPO 0614/0617 27015G25KT",
    "EPWA": "TAF EPWA 052030Z 0521/0621 28010KT 9999 SCT040 TEMPO 0608/0617 29017G27KT BECMG 0619/0621 22006KT",
    "UHPP": "TAF UHPP 051934Z 0521/0703 18003G10MPS 9999 BKN030 TEMPO 0521/0524 1000 BR VA VV002 TEMPO 0612/0621 0700 FG VV002",
    "EFHK": "TAF EFHK 052029Z 0521/0621 30005KT 9999 SCT015 FEW020CB TEMPO 0521/0607 6000 SHRA BKN009 PROB30 TEMPO 0523/0605 3000 TSRA BR BKN004 SCT020CB BECMG 0607/0609 BKN012 BECMG 0609/0611 27015G25KT BKN015",
    "LBBG": "TAF LBBG 051700Z 0518/0618 12012KT 9999 SCT045 BECMG 0518/0520 VRB04KT BECMG 0608/0610 12012KT",
    "LTAC": "TAF LTAC 051640Z 0518/0618 03009KT 9999 SCT040 PROB30 TEMPO 0609/0613 -SHRA FEW025CB BKN030",
    "UBBB": "TAF UBBB 051654Z 0518/0618 31005KT CAVOK TX30/0610Z TN22/0601Z TEMPO 0518/0524 VRB04KT SCT030 TEMPO 0600/0606 35008KT FEW040CB BECMG 0606/0608 34012KT TEMPO 0608/0615 35014G24KT SCT020",
    "UTAA": "TAF UTAA 051645Z 0518/0618 28014KT 6000 SCT050CB SCT050 TEMPO 0518/0603 22012KT BECMG 0603/0605 34016KT TEMPO 0605/0612 29016G26KT 4000 DRDU",
    "UACC": "TAF UACC 051700Z 0518/0618 VRB01MPS 9999 SCT030 BKN100 TX26/0610Z TN15/0524Z TEMPO 0518/0524 3100 -SHRA BR FEW005 SCT011 BKN020CB BECMG 0600/0602 SCT030CB BKN070 TEMPO 0600/0605 3100 -TSRA SCT011 BKN020CB BECMG 0605/0607 36006MPS TEMPO 0605/0616 VRB16MPS 3100 -TSRA SQ BKN030CB",
    "UAAA": "TAF UAAA 051702Z 0518/0618 18003MPS 9999 FEW050 SCT100 TX30/0610Z TN15/0523Z BECMG 0604/0605 34003MPS TEMPO 0604/0612 04005G10MPS BECMG 0612/0614 19003MPS",
    "UZTT": "TAF UZTT 051700Z 0518/0618 07010KT CAVOK TX36/0610Z TN20/0600Z TEMPO 0518/0524 36012KT",
    "ZWWW": "TAF ZWWW 051504Z 0518/0624 20004MPS 9999 -SHRA BKN040 TX31/0609Z TN23/0523Z TN24/0623Z BECMG 0603/0604 01004MPS CAVOK BECMG 0614/0615 18004MPS",
    "ZLXY": "TAF ZLXY 051503Z 0518/0618 08003MPS 6000 NSC TX39/0607Z TN25/0521Z TEMPO 0609/0612 -TSRA FEW040CB BKN050",
    "ZBAA": "TAF ZBAA 051504Z 0518/0624 19004MPS CAVOK TX35/0606Z TN21/0521Z TN22/0621Z TEMPO 0610/0614 -TSRA FEW040CB BKN040",
    "ZBHH": "TAF ZBHH 051502Z 0518/0618 36004MPS 9999 FEW040 TX29/0608Z TN14/0522Z TEMPO 0518/0521 FEW040CB FEW040 BECMG 0605/0606 -TSRA FEW040CB SCT040 TEMPO 0606/0609 VRB08G13MPS TSRA BECMG 0609/0610 NSW NSC",
    "ZSQD": "TAF ZSQD 051510Z 0518/0618 05004MPS 3500 TSRA BKN020 SCT030CB TX32/0606Z TN23/0520Z TEMPO 0518/0521 03009G15MPS 2800 +TSRA BECMG 0520/0521 21005MPS 2800 -SHRA BR BECMG 0523/0524 3500 BR",
    "ZMCK": "TAF ZMCK 051635Z 0518/0624 VRB02MPS 9999 FEW030CB SCT033 TN10/0521Z TX25/0607Z BECMG 0602/0604 33005MPS BECMG 0609/0611 VRB02MPS",
    "UUEE": "TAF UUEE 051954Z 0521/0621 21003G08MPS 6000 BKN020 TX22/0613Z TN14/0601Z TEMPO 0521/0604 BKN004 PROB40 TEMPO 0521/0604 0300 FG TEMPO 0607/0618 24010G17MPS -TSRA BKN016CB",
    "UUDD": "TAF UUDD 051955Z 0521/0703 22005MPS 6000 BKN020 TX23/0610Z TN14/0601Z TEMPO 0521/0604 BKN004 TEMPO 0608/0618 22008G15MPS -TSRA BKN016CB",
    "ULLI": "TAF ULLI 051957Z 0521/0621 09003MPS 3100 BR FEW010 BKN016 TEMPO 0521/0603 0300 FG BKN003 BECMG 0603/0604 6000 NSW TEMPO 0604/0606 BKN010 TEMPO 0606/0612 3100 -TSRA BKN010 BKN017CB BECMG 0609/0610 26006G12MPS",
    "USSS": "TAF USSS 051948Z 0521/0621 24003MPS 6000 SCT040 TEMPO 0521/0602 0300 FG FM060400 17003G13MPS 9999 SCT033CB BECMG 0618/0620 SCT040",
    "UNNT": "TAF UNNT 052000Z 0521/0621 28003G08MPS 8000 SCT040 TX29/0609Z TN19/0522Z TEMPO 0521/0621 -TSRA BKN020CB",
    "UNKL": "TAF UNKL 051955Z 0521/0621 02003G08MPS 6000 -SHRA BKN016CB TEMPO 0521/0605 29005MPS 0500 +TSRA BKN002 BKN016CB TEMPO 0605/0613 -TSRAGR BECMG 0606/0608 35008G16MPS BECMG 0609/0611 29003G08MPS TEMPO 0613/0621 -TSRA",
    "UIBB": "TAF UIBB 052000Z 0521/0621 10002MPS 9999 SCT050CB TEMPO 0603/0612 VRB07MPS",
    "UEEE": "TAF UEEE 052000Z 0521/0703 30003G08MPS CAVOK TX30/0606Z TN13/0618Z",
    "UHHH": "TAF UHHH 051948Z 0521/0703 03003MPS 5000 -SHRA BKN004 BKN017CB TX22/0605Z TN14/0617Z TEMPO 0521/0603 BKN002 BKN016CB BECMG 0603/0605 SCT010 BKN016CB",
    "UHSS": "TAF AMD UHSS 052033Z 0520/0703 01005MPS 9999 BKN006 TEMPO 0520/0524 1400 -SHRA BR BKN004 BKN025CB FM060000 18003MPS 9999 SCT030"
  },
  "atis": {
    "RJAA": "[Arrival ATIS] RJAA ARR ATIS V 0242Z M0230 (APCH)ILS Y RWY16L LDG RWY 16L DEP RWY 16R DEP FREQ 124.2. TWY A1 CLSD. M 190230Z 10010KT 20KM FEW013CU BKN020CU 25/21 Q1010/A2985= Q/TWO NINE EIGHT FIVE STP\n[Departure ATIS] RJAA DEP ATIS V 0232Z M0230 (APCH)ILS Y RWY16L LDG RWY 16L DEP RWY 16R DEP FREQ 124.2. TWY A1 CLSD. M 190230Z 10010KT 20KM FEW013CU BKN020CU 25/21 Q1010/A2985= Q/TWO NINE EIGHT FIVE STP",
    "PANC": "[Arrival ATIS] PANC ARR ATIS I 2053Z ANC ATIS INFO I 2053Z. VRB04KT 10SM FEW040 OVC100 13/07 A2995 (TWO NINER NINER FIVE). 7R, 7L APPROACHES IN USE. LANDING RWY 7R, 7L, DEPARTING RWY 33. NOTICE TO AIRMEN. TWY Q CLSD. TWY R CLSD BTWN TWY, S AND TWY U . TWY E CLSD BTWN TWY, L AND TWY M . RWY 15 PAPI OTS. TWY K BTWN A AND D RESTRICTED TO AIRCRAFT WITH WINGSPAN LESS THAN 118 FEET. HAZD WX INFO FOR ANC AREA AVBL FM FSS. CONTACT TOWER 118.3 FOR TAXI. ...ADVS YOU HAVE INFO I.\n[Departure ATIS] PANC DEP ATIS H 1953Z ANC ATIS INFO H 1953Z. VRB03KT 10SM FEW080 SCT110 14/07 A2994 (TWO NINER NINER FOUR). 7R, 7L APPROACHES IN USE. LANDING RWY 7R, 7L, DEPARTING RWY 33. NOTICE TO AIRMEN. TWY Q CLSD. TWY R CLSD BTWN TWY, S AND TWY U . TWY E CLSD BTWN TWY, L AND TWY M . RWY 15 PAPI OTS. TWY K BTWN A AND D RESTRICTED TO AIRCRAFT WITH WINGSPAN LESS THAN 118 FEET. HAZD WX INFO FOR ANC AREA AVBL FM FSS. CONTACT TOWER 118.3 FOR TAXI. ...ADVS YOU HAVE INFO H.",
    "KSEA": "[Arrival ATIS] KSEA ARR ATIS K 2053Z SEA ATIS INFO K 2053Z. 34008G16KT 10SM FEW020 22/11 A3012 (THREE ZERO ONE TWO). ILS AND CHARTED VISUAL APPROACH RWYS 34L AND 34R , APCH IN USE. DEPG RWY 34R, DEPG ACFT PLAN AND BRIEF NUMBERS FOR BOTH RWYS 34R AND 34C. SIMUL ARRIVALS TO RWY 34L AND DEPARTURES TO RWY 34R ARE IN USE. SIMUL APCHS IN USE TO PARA RYS. NOTAMS... BIRD ACTIVITY VICINITY ARPT. ...ADVS YOU HAVE INFO K.\n[Departure ATIS] KSEA DEP ATIS B 1553Z SEA ATIS INFO B 1553Z. 35009KT 10SM FEW250 18/09 A3007 (THREE ZERO ZERO SEVEN). ILS AND CHARTED VISUAL APPROACH RWYS 34L AND 34R , APCH IN USE. DEPG RWY 34R. SIMUL ARRIVALS TO RWY 34L AND DEPARTURES TO RWY 34R ARE IN USE. SIMUL APCHS IN USE TO PARA RYS. NOTAMS... ILS RWY 34C OTS. BIRD ACTIVITY VICINITY ARPT. ...ADVS YOU HAVE INFO B.",
    "ZSPD": "[Arrival ATIS] ZSPD ARR ATIS D 0230Z EXP ILS APCH INDEPENDENT PARL INSTR APCH LDG RWY 17R & 16L WIND RWY 17R TDZ 190/6MPS MID 200/5MPS END 190/5MPS RWY 16L TDZ 210/6MPS MID 190/6MPS END 200/7MPS VIS RWY 17R TDZ 10000M MID 10000M END 10000M VIS RWY 16L TDZ 10000M MID 10000M END 10000M CLD FEW 240M T 29 /DP 25 QNH 1003 HPA CAUTION THE BIRDS NEAR THE RUNWAY RWY 17L/17R/16L/16R RWYCC 5/5/5 ISSUED AT 2100 WET/WET/WET DPT NR/NR/NR COV 100PCT/100PCT/100PCT. ADZ YOU HAVE INFO D.\n[Departure ATIS] ZSPD DEP ATIS D 0230Z DEP RWY 17L & 16R WIND RWY 17L TDZ 180/7MPS MID 200/5MPS END 190/5MPS RWY 16R TDZ 200/6MPS MID 200/5MPS VRB BTN 170/ AND 240/ END 200/6MPS VIS RWY 17L TDZ 10000M MID 10000M END 10000M VIS RWY 16R TDZ 10000M MID 10000M END 10000M CLD FEW 240M T 29 /DP 25 QNH 1003 HPA CAUTION THE BIRDS NEAR THE RUNWAY RWY 17L/17R/16L/16R RWYCC 5/5/5 ISSUED AT 2100 WET/WET/WET DPT NR/NR/NR COV 100PCT/100PCT/100PCT. ADZ YOU HAVE INFO D.",
    "ZSSS": "[Arrival ATIS] ZSSS ARR ATIS M 0230Z EXP ILS APCH LDG RWY 18L WIND RWY 18L TDZ 190/4MPS MID 190/5MPS END 200/6MPS VIS RWY 18L TDZ 10000M MID 10000M END 10000M CLD BKN 360M T 28 /DP 25 QNH 1003 HPA RWY18L RWYCC 5/5/5 ISSUED AT 0520 WET/WET/WET DPT NR/NR/NR COV 100PCT/100PCT/100PCT RWY18R RWYCC 5/5/5 ISSUED AT 0520 WET/WET/WET DPT NR/NR/NR COV 50PCT/50PCT/50PCT QNH OF SHANGHAI TERMINAL CONTROL AREA 1003 HPA ADZ YOU HAVE INFO M.\n[Departure ATIS] ZSSS DEP ATIS K 0130Z DEP RWY 18R WIND RWY 18R TDZ 180/5MPS MID 190/4MPS END 190/5MPS VIS RWY 18R TDZ 5000M MID 6000M END 5000M FBL RA BR CLD BKN 300M T 27 /DP 24 QNH 1004 HPA RWY18L RWYCC 5/5/5 ISSUED AT 0520 WET/WET/WET DPT NR/NR/NR COV 100PCT/100PCT/100PCT RWY18R RWYCC 5/5/5 ISSUED AT 0520 WET/WET/WET DPT NR/NR/NR COV 50PCT/50PCT/50PCT QNH OF SHANGHAI TERMINAL CONTROL AREA 1004 HPA ADZ YOU HAVE INFO K.",
    "VHHH": "[Arrival ATIS] VHHH ARR ATIS B 0207Z ARRIVALS, RWY 25R/L. EXP RNAV TRANSITION TO ILS APCH, RWY 25R. RNP APCH IS AVBL ON REQ, RWY 25R. EXP ILS APCH RWY 25L CAUTION POSSIBLE GP FLUCTUATION RWY 25L. SIG WS FCST RWY 25R/L. MOD TURB FCST RWY 25R/L. WIND RWY 25R 200/17KT RWY 25L 200/19KT. VIS RWY 25R 10KM RWY 25L 10KM. CLD FEW 1000FT SCT 2000FT. T30 DP25. QNH 1009HPA. ACK INFO B ON FIRST CTC WITH APP.\n[Departure ATIS] VHHH DEP ATIS R 2036Z DEPARTURES, RWY 25R. SIG WS FCST. MOD TURB FCST . WIND 170/16KT. VIS 10KM. CLD FEW 1000FT SCT 2500FT. T30 DP25. QNH 1006HPA. ACK INFO R ON FIRST CTC WITH DELIVERY .",
    "RCTP": "[Arrival ATIS] RCTP ARR ATIS M 0200Z EXP ILS APCH RWY23R AND RWY23L ARR/DEP. WIND 250/12KT VIS 10 KM OR MORE CLD FEW 2000FT SCT 20000FT T 33 DP 23 QNH 1010HPA NOSIG CTN BIRD ACTIVITY IN THE VCY OF THE AD. INFORM TAIPEI APCH OR TAIPEI TOWER ON INITIAL CONTACT YOU HAVE INFORMATION M\n[Departure ATIS] RCTP DEP ATIS H 2330Z EXP ILS APCH RWY23R AND RWY23L ARR/DEP. WIND 180/04KT VARYING BTN 160 AND 220 VIS 10 KM OR MORE CLD FEW 2000FT T 31 DP 25 QNH 1010HPA NOSIG CTN BIRD ACTIVITY IN THE VCY OF THE AD. INFORM TAIPEI APCH OR TAIPEI TOWER ON INITIAL CONTACT YOU HAVE INFORMATION H",
    "ZGSZ": "[Arrival ATIS] ZGSZ ARR ATIS J 2030Z EXP ILS APCH LDG RWY 15 WIND 170/8MPS VIS 9999M CLD FEW 600M /FEW CB 780M /BKN 1500M T 29 /DP 27 QNH 1006 HPA SINGLE RUNWAY OPERATION MISSED APPROACH ALTITUDE SETTING 1200METERS WHEN AIRBORNE CONTACT ZHUHAI APPROACH EXPECTED RNP ILS DME Z APPROACH ADZ YOU HAVE INFO J.\n[Departure ATIS] ZGSZ DEP ATIS J 0208Z DEP RWY 15 & 16L WIND 190/6MPS VIS 6000M +SHRA CLD SCT 390M /FEW CB 900M /BKN 1200M T 28 /DP 27 QNH 1009 HPA SUPPLEMENT INFO RETS INDEPENDENT PARALLEL DEPARTURES DEPENDENT PARALLEL APPROACHES V17,V18 AVAILABLE AFTER SULAS FLY HEADING 040 MISSED APPROACH ALTITUDE SETTING 1200METERS WHEN AIRBORNE CONTACT ZHUHAI APPROACH EXPECTED RNP ILS DME Z APPROACH RWY 15 16L 16R RWYCC 5/5/5 ISSUED AT 2200UTC WET/WET/WET DPT NR/NR/NR COV 100PCT/100PCT/100PCT ADZ YOU HAVE INFO J.",
    "WSSS": "[Arrival ATIS] WSSS ARR ATIS F 0230Z METREPORT 0230Z ILS APCHRWY 20R SIMUL INDEPENDENT ILS AND VISUAL APPROACHES ARE CONDUCTED ON RWY 20. TWY W 9 CLOSED, RWY 02C 20C RAPID EXIT TAXIWAY INDICATOR LIGHTS OFFFOLLOW THE GREENS TRIAL IN PROGRESS. WHEN VACATING THE RWY, PILOTS TO ADHERE TO ATC VERBAL INSTRUCTIONS. WHEN ON TWY, PILOT TO ADHERE TO FOLLOW THE GREENS INSTRUCTIONS. WHEN APPROACHING [A] JUNCTION, KEEP [A] LOOKOUT FOR CONTINUOUS GREENS. [IF] [A] BREAK IN THE GREENS IS OBSERVED, STOP AND CLARIFY WITH ATC. WIND 140/ 08KT VRB BTN100 AND190 VIS 10KM CLD FEW 1800FT FEW TCU 2000FT T30 DP25 QNH 1011HPA NOSIG ACK ATIS F\n[Departure ATIS] WSSS DEP ATIS A 2330Z METREPORT 2330Z RWY 20C SIMUL INDEPENDENT ILS AND VISUAL APPROACHES ARE CONDUCTED ON RWY 20. TWY W 9 CLOSED, RWY 02C 20C RAPID EXIT TAXIWAY INDICATOR LIGHTS OFFFOLLOW THE GREENS TRIAL IN PROGRESS. WHEN VACATING THE RWY, PILOTS TO ADHERE TO ATC VERBAL INSTRUCTIONS. WHEN ON TWY, PILOT TO ADHERE TO FOLLOW THE GREENS INSTRUCTIONS. WHEN APPROACHING [A] JUNCTION, KEEP [A] LOOKOUT FOR CONTINUOUS GREENS. [IF] [A] BREAK IN THE GREENS IS OBSERVED, STOP AND CLARIFY WITH ATC. WIND 140/ 02KT VIS 10KM CLD FEW TCU 1700FT T27 DP24 QNH 1011HPA NOSIG DEP,INITIAL CMB 3000FT ACK ATIS A",
    "WMKK": "[Arrival ATIS] WMKK ARR ATIS B 0234Z WMKK ARR INFO B. TIME 0230. INDEPENDENT PARALLEL APPROACHES FOR RWY 14 L AND 15 ARE IN PROGRESS. EXP RNAV / ILS APCH FOR RWY 14 LEFT. EXP RNAV / ILS APCH FOR RWY 15. WIND RWY 14L DIRECTION NOT AVBL SPEED NOT AVBL. WIND RWY 15 DIRECTION NOT AVBL SPEED NOT AVBL. VIS RWY 14L TDZ NOT AVBL. VIS RWY 15 TDZ NOT AVBL. WX VCSH. CLD FEW CB 1700 FT. T 31. DP 26. QNH 1010. NOSIG. AT FIRST CONTACT WITH LUMPUR RADAR, NOTIFY RCPT OF B\n[Departure ATIS] WMKK DEP ATIS O 0033Z WMKK DEP INFO O. TIME 0030. INDEPENDENT PARALLEL DEPARTURES FOR RWY 14 R AND 15 ARE IN PROGRESS. RWY 14 RIGHT. RWY 15. WIND RWY 14R DIRECTION NOT AVBL SPEED NOT AVBL. WIND RWY 15 DIRECTION NOT AVBL SPEED NOT AVBL. VIS RWY 14R TDZ NOT AVBL. VIS RWY 15 TDZ NOT AVBL. CLD FEW CB 1700 FT. T 28. DP 25. QNH 1010. NOSIG. ALL DEP ACFT TO CONTACT LUMPUR DEP AT 135 DECIMAL 25 MHZ WHEN ABN. AT FIRST CONTACT WITH LUMPUR GROUND, NOTIFY RCPT OF O",
    "VTBS": "[Arrival ATIS] VTBS ARR ATIS X 0200Z VTBS ARR ATIS X 0203Z EXP ILS Z APCH ARR RWY 19 OR RNP APCH RWY 20R 06181550 19 6/6/6 NR/NR/NR NR/NR/NR DRY/DRY/DRY 06181555 20R 6/6/6 NR/NR/NR NR/NR/NR DRY/DRY/DRY , , 0200Z WIND 340/6KT VRB BTN 300/ AND 360/ VIS 10KM RVR RWY 19 ABV 2000M CLD FEW 2000FT T30 DP26 QNH 1010HPA TREND NOSIG ADZ BKK APCH ON INITIAL CONTACT THAT YOU HAVE INFO X\n[Departure ATIS] VTBS DEP ATIS I 0130Z VTBS DEP ATIS I 0132Z SIMULTANEOUS INDEPENDENT PARL DEP IN PROGRESS DEP RWY 20L OR DEP RWY 19 06181550 19 6/6/6 NR/NR/NR NR/NR/NR DRY/DRY/DRY 06181555 20L 6/6/6 NR/NR/NR NR/NR/NR DRY/DRY/DRY , ,AFT AIRBORNE ALL DEPARTING ACFT SHALL CTC 119.25 0130Z WIND 340/4KT VRB BTN 310/ AND 020/ VIS 10KM RVR RWY 20L ABV 2000M CLD FEW 2000FT T29 DP26 QNH 1010HPA TREND NOSIG ADZ GND WHEN INITIAL CONTACT YOU HAVE INFO I",
    "VTBU": "[Arrival ATIS] VTBU ARR ATIS E 1000Z VTBU ARR ATIS E 1005Z RNP RWY 18 TRL FL130 1000Z WIND 170/9KT VIS 10KM CLD FEW CB 1800FT T30 DP28 QNH 1009HPA TS IN APCH TREND BECMG TL1045 NSW ADZ CONTROLLER WHEN INITIAL CONTACT YOU HAVE INFO E\n[Departure ATIS] VTBU DEP ATIS D VTBU ARR/DEP DATIS RPT VTBU ARR ATIS D 0330Z ILS \"Z\" APCH RWY 18 TRL FL130 0330Z WIND 110/4KT VRB BTN 350/ AND 120/ VIS 6KM CLD FEW 2000FT T31 DP27 QNH 1014HPA TREND NOSIG ADZ CONTROLLER WHEN INITIAL CONTACT YOU HAVE INFO D",
    "ROAH": "[Arrival ATIS] ROAH ARR ATIS F 0130Z M0130 (APCH)RNP RWY18R LDG RWY 18R DEP RWY 18L DEP FREQ 126.5 258.3 M 190130Z 18010KT 40KM FEW006ST SCT010CU BKN/// 29/27 Q1012/A2990= Q/TWO NINE NINE ZERO STP\n[Departure ATIS] ROAH DEP ATIS G 0228Z M0200 (APCH)RNP RWY18R LDG RWY 18R DEP RWY 18L DEP FREQ 126.5 258.3 M 190200Z 17011KT 40KM FEW010CU BKN/// 29/26 Q1012/A2990= Q/TWO NINE NINE ZERO STP",
    "VVDN": "[Arrival ATIS] VVDN ARR ATIS G 1302Z VVDN INFO G 1302Z. ILS VICTOR APPROACH 35L.. DPTG RWY 35R.. 1302Z. WIND 220/03KT CAVOK T29 DP23 QNH 1006HPA TREND NOSIG. ADZ ON INITIAL CTC YOU HAVE INFO. G.\n[Departure ATIS] VVDN DEP ATIS Q 1502Z VVDN INFO Q 1502Z. ILS VICTOR APPROACH 35L.. DPTG RWY 35R.. 1502Z. WIND 260/02KT CAVOK T28 DP23 QNH 1008HPA TREND NOSIG. ADZ ON INITIAL CTC YOU HAVE INFO. Q.",
    "RCKH": "[Arrival ATIS] RCKH ARR ATIS P 1400Z EXPECT ILS APPROACH RWY 09 ARR/DEP TAXIWAY JULIETT, TAXIWAY BRAVO, TAXIWAY DELTA AND TAXIWAY ECHO CLOSED DUE MAINTENANCE. RUNWAY 0 9 ARRIVALS PLAN VACATE VIA CHARLIE OR\n[Departure ATIS] RCKH DEP ATIS U 0400Z EXPECT ILS APPROACH RWY 27 ARR/DEP TAXIWAY JULIETT, TAXIWAY BRAVO, TAXIWAY DELTA AND TAXIWAY ECHO CLOSED DUE MAINTENANCE. RUNWAY 27 ARRIVALS PLAN VACATE VIA CHARLIE OR",
    "KLAX": "[Arrival ATIS] KLAX ARR ATIS E KLAX ARR/DEP DATIS RPT LAX ATIS INFO E 2053Z. 25011KT 10SM FEW010 FEW100 SCT190 SCT280 24/16 A2998 (TWO NINER NINER EIGHT) RMK AO2 SLP150 T02390161 58008. INST APCHS AND RNAV RNP APCHS RY 24R AND 25L, OR VCTR FOR VISUAL APCH WILL BE PROVIDED, SIMUL VISUAL APCHS TO ALL RWYS ARE IN PROG, SIMUL INSTR DEPARTURES IN PROG RWYS 24 AND 25. CTC L A GC ON 121.75 FOR PUSH OR TAXI ON A. TWY B CLSD BTN TWY, C10 AND TWY C7 , , TWY B6 CLSD, TWY B7 CLSD, TWY C CLSD BTN TWY, C1 AND TWY C3, TWY C1 CLSD, TWY C9 CLSD BTN TWY, B AND TWY C, TWY C8 CLSD BTN TWY, B AND TWY C. RY 25R SFL OTS, RY 24L ALSF-2 OTS. LAX VOR UNMONITORED. USE CAUTION FOR INCREASED DRONE ACTIVIY IN THE VICINITY OF SOFI STADIUM AT OR BELOW 200FT AGL DURING THE WORLD CUP FROM JUNE TWELFTH TWENTY TWENTY SIX THROUGH JULY TENTH TWENTY TWENTY SIX.USE CAUTION FOR FIREWORKS IN THE VICINITY OF THE AIRPORT. HAZD WX INFO FOR LAX AREA AVBL FM FSS. BIRD ACTIVITY VICINITY ARPT. INCLUDE YOUR CALL SIGN IN ALL READBACKS. USE CAUTION WHEN EXITING RY24R AT TWY V, W, AND Y, TO HOLD SHORT OF RY24L. MULTIPLE RUNWAY INCURSIONS HAVE OCCURRED. ...ADVS YOU HAVE INFO E.\n[Departure ATIS] KLAX DEP ATIS X 0153Z LAX ATIS INFO X 0153Z. 25014KT 10SM FEW013 19/14 A2995 (TWO NINER NINER FIVE) RMK AO2 SLP139 T01890144. INST APCHS AND RNAV RNP APCHS RY 24R AND 25L, OR VCTR FOR VISUAL APCH WILL BE PROVIDED, SIMUL VISUAL APCHS TO ALL RWYS ARE IN PROG. CTC L A GC ON 121.75 FOR PUSH OR TAXI ON A. TWY C CLSD BTN TWY, C8 AND TWY C9 , , TWY B CLSD BTN TWY, F AND TWY B1, TWY B1 CLSD. ILS RY 25R OTS, RY 25R SFL OTS, RY 24L ALSF-2 OTS. LAX VOR UNMONITORED. IF ASSIGNED RUNWAY 25R FOR DEPARTURE, EXPECT DEPARTURE FROM INTERSECTION FOXTROT. TAXILANE CHARLIE EIGHT RESTRICTED TO AIRCRAFT WITH A WINGSPAN LESS THAN ONE HUNDRED EIGHTEEN FEET. USE CAUTION FOR INCREASED DRONE ACTIVIY IN THE VICINITY OF SOFI STADIUM AT OR BELOW 200FT AGL DURING THE WORLD CUP FROM 06/12/26 THROUGH 07/10/2026. HAZD WX INFO FOR LAX AREA AVBL FM FSS. BIRD ACTIVITY VICINITY ARPT. INCLUDE YOUR CALL SIGN IN ALL READBACKS. USE CAUTION WHEN EXITING RY24R AT TWY V, W, AND Y, TO HOLD SHORT OF RY24L. MULTIPLE RUNWAY INCURSIONS HAVE OCCURRED. ...ADVS YOU HAVE INFO X.",
    "KONT": "[Arrival ATIS] KONT ARR ATIS N 1453Z ONT ATIS INFO N 1453Z. 22003KT 1 1/2SM FU BKN240 21/14 A3000 (THREE ZERO ZERO ZERO). ILS APR IN USE. RY26L & RY26R. LNDG AND DEPG RY 26L AND RY 26R. NOTAMS... TAXIWAY SIERRA FIVE CLOSED. TAXIWAY SIERRA CLOSED BETWEEN TAXIWAY SIERRA 8 AND TAXIWAY WHISKEY. RY 26L IM OTS, RY 26R ALS OTS. USE CAUTION FOR NUMEROUS BIRDS OBSERVED IN VICINITY OF ONT. HAZD WX INFO FOR SOUTHERN CA AVBL ON FSS FREQUENCIES. ILS CRITICAL AREAS ARE IN EFFECT. PILOTS READBACK RWY ASSIGNMENTS AND HOLD SHORT INSTRUCTIONS. ...ADVS YOU HAVE INFO N.\n[Departure ATIS] KONT DEP ATIS N 0553Z - KONT ATIS INFO N 0553Z. 24004KT 10SM BKN250 22/15 A2988 (TWO NINER EIGHT EIGHT) RMK AO2 SLP100. ILS AND VIS APR IN USE, RY26L & RY26R. LNDG AND DEPG RY 26L AND RY 26R. NOTAMS... TAXIWAY SIERRA CLSD BETWEEN SIERRA 8 AND W TAXIWAY Q SOUTH OF RWY 26L CLSD TAXIWAY T CLSD TAXIWAY SIERRA 5 CLSD. RY 26L IM OTS, RY 26R ALS OTS. USE CAUTION FOR NUMEROUS BIRDS OBSERVED IN VICINITY OF ONT. HAZD WX INFO FOR SOUTHERN CA AVBL ON FSS FREQUENCIES. PILOTS READBACK RWY ASSIGNMENTS AND HOLD SHORT INSTRUCTIONS. ...ADVS YOU HAVE INFO N.",
    "KSFO": "[Arrival ATIS] KSFO ARR ATIS X 0156Z - KSFO ATIS INFO X 0156Z. 20023G33KT 10SM FEW010 19/13 A2989 (TWO NINER EIGHT NINER). SIMUL CLSLY SPCD DPNDNT ILS RY 28R AND ILS RY 28L APP IN USE. DEPG RWYS 28L, 28R. RY 1L, 1R CLSD. NUMEROUS TWY CLOSURES FOR CONSTRUCTION ON THE FIELD, PILOTS CHECK NOTAMS. DEPG ACFT WAITING ON FINAL NUMBERS ADVISE GROUND PRIOR TO ENTERING TWY F. ...ADVS YOU HAVE INFO X.\n[Departure ATIS] KSFO DEP ATIS R 1456Z SFO ATIS INFO R 1456Z. 30006KT 10SM FEW006 OVC011 14/11 A3002 (THREE ZERO ZERO TWO). SIMUL CLSLY SPCD DPNDNT ILS RY 28R AND ILS RY 28L APP IN USE. DEPG RWYS 28L, 28R. GATE",
    "KOAK": "[Arrival ATIS] KOAK ARR ATIS V 1453Z OAK ATIS INFO V 1453Z. 23008KT 10SM OVC009 14/12 A3001 (THREE ZERO ZERO ONE). RNAV, RWY 30. ILS, RWY 28R. FLOW TO LAX, SAN, SEA. ILS RWY 30, OTS, RWY 28R RAIL, OTS. UNN LIT CLOSE-IN OBSTACLES FOR RWY 30 DEPARTURES. RWY 30 DEPARTURES ARE ADVISED TO AVOID TURNING LEFT PRIOR TO DEPARTURE END OF RUNWAY. CTN, CRANE 1 POINT 6 NAUTICAL MILES, , AT 140 FEET AGL. CAUTION, BIRDS NEAR AIRPORT. ...ADVS YOU HAVE INFO V.\n[Departure ATIS] KOAK DEP ATIS O 1953Z OAK ATIS INFO O 1953Z. 28014KT 10SM FEW005 22/14 A2988 (TWO NINER EIGHT EIGHT). RNAV Z/VA RWY 30 ILS/VA RWY 28R. FLOW TO LAX, LAS, SAN. ILS RWY 30, OTS. UNN LIT CLOSE-IN OBSTACLES FOR RWY 30 DEPARTURES. RWY 30 DEPARTURES ARE ADVISED TO AVOID TURNING LEFT PRIOR TO DEPARTURE END OF RUNWAY. SIGNATURE UNI-COM OUT OF SERVICE. CAUTION, BIRDS NEAR AIRPORT. ...ADVS YOU HAVE INFO O.",
    "KDFW": "[Arrival ATIS] KDFW ARR ATIS Q 1953Z - KDFW ARR INFO Q 1953Z. 04009KT 10SM SCT065TCU SCT130 BKN170 BKN250 35/20 A2996 (TWO NINER NINER SIX). SIMUL VISUAL APCH TO RWYS, 36L, 35C, 35R, 31R. LDG RWY 35C EXP LAHSO TWY EJ 9050 FT AVL, LDG RWY 36L EXP LAHSO TWY Z 10650 FT AVL. NOTICE TO AIRMEN. RWY 36R CLOSED TO ARRIVING ACFT, RWY 36R CL OTS. HAZD WX FOR DFW AVBL ON FSS. BIRD ACTIVITY VCNTY ARPT. ...ADVS YOU HAVE INFO Q.\n[Departure ATIS] KDFW DEP ATIS W 1553Z - KDFW DEP INFO W 1553Z. 21022G32KT 10SM FEW025 FEW180 SCT250 31/21 A2994 (TWO NINER NINER FOUR) RMK AO2 PK WND 20032/1547 SLP128 T03110206. SIMUL PARL TRAFFIC DEPG RWYS 17R, 18L. NOTICE TO AIRMEN. WARNING, RWY 18L HAS BEEN SHORTENED, 9273 FT AVAILABLE. RWY 18L CL OTS. BIRD ACTIVITY VCNTY ARPT. ...ADVS YOU HAVE INFO W.",
    "KIAH": "[Arrival ATIS] KIAH ARR ATIS E 2353Z IAH ATIS INFO E 2353Z. 16013G18KT 7SM FEW035 33/26 A2972 (TWO NINER SEVEN TWO). ARRIVALS EXPECT ILS OR RNAV Y RY 26R, ILS OR RNAV Y RY 26L, ILS OR RNAV Y RY 27. SIMUL APPROACHES IN USE. DEPG RY 15L, RY 15R. NOTICE TO AIRMEN. UNITED RAMP CONTROL IN EFFECT. BIRD ACTIVITY VICINITY ARPT. TWY SA CLSD BTN TWY, SG AND TWY SK , TWY SB CLSD BTN TWY, SG AND TWY SK , , TWY NR CLSD BTN TWY, NB AND TWY WW . TWY NC CLSD BTN TWY, NE AND TWY NR . TWY SG CLSD, TWY EA CLSD, USE CAUTION FOR STEEL PLATE ON TWY SF. NOTAM ATIS IN USE ON FREQUENCY 126.225. ...ADVS YOU HAVE INFO E.\n[Departure ATIS] KIAH DEP ATIS D 0453Z IAH ATIS INFO D 0453Z. 19003KT 10SM CLR 25/24 A2963 (TWO NINER SIX THREE). ARRIVALS EXPECT ILS OR RNAV Y RY 26L. DEPG RY 15L. NOTICE TO AIRMEN. UAL RAMP PROCEDURES TERMINATED PUSH BACK AT PILOTS DISCRETION. RY 26R, 8L CLSD. BIRD ACTIVITY VICINITY ARPT. TWY SA CLSD BTN TWY, SG AND TWY SK , TWY SB CLSD BTN TWY, SG AND TWY SK , , TWY SF CLSD BTN TWY, NB AND TWY RB . TWY SG CLSD, TWY EA CLSD. NOTAM ATIS IN USE ON FREQUENCY 126.225. ...ADVS YOU HAVE INFO D.",
    "KORD": "[Arrival ATIS] KORD ARR ATIS G 2051Z ORD ATIS INFO G 2051Z. 02010KT 10SM BKN016 BKN025 OVC060 24/20 A2998 (TWO NINER NINER EIGHT) RMK AO2 SLP147 T02390200 55003. ARR EXP VECTORS ILS RWY 9L APCH, ILS PRM RWY 10C APCH, ILS PRM Y RY 10R APCH. CTN RY 10R LOC IS OFFSET 2.5 DEGREES. SIMUL APCHS IN USE. DEPS EXP RWYS 9C FROM F F 9200 FT AVL, 10L FROM DD. 10,093 FT AVBL. ATTN PILOTS. SIMUL PARL DEPS IN USE. EXP TO INITIALLY FLY RWY. HDG ON DEP. PILOTS MUST READ BACK DRCTN OF TURNS BY ATC. RWY 4L, 22R CLSD. RWY 22L ILS OTS, RWY 22R LOC OTS, RWY 28L GS OTS, RWY 9L IM OTS, RWY 9C IM OTS, RWY 10L IM OTS, RWY 10R IM OTS, RWY 27R IM OTS, RWY 28L IM OTS, RWY 28R IM OTS, RWY 9L PAPI OTS, RWY 27R PAPI OTS. PILOTS USE CTN FOR BIRD ACTIVITY IN THE VICINITY OF THE ARPT. HAZD WX INFO FOR ORD AREA AVBL ON FSS. USE CTN FOR PERSONNEL AND EQUIP AT NUMEROUS SITES ON THE FIELD. READBACK ALL RWY HOLD SHORT INSTRUCTIONS. WHEN READY TO TAXI CONTACT GND METERING ON FREQ 121.67. ...ADVS YOU HAVE INFO G.\n[Departure ATIS] KORD DEP ATIS U 1451Z ORD ATIS INFO U 1451Z. 01010KT 5SM BR OVC006 21/19 A2998 (TWO NINER NINER EIGHT) RMK AO2 SLP148 T02110194 53016. ARR EXP VECTORS ILS RWY 9L APCH, ILS RWY 10C APCH. SIMUL APCHS IN USE. DEPS EXP RWYS 9C FROM F F 9200 FT AVL, 10L FROM DD. 10,093 FT AVBL. ATTN PILOTS. SIMUL PARL DEPS IN USE. EXP TO INITIALLY FLY RWY. RWY 4L, 22R CLSD. RWY 22L ILS OTS, RWY 22R LOC OTS, RWY 28L GS OTS, RWY 9L IM OTS, RWY 9C IM OTS, RWY 10L IM OTS, RWY 10R IM OTS, RWY 27R IM OTS, RWY 28L IM OTS, RWY 28R IM OTS, RWY 9L PAPI OTS, RWY 27R PAPI OTS. USE CTN FOR PERSONNEL AND EQUIP AT NUMEROUS SITES ON THE FIELD. READBACK ALL RWY HOLD SHORT INSTRUCTIONS. WHEN READY TO TAXI CONTACT GND METERING ON FREQ 121.67. ...ADVS YOU HAVE INFO U.",
    "KJFK": "[Arrival ATIS] KJFK ARR ATIS X 1951Z JFK ATIS INFO X 1951Z. 13007KT 10SM FEW025 SCT075 BKN180 BKN250 27/21 A2997 (TWO NINER NINER SEVEN). APPROACH IN USE ILS RY 22L, ILS RY 22R. DEPG RY 22R. CRI OTS. RWY 22L/4R INNER MARKER OTS. UNAUTHORIZED UAS EVENT AT, 1846Z 3 NM NE, AT 009 FEET BLACK OBJECT. NUM CRANES OPERATING AT JFK. BIRD ACTIVITY VICINITY ARPT. READBACK ALL RWY ASSIGNMENTS AND HOLD SHORT INSTRUCTIONS. ...ADVS YOU HAVE INFO X.\n[Departure ATIS] KJFK DEP ATIS A 0151Z - KJFK ATIS INFO A 0151Z. 25017KT 10SM SCT070 SCT250 25/16 A2958 (TWO NINER FIVE EIGHT) RMK AO2 PK WND 25026/0107 SLP016 T02500161. APPROACH IN USE ILS RY 22L, ILS RY 22R. DEPG RY 22R, ACFT FILED OVER RBV OR DIXIE EXPECT RY 31L KE FOR DEP. RWY 22L/4R INNER MARKER OTS. NUM CRANES OPERATING AT JFK. BIRD ACTIVITY VICINITY ARPT. READBACK ALL RWY ASSIGNMENTS AND HOLD SHORT INSTRUCTIONS. ...ADVS YOU HAVE INFO A.",
    "KIND": "[Arrival ATIS] KIND ARR ATIS O 2054Z IND ATIS INFO O 2054Z. 29008KT 270V330 10SM BKN032 BKN050 BKN250 29/21 A2992 (TWO NINER NINER TWO). PARL ILS RWY 23R AND 23L APPROACHES IN USE. CROSS RUNWAY OPERATIONS MAY BE IN EFFECT. NOTICE TO AIRMEN. RWY 32 GS OTS. TWY, P BTN TWY, H AND TWY B CLSD. P PAD CLSD. ILS RUNWAY 5R AND RUNWAY 5L INNER MARKER UNSERVICEABLE. RUNWAY 32 PAPI OTS. RUNWAY 32 TOUCHDOWN RVR OTS. RUNWAY 14 ROLLOUT RVR OTS. HIWAS. ...ADVS YOU HAVE INFO O.\n[Departure ATIS] KIND DEP ATIS H 1854Z IND ATIS INFO H 1854Z. 26009G19KT 10SM SCT036 BKN041 BKN170 23/16 A2981 (TWO NINER EIGHT ONE) RMK AO2 SLP088 T02280156. PARL ILS RWY 23R AND 23L APPROACHES IN USE. CROSS RU",
    "KDTW": "[Arrival ATIS] KDTW ARR ATIS E 1453Z DTW ARR INFO E 1453Z. 25020G29KT 10SM FEW030 SCT035 OVC060 20/13 A2951 (TWO NINER FIVE ONE) RMK AO2 PK WND 26029/1450 SLP989 T02000133 51023. SIMUL ILS Z RY 22R AND RY 21L APCH IN USE. NOTICE TO AIRMEN. RWY 22L, 4R CLSD, RWY 27R, 9L CLSD. PILOTS USE CTN FOR BIRD ACTIVITY. DEPARTURE ATIS 118.125. WARNING, RUNWAY TWO SEVEN LEFT HAS BEEN SHORTENED, SIX THOUSAND SEVEN HUNDRED EIGHTY-SEVEN FEET AVAILABLE. ...ADVS YOU HAVE INFO E.\n[Departure ATIS] KDTW DEP ATIS Q 2253Z - KDTW DEP INFO Q 2253Z. 21009KT 10SM FEW050 FEW250 33/24 A2991 (TWO NINER NINER ONE). DEPG RWY 21R, RWY 22L ;. NOTICE TO AIRMEN. RWY 27L, 9R CLSD, RWY 27R, 9L CLSD. PILOTS USE CTN FOR BIRD ACTIVITY. ...ADVS YOU HAVE INFO Q.",
    "KMSP": "[Arrival ATIS] KMSP ARR ATIS L 2053Z MSP ARR INFO L 2053Z. VRB06KT 10SM SCT055 29/17 A3004 (THREE ZERO ZERO FOUR). VISUAL RWY 12R APCH IN USE, VISUAL RWY 12L APCH IN USE. FINAL APCH, OVER NOISE SENSITIVE AREA. NOTICE TO AIRMEN. RWYS 4, 22 CLSD. TWY R7. R8. R9. R10. CLOSED, TWY R BETWEEN R6 AND R10 CLOSED. GS RWY 12L OTS, RWYS 12R, 12L, INNER MARKER OTS.. HAZD WX INFO FOR MSP AREA AVBL FM FSS. CTN, BIRDS NEAR MSP. READ BACK HS AND ALT. ALL ACFT TAXI WITH TRANSPONDER AND ALTITUDE ENCODING ON. ...ADVS YOU HAVE INFO L.\n[Departure ATIS] KMSP DEP ATIS Y 2053Z - KMSP DEP INFO Y 2053Z. VRB06KT 10SM SCT055 29/17 A3004 (THREE ZERO ZERO FOUR). DEPARTING RWY 12L, RWY 12R, RWY 17. NOTICE TO AIRMEN. RWYS 4, 22 CLSD. TWY R7. R8. R9. R10. CLOSED, TWY R BETWEEN R6 AND R10 CLOSED. ALL ACFT CTC METERING ON ONE THREE THREE POINT FIVE SEVEN WHEN READY TO PUSHBACK OR TAXI. HAZD WX INFO FOR MSP AREA AVBL FM FSS. CTN, BIRDS NEAR MSP. READ BACK HS AND ALT. ALL ACFT TAXI WITH TRANSPONDER AND ALTITUDE ENCODING ON. ...ADVS YOU HAVE INFO Y.",
    "CYEG": "[Arrival ATIS] CYEG ARR ATIS V 2000Z CYEG ARR ATIS V 2000Z 30009KT 250V310 20SM FEW040CB FEW150 18/09 A3002 SIGMET D2 IN EFFECT. APCH RNAV Z OR Y RWY 20, INFORM ARRL OF REQ APCH ON INITIAL CTC. LDG AND DEP RWY 20. SIMUL APPROACHES MAY BE IN EFCT. INFORM CYEG ATC INFO V\n[Departure ATIS] CYEG DEP ATIS X 2100Z CYEG ARR ATIS X 2100Z 28009KT 230V300 20SM FEW042CB SCT085 SCT160 19/08 A3001 SIGMET D3 IN EFFECT. APCH RNAV Z OR Y RWY 20, INFORM ARRL OF REQ APCH ON INITIAL CTC. LDG AND DEP RWY 20. SIMUL APPROACHES MAY BE IN EFCT. INFORM CYEG ATC INFO X",
    "EHAM": "[Arrival ATIS] EHAM ARR ATIS I 1621Z EHAM ARRIVAL INFO I. DEMAND. MAIN LANDING RWY 36 R. TRANSITION LEVEL 040. WIND 290 DEG, 12 KT, VRB BTN 260 AND 340 DEG, 17 KT MAX, 7 KT MNM. VIS 10 KM OR MORE. CLD FEW 1700 FT SCT 1900 FT. T 20. DP 14. QNH 1021 HPA. NOSIG. OPERATIONAL REPORT. CONTACT APCH WITH CALLSIGN ONLY. END OF INFO I\n[Departure ATIS] EHAM DEP ATIS Y 1106Z EHAM DEPARTURE INFO Y. DEMAND. MAIN DEPARTURE RWY 36 L. MAIN LANDING RWY 36 R. WIND 280 DEG, 12 KT, VRB BTN 250 AND 330 DEG, 17 KT MAX, 7 KT MNM. VIS 10 KM OR MORE. WX -RA. CLD FEW 1200 FT BKN 1900 FT. T 19. DP 16. QNH 1022 HPA. OPERATIONAL REPORT. INFORM SCHIPHOL DEL BY VOICE IF UNABLE TO COMPLY WITH NADP 2. END OF INFO Y",
    "EBBR": "[Arrival ATIS] EBBR ARR ATIS G 2050Z EBBR NAT, EXP VECT FOR ILS APP ARR RWY19 RSCD AT 1430 RWY19 DRY. DEP RWY19 TRL 055 RWY 25R CLSD WIP 270/5KT CAVOK T18 DP14 QNH 1022HPA NOSIG CFM ARR G\n[Departure ATIS] EBBR DEP ATIS J 1800Z EBBR NAT, DEP RWY25R RSCD AT 1438 RWY25R DRY. ARR RWY25L TRL 055 B3 CLSD 330/8KT VIS ABV 10KM SCT3600FT BKN4200FT T21 DP14 QNH 1023HPA NOSIG CFM DEP J",
    "EDDF": "[Arrival ATIS] EDDF ARR ATIS Z 1650Z ARR-ATIS EDDF Z METAR 051650 EXPECT INDEPENDENT PARALLEL ILS Y APCH RWY 25R OR ILS APCH RWY 25L RWY 25R 25L GLS APCH ON REQUEST , DO NOT MISTAKE TWY M FOR RWY 25C WHEN PERFORMING VISUAL APPROACH , RWY COND AT TIME 1145 : ALL RWYS DRY , RWYCC 6 , TRL 60 BIRDS OBSERVED AROUND THE AERODROME 31013KT 250V340 CAVOK T24 DP13 QNH1020 TREND NOSIG\n[Departure ATIS] EDDF DEP ATIS H 1250Z DEP-ATIS EDDF H METAR 051250 RWY 25C 18 RWY COND AT TIME 1145 : ALL RWYS DRY , RWYCC 6 , ALL DEPARTING ACFT VIA OBOKA , MARUN AND TOBAK EXPECT SID WITH DESIGNATOR F OR G , TRL 60 BIRDS OBSERVED AROUND THE AERODROME VRB08KT RWY18 34006KT 9999 -SHRA FEW///CB T24 DP14 QNH1021 RESHRA TREND TEMPO SHRA BKN040TCU END OF ATIS H",
    "EDDL": "[Arrival ATIS] EDDL ARR ATIS Z 1820Z ATIS EDDL Z METAR 281820 EXPECT VECTORS ILS APPROACH RWY 23L TRL 60 EXPECT INTENSE BIRD ACTIVITY IN THE VICINITY OF RWY SYSTEM 31005KT CAVOK T29 DP19 QNH1019 TREND NOSIG\n[Departure ATIS] EDDL DEP ATIS R EDDL ARR/DEP DATIS RPT -ATIS EDDL R METAR 020550 -EXPECT VECTORS ILS APPROACH -RWY 23L -TWY L8 CLOSED BETWEEN TWY M AND RWY 23L -TRL 60 - -23010KT -CAVOK - - -T19 DP13 -QNH1020 - -TREND NOSIG",
    "EDDK": "[Arrival ATIS] EDDK ARR ATIS E 1720Z ATIS EDDK E METAR 051720 EXPECT ILS APCH RWY 31R 24 RWY COND RWY 31R AT TIME 1350 RWYCC 6 DEPOSIT TOTAL RWY DRY RWY 24 AT TIME 1350 RWYCC 6 DEPOSIT TOTAL RWY DRY TRL 60 RWY 13R AND RWY 31L CLOSED FOR DEPARTURE AND LANDING: TAXIING BTN THR RWY 13R AND INTERSECTION RWY 24 POSSIBLE : 31016KT 280V340 9999 FEW038 T22 DP13 QNH1021 TREND NOSIG\n[Departure ATIS] EDDK DEP ATIS Q EDDK ARR/DEP DATIS RPT -ATIS EDDK Q METAR 291920 -EXPECT ILS APCH -RWY 31R 06 -RWY COND RWY 31R AT TIME 1830 RWYCC 6 DEPOSIT TOTAL RWY DRY RWY 06 AT TIME 1830 RWYCC 6 DEPOSIT TOTAL RWY DRY -TRL 60 -RWY 13R AND RWY 31L CLOSED FOR DEPARTURE AND LANDING: TAXIING BTN THR RWY 13R AND INTERSECTION RWY 24 POSSIBLE : -04003KT -CAVOK - - -T24 DP13 -QNH1024 - -TREND NOSIG",
    "EBLG": "[Arrival ATIS] EBLG ATIS M 1929Z EBLG INFO, EXP RNAV TO ILS APP ARR RWY22L DEP RWY22L RWY 22L DRY, RWYCC 666. TRL 055 TWY A4 DISPLACED 310/5KT VIS ABV 10KM FEW3200FT T19 DP14 QNH 1023HPA NOSIG CFM ATIS M",
    "LSZH": "[Arrival ATIS] LSZH ARR ATIS L 1720Z ARRIVALS, EXP RNP APCH, RWY 28. TRL 70. DEP RWY 32. WIND 300 DEG, 4 KT, VRB BTN 240 AND 340 DEG. VIS 10 KM OR MORE, TDZ 10 KM OR MORE. CLD FEW 7500 FT. T 25. DP 12. QNH 1021. NOSIG.\n[Departure ATIS] LSZH DEP ATIS R 1720Z DEP RWY 32. TRL 70. ARRIVALS, EXP RNP APCH, RWY 28. TMA S 1 IS ACT. TMA S 2 AND S 3 ARE ACT. WIND 320 DEG, 5 KT, VRB BTN 280 AND 350 DEG. VIS 10 KM OR MORE. CLD FEW 7500 FT. T 25. DP 12. QNH 1021. NOSIG.",
    "LIMC": "[Arrival ATIS] LIMC ARR ATIS M 2020Z LIMC ARR M 2020Z I.L.S. ZULU RWY IN USE 35L TL 70 WIND TDZ 040/3KT CAVOK T25 DP16 QNH 1016HPA QFE 0991HPA\n[Departure ATIS] LIMC DEP ATIS M 2020Z LIMC DEP M 2020Z RWY IN USE 35R TL 70 WIND END 360/3KT CAVOK T25 DP16 QNH 1016HPA QFE 0991HPA DATALINK CLEARANCE AVAILABLE.... CONTACT 1 3 1 8 8 0 TO BE RELEASED BY THE AIRPORT OPERATOR ...",
    "LIRF": "[Arrival ATIS] LIRF ARR ATIS F 2050Z LIRF ARR F 2050Z RWY 16L ILS W RWY 16R ILS Z RWY IN USE 16L 16R TL 70 DEPENDENT PARL ILS APCH INPR RWY IN USE 16R OR 16L ASSIGNED BY ROME RADAR WIND RWY 16L TDZ CALM RWY 16R TDZ VRB2KT VRB BTN 150/AND 210/ CAVOK T24 DP22 QNH 1017HPA\n[Departure ATIS] LIRF DEP ATIS Y 2020Z LIRF DEP Y 2020Z RWY IN USE 25 TL 70 RWYS IN USE FOR ARR 34R AND 34L WIND END 310/7KT CAVOK T25 DP20 QNH 1017HPA REA IS SENT AUTOMATICALLY ONCE RLSD BY RAMP WHEN READY CONTACT FIUME RAMP 121.725",
    "EINN": "[Arrival ATIS] EINN ARR ATIS Z 0230Z EXPECT I L S CATEGORY 1 LDG RWY24 TKOF RWY24 TRL FL065 16009KT 9999 FEW007 BKN070 16/15 QNH Q1003 TREND NOSIG RUNWAY 2 4 SURFACE CONDITION CODE, 5 5 5. ISSUED AT 1 9 2 0. ALL PARTS, WET. 100 PERCENT ADVISE AT FIRST CONTACT YOU HAVE ATIS INFO Z",
    "EGLL": "[Arrival ATIS] EGLL ARR ATIS M 1650Z LANDING RWY 27L RWY27L SURFACE CONDITION CODES: 6/6/6 DRY/DRY/DRY DEPTH: NR/NR/NR COVERAGE: NR/NR/NR TRANSITION-LEVEL: FL 70 RUNWAY 27R REDUCED DECLARED DISTANCES WITH TAKE OFF RUN AVAILABLE 3362METRES AND LANDING DISTANCE AVAILABLE 3362METRES IF STAND GUIDANCE IS OFF OR FAILS, REMAIN ON THE TAXIWAY CENTRELINE AND ADVISE ATC AUTO 29012KT 270V330 9999 NCD 29/14 Q1022 ACKNOWLEDGE RECEIPT OF INFORMATION M\n[Departure ATIS] EGLL DEP ATIS J 2120Z PILOTS SHOULD EXPECT 27L SINGLE RUNWAY OPERATIONS FROM AT 21:55 HOURS DEPARTURE RWY 27R RUNWAY 27R REDUCED DECLARED DISTANCES WITH TAKE OFF RUN AVAILABLE 3362METRES AND LANDING DISTANCE AVAILABLE 3362METRES PILOTS THAT ARE IN RECEIPT OF DATALINK CLEARANCES ARE REMINDED THEY MUST CONTACT DELIVERY ON 121.980 WHEN READY FOR START DET VOR OOS AUTO 26011KT 9999 NCD 24/15 Q1022 ACKNOWLEDGE RECEIPT OF INFORMATION J AND REPORT AIRCRAFT TYPE AND CURRENT QNH ON FIRST CONTACT WITH HEATHROW",
    "EPWA": "[Arrival ATIS] EPWA ARR ATIS B 1713Z EPWA ARR B. TIME 1713. EXP U ARR ILS Z APCH FOR RWY 33. RWY 33 RCC 5, 5, 5. 1ST PART, WET. 2ND PART, WET. 3RD PART, WET. RWY REPORT END. TRANSITION LEVEL 80. WIND 300 DEG, 7 KT, VRB BTN 240 AND 320 DEG. VIS TDZ 10 KM OR MORE. WX FBL SHRA. CLD BKN CB 3000 FT. T 16. DP 14. QNH 1009. RETS. NOSIG. CAUTION. BIRD ACT. END OF EPWA ARR B\n[Departure ATIS] EPWA DEP ATIS T 1535Z EPWA DEP T. TIME 1535. DEP RWY 29. ARR RWY 33, EXP U ARR ILS Z. REPORT READY FOR STARTUP ON DELIVERY 121. 605. RWY 29 RCC 5, 5, 5. 1ST PART, WET. 2ND PART, WET. 3RD PART, WET. RWY REPORT END. TRANSITION LEVEL 80. WIND 230 DEG, 7 KT. VIS MID 10 KM OR MORE. CLD FEW CB 2300 FT. T 18. DP 16. QNH 1009. NOSIG. CAUTION. BIRD ACT. END OF EPWA DEP T",
    "EFHK": "[Arrival ATIS] EFHK ARR ATIS X 2050Z EXPECT ILS APCH ARR RWY 04L RUNWAY 04L CONDITION REPORT AT 1811 UTC RUNWAY CONDITION CODES 5 , 5 , 5 CONTAMINANTS ALL PARTS 100 PERCENT WET TRL 65 WIND 340 DEG 3 KT VIS 10KM FBL RA FEW 300 FT. FEW CB 2000 FT T 15 DP 14 QNH 997 NOSIG ACK INFO X\n[Departure ATIS] EFHK DEP ATIS H 1620Z DEP RWYS 22R AND 22L RUNWAY 22R CONDITION REPORT AT 1329 UTC RUNWAY CONDITION CODES 6 , 6 , 6 CONTAMINANTS ALL PARTS DRY RUNWAY 22L CONDITION REPORT AT 1330 UTC RUNWAY CONDITION CODES 6 , 6 , 6 CONTAMINANTS ALL PARTS DRY WIND 110 DEG 6 KT VIS 10KM FEW 1400 FT. SCT 1600 FT. FEW TCU 2800 FT T 19 DP 15 QNH 1003 TEMPO CLD FEW CB 3000 FT. ACK INFO H",
    "LTAC": "[Arrival ATIS] LTAC ARR ATIS H 1850Z EXP ILS V APCH 03C DEP RWY 03L RWY 03C WIND 050 DEG 06 KT RWY 03L WIND 040 DEG 07 KT VRB BTN 020 DEG AND 080 DEG TRL 110 CAVOK T 19 DP 08 QNH 1021 NOSIG FOR DELIVERY CTC 121.9. FOR DELIVERY FIRST USE DIGITAL DEP CLR. CTN BIRD HAZARD OVR AERODROME. APCH FREQUENCY 129.050. TAXIWAY ECHO 1 IS CLOSED. END OF ATIS H",
    "UBBB": "[Arrival ATIS] UBBB ARR ATIS F 2130Z ATIS F EXP ILS/ LDG 34 35 DEP 34 35 IN USE RWY 34 CLEAR DRY 70 RWY 35 CLEAR DRY 70 TLVL 110 WIND WIND RWY 34 330 4 KT SPD MAX 4 MIN 4 WIND RWY 35 310 4 KT SPD MAX 6 MIN 4 VIS CAVOK T 24 / DP 22 QNH 1007 HPA TREND TREND NOSIG MODERATE BIRDS ACT IN VICINITY OF AP END OF ATIS F\n[Departure ATIS] UBBB DEP ATIS G 0230Z ATIS G EXP ILS/ LDG 16 17 DEP 16 17 IN USE RWY 16 CLEAR DRY 70 RWY 17 CLEAR DRY 70 TLVL 110 WIND WIND RWY 16 100 4 KT SPD MAX 6 MIN 4 WIND RWY 17 150 4 KT SPD MAX 6 MIN 2 VIS CAVOK T 25 / DP 17 QNH 1012 HPA TREND TREND NOSIG OBS BIRDS AT 2000 FT MODERATE BIRDS ACT IN VICINITY OF AP END OF ATIS G",
    "ZWWW": "[Arrival ATIS] ZWWW ARR ATIS L 0230Z EXP ILSDME Z APCH LDG RWY 26R TA 3000 WIND 010/2MPS VRB BTN 310/ AND 040/ CAVOK T 30 /DP 12 QNH 1011 HPA ADZ YOU HAVE INFO L.\n[Departure ATIS] ZWWW DEP ATIS N 0430Z DEP RWY 26L TA 3000 WIND 010/6MPS VIS 9999M CLD FEW 990M T 28 /DP 14 QNH 1013 HPA ADZ YOU HAVE INFO N.",
    "ZLXY": "[Arrival ATIS] ZLXY ARR ATIS R 2000Z EXP ILS APCH LDG RWY 06L RWY 05L IS CLSD WIND 290/1MPS CAVOK T 25 /DP 19 QNH 999 HPA VISUAL APPROACH IN PROGRESS ADZ YOU HAVE INFO R.\n[Departure ATIS] ZLXY DEP ATIS U 0400Z DEP RWY 05L & 06L WIND VRB/1MPS VIS 9999M CLD FEW 450M /SCT 900M /OVC 1800M T 23 /DP 19 QNH 1008 HPA ADZ YOU HAVE INFO U.",
    "ZBAA": "[Arrival ATIS] ZBAA ARR ATIS V 0230Z EXP ILS APCH INDEPENDENT PARL INSTR APCH LDG RWY 36L & 01 WIND VRB DEG 1 MPS VIS 4000 BR CLD FEW 480M T 26 /DP 23 QNH 1003 HPA ADZ YOU HAVE INFO V.\n[Departure ATIS] ZBAA DEP ATIS U 0200Z DEP RWY 36L & 36R & 01 WIND 100 DEG 2 MPS 060V140 DEG VIS 4000 BR CLD FEW 480M T 26 /DP 23 QNH 1003 HPA RWY INDEPENDENT PARALLEL DEP ADZ YOU HAVE INFO U.",
    "ZBHH": "[Arrival ATIS] ZBHH ARR ATIS G 0200Z EXP ILSDME APCH LDG RWY 26 TA 3000 /TRL 3600 WIND 190/1MPS VIS 9999M CLD FEW 1200M T 20 /DP 15 QNH 1008 HPA BEFORE 1300 UTC, TURBULENCE MAY OCCUR IN LOCAL FIELD. ADZ YOU HAVE INFO G.\n[Departure ATIS] ZBHH DEP ATIS K 2300Z DEP RWY 26 TA 3000 /TRL 3600 WIND 060/3MPS VRB BTN 010/ AND 080/ CAVOK T 21 /DP 15 QNH 1010 HPA ADZ YOU HAVE INFO K.",
    "ZSQD": "[Arrival ATIS] ZSQD ARR ATIS P 0200Z EXP ILSDME APCH LDG RWY 17 TA 3000 /TRL 3600 WIND 150/4MPS VIS 9999M -RA CLD BKN 540M T 24 /DP 21 QNH 1006 HPA SEGREGATED OPERATION VISUAL APPROACH OPERATION IN PROGRESS. RUNWAY 17,IF MISSED APPROACH,EXPECT FOLLOW THE STANDARD MISSED APPROACH PROCEDURE,CLIMB TO 900M ON QNH OR BY ATC CAUTION MAYBE THERE IS A FLOCK OF BIRDS IN THE VICINITY OF AIRPORT ADZ YOU HAVE INFO P.\n[Departure ATIS] ZSQD DEP ATIS N 0000Z DEP RWY 16 TA 3000 /TRL 3600 WIND 140/4MPS VIS 9999M CLD BKN 510M T 23 /DP 21 QNH 1006 HPA SEGREGATED OPERATION VISUAL APPROACH OPERATION IN PROGRESS. RUNWAY 17,IF MISSED APPROACH,EXPECT FOLLOW THE STANDARD MISSED APPROACH PROCEDURE,CLIMB TO 900M ON QNH OR BY ATC CAUTION MAYBE THERE IS A FLOCK OF BIRDS IN THE VICINITY OF AIRPORT ADZ YOU HAVE INFO N."
  },
  "windtemp_alaska": "\n000\nFBAK31 KWNO 052001\nFD1AK1\nDATA BASED ON 051800Z    \nVALID 060000Z   FOR USE 2000-0300Z. TEMPS NEG ABV 24000\n\nFT  3000    6000    9000   12000   18000   24000  30000  34000  39000\nADK 1616 2117+08 2220+05 2323+00 2329-10 2340-22 236838 238349 248959\nADQ 0415 0415-03 0617-08 0615-15 0820-28 0830-38 021137 330838 291040\nAKN 3510 0418+00 0427-06 0532-11 0537-24 0539-37 043748 351542 321041\nANC 9900 0912+01 0919-04 0919-10 1019-23 1024-36 112850 112145 101241\nANN 1811 1813+01 1915-02 2118-08 2521-16 2628-26 253641 254451 263858\nBET 3108 9900+01 0305-03 0608-09 0106-22 0710-35 091652 061148 030843\nBRW 2208 2508+06 2712+02 2712-03 2810-15 3406-27 011044 021553 031456\nBTI 2815 2812+05 3012+01 3110-04 0311-16 0315-30 042746 043354 041450\nBTT 9900 9900+06 0708-01 0814-06 0722-18 0727-31 073046 072654 072249\nCDB 9900 3306+02 3211-01 3116-07 2929-20 2968-29 790042 790349 287349\nCZF 3107 9900+03 0606-03 0711-08 0712-22 0818-35 082949 072749 061244\nEHM 0211 0408+02 0613-04 0610-09 0512-22 0712-36 040649 292146 302143\nFAI 9900 0705+05 0806-01 0906-07 1007-21 1016-33 093248 093351 092045\nFYU 9900 9900+04 9900-02 0808-07 0821-18 0821-30 082146 092054 081848\nGAL 0206 0507+05 0606-02 0505-07 1009-21 0832-32 075546 085453 082947\nGKN 1407 1405+03 0905-03 0908-09 0917-22 1028-35 122949 122347 131243\nHOM 0714 0829-01 0829-06 0933-11 0833-23 0939-36 103348 091542 090740\nJNU 1408 1620+00 1617-04 1613-08 2310-18 2420-30 254343 255053 242550\nLUR 2013 1912+07 2012+03 2107-03 1305-16 1111-28 082344 093053 082056\nMCG 0108 0509+03 0611-02 0717-08 0823-22 0827-34 083350 083449 091944\nMDO 1128 1130+00 1029-05 1125-10 1019-23 1424-35 163149 162245 161241\nOME 2105 9900+04 1705-01 9900-06 0813-19 0832-30 083746 073754 082750\nORT      0806+05 0914-02 1015-08 1116-21 1222-33 122848 122451 131045\nOTZ 2609 2105+05 1206+00 1015-05 0920-17 0823-30 082846 083053 082351\nSNP 9900 9900+02 9900-03 9900-09 2714-21 2840-31 278243 277548 274147\nTKA 9900 9900+03 0909-03 1015-09 0926-22 0931-35 103350 102747 101543\nUNK 9900 0910+04 0910-02 0912-07 0813-21 0818-34 086147 086252 082746\nYAK 1412 1316-01 1315-04 1518-10 1814-20 2019-32 223845 224051 201746\nIKO 1314 1508+06 2208+02 2621-01 2743-12 2755-23 277638 277849 268658\nAFM 2805 9900+06 1008+00 0914-05 0822-18 0827-30 073046 073053 072451\n5AB 0914 1109+04 2109+03 2115-03 2025-17 2143-29 228442 227347 224548\n5AC 2025 2230+04 2233+02 2333-02 2431-14 2528-26 243841 244051 253956\n5AD 3019 2717+03 2522-01 2530-06 2541-19 2553-31 256544 256245 264745\n5AE 3123 3226-02 3225-06 3133-11 3051-24 2974-34 308340 296641 295042\n5AF 1523 1622+00 1625-04 1724-06 2029-16 2135-27 224043 224853 243551\n5AG 1327 1326+00 1325-05 1427-09 1524-20 1830-32 195145 204949 212344\n",
  "vaac_tokyo": [
    {
      "id": "20260705_30027000_0235",
      "year": "2026",
      "volcano": "Sheveluch",
      "psn": "N5639 E16122",
      "issued": "20260705",
      "text": "FVFE01 RJTD 052100\nVA ADVISORY\nDTG: 20260705/2100Z\nVAAC: TOKYO\nVOLCANO: SHEVELUCH 300270\nPSN: N5639 E16122\nAREA: RUSSIA\nSOURCE ELEV: 3283M AMSL\nADVISORY NR: 2026/235\nINFO SOURCE: KBGS HIMAWARI-9\nERUPTION DETAILS: VA CONTINUOUSLY OBS IN SATELLITE IMAGERY\nOBS VA DTG: 05/2020Z\nOBS VA CLD: SFC/FL350 N5403 E15731 - N5449 E15858 - N5328 E15902 - \nN5323 E15753 MOV SW 30KT\nFCST VA CLD +6 HR: 06/0220Z SFC/FL350 N5309 E15840 - N5011 E15804 - \nN5111 E15626 - N5232 E15649\nFCST VA CLD +12 HR: 06/0820Z SFC/FL340 N5115 E15900 - N4710 E15857 - \nN4756 E15701 - N5028 E15707\nFCST VA CLD +18 HR: 06/1420Z SFC/FL330 N4447 E16200 - N4446 E15957 - \nN4617 E15834 - N4919 E16012\nRMK: NORTHERN PART OF VA OBSCURED BY MET CLOUD.\nNXT ADVISORY: 20260706/0000Z=",
      "img_url": "https://ds.data.jma.go.jp/svd/vaac/data/VAGFN/2026/Images/20260705_30027000_0235_QH21_01.png",
      "sat_img_url": "https://ds.data.jma.go.jp/svd/vaac/data/Sat/2026/Images/30027000/09-ir/20260705_2020_202607052100_ir.png",
      "text_url": "https://ds.data.jma.go.jp/svd/vaac/data/TextData/2026/20260705_30027000_0235_Text.html"
    },
    {
      "id": "20260705_27303000_0717",
      "year": "2026",
      "volcano": "Mayon",
      "psn": "N1315 E12341",
      "issued": "20260705",
      "text": "FVFE01 RJTD 051936\nVA ADVISORY\nDTG: 20260705/1936Z\nVAAC: TOKYO\nVOLCANO: MAYON 273030\nPSN: N1315 E12341\nAREA: PHILIPPINES\nSOURCE ELEV: 2462M AMSL\nADVISORY NR: 2026/717\nINFO SOURCE: HIMAWARI-9 PHIVOLCS\nERUPTION DETAILS: ERUPTION AT 20260705/1914Z FL090 EXTD WSW REPORTED\nOBS VA DTG: 05/1920Z\nOBS VA CLD: VA NOT IDENTIFIABLE FM SATELLITE DATA WIND FL090 050/8KT\nFCST VA CLD +6 HR: NOT AVBL\nFCST VA CLD +12 HR: NOT AVBL\nFCST VA CLD +18 HR: NOT AVBL\nRMK: WE WILL ISSUE FURTHER ADVISORY IF VA IS DETECTED IN SATELLITE \nIMAGERY.\nNXT ADVISORY: NO FURTHER ADVISORIES=",
      "img_url": "https://ds.data.jma.go.jp/svd/vaac/data/VAGFN/2026/Images/20260705_27303000_0717_QH21_01.png",
      "sat_img_url": null,
      "text_url": "https://ds.data.jma.go.jp/svd/vaac/data/TextData/2026/20260705_27303000_0717_Text.html"
    },
    {
      "id": "20260704_27202000_0228",
      "year": "2026",
      "volcano": "Kanlaon",
      "psn": "N1025 E12308",
      "issued": "20260704",
      "text": "FVFE01 RJTD 040601\nVA ADVISORY\nDTG: 20260704/0601Z\nVAAC: TOKYO\nVOLCANO: KANLAON 272020\nPSN: N1025 E12308\nAREA: PHILIPPINES\nSOURCE ELEV: 2435M AMSL\nADVISORY NR: 2026/228\nINFO SOURCE: HIMAWARI-9 PHIVOLCS\nERUPTION DETAILS: ERUPTION AT 20260704/0539Z FL090 EXTD SW REPORTED\nOBS VA DTG: 04/0540Z\nOBS VA CLD: VA NOT IDENTIFIABLE FM SATELLITE DATA WIND FL090 070/7KT\nFCST VA CLD +6 HR: NOT AVBL\nFCST VA CLD +12 HR: NOT AVBL\nFCST VA CLD +18 HR: NOT AVBL\nRMK: WE WILL ISSUE FURTHER ADVISORY IF VA IS DETECTED IN SATELLITE \nIMAGERY.\nNXT ADVISORY: NO FURTHER ADVISORIES=",
      "img_url": "https://ds.data.jma.go.jp/svd/vaac/data/VAGFN/2026/Images/20260704_27202000_0228_QH21_01.png",
      "sat_img_url": null,
      "text_url": "https://ds.data.jma.go.jp/svd/vaac/data/TextData/2026/20260704_27202000_0228_Text.html"
    },
    {
      "id": "20260701_30006000_0001",
      "year": "2026",
      "volcano": "Mutnovsky",
      "psn": "N5227 E15812",
      "issued": "20260701",
      "text": "FVFE01 RJTD 012206\nVA ADVISORY\nDTG: 20260701/2206Z\nVAAC: TOKYO\nVOLCANO: MUTNOVSKY 300060\nPSN: N5227 E15812\nAREA: RUSSIA\nSOURCE ELEV: 2288M AMSL\nADVISORY NR: 2026/1\nINFO SOURCE: KVERT KBGS UHPP HIMAWARI-9\nERUPTION DETAILS: ERUPTION AT 20260701/2016Z FL170 EXTD W REPORTED\nOBS VA DTG: 01/2140Z\nOBS VA CLD: VA NOT IDENTIFIABLE FM SATELLITE DATA WIND FL170 120/8KT\nFCST VA CLD +6 HR: NOT AVBL\nFCST VA CLD +12 HR: NOT AVBL\nFCST VA CLD +18 HR: NOT AVBL\nRMK: WE WILL ISSUE FURTHER ADVISORY IF VA IS DETECTED IN SATELLITE \nIMAGERY.\nNXT ADVISORY: NO FURTHER ADVISORIES=",
      "img_url": "https://ds.data.jma.go.jp/svd/vaac/data/VAGFN/2026/Images/20260701_30006000_0001_QH21_01.png",
      "sat_img_url": null,
      "text_url": "https://ds.data.jma.go.jp/svd/vaac/data/TextData/2026/20260701_30006000_0001_Text.html"
    }
  ],
  "vaac_alaska": [
    {
      "text": "\n000\nFVAK21 PAWU 051146\nVAAAK1\nVA ADVISORY\n\nDTG: 20260705/1142Z\n\nVAAC: ANCHORAGE\n\nVOLCANO: SHEVELUCH 300270\n\nPSN: N5639 E16122\n\nAREA: KAMCHATKA PENINSULA\n\nSOURCE ELEV: 10771 FT AMSL\n\nADVISORY NR: 2026/177\n\nINFO SOURCE: HIMAWARI\n\nERUPTION DETAILS: VA NOT IDENTIFIABLE FM SATELLITE DATA.\n\nOBS VA DTG: 05/1142Z\n\nOBS VA CLD: VA NOT IDENTIFIABLE\n\nFCST VA CLD +6HR: NOT AVBL\n\nFCST VA CLD +12HR: NOT AVBL\n\nFCST VA CLD +18HR: NOT AVBL\n\nRMK: A NEW ADVISORY WILL BE ISSUED IF VA IS DETECTED IN SATELLITE IMAGERY....TS\n\nNXT ADVISORY: NO FURTHER ADVISORIES=\n\n",
      "issued": "2026-07-05T11:46:00+00:00",
      "volcano": "Sheveluch",
      "psn": "N5639 E16122"
    }
  ]
}