{
  "updated_utc": "2026-07-20T05:01Z",
  "metar": {
    "RJAA": "METAR RJAA 200330Z 12009KT 090V150 9999 FEW040 34/26 Q1007 NOSIG",
    "PANC": "METAR PANC 200353Z 31004KT 10SM FEW007 SCT070 OVC100 12/12 A3002 RMK AO2 SLP167 T01220117",
    "PAFA": "METAR PAFA 200353Z 09006KT 10SM FEW070 SCT110 BKN200 23/08 A2996 RMK AO2 SLP148 T02280078 $",
    "PAED": "METAR PAED 200355Z 00000KT 10SM FEW005 SCT070 BKN120 13/11 A3000 RMK AO2A SLP155 T01280114 $",
    "KSEA": "METAR KSEA 200353Z 35008KT 10SM SCT220 21/09 A3000 RMK AO2 SLP165 T02110094 $",
    "ZSPD": "METAR ZSPD 200330Z 22005MPS 180V250 9999 FEW020 33/26 Q1003 NOSIG",
    "ZSSS": "METAR ZSSS 200330Z 22003MPS 150V290 9999 SCT030 33/25 Q1003 NOSIG",
    "RJFR": "METAR RJFR 200400Z 10008KT 9999 FEW015 BKN080 BKN/// 31/28 Q1008",
    "VHHH": "SPECI VHHH 200313Z 21010KT 4100 1800N +TSRA FEW005 FEW010CB SCT025 26/24 Q1006 TEMPO 24015G25KT 2500 TSRA SHRA FEW008CB SCT015",
    "RCTP": "SPECI RCTP 200319Z 23018KT 190V250 9999 FEW020 32/24 Q1007 NOSIG RMK A2975",
    "ZGSZ": "METAR ZGSZ 200400Z 15006MPS 9999 FEW013 BKN050 28/25 Q1006 NOSIG",
    "WSSS": "METAR WSSS 200330Z 13007KT 080V160 9999 FEW018 FEW020TCU BKN300 31/25 Q1012 NOSIG",
    "WMKK": "METAR WMKK 200330Z VRB01KT 6000 -TSRA FEW010 FEW017CB SCT030 26/25 Q1012 RETSRA NOSIG",
    "WIDD": "METAR WIDD 200330Z 12011KT 9999 SCT014 32/25 Q1012 NOSIG",
    "VTBS": "METAR VTBS 200330Z 27004KT 200V320 9999 FEW020 32/20 Q1010 NOSIG",
    "VTBU": "METAR VTBU 200330Z 24008KT 210V270 9999 FEW020 32/26 Q1010 NOSIG",
    "ROAH": "METAR ROAH 200330Z 21009KT 9999 FEW011 31/28 Q1008",
    "VVDN": "METAR VVDN 200330Z 26004KT 160V310 CAVOK 36/20 Q1005 NOSIG",
    "RCKH": "SPECI RCKH 200318Z VRB01KT 9999 VCSH FEW014 SCT100 BKN180 30/26 Q1008 NOSIG RMK A2979",
    "KLAX": "METAR KLAX 200353Z 23008KT 10SM SCT007 21/18 A2989 RMK AO2 SLP119 T02060183 $",
    "KONT": "METAR KONT 200353Z 25009KT 10SM CLR 27/16 A2990 RMK AO2 SLP106 T02670156 $",
    "KSFO": "METAR KSFO 200356Z 29014KT 10SM FEW003 BKN180 BKN200 15/13 A2992 RMK AO2 SLP131 T01500128 $",
    "KOAK": "METAR KOAK 200353Z 27010KT 10SM FEW003 FEW045 BKN140 BKN250 15/13 A2993 RMK AO2 SLP136 T01500133 $",
    "KMHR": "METAR KMHR 200315Z AUTO 23009KT 10SM CLR 29/02 A2981 RMK AO2 T02860020 $",
    "KDFW": "METAR KDFW 200353Z 34007KT 10SM FEW065 FEW250 31/22 A2993 RMK AO2 SLP123 T03060222 $",
    "KIAH": "METAR KIAH 200353Z 18006KT 10SM CLR 30/26 A2996 RMK AO2 SLP145 T03000256 $",
    "KORD": "METAR KORD 200351Z 10004KT 6SM HZ CLR 21/16 A3000 RMK AO2 SLP155 T02110156 $",
    "KJFK": "METAR KJFK 200351Z 34007KT 10SM FEW250 22/10 A2996 RMK AO2 SLP143 T02220100 $",
    "KRFD": "METAR KRFD 200354Z 11003KT 6SM FU CLR 20/14 A3001 RMK AO2 SLP158 T02000144 $",
    "KIND": "METAR KIND 200354Z 07010KT 8SM FEW045 24/17 A2997 RMK AO2 SLP143 T02390167 $",
    "KDTW": "METAR KDTW 200353Z 07005KT 7SM CLR 20/14 A3002 RMK AO2 SLP161 T02000144 $",
    "KMSP": "METAR KMSP 200353Z 17011KT 6SM FU BKN100 BKN210 26/18 A2989 RMK AO2 SLP114 T02610183",
    "CYEG": "METAR CYEG 200400Z CCA 28008KT 15SM BKN036 BKN078 OVC130 16/14 A2998 RMK SC7AC1AC1 LWR AC TR SLP160 DENSITY ALT 3100FT",
    "EHAM": "METAR EHAM 200325Z 33006KT 300V010 9999 FEW045 15/08 Q1023 NOSIG",
    "EBBR": "METAR EBBR 200320Z 31006KT 9999 SCT035 BKN048 15/10 Q1023 NOSIG",
    "EDDF": "METAR EDDF 200320Z AUTO 31006KT CAVOK 13/07 Q1022 NOSIG",
    "EDFH": "METAR EDFH 200320Z 29003KT CAVOK 08/05 Q1022",
    "EDDL": "METAR EDDL 200320Z AUTO 26005KT 240V300 CAVOK 15/09 Q1022 NOSIG",
    "EDDK": "METAR EDDK 200320Z AUTO VRB01KT CAVOK 10/07 Q1022 NOSIG",
    "EBLG": "METAR EBLG 200320Z 31003KT 270V330 9999 BKN048 11/08 Q1023 NOSIG",
    "LSZH": "METAR LSZH 200320Z AUTO 31004KT CAVOK 12/09 Q1020 NOSIG",
    "LIMC": "METAR LIMC 200320Z 04005KT CAVOK 24/20 Q1014 NOSIG",
    "LIRF": "METAR LIRF 200320Z 15004KT 120V250 CAVOK 25/23 Q1012 NOSIG",
    "EINN": "METAR EINN 200330Z 35006KT CAVOK 12/10 Q1029 NOSIG",
    "EGLL": "METAR EGLL 200320Z AUTO 01003KT 340V040 9999 NCD 13/08 Q1027",
    "EGSS": "METAR EGSS 200320Z AUTO 32003KT 9999 NCD 09/07 Q1027",
    "EPWA": "METAR EPWA 200330Z 25006KT 9999 BKN005 13/13 Q1014 TEMPO BKN004",
    "UHPP": "METAR UHPP 200330Z 34004MPS CAVOK 27/14 Q1011 R34L/CLRD62 NOSIG RMK QFE754/1006",
    "EFHK": "METAR EFHK 200320Z 03006KT CAVOK 14/10 Q1015 NOSIG",
    "LBBG": "METAR LBBG 200330Z AUTO 00000KT 9999 NCD 21/18 Q1014 NOSIG",
    "LTAC": "METAR LTAC 200320Z VRB01KT CAVOK 18/09 Q1017 NOSIG RMK RWY21C VRB01KT RWY03L 10003KT 050V120 RWY21R VRB02KT RWY03R 00000KT RWY21L 09003KT",
    "UBBB": "METAR UBBB 200330Z 35020KT 9999 FEW016 26/20 Q1012 NOSIG",
    "UTAA": "METAR UTAA 200400Z 29018KT 9999 FEW100 33/18 Q1008 R88/CLRD70 NOSIG",
    "UACC": "METAR UACC 200330Z 29005MPS 250V320 CAVOK 25/13 Q1001 NOSIG RMK QFE720/0960",
    "UAAA": "METAR UAAA 200330Z VRB01MPS 9999 NSC 35/10 Q1005 NOSIG",
    "UZTT": "METAR UZTT 200330Z 17008KT 130V200 CAVOK 31/16 Q1002 NOSIG",
    "ZWWW": "METAR ZWWW 200330Z 17003MPS 130V230 CAVOK 37/09 Q1004 NOSIG",
    "ZLXY": "METAR ZLXY 200400Z 26001MPS CAVOK 33/20 Q1004 NOSIG",
    "ZBAA": "METAR ZBAA 200330Z VRB01MPS 9999 -SHRA NSC 27/22 Q1004 NOSIG",
    "ZBHH": "METAR ZBHH 200400Z 19003MPS 120V230 9999 SCT030 24/16 Q1006 NOSIG",
    "ZSQD": "METAR ZSQD 200400Z 15004MPS 130V220 9999 BKN030 29/22 Q1005 NOSIG",
    "ZMCK": "METAR ZMCK 200330Z 32005MPS 290V360 9999 FEW030CB SCT033 21/09 Q1007 NOSIG RMK QFE640.8 45 MOP",
    "UUEE": "METAR UUEE 200330Z 18002MPS CAVOK 19/14 Q1014 R24L/CLRD62 R24C/CLRD62 NOSIG",
    "UUDD": "METAR UUDD 200330Z 14001MPS 9999 FEW040 17/14 Q1015 NOSIG",
    "ULLI": "METAR ULLI 200330Z 03002MPS 360V070 9999 SCT021 15/11 Q1014 R10R/090065 NOSIG",
    "USSS": "METAR USSS 200330Z 36004MPS 9999 VCTS SCT011 BKN042CB 20/20 Q1007 R08R/210060 TEMPO -TSRA RMK QFE735/0980",
    "UNNT": "METAR UNNT 200330Z 08005MPS CAVOK 26/17 Q1004 R07/CLRD// R16/CLRD// NOSIG RMK QFE743/0991",
    "UNKL": "METAR UNKL 200330Z 29003MPS 260V040 CAVOK 21/14 Q1005 R29/CLRD// NOSIG RMK QFE728",
    "UIBB": "METAR UIBB 200330Z 28002MPS 230V330 9999 -SHRA FEW007 BKN020CB 17/15 Q1004 R12/290151 NOSIG RMK QBB210 MT OBSC QFE710/0947",
    "UEEE": "METAR UEEE 200330Z 28004MPS 9999 SCT030CB 22/18 Q1004 R23/09//62 NOSIG RMK QFE744",
    "UHHH": "METAR UHHH 200330Z 26005MPS 230V290 9999 SCT037 29/19 Q1005 R88/090060 NOSIG RMK QFE747/0997",
    "UHSS": "METAR UHSS 200330Z 19005MPS 9999 SCT026 26/22 Q1004 R19/CLRD70 NOSIG RMK MT OBSC QFE751/1002"
  },
  "taf": {
    "RJAA": "TAF RJAA 192305Z 2000/2106 14008KT 9999 FEW030 BECMG 2021/2100 01004KT BECMG 2103/2106 12010KT",
    "PANC": "TAF PANC 200201Z 2002/2106 35004KT P6SM VCSH SCT006 SCT050 OVC070 WS020/12030KT TEMPO 2002/2004 BKN006 FM200600 15010G20KT P6SM SCT040 OVC060 FM201100 16008KT P6SM -RA SCT015 OVC035 FM201400 VRB04KT 5SM -RA BR BKN015 OVC025 FM202100 24006KT 6SM -RA OVC015",
    "PAFA": "TAF PAFA 192338Z 2000/2106 06005KT P6SM SCT060 BKN150 FM201900 18005KT P6SM SCT060 BKN150",
    "PAED": "TAF PAED 192105Z 1921/2103 36006KT 9999 -RA FEW035 BKN040 OVC080 QNH3004INS BECMG 2001/2002 34003KT 9999 VCSH FEW040 BKN050 OVC080 QNH3001INS BECMG 2010/2011 33003KT 8000 RA SCT010 BKN025 BKN040 OVC050 640803 QNH2999INS BECMG 2018/2019 01003KT 5000 -RA BR SCT010 BKN015 OVC025 QNH2998INS BECMG 2022/2023 34003KT 8000 -SHRA BKN010 OVC015 QNH3000INS TX14/2004Z TN11/2009Z",
    "KSEA": "TAF KSEA 200259Z 2003/2106 35011KT P6SM SKC FM200400 01008KT P6SM SKC FM201000 01006KT P6SM BKN250 FM201900 34007KT P6SM BKN250",
    "ZSPD": "TAF ZSPD 200303Z 2006/2112 20004MPS 6000 SCT030 TX34/2006Z TX33/2106Z TN25/2021Z TEMPO 2006/2010 33008G13MPS 2500 +TSRA BKN015 SCT030CB TEMPO 2010/2014 TSRA BKN015 FEW030CB TEMPO 2105/2109 TSRA BKN015 FEW030CB",
    "ZSSS": "TAF ZSSS 200304Z 2006/2112 20004MPS 6000 SCT030 TX34/2006Z TX33/2106Z TN26/2021Z TEMPO 2006/2010 33008G15MPS 2800 +TSRA BKN015 SCT030CB TEMPO 2010/2013 TSRA BKN015 FEW030CB TEMPO 2104/2108 TSRA BKN015 FEW030CB",
    "RJFR": "TAF RJFR 192305Z 2000/2106 10006KT 8000 -SHRA FEW015 BKN030 TEMPO 2003/2009 4000 -TSRA BR FEW015 FEW025CB BKN030 BECMG 2008/2010 32004KT",
    "VHHH": "TAF VHHH 200500Z 2006/2112 20010KT 9999 FEW010 SCT025 TX30/2006Z TX31/2106Z TN27/2022Z TEMPO 2006/2009 10010KT TEMPO 2021/2024 3500 SHRA FEW010CB SCT020 TEMPO 2100/2106 24015G25KT 2500 TSRA SHRA FEW008CB SCT015 TEMPO 2106/2109 3500 SHRA FEW010CB SCT020",
    "RCTP": "TAF RCTP 200500Z 2006/2112 24015KT 9999 FEW015 BKN032 TEMPO 2008/2012 28010KT FEW012 FEW015TCU BKN022 BKN050 BECMG 2012/2014 21005KT BECMG 2100/2102 24015KT TEMPO 2108/2112 28010KT FEW012 FEW015TCU BKN022 BKN050",
    "ZGSZ": "TAF ZGSZ 200305Z 2006/2112 18004MPS 8000 BKN040 TX30/2006Z TX30/2106Z TN26/2022Z TEMPO 2006/2008 TSRA FEW020CB BKN033 TEMPO 2021/2024 TSRA FEW020CB BKN033 TEMPO 2104/2108 TSRA FEW020CB BKN033",
    "WSSS": "TAF WSSS 192300Z 2000/2106 21008KT 9999 FEW015 SCT020",
    "WMKK": "TAF AMD WMKK 200114Z 2001/2106 VRB03KT 9999 FEW018 TEMPO 2002/2005 5000 TSRA FEW017CB SCT020",
    "VTBS": "TAF VTBS 192300Z 2000/2106 28005KT 9999 FEW020 BECMG 2004/2006 22008KT",
    "VTBU": "TAF VTBU 192300Z 2000/2024 36004KT 9999 FEW020 BECMG 2001/2003 23008KT",
    "ROAH": "TAF ROAH 192305Z 2000/2106 25010KT 9999 FEW008 SCT015 TEMPO 2015/2021 FEW005 BKN008 BECMG 2100/2103 29006KT TEMPO 2103/2106 4000 SHRA BR FEW005 BKN008 FEW015CB",
    "VVDN": "TAF VVDN 192300Z 2000/2024 24004KT 9999 FEW017 BECMG 2005/2006 01010KT BECMG 2012/2013 22007KT",
    "RCKH": "TAF RCKH 200500Z 2006/2112 24010KT 9999 FEW012 BKN032 TEMPO 2006/2010 30010KT 4000 SHRA SCT008 FEW015CB BKN016 BKN040 BECMG 2010/2012 17005KT TEMPO 2021/2101 09005KT 5000 SHRA FEW010 FEW015TCU BKN020 BKN050 BECMG 2101/2103 23010KT TEMPO 2107/2111 29010KT 4000 SHRA SCT008 FEW015CB BKN016 BKN040",
    "KLAX": "TAF KLAX 200336Z 2004/2106 25005KT P6SM SCT007 FM200600 VRB03KT P6SM OVC007 FM201500 VRB03KT P6SM OVC012 FM201600 26006KT P6SM SCT020 FM201800 26012KT P6SM SCT200",
    "KONT": "TAF KONT 200404Z 2004/2106 25009KT P6SM SKC FM200630 VRB05KT P6SM SKC FM202000 25011G20KT P6SM FEW120 FM210530 VRB05KT P6SM SKC",
    "KSFO": "TAF KSFO 200302Z 2003/2106 30015KT P6SM FEW003 BKN150 FM200600 29008KT P6SM SCT007 BKN010 TEMPO 2011/2015 BKN007 FM201700 29008KT P6SM SCT015 SCT150 FM202000 30015KT P6SM SKC",
    "KOAK": "TAF KOAK 200136Z 2002/2106 27015KT P6SM FEW007 BKN150 FM200400 27006KT P6SM OVC007 FM201700 28006KT P6SM SCT007 BKN015 FM201800 28006KT P6SM FEW015 SCT150 FM202000 30015KT P6SM SKC",
    "KMHR": "TAF KMHR 192320Z 2000/2024 21011KT P6SM BKN150 FM200600 17009KT P6SM BKN150 FM201500 VRB05KT P6SM FEW250",
    "KDFW": "TAF KDFW 200245Z 2003/2106 19009KT P6SM FEW060",
    "KIAH": "TAF KIAH 200246Z 2003/2106 23007KT P6SM FEW035 FEW250 FM200600 21005KT P6SM FEW020 SCT250 FM201400 25007KT P6SM FEW035 FEW250 FM210000 21006KT P6SM FEW050 FEW250",
    "KORD": "TAF KORD 200300Z 2003/2106 11006KT 6SM FU FEW040 FM200900 19005KT P6SM FEW250 FM201500 23010KT P6SM FEW050 SCT150 FM202100 21014G23KT P6SM FEW050 SCT120 PROB30 2102/2106 34020G30KT 2SM TSRA BR SCT015 OVC040CB",
    "KJFK": "TAF KJFK 200232Z 2003/2106 33007KT P6SM FEW250 FM200900 VRB05KT P6SM SKC FM201300 04006KT P6SM SKC FM201800 16008KT P6SM SCT250",
    "KRFD": "TAF KRFD 200300Z 2003/2024 VRB04KT 6SM FU FEW045 FM200900 18004KT P6SM FEW250 FM201500 22011KT P6SM FEW050 BKN150 FM202100 21014G23KT P6SM FEW050 SCT120",
    "KIND": "TAF KIND 200226Z 2002/2106 06005KT 5SM HZ FEW250 FM201300 13006KT 6SM HZ FEW050 SCT250 FM201900 22008KT 6SM HZ SCT050 BKN250",
    "KDTW": "TAF KDTW 200305Z 2003/2106 16003KT P6SM SKC FM201500 20010KT P6SM SCT050 SCT250 FM210100 19007KT P6SM SCT100 BKN200",
    "KMSP": "TAF KMSP 200245Z 2003/2106 19010KT 6SM FU FEW120 SCT250 FM200800 19011KT P6SM -SHRA BKN100 TEMPO 2009/2011 VRB15G30KT 2SM TSRA BKN050CB FM201200 22012G20KT P6SM BKN200 FM201900 27015G25KT P6SM FEW200",
    "CYEG": "TAF CYEG 200240Z 2003/2024 30015G25KT P6SM BKN025 BKN040 TEMPO 2003/2006 BKN020 OVC040 BECMG 2004/2006 30008KT FM200600 30008KT P6SM SCT012 BKN030 TEMPO 2006/2016 5SM -SHRA VCTS BR BKN012CB OVC030 FM201600 35008KT P6SM BKN050 TEMPO 2016/2024 3SM FU BKN030 RMK NXT FCST BY 200600Z",
    "EHAM": "TAF EHAM 192316Z 2000/2106 33007KT 9999 BKN040 BECMG 2009/2012 34012KT BECMG 2019/2022 36006KT",
    "EBBR": "TAF EBBR 192309Z 2000/2106 33007KT 9999 SCT040",
    "EDDF": "TAF EDDF 192300Z 2000/2106 33005KT CAVOK BECMG 2019/2021 03005KT",
    "EDFH": "TAF EDFH 192300Z 2000/2024 35005KT CAVOK",
    "EDDL": "TAF EDDL 192300Z 2000/2106 29003KT 9999 SCT025 BKN045 BECMG 2008/2011 33009KT BECMG 2019/2022 36004KT",
    "EDDK": "TAF EDDK 192300Z 2000/2106 34003KT CAVOK BECMG 2008/2011 33008KT BECMG 2019/2022 VRB03KT",
    "EBLG": "TAF EBLG 192309Z 2000/2106 33007KT 9999 SCT040",
    "LSZH": "TAF LSZH 200225Z 2003/2109 34004KT CAVOK TX26/2015Z TN12/2004Z TN12/2104Z BECMG 2006/2009 06006KT 9999 FEW050 PROB30 TEMPO 2015/2018 31008KT BECMG 2017/2019 CAVOK BECMG 2022/2024 VRB02KT BECMG 2106/2109 05006KT",
    "LIMC": "TAF LIMC 192300Z 2000/2106 VRB05KT 9999 FEW050 PROB40 TEMPO 2001/2008 4000 TSRA BECMG 2008/2010 11010KT BECMG 2015/2017 VRB05KT",
    "LIRF": "TAF LIRF 192300Z 2000/2106 VRB04KT CAVOK TEMPO 2001/2005 3000 BR BECMG 2010/2012 24012KT BECMG 2017/2019 VRB05KT",
    "EINN": "TAF EINN 192300Z 2000/2024 36009KT 9999 FEW050",
    "EGLL": "TAF EGLL 192254Z 2000/2106 02006KT CAVOK BECMG 2018/2021 10010KT TEMPO 2100/2106 BKN025 BECMG 2101/2104 01005KT",
    "EGSS": "TAF EGSS 192254Z 2000/2106 VRB05KT 9999 FEW040 PROB30 2003/2007 8000 BECMG 2015/2018 06010KT BECMG 2020/2023 VRB05KT",
    "EPWA": "TAF EPWA 200230Z 2003/2103 26008KT 9999 BKN044 TEMPO 2003/2007 BKN006 BKN012 TEMPO 2009/2020 -SHRA BKN030CB PROB30 TEMPO 2012/2018 VRB20G30KT 2500 TSRA BKN014 BKN030CB TEMPO 2100/2103 4000 SHRA BKN007 BKN015CB",
    "UHPP": "TAF UHPP 200135Z 2003/2109 36003G10MPS 9999 SCT040CB TX28/2004Z TN14/2017Z TEMPO 2003/2009 20005G12MPS FM201500 18005G12MPS 4000 -SHRA BR BKN014 OVC020CB TEMPO 2015/2023 1000 -SHRA BR VV003",
    "EFHK": "TAF EFHK 200226Z 2003/2103 02008KT CAVOK PROB40 TEMPO 2013/2017 05015G25KT",
    "LBBG": "TAF LBBG 192300Z 2000/2024 VRB03KT 9999 SCT045 BECMG 2008/2010 13015KT PROB40 TEMPO 2012/2016 VRB17G27KT 4000 TSRA SCT030CB BKN040 BECMG 2019/2021 VRB03KT",
    "LTAC": "TAF LTAC 200440Z 2006/2106 VRB02KT CAVOK BECMG 2006/2009 SCT040 BECMG 2015/2017 CAVOK",
    "UBBB": "TAF UBBB 200458Z 2006/2106 35018G28KT 9999 SCT020 TX29/2010Z TN24/2101Z TEMPO 2006/2009 34024G34KT FEW050CB BECMG 2018/2020 36016KT PROB40 TEMPO 2019/2024 -TSRA SCT018 SCT050CB TEMPO 2100/2106 03016KT",
    "UTAA": "TAF UTAA 192245Z 2000/2024 02016KT 6000 SCT050CB SCT050 TEMPO 2000/2008 32018G28KT 2000 BLDU TEMPO 2010/2017 34022G32KT 0700 DS VV007 PROB30 TEMPO 2011/2018 VRB34KT TS",
    "UACC": "TAF UACC 192307Z 2000/2024 28006MPS 9999 SCT040 BKN100 TX29/2009Z TN18/2000Z TEMPO 2004/2016 24007G12MPS BKN030CB PROB40 TEMPO 2006/2016 TS BKN030CB BECMG 2016/2018 VRB01MPS TEMPO 2018/2024 24006MPS -TSRA SCT030CB",
    "UAAA": "TAF UAAA 192301Z 2000/2024 24003G08MPS 9999 FEW050CB SCT100 TX41/2010Z TN23/2000Z TEMPO 2000/2006 32005MPS BECMG 2006/2007 32005MPS TEMPO 2006/2015 04003G08MPS BECMG 2015/2016 25005MPS SCT050CB BKN100 TEMPO 2015/2024 18003MPS",
    "UZTT": "TAF COR UZTT 192300Z 2000/2024 21010KT 7000 NSC TX43/2011Z TN26/2000Z TEMPO 2006/2016 31014G24KT",
    "ZWWW": "TAF ZWWW 200301Z 2006/2112 36004MPS CAVOK TX41/2009Z TX42/2109Z TN30/2023Z BECMG 2013/2014 18004MPS BECMG 2102/2103 36004MPS",
    "ZLXY": "TAF ZLXY 200302Z 2006/2106 06004MPS 6000 NSC TX38/2008Z TN24/2022Z",
    "ZBAA": "TAF ZBAA 200301Z 2006/2112 16004MPS 6000 NSC TX30/2006Z TX31/2106Z TN21/2021Z TEMPO 2010/2014 TSRA FEW040CB BKN040",
    "ZBHH": "TAF ZBHH 200313Z 2006/2106 24004G09MPS 9999 -TSRA SCT040 FEW040CB TX30/2008Z TN16/2022Z TEMPO 2006/2008 +TSRA BECMG 2008/2009 NSW SCT040",
    "ZSQD": "TAF ZSQD 200301Z 2006/2106 12004MPS 5000 BR NSC TX31/2106Z TN21/2020Z",
    "ZMCK": "TAF ZMCK 200445Z 2006/2112 31005MPS 9999 FEW030CB SCT033 TX25/2007Z TN10/2021Z TEMPO 2006/2013 VRB08G13MPS TSRA SCT027CB SCT030 BECMG 2010/2012 VRB02MPS PROB40 TEMPO 2103/2112 VRB08G13MPS TSRA SCT027CB SCT030",
    "UUEE": "TAF UUEE 200150Z 2003/2103 22003MPS 9999 SCT040 TX27/2012Z TN16/2101Z",
    "UUDD": "TAF UUDD 200157Z 2003/2109 18003MPS 9999 SCT040 TX28/2012Z TN14/2003Z PROB40 TEMPO 2021/2109 -TSRA BKN016CB",
    "ULLI": "TAF ULLI 200153Z 2003/2103 36003MPS 6000 BKN016 BECMG 2006/2008 04005G10MPS",
    "USSS": "TAF USSS 200155Z 2003/2103 01003G13MPS 9999 -SHRA BKN016CB TEMPO 2003/2018 VRB21MPS -TSRAGR SQ BECMG 2018/2020 SCT040CB",
    "UNNT": "TAF UNNT 200200Z 2003/2103 04003G08MPS CAVOK TX28/2009Z TN16/2022Z TEMPO 2006/2015 09008G14MPS -TSRA BKN020CB",
    "UNKL": "TAF UNKL 200154Z 2003/2103 33003G08MPS 8000 SCT040 TEMPO 2003/2015 02005G12MPS -TSRA BKN016CB BECMG 2100/2102 -TSRA BKN016CB",
    "UIBB": "TAF AMD UIBB 200440Z 2004/2103 28003G08MPS 9999 BKN004 BKN016CB TEMPO 2004/2015 VRB10MPS 2900 -TSRA VV001 BECMG 2023/2024 FEW004 BKN016CB",
    "UEEE": "TAF UEEE 200200Z 2003/2109 33003G08MPS 9999 SCT020CB OVC070 TEMPO 2003/2015 VRB15MPS 2100 -TSRA SCT007 BKN020CB OVC070",
    "UHHH": "TAF AMD UHHH 200426Z 2004/2109 28008G13MPS 9999 SCT030CB TX30/2005Z TN19/2019Z TEMPO 2004/2009 25003MPS BECMG 2009/2011 25003MPS TEMPO 2015/2018 5000 BR",
    "UHSS": "TAF UHSS 200145Z 2003/2109 36003MPS 9999 BKN025 FM201200 32005MPS 6000 BKN004 BKN016CB TEMPO 2014/2023 -TSRA FM210000 31003MPS 9999 BKN030CB"
  },
  "atis": {},
  "windtemp_alaska": "\n000\nFBAK31 KWNO 200159\nFD1AK1\nDATA BASED ON 200000Z    \nVALID 200600Z   FOR USE 0200-0900Z. TEMPS NEG ABV 24000\n\nFT  3000    6000    9000   12000   18000   24000  30000  34000  39000\nADK 2910 3116+09 3118+05 3222+00 3125-13 3234-24 324539 324349 325251\nADQ 2210 1817+02 1825-02 1832-06 1760-17 1681-27 179542 680052 175647\nAKN 1619 1515-02 1517-07 1625-10 1640-22 1661-34 167243 175842 173441\nANC 1329 1550+07 1648+02 1745-03 1848-15 1857-26 186142 186452 185357\nANN 0109 3509+13 3509+08 3509+02 3207-12 3307-24 990039 990048 201058\nBET 1509 1411-01 1509-06 1409-12 1411-24 1518-35 152445 162040 151438\nBRW 2305 2208+03 2208-02 1906-07 1712-20 1615-32 151047 151544 151443\nBTI 1308 1906+06 2311-01 2215-07 2443-15 2465-27 246443 236352 223551\nBTT 1416 1319+04 1518-01 1723-05 2048-16 2065-28 208243 208552 204650\nCDB 2921 2920-02 2921-07 2925-12 3028-23 3131-36 313944 312940 302040\nCZF 1408 1108+00 1009-06 0807-12 9900-24 0905-36 990044 990040 990038\nEHM 0905 9900-02 0705-07 0905-13 0508-25 0606-36 140643 990039 990039\nFAI 1318 1823+09 2037+03 1935-03 1839-15 1943-27 205442 205853 183055\nFYU 1415 1917+09 2225+03 2333-02 2134-15 2034-27 224242 214452 213356\nGAL 1315 1210+03 1513-04 1518-09 1731-20 1766-30 179645 188548 163843\nGKN 1528 1732+08 1725+03 1721-03 1930-15 2026-26 182541 192352 192958\nHOM 1416 1718+03 1636-01 1548-04 1565-15 1680-26 178443 188853 186552\nJNU 9900 0306+11 9900+07 9900+01 9900-13 2206-25 230640 210950 221057\nLUR 1015 1020+02 1020-03 1218-09 1118-22 1027-34 092947 102342 121841\nMCG 1611 1716+02 1518-03 1627-08 1754-19 1674-30 671143 680651 173644\nMDO 1632 1631+06 1629+03 1726-02 1830-14 1828-26 182541 192652 183558\nOME 1214 1316+00 1215-05 1221-12 1321-22 1426-35 152846 141942 131338\nORT      1410+11 1511+04 1614-01 1918-15 2023-26 211942 221452 212355\nOTZ 1121 1124+02 1223-04 1224-09 1324-23 1526-34 173847 152943 131940\nSNP 2207 2708+00 3013-02 3118-07 3231-19 3254-30 339843 328049 324044\nTKA 1510 1645+06 1749+00 1747-04 1851-15 1858-26 186542 186852 185557\nUNK 1420 1423+01 1418-05 1422-11 1529-22 1639-33 165046 164044 152740\nYAK 2907 2710+06 2106+05 2008+01 2013-14 2015-25 192441 193050 193057\nIKO 2515 2315+01 2617-01 2920-06 3146-16 3155-26 325942 316949 316049\nAFM 1217 1218+03 1015-03 1114-09 1524-20 1841-31 197646 185747 172642\n5AB 3117 3118+12 3119+08 3023+02 3029-11 3034-21 314336 296245 308255\n5AC 3421 3418+09 3419+08 3320+02 3108-13 2607-24 221140 231449 221258\n5AD 1935 1930+07 2025+04 2027-01 1930-14 1926-25 202141 212551 202958\n5AE 2321 2217-02 2218-05 2121-10 1932-22 1849-34 187043 185742 193742\n5AF 3309 2909+08 2909+07 2810+01 2306-13 1909-25 191541 191650 191757\n5AG 1918 1918+06 1815+03 1918-01 1919-14 1822-26 182943 183652 183354\n",
  "vaac_active": [
    {
      "volcano": "MAYON",
      "volcano_jp": "マヨン",
      "advisory_nr": "2026/769",
      "obs_time": "2026-07-19 21:48Z",
      "issued_time": "2026-07-19 22:13Z",
      "text_url": "https://www.data.jma.go.jp/vaac/data/TextData/2026/20260719_27303000_0769_Text.html",
      "lat": 13.25,
      "lon": 123.683,
      "text": "FVFE01 RJTD 192213\nVA ADVISORY\nDTG: 20260719/2213Z\nVAAC: TOKYO\nVOLCANO: MAYON 273030\nPSN: N1315 E12341\nAREA: PHILIPPINES\nSOURCE ELEV: 2462M AMSL\nADVISORY NR: 2026/769\nINFO SOURCE: HIMAWARI-9 PHIVOLCS\nERUPTION DETAILS: ERUPTION AT 20260719/2148Z FL080 EXTD W REPORTED\nOBS VA DTG: 19/2200Z\nOBS VA CLD: VA NOT IDENTIFIABLE FM SATELLITE DATA WIND FL080 010/2KT\nFCST VA CLD +6 HR: NOT AVBL\nFCST VA CLD +12 HR: NOT AVBL\nFCST VA CLD +18 HR: NOT AVBL\nRMK: WE WILL ISSUE FURTHER ADVISORY IF VA IS DETECTED IN SATELLITE \nIMAGERY.\nNXT ADVISORY: NO FURTHER ADVISORIES="
    }
  ],
  "vaac_tokyo": [
    {
      "id": "20260719_27303000_0769",
      "year": "2026",
      "volcano": "Mayon",
      "psn": "N1315 E12341",
      "issued": "20260719",
      "text": "FVFE01 RJTD 192213\nVA ADVISORY\nDTG: 20260719/2213Z\nVAAC: TOKYO\nVOLCANO: MAYON 273030\nPSN: N1315 E12341\nAREA: PHILIPPINES\nSOURCE ELEV: 2462M AMSL\nADVISORY NR: 2026/769\nINFO SOURCE: HIMAWARI-9 PHIVOLCS\nERUPTION DETAILS: ERUPTION AT 20260719/2148Z FL080 EXTD W REPORTED\nOBS VA DTG: 19/2200Z\nOBS VA CLD: VA NOT IDENTIFIABLE FM SATELLITE DATA WIND FL080 010/2KT\nFCST VA CLD +6 HR: NOT AVBL\nFCST VA CLD +12 HR: NOT AVBL\nFCST VA CLD +18 HR: NOT AVBL\nRMK: WE WILL ISSUE FURTHER ADVISORY IF VA IS DETECTED IN SATELLITE \nIMAGERY.\nNXT ADVISORY: NO FURTHER ADVISORIES=",
      "img_url": "https://ds.data.jma.go.jp/svd/vaac/data/VAGFN/2026/Images/20260719_27303000_0769_QH21_01.png",
      "sat_img_url": null,
      "text_url": "https://ds.data.jma.go.jp/svd/vaac/data/TextData/2026/20260719_27303000_0769_Text.html"
    },
    {
      "id": "20260718_30027000_0268",
      "year": "2026",
      "volcano": "Sheveluch",
      "psn": "N5639 E16122",
      "issued": "20260718",
      "text": "FVFE01 RJTD 180000\nVA ADVISORY\nDTG: 20260718/0000Z\nVAAC: TOKYO\nVOLCANO: SHEVELUCH 300270\nPSN: N5639 E16122\nAREA: RUSSIA\nSOURCE ELEV: 3283M AMSL\nADVISORY NR: 2026/268\nINFO SOURCE: KVERT HIMAWARI-9\nERUPTION DETAILS: VA CONTINUOUSLY OBS IN SATELLITE IMAGERY\nOBS VA DTG: 17/2320Z\nOBS VA CLD: SFC/FL290 N5601 E16322 - N5605 E16357 - N5546 E16401 - \nN5544 E16326 MOV SE 25KT\nFCST VA CLD +6 HR: 18/0520Z SFC/FL300 N5529 E16617 - N5404 E16714 - \nN5357 E16639 - N5527 E16530\nFCST VA CLD +12 HR: 18/1120Z SFC/FL300 N5352 E17006 - N5152 E17037 - \nN5152 E16936 - N5344 E16817\nFCST VA CLD +18 HR: NO VA EXP\nRMK: SOME PART OF VA OBSCURED BY MET CLOUD.\nNXT ADVISORY: 20260718/0600Z=",
      "img_url": "https://ds.data.jma.go.jp/svd/vaac/data/VAGFN/2026/Images/20260718_30027000_0268_QH21_01.png",
      "sat_img_url": "https://ds.data.jma.go.jp/svd/vaac/data/Sat/2026/Images/30027000/09-ir/20260717_2320_202607180000_ir.png",
      "text_url": "https://ds.data.jma.go.jp/svd/vaac/data/TextData/2026/20260718_30027000_0268_Text.html"
    },
    {
      "id": "20260717_27307000_0014",
      "year": "2026",
      "volcano": "Taal",
      "psn": "N1400 E12100",
      "issued": "20260717",
      "text": "FVFE01 RJTD 171113\nVA ADVISORY\nDTG: 20260717/1113Z\nVAAC: TOKYO\nVOLCANO: TAAL 273070\nPSN: N1400 E12100\nAREA: PHILIPPINES\nSOURCE ELEV: 311M AMSL\nADVISORY NR: 2026/14\nINFO SOURCE: HIMAWARI-9 PHIVOLCS\nERUPTION DETAILS: ERUPTION AT 20260717/1051Z FL040 EXTD E REPORTED\nOBS VA DTG: 17/1100Z\nOBS VA CLD: VA NOT IDENTIFIABLE FM SATELLITE DATA WIND FL040 270/8KT\nFCST VA CLD +6 HR: NOT AVBL\nFCST VA CLD +12 HR: NOT AVBL\nFCST VA CLD +18 HR: NOT AVBL\nRMK: WE WILL ISSUE FURTHER ADVISORY IF VA IS DETECTED IN SATELLITE \nIMAGERY.\nNXT ADVISORY: NO FURTHER ADVISORIES=",
      "img_url": "https://ds.data.jma.go.jp/svd/vaac/data/VAGFN/2026/Images/20260717_27307000_0014_QH21_01.png",
      "sat_img_url": null,
      "text_url": "https://ds.data.jma.go.jp/svd/vaac/data/TextData/2026/20260717_27307000_0014_Text.html"
    },
    {
      "id": "20260713_28208001_0083",
      "year": "2026",
      "volcano": null,
      "psn": "N3136 E13039",
      "issued": "20260713",
      "text": "FVFE01 RJTD 130254\nVA ADVISORY\nDTG: 20260713/0254Z\nVAAC: TOKYO\nVOLCANO: SAKURAJIMA (AIRA CALDERA) 282080\nPSN: N3136 E13039\nAREA: JAPAN\nSOURCE ELEV: 1117M AMSL\nADVISORY NR: 2026/83\nINFO SOURCE: JMA HIMAWARI-9\nERUPTION DETAILS: ERUPTED AT 20260713/0152Z FL100 EXTD N\nOBS VA DTG: 13/0230Z\nOBS VA CLD: SFC/FL100 N3136 E13039 - N3142 E13040 - N3141 E13044 - \nN3134 E13042 MOV NE 15KT\nFCST VA CLD +6 HR: 13/0830Z SFC/FL100 N3234 E13121 - N3145 E13155 - \nN3202 E13110 - N3227 E13051\nFCST VA CLD +12 HR: 13/1430Z SFC/FL100 N3318 E13206 - N3142 E13317 - \nN3134 E13226 - N3312 E13118\nFCST VA CLD +18 HR: NO VA EXP\nRMK: NIL\nNXT ADVISORY: 20260713/0600Z=",
      "img_url": "https://ds.data.jma.go.jp/svd/vaac/data/VAGFN/2026/Images/20260713_28208001_0083_QH21_01.png",
      "sat_img_url": "https://ds.data.jma.go.jp/svd/vaac/data/Sat/2026/Images/28208001/09-ir/20260713_0230_202607130254_ir.png",
      "text_url": "https://ds.data.jma.go.jp/svd/vaac/data/TextData/2026/20260713_28208001_0083_Text.html"
    }
  ],
  "vaac_alaska": [
    {
      "text": "\n000\nFVAK21 PAWU 180008\nVAAAK1\nVA ADVISORY\n\nDTG: 20260718/0000Z\n\nVAAC: ANCHORAGE\n\nVOLCANO: SHEVELUCH 300270\n\nPSN: N5639 E16122\n\nAREA: KAMCHATKA PENINSULA\n\nSOURCE ELEV: 10771 FT AMSL\n\nADVISORY NR: 2026/205\n\nRMK: PLEASE SEE FVFE01 RJTD ISSUED BY VAAC TOKYO WHICH DESCRIBES\nCONDITIONS NEAR THE VAAC ANCHORAGE AREA OF RESPONSIBILITY...BS\n\n\n\n",
      "issued": "2026-07-18T00:08:00+00:00",
      "volcano": "Sheveluch",
      "psn": "N5639 E16122"
    }
  ]
}