{
  "updated_utc": "2026-07-13T11:36Z",
  "metar": {
    "RJAA": "METAR RJAA 131000Z 05003KT 010V140 9999 -SHRA FEW020 SCT080 BKN120 27/23 Q1006 NOSIG",
    "PANC": "METAR PANC 130953Z 24005KT 10SM FEW020 OVC060 11/11 A2997 RMK AO2 RAE28 SLP150 P0001 T01110106 $",
    "PAFA": "METAR PAFA 130953Z 28003KT 10SM BKN080 BKN090 OVC100 14/11 A2982 RMK AO2 RAE27 SLP101 P0000 T01390106 $",
    "PAED": "METAR PAED 130955Z 22007KT 6SM -RA SCT045 OVC060 12/09 A2996 RMK AO2A SLP142 P0000 T01160092 $",
    "KSEA": "METAR KSEA 130953Z 01010KT 10SM SCT250 14/07 A3011 RMK AO2 SLP199 T01440072 $",
    "ZSPD": "METAR ZSPD 131000Z 17009MPS 140V200 CAVOK 30/26 Q1001 NOSIG",
    "ZSSS": "METAR ZSSS 131000Z 17006MPS CAVOK 32/26 Q1001 NOSIG",
    "RJFR": "METAR RJFR 131000Z 33008KT 9999 FEW025 SCT/// 30/25 Q1010",
    "VHHH": "METAR VHHH 131000Z 12012KT 090V150 9999 FEW015 32/25 Q1001 NOSIG",
    "RCTP": "METAR RCTP 131000Z 13003KT 070V180 9999 FEW012 BKN040 29/26 Q1006 NOSIG RMK A2972",
    "ZGSZ": "METAR ZGSZ 131000Z 20004MPS 9999 FEW023 32/27 Q1001 NOSIG",
    "WSSS": "METAR WSSS 131000Z 13013KT 9999 FEW018 SCT040 BKN300 30/25 Q1008 NOSIG",
    "WMKK": "METAR WMKK 131000Z VRB04KT 9000 FEW018 31/26 Q1006 NOSIG",
    "WIDD": "METAR WIDD 131000Z 14006KT 100V180 9999 BKN014 30/25 Q1008 NOSIG",
    "VTBS": "METAR VTBS 131000Z 24007KT 210V270 9999 FEW020 30/23 Q1004 NOSIG",
    "VTBU": "METAR VTBU 131000Z 26011KT 9999 FEW020 29/26 Q1005 NOSIG",
    "ROAH": "METAR ROAH 131000Z 16015KT 9999 FEW009 BKN/// 28/25 Q1011",
    "VVDN": "METAR VVDN 131000Z 11007KT 9999 FEW020 SCT070 32/25 Q1002 NOSIG",
    "RCKH": "METAR RCKH 131000Z 14017G27KT 110V180 9999 FEW024 SCT080 BKN120 31/23 Q1006 WS R09 NOSIG RMK A2971",
    "KLAX": "SPECI KLAX 130941Z 26006KT 9SM BKN007 BKN010 BKN150 19/18 A2993 RMK AO2 T01940183 $",
    "KONT": "METAR KONT 130953Z 24003KT 10SM SCT160 BKN250 23/17 A2993 RMK AO2 SLP118 T02280167 $",
    "KSFO": "METAR KSFO 130956Z 29009KT 10SM BKN180 16/12 A2990 RMK AO2 SLP123 T01560122 $",
    "KOAK": "METAR KOAK 130953Z 30003KT 10SM BKN210 17/13 A2989 RMK AO2 SLP121 T01720133",
    "KMHR": "METAR KMHR 130955Z AUTO 09003KT 10SM CLR 22/12 A2986 RMK AO2 T02200124 $",
    "KDFW": "METAR KDFW 130953Z 06009KT 6SM TSRA BR BKN026 OVC060CB 24/23 A3009 RMK AO2 RAB0856E08B21 TSB26 SLP181 OCNL LTGIC ALQDS TS ALQDS MOV SE P0002 T02390228 $",
    "KIAH": "METAR KIAH 130953Z 00000KT 10SM FEW020 FEW110 BKN180 27/26 A3006 RMK AO2 RAB0857E07 SLP178 P0000 T02670256 $",
    "KORD": "METAR KORD 130951Z 24003KT 10SM FEW300 21/16 A3019 RMK AO2 SLP217 T02060156 $",
    "KJFK": "METAR KJFK 130951Z 26007KT 10SM SCT250 20/18 A3021 RMK AO2 SLP231 T02000178 $",
    "KRFD": "METAR KRFD 130954Z 00000KT 9SM FEW250 18/17 A3022 RMK AO2 SLP229 T01780172 $",
    "KIND": "METAR KIND 130954Z 03007KT 10SM CLR 19/14 A3016 RMK AO2 SLP205 T01940139",
    "KDTW": "METAR KDTW 130953Z 00000KT 8SM FEW060 SCT120 BKN250 19/16 A3019 RMK AO2 SLP219 T01940156 $",
    "KMSP": "METAR KMSP 130953Z 23008KT 10SM CLR 24/19 A3018 RMK AO2 SLP212 T02390189 $",
    "CYEG": "METAR CYEG 131000Z 33003KT 20SM FEW100 08/06 A3004 RMK AC1 AC TR NOCTILUCENT CLD SLP180",
    "EHAM": "METAR EHAM 130955Z 04008KT 340V080 9999 FEW019 22/16 Q1022 NOSIG",
    "EBBR": "METAR EBBR 130950Z 03007KT 360V070 CAVOK 23/14 Q1020 NOSIG",
    "EDDF": "METAR EDDF 130950Z AUTO VRB09KT CAVOK 30/13 Q1019 NOSIG",
    "EDFH": "METAR EDFH 130950Z 11007KT 060V220 CAVOK 28/12 Q1020",
    "EDDL": "METAR EDDL 130950Z AUTO 03007KT 340V080 CAVOK 28/14 Q1020 NOSIG",
    "EDDK": "METAR EDDK 130950Z AUTO VRB04KT CAVOK 29/15 Q1019 NOSIG",
    "EBLG": "METAR EBLG 130950Z 04008KT 010V090 9999 FEW038 24/14 Q1020 NOSIG",
    "LSZH": "METAR LSZH 130950Z 34003KT 290V030 CAVOK 28/13 Q1019 NOSIG",
    "LIMC": "METAR LIMC 130950Z 17004KT 120V240 9999 FEW040 SCT090 30/18 Q1019 NOSIG",
    "LIRF": "METAR LIRF 130950Z 19009KT 150V210 CAVOK 32/22 Q1018 NOSIG",
    "EINN": "METAR EINN 131000Z 06012KT CAVOK 25/13 Q1023 NOSIG",
    "EGLL": "METAR EGLL 130950Z AUTO 06014KT 020V080 9999 FEW034 22/12 Q1022",
    "EGSS": "METAR EGSS 130950Z AUTO 04015KT 9999 OVC024 21/13 Q1024",
    "EPWA": "METAR EPWA 131000Z 29009KT 9999 BKN009 19/17 Q1019 BECMG BKN011",
    "UHPP": "METAR UHPP 131000Z 20004MPS CAVOK 14/11 Q1013 R16R/CLRD62 NOSIG RMK QFE757/1009",
    "EFHK": "METAR EFHK 130950Z 34012KT 310V020 9999 BKN019 19/15 Q1018 NOSIG",
    "LBBG": "METAR LBBG 131000Z 13012KT 9999 VCSH FEW030TCU SCT042 26/17 Q1013 TEMPO 5000 TSRA SCT033CB",
    "LTAC": "METAR LTAC 130950Z 23006KT 160V330 9999 FEW040 29/09 Q1013 NOSIG RMK RWY21C VRB04KT RWY03L 20005KT 130V300 RWY21R VRB03KT RWY03R 30007KT 260V360 RWY21L 28007KT 230V330",
    "UBBB": "METAR UBBB 131000Z 34014KT CAVOK 32/18 Q1007 NOSIG",
    "UTAA": "METAR UTAA 131000Z 30006G16KT 200V010 9999 NSC 40/09 Q1007 R88/CLRD70 NOSIG",
    "UACC": "METAR UACC 131000Z 13003MPS CAVOK 34/09 Q1007 NOSIG RMK QFE724/0966",
    "UAAA": "METAR UAAA 131000Z 18005MPS 9999 BKN050CB OVC100 29/11 Q1007 TEMPO 32008G15MPS 3000 TS BLDU",
    "UZTT": "METAR UZTT 131000Z 20004G14KT CAVOK 38/08 Q1003 NOSIG",
    "ZWWW": "METAR ZWWW 131000Z 33004MPS CAVOK 37/08 Q1003 NOSIG",
    "ZLXY": "METAR ZLXY 131000Z 08006MPS CAVOK 35/21 Q0999 NOSIG",
    "ZBAA": "METAR ZBAA 131000Z 17003MPS CAVOK 33/25 Q0999 NOSIG",
    "ZBHH": "METAR ZBHH 131000Z 19001MPS CAVOK 28/15 Q1007 NOSIG",
    "ZSQD": "METAR ZSQD 131000Z 12004MPS 4000 -RA BR BKN008 OVC020 26/26 Q0997 BECMG TL1100 RA",
    "ZMCK": "METAR ZMCK 131000Z 31005MPS 280V340 9999 FEW030CB FEW033 SCT100 20/09 Q1010 NOSIG RMK QFE643.0 49 MOP",
    "UUEE": "METAR UUEE 131000Z 05003MPS 360V080 9999 SCT026 21/15 Q1005 R06R/CLRD62 R06C/CLRD62 NOSIG",
    "UUDD": "METAR UUDD 131000Z 03005MPS 9999 BKN040 21/14 Q1005 R13R/CLRD65 NOSIG",
    "ULLI": "METAR ULLI 131000Z 04005MPS 010V070 9999 SCT033 26/15 Q1013 R88/090065 NOSIG",
    "USSS": "METAR USSS 131000Z 08004MPS 050V110 9999 BKN026 22/17 Q1012 R08L/210060 R08R/CLRD60 NOSIG RMK QFE739/0985",
    "UNNT": "METAR UNNT 131000Z 18003MPS CAVOK 27/14 Q1005 R25/CLRD// R16/CLRD// NOSIG RMK QFE744/0992",
    "UNKL": "METAR UNKL 131000Z 11007MPS CAVOK 24/08 Q1007 R11/CLRD// NOSIG RMK QFE730",
    "UIBB": "METAR UIBB 131000Z 32003MPS 270V010 9999 NSC 20/08 Q1009 R30/CLRD62 NOSIG RMK QFE714/0952",
    "UEEE": "METAR UEEE 131000Z 02006MPS 9999 FEW050CB 23/17 Q0996 R05/190047 NOSIG RMK QFE739",
    "UHHH": "METAR UHHH 131000Z 22005MPS 9999 SCT042CB 28/24 Q0998 R88/090060 NOSIG RMK QFE742/0990",
    "UHSS": "METAR UHSS 131000Z 21002MPS 9999 BKN021 21/19 Q1005 R19/CLRD70 NOSIG RMK MT OBSC QFE752/1003"
  },
  "taf": {
    "RJAA": "TAF RJAA 131105Z 1312/1418 31004KT 9999 FEW030 BECMG 1403/1406 14010KT",
    "PANC": "TAF PANC 130520Z 1306/1412 14015G25KT P6SM VCSH FEW015 BKN080 FM130900 16011KT P6SM -SHRA SCT015 OVC035 FM131800 17008G18KT 6SM -SHRA BR SCT008 OVC025 FM140100 19012G25KT P6SM -RA OVC030",
    "PAFA": "TAF PAFA 131128Z 1312/1418 23005KT P6SM VCSH SCT050 BKN100 FM132100 22006KT P6SM BKN035 OVC050",
    "PAED": "TAF PAED 130500Z 1305/1411 02003KT 8000 -SHRA FEW015 SCT020 OVC050 620608 QNH2989INS BECMG 1312/1313 20003KT 6000 -RA BKN006 OVC015 620608 QNH2997INS BECMG 1317/1318 19006KT 8000 -SHRA BKN009 OVC018 620608 QNH3001INS BECMG 1320/1321 22006KT 8000 -SHRA FEW009 BKN018 OVC025 620608 QNH3002INS BECMG 1404/1405 22003KT 9000 -SHRA FEW009 OVC025 620608 QNH3006INS TX13/1322Z TN10/1313Z",
    "KSEA": "TAF KSEA 131120Z 1312/1418 01007KT P6SM FEW250 FM131700 35009KT P6SM FEW250 FM132200 31008KT P6SM FEW250 FM140200 36006KT P6SM FEW250 FM140800 01004KT P6SM SKC",
    "ZSPD": "TAF ZSPD 130907Z 1312/1418 18009G15MPS 8000 BKN020 TX30/1312Z TX35/1406Z TN28/1321Z BECMG 1321/1322 17006MPS",
    "ZSSS": "TAF ZSSS 130905Z 1312/1418 17005MPS 8000 BKN020 TX31/1312Z TX36/1406Z TN28/1321Z",
    "RJFR": "TAF RJFR 131105Z 1312/1418 24004KT 9999 FEW003 BECMG 1322/1400 04006KT BECMG 1409/1412 18006KT",
    "VHHH": "TAF VHHH 131100Z 1312/1418 10010KT 9999 FEW015 SCT025 TX31/1406Z TN27/1322Z TEMPO 1313/1318 3500 SHRA FEW010CB SCT020 TEMPO 1318/1322 09015G25KT 2000 TSRA SHRA FEW010CB SCT020 TEMPO 1322/1404 12020G30KT 1500 TSRA +SHRA FEW008CB SCT015 TEMPO 1404/1412 18022G32KT 2000 +SHRA FEW010CB SCT020 TEMPO 1412/1418 20015G25KT 3000 SHRA FEW010CB SCT020",
    "RCTP": "TAF RCTP 131100Z 1312/1418 23005KT 9999 FEW018 BKN032 BECMG 1315/1317 11005KT BECMG 1401/1403 34005KT TEMPO 1406/1412 07005KT 5000 SHRA FEW015 BKN020 BECMG 1412/1414 16005KT",
    "ZGSZ": "TAF ZGSZ 130913Z 1312/1418 18004MPS 8000 SCT030 TX30/1312Z TX31/1406Z TN29/1322Z BECMG 1316/1317 SHRA SCT010 FEW020CB BKN030 BECMG 1320/1321 03004MPS TEMPO 1321/1403 TSRA TEMPO 1404/1409 2800 +TSRA BECMG 1413/1414 NSW BKN040",
    "WSSS": "TAF WSSS 131100Z 1312/1418 15008KT 9999 FEW015 SCT020",
    "WMKK": "TAF WMKK 131100Z 1312/1418 VRB03KT 9999 FEW030",
    "VTBS": "TAF VTBS 131100Z 1312/1418 22008KT 9999 FEW020 TEMPO 1410/1414 VRB15KT 4000 TSRA FEW018CB SCT030 BKN100",
    "VTBU": "TAF VTBU 131100Z 1312/1412 25010KT 9999 FEW020",
    "ROAH": "TAF ROAH 131105Z 1312/1418 17012KT 9999 FEW008 SCT012 TEMPO 1315/1400 FEW005 BKN008",
    "VVDN": "TAF VVDN 131100Z 1312/1412 22007KT 9999 FEW017 SCT060 TEMPO 1312/1314 4000 SHRA BKN013 FEW017CB BKN060 BECMG 1404/1405 36011KT BECMG 1407/1408 11010KT",
    "RCKH": "TAF RCKH 131100Z 1312/1418 18015G25KT 9999 FEW012 BKN032 TEMPO 1312/1318 15018G28KT 7000 -SHRA FEW010 BKN025 TEMPO 1400/1406 8000 -SHRA FEW010 BKN025 TEMPO 1409/1415 16013G23KT 5000 SHRA FEW008 FEW012CB BKN022",
    "KLAX": "TAF KLAX 131132Z 1312/1418 VRB03KT P6SM BKN007 BKN250 FM131700 26006KT P6SM BKN250 FM132100 26012KT P6SM BKN250 FM140300 26006KT P6SM BKN250 FM140600 VRB03KT P6SM BKN010 FM141500 VRB03KT P6SM BKN010",
    "KONT": "TAF KONT 131134Z 1312/1418 VRB04KT P6SM SCT150 BKN200 FM132100 25011KT P6SM SCT100 BKN150 FM140400 VRB04KT P6SM SCT150",
    "KSFO": "TAF KSFO 131120Z 1312/1418 29009KT P6SM BKN200 FM132100 30015KT P6SM BKN200 FM140600 29011KT P6SM BKN200 FM141500 30005KT P6SM SCT010",
    "KOAK": "TAF KOAK 131120Z 1312/1418 30007KT P6SM BKN200 FM132100 30008KT P6SM BKN200 FM141200 29004KT P6SM SCT010",
    "KMHR": "TAF KMHR 131120Z 1312/1412 VRB03KT P6SM OVC150 FM132200 23008KT P6SM BKN200 FM140500 19005KT P6SM BKN250",
    "KDFW": "TAF KDFW 131120Z 1312/1418 VRB04KT P6SM -SHRA VCTS SCT020 SCT070CB TEMPO 1312/1313 2SM TSRA BKN018CB FM131300 15008KT P6SM VCSH BKN025 FM131600 16008KT P6SM -SHRA VCTS SCT025CB BKN250 TEMPO 1316/1319 5SM -TSRA BKN025CB FM132000 13008KT P6SM BKN060 FM140900 17005KT P6SM BKN019 FM141500 14006KT P6SM SCT040",
    "KIAH": "TAF KIAH 131120Z 1312/1418 16004KT P6SM SCT025 BKN035 BKN100 FM131800 18007KT 5SM -SHRA VCTS SCT035CB OVC100 TEMPO 1319/1323 4SM TSRA BKN035CB FM132300 14007KT 6SM -SHRA BR SCT035 BKN050 PROB30 1323/1402 4SM TSRA BKN035CB FM140300 VRB03KT P6SM BKN025 FM141000 15004KT P6SM VCSH BKN025 PROB30 1414/1418 4SM TSRA BKN025CB",
    "KORD": "TAF KORD 131126Z 1312/1418 29006KT P6SM FEW250 FM132200 11007KT P6SM FEW050 FM140300 VRB03KT P6SM SKC",
    "KJFK": "TAF KJFK 131120Z 1312/1418 22006KT P6SM FEW070 FM131500 20010KT P6SM FEW070 FM131800 18013KT P6SM SCT070 FM132100 18017KT P6SM SCT070 FM140300 22010KT P6SM FEW250 FM140800 24008KT P6SM FEW250 FM141400 23012KT P6SM FEW250 FM141600 22015G21KT P6SM FEW250",
    "KRFD": "TAF KRFD 131126Z 1312/1412 29006KT P6SM FEW250 FM140300 VRB03KT P6SM SKC",
    "KIND": "TAF KIND 131120Z 1312/1418 02005KT P6SM SKC FM131600 04012KT P6SM FEW050 FM140000 04005KT P6SM SKC",
    "KDTW": "TAF KDTW 131120Z 1312/1418 VRB03KT P6SM BKN250 FM131400 24003KT P6SM SCT250 FM131800 24006KT P6SM FEW045 SCT250 FM140100 23005KT P6SM SCT250 FM141400 26008KT P6SM SCT250",
    "KMSP": "TAF KMSP 131120Z 1312/1418 23008KT P6SM SKC FM131700 22011G18KT P6SM SKC FM132300 23008KT P6SM SKC",
    "CYEG": "TAF CYEG 130841Z 1309/1406 22003KT P6SM SKC BECMG 1316/1318 VRB02KT BECMG 1318/1320 12007KT FM132200 12010KT P6SM FEW060 FM140100 09008KT P6SM SKC RMK NXT FCST BY 131200Z",
    "EHAM": "TAF EHAM 131116Z 1312/1418 03009KT CAVOK BECMG 1405/1408 05013KT",
    "EBBR": "TAF EBBR 131105Z 1312/1418 03008KT CAVOK",
    "EDDF": "TAF EDDF 131100Z 1312/1418 08009KT CAVOK BECMG 1320/1323 02009KT TEMPO 1414/1418 30020G40KT TSRA BKN050CB",
    "EDFH": "TAF EDFH 131100Z 1312/1412 08008KT CAVOK",
    "EDDL": "TAF EDDL 131100Z 1312/1418 03009KT CAVOK BECMG 1323/1402 06004KT BECMG 1407/1410 04011KT PROB30 TEMPO 1412/1416 03015G25KT",
    "EDDK": "TAF EDDK 131100Z 1312/1418 VRB03KT CAVOK TEMPO 1315/1323 04008KT BECMG 1406/1409 09006KT BECMG 1411/1414 03007KT PROB30 TEMPO 1411/1416 03015G30KT TSRA SCT040CB BECMG 1415/1418 VRB03KT",
    "EBLG": "TAF EBLG 131105Z 1312/1418 03008KT CAVOK",
    "LSZH": "TAF LSZH 131125Z 1312/1418 34005KT CAVOK TX32/1315Z TN20/1404Z TX31/1415Z TEMPO 1312/1320 07006KT TEMPO 1323/1409 9999 FEW070TCU PROB40 TEMPO 1323/1408 32015G25KT TSRA SCT060CB BECMG 1411/1414 9999 FEW070 TEMPO 1411/1416 25010KT PROB30 TEMPO 1416/1418 30015G25KT TSRA SCT060CB",
    "LIMC": "TAF LIMC 131100Z 1312/1418 VRB05KT 9999 SCT050 BECMG 1410/1412 23010KT BECMG 1416/1418 VRB05KT",
    "LIRF": "TAF LIRF 131100Z 1312/1418 21010KT CAVOK BECMG 1314/1316 27010KT BECMG 1319/1321 VRB05KT PROB40 TEMPO 1400/1405 4000 BCFG BECMG 1410/1412 20010KT",
    "EINN": "TAF EINN 131100Z 1312/1412 07012KT CAVOK PROB40 TEMPO 1312/1315 04012KT BECMG 1319/1321 04010KT BECMG 1322/1324 VRB03KT BECMG 1407/1409 08010KT",
    "EGLL": "TAF EGLL 131054Z 1312/1418 05013KT CAVOK PROB40 TEMPO 1312/1319 06016G26KT TEMPO 1320/1410 BKN020 PROB30 TEMPO 1400/1407 BKN012",
    "EGSS": "TAF EGSS 131059Z 1312/1418 04012KT 9999 SCT030 PROB30 TEMPO 1312/1318 05015G25KT PROB40 TEMPO 1322/1401 BKN010 BECMG 1401/1404 BKN010 PROB30 TEMPO 1402/1407 8000 -DZ BKN008 BECMG 1407/1410 FEW030 BECMG 1412/1415 10009KT",
    "EPWA": "TAF EPWA 131130Z 1312/1412 32010KT 9999 BKN012 BECMG 1312/1314 SCT020 TEMPO 1312/1324 -SHRA SCT025CB PROB40 TEMPO 1314/1322 VRB15G25KT 3000 TSRA BKN015CB TEMPO 1321/1406 BKN008 BKN011 PROB40 TEMPO 1400/1406 BKN004",
    "UHPP": "TAF UHPP 131042Z 1312/1418 34003G10MPS 9999 SCT050 TEMPO 1312/1321 0700 FG VV002 TEMPO 1401/1410 18006MPS",
    "EFHK": "TAF EFHK 130823Z 1309/1409 34012KT 9999 BKN012 BECMG 1309/1311 SCT013 BKN020 PROB30 1312/1316 FEW030TCU PROB30 1406/1408 BKN012",
    "LBBG": "TAF LBBG 131100Z 1312/1412 12012KT 9999 SCT045 TEMPO 1312/1320 VRB16G26KT 3000 TSRA SCT030CB BKN040 BECMG 1318/1320 VRB04KT BECMG 1322/1324 33010KT",
    "LTAC": "TAF LTAC 131040Z 1312/1412 VRB02KT 9999 FEW040 SCT100 TEMPO 1312/1315 30012KT TEMPO 1315/1319 01012KT BECMG 1316/1318 CAVOK BECMG 1400/1403 SCT040 SCT100 TEMPO 1408/1412 25012KT",
    "UBBB": "TAF UBBB 131051Z 1312/1412 32010KT CAVOK TX33/1312Z TN24/1401Z TEMPO 1312/1317 35016KT FEW040 TEMPO 1319/1402 34006KT SCT015 BECMG 1404/1406 35014KT",
    "UTAA": "TAF UTAA 131045Z 1312/1412 34018KT 6000 SCT050 TX41/1411Z TEMPO 1312/1318 29016G26KT 4000 DRDU BECMG 1318/1320 22014KT TEMPO 1320/1324 VRB04KT BECMG 1400/1402 02018KT TEMPO 1402/1408 32018G28KT 3000 BLDU",
    "UACC": "TAF UACC 131104Z 1312/1412 VRB01MPS 9999 SCT040 BKN100 TX36/1409Z TN19/1323Z TEMPO 1312/1317 13004MPS -TSRA BKN030CB TEMPO 1402/1406 16005MPS TEMPO 1406/1412 16005MPS -TSRA BKN030CB",
    "UAAA": "TAF UAAA 131103Z 1312/1412 21003MPS 9999 SCT050CB BKN100 TX31/1410Z TN22/1401Z TEMPO 1312/1315 28006G14MPS 5000 -TSRA BLDU TEMPO 1315/1321 02005MPS BECMG 1403/1405 02005MPS TEMPO 1406/1412 07005G10MPS",
    "UZTT": "TAF UZTT 131100Z 1312/1412 08010KT 7000 NSC TX39/1411Z TN26/1400Z TEMPO 1312/1318 32012G22KT TEMPO 1400/1406 24015KT",
    "ZWWW": "TAF ZWWW 130904Z 1312/1418 36004MPS CAVOK TX38/1409Z TN27/1323Z TN30/1418Z BECMG 1314/1315 18004MPS BECMG 1402/1403 36004MPS BECMG 1413/1414 18004MPS",
    "ZLXY": "TAF ZLXY 130905Z 1312/1412 06004MPS 6000 NSC TX37/1408Z TN26/1321Z",
    "ZBAA": "TAF ZBAA 130900Z 1312/1418 15003MPS 6000 NSC TX34/1407Z TN24/1321Z TN25/1418Z",
    "ZBHH": "TAF ZBHH 130901Z 1312/1412 06004MPS CAVOK TX29/1408Z TN15/1322Z",
    "ZSQD": "TAF ZSQD 130903Z 1312/1412 13007G13MPS 5000 -RA BR BKN010 OVC020 TX32/1406Z TN25/1320Z BECMG 1314/1315 RA TEMPO 1316/1319 2500 +RA BECMG 1320/1321 30008G14MPS -RA BKN030",
    "ZMCK": "TAF ZMCK 131041Z 1312/1418 34006MPS 9999 FEW030CB SCT033 TN08/1321Z TX23/1407Z PROB40 TEMPO 1312/1315 VRB09G14MPS TSRA SCT027CB SCT030 BECMG 1313/1315 VRB02MPS BECMG 1403/1405 29006MPS BECMG 1410/1412 VRB02MPS",
    "UUEE": "TAF UUEE 131052Z 1312/1412 36003MPS 9999 BKN016 TX24/1412Z TN16/1401Z TEMPO 1312/1321 33010G16MPS 2100 -TSRA BKN016CB TEMPO 1321/1405 BKN005 PROB40 TEMPO 1321/1405 0300 FG",
    "UUDD": "TAF UUDD 131053Z 1312/1418 03005MPS 9999 FEW007 BKN016 TX23/1312Z TN15/1401Z TEMPO 1312/1319 36008G15MPS -TSRA BKN020CB BECMG 1319/1321 33003MPS PROB40 TEMPO 1323/1404 0300 FG BKN003",
    "ULLI": "TAF ULLI 131055Z 1312/1412 02005G10MPS 9999 BKN030 PROB40 TEMPO 1312/1316 4000 -TSRA BKN016CB",
    "USSS": "TAF USSS 131050Z 1312/1412 06003G13MPS 9999 -SHRA BKN020CB TEMPO 1312/1412 -TSRA BECMG 1404/1406 12003G13MPS",
    "UNNT": "TAF UNNT 131100Z 1312/1412 35003G08MPS 8000 SCT040 TX25/1409Z TN11/1323Z TEMPO 1312/1315 29008G15MPS PROB40 TEMPO 1314/1403 -TSRA BKN020CB",
    "UNKL": "TAF UNKL 131050Z 1312/1412 11008G14MPS CAVOK BECMG 1313/1315 12003G08MPS FM140300 22005MPS 9999 SCT030CB BECMG 1405/1407 27003G08MPS -TSRA BECMG 1408/1410 NSW TEMPO 1410/1412 -TSRA",
    "UIBB": "TAF UIBB 131100Z 1312/1412 33002G07MPS 9999 SCT050CB TEMPO 1312/1315 VRB07MPS",
    "UEEE": "TAF UEEE 131100Z 1312/1418 04003G10MPS 9999 SCT025CB OVC100 TX26/1406Z TN17/1318Z TEMPO 1312/1318 VRB18MPS 2100 -TSRA SQ SCT007 BKN017CB OVC100 TEMPO 1318/1323 VRB01MPS 0500 TSRA FG VV003",
    "UHHH": "TAF UHHH 131048Z 1312/1418 22003MPS 9999 FEW006 SCT017CB TX31/1406Z TN22/1318Z TEMPO 1312/1318 2000 TSRA FM140000 24005MPS 9999 FEW010 SCT020CB TEMPO 1400/1410 26005G10MPS",
    "UHSS": "TAF UHSS 131057Z 1312/1418 21003MPS 6000 BKN004 BKN016CB BECMG 1314/1317 0550 FG BKN002 BKN016CB BECMG 1321/1324 1400 BR BKN004 FM140100 22003MPS 9999 SCT030"
  },
  "atis": {},
  "windtemp_alaska": "\n000\nFBAK31 KWNO 130801\nFD1AK1\nDATA BASED ON 130600Z    \nVALID 131200Z   FOR USE 0800-1500Z. TEMPS NEG ABV 24000\n\nFT  3000    6000    9000   12000   18000   24000  30000  34000  39000\nADK 2409 9900+07 2008+04 1912-01 1707-13 1745-23 186638 198747 196955\nADQ 2806 2605+01 2412-03 2520-07 2844-15 2860-25 287740 298948 287052\nAKN 2115 2112-01 2418-04 2421-08 2747-16 2768-26 278940 780048 266950\nANC 1608 1619+01 1721-04 1823-10 2120-21 2217-32 252445 252745 252644\nANN 9900 3006+01 3007-03 3505-08 0313-20 0422-32 074348 062550 990045\nBET 2222 2224-02 2318-06 2321-11 2433-21 2566-30 269942 267645 255042\nBRW 1909 2013+02 1911-04 1918-08 1824-18 1726-31 183246 174453 181447\nBTI 2810 2405+06 2110+00 2015-05 2120-17 2223-28 212644 212854 222154\nBTT 1214 1417+04 1618-02 1722-08 1739-20 1647-31 166146 165951 182246\nCDB 2119 2325+07 2431+03 2543+00 2552-12 2564-22 257836 269445 269556\nCZF 2222 2226-01 2323-06 2322-10 2314-22 2505-34 241943 253340 253040\nEHM 2115 2115-01 2423-03 2535-06 2657-16 2677-26 760040 772948 267049\nFAI 2620 2313+03 2021-03 1827-08 1737-21 1652-31 166745 166151 182047\nFYU 1412 1816+07 1923+00 1928-06 1832-17 1839-30 175045 174754 192751\nGAL 1921 1920-01 1825-07 1730-13 1732-25 1833-34 183143 182441 201741\nGKN 1725 1925+02 2021-03 1921-08 1732-20 1650-30 166045 175251 211646\nHOM 2412 1910+00 2110-04 2417-08 2525-19 2748-29 287842 287548 274646\nJNU 2408 2312+01 2907+00 3206-04 0805-16 0909-29 111246 080955 060750\nLUR 1414 1415-01 1416-06 1315-09 1316-22 1214-33 101048 111247 131242\nMCG 2131 2125-01 2025-05 2029-11 2020-22 1918-33 212046 232742 232842\nMDO 1812 1915+02 1815-03 1917-09 2221-20 2321-31 283544 273647 273146\nOME 1318 1516-01 1714-08 1606-10 9900-21 9900-33 340747 230743 221339\nORT      3006+07 1811+01 1817-05 1728-18 1734-29 173045 162754 181952\nOTZ 1518 1319+00 1322-06 1436-09 1326-22 1435-35 101647 151344 171240\nSNP 9900 2610+03 2419-02 2532-05 2551-15 2569-26 740139 742648 257349\nTKA 1914 1917+00 1920-05 1925-09 1923-23 1916-32 182646 212444 242344\nUNK 2125 1919-01 1820-07 1917-12 2322-23 2518-34 251545 231541 221840\nYAK 9900 2308+00 2714+00 2410-06 1717-16 1817-29 181145 191054 280752\nIKO 2242 2357+09 2256+04 2250+00 2343-11 2451-21 246436 238046 238356\nAFM 1807 1314+01 1219-05 1323-09 1426-22 1438-35 153147 153146 171642\n5AB 3508 3509+05 3210+02 3314-01 3224-13 3229-25 333341 333350 332952\n5AC 1313 1411+01 1307-02 9900-05 0211-19 3611-33 312647 323047 322345\n5AD 9900 2405+04 2907+00 2912-03 3129-12 3245-24 315740 315649 316155\n5AE 2309 2616+04 2829+02 2938+00 2855-11 2864-22 297937 299046 298357\n5AF 9900 2606+02 2505-01 9900-05 9900-18 0613-30 061846 022054 352350\n5AG 1914 2013+04 1915-01 2015-07 1925-17 1930-29 192945 232151 292749\n",
  "vaac_active": [
    {
      "volcano": "MAYON",
      "volcano_jp": "マヨン",
      "advisory_nr": "2026/733",
      "obs_time": "2026-07-13 09:16Z",
      "issued_time": "2026-07-13 10:22Z",
      "text_url": "https://www.data.jma.go.jp/vaac/data/TextData/2026/20260713_27303000_0733_Text.html",
      "lat": 13.25,
      "lon": 123.683,
      "text": "FVFE01 RJTD 131022\nVA ADVISORY\nDTG: 20260713/1022Z\nVAAC: TOKYO\nVOLCANO: MAYON 273030\nPSN: N1315 E12341\nAREA: PHILIPPINES\nSOURCE ELEV: 2462M AMSL\nADVISORY NR: 2026/733\nINFO SOURCE: HIMAWARI-9 PHIVOLCS\nERUPTION DETAILS: ERUPTION AT 20260713/0916Z FL110 EXTD NE REPORTED\nOBS VA DTG: 13/1000Z\nOBS VA CLD: VA NOT IDENTIFIABLE FM SATELLITE DATA WIND FL110 220/1KT\nFCST VA CLD +6 HR: NOT AVBL\nFCST VA CLD +12 HR: NOT AVBL\nFCST VA CLD +18 HR: NOT AVBL\nRMK: WE WILL ISSUE FURTHER ADVISORY IF VA IS DETECTED IN SATELLITE \nIMAGERY.\nNXT ADVISORY: NO FURTHER ADVISORIES="
    },
    {
      "volcano": "MAYON",
      "volcano_jp": "マヨン",
      "advisory_nr": "2026/732",
      "obs_time": "2026-07-13 09:16Z",
      "issued_time": "2026-07-13 09:32Z",
      "text_url": "https://www.data.jma.go.jp/vaac/data/TextData/2026/20260713_27303000_0732_Text.html",
      "lat": 13.25,
      "lon": 123.683,
      "text": "FVFE01 RJTD 130932\nVA ADVISORY\nDTG: 20260713/0932Z\nVAAC: TOKYO\nVOLCANO: MAYON 273030\nPSN: N1315 E12341\nAREA: PHILIPPINES\nSOURCE ELEV: 2462M AMSL\nADVISORY NR: 2026/732\nINFO SOURCE: HIMAWARI-9 PHIVOLCS\nERUPTION DETAILS: ERUPTION AT 20260713/0916Z FL100 EXTD NE REPORTED\nOBS VA DTG: 13/0910Z\nOBS VA CLD: VA NOT IDENTIFIABLE FM SATELLITE DATA WIND FL100 250/3KT\nFCST VA CLD +6 HR: NOT AVBL\nFCST VA CLD +12 HR: NOT AVBL\nFCST VA CLD +18 HR: NOT AVBL\nRMK: WE WILL ISSUE FURTHER ADVISORY IF VA IS DETECTED IN SATELLITE \nIMAGERY.\nNXT ADVISORY: NO FURTHER ADVISORIES="
    },
    {
      "volcano": "桜島",
      "volcano_jp": "桜島",
      "advisory_nr": "2026/84",
      "obs_time": "2026-07-13 05:20Z",
      "issued_time": "2026-07-13 05:50Z",
      "text_url": "https://www.data.jma.go.jp/vaac/data/TextData/2026/20260713_28208001_0084_Text.html",
      "lat": 31.6,
      "lon": 130.65,
      "text": "FVFE01 RJTD 130550\nVA ADVISORY\nDTG: 20260713/0550Z\nVAAC: TOKYO\nVOLCANO: SAKURAJIMA (AIRA CALDERA) 282080\nPSN: N3136 E13039\nAREA: JAPAN\nSOURCE ELEV: 1117M AMSL\nADVISORY NR: 2026/84\nINFO SOURCE: HIMAWARI-9\nERUPTION DETAILS: VA IS NOT IDENTIFIABLE IN SATELLITE IMAGERY.\nOBS VA DTG: 13/0520Z\nOBS VA CLD: VA NOT IDENTIFIABLE FM SATELLITE DATA WIND FL180 020/5KT\nFCST VA CLD +6 HR: NOT AVBL\nFCST VA CLD +12 HR: NOT AVBL\nFCST VA CLD +18 HR: NOT AVBL\nRMK: VA IS NOT IDENTIFIABLE DUE TO MET CLOUD OR HAS DISSIPATED. WE \nWILL ISSUE FURTHER ADVISORY IF VA DETECTED IN SATELLITE IMAGERY.\nNXT ADVISORY: NO FURTHER ADVISORIES="
    },
    {
      "volcano": "MAYON",
      "volcano_jp": "マヨン",
      "advisory_nr": "2026/731",
      "obs_time": "2026-07-13 01:13Z",
      "issued_time": "2026-07-13 05:47Z",
      "text_url": "https://www.data.jma.go.jp/vaac/data/TextData/2026/20260713_27303000_0731_Text.html",
      "lat": 13.25,
      "lon": 123.683,
      "text": "FVFE01 RJTD 130547\nVA ADVISORY\nDTG: 20260713/0547Z\nVAAC: TOKYO\nVOLCANO: MAYON 273030\nPSN: N1315 E12341\nAREA: PHILIPPINES\nSOURCE ELEV: 2462M AMSL\nADVISORY NR: 2026/731\nINFO SOURCE: HIMAWARI-9 PHIVOLCS\nERUPTION DETAILS: ERUPTION AT 20260713/0113Z FL130 EXTD NE REPORTED\nOBS VA DTG: 13/0520Z\nOBS VA CLD: VA NOT IDENTIFIABLE FM SATELLITE DATA WIND FL130 200/2KT\nFCST VA CLD +6 HR: NOT AVBL\nFCST VA CLD +12 HR: NOT AVBL\nFCST VA CLD +18 HR: NOT AVBL\nRMK: WE WILL ISSUE FURTHER ADVISORY IF VA IS DETECTED IN SATELLITE \nIMAGERY.\nNXT ADVISORY: NO FURTHER ADVISORIES="
    }
  ],
  "vaac_tokyo": [
    {
      "id": "20260713_27303000_0733",
      "year": "2026",
      "volcano": "Mayon",
      "psn": "N1315 E12341",
      "issued": "20260713",
      "text": "FVFE01 RJTD 131022\nVA ADVISORY\nDTG: 20260713/1022Z\nVAAC: TOKYO\nVOLCANO: MAYON 273030\nPSN: N1315 E12341\nAREA: PHILIPPINES\nSOURCE ELEV: 2462M AMSL\nADVISORY NR: 2026/733\nINFO SOURCE: HIMAWARI-9 PHIVOLCS\nERUPTION DETAILS: ERUPTION AT 20260713/0916Z FL110 EXTD NE REPORTED\nOBS VA DTG: 13/1000Z\nOBS VA CLD: VA NOT IDENTIFIABLE FM SATELLITE DATA WIND FL110 220/1KT\nFCST VA CLD +6 HR: NOT AVBL\nFCST VA CLD +12 HR: NOT AVBL\nFCST VA CLD +18 HR: NOT AVBL\nRMK: WE WILL ISSUE FURTHER ADVISORY IF VA IS DETECTED IN SATELLITE \nIMAGERY.\nNXT ADVISORY: NO FURTHER ADVISORIES=",
      "img_url": "https://ds.data.jma.go.jp/svd/vaac/data/VAGFN/2026/Images/20260713_27303000_0733_QH21_01.png",
      "sat_img_url": null,
      "text_url": "https://ds.data.jma.go.jp/svd/vaac/data/TextData/2026/20260713_27303000_0733_Text.html"
    },
    {
      "id": "20260713_28208001_0083",
      "year": "2026",
      "volcano": null,
      "psn": "N3136 E13039",
      "issued": "20260713",
      "text": "FVFE01 RJTD 130254\nVA ADVISORY\nDTG: 20260713/0254Z\nVAAC: TOKYO\nVOLCANO: SAKURAJIMA (AIRA CALDERA) 282080\nPSN: N3136 E13039\nAREA: JAPAN\nSOURCE ELEV: 1117M AMSL\nADVISORY NR: 2026/83\nINFO SOURCE: JMA HIMAWARI-9\nERUPTION DETAILS: ERUPTED AT 20260713/0152Z FL100 EXTD N\nOBS VA DTG: 13/0230Z\nOBS VA CLD: SFC/FL100 N3136 E13039 - N3142 E13040 - N3141 E13044 - \nN3134 E13042 MOV NE 15KT\nFCST VA CLD +6 HR: 13/0830Z SFC/FL100 N3234 E13121 - N3145 E13155 - \nN3202 E13110 - N3227 E13051\nFCST VA CLD +12 HR: 13/1430Z SFC/FL100 N3318 E13206 - N3142 E13317 - \nN3134 E13226 - N3312 E13118\nFCST VA CLD +18 HR: NO VA EXP\nRMK: NIL\nNXT ADVISORY: 20260713/0600Z=",
      "img_url": "https://ds.data.jma.go.jp/svd/vaac/data/VAGFN/2026/Images/20260713_28208001_0083_QH21_01.png",
      "sat_img_url": "https://ds.data.jma.go.jp/svd/vaac/data/Sat/2026/Images/28208001/09-ir/20260713_0230_202607130254_ir.png",
      "text_url": "https://ds.data.jma.go.jp/svd/vaac/data/TextData/2026/20260713_28208001_0083_Text.html"
    },
    {
      "id": "20260712_27307000_0012",
      "year": "2026",
      "volcano": "Taal",
      "psn": "N1400 E12100",
      "issued": "20260712",
      "text": "FVFE01 RJTD 121243\nVA ADVISORY\nDTG: 20260712/1243Z\nVAAC: TOKYO\nVOLCANO: TAAL 273070\nPSN: N1400 E12100\nAREA: PHILIPPINES\nSOURCE ELEV: 311M AMSL\nADVISORY NR: 2026/12\nINFO SOURCE: HIMAWARI-9 PHIVOLCS\nERUPTION DETAILS: ERUPTION AT 20260712/1227Z FL050 EXTD NE REPORTED\nOBS VA DTG: 12/1230Z\nOBS VA CLD: VA NOT IDENTIFIABLE FM SATELLITE DATA WIND FL050 230/19KT\nFCST VA CLD +6 HR: NOT AVBL\nFCST VA CLD +12 HR: NOT AVBL\nFCST VA CLD +18 HR: NOT AVBL\nRMK: WE WILL ISSUE FURTHER ADVISORY IF VA IS DETECTED IN SATELLITE \nIMAGERY.\nNXT ADVISORY: NO FURTHER ADVISORIES=",
      "img_url": "https://ds.data.jma.go.jp/svd/vaac/data/VAGFN/2026/Images/20260712_27307000_0012_QH21_01.png",
      "sat_img_url": null,
      "text_url": "https://ds.data.jma.go.jp/svd/vaac/data/TextData/2026/20260712_27307000_0012_Text.html"
    },
    {
      "id": "20260712_30019000_0003",
      "year": "2026",
      "volcano": "Krasheninnikov",
      "psn": "N5436 E16016",
      "issued": "20260712",
      "text": "FVFE01 RJTD 120130\nVA ADVISORY\nDTG: 20260712/0130Z\nVAAC: TOKYO\nVOLCANO: KRASHENINNIKOV 300190\nPSN: N5436 E16016\nAREA: RUSSIA\nSOURCE ELEV: 1816M AMSL\nADVISORY NR: 2026/3\nINFO SOURCE: HIMAWARI-9\nERUPTION DETAILS: VA AT 20260712/0100Z FL080 EXTD SE\nOBS VA DTG: 12/0100Z\nOBS VA CLD: SFC/FL080 N5440 E16023 - N5412 E16045 - N5402 E16033 - \nN5434 E16013 MOV SE 20KT\nFCST VA CLD +6 HR: 12/0700Z SFC/FL080 N5310 E16258 - N5251 E16229 - \nN5302 E16111 - N5436 E16016\nFCST VA CLD +12 HR: 12/1300Z SFC/FL090 N5233 E16425 - N5158 E16444 - \nN5210 E16103 - N5446 E16008 - N5251 E16216\nFCST VA CLD +18 HR: 12/1900Z SFC/FL090 N5142 E16614 - N5044 E16548 - \nN5213 E15943 - N5432 E15924 - N5448 E16118 - N5223 E16227\nRMK: NIL\nNXT ADVISORY: 20260712/0600Z=",
      "img_url": "https://ds.data.jma.go.jp/svd/vaac/data/VAGFN/2026/Images/20260712_30019000_0003_QH21_01.png",
      "sat_img_url": "https://ds.data.jma.go.jp/svd/vaac/data/Sat/2026/Images/30019000/09-ir/20260712_0100_202607120130_ir.png",
      "text_url": "https://ds.data.jma.go.jp/svd/vaac/data/TextData/2026/20260712_30019000_0003_Text.html"
    }
  ],
  "vaac_alaska": [
    {
      "text": "\n000\nFVAK21 PAWU 111230\nVAAAK1\nVA ADVISORY\n\nDTG: 20260711/1224Z\n\nVAAC: ANCHORAGE\n\nVOLCANO: SHEVELUCH 300270\n\nPSN: N5639 E16122\n\nAREA: KAMCHATKA PENINSULA\n\nSOURCE ELEV: 10771 FT AMSL\n\nADVISORY NR: 2026/193\n\nRMK: PLEASE SEE FVXX2 KNES ISSUED BY VAAC WASHINGTON WHICH DESCRIBES\nCONDITIONS NEAR THE VAAC ANCHORAGE AREA OF RESPONSIBILITY...CC\n\n\n\n",
      "issued": "2026-07-11T12:30:00+00:00",
      "volcano": "Sheveluch",
      "psn": "N5639 E16122"
    }
  ]
}