{
  "updated_utc": "2026-07-18T17:51Z",
  "metar": {
    "RJAA": "METAR RJAA 181600Z AUTO 15003KT 9999 BKN042 BKN046 23/23 Q1008 NOSIG",
    "PANC": "METAR PANC 181553Z 24003KT 10SM -RA OVC017 09/08 A3001 RMK AO2 SLP162 P0001 T00940083",
    "PAFA": "METAR PAFA 181553Z 06004KT 10SM FEW010 FEW065 SCT080 12/09 A2991 RMK AO2 SLP133 VIRGA VC S T01220094 $",
    "PAED": "METAR PAED 181555Z 21003KT 10SM -RA SCT007 BKN015 BKN042 11/09 A2999 RMK AO2A SLP152 P0000 T01070090 $",
    "KSEA": "METAR KSEA 181553Z 20008KT 10SM OVC008 15/12 A3016 RMK AO2 SLP218 T01500122 $",
    "ZSPD": "METAR ZSPD 181600Z 26002MPS CAVOK 27/24 Q1002 NOSIG",
    "ZSSS": "METAR ZSSS 181600Z 12002MPS 090V150 9999 -SHRA NSC 27/25 Q1002 NOSIG",
    "RJFR": "METAR RJFR 181600Z AUTO 33006KT 9999 SCT050 28/26 Q1004",
    "VHHH": "METAR VHHH 181600Z 20008KT 9999 FEW010 SCT025 29/26 Q1006 NOSIG",
    "RCTP": "METAR RCTP 181600Z 21009KT 180V240 9999 FEW020 SCT200 27/23 Q1006 NOSIG RMK A2971",
    "ZGSZ": "METAR ZGSZ 181600Z 16004MPS CAVOK 28/27 Q1006 NOSIG",
    "WSSS": "METAR WSSS 181600Z 33003KT 9999 FEW016 SCT150 BKN300 27/24 Q1012 NOSIG",
    "WMKK": "METAR WMKK 181600Z 00000KT 9999 FEW030 26/24 Q1012 NOSIG",
    "WIDD": "METAR WIDD 181600Z VRB02KT 9999 FEW014 27/26 Q1012 NOSIG",
    "VTBS": "METAR VTBS 181600Z 21008KT 9999 FEW020 30/25 Q1009 NOSIG",
    "VTBU": "METAR VTBU 181600Z 21006KT 9000 FEW020 29/28 Q1010 NOSIG",
    "ROAH": "METAR ROAH 181600Z AUTO 20007KT 9000 BKN005 OVC007 28/27 Q1006",
    "VVDN": "METAR VVDN 181600Z 21003KT 180V250 9999 FEW020 30/24 Q1007 NOSIG",
    "RCKH": "METAR RCKH 181600Z 05002KT 9999 FEW015 SCT020 27/25 Q1008 NOSIG RMK A2977",
    "KLAX": "METAR KLAX 181553Z 00000KT 10SM SCT019 SCT120 24/18 A3001 RMK AO2 SLP159 T02390178 $",
    "KONT": "METAR KONT 181553Z 00000KT 10SM FEW200 24/17 A3002 RMK AO2 SLP150 T02390167 $",
    "KSFO": "METAR KSFO 181556Z VRB03KT 10SM FEW012 BKN016 16/12 A3006 RMK AO2 SLP177 T01560117 $",
    "KOAK": "METAR KOAK 181553Z 15005KT 10SM FEW008 BKN012 16/12 A3006 RMK AO2 SLP179 T01560117",
    "KMHR": "METAR KMHR 181555Z AUTO 20006KT 10SM CLR 18/12 A3000 RMK AO2 T01750122 $",
    "KDFW": "METAR KDFW 181553Z 19013G18KT 10SM FEW022 FEW190 BKN250 31/22 A3007 RMK AO2 SLP172 T03060217 $",
    "KIAH": "METAR KIAH 181553Z 18006KT 10SM FEW028 SCT250 31/24 A3012 RMK AO2 SLP198 T03110239 $",
    "KORD": "METAR KORD 181651Z 31010KT 10SM -RA BKN034CB BKN045 OVC080 28/22 A2987 RMK AO2 RAB49 SLP110 CB OHD-E MOV SE P0000 T02830222 $",
    "KJFK": "METAR KJFK 181651Z 06008KT 2 1/2SM TSRA FU SCT015 BKN032CB OVC050 22/21 A2990 RMK AO2 PRESFR SLP125 OCNL LTGICCC OHD TS OHD MOV E FU OVC050 P0023 T02170206 $",
    "KRFD": "METAR KRFD 181554Z 30013KT 10SM OVC031 28/22 A2992 RMK AO2 SLP124 T02830222 $",
    "KIND": "METAR KIND 181554Z 29013KT 10SM SCT035 SCT047 BKN065 31/23 A2995 RMK AO2 SLP134 T03110228 $",
    "KDTW": "METAR KDTW 181553Z 23014KT 7SM SCT040 BKN120 BKN230 31/23 A2978 RMK AO2 SLP079 T03110233 $",
    "KMSP": "METAR KMSP 181553Z 36011G19KT 10SM FEW250 28/17 A3000 RMK AO2 SLP151 T02780167",
    "CYEG": "METAR CYEG 181600Z 15004KT 120V190 15SM FEW013 FEW100 FEW240 22/18 A2982 RMK SC2ACC1CI1 ACC TR CI TR SLP094 DENSITY ALT 3900FT",
    "EHAM": "METAR EHAM 181555Z 33012KT 9999 FEW017 BKN030 18/11 Q1017 NOSIG",
    "EBBR": "METAR EBBR 181620Z 33011KT 290V360 9999 SCT037 BKN049 20/11 Q1017 NOSIG",
    "EDDF": "METAR EDDF 181620Z AUTO 33007KT 260V020 9999 SHRA FEW024 FEW///CB 20/16 Q1013 TEMPO NSW",
    "EDFH": "METAR EDFH 181620Z 36007KT 9999 FEW045CB 18/16 Q1016",
    "EDDL": "METAR EDDL 181620Z AUTO 30010KT 260V340 9999 FEW042 SCT048 22/11 Q1015 NOSIG",
    "EDDK": "METAR EDDK 181620Z AUTO 31016KT 9999 FEW046 23/12 Q1015 BECMG 31010KT",
    "EBLG": "METAR EBLG 181620Z 32010KT 290V350 9999 FEW035 SCT048 21/12 Q1017 NOSIG",
    "LSZH": "METAR LSZH 181620Z 15006KT 120V190 9999 -SHRA VCTS FEW050CB BKN065 23/16 Q1015 TEMPO TS",
    "LIMC": "METAR LIMC 181620Z 05005KT 010V100 CAVOK 33/14 Q1009 NOSIG",
    "LIRF": "METAR LIRF 181620Z 27010KT CAVOK 31/24 Q1011 NOSIG",
    "EINN": "METAR EINN 181600Z 34012KT 9999 FEW025 22/11 Q1024 NOSIG",
    "EGLL": "METAR EGLL 181620Z AUTO 01007KT 320V080 9999 NCD 22/09 Q1020",
    "EGSS": "METAR EGSS 181620Z AUTO 36008KT 330V040 9999 BKN040 BKN048 20/10 Q1021",
    "EPWA": "METAR EPWA 181600Z 28014KT 9999 FEW046TCU 25/16 Q1009 NOSIG",
    "UHPP": "METAR UHPP 181600Z 28002MPS 250V340 9999 FEW046 BKN088 21/15 Q1018 R34L/CLRD62 NOSIG RMK QFE760/1014",
    "EFHK": "METAR EFHK 181620Z 13014KT 9999 FEW060TCU 24/15 Q1002 TEMPO FM1700 FEW050CB",
    "LBBG": "METAR LBBG 181600Z AUTO 12011KT 9999 NCD 27/19 Q1012 NOSIG",
    "LTAC": "METAR LTAC 181620Z 06004KT 020V100 9999 FEW040 28/08 Q1013 NOSIG RMK RWY21C 07007KT RWY03L 09005KT 050V130 RWY21R 05006KT RWY03R 06004KT RWY21L 03006KT",
    "UBBB": "METAR UBBB 181600Z 34012KT CAVOK 27/21 Q1009 NOSIG",
    "UTAA": "METAR UTAA 181600Z 28008KT 9999 NSC 37/18 Q1006 R88/CLRD70 NOSIG",
    "UACC": "METAR UACC 181600Z 14002MPS 100V170 CAVOK 27/18 Q1005 NOSIG RMK QFE723/0964",
    "UAAA": "METAR UAAA 181600Z 30004MPS 260V360 9999 SCT200 29/13 Q1007 NOSIG",
    "UZTT": "METAR UZTT 181600Z 19004KT 140V210 CAVOK 36/18 Q1001 NOSIG",
    "ZWWW": "METAR ZWWW 181600Z 18002MPS CAVOK 33/13 Q1007 NOSIG",
    "ZLXY": "METAR ZLXY 181600Z 31002MPS CAVOK 24/19 Q1007 NOSIG",
    "ZBAA": "METAR ZBAA 181600Z 04001MPS CAVOK 22/21 Q1002 NOSIG",
    "ZBHH": "METAR ZBHH 181600Z 05003MPS CAVOK 18/14 Q1009 NOSIG",
    "ZSQD": "METAR ZSQD 181600Z VRB01MPS 9999 FEW053 24/20 Q1003 NOSIG",
    "ZMCK": "METAR ZMCK 181600Z VRB02MPS 9999 FEW033 13/10 Q1004 NOSIG RMK QFE639.4 80 NT",
    "UUEE": "METAR UUEE 181600Z VRB01MPS CAVOK 25/11 Q1015 R06R/CLRD62 R06C/CLRD62 NOSIG",
    "UUDD": "METAR UUDD 181600Z 36002MPS 290V060 CAVOK 24/11 Q1015 R31L/CLRD65 NOSIG",
    "ULLI": "METAR ULLI 181600Z 16006MPS CAVOK 26/11 Q1008 R88/090065 NOSIG",
    "USSS": "METAR USSS 181600Z 04004MPS 9999 SCT020CB 20/20 Q1004 R08R/220050 TEMPO VRB20MPS -TSRAGR SQ RMK QFE733/0977",
    "UNNT": "METAR UNNT 181600Z 00000MPS CAVOK 21/20 Q1004 R25/CLRD// R16/CLRD// NOSIG RMK QFE743/0991",
    "UNKL": "METAR UNKL 181600Z 30002MPS 9999 4000S BR NSC 17/17 Q1001 R11/CLRD// NOSIG RMK QFE726",
    "UIBB": "METAR UIBB 181600Z AUTO 27001MPS 9000 // NCD 14/14 Q1001 RMK QFE708/0944",
    "UEEE": "METAR UEEE 181600Z 01002MPS 9999 BKN022CB 17/16 Q0996 R23/290151 NOSIG RMK QFE739",
    "UHHH": "METAR UHHH 181600Z 21002MPS CAVOK 18/18 Q1005 R23L/090060 NOSIG RMK QFE747/0996",
    "UHSS": "METAR UHSS 181600Z 18002MPS 130V220 7000 -SHRA SCT020CB 20/20 Q1010 RETS RMK MT OBSC QFE756/1008"
  },
  "taf": {
    "RJAA": "TAF RJAA 180505Z 1806/1912 14008KT 9999 FEW020 SCT040",
    "PANC": "TAF PANC 180859Z 1809/1912 21004KT P6SM -SHRA FEW015 SCT045 BKN070 TEMPO 1809/1812 6SM -RA SCT008 BKN025 FM181800 19004KT P6SM VCSH OVC050 FM182000 16008KT 6SM -RA OVC040 FM182300 14012G24KT P6SM VCSH SCT040 OVC070 FM190800 34005KT 6SM -RA OVC060 WS008/12030KT",
    "PAFA": "TAF PAFA 180530Z 1806/1912 22002KT P6SM SCT070 FM190000 18009KT P6SM SCT050 SCT100",
    "PAED": "TAF AMD PAED 180817Z 1808/1911 20006KT 9999 BKN007 BKN012 OVC023 620604 QNH2986INS TEMPO 1805/1810 -RA BKN015 BECMG 1810/1811 VRB06KT 9999 NSW BKN040 620604 QNH2993INS BECMG 1819/1820 32010KT 9000 -RA FEW007 SCT015 OVC050 640703 QNH3002INS BECMG 1902/1903 34012KT 9999 VCSH BKN045 OVC060 QNH3002INS BECMG 1907/1908 36010KT 9000 -RA FEW006 SCT030 BKN045 OVC060 QNH3002INS TX14/1902Z TN10/1812",
    "KSEA": "TAF KSEA 180922Z 1809/1912 24005KT P6SM BKN050 FM181100 20004KT P6SM BKN035 FM181700 24006KT P6SM BKN045 FM182100 29007KT P6SM SCT050 FM190200 01008KT P6SM FEW250 FM191100 36006KT P6SM FEW025",
    "ZSPD": "TAF ZSPD 180918Z 1812/1918 13004MPS 8000 SCT030 TX32/1812Z TX33/1906Z TN28/1821Z BECMG 1820/1821 07004MPS TEMPO 1905/1909 TSRA BKN011 FEW030CB",
    "ZSSS": "TAF ZSSS 180918Z 1812/1918 29004MPS 8000 SCT030 TX34/1812Z TX33/1906Z TN28/1821Z BECMG 1821/1822 20004MPS TEMPO 1904/1908 TSRA BKN011 FEW030CB",
    "RJFR": "TAF RJFR 180505Z 1806/1912 07005KT 9999 FEW025 BECMG 1815/1817 10004KT BECMG 1900/1903 07010KT TEMPO 1909/1912 -TSRA FEW010 FEW020CB BKN030",
    "VHHH": "TAF VHHH 180800Z 1809/1915 20010KT 9999 FEW010 SCT025 TX31/1906Z TN27/1822Z TEMPO 1809/1811 3000 SHRA FEW010CB SCT020 TEMPO 1821/1903 24015G25KT 2500 TSRA SHRA FEW008CB SCT015 TEMPO 1903/1906 3000 SHRA FEW010CB SCT020",
    "RCTP": "TAF RCTP 180500Z 1806/1912 24014KT 9999 FEW010 BKN032 TEMPO 1806/1812 24020KT TEMPO 1812/1818 24009KT TEMPO 1818/1824 24005KT TEMPO 1900/1906 25005KT",
    "ZGSZ": "TAF ZGSZ 180903Z 1812/1918 17004MPS 8000 BKN040 TX29/1812Z TX31/1906Z TN27/1822Z TEMPO 1822/1901 SHRA FEW020CB SCT020 TEMPO 1902/1906 2500 +TSRA SCT010 FEW020CB BKN030",
    "WSSS": "TAF WSSS 180500Z 1806/1912 14009KT 9999 FEW015 SCT020",
    "WMKK": "TAF WMKK 180500Z 1806/1912 VRB03KT 9999 FEW018 PROB40 TEMPO 1806/1810 5000 TSRA FEW017CB SCT018",
    "VTBS": "TAF VTBS 180500Z 1806/1912 24008KT 9999 FEW020",
    "VTBU": "TAF VTBU 180500Z 1806/1906 24008KT 9999 FEW020 BECMG 1816/1818 36004KT BECMG 1900/1902 24008KT",
    "ROAH": "TAF ROAH 180505Z 1806/1912 20008KT 9999 FEW008 SCT015 TEMPO 1812/1814 FEW005 BKN008 TEMPO 1814/1821 FEW003 BKN005 TEMPO 1821/1900 FEW005 BKN008",
    "VVDN": "TAF VVDN 180500Z 1806/1906 23010KT 9999 FEW020 BECMG 1806/1807 01010KT BECMG 1808/1809 12010KT BECMG 1812/1813 22008KT",
    "RCKH": "TAF RCKH 180500Z 1806/1912 25005KT 9999 FEW010 BKN032 TEMPO 1806/1812 24010KT 4000 SHRA FEW010 BKN017 FEW020CB BECMG 1812/1813 07005KT TEMPO 1813/1818 13005KT 5000 RA FEW010 BKN017 TEMPO 1818/1824 4000 RA FEW010 BKN017 BECMG 1900/1901 24005KT TEMPO 1901/1906 25011KT 3000 SHRA FEW010 BKN014 FEW020CB",
    "KLAX": "TAF KLAX 180900Z 1809/1912 VRB03KT P6SM FEW012 BKN150 FM181000 11007KT P6SM BKN012 BKN150 FM181600 16005KT P6SM SCT015 FM181900 26012KT P6SM FEW025 FM190300 24006KT P6SM FEW015 SCT150 FM190600 VRB03KT P6SM FEW015 SCT150 FM190900 VRB03KT P6SM BKN015",
    "KONT": "TAF KONT 180520Z 1806/1912 25007KT P6SM BKN180 FM180800 VRB04KT P6SM SCT200 FM182000 26010G21KT P6SM SCT150 FM190200 25010KT P6SM FEW200 FM190900 VRB04KT P6SM SKC",
    "KSFO": "TAF KSFO 180848Z 1809/1912 26007KT 6SM BR FEW004 OVC009 FM181800 28015G25KT P6SM SKC FM190300 27012KT P6SM SCT015 FM190600 26007KT P6SM OVC015",
    "KOAK": "TAF KOAK 180520Z 1806/1912 26010KT P6SM SCT008 OVC010 FM180800 26010KT 6SM BR OVC008 FM181800 28010KT P6SM FEW005 SCT010 FM182000 30015KT P6SM SKC FM190300 29012KT P6SM SCT015 FM190600 29006KT P6SM OVC010",
    "KMHR": "TAF KMHR 180520Z 1806/1906 17008KT P6SM SKC FM181800 22006KT P6SM SKC",
    "KDFW": "TAF KDFW 180853Z 1809/1912 18011KT P6SM FEW060 FM181200 18012KT P6SM SCT025 TEMPO 1813/1815 BKN020 FM181600 18016KT P6SM SCT060 FM190200 18007KT P6SM FEW250",
    "KIAH": "TAF KIAH 180835Z 1809/1912 17006KT P6SM FEW020 SCT250 FM181500 20007KT P6SM SCT020 BKN035 FM181900 17008KT P6SM SCT045 SCT250 FM190400 19004KT P6SM FEW020 SCT250",
    "KORD": "TAF KORD 180845Z 1809/1912 24010KT P6SM SKC FM181300 27013G22KT P6SM SCT050 BKN250 FM181800 33012KT P6SM VCTS BKN050CB TEMPO 1818/1820 01020G30KT 1SM TSRA BR BKN020 OVC050CB FM182000 06011G17KT P6SM FEW015 SCT035 FM190100 03012G18KT 5SM FU SCT015",
    "KJFK": "TAF KJFK 180831Z 1809/1912 17004KT 4SM FU BKN250 FM181300 20010KT 4SM FU OVC150 FM181500 19012KT 4SM FU VCSH SCT015 OVC070 TEMPO 1815/1818 3SM SHRA BKN015 OVC070 FM181800 19014KT P6SM VCSH SCT015 OVC070 TEMPO 1819/1823 2SM TSRA BR BKN015 OVC050CB FM182300 20014G22KT 5SM -SHRA BKN015 OVC050 TEMPO 1823/1903 2SM TSRA BR BKN009 OVC050CB FM190300 24012KT 4SM SHRA BKN025 OVC050 FM190700 28012KT P6SM SCT040 BKN100",
    "KRFD": "TAF KRFD 180845Z 1809/1906 20006KT P6SM SCT250 FM181300 28013G22KT P6SM SCT050 BKN250 FM181900 33011KT P6SM SCT035 FM182200 01011KT P6SM SCT040 FM190400 01010KT 5SM FU SCT035",
    "KIND": "TAF KIND 180520Z 1806/1912 23007KT P6SM FEW040 SCT180 FM181500 27013KT P6SM VCSH SCT050 PROB30 1821/1903 VRB15G25KT 5SM -TSRA BKN030CB FM190300 34007KT P6SM VCSH BKN150",
    "KDTW": "TAF KDTW 180921Z 1809/1912 22008KT P6SM BKN007 FM181500 26016G23KT P6SM SCT030 BKN050 OVC120 TEMPO 1817/1820 2SM TSRA OVC030CB FM182100 32014G22KT P6SM SCT045 BKN060 FM190100 02010KT P6SM BKN200",
    "KMSP": "TAF KMSP 180834Z 1809/1912 35011KT P6SM FEW250 FM181300 36007KT P6SM SKC",
    "CYEG": "TAF CYEG 180841Z 1809/1906 12010KT P6SM SKC FM181500 13005KT P6SM FEW020 FM181800 27006KT P6SM FEW050 TEMPO 1823/1901 VRB25G40KT P6SM VCTS BKN050CB FM190100 25008KT P6SM SCT050 PROB30 1901/1904 VRB25G40KT 1SM +TSRA BR FEW020 BKN040CB FM190400 25008KT P6SM FEW100 RMK NXT FCST BY 181200Z",
    "EHAM": "TAF EHAM 180458Z 1806/1912 31010KT 9999 SCT025 PROB30 TEMPO 1819/1824 7000 -SHRA FEW020TCU",
    "EBBR": "TAF EBBR 180507Z 1806/1912 32006KT 9999 SCT020 SCT040",
    "EDDF": "TAF AMD EDDF 180633Z 1806/1912 29009KT 9999 SCT025 PROB30 TEMPO 1815/1820 30015G25KT TSRA BKN045CB BECMG 1819/1822 35004KT PROB30 TEMPO 1901/1904 SHRA BKN035CB BECMG 1906/1908 30009KT",
    "EDFH": "TAF EDFH 180500Z 1806/1906 30006KT CAVOK PROB30 TEMPO 1814/1818 30015G25KT TSRA BKN050CB PROB30 TEMPO 1900/1902 35015G25KT TSRA BKN030CB",
    "EDDL": "TAF EDDL 180500Z 1806/1912 28007KT 9999 SCT040 PROB30 TEMPO 1806/1808 BKN014 BECMG 1809/1812 30012KT BECMG 1818/1821 29006KT BECMG 1906/1909 30011KT",
    "EDDK": "TAF EDDK 180500Z 1806/1912 30007KT 9999 FEW025 BECMG 1810/1813 31012KT BECMG 1818/1821 31006KT BECMG 1906/1909 31011KT",
    "EBLG": "TAF EBLG 180507Z 1806/1912 32008KT 9999 SCT020 SCT040",
    "LSZH": "TAF LSZH 180825Z 1809/1915 25005KT 9999 FEW040 TX26/1814Z TN15/1904Z TX23/1914Z BECMG 1809/1811 27010KT SCT060TCU PROB40 TEMPO 1812/1817 30015G25KT TSRA FEW060CB BECMG 1818/1820 VRB02KT SCT060 BECMG 1820/1822 CAVOK BECMG 1905/1908 9999 SCT040 PROB40 TEMPO 1907/1915 SHRA SCT050TCU BECMG 1908/1911 29010KT PROB30 TEMPO 1911/1915 32015G25KT TSRA SCT050CB",
    "LIMC": "TAF LIMC 180500Z 1806/1912 02005KT 9999 FEW040 BECMG 1812/1814 22010KT PROB30 TEMPO 1812/1817 4000 TSRA BECMG 1817/1819 VRB05KT",
    "LIRF": "TAF LIRF 180500Z 1806/1912 VRB05KT CAVOK BECMG 1809/1811 27012KT BECMG 1818/1820 VRB05KT BECMG 1910/1912 24010KT",
    "EINN": "TAF EINN 180500Z 1806/1906 36010KT 9999 FEW030",
    "EGLL": "TAF EGLL 180500Z 1806/1912 04010KT 9999 FEW030 PROB40 TEMPO 1900/1908 34006KT",
    "EGSS": "TAF EGSS 180500Z 1806/1912 03006KT 9999 SCT035 BECMG 1823/1902 33010KT BECMG 1906/1909 03010KT",
    "EPWA": "TAF EPWA 180830Z 1809/1909 20008KT 9999 SCT020 BECMG 1809/1812 27012KT TEMPO 1810/1821 -SHRA SCT040CB PROB40 TEMPO 1811/1819 27015G25KT 2000 TSRA BKN030CB BECMG 1817/1819 VRB02KT",
    "UHPP": "TAF UHPP 180730Z 1809/1915 33005G12MPS 9999 SCT040CB TX28/1903Z TN18/1816Z",
    "EFHK": "TAF EFHK 180836Z 1809/1909 15009KT CAVOK PROB40 TEMPO 1809/1816 FEW050CB TEMPO 1816/1824 21013G23KT 4000 TSRA BKN012 BKN030CB BECMG 1900/1902 22010KT 7000 -DZ BKN007 BECMG 1904/1906 29009KT 9999 BKN011 FEW035TCU BECMG 1907/1909 BKN015",
    "LBBG": "TAF LBBG 180500Z 1806/1906 VRB03KT 9999 SCT045 BECMG 1807/1809 12012KT BECMG 1818/1820 VRB03KT",
    "LTAC": "TAF LTAC 180440Z 1806/1906 04009KT CAVOK BECMG 1806/1809 SCT040 SCT100 BECMG 1818/1820 CAVOK",
    "UBBB": "TAF UBBB 181052Z 1812/1912 34016KT CAVOK TX30/1812Z TN25/1901Z TEMPO 1812/1818 02014KT FEW050CB PROB40 TEMPO 1818/1824 TS SCT040CB TEMPO 1900/1906 SCT012 FEW050CB",
    "UTAA": "TAF UTAA 180445Z 1806/1906 01016KT 6000 SCT050 TX42/1812Z TEMPO 1806/1812 31014G24KT 4000 DRDU BECMG 1816/1818 27014KT",
    "UACC": "TAF UACC 180500Z 1806/1906 24006MPS 9999 SCT040CB BKN100 TX35/1809Z TN20/1900Z TEMPO 1806/1814 28008G13MPS -TSRA BKN030CB BECMG 1814/1816 VRB01MPS TEMPO 1814/1818 10006MPS -TSRA BKN020CB TEMPO 1821/1904 14003MPS -TSRA BKN030CB BECMG 1904/1906 24006MPS",
    "UAAA": "TAF UAAA 180505Z 1806/1906 02005MPS 9999 FEW050 SCT100 TX41/1810Z TN22/1900Z TEMPO 1806/1815 07006G11MPS 5000 BLDU BECMG 1815/1816 17002MPS TEMPO 1902/1906 32005MPS",
    "UZTT": "TAF UZTT 180500Z 1806/1906 22010KT 7000 NSC TX45/1811Z TN27/1900Z TEMPO 1806/1816 32015KT",
    "ZWWW": "TAF ZWWW 180905Z 1812/1918 36004G10MPS CAVOK TX38/1909Z TN28/1823Z TN30/1918Z BECMG 1815/1816 18004MPS BECMG 1902/1903 36004MPS BECMG 1913/1914 18004MPS",
    "ZLXY": "TAF ZLXY 180907Z 1812/1912 24003MPS 6000 NSC TX35/1908Z TN22/1821Z",
    "ZBAA": "TAF ZBAA 180901Z 1812/1918 18004MPS CAVOK TX31/1906Z TN21/1821Z TN23/1918Z",
    "ZBHH": "TAF ZBHH 180903Z 1812/1912 36004MPS CAVOK TX30/1908Z TN15/1822Z TEMPO 1909/1912 VRB08G13MPS -TSRA FEW040CB FEW040",
    "ZSQD": "TAF ZSQD 180901Z 1812/1912 16003MPS 3500 BR NSC TX30/1906Z TN21/1820Z",
    "ZMCK": "TAF ZMCK 181044Z 1812/1918 VRB02MPS 9999 FEW030CB SCT033 TN12/1821Z TX24/1907Z PROB40 TEMPO 1812/1816 VRB09G14MPS TSRA SCT027CB SCT030 BECMG 1900/1902 32005MPS PROB40 TEMPO 1905/1912 VRB09G14MPS TSRA SCT027CB SCT030 BECMG 1911/1913 VRB02MPS",
    "UUEE": "TAF UUEE 180754Z 1809/1909 04003MPS CAVOK TX26/1812Z TN15/1902Z TEMPO 1903/1909 21005MPS",
    "UUDD": "TAF UUDD 180753Z 1809/1915 03003MPS 9999 SCT040 TX28/1912Z TN10/1901Z BECMG 1906/1908 20005MPS",
    "ULLI": "TAF ULLI 180754Z 1809/1909 18006G12MPS 9999 SCT020",
    "USSS": "TAF USSS 180746Z 1809/1909 06003G14MPS 6000 -SHRA BKN016CB TEMPO 1809/1909 VRB20MPS -TSRAGR SQ BKN004 BKN011CB",
    "UNNT": "TAF UNNT 180800Z 1809/1909 32003G08MPS 8000 SCT040 TX28/1809Z TN16/1822Z TEMPO 1809/1819 22008G18MPS -TSRA BKN020CB TEMPO 1819/1902 0300 FG BKN001 TEMPO 1902/1909 02006G13MPS -TSRA BKN020CB",
    "UNKL": "TAF UNKL 180750Z 1809/1909 27003MPS 8000 -SHRA SCT017CB TEMPO 1809/1812 27008G16MPS -TSRA BKN010 BKN016CB TEMPO 1812/1815 -TSRA",
    "UIBB": "TAF UIBB 180800Z 1809/1909 18002G08MPS 9999 BKN020CB TEMPO 1809/1815 VRB07MPS -TSRA BECMG 1815/1816 28005MPS",
    "UEEE": "TAF COR UEEE 180800Z 1809/1915 18003G10MPS 9999 BKN017CB OVC070 TEMPO 1809/1818 VRB16MPS 1000 TSRA SCT005 BKN020CB OVC070",
    "UHHH": "TAF UHHH 180745Z 1809/1915 24003MPS CAVOK TX30/1904Z TN18/1818Z FM190000 28003MPS 9999 SCT020CB",
    "UHSS": "TAF UHSS 180750Z 1809/1915 18003MPS 9999 BKN016CB"
  },
  "atis": {},
  "windtemp_alaska": "\n000\nFBAK31 KWNO 181359\nFD1AK1\nDATA BASED ON 181200Z    \nVALID 181800Z   FOR USE 1400-2100Z. TEMPS NEG ABV 24000\n\nFT  3000    6000    9000   12000   18000   24000  30000  34000  39000\nADK 3318 3323+03 3329-02 3233-07 3350-18 3377-26 840936 841845 841349\nADQ 1725 1928+02 2128-03 2239-08 2148-15 2156-27 226741 227149 225254\nAKN 1633 1726+00 1727-05 1620-08 1923-19 2047-30 208244 218649 204146\nANC 1608 1519+00 1520-06 1717-10 2335-17 2353-27 236942 237350 234950\nANN 3213 3110+05 3014+03 2915-01 3018-15 3231-27 335442 334749 302249\nBET 1314 1011-02 0914-07 1113-11 1617-22 1824-34 193246 182643 181641\nBRW 0820 0921+02 0823-03 0818-09 0922-20 1126-31 083148 093148 102141\nBTI 0606 9900+04 2205-01 1909-06 1621-18 1533-29 165342 165750 163347\nBTT 9900 9900+02 9900-04 1705-10 1614-24 1813-35 201946 171843 161740\nCDB 1917 2015-02 2020-05 2025-09 2027-21 2041-32 205240 204040 212640\nCZF 0408 0309+00 0512-06 0516-12 0513-24 0505-36 990047 040542 050839\nEHM 1023 1219-02 1319-04 1421-10 1631-22 1743-34 184745 183341 181940\nFAI 1908 1509+02 1512-04 1411-10 1614-22 2320-31 233746 233546 202342\nFYU 2709 2305+03 9900-03 9900-08 1718-21 1637-34 154046 172944 172242\nGAL 1711 1713+00 1713-06 1713-13 1819-24 1925-34 202847 192044 171440\nGKN 1714 1818+01 1818-05 1916-09 2223-18 2441-26 256143 257050 243348\nHOM 1516 1717-01 1918-05 2122-08 2238-16 2352-27 226941 227050 225653\nJNU 2407 2806+01 2714+02 2616-02 2822-15 3139-27 315441 315551 291948\nLUR 0816 0714+02 0616-03 0621-09 0629-21 0539-32 045346 053948 052041\nMCG 1408 1508-01 1212-06 1314-12 1919-21 2236-33 213848 213445 202341\nMDO 2011 1910-01 2017-03 2326-05 2440-16 2438-26 244341 244850 244655\nOME 1210 1208+01 0705-05 0308-12 0515-24 0520-36 052145 051341 050939\nORT      2808+03 2308-03 2210-08 2217-18 2627-29 276043 285849 242546\nOTZ 1216 1216+00 1018-05 0819-10 0721-24 0627-36 063045 062342 071439\nSNP 3627 0126-03 0128-07 3630-12 3630-23 3529-34 353545 353641 353239\nTKA 9900 1512+00 1615-06 1816-11 1921-20 2240-28 237043 237749 223646\nUNK 1810 1916+00 1913-06 1709-12 1709-25 2019-36 212546 181142 150939\nYAK 2405 2506+01 2609-03 2614-04 2726-15 2939-26 284341 284750 283753\nIKO 3340 3336-02 3341-06 3341-11 3235-22 3229-34 323143 323638 323139\nAFM 1410 1414+00 1416-05 1418-11 1220-25 1220-36 121846 121442 121139\n5AB 2610 3119+09 3225+05 3336+01 3350-11 3356-18 336732 337842 338353\n5AC 3218 3121+07 3121+04 3124+00 3035-12 3037-24 312740 323750 323558\n5AD 2114 2420+05 2524+02 2528-02 2523-13 2428-24 243440 253049 232259\n5AE 1830 2037+04 2039-01 2044-06 2149-14 2155-25 216841 217349 216454\n5AF 3014 3015+05 2916+02 2918-03 3030-13 2929-25 292740 303050 303757\n5AG 2613 2711+02 2616-01 2722-04 2730-14 2736-26 263740 263949 263956\n",
  "vaac_active": [],
  "vaac_tokyo": [
    {
      "id": "20260718_30027000_0268",
      "year": "2026",
      "volcano": "Sheveluch",
      "psn": "N5639 E16122",
      "issued": "20260718",
      "text": "FVFE01 RJTD 180000\nVA ADVISORY\nDTG: 20260718/0000Z\nVAAC: TOKYO\nVOLCANO: SHEVELUCH 300270\nPSN: N5639 E16122\nAREA: RUSSIA\nSOURCE ELEV: 3283M AMSL\nADVISORY NR: 2026/268\nINFO SOURCE: KVERT HIMAWARI-9\nERUPTION DETAILS: VA CONTINUOUSLY OBS IN SATELLITE IMAGERY\nOBS VA DTG: 17/2320Z\nOBS VA CLD: SFC/FL290 N5601 E16322 - N5605 E16357 - N5546 E16401 - \nN5544 E16326 MOV SE 25KT\nFCST VA CLD +6 HR: 18/0520Z SFC/FL300 N5529 E16617 - N5404 E16714 - \nN5357 E16639 - N5527 E16530\nFCST VA CLD +12 HR: 18/1120Z SFC/FL300 N5352 E17006 - N5152 E17037 - \nN5152 E16936 - N5344 E16817\nFCST VA CLD +18 HR: NO VA EXP\nRMK: SOME PART OF VA OBSCURED BY MET CLOUD.\nNXT ADVISORY: 20260718/0600Z=",
      "img_url": "https://ds.data.jma.go.jp/svd/vaac/data/VAGFN/2026/Images/20260718_30027000_0268_QH21_01.png",
      "sat_img_url": "https://ds.data.jma.go.jp/svd/vaac/data/Sat/2026/Images/30027000/09-ir/20260717_2320_202607180000_ir.png",
      "text_url": "https://ds.data.jma.go.jp/svd/vaac/data/TextData/2026/20260718_30027000_0268_Text.html"
    },
    {
      "id": "20260717_27303000_0761",
      "year": "2026",
      "volcano": "Mayon",
      "psn": "N1315 E12341",
      "issued": "20260717",
      "text": "FVFE01 RJTD 172222\nVA ADVISORY\nDTG: 20260717/2222Z\nVAAC: TOKYO\nVOLCANO: MAYON 273030\nPSN: N1315 E12341\nAREA: PHILIPPINES\nSOURCE ELEV: 2462M AMSL\nADVISORY NR: 2026/761\nINFO SOURCE: HIMAWARI-9 PHIVOLCS\nERUPTION DETAILS: ERUPTION AT 20260717/2208Z FL100 EXTD SSE REPORTED\nOBS VA DTG: 17/2210Z\nOBS VA CLD: VA NOT IDENTIFIABLE FM SATELLITE DATA WIND FL100 360/6KT\nFCST VA CLD +6 HR: NOT AVBL\nFCST VA CLD +12 HR: NOT AVBL\nFCST VA CLD +18 HR: NOT AVBL\nRMK: WE WILL ISSUE FURTHER ADVISORY IF VA IS DETECTED IN SATELLITE \nIMAGERY.\nNXT ADVISORY: NO FURTHER ADVISORIES=",
      "img_url": "https://ds.data.jma.go.jp/svd/vaac/data/VAGFN/2026/Images/20260717_27303000_0761_QH21_01.png",
      "sat_img_url": null,
      "text_url": "https://ds.data.jma.go.jp/svd/vaac/data/TextData/2026/20260717_27303000_0761_Text.html"
    },
    {
      "id": "20260717_27307000_0014",
      "year": "2026",
      "volcano": "Taal",
      "psn": "N1400 E12100",
      "issued": "20260717",
      "text": "FVFE01 RJTD 171113\nVA ADVISORY\nDTG: 20260717/1113Z\nVAAC: TOKYO\nVOLCANO: TAAL 273070\nPSN: N1400 E12100\nAREA: PHILIPPINES\nSOURCE ELEV: 311M AMSL\nADVISORY NR: 2026/14\nINFO SOURCE: HIMAWARI-9 PHIVOLCS\nERUPTION DETAILS: ERUPTION AT 20260717/1051Z FL040 EXTD E REPORTED\nOBS VA DTG: 17/1100Z\nOBS VA CLD: VA NOT IDENTIFIABLE FM SATELLITE DATA WIND FL040 270/8KT\nFCST VA CLD +6 HR: NOT AVBL\nFCST VA CLD +12 HR: NOT AVBL\nFCST VA CLD +18 HR: NOT AVBL\nRMK: WE WILL ISSUE FURTHER ADVISORY IF VA IS DETECTED IN SATELLITE \nIMAGERY.\nNXT ADVISORY: NO FURTHER ADVISORIES=",
      "img_url": "https://ds.data.jma.go.jp/svd/vaac/data/VAGFN/2026/Images/20260717_27307000_0014_QH21_01.png",
      "sat_img_url": null,
      "text_url": "https://ds.data.jma.go.jp/svd/vaac/data/TextData/2026/20260717_27307000_0014_Text.html"
    },
    {
      "id": "20260713_28208001_0083",
      "year": "2026",
      "volcano": null,
      "psn": "N3136 E13039",
      "issued": "20260713",
      "text": "FVFE01 RJTD 130254\nVA ADVISORY\nDTG: 20260713/0254Z\nVAAC: TOKYO\nVOLCANO: SAKURAJIMA (AIRA CALDERA) 282080\nPSN: N3136 E13039\nAREA: JAPAN\nSOURCE ELEV: 1117M AMSL\nADVISORY NR: 2026/83\nINFO SOURCE: JMA HIMAWARI-9\nERUPTION DETAILS: ERUPTED AT 20260713/0152Z FL100 EXTD N\nOBS VA DTG: 13/0230Z\nOBS VA CLD: SFC/FL100 N3136 E13039 - N3142 E13040 - N3141 E13044 - \nN3134 E13042 MOV NE 15KT\nFCST VA CLD +6 HR: 13/0830Z SFC/FL100 N3234 E13121 - N3145 E13155 - \nN3202 E13110 - N3227 E13051\nFCST VA CLD +12 HR: 13/1430Z SFC/FL100 N3318 E13206 - N3142 E13317 - \nN3134 E13226 - N3312 E13118\nFCST VA CLD +18 HR: NO VA EXP\nRMK: NIL\nNXT ADVISORY: 20260713/0600Z=",
      "img_url": "https://ds.data.jma.go.jp/svd/vaac/data/VAGFN/2026/Images/20260713_28208001_0083_QH21_01.png",
      "sat_img_url": "https://ds.data.jma.go.jp/svd/vaac/data/Sat/2026/Images/28208001/09-ir/20260713_0230_202607130254_ir.png",
      "text_url": "https://ds.data.jma.go.jp/svd/vaac/data/TextData/2026/20260713_28208001_0083_Text.html"
    }
  ],
  "vaac_alaska": [
    {
      "text": "\n000\nFVAK21 PAWU 180008\nVAAAK1\nVA ADVISORY\n\nDTG: 20260718/0000Z\n\nVAAC: ANCHORAGE\n\nVOLCANO: SHEVELUCH 300270\n\nPSN: N5639 E16122\n\nAREA: KAMCHATKA PENINSULA\n\nSOURCE ELEV: 10771 FT AMSL\n\nADVISORY NR: 2026/205\n\nRMK: PLEASE SEE FVFE01 RJTD ISSUED BY VAAC TOKYO WHICH DESCRIBES\nCONDITIONS NEAR THE VAAC ANCHORAGE AREA OF RESPONSIBILITY...BS\n\n\n\n",
      "issued": "2026-07-18T00:08:00+00:00",
      "volcano": "Sheveluch",
      "psn": "N5639 E16122"
    }
  ]
}