{
  "updated_utc": "2026-07-03T18:17Z",
  "metar": {
    "RJAA": "METAR RJAA 031630Z AUTO 07003KT 040V120 4300 BR BKN004 OVC007 20/18 Q1013 TEMPO 3000 BR",
    "PANC": "METAR PANC 031653Z 26006KT 10SM FEW035 BKN065 BKN120 12/08 A2985 RMK AO2 SLP110 T01170078",
    "PAFA": "METAR PAFA 031653Z 00000KT 10SM FEW060 FEW100 SCT200 15/08 A2971 RMK AO2 SLP064 T01500083 $",
    "PAED": "METAR PAED 031655Z 27008KT 10SM VCSH BKN035 OVC065 13/08 A2983 RMK AO2A SLP097 T01270076 $",
    "KSEA": "METAR KSEA 031653Z VRB05KT 10SM FEW020 BKN033 OVC060 17/12 A3013 RMK AO2 SLP208 T01670117 $",
    "ZSPD": "METAR ZSPD 031630Z 27003MPS 220V290 CAVOK 26/26 Q1009 NOSIG",
    "ZSSS": "METAR ZSSS 031630Z 19003MPS CAVOK 26/24 Q1009 NOSIG",
    "RJFR": "METAR RJFR 031700Z AUTO 17005KT 9999 NSC 24/21 Q1010",
    "VHHH": "SPECI VHHH 031624Z 12018KT 9999 TSRA FEW010CB SCT025 29/25 Q1009 WS R07C TEMPO 13020G30KT 3000 SHRA FEW010CB SCT020",
    "RCTP": "METAR RCTP 031630Z 24005KT 9999 FEW018 SCT150 BKN200 28/25 Q1012 NOSIG RMK A2991",
    "ZGSZ": "METAR ZGSZ 031700Z 10006MPS 8000 -TSRA FEW026CB BKN050 28/26 Q1009 RESHRA BECMG AT1710 NSW",
    "WSSS": "METAR WSSS 031630Z 11008KT 080V140 9999 FEW018 BKN300 29/25 Q1011 NOSIG",
    "WMKK": "METAR WMKK 031630Z 14003KT 100V200 9000 FEW030 27/24 Q1010 NOSIG",
    "WIDD": "METAR WIDD 031630Z 15005KT 9999 SCT014 28/25 Q1012 NOSIG",
    "VTBS": "METAR VTBS 031630Z 21006KT 9999 FEW020 30/25 Q1008 NOSIG",
    "VTBU": "METAR VTBU 031630Z 23008KT 9999 FEW020 29/27 Q1009 NOSIG",
    "ROAH": "METAR ROAH 031630Z AUTO 21005KT 9999 NCD 27/26 Q1014",
    "VVDN": "METAR VVDN 031630Z 17003KT 9999 -RA FEW017 SCT070 27/26 Q1005 NOSIG",
    "RCKH": "METAR RCKH 031700Z 17008KT 130V210 9999 FEW030 30/23 Q1013 NOSIG RMK A2992",
    "KLAX": "METAR KLAX 031653Z 00000KT 10SM FEW009 BKN019 BKN150 20/14 A3001 RMK AO2 SLP162 BKN019 V SCT T02000144 $",
    "KONT": "METAR KONT 031653Z VRB04KT 10SM FEW300 22/13 A3001 RMK AO2 SLP149 T02170133 $",
    "KSFO": "METAR KSFO 031656Z 06003KT 10SM FEW006 BKN016 17/12 A2999 RMK AO2 SLP156 T01720122 $",
    "KOAK": "METAR KOAK 031653Z 26004KT 10SM FEW007 BKN014 16/13 A3000 RMK AO2 SLP158 T01610128 $",
    "KMHR": "METAR KMHR 031635Z AUTO 22005KT 10SM CLR 20/12 A2995 RMK AO2 T02000121",
    "KDFW": "METAR KDFW 031653Z 21009G17KT 10SM FEW180 SCT250 33/18 A3005 RMK AO2 SLP164 T03330183 $",
    "KIAH": "METAR KIAH 031653Z 22005KT 10SM SCT035 33/23 A3007 RMK AO2 SLP182 T03280228",
    "KORD": "METAR KORD 031651Z VRB06KT 10SM FEW024 FEW050 BKN250 30/24 A3004 RMK AO2 SLP166 CB DSNT W-NW T03000244 $",
    "KJFK": "SPECI KJFK 031621Z 21015G19KT 10SM FEW070 36/22 A2997 RMK WSHFT 1606 T03610217 $",
    "KRFD": "SPECI KRFD 031645Z 26009G20KT 10SM TS SCT020 SCT055CB BKN070 OVC190 27/22 A3008 RMK AO2 TSB40 OCNL LTGIC SW-N TS SW-N MOV NE T02670217",
    "KIND": "METAR KIND 031654Z 24009G14KT 10SM SCT040 SCT300 33/24 A3013 RMK AO2 SLP194 CB DSNT S-SW TCU DSNT S T03280239 $",
    "KDTW": "METAR KDTW 031653Z 24013G22KT 10SM FEW045 SCT220 33/20 A3008 RMK AO2 SLP178 T03280200",
    "KMSP": "METAR KMSP 031653Z 00000KT 10SM BKN130 BKN250 25/20 A2997 RMK AO2 SLP143 T02500200",
    "CYEG": "SPECI CYEG 031652Z 32007KT 20SM FEW014 BKN083 BKN100 16/13 A2989 RMK CF1AC5AC2 CF TR VIRGA PTCHS SLP126 DENSITY ALT 3100FT",
    "EHAM": "METAR EHAM 031625Z 31011KT 270V360 9999 FEW029 18/10 Q1027 NOSIG",
    "EBBR": "METAR EBBR 031620Z 32010KT 290V350 CAVOK 21/08 Q1027 NOSIG",
    "EDDF": "METAR EDDF 031620Z AUTO 29011KT CAVOK 25/08 Q1025 NOSIG",
    "EDFH": "METAR EDFH 031620Z 32009KT 270V010 CAVOK 24/06 Q1026",
    "EDDL": "METAR EDDL 031620Z AUTO 30010KT CAVOK 23/09 Q1025 NOSIG",
    "EDDK": "METAR EDDK 031620Z AUTO 32009KT CAVOK 24/09 Q1026 NOSIG",
    "EBLG": "METAR EBLG 031620Z 29006KT 260V320 CAVOK 23/10 Q1027 NOSIG",
    "LSZH": "METAR LSZH 031620Z 36004KT 300V030 9999 FEW064 27/12 Q1024 NOSIG",
    "LIMC": "METAR LIMC 031620Z 26006KT 150V290 CAVOK 32/10 Q1018 NOSIG",
    "LIRF": "METAR LIRF 031620Z 29016KT CAVOK 29/20 Q1014 NOSIG",
    "EINN": "METAR EINN 031630Z 24015KT 9999 FEW014 BKN033 BKN048 21/16 Q1027 NOSIG",
    "EGLL": "METAR EGLL 031620Z AUTO 24013KT 9999 NCD 26/07 Q1027",
    "EGSS": "METAR EGSS 031620Z AUTO VRB06KT 9999 NCD 26/10 Q1027",
    "EPWA": "METAR EPWA 031630Z 30015KT CAVOK 21/06 Q1016 NOSIG",
    "UHPP": "METAR UHPP 031700Z 15002MPS 130V210 9999 BKN003 BKN020CB 08/08 Q1015 R16R/290162 NOSIG RMK MT OBSC QFE758/1011",
    "EFHK": "METAR EFHK 031620Z 12007KT 9999 VCSH FEW014 SCT016 FEW028TCU 19/15 Q1003 TEMPO FEW030CB",
    "LBBG": "METAR LBBG 031630Z AUTO 27005KT 230V290 9999 NCD 27/19 Q1009 NOSIG",
    "LTAC": "METAR LTAC 031620Z 04012KT 9999 FEW040 SCT100 28/11 Q1010 NOSIG",
    "UBBB": "METAR UBBB 031630Z 17010KT CAVOK 25/20 Q1007 NOSIG",
    "UTAA": "METAR UTAA 031700Z 27006KT 9999 NSC 28/09 Q1008 R88/CLRD70 NOSIG",
    "UACC": "METAR UACC 031630Z 21005MPS 9999 FEW046CB 17/13 Q1004 NOSIG RMK QFE722/0963",
    "UAAA": "METAR UAAA 031630Z 14002MPS 5000 BR SCT100 BKN200 16/16 Q1012 NOSIG",
    "UZTT": "METAR UZTT 031630Z 34008KT 9999 -SHRA SCT066CB 26/15 Q1007 NOSIG",
    "ZWWW": "METAR ZWWW 031630Z 29004MPS 250V310 CAVOK 31/17 Q1006 NOSIG",
    "ZLXY": "METAR ZLXY 031700Z 31001MPS CAVOK 23/19 Q1007 NOSIG",
    "ZBAA": "METAR ZBAA 031630Z 04002MPS CAVOK 25/21 Q0999 NOSIG",
    "ZBHH": "METAR ZBHH 031700Z 16003MPS 9999 SCT040 22/16 Q1006 RETS NOSIG",
    "ZSQD": "METAR ZSQD 031700Z 16004MPS 7000 NSC 23/23 Q1007 NOSIG",
    "ZMCK": "METAR ZMCK 031630Z VRB02MPS 9999 FEW030CB FEW033 15/11 Q1011 NOSIG RMK QFE643.4 80 NT",
    "UUEE": "METAR UUEE 031630Z 36005MPS 320V020 CAVOK 24/12 Q1008 R24L/CLRD62 R24C/CLRD62 NOSIG",
    "UUDD": "METAR UUDD 031630Z 34002MPS CAVOK 25/13 Q1008 R13R/CLRD65 NOSIG",
    "ULLI": "METAR ULLI 031630Z 31001MPS 9999 BKN018CB BKN039 18/15 Q1006 R28R/290050 NOSIG",
    "USSS": "METAR USSS 031630Z 33002MPS 9999 SCT030CB 19/18 Q1004 R26L/220060 R26R/290040 NOSIG RMK QFE733/0977",
    "UNNT": "METAR UNNT 031630Z 04001MPS CAVOK 23/17 Q1006 R07/CLRD// R34/////// NOSIG RMK QFE744/0993",
    "UNKL": "METAR UNKL 031630Z 28001MPS CAVOK 17/15 Q1010 R29/CLRD// NOSIG RMK QFE732",
    "UIBB": "METAR UIBB 031630Z AUTO 06003MPS 9999 // NSC 18/13 Q1011 RMK QFE715/0954",
    "UEEE": "METAR UEEE 031630Z 30002MPS CAVOK 12/06 Q1004 R23/09//55 NOSIG RMK QFE744",
    "UHHH": "METAR UHHH 031630Z 21004MPS CAVOK 22/18 Q1004 R23R/090060 NOSIG RMK QFE746/0995",
    "UHSS": "METAR UHSS 031700Z 16002MPS 1500 0750S FG BKN003 12/11 Q1011 RMK QBB100 MT OBSC QFE757/1010"
  },
  "taf": {
    "RJAA": "TAF RJAA 031705Z 0318/0500 03004KT 6000 FEW005 BKN012 TEMPO 0318/0322 3000 BR FEW001 BKN003 TEMPO 0322/0323 FEW002 BKN005 BECMG 0323/0401 12006KT TEMPO 0323/0401 4000 -RA BR FEW002 BKN005 TEMPO 0401/0403 FEW003 BKN008 TEMPO 0415/0500 FEW001 BKN003",
    "PANC": "TAF PANC 031730Z 0318/0424 22006KT P6SM FEW040 SCT060 BKN120 FM032200 28008G16KT P6SM VCSH SCT040 BKN060 FM040700 18010KT 6SM -SHRA BR SCT025 OVC040 FM041400 18004KT 6SM -SHRA BR OVC025",
    "PAFA": "TAF PAFA 031720Z 0318/0424 VRB03KT P6SM FEW060 FEW200 FM032100 VRB03KT P6SM -SHRA BKN070 PROB30 0400/0404 VRB10G20KT 6SM -TSRA SCT050CB BKN060 FM040400 33003KT P6SM BKN080",
    "PAED": "TAF PAED 031300Z 0313/0419 21010KT 9999 VCSH BKN030 BKN050 OVC070 QNH2978INS BECMG 0316/0317 21006KT 9999 NSW BKN030 OVC045 QNH2980INS BECMG 0403/0404 24009KT 9999 VCSH FEW015 BKN025 OVC050 QNH2987INS BECMG 0407/0408 27010KT 6000 -RA BKN005 BKN010 OVC020 QNH2990INS TX18/0323Z TN07/0412Z",
    "KSEA": "TAF KSEA 031720Z 0318/0424 22005KT P6SM BKN035 OVC060 FM032000 24007KT P6SM BKN045 FM040200 28005KT P6SM SCT050 BKN100 FM040800 31004KT P6SM OVC050 FM041200 21004KT P6SM BKN025 OVC030 FM041700 22008KT P6SM OVC035",
    "ZSPD": "TAF ZSPD 031504Z 0318/0424 19004MPS 6000 BKN020 TX32/0406Z TN22/0321Z TN23/0421Z TEMPO 0406/0410 33008G13MPS 2000 TSRA BKN010 SCT030CB",
    "ZSSS": "TAF ZSSS 031504Z 0318/0424 20004MPS 6000 BKN030 TX33/0406Z TN24/0321Z TN24/0421Z TEMPO 0406/0410 33008G13MPS 2000 TSRA BKN010 SCT030CB",
    "RJFR": "TAF RJFR 031705Z 0318/0500 09012KT 9000 -SHRA FEW005 SCT007 BKN015 TEMPO 0319/0321 FEW004 SCT005 BKN008 TEMPO 0321/0403 4000 TSRA BR BKN005 FEW012CB BKN045 BECMG 0402/0404 17004KT BECMG 0404/0406 27008KT TEMPO 0418/0500 BKN008 BKN009",
    "VHHH": "TAF VHHH 031700Z 0318/0424 12015KT 9999 FEW010 SCT025 TX30/0406Z TN26/0322Z TN27/0422Z TEMPO 0318/0321 13020G35KT 1500 TSRA +SHRA FEW008CB SCT015 TEMPO 0321/0324 14020G30KT 1000 +SHRA FEW006CB SCT015 TEMPO 0400/0406 14020G30KT 1200 TSRA +SHRA FEW008CB SCT015 TEMPO 0406/0412 16015G25KT 2500 SHRA FEW010CB SCT020 TEMPO 0412/0418 3000 SHRA FEW010CB SCT020 TEMPO 0421/0424 3000 SHRA FEW010CB SCT020",
    "RCTP": "TAF RCTP 031700Z 0318/0424 20008KT 9999 FEW015 BKN032 TEMPO 0318/0324 16005KT TEMPO 0405/0409 26012KT FEW010 FEW015TCU BKN020",
    "ZGSZ": "TAF AMD ZGSZ 031616Z 0312/0418 10006MPS 8000 BKN040 TX26/0312Z TX32/0406Z TN25/0322Z TEMPO 0316/0317 TSRA SCT015 FEW020CB BKN030 TEMPO 0320/0324 SHRA SCT015 FEW020CB BKN030 TEMPO 0401/0404 TSRA SCT012 FEW020CB BKN025 BECMG 0402/0403 18005MPS TEMPO 0404/0410 SHRA SCT015 FEW020CB BKN030",
    "WSSS": "TAF WSSS 031700Z 0318/0500 12008KT 9999 FEW015 SCT020",
    "WMKK": "TAF WMKK 031700Z 0318/0500 VRB03KT 9999 FEW030 TEMPO 0322/0401 14005KT 5000 TSRA FEW017CB",
    "VTBS": "TAF VTBS 031700Z 0318/0424 22008KT 9999 FEW020 TEMPO 0322/0402 -TSRA FEW018CB SCT020 BKN080 TEMPO 0408/0412 VRB15KT 4000 TSRA FEW018CB SCT020 BKN080",
    "VTBU": "TAF VTBU 031700Z 0318/0418 24006KT 9999 FEW020 TEMPO 0406/0412 VRB15KT 4000 TSRA FEW018CB SCT030 BKN090",
    "ROAH": "TAF ROAH 031705Z 0318/0500 20006KT 9999 FEW012",
    "VVDN": "TAF VVDN 031700Z 0318/0418 19008KT 9999 SCT017 BKN060 TEMPO 0318/0402 4000 SHRA BKN013 FEW015CB BKN060 TEMPO 0408/0413 4000 SHRA BKN013 FEW015CB BKN060",
    "RCKH": "TAF RCKH 031700Z 0318/0424 17010KT 9999 FEW015 BKN032 TEMPO 0403/0409 18013G23KT",
    "KLAX": "TAF KLAX 031740Z 0318/0424 23003KT P6SM SKC FM032100 26011KT P6SM SKC FM040600 25005KT P6SM OVC012 FM041000 VRB03KT P6SM OVC007 FM041600 25004KT P6SM BKN010 FM041800 26007KT P6SM SKC FM042100 26011KT P6SM SCT250",
    "KONT": "TAF KONT 031729Z 0318/0424 24005KT P6SM SKC FM032100 25011KT P6SM SCT250 FM040500 VRB05KT P6SM BKN200 FM042100 26010KT P6SM SCT080 BKN120",
    "KSFO": "TAF KSFO 031720Z 0318/0424 03006KT P6SM FEW015 FM032100 29015KT P6SM FEW250 FM040800 28006KT P6SM OVC007 FM041700 36005KT P6SM FEW010 FM042100 26015KT P6SM SKC",
    "KOAK": "TAF KOAK 031720Z 0318/0424 26008KT P6SM FEW010 FM032100 30014KT P6SM FEW250 FM040600 28007KT P6SM OVC007 FM041700 29007KT P6SM SKC FM042100 30013KT P6SM SKC",
    "KMHR": "TAF KMHR 031721Z 0318/0418 23007KT P6SM SKC FM040000 22010KT P6SM SKC FM040600 16007KT P6SM SKC",
    "KDFW": "TAF KDFW 031721Z 0318/0424 16011KT P6SM SCT060",
    "KIAH": "TAF KIAH 031720Z 0318/0424 20006KT P6SM SCT035 SCT050 PROB30 0319/0323 16007KT -SHRA FM040400 20004KT P6SM FEW035 FEW250 TEMPO 0410/0413 24004KT 6SM BR FM041300 25006KT P6SM FEW025",
    "KORD": "TAF KORD 031720Z 0318/0424 25011KT P6SM VCTS SCT040CB BKN100 FM031815 27018G30KT 2SM TSRA SCT010 BKN025 OVC035CB FM031930 31010KT P6SM VCTS SCT035 BKN060CB FM040100 20007KT P6SM FEW070 BKN150 PROB30 0401/0407 32015G25KT 3SM TSRA BKN030CB FM041200 25009KT P6SM SCT030 BKN200",
    "KJFK": "TAF KJFK 031728Z 0318/0424 22015G22KT P6SM SCT060 PROB30 0322/0324 -TSRA BKN040CB FM040000 25010KT P6SM SCT060 PROB30 0400/0404 VRB15G30KT 5SM -TSRA BKN030CB FM040400 29008KT P6SM SCT050 SCT250 FM041400 26010KT P6SM FEW060 SCT250 FM041900 25012G17KT P6SM SCT060 SCT250 PROB30 0420/0424 VRB20G35KT -TSRA BKN030CB",
    "KRFD": "TAF KRFD 031720Z 0318/0418 22008KT P6SM VCTS SCT040CB BKN250 FM031830 20008KT P6SM SCT070 BKN150 PROB30 0401/0407 32015G25KT 3SM TSRA BKN030CB FM041200 25009KT P6SM SCT030 BKN200",
    "KIND": "TAF KIND 031725Z 0318/0424 21007KT P6SM SCT035 SCT250 FM032300 22008KT P6SM SCT050 SCT250 FM040500 21004KT P6SM SCT100 FM041500 20008KT P6SM SCT040 FM042100 23006KT P6SM VCTS BKN050CB BKN100 TEMPO 0421/0424 2SM -TSRA OVC025CB",
    "KDTW": "TAF KDTW 031729Z 0318/0424 26012G20KT P6SM SCT060 SCT100 FM032200 26010KT P6SM BKN250 TEMPO 0323/0403 3SM -TSRA BKN050CB FM040400 25003KT P6SM BKN250 FM041400 27007KT P6SM SCT080 BKN250 PROB30 0419/0422 3SM -TSRA BKN050CB",
    "KMSP": "TAF KMSP 031731Z 0318/0424 17006KT P6SM SCT040 SCT120 FM040500 10005KT P6SM SCT015 BKN200 FM041100 09006KT P6SM BKN015 FM041600 05007KT P6SM SCT025 BKN200 PROB30 0420/0424 3SM -TSRA OVC035CB",
    "CYEG": "TAF CYEG 031740Z 0318/0418 30008KT P6SM SCT030 SCT100 TEMPO 0318/0320 BKN100 FM032300 30008KT P6SM SCT050 SCT140 TEMPO 0323/0403 VRB15G25KT P6SM VCTS BKN050CB FM040300 VRB03KT P6SM BKN060 FM040800 16006KT P6SM FEW080 SCT200 FM041500 22012G22KT P6SM SCT090 BKN200 RMK NXT FCST BY 032100Z",
    "EHAM": "TAF EHAM 031714Z 0318/0424 30013KT 9999 SCT030 BECMG 0318/0321 22005KT BECMG 0405/0407 27012KT",
    "EBBR": "TAF EBBR 031701Z 0318/0424 34007KT CAVOK BECMG 0407/0409 26010KT",
    "EDDF": "TAF EDDF 031700Z 0318/0424 31009KT CAVOK BECMG 0319/0321 34004KT BECMG 0410/0412 26010KT PROB30 TEMPO 0413/0416 29015G25KT",
    "EDFH": "TAF EDFH 031700Z 0318/0418 32006KT CAVOK BECMG 0400/0403 26004KT BECMG 0409/0412 28010KT PROB30 TEMPO 0413/0416 29015G25KT",
    "EDDL": "TAF EDDL 031700Z 0318/0424 32007KT CAVOK BECMG 0321/0324 VRB03KT BECMG 0403/0406 22008KT BECMG 0408/0411 27013KT PROB40 TEMPO 0411/0416 27015G25KT BECMG 0417/0420 29007KT",
    "EDDK": "TAF EDDK 031700Z 0318/0424 32009KT CAVOK BECMG 0321/0324 VRB03KT BECMG 0408/0411 29011KT PROB30 TEMPO 0413/0417 29015G25KT BECMG 0420/0423 30006KT",
    "EBLG": "TAF EBLG 031701Z 0318/0424 33007KT CAVOK BECMG 0407/0409 26010KT",
    "LSZH": "TAF LSZH 031725Z 0318/0424 35005KT 9999 FEW065 TX29/0415Z TN12/0405Z BECMG 0321/0324 CAVOK PROB40 0414/0417 29008KT",
    "LIMC": "TAF LIMC 031700Z 0318/0424 VRB05KT 9999 FEW070",
    "LIRF": "TAF LIRF 031700Z 0318/0424 30014KT CAVOK BECMG 0320/0322 04010KT BECMG 0410/0412 23010KT BECMG 0414/0416 29012KT BECMG 0421/0423 02008KT",
    "EINN": "TAF EINN 031700Z 0318/0418 25012KT 9999 FEW014 BKN040 PROB30 TEMPO 0318/0320 BKN012 TEMPO 0320/0406 BKN010 PROB40 TEMPO 0322/0405 4000 -DZ BKN005 TEMPO 0406/0412 25015G25KT PROB40 TEMPO 0406/0418 BKN010",
    "EGLL": "TAF EGLL 031653Z 0318/0424 25012KT 9999 FEW045 PROB30 TEMPO 0405/0408 BKN012",
    "EGSS": "TAF EGSS 031653Z 0318/0424 27006KT 9999 FEW040 PROB30 0405/0408 BKN014",
    "EPWA": "TAF EPWA 031730Z 0318/0418 29012KT CAVOK TEMPO 0318/0406 29015G25KT TEMPO 0406/0418 27020G35KT PROB40 TEMPO 0415/0418 -SHRA BKN030CB",
    "UHPP": "TAF UHPP 031647Z 0318/0424 17003G12MPS 9999 SCT011 BKN025CB TEMPO 0318/0320 1000 VA BR VV004 TEMPO 0401/0410 18008MPS",
    "EFHK": "TAF EFHK 031734Z 0318/0418 13008KT 9999 FEW013 FEW030CB TEMPO 0318/0321 7000 SHRA SCT020 BECMG 0321/0323 2000 BCFG NSC BECMG 0323/0401 4000 BR TEMPO 0401/0406 0700 FG VV002 BECMG 0406/0408 9999 -SHRA FEW035CB TEMPO 0408/0418 7000 TSRA",
    "LBBG": "TAF LBBG 031700Z 0318/0418 24010KT 9999 SCT040 TEMPO 0318/0320 VRB16G28KT 3000 TSRA SCT030CB BKN045 BECMG 0323/0401 34014KT TEMPO 0401/0408 VRB15G26KT 3000 TSRA SCT030CB BKN040 BECMG 0410/0412 09012KT",
    "LTAC": "TAF LTAC 031640Z 0318/0418 VRB02KT CAVOK BECMG 0408/0410 SCT040 TEMPO 0412/0416 34012KT",
    "UBBB": "TAF UBBB 031658Z 0318/0418 16005KT 9999 SCT040 TX31/0410Z TN20/0401Z TEMPO 0318/0320 19010KT TEMPO 0320/0403 VRB04KT FEW006 BECMG 0403/0405 16010KT TEMPO 0405/0415 18014KT FEW050CB",
    "UTAA": "TAF UTAA 031645Z 0317/0418 30016KT 6000 SCT040 TEMPO 0317/0324 24014KT BECMG 0404/0406 09016KT SCT050 TEMPO 0406/0408 03014KT",
    "UACC": "TAF UACC 031703Z 0318/0418 21004MPS 9999 SCT030 BKN050 TX26/0410Z TN13/0401Z BECMG 0401/0403 24009MPS SCT030CB TEMPO 0403/0415 VRB16MPS 3100 -TSRA SQ BKN020CB BECMG 0415/0417 29003MPS TEMPO 0415/0418 -TSRA BKN020CB",
    "UAAA": "TAF AMD UAAA 031809Z 0318/0418 14002MPS 3100 BR SCT011CB BKN100 TX20/0410Z TN13/0401Z TEMPO 0318/0403 VRB01MPS 0300 FG VV002 FM040400 25005MPS 9999 SCT050CB BKN100 TEMPO 0409/0418 17006G15MPS 3100 -TSRA BR SCT015CB OVC030",
    "UZTT": "TAF UZTT 031700Z 0318/0418 07010KT 7000 SCT060CB BKN100 TEMPO 0318/0404 VRB12G22KT -TSRA BKN040CB",
    "ZWWW": "TAF ZWWW 031502Z 0318/0424 30005G12MPS CAVOK TX36/0409Z TN26/0323Z TN27/0423Z BECMG 0320/0321 22004MPS BECMG 0402/0403 36004MPS BECMG 0414/0415 18004MPS",
    "ZLXY": "TAF ZLXY 031503Z 0318/0418 16003MPS 6000 NSC TX36/0408Z TN22/0322Z",
    "ZBAA": "TAF ZBAA 031502Z 0318/0424 16004MPS 6000 NSC TX35/0406Z TN24/0321Z TN24/0421Z TEMPO 0412/0415 TSRA FEW040CB BKN040",
    "ZBHH": "TAF ZBHH 031519Z 0318/0418 06004MPS 9999 FEW040 TX32/0408Z TN17/0322Z TEMPO 0403/0405 TSRA SCT040CB FEW040 BECMG 0409/0410 -TSRA SCT040CB FEW040 TEMPO 0410/0412 VRB08G15MPS TSRA BECMG 0411/0412 NSW NSC",
    "ZSQD": "TAF ZSQD 031504Z 0318/0418 16004MPS 5000 BR NSC TX32/0406Z TN22/0320Z BECMG 0320/0321 2000 BKN010 BECMG 0323/0324 3500 FEW015",
    "ZMCK": "TAF ZMCK 031641Z 0318/0424 VRB02MPS 9999 FEW030CB BKN033 TN13/0321Z TX23/0407Z TEMPO 0319/0402 VRB08G13MPS 6000 TSRA SCT027CB BKN030 BKN080 BECMG 0401/0403 34008MPS PROB40 TEMPO 0402/0412 VRB09G14MPS TSRA SCT027CB BKN030 BECMG 0411/0414 VRB02MPS FEW030CB SCT033",
    "UUEE": "TAF UUEE 031655Z 0318/0418 33003G08MPS 9999 BKN020 TX23/0318Z TN16/0401Z TEMPO 0321/0407 09009G18MPS 2100 -TSRA BKN005 BKN016CB TEMPO 0407/0415 28008G16MPS -TSRA BKN016CB",
    "UUDD": "TAF UUDD 031655Z 0318/0424 30003MPS 9999 BKN016 TX23/0318Z TN17/0403Z PROB40 TEMPO 0318/0321 -TSRA BKN020CB TEMPO 0321/0407 12008G15MPS 2000 TSRA FEW004 BKN016CB TEMPO 0407/0417 -TSRA BKN016CB TEMPO 0418/0424 BKN004",
    "ULLI": "TAF ULLI 031651Z 0318/0418 14003MPS 6000 BKN016 TEMPO 0319/0321 20004G09MPS 3100 -SHRA BR BKN010 BKN016CB TEMPO 0321/0405 1800 SHRA BR BKN006 BKN016CB PROB40 TEMPO 0321/0404 -TSRA BKN017CB TEMPO 0412/0415 3100 -TSRA BKN011 BKN017CB",
    "USSS": "TAF USSS 031656Z 0318/0418 30003G08MPS 6000 SCT016 TEMPO 0318/0402 0300 FG BKN003 FM040200 34003G14MPS 9999 SCT033CB FM041600 30003G08MPS 6000 SCT016CB",
    "UNNT": "TAF AMD UNNT 031701Z 0317/0418 22003G08MPS 6000 SCT016 TX31/0409Z TN15/0322Z TEMPO 0317/0401 22008G15MPS -TSRA BKN016CB BECMG 0415/0417 16005MPS",
    "UNKL": "TAF UNKL 031653Z 0318/0418 12003MPS 8000 SCT040 TX30/0406Z TN15/0322Z TEMPO 0321/0324 0400 FG VV003 TEMPO 0406/0410 07005MPS",
    "UIBB": "TAF UIBB 031700Z 0318/0418 24003MPS 9999 FEW001 SCT016CB TEMPO 0318/0321 VRB08MPS",
    "UEEE": "TAF UEEE 031700Z 0318/0424 34003G08MPS CAVOK TX31/0406Z TN12/0318Z",
    "UHHH": "TAF UHHH 031648Z 0318/0424 21003MPS 9999 SCT020 TX28/0405Z TN18/0320Z TEMPO 0321/0404 18008MPS TEMPO 0404/0409 22008MPS 5000 -SHRA BKN018CB",
    "UHSS": "TAF UHSS 031650Z 0318/0424 22003MPS 0550 FG BKN002 FM040000 17005MPS 9999 BKN005 BECMG 0401/0403 BKN030"
  },
  "atis": {
    "RJAA": "[Arrival ATIS] RJAA ARR ATIS O 0908Z M0900 (APCH)ILS Z RWY34R LDG RWY 34R DEP RWY 34L DEP FREQ 124.2. TWY A1 CLSD. OBSERVE GEAR DOWN OPS PROC ON FNL. M 180900Z 01012KT 20KM FEW003ST BKN004ST 21/19 Q1008/A2977= Q/TWO NINE SEVEN SEVEN STP\n[Departure ATIS] RJAA DEP ATIS O 0908Z M0900 (APCH)ILS Z RWY34R LDG RWY 34R DEP RWY 34L DEP FREQ 124.2. TWY A1 CLSD. OBSERVE GEAR DOWN OPS PROC ON FNL. M 180900Z 01012KT 20KM FEW003ST BKN004ST 21/19 Q1008/A2977= Q/TWO NINE SEVEN SEVEN STP",
    "PANC": "[Arrival ATIS] PANC ARR ATIS I 0853Z - PANC ATIS INFO I 0853Z. 19007KT 10SM FEW200 11/08 A3036 (THREE ZERO THREE SIX). 7R APPROACHES IN USE. LANDING RWY 7R, DEPARTING RWY 33. NOTICE TO AIRMEN. RWY 7L CLSD. CHECK NOTAMS FOR TAXIWAY CLOSURES. CONTACT TOWER 118.3 FOR TAXI. ...ADVS YOU HAVE INFO I.\n[Departure ATIS] PANC DEP ATIS R 0753Z ANC ATIS INFO R 0753Z. 18006KT 10SM FEW055 FEW070 BKN120 BKN200 14/09 A2973 (TWO NINER SEVEN THREE). 7R, 7L APPROACHES IN USE. LANDING RWY 7R, 7L, DEPARTING RWY 7L, 33. NO",
    "KSEA": "[Arrival ATIS] KSEA ARR ATIS F 1753Z SEA ATIS INFO F 1753Z. VRB05KT 10SM FEW020 BKN033 OVC070 18/11 A3012 (THREE ZERO ONE TWO). ILS, RYS 16R AND 16L , APCH IN USE. DEPG RWY 16L, DEPG ACFT PLAN AND BRIEF NUMBERS FOR BOTH RWYS 16L AND 16C. SIMUL APCHS IN USE, BFI & SEA. TRAFFIC BELOW YOU ON FINAL. SIMUL APCHS IN USE TO PARA RYS. NOTAMS... BIRD ACTIVITY VICINITY ARPT. ...ADVS YOU HAVE INFO F.\n[Departure ATIS] KSEA DEP ATIS F 1753Z - KSEA ATIS INFO F 1753Z. VRB05KT 10SM FEW020 BKN033 OVC070 18/11 A3012 (THREE ZERO ONE TWO). ILS, RYS 16R AND 16L , APCH IN USE. DEPG RWY 16L, DEPG ACFT PLAN AND BRIEF NUMBERS FOR BOTH RWYS 16L AND 16C. SIMUL APCHS IN USE, BFI & SEA. TRAFFIC BELOW YOU ON FINAL. SIMUL APCHS IN USE TO PARA RYS. NOTAMS... BIRD ACTIVITY VICINITY ARPT. ...ADVS YOU HAVE INFO F.",
    "ZSPD": "[Arrival ATIS] ZSPD ARR ATIS K 0830Z EXP ILS APCH INDEPENDENT PARL INSTR APCH LDG RWY 17R & 16L WIND RWY 17R TDZ 130/4MPS MID 130/5MPS END 110/4MPS RWY 16L TDZ 140/4MPS MID 120/5MPS END 120/5MPS VIS RWY 17R TDZ 2700M MID 6000M END 9000M VIS RWY 16L TDZ 10000M MID 10000M END 10000M NSC T 27 /DP 23 QNH 1008 HPA CAUTION THE BIRDS NEAR THE RUNWAY ADZ YOU HAVE INFO K.\n[Departure ATIS] ZSPD DEP ATIS L 0900Z DEP RWY 17L & 16R WIND RWY 17L TDZ 110/5MPS MID 100/5MPS END 110/5MPS RWY 16R TDZ 120/4MPS MID 120/5MPS END 120/5MPS VIS RWY 17L TDZ 10000M MID 10000M END 10000M VIS RWY 16R TDZ 10000M MID 10000M END 10000M CLD SCT 450M T 26 /DP 23 QNH 1007 HPA CAUTION THE BIRDS NEAR THE RUNWAY ADZ YOU HAVE INFO L.",
    "ZSSS": "[Arrival ATIS] ZSSS ARR ATIS X 0900Z EXP ILS APCH LDG RWY 18L WIND RWY 18L TDZ 130/4MPS MID 090/4MPS END 120/4MPS VRB BTN 100/ AND 160/ VIS RWY 18L TDZ 10000M MID 10000M END 10000M CLD FEW 990M T 30 /DP 22 QNH 1006 HPA VISUAL APCH IN USE QNH OF SHANGHAI TERMINAL CONTROL AREA 1007 HPA ADZ YOU HAVE INFO X.\n[Departure ATIS] ZSSS DEP ATIS V 0800Z DEP RWY 18R WIND RWY 18R TDZ 150/3MPS MID 090/3MPS END 110/3MPS VIS RWY 18R TDZ 10000M MID 10000M END 10000M CLD BKN 990M T 30 /DP 21 QNH 1007 HPA VISUAL APCH IN USE QNH OF SHANGHAI TERMINAL CONTROL AREA 1007 HPA ADZ YOU HAVE INFO V.",
    "VHHH": "[Arrival ATIS] VHHH ARR ATIS L 0906Z ARRIVALS, RWY 25R. EXP RNAV TRANSITION TO ILS APCH, RWY 25R. RNP APCH IS AVBL ON REQ, RWY 25R. RWY 25 RUNWAY CONDITION REPORT AT 0548Z. RWY 25R RUNWAY CONDITION CODES 5 , 5 , 5 . RWY SFC ALL PARTS WET. WIND 050/07KT. VIS 10KM. MOD SHRA. CLD FEW 700FT FEW CB 1500FT SCT 2000FT. T27 DP25. QNH 1007HPA. TREND TEMPO VRB15KT MAX25 VIS 2500M MOD TSRA MOD SHRA. ACK INFO L ON FIRST CTC WITH APP.\n[Departure ATIS] VHHH DEP ATIS R 0836Z DEPARTURES, RWY 25L. RWY 25 RUNWAY CONDITION REPORT AT 0548Z. RWY 25L RUNWAY CONDITION CODES 5 , 5 , 5 . RWY SFC ALL PARTS WET. WIND 060/07KT. VIS 10KM. FBL SHRA. CLD FEW 600FT SCT 2000FT. T26 DP24. QNH 1008HPA. ACK INFO R ON FIRST CTC WITH DELIVERY .",
    "RCTP": "[Arrival ATIS] RCTP ARR ATIS B 0900Z EXP ILS APCH RWY23R FOR ARR. RWY23L FOR DEP. WIND 240/11KT VIS 10 KM OR MORE CLD FEW 1500FT SCT 8000FT T 32 DP 25 QNH 1010HPA WS R23L NOSIG DUE TO FLOW CONTROL BY MANILA AND HONG KONG F-I-R, TRAFFIC CONCERNED MAY BE DELAYED. CTN BIRD ACTIVITY IN THE VCY OF THE AD. LOW LVL WS ADVISORY IN EFFECT. INFORM TAIPEI APCH OR TAIPEI TOWER ON INITIAL CONTACT YOU HAVE INFORMATION B\n[Departure ATIS] RCTP DEP ATIS Z 0830Z EXP ILS APCH RWY23R FOR ARR. RWY23L FOR DEP. WIND 240/11KT VIS 10 KM OR MORE CLD FEW 1500FT SCT 3000FT BKN 8000FT T 32 DP 25 QNH 1010HPA NOSIG DUE TO FLOW CONTROL BY MANILA AND HONG KONG F-I-R, TRAFFIC CONCERNED MAY BE DELAYED. CTN BIRD ACTIVITY IN THE VCY OF THE AD. INFORM TAIPEI APCH OR TAIPEI TOWER ON INITIAL CONTACT YOU HAVE INFORMATION Z",
    "ZGSZ": "[Arrival ATIS] ZGSZ ARR ATIS R 0900Z EXP ILS APCH 15 EXP ILS OR VIS APCH 16R WIND VRB/1MPS VIS 9999M -SHRA CLD SCT 390M /BKN 1200M T 26 /DP 25 QNH 1008 HPA INDEPENDENT PARALLEL DEPARTURES DEPENDENT PARALLEL APPROACHES MISSED APPROACH ALTITUDE SETTING 1200METERS WHEN AIRBORNE CONTACT ZHUHAI APPROACH EXPECTED RNP ILS DME Z APPROACH RWY 15 16L 16R RWYCC 5/5/5 ISSUED AT 0720UTC WET/WET/WET DPT NR/NR/NR COV 100PCT/100PCT/100PCT ADZ YOU HAVE INFO R.\n[Departure ATIS] ZGSZ DEP ATIS R 0900Z DEP RWY 15 & 16L WIND VRB/1MPS VIS 9999M -SHRA CLD SCT 390M /BKN 1200M T 26 /DP 25 QNH 1008 HPA INDEPENDENT PARALLEL DEPARTURES DEPENDENT PARALLEL APPROACHES MISSED APPROACH ALTITUDE SETTING 1200METERS WHEN AIRBORNE CONTACT ZHUHAI APPROACH EXPECTED RNP ILS DME Z APPROACH RWY 15 16L 16R RWYCC 5/5/5 ISSUED AT 0720UTC WET/WET/WET DPT NR/NR/NR COV 100PCT/100PCT/100PCT ADZ YOU HAVE INFO R.",
    "WSSS": "[Arrival ATIS] WSSS ARR ATIS P 0900Z METREPORT 0900Z ILS APCHRWY 20R SIMUL INDEPENDENT ILS AND VISUAL APPROACHES ARE CONDUCTED ON RWY 20. TWY W 9 CLOSED, RWY 02C 20C RAPID EXIT TAXIWAY INDICATOR LIGHTS OFF WIND 130/ 10KT VRB BTN110 AND180 VIS 10KM CLD FEW 1800FT FEW TCU 2000FT T31 DP24 QNH 1009HPA NOSIG ACK ATIS P\n[Departure ATIS] WSSS DEP ATIS O 0800Z METREPORT 0800Z RWY 20C SIMUL INDEPENDENT ILS AND VISUAL APPROACHES ARE CONDUCTED ON RWY 20. TWY W 9 CLOSED, RWY 02C 20C RAPID EXIT TAXIWAY INDICATOR LIGHTS OFF WIND 140/ 08KT VIS 10KM CLD FEW 2200FT T31 DP24 QNH 1009HPA NOSIG DEP,INITIAL CMB 3000FT ACK ATIS O",
    "WMKK": "[Arrival ATIS] WMKK ARR ATIS H 0712Z WMKK ARR INFO H. TIME 0700. INDEPENDENT PARALLEL APPROACHES FOR RWY 14 L AND 15 ARE IN PROGRESS. EXP RNAV / ILS APCH FOR RWY 14 LEFT. EXP RNAV / ILS APCH FOR RWY 15. WIND RWY 14L 180 DEG, 9 KT. WIND RWY 15 130 DEG, 10 KT. VIS RWY 14L TDZ 10 KM OR MORE. VIS RWY 15 TDZ 10 KM OR MORE. CLD SCT 1800 FT. T 32. DP 26. QNH 1009. NOSIG. AT FIRST CONTACT WITH LUMPUR RADAR, NOTIFY RCPT OF H\n[Departure ATIS] WMKK DEP ATIS Y 0738Z WMKK DEP INFO Y. TIME 0730. INDEPENDENT PARALLEL DEPARTURES FOR RWY 14 R AND 15 ARE IN PROGRESS. RWY 14 RIGHT. RWY 15. WIND RWY 14R 170 DEG, 12 KT. WIND RWY 15 130 DEG, 9 KT. VIS RWY 14R 10 KM OR MORE. VIS RWY 15 10 KM OR MORE. CLD SCT 1800 FT. T 32. DP 26. QNH 1009. NOSIG. ALL DEP ACFT TO CONTACT LUMPUR DEP AT 135 DECIMAL 25 MHZ WHEN ABN. AT FIRST CONTACT WITH LUMPUR GROUND, NOTIFY RCPT OF Y",
    "VTBS": "[Arrival ATIS] VTBS ARR ATIS G 0901Z VTBS ARR ATIS G 0905Z SIMULTANEOUS INDEPENDENT PARL APCH IN PROGRESS EXP ILS Z APCH ARR RWY 19 OR RNP APCH RWY 20R MOD WS IN APCH OBS ATP 0900 06180900 19 5/5/5 100/100/100 NR/NR/NR WET/WET/WET 06180900 20R 5/5/5 100/100/100 NR/NR/NR WET/WET/WET ,LGT WRNG PROC IN OPERATION ,PILOT SHALL ADZ BKK APCH ON INITIAL CTC IF UNA TO CONDUCT RNP APCH DUE TO OPERATIONAL CONSTRAINT 0901Z WIND 170/14KT VIS 6KM RVR RWY 20R ABV 2000M MOD TSRA CLD FEW CB 2000FT SCT 4000FT T30 DP25 QNH 1008HPA WS IN APCH TREND TEMPO TL0940 VIS 1500M HVY TSRA ADZ BKK APCH ON INITIAL CONTACT THAT YOU HAVE INFO G\n[Departure ATIS] VTBS DEP ATIS N 0901Z VTBS DEP ATIS N 0905Z DEP RWY 20L MOD WS IN APCH OBS ATP 0900 06180900 20L 5/5/5 100/100/100 NR/NR/NR WET/WET/WET ,LGT WRNG PROC IN OPERATION ,AFT AIRBORNE ALL DEPARTING ACFT SHALL CTC 119.25 0901Z WIND 160/10KT MAX20 MNM8 VIS 8KM RVR RWY 20L ABV 2000M MOD TSRA CLD FEW CB 2000FT SCT 4000FT T30 DP25 QNH 1008HPA WS IN APCH TREND TEMPO TL0940 VIS 1500M HVY TSRA ADZ GND WHEN INITIAL CONTACT YOU HAVE INFO N",
    "VTBU": "[Arrival ATIS] VTBU ARR ATIS W 1400Z VTBU ARR ATIS W 1402Z RNP RWY 18 TRL FL130 1400Z WIND 250/3KT VIS 10KM CLD FEW 2000FT T29 DP27 QNH 1007HPA TREND NOSIG ADZ CONTROLLER WHEN INITIAL CONTACT YOU HAVE INFO W\n[Departure ATIS] VTBU DEP ATIS D VTBU ARR/DEP DATIS RPT VTBU ARR ATIS D 0330Z ILS \"Z\" APCH RWY 18 TRL FL130 0330Z WIND 110/4KT VRB BTN 350/ AND 120/ VIS 6KM CLD FEW 2000FT T31 DP27 QNH 1014HPA TREND NOSIG ADZ CONTROLLER WHEN INITIAL CONTACT YOU HAVE INFO D",
    "ROAH": "[Arrival ATIS] ROAH ARR ATIS M 0825Z M0800 (APCH)ILS RWY18R LDG RWY 18R DEP RWY 18L DEP FREQ 126.5 258.3 M 180800Z 19008KT 30KM FEW001ST SCT003ST BKN/// 28/27 Q1012/A2988= Q/TWO NINE EIGHT EIGHT STP\n[Departure ATIS] ROAH DEP ATIS J 0657Z MS0630 (APCH)ILS RWY18R LDG RWY 18R DEP RWY 18L DEP FREQ 126.5 258.3 MS 180630Z 20008KT 25KM FEW002ST SCT005ST BKN/// 28/27 Q1012/A2989= Q/TWO NINE EIGHT NINE STP",
    "VVDN": "[Arrival ATIS] VVDN ARR ATIS W 0802Z VVDN INFO W 0802Z. ILS VICTOR APPROACH 35L.. DPTG RWY 35R.. 0802Z. WIND 110/10KT VIS 10KM CLD FEW CB 2000FT T33 DP25 QNH 1005HPA CB TO W TREND NOSIG. ADZ ON INITIAL CTC YOU HAVE INFO. W.\n[Departure ATIS] VVDN DEP ATIS S 0604Z VVDN INFO S 0604Z. ILS VICTOR APPROACH 35L.. DPTG RWY 35R.. 0604Z. WIND VRB/09KT CAVOK T37 DP24 QNH 1006HPA TREND NOSIG. ADZ ON INITIAL CTC YOU HAVE INFO. S.",
    "RCKH": "[Arrival ATIS] RCKH ARR ATIS V 0830Z EXPECT ILS APPROACH RWY 09 ARR/DEP TAXIWAY BRAVO, TAXIWAY DELTA AND TAXIWAY ECHO CLOSED DUE MAINTENANCE. RUNWAY 0 9 ARRIVALS PLAN VACATE VIA CHARLIE OR FOXTROT AND EXPEDITE VACATE. WIND 240/08KT VARYING BTN 190 AND 280 VIS 10 KM OR MORE CLD FEW 1500FT SCT 2500FT BKN 20000FT T 31 DP 25 QNH 1011HPA NOSIG CAUTION BIRD ACTIVITY IN VICINITY OF THE AERODROME. INFORM KAO-HSIUN APCH OR KAO-HSIUN TOWER ON INITIAL CONTACT YOU HAVE INFORMATION V\n[Departure ATIS] RCKH DEP ATIS R 0700Z EXPECT ILS APPROACH RWY 09 ARR/DEP TAXIWAY JULIETT, TAXIWAY BRAVO, TAXIWAY DELTA AND TAXIWAY ECHO CLOSED DUE MAINTENANCE. RUNWAY 0 9 ARRIVALS PLAN VACATE VIA CHARLIE OR FO",
    "KLAX": "[Arrival ATIS] KLAX ARR ATIS M 1553Z - KLAX ATIS INFO M 1553Z. 00000KT 10SM FEW009 OVC016 19/14 A3001 (THREE ZERO ZERO ONE) RMK AO2 SLP161 T01890144. SIMUL INST APCHS AND RNAV RNP RWYS 24R AND 25L APCHS, SIMUL INSTR DEPARTURES IN PROG 24L, 25R. CTC L A GC ON 121.75 FOR PUSH OR TAXI ON A. TWY B CLSD BTN TWY, C10 AND TWY C7 , , TWY B6 CLSD, TWY B7 CLSD, TWY C CLSD BTN TWY, C1 AND TWY C3, TWY C1 CLSD, TWY C9 CLSD BTN TWY, B AND TWY C, TWY C8 CLSD BTN TWY, B AND TWY C. ILS RY 25R OTS, RY 25R SFL OTS, RY 24L ALSF-2 OTS. LAX VOR UNMONITORED. USE CAUTION FOR INCREASED DRONE ACTIVIY IN THE VICINITY OF SOFI STADIUM AT OR BELOW 200FT AGL DURING THE WORLD CUP FROM JUNE TWELFTH TWENTY TWENTY SIX THROUGH JULY TENTH TWENTY TWENTY SIX. HAZD WX INFO FOR LAX AREA AVBL FM FSS. BIRD ACTIVITY VICINITY ARPT. INCLUDE YOUR CALL SIGN IN ALL READBACKS. USE CAUTION WHEN EXITING RY24R AT TWY V, W, AND Y, TO HOLD SHORT OF RY24L. MULTIPLE RUNWAY INCURSIONS HAVE OCCURRED. ...ADVS YOU HAVE INFO M.\n[Departure ATIS] KLAX DEP ATIS V 2153Z LAX ATIS INFO V 2153Z. 24012KT 210V280 10SM FEW014 FEW180 SCT220 21/13 A2995 (TWO NINER NINER FIVE) RMK AO2 SLP141 T02110133. INST APCHS AND RNAV RNP APCHS RY 24R AND 25L, OR VCTR FOR VISUAL APCH WILL BE PROVIDED, SIMUL VISUAL APCHS TO ALL RWYS ARE IN PROG, SIMUL INSTR DEPARTURES IN PROG RWYS 24 AND 25. CTC L A GC ON 121.75 FOR PUSH OR TAXI ON A. TWY B CLSD BTN TWY, J AND TWY C8 , , TWY C10 CLSD BTN TWY, B AND TWY C, TWY C CLSD BTN TWY, C1 AND TWY C3. RY 25R SFL OTS, RY 24L ALSF-2 OTS, PAPI OTS 24R. LAX VOR UNMONITORED. USE CAUTION FOR INCREASED DRONE ACTIVIY IN THE VICINITY OF SOFI STADIUM AT OR BELOW 200FT AGL DURING THE WORLD CUP FROM JUNE TWELFTH TWENTY TWENTY SIX THROUGH JULY TENTH TWENTY TWENTY SIX. TEMPORARY FLIGHT RESTRITIONS IN EFFECT FOR THE LOS ANGELES AREA, CHECK NOTAMS FOR DETAILS. HAZD WX INFO FOR LAX AREA AVBL FM FSS. BIRD ACTIVITY VICINITY ARPT. INCLUDE YOUR CALL SIGN IN ALL READBACKS. USE CAUTION WHEN EXITING RY24R AT TWY V, W, AND Y, TO HOLD SHORT OF RY24L. MULTIPLE RUNWAY INCURSIONS HAVE OCCURRED. ...ADVS YOU HAVE INFO V.",
    "KONT": "[Arrival ATIS] KONT ARR ATIS A 0853Z ONT ATIS INFO A 0853Z. 22007KT 9SM OVC014 17/14 A2993 (TWO NINER NINER THREE). ILS APR IN USE. RY26L & RY26R. LNDG AND DEPG RY 26L AND RY 26R. NOTAMS... TAXIWAY SIERRA CLSD BETWEEN SIERRA 8 AND W TAXIWAY Q SOUTH OF RWY 26L CLSD TAXIWAY T CLSD TAXIWAY SIERRA 5 CLSD. RY 26L IM OTS, RY 26R ALS OTS. PILOTS READBACK RWY ASSIGNMENTS AND HOLD SHORT INSTRUCTIONS. ...ADVS YOU HAVE INFO A.\n[Departure ATIS] KONT DEP ATIS N 0553Z - KONT ATIS INFO N 0553Z. 24004KT 10SM BKN250 22/15 A2988 (TWO NINER EIGHT EIGHT) RMK AO2 SLP100. ILS AND VIS APR IN USE, RY26L & RY26R. LNDG AND DEPG RY 26L AND RY 26R. NOTAMS... TAXIWAY SIERRA CLSD BETWEEN SIERRA 8 AND W TAXIWAY Q SOUTH OF RWY 26L CLSD TAXIWAY T CLSD TAXIWAY SIERRA 5 CLSD. RY 26L IM OTS, RY 26R ALS OTS. USE CAUTION FOR NUMEROUS BIRDS OBSERVED IN VICINITY OF ONT. HAZD WX INFO FOR SOUTHERN CA AVBL ON FSS FREQUENCIES. PILOTS READBACK RWY ASSIGNMENTS AND HOLD SHORT INSTRUCTIONS. ...ADVS YOU HAVE INFO N.",
    "KSFO": "[Arrival ATIS] KSFO ARR ATIS W 0756Z SFO ATIS INFO W 0756Z. 19013KT 10SM FEW006 16/13 A2989 (TWO NINER EIGHT NINER) RMK AO2 SLP123 T01560128 402330150. ILS RY 28L APP IN USE. DEPG RWYS 28L, 28R. RY 28R, 1L, 1R CLSD. NUMEROUS TWY CLOSURES FOR CONSTRUCTION ON THE FIELD, PILOTS CHECK NOTAMS. DEPG ACFT WAITING ON FINAL NUMBERS ADVISE GROUND PRIOR TO ENTERING TWY F. ...ADVS YOU HAVE INFO W.\n[Departure ATIS] KSFO DEP ATIS P 1556Z SFO ATIS INFO P 1556Z. 00000KT 10SM FEW005 BKN013 16/12 A2999 (TWO NINER NINER NINER). SIMUL CLSLY SPCD DPNDNT ILS RY 28R AND ILS RY 28L APP IN USE. ILS RY 28R APP IN USE.",
    "KOAK": "[Arrival ATIS] KOAK ARR ATIS A 0353Z - KOAK ATIS INFO A 0353Z. 25010KT 10SM FEW003 BKN009 BKN013 16/14 A2988 (TWO NINER EIGHT EIGHT). RNAV Z 3 0, ILS RUNWAY 2 8 RIGHT IN USE. FLOW TO LAX, SAN, SEA, ORD. ILS RWY 30, OTS. UNN LIT CLOSE-IN OBSTACLES FOR RWY 30 DEPARTURES. RWY 30 DEPARTURES ARE ADVISED TO AVOID TURNING LEFT PRIOR TO DEPARTURE END OF RUNWAY. SIGNATURE UNI-COM OUT OF SERVICE. HAZD WX INFO FOR CA ON FLT SRVC FREQ. CAUTION, BIRDS NEAR AIRPORT. ...ADVS YOU HAVE INFO A.\n[Departure ATIS] KOAK DEP ATIS O 1953Z OAK ATIS INFO O 1953Z. 28014KT 10SM FEW005 22/14 A2988 (TWO NINER EIGHT EIGHT). RNAV Z/VA RWY 30 ILS/VA RWY 28R. FLOW TO LAX, LAS, SAN. ILS RWY 30, OTS. UNN LIT CLOSE-IN OBSTACLES FOR RWY 30 DEPARTURES. RWY 30 DEPARTURES ARE ADVISED TO AVOID TURNING LEFT PRIOR TO DEPARTURE END OF RUNWAY. SIGNATURE UNI-COM OUT OF SERVICE. CAUTION, BIRDS NEAR AIRPORT. ...ADVS YOU HAVE INFO O.",
    "KDFW": "[Arrival ATIS] KDFW ARR ATIS I 0953Z - KDFW ARR INFO I 0953Z. 18006KT 10SM SCT250 26/22 A3001 (THREE ZERO ZERO ONE). SIMUL VISUAL APCH TO RWYS, 18R, 17C, 17L. LDG RWY 17C EXP LAHSO TWY B 10460 FT AVAIL, LDG RWY 18R EXP LAHSO TWY B 10100 FT AVL. NOTICE TO AIRMEN. RWY 13L CLSD. RWY 13R CLSD. WARNING, RWY 18L HAS BEEN SHORTENED, 9273 FT AVAILABLE. RWY 18L ILS OTS, CL OTS. BIRD ACTIVITY VCNTY ARPT. ...ADVS YOU HAVE INFO I.\n[Departure ATIS] KDFW DEP ATIS W 1553Z - KDFW DEP INFO W 1553Z. 21022G32KT 10SM FEW025 FEW180 SCT250 31/21 A2994 (TWO NINER NINER FOUR) RMK AO2 PK WND 20032/1547 SLP128 T03110206. SIMUL PARL TRAFFIC DEPG RWYS 17R, 18L. NOTICE TO AIRMEN. WARNING, RWY 18L HAS BEEN SHORTENED, 9273 FT AVAILABLE. RWY 18L CL OTS. BIRD ACTIVITY VCNTY ARPT. ...ADVS YOU HAVE INFO W.",
    "KIAH": "[Arrival ATIS] KIAH ARR ATIS Z 1453Z IAH ATIS INFO Z 1453Z. VRB04KT 10SM SCT025 31/24 A3007 (THREE ZERO ZERO SEVEN). ARRIVALS EXPECT ILS OR RNAV Y RY 26R, ILS OR RNAV Y RY 26L, ILS OR RNAV Y RY 27. SIMUL APPROACHES IN USE. DEPG RY 15L, RY 15R. NOTICE TO AIRMEN. UNITED RAMP CONTROL IN EFFECT. BIRD ACTIVITY VICINITY ARPT. LAHSO RY26L. CRANES ARE DOWN. TWY SA CLSD BTN TWY, SF AND TWY SK , TWY SB CLSD BTN TWY, SF AND TWY SK , , TWY WB CLSD BTN TWY, WG AND TWY WH . TWY EA CLSD. NOTAM ATIS IN USE ON FREQUENCY 126.225. ...ADVS YOU HAVE INFO Z.\n[Departure ATIS] KIAH DEP ATIS D 0453Z IAH ATIS INFO D 0453Z. 19003KT 10SM CLR 25/24 A2963 (TWO NINER SIX THREE). ARRIVALS EXPECT ILS OR RNAV Y RY 26L. DEPG RY 15L. NOTICE TO AIRMEN. UAL RAMP PROCEDURES TERMINATED PUSH BACK AT PILOTS DISCRETION. RY 26R, 8L CLSD. BIRD ACTIVITY VICINITY ARPT. TWY SA CLSD BTN TWY, SG AND TWY SK , TWY SB CLSD BTN TWY, SG AND TWY SK , , TWY SF CLSD BTN TWY, NB AND TWY RB . TWY SG CLSD, TWY EA CLSD. NOTAM ATIS IN USE ON FREQUENCY 126.225. ...ADVS YOU HAVE INFO D.",
    "KORD": "[Arrival ATIS] KORD ARR ATIS B 1151Z - KORD ATIS INFO B 1151Z. 21005KT 10SM FEW180 FEW250 23/21 A3005 (THREE ZERO ZERO FIVE) RMK AO2 SLP169 60014 70177 T02330211 10233 20217 53018. ARR EXP VECTORS ILS RWY 27C APCH, VISUAL APCH RWY 27R, VISUAL APCH RWY 28C. SIMUL APCHS IN USE. LAND AND HOLD SHORT OPERATIONS ARE IN EFFECT. RWY 27C ARR PLAN TO H/S OF TWY V V, 9 THSD 7 HND 25 FT AVBL, RWY 28C ARR PLAN TO H/S OF TWY Z, 9 THSD 6 HND TEN FT AVBL. DEPS EXP RWYS 22L 27L FROM T T 9960 FT AVL. RWY 4L, 22R CLSD. RWY 22R LOC OTS, RWY 9L IM OTS, RWY 9C IM OTS, RWY 10L IM OTS, RWY 10R IM OTS, RWY 27R IM OTS, RWY 28L IM OTS, RWY 28R IM OTS, RWY 9L PAPI OTS, RWY 27R PAPI OTS. PILOTS USE CTN FOR BIRD ACTIVITY IN THE VICINITY OF THE ARPT. HAZD WX INFO FOR ORD AREA AVBL ON FSS. USE CTN FOR PERSONNEL AND EQUIP AT NUMEROUS SITES ON THE FIELD. READBACK ALL RWY HOLD SHORT INSTRUCTIONS. WHEN READY TO TAXI CONTACT GND METERING ON FREQ 121.67. ...ADVS YOU HAVE INFO B.\n[Departure ATIS] KORD DEP ATIS L 1742Z ORD ATIS INFO L 1742Z SPECIAL. 17009KT 2SM RA BKN033 BKN046CB BKN090 OVC250 29/25 A3001 (THREE ZERO ZERO ONE) RMK AO2 RAB31 CB OHD MOV NE CB DSNT W-NW MOV NE P0002 T02890250. ARR EXP VECTORS ILS RWY 27C APCH, ILS RWY 28C APCH, VISUAL APCH RWY 27R. SIMUL APCHS IN USE. DEPS EXP RWYS 22L 27L FROM T T 9960 FT AVL. RWY 4L, 22R CLSD. RWY 22R LOC OTS, RWY 28L GS OTS, RWY 9L IM OTS, RWY 9C IM OTS, RWY 10L IM OTS, RWY 10R IM OTS, RWY 27R IM OTS, RWY 28L IM OTS, RWY 28R IM OTS, RWY 9L PAPI OTS, RWY 27R PAPI OTS. WIND SHEAR ADZYS ARE IN EFCT. ALL RWYS, COND CODE, 5, 5, 5 AT 1741Z . PILOTS USE CTN FOR BIRD ACTIVITY IN THE VICINITY OF THE ARPT. HAZD WX INFO FOR ORD AREA AVBL ON FSS. USE CTN FOR PERSONNEL AND EQUIP AT NUMEROUS SITES ON THE FIELD. READBACK ALL RWY HOLD SHORT INSTRUCTIONS. WHEN READY TO TAXI CONTACT GND METERING ON FREQ 121.67. ...ADVS YOU HAVE INFO L.",
    "KJFK": "[Arrival ATIS] KJFK ARR ATIS C 1151Z - KJFK ATIS INFO C 1151Z. 33009KT 10SM CLR 33/20 A2998 (TWO NINER NINER EIGHT) RMK AO2 SLP153 T03280200 10328 20300 51013. APPROACH IN USE ILS RY 31R, VISUAL APCH RY 31L. DEPG RY 31L. CRI OTS. RWY 22L/4R INNER MARKER OTS. FLASHING LIGHT ON RIGHT SIDE OF 22L TOUCHDOWN ZONE. NUM CRANES OPERATING AT JFK. BIRD ACTIVITY VICINITY ARPT. READBACK ALL RWY ASSIGNMENTS AND HOLD SHORT INSTRUCTIONS. ...ADVS YOU HAVE INFO C.\n[Departure ATIS] KJFK DEP ATIS Z 0851Z JFK ATIS INFO Z 0851Z. 36010KT 10SM CLR 31/19 A2995 (TWO NINER NINER FIVE). APPROACH IN USE ILS RY 31R, VISUAL APCH RY 31L. DEPG RY 31L. CRI OTS. RWY 22L/4R INNER MARKER OTS. FLASHING LIGHT ON RIGHT SIDE OF 22L TOUCHDOWN ZONE. NUM CRANES OPERATING AT JFK. BIRD ACTIVITY VICINITY ARPT. READBACK ALL RWY ASSIGNMENTS AND HOLD SHORT INSTRUCTIONS. ...ADVS YOU HAVE INFO Z.",
    "KIND": "[Arrival ATIS] KIND ARR ATIS P 1354Z IND ATIS INFO P 1354Z. 24005KT 10SM FEW025 FEW300 30/24 A3014 (THREE ZERO ONE FOUR). PARL ILS RWY 23R AND 23L APPROACHES IN USE. CROSS RUNWAY OPERATIONS MAY BE IN EFFECT. NOTICE TO AIRMEN. RWY 32 GS OTS. TWY, P BTN TWY, H AND TWY B CLSD. P PAD CLSD. ILS RUNWAY 5R AND RUNWAY 5L INNER MARKER UNSERVICEABLE. RUNWAY 32 PAPI OTS. RUNWAY 32 TOUCHDOWN RVR OTS. RUNWAY 14 ROLLOUT RVR OTS. HIWAS. ARPT ADZY FLOCK OF MEDIUM BIRDS IN THE VICINITY OF THE AIRPORT, ALT UNKN. ...ADVS YOU HAVE INFO P.\n[Departure ATIS] KIND DEP ATIS H 1854Z IND ATIS INFO H 1854Z. 26009G19KT 10SM SCT036 BKN041 BKN170 23/16 A2981 (TWO NINER EIGHT ONE) RMK AO2 SLP088 T02280156. PARL ILS RWY 23R AND 23L APPROACHES IN USE. CROSS RU",
    "KDTW": "[Arrival ATIS] KDTW ARR ATIS C 0737Z DTW ARR INFO C 0737Z SPECIAL. 23014KT 9SM FEW006 BKN016 OVC038 20/18 A2932 (TWO NINER THREE TWO) RMK AO2 T02000183. ILS Z RY 22R APCH IN USE. NOTICE TO AIRMEN. RWY 22L, 4R CLSD, RWY 21R, 3L CLSD, RWY 21L, 3R CLSD, RWY 27L, 9R CLSD, RWY 27R, 9L CLSD. HAZD WX INFO . CNVTV SIG 32 E, FOR OH , AND LE AVBL ON FLIGHT SERVICE FREQS. PILOTS USE CTN FOR BIRD ACTIVITY. RWY 22R CONDITION CODE 5 5 5 , AT 0601Z ZULU. TWR AND GC COMB ON FREQ 135.0. DEPARTURE ATIS 118.125. ...ADVS YOU HAVE INFO C.\n[Departure ATIS] KDTW DEP ATIS Q 2253Z - KDTW DEP INFO Q 2253Z. 21009KT 10SM FEW050 FEW250 33/24 A2991 (TWO NINER NINER ONE). DEPG RWY 21R, RWY 22L ;. NOTICE TO AIRMEN. RWY 27L, 9R CLSD, RWY 27R, 9L CLSD. PILOTS USE CTN FOR BIRD ACTIVITY. ...ADVS YOU HAVE INFO Q.",
    "KMSP": "[Arrival ATIS] KMSP ARR ATIS L 1753Z MSP ARR INFO L 1753Z. 17003KT 10SM FEW015 SCT130 BKN250 27/19 A2998 (TWO NINER NINER EIGHT) RMK AO2 SLP147 60002 T02670194 10267 20217 55003. VISUAL RWY 12R APCH IN USE, VISUAL RWY 12L APCH IN USE. FINAL APCH, OVER NOISE SENSITIVE AREA. NOTICE TO AIRMEN. TWY R7. R8. R9. R10. CLOSED, TWY R BETWEEN R6 AND R10 CLOSED. GS RWY 12L OTS, RWYS 12R, 12L, INNER MARKER OTS.. HAZD WX INFO FOR MSP AREA AVBL FM FSS. CTN, BIRDS NEAR MSP. READ BACK HS AND ALT. ALL ACFT TAXI WITH TRANSPONDER AND ALTITUDE ENCODING ON. ...ADVS YOU HAVE INFO L.\n[Departure ATIS] KMSP DEP ATIS X 1653Z - KMSP DEP INFO X 1653Z. 00000KT 10SM BKN130 BKN250 25/20 A2997 (TWO NINER NINER SEVEN). DEPARTING RWY 12L, RWY 12R, RWY 17. NOTICE TO AIRMEN. RWYS 4, 22 CLSD. TWY R7. R8. R9. R10. CLOSED, TWY R BETWEEN R6 AND R10 CLOSED. ALL ACFT CTC METERING ON ONE THREE THREE POINT FIVE SEVEN WHEN READY TO PUSHBACK OR TAXI. HAZD WX INFO FOR MSP AREA AVBL FM FSS. CTN, BIRDS NEAR MSP. READ BACK HS AND ALT. ALL ACFT TAXI WITH TRANSPONDER AND ALTITUDE ENCODING ON. ...ADVS YOU HAVE INFO X.",
    "CYEG": "[Arrival ATIS] CYEG ARR ATIS V 1800Z 30011KT 20SM FEW021 FEW098 CIG BKN140 18/12 A2990 APCH RNAV Z OR Y RWY 02, INFORM ARRL OF REQ APCH ON INITIAL CTC. LDG AND DEP RWY 02. TWY B1 CLSD. SIMUL APPROACHES MAY BE IN EFCT. CYYC GDP IN EFCT CTC CYEG FIC ON FREQ 122.375 OR TEL 1-780-890-8386. INFORM CYEG ATC INFO V\n[Departure ATIS] CYEG DEP ATIS V 1800Z CYEG ARR ATIS V 1800Z 30011KT 20SM FEW021 FEW098 CIG BKN140 18/12 A2990 APCH RNAV Z OR Y RWY 02, INFORM ARRL OF REQ APCH ON INITIAL CTC. LDG AND DEP RWY 02. TWY B1 CLSD. SIMUL APPROACHES MAY BE IN EFCT. CYYC GDP IN EFCT CTC CYEG FIC ON FREQ 122.375 OR TEL 1-780-890-8386. INFORM CYEG ATC INFO V",
    "EHAM": "[Arrival ATIS] EHAM ARR ATIS C 1750Z EHAM ARRIVAL INFO C. DEMAND. MAIN LANDING RWY 36 R. SECONDARY LANDING RWY 36 C. TRANSITION LEVEL 040. WIND 310 DEG, 9 KT, VRB BTN 270 AND 360 DEG, 13 KT MAX, 4 KT MNM. WIND SECONDARY RUNWAY 320 DEG, 7 KT. CAVOK. T 17. DP 10. QNH 1027 HPA. NOSIG. OPERATIONAL REPORT. INDEPENDENT PARALLEL APPROACHES IN PROGRESS. ILS RWY 36 C DOWNGRADED CLASSIFICATION I/C/ 1 SUPPORTS CAT 1. CONTACT APCH WITH CALLSIGN ONLY. END OF INFO C\n[Departure ATIS] EHAM DEP ATIS R 1550Z EHAM DEPARTURE INFO R. DEMAND. MAIN DEPARTURE RWY 36 L. MAIN LANDING RWY 36 R. WIND 310 DEG, 11 KT, VRB BTN 250 AND 350 DEG, 16 KT MAX, 6 KT MNM. VIS 10 KM OR MORE. CLD FEW 3000 FT. T 18. DP 10. QNH 1027 HPA. OPERATIONAL REPORT. INFORM SCHIPHOL DEL BY VOICE IF UNABLE TO COMPLY WITH NADP 2. END OF INFO R",
    "EBBR": "[Arrival ATIS] EBBR ARR ATIS P 0824Z EBBR NAT, EXP VECT FOR ILS APP ARR RWY25L RSCD AT 0809 RWY25L DRY. DEP RWY25R TRL 055 ILS RWY 25R U/S. RNP RWY 25R AVBL AT ATC DISCRETION. RWY 25L RWY STOPBARS U/S 290/1KT CAVOK T24 DP17 QNH 1020HPA NOSIG CFM ARR P\n[Departure ATIS] EBBR DEP ATIS S 0855Z EBBR NAT, DEP RWY25R RSCD AT 0618 RWY25R DRY. ARR RWY25L TRL 055 TWY OUT6, B3 CLSD. OUT7, E6, B1 MAX CAT C 120/4KT VRB BTN 090 AND 190 CAVOK T26 DP17 QNH 1019HPA NOSIG CFM DEP S",
    "EDDF": "[Arrival ATIS] EDDF ARR ATIS F 0834Z ARR-ATIS EDDF F SPECI 180834 EXPECT INDEPENDENT PARALLEL ILS Z APCH RWY 25R OR ILS APCH RWY 25L RWY 25R 25L GLS APCH ON REQ , DO NOT MISTAKE TWY M FOR RWY 25C WHEN PERFORMING VISUAL APPROACH , FLOCK OF BIRDS OBSERVED IN THE VCY OF RWYS, COORDINATED DRONE OPERATION SOUTH OF THE AIRFIELD IN 100 MTRS TRL 60 VRB02KT CAVOK T28 DP16 QNH1020 END OF ATIS F\n[Departure ATIS] EDDF DEP ATIS Z 1650Z -DEP-ATIS EDDF Z METAR 031650 - -RWY 25C 18 - -TRL 60 - -VRB08KT RWY18 VRB05KT -CAVOK - - -T25 DP08 -QNH1024 - -TREND NOSIG",
    "EDDL": "[Arrival ATIS] EDDL ARR ATIS T 0420Z -ATIS EDDL T METAR 270420 -EXPECT VECTORS ILS APPROACH RWY 23R -RWY 23L 23R -K1 CLOSED? -TRL 60 -EXPECT INTENSE BIRD ACTIVITY IN THE VICINITY OF RWY SYSTEM -25003KT -CAVOK - - -T24 DP21 -QNH1016 - -TREND NOSIG\n[Departure ATIS] EDDL DEP ATIS R EDDL ARR/DEP DATIS RPT -ATIS EDDL R METAR 020550 -EXPECT VECTORS ILS APPROACH -RWY 23L -TWY L8 CLOSED BETWEEN TWY M AND RWY 23L -TRL 60 - -23010KT -CAVOK - - -T19 DP13 -QNH1020 - -TREND NOSIG",
    "EDDK": "[Arrival ATIS] EDDK ATIS U 1750Z -ATIS EDDK U METAR 031750 -EXPECT ILS APCH OR RNP APCH -RWY 31R 24 -RWY COND RWY 31R AT TIME 1320 RWYCC 6 RWY 24 AT TIME 1320 RWYCC 6 -TRL 60 -RWY 13R AND RWY 31L CLOSED FOR DEPARTURE AND LANDING: TAXIING BTN THR RWY 13R AND INTERSECTION RWY 24 POSSIBLE : -29013KT -CAVOK - - -T23 DP08 -QNH1025 - -TREND NOSIG\n[Departure ATIS] EDDK DEP ATIS Q EDDK ARR/DEP DATIS RPT -ATIS EDDK Q METAR 291920 -EXPECT ILS APCH -RWY 31R 06 -RWY COND RWY 31R AT TIME 1830 RWYCC 6 DEPOSIT TOTAL RWY DRY RWY 06 AT TIME 1830 RWYCC 6 DEPOSIT TOTAL RWY DRY -TRL 60 -RWY 13R AND RWY 31L CLOSED FOR DEPARTURE AND LANDING: TAXIING BTN THR RWY 13R AND INTERSECTION RWY 24 POSSIBLE : -04003KT -CAVOK - - -T24 DP13 -QNH1024 - -TREND NOSIG",
    "EBLG": "[Arrival ATIS] EBLG ATIS F 0850Z EBLG INFO, EXP RNAV TO ILS APP ARR RWY22L DEP RWY22L RWY 22L DRY, RWYCC 666. TRL 055 TWY A4 CLSD. ADZ ON GND FREQ IF UNABLE DEP FM S4 230/4KT VRB BTN 170 AND 250 CAVOK T26 DP18 QNH 1020HPA NOSIG CFM ATIS F",
    "LSZH": "[Arrival ATIS] LSZH ARR ATIS A 1150Z ARRIVALS, EXP ILS APCH, RWY 14. TRL 70. DEP RWY 28. INCREASED BIRD ACT. WIND VRB, 2 KT. VIS 10 KM OR MORE, TDZ 10 KM OR MORE. CLD SCT 5000 FT. T 26. DP 13. QNH 1026. NOSIG.\n[Departure ATIS] LSZH DEP ATIS O 1150Z DEP RWY 28. TRL 70. ARRIVALS, EXP ILS APCH, RWY 14. INCREASED BIRD ACT. TMA S 1 IS NOT ACT. TMA S 2 AND S 3 ARE NOT ACT. WIND VRB, 2 KT. VIS 10 KM OR MORE. CLD SCT 5000 FT. T 26. DP 13. QNH 1026. NOSIG.",
    "LIMC": "[Arrival ATIS] LIMC ARR ATIS C 0850Z LIMC ARR C 0850Z I.L.S. ZULU RWY IN USE 35R TL 70 TAXIWAY ECHO WHISKY CLOSED... WIND TDZ VRB3KT CAVOK T29 DP18 QNH 1021HPA QFE 0996HPA\n[Departure ATIS] LIMC DEP ATIS D 0850Z LIMC DEP D 0850Z RWY IN USE 35L TL 70 INTERSECTION ECHO WHISKY CLOSED.. WIND END VRB1KT CAVOK T29 DP18 QNH 1021HPA QFE 0995HPA DATALINK CLEARANCE AVAILABLE.... CONTACT 1 3 1 8 8 0 TO BE RELEASED BY THE AIRPORT OPERATOR ...",
    "LIRF": "[Arrival ATIS] LIRF ARR ATIS I 0850Z LIRF ARR I 0850Z RWY 16L RNP RWY 16R ILS Z RWY IN USE 16L 16R TL 70 DEPENDENT PARL ILS APCH INPR RWY IN USE 16R OR 16L ASSIGNED BY ROME RADAR WIND RWY 16L TDZ VRB2KT VRB BTN 100/AND 210/ RWY 16R TDZ 240/7KT VRB BTN 170/AND 260/ CAVOK T31 DP18 QNH 1019HPA RRSM\n[Departure ATIS] LIRF DEP ATIS G 0825Z LIRF DEP G 0825Z RWY IN USE 25 TL 70 RWYS IN USE FOR ARR 16L AND 16R WIND END VRB6KT CAVOK T30 DP17 QNH 1014HPA REA IS SENT AUTOMATICALLY ONCE RLSD BY RAMP WHEN READY CONTACT FIUME RAMP 121.725",
    "EINN": "[Arrival ATIS] EINN ARR ATIS K 1800Z EXPECT I L S CATEGORY 1 LDG RWY24 TKOF RWY24 TRL FL060 26012KT 9999 FEW018 BKN042 19/15 QNH Q1027 TREND NOSIG ADVISE AT FIRST CONTACT YOU HAVE ATIS INFO K",
    "EGLL": "[Arrival ATIS] EGLL ARR ATIS G 1150Z LANDING RWY 27R TRANSITION-LEVEL: FL 70 IF STAND GUIDANCE IS OFF OR FAILS, REMAIN ON THE TAXIWAY CENTRELINE AND ADVISE ATC RUNWAY 27R REDUCED DECLARED DISTANCES WITH TAKE OFF RUN AVAILABLE 3362METRES AND LANDING DISTANCE AVAILABLE 3362METRES DET VOR OOS AUTO VRB04KT 9999 NCD 22/09 Q1029 ACKNOWLEDGE RECEIPT OF INFORMATION G\n[Departure ATIS] EGLL DEP ATIS H 1750Z DEPARTURE RWY 27R PILOTS THAT ARE IN RECEIPT OF DATALINK CLEARANCES ARE REMINDED THEY MUST CONTACT DELIVERY ON 121.980 WHEN READY FOR START DET VOR OOS RUNWAY 27R REDUCED DECLARED DISTANCES WITH TAKE OFF RUN AVAILABLE 3362METRES AND LANDING DISTANCE AVAILABLE 3362METRES AUTO 28012KT 240V310 9999 NCD 26/08 Q1026 ACKNOWLEDGE RECEIPT OF INFORMATION H AND REPORT AIRCRAFT TYPE AND CURRENT QNH ON FIRST CONTACT WITH HEATHROW",
    "EPWA": "[Arrival ATIS] EPWA ARR ATIS G 0819Z EPWA ARR G. TIME 0817. EXP U ARR ILS Z APCH FOR RWY 33. TRANSITION LEVEL 80. WIND 290 DEG, 10 KT, VRB BTN 250 AND 320 DEG. CAVOK. T 22. DP 11. QNH 1019. NOSIG. CAUTION. BIRD ACT. END OF EPWA ARR G\n[Departure ATIS] EPWA DEP ATIS X 1701Z EPWA DEP X. TIME 1700. DEP RWY 29. ARR RWY 33, EXP U ARR ILS Z. REPORT READY FOR STARTUP ON DELIVERY 121 DECIMAL 605. TRANSITION LEVEL 80. WIND 300 DEG, 16 KT. CAVOK. T 21. DP 7. QNH 1016. NOSIG. CAUTION. BIRD ACT. END OF EPWA DEP X",
    "EFHK": "[Arrival ATIS] EFHK ARR ATIS Q 0850Z EXPECT ILS APCH ARR RWY 22L RUNWAY 22L CONDITION REPORT AT 0728 UTC RUNWAY CONDITION CODES 6 , 6 , 6 CONTAMINANTS ALL PARTS DRY TRL 65 WIND 270 DEG 6 KT VRB BTN 240 AND 300 DEG VIS 10KM FEW 3900 FT T 20 DP 11 QNH 1008 NOSIG ACK INFO Q\n[Departure ATIS] EFHK DEP ATIS H 1620Z DEP RWYS 22R AND 22L RUNWAY 22R CONDITION REPORT AT 1329 UTC RUNWAY CONDITION CODES 6 , 6 , 6 CONTAMINANTS ALL PARTS DRY RUNWAY 22L CONDITION REPORT AT 1330 UTC RUNWAY CONDITION CODES 6 , 6 , 6 CONTAMINANTS ALL PARTS DRY WIND 110 DEG 6 KT VIS 10KM FEW 1400 FT. SCT 1600 FT. FEW TCU 2800 FT T 19 DP 15 QNH 1003 TEMPO CLD FEW CB 3000 FT. ACK INFO H",
    "LTAC": "[Arrival ATIS] LTAC ARR ATIS N 0820Z EXP ILS V APCH 03C DEP RWY 03L RWY 03C WIND 070 DEG 13 KT VRB BTN 020 DEG AND 110 DEG RWY 03L WIND 070 DEG 13 KT VRB BTN 020 DEG AND 100 DEG TRL 110 VIS 9999 SCT04000 FT T 25 DP 07 QNH 1020 NOSIG FOR DELIVERY CTC 121.9. FOR DELIVERY FIRST USE DIGITAL DEP CLR. CTN BIRD HAZARD OVR AERODROME. APCH FREQUENCY 129.050. TAXIWAY ECHO 1 IS CLOSED. END OF ATIS N",
    "UBBB": "[Arrival ATIS] UBBB ARR ATIS F 0830Z ATIS F EXP ILS/ LDG 17 DEP 17 IN USE RWY 17 CLEAR DRY 70 TLVL 110 WIND WIND RWY 17 110 4 KT SPD MAX 10 MIN 2 VIS CAVOK T 30 / DP 14 QNH 1014 HPA TREND TREND NOSIG RWY 16 CLSD ONMAINT OBS BIRDS IN 2000 FT MODERATE BIRDS ACT IN VICINITY OF AP END OF ATIS F\n[Departure ATIS] UBBB DEP ATIS F 0830Z ATIS F EXP ILS/ LDG 17 DEP 17 IN USE RWY 17 CLEAR DRY 70 TLVL 110 WIND WIND RWY 17 110 4 KT SPD MAX 10 MIN 2 VIS CAVOK T 30 / DP 14 QNH 1014 HPA TREND TREND NOSIG RWY 16 CLSD ONMAINT OBS BIRDS IN 2000 FT MODERATE BIRDS ACT IN VICINITY OF AP END OF ATIS F",
    "ZWWW": "[Arrival ATIS] ZWWW ARR ATIS O 1800Z EXP ILSDME Z APCH LDG RWY 26R TA 3000 WIND 280/4MPS VRB BTN 240/ AND 320/ CAVOK T 29 /DP 13 QNH 1008 HPA ADZ YOU HAVE INFO O.\n[Departure ATIS] ZWWW DEP ATIS N 0430Z DEP RWY 26L TA 3000 WIND 010/6MPS VIS 9999M CLD FEW 990M T 28 /DP 14 QNH 1013 HPA ADZ YOU HAVE INFO N.",
    "ZLXY": "[Arrival ATIS] ZLXY ARR ATIS B 0800Z EXP ILS APCH LDG RWY 05L & 06R WIND 110/3MPS VIS 9999M -RA CLD FEW 480M /SCT 900M /OVC 1800M T 22 /DP 18 QNH 1007 HPA RUNWAY 05L SURFACE CONDITION CODE 555 RUNWAY 06L SURFACE CONDITION CODE 555 RUNWAY 06R SURFACE CONDITION CODE 555 ADZ YOU HAVE INFO B.\n[Departure ATIS] ZLXY DEP ATIS U 0400Z DEP RWY 05L & 06L WIND VRB/1MPS VIS 9999M CLD FEW 450M /SCT 900M /OVC 1800M T 23 /DP 19 QNH 1008 HPA ADZ YOU HAVE INFO U.",
    "ZBAA": "[Arrival ATIS] ZBAA ARR ATIS K 0900Z EXP ILS APCH INDEPENDENT PARL INSTR APCH LDG RWY 36L & 01 WIND 090 DEG 2 MPS 050V150 DEG VIS 6000 CLD FEW 990M T 28 /DP 23 QNH 1004 HPA ADZ YOU HAVE INFO K.\n[Departure ATIS] ZBAA DEP ATIS G 0700Z DEP RWY 36L & 36R & 01 WIND 100 DEG 2 MPS 060V150 DEG VIS 6000 CLD FEW 900M T 28 /DP 23 QNH 1005 HPA RWY INDEPENDENT PARALLEL DEP ADZ YOU HAVE INFO G.",
    "ZBHH": "[Arrival ATIS] ZBHH ARR ATIS S 0700Z EXP ILSDME APCH LDG RWY 26 TA 3000 /TRL 3600 WIND 210/5MPS VRB BTN 180/ AND 240/ VIS 9999M CLD SCT 1200M T 30 /DP 16 QNH 1007 HPA ADZ YOU HAVE INFO S.\n[Departure ATIS] ZBHH DEP ATIS K 2300Z DEP RWY 26 TA 3000 /TRL 3600 WIND 060/3MPS VRB BTN 010/ AND 080/ CAVOK T 21 /DP 15 QNH 1010 HPA ADZ YOU HAVE INFO K.",
    "ZSQD": "[Arrival ATIS] ZSQD ARR ATIS R 0800Z EXP ILSDME APCH LDG RWY 17 TA 3000 /TRL 3600 WIND 150/7MPS CAVOK T 27 /DP 19 QNH 1007 HPA SEGREGATED OPERATION VISUAL APPROACH OPERATION IN PROGRESS. RUNWAY 17,IF MISSED APPROACH,EXPECT FOLLOW THE STANDARD MISSED APPROACH PROCEDURE,CLIMB TO 900M ON QNH OR BY ATC CAUTION MAYBE THERE IS A FLOCK OF BIRDS IN THE VICINITY OF AIRPORT ADZ YOU HAVE INFO R.\n[Departure ATIS] ZSQD DEP ATIS F 2200Z DEP RWY 16 TA 3000 /TRL 3600 WIND 160/4MPS VIS 9999M CLD SCT 270M T 23 /DP 22 QNH 1009 HPA VISUAL APPROACH OPERATION IN PROGRESS. RUNWAY 16,IF MISSED APPROACH,EXPECT FOLLOW THE STANDARD MISSED APPROACH PROCEDURE,CLIMB TO 600M ON QNH OR BY ATC CAUTION MAYBE THERE IS A FLOCK OF BIRDS IN THE VICINITY OF AIRPORT ADZ YOU HAVE INFO F."
  },
  "windtemp_alaska": "\n000\nFBAK31 KWNO 031400\nFD1AK1\nDATA BASED ON 031200Z    \nVALID 031800Z   FOR USE 1400-2100Z. TEMPS NEG ABV 24000\n\nFT  3000    6000    9000   12000   18000   24000  30000  34000  39000\nADK 9900 1505+05 2507+02 2615-01 2626-14 2636-26 274942 286550 289059\nADQ 3605 3306+01 9900-05 3108-09 3016-20 3026-32 304149 293052 292245\nAKN 2115 2115+00 2315-04 2318-09 2322-21 2327-33 254849 263849 262044\nANC 9900 9900+02 9900-04 9900-10 0105-22 0106-35 321250 300751 310542\nANN 1818 2117+01 2014-04 2411-09 2525-22 2332-33 233847 243848 243144\nBET 3310 9900-02 9900-06 1107-12 1022-23 1230-36 141746 210642 290742\nBRW 2917 3115-01 3115-06 3415-10 3416-21 3316-32 351945 012149 021744\nBTI 3117 2916-01 3115-05 3213-09 3008-20 2117-31 222548 201451 990043\nBTT 0607 3205+03 3206-04 9900-10 3105-22 9900-35 160849 990049 070543\nCDB 2822 2730+02 2732-03 2739-07 2753-18 2758-30 275646 285653 284750\nCZF 9900 0706-01 0817-05 0821-11 1031-23 0940-35 084748 071943 031141\nEHM 2912 2610-02 2515-07 2515-13 2625-24 2638-34 264344 263143 272042\nFAI 2907 3010+05 3209-03 3109-10 3011-23 9900-34 141748 141353 990043\nFYU 9900 3405+02 3314-04 3217-10 3610-21 1006-31 151748 151655 130543\nGAL 3506 3006+03 2708-04 2607-11 9900-22 9900-36 990050 030848 041144\nGKN 1905 9900+02 0209-04 0109-10 0109-22 9900-35 111749 990050 990042\nHOM 2211 9900+01 0806-04 1010-10 9900-22 3008-34 291549 281552 281243\nJNU 1705 1813-02 2109-06 2007-10 2105-23 2407-34 230847 221149 221041\nLUR 0121 0225+00 0119-05 3617-09 0127-20 0240-31 024946 024150 033046\nMCG 9900 0605+03 1007-04 1207-10 1409-23 1906-34 220950 990051 990043\nMDO 9900 0506-01 0612-05 0511-10 0316-22 0119-35 342248 311449 310542\nOME 0615 0712+02 0611-04 0308-10 0614-22 0418-34 043349 043349 042344\nORT      3419+01 3323-05 3424-10 3414-22 3608-33 061749 081052 990042\nOTZ 3409 3506+01 9900-05 3507-10 3507-21 0218-33 033447 033552 042345\nSNP 3217 2926-04 2931-08 2840-12 2863-21 2886-30 289044 287048 283844\nTKA 1911 9900+02 0709-03 0608-10 9900-22 0206-35 341150 990051 990043\nUNK 1011 1010+02 1010-04 0910-10 0811-23 0614-35 041450 041448 041343\nYAK 2106 9900-02 9900-06 1008-10 9900-23 9900-35 990048 990048 230541\nIKO 3012 2713+04 2719+00 2625-04 2738-16 2748-28 276143 276452 275258\nAFM 9900 9900+03 0906-04 0605-09 3605-21 3608-35 032748 032249 041545\n5AB 0912 0805+05 9900+03 9900-02 2310-14 2422-26 243242 254651 246659\n5AC 2118 2219+02 2324-03 2327-08 2434-21 2440-32 246044 256645 255544\n5AD 2916 2911-02 3012-07 3114-10 3217-22 3322-33 332444 312644 292942\n5AE 3018 2915+01 3125-02 3031-06 2932-18 3042-30 305247 295754 293549\n5AF 2108 2207+00 2208-05 2110-10 2111-23 2009-35 220947 241346 251942\n5AG 0913 0809-01 0605-05 0707-10 9900-22 0306-34 330547 300849 280942\n",
  "vaac_tokyo": [
    {
      "id": "20260703_30027000_0224",
      "year": "2026",
      "volcano": "Sheveluch",
      "psn": "N5639 E16122",
      "issued": "20260703",
      "text": "FVFE01 RJTD 031800\nVA ADVISORY\nDTG: 20260703/1800Z\nVAAC: TOKYO\nVOLCANO: SHEVELUCH 300270\nPSN: N5639 E16122\nAREA: RUSSIA\nSOURCE ELEV: 3283M AMSL\nADVISORY NR: 2026/224\nINFO SOURCE: HIMAWARI-9\nERUPTION DETAILS: VA CONTINUOUSLY OBS IN SATELLITE IMAGERY\nOBS VA DTG: 03/1720Z\nOBS VA CLD: SFC/FL280 N5129 E15522 - N5332 E16447 - N4916 E16524 - \nN4517 E16219 - N4739 E15748 MOV N 60KT SFC/FL280 N5746 E15719 - \nN5905 E15941 - N5823 E16011 - N5650 E15751 MOV N 5KT\nFCST VA CLD +6 HR: 03/2320Z SFC/FL320 N4749 E16739 - N4638 E16545 - \nN4733 E15658 - N5343 E15509 - N5558 E16429 SFC/FL290 N6105 E16013 - \nN5955 E16041 - N5727 E15704 - N6125 E15825\nFCST VA CLD +12 HR: 04/0520Z SFC/FL340 N4830 E17118 - N4629 E15908 - \nN4915 E15340 - N5412 E15340 - N5805 E16359 SFC/FL290 N6155 E16114 - \nN5908 E15737 - N6355 E15622 - N6418 E15801\nFCST VA CLD +18 HR: NO VA EXP\nRMK: SOME PART OF VA OBSCURED BY MET CLOUD.\nNXT ADVISORY: 20260704/0000Z=",
      "img_url": "https://ds.data.jma.go.jp/svd/vaac/data/VAGFN/2026/Images/20260703_30027000_0224_QH21_01.png",
      "sat_img_url": "https://ds.data.jma.go.jp/svd/vaac/data/Sat/2026/Images/30027000/09-ir/20260703_1720_202607031800_ir.png",
      "text_url": "https://ds.data.jma.go.jp/svd/vaac/data/TextData/2026/20260703_30027000_0224_Text.html"
    },
    {
      "id": "20260702_27303000_0714",
      "year": "2026",
      "volcano": "Mayon",
      "psn": "N1315 E12341",
      "issued": "20260702",
      "text": "FVFE01 RJTD 021550\nVA ADVISORY\nDTG: 20260702/1550Z\nVAAC: TOKYO\nVOLCANO: MAYON 273030\nPSN: N1315 E12341\nAREA: PHILIPPINES\nSOURCE ELEV: 2462M AMSL\nADVISORY NR: 2026/714\nINFO SOURCE: HIMAWARI-9 PHIVOLCS\nERUPTION DETAILS: ERUPTION AT 20260702/1535Z FL090 EXTD WSW REPORTED\nOBS VA DTG: 02/1530Z\nOBS VA CLD: VA NOT IDENTIFIABLE FM SATELLITE DATA WIND FL090 100/11KT\nFCST VA CLD +6 HR: NOT AVBL\nFCST VA CLD +12 HR: NOT AVBL\nFCST VA CLD +18 HR: NOT AVBL\nRMK: WE WILL ISSUE FURTHER ADVISORY IF VA IS DETECTED IN SATELLITE \nIMAGERY.\nNXT ADVISORY: NO FURTHER ADVISORIES=",
      "img_url": "https://ds.data.jma.go.jp/svd/vaac/data/VAGFN/2026/Images/20260702_27303000_0714_QH21_01.png",
      "sat_img_url": null,
      "text_url": "https://ds.data.jma.go.jp/svd/vaac/data/TextData/2026/20260702_27303000_0714_Text.html"
    },
    {
      "id": "20260701_30006000_0001",
      "year": "2026",
      "volcano": "Mutnovsky",
      "psn": "N5227 E15812",
      "issued": "20260701",
      "text": "FVFE01 RJTD 012206\nVA ADVISORY\nDTG: 20260701/2206Z\nVAAC: TOKYO\nVOLCANO: MUTNOVSKY 300060\nPSN: N5227 E15812\nAREA: RUSSIA\nSOURCE ELEV: 2288M AMSL\nADVISORY NR: 2026/1\nINFO SOURCE: KVERT KBGS UHPP HIMAWARI-9\nERUPTION DETAILS: ERUPTION AT 20260701/2016Z FL170 EXTD W REPORTED\nOBS VA DTG: 01/2140Z\nOBS VA CLD: VA NOT IDENTIFIABLE FM SATELLITE DATA WIND FL170 120/8KT\nFCST VA CLD +6 HR: NOT AVBL\nFCST VA CLD +12 HR: NOT AVBL\nFCST VA CLD +18 HR: NOT AVBL\nRMK: WE WILL ISSUE FURTHER ADVISORY IF VA IS DETECTED IN SATELLITE \nIMAGERY.\nNXT ADVISORY: NO FURTHER ADVISORIES=",
      "img_url": "https://ds.data.jma.go.jp/svd/vaac/data/VAGFN/2026/Images/20260701_30006000_0001_QH21_01.png",
      "sat_img_url": null,
      "text_url": "https://ds.data.jma.go.jp/svd/vaac/data/TextData/2026/20260701_30006000_0001_Text.html"
    },
    {
      "id": "20260701_27202000_0225",
      "year": "2026",
      "volcano": "Kanlaon",
      "psn": "N1025 E12308",
      "issued": "20260701",
      "text": "FVFE01 RJTD 012010\nVA ADVISORY\nDTG: 20260701/2010Z\nVAAC: TOKYO\nVOLCANO: KANLAON 272020\nPSN: N1025 E12308\nAREA: PHILIPPINES\nSOURCE ELEV: 2435M AMSL\nADVISORY NR: 2026/225\nINFO SOURCE: HIMAWARI-9 PHIVOLCS\nERUPTION DETAILS: ERUPTION AT 20260701/1954Z FL090 EXTD NNW REPORTED\nOBS VA DTG: 01/1950Z\nOBS VA CLD: VA NOT IDENTIFIABLE FM SATELLITE DATA WIND FL090 120/5KT\nFCST VA CLD +6 HR: NOT AVBL\nFCST VA CLD +12 HR: NOT AVBL\nFCST VA CLD +18 HR: NOT AVBL\nRMK: WE WILL ISSUE FURTHER ADVISORY IF VA IS DETECTED IN SATELLITE \nIMAGERY.\nNXT ADVISORY: NO FURTHER ADVISORIES=",
      "img_url": "https://ds.data.jma.go.jp/svd/vaac/data/VAGFN/2026/Images/20260701_27202000_0225_QH21_01.png",
      "sat_img_url": null,
      "text_url": "https://ds.data.jma.go.jp/svd/vaac/data/TextData/2026/20260701_27202000_0225_Text.html"
    }
  ],
  "vaac_alaska": [
    {
      "text": "\n000\nFVAK21 PAWU 031214\nVAAAK1\nVA ADVISORY\n\nDTG: 20260703/1211Z\n\nVAAC: ANCHORAGE\n\nVOLCANO: SHEVELUCH 300270\n\nPSN: N5639 E16122\n\nAREA: KAMCHATKA PENINSULA\n\nSOURCE ELEV: 10771 FT AMSL\n\nADVISORY NR: 2026/167\n\nRMK: PLEASE SEE FVFE01 RJTD ISSUED BY VAAC TOKYO WHICH DESCRIBES\nCONDITIONS NEAR THE VAAC ANCHORAGE AREA OF RESPONSIBILITY...NS\n\n\n\n",
      "issued": "2026-07-03T12:14:00+00:00",
      "volcano": "Sheveluch",
      "psn": "N5639 E16122"
    }
  ]
}