{
  "updated_utc": "2026-07-22T04:10Z",
  "metar": {
    "RJAA": "METAR RJAA 220230Z VRB02KT 9999 SCT035 34/26 Q1006 NOSIG",
    "PANC": "METAR PANC 220253Z 14013G27KT 10SM -RA BKN060 BKN075 OVC090 13/06 A3003 RMK AO2 PK WND 16027/0246 RAB47 SLP170 P0000 60000 T01280061 57009",
    "PAFA": "METAR PAFA 220253Z 09006KT 10SM FEW035 FEW050 SCT110 BKN200 22/08 A2980 RMK AO2 SLP094 T02170078 56029",
    "PAED": "METAR PAED 220255Z AUTO 00000KT 10SM -RA FEW039 OVC060 14/09 A3001 RMK AO2 RAE22DZB22E51RAB51 SLP159 P0000 60001 T01360094 56010 $",
    "KSEA": "METAR KSEA 220253Z 32005KT 10SM SCT200 32/10 A2991 RMK AO2 SLP130 T03170100 55003 $",
    "ZSPD": "METAR ZSPD 220230Z 21004MPS 180V250 CAVOK 32/26 Q1006 NOSIG",
    "ZSSS": "METAR ZSSS 220230Z 22003MPS 140V260 CAVOK 31/26 Q1006 NOSIG",
    "RJFR": "METAR RJFR 220300Z 08005KT 9999 FEW025 32/26 Q1009",
    "VHHH": "METAR VHHH 220230Z 19007KT 120V240 9999 FEW010 31/25 Q1009 NOSIG",
    "RCTP": "METAR RCTP 220230Z 25013KT 9999 FEW018 SCT025 33/26 Q1009 NOSIG RMK A2982",
    "ZGSZ": "METAR ZGSZ 220300Z 18006MPS 9999 FEW026 31/27 Q1009 NOSIG",
    "WSSS": "METAR WSSS 220230Z 11006KT 090V170 9999 SCT018 FEW020TCU BKN300 30/25 Q1013 NOSIG",
    "WMKK": "METAR WMKK 220230Z 08004KT 020V140 9000 FEW017CB 27/25 Q1013 NOSIG",
    "WIDD": "METAR WIDD 220230Z 12005KT 9999 SCT014 31/26 Q1013 NOSIG",
    "VTBS": "METAR VTBS 220230Z 19003KT 140V250 9999 FEW020 30/21 Q1011 NOSIG",
    "VTBU": "METAR VTBU 220230Z VRB03KT 9999 FEW020 32/27 Q1011 NOSIG",
    "ROAH": "METAR ROAH 220230Z 28005KT 240V010 9999 VCSH FEW015 SCT039 30/27 Q1010",
    "VVDN": "METAR VVDN 220230Z 26004KT 9999 FEW020 BKN080 34/21 Q1008 NOSIG",
    "RCKH": "METAR RCKH 220230Z 28007KT 230V320 9999 SCT016 33/25 Q1009 NOSIG RMK A2982",
    "KLAX": "METAR KLAX 220253Z 27013KT 10SM FEW015 FEW150 23/17 A2997 RMK AO2 SLP145 T02330172 53005",
    "KONT": "METAR KONT 220253Z 24009G16KT 10SM CLR 28/13 A2998 RMK AO2 SLP134 T02780133 53013 $",
    "KSFO": "METAR KSFO 220256Z 22018KT 10SM FEW011 FEW200 26/13 A2990 RMK AO2 PK WND 21026/0217 SLP125 T02560133 53007 $",
    "KOAK": "SPECI KOAK 220250Z 30009KT 10SM FEW003 FEW020 FEW045 24/09 A2991 RMK AO2 SCSL NW",
    "KMHR": "METAR KMHR 220215Z AUTO 23009KT 9SM CLR 36/13 A2983 RMK AO2 T03600128 $",
    "KDFW": "METAR KDFW 220253Z 13005KT 10SM CLR 34/20 A2985 RMK AO2 SLP097 T03390200 53007 $",
    "KIAH": "METAR KIAH 220253Z 00000KT 10SM BKN250 29/21 A2985 RMK AO2 SLP105 T02890211 55001",
    "KORD": "METAR KORD 220251Z 03017G22KT 10SM BKN021 BKN080 21/16 A2991 RMK AO2 SLP125 T02110161 53043 $",
    "KJFK": "METAR KJFK 220251Z 24015KT 10SM BKN230 BKN250 23/21 A2968 RMK AO2 SLP049 60000 T02330206 58012 $",
    "KRFD": "METAR KRFD 220254Z 33009KT 10SM FEW060 21/14 A2993 RMK AO2 SLP131 T02110139 53027",
    "KIND": "METAR KIND 220254Z 32007KT 10SM FEW060 BKN250 24/19 A2984 RMK AO2 SLP097 T02440189 53019",
    "KDTW": "METAR KDTW 220253Z 34012G18KT 10SM FEW040 SCT110 21/14 A2978 RMK AO2 SLP081 60000 T02110144 51038",
    "KMSP": "METAR KMSP 220253Z 04009KT 10SM FEW070 SCT250 21/11 A3002 RMK AO2 SLP163 T02110111 53019",
    "CYEG": "METAR CYEG 220300Z 17003KT 6SM FU FEW055 20/18 A3008 RMK SC1 SC TR SLP189 DENSITY ALT 3300FT",
    "EHAM": "METAR EHAM 220225Z 29005KT 3900 -RADZ FEW007 SCT015 BKN029 15/14 Q1024 NOSIG",
    "EBBR": "METAR EBBR 220220Z 35001KT 9999 FEW020 BKN040 15/12 Q1025 NOSIG",
    "EDDF": "METAR EDDF 220220Z AUTO VRB02KT CAVOK 10/06 Q1022 NOSIG",
    "EDFH": "METAR EDFH 220220Z 33004KT CAVOK 12/08 Q1024",
    "EDDL": "METAR EDDL 220220Z AUTO VRB02KT 9999 FEW024 SCT039 12/10 Q1024 NOSIG",
    "EDDK": "METAR EDDK 220220Z AUTO 05001KT CAVOK 11/09 Q1024 NOSIG",
    "EBLG": "METAR EBLG 220220Z 29003KT CAVOK 13/11 Q1025 NOSIG",
    "LSZH": "METAR LSZH 220220Z AUTO VRB01KT 9999 FEW073 12/08 Q1023 NOSIG",
    "LIMC": "METAR LIMC 220220Z 05004KT CAVOK 21/16 Q1018 NOSIG",
    "LIRF": "METAR LIRF 220220Z 02004KT CAVOK 25/24 Q1012 NOSIG",
    "EINN": "METAR EINN 220230Z 36004KT 9999 BKN022 14/10 Q1032 NOSIG",
    "EGLL": "METAR EGLL 220220Z AUTO 13004KT 090V150 9999 NCD 16/12 Q1026",
    "EGSS": "METAR EGSS 220220Z AUTO VRB01KT 9999 OVC040 13/11 Q1027",
    "EPWA": "METAR EPWA 220230Z 27006KT CAVOK 10/08 Q1015 NOSIG",
    "UHPP": "METAR UHPP 220230Z 21006MPS 9000 -SHRA BKN007 OVC018CB 12/12 Q1004 R16R/CLRD62 NOSIG RMK MT OBSC QFE750/1000",
    "EFHK": "METAR EFHK 220220Z 31004KT 9999 SCT040 11/10 Q1009 NOSIG",
    "LBBG": "METAR LBBG 220230Z AUTO 00000KT 9999 SCT012/// BKN019/// 21/20 Q1013 NOSIG",
    "LTAC": "METAR LTAC 220220Z 05003KT 330V130 CAVOK 14/07 Q1016 NOSIG RMK RWY21C 03006KT RWY03L VRB02KT RWY21R 01006KT RWY03R VRB01KT RWY21L 01006KT 350V050",
    "UBBB": "METAR UBBB 220230Z 15004KT CAVOK 24/18 Q1010 NOSIG",
    "UTAA": "METAR UTAA 220300Z 29014KT 9999 FEW050 FEW100 28/16 Q1010 R88/CLRD70 NOSIG",
    "UACC": "SPECI UACC 220215Z 27002MPS 240V300 9999 SCT005 BKN030CB 17/16 Q0999 TEMPO SCT005 BKN020CB RMK QBB150 QFE718/0958",
    "UAAA": "METAR UAAA 220230Z VRB01MPS 9999 SCT050CB BKN100 23/16 Q1007 NOSIG",
    "UZTT": "METAR UZTT 220230Z 16006KT 140V210 CAVOK 27/15 Q1007 NOSIG",
    "ZWWW": "METAR ZWWW 220230Z 31007MPS CAVOK 29/14 Q1007 NOSIG",
    "ZLXY": "METAR ZLXY 220300Z 07003MPS 040V110 CAVOK 29/19 Q1005 NOSIG",
    "ZBAA": "METAR ZBAA 220230Z 14003MPS CAVOK 25/23 Q1005 NOSIG",
    "ZBHH": "METAR ZBHH 220300Z 28001MPS 9999 SCT040 25/15 Q1008 NOSIG",
    "ZSQD": "METAR ZSQD 220300Z 14003MPS 110V170 CAVOK 27/22 Q1006 NOSIG",
    "ZMCK": "METAR ZMCK 220230Z 25003MPS 220V300 9999 FEW030CB SCT033 22/12 Q1007 NOSIG RMK QFE641.1 53 MOP",
    "UUEE": "METAR UUEE 220230Z VRB01MPS CAVOK 16/14 Q1007 R24L/CLRD62 R24C/CLRD62 NOSIG",
    "UUDD": "METAR UUDD 220230Z 23003MPS 9999 -RA FEW036 16/15 Q1008 R31L/290045 NOSIG",
    "ULLI": "METAR ULLI 220230Z 13002MPS 100V160 9999 OVC006 13/12 Q1006 R88/090065 NOSIG RMK OBST OBSC",
    "USSS": "METAR USSS 220230Z 28002MPS CAVOK 20/18 Q1010 R26L/CLRD60 R26R/CLRD60 NOSIG RMK QFE737/0983",
    "UNNT": "METAR UNNT 220230Z VRB01MPS CAVOK 20/17 Q0996 R25/CLRD// R16/CLRD// NOSIG RMK QFE737/0983",
    "UNKL": "METAR UNKL 220230Z 00000MPS CAVOK 18/16 Q0997 R11/CLRD// NOSIG RMK QFE723",
    "UIBB": "METAR UIBB 220230Z 11003MPS 050V170 9999 NSC 22/14 Q1002 R12/CLRD62 NOSIG RMK QFE709/0946",
    "UEEE": "METAR UEEE 220230Z 01004MPS 9999 SCT050CB 21/16 Q1008 R23/09//63 NOSIG RMK QFE747",
    "UHHH": "METAR UHHH 220230Z 05007MPS CAVOK 29/19 Q1005 R88/090060 NOSIG RMK QFE747/0997",
    "UHSS": "METAR UHSS 220230Z 26002MPS 210V300 9999 NSC 27/20 Q1006 R19/CLRD70 NOSIG RMK QFE753/1004"
  },
  "taf": {
    "RJAA": "TAF RJAA 212305Z 2200/2306 27004KT 9999 FEW030 BECMG 2203/2205 19006KT TEMPO 2204/2207 -TSRA FEW015 BKN025 FEW025CB BECMG 2300/2303 09010KT",
    "PANC": "TAF PANC 220332Z 2204/2306 15016G28KT P6SM -RA FEW030 BKN060 FM220700 15015G25KT P6SM -SHRA SCT035 OVC050 FM221800 16010G18KT P6SM SCT045 BKN080 FM230300 16018G26KT P6SM -RA OVC040",
    "PAFA": "TAF PAFA 212344Z 2200/2306 14007KT P6SM VCSH FEW025 SCT050 BKN100 FM221100 21004KT 6SM -SHRA BR SCT025 BKN050 FM222000 18005KT P6SM VCSH OVC050",
    "PAED": "TAF AMD PAED 220116Z 2201/2303 24009KT 9999 -RA OVC050 650604 530208 QNH2994INS BECMG 2211/2212 20009KT 9999 VCSH FEW020 OVC040 620604 QNH2994INS TX15/2123Z TN09/2213Z",
    "KSEA": "TAF KSEA 220332Z 2204/2306 33006KT P6SM SCT250 FM220600 01006KT P6SM FEW250 FM221300 36003KT P6SM SKC",
    "ZSPD": "TAF ZSPD 220305Z 2206/2312 19004MPS 6000 SCT030 TX34/2206Z TX34/2306Z TN27/2221Z TEMPO 2207/2211 31005MPS TSRA FEW030CB TEMPO 2211/2214 30006G12MPS TSRA FEW030CB",
    "ZSSS": "TAF ZSSS 220305Z 2206/2312 20004MPS 6000 SCT030 TX33/2206Z TX35/2306Z TN27/2221Z TEMPO 2206/2210 33007G12MPS TSRA BKN011 FEW030CB TEMPO 2210/2213 30006G11MPS TSRA BKN013 FEW030CB",
    "RJFR": "TAF RJFR 212305Z 2200/2306 05006KT 9999 FEW030 BECMG 2204/2206 34012KT BECMG 2218/2221 15004KT BECMG 2300/2303 34012KT",
    "VHHH": "TAF VHHH 220200Z 2203/2309 18010KT 9999 FEW010 SCT025 TX33/2206Z TX33/2306Z TN28/2222Z TEMPO 2211/2217 10010KT",
    "RCTP": "TAF RCTP 212300Z 2200/2306 24010KT 9999 FEW010 BKN032 TEMPO 2200/2204 21005KT FEW010 BKN017 TEMPO 2204/2210 27015KT BECMG 2210/2211 20005KT TEMPO 2218/2224 13005KT",
    "ZGSZ": "TAF ZGSZ 220304Z 2206/2312 18004MPS 8000 SCT030 TX32/2206Z TX33/2306Z TN28/2222Z",
    "WSSS": "TAF AMD WSSS 220300Z 2203/2306 19007KT 9999 FEW015 SCT020 TEMPO 2203/2206 3000 TSRA FEW012CB BKN015",
    "WMKK": "TAF WMKK 212300Z 2200/2306 VRB03KT 9000 FEW018 TEMPO 2200/2203 6000 -TSRA FEW017CB SCT030 TEMPO 2207/2211 4000 TSRA FEW016CB SCT018",
    "VTBS": "TAF VTBS 212300Z 2200/2306 27005KT 9999 FEW020 BECMG 2203/2205 21008KT TEMPO 2208/2214 VRB15G25KT 4000 TSRA FEW018CB SCT030 BKN100",
    "VTBU": "TAF VTBU 212300Z 2200/2224 23008KT 9000 FEW020",
    "ROAH": "TAF AMD ROAH 220049Z 2200/2306 28005KT 9999 FEW010 SCT015 TEMPO 2204/2209 4000 SHRA BR FEW005 BKN008 FEW015CB",
    "VVDN": "TAF VVDN 212300Z 2200/2224 22008KT 9999 FEW020 BECMG 2206/2207 09010KT PROB40 TEMPO 2210/2214 24015G25KT 4000 TSRA BKN013 FEW015CB BKN050 BECMG 2214/2215 22006KT",
    "RCKH": "TAF RCKH 212300Z 2200/2306 24005KT 9999 FEW010 BKN032 TEMPO 2203/2209 26010KT TEMPO 2212/2218 32005KT TEMPO 2218/2224 06005KT",
    "KLAX": "TAF KLAX 220306Z 2203/2306 27010KT P6SM SKC FM220800 VRB03KT P6SM SKC FM221100 VRB03KT P6SM BKN008 FM221600 26006KT P6SM SKC FM222000 26015KT P6SM SCT250 FM222300 26015G22KT P6SM SCT250 FM230300 26010KT P6SM SCT250",
    "KONT": "TAF KONT 212320Z 2200/2306 25011G18KT P6SM FEW150 FM220200 24010KT P6SM SKC FM220800 VRB04KT P6SM SKC FM222100 25011G19KT P6SM FEW200",
    "KSFO": "TAF KSFO 220318Z 2203/2306 24018KT P6SM FEW070 FEW200 FM220900 20007KT P6SM OVC010 FM222000 24012KT P6SM OVC200 FM230300 25010KT P6SM OVC050",
    "KOAK": "TAF KOAK 212338Z 2200/2306 30009KT P6SM FEW200 FM220900 28010KT P6SM OVC010 FM222000 28014KT P6SM OVC200 FM230300 27013KT P6SM OVC050",
    "KMHR": "TAF KMHR 212324Z 2200/2224 23011KT P6SM BKN250 FM220500 17007KT P6SM FEW250 FM221700 23009G16KT P6SM SKC",
    "KDFW": "TAF KDFW 220249Z 2203/2306 VRB05KT P6SM FEW090 FM221100 01005KT P6SM FEW250 FM221700 05009KT P6SM SCT060",
    "KIAH": "TAF KIAH 220301Z 2203/2306 VRB03KT P6SM BKN250 FM221400 29006KT P6SM FEW070 SCT250 FM221800 34006KT P6SM FEW070 SCT250",
    "KORD": "TAF KORD 220230Z 2203/2306 04014G24KT P6SM BKN020 BKN050 FM220600 02013G21KT P6SM SCT025 SCT050 FM220900 35011KT P6SM SCT030 FM221700 02010KT P6SM SCT050 FM230400 29004KT P6SM SKC",
    "KJFK": "TAF KJFK 220231Z 2203/2306 22015G24KT P6SM SCT025 OVC040 TEMPO 2204/2206 BKN025 FM220600 23012KT P6SM BKN025 BKN250 FM221200 24014KT P6SM BKN025 OVC040 TEMPO 2212/2214 SCT025 FM221400 24014KT P6SM SCT025 BKN060 FM221900 23012KT P6SM BKN060 PROB30 2219/2223 4SM -TSRA BKN040CB FM230100 31011KT P6SM SCT060",
    "KRFD": "TAF KRFD 220230Z 2203/2224 35012G20KT P6SM SCT050 FM220400 02010G17KT P6SM FEW025 SCT150 FM221100 36010KT P6SM SCT040",
    "KIND": "TAF KIND 212320Z 2200/2306 32007KT P6SM SCT250 FM221400 35009KT P6SM SCT050",
    "KDTW": "TAF KDTW 220305Z 2203/2306 33012G20KT P6SM SCT040 FM220500 30010KT P6SM SCT025 BKN040 FM221400 33012G20KT P6SM SCT045 FM222000 30012KT P6SM SCT100 FM230100 28007KT P6SM SKC",
    "KMSP": "TAF KMSP 220247Z 2203/2306 36014KT P6SM SCT070 BKN250 FM220400 03007KT P6SM SCT250 FM220700 VRB04KT P6SM FEW250 FM221800 35007KT P6SM FEW060",
    "CYEG": "TAF CYEG 220240Z 2203/2224 VRB03KT P6SM FEW050 TEMPO 2203/2206 5SM FU FM220600 16005KT P6SM VCFG FEW003 FM220900 VRB03KT 1/2SM FG VV002 BECMG 2214/2216 2SM BR BKN004 FM221600 VRB03KT 2SM BR BKN004 BECMG 2216/2217 P6SM NSW SCT008 FM222000 24005KT P6SM FEW040 RMK NXT FCST BY 220600Z",
    "EHAM": "TAF EHAM 212259Z 2200/2306 31006KT 9999 FEW018 BKN025 PROB30 TEMPO 2208/2211 6000 -RADZ OVC018 BECMG 2209/2212 31015KT BECMG 2217/2220 33007KT",
    "EBBR": "TAF EBBR 212312Z 2200/2306 32003KT 9999 SCT025 PROB30 TEMPO 2203/2206 BKN012 PROB30 TEMPO 2303/2306 4500 -SHRA BKN012",
    "EDDF": "TAF EDDF 212300Z 2200/2306 VRB03KT CAVOK BECMG 2207/2209 31008KT TEMPO 2212/2218 32010G20KT",
    "EDFH": "TAF EDFH 212300Z 2200/2224 VRB03KT CAVOK BECMG 2207/2210 32009KT BECMG 2222/2224 32004KT",
    "EDDL": "TAF EDDL 212300Z 2200/2306 VRB03KT 9999 SCT030 BECMG 2206/2209 30011KT BECMG 2219/2222 30005KT PROB30 TEMPO 2304/2306 BKN014",
    "EDDK": "TAF EDDK 212300Z 2200/2306 VRB03KT CAVOK BECMG 2205/2208 31007KT PROB30 TEMPO 2205/2207 BKN012 BECMG 2209/2212 31012KT BECMG 2218/2221 31006KT",
    "EBLG": "TAF EBLG 212312Z 2200/2306 31004KT 9999 SCT025 PROB30 TEMPO 2204/2207 BKN012 PROB30 TEMPO 2305/2306 4500 -SHRA BKN012",
    "LSZH": "TAF LSZH 220225Z 2203/2309 VRB02KT CAVOK TX26/2215Z TN11/2204Z TN12/2304Z TEMPO 2210/2217 9999 FEW070 PROB40 TEMPO 2215/2219 32008KT",
    "LIMC": "TAF LIMC 212300Z 2200/2306 VRB05KT 9999 FEW050",
    "LIRF": "TAF LIRF 212300Z 2200/2306 VRB05KT CAVOK BECMG 2203/2205 03010KT BECMG 2209/2211 29015KT BECMG 2215/2217 34015KT BECMG 2302/2304 04010KT",
    "EINN": "TAF EINN 212300Z 2200/2224 35008KT 9999 SCT030",
    "EGLL": "TAF EGLL 212254Z 2200/2306 12010KT 9999 FEW045 BECMG 2203/2206 VRB03KT BECMG 2212/2215 06010KT BECMG 2218/2221 15010KT PROB40 2303/2306 21004KT",
    "EGSS": "TAF EGSS 212254Z 2200/2306 08004KT 9999 SCT035 PROB40 2202/2207 8000",
    "EPWA": "TAF EPWA 220230Z 2203/2303 26005KT CAVOK BECMG 2207/2210 28015KT TEMPO 2210/2215 29016G26KT SCT045TCU TEMPO 2215/2220 29018G30KT 4000 SHRA BKN040CB BECMG 2218/2220 25005KT PROB40 TEMPO 2220/2303 -SHRA BKN020CB",
    "UHPP": "TAF UHPP 220141Z 2203/2309 20005G12MPS 9999 BKN020CB TEMPO 2203/2211 -SHRA BKN010 OVC020CB BECMG 2209/2211 27003G08MPS TEMPO 2211/2221 1000 BR VV003",
    "EFHK": "TAF EFHK 220227Z 2203/2303 33005KT 9999 SCT040 PROB30 TEMPO 2203/2206 7000 -RA BKN012",
    "LBBG": "TAF LBBG 212300Z 2200/2224 VRB03KT 9999 SCT045 TEMPO 2201/2206 3000 BR SCT005 BKN010 BECMG 2205/2206 12014KT TEMPO 2206/2215 13018G34KT 5000 TSRA FEW015 SCT030CB BKN040 BECMG 2215/2217 29010KT",
    "LTAC": "TAF LTAC 212240Z 2200/2224 VRB02KT CAVOK PROB30 TEMPO 2214/2218 27012KT",
    "UBBB": "TAF UBBB 212257Z 2200/2224 VRB04KT CAVOK TX33/2210Z TN23/2201Z TEMPO 2200/2204 31005KT BECMG 2206/2208 14006KT TEMPO 2209/2216 18014KT SCT020 TEMPO 2220/2224 VRB04KT",
    "UTAA": "TAF UTAA 212245Z 2200/2224 28016KT 4000 DRDU SCT040 SCT050CB TEMPO 2200/2204 22010G20KT TEMPO 2206/2215 34014G24KT 3000 DRDU PROB30 TEMPO 2215/2219 VRB28KT 4000 -TSRA",
    "UACC": "TAF AMD UACC 220233Z 2202/2224 VRB01MPS 9999 SCT020CB BKN050 TX23/2210Z TN17/2202Z TEMPO 2202/2204 27005MPS 3100 -TSRA BR SCT002 BKN015CB BECMG 2204/2206 36005MPS TEMPO 2204/2206 30010MPS 3100 -TSRA SCT011 BKN015CB TEMPO 2206/2217 VRB18MPS 2000 TSRA SQ BKN015CB BECMG 2217/2219 VRB01MPS SCT030 BKN100",
    "UAAA": "TAF UAAA 212302Z 2200/2224 02003MPS 9999 SCT050CB BKN100 TX27/2210Z TN18/2200Z TEMPO 2205/2212 09003G08MPS BECMG 2213/2214 16003MPS TEMPO 2216/2224 22003MPS",
    "UZTT": "TAF UZTT 212300Z 2200/2224 13010KT 9999 FEW060CB SCT100 TX35/2211Z TN24/2200Z TEMPO 2200/2212 24015KT SCT050CB PROB40 TEMPO 2200/2212 -TSRA BKN050CB",
    "ZWWW": "TAF ZWWW 220306Z 2206/2312 33004G11MPS 8000 BKN040 TX32/2209Z TX31/2309Z TN24/2223Z BECMG 2306/2307 FEW040CB BKN040",
    "ZLXY": "TAF ZLXY 220303Z 2206/2306 06004MPS 6000 NSC TX35/2207Z TN23/2221Z TEMPO 2210/2213 30012G20MPS TSRA FEW040CB OVC050",
    "ZBAA": "TAF ZBAA 220303Z 2206/2312 14004MPS 6000 NSC TX27/2206Z TX28/2306Z TN21/2221Z TEMPO 2209/2213 TSRA FEW030CB BKN040",
    "ZBHH": "TAF ZBHH 220312Z 2206/2306 24004G09MPS 9999 SCT040 TX30/2208Z TN15/2222Z TEMPO 2206/2209 SCT040 FEW040CB BECMG 2211/2212 -TSRA SCT040 FEW040CB TEMPO 2212/2214 2800 +TSRA BECMG 2214/2215 NSW NSC",
    "ZSQD": "TAF ZSQD 220301Z 2206/2306 16004MPS 5000 BR NSC TX32/2306Z TN22/2220Z",
    "ZMCK": "TAF ZMCK 212245Z 2200/2306 VRB02MPS 9999 FEW030CB SCT033 TX26/2207Z TN12/2221Z PROB40 TEMPO 2204/2212 VRB08G13MPS TSRA SCT027CB SCT030",
    "UUEE": "TAF UUEE 220150Z 2203/2303 22003MPS 9999 BKN016 TX25/2212Z TN15/2302Z TEMPO 2203/2206 BKN007 TEMPO 2209/2218 24008G13MPS PROB40 TEMPO 2212/2218 -TSRA BKN016CB",
    "UUDD": "TAF UUDD 220154Z 2203/2309 14003MPS 8000 FEW007 BKN016 TX25/2212Z TN14/2301Z TEMPO 2203/2206 3000 -SHRA BKN005 BKN020CB BECMG 2206/2208 22005MPS PROB40 TEMPO 2210/2218 -TSRA BKN020CB",
    "ULLI": "TAF AMD ULLI 220335Z 2203/2303 35003MPS 6000 BKN016 TEMPO 2203/2206 OVC003 TEMPO 2209/2217 3100 -TSRA BKN016CB TEMPO 2300/2303 0400 FG SCT004",
    "USSS": "TAF USSS 220154Z 2203/2303 32003MPS 6000 SCT016 FM220500 35003G13MPS 9999 SCT040CB TEMPO 2206/2216 -TSRA FM221700 30003MPS 6000 SCT016",
    "UNNT": "TAF UNNT 220200Z 2203/2303 35003G08MPS 8000 BKN030 TX25/2210Z TN17/2222Z TEMPO 2203/2218 28008G16MPS 1500 TSRA BKN010 BKN020CB",
    "UNKL": "TAF UNKL 220150Z 2203/2303 12003G08MPS 8000 SCT040 TEMPO 2203/2206 -TSRA BKN016CB TEMPO 2206/2218 -TSRAGR BKN016CB BECMG 2208/2210 27007G16MPS BECMG 2213/2215 24003MPS",
    "UIBB": "TAF UIBB 220200Z 2203/2303 11003G08MPS 9999 SCT050CB TEMPO 2203/2215 VRB08MPS",
    "UEEE": "TAF UEEE 220200Z 2203/2309 36003MPS 9999 BKN033CB OVC100 TEMPO 2203/2218 VRB08MPS 2400 -TSRA SCT010 BKN033CB OVC100",
    "UHHH": "TAF UHHH 220145Z 2203/2309 04003G08MPS 9999 SCT030CB TX31/2205Z TN20/2218Z",
    "UHSS": "TAF UHSS 220143Z 2203/2309 17003MPS 9999 FEW040CB BECMG 2207/2209 VRB01MPS BECMG 2210/2212 BKN004 BECMG 2222/2224 36003MPS SCT030CB"
  },
  "atis": {
    "RJAA": "[Arrival ATIS] RJAA ARR ATIS S 0334Z M0330 (APCH)ILS Y RWY16L LDG RWY 16L DEP RWY 16R DEP FREQ 124.2. M 220330Z 13006KT 090V170 10KM FEW030CU BKN035CU 34/27 Q1006/A2972= Q/TWO NINE SEVEN TWO STP\n[Departure ATIS] RJAA DEP ATIS N 1114Z M1100 (APCH)ILS Y RWY16L LDG RWY 16L DEP RWY 16R DEP FREQ 124.2. TWY A1 CLSD. M 241100Z 09004KT 30KM SCT020CU BKN/// 21/18 Q1013/A2993= Q/TWO NINE NINE THREE STP",
    "PANC": "[Arrival ATIS] PANC ARR ATIS V 1153Z ANC ATIS INFO V 1153Z. 24005KT 10SM SCT007 SCT011 BKN060 BKN250 09/08 A3013 (THREE ZERO ONE THREE). 7R APPROACHES IN USE. LANDING RWY 7R, DEPARTING RWY 33. NOTICE TO AIRMEN. RWY 7L CLSD. CHECK NOTAMS FOR TAXIWAY CLOSURES. CAUTION FOR BIRD ACTIVITY IN THE ARPT AREA. CONTACT TOWER 118.3 FOR TAXI. ...ADVS YOU HAVE INFO V.\n[Departure ATIS] PANC DEP ATIS V 1153Z - PANC ATIS INFO V 1153Z. 24005KT 10SM SCT007 SCT011 BKN060 BKN250 09/08 A3013 (THREE ZERO ONE THREE). 7R APPROACHES IN USE. LANDING RWY 7R, DEPARTING RWY 33. NOTICE TO AIRMEN. RWY 7L CLSD. CHECK NOTAMS FOR TAXIWAY CLOSURES. CAUTION FOR BIRD ACTIVITY IN THE ARPT AREA. CONTACT TOWER 118.3 FOR TAXI. ...ADVS YOU HAVE INFO V.",
    "KSEA": "[Arrival ATIS] KSEA ARR ATIS D 0353Z SEA ATIS INFO D 0353Z. 33006KT 10SM SCT220 28/13 A2991 (TWO NINER NINER ONE). ILS AND CHARTED VISUAL APPROACH RWYS 34L AND 34R , APCH IN USE. DEPG RWY 34R, DEPG ACFT PLAN AND BRIEF NUMBERS FOR BOTH RWYS 34R AND 34C. SIMUL ARRIVALS TO RWY 34L AND DEPARTURES TO RWY 34R ARE IN USE. SIMUL APCHS IN USE TO PARA RYS. NOTAMS... BIRD ACTIVITY VICINITY ARPT. STADIUM TFR IN EFFECT CHECK FDC NOTAMS FOR MORE INFO. SIGNATURE RAMP CLOSED. ...ADVS YOU HAVE INFO D.\n[Departure ATIS] KSEA DEP ATIS C 0253Z SEA ATIS INFO C 0253Z. 30005KT 10SM SCT200 32/10 A2991 (TWO NINER NINER ONE). ILS AND CHARTED VISUAL APPROACH RWYS 34L AND 34R , APCH IN USE. DEPG RWY 34R, DEPG ACFT PLAN AND BRIEF NUMBERS FOR BOTH RWYS 34R AND 34C. SIMUL ARRIVALS TO RWY 34L AND DEPARTURES TO RWY 34R ARE IN USE. SIMUL APCHS IN USE TO PARA RYS. NOTAMS... BIRD ACTIVITY VICINITY ARPT. STADIUM TFR IN EFFECT CHECK FDC NOTAMS FOR MORE INFO. SIGNATURE RAMP CLOSED. ...ADVS YOU HAVE INFO C.",
    "ZSPD": "[Arrival ATIS] ZSPD ARR ATIS S 0330Z EXP ILS APCH INDEPENDENT PARL INSTR APCH LDG RWY 17R & 16L WIND RWY 17R TDZ 220/4MPS MID 180/5MPS END 200/4MPS RWY 16L TDZ 210/4MPS VRB BTN 180/ AND 240/ MID 220/3MPS END 190/5MPS CAVOK T 34 /DP 26 QNH 1006 HPA CAUTION THE BIRDS NEAR THE RUNWAY ADZ YOU HAVE INFO S.\n[Departure ATIS] ZSPD DEP ATIS Q 0230Z DEP RWY 17L & 16R WIND RWY 17L TDZ 220/4MPS MID 210/4MPS END 200/4MPS RWY 16R TDZ 210/4MPS MID 210/5MPS VRB BTN 180/ AND 250/ END 210/3MPS CAVOK T 32 /DP 26 QNH 1006 HPA CA",
    "ZSSS": "[Arrival ATIS] ZSSS ARR ATIS B 1100Z EXP ILS APCH LDG RWY 36R WIND RWY 36R TDZ 040/2MPS MID 020/4MPS VRB BTN 340/ AND 050/ END 030/4MPS VIS RWY 36R TDZ 10000M MID 10000M END 10000M CLD BKN 450M T 23 /DP 20 QNH 1005 HPA RWY36R RWYCC 5/5/5 ISSUED AT 0905 WET/WET/WET DPT NR/NR/NR COV 100PCT/100PCT/100PCT RWY36L RWYCC 5/5/5 ISSUED AT 0730 WET/WET/WET DPT NR/NR/NR COV 100PCT/100PCT/100PCT QNH OF SHANGHAI TERMINAL CONTROL AREA 1005 HPA ADZ YOU HAVE INFO B.\n[Departure ATIS] ZSSS DEP ATIS D 1132Z DEP RWY 36L WIND RWY 36L TDZ 040/3MPS MID 030/3MPS END 030/3MPS VIS RWY 36L TDZ 10000M MID 10000M END 10000M CLD BKN 480M T 23 /DP 20 QNH 1006 HPA RWY36R RWYCC 5/5/5 ISSUED AT 0905 WET/WET/WET DPT NR/NR/NR COV 100PCT/100PCT/100PCT QNH OF SHANGHAI TERMINAL CONTROL AREA 1005 HPA ADZ YOU HAVE INFO D.",
    "VHHH": "[Arrival ATIS] VHHH ARR ATIS H 1206Z ARRIVALS, RWY 25R. EXP RNAV TRANSITION TO ILS APCH, RWY 25R. RNP APCH IS AVBL ON REQ, RWY 25R. WIND 210/10KT. VIS 10KM. CLD FEW 1200FT. T31 DP25. QNH 1002HPA. ACK INFO H ON FIRST CTC WITH APP.\n[Departure ATIS] VHHH DEP ATIS V 1207Z DEPARTURES, RWY 25L. WIND 150/07KT. VIS 10KM. CLD FEW 1200FT. T31 DP25. QNH 1002HPA. ACK INFO V ON FIRST CTC WITH DELIVERY .",
    "RCTP": "[Arrival ATIS] RCTP ARR ATIS H 1200Z EXP ILS APCH RWY05L AND RWY05R ARR/DEP. WIND 010/03KT VIS 10 KM OR MORE CLD FEW 1000FT BKN 1400FT BKN 1800FT T 29 DP 26 QNH 1003HPA NOSIG DUE TO FLOW CONTROL BY MANILA F-I-R, TRAFFIC CONCERNED MAY BE DELAYED. INFORM TAIPEI APCH OR TAIPEI TOWER ON INITIAL CONTACT YOU HAVE INFORMATION H\n[Departure ATIS] RCTP DEP ATIS G 1130Z EXP ILS APCH RWY05L AND RWY05R ARR/DEP. WIND 040/04KT VARYING BTN 360 AND 060 VIS 10 KM OR MORE CLD FEW 1000FT BKN 1400FT T 29 DP 26 QNH 1003HPA NOSIG DUE TO FLOW CONTROL BY MANILA F-I-R, TRAFFIC CONCERNED MAY BE DELAYED. INFORM TAIPEI APCH OR TAIPEI TOWER ON INITIAL CONTACT YOU HAVE INFORMATION G",
    "ZGSZ": "[Arrival ATIS] ZGSZ ARR ATIS H 1211Z EXP ILS APCH 15 EXP ILS OR VIS APCH 16R WIND 160/7MPS CAVOK T 30 /DP 28 QNH 1003 HPA INDEPENDENT PARALLEL DEPARTURES DEPENDENT PARALLEL APPROACHES MISSED APPROACH ALTITUDE SETTING 1200METERS WHEN AIRBORNE CONTACT ZHUHAI APPROACH EXPECTED RNP ILS DME Z APPROACH ADZ YOU HAVE INFO H.\n[Departure ATIS] ZGSZ DEP ATIS Y 0930Z DEP RWY 15 & 16L WIND 160/7MPS VIS 9999M CLD FEW 900M T 31 /DP 28 QNH 1001 HPA INDEPENDENT PARALLEL DEPARTURES INDEPENDENT PARALLEL APPROACHES V17,V18 AVAILABLE AFTER SULAS FLY HEADING 040 MISSED APPROACH ALTITUDE SETTING 1200METERS WHEN AIRBORNE CONTACT ZHUHAI APPROACH EXPECTED RNP ILS DME Z APPROACH ADZ YOU HAVE INFO Y.",
    "WSSS": "[Arrival ATIS] WSSS ARR ATIS O 1200Z METREPORT 1200Z ILS APCHRWY 20R SIMUL INDEPENDENT ILS AND VISUAL APPROACHES ARE CONDUCTED ON RWY 20. RSCD RWY20R 1014Z RWYCC:5.5.5. WHOLE RWY 100% WET. TWY W 9 CLOSED, RWY 02C 20C RAPID EXIT TAXIWAY INDICATOR LIGHTS OFFTWY CENTRE LINE LIGHTS AT CHANGI AIRPORT WILL BE TURNED ON PROGRESSIVELY DUE TESTING IN PROGRESSRAIN OVER AIRFIELD, FOLLOW THE GREENS TRIAL IN PROGRESS. WHEN VACATING THE RWY, PILOTS TO ADHERE TO ATC VERBAL INSTRUCTIONS. WHEN ON TWY, PILOT TO ADHERE TO FOLLOW THE GREENS INSTRUCTIONS. WHEN APPROACHING [A] JUNCTION, KEEP [A] LOOKOUT FOR CONTINUOUS GREENS. [IF] [A] BREAK IN THE GREENS IS OBSERVED, STOP AND CLARIFY WITH ATC. WIND VRB BTN330 AND120 01KT VIS 10KM FBL TSRA CLD FEW 1400FT FEW CB 1500FT FEW TCU 1700FT SCT 3000FT T24 DP24 QNH 1011HPA BECMG TL1230 NSW ACK ATIS O\n[Departure ATIS] WSSS DEP ATIS X 0900Z METREPORT 0900Z RWY 02C SIMUL INDEPENDENT ILS AND VISUAL APPROACHES ARE BEING CONDUCTED ON RWY 02. TWY W 9 CLOSED, RWY 02C 20C RAPID EXIT TAXIWAY INDICATOR LIGHTS OFF WIND 220/ 04KT VRB BTN200 AND260 VIS 10KM CLD FEW 1300FT FEW CB 1700FT FEW TCU 1800FT SCT 4000FT T30 DP24 QNH 1008HPA WS WRNG, STRONG LOW LVL, WS OBS WI THE VCY OF CHANGI AP AT 0917 UTC. CHANGI AD 4 VALID 0925/ 1000 TS S APCH MOV NE 5KT OBS INTSF BECMG FM0930 TL0945 NSW ACK ATIS X",
    "WMKK": "[Arrival ATIS] WMKK ARR ATIS H 0404Z WMKK ARR INFO H. TIME 0400. INDEPENDENT PARALLEL APPROACHES FOR RWY 14 L AND 15 ARE IN PROGRESS. EXP RNAV / ILS APCH FOR RWY 14 LEFT. EXP RNAV / ILS APCH FOR RWY 15. WIND RWY 14L 080 DEG, 2 KT. WIND RWY 15 280 DEG, 2 KT. VIS RWY 14L TDZ 10 KM OR MORE. VIS RWY 15 TDZ 10 KM OR MORE. CLD FEW CB 1700 FT, CLD SCT 1800 FT. T 29. DP 26. QNH 1012. NOSIG. AT FIRST CONTACT WITH LUMPUR RADAR, NOTIFY RCPT OF H\n[Departure ATIS] WMKK DEP ATIS Z 0533Z WMKK DEP INFO Z. TIME 0530. INDEPENDENT PARALLEL DEPARTURES FOR RWY 32 L AND 33 ARE IN PROGRESS. RWY 32 LEFT. RWY 33. WIND RWY 32L DIRECTION NOT AVBL SPEED NOT AVBL. WIND RWY 33 DIRECTION NOT AVBL SPEED NOT AVBL. VIS RWY 32L TDZ NOT AVBL. VIS RWY 33 TDZ NOT AVBL. WX VCSH. CLD FEW CB 1700 FT, CLD SCT 1800 FT. T 30. DP 27. QNH 1009. NOSIG. ALL DEP ACFT TO CONTACT LUMPUR DEP AT 135 DECIMAL 25 MHZ WHEN ABN. AT FIRST CONTACT WITH LUMPUR GROUND, NOTIFY RCPT OF Z",
    "VTBS": "[Arrival ATIS] VTBS ARR ATIS B 1200Z VTBS ARR ATIS B 1200Z SIMULTANEOUS INDEPENDENT PARL APCH IN PROGRESS EXP ILS Z APCH ARR RWY 19 OR RNP APCH RWY 20R , ,PILOT SHALL ADZ BKK APCH ON INITIAL CTC IF UNA TO CONDUCT RNP APCH DUE TO OPERATIONAL CONSTRAINT 1200Z WIND 210/8KT VIS 10KM CLD FEW 2000FT T31 DP24 QNH 1005HPA TREND NOSIG ADZ BKK APCH ON INITIAL CONTACT THAT YOU HAVE INFO B\n[Departure ATIS] VTBS DEP ATIS H 1200Z VTBS DEP ATIS H 1200Z DEP RWY 20L , ,AFT AIRBORNE ALL DEPARTING ACFT SHALL CTC 119.25 1200Z WIND 200/10KT VIS 10KM CLD FEW 2000FT T31 DP24 QNH 1005HPA TREND NOSIG ADZ GND WHEN INITIAL CONTACT YOU HAVE INFO H",
    "VTBU": "[Arrival ATIS] VTBU ARR ATIS S 0430Z VTBU ARR ATIS S 0431Z RNP RWY 36 TRL FL130 MOBILE ACFT ARST SYSTEM INSTL ATP SIX HUNDRED AND TEN METERS FM THR RWY 36 CABLE HGT 3 INCHES. 0430Z WIND 330/5KT VRB BTN 290/ AND 030/ VIS 10KM CLD FEW 2000FT T32 DP26 QNH 1009HPA TREND NOSIG ADZ CONTROLLER WHEN INITIAL CONTACT YOU HAVE INFO S\n[Departure ATIS] VTBU DEP ATIS D VTBU ARR/DEP DATIS RPT VTBU ARR ATIS D 0330Z ILS \"Z\" APCH RWY 18 TRL FL130 0330Z WIND 110/4KT VRB BTN 350/ AND 120/ VIS 6KM CLD FEW 2000FT T31 DP27 QNH 1014HPA TREND NOSIG ADZ CONTROLLER WHEN INITIAL CONTACT YOU HAVE INFO D",
    "ROAH": "[Arrival ATIS] ROAH ARR ATIS K 0316Z S0311 (APCH)ILS Z RWY36L LDG RWY 36L DEP RWY 36R DEP FREQ 119.1 335.8 S 220311Z 28004KT 230V350 30KM VCSH FEW018CU SCT037CU 32/27 Q1009/A2982= Q/TWO NINE EIGHT TWO STP\n[Departure ATIS] ROAH DEP ATIS Z 0805Z M0800 (APCH)RNP RWY18R LDG RWY 18R DEP RWY 18L DEP FREQ 126.5 258.3 M 240800Z 15019KT 25KM FEW020CU BKN/// 31/25 Q1004/A2967= Q/TWO NINE SIX SEVEN STP",
    "VVDN": "[Arrival ATIS] VVDN ARR ATIS B 1202Z VVDN INFO B 1202Z. ILS VICTOR APPROACH 35L.. DPTG RWY 35R.. 1202Z. WIND 120/02KT CAVOK T33 DP26 QNH 1003HPA TREND NOSIG. ADZ ON INITIAL CTC YOU HAVE INFO. B.\n[Departure ATIS] VVDN DEP ATIS M 0432Z VVDN INFO M 0432Z. ILS VICTOR APPROACH 35L.. DPTG RWY 35R.. 0432Z. WIND 220/04KT CAVOK T37 DP22 QNH 1004HPA TREND NOSIG. ADZ ON INITIAL CTC YOU HAVE INFO. M.",
    "RCKH": "[Arrival ATIS] RCKH ARR ATIS Z 1000Z EXPECT ILS APPROACH RWY 27 ARR/DEP TAXIWAY JULIETT, TAXIWAY BRAVO, TAXIWAY DELTA AND TAXIWAY ECHO CLOSED DUE MAINTENANCE. RUNWAY 2 7 ARRIVALS PLAN VACATE VIA CHARLIE OR ALPHA AND EXPEDITE VACATE. WIND 300/10KT VARYING BTN 270 AND 350 VIS 10 KM OR MORE CLD SCT 1000FT BKN 1900FT T 30 DP 26 QNH 1002HPA NOSIG CAUTION BIRD ACTIVITY IN VICINITY OF THE AERODROME. INFORM KAO-HSIUN APCH OR KAO-HSIUN TOWER ON INITIAL CONTACT YOU HAVE INFORMATION Z\n[Departure ATIS] RCKH DEP ATIS G 0430Z EXPECT ILS APPROACH RWY 27 ARR/DEP RWY SFC RWY 09 SFC COND 5/5/5 ISSUED AT 0255Z. 100/100/100 NR/NR/NR WET/WET/WET TAXIWAY JULIETT, TAXIWAY BRAVO, TAXIWAY DELTA AND TAX",
    "KLAX": "[Arrival ATIS] KLAX ARR ATIS H 0353Z LAX ATIS INFO H 0353Z. 26010KT 10SM FEW015 23/17 A2998 (TWO NINER NINER EIGHT) RMK AO2 SLP148 T02330167. INST APCHS AND RNAV RNP APCHS RY 24R AND 25L, OR VCTR FOR VISUAL APCH WILL BE PROVIDED, SIMUL VISUAL APCHS TO ALL RWYS ARE IN PROG, SIMUL INSTR DEPARTURES IN PROG 24L, 25R. CTC L A GC ON 121.75 FOR PUSH OR TAXI ON A. TWY B CLSD BTN TWY, C10 AND TWY C7 , , TWY B6 CLSD, TWY B7 CLSD, TWY C CLSD BTN TWY, C1 AND TWY C3, TWY C1 CLSD, TWY C9 CLSD BTN TWY, B AND TWY C, TWY C8 CLSD BTN TWY, B AND TWY C. PAPI OTS 24R. HAZD WX INFO FOR LAX AREA AVBL FM FSS. BIRD ACTIVITY VICINITY ARPT. INCLUDE YOUR CALL SIGN IN ALL READBACKS. USE CAUTION WHEN EXITING RY24R AT TWY V, W, AND Y, TO HOLD SHORT OF RY24L. MULTIPLE RUNWAY INCURSIONS HAVE OCCURRED. ...ADVS YOU HAVE INFO H.\n[Departure ATIS] KLAX DEP ATIS D 2353Z LAX ATIS INFO D 2353Z. 25014KT 10SM FEW100 26/18 A2995 (TWO NINER NINER FIVE) RMK AO2 SLP139 T02610178 10272 20256 56013. INST APCHS AND RNAV RNP APCHS RY 24R AND 25L, OR VCTR FOR",
    "KONT": "[Arrival ATIS] KONT ARR ATIS H 0753Z ONT ATIS INFO H 0753Z. 24005KT 10SM SCT180 19/14 A3002 (THREE ZERO ZERO TWO). ILS AND VIS APR IN USE, RY 26R. LNDG AND DEPG RY 26R. NOTAMS... RY 26L, 8R CLSD. TAXIWAY SIERRA FIVE CLOSED. TAXIWAY SIERRA CLOSED BETWEEN TAXIWAY SIERRA 8 AND TAXIWAY WHISKEY. RY 26L IM OTS, RY 26R ALS OTS. 8R PAPIS OTS. HAZD WX INFO FOR SOUTHERN CA AVBL ON FSS FREQUENCIES. PILOTS READBACK RWY ASSIGNMENTS AND HOLD SHORT INSTRUCTIONS. ...ADVS YOU HAVE INFO H.\n[Departure ATIS] KONT DEP ATIS E 0553Z - KONT ATIS INFO E 0553Z. 24007KT 10SM SCT170 21/14 A3002 (THREE ZERO ZERO TWO). ILS AND VIS APR IN USE, RY 26R. LNDG AND DEPG RY 26R. NOTAMS... RY 26L, 8R CLSD. TAXIWAY SIERRA FIVE CLOSED. TAXIWAY SIERRA CLOSED BETWEEN TAXIWAY SIERRA 8 AND TAXIWAY WHISKEY. RY 26L IM OTS. 8R PAPIS OTS. HAZD WX INFO FOR SOUTHERN CA AVBL ON FSS FREQUENCIES. PILOTS READBACK RWY ASSIGNMENTS AND HOLD SHORT INSTRUCTIONS. ...ADVS YOU HAVE INFO E.",
    "KSFO": "[Arrival ATIS] KSFO ARR ATIS P 0356Z SFO ATIS INFO P 0356Z. 21015KT 10SM FEW011 24/16 A2991 (TWO NINER NINER ONE). SIMUL CLSLY SPCD DPNDNT ILS RY 28R AND ILS RY 28L APP IN USE. DEPG RWYS 28L, 28R. RY 1L, 1R CLSD.\n[Departure ATIS] KSFO DEP ATIS O 0256Z SFO ATIS INFO O 0256Z. 21018KT 10SM FEW011 FEW200 26/13 A2990 (TWO NINER NINER ZERO) RMK PK WND 21026/0217. SIMUL CLSLY SPCD DPNDNT ILS RY 28R AND ILS RY 28L APP IN USE. DEPG",
    "KOAK": "[Arrival ATIS] KOAK ARR ATIS O 0953Z - KOAK ATIS INFO O 0953Z. 00000KT 10SM FEW004 BKN160 BKN250 18/14 A2989 (TWO NINER EIGHT NINER). RNAV, AND VA, RWY 30. ILS, AND VA, RWY 28R. RWY 28L CLSD. TAXIWAYS G,H,P, CLSD BETWEEN RWYS 28R AND 28L. ILS RWY 30, OTS, RWY 28R GS, OTS, RWY 28R RAIL, OTS. SGD OTS. UNN LIT CLOSE-IN OBSTACLES FOR RWY 30 DEPARTURES. RWY 30 DEPARTURES ARE ADVISED TO AVOID TURNING LEFT PRIOR TO DEPARTURE END OF RUNWAY. CTN, CRANE 1 POINT 6 NAUTICAL MILES, , AT 140 FEET AGL. HAZD WX INFO FOR CA ON FLT SRVC FREQ. CAUTION, BIRDS NEAR AIRPORT. ...ADVS YOU HAVE INFO O.\n[Departure ATIS] KOAK DEP ATIS O 1953Z OAK ATIS INFO O 1953Z. 28014KT 10SM FEW005 22/14 A2988 (TWO NINER EIGHT EIGHT). RNAV Z/VA RWY 30 ILS/VA RWY 28R. FLOW TO LAX, LAS, SAN. ILS RWY 30, OTS. UNN LIT CLOSE-IN OBSTACLES FOR RWY 30 DEPARTURES. RWY 30 DEPARTURES ARE ADVISED TO AVOID TURNING LEFT PRIOR TO DEPARTURE END OF RUNWAY. SIGNATURE UNI-COM OUT OF SERVICE. CAUTION, BIRDS NEAR AIRPORT. ...ADVS YOU HAVE INFO O.",
    "KDFW": "[Arrival ATIS] KDFW ARR ATIS Q 0853Z - KDFW ARR INFO Q 0853Z. 21011KT 10SM BKN070 28/22 A2997 (TWO NINER NINER SEVEN) RMK AO2 SLP140 T02830217 56000. SIMUL APCH IN USE. EXPECT ILS TO RWYS, 18R, 17C. LDG RWY 17C EXP LAHSO TWY B 10460 FT AVAIL, LDG RWY 18R EXP LAHSO TWY B 10100 FT AVL. NOTICE TO AIRMEN. RWY 13L CLSD. RWY 13R CLSD. RWY 17L CLSD. WARNING, RWY 18L HAS BEEN SHORTENED, 9273 FT AVAILABLE. RWY 18L ILS OTS, CL OTS. BIRD ACTIVITY VCNTY ARPT. ...ADVS YOU HAVE INFO Q.\n[Departure ATIS] KDFW DEP ATIS J 0253Z DFW DEP INFO J 0253Z. 17008KT 10SM FEW250 31/19 A2994 (TWO NINER NINER FOUR) RMK AO2 SLP128 T03110194 53004. SIMUL PARL TRAFFIC DEPG RWYS 17R, 18L. NOTICE TO AIRMEN. RWY 13L CLSD. RWY 13R CLSD. RWY 17L CLSD. WARNING, RWY 18L HAS BEEN SHORTENED, 9273 FT AVAILABLE. HAZD WX FOR DFW AVBL ON FSS. BIRD ACTIVITY VCNTY ARPT. ...ADVS YOU HAVE INFO J.",
    "KIAH": "[Arrival ATIS] KIAH ARR ATIS Q 1153Z IAH ATIS INFO Q 1153Z. 18003KT 7SM FEW020 SCT250 26/25 A3008 (THREE ZERO ZERO EIGHT) RMK AO2 SLP185 T02610250 10272 20261 53007. ARRIVALS EXPECT ILS OR RNAV Y RY 26R, ILS OR RNAV Y RY 26L, ILS OR RNAV Y RY 27. SIMUL APPROACHES IN USE. DEPG RY 15L, RY 15R. NOTICE TO AIRMEN. UNITED RAMP CONTROL IN EFFECT. BIRD ACTIVITY VICINITY ARPT. CRANES ARE DOWN. TWY SA CLSD BTN TWY, SG AND TWY SK , TWY SB CLSD BTN TWY, SG AND TWY SK , , TWY SG CLSD, TWY EA CLSD. NOTAM ATIS IN USE ON FREQUENCY 126.225. ...ADVS YOU HAVE INFO Q.\n[Departure ATIS] KIAH DEP ATIS T 0353Z IAH ATIS INFO T 0353Z. 15007KT 10SM FEW035 FEW180 BKN250 27/23 A2996 (TWO NINER NINER SIX). ARRIVALS EXPECT ILS OR RNAV Y RY 8R, ILS OR RNAV Y RY 8L. DEPG RY 15R. NOTICE TO AIRMEN. UNITED RAMP CONTROL IN EFFECT. RY 15L, 33R CLSD. HAZD WX INFO FOR IAH AREA AVBL FM FSS. BIRD ACTIVITY VICINITY ARPT. CRANES ARE DOWN. TWY SA CLSD BTN TWY, SF AND TWY SK , TWY SB CLSD BTN TWY, SF AND TWY SK , , TWY WB CLSD BTN TWY, WG AND TWY WH . TWY EA CLSD. NOTAM ATIS IN USE ON FREQUENCY 126.225. ...ADVS YOU HAVE INFO T.",
    "KORD": "[Arrival ATIS] KORD ARR ATIS T 0251Z ORD ATIS INFO T 0251Z. 03017G22KT 10SM BKN021 BKN080 21/16 A2991 (TWO NINER NINER ONE) RMK AO2 SLP125 T02110161 53043. ARR EXP VECTORS ILS RWY 10C APCH. DEPS EXP RWYS 9C FROM F F 9200 FT AVL, 10L FROM DD. 10,093 FT AVBL. RWY 4L, 22R CLSD, RWY 9L, 27R CLSD, RWY 10R, 28L CLSD. RWY 22R LOC OTS, RWY 28L GS OTS, RWY 9L IM OTS, RWY 9C IM OTS, RWY 10L IM OTS, RWY 10R IM OTS, RWY 27R IM OTS, RWY 28L IM OTS, RWY 28R IM OTS, RWY 9L PAPI OTS, RWY 27R PAPI OTS. PILOTS USE CTN FOR BIRD ACTIVITY IN THE VICINITY OF THE ARPT. HAZD WX INFO FOR ORD AREA AVBL ON FSS. USE CTN FOR PERSONNEL AND EQUIP AT NUMEROUS SITES ON THE FIELD. READBACK ALL RWY HOLD SHORT INSTRUCTIONS. WHEN READY TO TAXI CONTACT GND METERING ON FREQ 121.67. ...ADVS YOU HAVE INFO T.\n[Departure ATIS] KORD DEP ATIS B 1751Z ORD ATIS INFO B 1751Z. 32015G23KT 10SM FEW043 SCT055 29/17 A2972 (TWO NINER SEVEN TWO) RMK AO2 SLP059 T02890167 10294 20233 51012. ARR EXP VECTORS ILS RWY 28C APCH, VISUAL",
    "KJFK": "[Arrival ATIS] KJFK ARR ATIS N 1151Z - KJFK ATIS INFO N 1151Z. 36013KT 10SM SCT085 21/13 A2995 (TWO NINER NINER FIVE). APPROACH IN USE VISUAL APCH RY 31L, RNAV GPS RY 31R. DEPG RY 31L. RWY 4L, 22R CLSD. CRI OTS. ILS RWY 31R OTS, RY 22L PAPI OTS, RWY 22L/4R INNER MARKER OTS. NUM CRANES OPERATING AT JFK. BIRD ACTIVITY VICINITY ARPT. READBACK ALL RWY ASSIGNMENTS AND HOLD SHORT INSTRUCTIONS. ...ADVS YOU HAVE INFO N.\n[Departure ATIS] KJFK DEP ATIS Y 2115Z JFK ATIS INFO Y 2115Z SPECIAL. 15006KT 10SM SCT011 BKN016 OVC027 25/23 A2973 (TWO NINER SEVEN THREE). APPROACH IN USE ILS RY 22L, ILS RY 22R. DEPG RY 22R. RWY 13R, 31L CLSD. RY 13L ALS OTS, RY 22L PAPI OTS, RY 13L SFL OTS, RWY 22L/4R INNER MARKER OTS. HAZD WX INFO FOR NY METRO AREA AVBL ON FSS. SWAP IN EFFECT EXPECT REROUTES. NUM CRANES OPERATING AT JFK. BIRD ACTIVITY VICINITY ARPT. READBACK ALL RWY ASSIGNMENTS AND HOLD SHORT INSTRUCTIONS. ...ADVS YOU HAVE INFO Y.",
    "KIND": "[Arrival ATIS] KIND ARR ATIS G 2254Z IND ATIS INFO G 2254Z. 30013G21KT 10SM FEW044 SCT050 BKN075 29/19 A2976 (TWO NINER SEVEN SIX). PARL ILS RWY 23R AND 23L APPROACHES IN USE. CROSS RUNWAY OPERATIONS MAY BE IN EFFECT. NOTICE TO AIRMEN. TWY, P BTN TWY, H AND TWY B CLSD, TWY, P BTN TWY, H AND TWY J CLSD, TWY, H BTN TWY, R AND TWY N CLSD. P PAD CLSD. ILS RUNWAY 5R AND RUNWAY 5L INNER MARKER UNSERVICEABLE. ...ADVS YOU HAVE INFO G.\n[Departure ATIS] KIND DEP ATIS G 0254Z IND ATIS INFO G 0254Z. 03006KT 10SM SCT060 BKN110 BKN190 OVC250 28/22 A3007 (THREE ZERO ZERO SEVEN). PARL ILS RWY 5R AND 5L APPROACHES IN USE. CROSS RUNWAY OPERATIONS MAY BE IN EFFECT. NOTICE TO AIRMEN. TWY, P BTN TWY, H AND TWY B CLSD, TWY, P BTN TWY, H AND TWY J CLSD, TWY, H BTN TWY, R AND TWY N CLSD. P PAD CLSD. ILS RUNWAY 5R AND RUNWAY 5L INNER MARKER UNSERVICEABLE. HIWAS. ARPT ADZY FLOCK OF MEDIUM BIRDS IN THE VICINITY OF THE AIRPORT, ALT UNKN. ...ADVS YOU HAVE INFO G.",
    "KDTW": "[Arrival ATIS] KDTW ARR ATIS A 1053Z DTW ARR INFO A 1053Z. 00000KT 10SM FEW230 14/11 A3015 (THREE ZERO ONE FIVE). SIMUL VISUAL RY 21L, RY 22R USE Z LOC FREQ 111.95 APCH IN USE. NOTICE TO AIRMEN. RWY 22L, 4R CLSD, RWY 27L, 9R CLSD, RWY 27R, 9L CLSD. PILOTS USE CTN FOR BIRD ACTIVITY. DEPARTURE ATIS 118.125. ...ADVS YOU HAVE INFO A.\n[Departure ATIS] KDTW DEP ATIS N 0953Z DTW DEP INFO N 0953Z. 35003KT 1SM R03R/P6000FT FU SCT000 OVC027 22/16 A3004 (THREE ZERO ZERO FOUR) RMK AO2 TWR VIS 2 SLP167 FU SCT000 T02170161. DEPG RWY 4R. . RWY 4R DEPARTURE POINT IS Y 2, DISTANCE REMAINING IS 11, THOUSAND, 450, FT, FULL LENGTH AVAIL UPON REQ ;. NOTICE TO AIRMEN. RWY 21R, 3L CLSD, RWY 27L, 9R CLSD, RWY 27R, 9L CLSD. TWYS Y1 CLSD ;. PILOTS USE CTN FOR BIRD ACTIVITY. TWR AND GC COMB ON FREQ 135.0. ...ADVS YOU HAVE INFO N.",
    "KMSP": "[Arrival ATIS] KMSP ARR ATIS K 0253Z MSP ARR INFO K 0253Z. 04009KT 10SM FEW070 SCT250 21/11 A3002 (THREE ZERO ZERO TWO) RMK AO2 SLP163 T02110111 53019. VISUAL RWY 30L APCH IN USE, VISUAL RWY 30R APCH IN USE. NOTICE TO AIRMEN. RWYS 4, 22 CLSD. TWY R7. R8. R9. R10. CLOSED. TWY R BTWN R6 AND R10 CLSD, TWY A7 CLSD, TWY A CLSD BTN TWY, A7 AND TWY D. GS RWY 12L OTS, RWYS 12R, 12L, INNER MARKER OTS. HAZD WX INFO FOR MSP AREA AVBL FM FSS. CTN, BIRDS NEAR MSP. READ BACK HS AND ALT. ALL ACFT TAXI WITH TRANSPONDER AND ALTITUDE ENCODING ON. ...ADVS YOU HAVE INFO K.\n[Departure ATIS] KMSP DEP ATIS T 2353Z MSP DEP INFO T 2353Z. 34011KT 10SM SCT065 BKN250 24/10 A2996 (TWO NINER NINER SIX) RMK AO2 SLP143 T02440100 10267 20239 53005. DEPARTING RWY 30L, RWY 30R. NOTICE TO AIRMEN. RWYS 4, 22 CLSD. TWY R7. R8. R9. R10. CLOSED. TWY R BTWN R6 AND R10 CLSD, TWY A7 CLSD, TWY A CLSD BTN TWY, A7 AND TWY D. ALL ACFT CTC METERING ON ONE THREE THREE POINT FIVE SEVEN WHEN READY TO PUSHBACK OR TAXI. HAZD WX INFO FOR MSP AREA AVBL FM FSS. CTN, BIRDS NEAR MSP. READ BACK HS AND ALT. ALL ACFT TAXI WITH TRANSPONDER AND ALTITUDE ENCODING ON. ...ADVS YOU HAVE INFO T.",
    "CYEG": "[Arrival ATIS] CYEG ARR ATIS I 0400Z 16005KT 6SM FU FEW055 FEW250 18/17 A3009 APCH RNAV Z OR Y RWY 20, INFORM ARRL OF REQ APCH ON INITIAL CTC. LDG AND DEP RWY 20. SIMUL APPROACHES MAY BE IN EFCT. INFORM CYEG ATC INFO I\n[Departure ATIS] CYEG DEP ATIS G 0200Z CYEG ARR ATIS G 0200Z 20003KT 6SM FU FEW055 21/18 A3008 APCH RNAV Z OR Y RWY 20, INFORM ARRL OF REQ APCH ON INITIAL CTC. LDG AND DEP RWY 20. SIMUL APPROACHES MAY BE IN EFCT. INFORM CYEG ATC INFO G",
    "EHAM": "[Arrival ATIS] EHAM ARR ATIS H 0350Z EHAM ARRIVAL INFO H. DEMAND. MAIN LANDING RWY 06. TRANSITION LEVEL 040. WIND 350 DEG, 4 KT, VRB BTN 320 AND 040 DEG, 11 KT MAX, 3 KT MNM. VIS 10 KM OR MORE. CLD FEW 800 FT BKN 2800 FT. T 15. DP 14. QNH 1024 HPA. NOSIG. OPERATIONAL REPORT. CONTACT APCH WITH CALLSIGN ONLY. END OF INFO H\n[Departure ATIS] EHAM DEP ATIS V 1053Z EHAM DEPARTURE INFO V. DEMAND. MAIN DEPARTURE RWY 24. MAIN LANDING RWY 18 R. WIND 140 DEG, 3 KT, VRB BTN 350 AND 200 DEG. CAVOK. T 32. DP 19. QNH 1018 HPA. OPERATIONAL REPORT. INFORM SCHIPHOL DEL BY VOICE IF UNABLE TO COMPLY WITH NADP 2. END OF INFO V",
    "EBBR": "[Arrival ATIS] EBBR ARR ATIS M 0350Z EBBR NAT, EXP VECT FOR ILS APP ARR RWY25L RSCD AT 0326 RWY25L DRY. DEP RWY25R TRL 055 ILS RWY 25R U/S. RNP RWY 25R AVBL AT ATC DISCRETION 290/4KT VIS ABV 10KM SCT1800FT BKN4000FT T15 DP13 QNH 1025HPA NOSIG CFM ARR M\n[Departure ATIS] EBBR DEP ATIS Z 2350Z EBBR NAT, DEP RWY25R RSCD AT 2123 RWY25R DRY. ARR RWY25L TRL 055 TWY B1 CLSD. ADV DLC IF UNA TO LINEUP VIA B3 , TORA 2760 M 350/2KT VRB BTN 300 AND 010 VIS ABV 10KM SCT3700FT T13 DP11 QNH 1026HPA NOSIG CFM DEP Z",
    "EDDF": "[Arrival ATIS] EDDF ARR ATIS M 0350Z ARR-ATIS EDDF M METAR 220350 EXPECT DEPENDENT PARALLEL ILS Z APCH RWY 25R OR ILS APCH RWY 25L RWY 25R 25L GLS APCH ON REQUEST , DO NOT MISTAKE TWY M FOR RWY 25C WHEN PERFORMING VISUAL APPROACH , TRL 60 VRB01KT CAVOK T10 DP07 QNH1022 TREND NOSIG END OF ATIS M\n[Departure ATIS] EDDF DEP ATIS B 1220Z DEP-ATIS EDDF B METAR 241220 RWY 07C 18 ACFT DEPARTING RWY07C : EXPECT DEPARTURE FROM INTERSECTION L17 , TORA 3312 METERS. IF UNABLE , ADVISE APRON ON INITIAL CONTACT , ACFT DEPARTING RWY18 : EXPECT POSSIBLE DEPARTURE FROM INTERSECTION M , TORA 3454 METERS. IF UNABLE , ADVISE TWR ON INITIAL CONTACT , COORDINATED DRONE OPERATION SOUTH OF THE AD , TRL 60 ATTN: BIRDS IN THE VICINITY OF THE RUNWAYS 08008KT 350V130 RWY18 08006KT CAVOK T35 DP17 QNH1018 TREND NOSIG",
    "EDDL": "[Arrival ATIS] EDDL ARR ATIS A EDDL ARR/DEP DATIS RPT -ATIS EDDL A METAR 211520 -EXPECT VECTORS ILS APPROACH -RWY 05R - -TRL 60 - -34011KT 310V020 -CAVOK - - -T25 DP07 -QNH1024 - -TREND NOSIG\n[Departure ATIS] EDDL DEP ATIS R EDDL ARR/DEP DATIS RPT -ATIS EDDL R METAR 020550 -EXPECT VECTORS ILS APPROACH -RWY 23L -TWY L8 CLOSED BETWEEN TWY M AND RWY 23L -TRL 60 - -23010KT -CAVOK - - -T19 DP13 -QNH1020 - -TREND NOSIG",
    "EDDK": "[Arrival ATIS] EDDK ARR ATIS H 1320Z -ATIS EDDK H METAR 211320 -EXPECT ILS APCH RWY 31R OR RNP APCH RWY 06 -RWY 31R 06 -RWY COND RWY 31R AT TIME 1320 RWYCC 6 DEPOSIT TOTAL RWY DRY RWY 06 AT TIME 1320 RWYCC 6 DEPOSIT TOTAL RWY DRY -TRL 60 -RWY 13R AND RWY 31L CLOSED FOR DEPARTURE AND LANDING: TAXIING BTN THR RWY 13R AND INTERSECTION RWY 24 POSSIBLE : -33006KT 260V060 -CAVOK - - -T23 DP08 -QNH1024 - -TREND NOSIG\n[Departure ATIS] EDDK DEP ATIS E 2050Z -ATIS EDDK E METAR 142050 -EXPECT CDO FOR ILS APCH RWY 31R -RWY 31R 06 -RWY COND RWY 31R AT TIME 1837 RWYCC 6 DEPOSIT TOTAL RWY DRY RWY 06 AT TIME 1837 RWYCC 6 DEPOSIT TOTAL RWY DRY -TRL 60 -RWY 13R AND RWY 31L CLOSED FOR DEPARTURE AND LANDING: TAXIING BTN THR RWY 13R AND INTERSECTION RWY 24 POSSIBLE : -02006KT 350V050 -CAVOK - - -T23 DP14 -QNH1018 - -TREND NOSIG",
    "EBLG": "[Arrival ATIS] EBLG ATIS B 0320Z EBLG INFO, EXP RNAV TO ILS APP ARR RWY04R DEP RWY04R RWY 04R DRY, RWYCC 666. TRL 055 ADZ ON GND FREQ IF UNABLE S2 300/1KT VRB BTN 260 AND 340 CAVOK T12 DP11 QNH 1025HPA NOSIG CFM ATIS B",
    "LSZH": "[Arrival ATIS] LSZH ARR ATIS H 0350Z ARRIVALS, EXP ILS APCH, RWY 34. TRL 70. DEP RWY 32. DEPENDENT OPS ON CONVERGING RWY. TWY E 4 CLSD. WIND 310 DEG, 2 KT. CAVOK. T 10. DP 7. QNH 1023. NOSIG.\n[Departure ATIS] LSZH DEP ATIS P 0350Z DEP RWY 32. DEPENDENT OPS ON CONVERGING RWY. TRL 70. ARRIVALS, EXP ILS APCH, RWY 34. TMA S 1 IS ACT. TMA S 2 AND S 3 ARE ACT. WIND VRB, 2 KT. CAVOK. T 10. DP 7. QNH 1023. NOSIG.",
    "LIMC": "[Arrival ATIS] LIMC ARR ATIS K 0335Z LIMC ARR K 0335Z I.L.S. ZULU RWY IN USE 35L TL 70 CAUTION UNAUTHORIZED LASER ACTIVITY SOUTH OF THE FIELD WIND TDZ 010/5KT CAVOK T19 DP16 QNH 1019HPA QFE 0993HPA REPORTED 18 KT . CROSS WIND FROM EAST ON FINAL\n[Departure ATIS] LIMC DEP ATIS B 1050Z LIMC DEP B 1050Z RWY IN USE 35L TL 70 WIND END VRB4KT CAVOK T33 DP18 QNH 1018HPA QFE 0992HPA DATALINK CLEARANCE AVAILABLE.... CONTACT 1 3 1 8 8 0 TO BE RELEASED BY THE AIRPORT OPERATOR ...",
    "LIRF": "[Arrival ATIS] LIRF ARR ATIS S 0351Z LIRF ARR S 0351Z RWY 16L ILS W RWY 16R ILS Z RWY IN USE 16L 16R TL 75 DEPENDENT PARL ILS APCH INPR RWY IN USE 16R OR 16L ASSIGNED BY ROME RADAR WIND RWY 16L TDZ 020/8KT RWY 16R TDZ 040/6KT CAVOK T24 DP20 QNH 1012HPA\n[Departure ATIS] LIRF DEP ATIS O 0233Z LIRF DEP O 0233Z RWY IN USE 25 TL 75 RWY IN USE FOR ARR 16R WIND END 050/7KT CAVOK T25 DP24 QNH 1012HPA REA IS SENT AUTOMATICALLY ONCE RLSD BY RAMP WHEN READY CONTACT FIUME RAMP 121.725",
    "EINN": "[Arrival ATIS] EINN ARR ATIS Q 0400Z EXPECT I L S CATEGORY 1 LDG RWY06 TKOF RWY06 TRL FL055 01009KT 9999 BKN021 14/10 QNH Q1031 TREND NOSIG ADVISE AT FIRST CONTACT YOU HAVE ATIS INFO Q",
    "EGLL": "[Arrival ATIS] EGLL ARR ATIS Y 0350Z AUTHORISED DRONE OPERATING HOUNSLOW AT 120 FEET LANDING RWY 09R TRANSITION-LEVEL: FL 70 RUNWAY 09L REDUCED DECLARED DISTANCES IF STAND GUIDANCE IS OFF OR FAILS, REMAIN ON THE TAXIWAY CENTRELINE AND ADVISE ATC AUTO 13003KT 9999 NCD 16/12 Q1026 ACKNOWLEDGE RECEIPT OF INFORMATION Y\n[Departure ATIS] EGLL DEP ATIS O 0950Z DEPARTURE RWY 09R PILOTS THAT ARE IN RECEIPT OF DATALINK CLEARANCES ARE REMINDED THEY MUST CONTACT DELIVERY ON 121.980 WHEN READY FOR START DATALINK CLEARANCES NOT AVAILABLE FOR CPT DEPARTURES DET VOR OOS AUTHORISED DRONE OPERATING IN THE VICINITY OF BEDFONT, 2NM SOUTH OF THE AIRFIELD AT 170FT.. AUTHORISED DRONE OPERATING IN THE VICINITY OF QPR TRAINING GROUND. AUTO 04006KT 350V100 9999 NCD 30/21 Q1018 ACKNOWLEDGE RECEIPT OF INFORMATION O AND REPORT AIRCRAFT TYPE AND CURRENT QNH ON FIRST CONTACT WITH HEATHROW",
    "EPWA": "[Arrival ATIS] EPWA ARR ATIS M 0332Z EPWA ARR M. TIME 0330. EXP U ARR ILS Z APCH FOR RWY 33. TRANSITION LEVEL 80. WIND 270 DEG, 4 KT, VRB BTN 250 AND 310 DEG. CAVOK. T 10. DP 8. QNH 1015. NOSIG. CAUTION. BIRD ACT. END OF EPWA ARR M\n[Departure ATIS] EPWA DEP ATIS O 0314Z EPWA DEP O. TIME 0313. DEP RWY 29. ARR RWY 33, EXP U ARR ILS Z. REPORT READY FOR STARTUP ON DELIVERY 121 DECIMAL 605. TRANSITION LEVEL 80. WIND 270 DEG, 5 KT. CAVOK. T 10. DP 8. QNH 1016. NOSIG. CAUTION. BIRD ACT. END OF EPWA DEP O",
    "EFHK": "[Arrival ATIS] EFHK ARR ATIS I 0320Z EXPECT ILS APCH ARR RWY 22L RUNWAY 22L CONDITION REPORT AT 0224 UTC RUNWAY CONDITION CODES 5 , 5 , 5 CONTAMINANTS ALL PARTS 100 PERCENT WET TRL 65 WIND 310 DEG 2 KT VIS 10KM SCT 4400 FT T 11 DP 10 QNH 1008 NOSIG ACK INFO I\n[Departure ATIS] EFHK DEP ATIS X 0920Z DEP RWY 22R RUNWAY 22R CONDITION REPORT AT 0737 UTC RUNWAY CONDITION CODES 5 , 5 , 5 C ONTAMINANTS ALL PARTS 100 PERCENT WET WIND 010 DEG 7 KT VRB BTN 350 AND 050 DEG VIS 10KM SCT 500 FT. BKN 3300 FT. FEW CB 4000 FT T 15 DP 13 QNH 1010 TEMPO CLD BKN 600 FT. ACK INFO X",
    "LTAC": "[Arrival ATIS] LTAC ARR ATIS J 0350Z EXP ILS V APCH 03C DEP RWY 03L RWY 03C WIND 060 DEG 03 KT RWY 03L WIND 040 DEG 02 KT TRL 110 CAVOK T 17 DP 07 QNH 1017 NOSIG FOR DELIVERY CTC 121.9. FOR DELIVERY FIRST USE DIGITAL DEP CLR. CTN BIRD HAZARD OVR AERODROME. APCH FREQUENCY 129.050. END OF ATIS J",
    "UBBB": "[Arrival ATIS] UBBB ARR ATIS I 0300Z ATIS I EXP ILS/ LDG 16 17 DEP 16 17 IN USE RWY 16 CLEAR DRY 70 RWY 17 CLEAR DRY 70 TLVL 110 WIND WIND RWY 16 CALM WIND RWY 17 130 2 KT SPD MAX 4 MIN 2 VIS CAVOK T 26 / DP 18 QNH 1010 HPA TREND TREND NOSIG MODERATE BIRDS ACT IN VICINITY OF AP END OF ATIS I\n[Departure ATIS] UBBB DEP ATIS F 1000Z ATIS F EXP ILS/ LDG 16 17 DEP 16 17 IN USE RWY 16 CLEAR DRY 70 RWY 17 CLEAR DRY 70 TLVL 110 WIND WIND RWY 16 170 8 KT SPD MAX 12 MIN 6 WIND RWY 17 150 10 KT SPD MAX 14 MIN 6 VIS 10 KM SCT CB 6000 FT RWY 16 SCT CB 6000 FT RWY 17 T 28 / DP 12 QNH 1010 HPA TREND TREND NOSIG MODERATE BIRDS ACT IN VICINITY OF AP END OF ATIS F",
    "ZWWW": "[Arrival ATIS] ZWWW ARR ATIS H 0330Z EXP ILSDME Z APCH LDG RWY 26R TA 3000 WIND 310/7MPS CAVOK T 29 /DP 14 QNH 1007 HPA ADZ YOU HAVE INFO H.\n[Departure ATIS] ZWWW DEP ATIS W 0900Z DEP RWY 08R TA 3000 WIND 030/6MPS VRB BTN 360/ AND 060/ CAVOK T 34 /DP 02 QNH 1007 HPA ADZ YOU HAVE INFO W.",
    "ZLXY": "[Arrival ATIS] ZLXY ARR ATIS J 1100Z EXP ILS APCH LDG RWY 05L & 06R WIND 070/4MPS CAVOK T 29 /DP 17 QNH 1007 HPA VISUAL APPROACH IN PROGRESS ADZ YOU HAVE INFO J.\n[Departure ATIS] ZLXY DEP ATIS H 0900Z DEP RWY 05L & 06L WIND 070/5MPS VRB BTN 040/ AND 100/ CAVOK T 30 /DP 15 QNH 1007 HPA VISUAL APPROACH IN PROGRESS ADZ YOU HAVE INFO H.",
    "ZBAA": "[Arrival ATIS] ZBAA ARR ATIS Y 1200Z EXP ILS APCH INDEPENDENT PARL INSTR APCH LDG RWY 18R & 19 WIND VRB DEG 1 MPS CAVOK T 23 /DP 16 QNH 1005 HPA ADZ YOU HAVE INFO Y.\n[Departure ATIS] ZBAA DEP ATIS V 1100Z DEP RWY 36L & 36R & 01 WIND 110 DEG 3 MPS 060V150 DEG CAVOK T 25 /DP 16 QNH 1005 HPA RWY INDEPENDENT PARALLEL DEP ADZ YOU HAVE INFO V.",
    "ZBHH": "[Arrival ATIS] ZBHH ARR ATIS O 0700Z EXP ILSDME APCH LDG RWY 26 TA 3000 /TRL 3600 WIND 350/5MPS MAX11 VRB BTN 310/ AND 040/ CAVOK T 26 /DP 03 QNH 1012 HPA ADZ YOU HAVE INFO O.\n[Departure ATIS] ZBHH DEP ATIS Q 1500Z DEP RWY 08 TA 3000 /TRL 3600 WIND 140/2MPS VIS 5000M BR NSC T 19 /DP 19 QNH 1007 HPA ADZ YOU HAVE INFO Q.",
    "ZSQD": "[Arrival ATIS] ZSQD ARR ATIS M 1000Z EXP ILSDME APCH LDG RWY 17 TA 3000 /TRL 3600 WIND 170/5MPS CAVOK T 26 /DP 17 QNH 1006 HPA SEGREGATED OPERATION VISUAL APPROACH OPERATION IN PROGRESS. RUNWAY 17,IF MISSED APPROACH,EXPECT FOLLOW THE STANDARD MISSED APPROACH PROCEDURE,CLIMB TO 900M ON QNH OR BY ATC CAUTION MAYBE THERE IS A FLOCK OF BIRDS IN THE VICINITY OF AIRPORT ADZ YOU HAVE INFO M.\n[Departure ATIS] ZSQD DEP ATIS B 0100Z DEP RWY 34 TA 3000 /TRL 3600 WIND VRB/1MPS VIS 9999M CLD FEW 570M T 24 /DP 19 QNH 1009 HPA SEGREGATED OPERATION VISUAL APPROACH OPERATION IN PROGRESS. RUNWAY 35,IF MISSED APPROACH,EXPECT FOLLOW THE STANDARD MISSED APPROACH PROCEDURE,CLIMB TO 1200M ON QNH OR BY ATC CAUTION MAYBE THERE IS A FLOCK OF BIRDS IN THE VICINITY OF AIRPORT ADZ YOU HAVE INFO B."
  },
  "windtemp_alaska": "\n000\nFBAK31 KWNO 220200\nFD1AK1\nDATA BASED ON 220000Z    \nVALID 220600Z   FOR USE 0200-0900Z. TEMPS NEG ABV 24000\n\nFT  3000    6000    9000   12000   18000   24000  30000  34000  39000\nADK 2452 2454+09 2549+09 2640+06 2541-05 2643-15 274330 284041 283254\nADQ 2429 2441+09 2447+04 2451-01 2458-13 2546-23 273939 316449 305454\nAKN 2330 2439+06 2538+02 2542-02 2545-12 2552-22 296137 308847 297254\nANC 1420 1729+01 2024-02 2128-04 2243-14 2259-25 246741 246852 243246\nANN 3421 3114+11 2716+07 2618+02 2623-12 2826-26 282944 263252 252849\nBET 2613 2815+00 2823-01 2832-04 2751-15 2876-23 790436 791645 286548\nBRW 1027 1023+11 1024+03 1127-03 1228-15 1223-28 143543 154652 153250\nBTI 1517 1513+13 1513+06 1511-01 1617-15 1624-27 162342 130851 191750\nBTT 1511 1515+03 1517-02 1523-07 1428-18 1522-30 143445 144243 162442\nCDB 2422 2635+08 2633+03 2634-01 2739-09 2944-18 304632 305744 326957\nCZF 9900 3310+01 3011-03 2816-07 2830-18 2872-25 780036 770544 275545\nEHM 2816 2726+04 2629+02 2629-02 2639-12 2754-20 298234 298844 297654\nFAI 2016 1716+05 1720-03 1626-08 1824-17 1924-28 247344 213247 192243\nFYU 9900 2014+06 1723+02 1527-04 1538-17 1453-28 146342 146249 162945\nGAL 1617 1219+00 1120-04 1319-09 1516-20 1224-32 123045 171339 211339\nGKN 1725 1834+01 1928-01 2120-04 2324-16 2537-26 265543 276453 241946\nHOM 2024 2124+02 2334+00 2350-03 2455-13 2456-24 255941 276550 274949\nJNU 2307 2810+05 3015+00 3020-04 3022-17 3148-28 316844 303946 271844\nLUR 3411 3307+02 9900-02 1010-08 1038-19 0957-31 097347 114244 122241\nMCG 1521 1939-01 1836-05 1737-09 1828-20 1932-33 223238 243337 252739\nMDO 1917 2327+06 2536+03 2548-02 2542-14 2637-25 284542 284553 273051\nOME 1008 0919+00 1122-06 1122-11 1312-19 1618-32 211643 252139 252039\nORT      9900+07 1711+00 1816-05 2115-17 2723-27 295544 272050 221645\nOTZ 1108 9900+02 9900-05 1210-11 1615-20 1616-32 132146 151741 181239\nSNP 2030 2233+06 2349+02 2562-02 2665-07 2562-18 267232 278542 278353\nTKA 1719 1826-01 1825-04 2031-06 1932-16 2343-27 227342 237350 232943\nUNK 1322 1118-01 1026-05 1220-08 1111-20 1116-32 240842 262138 262239\nYAK 2811 2817+03 2818+00 2917-03 3032-14 3041-26 305144 304253 291746\nIKO 2621 2527+11 2532+07 2538+03 2834-07 2943-17 293931 304242 305055\nAFM 1308 1812+03 1717-03 1521-09 1516-19 1622-31 162846 142842 162040\n5AB 2436 2436+13 2536+10 2539+05 2459-05 2467-15 248030 247841 248052\n5AC 3530 3420+10 3315+07 3314+03 2915-11 2717-25 272043 262550 243253\n5AD 2616 2713+06 2716+03 2817-01 2717-13 2712-25 260942 271151 291756\n5AE 2445 2335+09 2428+05 2427+00 2433-13 2635-22 313037 336747 336458\n5AF 3227 3123+05 2920+02 3027+00 2929-13 2931-25 292943 313454 302550\n5AG 2621 2720+04 2826+01 2827-02 2833-13 2940-25 284343 283853 293252\n",
  "vaac_tokyo": [
    {
      "id": "20260722_30027000_0275",
      "year": "2026",
      "volcano": "Sheveluch",
      "psn": "N5639 E16122",
      "issued": "20260722",
      "text": "FVFE01 RJTD 220300\nVA ADVISORY\nDTG: 20260722/0300Z\nVAAC: TOKYO\nVOLCANO: SHEVELUCH 300270\nPSN: N5639 E16122\nAREA: RUSSIA\nSOURCE ELEV: 3283M AMSL\nADVISORY NR: 2026/275\nINFO SOURCE: KVERT KBGS HIMAWARI-9\nERUPTION DETAILS: ERUPTIVE ACTIVITY CONTINUING\nOBS VA DTG: 22/0220Z\nOBS VA CLD: SFC/FL350 N5835 E17406 - N5522 E16628 - N5522 E16417 - \nN5559 E16450 - N5554 E16626 - N5750 E16943 - N5913 E17336 MOV NE \n100KT\nFCST VA CLD +6 HR: 22/0820Z SFC/FL370 N6232 W16735 - N5951 W17532 - \nN5841 E17837 - N6226 W17617 - N6309 W17111\nFCST VA CLD +12 HR: 22/1420Z SFC/FL380 N6144 W14757 - N6139 W15400 - \nN6246 W16538 - N6447 W16318 - N6337 W15554\nFCST VA CLD +18 HR: 22/2020Z SFC/FL390 N6351 W13927 - N6031 W13724 - \nN5916 W14023 - N6515 W15334\nRMK: NIL\nNXT ADVISORY: 20260722/0600Z=",
      "img_url": "https://ds.data.jma.go.jp/svd/vaac/data/VAGFN/2026/Images/20260722_30027000_0275_QH21_01.png",
      "sat_img_url": "https://ds.data.jma.go.jp/svd/vaac/data/Sat/2026/Images/30027000/09-ir/20260722_0220_202607220300_ir.png",
      "text_url": "https://ds.data.jma.go.jp/svd/vaac/data/TextData/2026/20260722_30027000_0275_Text.html"
    },
    {
      "id": "20260722_28505000_0001",
      "year": "2026",
      "volcano": "Tokachidake",
      "psn": "N4325 E14241",
      "issued": "20260722",
      "text": "FVFE01 RJTD 220219\nVA ADVISORY\nDTG: 20260722/0219Z\nVAAC: TOKYO\nVOLCANO: TOKACHIDAKE 285050\nPSN: N4325 E14241\nAREA: JAPAN\nSOURCE ELEV: 2077M AMSL\nADVISORY NR: 2026/1\nINFO SOURCE: JMA HIMAWARI-9\nERUPTION DETAILS: ERUPTED AT 20260722/0207Z FL070 STNR\nOBS VA DTG: 22/0200Z\nOBS VA CLD: VA NOT IDENTIFIABLE FM SATELLITE DATA WIND FL070 290/9KT\nFCST VA CLD +6 HR: NOT AVBL\nFCST VA CLD +12 HR: NOT AVBL\nFCST VA CLD +18 HR: NOT AVBL\nRMK: WE WILL ISSUE FURTHER ADVISORY IF VA IS DETECTED IN SATELLITE \nIMAGERY.\nNXT ADVISORY: NO FURTHER ADVISORIES=",
      "img_url": "https://ds.data.jma.go.jp/svd/vaac/data/VAGFN/2026/Images/20260722_28505000_0001_QH21_01.png",
      "sat_img_url": null,
      "text_url": "https://ds.data.jma.go.jp/svd/vaac/data/TextData/2026/20260722_28505000_0001_Text.html"
    },
    {
      "id": "20260721_27307000_0019",
      "year": "2026",
      "volcano": "Taal",
      "psn": "N1400 E12100",
      "issued": "20260721",
      "text": "FVFE01 RJTD 211319\nVA ADVISORY\nDTG: 20260721/1319Z\nVAAC: TOKYO\nVOLCANO: TAAL 273070\nPSN: N1400 E12100\nAREA: PHILIPPINES\nSOURCE ELEV: 311M AMSL\nADVISORY NR: 2026/19\nINFO SOURCE: HIMAWARI-9 PHIVOLCS\nERUPTION DETAILS: ERUPTION AT 20260721/1209Z FL110 REPORTED\nOBS VA DTG: 21/1250Z\nOBS VA CLD: SFC/FL110 N1404 E12056 - N1359 E12050 - N1354 E12057 - \nN1358 E12100 MOV W 15KT\nFCST VA CLD +6 HR: 21/1850Z SFC/FL130 N1329 E12051 - N1306 E12036 - \nN1322 E11953 - N1339 E12003\nFCST VA CLD +12 HR: 22/0050Z SFC/FL140 N1259 E12029 - N1227 E12001 - \nN1251 E11858 - N1320 E11911\nFCST VA CLD +18 HR: NO VA EXP\nRMK: NIL\nNXT ADVISORY: 20260721/1800Z=",
      "img_url": "https://ds.data.jma.go.jp/svd/vaac/data/VAGFN/2026/Images/20260721_27307000_0019_QH21_01.png",
      "sat_img_url": "https://ds.data.jma.go.jp/svd/vaac/data/Sat/2026/Images/27307000/09-ir/20260721_1250_202607211319_ir.png",
      "text_url": "https://ds.data.jma.go.jp/svd/vaac/data/TextData/2026/20260721_27307000_0019_Text.html"
    },
    {
      "id": "20260721_28208001_0086",
      "year": "2026",
      "volcano": null,
      "psn": "N3136 E13039",
      "issued": "20260721",
      "text": "FVFE01 RJTD 210627\nVA ADVISORY\nDTG: 20260721/0627Z\nVAAC: TOKYO\nVOLCANO: SAKURAJIMA (AIRA CALDERA) 282080\nPSN: N3136 E13039\nAREA: JAPAN\nSOURCE ELEV: 1117M AMSL\nADVISORY NR: 2026/86\nINFO SOURCE: JMA HIMAWARI-9\nERUPTION DETAILS: ERUPTED AT 20260721/0514Z FL140 STNR\nOBS VA DTG: 21/0610Z\nOBS VA CLD: SFC/FL140 N3140 E13037 - N3139 E13043 - N3131 E13043 - \nN3131 E13036 MOV S 5KT\nFCST VA CLD +6 HR: 21/1210Z SFC/FL140 N3207 E13054 - N3118 E13054 - \nN3119 E13021 - N3159 E13012\nFCST VA CLD +12 HR: 21/1810Z SFC/FL140 N3224 E13103 - N3138 E13035 - \nN3138 E12953 - N3315 E13009\nFCST VA CLD +18 HR: NO VA EXP\nRMK: NIL\nNXT ADVISORY: 20260721/1200Z=",
      "img_url": "https://ds.data.jma.go.jp/svd/vaac/data/VAGFN/2026/Images/20260721_28208001_0086_QH21_01.png",
      "sat_img_url": "https://ds.data.jma.go.jp/svd/vaac/data/Sat/2026/Images/28208001/09-ir/20260721_0610_202607210627_ir.png",
      "text_url": "https://ds.data.jma.go.jp/svd/vaac/data/TextData/2026/20260721_28208001_0086_Text.html"
    }
  ],
  "vaac_alaska": [
    {
      "text": "\n000\nFVAK21 PAWU 220318\nVAAAK1\nVA ADVISORY\n\nDTG: 20260722/0315Z\n\nVAAC: ANCHORAGE\n\nVOLCANO: SHEVELUCH 300270\n\nPSN: N5639 E16122\n\nAREA: KAMCHATKA PENINSULA\n\nSOURCE ELEV: 10771 FT AMSL\n\nADVISORY NR: 2026/213\n\nRMK: PLEASE SEE FVFE01 RJTD ISSUED BY VAAC TOKYO WHICH DESCRIBES\nCONDITIONS NEAR THE VAAC ANCHORAGE AREA OF RESPONSIBILITY...BH\n\n\n\n",
      "issued": "2026-07-22T03:18:00+00:00",
      "volcano": "Sheveluch",
      "psn": "N5639 E16122"
    }
  ]
}