{
  "updated_utc": "2026-07-04T11:39Z",
  "metar": {
    "RJAA": "METAR RJAA 041000Z 14005KT 9999 FEW012 SCT045 BKN/// 22/21 Q1012 NOSIG",
    "PANC": "METAR PANC 040953Z 18006KT 10SM -RA FEW040 OVC055 10/08 A2995 RMK AO2 SLP141 PCPN VRY LGT P0000 T01000078",
    "PAFA": "METAR PAFA 040953Z 22003KT 10SM FEW075 FEW100 SCT220 10/09 A2979 RMK AO2 SLP092 T01000089 $",
    "PAED": "METAR PAED 040955Z 21004KT 10SM -RA BKN030 OVC040 11/08 A2993 RMK AO2A SLP131 P0000 T01090079 $",
    "KSEA": "METAR KSEA 040953Z 17005KT 10SM OVC021 14/12 A3010 RMK AO2 SLP196 T01440117 $",
    "ZSPD": "METAR ZSPD 041000Z 17003MPS 9999 -SHRA NSC 27/26 Q1008 BECMG TL1140 SHRA SCT030CB",
    "ZSSS": "METAR ZSSS 041000Z 22003MPS 190V270 9999 -SHRA SCT033 28/25 Q1008 BECMG TL1120 SHRA SCT030CB",
    "RJFR": "METAR RJFR 041000Z 25003KT 230V310 9999 FEW020 SCT040 BKN050 27/23 Q1007",
    "VHHH": "METAR VHHH 041000Z 15008KT 120V200 9999 -SHRA FEW008 SCT025 29/25 Q1008 WS R07L NOSIG",
    "RCTP": "METAR RCTP 041000Z 25012KT 9999 FEW020 32/25 Q1010 NOSIG RMK A2983",
    "ZGSZ": "METAR ZGSZ 041000Z 11005MPS 9999 BKN026 28/25 Q1008 NOSIG",
    "WSSS": "METAR WSSS 041000Z 11010KT 9999 FEW018TCU FEW020CB BKN300 31/24 Q1009 NOSIG",
    "WMKK": "METAR WMKK 041000Z VRB03KT 9000 FEW017CB 31/26 Q1008 NOSIG",
    "WIDD": "METAR WIDD 041000Z 14006KT 9999 SCT014 31/25 Q1009 NOSIG",
    "VTBS": "METAR VTBS 041000Z 20008KT 160V230 9999 FEW020 30/23 Q1006 NOSIG",
    "VTBU": "METAR VTBU 041000Z 24005KT 9999 -RA FEW020 BKN100 29/26 Q1007 NOSIG",
    "ROAH": "METAR ROAH 041000Z 20006KT 9999 FEW016 28/26 Q1012",
    "VVDN": "METAR VVDN 041000Z 20007KT 9999 FEW017 BKN070 30/23 Q1004 NOSIG",
    "RCKH": "METAR RCKH 041000Z 20011KT 150V250 9999 SCT020 SCT220 31/25 Q1010 NOSIG RMK 20012KT/R09 A2985",
    "KLAX": "METAR KLAX 040953Z 24004KT 10SM BKN010 17/15 A2999 RMK AO2 SLP154 T01720150 $",
    "KONT": "METAR KONT 040953Z 00000KT 10SM BKN250 18/13 A3000 RMK AO2 SLP142 T01780133 $",
    "KSFO": "METAR KSFO 040956Z 30008KT 10SM FEW004 BKN013 13/11 A3000 RMK AO2 SLP160 T01280111 $",
    "KOAK": "SPECI KOAK 040941Z 31005KT 10SM FEW003 BKN007 13/12 A3001 RMK AO2 T01330117 $",
    "KMHR": "METAR KMHR 040955Z AUTO 19005KT 10SM CLR 18/11 A2993 RMK AO2 T01830106",
    "KDFW": "METAR KDFW 040953Z 19008KT 10SM CLR 28/22 A2997 RMK AO2 SLP138 T02830217 $",
    "KIAH": "METAR KIAH 040953Z 00000KT 10SM FEW035 FEW250 25/24 A3001 RMK AO2 SLP161 T02500244",
    "KORD": "METAR KORD 040951Z 21003KT 10SM FEW055 FEW070 BKN250 21/20 A2999 RMK AO2 SLP150 CB DSNT W MOV E T02110200 $",
    "KJFK": "METAR KJFK 040951Z 25008KT 10SM FEW100 BKN250 26/21 A2992 RMK SLP130 T02560211 $",
    "KRFD": "METAR KRFD 040954Z 00000KT 9SM FEW050 SCT080 BKN250 20/20 A3000 RMK AO2 SLP155 T02000200",
    "KIND": "METAR KIND 040954Z 34009KT 10SM FEW020 FEW041 BKN100 24/22 A3003 RMK AO2 SLP161 OCNL LTGIC DSNT NW CB DSNT NW MOV NE T02390217",
    "KDTW": "METAR KDTW 040953Z 09003KT 9SM -RA FEW050 BKN080 OVC140 22/21 A2998 RMK AO2 TSE20 PRESFR SLP146 TS MOV NE P0002 T02170206 $",
    "KMSP": "METAR KMSP 040953Z 26003KT 10SM FEW050 BKN200 21/19 A2999 RMK AO2 SLP150 T02060189",
    "CYEG": "SPECI CYEG 040940Z 14007KT 15SM -SHRA BKN073 BKN084 13/11 A2989 RMK ACC5AC2 SLP127 DENSITY ALT 2800FT",
    "EHAM": "METAR EHAM 040955Z 27016KT 9999 FEW036 BKN046 20/15 Q1024 NOSIG",
    "EBBR": "METAR EBBR 040950Z COR 26011KT 9999 FEW044 23/11 Q1026 NOSIG",
    "EDDF": "METAR EDDF 040950Z AUTO VRB05KT CAVOK 24/08 Q1026 NOSIG",
    "EDFH": "METAR EDFH 040950Z 31005KT 250V360 CAVOK 21/09 Q1028",
    "EDDL": "METAR EDDL 040950Z AUTO 22015KT CAVOK 24/10 Q1025 TEMPO 25015G25KT",
    "EDDK": "METAR EDDK 040950Z AUTO 25008KT 180V310 CAVOK 24/10 Q1025 NOSIG",
    "EBLG": "METAR EBLG 040950Z 25012KT 200V280 CAVOK 22/09 Q1027 NOSIG",
    "LSZH": "METAR LSZH 040950Z 28004KT 240V340 CAVOK 24/07 Q1028 NOSIG",
    "LIMC": "METAR LIMC 040950Z VRB05KT CAVOK 31/13 Q1022 NOSIG",
    "LIRF": "METAR LIRF 040950Z 25009KT 210V280 CAVOK 32/15 Q1018 NOSIG",
    "EINN": "METAR EINN 041000Z 25016KT 9999 BKN012 BKN015 17/14 Q1028 TEMPO BKN015",
    "EGLL": "METAR EGLL 040950Z AUTO 28014KT 9999 BKN028 OVC036 21/14 Q1027",
    "EGSS": "METAR EGSS 040950Z AUTO 27011KT 9999 OVC027 21/14 Q1026",
    "EPWA": "METAR EPWA 041000Z 27017KT 9999 BKN028 17/10 Q1017 NOSIG",
    "UHPP": "METAR UHPP 041000Z 20005MPS 9999 FEW030CB BKN043 BKN061 12/07 Q1016 R16R/CLRD62 NOSIG RMK MT OBSC QFE759/1012",
    "EFHK": "METAR EFHK 040950Z VRB01KT 9999 -SHRA VCTS FEW006 SCT025CB 15/14 Q1003 RETS TEMPO 7000 TSRA",
    "LBBG": "METAR LBBG 041000Z 28008KT 9999 FEW036 23/16 Q1015 NOSIG",
    "LTAC": "METAR LTAC 040950Z 33009KT 230V020 9999 SCT040 28/08 Q1012 NOSIG",
    "UBBB": "METAR UBBB 041000Z 17006KT 9999 FEW060CB 29/13 Q1005 NOSIG",
    "UTAA": "METAR UTAA 041000Z 08008KT 040V140 9999 SCT050 SCT100 36/07 Q1004 R88/CLRD70 NOSIG",
    "UACC": "METAR UACC 041000Z 26007MPS 220V290 9999 BKN043 27/11 Q1004 NOSIG RMK QFE722/0963",
    "UAAA": "SPECI UAAA 040945Z 26008MPS 220V280 9999 BKN050CB OVC100 25/16 Q1009 NOSIG",
    "UZTT": "METAR UZTT 041000Z 16006KT 100V230 CAVOK 30/12 Q1008 NOSIG",
    "ZWWW": "METAR ZWWW 041000Z 33004MPS 300V010 CAVOK 32/14 Q1004 NOSIG",
    "ZLXY": "METAR ZLXY 041000Z 05003MPS 9999 FEW040 35/18 Q1000 NOSIG",
    "ZBAA": "METAR ZBAA 041000Z 15002MPS CAVOK 33/24 Q0996 NOSIG",
    "ZBHH": "METAR ZBHH 041000Z 01002MPS 290V070 9999 -SHRA SCT040 FEW040CB 21/19 Q1005 RETS BECMG TL1030 -TSRA",
    "ZSQD": "METAR ZSQD 041000Z 15007MPS CAVOK 26/21 Q1002 NOSIG",
    "ZMCK": "METAR ZMCK 041000Z 35011MPS 9999 SCT030CB SCT033 19/11 Q1012 NOSIG RMK QFE643.9 63 MOP",
    "UUEE": "SPECI UUEE 040950Z 33004G09MPS 9999 -SHRA FEW004 BKN026CB 18/17 Q1004 R06R/290345 R06C/290345 TEMPO 1000 TSRA BKN016CB",
    "UUDD": "METAR UUDD 041000Z 28003MPS 9999 -RA SCT007 19/19 Q1004 R13R/290039 NOSIG",
    "ULLI": "METAR ULLI 041000Z 13002MPS 100V180 9999 FEW033CB SCT043 21/12 Q1003 R88/090065 NOSIG",
    "USSS": "METAR USSS 041000Z 33005MPS 300V360 9999 SCT045 24/16 Q1003 R26R/CLRD60 R26L/220060 NOSIG RMK QFE732/0976",
    "UNNT": "METAR UNNT 041000Z 22003MPS 180V270 CAVOK 30/14 Q1005 R25/CLRD// R34/////// NOSIG RMK QFE744/0992",
    "UNKL": "METAR UNKL 041000Z 10004MPS CAVOK 29/15 Q1006 R11/CLRD// NOSIG RMK QFE729",
    "UIBB": "METAR UIBB 041000Z 06002MPS 360V130 9999 NSC 27/13 Q1011 R12/CLRD62 NOSIG RMK QFE715/0954",
    "UEEE": "METAR UEEE 041000Z 33005MPS 9999 FEW050CB 28/12 Q1004 R23/09//66 NOSIG RMK QFE744",
    "UHHH": "METAR UHHH 041000Z 23004MPS 9999 -SHRA SCT040CB 22/20 Q1004 R23R/090060 NOSIG RMK QFE747/0996",
    "UHSS": "METAR UHSS 041000Z 17003MPS 9999 NSC 19/15 Q1011 R19/CLRD70 NOSIG RMK QFE757/1009"
  },
  "taf": {
    "RJAA": "TAF RJAA 041105Z 0412/0518 13006KT 9999 FEW008 BKN015 TEMPO 0412/0416 FEW003 BKN008 TEMPO 0416/0500 4000 -RA BR FEW001 BKN003 TEMPO 0500/0503 FEW003 BKN008 BECMG 0512/0515 03004KT",
    "PANC": "TAF PANC 041130Z 0412/0518 18007KT P6SM -RA SCT025 OVC040 TEMPO 0412/0414 6SM -RA BR SCT015 OVC025 FM041400 VRB04KT 6SM -RA BR SCT010 OVC025 FM042000 30006KT P6SM VCSH SCT025 BKN040 FM050000 16015G25KT P6SM FEW040 BKN080 FM050900 03005KT P6SM VCSH OVC060",
    "PAFA": "TAF PAFA 041122Z 0412/0518 VRB03KT P6SM FEW070 BKN090 FM042100 21004KT P6SM VCSH BKN050 FM050000 22004KT P6SM -SHRA VCTS BKN050CB FM050600 20004KT P6SM SCT060 BKN100",
    "KSEA": "TAF KSEA 041120Z 0412/0518 21004KT P6SM OVC020 FM041800 22008KT P6SM BKN050 FM042100 30008KT P6SM SCT250 FM050300 02010G15KT P6SM BKN100 FM051200 02004KT P6SM BKN025",
    "ZSPD": "TAF ZSPD 040916Z 0412/0518 29004MPS 6000 SHRA BKN020 FEW030CB TX26/0412Z TX31/0506Z TN24/0421Z BECMG 0412/0414 20004MPS -SHRA BKN020 TEMPO 0422/0502 2800 TSRA BKN011 SCT030CB TEMPO 0506/0511 2400 +TSRA BKN011 SCT030CB",
    "ZSSS": "TAF ZSSS 040916Z 0412/0518 20004MPS 6000 SHRA BKN023 FEW030CB TX28/0412Z TX32/0506Z TN25/0421Z BECMG 0412/0414 -SHRA BKN030 TEMPO 0422/0502 2800 TSRA BKN013 SCT030CB TEMPO 0505/0510 2500 +TSRA BKN013 SCT030CB",
    "RJFR": "TAF RJFR 041105Z 0412/0518 28006KT 9999 FEW009 SCT030 BKN040 BECMG 0416/0418 10006KT TEMPO 0500/0503 4000 SHRA BR BKN005 BKN009 TEMPO 0503/0506 2000 SHRA BR BKN005 BKN008 TEMPO 0506/0515 BKN005 TEMPO 0515/0518 2000 TSRA BR FEW004 BKN005 FEW015CB",
    "VHHH": "TAF VHHH 041100Z 0412/0518 16015KT 9999 FEW010 SCT025 TX32/0506Z TN27/0422Z TEMPO 0412/0415 18015G25KT 2000 TSRA +SHRA FEW008CB SCT015 TEMPO 0415/0418 3000 SHRA FEW010CB SCT020 TEMPO 0418/0502 16020G30KT 1500 TSRA +SHRA FEW010CB SCT020 TEMPO 0502/0506 3000 SHRA FEW010CB SCT020",
    "RCTP": "TAF RCTP 041100Z 0412/0518 24008KT 9999 FEW010 BKN032 TEMPO 0418/0424 15005KT TEMPO 0504/0510 30012KT FEW010 BKN017 FEW022TCU TEMPO 0512/0518 15005KT",
    "ZGSZ": "TAF ZGSZ 040906Z 0412/0518 11005MPS 8000 BKN040 TX28/0412Z TX31/0506Z TN26/0422Z TEMPO 0416/0420 19010G17MPS 2000 TSRA SCT012 FEW025CB BKN033 TEMPO 0420/0424 SHRA FEW025CB BKN033 BECMG 0503/0504 17005MPS TEMPO 0504/0508 TSRA SCT012 FEW025CB BKN033",
    "WSSS": "TAF WSSS 041100Z 0412/0518 13007KT 9999 FEW015 SCT020 PROB30 TEMPO 0506/0509 3000 TSRA FEW012CB BKN015",
    "WMKK": "TAF WMKK 041100Z 0412/0518 VRB03KT 9999 FEW018 PROB30 TEMPO 0421/0501 5000 TSRA FEW010 FEW017CB",
    "VTBS": "TAF VTBS 041100Z 0412/0518 22008KT 9999 FEW020 TEMPO 0422/0502 -TSRA FEW018CB SCT030 BKN080 TEMPO 0510/0514 VRB15KT 4000 TSRA FEW018CB SCT030 BKN080",
    "VTBU": "TAF VTBU 041100Z 0412/0512 23006KT 9000 FEW020 SCT100 TEMPO 0416/0422 VRB15KT 4000 TSRA FEW018CB SCT030 BKN090",
    "ROAH": "TAF ROAH 041105Z 0412/0518 21005KT 9999 FEW010 SCT015",
    "VVDN": "TAF VVDN 041100Z 0412/0512 19007KT 8000 FEW017 SCT060",
    "RCKH": "TAF RCKH 041100Z 0412/0518 18008KT 9999 FEW010 BKN032 TEMPO 0418/0424 14005KT TEMPO 0504/0510 25013KT",
    "KLAX": "TAF KLAX 041134Z 0412/0518 VRB03KT P6SM SCT010 FM041800 26007KT P6SM SCT250 FM042100 26012KT P6SM SCT250 FM050500 25008KT P6SM SCT250 FM050900 VRB03KT P6SM SCT015 SCT250 FM051200 27005KT P6SM BKN008",
    "KONT": "TAF KONT 041120Z 0412/0518 VRB05KT P6SM SCT250 FM042100 25011KT P6SM SCT080 BKN150 FM050500 VRB05KT 5SM FU HZ FEW008 SCT150 FM050700 VRB04KT P6SM SCT150",
    "KSFO": "TAF KSFO 041127Z 0412/0518 30008KT P6SM FEW004 BKN013 FM041600 29005KT P6SM FEW010 FM042100 28015KT P6SM SKC FM050300 29009KT P6SM FEW012 FM050700 29008KT P6SM BKN012 FM050900 28008KT P6SM OVC007",
    "KOAK": "TAF KOAK 041127Z 0412/0518 33005KT P6SM OVC007 FM041700 29007KT P6SM SKC FM042100 30013KT P6SM SKC FM050400 29011KT P6SM BKN009 FM050700 29008KT P6SM OVC007",
    "KMHR": "TAF KMHR 041120Z 0412/0512 VRB05KT P6SM SKC FM042300 22010KT P6SM SKC FM050500 15008KT P6SM SCT250",
    "KDFW": "TAF KDFW 041120Z 0412/0518 17011KT P6SM SCT060",
    "KIAH": "TAF KIAH 041132Z 0412/0518 21005KT P6SM FEW035 FEW250 TEMPO 0412/0413 24004KT 6SM BR FM041300 17007KT P6SM FEW035 FEW250 TEMPO 0508/0512 6SM BR",
    "KORD": "TAF KORD 041126Z 0412/0518 27007KT P6SM SCT035 BKN100 TEMPO 0414/0416 3SM TSRA BKN035CB FM041800 09009KT P6SM SCT035 BKN100 TEMPO 0419/0423 27020G35KT 2SM TSRA BR SCT015 OVC035CB FM050400 05007KT P6SM FEW005 SCT025 BKN100",
    "KJFK": "TAF KJFK 041120Z 0412/0518 29008KT P6SM SCT150 FM041400 26010KT P6SM FEW060 SCT250 FM041700 24012G17KT P6SM SCT060 SCT250 FM042000 21014KT P6SM SCT060 SCT250 PROB30 0420/0424 27020G35KT 3SM TSRA BKN040CB FM050000 VRB05KT P6SM VCSH BKN060 PROB30 0500/0503 5SM -TSRA BKN040CB FM050600 28008KT P6SM SCT060 BKN100 FM050900 VRB05KT P6SM BKN050",
    "KRFD": "TAF KRFD 041128Z 0412/0512 VRB05KT P6SM SCT035 BKN100 TEMPO 0413/0415 3SM TSRA SCT015 BKN035CB FM041700 36005KT P6SM SCT035 BKN100 PROB30 0418/0421 3SM TSRA SCT015 OVC035CB FM042100 05007KT P6SM SCT025 BKN100",
    "KIND": "TAF KIND 040520Z 0406/0512 20005KT P6SM SCT250 FM041200 20007KT P6SM SCT250 FM041800 23009KT P6SM SCT050 BKN100 TEMPO 0422/0502 2SM -TSRA OVC035CB FM050200 23004KT P6SM SCT050 BKN100",
    "KDTW": "TAF KDTW 041120Z 0412/0518 24005KT P6SM SCT060 BKN120 FM041600 27007KT P6SM BKN060 PROB30 0419/0423 3SM -TSRA BKN050CB FM050000 04005KT P6SM OVC080 PROB30 0507/0512 5SM -TSRA SCT020 BKN040CB FM051200 04006KT P6SM BKN040",
    "KMSP": "TAF KMSP 041133Z 0412/0518 VRB04KT P6SM BKN200 FM041600 09005KT P6SM SCT040 PROB30 0422/0502 4SM -TSRA BR BKN030CB FM050400 VRB04KT P6SM FEW250",
    "CYEG": "TAF CYEG 040840Z 0409/0506 14004KT P6SM FEW100 SCT130 BECMG 0413/0415 26015G25KT FM041500 26015G25KT P6SM FEW080 BKN120 TEMPO 0415/0418 P6SM -SHRA BECMG 0416/0418 30012KT FM041800 30012KT P6SM FEW030 SCT050 FM042000 30010KT P6SM BKN030 PROB30 0422/0502 VRB20G30KT 2SM TSRA OVC020CB FM050200 29008KT P6SM SCT030 TEMPO 0502/0504 P6SM -SHRA VCTS BKN030CB FM050400 26006KT P6SM FEW060 RMK NXT FCST BY 041200Z",
    "EHAM": "TAF COR EHAM 041111Z 0412/0518 27013KT CAVOK BECMG 0417/0420 27006KT BECMG 0422/0501 29011KT PROB40 0502/0515 BKN018",
    "EBBR": "TAF EBBR 041110Z 0412/0518 28009KT 9999 SCT040",
    "EDDF": "TAF EDDF 041100Z 0412/0518 26007KT CAVOK TEMPO 0413/0419 28012KT BECMG 0510/0513 30012KT TEMPO 0510/0518 31015G25KT SHRA BKN030TCU",
    "EDFH": "TAF EDFH 041100Z 0412/0512 28010KT CAVOK BECMG 0419/0421 28005KT BECMG 0509/0511 29010KT TEMPO 0510/0512 SHRA BKN020TCU",
    "EDDL": "TAF EDDL 041100Z 0412/0518 26013KT 9999 SCT040 TEMPO 0412/0417 29015G25KT BECMG 0418/0421 26007KT BECMG 0509/0511 29012KT PROB30 TEMPO 0511/0517 30015G25KT SHRA SCT040TCU",
    "EDDK": "TAF EDDK 041100Z 0412/0518 28012KT CAVOK PROB40 TEMPO 0412/0418 29015G25KT BECMG 0419/0421 29007KT TEMPO 0422/0507 23004KT BECMG 0509/0511 30012KT PROB30 TEMPO 0511/0516 31015G25KT SHRA SCT040TCU",
    "EBLG": "TAF EBLG 041110Z 0412/0518 28009KT 9999 SCT040 PROB30 TEMPO 0503/0507 BKN007",
    "LSZH": "TAF LSZH 041125Z 0412/0518 24005KT CAVOK TX28/0415Z TN13/0504Z TX30/0515Z PROB30 0413/0417 29008KT BECMG 0510/0513 31012KT 9999 FEW070 TEMPO 0512/0516 32015G25KT",
    "LIMC": "TAF LIMC 041100Z 0412/0518 19006KT CAVOK",
    "LIRF": "TAF LIRF 041100Z 0412/0518 23012KT CAVOK BECMG 0412/0415 29013KT BECMG 0421/0423 03008KT BECMG 0510/0512 25010KT",
    "EINN": "TAF EINN 041100Z 0412/0512 25013KT 9999 FEW010 BKN012 BECMG 0412/0414 SCT012 BKN015 TEMPO 0413/0422 BKN012 TEMPO 0422/0505 BKN007 PROB30 TEMPO 0505/0512 BKN012",
    "EGLL": "TAF EGLL 041055Z 0412/0518 28015KT 9999 SCT030",
    "EGSS": "TAF EGSS 041056Z 0412/0518 26008KT 9999 FEW040",
    "EPWA": "TAF EPWA 041130Z 0412/0512 27015KT 9999 BKN035 TEMPO 0412/0418 28020G30KT SCT040TCU TEMPO 0510/0512 26016G26KT -SHRA BKN020CB",
    "UHPP": "TAF UHPP 041039Z 0412/0518 17003G10MPS 9999 BKN025CB TEMPO 0412/0420 0700 FG VV002 TEMPO 0420/0510 3000 -SHRA BR BKN005 BKN017CB TEMPO 0510/0518 1000 BR BKN003",
    "EFHK": "TAF EFHK 040829Z 0409/0509 30004KT 9999 FEW006 SCT020CB TEMPO 0409/0422 5000 TSRA PROB40 TEMPO 0409/0422 33015G30KT 2000 +TSRA BECMG 0422/0424 0500 FG VV002 TEMPO 0500/0505 4000 BR BKN005 FEW025CB BECMG 0505/0507 9999 -SHRA SCT015 SCT020CB",
    "LBBG": "TAF LBBG 041100Z 0412/0512 35014KT 9999 SCT040 BECMG 0412/0414 10012KT TEMPO 0416/0419 5000 SHRA FEW030CB BKN040 BECMG 0419/0421 VRB03KT BECMG 0509/0511 10010KT",
    "LTAC": "TAF LTAC 041040Z 0412/0512 35015KT 9999 SCT040 BECMG 0417/0419 VRB02KT CAVOK BECMG 0504/0506 SCT040",
    "UBBB": "TAF UBBB 041051Z 0412/0512 15008KT 9999 SCT040 TX30/0412Z TN21/0501Z TEMPO 0412/0416 19014KT FEW060CB BECMG 0417/0419 VRB04KT TEMPO 0422/0504 21005KT FEW010 BECMG 0505/0507 34006KT BKN020 TEMPO 0507/0512 36012KT FEW050CB",
    "UTAA": "TAF UTAA 041045Z 0412/0512 08016KT 6000 SCT050 TEMPO 0412/0416 14014KT BECMG 0416/0418 18012KT BECMG 0504/0506 04016KT TEMPO 0506/0512 08014G24KT 4000 DRDU",
    "UACC": "TAF UACC 041100Z 0412/0512 25006MPS 9999 SCT030CB BKN100 TX27/0412Z TN14/0424Z TEMPO 0412/0418 VRB16MPS 3100 -TSRA SQ BKN020CB BECMG 0418/0420 VRB01MPS SCT030 BKN070 TEMPO 0418/0502 3100 BR FEW005 SCT011 BKN020CB BECMG 0502/0504 27006MPS SCT030CB BKN100 TEMPO 0502/0512 VRB16MPS 3100 -TSRA SQ BKN020CB",
    "UAAA": "TAF UAAA 041105Z 0412/0512 22003G08MPS 9999 SCT050CB BKN100 TX28/0510Z TN14/0501Z TEMPO 0412/0418 28008G15MPS 3100 -TSRA BR BKN011CB OVC030 TEMPO 0418/0502 16005MPS 3100 BR FU BECMG 0503/0505 34003MPS FEW050 SCT100 TEMPO 0503/0512 04005G10MPS",
    "UZTT": "TAF UZTT 041100Z 0412/0512 09010KT 7000 FEW060CB TEMPO 0412/0418 VRB12G22KT -TSRA BKN050CB",
    "ZWWW": "TAF ZWWW 040901Z 0412/0518 36004MPS CAVOK TX32/0509Z TN26/0423Z TN25/0518Z BECMG 0414/0415 18004MPS BECMG 0420/0421 33004G11MPS BECMG 0513/0514 9999 FEW040CB",
    "ZLXY": "TAF ZLXY 040901Z 0412/0512 15003MPS 6000 NSC TX39/0508Z TN22/0421Z",
    "ZBAA": "TAF ZBAA 040900Z 0412/0518 17004MPS 6000 NSC TX33/0507Z TN24/0421Z TN22/0518Z TEMPO 0415/0421 TS FEW040CB TEMPO 0507/0513 -TSRA FEW040CB BKN040",
    "ZBHH": "TAF ZBHH 040910Z 0412/0512 03004MPS 9999 FEW040 TX27/0508Z TN14/0422Z TEMPO 0506/0509 -TSRA FEW040CB SCT040",
    "ZSQD": "TAF ZSQD 040902Z 0412/0512 16005MPS 3500 BR NSC TX36/0506Z TN24/0420Z TEMPO 0509/0512 TSRA BKN020 FEW030CB",
    "ZMCK": "TAF ZMCK 041039Z 0412/0518 VRB02MPS 9999 FEW030CB SCT033 TN13/0421Z TX24/0507Z BECMG 0501/0503 34007MPS BECMG 0510/0512 VRB02MPS",
    "UUEE": "TAF UUEE 041055Z 0412/0512 30003G08MPS 9000 BKN016 TX20/0512Z TN16/0501Z TEMPO 0412/0421 36010G15MPS 1000 TSRA BKN004 BKN016CB TEMPO 0421/0504 BKN005 TEMPO 0509/0512 24010G15MPS -TSRA BKN020CB",
    "UUDD": "TAF UUDD 041053Z 0412/0518 30003MPS 9999 BKN016 TX21/0412Z TN16/0502Z TEMPO 0412/0418 -TSRA BKN005 BKN010CB TEMPO 0420/0505 BKN003 TEMPO 0509/0518 30008G15MPS -TSRA BKN020CB",
    "ULLI": "TAF ULLI 041050Z 0412/0512 10003MPS 6000 BKN016 TEMPO 0412/0423 16005G13MPS 3100 -TSRA BKN010 BKN017CB BECMG 0423/0424 1000 BR OVC004 TEMPO 0500/0505 0300 FG VV002 BECMG 0505/0506 6000 NSW BKN016 TEMPO 0506/0508 2100 -TSRA BKN010 BKN016CB",
    "USSS": "TAF USSS 041052Z 0412/0512 32005G15MPS 9999 BKN040 TEMPO 0412/0417 SCT016CB FM041700 27003G08MPS 6000 SCT016 TEMPO 0418/0502 0300 FG FM050300 25003G10MPS 9999 SCT033CB",
    "UNNT": "TAF UNNT 041100Z 0412/0512 17003G08MPS 8000 SCT040 TX28/0412Z TN18/0422Z TEMPO 0412/0417 23006G15MPS -TSRA BKN020CB TEMPO 0505/0512 25005G13MPS -TSRA BKN020CB",
    "UNKL": "TAF UNKL 041049Z 0412/0512 11003G08MPS 9999 SCT040 TX30/0506Z TN17/0422Z TEMPO 0412/0424 -TSRA BKN016CB BECMG 0414/0416 26005G12MPS BECMG 0417/0419 31003G08MPS TEMPO 0505/0512 -TSRAGR BKN020CB BECMG 0509/0511 32008G16MPS",
    "UIBB": "TAF UIBB 041100Z 0412/0512 07002MPS 9999 SCT050CB TEMPO 0503/0512 VRB08MPS",
    "UEEE": "TAF UEEE 041100Z 0412/0518 33005G10MPS 9999 SCT030CB BKN100 TX29/0506Z TN10/0418Z TEMPO 0412/0415 VRB15MPS 5000 -TSRA",
    "UHHH": "TAF UHHH 041047Z 0412/0518 12003MPS 9999 -SHRA FEW010 SCT020CB TX21/0505Z TN15/0415Z TEMPO 0412/0414 VRB08MPS 2500 -TSRA SCT006 BKN017CB FM041400 05005MPS 5000 -SHRA SCT010 BKN016CB TEMPO 0414/0424 1000 TSRA BKN003 BKN016CB",
    "UHSS": "TAF UHSS 041055Z 0412/0518 18003MPS 9999 NSC BECMG 0418/0420 0600 FG BKN002 BECMG 0422/0424 9999 NSW BKN030CB TEMPO 0506/0518 -SHRA"
  },
  "atis": {
    "RJAA": "[Arrival ATIS] RJAA ARR ATIS J 1418Z S1417 (APCH)ILS RWY34L USING RWY 34L DEP FREQ 124.2. TWY A1 CLSD. RWY 16L/34R CLSD TIL 2030. RWY 16R/34L WILL BE CLSD FM 1510 EXC ACFT WITH PRIOR PERMISSION. OBSERVE GEAR DOWN OPS PROC ON FNL. S 181417Z AUTO 02007KT 5000M BR OVC002// 20/19 Q1010/A2985= Q/TWO NINE EIGHT FIVE STP\n[Departure ATIS] RJAA DEP ATIS Z 1224Z M1200 (APCH)ILS Z RWY34R LDG RWY 34R DEP RWY 34L DEP FREQ 124.2. TWY A1 CLSD. OBSERVE GEAR DOWN OPS PROC ON FNL. M 181200Z 04006KT 2400M -SHRA BR BKN002ST 20/19 Q1010/A2983= Q/TWO NINE EIGHT THREE STP",
    "PANC": "[Arrival ATIS] PANC ARR ATIS N 1353Z ANC ATIS INFO N 1353Z. 00000KT 10SM FEW200 09/07 A3039 (THREE ZERO THREE NINER). 7R APPROACHES IN USE. LANDING RWY 7R, DEPARTING RWY 33. NOTICE TO AIRMEN. RWY 7L CLSD. CHECK NOTAMS FOR TAXIWAY CLOSURES. CONTACT TOWER 118.3 FOR TAXI. ...ADVS YOU HAVE INFO N.\n[Departure ATIS] PANC DEP ATIS L 0253Z ANC ATIS INFO L 0253Z. 25006KT 10SM FEW045 BKN085 BKN130 14/08 A2989 (TWO NINER EIGHT NINER). 7R, 7L APPROACHES IN USE. LANDING RWY 7R, 7L, DEPARTING RWY 7L, 33. NOTICE TO",
    "KSEA": "[Arrival ATIS] KSEA ARR ATIS M 1353Z SEA ATIS INFO M 1353Z. 36008KT 10SM FEW250 15/09 A3008 (THREE ZERO ZERO EIGHT). ILS AND CHARTED VISUAL APPROACH RWYS 34L AND 34R , APCH IN USE. DEPG RWY 34R. SIMUL ARRIVALS TO RWY 34L AND DEPARTURES TO RWY 34R ARE IN USE. SIMUL APCHS IN USE TO PARA RYS. NOTAMS... LOC RWY 34C OTS, RWY 34C GS OTS. BIRD ACTIVITY VICINITY ARPT. ...ADVS YOU HAVE INFO M.\n[Departure ATIS] KSEA DEP ATIS E 0553Z - KSEA ATIS INFO E 0553Z. 00000KT 10SM SCT150 SCT250 14/12 A3008 (THREE ZERO ZERO EIGHT). ILS, RYS 16R AND 16L , APCH IN USE. DEPG RWY 16L. SIMUL APCHS IN USE, BFI & SEA. T",
    "ZSPD": "[Arrival ATIS] ZSPD ARR ATIS Y 1430Z EXP ILS APCH INDEPENDENT PARL INSTR APCH LDG RWY 17R & 16L WIND RWY 17R TDZ 120/3MPS MID 130/4MPS END 110/4MPS RWY 16L TDZ 130/4MPS MID 120/4MPS END 120/3MPS VIS RWY 17R TDZ 7000M MID 7000M END 6000M VIS RWY 16L TDZ 9000M MID 7000M END 5000M FBL SHRA CLD BKN 270M T 24 /DP 24 QNH 1008 HPA CAUTION THE BIRDS NEAR THE RUNWAY RWY 17L/17R/16L/16R RWYCC 5/5/5 ISSUED AT 1305 WET/WET/WET DPT NR/NR/NR COV 100PCT/100PCT/100PCT ADZ YOU HAVE INFO Y.\n[Departure ATIS] ZSPD DEP ATIS Y 1430Z DEP RWY 17L & 16R WIND RWY 17L TDZ 120/4MPS VRB BTN 080/ AND 140/ MID 120/4MPS END 110/4MPS RWY 16R TDZ 120/4MPS MID 130/4MPS END 130/3MPS VIS RWY 17L TDZ 9000M MID 7000M END 7000M VIS RWY 16R TDZ 7000M MID 5000M END 6000M FBL SHRA CLD BKN 270M T 24 /DP 24 QNH 1008 HPA CAUTION THE BIRDS NEAR THE RUNWAY RWY 17L/17R/16L/16R RWYCC 5/5/5 ISSUED AT 1305 WET/WET/WET DPT NR/NR/NR COV 100PCT/100PCT/100PCT ADZ YOU HAVE INFO Y.",
    "ZSSS": "[Arrival ATIS] ZSSS ARR ATIS M 1400Z EXP ILS APCH LDG RWY 18L WIND RWY 18L TDZ 100/2MPS MID 100/3MPS END 110/2MPS VIS RWY 18L TDZ 9000M MID 8000M END 8000M CLD FEW 420M T 25 /DP 23 QNH 1008 HPA RWY18L RWYCC 5/5/5 ISSUED AT 1148 WET/WET/WET DPT NR/NR/NR COV 100PCT/100PCT/100PCT RWY18R RWYCC 5/5/5 ISSUED AT 1210 WET/WET/WET DPT NR/NR/NR COV 100PCT/100PCT/100PCT QNH OF SHANGHAI TERMINAL CONTROL AREA 1008 HPA ADZ YOU HAVE INFO M.\n[Departure ATIS] ZSSS DEP ATIS G 1200Z DEP RWY 18R WIND RWY 18R TDZ 100/3MPS MID 130/5MPS END 120/5MPS VIS RWY 18R TDZ 9000M MID 10000M END 9000M CLD FEW 450M T 26 /DP 22 QNH 1008 HPA RWY18R RWYCC 5/5/5 ISSUED AT 1030 WET/WET/WET DPT NR/NR/NR COV 100PCT/100PCT/100PCT RWY18L RWYCC 5/5/5 ISSUED AT 1148 WET/WET/WET DPT NR/NR/NR COV 100PCT/100PCT/100PCT QNH OF SHANGHAI TERMINAL CONTROL AREA 1008 HPA ADZ YOU HAVE INFO G.",
    "VHHH": "[Arrival ATIS] VHHH ARR ATIS J 1404Z ARRIVALS, RWY 07L. EXP ILS APCH, RWY 07L. RWY 07 RUNWAY CONDITION REPORT AT 0548Z. RWY 07L RUNWAY CONDITION CODES 5 , 5 , 5 . RWY SFC ALL PARTS WET. SIG WS FCST. WIND 180/11KT VRB BTN 130/ AND 200/. VIS 10KM. CLD FEW 800FT SCT 2500FT. T29 DP26. QNH 1009HPA. ACK INFO J ON FIRST CTC WITH APP.\n[Departure ATIS] VHHH DEP ATIS Q 1403Z DEPARTURES, RWY 07R. RWY 07 RUNWAY CONDITION REPORT AT 0548Z. RWY 07R RUNWAY CONDITION CODES 5 , 5 , 5 . RWY SFC ALL PARTS WET. SIG WS FCST. WIND 210/10KT VRB BTN 060/ AND 230/. VIS 10KM. CLD FEW 800FT SCT 2500FT. T29 DP26. QNH 1009HPA. ACK INFO Q ON FIRST CTC WITH DELIVERY .",
    "RCTP": "[Arrival ATIS] RCTP ARR ATIS P 1100Z EXP ILS APCH RWY23R AND RWY23L ARR/DEP. WIND 250/11KT VIS 10 KM OR MORE CLD FEW 2000FT SCT 4000FT T 30 DP 25 QNH 1010HPA NOSIG DUE TO FLOW CONTROL BY MANILA AND HONGKONG F-I-R, TRAFFIC CONCERNED MAY BE DELAYED. INFORM TAIPEI APCH OR TAIPEI TOWER ON INITIAL CONTACT YOU HAVE INFORMATION P\n[Departure ATIS] RCTP DEP ATIS H 1100Z EXP ILS APCH RWY23R AND RWY23L ARR/DEP. WIND 240/07KT VARYING BTN 210 AND 270 VIS 10 KM OR MORE CLD FEW 1500FT BKN 3000FT BKN 12000FT T 29 DP 25 QNH 1011HPA NOSIG DUE TO FLOW CONTROL BY HONGKONG F-I-R, TRAFFIC CONCERNED MAY BE DELAYED. INFORM TAIPEI APCH OR TAIPEI TOWER ON INITIAL CONTACT YOU HAVE INFORMATION H",
    "ZGSZ": "[Arrival ATIS] ZGSZ ARR ATIS O 1430Z EXP ILS APCH 15 EXP ILS OR VIS APCH 16R WIND VRB/1MPS VIS 9999M -SHRA CLD SCT 1200M T 26 /DP 25 QNH 1009 HPA INDEPENDENT PARALLEL DEPARTURES INDEPENDENT PARALLEL APPROACHES MISSED APPROACH ALTITUDE SETTING 1200METERS WHEN AIRBORNE CONTACT ZHUHAI APPROACH EXPECTED RNP ILS DME Z APPROACH RWY 15 16L 16R RWYCC 5/5/5 ISSUED AT 0720UTC WET/WET/WET DPT NR/NR/NR COV 100PCT/100PCT/100PCT ADZ YOU HAVE INFO O.\n[Departure ATIS] ZGSZ DEP ATIS J 1330Z DEP RWY 15 & 16L WIND 120/4MPS VIS 9999M -SHRA CLD SCT 1500M T 26 /DP 25 QNH 1009 HPA INDEPENDENT PARALLEL DEPARTURES DEPENDENT PARALLEL APPROACHES MISSED APPROACH ALTITUDE SETTING 1200METERS WHEN AIRBORNE CONTACT ZHUHAI APPROACH EXPECTED RNP ILS DME Z APPROACH RWY 15 16L 16R RWYCC 5/5/5 ISSUED AT 0720UTC WET/WET/WET DPT NR/NR/NR COV 100PCT/100PCT/100PCT ADZ YOU HAVE INFO J.",
    "WSSS": "[Arrival ATIS] WSSS ARR ATIS B 1430Z METREPORT 1430Z ILS APCHRWY 20R SIMUL INDEPENDENT ILS AND VISUAL APPROACHES ARE CONDUCTED ON RWY 20. TWY W 9 CLOSED, RWY 02C 20C RAPID EXIT TAXIWAY INDICATOR LIGHTS OFFFOLLOW THE GREENS TRIAL IN PROGRESS. WHEN VACATING THE RWY, PILOTS TO ADHERE TO ATC VERBAL INSTRUCTIONS. WHEN ON TWY, PILOT TO ADHERE TO FOLLOW THE GREENS INSTRUCTIONS. WHEN APPROACHING [A] JUNCTION, KEEP [A] LOOKOUT FOR CONTINUOUS GREENS. [IF] [A] BREAK IN THE GREENS IS OBSERVED, STOP AND CLARIFY WITH ATC. WIND 150/ 07KT VRB BTN110 AND170 VIS 10KM CLD FEW 1800FT T29 DP24 QNH 1010HPA NOSIG ACK ATIS B\n[Departure ATIS] WSSS DEP ATIS C 1430Z METREPORT 1430Z RWY 20C SIMUL INDEPENDENT ILS AND VISUAL APPROACHES ARE CONDUCTED ON RWY 20. TWY W 9 CLOSED, RWY 02C 20C RAPID EXIT TAXIWAY INDICATOR LIGHTS OFFFOLLOW THE GREENS TRIAL IN PROGRESS. WHEN VACATING THE RWY, PILOTS TO ADHERE TO ATC VERBAL INSTRUCTIONS. WHEN ON TWY, PILOT TO ADHERE TO FOLLOW THE GREENS INSTRUCTIONS. WHEN APPROACHING [A] JUNCTION, KEEP [A] LOOKOUT FOR CONTINUOUS GREENS. [IF] [A] BREAK IN THE GREENS IS OBSERVED, STOP AND CLARIFY WITH ATC. WIND 150/ 04KT VIS 10KM CLD FEW 1800FT T29 DP24 QNH 1010HPA NOSIG DEP,INITIAL CMB 3000FT ACK ATIS C",
    "WMKK": "[Arrival ATIS] WMKK ARR ATIS M 1405Z WMKK ARR INFO M. TIME 1400. INDEPENDENT PARALLEL APPROACHES FOR RWY 14 L AND 15 ARE IN PROGRESS. EXP RNAV / ILS APCH FOR RWY 14 LEFT. EXP RNAV / ILS APCH FOR RWY 15. WIND RWY 14L DIRECTION NOT AVBL SPEED NOT AVBL. WIND RWY 15 DIRECTION NOT AVBL SPEED NOT AVBL. VIS RWY 14L TDZ NOT AVBL. VIS RWY 15 TDZ NOT AVBL. CLD FEW 3000 FT. T 28. DP 25. QNH 1009. NOSIG. AT FIRST CONTACT WITH LUMPUR RADAR, NOTIFY RCPT OF M\n[Departure ATIS] WMKK DEP ATIS P 1434Z WMKK DEP INFO P. TIME 1430. INDEPENDENT PARALLEL DEPARTURES FOR RWY 14 R AND 15 ARE IN PROGRESS. RWY 14 RIGHT. RWY 15. WIND RWY 14R DIRECTION NOT AVBL SPEED NOT AVBL. WIND RWY 15 DIRECTION NOT AVBL SPEED NOT AVBL. VIS RWY 14R TDZ NOT AVBL. VIS RWY 15 TDZ NOT AVBL. CLD FEW 3000 FT. T 28. DP 25. QNH 1009. NOSIG. ALL DEP ACFT TO CONTACT LUMPUR DEP AT 135 DECIMAL 25 MHZ WHEN ABN. AT FIRST CONTACT WITH LUMPUR GROUND, NOTIFY RCPT OF P",
    "VTBS": "[Arrival ATIS] VTBS ARR ATIS X 1430Z VTBS ARR ATIS X 1433Z EXP ILS Z APCH ARR RWY 19 OR RNP APCH RWY 20R 06180900 19 5/5/5 100/100/100 NR/NR/NR WET/WET/WET 06180900 20R 5/5/5 100/100/100 NR/NR/NR WET/WET/WET ,RETIL RWY 19 U/S ,PILOT SHALL ADZ BKK APCH ON INITIAL CTC IF UNA TO CONDUCT RNP APCH DUE TO OPERATIONAL CONSTRAINT 1430Z WIND VRB BTN 050/ AND 110/1KT VIS 10KM RVR RWY 19 ABV 2000M CLD FEW 2000FT T27 DP25 QNH 1010HPA TREND NOSIG ADZ BKK APCH ON INITIAL CONTACT THAT YOU HAVE INFO X\n[Departure ATIS] VTBS DEP ATIS T 1000Z VTBS DEP ATIS T 1001Z DEP RWY 20L MOD WS IN APCH OBS ATP 0950 06180900 20L 5/5/5 100/100/100 NR/NR/NR WET/WET/WET , ,AFT AIRBORNE ALL DEPARTING ACFT SHALL CTC 119.25 1000Z WIND 250/21KT VIS 700M RVR RWY 20L 900M HVY TSRA CLD FEW CB 1800FT SCT 3000FT T24 DP24 QNH 1009HPA WS IN APCH TREND BECMG TL1040 VIS 3000M MOD TSRA ADZ GND WHEN INITIAL CONTACT YOU HAVE INFO T",
    "VTBU": "[Arrival ATIS] VTBU ARR ATIS E 1000Z VTBU ARR ATIS E 1005Z RNP RWY 18 TRL FL130 1000Z WIND 170/9KT VIS 10KM CLD FEW CB 1800FT T30 DP28 QNH 1009HPA TS IN APCH TREND BECMG TL1045 NSW ADZ CONTROLLER WHEN INITIAL CONTACT YOU HAVE INFO E\n[Departure ATIS] VTBU DEP ATIS D VTBU ARR/DEP DATIS RPT VTBU ARR ATIS D 0330Z ILS \"Z\" APCH RWY 18 TRL FL130 0330Z WIND 110/4KT VRB BTN 350/ AND 120/ VIS 6KM CLD FEW 2000FT T31 DP27 QNH 1014HPA TREND NOSIG ADZ CONTROLLER WHEN INITIAL CONTACT YOU HAVE INFO D",
    "ROAH": "[Arrival ATIS] ROAH ARR ATIS V 0812Z M0800 (APCH)RNP RWY18R LDG RWY 18R DEP RWY 18L DEP FREQ 126.5 258.3 M 040800Z 22006KT 50KM FEW015CU 30/27 Q1012/A2990= Q/TWO NINE NINE ZERO STP\n[Departure ATIS] ROAH DEP ATIS J 0657Z MS0630 (APCH)ILS RWY18R LDG RWY 18R DEP RWY 18L DEP FREQ 126.5 258.3 MS 180630Z 20008KT 25KM FEW002ST SCT005ST BKN/// 28/27 Q1012/A2989= Q/TWO NINE EIGHT NINE STP",
    "VVDN": "[Arrival ATIS] VVDN ARR ATIS P 1432Z VVDN INFO P 1432Z. ILS VICTOR APPROACH 35L.. DPTG RWY 35R.. 1432Z. WIND 240/02KT CAVOK T28 DP22 QNH 1008HPA TREND NOSIG. ADZ ON INITIAL CTC YOU HAVE INFO. P.\n[Departure ATIS] VVDN DEP ATIS S 0604Z VVDN INFO S 0604Z. ILS VICTOR APPROACH 35L.. DPTG RWY 35R.. 0604Z. WIND VRB/09KT CAVOK T37 DP24 QNH 1006HPA TREND NOSIG. ADZ ON INITIAL CTC YOU HAVE INFO. S.",
    "RCKH": "[Arrival ATIS] RCKH ARR ATIS S 1130Z EXPECT ILS APPROACH RWY 09 ARR/DEP TAXIWAY JULIETT, TAXIWAY BRAVO, TAXIWAY DELTA AND TAXIWAY ECHO CLOSED DUE MAINTENANCE. RUNWAY 0 9 ARRIVALS PLAN VACATE VIA CHARLIE OR FO\n[Departure ATIS] RCKH DEP ATIS J 0739Z EXPECT ILS APPROACH RWY 27 ARR/DEP TAXIWAY JULIETT, TAXIWAY BRAVO, TAXIWAY DELTA AND TAXIWAY ECHO CLOSED DUE MAINTENANCE. RUNWAY 2 7 ARRIVALS PLAN VACATE VIA CHARLIE OR A",
    "KLAX": "[Arrival ATIS] KLAX ARR ATIS H 0753Z LAX ATIS INFO H 0753Z. 25004KT 10SM BKN010 17/15 A3001 (THREE ZERO ZERO ONE) RMK AO2 SLP160 T01720150 402280167. INST APCHS AND RNAV RNP APCHS RY 24R AND 25L, OR VCTR FOR VI\n[Departure ATIS] KLAX DEP ATIS V 2153Z LAX ATIS INFO V 2153Z. 24012KT 210V280 10SM FEW014 FEW180 SCT220 21/13 A2995 (TWO NINER NINER FIVE) RMK AO2 SLP141 T02110133. INST APCHS AND RNAV RNP APCHS RY 24R AND 25L, OR VCTR FOR VISUAL APCH WILL BE PROVIDED, SIMUL VISUAL APCHS TO ALL RWYS ARE IN PROG, SIMUL INSTR DEPARTURES IN PROG RWYS 24 AND 25. CTC L A GC ON 121.75 FOR PUSH OR TAXI ON A. TWY B CLSD BTN TWY, J AND TWY C8 , , TWY C10 CLSD BTN TWY, B AND TWY C, TWY C CLSD BTN TWY, C1 AND TWY C3. RY 25R SFL OTS, RY 24L ALSF-2 OTS, PAPI OTS 24R. LAX VOR UNMONITORED. USE CAUTION FOR INCREASED DRONE ACTIVIY IN THE VICINITY OF SOFI STADIUM AT OR BELOW 200FT AGL DURING THE WORLD CUP FROM JUNE TWELFTH TWENTY TWENTY SIX THROUGH JULY TENTH TWENTY TWENTY SIX. TEMPORARY FLIGHT RESTRITIONS IN EFFECT FOR THE LOS ANGELES AREA, CHECK NOTAMS FOR DETAILS. HAZD WX INFO FOR LAX AREA AVBL FM FSS. BIRD ACTIVITY VICINITY ARPT. INCLUDE YOUR CALL SIGN IN ALL READBACKS. USE CAUTION WHEN EXITING RY24R AT TWY V, W, AND Y, TO HOLD SHORT OF RY24L. MULTIPLE RUNWAY INCURSIONS HAVE OCCURRED. ...ADVS YOU HAVE INFO V.",
    "KONT": "[Arrival ATIS] KONT ARR ATIS D 0453Z ONT ATIS INFO D 0453Z. 24006KT 10SM BKN250 23/13 A3000 (THREE ZERO ZERO ZERO). ILS AND VIS APR IN USE, RY26L & RY26R. LNDG AND DEPG RY 26L AND RY 26R. NOTAMS... TAXIWAY SIERRA FIVE CLOSED. TAXIWAY SIERRA CLOSED BETWEEN TAXIWAY SIERRA 8 AND TAXIWAY WHISKEY. RY 26L IM OTS, RY 26R ALS OTS. USE CAUTION FOR NUMEROUS BIRDS OBSERVED IN VICINITY OF ONT. PILOTS READBACK RWY ASSIGNMENTS AND HOLD SHORT INSTRUCTIONS. ...ADVS YOU HAVE INFO D.\n[Departure ATIS] KONT DEP ATIS N 0553Z - KONT ATIS INFO N 0553Z. 24004KT 10SM BKN250 22/15 A2988 (TWO NINER EIGHT EIGHT) RMK AO2 SLP100. ILS AND VIS APR IN USE, RY26L & RY26R. LNDG AND DEPG RY 26L AND RY 26R. NOTAMS... TAXIWAY SIERRA CLSD BETWEEN SIERRA 8 AND W TAXIWAY Q SOUTH OF RWY 26L CLSD TAXIWAY T CLSD TAXIWAY SIERRA 5 CLSD. RY 26L IM OTS, RY 26R ALS OTS. USE CAUTION FOR NUMEROUS BIRDS OBSERVED IN VICINITY OF ONT. HAZD WX INFO FOR SOUTHERN CA AVBL ON FSS FREQUENCIES. PILOTS READBACK RWY ASSIGNMENTS AND HOLD SHORT INSTRUCTIONS. ...ADVS YOU HAVE INFO N.",
    "KSFO": "[Arrival ATIS] KSFO ARR ATIS H 0556Z SFO ATIS INFO H 0556Z. 29011KT 10SM FEW003 13/12 A3001 (THREE ZERO ZERO ONE). ILS RY 28R APP IN USE. DEPG RWYS 28L, 28R. DEPG ACFT SHOULD BE PREPARED FOR A SHORT NOTICE RY C\n[Departure ATIS] KSFO DEP ATIS F 0456Z SFO ATIS INFO F 0456Z. 29012KT 10SM FEW003 14/12 A3000 (THREE ZERO ZERO ZERO). SIMUL CLSLY SPCD DPNDNT ILS RY 28R AND ILS RY 28L APP IN USE. DEPG RWYS 28L, 28R. DEPG ACFT SH",
    "KOAK": "[Arrival ATIS] KOAK ARR ATIS A 0353Z - KOAK ATIS INFO A 0353Z. 25010KT 10SM FEW003 BKN009 BKN013 16/14 A2988 (TWO NINER EIGHT EIGHT). RNAV Z 3 0, ILS RUNWAY 2 8 RIGHT IN USE. FLOW TO LAX, SAN, SEA, ORD. ILS RWY 30, OTS. UNN LIT CLOSE-IN OBSTACLES FOR RWY 30 DEPARTURES. RWY 30 DEPARTURES ARE ADVISED TO AVOID TURNING LEFT PRIOR TO DEPARTURE END OF RUNWAY. SIGNATURE UNI-COM OUT OF SERVICE. HAZD WX INFO FOR CA ON FLT SRVC FREQ. CAUTION, BIRDS NEAR AIRPORT. ...ADVS YOU HAVE INFO A.\n[Departure ATIS] KOAK DEP ATIS O 1953Z OAK ATIS INFO O 1953Z. 28014KT 10SM FEW005 22/14 A2988 (TWO NINER EIGHT EIGHT). RNAV Z/VA RWY 30 ILS/VA RWY 28R. FLOW TO LAX, LAS, SAN. ILS RWY 30, OTS. UNN LIT CLOSE-IN OBSTACLES FOR RWY 30 DEPARTURES. RWY 30 DEPARTURES ARE ADVISED TO AVOID TURNING LEFT PRIOR TO DEPARTURE END OF RUNWAY. SIGNATURE UNI-COM OUT OF SERVICE. CAUTION, BIRDS NEAR AIRPORT. ...ADVS YOU HAVE INFO O.",
    "KDFW": "[Arrival ATIS] KDFW ARR ATIS H 1053Z DFW ARR INFO H 1053Z. 21008KT 10SM CLR 28/22 A2998 (TWO NINER NINER EIGHT). SIMUL VISUAL APCH TO RWYS, 13R, 18R, 17C, 17L. LDG RWY 17C EXP LAHSO TWY B 10460 FT AVAIL, LDG RWY 18R EXP LAHSO TWY B 10100 FT AVL. NOTICE TO AIRMEN. WARNING, RWY 18L HAS BEEN SHORTENED, 9273 FT AVAILABLE. BIRD ACTIVITY VCNTY ARPT. ...ADVS YOU HAVE INFO H.\n[Departure ATIS] KDFW DEP ATIS W 1553Z - KDFW DEP INFO W 1553Z. 21022G32KT 10SM FEW025 FEW180 SCT250 31/21 A2994 (TWO NINER NINER FOUR) RMK AO2 PK WND 20032/1547 SLP128 T03110206. SIMUL PARL TRAFFIC DEPG RWYS 17R, 18L. NOTICE TO AIRMEN. WARNING, RWY 18L HAS BEEN SHORTENED, 9273 FT AVAILABLE. RWY 18L CL OTS. BIRD ACTIVITY VCNTY ARPT. ...ADVS YOU HAVE INFO W.",
    "KIAH": "[Arrival ATIS] KIAH ARR ATIS T 0853Z IAH ATIS INFO T 0853Z. 00000KT 10SM FEW035 FEW250 26/24 A3001 (THREE ZERO ZERO ONE). ARRIVALS EXPECT ILS OR RNAV Y RY 26R, ILS OR RNAV Y RY 26L, ILS OR RNAV Y RY 27. SIMUL APPROACHES IN USE. DEPG RY 15R. NOTICE TO AIRMEN. UAL RAMP PROCEDURES TERMINATED PUSH BACK AT PILOTS DISCRETION. RY 15L, 33R CLSD. HAZD WX INFO FOR IAH AREA AVBL FM FSS. BIRD ACTIVITY VICINITY ARPT. CRANES ARE DOWN. TWY SA CLSD BTN TWY, SF AND TWY SK , TWY SB CLSD BTN TWY, SF AND TWY SK , , TWY WB CLSD BTN TWY, WG AND TWY WH . TWY EA CLSD. NOTAM ATIS IN USE ON FREQUENCY 126.225. ...ADVS YOU HAVE INFO T.\n[Departure ATIS] KIAH DEP ATIS D 0453Z IAH ATIS INFO D 0453Z. 19003KT 10SM CLR 25/24 A2963 (TWO NINER SIX THREE). ARRIVALS EXPECT ILS OR RNAV Y RY 26L. DEPG RY 15L. NOTICE TO AIRMEN. UAL RAMP PROCEDURES TERMINATED PUSH BACK AT PILOTS DISCRETION. RY 26R, 8L CLSD. BIRD ACTIVITY VICINITY ARPT. TWY SA CLSD BTN TWY, SG AND TWY SK , TWY SB CLSD BTN TWY, SG AND TWY SK , , TWY SF CLSD BTN TWY, NB AND TWY RB . TWY SG CLSD, TWY EA CLSD. NOTAM ATIS IN USE ON FREQUENCY 126.225. ...ADVS YOU HAVE INFO D.",
    "KORD": "[Arrival ATIS] KORD ARR ATIS H 1051Z ORD ATIS INFO H 1051Z. 00000KT 8SM FEW065 SCT160 BKN250 21/20 A2999 (TWO NINER NINER NINER) RMK AO2 SLP149 T02060200. ARR EXP VECTORS ILS RWY 27R APCH, ILS RWY 28C APCH. SIMUL APCHS IN USE. LAND AND HOLD SHORT OPERATIONS ARE IN EFFECT. RWY 27C ARR PLAN TO H/S OF TWY V V, 9 THSD 7 HND 25 FT AVBL, RWY 28C ARR PLAN TO H/S OF TWY Z, 9 THSD 6 HND TEN FT AVBL. DEPS EXP RWYS 22L 27L FROM T T 9960 FT AVL. RWY 4L, 22R CLSD. RWY 22R LOC OTS, RWY 28L GS OTS, RWY 9L IM OTS, RWY 9C IM OTS, RWY 10L IM OTS, RWY 10R IM OTS, RWY 27R IM OTS, RWY 28L IM OTS, RWY 28R IM OTS, RWY 9L PAPI OTS, RWY 27R PAPI OTS. PILOTS USE CTN FOR BIRD ACTIVITY IN THE VICINITY OF THE ARPT. HAZD WX INFO FOR ORD AREA AVBL ON FSS. USE CTN FOR PERSONNEL AND EQUIP AT NUMEROUS SITES ON THE FIELD. READBACK ALL RWY HOLD SHORT INSTRUCTIONS. WHEN READY TO TAXI CONTACT GND METERING ON FREQ 121.67. ...ADVS YOU HAVE INFO H.\n[Departure ATIS] KORD DEP ATIS F 0951Z ORD ATIS INFO F 0951Z. 21003KT 10SM FEW055 FEW070 BKN250 21/20 A2999 (TWO NINER NINER NINER) RMK AO2 SLP150 CB DSNT W MOV E T02110200. ARR EXP VECTORS ILS RWY 27C APCH, ILS RWY 28C APCH. SIMUL APCHS IN USE. LAND AND HOLD SHORT OPERATIONS ARE IN EFFECT. RWY 27C ARR PLAN TO H/S OF TWY V V, 9 THSD 7 HND 25 FT AVBL, RWY 28C ARR PLAN TO H/S OF TWY Z, 9 THSD 6 HND TEN FT AVBL. DEPS EXP RWYS 28R FROM NOVEMBER 5 9750 FT AVL. RWY 4L, 22R CLSD. RWY 22R LOC OTS, RWY 28L GS OTS, RWY 9L IM OTS, RWY 9C IM OTS, RWY 10L IM OTS, RWY 10R IM OTS, RWY 27R IM OTS, RWY 28L IM OTS, RWY 28R IM OTS, RWY 9L PAPI OTS, RWY 27R PAPI OTS. PILOTS USE CTN FOR BIRD ACTIVITY IN THE VICINITY OF THE ARPT. HAZD WX INFO FOR ORD AREA AVBL ON FSS. USE CTN FOR PERSONNEL AND EQUIP AT NUMEROUS SITES ON THE FIELD. READBACK ALL RWY HOLD SHORT INSTRUCTIONS. WHEN READY TO TAXI CONTACT GND METERING ON FREQ 121.67. ...ADVS YOU HAVE INFO F.",
    "KJFK": "[Arrival ATIS] KJFK ARR ATIS S 1851Z - KJFK ATIS INFO S 1851Z. 02004KT 10SM -RA SCT065 BKN090 OVC130 23/18 A3002 (THREE ZERO ZERO TWO). APPROACH IN USE ILS RY 22L, ILS RY 22R. DEPG RY 22R. CRI OTS. RWY 22L/4R INNER MARKER OTS. HAZD WX INFO FOR NY METRO AREA AVBL ON FSS. SWAP IN EFFECT EXPECT REROUTES. NUM CRANES OPERATING AT JFK. BIRD ACTIVITY VICINITY ARPT. READBACK ALL RWY ASSIGNMENTS AND HOLD SHORT INSTRUCTIONS. ...ADVS YOU HAVE INFO S.\n[Departure ATIS] KJFK DEP ATIS N 1951Z JFK ATIS INFO N 1951Z. 21014KT 10SM SCT070 34/22 A2992 (TWO NINER NINER TWO) RMK AO2 SLP131 T03440217. APPROACH IN USE ILS RY 22L, ILS RY 22R. DEPG RY 22R. CRI OTS. RWY 22L/4R INNER MARKER OTS. HAZD WX INFO FOR NY METRO AREA AVBL ON FSS. SWAP IN EFFECT EXPECT REROUTES. NUM CRANES OPERATING AT JFK. BIRD ACTIVITY VICINITY ARPT. READBACK ALL RWY ASSIGNMENTS AND HOLD SHORT INSTRUCTIONS. ...ADVS YOU HAVE INFO N.",
    "KIND": "[Arrival ATIS] KIND ARR ATIS F 0554Z IND ATIS INFO F 0554Z. 22010KT 10SM BKN250 26/21 A3005 (THREE ZERO ZERO FIVE). PARL ILS RWY 23R AND 23L APPROACHES IN USE. CROSS RUNWAY OPERATIONS MAY BE IN EFFECT. NOTICE TO AIRMEN. RWY 32 GS OTS. TWY, P BTN TWY, H AND TWY B CLSD. P PAD CLSD. ILS RUNWAY 5R AND RUNWAY 5L INNER MARKER UNSERVICEABLE. RUNWAY 32 PAPI OTS. RUNWAY 32 TOUCHDOWN RVR OTS. RUNWAY 14 ROLLOUT RVR OTS. HIWAS. ...ADVS YOU HAVE INFO F.\n[Departure ATIS] KIND DEP ATIS H 1854Z IND ATIS INFO H 1854Z. 26009G19KT 10SM SCT036 BKN041 BKN170 23/16 A2981 (TWO NINER EIGHT ONE) RMK AO2 SLP088 T02280156. PARL ILS RWY 23R AND 23L APPROACHES IN USE. CROSS RU",
    "KDTW": "[Arrival ATIS] KDTW ARR ATIS D 1353Z DTW ARR INFO D 1353Z. 25018G26KT 10SM FEW028 BKN035 OVC050 19/13 A2949 (TWO NINER FOUR NINER). SIMUL ILS Z RY 22R AND RY 21L APCH IN USE. NOTICE TO AIRMEN. RWY 22L, 4R CLSD, RWY 27R, 9L CLSD. PILOTS USE CTN FOR BIRD ACTIVITY. DEPARTURE ATIS 118.125. WARNING, RUNWAY TWO SEVEN LEFT HAS BEEN SHORTENED, SIX THOUSAND SEVEN HUNDRED EIGHTY-SEVEN FEET AVAILABLE. ...ADVS YOU HAVE INFO D.\n[Departure ATIS] KDTW DEP ATIS Q 2253Z - KDTW DEP INFO Q 2253Z. 21009KT 10SM FEW050 FEW250 33/24 A2991 (TWO NINER NINER ONE). DEPG RWY 21R, RWY 22L ;. NOTICE TO AIRMEN. RWY 27L, 9R CLSD, RWY 27R, 9L CLSD. PILOTS USE CTN FOR BIRD ACTIVITY. ...ADVS YOU HAVE INFO Q.",
    "KMSP": "[Arrival ATIS] KMSP ARR ATIS J 0953Z MSP ARR INFO J 0953Z. 26003KT 10SM FEW050 BKN200 21/19 A2999 (TWO NINER NINER NINER). VISUAL RWY 12R APCH IN USE, VISUAL RWY 12L APCH IN USE. FINAL APCH, OVER NOISE SENSITIVE AREA. NOTICE TO AIRMEN. RWYS 4, 22 CLSD. TWY R7. R8. R9. R10. CLOSED, TWY R BETWEEN R6 AND R10 CLOSED. GS RWY 12L OTS, RWYS 12R, 12L, INNER MARKER OTS.. HAZD WX INFO FOR MSP AREA AVBL FM FSS. CTN, BIRDS NEAR MSP. READ BACK HS AND ALT. ALL ACFT TAXI WITH TRANSPONDER AND ALTITUDE ENCODING ON. ...ADVS YOU HAVE INFO J.\n[Departure ATIS] KMSP DEP ATIS W 0953Z - KMSP DEP INFO W 0953Z. 26003KT 10SM FEW050 BKN200 21/19 A2999 (TWO NINER NINER NINER). DEPARTING RWY 12L, RWY 12R. NOTICE TO AIRMEN. RWYS 4, 22 CLSD. TWY R7. R8. R9. R10. CLOSED, TWY R BETWEEN R6 AND R10 CLOSED. ALL ACFT CTC METERING ON ONE THREE THREE POINT FIVE SEVEN WHEN READY TO PUSHBACK OR TAXI. HAZD WX INFO FOR MSP AREA AVBL FM FSS. CTN, BIRDS NEAR MSP. READ BACK HS AND ALT. ALL ACFT TAXI WITH TRANSPONDER AND ALTITUDE ENCODING ON. ...ADVS YOU HAVE INFO W.",
    "CYEG": "[Arrival ATIS] CYEG ARR ATIS L 0600Z CYEG ARR ATIS L 0600Z 16002KT 20SM FEW087 FEW250 12/11 A2992 APCH RNAV Z OR Y RWY 20, INFORM ARRL OF REQ APCH ON INITIAL CTC. LDG AND DEP RWY 20. TWY B1 CLSD. SIMUL APPROA\n[Departure ATIS] CYEG DEP ATIS W 1100Z CYEG ARR ATIS W 1100Z 13006KT 20SM FEW073 CIG BKN170 13/11 A2988 APCH RNAV Z OR Y RWY 20, INFORM ARRL OF REQ APCH ON INITIAL CTC. LDG AND DEP RWY 20. TWY B1 CLSD. SIMUL APPROACHES MAY BE IN EFCT. INFORM CYEG ATC INFO W",
    "EHAM": "[Arrival ATIS] EHAM ARR ATIS M 1120Z EHAM ARRIVAL INFO M. DEMAND. MAIN LANDING RWY 18 R. SECONDARY LANDING RWY 18 C. TRANSITION LEVEL 040. WIND 260 DEG, 11 KT, VRB BTN 230 AND 300 DEG, 17 KT MAX, 7 KT MNM. WIND SECONDARY RUNWAY 280 DEG, 15 KT, VRB BTN 240 AND 310 DEG, 18 KT MAX, 7 KT MNM. VIS 10 KM OR MORE. CLD FEW 2000 FT SCT 4600 FT. T 21. DP 15. QNH 1024 HPA. NOSIG. OPERATIONAL REPORT. INDEPENDENT PARALLEL APPROACHES IN PROGRESS. CONTACT APCH WITH CALLSIGN ONLY. END OF INFO M\n[Departure ATIS] EHAM DEP ATIS R 1550Z EHAM DEPARTURE INFO R. DEMAND. MAIN DEPARTURE RWY 36 L. MAIN LANDING RWY 36 R. WIND 310 DEG, 11 KT, VRB BTN 250 AND 350 DEG, 16 KT MAX, 6 KT MNM. VIS 10 KM OR MORE. CLD FEW 3000 FT. T 18. DP 10. QNH 1027 HPA. OPERATIONAL REPORT. INFORM SCHIPHOL DEL BY VOICE IF UNABLE TO COMPLY WITH NADP 2. END OF INFO R",
    "EBBR": "[Arrival ATIS] EBBR ARR ATIS O 1101Z EBBR NAT, EXP VECT FOR ILS APP ARR RWY19 RSCD AT 1059 RWY19 DRY. DEP RWY19 TRL 055 RWY 25R CLSD 270/12KT MNM9 MAX18 VIS ABV 10KM FEW4800FT T24 DP12 QNH 1026HPA NOSIG CFM ARR O\n[Departure ATIS] EBBR DEP ATIS G 1050Z EBBR NAT, DEP RWY19 RSCD AT 0919 RWY19 DRY. ARR RWY19 TRL 055 RWY 25R CLSD 270/12KT MNM9 MAX18 VIS ABV 10KM FEW4800FT T24 DP12 QNH 1026HPA NOSIG CFM DEP G",
    "EDDF": "[Arrival ATIS] EDDF ARR ATIS H 0920Z ARR-ATIS EDDF H METAR 040920 EXPECT INDEPENDENT PARALLEL ILS Y APCH RWY 25R OR ILS APCH RWY 25L RWY 25R 25L DO NOT MISTAKE TWY M FOR RWY 25C WHEN PERFORMING VISUAL APPROACH , GLS APCH ON REQUEST , TRL 60 28008KT 240V320 CAVOK T23 DP07 QNH1026 TREND NOSIG\n[Departure ATIS] EDDF DEP ATIS C 1450Z DEP-ATIS EDDF C METAR 181450 RWY 25C 18 FLOCK OF BIRDS OBSERVED IN THE VCY OF RWYS, TRL 60 VRB04KT RWY18 VRB02KT CAVOK T33 DP12 QNH1018 TREND NOSIG END OF ATIS C",
    "EDDL": "[Arrival ATIS] EDDL ARR ATIS A 0950Z ATIS EDDL A METAR 040950 EXPECT VECTORS ILS APPROACH RWY 23L TWY L8 CLOSED BETWEEN TWY M AND RWY 23L TRL 60 22015KT CAVOK T24 DP10 QNH1025 TREND TEMPO 25015G25KT\n[Departure ATIS] EDDL DEP ATIS R EDDL ARR/DEP DATIS RPT -ATIS EDDL R METAR 020550 -EXPECT VECTORS ILS APPROACH -RWY 23L -TWY L8 CLOSED BETWEEN TWY M AND RWY 23L -TRL 60 - -23010KT -CAVOK - - -T19 DP13 -QNH1020 - -TREND NOSIG",
    "EDDK": "[Arrival ATIS] EDDK ARR ATIS P 1850Z -ATIS EDDK P METAR 271850 -EXPECT ILS APCH RWY 13L OR RNP RWY 06 -RWY 13L 06 -RWY COND RWY 13L AT TIME 1850 RWYCC 6 DEPOSIT TOTAL RWY DRY RWY 06 AT TIME 1850 RWYCC 6 DEPOSIT TOTAL RWY DRY -TRL 70 -RWY 13R AND RWY 31L CLOSED FOR DEPARTURE AND LANDING: TAXIING BTN THR RWY 13R AND INTERSECTION RWY 24 POSSIBLE : -08005KT 050V110 -CAVOK - - -T30 DP19 -QNH1013 -RETSRA -TREND NOSIG\n[Departure ATIS] EDDK DEP ATIS Q EDDK ARR/DEP DATIS RPT -ATIS EDDK Q METAR 291920 -EXPECT ILS APCH -RWY 31R 06 -RWY COND RWY 31R AT TIME 1830 RWYCC 6 DEPOSIT TOTAL RWY DRY RWY 06 AT TIME 1830 RWYCC 6 DEPOSIT TOTAL RWY DRY -TRL 60 -RWY 13R AND RWY 31L CLOSED FOR DEPARTURE AND LANDING: TAXIING BTN THR RWY 13R AND INTERSECTION RWY 24 POSSIBLE : -04003KT -CAVOK - - -T24 DP13 -QNH1024 - -TREND NOSIG",
    "EBLG": "[Arrival ATIS] EBLG ATIS B 1017Z EBLG INFO, EXP RNAV TO ILS APP ARR RWY22L DEP RWY22L RWY 22L DRY, RWYCC 666. TRL 055 TWY A4 DISPLACED. ADZ ON GND FREQ IF UNABLE S4 230/15KT VRB BTN 220 AND 280 MNM5 MAX21 CAVOK T23 DP10 QNH 1026HPA NOSIG CFM ATIS B",
    "LSZH": "[Arrival ATIS] LSZH ARR ATIS M 0950Z ARRIVALS, EXP ILS APCH, RWY 14. TRL 70. DEP RWY 28. WIND VRB BTN 240 AND 340 DEG, 2 KT. CAVOK. T 24. DP 7. QNH 1028. NOSIG.\n[Departure ATIS] LSZH DEP ATIS P 0950Z DEP RWY 28. TRL 70. ARRIVALS, EXP ILS APCH, RWY 14. TMA S 1 IS NOT ACT. TMA S 2 AND S 3 ARE NOT ACT. WIND 280 DEG, 4 KT, VRB BTN 240 AND 340 DEG. CAVOK. T 24. DP 7. QNH 1028. NOSIG.",
    "LIMC": "[Arrival ATIS] LIMC ARR ATIS W 1050Z LIMC ARR W 1050Z I.L.S. ZULU RWY IN USE 35L TL 70 WIND TDZ VRB6KT CAVOK T31 DP12 QNH 1021HPA QFE 0996HPA\n[Departure ATIS] LIMC DEP ATIS P 1320Z LIMC DEP P 1320Z RWY IN USE 35L TL 70 INTERSECTION ECHO WHISKY CLOSED.. WIND END 300/6KT VRB BTN 250/AND 330/ CAVOK T33 DP17 QNH 1019HPA QFE 0994HPA DATALINK CLEARANCE AVAILABLE.... CONTACT 1 3 1 8 8 0 TO BE RELEASED BY THE AIRPORT OPERATOR ...",
    "LIRF": "[Arrival ATIS] LIRF ARR ATIS I 0920Z LIRF ARR I 0920Z RWY 16L ILS W RWY 16R ILS Z RWY IN USE 16L 16R TL 70 DEPENDENT PARL ILS APCH INPR RWY IN USE 16R OR 16L ASSIGNED BY ROME RADAR WIND RWY 16L TDZ VRB8KT RWY 16R TDZ 200/9KT CAVOK T32 DP14 QNH 1018HPA RRSM\n[Departure ATIS] LIRF DEP ATIS B 0750Z LIRF DEP B 0750Z RWY IN USE 25 TL 70 RWYS IN USE FOR ARR 16L AND 16R WIND END 110/4KT VRB BTN 050/AND 180/ CAVOK T31 DP12 QNH 1018HPA REA IS SENT AUTOMATICALLY ONCE RLSD BY RAMP WHEN READY CONTACT FIUME RAMP 121.725 RRSM",
    "EINN": "[Arrival ATIS] EINN ARR ATIS O 1100Z EXPECT I L S CATEGORY 1 LDG RWY24 TKOF RWY24 TRL FL060 25016KT 9999 FEW011 BKN013 17/14 QNH Q1028 TREND TEMPO BKN015 ADVISE AT FIRST CONTACT YOU HAVE ATIS INFO O",
    "EGLL": "[Arrival ATIS] EGLL ARR ATIS I 0950Z LANDING RWY 27R TRANSITION-LEVEL: FL 70 IF STAND GUIDANCE IS OFF OR FAILS, REMAIN ON THE TAXIWAY CENTRELINE AND ADVISE ATC RUNWAY 27R REDUCED DECLARED DISTANCES WITH TAKE OFF RUN AVAILABLE 3362METRES AND LANDING DISTANCE AVAILABLE 3362METRES DET VOR OOS AUTO 27016KT 9999 BKN028 OVC036 21/14 Q1027 ACKNOWLEDGE RECEIPT OF INFORMATION I\n[Departure ATIS] EGLL DEP ATIS V 0950Z DEPARTURE RWY 27L RWY27L SURFACE CONDITION CODES: 6/6/6 DRY/DRY/DRY DEPTH: NR/NR/NR COVERAGE: NR/NR/NR RUNWAY ENTRY POINT NB3 UNAVAILABLE FOR 27L PILOTS THAT ARE IN RECEIPT OF DATALINK CLEARANCES ARE REMINDED THEY MUST CONTACT DELIVERY ON 121.980 WHEN READY FOR START DET VOR OOS RUNWAY 27R REDUCED DECLARED DISTANCES WITH TAKE OFF RUN AVAILABLE 3362METRES AND LANDING DISTANCE AVAILABLE 3362METRES AUTO 28012KT 230V290 9999 BKN028 OVC036 21/14 Q1027 ACKNOWLEDGE RECEIPT OF INFORMATION V AND REPORT AIRCRAFT TYPE AND CURRENT QNH ON FIRST CONTACT WITH HEATHROW",
    "EPWA": "[Arrival ATIS] EPWA ARR ATIS C 1901Z EPWA ARR C. TIME 1900. EXP N ARR ILS Z APCH FOR RWY 11. TRANSITION LEVEL 80. WIND 130 DEG, 6 KT. CAVOK. T 30. DP 15. QNH 1018. NOSIG. CAUTION. BIRD ACT. END OF EPWA ARR C\n[Departure ATIS] EPWA DEP ATIS P 1931Z EPWA DEP P. TIME 1930. DEP RWY 29. ARR RWY 33, EXP U ARR ILS Z. REPORT READY FOR STARTUP ON DELIVERY 121 DECIMAL 605. TRANSITION LEVEL 80. WIND 290 DEG, 5 KT, VRB BTN 270 AND 330 DEG. CAVOK. T 18. DP 8. QNH 1016. NOSIG. CAUTION. BIRD ACT. END OF EPWA DEP P",
    "EFHK": "[Arrival ATIS] EFHK ARR ATIS L 1120Z EXPECT ILS APCH ARR RWY 04L RUNWAY 04L CONDITION REPORT AT 0707 UTC RUNWAY CONDITION CODES 5 , 5 , 5 CONTAMINANTS ALL PARTS 100 PERCENT WET TRL 65 WIND CALM VIS 10KM FBL SHRA FEW 500 FT. SCT CB 2000 FT T 16 DP 15 QNH 1003 RETS NOSIG ACK INFO L\n[Departure ATIS] EFHK DEP ATIS H 1620Z DEP RWYS 22R AND 22L RUNWAY 22R CONDITION REPORT AT 1329 UTC RUNWAY CONDITION CODES 6 , 6 , 6 CONTAMINANTS ALL PARTS DRY RUNWAY 22L CONDITION REPORT AT 1330 UTC RUNWAY CONDITION CODES 6 , 6 , 6 CONTAMINANTS ALL PARTS DRY WIND 110 DEG 6 KT VIS 10KM FEW 1400 FT. SCT 1600 FT. FEW TCU 2800 FT T 19 DP 15 QNH 1003 TEMPO CLD FEW CB 3000 FT. ACK INFO H",
    "LTAC": "[Arrival ATIS] LTAC ARR ATIS Y 1050Z EXP ILS V APCH 03C DEP RWY 03L RWY 03C WIND 260 DEG 11 KT VRB BTN 230 DEG AND 300 DEG RWY 03L WIND 290 DEG 09 KT VRB BTN 240 DEG AND 350 DEG TRL 115 VIS 9999 SCT04000 FT T 28 DP 09 QNH 1012 NOSIG FOR DELIVERY CTC 121.9. FOR DELIVERY FIRST USE DIGITAL DEP CLR. CTN BIRD HAZARD OVR AERODROME. APCH FREQUENCY 129.050. TAXIWAY ECHO 1 IS CLOSED. END OF ATIS Y",
    "UBBB": "[Arrival ATIS] UBBB ARR ATIS Z 1130Z ATIS Z EXP ILS/ LDG 16 17 DEP 16 17 IN USE RWY 16 CLEAR DRY 70 RWY 17 CLEAR DRY 70 TLVL 110 WIND WIND RWY 16 170 8 KT SPD MAX 12 MIN 6 WIND RWY 17 200 10 KT SPD MAX 16 MIN 4 VIS CAVOK T 30 / DP 11 QNH 1005 HPA TREND TREND NOSIG MODERATE BIRDS ACT IN VICINITY OF AP END OF ATIS Z\n[Departure ATIS] UBBB DEP ATIS W 1330Z ATIS W EXP ILS/ LDG 17 DEP 17 IN USE RWY 17 CLEAR DRY 70 TLVL 110 WIND WIND RWY 17 160 6 KT SPD MAX 12 MIN 4 VIS CAVOK T 30 / DP 10 QNH 1012 HPA TREND TREND NOSIG RWY 16 CLSD ONMAINT OBS BIRDS AT 2000 FT MODERATE BIRDS ACT IN VICINITY OF AP END OF ATIS W",
    "ZWWW": "[Arrival ATIS] ZWWW ARR ATIS K 1430Z EXP ILSDME Z APCH LDG RWY 26R TA 3000 WIND 070/2MPS VIS 9999M CLD FEW TCU 1200M T 30 /DP 12 QNH 1010 HPA ADZ YOU HAVE INFO K.\n[Departure ATIS] ZWWW DEP ATIS N 0430Z DEP RWY 26L TA 3000 WIND 010/6MPS VIS 9999M CLD FEW 990M T 28 /DP 14 QNH 1013 HPA ADZ YOU HAVE INFO N.",
    "ZLXY": "[Arrival ATIS] ZLXY ARR ATIS L 1419Z EXP ILS APCH LDG RWY 05L & 06L WIND 270/1MPS VIS 8000M CLD SCT 900M /OVC 1800M T 20 /DP 19 QNH 1008 HPA VISUAL APPROACH IN PROGRESS ADZ YOU HAVE INFO L.\n[Departure ATIS] ZLXY DEP ATIS U 0400Z DEP RWY 05L & 06L WIND VRB/1MPS VIS 9999M CLD FEW 450M /SCT 900M /OVC 1800M T 23 /DP 19 QNH 1008 HPA ADZ YOU HAVE INFO U.",
    "ZBAA": "[Arrival ATIS] ZBAA ARR ATIS V 1430Z EXP ILS APCH INDEPENDENT PARL INSTR APCH LDG RWY 36L & 01 WIND VRB DEG 1 MPS VIS 7000 NSC T 26 /DP 23 QNH 1005 HPA ADZ YOU HAVE INFO V.\n[Departure ATIS] ZBAA DEP ATIS U 1400Z DEP RWY 36L & 36R & 01 WIND 070 DEG 2 MPS 040V110 DEG VIS 7000 NSC T 26 /DP 23 QNH 1005 HPA RWY INDEPENDENT PARALLEL DEP ADZ YOU HAVE INFO U.",
    "ZBHH": "[Arrival ATIS] ZBHH ARR ATIS N 1408Z EXP ILSDME APCH LDG RWY 26 SFC COND & BA NOTICE: RWYCC 26 5/5/5 ISSUED AT 1353Z ALL PARTS WET NR 100PCT TA 3000 /TRL 3600 WIND 220/3MPS VIS 9999M -SHRA CLD SCT 990M /FEW CB 990M T 19 /DP 16 QNH 1011 HPA SUPPLEMENT INFO RETS BETWEEN 0800 AND 1600 UTC, TURBULENCE MAY OCCUR IN LOCAL FIELD. ADZ YOU HAVE INFO N.\n[Departure ATIS] ZBHH DEP ATIS K 2300Z DEP RWY 26 TA 3000 /TRL 3600 WIND 060/3MPS VRB BTN 010/ AND 080/ CAVOK T 21 /DP 15 QNH 1010 HPA ADZ YOU HAVE INFO K.",
    "ZSQD": "[Arrival ATIS] ZSQD ARR ATIS Y 1400Z EXP ILSDME APCH LDG RWY 17 TA 3000 /TRL 3600 WIND 160/4MPS CAVOK T 23 /DP 19 QNH 1008 HPA SEGREGATED OPERATION VISUAL APPROACH OPERATION IN PROGRESS. WHEN READY CONTACT QINGDAO TOWER ON 118.7 RUNWAY 17,IF MISSED APPROACH,EXPECT FOLLOW THE STANDARD MISSED APPROACH PROCEDURE,CLIMB TO 900M ON QNH OR BY ATC CAUTION MAYBE THERE IS A FLOCK OF BIRDS IN THE VICINITY OF AIRPORT ADZ YOU HAVE INFO Y.\n[Departure ATIS] ZSQD DEP ATIS F 2200Z DEP RWY 16 TA 3000 /TRL 3600 WIND 160/4MPS VIS 9999M CLD SCT 270M T 23 /DP 22 QNH 1009 HPA VISUAL APPROACH OPERATION IN PROGRESS. RUNWAY 16,IF MISSED APPROACH,EXPECT FOLLOW THE STANDARD MISSED APPROACH PROCEDURE,CLIMB TO 600M ON QNH OR BY ATC CAUTION MAYBE THERE IS A FLOCK OF BIRDS IN THE VICINITY OF AIRPORT ADZ YOU HAVE INFO F."
  },
  "windtemp_alaska": "\n000\nFBAK31 KWNO 040800\nFD1AK1\nDATA BASED ON 040600Z    \nVALID 041200Z   FOR USE 0800-1500Z. TEMPS NEG ABV 24000\n\nFT  3000    6000    9000   12000   18000   24000  30000  34000  39000\nADK 1125 1318+07 1315+02 0916-05 2118-12 2432-21 244638 235549 245860\nADQ 1808 2214+01 2420-05 2528-10 2438-22 2452-33 246848 245448 252444\nAKN 2213 1914-05 2012-08 2118-13 2238-26 2244-38 233041 242240 241641\nANC 9900 1409+00 1514-05 1520-10 1423-24 1523-36 142950 201446 230943\nANN 1508 1415+00 1317-05 1510-09 9900-22 9900-35 990049 281347 261842\nBET 3106 3306-02 9900-07 0807-13 0832-25 0751-36 054845 061541 360741\nBRW 3111 3217+02 3319-01 3522-06 3636-18 0144-29 015344 015252 013549\nBTI 2832 2924-02 3115-05 3116-12 3121-24 3119-33 352343 362344 011642\nBTT 0508 2707+04 2808-03 2910-09 3017-21 3211-34 022248 022649 042044\nCDB 3113 2723-03 2632-07 2637-12 2651-24 2675-31 279039 277742 285344\nCZF 0413 0422+02 0424-04 0525-09 0528-23 0527-35 042549 043046 021842\nEHM 3107 0707-06 0813-09 0713-15 0516-28 0317-38 351138 311337 301639\nFAI 2410 2508+04 2509-03 2708-08 3110-22 9900-35 191449 170552 990043\nFYU 2907 2909+03 2710-04 2913-10 3016-21 2617-33 222748 240752 031043\nGAL 3511 9900+03 9900-03 1306-09 9900-22 9900-35 072348 062550 052044\nGKN 1717 1605+03 9900-03 1406-09 1506-22 1608-35 152050 171152 250743\nHOM 1912 2015-02 1920-07 1818-11 2226-23 2335-35 244948 232945 231843\nJNU 9900 2808+00 2710-06 2807-10 9900-23 2908-35 301349 301350 300742\nLUR 0217 0115+03 0115-01 0215-04 0324-17 0334-28 034644 035053 034152\nMCG 2208 0909+01 1212-04 1215-10 1025-22 0831-35 092750 082048 081243\nMDO 2308 2007+00 2008-05 1811-09 2013-22 2521-34 275049 273450 271545\nOME 9900 9900+03 9900-03 9900-09 0515-22 0538-33 066947 065749 053445\nORT      2806+03 3109-04 3214-10 3318-22 3408-33 990049 990055 990043\nOTZ 9900 3406+03 9900-03 0208-08 0529-19 0544-31 056946 057253 053847\nSNP 3315 0126+01 0129-04 3630-08 3429-20 3429-34 333646 303945 303744\nTKA 2012 1906+01 1810-04 1611-10 1317-23 1222-36 151950 151149 210543\nUNK 9900 0707+03 0610-03 0513-09 0611-22 0907-36 062149 063448 052243\nYAK 2808 2808+00 9900-03 9900-08 3206-22 3509-34 990049 301051 301144\nIKO 9900 3011+04 3019+00 3026-03 2843-15 2759-25 278739 279749 289156\nAFM 9900 9900+04 9900-02 9900-08 0418-20 0435-32 047546 047052 053046\n5AB 1022 1024+06 1020+02 0919-02 0913-15 1208-24 191540 202251 222656\n5AC 3024 3119-01 3021-05 3129-08 3137-20 3144-32 315045 294647 284144\n5AD 3114 3018+02 3022+00 3025-06 2932-18 2937-30 294746 295254 293450\n5AE 2328 2330+02 2328-03 2335-09 2452-19 2565-30 268145 277650 275348\n5AF 9900 9900+00 9900-05 3306-09 3011-22 3117-34 312647 302449 301844\n5AG 0105 9900+00 9900-04 2907-09 3209-22 3126-33 314448 303651 291945\n",
  "vaac_tokyo": [
    {
      "id": "20260704_27202000_0228",
      "year": "2026",
      "volcano": "Kanlaon",
      "psn": "N1025 E12308",
      "issued": "20260704",
      "text": "FVFE01 RJTD 040601\nVA ADVISORY\nDTG: 20260704/0601Z\nVAAC: TOKYO\nVOLCANO: KANLAON 272020\nPSN: N1025 E12308\nAREA: PHILIPPINES\nSOURCE ELEV: 2435M AMSL\nADVISORY NR: 2026/228\nINFO SOURCE: HIMAWARI-9 PHIVOLCS\nERUPTION DETAILS: ERUPTION AT 20260704/0539Z FL090 EXTD SW REPORTED\nOBS VA DTG: 04/0540Z\nOBS VA CLD: VA NOT IDENTIFIABLE FM SATELLITE DATA WIND FL090 070/7KT\nFCST VA CLD +6 HR: NOT AVBL\nFCST VA CLD +12 HR: NOT AVBL\nFCST VA CLD +18 HR: NOT AVBL\nRMK: WE WILL ISSUE FURTHER ADVISORY IF VA IS DETECTED IN SATELLITE \nIMAGERY.\nNXT ADVISORY: NO FURTHER ADVISORIES=",
      "img_url": "https://ds.data.jma.go.jp/svd/vaac/data/VAGFN/2026/Images/20260704_27202000_0228_QH21_01.png",
      "sat_img_url": null,
      "text_url": "https://ds.data.jma.go.jp/svd/vaac/data/TextData/2026/20260704_27202000_0228_Text.html"
    },
    {
      "id": "20260704_30027000_0228",
      "year": "2026",
      "volcano": "Sheveluch",
      "psn": "N5639 E16122",
      "issued": "20260704",
      "text": "FVFE01 RJTD 040600\nVA ADVISORY\nDTG: 20260704/0600Z\nVAAC: TOKYO\nVOLCANO: SHEVELUCH 300270\nPSN: N5639 E16122\nAREA: RUSSIA\nSOURCE ELEV: 3283M AMSL\nADVISORY NR: 2026/228\nINFO SOURCE: HIMAWARI-9\nERUPTION DETAILS: VA CONTINUOUSLY OBS IN SATELLITE IMAGERY\nOBS VA DTG: 04/0520Z\nOBS VA CLD: SFC/FL280 N6009 E15851 - N6010 E15917 - N5856 E15948 - \nN5845 E15830 - N5908 E15817 MOV N 25KT\nFCST VA CLD +6 HR: 04/1120Z SFC/FL280 N6239 E15836 - N6012 E15850 - \nN6035 E15653 - N6306 E15718\nFCST VA CLD +12 HR: 04/1720Z SFC/FL280 N6517 E15814 - N6156 E15718 - \nN6343 E15548 - N6704 E15619\nFCST VA CLD +18 HR: NO VA EXP\nRMK: VA OF PREVIOUS VAA(FL150) HAS DISSIPATED.  VA HEIGHT UPDATED TO \nFL280 BASED ON SATELLITE DATA.\nNXT ADVISORY: 20260704/1200Z=",
      "img_url": "https://ds.data.jma.go.jp/svd/vaac/data/VAGFN/2026/Images/20260704_30027000_0228_QH21_01.png",
      "sat_img_url": "https://ds.data.jma.go.jp/svd/vaac/data/Sat/2026/Images/30027000/09-ir/20260704_0520_202607040600_ir.png",
      "text_url": "https://ds.data.jma.go.jp/svd/vaac/data/TextData/2026/20260704_30027000_0228_Text.html"
    },
    {
      "id": "20260702_27303000_0714",
      "year": "2026",
      "volcano": "Mayon",
      "psn": "N1315 E12341",
      "issued": "20260702",
      "text": "FVFE01 RJTD 021550\nVA ADVISORY\nDTG: 20260702/1550Z\nVAAC: TOKYO\nVOLCANO: MAYON 273030\nPSN: N1315 E12341\nAREA: PHILIPPINES\nSOURCE ELEV: 2462M AMSL\nADVISORY NR: 2026/714\nINFO SOURCE: HIMAWARI-9 PHIVOLCS\nERUPTION DETAILS: ERUPTION AT 20260702/1535Z FL090 EXTD WSW REPORTED\nOBS VA DTG: 02/1530Z\nOBS VA CLD: VA NOT IDENTIFIABLE FM SATELLITE DATA WIND FL090 100/11KT\nFCST VA CLD +6 HR: NOT AVBL\nFCST VA CLD +12 HR: NOT AVBL\nFCST VA CLD +18 HR: NOT AVBL\nRMK: WE WILL ISSUE FURTHER ADVISORY IF VA IS DETECTED IN SATELLITE \nIMAGERY.\nNXT ADVISORY: NO FURTHER ADVISORIES=",
      "img_url": "https://ds.data.jma.go.jp/svd/vaac/data/VAGFN/2026/Images/20260702_27303000_0714_QH21_01.png",
      "sat_img_url": null,
      "text_url": "https://ds.data.jma.go.jp/svd/vaac/data/TextData/2026/20260702_27303000_0714_Text.html"
    },
    {
      "id": "20260701_30006000_0001",
      "year": "2026",
      "volcano": "Mutnovsky",
      "psn": "N5227 E15812",
      "issued": "20260701",
      "text": "FVFE01 RJTD 012206\nVA ADVISORY\nDTG: 20260701/2206Z\nVAAC: TOKYO\nVOLCANO: MUTNOVSKY 300060\nPSN: N5227 E15812\nAREA: RUSSIA\nSOURCE ELEV: 2288M AMSL\nADVISORY NR: 2026/1\nINFO SOURCE: KVERT KBGS UHPP HIMAWARI-9\nERUPTION DETAILS: ERUPTION AT 20260701/2016Z FL170 EXTD W REPORTED\nOBS VA DTG: 01/2140Z\nOBS VA CLD: VA NOT IDENTIFIABLE FM SATELLITE DATA WIND FL170 120/8KT\nFCST VA CLD +6 HR: NOT AVBL\nFCST VA CLD +12 HR: NOT AVBL\nFCST VA CLD +18 HR: NOT AVBL\nRMK: WE WILL ISSUE FURTHER ADVISORY IF VA IS DETECTED IN SATELLITE \nIMAGERY.\nNXT ADVISORY: NO FURTHER ADVISORIES=",
      "img_url": "https://ds.data.jma.go.jp/svd/vaac/data/VAGFN/2026/Images/20260701_30006000_0001_QH21_01.png",
      "sat_img_url": null,
      "text_url": "https://ds.data.jma.go.jp/svd/vaac/data/TextData/2026/20260701_30006000_0001_Text.html"
    }
  ],
  "vaac_alaska": [
    {
      "text": "\n000\nFVAK21 PAWU 040608\nVAAAK1\nVA ADVISORY\n\nDTG: 20260704/0606Z\n\nVAAC: ANCHORAGE\n\nVOLCANO: SHEVELUCH 300270\n\nPSN: N5639 E16122\n\nAREA: KAMCHATKA PENINSULA\n\nSOURCE ELEV: 10771 FT AMSL\n\nADVISORY NR: 2026/172\n\nRMK: PLEASE SEE FVFE01 RJTD ISSUED BY VAAC TOKYO WHICH DESCRIBES\nCONDITIONS NEAR THE VAAC ANCHORAGE AREA OF RESPONSIBILITY...CC\n\n\n\n",
      "issued": "2026-07-04T06:08:00+00:00",
      "volcano": "Sheveluch",
      "psn": "N5639 E16122"
    }
  ]
}