{
  "updated_utc": "2026-07-18T05:55Z",
  "metar": {
    "RJAA": "METAR RJAA 180400Z 12009KT 080V150 9999 FEW020 SCT025 BKN045 28/23 Q1007 NOSIG",
    "PANC": "SPECI PANC 180425Z 13004KT 10SM -RA FEW022 BKN047 13/09 A2990 RMK AO2 RAB05 P0000 T01280089",
    "PAFA": "METAR PAFA 180453Z 18006KT 10SM SCT060CB SCT080 BKN100 BKN200 17/08 A2979 RMK AO2 SLP092 PRSNT WX VCSH E CB E MOV N T01720078 $",
    "PAED": "METAR PAED 180455Z COR 00000KT 10SM -RA BKN024 BKN030 13/09 A2989 RMK AO2A RAB46 SLP118 PCPN VRY LGT P0000 T01290093 $ COR 0502",
    "KSEA": "METAR KSEA 180453Z 24006KT 10SM SCT050 BKN060 18/11 A3006 RMK AO2 SLP184 T01830111",
    "ZSPD": "METAR ZSPD 180400Z 27003MPS 220V320 CAVOK 37/25 Q1000 NOSIG",
    "ZSSS": "METAR ZSSS 180400Z 30004MPS 270V030 9999 FEW030CB FEW033 35/26 Q1001 NOSIG",
    "RJFR": "METAR RJFR 180400Z 06005KT 9999 FEW020 BKN/// 31/27 Q1003",
    "VHHH": "METAR VHHH 180400Z 21009KT 170V230 9999 -SHRA FEW012 SCT025 29/25 Q1006 TEMPO 3000 SHRA FEW010CB SCT020",
    "RCTP": "METAR RCTP 180400Z 24019KT 9999 FEW020 BKN200 34/24 Q1005 WS R23R NOSIG RMK A2970",
    "ZGSZ": "METAR ZGSZ 180400Z 17005MPS 9999 SCT026 29/26 Q1005 NOSIG",
    "WSSS": "METAR WSSS 180400Z 09008KT 060V120 9999 FEW018 FEW020TCU BKN300 30/25 Q1012 NOSIG",
    "WMKK": "METAR WMKK 180400Z VRB02KT 9000 FEW018 32/24 Q1011 NOSIG",
    "WIDD": "METAR WIDD 180400Z 14007KT 080V200 9999 FEW015 31/26 Q1012 NOSIG",
    "VTBS": "METAR VTBS 180400Z 27008KT 230V320 9999 FEW020 33/21 Q1010 NOSIG",
    "VTBU": "METAR VTBU 180400Z 26005KT 9000 FEW020 31/27 Q1010 NOSIG",
    "ROAH": "METAR ROAH 180400Z 21009KT 9999 FEW007 SCT018 BKN/// 31/29 Q1006",
    "VVDN": "METAR VVDN 180400Z 22012KT 9999 FEW020 35/22 Q1005 NOSIG",
    "RCKH": "METAR RCKH 180400Z 24013KT 210V270 4500 2000S -SHRA SCT006 SCT009CB BKN014 OVC022 27/25 Q1008 TEMPO 1500 +SHRA RMK 23012KT/R09 CB S-W A2978 RA AMT 0.4MM",
    "KLAX": "METAR KLAX 180453Z 24004KT 10SM FEW012 SCT110 SCT150 22/18 A2998 RMK AO2 SLP147 T02170183 $",
    "KONT": "METAR KONT 180453Z 25006KT 10SM BKN180 26/14 A2998 RMK AO2 SLP133 T02560144 $",
    "KSFO": "METAR KSFO 180356Z 28016KT 10SM FEW006 BKN011 14/12 A2998 RMK AO2 SLP151 T01440117 $",
    "KOAK": "METAR KOAK 180453Z 24008KT 10SM FEW008 BKN011 15/12 A3000 RMK AO2 SLP159 T01500122",
    "KMHR": "METAR KMHR 180415Z AUTO 22010KT 10SM CLR 23/10 A2987 RMK AO2 T02270099 $",
    "KDFW": "METAR KDFW 180453Z 17012KT 10SM FEW060 FEW250 29/21 A3005 RMK AO2 SLP168 T02890206 $",
    "KIAH": "METAR KIAH 180453Z 18005KT 10SM FEW120 SCT250 28/25 A3010 RMK AO2 SLP192 T02830250",
    "KORD": "METAR KORD 180451Z 23006KT 10SM FEW250 28/22 A2992 RMK AO2 SLP124 T02780222 $",
    "KJFK": "METAR KJFK 180451Z 19004KT 7SM BKN250 OVC300 23/21 A3004 RMK AO2 SLP171 FU OVC300 T02280206 403000222 $",
    "KRFD": "METAR KRFD 180454Z 17003KT 10SM CLR 24/23 A2994 RMK AO2 SLP132 T02390228 $",
    "KIND": "SPECI KIND 180358Z 24004KT 10SM SCT160 BKN240 24/21 A3001 RMK AO2 T02440211",
    "KDTW": "METAR KDTW 180453Z 21009KT 2SM FU FEW030 SCT130 OVC250 23/22 A2992 RMK AO2 SFC VIS 2 1/2 SLP128 FU FEW030 T02330217 402890183 $",
    "KMSP": "SPECI KMSP 180414Z COR 30012G17KT 10SM VCTS FEW033 SCT048CB BKN085 29/23 A2984 RMK AO2 LTG DSNT SW T02940233 LTGICCC S MOV SE VCTS S MOV SE",
    "CYEG": "METAR CYEG 180400Z 10012KT 15SM BKN250 23/16 A2991 RMK CI5 SLP121 DENSITY ALT 3900FT",
    "EHAM": "METAR EHAM 180425Z 31008KT 270V330 9999 FEW019 SCT021 BKN022 18/13 Q1015 NOSIG",
    "EBBR": "METAR EBBR 180420Z 31005KT 9999 BKN019 17/13 Q1017 NOSIG",
    "EDDF": "METAR EDDF 180420Z AUTO 22004KT 190V260 CAVOK 17/14 Q1015 NOSIG",
    "EDFH": "METAR EDFH 180420Z 26004KT 9999 BCFG NSC 14/13 Q1017",
    "EDDL": "METAR EDDL 180420Z AUTO 30006KT 9999 FEW014 OVC020 17/14 Q1016 TEMPO BKN013",
    "EDDK": "METAR EDDK 180420Z AUTO 31008KT 9999 FEW016 SCT027 BKN045 18/14 Q1016 TEMPO BKN014",
    "EBLG": "METAR EBLG 180420Z VRB02KT 9999 BKN018 16/14 Q1017 NOSIG",
    "LSZH": "METAR LSZH 180420Z VRB01KT CAVOK 17/15 Q1017 NOSIG",
    "LIMC": "METAR LIMC 180420Z 02005KT CAVOK 22/19 Q1012 NOSIG",
    "LIRF": "METAR LIRF 180420Z 05002KT 6000 FEW010 25/25 Q1012 TEMPO 1000BCFG",
    "EINN": "METAR EINN 180400Z 35008KT 9999 FEW030 12/10 Q1024 NOSIG",
    "EGLL": "METAR EGLL 180420Z AUTO 03006KT 9999 NCD 16/12 Q1019",
    "EGSS": "METAR EGSS 180420Z AUTO 34005KT 9999 BKN030 14/12 Q1019",
    "EPWA": "METAR EPWA 180400Z 16005KT 9999 -SHRA SCT033CB 19/19 Q1008 NOSIG",
    "UHPP": "METAR UHPP 180400Z 33007MPS 9999 SCT042 BKN070 28/17 Q1017 WS R34L R34L/CLRD62 NOSIG RMK MT OBSC QFE759/1013",
    "EFHK": "METAR EFHK 180420Z 15008KT CAVOK 20/17 Q1008 TEMPO FEW040CB",
    "LBBG": "METAR LBBG 180400Z AUTO VRB02KT 1000 0550NE R22/0600D BCFG SCT002/// BKN004/// 20/20 Q1013 TEMPO 0400 FG",
    "LTAC": "METAR LTAC 180420Z 03009KT CAVOK 19/11 Q1015 NOSIG RMK RWY21C 05009KT RWY03L 03009KT RWY21R 02008KT RWY03R 01009KT RWY21L 03008KT",
    "UBBB": "METAR UBBB 180400Z 34014KT CAVOK 28/19 Q1009 NOSIG",
    "UTAA": "METAR UTAA 180400Z 31008KT 280V340 9999 NSC 32/19 Q1007 R88/CLRD70 NOSIG",
    "UACC": "METAR UACC 180400Z 21006MPS CAVOK 30/11 Q1006 NOSIG RMK QFE724/0965",
    "UAAA": "METAR UAAA 180400Z VRB01MPS 9999 NSC 36/10 Q1007 NOSIG",
    "UZTT": "METAR UZTT 180400Z 17004KT 130V230 CAVOK 35/14 Q1003 NOSIG",
    "ZWWW": "METAR ZWWW 180400Z 17002MPS 110V240 CAVOK 36/08 Q1007 NOSIG",
    "ZLXY": "METAR ZLXY 180400Z 35004MPS 320V020 CAVOK 33/16 Q1009 NOSIG",
    "ZBAA": "METAR ZBAA 180400Z 19003MPS 130V230 CAVOK 29/21 Q1002 NOSIG",
    "ZBHH": "METAR ZBHH 180400Z 32005MPS 290V360 9999 SCT040 23/14 Q1010 NOSIG",
    "ZSQD": "METAR ZSQD 180400Z 03003MPS 350V100 9999 FEW030 29/18 Q1002 NOSIG",
    "ZMCK": "METAR ZMCK 180400Z 20005MPS 150V230 9999 FEW030CB FEW033 25/11 Q1005 NOSIG RMK QFE639.6 42 MOP",
    "UUEE": "METAR UUEE 180400Z VRB01MPS CAVOK 17/10 Q1018 R06R/CLRD62 R06C/CLRD62 NOSIG",
    "UUDD": "METAR UUDD 180400Z 35003MPS CAVOK 16/10 Q1018 R13R/CLRD65 NOSIG",
    "ULLI": "METAR ULLI 180400Z 19004MPS CAVOK 17/11 Q1013 R88/090065 NOSIG",
    "USSS": "METAR USSS 180400Z 08003MPS 050V110 9999 BKN004 OVC010CB 18/18 Q1002 R26L/CLRD60 NOSIG RMK QFE731/0975",
    "UNNT": "METAR UNNT 180400Z 30004MPS CAVOK 25/17 Q1002 R25/CLRD// R16/CLRD// NOSIG RMK QFE741/0989",
    "UNKL": "METAR UNKL 180400Z 12001MPS 9000 -SHRA BKN044CB 18/18 Q1001 R29/290050 NOSIG RMK QFE725",
    "UIBB": "METAR UIBB 180400Z 18002MPS 9999 SCT023 19/15 Q0999 R12/210162 NOSIG RMK QFE707/0943",
    "UEEE": "METAR UEEE 180400Z 06002MPS 9999 TS BKN028CB 19/16 Q0995 R23/09//52 NOSIG RMK QFE738",
    "UHHH": "METAR UHHH 180400Z 26003MPS 210V330 9999 FEW036 29/15 Q1004 R88/090060 NOSIG RMK QFE747/0996",
    "UHSS": "METAR UHSS 180400Z 19006MPS 9999 NSC 27/22 Q1008 R19/CLRD70 NOSIG RMK QFE755/1006"
  },
  "taf": {
    "RJAA": "TAF RJAA 180505Z 1806/1912 14008KT 9999 FEW020 SCT040",
    "PANC": "TAF PANC 180532Z 1806/1912 18006KT P6SM VCSH FEW015 SCT045 BKN070 TEMPO 1806/1807 -SHRA BKN035 FM181800 19004KT P6SM VCSH OVC050 FM182000 16008KT 6SM -RA OVC040 FM182300 14012G24KT P6SM VCSH SCT040 OVC070 FM190800 34005KT 6SM -RA OVC060 WS008/12030KT",
    "PAFA": "TAF PAFA 180530Z 1806/1912 22002KT P6SM SCT070 FM190000 18009KT P6SM SCT050 SCT100",
    "PAED": "TAF PAED 180500Z 1805/1911 VRB06KT 9999 BKN020 BKN035 620604 QNH2986INS TEMPO 1805/1810 -RA BKN015 BECMG 1810/1811 VRB06KT 9999 NSW BKN040 620604 QNH2993INS BECMG 1819/1820 32010KT 9000 -RA FEW007 SCT015 OVC050 640703 QNH3002INS BECMG 1902/1903 34012KT 9999 VCSH BKN045 OVC060 QNH3002INS BECMG 1907/1908 36010KT 9000 -RA FEW006 SCT030 BKN045 OVC060 QNH3002INS TX14/1902Z TN10/1812",
    "KSEA": "TAF KSEA 180520Z 1806/1912 24006KT P6SM BKN050 FM181100 20004KT P6SM SCT020 BKN035 FM181700 24006KT P6SM BKN045 FM182100 29007KT P6SM SCT050 FM190200 01008KT P6SM FEW250 FM191100 36006KT P6SM FEW025",
    "ZSPD": "TAF ZSPD 180308Z 1806/1912 28004MPS 8000 SCT030 TX37/1806Z TX33/1906Z TN28/1821Z TEMPO 1806/1810 TSRA BKN011 FEW030CB",
    "ZSSS": "TAF ZSSS 180307Z 1806/1912 28004MPS 8000 SCT030 TX37/1806Z TX33/1906Z TN28/1821Z TEMPO 1806/1810 TSRA BKN011 FEW030CB",
    "RJFR": "TAF RJFR 180505Z 1806/1912 07005KT 9999 FEW025 BECMG 1815/1817 10004KT BECMG 1900/1903 07010KT TEMPO 1909/1912 -TSRA FEW010 FEW020CB BKN030",
    "VHHH": "TAF VHHH 180500Z 1806/1912 20010KT 9999 FEW010 SCT025 TX31/1806Z TX30/1906Z TN27/1822Z TEMPO 1806/1808 3000 SHRA FEW010CB SCT020 TEMPO 1821/1903 24015G25KT 2500 TSRA SHRA FEW008CB SCT015 TEMPO 1903/1906 3000 SHRA FEW010CB SCT020",
    "RCTP": "TAF RCTP 180500Z 1806/1912 24014KT 9999 FEW010 BKN032 TEMPO 1806/1812 24020KT TEMPO 1812/1818 24009KT TEMPO 1818/1824 24005KT TEMPO 1900/1906 25005KT",
    "ZGSZ": "TAF ZGSZ 180311Z 1806/1912 18004MPS 8000 BKN040 TX30/1806Z TX30/1906Z TN27/1822Z TEMPO 1821/1901 TSRA FEW020 FEW025CB BKN040 TEMPO 1904/1908 TSRA FEW020 FEW025CB BKN040",
    "WSSS": "TAF WSSS 180500Z 1806/1912 14009KT 9999 FEW015 SCT020",
    "WMKK": "TAF WMKK 180500Z 1806/1912 VRB03KT 9999 FEW018 PROB40 TEMPO 1806/1810 5000 TSRA FEW017CB SCT018",
    "VTBS": "TAF VTBS 180500Z 1806/1912 24008KT 9999 FEW020",
    "VTBU": "TAF VTBU 180500Z 1806/1906 24008KT 9999 FEW020 BECMG 1816/1818 36004KT BECMG 1900/1902 24008KT",
    "ROAH": "TAF ROAH 180505Z 1806/1912 20008KT 9999 FEW008 SCT015 TEMPO 1812/1814 FEW005 BKN008 TEMPO 1814/1821 FEW003 BKN005 TEMPO 1821/1900 FEW005 BKN008",
    "VVDN": "TAF VVDN 180500Z 1806/1906 23010KT 9999 FEW020 BECMG 1806/1807 01010KT BECMG 1808/1809 12010KT BECMG 1812/1813 22008KT",
    "RCKH": "TAF RCKH 180500Z 1806/1912 25005KT 9999 FEW010 BKN032 TEMPO 1806/1812 24010KT 4000 SHRA FEW010 BKN017 FEW020CB BECMG 1812/1813 07005KT TEMPO 1813/1818 13005KT 5000 RA FEW010 BKN017 TEMPO 1818/1824 4000 RA FEW010 BKN017 BECMG 1900/1901 24005KT TEMPO 1901/1906 25011KT 3000 SHRA FEW010 BKN014 FEW020CB",
    "KLAX": "TAF KLAX 180520Z 1806/1912 VRB03KT P6SM FEW012 FM180800 11007KT P6SM OVC012 FM181600 16005KT P6SM SCT015 FM181900 26012KT P6SM FEW025 FM190300 24006KT P6SM FEW015 SCT150 FM190600 VRB03KT P6SM FEW015 SCT150 FM190900 VRB03KT P6SM BKN015",
    "KONT": "TAF KONT 180520Z 1806/1912 25007KT P6SM BKN180 FM180800 VRB04KT P6SM SCT200 FM182000 26010G21KT P6SM SCT150 FM190200 25010KT P6SM FEW200 FM190900 VRB04KT P6SM SKC",
    "KSFO": "TAF KSFO 180520Z 1806/1912 27010KT 6SM BR FEW005 OVC008 FM181800 28015G25KT P6SM SKC FM190300 29015KT P6SM SCT015 FM190600 28012KT P6SM OVC015",
    "KOAK": "TAF KOAK 180520Z 1806/1912 26010KT P6SM SCT008 OVC010 FM180800 26010KT 6SM BR OVC008 FM181800 28010KT P6SM FEW005 SCT010 FM182000 30015KT P6SM SKC FM190300 29012KT P6SM SCT015 FM190600 29006KT P6SM OVC010",
    "KMHR": "TAF KMHR 180520Z 1806/1906 17008KT P6SM SKC FM181800 22006KT P6SM SKC",
    "KDFW": "TAF KDFW 180520Z 1806/1912 18011KT P6SM FEW060 FM181300 18012KT P6SM SCT025 FM181600 18016KT P6SM SCT060 FM190200 18007KT P6SM FEW250",
    "KIAH": "TAF KIAH 180521Z 1806/1912 17006KT P6SM FEW020 SCT250 FM181500 20007KT P6SM SCT020 BKN035 FM181900 17008KT P6SM SCT045 SCT250 FM190400 19004KT P6SM FEW020 SCT250",
    "KORD": "TAF KORD 180520Z 1806/1912 24006KT P6SM FEW050 FM181300 27013G22KT P6SM SCT050 BKN250 FM181800 33012KT P6SM VCTS BKN050CB TEMPO 1818/1820 01020G30KT 1SM TSRA BR BKN020 OVC050CB FM182000 06011G17KT P6SM FEW015 SCT035 FM190100 03012G18KT 5SM FU SCT015",
    "KJFK": "TAF KJFK 180530Z 1806/1912 17004KT 6SM FU BKN250 FM181300 20010KT 6SM FU OVC150 FM181500 19012KT 6SM FU VCSH SCT015 OVC070 TEMPO 1815/1818 3SM SHRA BKN015 OVC070 FM181800 19014KT P6SM VCSH SCT015 OVC070 TEMPO 1819/1823 2SM TSRA BR BKN015 OVC050CB FM182300 20014G22KT 5SM -SHRA BKN015 OVC050 TEMPO 1823/1903 2SM TSRA BR BKN009 OVC050CB FM190300 24012KT 4SM SHRA BKN025 OVC050 FM190700 28012KT P6SM SCT040 BKN100",
    "KRFD": "TAF KRFD 180520Z 1806/1906 20006KT P6SM FEW050 PROB30 1810/1813 35012KT 2SM TSRA BR SCT020 BKN050CB FM181300 28013G22KT P6SM SCT050 BKN250 FM181900 33011KT P6SM SCT035 FM182200 01011KT P6SM SCT040 FM190400 01010KT 5SM FU SCT035",
    "KIND": "TAF KIND 180520Z 1806/1912 23007KT P6SM FEW040 SCT180 FM181500 27013KT P6SM VCSH SCT050 PROB30 1821/1903 VRB15G25KT 5SM -TSRA BKN030CB FM190300 34007KT P6SM VCSH BKN150",
    "KDTW": "TAF KDTW 180538Z 1806/1912 21008KT 3SM HZ SCT045 FM180700 22008KT 6SM HZ SCT045 BKN200 FM181500 26016G23KT P6SM SCT030 BKN050 OVC120 TEMPO 1817/1820 2SM TSRA OVC030CB FM182100 32014G22KT P6SM SCT045 BKN060 FM190100 02010KT P6SM BKN200",
    "KMSP": "TAF KMSP 180531Z 1806/1912 35010KT P6SM BKN050 FM181300 36007KT P6SM SKC",
    "CYEG": "TAF CYEG 180540Z 1806/1906 12010KT P6SM FEW100 FM181000 10005KT P6SM SCT012 TEMPO 1810/1815 BKN012 PROB30 1810/1815 3/4SM BR BKN004 FM181500 13005KT P6SM FEW020 FM181800 27006KT P6SM FEW050 TEMPO 1823/1901 VRB25G40KT P6SM VCTS BKN050CB FM190100 25008KT P6SM SCT050 PROB30 1901/1904 VRB25G40KT 2SM +TSRA BR FEW020 BKN040CB FM190400 25008KT P6SM FEW100 RMK NXT FCST BY 180900Z",
    "EHAM": "TAF EHAM 180458Z 1806/1912 31010KT 9999 SCT025 PROB30 TEMPO 1819/1824 7000 -SHRA FEW020TCU",
    "EBBR": "TAF EBBR 180507Z 1806/1912 32006KT 9999 SCT020 SCT040",
    "EDDF": "TAF EDDF 180500Z 1806/1912 26005KT CAVOK BECMG 1810/1812 29010KT BECMG 1816/1818 35010KT BECMG 1820/1822 35004KT TEMPO 1901/1904 35015G25KT SHRA BKN045CB",
    "EDFH": "TAF EDFH 180500Z 1806/1906 30006KT CAVOK PROB30 TEMPO 1814/1818 30015G25KT TSRA BKN050CB PROB30 TEMPO 1900/1902 35015G25KT TSRA BKN030CB",
    "EDDL": "TAF EDDL 180500Z 1806/1912 28007KT 9999 SCT040 PROB30 TEMPO 1806/1808 BKN014 BECMG 1809/1812 30012KT BECMG 1818/1821 29006KT BECMG 1906/1909 30011KT",
    "EDDK": "TAF EDDK 180500Z 1806/1912 30007KT 9999 FEW025 BECMG 1810/1813 31012KT BECMG 1818/1821 31006KT BECMG 1906/1909 31011KT",
    "EBLG": "TAF EBLG 180507Z 1806/1912 32008KT 9999 SCT020 SCT040",
    "LSZH": "TAF LSZH 180525Z 1806/1912 VRB02KT CAVOK TX25/1814Z TN19/1806Z TN15/1904Z BECMG 1808/1811 27010KT SCT060TCU PROB40 TEMPO 1812/1817 30015G25KT TSRA FEW060CB BECMG 1818/1820 VRB02KT SCT060 BECMG 1820/1822 CAVOK BECMG 1905/1908 9999 SCT040 PROB40 TEMPO 1907/1912 SHRA SCT050TCU BECMG 1908/1911 29010KT",
    "LIMC": "TAF LIMC 180500Z 1806/1912 02005KT 9999 FEW040 BECMG 1812/1814 22010KT PROB30 TEMPO 1812/1817 4000 TSRA BECMG 1817/1819 VRB05KT",
    "LIRF": "TAF LIRF 180500Z 1806/1912 VRB05KT CAVOK BECMG 1809/1811 27012KT BECMG 1818/1820 VRB05KT BECMG 1910/1912 24010KT",
    "EINN": "TAF EINN 180500Z 1806/1906 36010KT 9999 FEW030",
    "EGLL": "TAF EGLL 180500Z 1806/1912 04010KT 9999 FEW030 PROB40 TEMPO 1900/1908 34006KT",
    "EGSS": "TAF EGSS 180500Z 1806/1912 03006KT 9999 SCT035 BECMG 1823/1902 33010KT BECMG 1906/1909 03010KT",
    "EPWA": "TAF EPWA 180530Z 1806/1906 VRB03KT 9999 SCT040 BECMG 1806/1809 21010KT BECMG 1810/1813 27012KT TEMPO 1810/1818 -SHRA SCT040CB PROB40 TEMPO 1811/1815 27015G25KT 2000 TSRA BKN030CB BECMG 1817/1819 VRB02KT",
    "UHPP": "TAF UHPP 180445Z 1806/1912 30003G12MPS 9999 SCT040CB TX26/1806Z TN18/1816Z TEMPO 1806/1809 36005G12MPS",
    "EFHK": "TAF EFHK 180535Z 1806/1906 16009KT CAVOK PROB40 TEMPO 1806/1813 FEW050CB TEMPO 1813/1817 5000 SHRA SCT040CB TEMPO 1817/1824 21015G25KT 4000 TSRA BKN012 BKN030CB BECMG 1900/1902 22010KT 7000 -DZ BKN007 BECMG 1904/1906 28008KT 9999 BKN011",
    "LBBG": "TAF LBBG 180500Z 1806/1906 VRB03KT 9999 SCT045 BECMG 1807/1809 12012KT BECMG 1818/1820 VRB03KT",
    "LTAC": "TAF LTAC 180440Z 1806/1906 04009KT CAVOK BECMG 1806/1809 SCT040 SCT100 BECMG 1818/1820 CAVOK",
    "UBBB": "TAF UBBB 180459Z 1806/1906 34014KT CAVOK TX32/1810Z TN25/1901Z TEMPO 1806/1814 36018G28KT SCT025 TEMPO 1818/1824 34018G28KT FEW050CB TEMPO 1900/1906 SCT012 FEW050CB",
    "UTAA": "TAF UTAA 180445Z 1806/1906 01016KT 6000 SCT050 TX42/1812Z TEMPO 1806/1812 31014G24KT 4000 DRDU BECMG 1816/1818 27014KT",
    "UACC": "TAF UACC 180500Z 1806/1906 24006MPS 9999 SCT040CB BKN100 TX35/1809Z TN20/1900Z TEMPO 1806/1814 28008G13MPS -TSRA BKN030CB BECMG 1814/1816 VRB01MPS TEMPO 1814/1818 10006MPS -TSRA BKN020CB TEMPO 1821/1904 14003MPS -TSRA BKN030CB BECMG 1904/1906 24006MPS",
    "UAAA": "TAF UAAA 180505Z 1806/1906 02005MPS 9999 FEW050 SCT100 TX41/1810Z TN22/1900Z TEMPO 1806/1815 07006G11MPS 5000 BLDU BECMG 1815/1816 17002MPS TEMPO 1902/1906 32005MPS",
    "UZTT": "TAF UZTT 180500Z 1806/1906 22010KT 7000 NSC TX45/1811Z TN27/1900Z TEMPO 1806/1816 32015KT",
    "ZWWW": "TAF ZWWW 180303Z 1806/1912 36004G09MPS CAVOK TX41/1809Z TX38/1909Z TN28/1823Z BECMG 1815/1816 18004MPS BECMG 1902/1903 36004MPS",
    "ZLXY": "TAF ZLXY 180302Z 1806/1906 30004MPS 6000 NSC TX36/1906Z TN21/1821Z",
    "ZBAA": "TAF ZBAA 180301Z 1806/1912 18004MPS CAVOK TX31/1806Z TX33/1906Z TN21/1821Z TEMPO 1808/1812 -TSRA FEW040CB BKN040",
    "ZBHH": "TAF ZBHH 180303Z 1806/1906 36004MPS 9999 FEW040 TX28/1807Z TN16/1822Z",
    "ZSQD": "TAF ZSQD 180301Z 1806/1906 03005MPS 3500 BR NSC TX31/1806Z TN21/1820Z BECMG 1810/1811 16002MPS",
    "ZMCK": "TAF ZMCK 180450Z 1806/1912 VRB02MPS 9999 FEW030CB SCT033 TX24/1807Z TN12/1821Z TEMPO 1806/1816 VRB09G14MPS TSRA SCT027CB SCT030 BECMG 1900/1902 32005MPS PROB40 TEMPO 1905/1912 VRB09G14MPS TSRA SCT027CB SCT033",
    "UUEE": "TAF UUEE 180450Z 1806/1906 02003MPS 9999 SCT040 TX25/1813Z TN13/1902Z PROB40 TEMPO 1900/1904 0300 FG BKN002",
    "UUDD": "TAF UUDD 180454Z 1806/1912 36003MPS 9999 SCT016 TX28/1909Z TN10/1901Z PROB40 TEMPO 1823/1904 0300 FG BECMG 1906/1908 20005MPS",
    "ULLI": "TAF ULLI 180450Z 1806/1906 18006G12MPS 9999 SCT020",
    "USSS": "TAF USSS 180450Z 1806/1906 06003G14MPS 6000 -SHRA BKN011CB TEMPO 1806/1906 VRB20MPS -TSRAGR SQ BKN005 BKN011CB",
    "UNNT": "TAF UNNT 180500Z 1806/1906 27003G08MPS 8000 SCT040 TX27/1809Z TN16/1822Z TEMPO 1806/1819 22008G18MPS -TSRA BKN020CB TEMPO 1819/1902 0300 FG BKN001 TEMPO 1902/1906 -TSRA BKN020CB",
    "UNKL": "TAF UNKL 180449Z 1806/1906 27003MPS 6000 -SHRA BKN016CB TEMPO 1806/1812 27008G16MPS -TSRA BKN010 BKN016CB TEMPO 1812/1815 -TSRA",
    "UIBB": "TAF UIBB 180500Z 1806/1906 15002G08MPS 9999 BKN020CB TEMPO 1806/1812 VRB07MPS 2900 -TSRA BECMG 1812/1814 28005MPS",
    "UEEE": "TAF UEEE 180500Z 1806/1912 11003G08MPS 9999 SCT025CB OVC070 TEMPO 1806/1815 VRB16MPS 4000 -TSRA SCT007 BKN020CB OVC070",
    "UHHH": "TAF UHHH 180446Z 1806/1912 24003MPS CAVOK TX30/1904Z TN18/1818Z FM190000 28003MPS 9999 SCT020CB",
    "UHSS": "TAF UHSS 180450Z 1806/1912 18003MPS 9999 BKN030CB"
  },
  "atis": {
    "RJAA": "[Arrival ATIS] RJAA ARR ATIS S 0454Z M0430 (APCH)ILS Z RWY34R LDG RWY 34R DEP RWY 34L DEP FREQ 124.2. TWY A1 CLSD. OBSERVE GEAR DOWN OPS PROC ON FNL. M 230430Z 05010KT 010V080 30KM BKN020CU BKN/// 22/16 Q1011/A2985= Q/TWO NINE EIGHT FIVE STP\n[Departure ATIS] RJAA DEP ATIS S 0452Z M0430 (APCH)ILS Z RWY34R LDG RWY 34R DEP RWY 34L DEP FREQ 124.2. TWY A1 CLSD. OBSERVE GEAR DOWN OPS PROC ON FNL. M 230430Z 05010KT 010V080 30KM BKN020CU BKN/// 22/16 Q1011/A2985= Q/TWO NINE EIGHT FIVE STP",
    "PANC": "[Arrival ATIS] PANC ARR ATIS I 0353Z ANC ATIS INFO I 0353Z. 14015G22KT 10SM FEW060 BKN095 15/08 A3003 (THREE ZERO ZERO THREE). ILS RWY 15 APPROACHES IN USE. LANDING RWY 15, DEPARTING RWY 25L, 15. NOTICE TO AIRMEN. RWY 25R CLSD. CHECK NOTAMS FOR TAXIWAY CLOSURES. CAUTION FOR BIRD ACTIVITY IN THE ARPT AREA. ...ADVS YOU HAVE INFO I.\n[Departure ATIS] PANC DEP ATIS H 0253Z ANC ATIS INFO H 0253Z. 14015G28KT 10SM OVC100 15/07 A3004 (THREE ZERO ZERO FOUR) RMK AO2 PK WND 16029/0229 SLP172 T01500072 58002. ILS RWY 15 APPROACHES IN USE. LANDING RWY 15, DEPARTING RWY 25L, 15. NOTICE TO AIRMEN. RWY 25R CLSD. CHECK NOTAMS FOR TAXIWAY CLOSURES. CAUTION FOR BIRD ACTIVITY IN THE ARPT AREA. ...ADVS YOU HAVE INFO H.",
    "KSEA": "[Arrival ATIS] KSEA ARR ATIS H 0353Z SEA ATIS INFO H 0353Z. 33008KT 10SM FEW050 SCT200 SCT250 24/08 A3002 (THREE ZERO ZERO TWO). ILS AND CHARTED VISUAL APPROACH RWYS 34L AND 34R , APCH IN USE. DEPG RWY 34R, DEPG ACFT PLAN AND BRIEF NUMBERS FOR BOTH RWYS 34R AND 34C. SIMUL ARRIVALS TO RWY 34L AND DEPARTURES TO RWY 34R ARE IN USE. SIMUL APCHS IN USE TO PARA RYS. NOTAMS... BIRD ACTIVITY VICINITY ARPT. ...ADVS YOU HAVE INFO H.\n[Departure ATIS] KSEA DEP ATIS G 0453Z SEA ATIS INFO G 0453Z. 22006KT 10SM SCT050 BKN060 18/11 A3006 (THREE ZERO ZERO SIX). ILS AND CHARTED VISUAL APPROACH RWYS 16R AND 16L , APCH IN USE. DEPG RWY 16L, DEPG ACFT PLAN AND BRIEF NUMBERS FOR BOTH RWYS 16L AND 16C. SIMUL APCHS IN USE, BFI & SEA. TRAFFIC BELOW YOU ON FINAL. SIMUL APCHS IN USE TO PARA RYS. NOTAMS... BIRD ACTIVITY VICINITY ARPT. APCH AND DEP PATHS ARE OVER NOISE SENSITIVE AREAS. STADIUM TFR IN EFFECT CHECK FDC NOTAMS FOR MORE INFO. ...ADVS YOU HAVE INFO G.",
    "ZSPD": "[Arrival ATIS] ZSPD ARR ATIS K 0430Z EXP ILS APCH INDEPENDENT PARL INSTR APCH LDG RWY 35L & 34R WIND RWY 35L TDZ 330/4MPS MID 340/2MPS VRB BTN 310/ AND 010/ END 340/4MPS RWY 34R TDZ 350/4MPS MID 360/3MPS END 010/3MPS VIS RWY 35L TDZ 10000M MID 10000M END 10000M VIS RWY 34R TDZ 10000M MID 10000M END 10000M FBL SHRA CLD BKN 210M T 23 /DP 23 QNH 1004 HPA CAUTION THE BIRDS NEAR THE RUNWAY RWY 35R/35L/34R/34L RWYCC 5/5/5 ISSUED AT 0045 WET/WET/WET DPT NR/NR/NR COV 100PCT/100PCT/100PCT. ADZ YOU HAVE INFO K.\n[Departure ATIS] ZSPD DEP ATIS K 0430Z DEP RWY 35R & 34L WIND RWY 35R TDZ 340/4MPS MID 330/3MPS END 330/4MPS RWY 34L TDZ 350/4MPS MID 360/4MPS END 350/3MPS VIS RWY 35R TDZ 10000M MID 10000M END 10000M VIS RWY 34L TDZ 10000M MID 10000M END 10000M FBL SHRA CLD BKN 210M T 23 /DP 23 QNH 1004 HPA CAUTION THE BIRDS NEAR THE RUNWAY RWY 35R/35L/34R/34L RWYCC 5/5/5 ISSUED AT 0045 WET/WET/WET DPT NR/NR/NR COV 100PCT/100PCT/100PCT. ADZ YOU HAVE INFO K.",
    "ZSSS": "[Arrival ATIS] ZSSS ARR ATIS O 0430Z EXP ILS APCH LDG RWY 36R WIND RWY 36R TDZ 020/4MPS MID 020/4MPS END 030/3MPS VIS RWY 36R TDZ 10000M MID 10000M END 10000M FBL SHRA CLD BKN 300M T 24 /DP 22 QNH 1004 HPA RWY36L RWYCC 5/5/5 ISSUED AT 0300 WET/WET/WET DPT NR/NR/NR COV 100PCT/100PCT/100PCT RWY36R RWYCC 5/5/5 ISSUED AT 0300 WET/WET/WET DPT NR/NR/NR COV 100PCT/100PCT/100PCT QNH OF SHANGHAI TERMINAL CONTROL AREA 1004 HPA ADZ YOU HAVE INFO O.\n[Departure ATIS] ZSSS DEP ATIS N 0400Z DEP RWY 36L WIND RWY 36L TDZ 020/3MPS MID 010/4MPS END 010/3MPS VIS RWY 36L TDZ 10000M MID 10000M END 10000M CLD BKN 300M T 24 /DP 22 QNH 1004 HPA RWY36L RWYCC 5/5/5 ISSUED AT 0300 WET/WET/WET DPT NR/NR/NR COV 100PCT/100PCT/100PCT RWY36R RWYCC 5/5/5 ISSUED AT 0300 WET/WET/WET DPT NR/NR/NR COV 100PCT/100PCT/100PCT QNH OF SHANGHAI TERMINAL CONTROL AREA 1003 HPA ADZ YOU HAVE INFO N.",
    "VHHH": "[Arrival ATIS] VHHH ARR ATIS H 0405Z ARRIVALS, RWY 25R/L. EXP RNAV TRANSITION TO ILS APCH, RWY 25R. EXP ILS APCH, RWY 25L. RNP APCH IS AVBL ON REQ, RWY 25R. CAUTION POSSIBLE GP FLUCTUATION RWY 25L. WIND RWY 25R 230/12KT RWY 25L 250/12KT. VIS RWY 25R 10KM RWY 25L 10KM. CLD FEW 1200FT SCT 2500FT. T32 DP25. QNH 1004HPA. ACK INFO H ON FIRST CTC WITH APP.\n[Departure ATIS] VHHH DEP ATIS W 0407Z DEPARTURES, RWY 25C/L. INDEPENDENT PARALLEL DEPARTURE IN PROGRESS. WIND RWY 25C 240/14KT RWY 25L 240/11KT. VIS RWY 25C 10KM RWY 25L 10KM. CLD FEW 1200FT SCT 2500FT. T32 DP25. QNH 1004HPA. ACK INFO W ON FIRST CTC WITH DELIVERY .",
    "RCTP": "[Arrival ATIS] RCTP ARR ATIS L 0500Z EXP ILS APCH RWY23R FOR ARR. RWY23L FOR DEP. WIND 250/22KT VIS 10 KM OR MORE CLD FEW 2000FT SCT 20000FT T 34 DP 24 QNH 1005HPA NOSIG DUE TO FLOW CONTROL BY MA\n[Departure ATIS] RCTP DEP ATIS L 0200Z EXP ILS APCH RWY23R FOR ARR. RWY23R AND RWY23L FOR DEP. WIND 250/06KT VARYING BTN 210 AND 280 VIS 10 KM OR MORE CLD FEW 2000FT BKN 20000FT T 33 DP 24 QNH 1004HPA NOSIG CTN BIRD ACTIVITY IN THE VCY OF THE AD. DUE TO FLOW CONTROL BY HONGKONG AND FUKUOKA F-I-R, TRAFFIC CONCERNED MAY BE DELAYED. INFORM TAIPEI APCH OR TAIPEI TOWER ON INITIAL CONTACT YOU HAVE INFORMATION L",
    "ZGSZ": "[Arrival ATIS] ZGSZ ARR ATIS O 0430Z EXP ILS APCH 15 EXP ILS OR VIS APCH 16R WIND 180/7MPS VIS 9999M CLD FEW 1500M T 32 /DP 27 QNH 1004 HPA INDEPENDENT PARALLEL DEPARTURES INDEPENDENT PARALLEL APPROACHES MISSED APPROACH ALTITUDE SETTING 1200METERS WHEN AIRBORNE CONTACT ZHUHAI APPROACH EXPECTED RNP ILS DME Z APPROACH ADZ YOU HAVE INFO O.\n[Departure ATIS] ZGSZ DEP ATIS K 0330Z DEP RWY 15 & 16L WIND 170/6MPS VRB BTN 140/ AND 200/ VIS 9999M CLD SCT 600M T 31 /DP 27 QNH 1004 HPA INDEPENDENT PARALLEL DEPARTURES DEPENDENT PARALLEL APPROACHES MISSED APPROACH ALTITUDE SETTING 1200METERS WHEN AIRBORNE CONTACT ZHUHAI APPROACH EXPECTED RNP ILS DME Z APPROACH ADZ YOU HAVE INFO K.",
    "WSSS": "[Arrival ATIS] WSSS ARR ATIS K 0430Z METREPORT 0430Z ILS APCHRWY 20R SIMUL INDEPENDENT ILS AND VISUAL APPROACHES ARE CONDUCTED ON RWY 20. TWY W 9 CLOSED, RWY 02C 20C RAPID EXIT TAXIWAY INDICATOR LIGHTS OFFTAXIING GUIDANCE LIGHTS ON ALL TAXIWAYS ARE ON, FOR LIGHTING INSPECTION, WIND 070/ 05KT VRB BTN320 AND100 VIS 10KM CLD FEW 1800FT T31 DP24 QNH 1010HPA NOSIG ACK ATIS K\n[Departure ATIS] WSSS DEP ATIS M 0400Z METREPORT 0400Z RWY 20C SIMUL INDEPENDENT ILS AND VISUAL APPROACHES ARE CONDUCTED ON RWY 20. TWY W 9 CLOSED, RWY 02C 20C RAPID EXIT TAXIWAY INDICATOR LIGHTS OFFTAXIING GUIDANCE LIGHTS ON ALL TAXIWAYS ARE ON, FOR LIGHTING INSPECTION, WIND 140/ 04KT VRB BTN120 AND270 VIS 10KM CLD FEW 1800FT T31 DP25 QNH 1011HPA NOSIG DEP,INITIAL CMB 3000FT ACK ATIS M",
    "WMKK": "[Arrival ATIS] WMKK ARR ATIS G 0434Z WMKK ARR INFO G. TIME 0430. INDEPENDENT PARALLEL APPROACHES FOR RWY 32 L AND 33 ARE IN PROGRESS. EXP RNAV / ILS APCH FOR RWY 32 RIGHT. EXP RNAV / ILS APCH FOR RWY 33. WIND RWY 32R DIRECTION NOT AVBL SPEED NOT AVBL. WIND RWY 32L DIRECTION NOT AVBL SPEED NOT AVBL. WIND RWY 33 DIRECTION NOT AVBL SPEED NOT AVBL. VIS RWY 32R TDZ NOT AVBL. VIS RWY 33 TDZ NOT AVBL. CLD SCT 1800 FT. T 32. DP 25. QNH 1010. NOSIG. AT FIRST CONTACT WITH LUMPUR RADAR, NOTIFY RCPT OF G\n[Departure ATIS] WMKK DEP ATIS U 1503Z WMKK DEP INFO U. TIME 1500. INDEPENDENT PARALLEL DEPARTURES FOR RWY 32 L AND 33 ARE IN PROGRESS. RWY 32 LEFT. RWY 33. WIND RWY 32L DIRECTION NOT AVBL SPEED NOT AVBL. WIND RWY 33 DIRECTION NOT AVBL SPEED NOT AVBL. VIS RWY 32L TDZ NOT AVBL. VIS RWY 33 TDZ NOT AVBL. CLD FEW CB 1700 FT. T 28. DP 25. QNH 1011. NOSIG. ALL DEP ACFT TO CONTACT LUMPUR DEP AT 135 DECIMAL 25 MHZ WHEN ABN. AT FIRST CONTACT WITH LUMPUR GROUND, NOTIFY RCPT OF U",
    "VTBS": "[Arrival ATIS] VTBS ARR ATIS G 0430Z VTBS ARR ATIS G 0430Z SIMULTANEOUS INDEPENDENT PARL APCH IN PROGRESS EXP ILS Z APCH ARR RWY 19 OR RNP APCH RWY 20R , ,PILOT SHALL ADZ BKK APCH ON INITIAL CTC IF UNA TO CONDUCT RNP APCH DUE TO OPERATIONAL CONSTRAINT 0430Z WIND 320/9KT VRB BTN 240/ AND 330/ VIS 10KM CLD FEW 2000FT T33 DP21 QNH 1009HPA TREND NOSIG ADZ BKK APCH ON INITIAL CONTACT THAT YOU HAVE INFO G\n[Departure ATIS] VTBS DEP ATIS M 0430Z VTBS DEP ATIS M 0431Z SIMULTANEOUS INDEPENDENT PARL DEP IN PROGRESS DEP RWY 20L OR DEP RWY 19 , ,AFT AIRBORNE ALL DEPARTING ACFT SHALL CTC 119.25 0430Z WIND 310/11KT VRB BTN 270/ AND 330/ VIS 10KM CLD FEW 2000FT T33 DP21 QNH 1009HPA TREND NOSIG ADZ GND WHEN INITIAL CONTACT YOU HAVE INFO M",
    "VTBU": "[Arrival ATIS] VTBU ARR ATIS U 0430Z VTBU ARR ATIS U 0430Z RNP RWY 18 TRL FL130 MOBILE ACFT ARST SYSTEM INSTL ATP SIX HUNDRED AND TEN METERS FM THR RWY 36 CABLE HGT 3 INCHES. 0430Z WIND 360/6KT VRB BTN 320/ AND 020/ VIS 10KM CLD FEW 2000FT T34 DP27 QNH 1010HPA TREND NOSIG ADZ CONTROLLER WHEN INITIAL CONTACT YOU HAVE INFO U\n[Departure ATIS] VTBU DEP ATIS D VTBU ARR/DEP DATIS RPT VTBU ARR ATIS D 0330Z ILS \"Z\" APCH RWY 18 TRL FL130 0330Z WIND 110/4KT VRB BTN 350/ AND 120/ VIS 6KM CLD FEW 2000FT T31 DP27 QNH 1014HPA TREND NOSIG ADZ CONTROLLER WHEN INITIAL CONTACT YOU HAVE INFO D",
    "ROAH": "[Arrival ATIS] ROAH ARR ATIS X 0240Z M0230 (APCH)RNP RWY18L USING RWY 18L DEP FREQ 126.5 258.3 M 180230Z 22007KT 15KM FEW006ST SCT020CU BKN/// 30/28 Q1006/A2973= Q/TWO NINE SEVEN THREE STP\n[Departure ATIS] ROAH DEP ATIS R 0411Z M0400 (APCH)RNP RWY18R LDG RWY 18R DEP RWY 18L DEP FREQ 126.5 258.3 M 230400Z 18016KT 25KM FEW015CU SCT020CU BKN/// 31/26 Q1005/A2970= Q/TWO NINE SEVEN ZERO STP",
    "VVDN": "[Arrival ATIS] VVDN ARR ATIS I 0402Z VVDN INFO I 0402Z. ILS VICTOR APPROACH 35L.. DPTG RWY 35R.. 0402Z. WIND VRB/02KT CAVOK T37 DP22 QNH 1004HPA TREND NOSIG. ADZ ON INITIAL CTC YOU HAVE INFO. I.\n[Departure ATIS] VVDN DEP ATIS J 0432Z VVDN INFO J 0432Z. ILS VICTOR APPROACH 35L.. DPTG RWY 35R.. 0432Z. WIND 260/04KT VRB BTN 200/ AND 300/ CAVOK T38 DP23 QNH 1004HPA TREND NOSIG. ADZ ON INITIAL CTC YOU HAVE INFO. J.",
    "RCKH": "[Arrival ATIS] RCKH ARR ATIS W 0430Z EXPECT ILS APPROACH RWY 27 ARR/DEP TAXIWAY JULIETT, TAXIWAY BRAVO, TAXIWAY DELTA AND TAXIWAY ECHO CLOSED DUE MAINTENANCE. RUNWAY 27 ARRIVALS PLAN VACATE VIA CHARLIE OR ALPHA AND EXPEDITE VACATE. WIND 280/11KT VIS 10 KM OR MORE CLD FEW 2400FT SCT 20000FT T 32 DP 24 QNH 1004HPA NOSIG CAUTION BIRD ACTIVITY IN VICINITY OF THE AERODROME. INFORM KAO-HSIUN APCH OR KAO-HSIUN TOWER ON INITIAL CONTACT YOU HAVE INFORMATION W\n[Departure ATIS] RCKH DEP ATIS N 0430Z EXPECT ILS APPROACH RWY 27 ARR/DEP TAXIWAY JULIETT, TAXIWAY BRAVO, TAXIWAY DELTA AND TAXIWAY ECHO CLOSED DUE MAINTENANCE. RUNWAY 2 7 ARRIVALS PLAN VACATE VIA CHARLIE OR",
    "KLAX": "[Arrival ATIS] KLAX ARR ATIS S 0453Z LAX ATIS INFO S 0453Z. 23004KT 10SM FEW012 SCT110 SCT150 22/18 A2998 (TWO NINER NINER EIGHT) RMK AO2 SLP147 T02170183. SIMUL INST APCHS AND RNAV RNP RWYS 24R AND 25L APCHS, SIMUL INSTR DEPARTURES IN PROG RWYS 24 AND 25. CTC L A GC ON 121.75 FOR PUSH OR TAXI ON A. TWY B CLSD BTN TWY, C10 AND TWY C7 , , TWY B6 CLSD, TWY B7 CLSD, TWY C CLSD BTN TWY, C1 AND TWY C3, TWY C1 CLSD, TWY C9 CLSD BTN TWY, B AND TWY C, TWY C8 CLSD BTN TWY, B AND TWY C. PAPI OTS 24R, SEAL BEACH VOR OTS. WIND SHEAR ADZYS IN EFCT. HAZD WX INFO FOR LAX AREA AVBL FM FSS. BIRD ACTIVITY VICINITY ARPT. INCLUDE YOUR CALL SIGN IN ALL READBACKS. USE CAUTION WHEN EXITING RY24R AT TWY V, W, AND Y, TO HOLD SHORT OF RY24L. MULTIPLE RUNWAY INCURSIONS HAVE OCCURRED. ...ADVS YOU HAVE INFO S.\n[Departure ATIS] KLAX DEP ATIS S 0453Z LAX ATIS INFO S 0453Z. 23004KT 10SM FEW012 SCT110 SCT150 22/18 A2998 (TWO NINER NINER EIGHT) RMK AO2 SLP147 T02170183. SIMUL INST APCHS AND RNAV RNP RWYS 24R AND 25L APCHS, SIMUL INSTR DEPARTURES IN PROG RWYS 24 AND 25. CTC L A GC ON 121.75 FOR PUSH OR TAXI ON A. TWY B CLSD BTN TWY, C10 AND TWY C7 , , TWY B6 CLSD, TWY B7 CLSD, TWY C CLSD BTN TWY, C1 AND TWY C3, TWY C1 CLSD, TWY C9 CLSD BTN TWY, B AND TWY C, TWY C8 CLSD BTN TWY, B AND TWY C. PAPI OTS 24R, SEAL BEACH VOR OTS. WIND SHEAR ADZYS IN EFCT. HAZD WX INFO FOR LAX AREA AVBL FM FSS. BIRD ACTIVITY VICINITY ARPT. INCLUDE YOUR CALL SIGN IN ALL READBACKS. USE CAUTION WHEN EXITING RY24R AT TWY V, W, AND Y, TO HOLD SHORT OF RY24L. MULTIPLE RUNWAY INCURSIONS HAVE OCCURRED. ...ADVS YOU HAVE INFO S.",
    "KONT": "[Arrival ATIS] KONT ARR ATIS V 0353Z ONT ATIS INFO V 0353Z. 23008KT 10SM BKN170 26/13 A2996 (TWO NINER NINER SIX). ILS AND VIS APR IN USE, RY26L & RY26R. LNDG AND DEPG RY 26L AND RY 26R. NOTAMS... TAXIWAY SIERRA FIVE CLOSED. TAXIWAY SIERRA CLOSED BETWEEN TAXIWAY SIERRA 8 AND TAXIWAY WHISKEY. RY 26L IM OTS, RY 26R ALS OTS. USE CAUTION FOR NUMEROUS BIRDS OBSERVED IN VICINITY OF ONT. HAZD WX INFO FOR SOUTHERN CA AVBL ON FSS FREQUENCIES. PILOTS READBACK RWY ASSIGNMENTS AND HOLD SHORT INSTRUCTIONS. ...ADVS YOU HAVE INFO V.\n[Departure ATIS] KONT DEP ATIS N 0553Z - KONT ATIS INFO N 0553Z. 24004KT 10SM BKN250 22/15 A2988 (TWO NINER EIGHT EIGHT) RMK AO2 SLP100. ILS AND VIS APR IN USE, RY26L & RY26R. LNDG AND DEPG RY 26L AND RY 26R. NOTAMS... TAXIWAY SIERRA CLSD BETWEEN SIERRA 8 AND W TAXIWAY Q SOUTH OF RWY 26L CLSD TAXIWAY T CLSD TAXIWAY SIERRA 5 CLSD. RY 26L IM OTS, RY 26R ALS OTS. USE CAUTION FOR NUMEROUS BIRDS OBSERVED IN VICINITY OF ONT. HAZD WX INFO FOR SOUTHERN CA AVBL ON FSS FREQUENCIES. PILOTS READBACK RWY ASSIGNMENTS AND HOLD SHORT INSTRUCTIONS. ...ADVS YOU HAVE INFO N.",
    "KSFO": "[Arrival ATIS] KSFO ARR ATIS L 0356Z - KSFO ATIS INFO L 0356Z. 27016KT 10SM FEW006 BKN011 14/12 A2998 (TWO NINER NINER EIGHT). SIMUL CLSLY SPCD DPNDNT ILS RY 28R AND ILS RY 28L APP IN USE. DEPG RWYS 28L, 28R.\n[Departure ATIS] KSFO DEP ATIS O 0156Z SFO ATIS INFO O 0156Z. 25015KT 10SM FEW007 SCT012 16/12 A2996 (TWO NINER NINER SIX). SIMUL CLSLY SPCD DPNDNT ILS RY 28R AND ILS RY 28L APP IN USE. DEPG RWYS 28L, 28R. DEPG ACFT SHOULD BE PREPARED FOR A SHORT NOTICE RY CHANGE. RY 1L, 1R CLSD. NUMEROUS TWY CLOSURES FOR CONSTRUCTION ON THE FIELD, PILOTS CHECK NOTAMS. MULTIPLE CRANES VCY OF SFO CHECK NOTAMS. DEPG ACFT WAITING ON FINAL NUMBERS ADVISE GROUND PRIOR TO ENTERING TWY F. ...ADVS YOU HAVE INFO O.",
    "KOAK": "[Arrival ATIS] KOAK ARR ATIS E 0453Z - KOAK ATIS INFO E 0453Z. 23009KT 10SM FEW007 FEW012 15/12 A2989 (TWO NINER EIGHT NINER). RNAV, AND VA, RWY 30. ILS, AND VA, RWY 28R. FLOW TO LAX, LAS. RWY 28L CLSD. TAXIWAYS G,H,P, CLSD BETWEEN RWYS 28R AND 28L. ILS RWY 30, OTS, RWY 28R RAIL, OTS. UNN LIT CLOSE-IN OBSTACLES FOR RWY 30 DEPARTURES. RWY 30 DEPARTURES ARE ADVISED TO AVOID TURNING LEFT PRIOR TO DEPARTURE END OF RUNWAY. CTN, CRANE 1 POINT 6 NAUTICAL MILES, , AT 140 FEET AGL. CAUTION, BIRDS NEAR AIRPORT. ...ADVS YOU HAVE INFO E.\n[Departure ATIS] KOAK DEP ATIS O 1953Z OAK ATIS INFO O 1953Z. 28014KT 10SM FEW005 22/14 A2988 (TWO NINER EIGHT EIGHT). RNAV Z/VA RWY 30 ILS/VA RWY 28R. FLOW TO LAX, LAS, SAN. ILS RWY 30, OTS. UNN LIT CLOSE-IN OBSTACLES FOR RWY 30 DEPARTURES. RWY 30 DEPARTURES ARE ADVISED TO AVOID TURNING LEFT PRIOR TO DEPARTURE END OF RUNWAY. SIGNATURE UNI-COM OUT OF SERVICE. CAUTION, BIRDS NEAR AIRPORT. ...ADVS YOU HAVE INFO O.",
    "KDFW": "[Arrival ATIS] KDFW ARR ATIS D 2153Z DFW ARR INFO D 2153Z. 19014G24KT 10SM SCT060 SCT180 BKN250 34/19 A3005 (THREE ZERO ZERO FIVE) RMK AO2 SLP166 T03390194. SIMUL APCH IN USE. EXPECT ILS TO RWYS, 13R, 17C, 17L AND ILS RWY 13R, RNAV RWY 18R. LDG RWY 17C EXP LAHSO TWY B 10460 FT AVAIL, LDG RWY 18R EXP LAHSO TWY B 10100 FT AVL. NOTICE TO AIRMEN. WARNING, RWY 18L HAS BEEN SHORTENED, 9273 FT AVAILABLE. RWY 18R ILS OTS. BIRD ACTIVITY VCNTY ARPT. ...ADVS YOU HAVE INFO D.\n[Departure ATIS] KDFW DEP ATIS Q 1153Z DFW DEP INFO Q 1153Z. 18009KT 10SM BKN014 BKN150 BKN250 26/23 A3009 (THREE ZERO ZERO NINER) RMK AO2 SLP180 T02610233 10261 20250 53004. SIMUL PARL TRAFFIC DEPG RWYS 17R, 18L. NOTICE TO AIRMEN. WARNING, RWY 18L HAS BEEN SHORTENED, 9273 FT AVAILABLE. BIRD ACTIVITY VCNTY ARPT. ...ADVS YOU HAVE INFO Q.",
    "KIAH": "[Arrival ATIS] KIAH ARR ATIS S 0353Z IAH ATIS INFO S 0353Z. 17006KT 10SM FEW250 28/24 A3010 (THREE ZERO ONE ZERO) RMK AO2 SLP192 T02830244. ARRIVALS EXPECT ILS OR RNAV Y RY 26L. SIMUL APPROACHES IN USE. DEPG RY 15L. NOTICE TO AIRMEN. UNITED RAMP CONTROL IN EFFECT. RY 9, 27 CLSD, RY 26R, 8L CLSD. BIRD ACTIVITY VICINITY ARPT. CRANES ARE DOWN. TWY SA CLSD BTN TWY, SF AND TWY SK , TWY SB CLSD BTN TWY, SF AND TWY SK , , TWY EA CLSD. NOTAM ATIS IN USE ON FREQUENCY 126.225. ...ADVS YOU HAVE INFO S.\n[Departure ATIS] KIAH DEP ATIS T 0353Z IAH ATIS INFO T 0353Z. 15007KT 10SM FEW035 FEW180 BKN250 27/23 A2996 (TWO NINER NINER SIX). ARRIVALS EXPECT ILS OR RNAV Y RY 8R, ILS OR RNAV Y RY 8L. DEPG RY 15R. NOTICE TO AIRMEN. UNITED RAMP CONTROL IN EFFECT. RY 15L, 33R CLSD. HAZD WX INFO FOR IAH AREA AVBL FM FSS. BIRD ACTIVITY VICINITY ARPT. CRANES ARE DOWN. TWY SA CLSD BTN TWY, SF AND TWY SK , TWY SB CLSD BTN TWY, SF AND TWY SK , , TWY WB CLSD BTN TWY, WG AND TWY WH . TWY EA CLSD. NOTAM ATIS IN USE ON FREQUENCY 126.225. ...ADVS YOU HAVE INFO T.",
    "KORD": "[Arrival ATIS] KORD ARR ATIS F 0351Z ORD ATIS INFO F 0351Z. 01006KT 10SM FEW060 16/08 A3012 (THREE ZERO ONE TWO) RMK AO2 SLP197 T01610083. ARR EXP VECTORS ILS RWY 10C APCH. DEPS EXP RWYS 9C FROM F F 9200 FT AVL. RWY 4L, 22R CLSD, RWY 4R, 22L CLSD, RWY 9L, 27R CLSD, RWY 9R, 27L CLSD, RWY 10R, 28L CLSD. RWY 22L ILS OTS, 28L RWY 28L ILS OTS, RWY 22R LOC OTS, RWY 9L IM OTS, RWY 9C IM OTS, RWY 10L IM OTS, RWY 10R IM OTS, RWY 27R IM OTS, RWY 28L IM OTS, RWY 28R IM OTS, RWY 9L PAPI OTS, RWY 27R PAPI OTS. PILOTS USE CTN FOR BIRD ACTIVITY IN THE VICINITY OF THE ARPT. NOISE ABATEMENT PROCEDURES ARE IN EFFECT. USE CTN FOR PERSONNEL AND EQUIP AT NUMEROUS SITES ON THE FIELD. READBACK ALL RWY HOLD SHORT INSTRUCTIONS. FOR CD GND METERING AND GC CONTACT ORD ON FREQ 121.9. ...ADVS YOU HAVE INFO F.\n[Departure ATIS] KORD DEP ATIS W 0151Z ORD ATIS INFO W 0151Z. 26007KT 10SM FEW045 BKN250 30/22 A2993 (TWO NINER NINER THREE) RMK AO2 SLP127 T03000217. ARR EXP VECTORS ILS RWY 27C APCH, ILS RWY 27R APCH, ILS RWY 28C",
    "KJFK": "[Arrival ATIS] KJFK ARR ATIS J 0551Z - KJFK ATIS INFO J 0551Z. 21009KT 6SM FU BKN250 OVC300 23/21 A3003 (THREE ZERO ZERO THREE) RMK AO2 FU OVC300. APPROACH IN USE RNAV GPS X RY 22L. DEPG RY 22R. RY 13L SFL OTS, RWY 22L/4R INNER MARKER OTS. NUM CRANES OPERATING AT JFK. BIRD ACTIVITY VICINITY ARPT. READBACK ALL RWY ASSIGNMENTS AND HOLD SHORT INSTRUCTIONS. ...ADVS YOU HAVE INFO J.\n[Departure ATIS] KJFK DEP ATIS H 0851Z JFK ATIS INFO H 0851Z. 33008KT 6SM FU OVC040 24/13 A2998 (TWO NINER NINER EIGHT) RMK AO2 FU OVC040. APPROACH IN USE ILS RY 31R, ILS RY 31L. DEPG RY 31L. RY 13L SFL OTS, RWY 22L/4R INNER MARKER OTS. RWY 22L PAPI OTS. NUM CRANES OPERATING AT JFK. BIRD ACTIVITY VICINITY ARPT. READBACK ALL RWY ASSIGNMENTS AND HOLD SHORT INSTRUCTIONS. ...ADVS YOU HAVE INFO H.",
    "KIND": "[Arrival ATIS] KIND ARR ATIS G 0254Z - KIND ATIS INFO G 0254Z. 03006KT 10SM SCT060 BKN110 BKN190 OVC250 28/22 A3007 (THREE ZERO ZERO SEVEN). PARL ILS RWY 5R AND 5L APPROACHES IN USE. CROSS RUNWAY OPERATIONS MAY BE IN EFFECT. NOTICE TO AIRMEN. TWY, P BTN TWY, H AND TWY B CLSD, TWY, P BTN TWY, H AND TWY J CLSD, TWY, H BTN TWY, R AND TWY N CLSD. P PAD CLSD. ILS RUNWAY 5R AND RUNWAY 5L INNER MARKER UNSERVICEABLE. HIWAS. ARPT ADZY FLOCK OF MEDIUM BIRDS IN THE VICINITY OF THE AIRPORT, ALT UNKN. ...ADVS YOU HAVE INFO G.\n[Departure ATIS] KIND DEP ATIS G 0254Z IND ATIS INFO G 0254Z. 03006KT 10SM SCT060 BKN110 BKN190 OVC250 28/22 A3007 (THREE ZERO ZERO SEVEN). PARL ILS RWY 5R AND 5L APPROACHES IN USE. CROSS RUNWAY OPERATIONS MAY BE IN EFFECT. NOTICE TO AIRMEN. TWY, P BTN TWY, H AND TWY B CLSD, TWY, P BTN TWY, H AND TWY J CLSD, TWY, H BTN TWY, R AND TWY N CLSD. P PAD CLSD. ILS RUNWAY 5R AND RUNWAY 5L INNER MARKER UNSERVICEABLE. HIWAS. ARPT ADZY FLOCK OF MEDIUM BIRDS IN THE VICINITY OF THE AIRPORT, ALT UNKN. ...ADVS YOU HAVE INFO G.",
    "KDTW": "[Arrival ATIS] KDTW ARR ATIS C 0053Z DTW ARR INFO C 0053Z. 14004KT 1 3/4SM FU OVC030 26/19 A2998 (TWO NINER NINER EIGHT) RMK AO2 TWR VIS 2 SLP148 FU OVC030 T02560189. SIMUL ILS Z RY 22R AND RY 21L APCH IN USE. SIMULTANEOUS ARRIVAL AND, DEPARTURE OPERATIONS ARE IN USE, ON RY 22R AND RY 22L. NOTICE TO AIRMEN. RWY 21R, 3L CLSD, RWY 27L, 9R CLSD, RWY 27R, 9L CLSD. TWYS Y1 CLSD ;. RY 22L ALS OTS. PILOTS USE CTN FOR BIRD ACTIVITY. DEPARTURE ATIS 118.125. ...ADVS YOU HAVE INFO C.\n[Departure ATIS] KDTW DEP ATIS N 0953Z DTW DEP INFO N 0953Z. 35003KT 1SM R03R/P6000FT FU SCT000 OVC027 22/16 A3004 (THREE ZERO ZERO FOUR) RMK AO2 TWR VIS 2 SLP167 FU SCT000 T02170161. DEPG RWY 4R. . RWY 4R DEPARTURE POINT IS Y 2, DISTANCE REMAINING IS 11, THOUSAND, 450, FT, FULL LENGTH AVAIL UPON REQ ;. NOTICE TO AIRMEN. RWY 21R, 3L CLSD, RWY 27L, 9R CLSD, RWY 27R, 9L CLSD. TWYS Y1 CLSD ;. PILOTS USE CTN FOR BIRD ACTIVITY. TWR AND GC COMB ON FREQ 135.0. ...ADVS YOU HAVE INFO N.",
    "KMSP": "[Arrival ATIS] KMSP ARR ATIS G 0430Z MSP ARR INFO G 0430Z SPECIAL. 33009KT 10SM VCTS FEW031 SCT044CB BKN050 28/24 A2985 (TWO NINER EIGHT FIVE) RMK AO2 LTG DSNT S AND SW OCNL LTGICCC SE MOV SE VCTS SE MOV SE T0\n[Departure ATIS] KMSP DEP ATIS N 0153Z MSP DEP INFO N 0153Z. 23009KT 10SM FEW060 FEW250 32/22 A2983 (TWO NINER EIGHT THREE) RMK AO2 SLP092 TCU DSNT NW-NE T03220217. DEPARTING RWY 30L, RWY 30R, RWY 17. NOTICE TO AIRMEN. TWY R7. R8. R9. R10. CLOSED. TWY R BTWN R6 AND R10 CLSD, TWY A7 CLSD, TWY A CLSD BTN TWY, A7 AND TWY D. ALL ACFT CTC METERING ON ONE THREE THREE POINT FIVE SEVEN WHEN READY TO PUSHBACK OR TAXI. CTN, BIRDS NEAR MSP. UNAUTH LASER ILLUMINATION EVENT AT 0240Z , 7 SOUTHWEST OF MSP, GREEN LASER, FROM THE NORTH. READ BACK HS AND ALT. ALL ACFT TAXI WITH TRANSPONDER AND ALTITUDE ENCODING ON. ...ADVS YOU HAVE INFO N.",
    "CYEG": "[Arrival ATIS] CYEG ARR ATIS M 0500Z CYEG ARR ATIS M 0500Z 11011G17KT 15SM FEW100 CIG BKN250 22/16 A2990 APCH RNAV Z OR Y RWY 02, INFORM ARRL OF REQ APCH ON INITIAL CTC. LDG AND DEP RWY 02. SIMUL APPROACHES MAY BE IN EFCT. INFORM CYEG ATC INFO M\n[Departure ATIS] CYEG DEP ATIS M 0500Z CYEG ARR ATIS M 0500Z 11011G17KT 15SM FEW100 CIG BKN250 22/16 A2990 APCH RNAV Z OR Y RWY 02, INFORM ARRL OF REQ APCH ON INITIAL CTC. LDG AND DEP RWY 02. SIMUL APPROACHES MAY BE IN EFCT. INFORM CYEG ATC INFO M",
    "EHAM": "[Arrival ATIS] EHAM ARR ATIS D 0450Z EHAM ARRIVAL INFO D. DEMAND. MAIN LANDING RWY 06. SECONDARY LANDING RWY 36 R. TRANSITION LEVEL 040. WIND 030 DEG, 7 KT, VRB BTN 330 AND 070 DEG, 13 KT MAX, 5 KT MNM. WIND SECONDARY RUNWAY 040 DEG, 9 KT, 10 KT MAX, 4 KT MNM. CAVOK. T 17. DP 13. QNH 1023 HPA. NOSIG. OPERATIONAL REPORT. CONVERGING APPROACHES IN PROGRESS. CONTACT APCH WITH CALLSIGN ONLY. END OF INFO D\n[Departure ATIS] EHAM DEP ATIS Z 1529Z EHAM DEPARTURE INFO Z. DEMAND. MAIN DEPARTURE RWY 36 L. MAIN LANDING RWY 36 R. WIND 320 DEG, 11 KT, VRB BTN 280 AND 360 DEG. VIS 10 KM OR MORE. CLD FEW 2500 FT. T 21. DP 14. QNH 1014 HPA. OPERATIONAL REPORT. INFORM SCHIPHOL DEL BY VOICE IF UNABLE TO COMPLY WITH NADP 2. END OF INFO Z",
    "EBBR": "[Arrival ATIS] EBBR ARR ATIS X 0450Z EBBR NAT, EXP VECT FOR ILS APP ARR RWY01 RSCD AT 0316 RWY01 DRY. DEP RWY07R TRL 055 TWY OUTER 6 B3 CLSD. XNG RWY OPS INPR 050/6KT CAVOK T19 DP17 QNH 1022HPA NOSIG CFM ARR X\n[Departure ATIS] EBBR DEP ATIS S 0350Z EBBR NAT, DEP RWY25R RSCD AT 0319 RWY25R DRY. ARR RWY25L TRL 055 B3 CLSD 310/5KT VIS ABV 10KM BKN1900FT T17 DP13 QNH 1017HPA NOSIG CFM DEP S",
    "EDDF": "[Arrival ATIS] EDDF ARR ATIS I 0550Z -ARR-ATIS EDDF I METAR 180550 -EXPECT INDEPENDENT PARALLEL ILS Y APCH RWY 25R OR ILS APCH RWY 25L -RWY 25R 25L -GLS APCH ON REQUEST , DO NOT MISTAKE TWY M FOR RWY 25C WHEN PERFORMING VISUAL APPROACH , -TRL 60 - -31005KT 270V340 -CAVOK - - -T19 DP15 -QNH1015 - -TREND NOSIG\n[Departure ATIS] EDDF DEP ATIS E 1720Z -DEP-ATIS EDDF E METAR 171720 - -RWY 25C 18 -RWY COND AT TIME 0930 : ALL RWYS DRY , RWYCC 6 , ALL DEPARTING ACFT VIA OBOKA , MARUN AND TOBAK EXPECT SID WITH DESIGNATOR F OR G , -TRL 70 - -19011KT RWY18 18008KT -9999 - --SHRA FEW///TCU -T23 DP17 -QNH1012 - -TREND NOSIG",
    "EDDL": "[Arrival ATIS] EDDL ARR ATIS J 0420Z -ATIS EDDL J METAR 170420 -EXPECT VECTORS ILS APPROACH RWY05L -RWY 05R 05L -ATTENTION, RISK OF TWY INCURSION WHEN TAXIING TO RWY05R, CHECK HOT SPOTS T1 AND L9 ON TAXI CHART -TRL 70 -EXPECT INTENSE BIRD ACTIVITY IN THE VICINITY OF RWY SYSTEM -03003KT -CAVOK - - -T17 DP14 -QNH1012 - -TREND NOSIG\n[Departure ATIS] EDDL DEP ATIS R EDDL ARR/DEP DATIS RPT -ATIS EDDL R METAR 020550 -EXPECT VECTORS ILS APPROACH -RWY 23L -TWY L8 CLOSED BETWEEN TWY M AND RWY 23L -TRL 60 - -23010KT -CAVOK - - -T19 DP13 -QNH1020 - -TREND NOSIG",
    "EDDK": "[Arrival ATIS] EDDK ATIS T 0020Z -ATIS EDDK T METAR 180020 -EXPECT CDO FOR ILS APCH -RWY 31R 24 -RWY COND RWY 31R AT TIME 0010 RWYCC 6 DEPOSIT TOTAL RWY DRY RWY 24 AT TIME 0010 RWYCC 6 DEPOSIT TOTAL RWY DRY -TRL 60 -RWY 13R AND RWY 31L CLOSED FOR DEPARTURE AND LANDING: TAXIING BTN THR RWY 13R AND INTERSECTION RWY 24 POSSIBLE : -31006KT 260V350 -9999 - -SCT035 -T18 DP14 -QNH1015 - -TREND NOSIG\n[Departure ATIS] EDDK DEP ATIS E 2050Z -ATIS EDDK E METAR 142050 -EXPECT CDO FOR ILS APCH RWY 31R -RWY 31R 06 -RWY COND RWY 31R AT TIME 1837 RWYCC 6 DEPOSIT TOTAL RWY DRY RWY 06 AT TIME 1837 RWYCC 6 DEPOSIT TOTAL RWY DRY -TRL 60 -RWY 13R AND RWY 31L CLOSED FOR DEPARTURE AND LANDING: TAXIING BTN THR RWY 13R AND INTERSECTION RWY 24 POSSIBLE : -02006KT 350V050 -CAVOK - - -T23 DP14 -QNH1018 - -TREND NOSIG",
    "EBLG": "[Arrival ATIS] EBLG ATIS L 0420Z EBLG INFO, EXP RNAV TO ILS APP ARR RWY04R DEP RWY04R RWY 04R DRY, RWYCC 666. TRL 055 TWY A4 DISPLACED 110/7KT VRB BTN 060 AND 120 CAVOK T20 DP18 QNH 1022HPA NOSIG CFM ATIS L",
    "LSZH": "[Arrival ATIS] LSZH ARR ATIS A 0550Z ARRIVALS, EXP ILS APCH, RWY 34. TRL 70. SOUTHBOUND AND WESTBOUND DEPARTURES : EXP RWY 28. NORTHBOUND AND EASTBOUND DEPARTURES : EXP RWY 32. WIND VRB, 2 KT. CAVOK. T 20. DP 17. QNH 1017. NOSIG.\n[Departure ATIS] LSZH DEP ATIS P 1550Z DEP RWY 32. TRL 70. ARRIVALS, EXP RNP APCH, RWY 28. TMA S 1 IS ACT. TMA S 2 AND S 3 ARE ACT. WIND 310 DEG, 11 KT. VIS 10 KM OR MORE. VCSH. CLD FEW TCU 5500 FT. T 27. DP 18. QNH 1014. NOSIG.",
    "LIMC": "[Arrival ATIS] LIMC ARR ATIS R 0520Z LIMC ARR R 0520Z I.L.S. ZULU RWY IN USE 35R RCR AT 0314Z 5/5/5 WET WET WET TL 70 WIND TDZ VRB2KT VRB BTN 280/AND 030/ VIS 10KM CLD SCT 8000FT T19 DP19 QNH 1016HPA QFE 0990HPA\n[Departure ATIS] LIMC DEP ATIS T 1950Z LIMC DEP T 1950Z RWY IN USE 35L TL 70 WIND END 360/4KT CAVOK T27 DP18 QNH 1016HPA QFE 0990HPA DATALINK CLEARANCE AVAILABLE.... CONTACT 1 3 1 8 8 0 TO BE RELEASED BY THE AIRPORT OPERATOR ...",
    "LIRF": "[Arrival ATIS] LIRF ARR ATIS A 0550Z LIRF ARR A 0550Z RWY 16L ILS W RWY 16R ILS Z RWY IN USE 16L 16R TL 70 DEPENDENT PARL ILS APCH INPR RWY IN USE 16R OR 16L ASSIGNED BY ROME RADAR WIND RWY 16L TDZ 160/6KT RWY 16R TDZ 150/8KT VIS RWY 16L 2500M RWY 16R 6KM BCFG CLD RWY 16L BKN 300FT RWY 16R SCT 300FT T27 DP26 QNH 1014HPA\n[Departure ATIS] LIRF DEP ATIS G 0220Z LIRF DEP G 0220Z RWY IN USE 25 TL 75 RWY IN USE FOR ARR 16L WIND END 340/3KT VRB BTN 300/AND 360/ VIS 8KM CLD SCT 800FT T24 DP24 QNH 1012HPA REA IS SENT AUTOMATICALLY ONCE RLSD BY RAMP WHEN READY CONTACT FIUME RAMP 121.725",
    "EINN": "[Arrival ATIS] EINN ARR ATIS A 0530Z EXPECT I L S CATEGORY 1 LDG RWY06 TKOF RWY06 TRL FL060 35004KT 9999 FEW015 11/10 QNH Q1024 TREND NOSIG ADVISE AT FIRST CONTACT YOU HAVE ATIS INFO A",
    "EGLL": "[Arrival ATIS] EGLL ARR ATIS A 0550Z LANDING RWY 09L TRANSITION-LEVEL: FL 70 RUNWAY 09L REDUCED DECLARED DISTANCES IF STAND GUIDANCE IS OFF OR FAILS, REMAIN ON THE TAXIWAY CENTRELINE AND ADVISE ATC AUTO 02005KT 340V050 9999 SCT015 16/12 Q1019 ACKNOWLEDGE RECEIPT OF INFORMATION A\n[Departure ATIS] EGLL DEP ATIS T 1250Z DEPARTURE RWY 27L RUNWAY 27R REDUCED DECLARED DISTANCES WITH TAKE OFF RUN AVAILABLE 3362METRES AND LANDING DISTANCE AVAILABLE 3362METRES PILOTS THAT ARE IN RECEIPT OF DATALINK CLEARANCES ARE REMINDED THEY MUST CONTACT DELIVERY ON 121.980 WHEN READY FOR START AUTO 30013KT 290V350 9999 NCD 28/11 Q1016 ACKNOWLEDGE RECEIPT OF INFORMATION T AND REPORT AIRCRAFT TYPE AND CURRENT QNH ON FIRST CONTACT WITH HEATHROW",
    "EPWA": "[Arrival ATIS] EPWA ARR ATIS D 0546Z EPWA ARR D. TIME 0544. EXP N ARR ILS Z APCH FOR RWY 11. TRANSITION LEVEL 80. WIND 150 DEG, 4 KT. CAVOK. T 23. DP 16. QNH 1017. NOSIG. CAUTION. BIRD ACT. END OF EPWA ARR D\n[Departure ATIS] EPWA DEP ATIS Q 0444Z EPWA DEP Q. TIME 0444. DEP RWY 29. ARR RWY 33, EXP U ARR ILS Z. REPORT READY FOR STARTUP ON DELIVERY 121 DECIMAL 605. RWY 29 RCC 5, 5, 5. 1ST PART, WET. 2ND PART, WET. 3RD PART, WET. RWY REPORT END. TRANSITION LEVEL 80. WIND 170 DEG, 4 KT. VIS MID 10 KM OR MORE. CLD FEW 1500 FT. T 19. DP 19. QNH 1008. NOSIG. CAUTION. BIRD ACT. END OF EPWA DEP Q",
    "EFHK": "[Arrival ATIS] EFHK ARR ATIS T 0450Z EXPECT ILS APCH ARR RWY 15 RUNWAY 15 CONDITION REPORT AT 0207 UTC RUNWAY CONDITION CODES 6 , 6 , 6 CONTAMINANTS ALL PARTS DRY TRL 65 WIND 150 DEG 8 KT CAVOK T 20 DP 17 QNH 1008 TEMPO CLD FEW CB 4000 FT. ACK INFO T\n[Departure ATIS] EFHK DEP ATIS S 0251Z DEP RWYS 22R AND 22L RUNWAY 22R CONDITION REPORT AT 0250 UTC RUNWAY CONDITION CODES 6 , 6 , 6 CONTAMINANTS ALL PARTS DRY RUNWAY 22L CONDITION REPORT AT 0249 UTC RUNWAY CONDITION CODES 6 , 6 , 6 CONTAMINANTS ALL PARTS DRY WIND 290 DEG 5 KT CAVOK T 11 DP 6 QNH 1020 NOSIG ACK INFO S",
    "LTAC": "[Arrival ATIS] LTAC ARR ATIS S 0520Z EXP ILS V APCH 03C DEP RWY 03L RWY 03C WIND 030 DEG 08 KT VRB BTN 010 DEG AND 070 DEG RWY 03L WIND 040 DEG 08 KT VRB BTN 020 DEG AND 080 DEG TRL 110 CAVOK T 21 DP 11 QNH 1015 NOSIG FOR DELIVERY CTC 121.9. FOR DELIVERY FIRST USE DIGITAL DEP CLR. CTN BIRD HAZARD OVR AERODROME. APCH FREQUENCY 129.050. END OF ATIS S",
    "UBBB": "[Arrival ATIS] UBBB ARR ATIS K 0230Z ATIS K EXP ILS/ LDG 34 35 DEP 34 35 IN USE RWY 34 CLEAR DRY 70 RWY 35 CLEAR DRY 70 TLVL 110 WIND WIND RWY 34 330 8 KT SPD MAX 10 MIN 6 WIND RWY 35 340 8 KT SPD MAX 10 MIN 6 VIS CAVOK T 26 / DP 22 QNH 1009 HPA TREND TREND NOSIG MODERATE BIRDS ACT IN VICINITY OF AP END OF ATIS K\n[Departure ATIS] UBBB DEP ATIS N 0400Z ATIS N EXP ILS/ LDG 34 35 DEP 34 35 IN USE RWY 34 CLEAR DRY 70 RWY 35 CLEAR DRY 70 TLVL 110 WIND WIND RWY 34 350 16 KT SPD MAX 20 MIN 10 WIND RWY 35 340 16 KT SPD MAX 18 MIN 10 VIS CAVOK T 28 / DP 19 QNH 1009 HPA TREND TREND NOSIG MODERATE BIRDS ACT IN VICINITY OF AP END OF ATIS N",
    "ZWWW": "[Arrival ATIS] ZWWW ARR ATIS O 0430Z EXP ILSDME Z APCH LDG RWY 26R TA 3000 WIND 300/6MPS VIS 9999M CLD FEW TCU 1200M T 31 /DP 05 QNH 1007 HPA ADZ YOU HAVE INFO O.\n[Departure ATIS] ZWWW DEP ATIS N 0530Z DEP RWY 26L TA 3000 WIND VRB/1MPS CAVOK T 39 /DP 06 QNH 1009 HPA ADZ YOU HAVE INFO N.",
    "ZLXY": "[Arrival ATIS] ZLXY ARR ATIS Y 0400Z EXP ILS APCH LDG RWY 05L & 06R WIND 060/4MPS VRB BTN 030/ AND 090/ VIS 9999M CLD FEW 1800M T 27 /DP 19 QNH 1007 HPA VISUAL APPROACH IN PROGRESS ADZ YOU HAVE INFO Y.\n[Departure ATIS] ZLXY DEP ATIS X 0300Z DEP RWY 05L & 06L WIND 060/4MPS VIS 9999M CLD FEW 2100M T 26 /DP 18 QNH 1007 HPA VISUAL APPROACH IN PROGRESS ADZ YOU HAVE INFO X.",
    "ZBAA": "[Arrival ATIS] ZBAA ARR ATIS W 0538Z EXP ILS APCH DEPENDENT PARL INSTR APCH LDG RWY 36L & 36R & 01 WIND 140 DEG 3 MPS 100V210 DEG CAVOK T 31 /DP 22 QNH 1001 HPA ADZ YOU HAVE INFO W.\n[Departure ATIS] ZBAA DEP ATIS A 0430Z DEP RWY 36L & 36R & 01 WIND VRB DEG 1 MPS CAVOK T 25 /DP 16 QNH 1008 HPA RWY INDEPENDENT PARALLEL DEP ADZ YOU HAVE INFO A.",
    "ZBHH": "[Arrival ATIS] ZBHH ARR ATIS M 0300Z EXP ILSDME APCH LDG RWY 26 TA 3000 /TRL 3600 WIND 330/6MPS VRB BTN 270/ AND 340/ CAVOK T 24 /DP 05 QNH 1010 HPA ADZ YOU HAVE INFO M.\n[Departure ATIS] ZBHH DEP ATIS Q 1500Z DEP RWY 08 TA 3000 /TRL 3600 WIND 140/2MPS VIS 5000M BR NSC T 19 /DP 19 QNH 1007 HPA ADZ YOU HAVE INFO Q.",
    "ZSQD": "[Arrival ATIS] ZSQD ARR ATIS Z 0400Z EXP ILSDME APCH LDG RWY 17 TA 3000 /TRL 3600 WIND 170/6MPS VRB BTN 140/ AND 200/ VIS 9999M CLD SCT 990M T 27 /DP 17 QNH 1009 HPA SEGREGATED OPERATION VISUAL APPROACH OPERATION IN PROGRESS. RUNWAY 17,IF MISSED APPROACH,EXPECT FOLLOW THE STANDARD MISSED APPROACH PROCEDURE,CLIMB TO 900M ON QNH OR BY ATC CAUTION MAYBE THERE IS A FLOCK OF BIRDS IN THE VICINITY OF AIRPORT ADZ YOU HAVE INFO Z.\n[Departure ATIS] ZSQD DEP ATIS V 0000Z DEP RWY 16 TA 3000 /TRL 3600 WIND 110/4MPS VRB BTN 080/ AND 140/ VIS 9999M CLD SCT 600M T 24 /DP 19 QNH 1008 HPA SEGREGATED OPERATION VISUAL APPROACH OPERATION IN PROGRESS. RUNWAY 17,IF MISSED APPROACH,EXPECT FOLLOW THE STANDARD MISSED APPROACH PROCEDURE,CLIMB TO 900M ON QNH OR BY ATC CAUTION MAYBE THERE IS A FLOCK OF BIRDS IN THE VICINITY OF AIRPORT ADZ YOU HAVE INFO V."
  },
  "windtemp_alaska": "\n000\nFBAK31 KWNO 180159\nFD1AK1\nDATA BASED ON 180000Z    \nVALID 180600Z   FOR USE 0200-0900Z. TEMPS NEG ABV 24000\n\nFT  3000    6000    9000   12000   18000   24000  30000  34000  39000\nADK 3524 3329+04 3334+01 3241-03 3253-16 3272-26 339638 840245 337848\nADQ 2105 1810+00 2217-04 2221-08 2441-15 2658-25 266441 267250 255753\nAKN 1615 1716-02 1816-06 1818-10 2225-18 2449-27 247742 248351 234147\nANC 9900 1608+01 1608-05 9900-11 2218-21 2532-32 276444 264946 242843\nANN 3005 2809+10 2711+06 2712+01 2415-13 2116-25 211840 211749 221755\nBET 9900 1413-02 1217-07 1212-11 1408-22 2318-32 233347 222945 241241\nBRW 0923 0718+04 0617-01 0619-07 0624-18 0629-30 063046 072353 091744\nBTI 0910 1305+04 2405-01 2006-06 1415-18 1718-29 213046 192250 171743\nBTT 2406 2407+02 2307-03 1606-09 1313-22 1123-35 143047 132243 141940\nCDB 2037 2041+02 2143+00 2143-05 2253-17 2270-27 219441 229149 234545\nCZF 0510 0708-01 0709-07 0713-12 0616-24 0106-34 290547 320542 320539\nEHM 1324 1327-02 1326-07 1421-10 2018-19 1927-32 216043 224845 222342\nFAI 9900 9900+03 2310-04 2210-10 1709-24 1521-36 153446 172642 182140\nFYU 9900 9900+04 9900-02 1609-08 1633-20 1639-31 165846 175147 162643\nGAL 1611 1714+00 1714-06 1516-12 1218-24 1115-36 151046 160541 140739\nGKN 1714 1914+03 1713-04 1615-10 1929-21 2139-32 223746 213144 212642\nHOM 2105 2206+00 1909-05 2011-09 2322-18 2540-28 267242 277550 253745\nJNU 2305 2313+06 2219+02 2125-03 1942-16 1849-27 175540 175248 194051\nLUR 0521 0517+04 0518-01 0520-07 0624-20 0729-31 073246 073253 072243\nMCG 2012 2110+00 2111-06 2012-12 1914-25 2211-35 252545 242342 221340\nMDO 9900 9900+00 2208-03 2314-07 2419-18 2730-30 298242 296048 262745\nOME 9900 9900+01 0307-04 0209-10 0315-24 0422-35 052647 061942 050840\nORT      3506+05 3308-02 2207-08 1826-20 1939-31 186844 186647 193443\nOTZ 1011 0812+02 0714-03 0715-09 0725-22 0737-35 075947 073445 071440\nSNP 0335 0334-03 0241-07 0335-11 0319-21 0121-33 362042 342337 342438\nTKA 9900 1913+00 1914-05 1714-11 1816-24 2223-35 253945 243143 232441\nUNK 9900 0907-01 1109-05 1109-11 0705-24 9900-38 990045 090539 990039\nYAK 1508 1705+01 2111-02 2018-06 1716-20 1629-31 156042 165044 192744\nIKO 3034 2933+01 2841-01 2848-06 2657-19 2663-31 255739 264739 273640\nAFM 1506 1506+02 1306-03 1210-09 0928-22 0734-35 075448 082743 101740\n5AB 3310 3316+09 3230+05 3235+00 3247-10 3354-20 356834 358442 359353\n5AC 3122 3125+10 2923+06 2925+01 2725-14 2626-26 243640 243748 262855\n5AD 2714 2719+04 2725+01 2732-03 2844-12 2844-24 284940 295850 305156\n5AE 2124 2323+01 2430-02 2541-04 2446-14 2447-25 244940 245249 245456\n5AF 2917 2619+05 2423+01 2428-02 2337-16 2341-29 244143 223946 233546\n5AG 2613 2713+02 2615-01 2717-06 2723-18 2725-31 294244 273343 252543\n",
  "vaac_tokyo": [
    {
      "id": "20260718_30027000_0268",
      "year": "2026",
      "volcano": "Sheveluch",
      "psn": "N5639 E16122",
      "issued": "20260718",
      "text": "FVFE01 RJTD 180000\nVA ADVISORY\nDTG: 20260718/0000Z\nVAAC: TOKYO\nVOLCANO: SHEVELUCH 300270\nPSN: N5639 E16122\nAREA: RUSSIA\nSOURCE ELEV: 3283M AMSL\nADVISORY NR: 2026/268\nINFO SOURCE: KVERT HIMAWARI-9\nERUPTION DETAILS: VA CONTINUOUSLY OBS IN SATELLITE IMAGERY\nOBS VA DTG: 17/2320Z\nOBS VA CLD: SFC/FL290 N5601 E16322 - N5605 E16357 - N5546 E16401 - \nN5544 E16326 MOV SE 25KT\nFCST VA CLD +6 HR: 18/0520Z SFC/FL300 N5529 E16617 - N5404 E16714 - \nN5357 E16639 - N5527 E16530\nFCST VA CLD +12 HR: 18/1120Z SFC/FL300 N5352 E17006 - N5152 E17037 - \nN5152 E16936 - N5344 E16817\nFCST VA CLD +18 HR: NO VA EXP\nRMK: SOME PART OF VA OBSCURED BY MET CLOUD.\nNXT ADVISORY: 20260718/0600Z=",
      "img_url": "https://ds.data.jma.go.jp/svd/vaac/data/VAGFN/2026/Images/20260718_30027000_0268_QH21_01.png",
      "sat_img_url": "https://ds.data.jma.go.jp/svd/vaac/data/Sat/2026/Images/30027000/09-ir/20260717_2320_202607180000_ir.png",
      "text_url": "https://ds.data.jma.go.jp/svd/vaac/data/TextData/2026/20260718_30027000_0268_Text.html"
    },
    {
      "id": "20260717_27303000_0761",
      "year": "2026",
      "volcano": "Mayon",
      "psn": "N1315 E12341",
      "issued": "20260717",
      "text": "FVFE01 RJTD 172222\nVA ADVISORY\nDTG: 20260717/2222Z\nVAAC: TOKYO\nVOLCANO: MAYON 273030\nPSN: N1315 E12341\nAREA: PHILIPPINES\nSOURCE ELEV: 2462M AMSL\nADVISORY NR: 2026/761\nINFO SOURCE: HIMAWARI-9 PHIVOLCS\nERUPTION DETAILS: ERUPTION AT 20260717/2208Z FL100 EXTD SSE REPORTED\nOBS VA DTG: 17/2210Z\nOBS VA CLD: VA NOT IDENTIFIABLE FM SATELLITE DATA WIND FL100 360/6KT\nFCST VA CLD +6 HR: NOT AVBL\nFCST VA CLD +12 HR: NOT AVBL\nFCST VA CLD +18 HR: NOT AVBL\nRMK: WE WILL ISSUE FURTHER ADVISORY IF VA IS DETECTED IN SATELLITE \nIMAGERY.\nNXT ADVISORY: NO FURTHER ADVISORIES=",
      "img_url": "https://ds.data.jma.go.jp/svd/vaac/data/VAGFN/2026/Images/20260717_27303000_0761_QH21_01.png",
      "sat_img_url": null,
      "text_url": "https://ds.data.jma.go.jp/svd/vaac/data/TextData/2026/20260717_27303000_0761_Text.html"
    },
    {
      "id": "20260717_27307000_0014",
      "year": "2026",
      "volcano": "Taal",
      "psn": "N1400 E12100",
      "issued": "20260717",
      "text": "FVFE01 RJTD 171113\nVA ADVISORY\nDTG: 20260717/1113Z\nVAAC: TOKYO\nVOLCANO: TAAL 273070\nPSN: N1400 E12100\nAREA: PHILIPPINES\nSOURCE ELEV: 311M AMSL\nADVISORY NR: 2026/14\nINFO SOURCE: HIMAWARI-9 PHIVOLCS\nERUPTION DETAILS: ERUPTION AT 20260717/1051Z FL040 EXTD E REPORTED\nOBS VA DTG: 17/1100Z\nOBS VA CLD: VA NOT IDENTIFIABLE FM SATELLITE DATA WIND FL040 270/8KT\nFCST VA CLD +6 HR: NOT AVBL\nFCST VA CLD +12 HR: NOT AVBL\nFCST VA CLD +18 HR: NOT AVBL\nRMK: WE WILL ISSUE FURTHER ADVISORY IF VA IS DETECTED IN SATELLITE \nIMAGERY.\nNXT ADVISORY: NO FURTHER ADVISORIES=",
      "img_url": "https://ds.data.jma.go.jp/svd/vaac/data/VAGFN/2026/Images/20260717_27307000_0014_QH21_01.png",
      "sat_img_url": null,
      "text_url": "https://ds.data.jma.go.jp/svd/vaac/data/TextData/2026/20260717_27307000_0014_Text.html"
    },
    {
      "id": "20260713_28208001_0083",
      "year": "2026",
      "volcano": null,
      "psn": "N3136 E13039",
      "issued": "20260713",
      "text": "FVFE01 RJTD 130254\nVA ADVISORY\nDTG: 20260713/0254Z\nVAAC: TOKYO\nVOLCANO: SAKURAJIMA (AIRA CALDERA) 282080\nPSN: N3136 E13039\nAREA: JAPAN\nSOURCE ELEV: 1117M AMSL\nADVISORY NR: 2026/83\nINFO SOURCE: JMA HIMAWARI-9\nERUPTION DETAILS: ERUPTED AT 20260713/0152Z FL100 EXTD N\nOBS VA DTG: 13/0230Z\nOBS VA CLD: SFC/FL100 N3136 E13039 - N3142 E13040 - N3141 E13044 - \nN3134 E13042 MOV NE 15KT\nFCST VA CLD +6 HR: 13/0830Z SFC/FL100 N3234 E13121 - N3145 E13155 - \nN3202 E13110 - N3227 E13051\nFCST VA CLD +12 HR: 13/1430Z SFC/FL100 N3318 E13206 - N3142 E13317 - \nN3134 E13226 - N3312 E13118\nFCST VA CLD +18 HR: NO VA EXP\nRMK: NIL\nNXT ADVISORY: 20260713/0600Z=",
      "img_url": "https://ds.data.jma.go.jp/svd/vaac/data/VAGFN/2026/Images/20260713_28208001_0083_QH21_01.png",
      "sat_img_url": "https://ds.data.jma.go.jp/svd/vaac/data/Sat/2026/Images/28208001/09-ir/20260713_0230_202607130254_ir.png",
      "text_url": "https://ds.data.jma.go.jp/svd/vaac/data/TextData/2026/20260713_28208001_0083_Text.html"
    }
  ],
  "vaac_alaska": [
    {
      "text": "\n000\nFVAK21 PAWU 180008\nVAAAK1\nVA ADVISORY\n\nDTG: 20260718/0000Z\n\nVAAC: ANCHORAGE\n\nVOLCANO: SHEVELUCH 300270\n\nPSN: N5639 E16122\n\nAREA: KAMCHATKA PENINSULA\n\nSOURCE ELEV: 10771 FT AMSL\n\nADVISORY NR: 2026/205\n\nRMK: PLEASE SEE FVFE01 RJTD ISSUED BY VAAC TOKYO WHICH DESCRIBES\nCONDITIONS NEAR THE VAAC ANCHORAGE AREA OF RESPONSIBILITY...BS\n\n\n\n",
      "issued": "2026-07-18T00:08:00+00:00",
      "volcano": "Sheveluch",
      "psn": "N5639 E16122"
    }
  ]
}