{
  "updated_utc": "2026-07-14T06:06Z",
  "metar": {
    "RJAA": "METAR RJAA 140430Z 13008KT 9999 FEW030 BKN/// 30/24 Q1006 NOSIG",
    "PANC": "METAR PANC 140453Z 15015G27KT 10SM BKN060 OVC070 14/08 A3007 RMK AO2 PK WND 18032/0438 SLP182 T01440083",
    "PAFA": "METAR PAFA 140453Z 07004KT 10SM FEW045 FEW080 SCT110 BKN200 17/09 A2993 RMK AO2 SLP138 CB DSNT E-SE MOV NE T01720094 $",
    "PAED": "METAR PAED 140455Z 34009KT 10SM FEW012 FEW045 OVC055 14/10 A3006 RMK AO2A LTG DSNT S SLP175 T01380104 $",
    "KSEA": "METAR KSEA 140453Z 35008KT 10SM SCT220 20/02 A3004 RMK AO2 SLP177 T02000017",
    "ZSPD": "METAR ZSPD 140430Z 19006MPS CAVOK 35/26 Q1004 NOSIG",
    "ZSSS": "SPECI ZSSS 140422Z 28004MPS 160V320 CAVOK 36/25 Q1003 NOSIG",
    "RJFR": "METAR RJFR 140500Z 09006KT 9999 FEW030 BKN045 31/26 Q1008",
    "VHHH": "SPECI VHHH 140428Z 15011KT 110V180 9999 SHRA FEW008 SCT017 28/26 Q1001 NOSIG",
    "RCTP": "METAR RCTP 140430Z 34007KT 300V020 9999 FEW020 BKN150 33/27 Q1009 NOSIG RMK A2980",
    "ZGSZ": "METAR ZGSZ 140500Z 10006MPS 060V120 9999 FEW016 SCT023 31/26 Q1001 NOSIG",
    "WSSS": "METAR WSSS 140430Z 13010KT 9999 FEW020 BKN300 32/24 Q1011 NOSIG",
    "WMKK": "METAR WMKK 140430Z 14006KT 080V250 9000 VCSH SCT018 31/25 Q1010 NOSIG",
    "WIDD": "METAR WIDD 140430Z 14008KT 080V210 9999 SCT014 32/25 Q1011 NOSIG",
    "VTBS": "METAR VTBS 140430Z 23011KT 9999 FEW020 SCT035 32/22 Q1008 NOSIG",
    "VTBU": "METAR VTBU 140430Z 23012KT 190V260 9999 FEW020 SCT100 31/27 Q1009 NOSIG",
    "ROAH": "METAR ROAH 140430Z 18012KT 9999 FEW010 SCT/// 30/25 Q1011",
    "VVDN": "METAR VVDN 140430Z 25005KT 9999 FEW020 SCT060 34/22 Q1004 NOSIG",
    "RCKH": "SPECI RCKH 140407Z 16014G27KT 130V200 3000 -SHRA SCT009TCU SCT010 BKN014 BKN022 27/25 Q1009 TEMPO 1500 SHRA RMK TCU SE A2982",
    "KLAX": "METAR KLAX 140453Z 25008KT 10SM BKN008 20/18 A2997 RMK AO2 SLP146 T02000178 $",
    "KONT": "METAR KONT 140453Z 23008KT 10SM FEW160 FEW250 24/16 A2998 RMK AO2 SLP136 T02390156 $",
    "KSFO": "METAR KSFO 140456Z 30011KT 10SM FEW170 BKN200 17/13 A2995 RMK AO2 SLP141 T01720128",
    "KOAK": "METAR KOAK 140453Z 30004KT 10SM BKN180 18/14 A2995 RMK AO2 SLP141 T01830139",
    "KMHR": "METAR KMHR 140415Z AUTO 20005KT 10SM CLR 28/10 A2988 RMK AO2 T02760099 $",
    "KDFW": "METAR KDFW 140453Z 16006KT 10SM FEW045 FEW065 SCT160 SCT250 26/21 A3008 RMK AO2 SLP179 T02610211 $",
    "KIAH": "SPECI KIAH 140437Z 03004KT 10SM SCT006 BKN022 BKN170 25/25 A3009 RMK AO2 T02500250",
    "KORD": "METAR KORD 140451Z 26004KT 10SM CLR 27/19 A3016 RMK AO2 SLP207 T02720194",
    "KJFK": "METAR KJFK 140451Z 23013KT 10SM FEW250 23/16 A3014 RMK AO2 SLP207 T02280161 402780194 $",
    "KRFD": "METAR KRFD 140454Z 00000KT 10SM CLR 22/21 A3020 RMK AO2 SLP220 T02220206",
    "KIND": "METAR KIND 140454Z 02005KT 10SM CLR 23/17 A3018 RMK AO2 SLP212 T02330167 403110194",
    "KDTW": "METAR KDTW 140453Z 22005KT 9SM SCT250 25/18 A3015 RMK AO2 SLP206 T02500183 403220183 $",
    "KMSP": "METAR KMSP 140453Z 20005KT 10SM CLR 27/22 A3015 RMK AO2 SLP204 T02720217",
    "CYEG": "METAR CYEG 140500Z 10006KT 20SM FEW100 17/12 A3012 RMK ACC1 ACC TR SLP203 DENSITY ALT 3000FT",
    "EHAM": "METAR EHAM 140425Z 04010KT 010V070 CAVOK 20/17 Q1018 NOSIG",
    "EBBR": "METAR EBBR 140420Z 34003KT CAVOK 18/17 Q1017 NOSIG",
    "EDDF": "METAR EDDF 140420Z AUTO 03015KT CAVOK 22/14 Q1016 NOSIG",
    "EDFH": "METAR EDFH 140420Z 08005KT 030V120 CAVOK 18/12 Q1017",
    "EDDL": "METAR EDDL 140420Z AUTO VRB02KT CAVOK 21/15 Q1017 NOSIG",
    "EDDK": "METAR EDDK 140420Z AUTO VRB02KT CAVOK 20/14 Q1017 NOSIG",
    "EBLG": "METAR EBLG 140420Z 34003KT CAVOK 18/15 Q1017 NOSIG",
    "LSZH": "METAR LSZH 140420Z 30003KT 280V360 CAVOK 18/16 Q1016 NOSIG",
    "LIMC": "METAR LIMC 140420Z 08005KT 050V110 9999 SCT080 25/20 Q1017 NOSIG",
    "LIRF": "METAR LIRF 140420Z 07005KT CAVOK 23/22 Q1017 NOSIG",
    "EINN": "METAR EINN 140430Z 03004KT CAVOK 14/11 Q1022 NOSIG",
    "EGLL": "METAR EGLL 140420Z AUTO 05010KT 9999 OVC014 17/14 Q1021",
    "EGSS": "METAR EGSS 140420Z AUTO 03011KT 9999 OVC005 16/15 Q1022",
    "EPWA": "METAR EPWA 140430Z 32006KT 9999 BKN009 16/15 Q1019 BECMG BKN016",
    "UHPP": "METAR UHPP 140430Z 32006MPS 9999 BKN045 BKN058 26/14 Q1008 R34L/CLRD62 NOSIG RMK MT OBSC QFE753/1004",
    "EFHK": "METAR EFHK 140420Z 01006KT 9999 FEW024 16/13 Q1020 NOSIG",
    "LBBG": "METAR LBBG 140430Z AUTO 29008KT 270V330 9999 NCD 20/15 Q1014 NOSIG",
    "LTAC": "METAR LTAC 140420Z 09004KT 050V150 9999 FEW040 SCT100 20/13 Q1013 NOSIG RMK RWY21C 05008KT RWY03L 02006KT 360V060 RWY21R 03007KT RWY03R 06003KT 020V090 RWY21L 14004KT 110V180",
    "UBBB": "METAR UBBB 140430Z 34014KT CAVOK 29/19 Q1007 NOSIG",
    "UTAA": "METAR UTAA 140500Z 32006KT 290V350 9999 NSC 37/10 Q1008 R88/CLRD70 NOSIG",
    "UACC": "METAR UACC 140430Z 10006MPS CAVOK 30/13 Q1008 NOSIG RMK QFE725/0967",
    "UAAA": "METAR UAAA 140430Z 30003MPS 240V330 9999 SCT050CB BKN100 29/13 Q1010 NOSIG",
    "UZTT": "METAR UZTT 140430Z 02006KT 360V060 CAVOK 35/12 Q1007 NOSIG",
    "ZWWW": "METAR ZWWW 140430Z 35003MPS 310V030 CAVOK 33/12 Q1007 NOSIG",
    "ZLXY": "METAR ZLXY 140500Z 15003MPS 100V220 CAVOK 36/25 Q1000 NOSIG",
    "ZBAA": "METAR ZBAA 140430Z 01003MPS 340V040 CAVOK 32/21 Q1000 NOSIG",
    "ZBHH": "METAR ZBHH 140500Z 21002MPS 160V240 9999 FEW040 27/13 Q1007 NOSIG",
    "ZSQD": "METAR ZSQD 140500Z 31007MPS 9999 BKN014 BKN023 29/26 Q0998 BECMG TL0600 BKN015",
    "ZMCK": "METAR ZMCK 140430Z 29007MPS 260V320 9999 FEW030CB SCT033 20/10 Q1010 NOSIG RMK QFE643.1 54 MOP",
    "UUEE": "METAR UUEE 140430Z 35004G09MPS 300V020 9999 BKN006 18/16 Q1010 R24L/CLRD62 R24C/CLRD62 NOSIG",
    "UUDD": "SPECI UUDD 140420Z 34004MPS 1800 BR OVC002 17/17 Q1009 R13R/CLRD65 NOSIG RMK QBB060",
    "ULLI": "METAR ULLI 140430Z 03004MPS 350V070 9999 BKN022 18/13 Q1017 R88/090065 NOSIG",
    "USSS": "METAR USSS 140430Z 11003MPS 9999 OVC013CB 18/17 Q1012 R08L/CLRD60 R08R/CLRD60 NOSIG RMK QFE739/0986",
    "UNNT": "METAR UNNT 140430Z 01004MPS 9999 BKN021 19/14 Q1009 R25/CLRD// R16/CLRD// NOSIG RMK QFE747/0996",
    "UNKL": "METAR UNKL 140430Z 29001MPS CAVOK 19/14 Q1006 R29/CLRD// NOSIG RMK QFE729",
    "UIBB": "METAR UIBB 140430Z 29003MPS 9999 NSC 22/09 Q1006 R30/CLRD62 NOSIG RMK QFE712/0949",
    "UEEE": "METAR UEEE 140430Z 15005MPS 9999 SCT050CB 30/19 Q0992 R23/09//65 NOSIG RMK QFE735",
    "UHHH": "METAR UHHH 140430Z 25007MPS 9999 FEW043CB 29/18 Q1000 R88/090060 NOSIG RMK QFE743/0991",
    "UHSS": "METAR UHSS 140430Z 21005MPS 9999 BKN016 24/20 Q1002 R19/CLRD70 NOSIG RMK MT OBSC QFE750/1000"
  },
  "taf": {
    "RJAA": "TAF RJAA 140505Z 1406/1512 13008KT 9999 FEW030",
    "PANC": "TAF PANC 140540Z 1406/1512 16020G30KT P6SM VCSH FEW030 OVC050 FM140800 15015G32KT P6SM -RA SCT020 OVC040 FM141500 14028G35KT 6SM -RA BR SCT020 OVC030 FM142100 13020G28KT P6SM -SHRA SCT020 OVC040 FM150300 15012G22KT P6SM VCSH FEW030 BKN050",
    "PAFA": "TAF PAFA 140520Z 1406/1512 VRB04KT P6SM SCT080 BKN200 FM141200 13007KT P6SM VCSH BKN060 OVC100",
    "PAED": "TAF PAED 140500Z 1405/1511 33009KT 9999 FEW013 FEW050 OVC060 620802 540109 QNH3004INS BECMG 1406/1407 33009KT 9999 -SHRA SCT015 BKN030 OVC045 640604 QNH3003INS BECMG 1410/1411 17010G15KT 9000 -RA SCT010 BKN020 OVC040 640604 550109 QNH2986INS BECMG 1421/1422 36009KT 9999 NSW FEW060 BKN080 OVC120 WS013/14035KT 610802 QNH2976INS BECMG 1502/1503 32012KT 9999 -SHRA FEW035 SCT050 OVC070 640703 550357 QNH2976INS BECMG 1506/1507 02008KT 8000 -RA BKN010 OVC020 640604 540109 QNH2979INS TX17/1501Z TN10/1414Z",
    "KSEA": "TAF KSEA 140520Z 1406/1512 35007KT P6SM FEW250 FM140800 01004KT P6SM SKC FM141400 34006KT P6SM SKC FM141900 31007KT P6SM SKC FM150300 34006KT P6SM SKC",
    "ZSPD": "TAF ZSPD 140303Z 1406/1512 20004MPS 8000 SCT020 TX36/1406Z TX34/1506Z TN28/1421Z",
    "ZSSS": "TAF ZSSS 140303Z 1406/1512 21004MPS 8000 SCT020 TX37/1406Z TX35/1506Z TN29/1421Z",
    "RJFR": "TAF RJFR 140505Z 1406/1512 36010KT 9999 FEW030 BECMG 1408/1410 17006KT",
    "VHHH": "TAF VHHH 140500Z 1406/1512 17015KT 9999 FEW015 SCT025 TX29/1406Z TX30/1506Z TN26/1422Z TEMPO 1406/1412 18020G30KT 2500 SHRA FEW010CB SCT020 TEMPO 1418/1421 19020G30KT 2000 +SHRA FEW010CB SCT020 TEMPO 1421/1503 20020G30KT 1500 TSRA +SHRA FEW008CB SCT020 TEMPO 1503/1506 3000 SHRA FEW010CB SCT020",
    "RCTP": "TAF RCTP 140500Z 1406/1512 33009KT 9999 FEW010 BKN032 TEMPO 1407/1412 26009KT 4000 SHRA FEW010 BKN017 FEW020CB BECMG 1412/1413 12005KT TEMPO 1413/1418 19005KT TEMPO 1418/1424 19005KT BECMG 1500/1501 27005KT",
    "ZGSZ": "TAF ZGSZ 140313Z 1406/1512 16004MPS 8000 SCT040 TX31/1406Z TX31/1506Z TN27/1422Z TEMPO 1406/1408 2000 TSRA SCT011 FEW020CB BKN030 TEMPO 1408/1411 SHRA SCT011 FEW020CB TEMPO 1411/1414 SHRA SCT011 FEW020CB TEMPO 1422/1502 TSRA SCT011 FEW020CB BKN030",
    "WSSS": "TAF WSSS 140500Z 1406/1512 16009KT 9999 FEW015 SCT020",
    "WMKK": "TAF WMKK 140500Z 1406/1512 15007KT 9999 FEW018 PROB30 TEMPO 1406/1410 6000 -TSRA FEW017CB SCT018",
    "VTBS": "TAF VTBS 140500Z 1406/1512 21008KT 9999 FEW020 TEMPO 1406/1412 VRB15G25KT 4000 TSRA FEW018CB SCT030 BKN100 TEMPO 1508/1512 VRB15G25KT 4000 TSRA FEW018CB SCT030 BKN100",
    "VTBU": "TAF VTBU 140500Z 1406/1506 23010KT 9999 FEW020",
    "ROAH": "TAF ROAH 140505Z 1406/1512 19010KT 9999 FEW008 SCT015 TEMPO 1415/1500 FEW005 BKN008",
    "VVDN": "TAF VVDN 140500Z 1406/1506 01010KT 9999 FEW020 SCT060 TEMPO 1407/1410 TS SCT013 FEW015CB SCT060 PROB30 TEMPO 1410/1413 24015G25KT 4500 TSRA BKN013 FEW015CB BKN060 BECMG 1413/1414 21006KT",
    "RCKH": "TAF RCKH 140500Z 1406/1512 15009KT 6000 FEW010 BKN032 TEMPO 1406/1412 16015KT 3200 SHRA FEW010 BKN017 FEW020CB BECMG 1412/1413 14005KT TEMPO 1418/1424 20005KT 4000 SHRA FEW010 BKN017 FEW020CB TEMPO 1500/1506 21005KT 3500 SHRA FEW010 BKN017",
    "KLAX": "TAF KLAX 140536Z 1406/1512 25005KT P6SM SCT200 FM141000 VRB03KT P6SM OVC006 FM141700 26006KT P6SM SCT008 FM141900 26012KT P6SM SCT250 FM150300 26008KT P6SM SCT250 FM150500 24005KT P6SM BKN008 FM151000 VRB03KT P6SM OVC006",
    "KONT": "TAF KONT 140520Z 1406/1512 VRB04KT P6SM FEW150 FM142000 25012G20KT P6SM FEW200 FM150300 25007KT P6SM SKC FM150700 VRB04KT P6SM SKC",
    "KSFO": "TAF KSFO 140520Z 1406/1512 29010KT P6SM BKN200 FM141500 30005KT P6SM FEW010 BKN200 FM141900 31012KT P6SM BKN200 FM142100 31015G25KT P6SM BKN150 FM150400 29010KT P6SM FEW010 BKN150",
    "KOAK": "TAF KOAK 140520Z 1406/1512 29008KT P6SM BKN150 BKN200 FM141200 29004KT P6SM FEW010 BKN200 FM141800 26007KT P6SM BKN150 FM142100 29012KT P6SM BKN150 FM150400 28010KT P6SM FEW010 BKN150",
    "KMHR": "TAF KMHR 140520Z 1406/1506 VRB04KT P6SM SKC FM142100 24010G17KT P6SM SCT250",
    "KDFW": "TAF KDFW 140520Z 1406/1512 13004KT P6SM FEW020 FEW060 FM141800 12007KT P6SM VCSH SCT080 FM150000 18004KT P6SM SCT210",
    "KIAH": "TAF KIAH 140520Z 1406/1512 VRB03KT P6SM FEW008 SCT020 OVC150 TEMPO 1406/1410 BKN008 FM141000 VRB04KT P6SM VCTS SCT015 BKN020CB FM141200 16005KT 5SM SHRA VCTS SCT015 BKN020CB TEMPO 1412/1416 3SM TSRA OVC015CB FM141600 18007KT 6SM SHRA BR SCT020 BKN025 FM141900 15007KT P6SM SCT030 OVC100 FM150300 VRB03KT P6SM SCT030 BKN070",
    "KORD": "TAF KORD 140520Z 1406/1512 27006KT P6SM SKC FM141200 32005KT P6SM SKC FM141900 08006KT P6SM SKC FM150000 25005KT P6SM SKC",
    "KJFK": "TAF KJFK 140520Z 1406/1512 23013KT P6SM FEW250 FM141500 24013G20KT P6SM FEW250 FM141800 21018G25KT P6SM FEW250 FM150200 24014KT P6SM FEW250 FM150700 25011KT P6SM FEW250",
    "KRFD": "TAF KRFD 140520Z 1406/1506 26003KT P6SM SKC FM141200 32005KT P6SM SKC FM142000 27004KT P6SM SKC",
    "KIND": "TAF KIND 140529Z 1406/1512 04005KT P6SM FEW250 FM141600 09006KT P6SM FEW050",
    "KDTW": "TAF KDTW 140520Z 1406/1512 23005KT P6SM SCT250 FM141400 26008KT P6SM SCT250 FM142000 25010KT P6SM SKC FM150100 24006KT P6SM SKC",
    "KMSP": "TAF KMSP 140520Z 1406/1512 22008KT P6SM SKC",
    "CYEG": "TAF CYEG 140540Z 1406/1506 08007KT P6SM FEW100 FM140900 10005KT P6SM SKC FM142200 13012KT P6SM SCT060 FM150300 12014KT P6SM VCTS BKN060CB FM150500 16012KT P6SM FEW040 RMK NXT FCST BY 140900Z",
    "EHAM": "TAF EHAM 140432Z 1406/1512 04012KT CAVOK",
    "EBBR": "TAF EBBR 140507Z 1406/1512 03006KT CAVOK ",
    "EDDF": "TAF EDDF 140500Z 1406/1512 04012KT CAVOK TEMPO 1413/1419 04020G30KT TSRA BKN070CB PROB30 TEMPO 1414/1418 31025G45KT 2000 +TSRAGR",
    "EDFH": "TAF EDFH 140500Z 1406/1506 08008KT CAVOK PROB40 TEMPO 1412/1419 04020G30KT TSRA BKN060CB PROB30 TEMPO 1414/1419 31025G45KT 2000 +TSRAGR",
    "EDDL": "TAF EDDL 140500Z 1406/1512 VRB03KT CAVOK BECMG 1406/1408 04008KT BECMG 1410/1412 04013KT PROB30 TEMPO 1413/1417 04015G25KT BECMG 1419/1422 02005KT BECMG 1508/1510 04010KT",
    "EDDK": "TAF EDDK 140500Z 1406/1512 VRB03KT CAVOK BECMG 1407/1410 04008KT PROB30 TEMPO 1413/1416 03015G25KT BECMG 1420/1423 VRB03KT BECMG 1508/1511 04008KT",
    "EBLG": "TAF EBLG 140507Z 1406/1512 03007KT CAVOK",
    "LSZH": "TAF LSZH 140525Z 1406/1512 28003KT CAVOK TX32/1415Z TN20/1406Z TN18/1504Z PROB40 TEMPO 1406/1408 36013KT TSRA SCT050CB PROB40 TEMPO 1408/1410 SHRA FEW060TCU BECMG 1410/1413 9999 FEW070TCU TEMPO 1413/1417 21012KT PROB40 TEMPO 1413/1418 21015G25KT TSRA SCT060CB BECMG 1420/1422 CAVOK PROB30 TEMPO 1511/1512 21015G25KT TSRA FEW070CB",
    "LIMC": "TAF LIMC 140500Z 1406/1512 VRB05KT 9999 FEW060 BECMG 1412/1414 23010KT BECMG 1418/1420 VRB05KT",
    "LIRF": "TAF LIRF 140500Z 1406/1512 VRB05KT CAVOK BECMG 1409/1411 20010KT BECMG 1417/1419 14010KT",
    "EINN": "TAF EINN 140500Z 1406/1506 03007KT CAVOK BECMG 1407/1409 08010KT BECMG 1418/1420 04007KT",
    "EGLL": "TAF EGLL 140455Z 1406/1512 05010KT 9999 BKN016 TEMPO 1406/1408 BKN010 BECMG 1409/1412 CAVOK PROB30 TEMPO 1504/1506 BKN010",
    "EGSS": "TAF EGSS 140457Z 1406/1512 04012KT 9999 BKN010 TEMPO 1406/1407 8000 -DZ BKN004 BECMG 1407/1410 FEW025 PROB40 1502/1507 BKN007",
    "EPWA": "TAF EPWA 140530Z 1406/1506 36007KT 9999 BKN012 PROB40 1406/1407 BKN006 BECMG 1407/1409 SCT040",
    "UHPP": "TAF UHPP 140439Z 1406/1512 32005G12MPS 9999 BKN040CB TX25/1406Z TN15/1417Z",
    "EFHK": "TAF EFHK 140529Z 1406/1506 36009KT 9999 SCT020",
    "LBBG": "TAF LBBG 140500Z 1406/1506 35010KT 9999 SCT050 PROB30 TEMPO 1410/1415 5000 SHRA FEW030CB BKN050 BECMG 1413/1415 13010KT BECMG 1417/1419 VRB04KT",
    "LTAC": "TAF LTAC 140440Z 1406/1506 VRB02KT 9999 SCT040 SCT100 TEMPO 1409/1413 30012KT TEMPO 1413/1417 35012KT BECMG 1416/1418 CAVOK",
    "UBBB": "TAF UBBB 140500Z 1406/1506 35014KT CAVOK TX33/1410Z TN25/1501Z TEMPO 1408/1416 05010KT BECMG 1416/1418 33010KT SCT015 BECMG 1420/1422 34020G30KT SCT012 FEW030CB TEMPO 1422/1506 33026G36KT",
    "UTAA": "TAF UTAA 140445Z 1406/1506 03016KT 6000 SCT050 TX41/1410Z TEMPO 1410/1416 33016G26KT 3000 BLDU BECMG 1416/1418 23012KT TEMPO 1420/1503 20014KT",
    "UACC": "TAF UACC 140500Z 1406/1506 17005MPS 9999 SCT040 BKN100 TX38/1409Z TN22/1423Z TEMPO 1406/1418 -TSRA BKN030CB BECMG 1418/1420 14005MPS TEMPO 1418/1504 18005MPS -TSRA BKN030CB BECMG 1504/1506 24005MPS SCT040CB",
    "UAAA": "TAF UAAA 140502Z 1406/1506 34003MPS 9999 SCT050CB BKN100 TX33/1410Z TN20/1501Z TEMPO 1406/1415 04005G10MPS BECMG 1415/1417 14003MPS TEMPO 1415/1424 20005MPS BECMG 1502/1503 01005MPS SCT100",
    "UZTT": "TAF UZTT 140500Z 1406/1506 22010KT 7000 NSC TX40/1411Z TN26/1500Z TEMPO 1406/1418 32015KT",
    "ZWWW": "TAF ZWWW 140304Z 1406/1512 36004MPS CAVOK TX38/1409Z TX35/1509Z TN28/1423Z BECMG 1410/1411 20004MPS BECMG 1500/1501 36004MPS",
    "ZLXY": "TAF ZLXY 140312Z 1406/1506 06004MPS 5000 BR NSC TX36/1407Z TN25/1421Z BECMG 1411/1412 26010G15MPS TSRA FEW040CB OVC060 BECMG 1414/1415 26004MPS -SHRA TEMPO 1415/1418 SHRA BECMG 1418/1419 BR NSC",
    "ZBAA": "TAF ZBAA 140300Z 1406/1512 17004MPS CAVOK TX34/1406Z TX36/1506Z TN23/1421Z",
    "ZBHH": "TAF ZBHH 140302Z 1406/1506 24004MPS 9999 FEW040 TX29/1408Z TN14/1422Z TEMPO 1409/1411 VRB08G13MPS -TSRA FEW040CB FEW040",
    "ZSQD": "TAF ZSQD 140301Z 1406/1506 32006G13MPS 3500 BR BKN015 TX32/1406Z TN22/1420Z BECMG 1414/1415 26003MPS BECMG 1420/1421 1600 BECMG 1422/1423 3500",
    "ZMCK": "TAF ZMCK 140445Z 1406/1512 29007MPS 9999 FEW030CB SCT033 TX23/1407Z TN08/1421Z BECMG 1410/1412 VRB02MPS BECMG 1503/1505 28005MPS BECMG 1510/1512 VRB02MPS",
    "UUEE": "TAF UUEE 140451Z 1406/1506 36005MPS 9999 BKN011 TX24/1412Z TN17/1503Z TEMPO 1410/1418 33009G16MPS PROB40 TEMPO 1410/1418 -TSRA BKN016CB",
    "UUDD": "TAF UUDD 140454Z 1406/1512 33005MPS 6000 OVC005 TX24/1412Z TN16/1501Z TEMPO 1406/1408 OVC003 BECMG 1408/1410 BKN016 TEMPO 1410/1417 34008G13MPS PROB40 TEMPO 1410/1417 -TSRA BKN020CB",
    "ULLI": "TAF ULLI 140453Z 1406/1506 03005G10MPS 9999 BKN016 BECMG 1413/1414 34005MPS BECMG 1418/1419 28003MPS",
    "USSS": "TAF USSS 140453Z 1406/1506 12003G13MPS 9999 -SHRA BKN016CB TEMPO 1406/1506 VRB20MPS -TSRA SQ",
    "UNNT": "TAF UNNT 140500Z 1406/1506 35003G08MPS 9999 SCT020 TX25/1409Z TN13/1422Z",
    "UNKL": "TAF UNKL 140451Z 1406/1506 26003G08MPS 8000 SCT040 TEMPO 1406/1415 29008G16MPS -TSRA BKN016CB",
    "UIBB": "TAF UIBB 140500Z 1406/1506 20003G08MPS 9999 SCT050CB TEMPO 1406/1412 VRB08MPS BECMG 1412/1415 30005MPS",
    "UEEE": "TAF UEEE 140500Z 1406/1512 13005G10MPS 9999 SCT030CB BKN100 TX31/1406Z TN18/1418Z TEMPO 1406/1415 VRB18MPS 3200 -TSRA SQ SCT010 BKN030CB OVC100",
    "UHHH": "TAF UHHH 140450Z 1406/1512 24006G11MPS 9999 SCT030CB TX31/1406Z TN22/1420Z BECMG 1410/1412 18003MPS FM141600 10003MPS 5000 -SHRA FEW005 BKN016CB TEMPO 1416/1503 1400 SHRA BKN003 BKN016CB BECMG 1422/1424 01005MPS",
    "UHSS": "TAF UHSS 140449Z 1406/1512 19003MPS 9999 BKN025 BECMG 1410/1412 3000 BR BKN004 TEMPO 1412/1422 0600 FG BKN002 BECMG 1422/1424 9999 NSW BKN016CB"
  },
  "atis": {},
  "windtemp_alaska": "\n000\nFBAK31 KWNO 140159\nFD1AK1\nDATA BASED ON 140000Z    \nVALID 140600Z   FOR USE 0200-0900Z. TEMPS NEG ABV 24000\n\nFT  3000    6000    9000   12000   18000   24000  30000  34000  39000\nADK 3117 2919+05 2924+02 2831-02 2845-12 2955-25 307541 318551 304851\nADQ 1622 2116+07 2432+05 2444+00 2546-12 2650-23 266539 257648 257957\nAKN 1636 1724+06 2131+03 2339-01 2353-12 2369-23 238039 238649 239856\nANC 1618 1726+02 1919-03 2222-06 2640-16 2654-25 268141 279249 266254\nANN 3410 3207+05 3312+01 3510-04 3514-17 3520-29 342345 352152 331847\nBET 1519 1518+00 1814-03 1820-06 2138-15 2243-27 225043 227050 224647\nBRW 9900 1909+01 2114-03 1918-09 1516-22 1612-33 151349 151847 161342\nBTI 2819 2710+05 1607+00 1612-06 1730-20 1744-31 176647 175652 182047\nBTT 2010 2111+01 2215-05 2117-10 1918-23 1824-36 172249 212543 232341\nCDB 2139 2144+09 2147+04 2153-01 2162-14 2182-25 711239 711448 219252\nCZF 1611 1507-01 1806-04 1909-09 2018-20 2238-29 226944 225850 223143\nEHM 1422 1624+03 2029+02 2132-04 2139-15 2153-27 217642 219149 226148\nFAI 2013 2024+03 2025-03 2122-09 2220-22 2430-33 266845 265545 243744\nFYU 2412 2313+03 2219-03 2119-09 2118-23 1826-35 183247 203045 222744\nGAL 2014 1809-01 1710-06 1911-11 2017-23 2519-33 265045 254543 243543\nGKN 1724 1930+02 1921-03 2115-08 2730-18 2755-27 288141 289150 275550\nHOM 1620 1626+01 1923+01 2124-04 2543-13 2657-24 257840 268550 268454\nJNU 2506 2707+01 2810+01 2507-03 2509-16 2813-28 323244 334352 323049\nLUR 9900 0410+00 0416-05 0415-10 0314-23 0219-36 061647 130543 160841\nMCG 2025 1929+00 1925-04 2125-10 2448-18 2561-28 248243 258650 245647\nMDO 1414 1613+03 2010+00 2314-04 2733-14 2847-23 286939 287549 288056\nOME 1819 1825-02 2021-05 2120-09 2118-20 2013-32 211648 222346 232442\nORT      2617+05 2313-02 2214-08 2321-20 2735-30 297843 286148 273447\nOTZ 2017 1714-02 1812-06 1811-11 2213-21 2318-34 252147 231745 221541\nSNP 0118 3615+01 3312-04 2911-07 2618-19 2223-28 204144 213748 232742\nTKA 1822 1929+01 1925-04 2025-08 2541-18 2659-27 268542 269450 266250\nUNK 1913 1711-02 1815-05 2116-09 2313-20 2322-32 258344 256348 233643\nYAK 9900 2611+01 2612-02 2511-05 2920-14 3032-26 315842 317651 316453\nIKO 3028 2833+04 2839+01 2738-03 2543-15 2444-27 244243 244748 234745\nAFM 1821 1817-01 1922-06 1925-12 1923-24 1913-35 200947 211843 221540\n5AB 2608 2621+03 2937+03 2943-01 2942-11 2946-22 295139 305849 305459\n5AC 0111 0310+04 0208+01 0109-03 3622-16 3531-28 366242 367051 355451\n5AD 2217 2514+07 3126+05 3137+01 3029-11 3126-21 323337 323947 315257\n5AE 2436 2333+11 2441+07 2444+01 2449-12 2441-22 244737 245547 246057\n5AF 2808 3009+03 2708+00 2510-04 3115-14 3228-26 345942 346951 347053\n5AG 2210 2309+03 2412-01 2613-03 3027-12 3037-23 315940 317149 317957\n",
  "vaac_active": [
    {
      "volcano": "MAYON",
      "volcano_jp": "マヨン",
      "advisory_nr": "2026/739",
      "obs_time": "2026-07-14 00:06Z",
      "issued_time": "2026-07-14 02:46Z",
      "text_url": "https://www.data.jma.go.jp/vaac/data/TextData/2026/20260714_27303000_0739_Text.html",
      "lat": 13.25,
      "lon": 123.683,
      "text": "FVFE01 RJTD 140246\nVA ADVISORY\nDTG: 20260714/0246Z\nVAAC: TOKYO\nVOLCANO: MAYON 273030\nPSN: N1315 E12341\nAREA: PHILIPPINES\nSOURCE ELEV: 2462M AMSL\nADVISORY NR: 2026/739\nINFO SOURCE: HIMAWARI-9 PHIVOLCS\nERUPTION DETAILS: ERUPTION AT 20260714/0006Z FL130 EXTD ENE REPORTED\nOBS VA DTG: 14/0230Z\nOBS VA CLD: VA NOT IDENTIFIABLE FM SATELLITE DATA WIND FL130 020/4KT\nFCST VA CLD +6 HR: NOT AVBL\nFCST VA CLD +12 HR: NOT AVBL\nFCST VA CLD +18 HR: NOT AVBL\nRMK: WE WILL ISSUE FURTHER ADVISORY IF VA IS DETECTED IN SATELLITE \nIMAGERY.\nNXT ADVISORY: NO FURTHER ADVISORIES="
    },
    {
      "volcano": "MAYON",
      "volcano_jp": "マヨン",
      "advisory_nr": "2026/738",
      "obs_time": "2026-07-14 00:06Z",
      "issued_time": "2026-07-14 01:46Z",
      "text_url": "https://www.data.jma.go.jp/vaac/data/TextData/2026/20260714_27303000_0738_Text.html",
      "lat": 13.25,
      "lon": 123.683,
      "text": "FVFE01 RJTD 140146\nVA ADVISORY\nDTG: 20260714/0146Z\nVAAC: TOKYO\nVOLCANO: MAYON 273030\nPSN: N1315 E12341\nAREA: PHILIPPINES\nSOURCE ELEV: 2462M AMSL\nADVISORY NR: 2026/738\nINFO SOURCE: HIMAWARI-9 PHIVOLCS\nERUPTION DETAILS: ERUPTION AT 20260714/0006Z FL120 EXTD ENE REPORTED\nOBS VA DTG: 14/0130Z\nOBS VA CLD: VA NOT IDENTIFIABLE FM SATELLITE DATA WIND FL120 020/4KT\nFCST VA CLD +6 HR: NOT AVBL\nFCST VA CLD +12 HR: NOT AVBL\nFCST VA CLD +18 HR: NOT AVBL\nRMK: WE WILL ISSUE FURTHER ADVISORY IF VA IS DETECTED IN SATELLITE \nIMAGERY.\nNXT ADVISORY: NO FURTHER ADVISORIES="
    },
    {
      "volcano": "MAYON",
      "volcano_jp": "マヨン",
      "advisory_nr": "2026/737",
      "obs_time": "2026-07-13 23:32Z",
      "issued_time": "2026-07-14 00:13Z",
      "text_url": "https://www.data.jma.go.jp/vaac/data/TextData/2026/20260714_27303000_0737_Text.html",
      "lat": 13.25,
      "lon": 123.683,
      "text": "FVFE01 RJTD 140013\nVA ADVISORY\nDTG: 20260714/0013Z\nVAAC: TOKYO\nVOLCANO: MAYON 273030\nPSN: N1315 E12341\nAREA: PHILIPPINES\nSOURCE ELEV: 2462M AMSL\nADVISORY NR: 2026/737\nINFO SOURCE: HIMAWARI-9 PHIVOLCS\nERUPTION DETAILS: ERUPTION AT 20260713/2332Z FL110 EXTD ENE REPORTED\nOBS VA DTG: 13/2350Z\nOBS VA CLD: VA NOT IDENTIFIABLE FM SATELLITE DATA WIND FL110 010/3KT\nFCST VA CLD +6 HR: NOT AVBL\nFCST VA CLD +12 HR: NOT AVBL\nFCST VA CLD +18 HR: NOT AVBL\nRMK: WE WILL ISSUE FURTHER ADVISORY IF VA IS DETECTED IN SATELLITE \nIMAGERY.\nNXT ADVISORY: NO FURTHER ADVISORIES="
    }
  ],
  "vaac_tokyo": [
    {
      "id": "20260714_27303000_0739",
      "year": "2026",
      "volcano": "Mayon",
      "psn": "N1315 E12341",
      "issued": "20260714",
      "text": "FVFE01 RJTD 140246\nVA ADVISORY\nDTG: 20260714/0246Z\nVAAC: TOKYO\nVOLCANO: MAYON 273030\nPSN: N1315 E12341\nAREA: PHILIPPINES\nSOURCE ELEV: 2462M AMSL\nADVISORY NR: 2026/739\nINFO SOURCE: HIMAWARI-9 PHIVOLCS\nERUPTION DETAILS: ERUPTION AT 20260714/0006Z FL130 EXTD ENE REPORTED\nOBS VA DTG: 14/0230Z\nOBS VA CLD: VA NOT IDENTIFIABLE FM SATELLITE DATA WIND FL130 020/4KT\nFCST VA CLD +6 HR: NOT AVBL\nFCST VA CLD +12 HR: NOT AVBL\nFCST VA CLD +18 HR: NOT AVBL\nRMK: WE WILL ISSUE FURTHER ADVISORY IF VA IS DETECTED IN SATELLITE \nIMAGERY.\nNXT ADVISORY: NO FURTHER ADVISORIES=",
      "img_url": "https://ds.data.jma.go.jp/svd/vaac/data/VAGFN/2026/Images/20260714_27303000_0739_QH21_01.png",
      "sat_img_url": null,
      "text_url": "https://ds.data.jma.go.jp/svd/vaac/data/TextData/2026/20260714_27303000_0739_Text.html"
    },
    {
      "id": "20260713_28208001_0083",
      "year": "2026",
      "volcano": null,
      "psn": "N3136 E13039",
      "issued": "20260713",
      "text": "FVFE01 RJTD 130254\nVA ADVISORY\nDTG: 20260713/0254Z\nVAAC: TOKYO\nVOLCANO: SAKURAJIMA (AIRA CALDERA) 282080\nPSN: N3136 E13039\nAREA: JAPAN\nSOURCE ELEV: 1117M AMSL\nADVISORY NR: 2026/83\nINFO SOURCE: JMA HIMAWARI-9\nERUPTION DETAILS: ERUPTED AT 20260713/0152Z FL100 EXTD N\nOBS VA DTG: 13/0230Z\nOBS VA CLD: SFC/FL100 N3136 E13039 - N3142 E13040 - N3141 E13044 - \nN3134 E13042 MOV NE 15KT\nFCST VA CLD +6 HR: 13/0830Z SFC/FL100 N3234 E13121 - N3145 E13155 - \nN3202 E13110 - N3227 E13051\nFCST VA CLD +12 HR: 13/1430Z SFC/FL100 N3318 E13206 - N3142 E13317 - \nN3134 E13226 - N3312 E13118\nFCST VA CLD +18 HR: NO VA EXP\nRMK: NIL\nNXT ADVISORY: 20260713/0600Z=",
      "img_url": "https://ds.data.jma.go.jp/svd/vaac/data/VAGFN/2026/Images/20260713_28208001_0083_QH21_01.png",
      "sat_img_url": "https://ds.data.jma.go.jp/svd/vaac/data/Sat/2026/Images/28208001/09-ir/20260713_0230_202607130254_ir.png",
      "text_url": "https://ds.data.jma.go.jp/svd/vaac/data/TextData/2026/20260713_28208001_0083_Text.html"
    },
    {
      "id": "20260712_27307000_0012",
      "year": "2026",
      "volcano": "Taal",
      "psn": "N1400 E12100",
      "issued": "20260712",
      "text": "FVFE01 RJTD 121243\nVA ADVISORY\nDTG: 20260712/1243Z\nVAAC: TOKYO\nVOLCANO: TAAL 273070\nPSN: N1400 E12100\nAREA: PHILIPPINES\nSOURCE ELEV: 311M AMSL\nADVISORY NR: 2026/12\nINFO SOURCE: HIMAWARI-9 PHIVOLCS\nERUPTION DETAILS: ERUPTION AT 20260712/1227Z FL050 EXTD NE REPORTED\nOBS VA DTG: 12/1230Z\nOBS VA CLD: VA NOT IDENTIFIABLE FM SATELLITE DATA WIND FL050 230/19KT\nFCST VA CLD +6 HR: NOT AVBL\nFCST VA CLD +12 HR: NOT AVBL\nFCST VA CLD +18 HR: NOT AVBL\nRMK: WE WILL ISSUE FURTHER ADVISORY IF VA IS DETECTED IN SATELLITE \nIMAGERY.\nNXT ADVISORY: NO FURTHER ADVISORIES=",
      "img_url": "https://ds.data.jma.go.jp/svd/vaac/data/VAGFN/2026/Images/20260712_27307000_0012_QH21_01.png",
      "sat_img_url": null,
      "text_url": "https://ds.data.jma.go.jp/svd/vaac/data/TextData/2026/20260712_27307000_0012_Text.html"
    },
    {
      "id": "20260712_30019000_0003",
      "year": "2026",
      "volcano": "Krasheninnikov",
      "psn": "N5436 E16016",
      "issued": "20260712",
      "text": "FVFE01 RJTD 120130\nVA ADVISORY\nDTG: 20260712/0130Z\nVAAC: TOKYO\nVOLCANO: KRASHENINNIKOV 300190\nPSN: N5436 E16016\nAREA: RUSSIA\nSOURCE ELEV: 1816M AMSL\nADVISORY NR: 2026/3\nINFO SOURCE: HIMAWARI-9\nERUPTION DETAILS: VA AT 20260712/0100Z FL080 EXTD SE\nOBS VA DTG: 12/0100Z\nOBS VA CLD: SFC/FL080 N5440 E16023 - N5412 E16045 - N5402 E16033 - \nN5434 E16013 MOV SE 20KT\nFCST VA CLD +6 HR: 12/0700Z SFC/FL080 N5310 E16258 - N5251 E16229 - \nN5302 E16111 - N5436 E16016\nFCST VA CLD +12 HR: 12/1300Z SFC/FL090 N5233 E16425 - N5158 E16444 - \nN5210 E16103 - N5446 E16008 - N5251 E16216\nFCST VA CLD +18 HR: 12/1900Z SFC/FL090 N5142 E16614 - N5044 E16548 - \nN5213 E15943 - N5432 E15924 - N5448 E16118 - N5223 E16227\nRMK: NIL\nNXT ADVISORY: 20260712/0600Z=",
      "img_url": "https://ds.data.jma.go.jp/svd/vaac/data/VAGFN/2026/Images/20260712_30019000_0003_QH21_01.png",
      "sat_img_url": "https://ds.data.jma.go.jp/svd/vaac/data/Sat/2026/Images/30019000/09-ir/20260712_0100_202607120130_ir.png",
      "text_url": "https://ds.data.jma.go.jp/svd/vaac/data/TextData/2026/20260712_30019000_0003_Text.html"
    }
  ],
  "vaac_alaska": [
    {
      "text": "\n000\nFVAK21 PAWU 111230\nVAAAK1\nVA ADVISORY\n\nDTG: 20260711/1224Z\n\nVAAC: ANCHORAGE\n\nVOLCANO: SHEVELUCH 300270\n\nPSN: N5639 E16122\n\nAREA: KAMCHATKA PENINSULA\n\nSOURCE ELEV: 10771 FT AMSL\n\nADVISORY NR: 2026/193\n\nRMK: PLEASE SEE FVXX2 KNES ISSUED BY VAAC WASHINGTON WHICH DESCRIBES\nCONDITIONS NEAR THE VAAC ANCHORAGE AREA OF RESPONSIBILITY...CC\n\n\n\n",
      "issued": "2026-07-11T12:30:00+00:00",
      "volcano": "Sheveluch",
      "psn": "N5639 E16122"
    }
  ]
}