{
  "updated_utc": "2026-07-17T21:13Z",
  "metar": {
    "RJAA": "METAR RJAA 171930Z AUTO 12004KT 9999 FEW003 SCT005 BKN009 24/24 Q1007 NOSIG",
    "PANC": "METAR PANC 171953Z 02004KT 10SM -RA SCT007 OVC070 11/09 A2987 RMK AO2 SLP117 P0001 T01060094",
    "PAFA": "METAR PAFA 171953Z VRB04KT 10SM FEW060 SCT090 SCT140 17/06 A2981 RMK AO2 SLP100 T01670061 $",
    "PAED": "METAR PAED 171955Z 01004KT 10SM -RA SCT006 SCT037 BKN042 OVC070 11/10 A2986 RMK AO2A SLP108 P0001 T01120095 $",
    "KSEA": "METAR KSEA 171953Z 24008KT 220V280 10SM SCT036 BKN043 19/09 A3006 RMK AO2 SLP185 T01890089 $",
    "ZSPD": "METAR ZSPD 171930Z 22004MPS CAVOK 31/26 Q0999 NOSIG",
    "ZSSS": "METAR ZSSS 171930Z 24003MPS 220V280 CAVOK 32/26 Q0999 NOSIG",
    "RJFR": "METAR RJFR 172000Z AUTO 12005KT 9999 FEW007 OVC009 28/26 Q1002",
    "VHHH": "SPECI VHHH 171914Z 21010KT 180V250 5000 2200W +SHRA FEW010 FEW015CB SCT025 29/26 Q1004 TEMPO 4000 SHRA FEW010CB SCT020",
    "RCTP": "METAR RCTP 171930Z 22010KT 9999 FEW015 SCT200 28/23 Q1004 NOSIG RMK A2966",
    "ZGSZ": "METAR ZGSZ 172000Z 17005MPS 4000 SHRA FEW013 FEW020CB BKN050 28/27 Q1004 BECMG AT2040 -SHRA",
    "WSSS": "METAR WSSS 171930Z VRB04G14KT 9999 SCT016 FEW020CB BKN300 28/25 Q1010 NOSIG",
    "WMKK": "METAR WMKK 171930Z 24004KT 190V310 9000 TS FEW017CB SCT030 26/24 Q1010 NOSIG",
    "WIDD": "METAR WIDD 171930Z AUTO VRB02KT 7000 FEW160 26/26 Q1010 NOSIG",
    "VTBS": "METAR VTBS 171930Z VRB02KT 9999 FEW020 28/24 Q1009 NOSIG",
    "VTBU": "METAR VTBU 171930Z 02002KT 9000 FEW020 27/27 Q1009 NOSIG",
    "ROAH": "METAR ROAH 171930Z AUTO 22009KT 9999 FEW005 BKN013 28/27 Q1005",
    "VVDN": "METAR VVDN 171930Z 24004KT 9999 FEW020 29/23 Q1005 NOSIG",
    "RCKH": "METAR RCKH 172000Z 10004KT 9999 FEW014 SCT040 BKN052 26/24 Q1006 NOSIG RMK A2972",
    "KLAX": "METAR KLAX 171953Z 16009G17KT 130V190 10SM FEW110 FEW170 29/16 A2994 RMK AO2 SLP137 ACSL DSNT NE T02890156 $",
    "KONT": "METAR KONT 171953Z 25011KT 10SM FEW120 FEW170 33/16 A2994 RMK AO2 SLP119 T03280156 $",
    "KSFO": "METAR KSFO 171956Z 29013G20KT 10SM FEW005 FEW014 19/11 A2998 RMK AO2 SLP151 T01890111 $",
    "KOAK": "METAR KOAK 171953Z 22007KT 10SM FEW007 FEW014 18/12 A2999 RMK AO2 SLP154 T01780122",
    "KMHR": "METAR KMHR 171915Z AUTO VRB03KT 10SM CLR 28/10 A2988 RMK AO2 T02820100 $",
    "KDFW": "METAR KDFW 171953Z 19009G22KT 10SM SCT047TCU SCT075 SCT180 BKN250 33/21 A3009 RMK AO2 SLP179 TCU ALQDS T03280206 $",
    "KIAH": "METAR KIAH 171953Z 14010G16KT 10SM TS SCT045CB SCT070 BKN210 BKN250 34/22 A3012 RMK AO2 TSB52 SLP198 TS OCNL LTGICCG AND SHRA SE MOVG N CB DSNT S MOVG N T03440217",
    "KORD": "METAR KORD 171951Z 27010KT 9SM FEW050 SCT100 BKN180 BKN250 30/22 A2998 RMK AO2 SLP147 CB DSNT ALQDS T03000222",
    "KJFK": "METAR KJFK 171951Z 20012KT 10SM BKN250 29/14 A3002 RMK AO2 SLP165 T02940144 $",
    "KRFD": "METAR KRFD 171954Z COR 25009G14KT 10SM SCT038 SCT250 32/22 A2999 RMK AO2 SLP150 OCNL LTGIC DSNT NE CB DSNT NE MOV E TCU DSNT NW-E T03220222 $",
    "KIND": "METAR KIND 171954Z 25013G16KT 10SM SCT034 SCT160 BKN250 33/23 A3002 RMK AO2 SLP158 CB DSNT ALQDS T03330228",
    "KDTW": "SPECI KDTW 171939Z 14006KT 2SM FU OVC025 29/19 A3004 RMK AO2 FU OVC025 T02890194",
    "KMSP": "METAR KMSP 171953Z 23011G21KT 10SM FEW060 FEW250 34/19 A2990 RMK AO2 SLP118 T03440194",
    "CYEG": "METAR CYEG 172000Z 09012KT 080V150 15SM FEW050 BKN250 29/15 A2998 RMK CU1CI5 CU TR CS ASOCTD SLP148 DENSITY ALT 4400FT",
    "EHAM": "METAR EHAM 171925Z 32006KT 9999 FEW020 19/15 Q1015 BECMG BKN018",
    "EBBR": "METAR EBBR 171920Z 33009KT CAVOK 20/14 Q1016 NOSIG",
    "EDDF": "METAR EDDF 171920Z AUTO 21006KT 180V250 9999 -SHRA FEW///TCU 20/18 Q1013 NOSIG",
    "EDFH": "METAR EDFH 171920Z 25004KT 220V300 CAVOK 19/13 Q1015",
    "EDDL": "METAR EDDL 171920Z AUTO 29010KT CAVOK 23/14 Q1013 NOSIG",
    "EDDK": "METAR EDDK 171920Z AUTO 32010KT CAVOK 24/13 Q1013 NOSIG",
    "EBLG": "METAR EBLG 171920Z 30007KT CAVOK 21/13 Q1015 NOSIG",
    "LSZH": "METAR LSZH 171920Z 31006G16KT 290V020 9999 FEW060CB 23/14 Q1015 NOSIG",
    "LIMC": "METAR LIMC 171920Z 24004KT 220V280 CAVOK 28/19 Q1011 NOSIG",
    "LIRF": "METAR LIRF 171920Z 16004KT 140V210 9999 FEW010 29/27 Q1012 NOSIG",
    "EINN": "METAR EINN 171930Z 34009KT CAVOK 22/12 Q1021 NOSIG",
    "EGLL": "METAR EGLL 171920Z AUTO 34004KT 300V030 9999 NCD 26/08 Q1015",
    "EGSS": "METAR EGSS 171920Z AUTO 03006KT 9999 NCD 23/11 Q1017",
    "EPWA": "METAR EPWA 171930Z 13010KT CAVOK 27/15 Q1010 NOSIG",
    "UHPP": "METAR UHPP 171930Z VRB01MPS 9999 BKN080 19/14 Q1019 R34L/CLRD62 NOSIG RMK MT OBSC QFE760/1014",
    "EFHK": "METAR EFHK 171920Z 10004KT 050V130 CAVOK 18/15 Q1012 NOSIG",
    "LBBG": "METAR LBBG 171930Z AUTO 08004KT 9999 FEW009/// 23/23 Q1013 NOSIG",
    "LTAC": "METAR LTAC 171920Z 05010KT 9999 SCT040 22/12 Q1015 NOSIG RMK RWY21C 05009KT RWY03L 04009KT RWY21R 03009KT RWY03R 03012KT RWY21L 04010KT",
    "UBBB": "METAR UBBB 171930Z 34010KT 9999 FEW060CB 26/22 Q1007 NOSIG",
    "UTAA": "METAR UTAA 172000Z 28010KT 9999 NSC 34/19 Q1005 R88/CLRD70 NOSIG",
    "UACC": "METAR UACC 171930Z 31001MPS 9999 FEW046 23/12 Q1005 NOSIG RMK QFE723/0964",
    "UAAA": "METAR UAAA 171930Z VRB01MPS 9999 NSC 25/07 Q1007 NOSIG",
    "UZTT": "METAR UZTT 171930Z 10004KT CAVOK 30/16 Q1001 NOSIG",
    "ZWWW": "METAR ZWWW 171930Z 35005MPS CAVOK 30/08 Q1007 NOSIG",
    "ZLXY": "METAR ZLXY 172000Z 33001MPS CAVOK 25/21 Q1004 NOSIG",
    "ZBAA": "METAR ZBAA 171930Z 13002MPS CAVOK 24/21 Q1000 NOSIG",
    "ZBHH": "METAR ZBHH 172000Z VRB01MPS CAVOK 16/15 Q1007 NOSIG",
    "ZSQD": "METAR ZSQD 172000Z 35002MPS 7000 NSC 21/21 Q1000 NOSIG",
    "ZMCK": "METAR ZMCK 171930Z VRB02MPS 9999 FEW033 16/10 Q1008 NOSIG RMK QFE641.5 67 NT",
    "UUEE": "METAR UUEE 171930Z 32003MPS CAVOK 17/10 Q1016 R06R/CLRD62 R06C/CLRD62 NOSIG",
    "UUDD": "METAR UUDD 171930Z 35003MPS 330V040 CAVOK 14/08 Q1016 R31L/CLRD65 NOSIG",
    "ULLI": "METAR ULLI 171930Z 17003MPS CAVOK 17/11 Q1015 R88/090065 NOSIG",
    "USSS": "METAR USSS 171930Z VRB01MPS 9999 FEW043 16/16 Q1001 R26L/CLRD60 NOSIG RMK QFE730/0974",
    "UNNT": "METAR UNNT 171930Z 22002MPS CAVOK 19/17 Q1000 R25/290150 R34/CLRD// NOSIG RMK QFE740/0987",
    "UNKL": "METAR UNKL 171930Z 13001MPS 7000 NSC 17/17 Q0999 R29/290055 NOSIG RMK QFE724",
    "UIBB": "METAR UIBB 171930Z AUTO 16003MPS 8000 // ///084/// 15/14 Q0999 RMK QFE707/0942",
    "UEEE": "METAR UEEE 171930Z 08002MPS CAVOK 17/14 Q0993 R23/09//65 NOSIG RMK QFE736",
    "UHHH": "METAR UHHH 171930Z 17002MPS 8000 NSC 16/16 Q1003 R88/090060 NOSIG RMK QFE746/0995",
    "UHSS": "METAR UHSS 171930Z 00000MPS 0250 0200S R19/0800U FG BKN002 BKN045 19/18 Q1009 R19/CLRD70 NOSIG RMK QBB070 MT OBSC QFE755/1007"
  },
  "taf": {
    "RJAA": "TAF AMD RJAA 171927Z 1719/1900 14008KT 9999 FEW012 SCT020 TEMPO 1719/1800 FEW005 BKN008",
    "PANC": "TAF PANC 171731Z 1718/1824 36004KT P6SM -RA SCT007 BKN080 FM172100 20006KT 5SM -SHRA BR FEW015 BKN030 FM180600 16007KT P6SM VCSH SCT035 BKN060 FM181800 19004KT P6SM VCSH OVC050 FM182100 16008KT 6SM -RA OVC040",
    "PAFA": "TAF PAFA 171720Z 1718/1824 28006KT P6SM FEW050 BKN100 FM180000 24006KT P6SM VCTS SCT050CB FM180600 VRB04KT P6SM SCT050",
    "PAED": "TAF PAED 171300Z 1713/1819 33006KT 9999 -SHRA BKN060 OVC070 620604 QNH2984INS BECMG 1720/1721 33006KT 9000 -RA BKN025 OVC030 620604 QNH2985INS BECMG 1805/1806 21005KT 9999 VCSH BKN045 BKN060 620604 QNH2989INS BECMG 1813/1814 VRB04KT 9999 -SHRA BKN020 OVC040 620604 QNH2997INS TX14/1722Z TN09/1714Z",
    "KSEA": "TAF KSEA 172049Z 1721/1824 24007KT P6SM SCT035 BKN050 FM180300 31006KT P6SM FEW050 FM180600 35004KT P6SM FEW050 FM181000 20005KT P6SM SCT025 BKN035 FM181700 24004KT P6SM SCT030 FM182100 29005KT P6SM FEW050",
    "ZSPD": "TAF ZSPD 171505Z 1718/1824 21004MPS 8000 SCT030 TX34/1806Z TN28/1721Z TN26/1821Z TEMPO 1804/1808 TSRA BKN008 FEW030CB BECMG 1809/1810 03004MPS",
    "ZSSS": "TAF ZSSS 171506Z 1718/1824 21004MPS 8000 SCT030 TX35/1806Z TN28/1721Z TN27/1821Z TEMPO 1804/1808 TSRA BKN011 FEW030CB BECMG 1811/1812 03004MPS",
    "RJFR": "TAF RJFR 171705Z 1718/1900 07010KT 9999 FEW020 SCT045 TEMPO 1720/1801 BKN005 BKN045 BECMG 1809/1812 32006KT BECMG 1818/1821 09006KT",
    "VHHH": "TAF VHHH 172000Z 1721/1903 18010KT 9999 FEW010 SCT025 TX31/1806Z TN27/1722Z TN28/1822Z TEMPO 1721/1803 24020G30KT 2000 TSRA +SHRA FEW008CB SCT015 TEMPO 1803/1806 3000 SHRA FEW010CB SCT020 TEMPO 1821/1903 24015G25KT 2500 TSRA SHRA FEW008CB SCT015",
    "RCTP": "TAF RCTP 171700Z 1718/1824 23012KT 9999 FEW015 TEMPO 1718/1724 24007KT TEMPO 1803/1809 25017KT BECMG 1810/1812 22007KT TEMPO 1816/1822 17005KT",
    "ZGSZ": "TAF AMD ZGSZ 172028Z 1718/1824 18004MPS 8000 BKN030 TX31/1806Z TN28/1722Z TN28/1822Z TEMPO 1720/1724 1200 +TSRA SCT010 FEW025CB BKN033 TEMPO 1805/1808 TSRA SCT010 FEW020CB BKN030",
    "WSSS": "TAF WSSS 171700Z 1718/1900 13007KT 9999 FEW015 SCT020",
    "WMKK": "TAF WMKK 171700Z 1718/1900 03005KT 9999 FEW030 PROB40 TEMPO 1718/1722 5000 TSRA FEW017CB",
    "VTBS": "TAF VTBS 171700Z 1718/1824 21008KT 9999 FEW020 TEMPO 1810/1814 VRB15KT 3000 TSRA FEW018CB SCT030 BKN080",
    "VTBU": "TAF VTBU 171700Z 1718/1818 24008KT 9999 FEW020",
    "ROAH": "TAF ROAH 171705Z 1718/1900 23008KT 9999 FEW005 BKN012 TEMPO 1718/1721 FEW003 BKN005 TEMPO 1721/1802 FEW005 BKN008 TEMPO 1812/1900 FEW005 BKN008",
    "VVDN": "TAF VVDN 171700Z 1718/1818 24006KT 9999 FEW020 BECMG 1804/1805 36010KT BECMG 1809/1810 12007KT",
    "RCKH": "TAF RCKH 171700Z 1718/1824 26005KT 9999 FEW015 BKN032 TEMPO 1718/1724 04005KT 5000 SHRA FEW012 FEW015TCU BKN017 TEMPO 1800/1804 3500 SHRA SCT008 FEW010CB BKN014 TEMPO 1804/1810 25010KT FEW012 FEW015TCU BKN017 TEMPO 1812/1818 5000 SHRA FEW012 FEW015TCU BKN017 TEMPO 1818/1824 07005KT 4000 SHRA SCT010 FEW012CB BKN016",
    "KLAX": "TAF KLAX 171950Z 1720/1824 14010G15KT P6SM SCT020 FM172030 25011KT P6SM FEW025 SCT250 FM180300 25006KT P6SM OVC012 FM180600 12007KT P6SM OVC012 FM181600 16005KT P6SM OVC018 FM181900 25011KT P6SM FEW025",
    "KONT": "TAF KONT 171732Z 1718/1824 VRB04KT P6SM SCT180 FM172000 25012G20KT P6SM SCT180 FM180500 VRB05KT P6SM SCT200 FM181900 25010G19KT P6SM SCT200",
    "KSFO": "TAF KSFO 172059Z 1721/1824 27015G25KT P6SM FEW005 TEMPO 1804/1806 P6SM BKN008 FM180600 26009KT P6SM OVC008 FM181700 25013G20KT P6SM FEW012",
    "KOAK": "TAF KOAK 171738Z 1718/1824 23010KT P6SM FEW005 BKN013 FM171900 26013KT P6SM FEW013 FM180600 24005KT P6SM OVC008 FM181800 28009KT P6SM FEW005 BKN010 FM182000 30012KT P6SM FEW012",
    "KMHR": "TAF KMHR 171720Z 1718/1818 22008KT P6SM SKC FM172300 22012KT P6SM SKC FM180700 17008KT P6SM SKC",
    "KDFW": "TAF KDFW 172055Z 1721/1824 19013KT P6SM SCT050 FM181200 18007KT P6SM BKN020 FM181600 18009KT P6SM SCT030 SCT250",
    "KIAH": "TAF KIAH 172100Z 1721/1824 18007KT P6SM VCSH FEW025 SCT050 BKN250 TEMPO 1721/1722 VRB15G25KT 5SM -TSRA BKN040CB FM172200 12010KT P6SM FEW030 SCT250 FM180200 VRB05KT P6SM FEW025 BKN250 FM181500 19007KT P6SM SCT030 SCT250",
    "KORD": "TAF KORD 172101Z 1721/1824 25009KT P6SM VCSH SCT050 PROB30 1721/1723 VRB15G25KT 2SM -TSRA BR SCT025 BKN050CB FM180200 24007KT P6SM SCT060 FM181400 27013G22KT P6SM SCT050 BKN250 TEMPO 1819/1821 VRB20G30KT 1SM TSRA BR BKN030CB FM182100 06011KT P6SM SCT035",
    "KJFK": "TAF KJFK 172005Z 1720/1824 19011KT P6SM SCT250 FM172300 17008KT 6SM FU BKN250 FM180600 19006KT 6SM FU BKN250 FM181300 20010KT 6SM FU OVC150 FM181500 19012KT 6SM FU VCSH SCT015 OVC070 TEMPO 1815/1818 3SM SHRA BKN015 OVC070 FM181800 19014KT P6SM VCSH SCT015 OVC070 TEMPO 1819/1823 2SM TSRA BR BKN015 OVC050CB",
    "KRFD": "TAF KRFD 172101Z 1721/1818 24009KT P6SM VCSH SCT040 PROB30 1722/1801 VRB15G25KT 2SM -TSRA BR SCT025 BKN040CB FM180200 24006KT P6SM SCT060 FM181400 27013G22KT P6SM SCT050 BKN250",
    "KIND": "TAF KIND 172040Z 1721/1824 24009KT P6SM VCSH BKN040 TEMPO 1721/1801 VRB16G30KT 4SM -TSRA BKN025CB FM180200 22007KT P6SM FEW050 BKN250 FM181500 27013KT P6SM SCT080",
    "KDTW": "TAF KDTW 172040Z 1721/1824 15008KT 2SM FU OVC025 FM180100 19005KT 5SM HZ SCT022 BKN045 BKN080 PROB30 1801/1804 2SM TSRA HZ BKN022 OVC045CB FM181400 24014G23KT P6SM SCT030 BKN050 OVC120 PROB30 1817/1821 3SM TSRA OVC030CB FM182200 35012KT P6SM BKN050",
    "KMSP": "TAF KMSP 172028Z 1720/1824 23010G18KT P6SM FEW060 FM180200 25007KT P6SM SCT080 PROB30 1803/1805 3SM -TSRA BKN050CB FM180500 33008KT 6SM FU SCT080 FM181500 35010KT 5SM FU SCT050",
    "CYEG": "TAF CYEG 172045Z 1721/1818 09012KT P6SM FEW050 FEW250 FM180000 12010KT P6SM FEW040 TEMPO 1800/1803 VRB25G35KT P6SM VCTS BKN040CB FM180300 12008KT P6SM BKN080 TEMPO 1803/1806 P6SM -SHRA PROB30 1803/1806 VRB25G35KT 3SM TSRA BKN080CB FM180600 12005KT P6SM SCT040 TEMPO 1806/1809 VRB20G30KT P6SM -SHRA VCTS SCT020 BKN040CB FM180900 10005KT P6SM SCT008 PROB30 1809/1815 3/4SM BR SCT004 FM181500 13005KT P6SM SCT025 BECMG 1816/1818 27008KT RMK NXT FCST BY 180000Z",
    "EHAM": "TAF EHAM 171711Z 1718/1824 32010KT 9999 SCT025 TEMPO 1718/1808 BKN018",
    "EBBR": "TAF EBBR 171706Z 1718/1824 32007KT 9999 FEW045",
    "EDDF": "TAF EDDF 171700Z 1718/1824 24005KT 9999 FEW040 BECMG 1810/1812 27010KT BECMG 1819/1821 35005KT",
    "EDFH": "TAF EDFH 171700Z 1718/1818 28006KT 9999 FEW025",
    "EDDL": "TAF EDDL 171700Z 1718/1824 30011KT CAVOK BECMG 1719/1722 29004KT PROB30 TEMPO 1804/1807 BKN014 BECMG 1806/1809 28011KT BECMG 1820/1822 30005KT",
    "EDDK": "TAF EDDK 171700Z 1718/1824 30010KT CAVOK BECMG 1720/1723 31005KT PROB30 TEMPO 1804/1807 BKN014 BECMG 1807/1810 30011KT BECMG 1819/1822 31005KT",
    "EBLG": "TAF EBLG 171706Z 1718/1824 32007KT 9999 FEW045 PROB30 TEMPO 1803/1806 BKN012",
    "LSZH": "TAF LSZH 172025Z 1721/1903 30008KT 9999 FEW050 TX25/1814Z TN16/1804Z TEMPO 1721/1723 FEW050TCU BECMG 1721/1723 VRB02KT BECMG 1721/1724 CAVOK PROB30 1803/1805 9999 MIFG NSC BECMG 1807/1810 26010KT 9999 FEW060TCU PROB30 TEMPO 1812/1818 30015G25KT TSRA FEW060CB BECMG 1818/1821 VRB02KT",
    "LIMC": "TAF LIMC 171700Z 1718/1824 02005KT 9999 FEW040 BECMG 1812/1814 22010KT PROB30 TEMPO 1813/1817 TSRA",
    "LIRF": "TAF LIRF 171700Z 1718/1824 20010KT CAVOK BECMG 1718/1720 VRB05KT TEMPO 1802/1806 1000 BCFG BKN004 BECMG 1809/1811 28012KT",
    "EINN": "TAF EINN 171700Z 1718/1818 34010KT 9999 FEW025 BECMG 1720/1722 01009KT",
    "EGLL": "TAF EGLL 171659Z 1718/1824 34008KT 9999 FEW048 BECMG 1719/1722 05010KT PROB30 TEMPO 1801/1807 BKN012",
    "EGSS": "TAF EGSS 171654Z 1718/1824 03008KT 9999 FEW045 PROB30 TEMPO 1722/1809 7000 BKN011",
    "EPWA": "TAF EPWA 172030Z 1721/1821 15008KT CAVOK TEMPO 1723/1803 SHRA SCT050CB PROB40 TEMPO 1800/1804 VRB15G25KT 2000 TSRA SCT012 BKN030CB BECMG 1803/1806 25010KT TEMPO 1809/1821 SHRA SCT040CB PROB40 TEMPO 1811/1818 27015G30KT 2000 TSRA SCT040CB",
    "UHPP": "TAF UHPP 171933Z 1721/1903 30003G10MPS 9999 SCT050 TX29/1803Z TN18/1816Z TEMPO 1800/1809 19005G12MPS",
    "EFHK": "TAF EFHK 172026Z 1721/1821 10006KT CAVOK PROB40 1806/1812 SCT050CB BECMG 1812/1814 SCT040CB TEMPO 1814/1819 5000 SHRA PROB30 TEMPO 1815/1819 21012G25KT 3500 TSRA BECMG 1819/1821 BKN008",
    "LBBG": "TAF LBBG 171700Z 1718/1818 08012KT 9999 SCT045 BECMG 1718/1720 VRB03KT TEMPO 1800/1805 3000 BR BKN008 PROB30 1802/1804 0600 BCFG BKN003 BECMG 1807/1809 12012KT",
    "LTAC": "TAF LTAC 171640Z 1718/1818 05009KT 9999 SCT040 BECMG 1719/1721 CAVOK BECMG 1807/1809 SCT040",
    "UBBB": "TAF UBBB 171704Z 1718/1818 35014KT CAVOK TX32/1810Z TN23/1801Z TEMPO 1718/1802 33008KT SCT015 TEMPO 1804/1809 36014G24KT SCT025 TEMPO 1809/1815 02016G26KT",
    "UTAA": "TAF UTAA 171645Z 1718/1818 30016KT 6000 SCT050 TX41/1811Z TEMPO 1718/1803 24014KT TEMPO 1803/1810 32016G26KT 4000 DRDU",
    "UACC": "TAF UACC 171702Z 1718/1818 20004MPS 9999 SCT040CB BKN050 TX35/1809Z TN16/1723Z TEMPO 1718/1723 VRB01MPS 3100 -TSRA BKN020CB BECMG 1804/1806 23006MPS TEMPO 1804/1816 28012MPS -TSRA BKN030CB BECMG 1816/1818 08005MPS SCT030 BKN100",
    "UAAA": "TAF UAAA 171702Z 1718/1818 17003MPS 9999 FEW100 TX41/1810Z TN22/1800Z BECMG 1803/1804 04003G08MPS BECMG 1813/1814 18003MPS",
    "UZTT": "TAF UZTT 171700Z 1718/1818 07010KT CAVOK TX44/1811Z TN27/1800Z TEMPO 1718/1724 VRB04KT 4000 FU",
    "ZWWW": "TAF ZWWW 171503Z 1718/1824 18004MPS CAVOK TX41/1809Z TN29/1723Z TN29/1823Z BECMG 1802/1803 36004MPS BECMG 1813/1814 18004MPS",
    "ZLXY": "TAF ZLXY 171502Z 1718/1818 03003MPS 6000 NSC TX32/1808Z TN24/1721Z BECMG 1722/1723 28005MPS",
    "ZBAA": "TAF ZBAA 171500Z 1718/1824 18003MPS CAVOK TX31/1806Z TN23/1721Z TN22/1821Z TEMPO 1808/1812 -TSRA FEW040CB BKN040",
    "ZBHH": "TAF ZBHH 171503Z 1718/1818 04004MPS 9999 SCT040 TX29/1808Z TN16/1722Z",
    "ZSQD": "TAF ZSQD 171501Z 1718/1818 36004MPS 3500 BR BKN020 TX30/1806Z TN22/1720Z BECMG 1720/1721 2000 BKN010 BECMG 1722/1723 3500 SCT015",
    "ZMCK": "TAF ZMCK 171633Z 1718/1824 VRB02MPS 9999 FEW030CB SCT033 TN11/1721Z TX24/1807Z PROB40 TEMPO 1805/1816 VRB08G13MPS TSRA SCT027CB SCT030",
    "UUEE": "TAF UUEE 171950Z 1721/1821 33003MPS 9999 SCT040 TX25/1813Z TN11/1802Z",
    "UUDD": "TAF UUDD 171953Z 1721/1903 36003MPS 8000 SCT040 TX26/1812Z TN08/1801Z",
    "ULLI": "TAF ULLI 171952Z 1721/1821 16003MPS 9999 SCT020 BECMG 1804/1806 18006G12MPS",
    "USSS": "TAF USSS 171952Z 1721/1821 36003MPS 6000 SCT016 TEMPO 1721/1804 0300 FG VV002 FM180400 08003G14MPS 5000 -SHRA BKN016CB TEMPO 1804/1821 -TSRA",
    "UNNT": "TAF UNNT 172000Z 1721/1821 26003G08MPS 8000 SCT040 TX25/1809Z TN16/1722Z TEMPO 1721/1802 0300 -TSRA FG BKN002 BKN020CB TEMPO 1802/1821 -TSRA BKN020CB",
    "UNKL": "TAF UNKL 171958Z 1721/1821 27003MPS 2100 -SHRA BR SCT016CB TEMPO 1721/1723 1000 -TSRA BR BKN003 BKN016CB BECMG 1723/1801 6000 -TSRA BKN003 BKN016CB BECMG 1802/1804 NSW SCT016CB TEMPO 1805/1818 -TSRA BECMG 1818/1820 -TSRA",
    "UIBB": "TAF UIBB 172000Z 1721/1821 21003G08MPS 0300 FG BKN001 BKN016CB TEMPO 1721/1801 5000 -TSRA BR FEW004 BKN016CB BECMG 1801/1803 9999 NSW BKN016CB BECMG 1803/1804 27005MPS TEMPO 1804/1815 -TSRA",
    "UEEE": "TAF UEEE 172000Z 1721/1903 06003G08MPS 9999 SCT025CB OVC100 TEMPO 1721/1722 -TSRA TEMPO 1722/1812 VRB16MPS 4000 -TSRA SCT011 BKN020CB OVC070",
    "UHHH": "TAF UHHH 171947Z 1721/1903 22003MPS 9999 SCT025CB TX29/1806Z TN19/1818Z TEMPO 1721/1809 24008MPS FEW010 SCT025CB",
    "UHSS": "TAF UHSS 171957Z 1721/1903 24003MPS 0700 FG BKN002 BKN016CB BECMG 1722/1724 9999 NSW SCT030"
  },
  "atis": {},
  "windtemp_alaska": "\n000\nFBAK31 KWNO 172000\nFD1AK1\nDATA BASED ON 171800Z    \nVALID 180000Z   FOR USE 2000-0300Z. TEMPS NEG ABV 24000\n\nFT  3000    6000    9000   12000   18000   24000  30000  34000  39000\nADK 3327 3331+08 3233+05 3136-01 3045-15 3066-25 318537 318147 316449\nADQ 2611 2213-02 2419-04 2523-09 2529-19 2741-29 289042 298351 264046\nAKN 2314 2411-03 2513-05 2416-10 2426-20 2541-30 269142 279451 253244\nANC 1606 1613+00 1712-05 1810-11 2120-23 2224-35 233144 213042 202641\nANN 3212 2808+12 2409+08 2312+02 2311-13 2209-24 210539 200549 240657\nBET 2007 1507-02 1206-07 9900-12 2409-23 2421-33 253546 242844 241440\nBRW 0713 0815+04 0715-01 0716-06 0818-18 0917-30 102147 101953 111245\nBTI 0706 1005+02 1308-02 1409-06 1609-18 1809-30 221645 181549 161544\nBTT 1005 1507+02 1509-03 1310-08 1118-22 1223-34 132947 142844 152041\nCDB 2040 2134-01 2239-03 2448-05 2466-14 2471-24 246840 247650 255552\nCZF 0406 0505-02 0808-07 0811-13 0608-24 0507-35 990047 990042 330539\nEHM 1718 1619-03 1616-07 1613-12 2221-19 2342-30 238942 248348 252743\nFAI 9900 2409+01 2114-05 2015-10 1721-21 1736-34 177046 184544 172741\nFYU 9900 1707+03 1611-03 1708-08 1721-19 1837-29 196645 195950 173144\nGAL 1807 1816+00 1613-05 1618-11 1219-24 1120-37 112346 121641 141139\nGKN 1512 1815+01 1915-04 1815-10 1924-21 1848-31 187544 186346 193943\nHOM 2708 2508-01 2509-06 2313-11 2421-21 2632-32 264446 263845 232442\nJNU 2406 2513+07 2419+04 2322-01 2125-13 2027-24 202940 203049 202856\nLUR 0628 0623+04 0623-01 0625-07 0822-21 0926-31 112546 092752 071443\nMCG 1809 1916-02 1918-07 1723-12 1520-25 1712-37 211245 211241 191439\nMDO 2209 1806-01 2011-02 2217-07 2225-20 2426-32 213045 203445 213242\nOME 3508 3606+00 3506-05 9900-10 1112-24 0620-36 062748 061643 061239\nORT      3105+01 2210-02 1924-07 1836-16 1848-28 196542 197650 194848\nOTZ 9900 9900+01 0905-03 0710-09 0621-21 0730-34 085949 083747 081740\nSNP 0537 0529-03 0325-05 0212-08 3610-20 0106-33 291341 291838 292039\nTKA 9900 1814+00 1713-06 1716-12 1921-24 2021-36 192844 202941 202440\nUNK 9900 9900+00 0506-05 0708-11 0512-24 0613-38 081245 100841 110740\nYAK 1606 1913+02 2027+01 2026-05 2041-15 1952-26 196040 195949 205052\nIKO 2537 2542+05 2551+01 2551-03 2651-15 2572-26 238940 248648 264847\nAFM 9900 1206+02 1209-03 1116-08 1122-22 0929-33 086148 094147 121541\n5AB 3417 3421+09 3330+06 3240+01 3248-10 3350-21 346134 347544 358655\n5AC 3224 3224+11 3223+06 3119+02 3018-13 2916-25 271340 281349 291858\n5AD 2821 2726+04 2631+01 2637-03 2645-16 2749-28 276045 286149 264348\n5AE 2320 2423+00 2427-03 2530-06 2653-14 2659-25 275741 277050 266556\n5AF 2614 2515+08 2321+04 2325+00 2232-14 2137-25 203740 213449 213356\n5AG 2515 2416+02 2320-02 2127-06 2026-19 1950-29 188040 188147 204547\n",
  "vaac_active": [
    {
      "volcano": "SHEVELUCH",
      "volcano_jp": "シベルチ",
      "advisory_nr": "2026/267",
      "obs_time": "2026-07-17 19:40Z",
      "issued_time": "2026-07-17 20:55Z",
      "text_url": "https://www.data.jma.go.jp/vaac/data/TextData/2026/20260717_30027000_0267_Text.html",
      "lat": 56.65,
      "lon": 161.367,
      "text": "FVFE01 RJTD 172055\nVA ADVISORY\nDTG: 20260717/2055Z\nVAAC: TOKYO\nVOLCANO: SHEVELUCH 300270\nPSN: N5639 E16122\nAREA: RUSSIA\nSOURCE ELEV: 3283M AMSL\nADVISORY NR: 2026/267\nINFO SOURCE: HIMAWARI-9\nERUPTION DETAILS: POSS ERUPTION OBS AT 20260717/1940Z FL350 EXTD SE\nOBS VA DTG: 17/2010Z\nOBS VA CLD: SFC/FL350 N5639 E16136 - N5652 E16203 - N5641 E16208 - \nN5629 E16141 MOV SE 25KT\nFCST VA CLD +6 HR: 18/0210Z SFC/FL360 N5445 E16558 - N5547 E16342 - \nN5655 E16207 - N5734 E16352\nFCST VA CLD +12 HR: 18/0810Z SFC/FL360 N5754 E16735 - N5212 E16923 - \nN5249 E16756 - N5613 E16548 - N5734 E16351\nFCST VA CLD +18 HR: 18/1410Z SFC/FL360 N5728 E17045 - N5343 E17223 - \nN4910 E17223 - N4916 E17115 - N5521 E16839 - N5708 E16717\nRMK: NIL\nNXT ADVISORY: 20260718/0000Z="
    },
    {
      "volcano": "MAYON",
      "volcano_jp": "マヨン",
      "advisory_nr": "2026/760",
      "obs_time": "2026-07-17 16:01Z",
      "issued_time": "2026-07-17 16:17Z",
      "text_url": "https://www.data.jma.go.jp/vaac/data/TextData/2026/20260717_27303000_0760_Text.html",
      "lat": 13.25,
      "lon": 123.683,
      "text": "FVFE01 RJTD 171617\nVA ADVISORY\nDTG: 20260717/1617Z\nVAAC: TOKYO\nVOLCANO: MAYON 273030\nPSN: N1315 E12341\nAREA: PHILIPPINES\nSOURCE ELEV: 2462M AMSL\nADVISORY NR: 2026/760\nINFO SOURCE: HIMAWARI-9 PHIVOLCS\nERUPTION DETAILS: ERUPTION AT 20260717/1601Z VA CLD UNKNOWN REPORTED\nOBS VA DTG: 17/1600Z\nOBS VA CLD: VA NOT IDENTIFIABLE FM SATELLITE DATA WIND FL180 360/3KT\nFCST VA CLD +6 HR: NOT AVBL\nFCST VA CLD +12 HR: NOT AVBL\nFCST VA CLD +18 HR: NOT AVBL\nRMK: WE WILL ISSUE FURTHER ADVISORY IF VA IS DETECTED IN SATELLITE \nIMAGERY.\nNXT ADVISORY: NO FURTHER ADVISORIES="
    }
  ],
  "vaac_tokyo": [
    {
      "id": "20260717_30027000_0267",
      "year": "2026",
      "volcano": "Sheveluch",
      "psn": "N5639 E16122",
      "issued": "20260717",
      "text": "FVFE01 RJTD 172055\nVA ADVISORY\nDTG: 20260717/2055Z\nVAAC: TOKYO\nVOLCANO: SHEVELUCH 300270\nPSN: N5639 E16122\nAREA: RUSSIA\nSOURCE ELEV: 3283M AMSL\nADVISORY NR: 2026/267\nINFO SOURCE: HIMAWARI-9\nERUPTION DETAILS: POSS ERUPTION OBS AT 20260717/1940Z FL350 EXTD SE\nOBS VA DTG: 17/2010Z\nOBS VA CLD: SFC/FL350 N5639 E16136 - N5652 E16203 - N5641 E16208 - \nN5629 E16141 MOV SE 25KT\nFCST VA CLD +6 HR: 18/0210Z SFC/FL360 N5445 E16558 - N5547 E16342 - \nN5655 E16207 - N5734 E16352\nFCST VA CLD +12 HR: 18/0810Z SFC/FL360 N5754 E16735 - N5212 E16923 - \nN5249 E16756 - N5613 E16548 - N5734 E16351\nFCST VA CLD +18 HR: 18/1410Z SFC/FL360 N5728 E17045 - N5343 E17223 - \nN4910 E17223 - N4916 E17115 - N5521 E16839 - N5708 E16717\nRMK: NIL\nNXT ADVISORY: 20260718/0000Z=",
      "img_url": "https://ds.data.jma.go.jp/svd/vaac/data/VAGFN/2026/Images/20260717_30027000_0267_QH21_01.png",
      "sat_img_url": "https://ds.data.jma.go.jp/svd/vaac/data/Sat/2026/Images/30027000/09-ir/20260717_2010_202607172055_ir.png",
      "text_url": "https://ds.data.jma.go.jp/svd/vaac/data/TextData/2026/20260717_30027000_0267_Text.html"
    },
    {
      "id": "20260717_27307000_0014",
      "year": "2026",
      "volcano": "Taal",
      "psn": "N1400 E12100",
      "issued": "20260717",
      "text": "FVFE01 RJTD 171113\nVA ADVISORY\nDTG: 20260717/1113Z\nVAAC: TOKYO\nVOLCANO: TAAL 273070\nPSN: N1400 E12100\nAREA: PHILIPPINES\nSOURCE ELEV: 311M AMSL\nADVISORY NR: 2026/14\nINFO SOURCE: HIMAWARI-9 PHIVOLCS\nERUPTION DETAILS: ERUPTION AT 20260717/1051Z FL040 EXTD E REPORTED\nOBS VA DTG: 17/1100Z\nOBS VA CLD: VA NOT IDENTIFIABLE FM SATELLITE DATA WIND FL040 270/8KT\nFCST VA CLD +6 HR: NOT AVBL\nFCST VA CLD +12 HR: NOT AVBL\nFCST VA CLD +18 HR: NOT AVBL\nRMK: WE WILL ISSUE FURTHER ADVISORY IF VA IS DETECTED IN SATELLITE \nIMAGERY.\nNXT ADVISORY: NO FURTHER ADVISORIES=",
      "img_url": "https://ds.data.jma.go.jp/svd/vaac/data/VAGFN/2026/Images/20260717_27307000_0014_QH21_01.png",
      "sat_img_url": null,
      "text_url": "https://ds.data.jma.go.jp/svd/vaac/data/TextData/2026/20260717_27307000_0014_Text.html"
    },
    {
      "id": "20260717_27303000_0759",
      "year": "2026",
      "volcano": "Mayon",
      "psn": "N1315 E12341",
      "issued": "20260717",
      "text": "FVFE01 RJTD 171107\nVA ADVISORY\nDTG: 20260717/1107Z\nVAAC: TOKYO\nVOLCANO: MAYON 273030\nPSN: N1315 E12341\nAREA: PHILIPPINES\nSOURCE ELEV: 2462M AMSL\nADVISORY NR: 2026/759\nINFO SOURCE: HIMAWARI-9 PHIVOLCS\nERUPTION DETAILS: ERUPTION AT 20260717/0526Z FL140 EXTD SSW REPORTED\nOBS VA DTG: 17/1050Z\nOBS VA CLD: VA NOT IDENTIFIABLE FM SATELLITE DATA WIND FL140 360/5KT\nFCST VA CLD +6 HR: NOT AVBL\nFCST VA CLD +12 HR: NOT AVBL\nFCST VA CLD +18 HR: NOT AVBL\nRMK: WE WILL ISSUE FURTHER ADVISORY IF VA IS DETECTED IN SATELLITE \nIMAGERY.\nNXT ADVISORY: NO FURTHER ADVISORIES=",
      "img_url": "https://ds.data.jma.go.jp/svd/vaac/data/VAGFN/2026/Images/20260717_27303000_0759_QH21_01.png",
      "sat_img_url": null,
      "text_url": "https://ds.data.jma.go.jp/svd/vaac/data/TextData/2026/20260717_27303000_0759_Text.html"
    },
    {
      "id": "20260713_28208001_0083",
      "year": "2026",
      "volcano": null,
      "psn": "N3136 E13039",
      "issued": "20260713",
      "text": "FVFE01 RJTD 130254\nVA ADVISORY\nDTG: 20260713/0254Z\nVAAC: TOKYO\nVOLCANO: SAKURAJIMA (AIRA CALDERA) 282080\nPSN: N3136 E13039\nAREA: JAPAN\nSOURCE ELEV: 1117M AMSL\nADVISORY NR: 2026/83\nINFO SOURCE: JMA HIMAWARI-9\nERUPTION DETAILS: ERUPTED AT 20260713/0152Z FL100 EXTD N\nOBS VA DTG: 13/0230Z\nOBS VA CLD: SFC/FL100 N3136 E13039 - N3142 E13040 - N3141 E13044 - \nN3134 E13042 MOV NE 15KT\nFCST VA CLD +6 HR: 13/0830Z SFC/FL100 N3234 E13121 - N3145 E13155 - \nN3202 E13110 - N3227 E13051\nFCST VA CLD +12 HR: 13/1430Z SFC/FL100 N3318 E13206 - N3142 E13317 - \nN3134 E13226 - N3312 E13118\nFCST VA CLD +18 HR: NO VA EXP\nRMK: NIL\nNXT ADVISORY: 20260713/0600Z=",
      "img_url": "https://ds.data.jma.go.jp/svd/vaac/data/VAGFN/2026/Images/20260713_28208001_0083_QH21_01.png",
      "sat_img_url": "https://ds.data.jma.go.jp/svd/vaac/data/Sat/2026/Images/28208001/09-ir/20260713_0230_202607130254_ir.png",
      "text_url": "https://ds.data.jma.go.jp/svd/vaac/data/TextData/2026/20260713_28208001_0083_Text.html"
    }
  ],
  "vaac_alaska": [
    {
      "text": "\n000\nFVAK21 PAWU 162126\nVAAAK1\nVA ADVISORY\n\nDTG: 20260716/2122Z\n\nVAAC: ANCHORAGE\n\nVOLCANO: SHEVELUCH 300270\n\nPSN: N5639 E16122\n\nAREA: KAMCHATKA PENINSULA\n\nSOURCE ELEV: 10771 FT AMSL\n\nADVISORY NR: 2026/204\n\nINFO SOURCE: HIMAWARI\n\nERUPTION DETAILS: VA NOT IDENTIFIABLE FM SATELLITE DATA.\n\nOBS VA DTG: 16/2122Z\n\nOBS VA CLD: VA NOT IDENTIFIABLE FM SATELLITE DATA WIND FL100 280/20KT\n\nFCST VA CLD +6HR: NOT AVBL\n\nFCST VA CLD +12HR: NOT AVBL\n\nFCST VA CLD +18HR: NOT AVBL\n\nRMK: A NEW ADVISORY WILL BE ISSUED IF VA IS DETECTED IN SATELLITE IMAGERY....DK\n\nNXT ADVISORY: NO FURTHER ADVISORIES=\n\n",
      "issued": "2026-07-16T21:26:00+00:00",
      "volcano": "Sheveluch",
      "psn": "N5639 E16122"
    }
  ]
}