{
  "updated_utc": "2026-07-17T03:54Z",
  "metar": {
    "RJAA": "METAR RJAA 170200Z 13011KT 2000 R16R/0750V1800U R16L/P2000N +SHRA BR FEW004 BKN007 BKN025 26/25 Q1004 BECMG 6000 -SHRA",
    "PANC": "SPECI PANC 170216Z 15011G23KT 8SM -RA FEW011 FEW048 OVC055 11/08 A2996 RMK AO2 WSHFT 0156 P0000 T01060083",
    "PAFA": "METAR PAFA 170253Z 19004KT 10SM SCT060 BKN090 BKN200 19/07 A2985 RMK AO2 SLP111 T01940067 56019",
    "PAED": "METAR PAED 170155Z 31003KT 7SM -RA FEW005 SCT015 OVC047 13/10 A2996 RMK SLP142 P0002 T01270104 $",
    "KSEA": "METAR KSEA 170253Z 22005KT 10SM FEW018 OVC045 16/12 A3003 RMK AO2 SLP173 T01560122 53000 $",
    "ZSPD": "METAR ZSPD 170200Z 24005MPS CAVOK 37/25 Q1001 NOSIG",
    "ZSSS": "METAR ZSSS 170200Z VRB03MPS 9999 FEW040 36/26 Q1001 BECMG TL0330 23005MPS",
    "RJFR": "METAR RJFR 170200Z 11005KT 9999 FEW010 SCT100 BKN/// 30/26 Q1003",
    "VHHH": "METAR VHHH 170200Z 21015KT 6000 +TSRA FEW005 FEW012CB SCT020 26/24 Q1007 TEMPO 22025G35KT 1500 TSRA +SHRA FEW005CB SCT015",
    "RCTP": "METAR RCTP 170200Z 24017KT 9999 FEW025 33/25 Q1007 NOSIG RMK A2974",
    "ZGSZ": "METAR ZGSZ 170200Z 16003MPS 9999 FEW013 SCT030 29/27 Q1006 BECMG AT0320 SHRA FEW020CB BKN040",
    "WSSS": "METAR WSSS 170200Z 15007KT 120V180 9999 FEW016 FEW018TCU BKN300 29/25 Q1012 NOSIG",
    "WMKK": "METAR WMKK 170200Z 11006KT 070V170 9999 FEW017CB 32/26 Q1011 NOSIG",
    "WIDD": "METAR WIDD 170200Z 14010KT 9999 SCT014 30/26 Q1012 NOSIG",
    "VTBS": "METAR VTBS 170200Z 21003KT 9000 FEW020 SCT080 29/26 Q1011 NOSIG",
    "VTBU": "METAR VTBU 170200Z 24008KT 9000 FEW020 SCT100 30/28 Q1011 NOSIG",
    "ROAH": "METAR ROAH 170200Z 22008KT 9999 BKN008 BKN010 30/28 Q1007",
    "VVDN": "METAR VVDN 170200Z 31003KT 160V280 9999 FEW020 34/22 Q1007 NOSIG",
    "RCKH": "METAR RCKH 170200Z 08006KT 9000 -SHRA FEW008CB SCT016 BKN024 28/25 Q1009 NOSIG RMK CB SW A2981 RA AMT 2.2MM",
    "KLAX": "METAR KLAX 170253Z 22005KT 9SM FEW010 22/19 A2981 RMK AO2 SLP092 T02220189 53005 $",
    "KONT": "METAR KONT 170253Z 25010KT 10SM FEW200 28/17 A2981 RMK AO2 SLP075 T02830167 53010 $",
    "KSFO": "METAR KSFO 170156Z 27013G23KT 10SM FEW012 18/11 A2986 RMK AO2 SLP113 T01780106",
    "KOAK": "METAR KOAK 170253Z 24013KT 10SM FEW010 17/12 A2987 RMK AO2 SLP115 T01670117 55007",
    "KMHR": "METAR KMHR 170155Z AUTO 21010KT 10SM CLR 31/08 A2976 RMK AO2 T03070084 $",
    "KDFW": "METAR KDFW 170253Z 14011G16KT 10SM FEW110 SCT170 BKN250 26/20 A3005 RMK AO2 SLP169 60000 T02560200 51011 $",
    "KIAH": "METAR KIAH 170253Z 17007KT 10SM FEW025 FEW180 BKN250 29/24 A3008 RMK AO2 SLP185 T02890239 51014 $",
    "KORD": "METAR KORD 170251Z VRB05KT 3/4SM R10L/P6000FT FU VV015 27/17 A3006 RMK AO2 SLP174 T02670167 53011",
    "KJFK": "METAR KJFK 170251Z 32011G17KT 5SM FU FEW032 BKN045 29/13 A2992 RMK AO2 SLP132 FU BKN045 T02890128 51019 $",
    "KRFD": "METAR KRFD 170254Z 00000KT 1 1/2SM FU OVC019 26/16 A3008 RMK AO2 SLP180 T02610161 53016",
    "KIND": "METAR KIND 170254Z 03006KT 10SM SCT060 BKN110 BKN190 OVC250 28/22 A3007 RMK AO2 SLP172 CB DSNT NE T02830217 53015 $",
    "KDTW": "METAR KDTW 170253Z 03004KT 1SM R03R/P6000FT FU OVC035 24/15 A3009 RMK AO2 SFC VIS 1 1/2 SLP185 FU OVC035 T02440150 53014",
    "KMSP": "METAR KMSP 170253Z 23004KT 10SM FEW250 31/20 A2999 RMK AO2 SLP150 T03060200 53005",
    "CYEG": "METAR CYEG 170200Z 20002KT 20SM FEW024TCU SCT240 25/20 A2994 RMK TCU1CI3 TCU TR SLP135 DENSITY ALT 4100FT",
    "EHAM": "METAR EHAM 170155Z 33005KT 9999 MIFG NSC 15/14 Q1015 NOSIG",
    "EBBR": "METAR EBBR 170220Z 33002KT CAVOK 16/14 Q1014 NOSIG",
    "EDDF": "METAR EDDF 170220Z AUTO VRB01KT CAVOK 17/16 Q1013 NOSIG",
    "EDFH": "METAR EDFH 170220Z 15007KT CAVOK 17/14 Q1015",
    "EDDL": "METAR EDDL 170220Z AUTO 02002KT CAVOK 17/14 Q1013 NOSIG",
    "EDDK": "METAR EDDK 170220Z AUTO VRB01KT CAVOK 16/14 Q1013 NOSIG",
    "EBLG": "METAR EBLG 170220Z 04003KT 020V080 CAVOK 18/13 Q1014 NOSIG",
    "LSZH": "METAR LSZH 170220Z AUTO VRB02KT CAVOK 18/16 Q1017 NOSIG",
    "LIMC": "METAR LIMC 170220Z 33016G30KT 270V020 4000 R35R/0750D R17L/P2000N R35L/1500D TSRA BKN030CB BKN035 19/18 Q1018 NOSIG",
    "LIRF": "METAR LIRF 170220Z 12005KT CAVOK 26/25 Q1014 NOSIG",
    "EINN": "METAR EINN 170200Z 35006KT CAVOK 17/15 Q1020 NOSIG",
    "EGLL": "METAR EGLL 170220Z AUTO 36003KT 9999 NCD 18/13 Q1017",
    "EGSS": "METAR EGSS 170220Z AUTO 33004KT 9000 NCD 13/12 Q1017",
    "EPWA": "METAR EPWA 170200Z 15002KT CAVOK 18/14 Q1018 NOSIG",
    "UHPP": "METAR UHPP 170200Z 18003MPS 130V220 9999 SCT050 21/14 Q1017 R16R/CLRD62 NOSIG RMK QFE760/1013",
    "EFHK": "METAR EFHK 170220Z 13006KT 9999 FEW045 14/13 Q1020 NOSIG",
    "LBBG": "METAR LBBG 170200Z AUTO 24004KT 9999 NCD 21/18 Q1014 NOSIG",
    "LTAC": "METAR LTAC 170220Z 04006KT CAVOK 16/12 Q1016 NOSIG RMK RWY21C 03007KT RWY03L 03008KT RWY21R 01007KT RWY03R 04005KT RWY21L 04007KT",
    "UBBB": "METAR UBBB 170200Z 31008KT CAVOK 25/21 Q1008 NOSIG",
    "UTAA": "METAR UTAA 170200Z 30008KT 8000 NSC 30/19 Q1006 R88/CLRD70 NOSIG",
    "UACC": "METAR UACC 170200Z 27003MPS CAVOK 21/13 Q1004 NOSIG RMK QFE722/0963",
    "UAAA": "METAR UAAA 170200Z 36004MPS 320V020 9999 NSC 26/12 Q1009 NOSIG",
    "UZTT": "METAR UZTT 170200Z 08006KT CAVOK 31/13 Q1004 NOSIG",
    "ZWWW": "METAR ZWWW 170200Z 17003MPS 130V230 CAVOK 34/08 Q1010 NOSIG",
    "ZLXY": "METAR ZLXY 170200Z 18002MPS 140V250 9999 FEW040 29/20 Q1006 NOSIG",
    "ZBAA": "METAR ZBAA 170200Z 20005MPS 170V250 CAVOK 29/18 Q1002 NOSIG",
    "ZBHH": "METAR ZBHH 170200Z VRB01MPS CAVOK 23/16 Q1008 NOSIG",
    "ZSQD": "METAR ZSQD 170200Z 05004MPS 9999 SCT012 25/24 Q1001 BECMG TL0230 RA",
    "ZMCK": "METAR ZMCK 170200Z VRB01MPS 9999 FEW030CB SCT033 17/11 Q1010 NOSIG RMK QFE643.1 71 MOP",
    "UUEE": "METAR UUEE 170200Z 32003MPS CAVOK 09/06 Q1017 R06R/CLRD62 NOSIG",
    "UUDD": "METAR UUDD 170200Z 36005MPS CAVOK 10/05 Q1017 R31L///99// NOSIG",
    "ULLI": "METAR ULLI 170200Z VRB01MPS CAVOK 09/07 Q1021 R10R/090065 NOSIG",
    "USSS": "METAR USSS 170200Z 28002MPS 250V320 9999 SCT026 18/18 Q0998 R26L/CLRD60 R26R/210060 NOSIG RMK QFE728/0971",
    "UNNT": "METAR UNNT 170200Z 17002MPS CAVOK 21/19 Q0997 R25/290160 R34/290160 NOSIG RMK QFE738/0984",
    "UNKL": "METAR UNKL 170200Z 09003MPS CAVOK 19/14 Q1001 R11/CLRD// NOSIG RMK QFE725",
    "UIBB": "METAR UIBB 170200Z 19002MPS 160V240 9999 NSC 21/13 Q1004 R12/CLRD62 NOSIG RMK QFE711/0948",
    "UEEE": "METAR UEEE 170200Z 11004MPS 9999 BKN030CB 21/16 Q0991 R23/190157 NOSIG RMK QFE735",
    "UHHH": "METAR UHHH 170200Z 20007MPS 9999 SCT043 26/17 Q0998 R88/090060 NOSIG RMK QFE742/0990",
    "UHSS": "METAR UHSS 170200Z 20005MPS 9999 BKN012 24/21 Q1005 R19/CLRD70 NOSIG RMK MT OBSC QFE753/1004"
  },
  "taf": {
    "RJAA": "TAF RJAA 162305Z 1700/1806 14010KT 8000 -SHRA FEW005 BKN012 TEMPO 1700/1706 4000 -TSRA BR FEW003 BKN005 FEW020CB TEMPO 1706/1715 FEW003 BKN005",
    "PANC": "TAF PANC 170242Z 1703/1806 15012G20KT P6SM -RA FEW011 OVC050 FM170700 15006KT P6SM -RA SCT035 OVC045 FM171000 34006KT P6SM FEW030 SCT045 BKN060 FM171700 34003KT 6SM -SHRA OVC045 FM172000 34005KT 5SM -SHRA BKN030",
    "PAFA": "TAF PAFA 162320Z 1700/1806 20007KT P6SM FEW050 BKN100 FM171000 25004KT 6SM -SHRA BR SCT030 OVC050 FM171400 24007KT P6SM OVC050 FM180000 21006KT P6SM VCTS BKN050CB",
    "PAED": "TAF AMD PAED 170242Z 1702/1803 30009KT 9000 -RA SCT004 BKN035 OVC045 650604 QNH2992INS TEMPO 1702/1708 6000 RA BKN004 BECMG 1708/1709 02008KT 9999 VCSH SCT055 OVC070 610703 520208 QNH2980INS BECMG 1721/1722 34009KT 9999 -RA SCT010 BKN020 OVC045 640604 QNH2982INS TX15/1722Z TN09/1714Z",
    "KSEA": "TAF KSEA 170254Z 1703/1806 24007KT P6SM FEW015 BKN040 FM171200 20005KT P6SM SCT010 BKN020 FM171800 23007KT P6SM BKN035 FM172100 24007KT P6SM FEW050 FM180300 31006KT P6SM BKN050",
    "ZSPD": "TAF ZSPD 162107Z 1700/1806 19004MPS 8000 SCT030 TX38/1706Z TX34/1803Z TN28/1721Z TEMPO 1706/1710 TSRA BKN015 FEW030CB TEMPO 1804/1806 TSRA BKN015 FEW030CB",
    "ZSSS": "TAF ZSSS 162107Z 1700/1806 23004MPS 8000 SCT030 TX38/1706Z TX35/1803Z TN28/1721Z TEMPO 1706/1710 TSRA BKN015 FEW030CB TEMPO 1804/1806 TSRA BKN015 FEW030CB",
    "RJFR": "TAF RJFR 162305Z 1700/1806 02004KT 9999 FEW010 BKN030 BECMG 1700/1702 11008KT TEMPO 1703/1705 -TSRA FEW015 BKN030 FEW030CB TEMPO 1705/1709 3000 TSRA BR FEW020 BKN030 FEW030CB TEMPO 1709/1800 BKN005 BKN040 BECMG 1803/1806 07010KT",
    "VHHH": "TAF VHHH 170200Z 1703/1809 20010KT 9999 FEW010 SCT025 TX29/1706Z TX31/1806Z TN26/1722Z TEMPO 1703/1706 22020G30KT 2000 TSRA +SHRA FEW008CB SCT015 TEMPO 1706/1709 3000 SHRA FEW010CB SCT020 TEMPO 1722/1802 VRB15G25KT 2500 TSRA SHRA FEW010CB SCT015",
    "RCTP": "TAF RCTP 162300Z 1700/1806 25015KT 9999 FEW015 TEMPO 1706/1712 24018G28KT TEMPO 1718/1724 24010KT",
    "ZGSZ": "TAF ZGSZ 162101Z 1700/1806 18004MPS 8000 BKN040 TX29/1706Z TX30/1806Z TN25/1722Z TEMPO 1700/1703 SHRA FEW020CB BKN030 TEMPO 1704/1708 TSRA FEW020CB BKN030",
    "WSSS": "TAF AMD WSSS 170135Z 1701/1806 14008KT 9999 FEW015 SCT020",
    "WMKK": "TAF WMKK 162300Z 1700/1806 13005KT 9999 FEW018 PROB30 TEMPO 1705/1709 5000 TSRA FEW017CB",
    "VTBS": "TAF VTBS 162300Z 1700/1806 22008KT 9999 FEW020 TEMPO 1709/1713 VRB15KT 3000 TSRA FEW018CB SCT030 BKN080",
    "VTBU": "TAF VTBU 162300Z 1700/1724 24008KT 9999 FEW020",
    "ROAH": "TAF ROAH 162305Z 1700/1806 23010KT 9999 FEW010 BKN015 TEMPO 1701/1704 FEW005 BKN008 TEMPO 1711/1803 FEW004 BKN006",
    "VVDN": "TAF VVDN 162300Z 1700/1724 23013KT 9999 FEW017 SCT060 TEMPO 1709/1712 TS SCT013 FEW015CB SCT060",
    "RCKH": "TAF RCKH 162300Z 1700/1806 25007KT 9999 FEW015 BKN032 TEMPO 1701/1704 5000 SHRA FEW010 FEW015TCU BKN020 BECMG 1711/1713 09005KT TEMPO 1711/1714 5000 SHRA FEW010 FEW015CB BKN020 BECMG 1800/1802 26005KT",
    "KLAX": "TAF KLAX 162338Z 1700/1806 27012KT P6SM FEW015 FM170300 26006KT P6SM SCT250 FM170800 11008KT P6SM BKN009 FM171700 14008KT P6SM SCT012 FM172000 24010KT P6SM SCT250 FM180300 24005KT P6SM OVC009",
    "KONT": "TAF KONT 162320Z 1700/1806 25012G20KT P6SM SCT150 FM170300 26010KT P6SM FEW150 FM170700 VRB04KT P6SM FEW150 FM171900 25012G20KT P6SM SCT150 FM180500 VRB05KT P6SM SCT150",
    "KSFO": "TAF KSFO 170253Z 1703/1806 27015KT P6SM FEW012 FM170600 28015KT P6SM SCT010 FM171100 28011KT P6SM BKN010 FM171700 29014KT P6SM SCT010 FM172000 29020G25KT P6SM SKC",
    "KOAK": "TAF KOAK 162327Z 1700/1806 26015KT P6SM SKC FM170400 26010KT P6SM SKC FM170900 25008KT P6SM BKN010 FM171800 26008KT P6SM SCT010 FM172000 28015KT P6SM SKC FM180300 26012KT P6SM SCT010",
    "KMHR": "TAF KMHR 162333Z 1700/1724 22009G14KT P6SM SKC FM170600 16008KT P6SM SKC FM171500 19007KT P6SM SKC FM172000 22008KT P6SM SKC",
    "KDFW": "TAF KDFW 170300Z 1703/1806 16010KT P6SM BKN100 TEMPO 1713/1716 BKN022 FM171600 18016KT P6SM SCT040",
    "KIAH": "TAF KIAH 170313Z 1703/1806 16004KT P6SM FEW025 BKN250 FM171400 19007KT P6SM SCT025 SCT035 SCT250 FM171800 16009KT P6SM SCT040 SCT060 SCT250 FM180300 17004KT P6SM FEW060 SCT250",
    "KORD": "TAF KORD 170300Z 1703/1806 VRB03KT 3/4SM FU VV015 FM171500 24009KT P6SM SCT050 BKN100 PROB30 1718/1724 VRB15G25KT 3SM -TSRA BR BKN040CB",
    "KJFK": "TAF KJFK 170230Z 1702/1806 32009KT 5SM FU SCT030 OVC250 TEMPO 1703/1706 2SM FU BKN030 FM170600 34006KT 5SM FU BKN250 FM171300 34008KT P6SM SCT250 FM171800 21011KT P6SM FEW050 SCT250 FM180000 20008KT 5SM FU SCT250",
    "KRFD": "TAF KRFD 170300Z 1703/1724 VRB03KT 1 1/2SM FU BKN020 FM171400 23007KT P6SM SCT050 BKN100 PROB30 1718/1724 VRB15G25KT 3SM -TSRA BR BKN040CB",
    "KIND": "TAF KIND 170239Z 1703/1806 01006KT P6SM FEW060 OVC110 FM170400 29005KT P6SM FEW060 FM171200 18003KT P6SM SCT050 FM171800 23007KT P6SM SCT050 BKN200 PROB30 1718/1724 4SM -TSRA BKN035CB",
    "KDTW": "TAF KDTW 170305Z 1703/1806 08004KT 1SM FU OVC018 FM171600 18008KT 2SM FU SCT035 FM180000 19005KT 6SM HZ SCT060 BKN080",
    "KMSP": "TAF KMSP 170209Z 1702/1806 24005KT P6SM FEW060 FM170500 16003KT P6SM SKC FM171300 22007KT P6SM SKC FM171700 23010G18KT P6SM FEW050 FM180200 33007KT 6SM FU SKC",
    "CYEG": "TAF CYEG 170240Z 1703/1724 12006KT P6SM FEW030 FM171000 12008KT P6SM SKC PROB30 1710/1715 3/4SM BR FEW004 FM171800 12012KT P6SM SCT040 RMK NXT FCST BY 170600Z",
    "EHAM": "TAF EHAM 162304Z 1700/1806 34005KT CAVOK PROB30 TEMPO 1703/1707 7000 BKN012 BECMG 1709/1712 32014KT BECMG 1717/1720 32008KT SCT020 PROB30 TEMPO 1721/1806 BKN018",
    "EBBR": "TAF EBBR 162300Z 1700/1806 02005KT CAVOK BECMG 1712/1714 32010KT",
    "EDDF": "TAF EDDF 162300Z 1700/1806 20005KT CAVOK PROB30 TEMPO 1706/1710 TSRA BKN030CB BECMG 1709/1711 26008KT PROB40 TEMPO 1714/1718 26015G30KT TSRA BKN030CB",
    "EDFH": "TAF AMD EDFH 170024Z 1700/1724 10004KT CAVOK PROB30 TEMPO 1702/1708 TSRA BKN020CB BECMG 1706/1709 27008KT PROB40 TEMPO 1712/1716 26015G30KT TSRA BKN020CB",
    "EDDL": "TAF EDDL 162300Z 1700/1806 33004KT CAVOK BECMG 1710/1713 30011KT BECMG 1719/1722 29005KT PROB30 TEMPO 1803/1806 BKN012",
    "EDDK": "TAF EDDK 162300Z 1700/1806 VRB03KT CAVOK BECMG 1708/1711 29010KT BECMG 1720/1723 30005KT PROB30 TEMPO 1804/1806 BKN013",
    "EBLG": "TAF EBLG 162300Z 1700/1806 02005KT CAVOK BECMG 1712/1715 32010KT",
    "LSZH": "TAF LSZH 170225Z 1703/1809 15005KT CAVOK TX26/1714Z TN17/1704Z TN16/1805Z BECMG 1709/1711 9999 FEW060 TEMPO 1710/1722 FEW050TCU PROB40 TEMPO 1712/1719 27008KT TSRA FEW050CB PROB30 TEMPO 1712/1718 29015G30KT 4000 TSGR PROB30 TEMPO 1719/1722 SHRA BECMG 1722/1724 CAVOK",
    "LIMC": "TAF AMD LIMC 170212Z 1702/1806 01010KT 9999 FEW040 TEMPO 1702/1706 4000 TSRAGR BECMG 1709/1711 VRB05KT",
    "LIRF": "TAF LIRF 162300Z 1700/1806 VRB05KT CAVOK PROB30 TEMPO 1700/1705 1500 BCFG BECMG 1704/1706 13010KT BECMG 1709/1711 19010KT BECMG 1717/1719 VRB05KT PROB30 TEMPO 1722/1806 2000 BCFG",
    "EINN": "TAF EINN 162300Z 1700/1724 36008KT CAVOK BECMG 1710/1712 32010KT BECMG 1720/1722 35012KT",
    "EGLL": "TAF EGLL 162255Z 1700/1806 03005KT CAVOK PROB30 TEMPO 1703/1708 BKN006 BECMG 1711/1714 33010KT BECMG 1719/1722 07010KT",
    "EGSS": "TAF AMD EGSS 170341Z 1703/1806 36005KT 0300 FG OVC001 BECMG 1703/1706 6000 NSW BKN004 BECMG 1706/1708 9999 BKN009 BECMG 1708/1710 FEW045 PROB30 TEMPO 1802/1806 7000 BKN013",
    "EPWA": "TAF EPWA 170230Z 1703/1803 VRB03KT CAVOK BECMG 1712/1715 14010KT PROB40 TEMPO 1716/1723 SCT050CB PROB40 TEMPO 1723/1803 VRB15G25KT 4000 TSRA BKN045CB",
    "UHPP": "TAF UHPP 170147Z 1703/1809 17005G12MPS 9999 SCT030CB BECMG 1709/1712 36003G10MPS TEMPO 1800/1809 17005G12MPS",
    "EFHK": "TAF EFHK 170228Z 1703/1803 15008KT CAVOK",
    "LBBG": "TAF LBBG 162300Z 1700/1724 VRB04KT 9999 SCT045 BECMG 1708/1710 12014KT PROB40 TEMPO 1711/1715 5000 TSRA FEW030CB BKN040 BECMG 1718/1720 VRB04KT",
    "LTAC": "TAF LTAC 162240Z 1700/1724 03011KT CAVOK BECMG 1706/1708 SCT040 TEMPO 1714/1718 02015G25KT BECMG 1716/1718 CAVOK",
    "UBBB": "TAF UBBB 162257Z 1700/1724 33012KT 9999 FEW020 TX31/1710Z TN23/1701Z TEMPO 1700/1706 SCT010 FEW050CB TEMPO 1710/1718 35008KT",
    "UTAA": "TAF UTAA 162245Z 1700/1724 35014KT 6000 SCT050 TX40/1711Z TEMPO 1700/1708 30018G28KT 2000 BLDU BECMG 1716/1718 26014KT",
    "UACC": "TAF UACC 162301Z 1700/1724 25006MPS 9999 SCT030 BKN050 TX32/1709Z TN16/1723Z TEMPO 1703/1714 27012MPS SCT030CB BECMG 1714/1716 VRB01MPS",
    "UAAA": "TAF UAAA 162302Z 1700/1724 16003MPS 9999 FEW100 TX41/1710Z TN20/1701Z BECMG 1703/1704 04003G09MPS BECMG 1713/1714 20003MPS",
    "UZTT": "TAF UZTT 162300Z 1700/1724 07010KT 7000 NSC TX43/1711Z TN26/1700Z TEMPO 1706/1712 32015KT",
    "ZWWW": "TAF ZWWW 162105Z 1700/1806 18004MPS CAVOK TX39/1709Z TX39/1806Z TN28/1723Z BECMG 1702/1703 36004MPS BECMG 1713/1714 18004MPS BECMG 1802/1803 36004MPS",
    "ZLXY": "TAF ZLXY 162105Z 1700/1724 26003MPS 6000 NSC TX33/1708Z TN24/1721Z",
    "ZBAA": "TAF ZBAA 162106Z 1700/1806 18004MPS CAVOK TX35/1707Z TX30/1806Z TN22/1721Z",
    "ZBHH": "TAF ZBHH 162102Z 1700/1724 24004MPS 8000 SCT040 TX29/1708Z TN16/1722Z TEMPO 1709/1712 -TSRA SCT040 FEW040CB",
    "ZSQD": "TAF ZSQD 162108Z 1700/1724 05004MPS 5000 BR BKN020 TX26/1706Z TN21/1720Z TEMPO 1703/1707 2500 +TSRA BKN020 FEW030CB TEMPO 1707/1711 SHRA",
    "ZMCK": "TAF ZMCK 162244Z 1700/1806 VRB02MPS 9999 FEW030CB SCT033 TX25/1707Z TN11/1721Z PROB40 TEMPO 1700/1708 VRB08MPS TSRA SCT027CB SCT030 BECMG 1704/1707 29005MPS BECMG 1710/1712 VRB02MPS BECMG 1802/1804 23005MPS",
    "UUEE": "TAF UUEE 170151Z 1703/1803 35003G08MPS 9999 SCT040 TX21/1712Z TN10/1801Z TEMPO 1709/1718 33008G14MPS",
    "UUDD": "TAF UUDD 170153Z 1703/1809 36005MPS 9999 SCT040 TX23/1712Z TN10/1801Z TEMPO 1708/1715 36008G15MPS",
    "ULLI": "TAF ULLI 170151Z 1703/1803 18003MPS 6000 SCT020",
    "USSS": "TAF USSS 170141Z 1703/1803 29003G14MPS 9999 BKN016CB TEMPO 1704/1718 -TSRAGR FM171800 31003G08MPS 6000 SCT020CB",
    "UNNT": "TAF UNNT 170200Z 1703/1803 23003G08MPS 9999 BKN040 TX25/1710Z TN16/1722Z TEMPO 1703/1718 28008G16MPS -TSRA BKN016CB",
    "UNKL": "TAF UNKL 170141Z 1703/1803 VRB01MPS CAVOK FM170600 14003G08MPS 6000 -SHRA SCT016CB TEMPO 1706/1714 -TSRA BECMG 1714/1716 -TSRA BKN010 BKN016CB BECMG 1717/1720 NSW SCT016CB TEMPO 1720/1724 3000 -SHRA BKN005 BKN016CB",
    "UIBB": "TAF UIBB 170200Z 1703/1803 17003G08MPS 9999 BKN016CB TEMPO 1703/1718 VRB08MPS -TSRA",
    "UEEE": "TAF UEEE 170200Z 1703/1809 11005G10MPS 9999 BKN020CB OVC100 TEMPO 1703/1712 3200 -SHRA SCT010 BKN017CB OVC070",
    "UHHH": "TAF UHHH 170147Z 1703/1809 21008G13MPS 9999 SCT020CB TX26/1705Z TN18/1717Z TEMPO 1703/1712 2000 TSRA FEW006 BKN016CB BECMG 1710/1712 17003MPS",
    "UHSS": "TAF AMD UHSS 170344Z 1703/1809 18009MPS 9999 BKN025CB BECMG 1709/1710 18003MPS"
  },
  "atis": {
    "RJAA": "[Arrival ATIS] RJAA ARR ATIS S 0111Z M0100 (APCH)ILS Y RWY16L LDG RWY 16L DEP RWY 16R DEP FREQ 124.2. M 170100Z 17010KT 6KM -SHRA FEW005ST BKN007ST BKN025CU 27/25 Q1004/A2966= Q/TWO NINE SIX SIX STP\n[Departure ATIS] RJAA DEP ATIS R 1241Z M1230 (APCH)ILS Z RWY34R LDG RWY 34R DEP RWY 34L DEP FREQ 124.2. TWY A1 CLSD. OBSERVE GEAR DOWN OPS PROC ON FNL. M 221230Z 07007KT 010V090 20KM FEW010ST BKN030SC 19/16 Q1006/A2972= Q/TWO NINE SEVEN TWO STP",
    "PANC": "[Arrival ATIS] PANC ARR ATIS X 1853Z - PANC ATIS INFO X 1853Z. 00000KT 10SM FEW010 SCT080 OVC090 13/11 A3006 (THREE ZERO ZERO SIX). 7R APPROACHES IN USE. LANDING RWY 7R, DEPARTING RWY 33. NOTICE TO AIRMEN. RWY 7L CLSD. CHECK NOTAMS FOR TAXIWAY CLOSURES. CAUTION FOR BIRD ACTIVITY IN THE ARPT AREA. CONTACT TOWER 118.3 FOR TAXI. ...ADVS YOU HAVE INFO X.\n[Departure ATIS] PANC DEP ATIS I 0353Z ANC ATIS INFO I 0353Z. 14016G33KT 10SM OVC055 14/08 A3007 (THREE ZERO ZERO SEVEN). ILS RWY 15 APPROACHES IN USE. LANDING RWY 15, DEPARTING RWY 25L. NOTICE TO AIRMEN. TWY Q",
    "KSEA": "[Arrival ATIS] KSEA ARR ATIS G 0353Z SEA ATIS INFO G 0353Z. 20007KT 10SM SCT018 OVC040 15/12 A3003 (THREE ZERO ZERO THREE). ILS, RYS 16R AND 16L , APCH IN USE. DEPG RWY 16L, RWY 16C, DEPG ACFT PLAN AND BRIEF NU\n[Departure ATIS] KSEA DEP ATIS F 0253Z SEA ATIS INFO F 0253Z. 20005KT 10SM FEW018 OVC045 16/12 A3003 (THREE ZERO ZERO THREE). ILS, RYS 16R AND 16L , APCH IN USE. DEPG RWY 16L, RWY 16C, DEPG ACFT PLAN AND BRIEF NUMBERS FOR BOTH RWYS 16L AND 16C. SIMUL APCHS IN USE, BFI & SEA. TRAFFIC BELOW YOU ON FINAL. SIMUL APCHS IN USE TO PARA RYS. NOTAMS... BIRD ACTIVITY VICINITY ARPT. HAZD WX INFO FOR WESTERN WA CONTACT FLIGHT SERVICE. ...ADVS YOU HAVE INFO F.",
    "ZSPD": "[Arrival ATIS] ZSPD ARR ATIS K 1900Z EXP ILS APCH LDG RWY 35L RWY 35R IS CLSD RWY 34R IS CLSD WIND RWY 35L TDZ 310/3MPS MID 310/3MPS END 300/3MPS VIS RWY 35L TDZ 6000M MID 6000M END 6000M FBL SHRA CLD BKN 180M T 23 /DP 23 QNH 1002 HPA CAUTION THE BIRDS NEAR THE RUNWAY RWY 35R/35L/34R/34L RWYCC 5/5/5 ISSUED AT 1800 WET/WET/WET DPT NR/NR/NR COV 100PCT/100PCT/100PCT ADZ YOU HAVE INFO K.\n[Departure ATIS] ZSPD DEP ATIS K 1900Z DEP RWY 34L RWY 35R IS CLSD RWY 34R IS CLSD WIND RWY 34L TDZ 320/3MPS MID 310/3MPS END 320/3MPS VIS RWY 34L TDZ 6000M MID 6000M END 5000M FBL SHRA CLD BKN 180M T 23 /DP 23 QNH 1002 HPA DELIVERY FREQ 118.8 CAUTION THE BIRDS NEAR THE RUNWAY RWY 35R/35L/34R/34L RWYCC 5/5/5 ISSUED AT 1800 WET/WET/WET DPT NR/NR/NR COV 100PCT/100PCT/100PCT ADZ YOU HAVE INFO K.",
    "ZSSS": "[Arrival ATIS] ZSSS ARR ATIS S 1830Z EXP ILS APCH LDG RWY 36R WIND RWY 36R TDZ 350/3MPS MID 340/3MPS END 350/2MPS VIS RWY 36R TDZ 7000M MID 7000M END 7000M FBL RA CLD BKN 150M T 22 /DP 21 QNH 1003 HPA RWY36R RWYCC 5/5/5 ISSUED AT 1250 WET/WET/WET DPT NR/NR/NR COV 100PCT/100PCT/100PCT RWY36L RWYCC 5/5/5 ISSUED AT 1240 WET/WET/WET DPT NR/NR/NR COV 100PCT/100PCT/100PCT QNH OF SHANGHAI TERMINAL CONTROL AREA 1002 HPA ADZ YOU HAVE INFO S.\n[Departure ATIS] ZSSS DEP ATIS D 1200Z DEP RWY 36L WIND RWY 36L TDZ 040/3MPS MID 030/4MPS END 040/5MPS VIS RWY 36L TDZ 10000M MID 10000M END 10000M CLD BKN 210M T 22 /DP 21 QNH 1003 HPA RWY36L RWYCC 5/5/5 ISSUED AT 0640 WET/WET/WET DPT NR/NR/NR COV 100PCT/100PCT/100PCT RWY36R RWYCC 5/5/5 ISSUED AT 0640 WET/WET/WET DPT NR/NR/NR COV 100PCT/100PCT/100PCT QNH OF SHANGHAI TERMINAL CONTROL AREA 1002 HPA ADZ YOU HAVE INFO D.",
    "VHHH": "[Arrival ATIS] VHHH ARR ATIS K 1904Z ARRIVALS, RWY 25R. EXP RNAV TRANSITION TO ILS APCH, RWY 25R. RNP APCH IS AVBL ON REQ, RWY 25R. RWY 25C IS CLSD FOR MAINT. RWY 25L NON OPERATIONAL. WIND 220/09KT. VIS 10KM. CLD FEW 1200FT SCT 2500FT. T29 DP25. QNH 1003HPA. ACK INFO K ON FIRST CTC WITH APP.\n[Departure ATIS] VHHH DEP ATIS Z 1905Z DEPARTURES, RWY 25R. RWY 25C IS CLSD FOR MAINT. RWY 25L NON OPERATIONAL. WIND 220/11KT. VIS 10KM. CLD FEW 1200FT SCT 2500FT. T29 DP25. QNH 1003HPA. ACK INFO Z ON FIRST CTC WITH DELIVERY .",
    "RCTP": "[Arrival ATIS] RCTP ARR ATIS W 1900Z EXP ILS APCH RWY23L ARR/DEP. RWY23R CLSD BTN 1700Z AND 2230Z FOR INSPECTION. WIND 270/04KT VIS 10 KM OR MORE CLD FEW 1500FT BKN 2000FT T 28 DP 26 QNH 1004HPA NOSIG INFORM TAIPEI APCH OR TAIPEI TOWER ON INITIAL CONTACT YOU HAVE INFORMATION W\n[Departure ATIS] RCTP DEP ATIS R 2130Z EXP ILS APCH RWY23R ARR/DEP. RWY23L CLSD BTN 1700Z AND 2230Z FOR INSPECTION. WIND 210/06KT VARYING BTN 180 AND 250 VIS 10 KM OR MORE CLD FEW 1500FT T 27 DP 24 QNH",
    "ZGSZ": "[Arrival ATIS] ZGSZ ARR ATIS O 1900Z EXP ILS OR VIS APCH LDG RWY 16L WIND 180/5MPS VIS 9999M CLD FEW 780M T 29 /DP 27 QNH 1003 HPA SINGLE RUNWAY OPERATION MISSED APPROACH ALTITUDE SETTING 1200METERS WHEN AIRBORNE CONTACT ZHUHAI APPROACH EXPECTED RNP ILS DME Z APPROACH ADZ YOU HAVE INFO O.\n[Departure ATIS] ZGSZ DEP ATIS D 1600Z DEP RWY 15 & 16L WIND 180/6MPS VIS 9999M CLD FEW 600M T 29 /DP 27 QNH 1004 HPA DELIVERY FREQ 121.8 INDEPENDENT PARALLEL APPROACHES INDEPENDENT PARALLEL DEPARTURES V17,V18 AVAILABLE AFTER SULAS FLY HEADING 040 MISSED APPROACH ALTITUDE SETTING 1200METERS WHEN AIRBORNE CONTACT ZHUHAI APPROACH EXPECTED RNP ILS DME Z APPROACH ADZ YOU HAVE INFO D.",
    "WSSS": "[Arrival ATIS] WSSS ARR ATIS L 1900Z METREPORT 1900Z ILS APCHRWY 02L TWY W 9 CLOSED, RWY 02C 20C RAPID EXIT TAXIWAY INDICATOR LIGHTS OFFFOLLOW THE GREENS TRIAL IN PROGRESS. WHEN VACATING THE RWY, PILOTS TO ADHERE TO ATC VERBAL INSTRUCTIONS. WHEN ON TWY, PILOT TO ADHERE TO FOLLOW THE GREENS INSTRUCTIONS. WHEN APPROACHING [A] JUNCTION, KEEP [A] LOOKOUT FOR CONTINUOUS GREENS. [IF] [A] BREAK IN THE GREENS IS OBSERVED, STOP AND CLARIFY WITH ATC. FOLLOW THE GREENS TRIAL IN PROGRESS. WHEN VACATING THE RWY, PILOTS TO ADHERE TO ATC VERBAL INSTRUCTIONS. WHEN ON TWY, PILOT TO ADHERE TO FOLLOW THE GREENS INSTRUCTIONS. WHEN APPROACHING [A] JUNCTION, KEEP [A] LOOKOUT FOR CONTINUOUS GREENS. [IF] [A] BREAK IN THE GREENS IS OBSERVED, STOP AND CLARIFY WITH ATC. WIND 200/ 01KT VIS 10KM CLD FEW 1600FT T26 DP25 QNH 1010HPA NOSIG ACK ATIS L\n[Departure ATIS] WSSS DEP ATIS E 1537Z METREPORT 1537Z RWY 02C TWY W 9 CLOSED, RWY 02C 20C RAPID EXIT TAXIWAY INDICATOR LIGHTS OFFFOLLOW THE GREENS TRIAL IN PROGRESS. WHEN VACATING THE RWY, PILOTS TO ADHERE TO ATC VERBAL INSTRUCTIONS. WHEN ON TWY, PILOT TO ADHERE TO FOLLOW THE GREENS INSTRUCTIONS. WHEN APPROACHING [A] JUNCTION, KEEP [A] LOOKOUT FOR CONTINUOUS GREENS. [IF] [A] BREAK IN THE GREENS IS OBSERVED, STOP AND CLARIFY WITH ATC. WIND VRB BTN060 AND120 02KT VIS 10KM CLD FEW 1600FT T28 DP25 QNH 1012HPA NOSIG DEP,INITIAL CMB 3000FT ACK ATIS E",
    "WMKK": "[Arrival ATIS] WMKK ARR ATIS A 0303Z WMKK ARR INFO A. TIME 0300. INDEPENDENT PARALLEL APPROACHES FOR RWY 14 L AND 15 ARE IN PROGRESS. EXP RNAV / ILS APCH FOR RWY 14 LEFT. EXP RNAV / ILS APCH FOR RWY 15. WIND RWY 14L 130 DEG, 5 KT, VRB BTN 090 AND 170 DEG. WIND RWY 15 110 DEG, 10 KT. VIS RWY 14L TDZ 10 KM OR MORE. VIS RWY 15 TDZ 10 KM OR MORE. CLD FEW CB 1700 FT, CLD SCT 1800 FT. T 33. DP 25. QNH 1011. NOSIG. AT FIRST CONTACT WITH LUMPUR RADAR, NOTIFY RCPT OF A\n[Departure ATIS] WMKK DEP ATIS U 1503Z WMKK DEP INFO U. TIME 1500. INDEPENDENT PARALLEL DEPARTURES FOR RWY 32 L AND 33 ARE IN PROGRESS. RWY 32 LEFT. RWY 33. WIND RWY 32L DIRECTION NOT AVBL SPEED NOT AVBL. WIND RWY 33 DIRECTION NOT AVBL SPEED NOT AVBL. VIS RWY 32L TDZ NOT AVBL. VIS RWY 33 TDZ NOT AVBL. CLD FEW CB 1700 FT. T 28. DP 25. QNH 1011. NOSIG. ALL DEP ACFT TO CONTACT LUMPUR DEP AT 135 DECIMAL 25 MHZ WHEN ABN. AT FIRST CONTACT WITH LUMPUR GROUND, NOTIFY RCPT OF U",
    "VTBS": "[Arrival ATIS] VTBS ARR ATIS D 1730Z VTBS ARR ATIS D 1730Z EXP ILS Z APCH ARR RWY 19 OR RNP APCH RWY 20R ,RETIL RWY 19 U/S ,PILOT SHALL ADZ BKK APCH ON INITIAL CTC IF UNA TO CONDUCT RNP APCH DUE TO OPERATIONAL CONSTRAINT 1730Z WIND 270/11KT VIS 10KM CLD FEW 2000FT T31 DP22 QNH 1008HPA TREND NOSIG ADZ BKK APCH ON INITIAL CONTACT THAT YOU HAVE INFO D\n[Departure ATIS] VTBS DEP ATIS P 1900Z VTBS DEP ATIS P 1901Z DEP RWY 20L RWY 19 CLSD DUE TO WIP ,AFT AIRBORNE ALL DEPARTING ACFT SHALL CTC 119.25 1900Z WIND 250/5KT VIS 10KM CLD FEW 2000FT T30 DP21 QNH 1008HPA TREND NOSIG ADZ GND WHEN INITIAL CONTACT YOU HAVE INFO P",
    "VTBU": "[Arrival ATIS] VTBU ARR ATIS U 0430Z VTBU ARR ATIS U 0430Z RNP RWY 18 TRL FL130 MOBILE ACFT ARST SYSTEM INSTL ATP SIX HUNDRED AND TEN METERS FM THR RWY 36 CABLE HGT 3 INCHES. 0430Z WIND 360/6KT VRB BTN 320/ AND 020/ VIS 10KM CLD FEW 2000FT T34 DP27 QNH 1010HPA TREND NOSIG ADZ CONTROLLER WHEN INITIAL CONTACT YOU HAVE INFO U\n[Departure ATIS] VTBU DEP ATIS D VTBU ARR/DEP DATIS RPT VTBU ARR ATIS D 0330Z ILS \"Z\" APCH RWY 18 TRL FL130 0330Z WIND 110/4KT VRB BTN 350/ AND 120/ VIS 6KM CLD FEW 2000FT T31 DP27 QNH 1014HPA TREND NOSIG ADZ CONTROLLER WHEN INITIAL CONTACT YOU HAVE INFO D",
    "ROAH": "[Arrival ATIS] ROAH ARR ATIS L 0201Z M0200 (APCH)ILS RWY18R LDG RWY 18R DEP RWY 18L DEP FREQ 126.5 258.3 M 170200Z 23008KT 15KM BKN008ST BKN010CU 30/28 Q1007/A2975= Q/TWO NINE SEVEN FIVE STP\n[Departure ATIS] ROAH DEP ATIS X 0517Z M0500 (APCH)RNP RWY18R LDG RWY 18R DEP RWY 18L DEP FREQ 126.5 258.3 M 220500Z 23007KT 50KM FEW015CU 30/26 Q1007/A2975= Q/TWO NINE SEVEN FIVE STP",
    "VVDN": "[Arrival ATIS] VVDN ARR ATIS R 1902Z VVDN INFO R 1902Z. ILS VICTOR APPROACH 35L.. DPTG RWY 35R.. 1902Z. WIND 200/02KT CAVOK T28 DP24 QNH 1004HPA TREND NOSIG. ADZ ON INITIAL CTC YOU HAVE INFO. R.\n[Departure ATIS] VVDN DEP ATIS N 0423Z VVDN INFO N 0423Z. ILS VICTOR APPROACH 35L.. DPTG RWY 35R.. 0423Z. WIND 010/02KT CAVOK T36 DP24 QNH 1008HPA TREND NOSIG. WS ALL RWY. ADZ ON INITIAL CTC YOU HAVE INFO. N.",
    "RCKH": "[Arrival ATIS] RCKH ARR ATIS Y 1400Z EXPECT ILS APPROACH RWY 09 ARR/DEP TAXIWAY JULIETT, TAXIWAY BRAVO, TAXIWAY DELTA AND TAXIWAY ECHO CLOSED DUE MAINTENANCE. RUNWAY 0 9 ARRIVALS PLAN VACATE VIA CHARLIE OR FOXTROT AND EXPEDITE VACATE. WIND 280/04KT VARYING BTN 250 AND 320 VIS 10 KM OR MORE CLD FEW 1800FT SCT 3000FT T 28 DP 25 QNH 1006HPA NOSIG CAUTION BIRD ACTIVITY IN VICINITY OF THE AERODROME. INFORM KAO-HSIUN APCH OR KAO-HSIUN TOWER ON INITIAL CONTACT YOU HAVE INFORMATION Y\n[Departure ATIS] RCKH DEP ATIS N 0430Z EXPECT ILS APPROACH RWY 27 ARR/DEP TAXIWAY JULIETT, TAXIWAY BRAVO, TAXIWAY DELTA AND TAXIWAY ECHO CLOSED DUE MAINTENANCE. RUNWAY 2 7 ARRIVALS PLAN VACATE VIA CHARLIE OR",
    "KLAX": "[Arrival ATIS] KLAX ARR ATIS I 0253Z LAX ATIS INFO I 0253Z. 21005KT 9SM FEW010 22/19 A2981 (TWO NINER EIGHT ONE) RMK AO2 SLP092 T02220189 53005. INST APCHS AND RNAV RNP APCHS RY 24R AND 25L, OR VCTR FOR VISUAL APCH WILL BE PROVIDED, SIMUL VISUAL APCHS TO ALL RWYS ARE IN PROG, SIMUL INSTR DEPARTURES IN PROG RWYS 24 AND 25. CTC L A GC ON 121.75 FOR PUSH OR TAXI ON A. TWY B CLSD BTN TWY, C10 AND TWY C7 , , TWY B6 CLSD, TWY B7 CLSD, TWY C CLSD BTN TWY, C1 AND TWY C3, TWY C1 CLSD, TWY C9 CLSD BTN TWY, B AND TWY C, TWY C8 CLSD BTN TWY, B AND TWY C. PAPI OTS 24R, SEAL BEACH VOR OTS. ALL HELICOPTERS CALL TOWER ON 133.9. HAZD WX INFO FOR LAX AREA AVBL FM FSS. BIRD ACTIVITY VICINITY ARPT. INCLUDE YOUR CALL SIGN IN ALL READBACKS. USE CAUTION WHEN EXITING RY24R AT TWY V, W, AND Y, TO HOLD SHORT OF RY24L. MULTIPLE RUNWAY INCURSIONS HAVE OCCURRED. ...ADVS YOU HAVE INFO I.\n[Departure ATIS] KLAX DEP ATIS H 0153Z LAX ATIS INFO H 0153Z. 24010KT 10SM CLR 23/18 A2979 (TWO NINER SEVEN NINER) RMK AO2 SLP087 T02330183. INST APCHS AND RNAV RNP APCHS RY 24R AND 25L, OR VCTR FOR VISUAL APCH WILL BE",
    "KONT": "[Arrival ATIS] KONT ARR ATIS V 0153Z ONT ATIS INFO V 0153Z. 23010KT 10SM FEW200 32/17 A2978 (TWO NINER SEVEN EIGHT). ILS AND VIS APR IN USE, RY26L & RY26R. LNDG AND DEPG RY 26L AND RY 26R. NOTAMS... TAXIWAY SIERRA FIVE CLOSED. TAXIWAY SIERRA CLOSED BETWEEN TAXIWAY SIERRA 8 AND TAXIWAY WHISKEY. RY 26L IM OTS, RY 26R ALS OTS. USE CAUTION FOR NUMEROUS BIRDS OBSERVED IN VICINITY OF ONT. HAZD WX INFO FOR SOUTHERN CA AVBL ON FSS FREQUENCIES. PILOTS READBACK RWY ASSIGNMENTS AND HOLD SHORT INSTRUCTIONS. ...ADVS YOU HAVE INFO V.\n[Departure ATIS] KONT DEP ATIS N 0553Z - KONT ATIS INFO N 0553Z. 24004KT 10SM BKN250 22/15 A2988 (TWO NINER EIGHT EIGHT) RMK AO2 SLP100. ILS AND VIS APR IN USE, RY26L & RY26R. LNDG AND DEPG RY 26L AND RY 26R. NOTAMS... TAXIWAY SIERRA CLSD BETWEEN SIERRA 8 AND W TAXIWAY Q SOUTH OF RWY 26L CLSD TAXIWAY T CLSD TAXIWAY SIERRA 5 CLSD. RY 26L IM OTS, RY 26R ALS OTS. USE CAUTION FOR NUMEROUS BIRDS OBSERVED IN VICINITY OF ONT. HAZD WX INFO FOR SOUTHERN CA AVBL ON FSS FREQUENCIES. PILOTS READBACK RWY ASSIGNMENTS AND HOLD SHORT INSTRUCTIONS. ...ADVS YOU HAVE INFO N.",
    "KSFO": "[Arrival ATIS] KSFO ARR ATIS F 1856Z SFO ATIS INFO F 1856Z. 27016KT 10SM FEW006 17/12 A2995 (TWO NINER NINER FIVE) RMK AO2 SLP141 T01720122. SIMUL CLSLY SPCD DPNDNT ILS RY 28R AND ILS RY 28L APP IN USE. DEPG RWYS 28L, 28R. DEPG ACFT SHOULD BE PREPARED FOR A SHORT NOTICE RY CHANGE. RY 1L, 1R CLSD. NUMEROUS TWY CLOSURES FOR CONSTRUCTION ON THE FIELD, PILOTS CHECK NOTAMS. MULTIPLE CRANES VCY OF SFO CHECK NOTAMS. MOWING ADJ BETWEEN RWY28R AND RWY28L NEAR K. DEPG ACFT WAITING ON FINAL NUMBERS ADVISE GROUND PRIOR TO ENTERING TWY F. ...ADVS YOU HAVE INFO F.\n[Departure ATIS] KSFO DEP ATIS T 1456Z SFO ATIS INFO T 1456Z. 00000KT 10SM SCT140 BKN200 18/13 A2991 (TWO NINER NINER ONE) RMK AO2 SLP128 T01780133 53008. SIMUL CLSLY SPCD DPNDNT ILS RY 28R AND ILS RY 28L APP IN USE. DEPG RWYS 28L, 28R. RY 1L, 1R CLSD. NUMEROUS TWY CLOSURES FOR CONSTRUCTION ON THE FIELD, PILOTS CHECK NOTAMS. DEPG ACFT WAITING ON FINAL NUMBERS ADVISE GROUND PRIOR TO ENTERING TWY F. ...ADVS YOU HAVE INFO T.",
    "KOAK": "[Arrival ATIS] KOAK ARR ATIS T 2053Z - KOAK ATIS INFO T 2053Z. 25015KT 10SM FEW008 20/13 A2994 (TWO NINER NINER FOUR). RNAV, AND VA, RWY 30. ILS, AND VA, RWY 28R. FLOW TO LAX, LAS, SAN, SEA. RWY 28L CLSD. TAXIWAYS GOLF, HOTEL, PAPA, JULIET BETWEEN RUNWAYS 28 RIGHT AND 28 LEFT CLOSED. ILS RWY 30, OTS, RWY 28R RAIL, OTS. UNN LIT CLOSE-IN OBSTACLES FOR RWY 30 DEPARTURES. RWY 30 DEPARTURES ARE ADVISED TO AVOID TURNING LEFT PRIOR TO DEPARTURE END OF RUNWAY. CTN, CRANE 1 POINT 6 NAUTICAL MILES, , AT 140 FEET AGL. CAUTION, BIRDS NEAR AIRPORT. ...ADVS YOU HAVE INFO T.\n[Departure ATIS] KOAK DEP ATIS O 1953Z OAK ATIS INFO O 1953Z. 28014KT 10SM FEW005 22/14 A2988 (TWO NINER EIGHT EIGHT). RNAV Z/VA RWY 30 ILS/VA RWY 28R. FLOW TO LAX, LAS, SAN. ILS RWY 30, OTS. UNN LIT CLOSE-IN OBSTACLES FOR RWY 30 DEPARTURES. RWY 30 DEPARTURES ARE ADVISED TO AVOID TURNING LEFT PRIOR TO DEPARTURE END OF RUNWAY. SIGNATURE UNI-COM OUT OF SERVICE. CAUTION, BIRDS NEAR AIRPORT. ...ADVS YOU HAVE INFO O.",
    "KDFW": "[Arrival ATIS] KDFW ARR ATIS E 0253Z DFW ARR INFO E 0253Z. 15011G16KT 10SM FEW110 SCT170 BKN250 26/20 A3005 (THREE ZERO ZERO FIVE) RMK AO2 SLP169 60000 T02560200 51011. SIMUL VISUAL APCH TO RWYS, 13R, 18R, 17C. LDG RWY 17C EXP LAHSO TWY B 10460 FT AVAIL, LDG RWY 18R EXP LAHSO TWY B 10100 FT AVL. NOTICE TO AIRMEN. RWY 13L CLSD. RWY 17L CLSD. WARNING, RWY 18L HAS BEEN SHORTENED, 9273 FT AVAILABLE. HAZD WX FOR DFW AVBL ON FSS. BIRD ACTIVITY VCNTY ARPT. ...ADVS YOU HAVE INFO E.\n[Departure ATIS] KDFW DEP ATIS F 1453Z DFW DEP INFO F 1453Z. 11005KT 10SM SCT020 BKN030 BKN055 BKN250 27/22 A3008 (THREE ZERO ZERO EIGHT) RMK AO2 SLP178 T02720217 51013. SIMUL PARL TRAFFIC DEPG RWYS 17R, 18L. NOTICE TO AIRMEN. WARNING, RWY 18L HAS BEEN SHORTENED, 9273 FT AVAILABLE. HAZD WX FOR DFW AVBL ON FSS. BIRD ACTIVITY VCNTY ARPT. ...ADVS YOU HAVE INFO F.",
    "KIAH": "[Arrival ATIS] KIAH ARR ATIS L 0153Z IAH ATIS INFO L 0153Z. 16009KT 10SM FEW030 BKN250 29/24 A3006 (THREE ZERO ZERO SIX). ARRIVALS EXPECT ILS OR RNAV Y RY 8R, ILS OR RNAV Y RY 8L. SIMUL APPROACHES IN USE. DEPG RY 15L, RY 15R. NOTICE TO AIRMEN. UNITED RAMP CONTROL IN EFFECT. HAZD WX INFO FOR IAH AREA AVBL FM FSS. BIRD ACTIVITY VICINITY ARPT. LAHSO RY8R. CRANES ARE DOWN. TWY SA CLSD BTN TWY, SF AND TWY SK , TWY SB CLSD BTN TWY, SF AND TWY SK , , TWY EA CLSD. NOTAM ATIS IN USE ON FREQUENCY 126.225. ...ADVS YOU HAVE INFO L.\n[Departure ATIS] KIAH DEP ATIS T 0353Z IAH ATIS INFO T 0353Z. 15007KT 10SM FEW035 FEW180 BKN250 27/23 A2996 (TWO NINER NINER SIX). ARRIVALS EXPECT ILS OR RNAV Y RY 8R, ILS OR RNAV Y RY 8L. DEPG RY 15R. NOTICE TO AIRMEN. UNITED RAMP CONTROL IN EFFECT. RY 15L, 33R CLSD. HAZD WX INFO FOR IAH AREA AVBL FM FSS. BIRD ACTIVITY VICINITY ARPT. CRANES ARE DOWN. TWY SA CLSD BTN TWY, SF AND TWY SK , TWY SB CLSD BTN TWY, SF AND TWY SK , , TWY WB CLSD BTN TWY, WG AND TWY WH . TWY EA CLSD. NOTAM ATIS IN USE ON FREQUENCY 126.225. ...ADVS YOU HAVE INFO T.",
    "KORD": "[Arrival ATIS] KORD ARR ATIS J 0151Z ORD ATIS INFO J 0151Z. 08006KT 1/2SM R10L/P6000FT FU VV015 27/14 A3005 (THREE ZERO ZERO FIVE) RMK AO2 SLP170 T02720139. ARR EXP VECTORS ILS RWY 9L APCH, ILS RWY 10C APCH. DEPS EXP RWYS 22L 9C FROM F F 9200 FT AVL. RWY 4L, 22R CLSD. RWY 22R LOC OTS, RWY 28L GS OTS, RWY 9L IM OTS, RWY 9C IM OTS, RWY 10L IM OTS, RWY 10R IM OTS, RWY 27R IM OTS, RWY 28L IM OTS, RWY 28R IM OTS, RWY 9L PAPI OTS, RWY 27R PAPI OTS. PILOTS USE CTN FOR BIRD ACTIVITY IN THE VICINITY OF THE ARPT. USE CTN FOR PERSONNEL AND EQUIP AT NUMEROUS SITES ON THE FIELD. READBACK ALL RWY HOLD SHORT INSTRUCTIONS. WHEN READY TO TAXI CONTACT GND METERING ON FREQ 121.67. ...ADVS YOU HAVE INFO J.\n[Departure ATIS] KORD DEP ATIS K 0251Z - KORD ATIS INFO K 0251Z. VRB05KT 3/4SM R10L/P6000FT FU VV015 27/17 A3006 (THREE ZERO ZERO SIX) RMK AO2 SLP174 T02670167 53011. ARR EXP VECTORS ILS RWY 10C APCH. DEPS EXP",
    "KJFK": "[Arrival ATIS] KJFK ARR ATIS D 1851Z JFK ATIS INFO D 1851Z. 14010KT 10SM SCT020 BKN037 BKN110 OVC130 21/18 A2994 (TWO NINER NINER FOUR) RMK AO2 RAE30 SLP136 P0002 T02110178. APPROACH IN USE ILS RY 22L, ILS RY 22R. DEPG RY 22R. RY 22L PAPI OTS, RWY 22L/4R INNER MARKER OTS.RWY 13L FLASHERS OTS. NUM CRANES OPERATING AT JFK. BIRD ACTIVITY VICINITY ARPT. READBACK ALL RWY ASSIGNMENTS AND HOLD SHORT INSTRUCTIONS. ...ADVS YOU HAVE INFO D.\n[Departure ATIS] KJFK DEP ATIS T 2151Z - KJFK ATIS INFO T 2151Z. 21009KT 6SM FU BKN029 OVC250 28/19 A2983 (TWO NINER EIGHT THREE) RMK AO2 SLP103 FU OVC250 T02830194. APPROACH IN USE ILS RY 22L, ILS RY 22R. DEPG RY 22R, ACFT FILED OVER RBV OR DIXIE EXPECT RY 31L KE FOR DEP. RY 13L SFL OTS, RWY 22L/4R INNER MARKER OTS. RWY 22L PAPI OTS. SWAP IN EFFECT EXPECT REROUTES. NUM CRANES OPERATING AT JFK. BIRD ACTIVITY VICINITY ARPT. READBACK ALL RWY ASSIGNMENTS AND HOLD SHORT INSTRUCTIONS. ...ADVS YOU HAVE INFO T.",
    "KIND": "[Arrival ATIS] KIND ARR ATIS G 0254Z - KIND ATIS INFO G 0254Z. 03006KT 10SM SCT060 BKN110 BKN190 OVC250 28/22 A3007 (THREE ZERO ZERO SEVEN). PARL ILS RWY 5R AND 5L APPROACHES IN USE. CROSS RUNWAY OPERATIONS MAY BE IN EFFECT. NOTICE TO AIRMEN. TWY, P BTN TWY, H AND TWY B CLSD, TWY, P BTN TWY, H AND TWY J CLSD, TWY, H BTN TWY, R AND TWY N CLSD. P PAD CLSD. ILS RUNWAY 5R AND RUNWAY 5L INNER MARKER UNSERVICEABLE. HIWAS. ARPT ADZY FLOCK OF MEDIUM BIRDS IN THE VICINITY OF THE AIRPORT, ALT UNKN. ...ADVS YOU HAVE INFO G.\n[Departure ATIS] KIND DEP ATIS G 0254Z IND ATIS INFO G 0254Z. 03006KT 10SM SCT060 BKN110 BKN190 OVC250 28/22 A3007 (THREE ZERO ZERO SEVEN). PARL ILS RWY 5R AND 5L APPROACHES IN USE. CROSS RUNWAY OPERATIONS MAY BE IN EFFECT. NOTICE TO AIRMEN. TWY, P BTN TWY, H AND TWY B CLSD, TWY, P BTN TWY, H AND TWY J CLSD, TWY, H BTN TWY, R AND TWY N CLSD. P PAD CLSD. ILS RUNWAY 5R AND RUNWAY 5L INNER MARKER UNSERVICEABLE. HIWAS. ARPT ADZY FLOCK OF MEDIUM BIRDS IN THE VICINITY OF THE AIRPORT, ALT UNKN. ...ADVS YOU HAVE INFO G.",
    "KDTW": "[Arrival ATIS] KDTW ARR ATIS L 2253Z - KDTW ARR INFO L 2253Z. 33006KT 1SM R03R/P6000FT FU OVC027 28/13 A3004 (THREE ZERO ZERO FOUR). SIMUL ILS Z RY 22R AND RY 21L APCH IN USE. SIMULTANEOUS ARRIVAL AND, DEPARTURE OPERATIONS ARE IN USE, ON RY 22R AND RY 22L. NOTICE TO AIRMEN. RWY 21R, 3L CLSD, RWY 27L, 9R CLSD, RWY 27R, 9L CLSD. TWYS Y1 CLSD ;. PILOTS USE CTN FOR BIRD ACTIVITY. DEPARTURE ATIS 118.125. ...ADVS YOU HAVE INFO L.\n[Departure ATIS] KDTW DEP ATIS N 0953Z DTW DEP INFO N 0953Z. 35003KT 1SM R03R/P6000FT FU SCT000 OVC027 22/16 A3004 (THREE ZERO ZERO FOUR) RMK AO2 TWR VIS 2 SLP167 FU SCT000 T02170161. DEPG RWY 4R. . RWY 4R DEPARTURE POINT IS Y 2, DISTANCE REMAINING IS 11, THOUSAND, 450, FT, FULL LENGTH AVAIL UPON REQ ;. NOTICE TO AIRMEN. RWY 21R, 3L CLSD, RWY 27L, 9R CLSD, RWY 27R, 9L CLSD. TWYS Y1 CLSD ;. PILOTS USE CTN FOR BIRD ACTIVITY. TWR AND GC COMB ON FREQ 135.0. ...ADVS YOU HAVE INFO N.",
    "KMSP": "[Arrival ATIS] KMSP ARR ATIS L 0253Z MSP ARR INFO L 0253Z. 23004KT 10SM FEW250 31/20 A2999 (TWO NINER NINER NINER) RMK AO2 SLP150 T03060200 53005. VISUAL RWY 12R APCH IN USE, VISUAL RWY 12L APCH IN USE. FINAL APCH, OVER NOISE SENSITIVE AREA. NOTICE TO AIRMEN. RWYS 4, 22 CLSD. TWY R7. R8. R9. R10. CLOSED. TWY R BTWN R6 AND R10 CLSD, USE CAUTION, NUMEROUS TAXIWAY CLOSURES, TWY A7 CLSD, TWY A CLSD BTN TWY, A7 AND TWY D, TWY M CLSD BTN TWY, P AND TWY M6, TWY Q CLSD BTN TWY, C AND TWY M. GS RWY 12L OTS, RWYS 12R, 12L, INNER MARKER OTS. CTN, BIRDS NEAR MSP. READ BACK HS AND ALT. ALL ACFT TAXI WITH TRANSPONDER AND ALTITUDE ENCODING ON. 12R ARRIVALS ADVISE GATE ON INITIAL CONTACT. ...ADVS YOU HAVE INFO L.\n[Departure ATIS] KMSP DEP ATIS W 0053Z - KMSP DEP INFO W 0053Z. 25008KT 9SM FEW060 32/19 A2997 (TWO NINER NINER SEVEN) RMK AO2 SLP143 T03220194. DEPARTING RWY 12L, RWY 12R, RWY 17. NOTICE TO AIRMEN. RWYS 4, 22 CLSD. TWY R7. R8. R9. R10. CLOSED. TWY R BTWN R6 AND R10 CLSD, USE CAUTION, NUMEROUS TAXIWAY CLOSURES, TWY A7 CLSD, TWY A CLSD BTN TWY, A7 AND TWY D, TWY M CLSD BTN TWY, P AND TWY M6, TWY Q CLSD BTN TWY, C AND TWY M. ALL ACFT CTC METERING ON ONE THREE THREE POINT FIVE SEVEN WHEN READY TO PUSHBACK OR TAXI. CTN, BIRDS NEAR MSP. READ BACK HS AND ALT. ALL ACFT TAXI WITH TRANSPONDER AND ALTITUDE ENCODING ON. ...ADVS YOU HAVE INFO W.",
    "CYEG": "[Arrival ATIS] CYEG ARR ATIS U 0300Z 17003KT 20SM FEW020TCU FEW220 23/21 A2994 APCH RNAV Z OR Y RWY 20, INFORM ARRL OF REQ APCH ON INITIAL CTC. LDG AND DEP RWY 20. SIMUL APPROACHES MAY BE IN EFCT. INFORM CYEG ATC INFO U\n[Departure ATIS] CYEG DEP ATIS T 0200Z CYEG ARR ATIS T 0200Z 19002KT 20SM FEW024TCU SCT240 25/20 A2994 APCH RNAV Z OR Y RWY 20, INFORM ARRL OF REQ APCH ON INITIAL CTC. LDG AND DEP RWY 20. SIMUL APPROACHES MAY BE IN EFCT. INFORM CYEG ATC INFO T",
    "EHAM": "[Arrival ATIS] EHAM ARR ATIS E 0222Z EHAM ARRIVAL INFO E. DEMAND. MAIN LANDING RWY 06. TRANSITION LEVEL 040. WIND 330 DEG, 5 KT. VIS 10 KM OR MORE. WX MIFG. CLD FEW 1200 FT. T 15. DP 15. QNH 1014 HPA. NOSIG. OPERATIONAL REPORT. EXP ILS APCH. CONTACT APCH WITH CALLSIGN ONLY. END OF INFO E\n[Departure ATIS] EHAM DEP ATIS Z 0222Z EHAM DEPARTURE INFO Z. DEMAND. MAIN DEPARTURE RWY 36 L. MAIN LANDING RWY 06. WIND 300 DEG, 3 KT. VIS 10 KM OR MORE. WX MIFG. CLD FEW 1200 FT. T 16. DP 15. QNH 1014 HPA. OPERATIONAL REPORT. INFORM SCHIPHOL DEL BY VOICE IF UNABLE TO COMPLY WITH NADP 2. END OF INFO Z",
    "EBBR": "[Arrival ATIS] EBBR ARR ATIS S 0339Z EBBR NAT, EXP VECT FOR ILS APP ARR RWY25L RSCD AT 0319 RWY25L DRY. DEP RWY25R TRL 055 RNP RWY 25R AVBL AT ATC DISCRETION TAIL REP AT 0331, ALT 1500FT, 030 DEG/14 KT 320/5KT CAVOK T16 DP13 QNH 1014HPA NOSIG CFM ARR S\n[Departure ATIS] EBBR DEP ATIS E 0850Z EBBR NAT, DEP RWY07R RSCD AT 0637 RWY07L RSCD AT 0648 RWY07R DRY. RWY07L DRY. ARR RWY01 TRL 055 XNG RWY OPS INPR 010/7KT VRB BTN 340 AND 090 CAVOK T24 DP15 QNH 1019HPA NOSIG CFM DEP E",
    "EDDF": "[Arrival ATIS] EDDF ARR ATIS S 1320Z ARR-ATIS EDDF S METAR 161320 EXPECT INDEPENDENT PARALLEL ILS Z APCH RWY 07L OR ILS APCH RWY 07R RWY 07L 07R TRL 60 CAUTION : HIGH BIRD ACTIVITY IN THE VCY OF THE AD , 23006KT 190V270 CAVOK T32 DP11 QNH1016 TREND NOSIG END OF ATIS S\n[Departure ATIS] EDDF DEP ATIS T 1820Z DEP-ATIS EDDF T METAR 221820 RWY 07C 18 ACFT DEPARTING RWY18 : EXPECT POSSIBLE DEPARTURE FROM INTERSECTION M , TORA 3454 METERS. IF UNABLE , ADVISE TWR ON INITIAL CONTACT , ACFT DEPARTING RWY07C : EXPECT DEPARTURE FROM INTERSECTION L17 , TORA 3312 METERS. IF UNABLE , ADVISE APRON ON INITIAL CONTACT , TRL 60 ATTN : BIRDS IN THE VCY OF THE AD 01012KT 350V050 RWY18 02012KT CAVOK T32 DP18 QNH1021 TREND NOSIG END OF ATIS T",
    "EDDL": "[Arrival ATIS] EDDL ARR ATIS F 0320Z -ATIS EDDL F METAR 170320 -EXPECT VECTORS ILS APPROACH -RWY 05R -ATTENTION, RISK OF TWY INCURSION WHEN TAXIING TO RWY05R, CHECK HOT SPOTS T1 AND L9 ON TAXI CHART -TRL 70 -EXPECT INTENSE BIRD ACTIVITY IN THE VICINITY OF RWY SYSTEM -02003KT -CAVOK - - -T17 DP14 -QNH1012 - -TREND NOSIG\n[Departure ATIS] EDDL DEP ATIS R EDDL ARR/DEP DATIS RPT -ATIS EDDL R METAR 020550 -EXPECT VECTORS ILS APPROACH -RWY 23L -TWY L8 CLOSED BETWEEN TWY M AND RWY 23L -TRL 60 - -23010KT -CAVOK - - -T19 DP13 -QNH1020 - -TREND NOSIG",
    "EDDK": "[Arrival ATIS] EDDK ATIS B 0220Z -ATIS EDDK B METAR 170220 -EXPECT ILS OR RNP APCH -RWY 13L 06 -RWY COND RWY 13L AT TIME 0045 RWYCC 6 DEPOSIT TOTAL RWY DRY RWY 06 AT TIME 0045 RWYCC 6 DEPOSIT TOTAL RWY DRY -TRL 70 -RWY 13R AND RWY 31L CLOSED FOR DEPARTURE AND LANDING: TAXIING BTN THR RWY 13R AND INTERSECTION RWY 24 POSSIBLE : -VRB01KT -CAVOK - - -T16 DP14 -QNH1013 - -TREND NOSIG\n[Departure ATIS] EDDK DEP ATIS E 2050Z -ATIS EDDK E METAR 142050 -EXPECT CDO FOR ILS APCH RWY 31R -RWY 31R 06 -RWY COND RWY 31R AT TIME 1837 RWYCC 6 DEPOSIT TOTAL RWY DRY RWY 06 AT TIME 1837 RWYCC 6 DEPOSIT TOTAL RWY DRY -TRL 60 -RWY 13R AND RWY 31L CLOSED FOR DEPARTURE AND LANDING: TAXIING BTN THR RWY 13R AND INTERSECTION RWY 24 POSSIBLE : -02006KT 350V050 -CAVOK - - -T23 DP14 -QNH1018 - -TREND NOSIG",
    "EBLG": "[Arrival ATIS] EBLG ATIS Q 0320Z EBLG INFO, EXP RNAV TO ILS APP ARR RWY04R DEP RWY04R RWY 04R DRY, RWYCC 666. TRL 055 ADZ ON GND FREQ IF UNABLE S2 VRB2KT CAVOK T18 DP13 QNH 1014HPA NOSIG CFM ATIS Q",
    "LSZH": "[Arrival ATIS] LSZH ARR ATIS B 0350Z ARRIVALS, EXP ILS APCH, RWY 34. RWY COND REPORT. RWY COND CODE 5, 5, 5. COVERAGE 100 PER CENT, 100 PER CENT, 100 PER CENT. DEPTH NR, NR, NR. WET AND WET AND WET. RWY REPORT END. TRL 70. DEP RWY 32. DEPENDENT OPS ON CONVERGING RWY. WIND 240 DEG, 5 KT, VRB BTN 210 AND 290 DEG. CAVOK. T 18. DP 15. QNH 1016. WS, WIND AT 2850 FT QNH 210 DEG 15 KT, WIND AT 3400 FT QNH 250 DEG 25 KT. NOSIG.\n[Departure ATIS] LSZH DEP ATIS W 0350Z DEP RWY 32. DEPENDENT OPS ON CONVERGING RWY. RWY COND REPORT. RWY 32. RWY COND CODE 5, 5, 5. COVERAGE 100 PER CENT, 100 PER CENT, 100 PER CENT. DEPTH NR, NR, NR. WET AND WET AND WET. RWY 34. RWY COND CODE 5, 5, 5. COVERAGE 100 PER CENT, 100 PER CENT, 100 PER CENT. DEPTH NR, NR, NR. WET AND WET AND WET. RWY REPORT END. TRL 70. ARRIVALS, EXP ILS APCH, RWY 34. TMA S 1 IS ACT. TMA S 2 AND S 3 ARE ACT. WIND 280 DEG, 5 KT, VRB BTN 230 AND 010 DEG. CAVOK. T 18. DP 15. QNH 1016. WS, WIND AT 2850 FT QNH 210 DEG 15 KT, WIND AT 3400 FT QNH 250 DEG 25 KT. NOSIG.",
    "LIMC": "[Arrival ATIS] LIMC ARR ATIS G 0355Z LIMC ARR G 0355Z I.L.S. ZULU RWY IN USE 35R RCR AT 0314Z 5/5/5 WET WET WET TL 70 WIND TDZ 080/4KT VRB BTN 040/AND 110/ VIS 10KM FBL TSRA CLD FEW CB 5000FT SCT 5500FT T20 DP19 QNH 1016HPA QFE 0990HPA\n[Departure ATIS] LIMC DEP ATIS L 0320Z LIMC DEP L 0320Z RWY IN USE 17R RCR AT 0156Z 5/5/5 WET WET WET TL 70 WIND END 020/12KT VIS 10KM FBL RA CLD FEW CB 6000FT BKN 6500FT T19 DP19 QNH 1016HPA QFE 0988HPA RETS DATALINK CLEARANCE AVAILABLE.... CONTACT 1 3 1 8 8 0 TO BE RELEASED BY THE AIRPORT OPERATOR ...",
    "LIRF": "[Arrival ATIS] LIRF ARR ATIS M 0325Z LIRF ARR M 0325Z ILS W RWY IN USE 16L TL 70 WIND TDZ 120/2KT CAVOK T26 DP24 QNH 1013HPA\n[Departure ATIS] LIRF DEP ATIS A 1851Z LIRF DEP A 1851Z RWY IN USE 25 TL 70 RWYS IN USE FOR ARR 16L AND 16R WIND END 070/7KT CAVOK T26 DP17 QNH 1017HPA REA IS SENT AUTOMATICALLY ONCE RLSD BY RAMP WHEN READY CONTACT FIUME RAMP 121.725",
    "EINN": "[Arrival ATIS] EINN ARR ATIS F 0330Z EXPECT I L S CATEGORY 1 LDG RWY06 TKOF RWY06 TRL FL060 35009KT CAVOK 16/15 QNH Q1020 TREND NOSIG ADVISE AT FIRST CONTACT YOU HAVE ATIS INFO F",
    "EGLL": "[Arrival ATIS] EGLL ARR ATIS I 0320Z PILOTS ARE EXPECTED TO CHANGE TO 27R AT AT 05:00 HOURS RUNWAY 27R REDUCED DECLARED DISTANCES WITH TAKE OFF RUN AVAILABLE 3362METRES AND LANDING DISTANCE AVAILABLE 3362METRES LANDING RWY 27L TRANSITION-LEVEL: FL 70 IF STAND GUIDANCE IS OFF OR FAILS, REMAIN ON THE TAXIWAY CENTRELINE AND ADVISE ATC AUTO 01007KT 9999 NCD 17/13 Q1017 ACKNOWLEDGE RECEIPT OF INFORMATION I\n[Departure ATIS] EGLL DEP ATIS R 1750Z DEPARTURE RWY 09R PILOTS THAT ARE IN RECEIPT OF DATALINK CLEARANCES ARE REMINDED THEY MUST CONTACT DELIVERY ON 121.980 WHEN READY FOR START DATALINK CLEARANCES NOT AVAILABLE FOR CPT DEPARTURES DET VOR OOS AUTO 09015KT 050V140 9999 NCD 24/17 Q1024 ACKNOWLEDGE RECEIPT OF INFORMATION R AND REPORT AIRCRAFT TYPE AND CURRENT QNH ON FIRST CONTACT WITH HEATHROW",
    "EPWA": "[Arrival ATIS] EPWA ARR ATIS H 0131Z EPWA ARR H. TIME 0130. EXP N ARR ILS Z APCH FOR RWY 11. TRANSITION LEVEL 80. WIND 110 DEG, 4 KT. CAVOK. T 19. DP 14. QNH 1018. NOSIG. CAUTION. BIRD ACT. END OF EPWA ARR H\n[Departure ATIS] EPWA DEP ATIS X 1501Z EPWA DEP X. TIME 1500. DEP RWY 29. ARR RWY 33, EXP U ARR ILS Z. REPORT READY FOR STARTUP ON DELIVERY 121 DECIMAL 605. TRANSITION LEVEL 80. WIND VRB, 1 KT. CAVOK. T 29. DP 11. QNH 1019. NOSIG. CAUTION. BIRD ACT. END OF EPWA DEP X",
    "EFHK": "[Arrival ATIS] EFHK ARR ATIS J 0350Z EXPECT ILS APCH ARR RWY 15 RUNWAY 15 CONDITION REPORT AT 0154 UTC RUNWAY CONDITION CODES 6 , 6 , 6 CONTAMINANTS ALL PARTS DRY TRL 60 WIND 130 DEG 6 KT CAVOK T 17 DP 14 QNH 1019 NOSIG ACK INFO J\n[Departure ATIS] EFHK DEP ATIS B 1059Z DEP RWY 22R RUNWAY 22R CONDITION REPORT AT 0751 UTC RUNWAY CONDITION CODES 6 , 6 , 6 CONTAMINANTS ALL PARTS DRY WIND 300 DEG 7 KT VRB BTN 250 AND 330 DEG CAVOK T 21 DP 8 QNH 1020 NOSIG ACK INFO B",
    "LTAC": "[Arrival ATIS] LTAC ARR ATIS I 0131Z EXP ILS V APCH 03C DEP RWY 03L MET INFO NOT AVBL FOR DELIVERY CTC 121.9. FOR DELIVERY FIRST USE DIGITAL DEP CLR. CTN BIRD HAZARD OVR AERODROME. APCH FREQUENCY 129.050. END OF ATIS I",
    "UBBB": "[Arrival ATIS] UBBB ARR ATIS I 0330Z ATIS I EXP ILS/ LDG 34 35 DEP 34 35 IN USE RWY 34 CLEAR DRY 70 RWY 35 CLEAR DRY 70 TLVL 110 WIND WIND RWY 34 320 12 KT SPD MAX 16 MIN 8 WIND RWY 35 310 12 KT SPD MAX 16 MIN 10 VIS CAVOK T 27 / DP 20 QNH 1008 HPA TREND TREND NOSIG MODERATE BIRDS ACT IN VICINITY OF AP END OF ATIS I\n[Departure ATIS] UBBB DEP ATIS S 1830Z ATIS S EXP ILS/ LDG 34 35 DEP 34 35 IN USE RWY 34 CLEAR DRY 70 RWY 35 CLEAR DRY 70 TLVL 110 WIND WIND RWY 34 330 12 KT SPD MAX 14 MIN 8 WIND RWY 35 330 12 KT SPD MAX 14 MIN 10 VIS 10 KM FEW CB 6000 FT RWY 34 FEW CB 6000 FT RWY 35 T 23 / DP 16 QNH 1016 HPA TREND TREND NOSIG MODERATE BIRDS ACT IN VICINITY OF AP END OF ATIS S",
    "ZWWW": "[Arrival ATIS] ZWWW ARR ATIS L 0300Z EXP ILSDME Z APCH LDG RWY 26R TA 3000 WIND 140/2MPS VRB BTN 090/ AND 220/ CAVOK T 36 /DP 07 QNH 1009 HPA ADZ YOU HAVE INFO L.\n[Departure ATIS] ZWWW DEP ATIS B 1200Z DEP RWY 26L TA 3000 WIND 260/3MPS VRB BTN 230/ AND 290/ CAVOK T 30 /DP 07 QNH 1006 HPA ADZ YOU HAVE INFO B.",
    "ZLXY": "[Arrival ATIS] ZLXY ARR ATIS F 1500Z EXP ILS APCH LDG RWY 23R & 24L WIND 260/5MPS VIS 9999M -RA CLD FEW 1500M /BKN 2100M T 25 /DP 21 QNH 1005 HPA VISUAL APPROACH IN PROGRESS ADZ YOU HAVE INFO F.\n[Departure ATIS] ZLXY DEP ATIS Z 1100Z DEP RWY 05L & 06L WIND 040/3MPS VRB BTN 010/ AND 070/ VIS 4500M -RA BR CLD SCT 240M /SCT 600M /OVC 1200M T 19 /DP 18 QNH 1011 HPA RUNWAY 05L SURFACE CONDITION CODE 555 RUNWAY 06L SURFACE CONDITION CODE 555 RUNWAY 06R SURFACE CONDITION CODE 555 ADZ YOU HAVE INFO Z.",
    "ZBAA": "[Arrival ATIS] ZBAA ARR ATIS B 1900Z EXP ILS APCH DEPENDENT PARL INSTR APCH LDG RWY 36L & 36R WIND 360 DEG 2 MPS VIS 9999 CLD FEW CB 1500M T 18 /DP 17 QNH 1006 HPA VISUAL APPROACH IS IN PROGRESS. RWY 36L RWYCC 5/5/5 ISSUED AT 1144 ALL PARTS WET NR 100PCT RWY 36R RWYCC 5/5/5 ISSUED AT 1144 ALL PARTS WET NR 100PCT RWY 01 RWYCC 5/5/5 ISSUED AT 1143 ALL PARTS WET NR 100PCT ADZ YOU HAVE INFO B.\n[Departure ATIS] ZBAA DEP ATIS Y 1730Z DEP RWY 36L & 36R WIND 010 DEG 2 MPS CAVOK T 19 /DP 17 QNH 1007 HPA RWY INDEPENDENT PARALLEL DEP VISUAL APPROACH IS IN PROGRESS. RWY 36L RWYCC 5/5/5 ISSUED AT 1144 ALL PARTS WET NR 100PCT RWY 36R RWYCC 5/5/5 ISSUED AT 1144 ALL PARTS WET NR 100PCT RWY 01 RWYCC 5/5/5 ISSUED AT 1143 ALL PARTS WET NR 100PCT ADZ YOU HAVE INFO Y.",
    "ZBHH": "[Arrival ATIS] ZBHH ARR ATIS C 1706Z EXP ILSDME APCH LDG RWY 26 TA 3000 /TRL 3600 WIND VRB/1MPS CAVOK T 14 /DP 10 QNH 1009 HPA ADZ YOU HAVE INFO C.\n[Departure ATIS] ZBHH DEP ATIS Q 1500Z DEP RWY 08 TA 3000 /TRL 3600 WIND 140/2MPS VIS 5000M BR NSC T 19 /DP 19 QNH 1007 HPA ADZ YOU HAVE INFO Q.",
    "ZSQD": "[Arrival ATIS] ZSQD ARR ATIS K 0000Z EXP ILSDME APCH LDG RWY 35 TA 3000 /TRL 3600 WIND 020/3MPS VRB BTN 350/ AND 050/ VIS 9999M CLD FEW 270M T 25 /DP 25 QNH 1002 HPA SEGREGATED OPERATION VISUAL APPROACH OPE\n[Departure ATIS] ZSQD DEP ATIS Y 2112Z DEP RWY 16 TA 3000 /TRL 3600 WIND 140/2MPS VIS 4000M BR CLD FEW 450M T 22 /DP 21 QNH 1009 HPA VISUAL APPROACH OPERATION IN PROGRESS. WHEN READY CONTACT QINGDAO TOWER ON 118.7 RUNWAY 16,IF MISSED APPROACH,EXPECT FOLLOW THE STANDARD MISSED APPROACH PROCEDURE,CLIMB TO 600M ON QNH OR BY ATC CAUTION MAYBE THERE IS A FLOCK OF BIRDS IN THE VICINITY OF AIRPORT ADZ YOU HAVE INFO Y."
  },
  "windtemp_alaska": "\n000\nFBAK31 KWNO 170200\nFD1AK1\nDATA BASED ON 170000Z    \nVALID 170600Z   FOR USE 0200-0900Z. TEMPS NEG ABV 24000\n\nFT  3000    6000    9000   12000   18000   24000  30000  34000  39000\nADK 2534 2730+05 2830+02 3034-01 2936-12 3039-22 294037 304247 314759\nADQ 2710 2514+01 2322-01 2332-05 2250-18 2255-32 226745 226544 225043\nAKN 2909 2713-02 2714-07 2612-12 2626-23 2540-36 243643 233139 242639\nANC 1317 1531-01 1819-05 1924-07 1959-17 1867-29 177244 187448 194446\nANN 3410 3208+13 2906+08 2707+02 2609-11 2809-24 300639 340549 350658\nBET 3114 3214-02 3312-06 3408-13 3311-24 3210-35 311045 290841 271140\nBRW 0513 3607+02 3106-02 9900-07 1406-20 1414-31 152748 152553 141043\nBTI 9900 0208+03 0211-03 3509-07 0107-18 0213-30 052947 041551 160743\nBTT 9900 0906+04 1012-02 1114-07 1415-19 1718-29 212945 224552 192147\nCDB 3017 2917-02 2921-03 3024-08 2928-21 3030-32 314445 303745 283044\nCZF 0605 1208-02 1409-07 9900-12 3006-24 3115-35 312246 311442 311340\nEHM 2918 2913-03 2914-06 2916-11 3022-23 3131-35 314246 303042 292240\nFAI 1109 1510+03 1709-03 1811-09 1924-15 2139-27 205144 205550 202852\nFYU 2206 2406+04 9900-01 9900-06 2410-17 2414-29 274044 265751 242448\nGAL 0706 1108+01 1114-05 1216-11 1227-21 1424-30 143947 163749 151742\nGKN 1721 1729+01 1727-04 2033-04 2041-14 2136-26 214442 215651 214155\nHOM 1523 1528+00 2022-04 2131-08 2155-20 2166-32 206544 205642 213942\nJNU 9900 9900+07 9900+05 2606+01 2614-13 2623-24 252740 243049 232957\nLUR 0707 0913+02 1116-04 1316-09 1423-21 1224-34 112449 101547 090741\nMCG 1114 1411+00 1506-05 1505-11 1421-21 1428-34 153945 163144 182040\nMDO 1719 1821+01 2229+02 2139-02 2044-15 2150-27 217142 217050 215354\nOME 0307 1207-01 1210-07 1209-12 0912-23 1216-34 132348 131244 990040\nORT      1511+06 1715-01 1814-05 2529-14 2535-26 253742 244450 232955\nOTZ 3207 9900+00 9900-04 1110-10 1219-22 1422-33 152849 141947 131141\nSNP 2518 2426-01 2126-05 2221-10 2826-17 3049-28 299841 791050 315246\nTKA 1912 1625-01 1520-06 1423-09 1938-18 1859-29 177745 187949 194245\nUNK 0407 0911-01 0810-06 0608-11 0912-23 1318-32 133048 141846 150839\nYAK 9900 2506+04 2512+03 2514-01 2519-13 2624-25 263140 253350 253557\nIKO 2716 2919+01 2922-03 2824-07 3033-15 3149-26 327940 338650 324551\nAFM 3405 0808+02 1015-03 1121-08 1222-21 1423-32 162848 172951 151843\n5AB 2837 2833+09 2831+06 2931+01 2932-10 3035-22 313237 323147 332955\n5AC 3419 3513+11 3511+07 3511+03 3509-11 3410-24 011340 011549 011859\n5AD 2618 2619+09 2623+05 2624+00 2528-12 2532-24 253740 253649 243359\n5AE 2918 2623+02 2531+00 2436-04 2348-18 2373-29 730943 239449 235447\n5AF 3111 2911+09 2714+06 2717+01 2620-11 2720-23 262539 272449 262358\n5AG 1814 2314+07 2417+04 2314-01 2423-12 2532-25 253740 243850 244058\n",
  "vaac_tokyo": [
    {
      "id": "20260716_27303000_0756",
      "year": "2026",
      "volcano": "Mayon",
      "psn": "N1315 E12341",
      "issued": "20260716",
      "text": "FVFE01 RJTD 162010\nVA ADVISORY\nDTG: 20260716/2010Z\nVAAC: TOKYO\nVOLCANO: MAYON 273030\nPSN: N1315 E12341\nAREA: PHILIPPINES\nSOURCE ELEV: 2462M AMSL\nADVISORY NR: 2026/756\nINFO SOURCE: HIMAWARI-9\nERUPTION DETAILS: ERUPTION AT 20260716/1623Z FL130 EXTD SSE REPORTED\nOBS VA DTG: 16/1950Z\nOBS VA CLD: VA NOT IDENTIFIABLE FM SATELLITE DATA WIND FL130 360/5KT\nFCST VA CLD +6 HR: NOT AVBL\nFCST VA CLD +12 HR: NOT AVBL\nFCST VA CLD +18 HR: NOT AVBL\nRMK: WE WILL ISSUE FURTHER ADVISORY IF VA IS DETECTED IN SATELLITE \nIMAGERY.\nNXT ADVISORY: NO FURTHER ADVISORIES=",
      "img_url": "https://ds.data.jma.go.jp/svd/vaac/data/VAGFN/2026/Images/20260716_27303000_0756_QH21_01.png",
      "sat_img_url": null,
      "text_url": "https://ds.data.jma.go.jp/svd/vaac/data/TextData/2026/20260716_27303000_0756_Text.html"
    },
    {
      "id": "20260716_30027000_0266",
      "year": "2026",
      "volcano": "Sheveluch",
      "psn": "N5639 E16122",
      "issued": "20260716",
      "text": "FVFE01 RJTD 161200\nVA ADVISORY\nDTG: 20260716/1200Z\nVAAC: TOKYO\nVOLCANO: SHEVELUCH 300270\nPSN: N5639 E16122\nAREA: RUSSIA\nSOURCE ELEV: 3283M AMSL\nADVISORY NR: 2026/266\nINFO SOURCE: HIMAWARI-9\nERUPTION DETAILS: VA CONTINUOUSLY OBS IN SATELLITE IMAGERY\nOBS VA DTG: 16/1120Z\nOBS VA CLD: SFC/FL230 N5556 E16558 - N5544 E16655 - N5425 E16745 - \nN5359 E17000 - N5312 E16918 - N5403 E16711 MOV SE 35KT\nFCST VA CLD +6 HR: 16/1720Z SFC/FL240 N5329 E17049 - N5230 E17321 - \nN5147 E17227 - N5314 E16939 - N5525 E16945 - N5436 E17056\nFCST VA CLD +12 HR: 16/2320Z SFC/FL250 N5118 E17628 - N5008 E17537 - \nN5210 E17232 - N5303 E17348 - N5459 E17402\nFCST VA CLD +18 HR: NO VA EXP\nRMK: THE RESPONSIBILITY FOR THIS ASH EVENT IS BEING TRANSFERRED TO \nVAAC ANCHORAGE. THE NEXT ADVISORY WILL BE ISSUED BY VAAC ANCHORAGE \nBY 1800UTC UNDER HEADER FVAK21 PAWU. WESTERN PART OF VA OBSCURED BY \nMET CLOUD.\nNXT ADVISORY: NO FURTHER ADVISORIES=",
      "img_url": "https://ds.data.jma.go.jp/svd/vaac/data/VAGFN/2026/Images/20260716_30027000_0266_QH21_01.png",
      "sat_img_url": "https://ds.data.jma.go.jp/svd/vaac/data/Sat/2026/Images/30027000/09-ir/20260716_1120_202607161200_ir.png",
      "text_url": "https://ds.data.jma.go.jp/svd/vaac/data/TextData/2026/20260716_30027000_0266_Text.html"
    },
    {
      "id": "20260715_27307000_0013",
      "year": "2026",
      "volcano": "Taal",
      "psn": "N1400 E12100",
      "issued": "20260715",
      "text": "FVFE01 RJTD 152348\nVA ADVISORY\nDTG: 20260715/2348Z\nVAAC: TOKYO\nVOLCANO: TAAL 273070\nPSN: N1400 E12100\nAREA: PHILIPPINES\nSOURCE ELEV: 311M AMSL\nADVISORY NR: 2026/13\nINFO SOURCE: HIMAWARI-9 PHIVOLCS\nERUPTION DETAILS: ERUPTION AT 20260715/2330Z FL030 EXTD ENE REPORTED\nOBS VA DTG: 15/2340Z\nOBS VA CLD: VA NOT IDENTIFIABLE FM SATELLITE DATA WIND FL030 170/2KT\nFCST VA CLD +6 HR: NOT AVBL\nFCST VA CLD +12 HR: NOT AVBL\nFCST VA CLD +18 HR: NOT AVBL\nRMK: WE WILL ISSUE FURTHER ADVISORY IF VA IS DETECTED IN SATELLITE \nIMAGERY.\nNXT ADVISORY: NO FURTHER ADVISORIES=",
      "img_url": "https://ds.data.jma.go.jp/svd/vaac/data/VAGFN/2026/Images/20260715_27307000_0013_QH21_01.png",
      "sat_img_url": null,
      "text_url": "https://ds.data.jma.go.jp/svd/vaac/data/TextData/2026/20260715_27307000_0013_Text.html"
    },
    {
      "id": "20260713_28208001_0083",
      "year": "2026",
      "volcano": null,
      "psn": "N3136 E13039",
      "issued": "20260713",
      "text": "FVFE01 RJTD 130254\nVA ADVISORY\nDTG: 20260713/0254Z\nVAAC: TOKYO\nVOLCANO: SAKURAJIMA (AIRA CALDERA) 282080\nPSN: N3136 E13039\nAREA: JAPAN\nSOURCE ELEV: 1117M AMSL\nADVISORY NR: 2026/83\nINFO SOURCE: JMA HIMAWARI-9\nERUPTION DETAILS: ERUPTED AT 20260713/0152Z FL100 EXTD N\nOBS VA DTG: 13/0230Z\nOBS VA CLD: SFC/FL100 N3136 E13039 - N3142 E13040 - N3141 E13044 - \nN3134 E13042 MOV NE 15KT\nFCST VA CLD +6 HR: 13/0830Z SFC/FL100 N3234 E13121 - N3145 E13155 - \nN3202 E13110 - N3227 E13051\nFCST VA CLD +12 HR: 13/1430Z SFC/FL100 N3318 E13206 - N3142 E13317 - \nN3134 E13226 - N3312 E13118\nFCST VA CLD +18 HR: NO VA EXP\nRMK: NIL\nNXT ADVISORY: 20260713/0600Z=",
      "img_url": "https://ds.data.jma.go.jp/svd/vaac/data/VAGFN/2026/Images/20260713_28208001_0083_QH21_01.png",
      "sat_img_url": "https://ds.data.jma.go.jp/svd/vaac/data/Sat/2026/Images/28208001/09-ir/20260713_0230_202607130254_ir.png",
      "text_url": "https://ds.data.jma.go.jp/svd/vaac/data/TextData/2026/20260713_28208001_0083_Text.html"
    }
  ],
  "vaac_alaska": [
    {
      "text": "\n000\nFVAK21 PAWU 162126\nVAAAK1\nVA ADVISORY\n\nDTG: 20260716/2122Z\n\nVAAC: ANCHORAGE\n\nVOLCANO: SHEVELUCH 300270\n\nPSN: N5639 E16122\n\nAREA: KAMCHATKA PENINSULA\n\nSOURCE ELEV: 10771 FT AMSL\n\nADVISORY NR: 2026/204\n\nINFO SOURCE: HIMAWARI\n\nERUPTION DETAILS: VA NOT IDENTIFIABLE FM SATELLITE DATA.\n\nOBS VA DTG: 16/2122Z\n\nOBS VA CLD: VA NOT IDENTIFIABLE FM SATELLITE DATA WIND FL100 280/20KT\n\nFCST VA CLD +6HR: NOT AVBL\n\nFCST VA CLD +12HR: NOT AVBL\n\nFCST VA CLD +18HR: NOT AVBL\n\nRMK: A NEW ADVISORY WILL BE ISSUED IF VA IS DETECTED IN SATELLITE IMAGERY....DK\n\nNXT ADVISORY: NO FURTHER ADVISORIES=\n\n",
      "issued": "2026-07-16T21:26:00+00:00",
      "volcano": "Sheveluch",
      "psn": "N5639 E16122"
    }
  ]
}