{
  "updated_utc": "2026-07-13T16:55Z",
  "metar": {
    "RJAA": "METAR RJAA 131500Z AUTO VRB02KT 9999 NSC 25/24 Q1007 NOSIG",
    "PANC": "METAR PANC 131553Z 15009G16KT 5SM -RA BR FEW015 FEW030 OVC060 11/10 A3003 RMK AO2 SLP171 P0003 T01110100 $",
    "PAFA": "METAR PAFA 131553Z 18004KT 10SM FEW050 BKN100 BKN180 13/11 A2993 RMK AO2 SLP139 T01280106 $",
    "PAED": "SPECI PAED 131518Z 08003KT 6SM -RA FEW008 OVC055 11/10 A3001 RMK AO2A SLP159 $",
    "KSEA": "METAR KSEA 131553Z 01008KT 10SM FEW250 17/08 A3013 RMK AO2 SLP208 T01670083",
    "ZSPD": "METAR ZSPD 131500Z 18010G15MPS CAVOK 29/25 Q1003 NOSIG",
    "ZSSS": "METAR ZSSS 131500Z 19007MPS CAVOK 30/25 Q1003 NOSIG",
    "RJFR": "METAR RJFR 131500Z AUTO 32003KT 9999 NCD 27/25 Q1011",
    "VHHH": "METAR VHHH 131500Z 12008KT 9999 FEW015 SCT025 30/25 Q1003 NOSIG",
    "RCTP": "METAR RCTP 131500Z 18005KT 9999 FEW015 BKN050 28/26 Q1008 NOSIG RMK A2978",
    "ZGSZ": "METAR ZGSZ 131500Z 10004MPS 9999 BKN050 30/25 Q1003 NOSIG",
    "WSSS": "METAR WSSS 131500Z 13009KT 9999 FEW018 BKN300 29/24 Q1010 NOSIG",
    "WMKK": "METAR WMKK 131500Z 12003KT 050V190 9000 FEW030 29/25 Q1009 NOSIG",
    "WIDD": "METAR WIDD 131500Z 14006KT 9999 FEW014 29/25 Q1010 NOSIG",
    "VTBS": "METAR VTBS 131500Z 21010KT 9999 FEW020 29/23 Q1007 NOSIG",
    "VTBU": "METAR VTBU 131500Z 25005KT 220V290 9999 FEW020 28/27 Q1008 NOSIG",
    "ROAH": "METAR ROAH 131500Z AUTO 18012KT 9999 NCD 27/25 Q1012",
    "VVDN": "METAR VVDN 131500Z 20004KT 9999 FEW015 BKN080 28/25 Q1005 NOSIG",
    "RCKH": "METAR RCKH 131500Z 16018G32KT 130V200 3000 SHRA FEW010TCU FEW013 BKN020 BKN080 27/24 Q1009 WS R09 NOSIG RMK TCU S-SW A2980 RA AMT 0.2MM",
    "KLAX": "METAR KLAX 131553Z 25005KT 9SM FEW017 SCT095 BKN160 BKN250 21/18 A2997 RMK AO2 SLP146 T02110178 $",
    "KONT": "METAR KONT 131553Z VRB03KT 10SM BKN130 BKN170 24/17 A2998 RMK AO2 SLP136 VIRGA DSNT E ACC W T02440172 $",
    "KSFO": "METAR KSFO 131456Z 00000KT 10SM SCT140 BKN200 18/13 A2991 RMK AO2 SLP128 T01780133 53008 $",
    "KOAK": "METAR KOAK 131553Z VRB03KT 10SM SCT160 BKN200 20/14 A2994 RMK AO2 SLP139 T02000139",
    "KMHR": "METAR KMHR 131515Z AUTO 00000KT 10SM CLR 26/12 A2988 RMK AO2 T02570125 $",
    "KDFW": "SPECI KDFW 131510Z VRB03KT 10SM SCT009 BKN013 OVC045 25/23 A3013 RMK AO2 T02500228 $",
    "KIAH": "SPECI KIAH 131530Z 21004KT 10SM BKN023 BKN170 BKN250 30/24 A3010 RMK AO2 CB DSNT NW-NE-S MOVG NE T03000244",
    "KORD": "METAR KORD 131551Z 32007KT 10SM FEW100 FEW170 SCT250 30/17 A3020 RMK AO2 SLP220 T03000172",
    "KJFK": "METAR KJFK 131551Z 19010KT 10SM FEW060 SCT100 27/17 A3024 RMK AO2 SLP241 T02670172",
    "KRFD": "METAR KRFD 131554Z 30008KT 10SM FEW250 29/18 A3024 RMK AO2 SLP235 T02890183",
    "KIND": "METAR KIND 131554Z 03011KT 10SM CLR 28/14 A3017 RMK AO2 SLP211 T02830144",
    "KDTW": "METAR KDTW 131553Z 26004KT 10SM BKN250 28/16 A3020 RMK AO2 SLP223 T02830156 $",
    "KMSP": "METAR KMSP 131553Z 26011G17KT 10SM CLR 29/19 A3018 RMK AO2 SLP212 T02940194",
    "CYEG": "METAR CYEG 131500Z VRB02KT 20SM FEW075 FEW250 15/08 A3010 RMK ACC2CI1 CI TR SLP198 DENSITY ALT 2800FT",
    "EHAM": "METAR EHAM 131525Z 05011KT 360V090 CAVOK 24/14 Q1020 NOSIG",
    "EBBR": "METAR EBBR 131520Z 04009KT 010V070 CAVOK 30/16 Q1018 NOSIG",
    "EDDF": "METAR EDDF 131520Z AUTO 10010KT 070V140 CAVOK 33/09 Q1016 NOSIG",
    "EDFH": "METAR EDFH 131520Z 09007KT 040V150 CAVOK 30/11 Q1018",
    "EDDL": "METAR EDDL 131520Z AUTO 36007KT 330V080 CAVOK 32/13 Q1017 NOSIG",
    "EDDK": "METAR EDDK 131520Z AUTO VRB04KT CAVOK 32/14 Q1016 NOSIG",
    "EBLG": "METAR EBLG 131520Z 02012KT CAVOK 29/15 Q1017 NOSIG",
    "LSZH": "METAR LSZH 131520Z 09005KT CAVOK 31/13 Q1016 NOSIG",
    "LIMC": "METAR LIMC 131520Z 24006KT CAVOK 31/18 Q1017 NOSIG",
    "LIRF": "METAR LIRF 131520Z 25008KT CAVOK 30/24 Q1016 NOSIG",
    "EINN": "METAR EINN 131500Z 06012KT 9999 FEW023 27/12 Q1022 NOSIG",
    "EGLL": "METAR EGLL 131520Z AUTO 06015KT 030V090 9999 NCD 28/13 Q1020",
    "EGSS": "METAR EGSS 131520Z AUTO 05014KT 9999 NCD 26/15 Q1022",
    "EPWA": "METAR EPWA 131500Z 31008KT 9999 SCT030 25/20 Q1017 NOSIG",
    "UHPP": "METAR UHPP 131500Z 00000MPS 9999 BKN002 11/11 Q1012 R16R/CLRD62 NOSIG RMK QFE756/1008",
    "EFHK": "METAR EFHK 131520Z 35011KT 9999 BKN022 19/15 Q1018 NOSIG",
    "LBBG": "METAR LBBG 131500Z AUTO 04011KT 010V070 9999 FEW028/// 21/17 Q1014 TEMPO 5000 TSRA SCT030CB",
    "LTAC": "METAR LTAC 131520Z 32009KT 290V350 9999 FEW040 31/03 Q1011 NOSIG RMK RWY21C 28009KT 250V310 RWY03L 32008KT 280V350 RWY21R 28008KT 240V310 RWY03R 28008KT 230V320 RWY21L 30007KT 260V330",
    "UBBB": "METAR UBBB 131500Z 33012KT CAVOK 28/20 Q1007 NOSIG",
    "UTAA": "METAR UTAA 131500Z 26008KT 9999 FEW050 39/09 Q1005 R88/CLRD70 NOSIG",
    "UACC": "METAR UACC 131500Z 16002MPS CAVOK 30/19 Q1007 NOSIG RMK QFE724/0965",
    "UAAA": "METAR UAAA 131500Z 19002MPS 160V230 9999 BKN050CB OVC100 26/13 Q1009 NOSIG",
    "UZTT": "METAR UZTT 131500Z 15006KT CAVOK 34/17 Q1003 NOSIG",
    "ZWWW": "METAR ZWWW 131500Z 27003MPS CAVOK 32/08 Q1005 NOSIG",
    "ZLXY": "METAR ZLXY 131500Z 02002MPS 340V050 CAVOK 30/23 Q1001 NOSIG",
    "ZBAA": "METAR ZBAA 131500Z VRB01MPS CAVOK 27/26 Q1001 NOSIG",
    "ZBHH": "METAR ZBHH 131500Z 03003MPS CAVOK 23/12 Q1009 NOSIG",
    "ZSQD": "METAR ZSQD 131500Z 15006MPS 9999 BKN009 OVC020 26/26 Q0997 NOSIG",
    "ZMCK": "METAR ZMCK 131500Z VRB02MPS 9999 FEW033 14/10 Q1011 NOSIG RMK QFE643.8 76 NT",
    "UUEE": "METAR UUEE 131500Z 26004MPS 250V310 9999 -RA SCT031 19/16 Q1005 R06R/290151 R06C/290151 NOSIG",
    "UUDD": "METAR UUDD 131500Z 36002MPS 9999 FEW048 21/14 Q1005 R13R/CLRD65 NOSIG",
    "ULLI": "METAR ULLI 131500Z 05004MPS 020V080 9999 FEW046 26/14 Q1013 R88/090065 NOSIG",
    "USSS": "METAR USSS 131500Z 05006MPS 9999 SCT024 20/18 Q1012 R08L/210060 R08R/CLRD60 NOSIG RMK QFE739/0985",
    "UNNT": "METAR UNNT 131500Z 07002MPS CAVOK 20/14 Q1005 R07/CLRD// R16/CLRD// NOSIG RMK QFE744/0992",
    "UNKL": "METAR UNKL 131500Z 22001MPS CAVOK 15/12 Q1006 R11/CLRD// NOSIG RMK QFE729",
    "UIBB": "METAR UIBB 131500Z AUTO 24001MPS 9999 // NCD 15/09 Q1009 RMK QFE714/0952",
    "UEEE": "METAR UEEE 131500Z 01004MPS 9999 SCT050CB 21/17 Q0994 R05/09//65 NOSIG RMK QFE737",
    "UHHH": "METAR UHHH 131500Z 23003MPS 9999 FEW040CB 25/23 Q0999 R23L/090060 NOSIG RMK QFE743/0991",
    "UHSS": "METAR UHSS 131500Z 22002MPS 0750 0650N R19/1300N FG VV002 18/17 Q1005 RMK QBB070 MT OBSC QFE753/1004"
  },
  "taf": {
    "RJAA": "TAF RJAA 131105Z 1312/1418 31004KT 9999 FEW030 BECMG 1403/1406 14010KT",
    "PANC": "TAF PANC 131501Z 1315/1418 VRB05KT P6SM -RA FEW025 OVC060 FM131800 15008KT P6SM -RA SCT035 OVC050 FM132100 15011KT P6SM VCSH BKN050 FM140200 15012KT P6SM -SHRA OVC035 FM140900 15015G25KT P6SM -SHRA OVC035",
    "PAFA": "TAF PAFA 131128Z 1312/1418 23005KT P6SM VCSH SCT050 BKN100 FM132100 22006KT P6SM BKN035 OVC050",
    "PAED": "TAF AMD PAED 131522Z 1315/1419 21005KT 9000 -RA SCT008 OVC035 620808 QNH2997INS BECMG 1316/1317 21005KT 6000 -RA BKN008 OVC035 620808 QNH2997INS BECMG 1322/1323 24006KT 9000 -SHRA SCT015 BKN025 OVC035 620808 QNH3005INS BECMG 1407/1408 15006KT 9000 -RA SCT006 BKN015 OVC020 620808 QNH2990INS TX14/1400Z TN11/1315Z",
    "KSEA": "TAF KSEA 131501Z 1315/1418 03008KT P6SM FEW250 FM131700 35009KT P6SM FEW250 FM132200 31008KT P6SM FEW250 FM140200 36006KT P6SM FEW250 FM140800 01004KT P6SM SKC",
    "ZSPD": "TAF ZSPD 131503Z 1318/1424 18009G15MPS 8000 BKN020 TX35/1406Z TN28/1321Z TN29/1421Z BECMG 1321/1322 17006MPS",
    "ZSSS": "TAF ZSSS 131503Z 1318/1424 17005MPS 8000 BKN020 TX36/1406Z TN28/1321Z TN29/1421Z",
    "RJFR": "TAF RJFR 131105Z 1312/1418 24004KT 9999 FEW003 BECMG 1322/1400 04006KT BECMG 1409/1412 18006KT",
    "VHHH": "TAF VHHH 131400Z 1315/1421 10010KT 9999 FEW015 SCT025 TX31/1406Z TN27/1322Z TEMPO 1315/1318 3500 SHRA FEW010CB SCT020 TEMPO 1318/1322 09015G25KT 2000 TSRA SHRA FEW010CB SCT020 TEMPO 1322/1404 12020G30KT 1500 TSRA +SHRA FEW008CB SCT015 TEMPO 1404/1412 18022G32KT 2000 +SHRA FEW010CB SCT020 TEMPO 1412/1421 20015G25KT 3000 SHRA FEW010CB SCT020",
    "RCTP": "TAF RCTP 131100Z 1312/1418 23005KT 9999 FEW018 BKN032 BECMG 1315/1317 11005KT BECMG 1401/1403 34005KT TEMPO 1406/1412 07005KT 5000 SHRA FEW015 BKN020 BECMG 1412/1414 16005KT",
    "ZGSZ": "TAF ZGSZ 131504Z 1318/1424 12004MPS 8000 SCT030 TX30/1406Z TN26/1322Z TN26/1422Z BECMG 1319/1320 03004MPS SHRA SCT010 FEW020CB BKN030 TEMPO 1321/1402 TSRA TEMPO 1404/1409 2800 +TSRA BECMG 1413/1414 NSW BKN040",
    "WSSS": "TAF WSSS 131100Z 1312/1418 15008KT 9999 FEW015 SCT020",
    "WMKK": "TAF WMKK 131100Z 1312/1418 VRB03KT 9999 FEW030",
    "VTBS": "TAF VTBS 131100Z 1312/1418 22008KT 9999 FEW020 TEMPO 1410/1414 VRB15KT 4000 TSRA FEW018CB SCT030 BKN100",
    "VTBU": "TAF VTBU 131100Z 1312/1412 25010KT 9999 FEW020",
    "ROAH": "TAF ROAH 131105Z 1312/1418 17012KT 9999 FEW008 SCT012 TEMPO 1315/1400 FEW005 BKN008",
    "VVDN": "TAF VVDN 131100Z 1312/1412 22007KT 9999 FEW017 SCT060 TEMPO 1312/1314 4000 SHRA BKN013 FEW017CB BKN060 BECMG 1404/1405 36011KT BECMG 1407/1408 11010KT",
    "RCKH": "TAF AMD RCKH 131201Z 1312/1418 18015G25KT 9999 FEW012 BKN032 TEMPO 1312/1315 15018G28KT 2800 SHRA FEW010 FEW015TCU BKN020 TEMPO 1315/1321 15015KT 7000 -SHRA FEW010 BKN025 TEMPO 1400/1406 8000 -SHRA FEW010 BKN025 TEMPO 1409/1415 16013G23KT 5000 SHRA FEW008 FEW012CB BKN022",
    "KLAX": "TAF KLAX 131416Z 1314/1418 VRB03KT P6SM SCT020 BKN150 FM131700 26006KT P6SM BKN250 FM132100 26012KT P6SM BKN250 FM140300 26006KT P6SM BKN250 FM140600 VRB03KT P6SM BKN010 FM141500 VRB03KT P6SM BKN010",
    "KONT": "TAF KONT 131134Z 1312/1418 VRB04KT P6SM SCT150 BKN200 FM132100 25011KT P6SM SCT100 BKN150 FM140400 VRB04KT P6SM SCT150",
    "KSFO": "TAF KSFO 131506Z 1315/1418 29009KT P6SM BKN200 FM132100 30015KT P6SM BKN200 FM140600 29011KT P6SM BKN200 FM141500 30005KT P6SM FEW010",
    "KOAK": "TAF KOAK 131120Z 1312/1418 30007KT P6SM BKN200 FM132100 30008KT P6SM BKN200 FM141200 29004KT P6SM SCT010",
    "KMHR": "TAF KMHR 131120Z 1312/1412 VRB03KT P6SM OVC150 FM132200 23008KT P6SM BKN200 FM140500 19005KT P6SM BKN250",
    "KDFW": "TAF KDFW 131502Z 1315/1418 VRB04KT P6SM VCSH SCT020 BKN070 TEMPO 1315/1317 BKN010 FM131900 VRB04KT P6SM VCTS SCT020 BKN070CB TEMPO 1319/1322 2SM -TSRA BKN025CB FM132300 13008KT P6SM BKN060 FM140900 17005KT P6SM BKN019 FM141500 14006KT P6SM SCT040",
    "KIAH": "TAF KIAH 131651Z 1317/1418 00000KT P6SM -SHRA VCTS SCT018CB SCT035 BKN170 TEMPO 1317/1318 VRB15KT 4SM TSRA BKN018CB FM131800 18007KT 5SM -SHRA VCTS SCT035CB OVC100 TEMPO 1319/1323 4SM TSRA BKN035CB FM132300 14007KT 6SM -SHRA BR SCT035 BKN050 PROB30 1323/1402 4SM TSRA BKN035CB FM140300 VRB03KT P6SM BKN025 FM141000 15004KT P6SM VCSH BKN025 PROB30 1414/1418 4SM TSRA BKN025CB",
    "KORD": "TAF KORD 131501Z 1315/1418 29007KT P6SM FEW250 FM132200 11007KT P6SM FEW050 FM140300 VRB03KT P6SM SKC",
    "KJFK": "TAF KJFK 131431Z 1315/1418 20010KT P6SM SCT070 FM131800 18013KT P6SM SCT070 FM132100 18017KT P6SM SCT070 FM140300 22010KT P6SM FEW250 FM140800 24008KT P6SM FEW250 FM141400 23012KT P6SM FEW250 FM141600 22015G21KT P6SM FEW250",
    "KRFD": "TAF KRFD 131501Z 1315/1412 29006KT P6SM FEW250 FM140300 VRB03KT P6SM SKC",
    "KIND": "TAF KIND 131120Z 1312/1418 02005KT P6SM SKC FM131600 04012KT P6SM FEW050 FM140000 04005KT P6SM SKC",
    "KDTW": "TAF KDTW 131509Z 1315/1418 24007KT P6SM SCT250 FM131800 24007KT P6SM FEW045 SCT250 FM140100 23005KT P6SM SCT250 FM141400 26008KT P6SM SCT250",
    "KMSP": "TAF KMSP 131447Z 1315/1418 24008KT P6SM SKC FM131700 22011G18KT P6SM SKC FM132300 23008KT P6SM SKC",
    "CYEG": "TAF CYEG 131440Z 1315/1412 VRB03KT P6SM FEW100 BECMG 1318/1320 12008KT FM140600 10006KT P6SM SKC RMK NXT FCST BY 131800Z",
    "EHAM": "TAF EHAM 131116Z 1312/1418 03009KT CAVOK BECMG 1405/1408 05013KT",
    "EBBR": "TAF EBBR 131105Z 1312/1418 03008KT CAVOK",
    "EDDF": "TAF EDDF 131100Z 1312/1418 08009KT CAVOK BECMG 1320/1323 02009KT TEMPO 1414/1418 30020G40KT TSRA BKN050CB",
    "EDFH": "TAF EDFH 131100Z 1312/1412 08008KT CAVOK",
    "EDDL": "TAF EDDL 131100Z 1312/1418 03009KT CAVOK BECMG 1323/1402 06004KT BECMG 1407/1410 04011KT PROB30 TEMPO 1412/1416 03015G25KT",
    "EDDK": "TAF EDDK 131100Z 1312/1418 VRB03KT CAVOK TEMPO 1315/1323 04008KT BECMG 1406/1409 09006KT BECMG 1411/1414 03007KT PROB30 TEMPO 1411/1416 03015G30KT TSRA SCT040CB BECMG 1415/1418 VRB03KT",
    "EBLG": "TAF EBLG 131105Z 1312/1418 03008KT CAVOK",
    "LSZH": "TAF LSZH 131425Z 1315/1421 VRB02KT CAVOK TX31/1315Z TN20/1404Z TX31/1414Z TEMPO 1315/1320 09005KT TEMPO 1323/1409 9999 FEW070TCU PROB40 TEMPO 1400/1408 32015G25KT TSRA SCT060CB BECMG 1411/1414 26008KT 9999 FEW070 PROB30 TEMPO 1415/1420 30018G30KT TSRA SCT060CB",
    "LIMC": "TAF LIMC 131100Z 1312/1418 VRB05KT 9999 SCT050 BECMG 1410/1412 23010KT BECMG 1416/1418 VRB05KT",
    "LIRF": "TAF LIRF 131100Z 1312/1418 21010KT CAVOK BECMG 1314/1316 27010KT BECMG 1319/1321 VRB05KT PROB40 TEMPO 1400/1405 4000 BCFG BECMG 1410/1412 20010KT",
    "EINN": "TAF AMD EINN 131647Z 1316/1412 04012KT CAVOK PROB30 TEMPO 1316/1322 08010KT BECMG 1322/1324 VRB03KT BECMG 1407/1409 08010KT",
    "EGLL": "TAF EGLL 131054Z 1312/1418 05013KT CAVOK PROB40 TEMPO 1312/1319 06016G26KT TEMPO 1320/1410 BKN020 PROB30 TEMPO 1400/1407 BKN012",
    "EGSS": "TAF EGSS 131059Z 1312/1418 04012KT 9999 SCT030 PROB30 TEMPO 1312/1318 05015G25KT PROB40 TEMPO 1322/1401 BKN010 BECMG 1401/1404 BKN010 PROB30 TEMPO 1402/1407 8000 -DZ BKN008 BECMG 1407/1410 FEW030 BECMG 1412/1415 10009KT",
    "EPWA": "TAF EPWA 131430Z 1315/1415 31007KT 9999 FEW025 PROB40 TEMPO 1315/1321 -SHRA SCT025CB PROB30 TEMPO 1315/1321 VRB15G25KT 3000 TSRA BKN015CB TEMPO 1321/1406 BKN008 BKN011 PROB40 TEMPO 1400/1406 BKN004 PROB40 TEMPO 1411/1415 -SHRA SCT040CB",
    "UHPP": "TAF UHPP 131340Z 1315/1421 34003G10MPS 9999 SCT050 TEMPO 1315/1321 0700 FG VV002 TEMPO 1401/1410 18006MPS",
    "EFHK": "TAF EFHK 131433Z 1315/1415 34011KT 9999 BKN020 BECMG 1402/1404 04010KT PROB30 1404/1407 BKN012",
    "LBBG": "TAF LBBG 131100Z 1312/1412 12012KT 9999 SCT045 TEMPO 1312/1320 VRB16G26KT 3000 TSRA SCT030CB BKN040 BECMG 1318/1320 VRB04KT BECMG 1322/1324 33010KT",
    "LTAC": "TAF LTAC 131040Z 1312/1412 VRB02KT 9999 FEW040 SCT100 TEMPO 1312/1315 30012KT TEMPO 1315/1319 01012KT BECMG 1316/1318 CAVOK BECMG 1400/1403 SCT040 SCT100 TEMPO 1408/1412 25012KT",
    "UBBB": "TAF UBBB 131051Z 1312/1412 32010KT CAVOK TX33/1312Z TN24/1401Z TEMPO 1312/1317 35016KT FEW040 TEMPO 1319/1402 34006KT SCT015 BECMG 1404/1406 35014KT",
    "UTAA": "TAF UTAA 131045Z 1312/1412 34018KT 6000 SCT050 TX41/1411Z TEMPO 1312/1318 29016G26KT 4000 DRDU BECMG 1318/1320 22014KT TEMPO 1320/1324 VRB04KT BECMG 1400/1402 02018KT TEMPO 1402/1408 32018G28KT 3000 BLDU",
    "UACC": "TAF UACC 131104Z 1312/1412 VRB01MPS 9999 SCT040 BKN100 TX36/1409Z TN19/1323Z TEMPO 1312/1317 13004MPS -TSRA BKN030CB TEMPO 1402/1406 16005MPS TEMPO 1406/1412 16005MPS -TSRA BKN030CB",
    "UAAA": "TAF UAAA 131103Z 1312/1412 21003MPS 9999 SCT050CB BKN100 TX31/1410Z TN22/1401Z TEMPO 1312/1315 28006G14MPS 5000 -TSRA BLDU TEMPO 1315/1321 02005MPS BECMG 1403/1405 02005MPS TEMPO 1406/1412 07005G10MPS",
    "UZTT": "TAF UZTT 131100Z 1312/1412 08010KT 7000 NSC TX39/1411Z TN26/1400Z TEMPO 1312/1318 32012G22KT TEMPO 1400/1406 24015KT",
    "ZWWW": "TAF ZWWW 131505Z 1318/1424 18004MPS CAVOK TX38/1409Z TN27/1323Z TN28/1423Z BECMG 1402/1403 36004MPS BECMG 1414/1415 18004MPS",
    "ZLXY": "TAF ZLXY 131503Z 1318/1418 06004MPS 6000 NSC TX36/1408Z TN25/1322Z TEMPO 1412/1415 TSRA FEW040CB BKN060",
    "ZBAA": "TAF ZBAA 131501Z 1318/1424 04004MPS CAVOK TX35/1407Z TN25/1321Z TN24/1421Z",
    "ZBHH": "TAF ZBHH 131515Z 1318/1418 06004MPS 9999 FEW040 TX29/1408Z TN17/1322Z TEMPO 1407/1411 FEW040 FEW040CB",
    "ZSQD": "TAF ZSQD 131508Z 1318/1418 09005MPS 5000 RA BR BKN009 OVC020 TX32/1406Z TN25/1320Z TEMPO 1318/1320 2500 +RA BR BECMG 1321/1322 30008G14MPS -RA BR BKN020",
    "ZMCK": "TAF ZMCK 131636Z 1318/1424 VRB02MPS 9999 FEW030CB SCT033 TN08/1321Z TX23/1407Z BECMG 1403/1405 29006MPS BECMG 1410/1412 VRB02MPS",
    "UUEE": "TAF UUEE 131350Z 1315/1415 36003MPS 9999 BKN016 TX24/1412Z TN16/1401Z TEMPO 1315/1321 33010G16MPS 2100 -TSRA BKN016CB TEMPO 1321/1405 BKN005 PROB40 TEMPO 1321/1405 0300 FG TEMPO 1410/1415 33010G16MPS PROB40 TEMPO 1410/1415 -TSRA BKN016CB",
    "UUDD": "TAF UUDD 131353Z 1315/1421 34003MPS 9999 FEW007 BKN016 TX24/1412Z TN15/1401Z PROB40 TEMPO 1315/1319 -TSRA BKN020CB PROB40 TEMPO 1323/1404 0300 FG BKN003",
    "ULLI": "TAF ULLI 131354Z 1315/1415 02005G10MPS 9999 BKN030 PROB40 TEMPO 1315/1318 4000 -TSRA BKN016CB",
    "USSS": "TAF USSS 131358Z 1315/1415 06003G13MPS 9999 -SHRA BKN020CB TEMPO 1315/1415 -TSRA BECMG 1404/1406 12003G13MPS",
    "UNNT": "TAF UNNT 131400Z 1315/1415 36003G08MPS 8000 SCT040 TX25/1409Z TN11/1323Z TEMPO 1315/1403 06005G10MPS -TSRA BKN022CB",
    "UNKL": "TAF UNKL 131355Z 1315/1415 21003G08MPS 9999 SCT040 TEMPO 1400/1406 -TSRA BKN016CB BECMG 1402/1404 26006G15MPS TEMPO 1406/1415 -TSRAGR BKN016CB BECMG 1409/1411 31008G16MPS BECMG 1412/1414 24003G08MPS",
    "UIBB": "TAF UIBB 131400Z 1315/1415 26002MPS 9999 FEW001 SCT050CB TEMPO 1400/1412 VRB07MPS",
    "UEEE": "TAF UEEE 131400Z 1315/1421 11003G10MPS 9999 BKN023CB OVC100 TX29/1406Z TN19/1318Z TEMPO 1315/1406 VRB23MPS 2100 -TSRA SQ SCT007 BKN023CB OVC100",
    "UHHH": "TAF UHHH 131347Z 1315/1421 22003MPS 9999 FEW006 SCT017CB TX31/1406Z TN22/1318Z TEMPO 1315/1318 5000 -SHRA FM140000 24005MPS 9999 FEW010 SCT020CB TEMPO 1400/1410 26005G10MPS",
    "UHSS": "TAF UHSS 131355Z 1315/1421 21003MPS 0550 FG BKN002 BKN016CB BECMG 1322/1324 1400 BR BKN004 FM140100 22003MPS 9999 SCT030"
  },
  "atis": {},
  "windtemp_alaska": "\n000\nFBAK31 KWNO 131359\nFD1AK1\nDATA BASED ON 131200Z    \nVALID 131800Z   FOR USE 1400-2100Z. TEMPS NEG ABV 24000\n\nFT  3000    6000    9000   12000   18000   24000  30000  34000  39000\nADK 2506 3206+05 3309+00 3208-04 2313-14 2518-25 311941 311651 231549\nADQ 1907 2211+02 2516-01 2721-04 2848-13 2875-23 289238 780347 289156\nAKN 1918 2020-01 2120-01 2424-05 2649-16 2678-25 269439 761447 269254\nANC 1611 1718+01 1917-04 1821-10 2319-21 2739-30 287443 276647 263846\nANN 3306 3010+02 3211-01 3309-06 0312-18 0423-31 053647 052853 361145\nBET 2019 2017-01 2019-04 2222-09 2447-22 2580-28 750341 259147 256045\nBRW 2307 2009+02 1913-03 1814-08 1622-20 1532-31 154147 164651 172146\nBTI 9900 9900+06 2011+00 2016-05 2025-17 2028-29 213944 193753 192555\nBTT 2215 2221+01 2220-04 2024-09 1728-22 1636-33 165746 164748 172344\nCDB 2018 2535+09 2443+05 2449-01 2452-12 2563-22 257637 248246 248756\nCZF 2319 2324+00 2222-06 2320-11 2514-24 2408-34 253541 254242 243542\nEHM 1916 1916+01 2321-01 2325-05 2448-17 2572-26 259140 751647 258653\nFAI 2108 2020+02 2124-04 2025-10 1726-22 1737-33 165947 164247 202445\nFYU 2620 2014+05 1822-01 1731-07 1736-19 1743-30 164945 164753 172750\nGAL 2025 2125-01 2227-05 2126-11 2024-23 1921-34 182147 202044 211841\nGKN 1622 1924+02 1919-04 1920-09 1821-22 1827-33 183145 222345 242445\nHOM 2110 1909+00 2013-04 2414-08 2735-16 2759-27 288741 780449 277651\nJNU 2505 2707+00 3208+01 9900-04 9900-16 9900-29 990046 110755 310751\nLUR 1209 1218+00 1323-05 1425-10 1318-23 1219-35 091848 111645 131341\nMCG 2125 2120-01 2117-04 2017-10 2122-24 2328-34 243844 254144 243042\nMDO 1710 1809+01 1911-04 2011-08 2626-17 2949-27 297342 297249 284749\nOME 2115 1813-02 1813-06 2013-10 1807-21 9900-33 300548 241044 221540\nORT      2510+05 2010-01 1920-07 1634-19 1642-31 164746 164552 212247\nOTZ 1318 1418-02 1516-08 1417-12 1207-23 9900-35 990045 161142 181540\nSNP 0305 9900+01 2313-03 2322-05 2440-16 2358-27 237741 229748 236950\nTKA 1815 1915+00 2017-05 1921-10 2117-22 2221-33 274644 264345 252944\nUNK 2021 2229-01 2329-06 2227-11 2021-24 1714-35 201045 232042 232341\nYAK 9900 2307+00 2511-01 2214-06 1926-17 1930-29 183445 192852 262349\nIKO 2223 2241+10 2241+05 2247+00 2152-12 2274-22 218738 219448 208255\nAFM 1517 1622+00 1625-06 1627-12 1533-23 1438-35 153945 172542 182042\n5AB 0216 3415+04 3219+02 3223-01 3136-13 3143-24 325839 326549 326156\n5AC 1109 0911+02 1011-01 0607-04 0315-19 0427-33 012647 363247 331845\n5AD 2308 2310+04 2712+00 3016-02 3231-12 3249-23 338038 338948 318457\n5AE 2118 2316+06 2423+04 2748+00 2651-10 2748-22 276936 277846 277957\n5AF 9900 2707+03 2607-01 2405-04 9900-16 9900-29 990045 341853 333451\n5AG 1815 2012+03 2015-01 1918-07 2321-16 2827-27 306142 306851 304951\n",
  "vaac_active": [
    {
      "volcano": "MAYON",
      "volcano_jp": "マヨン",
      "advisory_nr": "2026/734",
      "obs_time": "2026-07-13 12:01Z",
      "issued_time": "2026-07-13 16:19Z",
      "text_url": "https://www.data.jma.go.jp/vaac/data/TextData/2026/20260713_27303000_0734_Text.html",
      "lat": 13.25,
      "lon": 123.683,
      "text": "FVFE01 RJTD 131619\nVA ADVISORY\nDTG: 20260713/1619Z\nVAAC: TOKYO\nVOLCANO: MAYON 273030\nPSN: N1315 E12341\nAREA: PHILIPPINES\nSOURCE ELEV: 2462M AMSL\nADVISORY NR: 2026/734\nINFO SOURCE: HIMAWARI-9 PHIVOLCS\nERUPTION DETAILS: ERUPTION AT 20260713/1201Z FL120 EXTD NE REPORTED\nOBS VA DTG: 13/1600Z\nOBS VA CLD: VA NOT IDENTIFIABLE FM SATELLITE DATA WIND FL120 030/2KT\nFCST VA CLD +6 HR: NOT AVBL\nFCST VA CLD +12 HR: NOT AVBL\nFCST VA CLD +18 HR: NOT AVBL\nRMK: WE WILL ISSUE FURTHER ADVISORY IF VA IS DETECTED IN SATELLITE \nIMAGERY.\nNXT ADVISORY: NO FURTHER ADVISORIES="
    },
    {
      "volcano": "MAYON",
      "volcano_jp": "マヨン",
      "advisory_nr": "2026/733",
      "obs_time": "2026-07-13 09:16Z",
      "issued_time": "2026-07-13 10:22Z",
      "text_url": "https://www.data.jma.go.jp/vaac/data/TextData/2026/20260713_27303000_0733_Text.html",
      "lat": 13.25,
      "lon": 123.683,
      "text": "FVFE01 RJTD 131022\nVA ADVISORY\nDTG: 20260713/1022Z\nVAAC: TOKYO\nVOLCANO: MAYON 273030\nPSN: N1315 E12341\nAREA: PHILIPPINES\nSOURCE ELEV: 2462M AMSL\nADVISORY NR: 2026/733\nINFO SOURCE: HIMAWARI-9 PHIVOLCS\nERUPTION DETAILS: ERUPTION AT 20260713/0916Z FL110 EXTD NE REPORTED\nOBS VA DTG: 13/1000Z\nOBS VA CLD: VA NOT IDENTIFIABLE FM SATELLITE DATA WIND FL110 220/1KT\nFCST VA CLD +6 HR: NOT AVBL\nFCST VA CLD +12 HR: NOT AVBL\nFCST VA CLD +18 HR: NOT AVBL\nRMK: WE WILL ISSUE FURTHER ADVISORY IF VA IS DETECTED IN SATELLITE \nIMAGERY.\nNXT ADVISORY: NO FURTHER ADVISORIES="
    }
  ],
  "vaac_tokyo": [
    {
      "id": "20260713_27303000_0734",
      "year": "2026",
      "volcano": "Mayon",
      "psn": "N1315 E12341",
      "issued": "20260713",
      "text": "FVFE01 RJTD 131619\nVA ADVISORY\nDTG: 20260713/1619Z\nVAAC: TOKYO\nVOLCANO: MAYON 273030\nPSN: N1315 E12341\nAREA: PHILIPPINES\nSOURCE ELEV: 2462M AMSL\nADVISORY NR: 2026/734\nINFO SOURCE: HIMAWARI-9 PHIVOLCS\nERUPTION DETAILS: ERUPTION AT 20260713/1201Z FL120 EXTD NE REPORTED\nOBS VA DTG: 13/1600Z\nOBS VA CLD: VA NOT IDENTIFIABLE FM SATELLITE DATA WIND FL120 030/2KT\nFCST VA CLD +6 HR: NOT AVBL\nFCST VA CLD +12 HR: NOT AVBL\nFCST VA CLD +18 HR: NOT AVBL\nRMK: WE WILL ISSUE FURTHER ADVISORY IF VA IS DETECTED IN SATELLITE \nIMAGERY.\nNXT ADVISORY: NO FURTHER ADVISORIES=",
      "img_url": "https://ds.data.jma.go.jp/svd/vaac/data/VAGFN/2026/Images/20260713_27303000_0734_QH21_01.png",
      "sat_img_url": null,
      "text_url": "https://ds.data.jma.go.jp/svd/vaac/data/TextData/2026/20260713_27303000_0734_Text.html"
    },
    {
      "id": "20260713_28208001_0083",
      "year": "2026",
      "volcano": null,
      "psn": "N3136 E13039",
      "issued": "20260713",
      "text": "FVFE01 RJTD 130254\nVA ADVISORY\nDTG: 20260713/0254Z\nVAAC: TOKYO\nVOLCANO: SAKURAJIMA (AIRA CALDERA) 282080\nPSN: N3136 E13039\nAREA: JAPAN\nSOURCE ELEV: 1117M AMSL\nADVISORY NR: 2026/83\nINFO SOURCE: JMA HIMAWARI-9\nERUPTION DETAILS: ERUPTED AT 20260713/0152Z FL100 EXTD N\nOBS VA DTG: 13/0230Z\nOBS VA CLD: SFC/FL100 N3136 E13039 - N3142 E13040 - N3141 E13044 - \nN3134 E13042 MOV NE 15KT\nFCST VA CLD +6 HR: 13/0830Z SFC/FL100 N3234 E13121 - N3145 E13155 - \nN3202 E13110 - N3227 E13051\nFCST VA CLD +12 HR: 13/1430Z SFC/FL100 N3318 E13206 - N3142 E13317 - \nN3134 E13226 - N3312 E13118\nFCST VA CLD +18 HR: NO VA EXP\nRMK: NIL\nNXT ADVISORY: 20260713/0600Z=",
      "img_url": "https://ds.data.jma.go.jp/svd/vaac/data/VAGFN/2026/Images/20260713_28208001_0083_QH21_01.png",
      "sat_img_url": "https://ds.data.jma.go.jp/svd/vaac/data/Sat/2026/Images/28208001/09-ir/20260713_0230_202607130254_ir.png",
      "text_url": "https://ds.data.jma.go.jp/svd/vaac/data/TextData/2026/20260713_28208001_0083_Text.html"
    },
    {
      "id": "20260712_27307000_0012",
      "year": "2026",
      "volcano": "Taal",
      "psn": "N1400 E12100",
      "issued": "20260712",
      "text": "FVFE01 RJTD 121243\nVA ADVISORY\nDTG: 20260712/1243Z\nVAAC: TOKYO\nVOLCANO: TAAL 273070\nPSN: N1400 E12100\nAREA: PHILIPPINES\nSOURCE ELEV: 311M AMSL\nADVISORY NR: 2026/12\nINFO SOURCE: HIMAWARI-9 PHIVOLCS\nERUPTION DETAILS: ERUPTION AT 20260712/1227Z FL050 EXTD NE REPORTED\nOBS VA DTG: 12/1230Z\nOBS VA CLD: VA NOT IDENTIFIABLE FM SATELLITE DATA WIND FL050 230/19KT\nFCST VA CLD +6 HR: NOT AVBL\nFCST VA CLD +12 HR: NOT AVBL\nFCST VA CLD +18 HR: NOT AVBL\nRMK: WE WILL ISSUE FURTHER ADVISORY IF VA IS DETECTED IN SATELLITE \nIMAGERY.\nNXT ADVISORY: NO FURTHER ADVISORIES=",
      "img_url": "https://ds.data.jma.go.jp/svd/vaac/data/VAGFN/2026/Images/20260712_27307000_0012_QH21_01.png",
      "sat_img_url": null,
      "text_url": "https://ds.data.jma.go.jp/svd/vaac/data/TextData/2026/20260712_27307000_0012_Text.html"
    },
    {
      "id": "20260712_30019000_0003",
      "year": "2026",
      "volcano": "Krasheninnikov",
      "psn": "N5436 E16016",
      "issued": "20260712",
      "text": "FVFE01 RJTD 120130\nVA ADVISORY\nDTG: 20260712/0130Z\nVAAC: TOKYO\nVOLCANO: KRASHENINNIKOV 300190\nPSN: N5436 E16016\nAREA: RUSSIA\nSOURCE ELEV: 1816M AMSL\nADVISORY NR: 2026/3\nINFO SOURCE: HIMAWARI-9\nERUPTION DETAILS: VA AT 20260712/0100Z FL080 EXTD SE\nOBS VA DTG: 12/0100Z\nOBS VA CLD: SFC/FL080 N5440 E16023 - N5412 E16045 - N5402 E16033 - \nN5434 E16013 MOV SE 20KT\nFCST VA CLD +6 HR: 12/0700Z SFC/FL080 N5310 E16258 - N5251 E16229 - \nN5302 E16111 - N5436 E16016\nFCST VA CLD +12 HR: 12/1300Z SFC/FL090 N5233 E16425 - N5158 E16444 - \nN5210 E16103 - N5446 E16008 - N5251 E16216\nFCST VA CLD +18 HR: 12/1900Z SFC/FL090 N5142 E16614 - N5044 E16548 - \nN5213 E15943 - N5432 E15924 - N5448 E16118 - N5223 E16227\nRMK: NIL\nNXT ADVISORY: 20260712/0600Z=",
      "img_url": "https://ds.data.jma.go.jp/svd/vaac/data/VAGFN/2026/Images/20260712_30019000_0003_QH21_01.png",
      "sat_img_url": "https://ds.data.jma.go.jp/svd/vaac/data/Sat/2026/Images/30019000/09-ir/20260712_0100_202607120130_ir.png",
      "text_url": "https://ds.data.jma.go.jp/svd/vaac/data/TextData/2026/20260712_30019000_0003_Text.html"
    }
  ],
  "vaac_alaska": [
    {
      "text": "\n000\nFVAK21 PAWU 111230\nVAAAK1\nVA ADVISORY\n\nDTG: 20260711/1224Z\n\nVAAC: ANCHORAGE\n\nVOLCANO: SHEVELUCH 300270\n\nPSN: N5639 E16122\n\nAREA: KAMCHATKA PENINSULA\n\nSOURCE ELEV: 10771 FT AMSL\n\nADVISORY NR: 2026/193\n\nRMK: PLEASE SEE FVXX2 KNES ISSUED BY VAAC WASHINGTON WHICH DESCRIBES\nCONDITIONS NEAR THE VAAC ANCHORAGE AREA OF RESPONSIBILITY...CC\n\n\n\n",
      "issued": "2026-07-11T12:30:00+00:00",
      "volcano": "Sheveluch",
      "psn": "N5639 E16122"
    }
  ]
}