{
  "updated_utc": "2026-07-17T09:05Z",
  "metar": {
    "RJAA": "METAR RJAA 170730Z 13009KT 8000 VCSH FEW005 BKN008 BKN015 26/25 Q1004 NOSIG",
    "PANC": "METAR PANC 170753Z 36007KT 10SM -RA FEW005 FEW055 OVC065 11/09 A2993 RMK AO2 SLP135 P0000 T01060094",
    "PAFA": "METAR PAFA 170753Z 36004KT 10SM FEW070 BKN095 BKN140 15/09 A2979 RMK AO2 SLP090 T01500094 $",
    "PAED": "SPECI PAED 170706Z 34009KT 10SM FEW046 OVC065 10/08 A2990 RMK AO2A RAE06 SLP121 $",
    "KSEA": "SPECI KSEA 170714Z 18005KT 10SM SCT022 OVC038 14/12 A3003 RMK AO2 T01440117 $",
    "ZSPD": "METAR ZSPD 170730Z VRB04MPS CAVOK 37/25 Q0999 NOSIG",
    "ZSSS": "METAR ZSSS 170730Z 26004MPS 230V300 CAVOK 37/24 Q0999 NOSIG",
    "RJFR": "METAR RJFR 170800Z 25005KT 9999 VCSH FEW008 SCT035 BKN/// 30/26 Q1001",
    "VHHH": "METAR VHHH 170730Z 07006KT 9999 FEW010 SCT025 29/26 Q1005 NOSIG",
    "RCTP": "SPECI RCTP 170720Z 25020KT 9999 FEW015 SCT025 BKN200 33/26 Q1004 WS R23R NOSIG RMK A2966",
    "ZGSZ": "METAR ZGSZ 170800Z 16005MPS CAVOK 29/26 Q1004 NOSIG",
    "WSSS": "METAR WSSS 170730Z 14005KT 110V170 9999 FEW017TCU FEW018CB SCT160 27/25 Q1010 NOSIG",
    "WMKK": "METAR WMKK 170730Z VRB06KT 9999 FEW017CB SCT018 34/23 Q1008 NOSIG",
    "WIDD": "SPECI WIDD 170715Z 22005KT 200V260 9999 -RA FEW018CB SCT025 26/25 Q1010 RETS NOSIG",
    "VTBS": "METAR VTBS 170730Z 20011KT 9999 FEW020 32/23 Q1009 NOSIG",
    "VTBU": "METAR VTBU 170730Z 24008KT 210V270 9999 FEW020 30/27 Q1009 NOSIG",
    "ROAH": "METAR ROAH 170730Z 21009KT 9999 FEW007 SCT/// 30/28 Q1005",
    "VVDN": "METAR VVDN 170830Z 01009KT 9999 FEW020 SCT061 34/26 Q1004 NOSIG",
    "RCKH": "METAR RCKH 170730Z 09005KT 060V130 9999 FEW016 SCT038 BKN080 30/25 Q1007 NOSIG RMK A2975",
    "KLAX": "METAR KLAX 170753Z 10010KT 10SM FEW010 21/18 A2987 RMK AO2 SLP110 T02110178 402890206 $",
    "KONT": "METAR KONT 170753Z 28006KT 10SM CLR 22/17 A2989 RMK AO2 SLP101 T02220172 403720222 $",
    "KSFO": "METAR KSFO 170756Z 27007KT 10SM FEW007 14/11 A2990 RMK AO2 SLP123 T01390111 402060139 $",
    "KOAK": "METAR KOAK 170753Z 00000KT 10SM FEW007 FEW012 14/12 A2990 RMK AO2 SLP124 T01440117 402110139",
    "KMHR": "METAR KMHR 170715Z AUTO 18007KT 10SM CLR 17/08 A2981 RMK AO2 T01690075 $",
    "KDFW": "METAR KDFW 170753Z 15007KT 10SM OVC200 26/21 A3008 RMK AO2 SLP177 T02560211 $",
    "KIAH": "METAR KIAH 170753Z 14006KT 10SM BKN250 27/24 A3011 RMK AO2 SLP194 T02670244 $",
    "KORD": "METAR KORD 170751Z 13003KT 1 3/4SM FU VV020 24/19 A3006 RMK AO2 SLP174 T02440189 $",
    "KJFK": "METAR KJFK 170751Z 31009KT 6SM FU OVC043 24/13 A2997 RMK AO2 SLP148 FU OVC043 T02440133 $",
    "KRFD": "SPECI KRFD 170727Z 10003KT 1SM FU SCT018 BKN042 OVC090 23/16 A3009 RMK AO2 TWR VIS 1 1/2 T02330161 RVRNO $",
    "KIND": "METAR KIND 170754Z 26003KT 10SM OVC140 27/22 A3006 RMK AO2 SLP171 T02670222 $",
    "KDTW": "METAR KDTW 170753Z COR 00000KT 1 3/4SM FU OVC042 21/16 A3010 RMK AO2 TWR VIS 3 SLP188 FU OVC042 T02060161",
    "KMSP": "METAR KMSP 170753Z 18004KT 10SM CLR 26/21 A2999 RMK AO2 SLP149 T02610211",
    "CYEG": "METAR CYEG 170800Z 17004KT 20SM FEW250 16/16 A2996 RMK CI1 CI TR SLP145 DENSITY ALT 3000FT",
    "EHAM": "METAR EHAM 170725Z 34006KT 300V020 9999 FEW018 BKN021 19/15 Q1014 TEMPO BKN019",
    "EBBR": "METAR EBBR 170720Z COR 34003KT 270V050 9999 FEW020 21/16 Q1015 NOSIG",
    "EDDF": "METAR EDDF 170720Z AUTO VRB03KT 9999 -SHRA FEW///CB 22/17 Q1013 TEMPO NSW",
    "EDFH": "METAR EDFH 170720Z 30004KT CAVOK 17/16 Q1014",
    "EDDL": "METAR EDDL 170720Z AUTO 01005KT 340V040 CAVOK 23/13 Q1013 NOSIG",
    "EDDK": "METAR EDDK 170720Z AUTO 14005KT 9999 SHRA FEW///CB 19/15 Q1013 BECMG NSW",
    "EBLG": "METAR EBLG 170720Z 33004KT 270V010 CAVOK 20/15 Q1015 NOSIG",
    "LSZH": "METAR LSZH 170720Z 21005KT 160V250 CAVOK 22/16 Q1017 NOSIG",
    "LIMC": "METAR LIMC 170720Z 11004KT 060V160 CAVOK 22/19 Q1016 NOSIG",
    "LIRF": "METAR LIRF 170720Z 14011KT 120V190 9999 FEW015 30/26 Q1014 NOSIG",
    "EINN": "METAR EINN 170730Z 35008KT 9999 FEW005 BKN200 16/14 Q1020 NOSIG",
    "EGLL": "METAR EGLL 170720Z AUTO 04006KT 9999 NCD 17/12 Q1017",
    "EGSS": "METAR EGSS 170720Z AUTO 36006KT 9999 OVC008 16/13 Q1017",
    "EPWA": "METAR EPWA 170730Z 12006KT 080V150 CAVOK 26/15 Q1016 NOSIG",
    "UHPP": "METAR UHPP 170730Z 19004MPS CAVOK 21/13 Q1017 R16R/CLRD62 NOSIG RMK QFE759/1013",
    "EFHK": "METAR EFHK 170720Z 17009KT CAVOK 21/12 Q1018 NOSIG",
    "LBBG": "METAR LBBG 170730Z VRB03KT 9999 FEW036 31/17 Q1014 NOSIG",
    "LTAC": "METAR LTAC 170720Z 05009KT 010V100 CAVOK 24/11 Q1015 NOSIG RMK RWY21C 04010KT 360V070 RWY03L 05009KT 020V080 RWY21R 02011KT 360V060 RWY03R 03009KT 320V090 RWY21L 02009KT 330V070",
    "UBBB": "METAR UBBB 170730Z 34014KT CAVOK 31/17 Q1008 NOSIG",
    "UTAA": "METAR UTAA 170800Z 27006G16KT 180V330 9999 FEW050 36/20 Q1006 R88/CLRD70 NOSIG",
    "UACC": "SPECI UACC 170709Z 28007G12MPS 250V310 9999 BKN043 29/10 Q1005 NOSIG RMK QFE722/0963",
    "UAAA": "METAR UAAA 170730Z 02005MPS 350V070 9999 NSC 38/13 Q1007 NOSIG",
    "UZTT": "METAR UZTT 170730Z 29004KT 7000 NSC 41/11 Q1003 NOSIG",
    "ZWWW": "METAR ZWWW 170730Z 27003MPS 190V320 CAVOK 40/07 Q1007 NOSIG",
    "ZLXY": "METAR ZLXY 170800Z VRB02MPS CAVOK 34/19 Q1003 NOSIG",
    "ZBAA": "SPECI ZBAA 170724Z 22005MPS 180V240 CAVOK 31/19 Q1001 NOSIG",
    "ZBHH": "METAR ZBHH 170800Z 20004MPS 170V230 9999 FEW040 28/16 Q1004 NOSIG",
    "ZSQD": "METAR ZSQD 170800Z 03003MPS 360V060 5000 -RA SCT010 OVC026 24/24 Q0999 RERA BECMG TL0930 RA",
    "ZMCK": "METAR ZMCK 170730Z 30006MPS 9999 FEW030CB SCT033 22/11 Q1008 NOSIG RMK QFE641.9 47 MOP",
    "UUEE": "METAR UUEE 170730Z 34007G12MPS 310V010 9999 FEW037 16/07 Q1018 R06R/CLRD62 R06C/CLRD62 NOSIG",
    "UUDD": "METAR UUDD 170730Z 36008G15MPS 330V030 CAVOK 17/05 Q1016 R31L/CLRD65 NOSIG",
    "ULLI": "METAR ULLI 170730Z 15002MPS 070V240 CAVOK 20/09 Q1020 R28R/090065 NOSIG",
    "USSS": "METAR USSS 170730Z 27004MPS 240V320 9999 SCT040 22/16 Q0998 R26R/210060 R26L/CLRD60 NOSIG RMK QFE728/0971",
    "UNNT": "METAR UNNT 170730Z 11002MPS 080V150 9999 VCTS BKN040CB 20/19 Q0997 R25/290250 R34/CLRD// NOSIG RMK QFE738/0984",
    "UNKL": "METAR UNKL 170730Z 11002MPS 090V160 CAVOK 23/16 Q0999 R11/CLRD// NOSIG RMK QFE724",
    "UIBB": "METAR UIBB 170730Z 16003MPS 080V240 9999 SCT050CB 24/12 Q1001 R12/CLRD62 NOSIG RMK QFE708/0945",
    "UEEE": "METAR UEEE 170730Z 12002MPS 9999 BKN040 22/15 Q0992 R23/09//59 NOSIG RMK QFE735",
    "UHHH": "METAR UHHH 170730Z 21008MPS 9999 FEW040CB 29/15 Q0996 R88/090060 NOSIG RMK QFE741/0988",
    "UHSS": "METAR UHSS 170730Z 19005MPS 9999 NSC 24/21 Q1006 R19/CLRD70 NOSIG RMK QFE753/1004"
  },
  "taf": {
    "RJAA": "TAF RJAA 170505Z 1706/1812 14010KT 7000 FEW008 BKN015 TEMPO 1706/1708 3000 TSRA BR FEW002 BKN005 FEW020CB TEMPO 1708/1715 FEW002 BKN005",
    "PANC": "TAF PANC 170734Z 1708/1812 14008KT P6SM FEW008 BKN050 FM170900 34006KT P6SM FEW010 SCT050 OVC070 FM171500 36003KT P6SM -SHRA FEW030 OVC045 FM172100 20006KT 5SM -SHRA BR FEW015 BKN030 FM180300 16007KT P6SM VCSH SCT035 BKN060",
    "PAFA": "TAF PAFA 170523Z 1706/1812 20007KT P6SM FEW050 BKN100 FM171000 25004KT P6SM -SHRA SCT030 BKN050 FM171400 24007KT P6SM SCT050 FM180000 21006KT P6SM VCTS FEW050CB FM180600 00000KT P6SM SCT050",
    "PAED": "TAF PAED 170500Z 1705/1811 36009KT 9999 -SHRA FEW004 BKN040 OVC070 640703 QNH2985INS BECMG 1708/1709 02008KT 9999 VCSH BKN045 OVC070 610703 520208 QNH2980INS BECMG 1721/1722 34009KT 9999 -RA SCT010 BKN020 OVC045 640604 QNH2982INS TX15/1722Z TN09/1714Z",
    "KSEA": "TAF KSEA 170640Z 1707/1812 18007KT P6SM SCT020 BKN035 TEMPO 1707/1709 BKN020 OVC035 FM170900 20005KT P6SM SCT012 OVC020 FM171800 23007KT P6SM BKN035 FM172100 24007KT P6SM FEW050 FM180300 31006KT P6SM SCT050 BKN100 FM180600 35006KT P6SM BKN100",
    "ZSPD": "TAF AMD ZSPD 170619Z 1706/1812 22004MPS 8000 SCT030 TX38/1706Z TX34/1806Z TN28/1721Z TEMPO 1706/1710 34005MPS TSRA BKN008 FEW030CB TEMPO 1805/1809 TSRA BKN008 FEW030CB",
    "ZSSS": "TAF ZSSS 170303Z 1706/1812 23004MPS 8000 SCT030 TX38/1706Z TX35/1803Z TN28/1721Z TEMPO 1706/1710 TSRA BKN011 FEW030CB TEMPO 1804/1808 TSRA BKN015 FEW030CB",
    "RJFR": "TAF RJFR 170505Z 1706/1812 30004KT 9999 FEW010 BKN015 TEMPO 1706/1709 4000 -TSRA BR FEW020 BKN030 FEW030CB TEMPO 1717/1721 BKN005 BECMG 1721/1800 09010KT BECMG 1803/1806 06008KT",
    "VHHH": "TAF VHHH 170800Z 1709/1815 21010KT 9999 FEW010 SCT025 TX31/1806Z TN26/1722Z TEMPO 1721/1803 24015G25KT 2500 TSRA SHRA FEW008CB SCT015",
    "RCTP": "TAF RCTP 170500Z 1706/1812 23013KT 9999 FEW015 TEMPO 1706/1710 24018KT TEMPO 1716/1722 21005KT TEMPO 1803/1809 25020KT",
    "ZGSZ": "TAF ZGSZ 170302Z 1706/1812 19004MPS 8000 SCT030 BKN050 TX29/1707Z TX30/1806Z TN26/1722Z TEMPO 1706/1708 SHRA FEW020CB BKN040 TEMPO 1720/1724 SHRA FEW020CB BKN040 TEMPO 1804/1807 TSRA SCT015 FEW020CB BKN040",
    "WSSS": "TAF WSSS 170500Z 1706/1812 15008KT 9999 FEW015 SCT020",
    "WMKK": "TAF WMKK 170500Z 1706/1812 13005KT 9999 FEW017CB TEMPO 1706/1710 5000 TSRA FEW010 FEW017CB",
    "VTBS": "TAF VTBS 170500Z 1706/1812 20008KT 9999 FEW020 TEMPO 1710/1714 VRB15KT 4000 TSRA FEW018CB SCT030 BKN100",
    "VTBU": "TAF VTBU 170500Z 1706/1806 25010KT 9999 FEW020",
    "ROAH": "TAF ROAH 170505Z 1706/1812 23010KT 9999 FEW008 SCT012 TEMPO 1712/1803 FEW004 BKN006",
    "VVDN": "TAF VVDN 170500Z 1706/1806 22010KT 9999 FEW020",
    "RCKH": "TAF RCKH 170500Z 1706/1812 25008KT 9999 FEW015 BKN032 TEMPO 1706/1712 05005KT 4000 SHRA SCT008 FEW010CB BKN016 BECMG 1712/1714 08005KT TEMPO 1715/1718 6000 -SHRA FEW010 BKN018 TEMPO 1721/1803 3500 SHRA SCT008 FEW010CB BKN014 BECMG 1800/1802 26005KT TEMPO 1804/1808 06005KT 5000 SHRA SCT008 FEW012CB BKN017",
    "KLAX": "TAF KLAX 170540Z 1706/1812 13005KT P6SM SKC FM171100 18004KT P6SM OVC008 FM171400 22004KT P6SM OVC012 FM171800 24006KT P6SM SCT250 FM172000 26011KT P6SM SCT250 FM180300 25007KT P6SM BKN010 FM180600 23004KT P6SM OVC012",
    "KONT": "TAF KONT 170520Z 1706/1812 24007KT P6SM FEW200 FM170700 VRB04KT P6SM FEW200 FM172000 25012G20KT P6SM SCT150 FM180500 VRB05KT P6SM FEW200",
    "KSFO": "TAF KSFO 170859Z 1709/1812 26011KT P6SM SCT007 FM171100 26010KT P6SM BKN007 FM171600 27013KT P6SM SCT010 FM172000 28015G25KT P6SM FEW010 FM180600 26009KT P6SM BKN010",
    "KOAK": "TAF KOAK 170520Z 1706/1812 24012KT P6SM SKC FM170900 24008KT P6SM BKN010 FM171800 26010KT P6SM SCT010 FM172000 28015KT P6SM SKC FM180300 25012KT P6SM SCT010 FM180600 25010KT P6SM BKN010",
    "KMHR": "TAF KMHR 170520Z 1706/1806 19007KT P6SM SKC FM172000 22008KT P6SM SKC",
    "KDFW": "TAF KDFW 170830Z 1709/1812 16007KT P6SM SCT190 TEMPO 1712/1716 BKN020 FM171800 19010G20KT P6SM FEW250 FM180000 19007KT P6SM FEW250",
    "KIAH": "TAF KIAH 170835Z 1709/1812 16004KT P6SM FEW020 BKN250 FM171400 18007KT P6SM SCT025 SCT035 SCT250 FM171800 16009KT P6SM SCT040 SCT060 SCT250 FM180300 16004KT P6SM FEW030 SCT250",
    "KORD": "TAF KORD 170839Z 1709/1812 VRB03KT 1 1/2SM FU VV019 TEMPO 1711/1713 3/4SM FU FM171500 22006KT 3SM FU BKN100 FM171800 25009KT P6SM VCSH SCT035 TEMPO 1718/1722 VRB15G25KT 1SM -TSRA BKN030CB FM172200 25009KT P6SM VCTS SCT035CB PROB30 1722/1802 VRB15G25KT 3SM -TSRA BR BKN040CB FM180200 23010KT P6SM BKN050",
    "KJFK": "TAF KJFK 170828Z 1708/1812 32009KT 6SM FU BKN250 FM171300 34009KT P6SM SCT250 FM171600 20011KT P6SM SCT250 FM180000 19007KT 6SM FU BKN250",
    "KRFD": "TAF KRFD 170839Z 1709/1806 VRB03KT 1 1/2SM FU VV018 TEMPO 1711/1713 3/4SM FU FM171500 22006KT 3SM FU BKN100 FM171800 25009KT P6SM VCSH SCT035 TEMPO 1718/1722 VRB15G25KT 1SM -TSRA BKN030CB FM172200 25009KT P6SM VCTS SCT035CB PROB30 1722/1801 VRB15G25KT 3SM -TSRA BR BKN040CB FM180100 23010KT P6SM BKN050",
    "KIND": "TAF KIND 170520Z 1706/1812 VRB03KT P6SM FEW050 SCT100 FM171200 21003KT P6SM SCT080 FM171700 23007KT P6SM -SHRA BKN050 PROB30 1718/1724 4SM -TSRA BKN035CB FM180100 23007KT P6SM BKN120",
    "KDTW": "TAF KDTW 170520Z 1706/1812 08004KT 1SM FU OVC028 FM171600 18008KT 2SM FU SCT035 FM180000 19005KT 6SM HZ SCT060 BKN080",
    "KMSP": "TAF KMSP 170830Z 1709/1812 18004KT P6SM SKC FM171400 22004KT P6SM SKC FM171700 23010G18KT P6SM FEW050 FM180200 25007KT P6SM SKC",
    "CYEG": "TAF CYEG 170840Z 1709/1806 16005KT P6SM FEW240 PROB30 1709/1713 3/4SM BR BKN004 FM171300 12005KT P6SM SCT080 PROB30 1713/1715 3/4SM BR BKN004 FM171500 12005KT P6SM SKC FM172100 12010KT P6SM FEW040 TEMPO 1721/1802 VRB30G40KT P6SM VCTS BKN040CB FM180200 12008KT P6SM BKN080 PROB30 1802/1804 VRB30G40KT 2SM +TSRA BKN080CB FM180400 13005KT P6SM FEW020 RMK NXT FCST BY 171200Z",
    "EHAM": "TAF EHAM 170515Z 1706/1812 34005KT 9999 FEW015 BECMG 1709/1712 32014KT BECMG 1717/1720 33008KT PROB30 TEMPO 1721/1807 BKN018 BECMG 1809/1812 31014KT BKN030",
    "EBBR": "TAF EBBR 170500Z 1706/1812 33006KT 9999 FEW045",
    "EDDF": "TAF EDDF 170500Z 1706/1812 24005KT CAVOK PROB30 TEMPO 1706/1709 TSRA BKN050CB PROB40 TEMPO 1712/1718 26015G30KT TSRA BKN050CB PROB30 TEMPO 1715/1717 26020G40KT 3000 TSRAGR",
    "EDFH": "TAF EDFH 170500Z 1706/1806 25006KT CAVOK PROB30 TEMPO 1706/1710 TSRA BKN050CB PROB40 TEMPO 1713/1716 26015G30KT TSRA BKN050CB",
    "EDDL": "TAF EDDL 170500Z 1706/1812 33004KT CAVOK BECMG 1710/1713 30011KT BECMG 1719/1722 29004KT PROB30 TEMPO 1804/1807 BKN014 BECMG 1806/1809 27010KT",
    "EDDK": "TAF EDDK 170500Z 1706/1812 VRB03KT CAVOK PROB30 TEMPO 1706/1710 SHRA BKN030CB BECMG 1708/1711 30010KT BECMG 1720/1723 31005KT PROB30 TEMPO 1804/1807 BKN014 BECMG 1807/1810 30010KT",
    "EBLG": "TAF EBLG 170500Z 1706/1812 33006KT 9999 FEW045",
    "LSZH": "TAF LSZH 170825Z 1709/1815 25005KT CAVOK TX27/1714Z TN16/1804Z TX25/1814Z BECMG 1710/1712 9999 FEW060 TEMPO 1710/1719 FEW050TCU BECMG 1711/1713 29012KT PROB40 TEMPO 1716/1718 29017G30KT 4000 TSRA FEW050CB BECMG 1717/1719 17005KT PROB30 TEMPO 1718/1720 SHRA BECMG 1722/1724 CAVOK PROB40 1803/1805 9999 MIFG NSC BECMG 1809/1812 26010KT 9999 FEW060 PROB30 TEMPO 1812/1815 30015G25KT TSRA FEW060CB",
    "LIMC": "TAF LIMC 170500Z 1706/1812 01010KT 9999 FEW040 BECMG 1709/1711 VRB05KT",
    "LIRF": "TAF LIRF 170500Z 1706/1812 VRB05KT CAVOK BECMG 1706/1708 18012KT BECMG 1717/1719 VRB05KT PROB40 TEMPO 1802/1806 1200 BCFG BECMG 1809/1811 28010KT",
    "EINN": "TAF EINN 170500Z 1706/1806 36008KT CAVOK BECMG 1710/1712 32010KT BECMG 1720/1722 35012KT",
    "EGLL": "TAF EGLL 170451Z 1706/1812 03005KT CAVOK PROB30 TEMPO 1706/1708 BKN006 BECMG 1711/1714 33010KT BECMG 1719/1722 08010KT BECMG 1723/1802 02007KT",
    "EGSS": "TAF AMD EGSS 170807Z 1708/1812 01006KT 9999 OVC009 BECMG 1708/1711 FEW045 PROB30 TEMPO 1803/1807 7000 BKN011",
    "EPWA": "TAF EPWA 170830Z 1709/1809 14008KT CAVOK TEMPO 1723/1804 4000 SHRA SCT050CB PROB30 TEMPO 1723/1804 2500 TSRA BKN040CB BECMG 1804/1807 24010KT PROB40 TEMPO 1804/1809 -SHRA BKN012 BKN025CB",
    "UHPP": "TAF UHPP 170744Z 1709/1815 30003G10MPS 9999 SCT050 TEMPO 1709/1712 18005MPS TEMPO 1712/1721 36005MPS 1000 BR VV002 TEMPO 1800/1809 19005G12MPS",
    "EFHK": "TAF EFHK 170826Z 1709/1809 17008KT CAVOK TEMPO 1805/1809 FEW040CB",
    "LBBG": "TAF LBBG 170500Z 1706/1806 VRB04KT 9999 SCT045 BECMG 1708/1710 12014KT PROB40 TEMPO 1711/1715 5000 TSRA FEW030CB BKN040 BECMG 1718/1720 VRB04KT",
    "LTAC": "TAF LTAC 170440Z 1706/1806 03011KT CAVOK BECMG 1706/1708 SCT040 TEMPO 1715/1719 02015G25KT BECMG 1716/1718 CAVOK",
    "UBBB": "TAF UBBB 170502Z 1706/1806 34014KT CAVOK TX31/1710Z TN23/1801Z TEMPO 1709/1715 01016KT SCT020 FEW050CB TEMPO 1715/1802 35006KT",
    "UTAA": "TAF UTAA 170445Z 1706/1806 35016KT 6000 SCT050 TX40/1711Z TEMPO 1706/1712 30016G26KT 3000 BLDU BECMG 1716/1718 26014KT TEMPO 1720/1804 32014KT",
    "UACC": "TAF UACC 170501Z 1706/1806 27006MPS 9999 SCT040 BKN100 TX32/1709Z TN16/1723Z TEMPO 1706/1715 28012MPS SCT030CB BECMG 1715/1717 VRB01MPS TEMPO 1717/1804 21005MPS",
    "UAAA": "TAF UAAA 170501Z 1706/1806 01003MPS 9999 FEW100 TX41/1710Z TN22/1800Z TEMPO 1706/1714 06005G10MPS BECMG 1714/1715 19005MPS BECMG 1803/1804 01005MPS",
    "UZTT": "TAF UZTT 170500Z 1706/1806 22010KT CAVOK TX43/1711Z TN27/1700Z TEMPO 1706/1718 30015KT",
    "ZWWW": "TAF ZWWW 170302Z 1706/1812 36004G09MPS CAVOK TX39/1709Z TX40/1806Z TN28/1723Z BECMG 1713/1714 18004MPS BECMG 1802/1803 36004MPS",
    "ZLXY": "TAF ZLXY 170303Z 1706/1806 15003MPS 6000 NSC TX33/1708Z TN24/1721Z BECMG 1722/1723 28005MPS",
    "ZBAA": "TAF ZBAA 170301Z 1706/1812 20004MPS CAVOK TX35/1707Z TX36/1807Z TN23/1721Z",
    "ZBHH": "TAF ZBHH 170303Z 1706/1806 24004MPS 9999 SCT040 TX29/1708Z TN16/1722Z BECMG 1709/1710 -TSRA SCT040 FEW040CB TEMPO 1710/1713 TSRA BECMG 1713/1714 NSW NSC",
    "ZSQD": "TAF AMD ZSQD 170656Z 1706/1806 05004MPS 3500 -SHRA BR BKN020 TX30/1806Z TN22/1720Z TEMPO 1707/1710 2500 +TSRA BKN020 FEW030CB TEMPO 1710/1712 SHRA",
    "ZMCK": "TAF COR ZMCK 170442Z 1706/1812 30005MPS 9999 FEW030CB SCT033 TX25/1707Z TN11/1721Z PROB30 TEMPO 1707/1714 VRB08MPS TSRA SCT027CB SCT030 BECMG 1710/1712 VRB02MPS PROB40 TEMPO 1805/1812 VRB08G13MPS TSRA SCT027CB SCT030",
    "UUEE": "TAF UUEE 170750Z 1709/1809 35007MPS 9999 SCT030 TX22/1809Z TN12/1801Z TEMPO 1709/1717 33010G16MPS BECMG 1718/1720 35002MPS",
    "UUDD": "TAF UUDD 170753Z 1709/1815 36008MPS 9999 SCT040 TX26/1812Z TN10/1801Z TEMPO 1709/1715 36010G16MPS BECMG 1715/1717 36003MPS",
    "ULLI": "TAF ULLI 170752Z 1709/1809 18003MPS CAVOK",
    "USSS": "TAF USSS 170756Z 1709/1809 29003G14MPS 9999 BKN020CB TEMPO 1709/1717 -TSRAGR FM171700 33003MPS 6000 SCT016CB TEMPO 1717/1804 0300 -TSRA FG FM180400 08003G14MPS 8000 -SHRA BKN016CB TEMPO 1804/1809 -TSRA",
    "UNNT": "TAF UNNT 170800Z 1709/1809 24003G08MPS 9999 BKN040 TX21/1709Z TN15/1722Z TEMPO 1709/1712 28010G20MPS 1500 TSRAGR BKN005 BKN020CB TEMPO 1712/1809 -TSRA BKN020CB BECMG 1806/1807 30005G10MPS",
    "UNKL": "TAF UNKL 170749Z 1709/1809 12003G08MPS 6000 -SHRA SCT016CB TEMPO 1709/1714 17006G14MPS -TSGRRA BECMG 1714/1716 22005MPS -TSRA BECMG 1717/1720 27003G08MPS NSW TEMPO 1720/1723 1400 SHRA BKN005 BKN016CB BECMG 1805/1808 -TSRA",
    "UIBB": "TAF UIBB 170800Z 1709/1809 17005G10MPS 9999 BKN017CB TEMPO 1709/1718 VRB10MPS -TSRA BECMG 1718/1719 25003G08MPS BKN004 BKN017CB TEMPO 1719/1803 0300 FG VV001 BECMG 1803/1804 BKN017CB",
    "UEEE": "TAF UEEE 170800Z 1709/1815 12003G10MPS 9999 SCT030CB BKN100 TEMPO 1709/1715 5000 -SHRA",
    "UHHH": "TAF UHHH 170747Z 1709/1815 21008G15MPS 9999 -TSRA SCT020CB TX29/1806Z TN20/1717Z TEMPO 1709/1710 0500 +TSRA FEW006 BKN016CB BECMG 1710/1713 20003MPS NSW",
    "UHSS": "TAF UHSS 170745Z 1709/1815 18003MPS 9999 BKN025CB"
  },
  "atis": {},
  "windtemp_alaska": "\n000\nFBAK31 KWNO 170802\nFD1AK1\nDATA BASED ON 170600Z    \nVALID 171200Z   FOR USE 0800-1500Z. TEMPS NEG ABV 24000\n\nFT  3000    6000    9000   12000   18000   24000  30000  34000  39000\nADK 2641 2741+07 2838+04 2836-01 2939-13 2943-22 293838 283647 283857\nADQ 2819 2814+00 2416-04 2422-08 2332-22 2240-35 215043 224542 223742\nAKN 2515 2712-02 2813-07 2717-13 2721-23 2722-35 272745 262542 242240\nANC 1312 1622+01 2021-05 1819-11 1947-20 1954-34 207545 206145 204042\nANN 3409 9900+13 9900+08 2505+02 2310-12 2505-24 990039 990049 350559\nBET 2711 2610-03 9900-08 3007-13 2914-24 2813-35 292346 291842 281240\nBRW 0313 0212+03 0109-01 0309-07 0810-20 1218-31 133247 132753 141344\nBTI 9900 9900+02 0705-02 0705-06 9900-18 3611-30 011246 020949 160844\nBTT 1405 1509+03 1213-03 1023-08 1225-19 1427-28 142546 143052 162446\nCDB 2712 2814-02 2818-03 2623-09 2634-18 2942-29 308243 810051 284448\nCZF 9900 0909-02 0910-08 0906-12 9900-24 3007-35 291646 301242 321140\nEHM 2715 2813-03 2815-07 2918-11 2822-22 2827-33 284047 283344 282241\nFAI 2115 1709+02 1713-04 1918-08 1835-18 1742-31 164647 174450 193343\nFYU 1305 2108+03 1909-03 1613-07 1613-17 2218-27 212245 202852 202749\nGAL 0507 0608+00 0712-05 0915-10 1026-23 1130-33 104548 113046 131140\nGKN 1625 1826+00 2024-03 2030-06 1948-17 2055-29 218744 218651 204647\nHOM 1710 1910+00 1813-05 2018-09 2036-22 2048-34 206245 205142 213541\nJNU 9900 2105+08 2411+06 2511+01 2514-13 2720-24 262540 262749 252658\nLUR 0821 0818+02 0818-03 0915-08 1120-22 1226-34 162249 141347 081041\nMCG 2413 2414-01 2411-06 2407-12 1306-25 9900-35 131345 151640 171140\nMDO 1618 1818+04 1926-01 1929-05 2043-17 2169-27 208143 218552 226150\nOME 0409 9900-01 9900-07 0707-13 0713-24 1017-33 112449 101546 060840\nORT      1905+05 1717-01 2023-04 2139-15 2242-27 226644 217453 215352\nOTZ 0305 0708+01 0911-04 1013-09 1123-22 1124-32 132948 122649 110942\nSNP 1943 1927-02 2024-03 2322-06 2534-17 2551-29 268042 277547 294244\nTKA 1708 1918-01 1815-05 1922-11 1844-22 1859-33 195546 194643 193241\nUNK 9900 9900-01 9900-06 0610-12 1010-23 0611-33 093650 111544 100740\nYAK 9900 2509+05 2416+03 2318-02 2124-13 2332-25 233641 234250 244058\nIKO 2327 2440-01 2748-01 2849-02 2847-13 2840-24 295439 297049 297156\nAFM 0305 0910+02 1016-03 1024-08 1025-21 1224-31 133247 132950 131343\n5AB 2941 2935+10 2930+07 3029+01 3232-11 3235-22 334435 345145 358955\n5AC 3419 3312+10 3409+07 3510+02 3311-12 3412-24 351339 361649 011559\n5AD 2522 2527+08 2431+04 2438-01 2542-13 2443-24 234340 234349 234458\n5AE 2814 2820-03 2725-03 2629-08 2632-20 2735-32 273445 253845 253744\n5AF 3008 2712+09 2613+05 2515+01 2516-12 2514-24 241839 241949 251759\n5AG 2116 2319+07 2219+02 2121-02 2227-13 2134-25 214141 224950 234758\n",
  "vaac_active": [
    {
      "volcano": "MAYON",
      "volcano_jp": "マヨン",
      "advisory_nr": "2026/758",
      "obs_time": "2026-07-17 05:26Z",
      "issued_time": "2026-07-17 05:57Z",
      "text_url": "https://www.data.jma.go.jp/vaac/data/TextData/2026/20260717_27303000_0758_Text.html",
      "lat": 13.25,
      "lon": 123.683,
      "text": "FVFE01 RJTD 170557\nVA ADVISORY\nDTG: 20260717/0557Z\nVAAC: TOKYO\nVOLCANO: MAYON 273030\nPSN: N1315 E12341\nAREA: PHILIPPINES\nSOURCE ELEV: 2462M AMSL\nADVISORY NR: 2026/758\nINFO SOURCE: HIMAWARI-9 PHIVOLCS\nERUPTION DETAILS: ERUPTION AT 20260717/0526Z VA CLD UNKNOWN REPORTED\nOBS VA DTG: 17/0540Z\nOBS VA CLD: VA NOT IDENTIFIABLE FM SATELLITE DATA WIND FL180 060/2KT\nFCST VA CLD +6 HR: NOT AVBL\nFCST VA CLD +12 HR: NOT AVBL\nFCST VA CLD +18 HR: NOT AVBL\nRMK: WE WILL ISSUE FURTHER ADVISORY IF VA IS DETECTED IN SATELLITE \nIMAGERY.\nNXT ADVISORY: NO FURTHER ADVISORIES="
    }
  ],
  "vaac_tokyo": [
    {
      "id": "20260716_27303000_0756",
      "year": "2026",
      "volcano": "Mayon",
      "psn": "N1315 E12341",
      "issued": "20260716",
      "text": "FVFE01 RJTD 162010\nVA ADVISORY\nDTG: 20260716/2010Z\nVAAC: TOKYO\nVOLCANO: MAYON 273030\nPSN: N1315 E12341\nAREA: PHILIPPINES\nSOURCE ELEV: 2462M AMSL\nADVISORY NR: 2026/756\nINFO SOURCE: HIMAWARI-9\nERUPTION DETAILS: ERUPTION AT 20260716/1623Z FL130 EXTD SSE REPORTED\nOBS VA DTG: 16/1950Z\nOBS VA CLD: VA NOT IDENTIFIABLE FM SATELLITE DATA WIND FL130 360/5KT\nFCST VA CLD +6 HR: NOT AVBL\nFCST VA CLD +12 HR: NOT AVBL\nFCST VA CLD +18 HR: NOT AVBL\nRMK: WE WILL ISSUE FURTHER ADVISORY IF VA IS DETECTED IN SATELLITE \nIMAGERY.\nNXT ADVISORY: NO FURTHER ADVISORIES=",
      "img_url": "https://ds.data.jma.go.jp/svd/vaac/data/VAGFN/2026/Images/20260716_27303000_0756_QH21_01.png",
      "sat_img_url": null,
      "text_url": "https://ds.data.jma.go.jp/svd/vaac/data/TextData/2026/20260716_27303000_0756_Text.html"
    },
    {
      "id": "20260716_30027000_0266",
      "year": "2026",
      "volcano": "Sheveluch",
      "psn": "N5639 E16122",
      "issued": "20260716",
      "text": "FVFE01 RJTD 161200\nVA ADVISORY\nDTG: 20260716/1200Z\nVAAC: TOKYO\nVOLCANO: SHEVELUCH 300270\nPSN: N5639 E16122\nAREA: RUSSIA\nSOURCE ELEV: 3283M AMSL\nADVISORY NR: 2026/266\nINFO SOURCE: HIMAWARI-9\nERUPTION DETAILS: VA CONTINUOUSLY OBS IN SATELLITE IMAGERY\nOBS VA DTG: 16/1120Z\nOBS VA CLD: SFC/FL230 N5556 E16558 - N5544 E16655 - N5425 E16745 - \nN5359 E17000 - N5312 E16918 - N5403 E16711 MOV SE 35KT\nFCST VA CLD +6 HR: 16/1720Z SFC/FL240 N5329 E17049 - N5230 E17321 - \nN5147 E17227 - N5314 E16939 - N5525 E16945 - N5436 E17056\nFCST VA CLD +12 HR: 16/2320Z SFC/FL250 N5118 E17628 - N5008 E17537 - \nN5210 E17232 - N5303 E17348 - N5459 E17402\nFCST VA CLD +18 HR: NO VA EXP\nRMK: THE RESPONSIBILITY FOR THIS ASH EVENT IS BEING TRANSFERRED TO \nVAAC ANCHORAGE. THE NEXT ADVISORY WILL BE ISSUED BY VAAC ANCHORAGE \nBY 1800UTC UNDER HEADER FVAK21 PAWU. WESTERN PART OF VA OBSCURED BY \nMET CLOUD.\nNXT ADVISORY: NO FURTHER ADVISORIES=",
      "img_url": "https://ds.data.jma.go.jp/svd/vaac/data/VAGFN/2026/Images/20260716_30027000_0266_QH21_01.png",
      "sat_img_url": "https://ds.data.jma.go.jp/svd/vaac/data/Sat/2026/Images/30027000/09-ir/20260716_1120_202607161200_ir.png",
      "text_url": "https://ds.data.jma.go.jp/svd/vaac/data/TextData/2026/20260716_30027000_0266_Text.html"
    },
    {
      "id": "20260715_27307000_0013",
      "year": "2026",
      "volcano": "Taal",
      "psn": "N1400 E12100",
      "issued": "20260715",
      "text": "FVFE01 RJTD 152348\nVA ADVISORY\nDTG: 20260715/2348Z\nVAAC: TOKYO\nVOLCANO: TAAL 273070\nPSN: N1400 E12100\nAREA: PHILIPPINES\nSOURCE ELEV: 311M AMSL\nADVISORY NR: 2026/13\nINFO SOURCE: HIMAWARI-9 PHIVOLCS\nERUPTION DETAILS: ERUPTION AT 20260715/2330Z FL030 EXTD ENE REPORTED\nOBS VA DTG: 15/2340Z\nOBS VA CLD: VA NOT IDENTIFIABLE FM SATELLITE DATA WIND FL030 170/2KT\nFCST VA CLD +6 HR: NOT AVBL\nFCST VA CLD +12 HR: NOT AVBL\nFCST VA CLD +18 HR: NOT AVBL\nRMK: WE WILL ISSUE FURTHER ADVISORY IF VA IS DETECTED IN SATELLITE \nIMAGERY.\nNXT ADVISORY: NO FURTHER ADVISORIES=",
      "img_url": "https://ds.data.jma.go.jp/svd/vaac/data/VAGFN/2026/Images/20260715_27307000_0013_QH21_01.png",
      "sat_img_url": null,
      "text_url": "https://ds.data.jma.go.jp/svd/vaac/data/TextData/2026/20260715_27307000_0013_Text.html"
    },
    {
      "id": "20260713_28208001_0083",
      "year": "2026",
      "volcano": null,
      "psn": "N3136 E13039",
      "issued": "20260713",
      "text": "FVFE01 RJTD 130254\nVA ADVISORY\nDTG: 20260713/0254Z\nVAAC: TOKYO\nVOLCANO: SAKURAJIMA (AIRA CALDERA) 282080\nPSN: N3136 E13039\nAREA: JAPAN\nSOURCE ELEV: 1117M AMSL\nADVISORY NR: 2026/83\nINFO SOURCE: JMA HIMAWARI-9\nERUPTION DETAILS: ERUPTED AT 20260713/0152Z FL100 EXTD N\nOBS VA DTG: 13/0230Z\nOBS VA CLD: SFC/FL100 N3136 E13039 - N3142 E13040 - N3141 E13044 - \nN3134 E13042 MOV NE 15KT\nFCST VA CLD +6 HR: 13/0830Z SFC/FL100 N3234 E13121 - N3145 E13155 - \nN3202 E13110 - N3227 E13051\nFCST VA CLD +12 HR: 13/1430Z SFC/FL100 N3318 E13206 - N3142 E13317 - \nN3134 E13226 - N3312 E13118\nFCST VA CLD +18 HR: NO VA EXP\nRMK: NIL\nNXT ADVISORY: 20260713/0600Z=",
      "img_url": "https://ds.data.jma.go.jp/svd/vaac/data/VAGFN/2026/Images/20260713_28208001_0083_QH21_01.png",
      "sat_img_url": "https://ds.data.jma.go.jp/svd/vaac/data/Sat/2026/Images/28208001/09-ir/20260713_0230_202607130254_ir.png",
      "text_url": "https://ds.data.jma.go.jp/svd/vaac/data/TextData/2026/20260713_28208001_0083_Text.html"
    }
  ],
  "vaac_alaska": [
    {
      "text": "\n000\nFVAK21 PAWU 162126\nVAAAK1\nVA ADVISORY\n\nDTG: 20260716/2122Z\n\nVAAC: ANCHORAGE\n\nVOLCANO: SHEVELUCH 300270\n\nPSN: N5639 E16122\n\nAREA: KAMCHATKA PENINSULA\n\nSOURCE ELEV: 10771 FT AMSL\n\nADVISORY NR: 2026/204\n\nINFO SOURCE: HIMAWARI\n\nERUPTION DETAILS: VA NOT IDENTIFIABLE FM SATELLITE DATA.\n\nOBS VA DTG: 16/2122Z\n\nOBS VA CLD: VA NOT IDENTIFIABLE FM SATELLITE DATA WIND FL100 280/20KT\n\nFCST VA CLD +6HR: NOT AVBL\n\nFCST VA CLD +12HR: NOT AVBL\n\nFCST VA CLD +18HR: NOT AVBL\n\nRMK: A NEW ADVISORY WILL BE ISSUED IF VA IS DETECTED IN SATELLITE IMAGERY....DK\n\nNXT ADVISORY: NO FURTHER ADVISORIES=\n\n",
      "issued": "2026-07-16T21:26:00+00:00",
      "volcano": "Sheveluch",
      "psn": "N5639 E16122"
    }
  ]
}