{
  "updated_utc": "2026-07-07T12:31Z",
  "metar": {
    "RJAA": "METAR RJAA 071100Z 07006KT 9999 FEW030 BKN060 22/19 Q1014 BECMG 05006KT",
    "PANC": "METAR PANC 071053Z 16004KT 10SM SCT095 SCT220 11/08 A2972 RMK AO2 SLP066 T01110083",
    "PAFA": "METAR PAFA 071053Z 35006KT 10SM FEW120 SCT150 BKN200 17/09 A2972 RMK AO2 SLP066 T01670094",
    "PAED": "METAR PAED 071155Z 00000KT 10SM FEW085 SCT130 12/08 A2970 RMK AO2A SLP053 T01180079 10161 20115 57006 $",
    "KSEA": "METAR KSEA 071053Z 22003KT 10SM FEW250 13/11 A3001 RMK AO2 SLP166 T01280111 $",
    "ZSPD": "METAR ZSPD 071100Z 18006MPS CAVOK 31/26 Q1001 NOSIG",
    "ZSSS": "METAR ZSSS 071100Z 20004MPS CAVOK 33/26 Q1001 NOSIG",
    "RJFR": "METAR RJFR 071100Z 02007KT 9999 FEW010 SCT050 BKN/// 26/25 Q1009",
    "VHHH": "SPECI VHHH 071046Z 09008KT 9999 1600S +SHRA FEW010 SCT025 29/25 Q1005 TEMPO 20020G30KT 1500 TSRA +SHRA FEW008CB SCT020",
    "RCTP": "METAR RCTP 071100Z 24010KT 9999 FEW020 30/23 Q1007 NOSIG RMK A2976",
    "ZGSZ": "METAR ZGSZ 071100Z 01002MPS 9999 FEW015 BKN040 26/25 Q1006 BECMG AT1150 SHRA FEW020CB BKN040",
    "WSSS": "METAR WSSS 071100Z 11010KT 9999 FEW016 FEW018TCU SCT060 29/24 Q1010 NOSIG",
    "WMKK": "METAR WMKK 071100Z VRB02KT 9000 FEW030 30/26 Q1009 NOSIG",
    "WIDD": "METAR WIDD 071100Z 17004KT 140V220 9999 FEW014 29/25 Q1010 NOSIG",
    "VTBS": "METAR VTBS 071100Z 22007KT 9999 FEW020 30/25 Q1007 NOSIG",
    "VTBU": "METAR VTBU 071100Z 20007KT 170V230 9999 FEW020 SCT100 30/28 Q1008 NOSIG",
    "ROAH": "METAR ROAH 071100Z 11009KT 9999 FEW020 29/25 Q1009",
    "VVDN": "METAR VVDN 071100Z 21009KT 9999 FEW017 SCT070 29/23 Q1004 NOSIG",
    "RCKH": "METAR RCKH 071100Z 24005KT 210V280 9999 FEW018 30/24 Q1008 NOSIG RMK A2977",
    "KLAX": "METAR KLAX 071053Z VRB03KT 10SM FEW011 17/15 A2992 RMK AO2 SLP130 T01720150 $",
    "KONT": "METAR KONT 071053Z 00000KT 10SM CLR 19/13 A2992 RMK AO2 SLP116 T01890128 $",
    "KSFO": "METAR KSFO 071056Z 28007KT 10SM FEW004 OVC007 13/12 A3001 RMK AO2 SLP162 T01330117 $",
    "KOAK": "METAR KOAK 071053Z 26011KT 10SM FEW001 BKN007 OVC012 13/12 A3001 RMK AO2 SLP162 T01330117",
    "KMHR": "METAR KMHR 071035Z AUTO 14007KT 10SM CLR 11/10 A2993 RMK AO2 T01110103 $",
    "KDFW": "METAR KDFW 071053Z 16005KT 10SM FEW080 FEW250 27/20 A3001 RMK AO2 SLP150 T02670200",
    "KIAH": "METAR KIAH 071053Z 00000KT 10SM SCT250 26/24 A3003 RMK AO2 SLP168 T02610244",
    "KORD": "METAR KORD 071051Z 00000KT 10SM FEW035 FEW250 FEW300 19/14 A3009 RMK AO2 SLP187 T01890144 $",
    "KJFK": "METAR KJFK 071051Z 02011KT 10SM -DZ OVC006 18/17 A3002 RMK DZB12 SLP167 P0000 T01780167 $",
    "KRFD": "METAR KRFD 071054Z 00000KT 10SM FEW250 16/15 A3014 RMK AO2 SLP203 T01610150",
    "KIND": "METAR KIND 071054Z 03004KT 9SM BKN250 22/20 A3006 RMK AO2 SLP171 T02170200",
    "KDTW": "METAR KDTW 071053Z 00000KT 9SM FEW065 SCT250 19/13 A3006 RMK AO2 SLP175 T01940128 $",
    "KMSP": "METAR KMSP 071053Z 32003KT 10SM FEW070 SCT250 19/18 A3007 RMK AO2 SLP178 T01890178 $",
    "CYEG": "METAR CYEG 071100Z 14007KT 20SM FEW100 FEW250 11/10 A3005 RMK AC1CI1 AC TR CI TR SLP183",
    "EHAM": "METAR EHAM 071055Z 29015KT 250V340 9999 FEW030 23/15 Q1013 NOSIG",
    "EBBR": "METAR EBBR 071050Z 27009KT 240V300 CAVOK 26/14 Q1015 NOSIG",
    "EDDF": "METAR EDDF 071050Z AUTO 23013KT 210V270 CAVOK 28/09 Q1014 BECMG 26015G25KT",
    "EDFH": "METAR EDFH 071050Z COR 27015KT 240V300 CAVOK 26/08 Q1016",
    "EDDL": "METAR EDDL 071050Z AUTO 27014KT 230V290 CAVOK 27/12 Q1013 TEMPO 28015G25KT",
    "EDDK": "METAR EDDK 071050Z AUTO 29017KT 250V320 CAVOK 28/10 Q1013 TEMPO 30020G30KT",
    "EBLG": "METAR EBLG 071050Z 26015KT CAVOK 27/10 Q1015 NOSIG",
    "LSZH": "METAR LSZH 071050Z 22008KT 170V250 CAVOK 30/10 Q1020 NOSIG",
    "LIMC": "METAR LIMC 071050Z 14005KT 070V200 CAVOK 32/14 Q1018 NOSIG",
    "LIRF": "METAR LIRF 071050Z 23010KT CAVOK 30/21 Q1017 NOSIG",
    "EINN": "METAR EINN 071100Z 25006KT 190V290 9999 FEW009 BKN012 17/14 Q1020 BECMG SCT009",
    "EGLL": "METAR EGLL 071050Z AUTO 27013KT 9999 NCD 27/12 Q1016",
    "EGSS": "METAR EGSS 071050Z AUTO 28009KT 230V320 9999 NCD 27/13 Q1016",
    "EPWA": "METAR EPWA 071100Z 24010KT 200V270 9999 -SHRA SCT016 BKN025CB 19/15 Q1006 NOSIG",
    "UHPP": "METAR UHPP 071100Z 15002MPS 0150 0100SE R16/0750N FG VV001 08/08 Q1015 R16R/CLRD62 NOSIG RMK QBB050 QFE758/1011",
    "EFHK": "METAR EFHK 071050Z 27007KT 9999 -SHRA BKN010 FEW030CB 13/12 Q0995 TEMPO BKN015 FEW030CB",
    "LBBG": "METAR LBBG 071100Z 12012KT 9999 SCT039 28/16 Q1015 NOSIG",
    "LTAC": "METAR LTAC 071050Z VRB05KT 9999 SCT040 26/08 Q1015 NOSIG RMK RWY21C VRB07KT RWY03L VRB06KT RWY21R 06006KT 330V110 RWY03R 04009KT 010V070 RWY21L VRB08KT",
    "UBBB": "METAR UBBB 071100Z 33022KT CAVOK 27/19 Q1011 NOSIG",
    "UTAA": "METAR UTAA 071100Z 30010KT 280V360 9999 NSC 40/09 Q1007 R88/CLRD70 NOSIG",
    "UACC": "METAR UACC 071100Z 07004MPS 020V100 9999 FEW033CB BKN036 30/12 Q1011 NOSIG RMK QFE727/0969",
    "UAAA": "METAR UAAA 071130Z 15002MPS 120V190 9999 SCT050CB BKN200 33/10 Q1006 NOSIG",
    "UZTT": "METAR UZTT 071100Z 28006KT 230V330 CAVOK 36/08 Q1005 NOSIG",
    "ZWWW": "METAR ZWWW 071100Z 31003MPS CAVOK 32/12 Q1005 NOSIG",
    "ZLXY": "METAR ZLXY 071100Z 14002MPS 100V190 9999 FEW050 35/22 Q0998 NOSIG",
    "ZBAA": "METAR ZBAA 071100Z 01003MPS CAVOK 23/22 Q1000 BECMG AT1140 TS",
    "ZBHH": "METAR ZBHH 071100Z 35005MPS 320V020 9999 SCT040 28/10 Q1003 BECMG TL1230 06004MPS",
    "ZSQD": "METAR ZSQD 071100Z 01002MPS 330V040 9999 -RA SCT011 SCT020 22/22 Q0999 NOSIG",
    "ZMCK": "SPECI ZMCK 071040Z 26014MPS 9999 FEW030CB SCT033 25/12 Q1004 NOSIG RMK QFE639.4 44 MOP",
    "UUEE": "METAR UUEE 071100Z 22008MPS 9999 SCT041 20/09 Q1005 R24L/220157 R24C/220157 NOSIG",
    "UUDD": "SPECI UUDD 071050Z 25006G11MPS 210V290 9999 SCT033 20/10 Q1006 R13R/CLRD65 NOSIG",
    "ULLI": "METAR ULLI 071100Z 21006MPS 180V240 9999 BKN030CB OVC043 16/09 Q0997 R88/290050 NOSIG",
    "USSS": "METAR USSS 071100Z 32002MPS 280V360 9999 FEW050CB 24/22 Q1013 R26L/290545 R26R/290837 NOSIG RMK QFE739/0986",
    "UNNT": "METAR UNNT 071100Z 03004MPS 9999 FEW041 29/16 Q1010 R25/CLRD// R34/////// NOSIG RMK QFE747/0997",
    "UNKL": "METAR UNKL 071100Z 31005MPS CAVOK 26/13 Q1008 R29/CLRD// NOSIG RMK QFE731",
    "UIBB": "SPECI UIBB 071036Z 29004G11MPS 250V310 9999 TS BKN004CB 20/18 Q1003 R30/290151 NOSIG RMK QBB140 MT OBSC QFE710/0947",
    "UEEE": "METAR UEEE 071100Z 16002MPS CAVOK 29/14 Q1001 R23/09//64 NOSIG RMK QFE742",
    "UHHH": "METAR UHHH 071100Z 06002MPS 040V100 CAVOK 22/21 Q1011 R88/090060 NOSIG RMK QFE752/1003",
    "UHSS": "SPECI UHSS 071047Z 20003MPS 7000 BKN005 16/15 Q1015 R19/CLRD70 NOSIG RMK MT OBSC QFE760/1013"
  },
  "taf": {
    "RJAA": "TAF RJAA 071105Z 0712/0818 03004KT 9999 FEW030 BECMG 0722/0800 13010KT",
    "PANC": "TAF PANC 071126Z 0712/0818 18005KT P6SM FEW040 BKN120 FM072000 18005KT P6SM FEW040 BKN120 FM072300 15016G26KT P6SM FEW050 BKN090 FM080400 15018G30KT P6SM -SHRA SCT050 BKN070 FM081400 16010G18KT P6SM -SHRA BKN050",
    "PAFA": "TAF PAFA 071120Z 0712/0818 01006KT P6SM SCT080 BKN150 FM072100 10008KT P6SM VCSH SCT080 SCT150 PROB30 0723/0805 VRB10G20KT -TSRA OVC060CB FM080500 10008KT P6SM BKN080 BKN150",
    "PAED": "TAF PAED 070500Z 0705/0811 23008KT 9999 FEW060 SCT100 BKN200 QNH2966INS BECMG 0800/0801 15010G20KT 9999 VCSH SCT045 BKN060 BKN120 QNH2970INS BECMG 0806/0807 11012KT 9999 -SHRA SCT040 OVC055 620802 QNH2974INS TX21/0801Z TN11/0712Z",
    "KSEA": "TAF KSEA 071140Z 0712/0818 21005KT P6SM SCT025 SCT250 FM072300 28007KT P6SM SCT250 FM080100 34006KT P6SM SCT250 FM080400 05005KT P6SM BKN060 FM080900 17005KT P6SM OVC050 FM081100 19005KT P6SM SCT015 OVC027",
    "ZSPD": "TAF ZSPD 070902Z 0712/0818 18004MPS 8000 SCT020 TX31/0712Z TX34/0806Z TN27/0721Z",
    "ZSSS": "TAF ZSSS 070902Z 0712/0818 18004MPS 8000 SCT030 TX33/0712Z TX36/0806Z TN27/0721Z",
    "RJFR": "TAF RJFR 071105Z 0712/0818 07008KT 9999 FEW015 BKN040 BECMG 0812/0815 10012KT",
    "VHHH": "TAF VHHH 071100Z 0712/0818 19015KT 9999 FEW010 SCT025 TX31/0806Z TN27/0722Z TEMPO 0712/0714 20025G35KT 1500 TSRA +SHRA FEW008CB SCT020 TEMPO 0714/0718 3000 SHRA FEW008CB SCT020 TEMPO 0718/0803 20015G25KT 1500 TSRA +SHRA FEW008CB SCT015 TEMPO 0803/0809 3000 SHRA FEW008CB SCT020",
    "RCTP": "TAF RCTP 071100Z 0712/0818 24007KT 9999 FEW020 TEMPO 0716/0722 18005KT BECMG 0800/0802 27010KT TEMPO 0809/0811 34005KT BECMG 0811/0813 22005KT",
    "ZGSZ": "TAF AMD ZGSZ 071153Z 0712/0818 17004MPS 8000 SCT015 BKN033 TX26/0712Z TX29/0806Z TN25/0722Z TEMPO 0712/0714 2000 +TSRA SCT015 FEW020CB BKN033 TEMPO 0714/0717 SHRA FEW020CB BKN030 TEMPO 0718/0722 SHRA FEW020CB BKN030 TEMPO 0722/0802 TSRA SCT012 FEW020CB BKN033 TEMPO 0805/0808 TSRA SCT012 FEW020CB BKN033",
    "WSSS": "TAF WSSS 071100Z 0712/0818 18008KT 9999 FEW015 SCT020 TEMPO 0803/0806 3000 TSRA FEW012CB BKN015",
    "WMKK": "TAF WMKK 071100Z 0712/0818 VRB03KT 9999 FEW030 TEMPO 0719/0723 5000 TSRA FEW017CB",
    "VTBS": "TAF VTBS 071100Z 0712/0818 21008KT 9999 FEW020 TEMPO 0712/0715 -TSRA FEW018CB SCT020 BKN080 TEMPO 0810/0814 VRB15KT 4000 TSRA FEW018CB SCT020 BKN080",
    "VTBU": "TAF VTBU 071100Z 0712/0812 19008KT 9000 FEW020 SCT100",
    "ROAH": "TAF ROAH 071105Z 0712/0818 10008KT 9999 FEW020 BECMG 0714/0716 04010KT",
    "VVDN": "TAF VVDN 071100Z 0712/0812 22010KT 9999 SCT015 BKN060 TEMPO 0712/0715 4000 RA",
    "RCKH": "TAF RCKH 071100Z 0712/0818 23007KT 9999 FEW015 TEMPO 0716/0719 VRB05KT TEMPO 0720/0724 04005KT BECMG 0800/0802 30010KT",
    "KLAX": "TAF KLAX 071129Z 0712/0818 VRB03KT P6SM SKC FM071300 VRB03KT P6SM BKN012 FM071600 25006KT P6SM SCT015 FM071700 25012KT P6SM SKC FM080300 25006KT P6SM SKC FM080900 VRB03KT P6SM SCT008 FM081700 25012KT P6SM SKC",
    "KONT": "TAF KONT 071120Z 0712/0818 VRB05KT P6SM SKC FM072000 25012G20KT P6SM SKC FM080400 VRB05KT P6SM SKC",
    "KSFO": "TAF KSFO 071120Z 0712/0818 26009KT P6SM FEW004 OVC007 FM071700 28015KT P6SM BKN015 FM072100 28018G28KT P6SM SCT015 FM080300 28015G25KT P6SM BKN015 FM080800 28013KT P6SM OVC015 FM081500 27007KT P6SM OVC015",
    "KOAK": "TAF KOAK 071120Z 0712/0818 24009KT P6SM BKN007 OVC012 FM071800 27008KT P6SM BKN015 FM072000 28017KT P6SM SCT015 FM080600 25014KT P6SM BKN015 FM081100 26010KT P6SM OVC008",
    "KMHR": "TAF KMHR 071200Z 0712/0812 16007KT P6SM SCT010 TEMPO 0712/0714 BKN010 FM071400 16009KT P6SM FEW015 FM071500 19008KT P6SM SKC FM080100 21010G15KT P6SM SKC",
    "KDFW": "TAF KDFW 071120Z 0712/0818 17005KT P6SM SCT100 FM072200 21007KT P6SM VCTS SCT060CB FM080200 16008KT P6SM FEW060",
    "KIAH": "TAF KIAH 071135Z 0712/0818 VRB05KT P6SM FEW025 SCT250 TEMPO 0712/0714 VRB02KT FEW015 SCT025 FM071800 18008KT P6SM SCT050 BKN250 PROB30 0718/0724 4SM TSRA BKN035CB FM080600 18003KT P6SM FEW250",
    "KORD": "TAF KORD 071120Z 0712/0818 35005KT P6SM FEW040 FEW250 FM071800 08008KT P6SM FEW050 FEW250 FM080700 21005KT P6SM SKC FM081600 22011KT P6SM SCT050",
    "KJFK": "TAF KJFK 071120Z 0712/0818 04008KT P6SM OVC007 FM072000 01010KT P6SM BKN008 TEMPO 0720/0724 SCT008 BKN012 FM080000 01008KT P6SM BKN015 FM081000 01008KT P6SM SCT015 BKN025 FM081300 02006KT P6SM SCT030 BKN040",
    "KRFD": "TAF KRFD 071120Z 0712/0812 VRB03KT P6SM FEW200 FM071500 36005KT P6SM FEW050 FEW250 FM080100 14004KT P6SM SKC",
    "KIND": "TAF KIND 071120Z 0712/0818 03007KT P6SM FEW250 FM071600 03010KT P6SM SCT050 FM080000 03006KT P6SM FEW250",
    "KDTW": "TAF KDTW 071123Z 0712/0818 03005KT P6SM SCT040 TEMPO 0712/0714 6SM BR BKN025 FM071700 05007KT P6SM BKN045 FM072200 14007KT P6SM SCT060 FM080200 05005KT P6SM SKC FM081000 VRB03KT 3SM BR SKC FM081300 23007KT P6SM SCT250",
    "KMSP": "TAF KMSP 071123Z 0712/0818 VRB04KT P6SM SCT200 FM071700 23006KT P6SM SCT050 FM080300 VRB04KT P6SM SCT060 BKN150 PROB30 0808/0814 VRB20G35KT 2SM TSRA BKN015CB",
    "CYEG": "TAF CYEG 071140Z 0712/0812 12008KT P6SM SCT200 FM071600 14015G25KT P6SM BKN200 BECMG 0802/0804 14012KT RMK NXT FCST BY 071500Z",
    "EHAM": "TAF EHAM 071107Z 0712/0818 30015G25KT 9999 FEW030 BECMG 0715/0718 31009KT PROB40 TEMPO 0802/0810 BKN016",
    "EBBR": "TAF EBBR 071100Z 0712/0818 28010KT CAVOK BECMG 0718/0720 34006KT ",
    "EDDF": "TAF EDDF 071100Z 0712/0818 26015G25KT CAVOK BECMG 0717/0719 28010KT TEMPO 0721/0810 BKN030",
    "EDFH": "TAF EDFH 071100Z 0712/0812 27015G25KT CAVOK BECMG 0717/0719 30010KT BECMG 0720/0723 30005KT",
    "EDDL": "TAF EDDL 071100Z 0712/0818 27015G25KT CAVOK BECMG 0717/0720 30009KT BECMG 0723/0802 29004KT PROB30 TEMPO 0805/0808 BKN014 BECMG 0806/0809 31009KT",
    "EDDK": "TAF EDDK 071100Z 0712/0818 29015G25KT CAVOK PROB30 TEMPO 0713/0717 30020G30KT BECMG 0719/0722 31011KT BECMG 0722/0801 31006KT PROB30 TEMPO 0804/0807 BKN014 BECMG 0807/0810 32011KT",
    "EBLG": "TAF EBLG 071100Z 0712/0818 28010KT CAVOK BECMG 0719/0721 34006KT ",
    "LSZH": "TAF LSZH 071125Z 0712/0818 26010KT CAVOK TX33/0715Z TN16/0804Z TX31/0815Z BECMG 0712/0713 28012G27KT BECMG 0717/0720 VRB02KT BECMG 0810/0813 34008KT",
    "LIMC": "TAF LIMC 071100Z 0712/0818 VRB05KT CAVOK TEMPO 0712/0716 22010KT BECMG 0810/0812 24010KT BECMG 0816/0818 VRB05KT",
    "LIRF": "TAF LIRF 071100Z 0712/0818 25012KT 9999 FEW030 BECMG 0717/0719 VRB05KT BECMG 0722/0724 3000 BCFG TEMPO 0801/0806 0800 FG BKN006 BECMG 0809/0811 25012KT",
    "EINN": "TAF EINN 071100Z 0712/0812 26008KT 9999 FEW010 BKN018 TEMPO 0712/0713 BKN012 BECMG 0715/0717 30010KT TEMPO 0720/0809 BKN012 BECMG 0806/0808 VRB03KT",
    "EGLL": "TAF EGLL 071059Z 0712/0818 27012KT CAVOK BECMG 0713/0716 33015KT BECMG 0805/0808 VRB02KT",
    "EGSS": "TAF EGSS 071100Z 0712/0818 26010KT CAVOK BECMG 0714/0717 32010KT BECMG 0812/0815 02005KT",
    "EPWA": "TAF EPWA 071130Z 0712/0812 25012KT 9999 SCT040 TEMPO 0712/0801 26018G28KT 3000 SHRA BKN010 BKN030CB BECMG 0803/0805 27015G25KT TEMPO 0803/0812 27023G35KT",
    "UHPP": "TAF UHPP 071048Z 0712/0818 36003G10MPS 1000 BR OVC006 TEMPO 0712/0721 0400 FG VV001 FM072100 17005G12MPS 9999 SCT040CB BECMG 0808/0810 35003G10MPS TEMPO 0810/0818 0700 FG VV003",
    "EFHK": "TAF EFHK 071134Z 0712/0812 28010KT 9999 SCT010 TEMPO 0712/0713 SHRA BKN010 FEW030CB BECMG 0713/0715 22006KT TEMPO 0713/0719 SHRA FEW030CB PROB30 0722/0802 2500 BCFG BECMG 0802/0804 1200 BR BKN002 BECMG 0804/0806 9999 NSW FEW005",
    "LBBG": "TAF LBBG 071100Z 0712/0812 13012KT 9999 SCT030 PROB40 TEMPO 0712/0717 VRB16G26KT 3000 TSRA FEW030CB BKN040 BECMG 0718/0720 VRB04KT BECMG 0808/0810 24010KT",
    "LTAC": "TAF LTAC 071040Z 0712/0812 03012KT 9999 SCT040 BECMG 0718/0720 VRB02KT CAVOK BECMG 0806/0809 SCT040",
    "UBBB": "TAF UBBB 071057Z 0712/0812 32020G30KT 9999 FEW060CB TX27/0712Z TN21/0801Z TEMPO 0712/0718 34024G34KT FEW015 BECMG 0718/0720 34016G26KT TEMPO 0720/0806 -SHRA SCT010 SCT040CB BECMG 0806/0808 33022G32KT",
    "UTAA": "TAF UTAA 071045Z 0712/0812 33018KT 6000 SCT050 TX40/0712Z TEMPO 0709/0714 28014G24KT 4000 DRDU BECMG 0716/0718 24014KT BECMG 0806/0808 04016KT 4000 DRDU SCT050",
    "UACC": "TAF AMD UACC 071212Z 0712/0812 03005MPS 9999 SCT030 BKN100 TX29/0810Z TN20/0723Z TEMPO 0712/0716 09008MPS -TSRA BKN030CB BECMG 0716/0718 VRB01MPS BECMG 0803/0805 05005MPS TEMPO 0803/0812 BKN030CB",
    "UAAA": "TAF UAAA 071103Z 0712/0812 22003MPS 9999 SCT050CB BKN100 TX33/0810Z TN19/0800Z TEMPO 0712/0715 16005G10MPS TS BECMG 0802/0803 32003G08MPS BKN050CB OVC100 TEMPO 0802/0812 26006G12MPS 5000 -TSRA BLDU",
    "UZTT": "TAF UZTT 071100Z 0712/0812 09010KT 7000 NSC TX38/0810Z TN23/0800Z TEMPO 0712/0718 32010G20KT",
    "ZWWW": "TAF ZWWW 070904Z 0712/0818 02004MPS CAVOK TX32/0809Z TN25/0723Z TN26/0818Z BECMG 0713/0714 18004MPS BECMG 0802/0803 36004MPS BECMG 0813/0814 18004MPS",
    "ZLXY": "TAF ZLXY 070905Z 0712/0812 06003MPS 6000 NSC TX39/0808Z TN24/0722Z",
    "ZBAA": "TAF ZBAA 070900Z 0712/0818 15003MPS CAVOK TX33/0807Z TN22/0721Z TN24/0818Z TEMPO 0806/0812 -TSRA FEW040CB BKN040",
    "ZBHH": "TAF ZBHH 070902Z 0712/0812 36004MPS 9999 FEW040 TX32/0808Z TN14/0722Z TEMPO 0805/0809 SCT040 FEW040CB",
    "ZSQD": "TAF ZSQD 070906Z 0712/0812 21003MPS 5000 BR BKN040 TX32/0806Z TN22/0721Z BECMG 0719/0720 2500 BECMG 0723/0724 3500",
    "ZMCK": "TAF ZMCK 071056Z 0712/0818 VRB02MPS 9999 FEW030CB SCT033 TN14/0721Z TX23/0807Z PROB40 TEMPO 0712/0720 VRB09G14MPS TSRA SCT027CB SCT030 TEMPO 0720/0810 VRB08G13MPS 8000 TSRA SCT027CB BKN030 BECMG 0723/0802 30007MPS BECMG 0814/0816 VRB02MPS",
    "UUEE": "TAF UUEE 071051Z 0712/0812 22006MPS 9999 BKN020 TX23/0812Z TN13/0801Z TEMPO 0712/0716 25009G15MPS PROB40 TEMPO 0712/0715 -TSRA BKN016CB BECMG 0716/0718 15005MPS TEMPO 0718/0807 4900 -SHRA BKN008 BKN016CB PROB40 TEMPO 0809/0812 -TSRA BKN020CB",
    "UUDD": "TAF UUDD 071054Z 0712/0818 24006MPS 9999 SCT020 TX23/0812Z TN14/0801Z TEMPO 0712/0715 24008G14MPS BECMG 0716/0718 18003MPS TEMPO 0723/0806 BKN010 TEMPO 0806/0809 18008G13MPS TEMPO 0809/0818 18008G15MPS -TSRA BKN020CB",
    "ULLI": "TAF ULLI 071053Z 0712/0812 18005G10MPS 6000 BKN016 TEMPO 0712/0716 23007G14MPS 3100 -TSRA BKN017CB BECMG 0720/0721 16003MPS PROB40 TEMPO 0721/0803 1000 BR",
    "USSS": "TAF USSS 071048Z 0712/0812 27003G14MPS 8000 -SHRA BKN016CB TEMPO 0712/0812 VRB25MPS -TSRAGR SQ",
    "UNNT": "TAF UNNT 071100Z 0712/0812 02003G08MPS 8000 SCT040 TX27/0809Z TN16/0722Z TEMPO 0712/0715 -TSRA BKN020CB",
    "UNKL": "TAF UNKL 071053Z 0712/0812 31003G08MPS 8000 SCT040 BECMG 0803/0805 01005MPS BECMG 0806/0808 33003G08MPS",
    "UIBB": "TAF UIBB 071100Z 0712/0812 29004MPS 0300 +TSRA FG BKN001 BKN011CB TEMPO 0712/0718 VRB15MPS 3100 -TSRA BKN003 BKN011CB BECMG 0718/0720 6000 -SHRA BECMG 0802/0805 35005MPS BKN013CB",
    "UEEE": "TAF UEEE 071100Z 0712/0818 18003G10MPS 9999 SCT030CB BKN100 TX32/0807Z TN16/0718Z TEMPO 0712/0724 VRB17MPS 3200 -TSRA SQ",
    "UHHH": "TAF UHHH 071045Z 0712/0818 08003MPS 5000 BR FEW005 SCT018CB TX25/0806Z TN19/0718Z TEMPO 0715/0722 0500 -SHRA FG BKN003 BKN016CB FM080000 13003MPS 6000 -SHRA FEW006 BKN016CB TEMPO 0800/0810 16008MPS",
    "UHSS": "TAF UHSS 071047Z 0712/0818 18003MPS 0550 FG BKN002 BECMG 0721/0723 9999 NSW BKN004 BECMG 0800/0802 SCT007 BKN025CB"
  },
  "atis": {
    "RJAA": "[Arrival ATIS] RJAA ARR ATIS W 1409Z MS1400 (APCH)ILS Y RWY16R USING RWY 16R DEP FREQ 124.2. TWY A1 CLSD. RWY 16L/34R WILL BE CLSD FM 1410. MS 191400Z AUTO 07008KT 020V110 9999 OVC003// 20/19 Q1013/A2992= Q/TWO NINE NINE TWO STP\n[Departure ATIS] RJAA DEP ATIS V 1353Z MS1330 (APCH)ILS Y RWY16R/ILS Y RWY16L USING RWY 16R/16L DEP FREQ 124.2. TWY A1 CLSD. PARL APCHS INPR. RWY 16L/34R WILL BE CLSD FM 1410. MS 191330Z 09006KT 10KM FEW003ST BKN004ST 21/19 Q1013/A2992= Q/TWO NINE NINE TWO STP",
    "PANC": "[Arrival ATIS] PANC ARR ATIS O 1353Z - PANC ATIS INFO O 1353Z. 14006KT 10SM SCT120 BKN200 12/09 A3029 (THREE ZERO TWO NINER). ILS RWY 15 APPROACHES IN USE. LANDING RWY 15, DEPARTING RWY 25L. NOTICE TO AIRMEN. RWY 25R CLSD. CHECK NOTAMS FOR TAXIWAY CLOSURES. CONTACT TOWER 118.3 FOR TAXI. ...ADVS YOU HAVE INFO O.\n[Departure ATIS] PANC DEP ATIS H 1953Z ANC ATIS INFO H 1953Z. VRB03KT 10SM FEW080 SCT110 14/07 A2994 (TWO NINER NINER FOUR). 7R, 7L APPROACHES IN USE. LANDING RWY 7R, 7L, DEPARTING RWY 33. NOTICE TO AIRMEN. TWY Q CLSD. TWY R CLSD BTWN TWY, S AND TWY U . TWY E CLSD BTWN TWY, L AND TWY M . RWY 15 PAPI OTS. TWY K BTWN A AND D RESTRICTED TO AIRCRAFT WITH WINGSPAN LESS THAN 118 FEET. HAZD WX INFO FOR ANC AREA AVBL FM FSS. CONTACT TOWER 118.3 FOR TAXI. ...ADVS YOU HAVE INFO H.",
    "KSEA": "[Arrival ATIS] KSEA ARR ATIS A 1153Z SEA ATIS INFO A 1153Z. 17006KT 10SM SCT250 12/10 A3002 (THREE ZERO ZERO TWO). ILS AND CHARTED VISUAL APPROACH RWYS 16C AND 16L , APCH IN USE. DEPG RWY 16L, DEPG ACFT PLAN AND BRIEF NUMBERS FOR BOTH RWYS 16L AND 16C. SIMUL APCHS IN USE TO PARA RYS. NOTAMS... BIRD ACTIVITY VICINITY ARPT. ...ADVS YOU HAVE INFO A.\n[Departure ATIS] KSEA DEP ATIS H 0653Z SEA ATIS INFO H 0653Z. 26004KT 10SM CLR 17/11 A2997 (TWO NINER NINER SEVEN) RMK AO2 SLP152 T01670106. ILS AND CHARTED VISUAL APPROACH RWYS 34C AND 34R , APCH IN USE. DEPG RWY 34R. SIMUL APCHS IN USE TO PARA RYS. NOTAMS... BIRD ACTIVITY VICINITY ARPT. APCH AND DEP PATHS ARE OVER NOISE SENSITIVE AREAS. ...ADVS YOU HAVE INFO H.",
    "ZSPD": "[Arrival ATIS] ZSPD ARR ATIS D 1402Z EXP ILS APCH INDEPENDENT PARL INSTR APCH LDG RWY 17R & 16L WIND RWY 17R TDZ 210/3MPS MID 210/3MPS END 200/4MPS RWY 16L TDZ 210/5MPS MID 210/3MPS END 210/3MPS CAVOK T 26 /DP 25 QNH 1002 HPA CAUTION THE BIRDS NEAR THE RUNWAY RWY 17L/17R/16L/16R RWYCC 5/5/5 ISSUED AT 1305 WET/WET/WET DPT NR/NR/NR COV 100PCT/100PCT/100PCT ADZ YOU HAVE INFO D.\n[Departure ATIS] ZSPD DEP ATIS D 1402Z DEP RWY 17L & 16R WIND RWY 17L TDZ 210/4MPS MID 200/4MPS END 210/3MPS RWY 16R TDZ 210/3MPS MID 220/3MPS END 200/3MPS CAVOK T 26 /DP 25 QNH 1002 HPA CAUTION THE BIRDS NEAR THE RUNWAY RWY 17L/17R/16L/16R RWYCC 5/5/5 ISSUED AT 1305 WET/WET/WET DPT NR/NR/NR COV 100PCT/100PCT/100PCT ADZ YOU HAVE INFO D.",
    "ZSSS": "[Arrival ATIS] ZSSS ARR ATIS P 1400Z EXP ILS APCH LDG RWY 18L WIND RWY 18L TDZ 230/5MPS MID 220/3MPS VRB BTN 200/ AND 260/ END 230/5MPS CAVOK T 27 /DP 24 QNH 1002 HPA RWY18R RWYCC 5/5/5 ISSUED AT 1050 WET/WET/WET DPT NR/NR/NR COV 100PCT/100PCT/100PCT RWY18L RWYCC 5/5/5 ISSUED AT 1050 WET/WET/WET DPT NR/NR/NR COV 100PCT/100PCT/100PCT QNH OF SHANGHAI TERMINAL CONTROL AREA 1002 HPA ADZ YOU HAVE INFO P.\n[Departure ATIS] ZSSS DEP ATIS J 1100Z DEP RWY 18R WIND RWY 18R TDZ 210/5MPS MID 210/5MPS END 220/4MPS VIS RWY 18R TDZ 10000M MID 10000M END 10000M FBL SHRA NSC T 27 /DP 24 QNH 1000 HPA RWY18R RWYCC 5/5/5 ISSUED AT 1050 WET/WET/WET DPT NR/NR/NR COV 100PCT/100PCT/100PCT RWY18L RWYCC 5/5/5 ISSUED AT 1050 WET/WET/WET DPT NR/NR/NR COV 100PCT/100PCT/100PCT QNH OF SHANGHAI TERMINAL CONTROL AREA 1000 HPA ADZ YOU HAVE INFO J.",
    "VHHH": "[Arrival ATIS] VHHH ARR ATIS C 1405Z ARRIVALS, RWY 25R. EXP RNAV TRANSITION TO ILS APCH, RWY 25R. RNP APCH IS AVBL ON REQ, RWY 25R. EXP RWY 25C AFTER 1500Z. SIG WS FCST. WIND 180/11KT. VIS 10KM. CLD FEW 1000FT SCT 2500FT. T30 DP24. QNH 1010HPA. ACK INFO C ON FIRST CTC WITH APP.\n[Departure ATIS] VHHH DEP ATIS S 1407Z DEPARTURES, RWY 25L. SIG WS FCST. WIND 180/13KT. VIS 10KM. CLD FEW 1000FT SCT 2500FT. T30 DP24. QNH 1010HPA. ACK INFO S ON FIRST CTC WITH DELIVERY .",
    "RCTP": "[Arrival ATIS] RCTP ARR ATIS R 1400Z EXP ILS APCH RWY23R AND RWY23L ARR/DEP. WIND 190/10KT VIS 10 KM OR MORE CLD FEW 2000FT T 28 DP 25 QNH 1010HPA NOSIG INFORM TAIPEI APCH OR TAIPEI TOWER ON INITIAL CONTACT YOU HAVE INFORMATION R\n[Departure ATIS] RCTP DEP ATIS L 1100Z EXP ILS APCH RWY23R AND RWY23L ARR/DEP. WIND 230/12KT VIS 10 KM OR MORE CLD FEW 2000FT SCT 5000FT T 28 DP 25 QNH 1010HPA NOSIG INFORM TAIPEI APCH OR TAIPEI TOWER ON INITIAL CONTACT YOU HAVE INFORMATION L",
    "ZGSZ": "[Arrival ATIS] ZGSZ ARR ATIS V 1400Z EXP ILS APCH 15 EXP ILS OR VIS APCH 16R WIND 160/7MPS VIS 9999M CLD SCT 1200M T 29 /DP 26 QNH 1009 HPA INDEPENDENT PARALLEL DEPARTURES INDEPENDENT PARALLEL APPROACHES V17,V18 AVAILABLE AFTER SULAS FLY HEADING 040 MISSED APPROACH ALTITUDE SETTING 1200METERS WHEN AIRBORNE CONTACT ZHUHAI APPROACH EXPECTED RNP ILS DME Z APPROACH ADZ YOU HAVE INFO V.\n[Departure ATIS] ZGSZ DEP ATIS M 1100Z DEP RWY 15 & 16L WIND 160/6MPS VIS 9999M CLD FEW 450M /SCT 900M T 29 /DP 27 QNH 1008 HPA INDEPENDENT PARALLEL DEPARTURES INDEPENDENT PARALLEL APPROACHES V17,V18 AVAILABLE AFTER SULAS FLY HEADING 040 MISSED APPROACH ALTITUDE SETTING 1200METERS WHEN AIRBORNE CONTACT ZHUHAI APPROACH EXPECTED RNP ILS DME Z APPROACH ADZ YOU HAVE INFO M.",
    "WSSS": "[Arrival ATIS] WSSS ARR ATIS G 1400Z METREPORT 1400Z ILS APCHRWY 20R SIMUL INDEPENDENT ILS AND VISUAL APPROACHES ARE CONDUCTED ON RWY 20. TWY W 9 CLOSED, RWY 02C 20C RAPID EXIT TAXIWAY INDICATOR LIGHTS OFFFOLLOW THE GREENS TRIAL IN PROGRESS. WHEN VACATING THE RWY, PILOTS TO ADHERE TO ATC VERBAL INSTRUCTIONS. WHEN ON TWY, PILOT TO ADHERE TO FOLLOW THE GREENS INSTRUCTIONS. WHEN APPROACHING [A] JUNCTION, KEEP [A] LOOKOUT FOR CONTINUOUS GREENS. [IF] [A] BREAK IN THE GREENS IS OBSERVED, STOP AND CLARIFY WITH ATC. WIND 280/ 05KT VRB BTN230 AND310 VIS 10KM CLD FEW TCU 1700FT FEW CB 1800FT SCT 4000FT T27 DP23 QNH 1011HPA NOSIG ACK ATIS G\n[Departure ATIS] WSSS DEP ATIS H 1400Z METREPORT 1400Z RWY 20C SIMUL INDEPENDENT ILS AND VISUAL APPROACHES ARE CONDUCTED ON RWY 20. TWY W 9 CLOSED, RWY 02C 20C RAPID EXIT TAXIWAY INDICATOR LIGHTS OFFFOLLOW THE GREENS TRIAL IN PROGRESS. WHEN VACATING THE RWY, PILOTS TO ADHERE TO ATC VERBAL INSTRUCTIONS. WHEN ON TWY, PILOT TO ADHERE TO FOLLOW THE GREENS INSTRUCTIONS. WHEN APPROACHING [A] JUNCTION, KEEP [A] LOOKOUT FOR CONTINUOUS GREENS. [IF] [A] BREAK IN THE GREENS IS OBSERVED, STOP AND CLARIFY WITH ATC. WIND 280/ 07KT VIS 10KM CLD FEW TCU 1700FT FEW CB 1800FT SCT 4000FT T27 DP23 QNH 1011HPA NOSIG DEP,INITIAL CMB 3000FT ACK ATIS H",
    "WMKK": "[Arrival ATIS] WMKK ARR ATIS G 1304Z WMKK ARR INFO G. TIME 1300. INDEPENDENT PARALLEL APPROACHES FOR RWY 14 L AND 15 ARE IN PROGRESS. EXP RNAV / ILS APCH FOR RWY 14 LEFT. EXP RNAV / ILS APCH FOR RWY 15. WIND RWY 14L 010 DEG, 4 KT. WIND RWY 15 340 DEG, 3 KT. VIS RWY 14L TDZ 9 KM. VIS RWY 15 TDZ 9 KM. CLD FEW 3000 FT. T 28. DP 25. QNH 1010. NOSIG. AT FIRST CONTACT WITH LUMPUR RADAR, NOTIFY RCPT OF G\n[Departure ATIS] WMKK DEP ATIS U 0717Z WMKK DEP INFO U. TIME 0700. INDEPENDENT PARALLEL DEPARTURES FOR RWY 14 R AND 15 ARE IN PROGRESS. RWY 14 RIGHT. RWY 15. WIND RWY 14R 150 DEG, 8 KT. WIND RWY 15 140 DEG, 8 KT. VIS RWY 14R TDZ 10 KM OR MORE. VIS RWY 15 TDZ 10 KM OR MORE. WX TS, VCSH. CLD FEW CB 1700 FT, CLD SCT 1800 FT. T 30. DP 24. QNH 1008. NOSIG. ALL DEP ACFT TO CONTACT LUMPUR DEP AT 135 DECIMAL 25 MHZ WHEN ABN. AT FIRST CONTACT WITH LUMPUR GROUND, NOTIFY RCPT OF U",
    "VTBS": "[Arrival ATIS] VTBS ARR ATIS W 1400Z VTBS ARR ATIS W 1402Z EXP ILS Z APCH ARR RWY 01 OR RNP APCH RWY 02L 06191020 01 5/5/5 100/100/100 NR/NR/NR WET/WET/WET 06191025 02L 5/5/5 100/100/100 NR/NR/NR WET/WET/WET ,RETIL RWY 01 U/S ,PILOT SHALL ADZ BKK APCH ON INITIAL CTC IF UNA TO CONDUCT RNP APCH DUE TO OPERATIONAL CONSTRAINT 1400Z WIND VRB BTN 330/ AND 100/2KT VIS 7KM FBL RA CLD FEW 2000FT T26 DP23 QNH 1011HPA TREND NOSIG ADZ BKK APCH ON INITIAL CONTACT THAT YOU HAVE INFO W\n[Departure ATIS] VTBS DEP ATIS V 1106Z VTBS DEP ATIS V 1108Z DEP RWY 20L MOD WS IN APCH OBS ATP 1100 06191029 20L 5/5/5 100/100/100 NR/NR/NR WET/WET/WET ,LGT WRNG PROC IN OPERATION ,AFT AIRBORNE ALL DEPARTING ACFT SHALL CTC 119.25 1106Z WIND 260/8KT VIS 1500M HVY RA CLD FEW 600FT FEW CB 1800FT SCT 3000FT T24 DP24 QNH 1009HPA TREND BECMG TL1130 VIS 3000M MOD TSRA ADZ GND WHEN INITIAL CONTACT YOU HAVE INFO V",
    "VTBU": "[Arrival ATIS] VTBU ARR ATIS U 0430Z VTBU ARR ATIS U 0430Z RNP RWY 18 TRL FL130 MOBILE ACFT ARST SYSTEM INSTL ATP SIX HUNDRED AND TEN METERS FM THR RWY 36 CABLE HGT 3 INCHES. 0430Z WIND 360/6KT VRB BTN 320/ AND 020/ VIS 10KM CLD FEW 2000FT T34 DP27 QNH 1010HPA TREND NOSIG ADZ CONTROLLER WHEN INITIAL CONTACT YOU HAVE INFO U\n[Departure ATIS] VTBU DEP ATIS D VTBU ARR/DEP DATIS RPT VTBU ARR ATIS D 0330Z ILS \"Z\" APCH RWY 18 TRL FL130 0330Z WIND 110/4KT VRB BTN 350/ AND 120/ VIS 6KM CLD FEW 2000FT T31 DP27 QNH 1014HPA TREND NOSIG ADZ CONTROLLER WHEN INITIAL CONTACT YOU HAVE INFO D",
    "ROAH": "[Arrival ATIS] ROAH ARR ATIS M 0831Z M0830 (APCH)ILS Z RWY36L LDG RWY 36L DEP RWY 36R DEP FREQ 119.1 335.8 M 070830Z 34007KT 60KM FEW020CU 30/25 Q1008/A2978= Q/TWO NINE SEVEN EIGHT STP\n[Departure ATIS] ROAH DEP ATIS Q 1044Z M1030 (APCH)ILS Z RWY36L LDG RWY 36L DEP RWY 36R DEP FREQ 119.1 335.8 M 071030Z 15008KT 60KM FEW025CU 30/25 Q1009/A2980= Q/TWO NINE EIGHT ZERO STP",
    "VVDN": "[Arrival ATIS] VVDN ARR ATIS M 1331Z VVDN INFO M 1331Z. ILS VICTOR APPROACH 35L.. DPTG RWY 35R.. 1331Z. WIND 340/01KT VIS 10KM CLD BKN 5300FT T30 DP26 QNH 1008HPA TREND NOSIG. ADZ ON INITIAL CTC YOU HAVE INFO. M.\n[Departure ATIS] VVDN DEP ATIS X 0632Z VVDN INFO X 0632Z. ILS VICTOR APPROACH 35L.. DPTG RWY 35R.. 0632Z. WIND 130/0KT CAVOK T34 DP26 QNH 1006HPA TREND NOSIG. ADZ ON INITIAL CTC YOU HAVE INFO. X.",
    "RCKH": "[Arrival ATIS] RCKH ARR ATIS R 1100Z EXPECT ILS APPROACH RWY 09 ARR TAXIWAY JULIETT, TAXIWAY BRAVO, TAXIWAY DELTA AND TAXIWAY ECHO CLOSED DUE MAINTENANCE. RUNWAY 0 9 ARRIVALS PLAN VACATE VIA CHARLIE OR FOX\n[Departure ATIS] RCKH DEP ATIS I 0700Z EXPECT ILS APPROACH RWY 27 ARR/DEP TAXIWAY JULIETT, TAXIWAY BRAVO, TAXIWAY DELTA AND TAXIWAY ECHO CLOSED DUE MAINTENANCE. RUNWAY 2 7 ARRIVALS PLAN VACATE VIA CHARLIE OR",
    "KLAX": "[Arrival ATIS] KLAX ARR ATIS O 0153Z LAX ATIS INFO O 0153Z. 24011KT 10SM FEW010 21/16 A2989 (TWO NINER EIGHT NINER) RMK AO2 SLP121 T02060156. INST APCHS AND RNAV RNP APCHS RY 24R AND 25L, OR VCTR FOR VISUAL APCH WILL BE PROVIDED, SIMUL VISUAL APCHS TO ALL RWYS ARE IN PROG, SIMUL INSTR DEPARTURES IN PROG RWYS 24 AND 25. CTC L A GC ON 121.75 FOR PUSH OR TAXI ON A. TWY B CLSD BTN TWY, C10 AND TWY C7 , , TWY B6 CLSD, TWY B7 CLSD, TWY C CLSD BTN TWY, C1 AND TWY C3, TWY C1 CLSD, TWY C9 CLSD BTN TWY, B AND TWY C, TWY C8 CLSD BTN TWY, B AND TWY C. RY 25R SFL OTS, RY 24L ALSF-2 OTS. LAX VOR UNMONITORED. USE CAUTION FOR INCREASED DRONE ACTIVIY IN THE VICINITY OF SOFI STADIUM AT OR BELOW 200FT AGL DURING THE WORLD CUP FROM JUNE TWELFTH TWENTY TWENTY SIX THROUGH JULY TENTH TWENTY TWENTY SIX. HAZD WX INFO FOR LAX AREA AVBL FM FSS. USE CAUTION FOR HANG GLIDING 1 MILE SOUTH LOS ANGELES VOR. BIRD ACTIVITY VICINITY ARPT. INCLUDE YOUR CALL SIGN IN ALL READBACKS. USE CAUTION WHEN EXITING RY24R AT TWY V, W, AND Y, TO HOLD SHORT OF RY24L. MULTIPLE RUNWAY INCURSIONS HAVE OCCURRED. ...ADVS YOU HAVE INFO O.\n[Departure ATIS] KLAX DEP ATIS D 0653Z LAX ATIS INFO D 0653Z. 28011KT 10SM FEW012 BKN018 17/14 A2998 (TWO NINER NINER EIGHT) RMK AO2 SLP151 T01720144. INST APCHS AND RNAV RNP APCHS RY 24R AND 25L, OR VCTR FOR VISUAL APCH WILL BE PROVIDED, SIMUL VISUAL APCHS TO ALL RWYS ARE IN PROG. CTC L A GC ON 121.75 FOR PUSH OR TAXI ON A. TWY C CLSD BTN TWY, C8 AND TWY C9 , , TWY B CLSD BTN TWY, F AND TWY B1, TWY B1 CLSD. ILS RY 25R OTS, RY 25R SFL OTS, RY 24L ALSF-2 OTS. LAX VOR UNMONITORED. IF ASSIGNED RUNWAY 25R FOR DEPARTURE, EXPECT DEPARTURE FROM INTERSECTION FOXTROT. TAXILANE CHARLIE EIGHT RESTRICTED TO AIRCRAFT WITH A WINGSPAN LESS THAN ONE HUNDRED EIGHTEEN FEET. USE CAUTION FOR INCREASED DRONE ACTIVIY IN THE VICINITY OF SOFI STADIUM AT OR BELOW 200FT AGL DURING THE WORLD CUP FROM 06/12/26 THROUGH 07/10/2026. HAZD WX INFO FOR LAX AREA AVBL FM FSS. BIRD ACTIVITY VICINITY ARPT. TWR FREQ FOR ALL RWYS IS 120.95. INCLUDE YOUR CALL SIGN IN ALL READBACKS. USE CAUTION WHEN EXITING RY24R AT TWY V, W, AND Y, TO HOLD SHORT OF RY24L. MULTIPLE RUNWAY INCURSIONS HAVE OCCURRED. ...ADVS YOU HAVE INFO D.",
    "KONT": "[Arrival ATIS] KONT ARR ATIS F 0953Z - KONT ATIS INFO F 0953Z. 20004KT 10SM CLR 20/13 A2993 (TWO NINER NINER THREE). ILS AND VIS APR IN USE, RY26L & RY26R. LNDG AND DEPG RY 26L AND RY 26R. NOTAMS... TAXIWAY SI\n[Departure ATIS] KONT DEP ATIS N 0553Z - KONT ATIS INFO N 0553Z. 24004KT 10SM BKN250 22/15 A2988 (TWO NINER EIGHT EIGHT) RMK AO2 SLP100. ILS AND VIS APR IN USE, RY26L & RY26R. LNDG AND DEPG RY 26L AND RY 26R. NOTAMS... TAXIWAY SIERRA CLSD BETWEEN SIERRA 8 AND W TAXIWAY Q SOUTH OF RWY 26L CLSD TAXIWAY T CLSD TAXIWAY SIERRA 5 CLSD. RY 26L IM OTS, RY 26R ALS OTS. USE CAUTION FOR NUMEROUS BIRDS OBSERVED IN VICINITY OF ONT. HAZD WX INFO FOR SOUTHERN CA AVBL ON FSS FREQUENCIES. PILOTS READBACK RWY ASSIGNMENTS AND HOLD SHORT INSTRUCTIONS. ...ADVS YOU HAVE INFO N.",
    "KSFO": "[Arrival ATIS] KSFO ARR ATIS W 1156Z SFO ATIS INFO W 1156Z. 27009KT 10SM FEW005 OVC009 13/11 A3001 (THREE ZERO ZERO ONE). ILS RY 28R APP IN USE. DEPG RWYS 28L, 28R. DEPG ACFT SHOULD BE PREPARED FOR A SHORT NOTICE RY CHANGE. RY 1L, 1R CLSD. NUMEROUS TWY CLOSURES FOR CONSTRUCTION ON THE FIELD, PILOTS CHECK NOTAMS. DEPG ACFT WAITING ON FINAL NUMBERS ADVISE GROUND PRIOR TO ENTERING TWY F. ...ADVS YOU HAVE INFO W.\n[Departure ATIS] KSFO DEP ATIS R 1456Z SFO ATIS INFO R 1456Z. 30006KT 10SM FEW006 OVC011 14/11 A3002 (THREE ZERO ZERO TWO). SIMUL CLSLY SPCD DPNDNT ILS RY 28R AND ILS RY 28L APP IN USE. DEPG RWYS 28L, 28R. GATE",
    "KOAK": "[Arrival ATIS] KOAK ARR ATIS V 0453Z - KOAK ATIS INFO V 0453Z. 24014KT 10SM FEW003 OVC007 14/12 A3002 (THREE ZERO ZERO TWO). RNAV, RWY 30. ILS, RWY 28R. FLOW TO LAX, SAN. TWY S CLSD BETWEEN B AND GATE 1. ILS RWY 30, OTS, RWY 28R RAIL, OTS. UNN LIT CLOSE-IN OBSTACLES FOR RWY 30 DEPARTURES. RWY 30 DEPARTURES ARE ADVISED TO AVOID TURNING LEFT PRIOR TO DEPARTURE END OF RUNWAY. CTN, CRANE 1 POINT 6 NAUTICAL MILES, , AT 140 FEET AGL. CAUTION, BIRDS NEAR AIRPORT. ...ADVS YOU HAVE INFO V.\n[Departure ATIS] KOAK DEP ATIS O 1953Z OAK ATIS INFO O 1953Z. 28014KT 10SM FEW005 22/14 A2988 (TWO NINER EIGHT EIGHT). RNAV Z/VA RWY 30 ILS/VA RWY 28R. FLOW TO LAX, LAS, SAN. ILS RWY 30, OTS. UNN LIT CLOSE-IN OBSTACLES FOR RWY 30 DEPARTURES. RWY 30 DEPARTURES ARE ADVISED TO AVOID TURNING LEFT PRIOR TO DEPARTURE END OF RUNWAY. SIGNATURE UNI-COM OUT OF SERVICE. CAUTION, BIRDS NEAR AIRPORT. ...ADVS YOU HAVE INFO O.",
    "KDFW": "[Arrival ATIS] KDFW ARR ATIS M 0953Z - KDFW ARR INFO M 0953Z. 16005KT 10SM SCT075 SCT250 27/20 A2999 (TWO NINER NINER NINER) RMK AO2 SLP144 T02670200. SIMUL VISUAL APCH TO RWYS, 13R, 18R, 17C. LDG RWY 17C EXP LAHSO TWY B 10460 FT AVAIL, LDG RWY 18R EXP LAHSO TWY B 10100 FT AVL. NOTICE TO AIRMEN. RWY 13L CLSD. RWY 17L CLSD. WARNING, RWY 18L HAS BEEN SHORTENED, 9273 FT AVAILABLE. RWY 18L ILS OTS, CL OTS. HAZD WX FOR DFW AVBL ON FSS. BIRD ACTIVITY VCNTY ARPT. ...ADVS YOU HAVE INFO M.\n[Departure ATIS] KDFW DEP ATIS W 1553Z - KDFW DEP INFO W 1553Z. 21022G32KT 10SM FEW025 FEW180 SCT250 31/21 A2994 (TWO NINER NINER FOUR) RMK AO2 PK WND 20032/1547 SLP128 T03110206. SIMUL PARL TRAFFIC DEPG RWYS 17R, 18L. NOTICE TO AIRMEN. WARNING, RWY 18L HAS BEEN SHORTENED, 9273 FT AVAILABLE. RWY 18L CL OTS. BIRD ACTIVITY VCNTY ARPT. ...ADVS YOU HAVE INFO W.",
    "KIAH": "[Arrival ATIS] KIAH ARR ATIS C 0453Z IAH ATIS INFO C 0453Z. 17005KT 10SM CLR 28/24 A3002 (THREE ZERO ZERO TWO). ARRIVALS EXPECT ILS OR RNAV Y RY 26R, ILS OR RNAV Y RY 26L, ILS OR RNAV Y RY 27. DEPG RY 15L. NOTICE TO AIRMEN. UAL RAMP PROCEDURES TERMINATED PUSH BACK AT PILOTS DISCRETION. RY 15R, 33L CLSD. HAZD WX INFO FOR IAH AREA AVBL FM FSS. BIRD ACTIVITY VICINITY ARPT. CRANES ARE DOWN. TWY SA CLSD BTN TWY, SF AND TWY SK , TWY SB CLSD BTN TWY, SF AND TWY SK , , TWY WB CLSD BTN TWY, WG AND TWY WH . TWY EA CLSD. NOTAM ATIS IN USE ON FREQUENCY 126.225. ...ADVS YOU HAVE INFO C.\n[Departure ATIS] KIAH DEP ATIS T 0353Z IAH ATIS INFO T 0353Z. 15007KT 10SM FEW035 FEW180 BKN250 27/23 A2996 (TWO NINER NINER SIX). ARRIVALS EXPECT ILS OR RNAV Y RY 8R, ILS OR RNAV Y RY 8L. DEPG RY 15R. NOTICE TO AIRMEN. UNITED RAMP CONTROL IN EFFECT. RY 15L, 33R CLSD. HAZD WX INFO FOR IAH AREA AVBL FM FSS. BIRD ACTIVITY VICINITY ARPT. CRANES ARE DOWN. TWY SA CLSD BTN TWY, SF AND TWY SK , TWY SB CLSD BTN TWY, SF AND TWY SK , , TWY WB CLSD BTN TWY, WG AND TWY WH . TWY EA CLSD. NOTAM ATIS IN USE ON FREQUENCY 126.225. ...ADVS YOU HAVE INFO T.",
    "KORD": "[Arrival ATIS] KORD ARR ATIS Z 1051Z ORD ATIS INFO Z 1051Z. 00000KT 10SM FEW035 FEW250 FEW300 19/14 A3009 (THREE ZERO ZERO NINER) RMK AO2 SLP187 T01890144. ARR EXP VECTORS ILS RWY 9C APCH, ILS PRM RWY 10C APCH, ILS PRM Y RY 10R APCH. CTN RY 10R LOC IS OFFSET 2.5 DEGREES. SIMUL APCHS IN USE. DEPS EXP RWYS 10L FROM DD. 10,093 FT AVBL. RWY 4L, 22R CLSD, RWY 9L, 27R CLSD. RWY 22L ILS OTS, RWY 22R LOC OTS, RWY 28L GS OTS, RWY 9L IM OTS, RWY 9C IM OTS, RWY 10L IM OTS, RWY 10R IM OTS, RWY 27R IM OTS, RWY 28L IM OTS, RWY 28R IM OTS, RWY 9L PAPI OTS, RWY 27R PAPI OTS. PILOTS USE CTN FOR BIRD ACTIVITY IN THE VICINITY OF THE ARPT. USE CTN FOR PERSONNEL AND EQUIP AT NUMEROUS SITES ON THE FIELD. READBACK ALL RWY HOLD SHORT INSTRUCTIONS. WHEN READY TO TAXI CONTACT GND METERING ON FREQ 121.67. ...ADVS YOU HAVE INFO Z.\n[Departure ATIS] KORD DEP ATIS S 0751Z ORD ATIS INFO S 0751Z. 35005KT 10SM CLR 18/15 A3007 (THREE ZERO ZERO SEVEN) RMK AO2 SLP181 T01830150. ARR EXP VECTORS ILS RWY 10C APCH. DEPS EXP RWYS 22L, 10L, 9C. RWY 4L, 22R CLSD, RWY 9L, 27R CLSD, RWY 9R, 27L CLSD, RWY 10R, 28L CLSD. RWY 22L ILS OTS, RWY 22R LOC OTS, RWY 28L GS OTS, RWY 9L IM OTS, RWY 9C IM OTS, RWY 10L IM OTS, RWY 10R IM OTS, RWY 27R IM OTS, RWY 28L IM OTS, RWY 28R IM OTS, RWY 9L PAPI OTS, RWY 27R PAPI OTS. PILOTS USE CTN FOR BIRD ACTIVITY IN THE VICINITY OF THE ARPT. NOISE ABATEMENT PROCEDURES ARE IN EFFECT. USE CTN FOR PERSONNEL AND EQUIP AT NUMEROUS SITES ON THE FIELD. READBACK ALL RWY HOLD SHORT INSTRUCTIONS. FOR CD GND METERING AND GC CONTACT ORD ON FREQ 121.9. ...ADVS YOU HAVE INFO S.",
    "KJFK": "[Arrival ATIS] KJFK ARR ATIS P 1351Z JFK ATIS INFO P 1351Z. 27014KT 10SM FEW100 FEW160 BKN250 23/10 A2972 (TWO NINER SEVEN TWO). APPROACH IN USE ILS RY 31R, VISUAL APCH RY 31L. DEPG RY 31L. RWY 22L/4R INNER MARKER OTS. NUM CRANES OPERATING AT JFK. BIRD ACTIVITY VICINITY ARPT. READBACK ALL RWY ASSIGNMENTS AND HOLD SHORT INSTRUCTIONS. ...ADVS YOU HAVE INFO P.\n[Departure ATIS] KJFK DEP ATIS M 1051Z JFK ATIS INFO M 1051Z. 31012KT 10SM BKN190 BKN250 22/09 A2969 (TWO NINER SIX NINER) RMK PK WND 30026/1034. APPROACH IN USE ILS RY 31R, VISUAL APCH RY 31L. DEPG RY 31L. RWY 22L/4R INNER MARKER OTS. NUM CRANES OPERATING AT JFK. BIRD ACTIVITY VICINITY ARPT. READBACK ALL RWY ASSIGNMENTS AND HOLD SHORT INSTRUCTIONS. ...ADVS YOU HAVE INFO M.",
    "KIND": "[Arrival ATIS] KIND ARR ATIS C 0254Z - KIND ATIS INFO C 0254Z. 03010KT 10SM FEW055 FEW250 25/21 A3001 (THREE ZERO ZERO ONE). PARL ILS RWY 5R AND 5L APPROACHES IN USE. CROSS RUNWAY OPERATIONS MAY BE IN EFFECT. NOTICE TO AIRMEN. RWY 32 GS OTS. TWY, P BTN TWY, H AND TWY B CLSD. P PAD CLSD. ILS RUNWAY 5R AND RUNWAY 5L INNER MARKER UNSERVICEABLE. RUNWAY 32 TOUCHDOWN RVR OTS. RUNWAY 14 ROLLOUT RVR OTS. ...ADVS YOU HAVE INFO C.\n[Departure ATIS] KIND DEP ATIS H 1854Z IND ATIS INFO H 1854Z. 26009G19KT 10SM SCT036 BKN041 BKN170 23/16 A2981 (TWO NINER EIGHT ONE) RMK AO2 SLP088 T02280156. PARL ILS RWY 23R AND 23L APPROACHES IN USE. CROSS RU",
    "KDTW": "[Arrival ATIS] KDTW ARR ATIS A 0953Z DTW ARR INFO A 0953Z. 35005KT 9SM FEW075 SCT250 18/13 A3005 (THREE ZERO ZERO FIVE). SIMUL VISUAL RY 3R, RY 4L USE Z LOC FREQ 111.95 APCH IN USE. NOTICE TO AIRMEN. RWY 21R, 3L CLSD, RWY 27L, 9R CLSD, RWY 27R, 9L CLSD. TWYS Y1 CLSD ;. PILOTS USE CTN FOR BIRD ACTIVITY. DEPARTURE ATIS 118.125. ...ADVS YOU HAVE INFO A.\n[Departure ATIS] KDTW DEP ATIS Q 2253Z - KDTW DEP INFO Q 2253Z. 21009KT 10SM FEW050 FEW250 33/24 A2991 (TWO NINER NINER ONE). DEPG RWY 21R, RWY 22L ;. NOTICE TO AIRMEN. RWY 27L, 9R CLSD, RWY 27R, 9L CLSD. PILOTS USE CTN FOR BIRD ACTIVITY. ...ADVS YOU HAVE INFO Q.",
    "KMSP": "[Arrival ATIS] KMSP ARR ATIS B 1216Z - KMSP ARR INFO B 1216Z SPECIAL. 04004KT 10SM FEW009 BKN085 BKN250 20/18 A3011 (THREE ZERO ONE ONE). VISUAL RWY 30L APCH IN USE, VISUAL RWY 30R APCH IN USE. NOTICE TO AIRMEN. RWYS 4, 22 CLSD. TWY R7. R8. R9. R10. CLOSED, TWY R BETWEEN R6 AND R10 CLOSED, TWY A7 CLSD. GS RWY 12L OTS, RWYS 12R, 12L, INNER MARKER OTS.. RWY 30L CONDITION CODES, 5 5 5 AT 0931Z, RWY 30R CONDITION CODES, 5 5 5 AT 0543Z, RWY 17 CONDITION CODES, 5 5 5 AT 0543Z. HAZD WX INFO FOR MSP AREA AVBL FM FSS. CTN, BIRDS NEAR MSP. READ BACK HS AND ALT. ALL ACFT TAXI WITH TRANSPONDER AND ALTITUDE ENCODING ON. ...ADVS YOU HAVE INFO B.\n[Departure ATIS] KMSP DEP ATIS Z 1053Z - KMSP DEP INFO Z 1053Z. 32003KT 10SM FEW070 SCT250 19/18 A3007 (THREE ZERO ZERO SEVEN). DEPARTING RWY 30L, RWY 30R, RWY 17. NOTICE TO AIRMEN. RWYS 4, 22 CLSD. TWY R7. R8. R9. R10. CLOSED, TWY R BETWEEN R6 AND R10 CLOSED, TWY A7 CLSD. ALL ACFT CTC METERING ON ONE THREE THREE POINT FIVE SEVEN WHEN READY TO PUSHBACK OR TAXI. RWY 30L CONDITION CODES, 5 5 5 AT 0931Z, RWY 30R CONDITION CODES, 5 5 5 AT 0543Z, RWY 17 CONDITION CODES, 5 5 5 AT 0543Z. HAZD WX INFO FOR MSP AREA AVBL FM FSS. CTN, BIRDS NEAR MSP. READ BACK HS AND ALT. ALL ACFT TAXI WITH TRANSPONDER AND ALTITUDE ENCODING ON. ...ADVS YOU HAVE INFO Z.",
    "CYEG": "[Arrival ATIS] CYEG ARR ATIS Y 1200Z 13005KT 20SM FEW100 FEW250 11/10 A3005 APCH RNAV Z OR Y RWY 20, INFORM ARRL OF REQ APCH ON INITIAL CTC. LDG AND DEP RWY 20. SIMUL APPROACHES MAY BE IN EFCT. CYYC GDP IN EFCT CTC CYEG FIC ON FREQ 122.375 OR TEL 1-780-890-8386. INFORM CYEG ATC INFO Y\n[Departure ATIS] CYEG DEP ATIS Y 1200Z CYEG ARR ATIS Y 1200Z 13005KT 20SM FEW100 FEW250 11/10 A3005 APCH RNAV Z OR Y RWY 20, INFORM ARRL OF REQ APCH ON INITIAL CTC. LDG AND DEP RWY 20. SIMUL APPROACHES MAY BE IN EFCT. CYYC GDP IN EFCT CTC CYEG FIC ON FREQ 122.375 OR TEL 1-780-890-8386. INFORM CYEG ATC INFO Y",
    "EHAM": "[Arrival ATIS] EHAM ARR ATIS I 1353Z EHAM ARRIVAL INFO I. DEMAND. MAIN LANDING RWY 18 R. SECONDARY LANDING RWY 27. TRANSITION LEVEL 045. WIND 190 DEG, 13 KT, VRB BTN 160 AND 230 DEG, 18 KT MAX, 6 KT MNM. WIND SECONDARY RUNWAY 200 DEG, 14 KT, VRB BTN 170 AND 240 DEG, 17 KT MAX, 8 KT MNM. CAVOK. T 33. DP 18. QNH 1013 HPA. NOSIG. OPERATIONAL REPORT. CONVERGING APPROACHES IN PROGRESS. CONTACT APCH WITH CALLSIGN ONLY. END OF INFO I\n[Departure ATIS] EHAM DEP ATIS Z 0750Z EHAM DEPARTURE INFO Z. DEMAND. MAIN DEPARTURE RWY 24. SECONDARY DEPARTURE RWY 18 L. MAIN LANDING RWY 18 R. WIND 280 DEG, 11 KT, VRB BTN 230 AND 320 DEG, 18 KT MAX, 7 KT MNM. WIND SECONDARY RUNWAY 270 DEG, 12 KT, VRB BTN 240 AND 310 DEG, 19 KT MAX, 8 KT MNM. CAVOK. T 22. DP 14. QNH 1012 HPA. OPERATIONAL REPORT. INFORM SCHIPHOL DEL BY VOICE IF UNABLE TO COMPLY WITH NADP 2. END OF INFO Z",
    "EBBR": "[Arrival ATIS] EBBR ARR ATIS A 0950Z EBBR NAT, EXP VECT FOR ILS APP ARR RWY25L RSCD AT 0722 RWY25L DRY. DEP RWY25R TRL 055 TWY C6 CLSD. ILS RWY 25R U/S. RNP RWY 25R AT ATC DISCRETION 250/9KT MNM6 MAX15 CAVOK T25 DP13 QNH 1015HPA NOSIG CFM ARR A\n[Departure ATIS] EBBR DEP ATIS F 1150Z EBBR NAT, DEP RWY25R RSCD AT 1022 RWY25R DRY . ARR RWY25L TRL 055 B3 CLSD 270/12KT MNM4 MAX17 CAVOK T27 DP13 QNH 1015HPA NOSIG CFM DEP F",
    "EDDF": "[Arrival ATIS] EDDF ARR ATIS H 1020Z ARR-ATIS EDDF H METAR 071020 EXPECT INDEPENDENT PARALLEL ILS Y APCH RWY 25R OR ILS APCH RWY 25L RWY 25R 25L GLS APCH ON REQUEST , DO NOT MISTAKE TWY M FOR RWY 25C WHEN PERFORMING VISUAL APPROACH , TRL 60 ATTN : BIRDS IN THE VICINITY OF THE RWYS , AD WRNG VALID TIL 1800 , SFC WIND 27015KT MAX 30 KTS , FCST WKN , 24015KT CAVOK T27 DP08 QNH1014 TREND BECMG 26015G25KT END OF ATIS H\n[Departure ATIS] EDDF DEP ATIS N 1350Z -DEP-ATIS EDDF N METAR 191350 - -RWY 25C 18 - -TRL 60 -ATTN : BIRDS IN THE VCY OF THE AD , -VRB05KT RWY18 17006KT -CAVOK - - -T36 DP13 -QNH1015 - -TREND NOSIG",
    "EDDL": "[Arrival ATIS] EDDL ARR ATIS U 0650Z ATIS EDDL U METAR 070650 EXPECT VECTORS ILS APPROACH RWY 23L TWY L2 , L4 AND L5 BTN TWY M AND RWY 23L CLOSED TRL 60 24008KT CAVOK T21 DP11 QNH1014 TREND BECMG 27013KT\n[Departure ATIS] EDDL DEP ATIS R EDDL ARR/DEP DATIS RPT -ATIS EDDL R METAR 020550 -EXPECT VECTORS ILS APPROACH -RWY 23L -TWY L8 CLOSED BETWEEN TWY M AND RWY 23L -TRL 60 - -23010KT -CAVOK - - -T19 DP13 -QNH1020 - -TREND NOSIG",
    "EDDK": "[Arrival ATIS] EDDK ARR ATIS Z 0620Z ATIS EDDK Z METAR 070620 EXPECT ILS APCH RWY 31R RWY 31R RWY COND RWY 31R AT TIME 2345 RWYCC 6 DEPOSIT TOTAL RWY DRY TRL 60 RWY 13R AND RWY 31L CLOSED FOR DEPARTURE AND LANDING: TAXIING BTN THR RWY 13R AND INTERSECTION RWY 24 POSSIBLE : VRB01KT CAVOK T20 DP14 QNH1014 TREND BECMG 27008KT\n[Departure ATIS] EDDK DEP ATIS Q EDDK ARR/DEP DATIS RPT -ATIS EDDK Q METAR 291920 -EXPECT ILS APCH -RWY 31R 06 -RWY COND RWY 31R AT TIME 1830 RWYCC 6 DEPOSIT TOTAL RWY DRY RWY 06 AT TIME 1830 RWYCC 6 DEPOSIT TOTAL RWY DRY -TRL 60 -RWY 13R AND RWY 31L CLOSED FOR DEPARTURE AND LANDING: TAXIING BTN THR RWY 13R AND INTERSECTION RWY 24 POSSIBLE : -04003KT -CAVOK - - -T24 DP13 -QNH1024 - -TREND NOSIG",
    "EBLG": "[Arrival ATIS] EBLG ATIS D 1020Z EBLG INFO, EXP RNAV TO ILS APP ARR RWY22L DEP RWY22L RWY 22L DRY, RWYCC 666. TRL 055 TWY A4 PTLY CLSD 250/16KT CAVOK T27 DP10 QNH 1015HPA NOSIG CFM ATIS D",
    "LSZH": "[Arrival ATIS] LSZH ARR ATIS E 1020Z ARRIVALS, EXP ILS APCH, RWY 14. TRL 70. DEP RWY 28. WIND 220 DEG, 8 KT. CAVOK. T 30. DP 12. QNH 1020. NOSIG.\n[Departure ATIS] LSZH DEP ATIS Z 1020Z DEP RWY 28. TRL 70. ARRIVALS, EXP ILS APCH, RWY 14. TMA S 1 IS NOT ACT. TMA S 2 AND S 3 ARE NOT ACT. WIND 220 DEG, 10 KT. CAVOK. T 30. DP 12. QNH 1020. NOSIG.",
    "LIMC": "[Arrival ATIS] LIMC ARR ATIS O 1020Z LIMC ARR O 1020Z I.L.S. ZULU RWY IN USE 35R TL 70 WIND TDZ VRB4KT CAVOK T31 DP14 QNH 1018HPA QFE 0993HPA\n[Departure ATIS] LIMC DEP ATIS G 0850Z LIMC DEP G 0850Z RWY IN USE 35L TL 70 INTERSECTION ECHO WHISKY CLOSED.. WIND END 080/4KT VRB BTN 030/AND 200/ CAVOK T29 DP18 QNH 1020HPA QFE 0995HPA DATALINK CLEARANCE AVAILABLE.... CONTACT 1 3 1 8 8 0 TO BE RELEASED BY THE AIRPORT OPERATOR ...",
    "LIRF": "[Arrival ATIS] LIRF ARR ATIS S 0550Z LIRF ARR S 0550Z RWY 16L ILS W RWY 16R ILS Z RWY IN USE 16L 16R TL 70 RWYS IN USE FOR ARR 16L AND 16R WIND RWY 16L TDZ 040/6KT VRB BTN 010/AND 090/ RWY 16R TDZ 060/6KT VRB BTN 030/AND 090/ CAVOK T25 DP16 QNH 1018HPA\n[Departure ATIS] LIRF DEP ATIS S 1320Z LIRF DEP S 1320Z RWY IN USE 25 TL 70 RWYS IN USE FOR ARR 16L AND 16R WIND END 260/7KT VRB BTN 230/AND 310/ CAVOK T30 DP19 QNH 1018HPA REA IS SENT AUTOMATICALLY ONCE RLSD BY RAMP WHEN READY CONTACT FIUME RAMP 121.725 RRSM",
    "EINN": "[Arrival ATIS] EINN ARR ATIS O 1200Z EXPECT I L S CATEGORY 1 LDG RWY24 TKOF RWY24 TRL FL060 24008KT 210V280 9999 BKN012 BKN014 18/14 QNH Q1020 TREND BECMG BKN015 ADVISE AT FIRST CONTACT YOU HAVE ATIS INFO O",
    "EGLL": "[Arrival ATIS] EGLL ARR ATIS I 0550Z LANDING RWY 27L TRANSITION-LEVEL: FL 70 RUNWAY 27R REDUCED DECLARED DISTANCES WITH TAKE OFF RUN AVAILABLE 3362METRES AND LANDING DISTANCE AVAILABLE 3362METRES IF STAND GUIDANCE IS OFF OR FAILS, REMAIN ON THE TAXIWAY CENTRELINE AND ADVISE ATC AUTO 27008KT 220V280 9999 NCD 19/10 Q1016 ACKNOWLEDGE RECEIPT OF INFORMATION I\n[Departure ATIS] EGLL DEP ATIS F 0950Z DEPARTURE RWY 27R RUNWAY 27R REDUCED DECLARED DISTANCES WITH TAKE OFF RUN AVAILABLE 3362METRES AND LANDING DISTANCE AVAILABLE 3362METRES PILOTS THAT ARE IN RECEIPT OF DATALINK CLEARANCES ARE REMINDED THEY MUST CONTACT DELIVERY ON 121.980 WHEN READY FOR START DET VOR OOS AUTO 28013KT 260V320 9999 NCD 26/12 Q1016 ACKNOWLEDGE RECEIPT OF INFORMATION F AND REPORT AIRCRAFT TYPE AND CURRENT QNH ON FIRST CONTACT WITH HEATHROW",
    "EPWA": "[Arrival ATIS] EPWA ARR ATIS D 0833Z EPWA ARR D. TIME 0833. EXP U ARR ILS Z APCH FOR RWY 33. RWY 33 RCC 5, 5, 5. 1ST PART, WET. 2ND PART, WET. 3RD PART, WET. RWY REPORT END. TRANSITION LEVEL 80. WIND 290 DEG, 10 KT, VRB BTN 220 AND 310 DEG. VIS TDZ 2700 M. WX MOD SHRA. CLD SCT 1000 FT, CLD BKN CB 2400 FT. T 17. DP 15. QNH 1007. NOSIG. CAUTION. BIRD ACT. END OF EPWA ARR D\n[Departure ATIS] EPWA DEP ATIS R 0957Z EPWA DEP R. TIME 0957. DEP RWY 29. ARR RWY 33, EXP U ARR ILS Z. REPORT READY FOR STARTUP ON DELIVERY 121. 605. RWY 29 RCC 5, 5, 5. 1ST PART, WET. 2ND PART, WET. 3RD PART, WET. RWY REPORT END. TRANSITION LEVEL 80. WIND 260 DEG, 14 KT. VIS MID 10 KM OR MORE. WX FBL SHRA. CLD SCT 1300 FT, CLD BKN CB 2200 FT. T 19. DP 17. QNH 1007. NOSIG. CAUTION. BIRD ACT. END OF EPWA DEP R",
    "EFHK": "[Arrival ATIS] EFHK ARR ATIS E 1020Z EXPECT ILS APCH ARR RWY 22L RUNWAY 22L CONDITION REPORT AT 0725 UTC RUNWAY CONDITION CODES 4 DOWNGRADED , 4 DOWNGRADED , 4 DOWNGRADED CONTAMINANTS ALL PARTS 100 PERCENT WET TRL 70 WIND 290 DEG 9 KT VIS 10KM FBL SHRA BKN 900 FT. FEW CB 3000 FT T 12 DP 11 QNH 994 TEMPO VIS 7KM MOD SHRA CLD BKN 1500 FT. FEW CB 3000 FT. ACK INFO E\n[Departure ATIS] EFHK DEP ATIS H 1620Z DEP RWYS 22R AND 22L RUNWAY 22R CONDITION REPORT AT 1329 UTC RUNWAY CONDITION CODES 6 , 6 , 6 CONTAMINANTS ALL PARTS DRY RUNWAY 22L CONDITION REPORT AT 1330 UTC RUNWAY CONDITION CODES 6 , 6 , 6 CONTAMINANTS ALL PARTS DRY WIND 110 DEG 6 KT VIS 10KM FEW 1400 FT. SCT 1600 FT. FEW TCU 2800 FT T 19 DP 15 QNH 1003 TEMPO CLD FEW CB 3000 FT. ACK INFO H",
    "LTAC": "[Arrival ATIS] LTAC ARR ATIS Y 1220Z EXP ILS V APCH 03C DEP RWY 03L RWY 03C WIND VRB 05 KT RWY 03L WIND VRB 04 KT TRL 110 VIS 9999 SCT04000 FT SCT10000 FT T 28 DP 09 QNH 1015 NOSIG FOR DELIVERY CTC 121.9. FOR DELIVERY FIRST USE DIGITAL DEP CLR. CTN BIRD HAZARD OVR AERODROME. APCH FREQUENCY 129.050. TAXIWAY ECHO 1 IS CLOSED. END OF ATIS Y",
    "UBBB": "[Arrival ATIS] UBBB ARR ATIS G 1111Z ATIS G EXP ILS/ LDG 34 35 DEP 34 35 IN USE RWY 34 CLEAR DRY 70 RWY 35 CLEAR DRY 70 TLVL 110 WIND WIND RWY 34 330 22 KT SPD MAX 28 MIN 18 WIND RWY 35 330 22 KT SPD MAX 28 MIN 16 VIS CAVOK T 27 / DP 20 QNH 1010 HPA TREND TREND NOSIG MODERATE BIRDS ACT IN VICINITY OF AP END OF ATIS G\n[Departure ATIS] UBBB DEP ATIS C 1058Z ATIS C EXP ILS/ LDG 34 35 DEP 34 35 IN USE RWY 34 CLEAR DRY 70 RWY 35 CLEAR DRY 70 TLVL 110 WIND WIND RWY 34 330 20 KT SPD MAX 28 MIN 14 WIND RWY 35 330 24 KT SPD MAX 30 MIN 18 VIS CAVOK T 27 / DP 19 QNH 1011 HPA TREND TREND NOSIG MODERATE BIRDS ACT IN VICINITY OF AP END OF ATIS C",
    "ZWWW": "[Arrival ATIS] ZWWW ARR ATIS I 1400Z EXP ILSDME Z APCH LDG RWY 26R TA 3000 WIND 320/2MPS CAVOK T 32 /DP 08 QNH 1009 HPA ADZ YOU HAVE INFO I.\n[Departure ATIS] ZWWW DEP ATIS C 1230Z DEP RWY 26L TA 3000 WIND 320/3MPS CAVOK T 34 /DP 07 QNH 1009 HPA ADZ YOU HAVE INFO C.",
    "ZLXY": "[Arrival ATIS] ZLXY ARR ATIS O 1300Z EXP ILS APCH LDG RWY 05L & 06R WIND 080/3MPS CAVOK T 28 /DP 17 QNH 1004 HPA VISUAL APPROACH IN PROGRESS ADZ YOU HAVE INFO O.\n[Departure ATIS] ZLXY DEP ATIS G 0600Z DEP RWY 05L & 06L WIND VRB/1MPS VIS 9999M CLD SCT 1500M T 29 /DP 19 QNH 1005 HPA VISUAL APPROACH IN PROGRESS ADZ YOU HAVE INFO G.",
    "ZBAA": "[Arrival ATIS] ZBAA ARR ATIS Z 1400Z EXP ILS APCH INDEPENDENT PARL INSTR APCH LDG RWY 36L & 01 WIND VRB DEG 1 MPS VIS 8000 -SHRA NSC T 21 /DP 21 QNH 1004 HPA RWY 36L RWYCC 5/5/5 ISSUED AT 0700 ALL PARTS WET NR 100PCT RWY 36R RWYCC 5/5/5 ISSUED AT 0700 ALL PARTS WET NR 100PCT RWY 01 RWYCC 5/5/5 ISSUED AT 0700 ALL PARTS WET NR 100PCT ADZ YOU HAVE INFO Z.\n[Departure ATIS] ZBAA DEP ATIS I 0930Z DEP RWY 36L & 36R & 01 WIND 130 DEG 4 MPS 080V160 DEG VIS 9999 -TSRA CLD BKN CB 990M T 23 /DP 21 QNH 999 HPA RWY INDEPENDENT PARALLEL DEP VISUAL APPROACH IS IN PROGRESS. RWY 36L RWYCC 5/5/5 ISSUED AT 0928 ALL PARTS WET NR 100PCT RWY 36R RWYCC 5/5/5 ISSUED AT 0928 ALL PARTS WET NR 100PCT RWY 01 RWYCC 5/5/5 ISSUED AT 0928 ALL PARTS WET NR 100PCT ADZ YOU HAVE INFO I.",
    "ZBHH": "[Arrival ATIS] ZBHH ARR ATIS A 1015Z EXP ILSDME APCH LDG RWY 08 SFC COND & BA NOTICE: RWYCC 08 5/5/5 ISSUED AT 0834Z ALL PARTS WET NR NR TA 3000 /TRL 3600 WIND VRB/2MPS MAX7 VIS 9999M -SHRA CLD FEW 1200M /FEW CB 1200M T 18 /DP 14 QNH 1008 HPA SUPPLEMENT INFO RETS BEFORE 1300 UTC, TURBULENCE MAY OCCUR IN LOCAL FIELD. ADZ YOU HAVE INFO A.\n[Departure ATIS] ZBHH DEP ATIS K 0600Z DEP RWY 26 TA 3000 /TRL 3600 WIND 240/4MPS VIS 9999M CLD SCT 900M /FEW TCU 900M T 23 /DP 16 QNH 1006 HPA BEFORE 1300 UTC, TURBULENCE MAY OCCUR IN LOCAL FIELD. ADZ YOU HAVE INFO K.",
    "ZSQD": "[Arrival ATIS] ZSQD ARR ATIS G 1100Z EXP ILSDME APCH LDG RWY 17 TA 3000 /TRL 3600 WIND 010/2MPS VRB BTN 330/ AND 040/ VIS 9999M -RA CLD SCT 330M /SCT 600M T 22 /DP 22 QNH 999 HPA SEGREGATED OPERATION VISUAL\n[Departure ATIS] ZSQD DEP ATIS W 0900Z DEP RWY 16 TA 3000 /TRL 3600 WIND 140/2MPS VRB BTN 100/ AND 170/ VIS 9999M CLD BKN 900M T 25 /DP 19 QNH 1002 HPA SEGREGATED OPERATION VISUAL APPROACH OPERATION IN PROGRESS. RUNWAY 17,IF MISSED APPROACH,EXPECT FOLLOW THE STANDARD MISSED APPROACH PROCEDURE,CLIMB TO 900M ON QNH OR BY ATC CAUTION MAYBE THERE IS A FLOCK OF BIRDS IN THE VICINITY OF AIRPORT ADZ YOU HAVE INFO W."
  },
  "windtemp_alaska": "\n000\nFBAK31 KWNO 070800\nFD1AK1\nDATA BASED ON 070600Z    \nVALID 071200Z   FOR USE 0800-1500Z. TEMPS NEG ABV 24000\n\nFT  3000    6000    9000   12000   18000   24000  30000  34000  39000\nADK 2620 2625+03 2630+01 2637-04 2553-16 2466-29 238543 248047 246147\nADQ 2813 2511+05 2711-01 2913-07 3124-19 3147-30 307043 307449 304048\nAKN 2307 9900+04 2205+00 2207-06 2613-18 2834-30 286743 288050 284049\nANC 3407 0212+05 0412-01 0407-07 1312-18 1422-31 133548 102651 990045\nANN 2211 1726+00 1927-03 2033-09 2054-22 1965-34 199443 196944 193543\nBET 9900 9900+03 1505-02 1508-08 1710-20 2415-32 253947 253248 252445\nBRW 1413 2008+07 2107+00 2010-06 1817-19 1818-31 202146 212253 191648\nBTI 1309 1608+09 2306+02 2309-04 1813-17 1719-30 162646 172554 181749\nBTT 9900 1405+08 1505+00 1606-07 1510-19 1723-30 162246 152054 161748\nCDB 1818 2118+05 2422+04 2427-01 2545-12 2558-24 256540 256849 266656\nCZF 9900 1706+02 1408-03 1510-08 1412-22 1812-33 231948 221647 221344\nEHM 1610 1315+02 1319-05 1619-07 2220-17 2327-30 267342 268550 264648\nFAI 0811 1011+09 1113+01 1111-06 1323-18 1530-29 162846 162556 151847\nFYU 1206 0706+09 0605+01 1109-06 1420-18 1617-29 181646 171755 151848\nGAL 0205 1406+06 1706-01 1705-07 1309-20 1311-32 131748 121652 151145\nGKN 0516 0724+06 0820+00 0917-05 0922-18 1229-29 114546 114654 111147\nHOM 3105 3407+05 3307-02 3309-07 3315-20 3310-32 331647 322347 311546\nJNU 1807 1716+00 1528-06 1431-12 1246-24 1368-34 136242 144642 163141\nLUR 1920 1821+06 1921+00 2018-06 1614-19 1412-30 141646 131553 141048\nMCG 0410 0609+05 0811-01 0712-07 0906-20 1308-32 131548 131050 180645\nMDO 3011 3307+05 9900-02 9900-07 0117-20 0519-32 093348 061347 011244\nOME 9900 1709+05 1611-02 1612-07 1312-21 1416-33 132150 131550 171044\nORT      0918+08 0927+00 0924-06 1223-17 1229-29 113745 122955 131947\nOTZ 1806 1910+05 1910-01 1909-07 1805-20 1606-33 141447 131952 151345\nSNP 1119 1612+03 1711-01 1912-07 2121-19 2236-32 226942 226045 233644\nTKA 0306 0617+06 0719-01 0613-08 1316-18 1525-30 134547 123354 150646\nUNK 9900 1108+05 1208-02 1312-07 1312-20 1212-33 132049 141651 171044\nYAK 9900 9900+00 1310-04 1317-09 1141-23 1158-34 107545 104745 111543\nIKO 2526 2432+05 2437+03 2443-01 2463-12 2473-24 248140 248648 248154\nAFM 9900 1908+06 1808-01 1711-07 1314-20 1418-32 162146 152153 161647\n5AB 3514 3413+02 3412-02 3210-05 3613-18 0323-31 053246 021649 251547\n5AC 2521 2422-02 2427-04 2330-08 2442-21 2447-34 244545 254142 253442\n5AD 3338 3337+01 3338-03 3341-09 3247-20 3259-33 810044 318946 315144\n5AE 2117 2016+05 2116+01 2521-02 2836-15 2859-25 298040 298149 296455\n5AF 1525 1525-02 1624-07 1623-14 1431-28 1433-39 191735 201237 211139\n5AG 0214 0214+00 0210-04 0508-11 3523-23 0236-36 052743 041640 021141\n",
  "vaac_tokyo": [
    {
      "id": "20260707_30027000_0244",
      "year": "2026",
      "volcano": "Sheveluch",
      "psn": "N5639 E16122",
      "issued": "20260707",
      "text": "FVFE01 RJTD 071200\nVA ADVISORY\nDTG: 20260707/1200Z\nVAAC: TOKYO\nVOLCANO: SHEVELUCH 300270\nPSN: N5639 E16122\nAREA: RUSSIA\nSOURCE ELEV: 3283M AMSL\nADVISORY NR: 2026/244\nINFO SOURCE: HIMAWARI-9\nERUPTION DETAILS: VA CONTINUOUSLY OBS IN SATELLITE IMAGERY\nOBS VA DTG: 07/1120Z\nOBS VA CLD: SFC/FL330 N5524 E16233 - N5634 E16347 - N5600 E16435 - \nN5456 E16312 MOV SE 10KT\nFCST VA CLD +6 HR: 07/1720Z SFC/FL330 N5549 E16649 - N5415 E16424 - \nN5419 E16311 - N5614 E16604\nFCST VA CLD +12 HR: 07/2320Z SFC/FL330 N5533 E16953 - N5350 E16529 - \nN5347 E16338 - N5606 E16819\nFCST VA CLD +18 HR: 08/0520Z SFC/FL330 N5608 E17148 - N5537 E17344 - \nN5255 E16310\nRMK: VA HEIGHT UPDATED TO FL330 BASED ON SATELLITE DATA.\nNXT ADVISORY: 20260707/1500Z=",
      "img_url": "https://ds.data.jma.go.jp/svd/vaac/data/VAGFN/2026/Images/20260707_30027000_0244_QH21_01.png",
      "sat_img_url": "https://ds.data.jma.go.jp/svd/vaac/data/Sat/2026/Images/30027000/09-ir/20260707_1120_202607071200_ir.png",
      "text_url": "https://ds.data.jma.go.jp/svd/vaac/data/TextData/2026/20260707_30027000_0244_Text.html"
    },
    {
      "id": "20260706_27202000_0232",
      "year": "2026",
      "volcano": "Kanlaon",
      "psn": "N1025 E12308",
      "issued": "20260706",
      "text": "FVFE01 RJTD 061545\nVA ADVISORY\nDTG: 20260706/1545Z\nVAAC: TOKYO\nVOLCANO: KANLAON 272020\nPSN: N1025 E12308\nAREA: PHILIPPINES\nSOURCE ELEV: 2435M AMSL\nADVISORY NR: 2026/232\nINFO SOURCE: HIMAWARI-9 PHIVOLCS\nERUPTION DETAILS: ERUPTION AT 20260706/1520Z FL100 EXTD SW REPORTED\nOBS VA DTG: 06/1530Z\nOBS VA CLD: VA NOT IDENTIFIABLE FM SATELLITE DATA WIND FL100 350/5KT\nFCST VA CLD +6 HR: NOT AVBL\nFCST VA CLD +12 HR: NOT AVBL\nFCST VA CLD +18 HR: NOT AVBL\nRMK: WE WILL ISSUE FURTHER ADVISORY IF VA IS DETECTED IN SATELLITE \nIMAGERY.\nNXT ADVISORY: NO FURTHER ADVISORIES=",
      "img_url": "https://ds.data.jma.go.jp/svd/vaac/data/VAGFN/2026/Images/20260706_27202000_0232_QH21_01.png",
      "sat_img_url": null,
      "text_url": "https://ds.data.jma.go.jp/svd/vaac/data/TextData/2026/20260706_27202000_0232_Text.html"
    },
    {
      "id": "20260705_27303000_0717",
      "year": "2026",
      "volcano": "Mayon",
      "psn": "N1315 E12341",
      "issued": "20260705",
      "text": "FVFE01 RJTD 051936\nVA ADVISORY\nDTG: 20260705/1936Z\nVAAC: TOKYO\nVOLCANO: MAYON 273030\nPSN: N1315 E12341\nAREA: PHILIPPINES\nSOURCE ELEV: 2462M AMSL\nADVISORY NR: 2026/717\nINFO SOURCE: HIMAWARI-9 PHIVOLCS\nERUPTION DETAILS: ERUPTION AT 20260705/1914Z FL090 EXTD WSW REPORTED\nOBS VA DTG: 05/1920Z\nOBS VA CLD: VA NOT IDENTIFIABLE FM SATELLITE DATA WIND FL090 050/8KT\nFCST VA CLD +6 HR: NOT AVBL\nFCST VA CLD +12 HR: NOT AVBL\nFCST VA CLD +18 HR: NOT AVBL\nRMK: WE WILL ISSUE FURTHER ADVISORY IF VA IS DETECTED IN SATELLITE \nIMAGERY.\nNXT ADVISORY: NO FURTHER ADVISORIES=",
      "img_url": "https://ds.data.jma.go.jp/svd/vaac/data/VAGFN/2026/Images/20260705_27303000_0717_QH21_01.png",
      "sat_img_url": null,
      "text_url": "https://ds.data.jma.go.jp/svd/vaac/data/TextData/2026/20260705_27303000_0717_Text.html"
    },
    {
      "id": "20260701_30006000_0001",
      "year": "2026",
      "volcano": "Mutnovsky",
      "psn": "N5227 E15812",
      "issued": "20260701",
      "text": "FVFE01 RJTD 012206\nVA ADVISORY\nDTG: 20260701/2206Z\nVAAC: TOKYO\nVOLCANO: MUTNOVSKY 300060\nPSN: N5227 E15812\nAREA: RUSSIA\nSOURCE ELEV: 2288M AMSL\nADVISORY NR: 2026/1\nINFO SOURCE: KVERT KBGS UHPP HIMAWARI-9\nERUPTION DETAILS: ERUPTION AT 20260701/2016Z FL170 EXTD W REPORTED\nOBS VA DTG: 01/2140Z\nOBS VA CLD: VA NOT IDENTIFIABLE FM SATELLITE DATA WIND FL170 120/8KT\nFCST VA CLD +6 HR: NOT AVBL\nFCST VA CLD +12 HR: NOT AVBL\nFCST VA CLD +18 HR: NOT AVBL\nRMK: WE WILL ISSUE FURTHER ADVISORY IF VA IS DETECTED IN SATELLITE \nIMAGERY.\nNXT ADVISORY: NO FURTHER ADVISORIES=",
      "img_url": "https://ds.data.jma.go.jp/svd/vaac/data/VAGFN/2026/Images/20260701_30006000_0001_QH21_01.png",
      "sat_img_url": null,
      "text_url": "https://ds.data.jma.go.jp/svd/vaac/data/TextData/2026/20260701_30006000_0001_Text.html"
    }
  ],
  "vaac_alaska": [
    {
      "text": "\n000\nFVAK21 PAWU 070300\nVAAAK1\nVA ADVISORY\n\nDTG: 20260707/0239Z\n\nVAAC: ANCHORAGE\n\nVOLCANO: SHEVELUCH 300270\n\nPSN: N5639 E16122\n\nAREA: KAMCHATKA PENINSULA\n\nSOURCE ELEV: 10771 FT AMSL\n\nADVISORY NR: 2026/180\n\nINFO SOURCE: HIMAWARI/GOES\n\nERUPTION DETAILS: VA NOT IDENTIFIABLE FM SATELLITE DATA.\n\nOBS VA DTG: 07/0239Z\n\nOBS VA CLD: VA NOT IDENTIFIABLE FM SATELLITE DATA.\n\nFCST VA CLD +6HR: NOT AVBL\n\nFCST VA CLD +12HR: NOT AVBL\n\nFCST VA CLD +18HR: NOT AVBL\n\nRMK: A NEW ADVISORY WILL BE ISSUED IF VA IS DETECTED IN SATELLITE IMAGERY....CC\n\nNXT ADVISORY: NO FURTHER ADVISORIES=\n\n",
      "issued": "2026-07-07T03:00:00+00:00",
      "volcano": "Sheveluch",
      "psn": "N5639 E16122"
    }
  ]
}