{
  "updated_utc": "2026-07-10T13:29Z",
  "metar": {
    "RJAA": "METAR RJAA 101130Z 17007KT 9999 FEW020 24/21 Q1016 NOSIG",
    "PANC": "METAR PANC 101153Z 17003KT 10SM BKN022 BKN110 12/11 A2996 RMK AO2 SLP146 70009 T01220111 10128 20111 51006",
    "PAFA": "METAR PAFA 101153Z 00000KT 6SM BR FEW010 BKN017 OVC033 14/13 A2995 RMK AO2 SLP145 60000 70032 T01440128 10156 20139 53003 $",
    "PAED": "METAR PAED 101155Z 18003KT 10SM BKN022 13/11 A2994 RMK AO2A SLP135 T01340106 10149 20115 52005 $",
    "KSEA": "METAR KSEA 101153Z 24003KT 10SM SCT060 13/12 A2996 RMK AO2 SLP151 T01330117 10189 20133 58003 $",
    "ZSPD": "METAR ZSPD 101130Z 12005MPS 090V150 9999 SCT013 28/27 Q1006 NOSIG",
    "ZSSS": "METAR ZSSS 101130Z 14006MPS CAVOK 30/24 Q1006 NOSIG",
    "RJFR": "METAR RJFR 101200Z 07011KT 9999 FEW015 BKN/// 26/24 Q1013",
    "VHHH": "METAR VHHH 101130Z 10006KT 080V140 9999 FEW025 31/23 Q1001 NOSIG",
    "RCTP": "METAR RCTP 101130Z 03017G28KT 9999 -SHRA FEW012 BKN016 BKN035 29/26 Q0999 NOSIG RMK A2951",
    "ZGSZ": "METAR ZGSZ 101200Z 16004MPS CAVOK 29/26 Q1001 NOSIG",
    "WSSS": "METAR WSSS 101130Z 16008KT 9999 FEW018 BKN300 29/24 Q1010 NOSIG",
    "WMKK": "METAR WMKK 101130Z 00000KT 9999 FEW030 30/25 Q1008 NOSIG",
    "WIDD": "METAR WIDD 101130Z 15005KT 9000 FEW014 28/26 Q1010 NOSIG",
    "VTBS": "METAR VTBS 101130Z 19008KT 9999 FEW020 BKN100 31/24 Q1006 NOSIG",
    "VTBU": "METAR VTBU 101130Z 18007KT 9999 FEW020 30/27 Q1007 NOSIG",
    "ROAH": "METAR ROAH 101130Z 09034G51KT 7000 -SHRA FEW014 BKN020 BKN040 29/26 Q0996",
    "VVDN": "METAR VVDN 101130Z 22006KT 9999 FEW020 BKN070 31/22 Q1002 NOSIG",
    "RCKH": "METAR RCKH 101130Z 35008KT 300V090 9999 FEW015 SCT033 BKN060 32/24 Q0995 NOSIG RMK A2939",
    "KLAX": "METAR KLAX 101153Z 16004KT 4SM BR FEW005 OVC008 18/17 A2986 RMK AO2 SLP111 T01830167 10189 20178 53005 $",
    "KONT": "METAR KONT 101153Z 18004KT 9SM CLR 18/16 A2987 RMK AO2 SLP099 T01830156 10222 20183 53007 $",
    "KSFO": "METAR KSFO 101156Z 22005KT 10SM FEW005 FEW014 13/11 A2988 RMK AO2 SLP116 T01330106 10139 20128 57007",
    "KOAK": "METAR KOAK 101153Z 21009KT 10SM FEW004 BKN010 13/11 A2988 RMK AO2 SLP118 T01330111 10144 20133 57006",
    "KMHR": "METAR KMHR 101135Z AUTO 19005KT 10SM CLR 16/11 A2979 RMK AO2 T01560112 $",
    "KDFW": "METAR KDFW 101153Z 19012KT 10SM CLR 27/20 A2996 RMK AO2 SLP134 T02670200 10311 20267 53012 $",
    "KIAH": "METAR KIAH 101153Z 00000KT 10SM FEW021 SCT110 SCT180 25/24 A3002 RMK AO2 SLP166 T02500244 10272 20244 53012",
    "KORD": "SPECI KORD 101141Z 03008KT 10SM SCT008 SCT120 BKN250 21/19 A2990 RMK AO2 T02110189 $",
    "KJFK": "METAR KJFK 101151Z 31008KT 10SM FEW250 26/21 A2980 RMK SLP091 70011 T02610211 10261 20222 51014 $",
    "KRFD": "METAR KRFD 101154Z 07003KT 6SM BR BKN110 OVC250 21/19 A2992 RMK AO2 SLP126 70008 T02060194 10222 20200 51008",
    "KIND": "METAR KIND 101154Z 24009G20KT 220V360 8SM OVC006 22/21 A2992 RMK AO2 SLP125 T02170211 10228 20211 50003 $",
    "KDTW": "METAR KDTW 101153Z 05004KT 9SM FEW025 BKN130 BKN240 22/20 A2990 RMK AO2 SLP119 70040 T02220200 10228 20217 51011",
    "KMSP": "METAR KMSP 101153Z 00000KT 10SM FEW250 22/18 A2993 RMK AO2 SLP130 T02170183 10222 20194 53008",
    "CYEG": "SPECI CYEG 101152Z 14007KT 20SM -SHRA FEW051 BKN080 BKN180 BKN250 14/12 A2976 RMK SC2ACC3AS2CI1 CI TR SLP080 DENSITY ALT 3000FT",
    "EHAM": "METAR EHAM 101225Z 05009KT 020V090 CAVOK 25/15 Q1019 NOSIG",
    "EBBR": "METAR EBBR 101150Z 07007KT 020V100 CAVOK 26/15 Q1018 NOSIG",
    "EDDF": "METAR EDDF 101150Z AUTO 03009KT 360V080 CAVOK 28/11 Q1016 NOSIG",
    "EDFH": "METAR EDFH 101150Z VRB06G17KT CAVOK 27/09 Q1018",
    "EDDL": "METAR EDDL 101150Z AUTO 05011KT 360V080 CAVOK 27/14 Q1017 NOSIG",
    "EDDK": "METAR EDDK 101150Z AUTO 02007KT 300V110 CAVOK 29/13 Q1017 NOSIG",
    "EBLG": "METAR EBLG 101150Z 04010KT 010V090 CAVOK 27/14 Q1018 NOSIG",
    "LSZH": "METAR LSZH 101150Z 08009KT CAVOK 30/14 Q1015 NOSIG",
    "LIMC": "METAR LIMC 101150Z 15007KT 100V200 CAVOK 33/12 Q1014 NOSIG",
    "LIRF": "METAR LIRF 101150Z 19012KT 160V220 CAVOK 32/17 Q1014 NOSIG",
    "EINN": "METAR EINN 101130Z 04007KT 9999 FEW028 BKN240 24/17 Q1018 NOSIG",
    "EGLL": "METAR EGLL 101150Z AUTO 10010KT 070V140 9999 NCD 29/15 Q1017",
    "EGSS": "METAR EGSS 101150Z AUTO 10008KT 360V140 9999 NCD 30/16 Q1018",
    "EPWA": "METAR EPWA 101130Z 30017KT 7000 -SHRA BKN026CB 17/13 Q1011 TEMPO 4000 SHRA",
    "UHPP": "METAR UHPP 101200Z 35002MPS CAVOK 16/12 Q1011 R34L/CLRD62 NOSIG RMK QFE755/1006",
    "EFHK": "METAR EFHK 101150Z 13007KT 090V160 9999 SCT041 20/12 Q1017 NOSIG",
    "LBBG": "METAR LBBG 101130Z 12011KT 9999 SCT043 25/13 Q1014 NOSIG",
    "LTAC": "METAR LTAC 101150Z 25010KT 190V280 9999 SCT040 28/08 Q1014 NOSIG RMK RWY21C 26010KT 230V300 RWY03L 25009KT 190V300 RWY21R 26010KT 220V320 RWY03R 24010G21KT 210V290 RWY21L 24009KT 140V300",
    "UBBB": "METAR UBBB 101130Z 17008KT CAVOK 31/20 Q1008 NOSIG",
    "UTAA": "METAR UTAA 101200Z 29006KT 250V340 9999 NSC 40/16 Q1007 R88/CLRD70 NOSIG",
    "UACC": "METAR UACC 101130Z 08006MPS CAVOK 32/08 Q1017 NOSIG RMK QFE731/0975",
    "UAAA": "METAR UAAA 101130Z 08002MPS 040V110 9999 FEW050 32/06 Q1011 NOSIG",
    "UZTT": "METAR UZTT 101130Z 35006KT 310V020 CAVOK 38/14 Q1004 NOSIG",
    "ZWWW": "METAR ZWWW 101130Z 32004MPS 300V360 CAVOK 32/08 Q1008 NOSIG",
    "ZLXY": "METAR ZLXY 101200Z 11006MPS 070V160 9999 FEW050CB SCT070 34/23 Q0998 NOSIG",
    "ZBAA": "METAR ZBAA 101130Z VRB02MPS 3000 TSRA FEW013 BKN033 FEW033CB 25/25 Q1003 NOSIG",
    "ZBHH": "METAR ZBHH 101200Z VRB01MPS 9999 FEW040 21/20 Q1006 NOSIG",
    "ZSQD": "METAR ZSQD 101200Z 15008MPS 9999 BKN008 26/26 Q1006 NOSIG",
    "ZMCK": "METAR ZMCK 101130Z 31007MPS 9999 TS SCT030CB SCT033 22/13 Q1003 NOSIG RMK QFE638.6 56 MOP",
    "UUEE": "METAR UUEE 101130Z 06007MPS CAVOK 26/17 Q1014 R06R/CLRD62 R06C/CLRD62 NOSIG",
    "UUDD": "METAR UUDD 101130Z 10006MPS 080V150 9999 FEW033 27/18 Q1014 R13R/CLRD65 NOSIG",
    "ULLI": "METAR ULLI 101130Z 11003MPS 090V150 CAVOK 23/12 Q1017 R88/090065 NOSIG",
    "USSS": "METAR USSS 101130Z 16005MPS 9999 VCTS SCT040CB 29/19 Q1016 R08L/CLRD60 R08R/CLRD60 TEMPO VRB22MPS -TSRAGR SQ RMK QFE741/0989",
    "UNNT": "METAR UNNT 101130Z VRB01MPS CAVOK 25/12 Q1015 R25/CLRD// R34/////// NOSIG RMK QFE751/1001",
    "UNKL": "METAR UNKL 101130Z 31002MPS CAVOK 19/09 Q1015 R29/CLRD// NOSIG RMK QFE736",
    "UIBB": "METAR UIBB 101130Z 24003MPS 180V270 9999 SCT040CB 15/08 Q1013 R30/CLRD62 NOSIG RMK QFE717/0956",
    "UEEE": "METAR UEEE 101130Z 34004MPS CAVOK 24/15 Q1001 R23/09//63 NOSIG RMK QFE742",
    "UHHH": "METAR UHHH 101130Z COR 14002MPS 060V200 9000 FEW033CB 25/24 Q1004 R23L/290045 NOSIG RMK QFE747/0996",
    "UHSS": "METAR UHSS 101130Z 21001MPS 3800 BR BKN004 18/18 Q1012 R01/CLRD70 NOSIG RMK MT OBSC QFE758/1010"
  },
  "taf": {
    "RJAA": "TAF RJAA 101105Z 1012/1118 17006KT 9999 FEW020",
    "PANC": "TAF PANC 101120Z 1012/1118 VRB03KT P6SM BKN022 OVC100 FM101400 VRB03KT P6SM BKN018 BKN080 FM101800 30006KT P6SM SCT022 SCT100 FM102100 28007KT P6SM FEW050 FEW250 FM110600 20006KT P6SM FEW015 SCT250 FM111600 16008G18KT P6SM BKN200",
    "PAFA": "TAF PAFA 101249Z 1013/1118 20003KT P6SM OVC035 FM102000 18003KT P6SM BKN050 FM110400 09004KT P6SM SCT070",
    "PAED": "TAF COR PAED 101300Z 1013/1119 17003KT 9999 BKN025 QNH2995INS BECMG 1020/1021 24005KT 9999 SCT040 QNH2992INS TX21/1017Z TN13/1015Z",
    "KSEA": "TAF KSEA 101135Z 1012/1118 22005KT P6SM BKN060 BKN250 FM101400 22005KT P6SM SCT009 BKN025 FM101800 23008KT P6SM SCT025 BKN040 FM110800 22005KT P6SM SCT025 BKN035",
    "ZSPD": "TAF ZSPD 100906Z 1012/1118 13004MPS 8000 BKN030 TX28/1012Z TX31/1106Z TN25/1021Z BECMG 1018/1019 07004MPS BECMG 1023/1024 08009G15MPS BECMG 1105/1106 09015G20MPS",
    "ZSSS": "TAF ZSSS 100906Z 1012/1118 13004MPS 8000 BKN030 TX30/1012Z TX32/1106Z TN26/1021Z BECMG 1019/1020 08004MPS BECMG 1103/1104 08009G14MPS",
    "RJFR": "TAF RJFR 101105Z 1012/1118 07012KT CAVOK BECMG 1014/1016 09016KT",
    "VHHH": "TAF VHHH 101100Z 1012/1118 18010KT 9999 FEW015 TX34/1106Z TN28/1022Z TEMPO 1016/1024 VRB05KT BECMG 1100/1102 28010KT TEMPO 1103/1108 4000 HZ",
    "RCTP": "TAF RCTP 101100Z 1012/1118 02020G30KT 6000 FEW010 BKN022 BKN040 TEMPO 1012/1018 4000 SHRA SCT010 BKN014 FEW015CB BECMG 1018/1020 34025G35KT 5000 RA SCT006 BKN011 TEMPO 1100/1106 30030G42KT 2800 +SHRA SCT004 BKN007 FEW010CB TEMPO 1106/1112 27030G45KT 2200 +SHRA SCT003 BKN006 FEW010CB BECMG 1112/1114 23025G35KT TEMPO 1112/1118 3000 SHRA SCT005 BKN008 FEW010CB",
    "ZGSZ": "TAF ZGSZ 100902Z 1012/1118 24004MPS 8000 FEW015 TX30/1012Z TX34/1106Z TN28/1022Z BECMG 1021/1023 30004MPS BECMG 1105/1106 21004MPS",
    "WSSS": "TAF WSSS 101100Z 1012/1118 17008KT 9999 FEW015 SCT020",
    "WMKK": "TAF WMKK 101100Z 1012/1118 VRB03KT 9999 FEW030",
    "VTBS": "TAF VTBS 101100Z 1012/1118 24008KT 9999 FEW020 TEMPO 1108/1112 VRB15G25KT 4000 TSRA FEW018CB SCT030 BKN100",
    "VTBU": "TAF VTBU 101100Z 1012/1112 21006KT 9999 FEW020",
    "ROAH": "TAF ROAH 101106Z 1012/1118 12035KT 6000 -SHRA FEW008 BKN012 TEMPO 1012/1015 10038G52KT 2000 +TSRA BR FEW005 BKN008 SCT015CB TEMPO 1015/1103 12045G60KT 2000 +SHRA BR FEW005 BKN008 SCT015CB TEMPO 1103/1109 14040G55KT 4000 SHRA BR FEW005 BKN008 FEW015CB TEMPO 1109/1115 15035G50KT",
    "VVDN": "TAF VVDN 101100Z 1012/1112 22008KT 9999 FEW017 SCT060",
    "RCKH": "TAF RCKH 101100Z 1012/1118 30015G30KT 9999 FEW015 BKN032 TEMPO 1018/1024 30022G35KT 4000 SHRA FEW010 FEW015CB BKN017 TEMPO 1100/1106 27025G40KT 3200 SHRA FEW010 FEW012CB BKN014 BECMG 1106/1108 25015KT TEMPO 1112/1118 22020G30KT 5000 SHRA FEW010 BKN020",
    "KLAX": "TAF KLAX 101120Z 1012/1118 21005KT 5SM BR SCT004 OVC008 FM101800 25008KT P6SM SKC FM102100 25012KT P6SM SKC FM110400 25006KT P6SM OVC008 FM111100 13005KT 4SM BR OVC006 FM111700 25006KT P6SM OVC010",
    "KONT": "TAF KONT 101124Z 1012/1118 VRB05KT P6SM SKC FM102000 26011G19KT P6SM SKC FM110500 VRB04KT P6SM SKC",
    "KSFO": "TAF KSFO 101126Z 1012/1118 26011KT P6SM FEW005 SCT010 TEMPO 1012/1016 FEW005 BKN010 FM101600 29018KT P6SM FEW010 FM110600 28011KT P6SM OVC010 FM111600 25008KT P6SM SCT010",
    "KOAK": "TAF KOAK 101120Z 1012/1118 24010KT P6SM FEW005 BKN010 FM101700 27015KT P6SM SKC FM110500 27011KT P6SM OVC010",
    "KMHR": "TAF KMHR 101121Z 1012/1112 17008KT P6SM SKC FM101800 20009G17KT P6SM SKC FM110400 19009KT P6SM SKC",
    "KDFW": "TAF KDFW 101120Z 1012/1118 18015KT P6SM SKC FM101600 18016G26KT P6SM FEW250 FM110200 17011KT P6SM FEW250",
    "KIAH": "TAF KIAH 101120Z 1012/1118 VRB04KT P6SM FEW020 SCT250 PROB30 1014/1017 17011G20KT 5SM -TSRA SCT035CB SCT050 FM101700 17008KT P6SM VCSH FEW025 FEW250 PROB30 1020/1024 17011G20KT 4SM TSRA SCT025CB BKN050 FM110100 16007KT P6SM SCT045 SCT250 PROB30 1110/1112 5SM -TSRA SCT045CB",
    "KORD": "TAF KORD 101120Z 1012/1118 04007KT P6SM SCT008 BKN120 TEMPO 1012/1016 BKN010 FM101800 04011KT P6SM SCT035 BKN250 FM110500 36005KT P6SM BKN250 FM111200 03007KT P6SM SCT300",
    "KJFK": "TAF KJFK 101128Z 1012/1118 30009KT P6SM BKN250 FM101800 25010KT P6SM SCT050 BKN150 PROB30 1021/1101 4SM TSRA BKN040CB FM110100 31006KT P6SM VCSH FEW050 BKN150 FM110600 01006KT P6SM FEW050 BKN200 FM111200 04008KT P6SM FEW050 BKN200",
    "KRFD": "TAF KRFD 101120Z 1012/1112 VRB03KT 4SM BR FEW015 BKN100 FM101300 06007KT P6SM SCT015 BKN120 TEMPO 1013/1016 BKN020 FM101800 03009KT P6SM SCT035 BKN250 FM110600 VRB03KT P6SM BKN250",
    "KIND": "TAF KIND 101241Z 1013/1118 21006KT P6SM BKN006 OVC250 FM101400 22007KT P6SM BKN015 FM101600 23008KT P6SM SCT030 BKN060 PROB30 1020/1102 4SM -TSRA BR OVC030CB FM110200 VRB04KT P6SM SCT060 BKN250",
    "KDTW": "TAF KDTW 101229Z 1012/1118 04006KT P6SM SCT020 BKN040 TEMPO 1013/1015 BKN020 FM101700 36007KT P6SM BKN060 PROB30 1017/1020 6SM -SHRA FM110100 05006KT P6SM BKN250",
    "KMSP": "TAF KMSP 101125Z 1012/1118 VRB03KT P6SM FEW250 FM101500 16005KT P6SM SCT100 FM102100 18008KT P6SM SCT080 FM110600 16005KT P6SM SCT100",
    "CYEG": "TAF AMD CYEG 101247Z 1012/1112 15005KT P6SM SCT040 BKN090 TEMPO 1012/1014 6SM TSRA BKN040 BKN080CB FM101400 15010KT P6SM SCT120 BKN180 TEMPO 1014/1018 P6SM -SHRA VCTS FEW050 BKN120CB FM101800 14008KT P6SM BKN060 TEMPO 1021/1102 P6SM -SHRA VCTS BKN040CB FM110200 13008KT P6SM SCT100 FM110700 08008KT P6SM BKN100 RMK NXT FCST BY 101500Z",
    "EHAM": "TAF EHAM 101108Z 1012/1118 07010KT CAVOK BECMG 1014/1017 04013KT BECMG 1020/1023 06008KT PROB30 1103/1106 BKN005 BECMG 1114/1117 04013KT",
    "EBBR": "TAF EBBR 101100Z 1012/1118 06008KT CAVOK",
    "EDDF": "TAF EDDF 101100Z 1012/1118 04007KT CAVOK TEMPO 1017/1021 03013KT",
    "EDFH": "TAF EDFH 101100Z 1012/1112 08007KT CAVOK",
    "EDDL": "TAF EDDL 101100Z 1012/1118 03010KT CAVOK BECMG 1020/1022 03004KT BECMG 1109/1111 04010KT",
    "EDDK": "TAF EDDK 101100Z 1012/1118 02007KT CAVOK BECMG 1022/1024 VRB03KT BECMG 1108/1111 05007KT",
    "EBLG": "TAF EBLG 101100Z 1012/1118 06008KT CAVOK",
    "LSZH": "TAF LSZH 101125Z 1012/1118 05009KT CAVOK TX33/1015Z TN16/1103Z TX34/1115Z BECMG 1019/1022 32004KT BECMG 1108/1111 05007KT",
    "LIMC": "TAF LIMC 101100Z 1012/1118 VRB05KT 9999 SCT030 TEMPO 1015/1020 20010KT 4000 SHRA TEMPO 1115/1118 4000 SHRA",
    "LIRF": "TAF LIRF 101100Z 1012/1118 22012KT CAVOK BECMG 1016/1018 VRB05KT BECMG 1106/1108 19011KT",
    "EINN": "TAF EINN 101100Z 1012/1112 01009KT 9999 FEW017 SCT030",
    "EGLL": "TAF EGLL 101053Z 1012/1118 10012KT CAVOK BECMG 1100/1103 03005KT PROB30 1103/1108 BKN009 BECMG 1109/1112 09010KT",
    "EGSS": "TAF EGSS 101101Z 1012/1118 10010KT CAVOK BECMG 1100/1103 04009KT PROB30 1103/1107 9000 BKN004",
    "EPWA": "TAF EPWA 101130Z 1012/1112 29011KT 9999 BKN040 TEMPO 1012/1021 30015G25KT -SHRA BKN030CB PROB40 TEMPO 1012/1019 2000 TSRA BKN014 BECMG 1022/1101 4000 BR BKN010 BECMG 1105/1107 9999 SCT030 TEMPO 1106/1112 30015G25KT SHRA BKN025CB PROB40 TEMPO 1110/1112 3000 TSRA",
    "UHPP": "TAF UHPP 101043Z 1012/1118 30003G12MPS 9999 NSC TX27/1103Z TN12/1017Z",
    "EFHK": "TAF EFHK 101135Z 1012/1112 12008KT 9999 SCT041 PROB40 TEMPO 1012/1015 FEW040TCU BECMG 1102/1104 02010KT TEMPO 1104/1112 SCT050CB PROB40 TEMPO 1107/1112 04015G25KT 6000 SHRA",
    "LBBG": "TAF LBBG 101100Z 1012/1112 13010KT 9999 SCT040 PROB40 TEMPO 1012/1016 5000 TSRA SCT030CB BKN050 BECMG 1018/1020 VRB04KT BECMG 1106/1108 19008KT",
    "LTAC": "TAF LTAC 101040Z 1012/1112 30012KT 9999 SCT040 BECMG 1017/1019 VRB02KT CAVOK BECMG 1104/1107 FEW040",
    "UBBB": "TAF UBBB 101049Z 1012/1112 13006KT CAVOK TX31/1012Z TN21/1101Z TEMPO 1012/1018 19012KT SCT017 BECMG 1018/1020 32005KT FEW050CB BECMG 1104/1106 34014KT SCT012",
    "UTAA": "TAF UTAA 101045Z 1012/1112 33018KT 6000 SCT050 TX41/1111Z TEMPO 1012/1018 29014G24KT 4000 DRDU BECMG 1018/1020 26014KT",
    "UACC": "TAF UACC 101104Z 1012/1112 07006MPS 9999 SCT040 BKN100 TX34/1109Z TN16/1023Z BECMG 1016/1018 VRB01MPS BECMG 1104/1105 01005MPS TEMPO 1105/1112 05008MPS SCT030CB",
    "UAAA": "TAF UAAA 101102Z 1012/1112 03003MPS 9999 FEW050 SCT100 TX34/1110Z TN18/1101Z BECMG 1016/1017 16003MPS BECMG 1102/1103 34002G07MPS TEMPO 1102/1112 03005MPS",
    "UZTT": "TAF UZTT 101100Z 1012/1112 07010KT 7000 NSC TX39/1110Z TN25/1100Z TEMPO 1012/1016 32015KT",
    "ZWWW": "TAF ZWWW 100904Z 1012/1118 34004G09MPS CAVOK TX36/1109Z TN25/1023Z TN27/1118Z BECMG 1014/1015 20004MPS BECMG 1102/1103 36004MPS BECMG 1114/1115 18004MPS",
    "ZLXY": "TAF AMD ZLXY 101029Z 1006/1106 06004MPS 6000 NSC TX38/1007Z TN27/1021Z BECMG 1010/1011 12012G17MPS TSRA FEW040CB OVC050 BECMG 1012/1013 06004MPS NSW NSC",
    "ZBAA": "TAF ZBAA 100900Z 1012/1118 16004MPS 5000 BR BKN040 TX29/1107Z TN24/1021Z TN25/1118Z TEMPO 1012/1018 TSRA SCT040CB BKN040 TEMPO 1112/1118 TSRA SCT040CB BKN040",
    "ZBHH": "TAF ZBHH 100908Z 1012/1112 06004MPS 9999 SCT030 TX24/1108Z TN18/1022Z BECMG 1014/1015 1400 BR TEMPO 1020/1024 0500 FG",
    "ZSQD": "TAF ZSQD 100902Z 1012/1112 16006MPS 5000 BR NSC TX31/1106Z TN25/1020Z BECMG 1019/1020 BKN010 BECMG 1022/1023 NSC",
    "ZMCK": "TAF ZMCK 101043Z 1012/1118 11005MPS 9999 FEW030CB BKN033 TN13/1021Z TX17/1107Z TEMPO 1012/1019 VRB10G15MPS 5000 TSRA SCT027CB BKN030 BECMG 1018/1020 8000 RA FEW020 FEW027CB BKN030 BECMG 1101/1103 31007MPS TEMPO 1104/1112 VRB09G14MPS 6000 TSRA FEW017 SCT027CB BKN030",
    "UUEE": "TAF UUEE 101056Z 1012/1112 08005MPS 9999 BKN020 TX27/1012Z TN19/1102Z TEMPO 1012/1019 15013G22MPS 2100 -TSRAGR SQ BKN016CB PROB40 TEMPO 1019/1108 -TSRA BKN016CB TEMPO 1108/1112 15010G18MPS -TSRA SQ BKN016CB",
    "UUDD": "TAF UUDD 101057Z 1012/1118 11005MPS 9999 BKN020 TX28/1012Z TN19/1101Z TEMPO 1012/1019 VRB19MPS 2100 -TSRA SQ BKN016CB BECMG 1107/1109 27005MPS TEMPO 1109/1118 VRB18MPS -TSRA SQ BKN016CB",
    "ULLI": "TAF ULLI 101051Z 1012/1112 12003G08MPS 8000 BKN017 BECMG 1018/1020 05005G10MPS TEMPO 1018/1024 4000 -SHRA BKN017CB PROB40 TEMPO 1018/1024 3100 -TSRA BKN017CB TEMPO 1100/1104 10003MPS 1000 BR BKN005",
    "USSS": "TAF AMD USSS 101111Z 1012/1112 15003G14MPS 8000 -SHRA BKN016CB TEMPO 1012/1017 VRB18MPS -TSRAGR SQ FM101700 24003G12MPS 6000 SCT016CB TEMPO 1017/1104 -TSRA FM110400 18003G14MPS 9999 BKN016CB TEMPO 1105/1109 VRB18MPS -TSRAGR SQ",
    "UNNT": "TAF UNNT 101100Z 1012/1112 20003G08MPS 9999 BKN040 TX24/1012Z TN15/1023Z TEMPO 1012/1017 26005G12MPS -TSRA BKN020CB FM101700 26003G08MPS 8000 BKN020CB TEMPO 1017/1106 -TSRA BKN010 BKN020CB BECMG 1100/1103 36006G13MPS",
    "UNKL": "TAF UNKL 101049Z 1012/1112 23003G08MPS 8000 SCT040 TEMPO 1012/1015 32005MPS",
    "UIBB": "TAF UIBB 101100Z 1012/1112 28003G08MPS 9999 FEW001 BKN016CB TEMPO 1012/1015 VRB08MPS",
    "UEEE": "TAF UEEE 101100Z 1012/1118 33005G10MPS 9999 SCT020CB OVC100 TEMPO 1012/1018 VRB17MPS 2400 -TSRAGR SQ",
    "UHHH": "TAF UHHH 101051Z 1012/1118 16003MPS 5000 -SHRA BR FEW010 SCT022CB TX30/1104Z TN21/1018Z TEMPO 1012/1022 1000 TSRA BR SCT003 BKN016CB FM110000 20003MPS 9999 SCT025CB TEMPO 1105/1112 3000 -TSRA FEW010 BKN018CB",
    "UHSS": "TAF UHSS 101050Z 1012/1118 18003MPS 0600 FG VV002 BECMG 1021/1022 9999 NSW BKN004 BKN016CB BECMG 1100/1101 BKN025CB"
  },
  "atis": {
    "RJAA": "[Arrival ATIS] RJAA ARR ATIS F 1450Z S1443 (APCH)ILS Y RWY16R USING RWY 16R DEP FREQ 124.2. TWY A1 CLSD. RWY 16L/34R CLSD TIL 2030. RWY 16R/34L WILL BE CLSD FM 1510 EXC ACFT WITH PRIOR PERMISSION. S 201443Z AUTO 14009KT 3500M -RA BR FEW003// SCT008// BKN017// 21/20 Q1009/A2980= Q/TWO NINE EIGHT ZERO STP\n[Departure ATIS] RJAA DEP ATIS S 1315Z M1300 (APCH)ILS Y RWY16R/ILS Y RWY16L USING RWY 16R/16L DEP FREQ 124.2. TWY A1 CLSD. PARL APCHS INPR. RWY 16L/34R WILL BE CLSD FM 1410. M 201300Z 15010KT 7KM -RA BKN006ST 21/21 Q1010/A2984= Q/TWO NINE EIGHT FOUR STP",
    "PANC": "[Arrival ATIS] PANC ARR ATIS Q 1453Z - PANC ATIS INFO Q 1453Z. 32004KT 10SM FEW070 FEW130 FEW200 11/09 A3020 (THREE ZERO TWO ZERO) RMK AO2 SLP228 T01110089 51000. 7R APPROACHES IN USE. LANDING RWY 7R, DEPARTING RWY 33. NOTICE TO AIRMEN. RWY 7L CLSD. CHECK NOTAMS FOR TAXIWAY CLOSURES. NO VFR CLASS C TRANSITIONS DUE TO STAFFING. CONTACT TOWER 118.3 FOR TAXI. ...ADVS YOU HAVE INFO Q.\n[Departure ATIS] PANC DEP ATIS X 0953Z ANC ATIS INFO X 0953Z. 12016G27KT 10SM SCT060 BKN085 OVC100 14/07 A2973 (TWO NINER SEVEN THREE). ILS RWY 15 APPROACHES IN USE. LANDING RWY 15, DEPARTING RWY 25L. NOTICE TO",
    "KSEA": "[Arrival ATIS] KSEA ARR ATIS I 1253Z SEA ATIS INFO I 1253Z. 18004KT 10SM SCT060 13/12 A2997 (TWO NINER NINER SEVEN). ILS AND CHARTED VISUAL APPROACH RWYS 16R AND 16L , APCH IN USE. DEPG RWY 16L. SIMUL APCHS IN USE, BFI & SEA. TRAFFIC BELOW YOU ON FINAL. SIMUL APCHS IN USE TO PARA RYS. NOTAMS... BIRD ACTIVITY VICINITY ARPT. ...ADVS YOU HAVE INFO I.\n[Departure ATIS] KSEA DEP ATIS A 0553Z SEA ATIS INFO A 0553Z. 26005KT 10SM FEW055 19/11 A2999 (TWO NINER NINER NINER). ILS AND CHARTED VISUAL APPROACH RWYS 34L AND 34R , APCH IN USE. DEPG RWY 34R, DEPG ACFT PLAN AND BRIEF NUMBERS FOR BOTH RWYS 34R AND 34C. SIMUL ARRIVALS TO RWY 34L AND DEPARTURES TO RWY 34R ARE IN USE. SIMUL APCHS IN USE TO PARA RYS. NOTAMS... BIRD ACTIVITY VICINITY ARPT. APCH AND DEP PATHS ARE OVER NOISE SENSITIVE AREAS. ...ADVS YOU HAVE INFO A.",
    "ZSPD": "[Arrival ATIS] ZSPD ARR ATIS Q 1300Z EXP ILS APCH LDG RWY 17R & 16L WIND RWY 17R TDZ 120/6MPS MID 120/5MPS END 110/6MPS RWY 16L TDZ 130/5MPS MID 130/6MPS END 120/5MPS VIS RWY 17R TDZ 10000M MID 8000M END 10000M VIS RWY 16L TDZ 10000M MID 10000M END 10000M CLD SCT 300M T 28 /DP 28 QNH 1007 HPA CAUTION THE BIRDS NEAR THE RUNWAY ADZ YOU HAVE INFO Q.\n[Departure ATIS] ZSPD DEP ATIS S 1450Z DEP RWY 16R WIND RWY 16R TDZ 120/3MPS MID 110/3MPS END 090/3MPS VIS RWY 16R TDZ 9000M MID 7000M END 8000M CLD BKN 180M T 24 /DP 24 QNH 1008 HPA DELIVERY FREQ 121.8 CAUTION THE BIRDS NEAR THE RUNWAY ADZ YOU HAVE INFO S.",
    "ZSSS": "[Arrival ATIS] ZSSS ARR ATIS F 0700Z EXP ILS APCH LDG RWY 18L WIND RWY 18L TDZ 160/6MPS MID 170/7MPS END 140/6MPS VIS RWY 18L TDZ 10000M MID 10000M END 10000M CLD SCT 1200M T 34 /DP 24 QNH 1005 HPA QNH OF SHA\n[Departure ATIS] ZSSS DEP ATIS P 1245Z DEP RWY 18R WIND RWY 18R TDZ 180/2MPS MID 170/2MPS END 150/2MPS VIS RWY 18R TDZ 10000M MID 10000M END 10000M CLD FEW 990M T 27 /DP 24 QNH 1007 HPA QNH OF SHANGHAI TERMINAL CONTROL AREA 1008 HPA ADZ YOU HAVE INFO P.",
    "VHHH": "[Arrival ATIS] VHHH ARR ATIS E 1304Z ARRIVALS, RWY 07L. EXP ILS APCH, RWY 07L. RWY 07C CLSD. WIND VRB05KT. VIS 10KM. CLD FEW 2500FT. T30 DP25. QNH 1002HPA. ACK INFO E ON FIRST CTC WITH APP.\n[Departure ATIS] VHHH DEP ATIS T 1235Z DEPARTURES, RWY 07R. RWY 07C CLSD. WIND 150/07KT. VIS 10KM. CLD FEW 2500FT. T30 DP25. QNH 1001HPA. ACK INFO T ON FIRST CTC WITH DELIVERY .",
    "RCTP": "[Arrival ATIS] RCTP ARR ATIS W 1300Z EXP ILS APCH RWY SFC RWY 05R SFC COND 5/5/5 ISSUED AT 1050Z. 50/75/50 NR/NR/NR WET/WET/WET RWY05L AND RWY05R ARR/DEP. WIND 030/17KT VIS 10 KM OR MORE -SHRA CLD SCT 1200FT BKN 1500FT T 29 DP 26 QNH 0999HPA WS R05R NOSIG LOW LVL WS ADVISORY IN EFFECT. INFORM TAIPEI APCH OR TAIPEI TOWER ON INITIAL CONTACT YOU HAVE INFORMATION W\n[Departure ATIS] RCTP DEP ATIS L 0200Z EXP ILS APCH RWY SFC RWY 05L SFC COND 5/5/5 ISSUED AT 0145Z. 100/100/100 NR/NR/NR WET/WET/WET RWY 05R SFC COND 5/5/5 ISSUED AT 0145Z. 100/100/100 NR/NR/NR WET/WET/WET RW",
    "ZGSZ": "[Arrival ATIS] ZGSZ ARR ATIS V 1500Z EXP ILS APCH 15 EXP ILS OR VIS APCH 16R WIND 160/5MPS VIS 9999M CLD FEW 780M T 29 /DP 26 QNH 1010 HPA INDEPENDENT PARALLEL APPROACHES INDEPENDENT PARALLEL DEPARTURES V17,V18 AVAILABLE AFTER SULAS FLY HEADING 040 MISSED APPROACH ALTITUDE SETTING 1200METERS WHEN AIRBORNE CONTACT ZHUHAI APPROACH EXPECTED RNP ILS DME Z APPROACH ADZ YOU HAVE INFO V.\n[Departure ATIS] ZGSZ DEP ATIS C 1300Z DEP RWY 15 & 16L WIND 180/4MPS CAVOK T 29 /DP 26 QNH 1002 HPA INDEPENDENT PARALLEL DEPARTURES INDEPENDENT PARALLEL APPROACHES MISSED APPROACH ALTITUDE SETTING 1200METERS",
    "WSSS": "[Arrival ATIS] WSSS ARR ATIS U 2230Z METREPORT 2230Z ILS APCHRWY 20R TWY W 9 CLOSED, RWY 02C 20C RAPID EXIT TAXIWAY INDICATOR LIGHTS OFFFOLLOW THE GREENS TRIAL IN PROGRESS. WHEN VACATING THE RWY, PILOTS TO ADHERE TO ATC VERBAL INSTRUCTIONS. WHEN ON TWY, PILOT TO ADHERE TO FOLLOW THE GREENS INSTRUCTIONS. WHEN APPROACHING [A] JUNCTION, KEEP [A] LOOKOUT FOR CONTINUOUS GREENS. [IF] [A] BREAK IN THE GREENS IS OBSERVED, STOP AND CLARIFY WITH ATC. WIND 140/ 05KT VRB BTN110 AND200 VIS 10KM CLD FEW 1600FT T27 DP25 QNH 1011HPA NOSIG ACK ATIS U\n[Departure ATIS] WSSS DEP ATIS H 1400Z METREPORT 1400Z RWY 20C TWY W 9 CLOSED, RWY 02C 20C RAPID EXIT TAXIWAY INDICATOR LIGHTS OFFFOLLOW THE GREENS TRIAL IN PROGRESS. WHEN VACATING THE RWY, PILOTS TO ADHERE TO ATC VERBAL INSTRUCTIONS. WHEN ON TWY, PILOT TO ADHERE TO FOLLOW THE GREENS INSTRUCTIONS. WHEN APPROACHING [A] JUNCTION, KEEP [A] LOOKOUT FOR CONTINUOUS GREENS. [IF] [A] BREAK IN THE GREENS IS OBSERVED, STOP AND CLARIFY WITH ATC. WIND 130/ 03KT VIS 10KM CLD FEW 1800FT FEW CB 2000FT T29 DP25 QNH 1012HPA NOSIG DEP,INITIAL CMB 3000FT ACK ATIS H",
    "WMKK": "[Arrival ATIS] WMKK ARR ATIS C 1403Z WMKK ARR INFO C. TIME 1400. INDEPENDENT PARALLEL APPROACHES FOR RWY 14 L AND 15 ARE IN PROGRESS. EXP RNAV / ILS APCH FOR RWY 14 LEFT. EXP RNAV / ILS APCH FOR RWY 15. WIND RWY 14L DIRECTION NOT AVBL SPEED NOT AVBL. WIND RWY 15 DIRECTION NOT AVBL SPEED NOT AVBL. VIS RWY 14L TDZ NOT AVBL. VIS RWY 15 TDZ NOT AVBL. CLD FEW 3000 FT. T 27. DP 25. QNH 1011. NOSIG. AT FIRST CONTACT WITH LUMPUR RADAR, NOTIFY RCPT OF C\n[Departure ATIS] WMKK DEP ATIS Y 1504Z WMKK DEP INFO Y. TIME 1500. INDEPENDENT PARALLEL DEPARTURES FOR RWY 14 R AND 15 ARE IN PROGRESS. RWY 14 RIGHT. RWY 15. WIND RWY 14R DIRECTION NOT AVBL SPEED NOT AVBL. WIND RWY 15 DIRECTION NOT AVBL SPEED NOT AVBL. VIS RWY 14R TDZ NOT AVBL. VIS RWY 15 TDZ NOT AVBL. CLD FEW 3000 FT. T 28. DP 25. QNH 1012. NOSIG. ALL DEP ACFT TO CONTACT LUMPUR DEP AT 135 DECIMAL 25 MHZ WHEN ABN. AT FIRST CONTACT WITH LUMPUR GROUND, NOTIFY RCPT OF Y",
    "VTBS": "[Arrival ATIS] VTBS ARR ATIS E 1500Z VTBS ARR ATIS E 1500Z EXP ILS Z APCH ARR RWY 19 OR RNP APCH RWY 20R ,RETIL RWY 19 U/S ,PILOT SHALL ADZ BKK APCH ON INITIAL CTC IF UNA TO CONDUCT RNP APCH DUE TO OPERATIONAL CONSTRAINT 1500Z WIND 200/7KT VIS 10KM CLD FEW 2000FT T30 DP25 QNH 1010HPA TREND NOSIG ADZ BKK APCH ON INITIAL CONTACT THAT YOU HAVE INFO E\n[Departure ATIS] VTBS DEP ATIS L 1430Z VTBS DEP ATIS L 1431Z DEP RWY 20L ,AFT AIRBORNE ALL DEPARTING ACFT SHALL CTC 119.25 1430Z WIND 190/6KT VIS 10KM CLD FEW 2000FT T30 DP25 QNH 1010HPA TREND NOSIG ADZ GND WHEN INITIAL CONTACT YOU HAVE INFO L",
    "VTBU": "[Arrival ATIS] VTBU ARR ATIS U 0430Z VTBU ARR ATIS U 0430Z RNP RWY 18 TRL FL130 MOBILE ACFT ARST SYSTEM INSTL ATP SIX HUNDRED AND TEN METERS FM THR RWY 36 CABLE HGT 3 INCHES. 0430Z WIND 360/6KT VRB BTN 320/ AND 020/ VIS 10KM CLD FEW 2000FT T34 DP27 QNH 1010HPA TREND NOSIG ADZ CONTROLLER WHEN INITIAL CONTACT YOU HAVE INFO U\n[Departure ATIS] VTBU DEP ATIS D VTBU ARR/DEP DATIS RPT VTBU ARR ATIS D 0330Z ILS \"Z\" APCH RWY 18 TRL FL130 0330Z WIND 110/4KT VRB BTN 350/ AND 120/ VIS 6KM CLD FEW 2000FT T31 DP27 QNH 1014HPA TREND NOSIG ADZ CONTROLLER WHEN INITIAL CONTACT YOU HAVE INFO D",
    "ROAH": "[Arrival ATIS] ROAH ARR ATIS A 0502Z MS0500 (APCH)ILS Z RWY36L LDG RWY 36L DEP RWY 36R DEP FREQ 119.1 335.8 MS 100500Z 09025G38/16KT 10KM SHRA FEW017CU BKN026CU BKN090AS 28/26 Q0999/A2951= Q/TWO NINE\n[Departure ATIS] ROAH DEP ATIS F 1204Z M1200 (APCH)RNP RWY18R LDG RWY 18R DEP RWY 18L DEP FREQ 119.175 316.0 M 201200Z 18011KT 40KM FEW006ST 27/26 Q1012/A2989= Q/TWO NINE EIGHT NINE STP",
    "VVDN": "[Arrival ATIS] VVDN ARR ATIS K 1432Z VVDN INFO K 1432Z. ILS VICTOR APPROACH 35L.. DPTG RWY 35R.. 1432Z. WIND 340/01KT CAVOK T30 DP24 QNH 1009HPA TREND NOSIG. ADZ ON INITIAL CTC YOU HAVE INFO. K.\n[Departure ATIS] VVDN DEP ATIS R 0503Z VVDN INFO R 0503Z. ILS VICTOR APPROACH 35L.. DPTG RWY 35R.. 0502Z. WIND 090/05KT VRB BTN 070/ AND 140/ CAVOK T37 DP23 QNH 1007HPA TREND NOSIG. ADZ ON INITIAL CTC YOU HAVE INFO. R.",
    "RCKH": "[Arrival ATIS] RCKH ARR ATIS L 0730Z EXPECT ILS APPROACH RWY 27 ARR/DEP TAXIWAY JULIETT, TAXIWAY BRAVO, TAXIWAY DELTA AND TAXIWAY ECHO CLOSED DUE MAINTENANCE.RUNWAY 2 7 ARRIVALS PLAN VACATE VIA CHARLIE OR A\n[Departure ATIS] RCKH DEP ATIS J 0630Z EXPECT ILS APPROACH RWY 27 ARR/DEP TAXIWAY JULIETT, TAXIWAY BRAVO, TAXIWAY DELTA AND TAXIWAY ECHO CLOSED DUE MAINTENANCE.RUNWAY 2 7 ARRIVALS PLAN VACATE VIA CHARLIE OR A",
    "KLAX": "[Arrival ATIS] KLAX ARR ATIS S 2253Z LAX ATIS INFO S 2253Z. 26016KT 10SM CLR 23/14 A2990 (TWO NINER NINER ZERO) RMK AO2 SLP124 T02280144. INST APCHS AND RNAV RNP APCHS RY 24R AND 25L, OR VCTR FOR VISUAL APCH WILL BE PROVIDED, SIMUL VISUAL APCHS TO ALL RWYS ARE IN PROG, SIMUL INSTR DEPARTURES IN PROG RWYS 24 AND 25. CTC L A GC ON 121.75 FOR PUSH OR TAXI ON A. TWY B CLSD BTN TWY, C10 AND TWY C7 , , TWY B6 CLSD, TWY B7 CLSD, TWY C CLSD BTN TWY, C1 AND TWY C3, TWY C1 CLSD, TWY C9 CLSD BTN TWY, B AND TWY C, TWY C8 CLSD BTN TWY, B AND TWY C. RY 25R SFL OTS, RY 24L ALSF-2 OTS. LAX VOR UNMONITORED. USE CAUTION FOR INCREASED DRONE ACTIVIY IN THE VICINITY OF SOFI STADIUM AT OR BELOW 200FT AGL DURING THE WORLD CUP FROM JUNE TWELFTH TWENTY TWENTY SIX THROUGH JULY TENTH TWENTY TWENTY SIX. HAZD WX INFO FOR LAX AREA AVBL FM FSS. BIRD ACTIVITY VICINITY ARPT. INCLUDE YOUR CALL SIGN IN ALL READBACKS. USE CAUTION WHEN EXITING RY24R AT TWY V, W, AND Y, TO HOLD SHORT OF RY24L. MULTIPLE RUNWAY INCURSIONS HAVE OCCURRED. ...ADVS YOU HAVE INFO S.\n[Departure ATIS] KLAX DEP ATIS T 2053Z - KLAX ATIS INFO T 2053Z. 26008KT 9SM FEW009 SCT016 23/17 A2989 (TWO NINER EIGHT NINER) RMK AO2 SLP120 T02330167 58006. INST APCHS AND RNAV RNP APCHS RY 24R AND 25L, OR VCTR FOR VISUAL APCH WILL BE PROVIDED, SIMUL INSTR DEPARTURES IN PROG RWYS 24 AND 25. CTC L A GC ON 121.75 FOR PUSH OR TAXI ON A. TWY B CLSD BTN TWY, C10 AND TWY C7 , , TWY B6 CLSD, TWY B7 CLSD, TWY C CLSD BTN TWY, C1 AND TWY C3, TWY C1 CLSD, TWY C9 CLSD BTN TWY, B AND TWY C, TWY C8 CLSD BTN TWY, B AND TWY C. RY 25R SFL OTS, RY 24L ALSF-2 OTS. LAX VOR UNMONITORED. USE CAUTION FOR INCREASED DRONE ACTIVIY IN THE VICINITY OF SOFI STADIUM AT OR BELOW 200FT AGL DURING THE WORLD CUP FROM JUNE TWELFTH TWENTY TWENTY SIX THROUGH JULY TENTH TWENTY TWENTY SIX. HAZD WX INFO FOR LAX AREA AVBL FM FSS. BIRD ACTIVITY VICINITY ARPT. INCLUDE YOUR CALL SIGN IN ALL READBACKS. USE CAUTION WHEN EXITING RY24R AT TWY V, W, AND Y, TO HOLD SHORT OF RY24L. MULTIPLE RUNWAY INCURSIONS HAVE OCCURRED. ...ADVS YOU HAVE INFO T.",
    "KONT": "[Arrival ATIS] KONT ARR ATIS W 0253Z ONT ATIS INFO W 0253Z. 24009KT 10SM CLR 26/15 A2983 (TWO NINER EIGHT THREE). ILS AND VIS APR IN USE, RY 26R. LNDG AND DEPG RY 26R. NOTAMS... RY 26L, 8R CLSD. TAXIWAY SIERRA\n[Departure ATIS] KONT DEP ATIS N 0553Z - KONT ATIS INFO N 0553Z. 24004KT 10SM BKN250 22/15 A2988 (TWO NINER EIGHT EIGHT) RMK AO2 SLP100. ILS AND VIS APR IN USE, RY26L & RY26R. LNDG AND DEPG RY 26L AND RY 26R. NOTAMS... TAXIWAY SIERRA CLSD BETWEEN SIERRA 8 AND W TAXIWAY Q SOUTH OF RWY 26L CLSD TAXIWAY T CLSD TAXIWAY SIERRA 5 CLSD. RY 26L IM OTS, RY 26R ALS OTS. USE CAUTION FOR NUMEROUS BIRDS OBSERVED IN VICINITY OF ONT. HAZD WX INFO FOR SOUTHERN CA AVBL ON FSS FREQUENCIES. PILOTS READBACK RWY ASSIGNMENTS AND HOLD SHORT INSTRUCTIONS. ...ADVS YOU HAVE INFO N.",
    "KSFO": "[Arrival ATIS] KSFO ARR ATIS M 1156Z SFO ATIS INFO M 1156Z. 21005KT 10SM FEW005 FEW014 13/11 A2988 (TWO NINER EIGHT EIGHT) RMK AO2 SLP116 T01330106 10139 20128 57007. ILS RY 28R APP IN USE. DEPG RWYS 28R. RY 1L, 1R CLSD. NUMEROUS TWY CLOSURES FOR CONSTRUCTION ON THE FIELD, PILOTS CHECK NOTAMS. DEPG ACFT WAITING ON FINAL NUMBERS ADVISE GROUND PRIOR TO ENTERING TWY F. ...ADVS YOU HAVE INFO M.\n[Departure ATIS] KSFO DEP ATIS J 1356Z SFO ATIS INFO J 1356Z. 24006KT 10SM FEW004 OVC006 13/11 A3000 (THREE ZERO ZERO ZERO) RMK AO2 SLP158 T01280111. SIMUL CLSLY SPCD DPNDNT ILS RY 28R AND ILS RY 28L APP IN USE. DEPG RWYS 28L, 28R. DEPG ACFT SHOULD BE PREPARED FOR A SHORT NOTICE RY CHANGE. RY 1L, 1R CLSD. NUMEROUS TWY CLOSURES FOR CONSTRUCTION ON THE FIELD, PILOTS CHECK NOTAMS. DEPG ACFT WAITING ON FINAL NUMBERS ADVISE GROUND PRIOR TO ENTERING TWY F. ...ADVS YOU HAVE INFO J.",
    "KOAK": "[Arrival ATIS] KOAK ARR ATIS C 0408Z - KOAK ATIS INFO C 0408Z SPECIAL. 25012KT 10SM FEW006 BKN011 14/12 A2990 (TWO NINER NINER ZERO). RNAV, RWY 30. ILS, RWY 28R. FLOW TO LAX, LAS, SAN, SEA. ILS RWY 30, OTS, RWY 28R RAIL, OTS. UNN LIT CLOSE-IN OBSTACLES FOR RWY 30 DEPARTURES. RWY 30 DEPARTURES ARE ADVISED TO AVOID TURNING LEFT PRIOR TO DEPARTURE END OF RUNWAY. CTN, CRANE 1 POINT 6 NAUTICAL MILES, , AT 140 FEET AGL. CAUTION, BIRDS NEAR AIRPORT. ...ADVS YOU HAVE INFO C.\n[Departure ATIS] KOAK DEP ATIS O 1953Z OAK ATIS INFO O 1953Z. 28014KT 10SM FEW005 22/14 A2988 (TWO NINER EIGHT EIGHT). RNAV Z/VA RWY 30 ILS/VA RWY 28R. FLOW TO LAX, LAS, SAN. ILS RWY 30, OTS. UNN LIT CLOSE-IN OBSTACLES FOR RWY 30 DEPARTURES. RWY 30 DEPARTURES ARE ADVISED TO AVOID TURNING LEFT PRIOR TO DEPARTURE END OF RUNWAY. SIGNATURE UNI-COM OUT OF SERVICE. CAUTION, BIRDS NEAR AIRPORT. ...ADVS YOU HAVE INFO O.",
    "KDFW": "[Arrival ATIS] KDFW ARR ATIS Z 1253Z DFW ARR INFO Z 1253Z. 21012KT 10SM CLR 27/21 A2998 (TWO NINER NINER EIGHT) RMK AO2 SLP141 T02720206. SIMUL VISUAL APCH TO RWYS, 13R, 18R, 17C, 17L. LDG RWY 17C EXP LAHSO TWY B 10460 FT AVAIL, LDG RWY 18R EXP LAHSO TWY B 10100 FT AVL. NOTICE TO AIRMEN. BIRD ACTIVITY VCNTY ARPT. ...ADVS YOU HAVE INFO Z.\n[Departure ATIS] KDFW DEP ATIS W 1553Z - KDFW DEP INFO W 1553Z. 21022G32KT 10SM FEW025 FEW180 SCT250 31/21 A2994 (TWO NINER NINER FOUR) RMK AO2 PK WND 20032/1547 SLP128 T03110206. SIMUL PARL TRAFFIC DEPG RWYS 17R, 18L. NOTICE TO AIRMEN. WARNING, RWY 18L HAS BEEN SHORTENED, 9273 FT AVAILABLE. RWY 18L CL OTS. BIRD ACTIVITY VCNTY ARPT. ...ADVS YOU HAVE INFO W.",
    "KIAH": "[Arrival ATIS] KIAH ARR ATIS B 1053Z IAH ATIS INFO B 1053Z. 00000KT 10SM FEW022 SCT250 25/24 A3001 (THREE ZERO ZERO ONE). ARRIVALS EXPECT ILS OR RNAV Y RY 26R, ILS OR RNAV Y RY 26L, ILS OR RNAV Y RY 27. SIMUL\n[Departure ATIS] KIAH DEP ATIS T 0353Z IAH ATIS INFO T 0353Z. 15007KT 10SM FEW035 FEW180 BKN250 27/23 A2996 (TWO NINER NINER SIX). ARRIVALS EXPECT ILS OR RNAV Y RY 8R, ILS OR RNAV Y RY 8L. DEPG RY 15R. NOTICE TO AIRMEN. UNITED RAMP CONTROL IN EFFECT. RY 15L, 33R CLSD. HAZD WX INFO FOR IAH AREA AVBL FM FSS. BIRD ACTIVITY VICINITY ARPT. CRANES ARE DOWN. TWY SA CLSD BTN TWY, SF AND TWY SK , TWY SB CLSD BTN TWY, SF AND TWY SK , , TWY WB CLSD BTN TWY, WG AND TWY WH . TWY EA CLSD. NOTAM ATIS IN USE ON FREQUENCY 126.225. ...ADVS YOU HAVE INFO T.",
    "KORD": "[Arrival ATIS] KORD ARR ATIS R 1451Z - KORD ATIS INFO R 1451Z. 28011G18KT 10SM FEW045 FEW250 21/11 A2996 (TWO NINER NINER SIX) RMK AO2 SLP143 T02060106 51002. ARR EXP VECTORS ILS RWY 27C APCH, ILS RWY 27R APCH, VISUAL APCH RWY 28C. SIMUL APCHS IN USE. LAND AND HOLD SHORT OPERATIONS ARE IN EFFECT. RWY 27C ARR PLAN TO H/S OF TWY V V, 9 THSD 7 HND 25 FT AVBL, RWY 28C ARR PLAN TO H/S OF TWY Z, 9 THSD 6 HND TEN FT AVBL. DEPS EXP RWYS 22L 28R FROM NOVEMBER 5 9750 FT AVL. RWY 4L, 22R CLSD, RWY 9R, 27L CLSD. RWY 22L ILS OTS, RWY 22R LOC OTS, RWY 9L IM OTS, RWY 9C IM OTS, RWY 10L IM OTS, RWY 10R IM OTS, RWY 27R IM OTS, RWY 28L IM OTS, RWY 28R IM OTS, RWY 9L PAPI OTS, RWY 27R PAPI OTS. PILOTS USE CTN FOR BIRD ACTIVITY IN THE VICINITY OF THE ARPT. USE CTN FOR PERSONNEL AND EQUIP AT NUMEROUS SITES ON THE FIELD. READBACK ALL RWY HOLD SHORT INSTRUCTIONS. WHEN READY TO TAXI CONTACT GND METERING ON FREQ 121.67. ...ADVS YOU HAVE INFO R.\n[Departure ATIS] KORD DEP ATIS L 0113Z ORD ATIS INFO L 0113Z SPECIAL. 25004KT 10SM TS FEW039CB SCT090 BKN130 OVC250 28/21 A2982 (TWO NINER EIGHT TWO) RMK AO2 TSB13 OCNL LTGICCG NE TS NE MOV E T02830206. ARR EXP VEC",
    "KJFK": "[Arrival ATIS] KJFK ARR ATIS V 1451Z - KJFK ATIS INFO V 1451Z. 30015G26KT 10SM FEW060 SCT120 SCT250 25/10 A2976 (TWO NINER SEVEN SIX) RMK PK WND 29027/1417. APPROACH IN USE ILS RY 31R, VISUAL APCH RY 31L. DEPG RY 31L. RWY 22L/4R INNER MARKER OTS. NUM CRANES OPERATING AT JFK. BIRD ACTIVITY VICINITY ARPT. READBACK ALL RWY ASSIGNMENTS AND HOLD SHORT INSTRUCTIONS. ...ADVS YOU HAVE INFO V.\n[Departure ATIS] KJFK DEP ATIS V 1851Z JFK ATIS INFO V 1851Z. 20015KT 10SM -RA SCT029CB SCT070 BKN110 BKN140 BKN250 23/21 A2989 (TWO NINER EIGHT NINER) RMK AO2 RAB34 SLP121 CB SW MOV E P0000 T02330211. APPROACH IN USE ILS RY 22L, ILS RY 22R. DEPG RY 22R. RY 31R PAPI OTS, RWY 22L/4R INNER MARKER OTS.RWY 31R PAPI OTS. HAZD WX INFO FOR NY METRO AREA AVBL ON FSS. SWAP IN EFFECT EXPECT REROUTES. NUM CRANES OPERATING AT JFK. BIRD ACTIVITY VICINITY ARPT. READBACK ALL RWY ASSIGNMENTS AND HOLD SHORT INSTRUCTIONS. ...ADVS YOU HAVE INFO V.",
    "KIND": "[Arrival ATIS] KIND ARR ATIS Q 0254Z - KIND ATIS INFO Q 0254Z. 21006KT 10SM BKN030 BKN190 OVC250 25/21 A2990 (TWO NINER NINER ZERO). PARL ILS RWY 23R AND 23L APPROACHES IN USE. CROSS RUNWAY OPERATIONS MAY BE IN EFFECT. NOTICE TO AIRMEN. TWY, P BTN TWY, H AND TWY B CLSD, TWY, P BTN TWY, H AND TWY J CLSD, TWY, H BTN TWY, R AND TWY N CLSD. P PAD CLSD. ILS RUNWAY 5R AND RUNWAY 5L INNER MARKER UNSERVICEABLE. HIWAS. UNAUTH LASER ILLUMINATION EVENT. AT 0252Z . 20 MILES NORTHEAST OF INDY AIRPORT, , 9000 FEET, BLUE LASER, FROM THE SOUTHWEST. ARPT ADZY FLOCK OF LARGE BIRDS IN THE VICINITY OF THE AIRPORT, ALT UNKN. ...ADVS YOU HAVE INFO Q.\n[Departure ATIS] KIND DEP ATIS H 1854Z IND ATIS INFO H 1854Z. 26009G19KT 10SM SCT036 BKN041 BKN170 23/16 A2981 (TWO NINER EIGHT ONE) RMK AO2 SLP088 T02280156. PARL ILS RWY 23R AND 23L APPROACHES IN USE. CROSS RU",
    "KDTW": "[Arrival ATIS] KDTW ARR ATIS K 0953Z DTW ARR INFO K 0953Z. 05003KT 8SM SCT060 BKN140 OVC220 22/20 A2988 (TWO NINER EIGHT EIGHT). SIMUL VISUAL RY 21L, RY 22R USE Z LOC FREQ 111.95 APCH IN USE. NOTICE TO AIRMEN. RWY 21R, 3L CLSD, RWY 27L, 9R CLSD, RWY 27R, 9L CLSD. TWYS Y1 CLSD ;. HAZD WX INFO . CNVTV SIG 64 E, FOR MI , AND, OH . CNVTV SIG 59 E, FOR OH , AND MI AVBL ON FLIGHT SERVICE FREQS. PILOTS USE CTN FOR BIRD ACTIVITY. TWR AND GC COMB ON FREQ 135.0. DEPARTURE ATIS 118.125. ...ADVS YOU HAVE INFO K.\n[Departure ATIS] KDTW DEP ATIS Q 2253Z - KDTW DEP INFO Q 2253Z. 21009KT 10SM FEW050 FEW250 33/24 A2991 (TWO NINER NINER ONE). DEPG RWY 21R, RWY 22L ;. NOTICE TO AIRMEN. RWY 27L, 9R CLSD, RWY 27R, 9L CLSD. PILOTS USE CTN FOR BIRD ACTIVITY. ...ADVS YOU HAVE INFO Q.",
    "KMSP": "[Arrival ATIS] KMSP ARR ATIS H 0853Z MSP ARR INFO H 0853Z. 00000KT 10SM CLR 21/18 A2990 (TWO NINER NINER ZERO). VISUAL RWY 12R APCH IN USE, VISUAL RWY 12L APCH IN USE. FINAL APCH, OVER NOISE SENSITIVE AREA. NO\n[Departure ATIS] KMSP DEP ATIS V 0953Z - KMSP DEP INFO V 0953Z. 00000KT 10SM CLR 20/17 A2991 (TWO NINER NINER ONE). DEPARTING RWY 12L, RWY 12R. NOTICE TO AIRMEN. RWYS 4, 22 CLSD. TWY R7. R8. R9. R10. CLOSED. TWY R BTWN R6 AND R10 CLSD, USE CAUTION, NUMEROUS TAXIWAY CLOSURES, TWY A7 CLSD, TWY A CLSD BTN TWY, A7 AND TWY D, TWY L CLSD BTN TWY, L7 AND TWY L10, TWY K CLSD BTN TWY, K1 AND TWY K3. ALL ACFT CTC METERING ON ONE THREE THREE POINT FIVE SEVEN WHEN READY TO PUSHBACK OR TAXI. HAZD WX INFO FOR MSP AREA AVBL FM FSS. CTN, BIRDS NEAR MSP. READ BACK HS AND ALT. ALL ACFT TAXI WITH TRANSPONDER AND ALTITUDE ENCODING ON. ...ADVS YOU HAVE INFO V.",
    "CYEG": "[Arrival ATIS] CYEG ARR ATIS B 1300Z CYEG ARR ATIS B 1300Z 35006KT 100V200 12SM -TSRA FEW012 FEW045 CIG BKN082CB OVC110 14/13 A2976 SIGMET A1 IN EFFECT. APCH RNAV Z OR Y RWY 02, INFORM ARRL OF REQ APCH ON INITIAL CTC. LDG AND DEP RWY 02. RSC 02 5/5/5 100 PCT WET, 100 PCT WET, 100 PCT WET. VALID JUL 10 1226 - JUL 10 2026. SIMUL APPROACHES MAY BE IN EFCT. CYYC GDP IN EFCT CTC CYEG FIC ON FREQ 122.375 OR TEL 1-780-890-8386. INFORM CYEG ATC INFO B\n[Departure ATIS] CYEG DEP ATIS X 1231Z CYEG ARR ATIS X 1231Z 15004KT 140V210 15SM -TSRA FEW012 SCT045 CIG BKN082CB OVC110 14/13 A2976 APCH RNAV Z OR Y RWY 20, INFORM ARRL OF REQ APCH ON INITIAL CTC. LDG AND DEP RWY 20. RSC 20 5/5/5 100 PCT WET, 100 PCT WET, 100 PCT WET. VALID JUL 10 1226 - JUL 10 2026. SIMUL APPROACHES MAY BE IN EFCT. CYYC GDP IN EFCT CTC CYEG FIC ON FREQ 122.375 OR TEL 1-780-890-8386. INFORM CYEG ATC INFO X",
    "EHAM": "[Arrival ATIS] EHAM ARR ATIS A 1250Z EHAM ARRIVAL INFO A. DEMAND. MAIN LANDING RWY 36 R. TRANSITION LEVEL 040. WIND 020 DEG, 12 KT, VRB BTN 360 AND 120 DEG, 16 KT MAX, 5 KT MNM. CAVOK. T 25. DP 14. QNH 1019 HPA. NOSIG. OPERATIONAL REPORT. CONTACT APCH WITH CALLSIGN ONLY. END OF INFO A\n[Departure ATIS] EHAM DEP ATIS Z 0950Z EHAM DEPARTURE INFO Z. DEMAND. MAIN DEPARTURE RWY 36 L. SECONDARY DEPARTURE RWY 36 C. MAIN LANDING RWY 06. WIND 060 DEG, 8 KT, VRB BTN 360 AND 110 DEG, 12 KT MAX, 3 KT MNM. WIND SECONDARY RUNWAY 060 DEG, 6 KT, VRB BTN 030 AND 130 DEG, 12 KT MAX, 3 KT MNM. CAVOK. T 23. DP 16. QNH 1019 HPA. OPERATIONAL REPORT. INDEPENDENT PARALLEL DEPARTURES IN PROGRESS CHECK CORRECT SID IN FMS. INFORM SCHIPHOL DEL BY VOICE IF UNABLE TO COMPLY WITH NADP 2. END OF INFO Z",
    "EBBR": "[Arrival ATIS] EBBR ARR ATIS M 1150Z EBBR NAT, EXP VECT FOR ILS APP ARR RWY01 RSCD AT 1030 RWY01 DRY. DEP RWY07R TRL 055 XNG RWY OPS INPR 050/9KT VRB BTN 030 AND 090 CAVOK T26 DP15 QNH 1018HPA NOSIG CFM ARR M\n[Departure ATIS] EBBR DEP ATIS A 1020Z EBBR NAT, DEP RWY07R RSCD AT 0634 RWY07R DRY. ARR RWY01 TRL 055 XNG RWY OPS INPR 030/8KT VRB BTN 010 AND 080 CAVOK T24 DP16 QNH 1018HPA NOSIG CFM DEP A",
    "EDDF": "[Arrival ATIS] EDDF ARR ATIS K 1250Z -ARR-ATIS EDDF K METAR 101250 -EXPECT INDEPENDENT PARALLEL ILS Y APCH RWY 07L OR ILS APCH RWY 07R -RWY 07L 07R -GLS APCH ON REQUEST , -TRL 60 -ATTN: BIRDS IN THE VICINITY OF THE RUNWAYS -06007KT 020V170 -CAVOK - - -T30 DP11 -QNH1015 - -TREND NOSIG\n[Departure ATIS] EDDF DEP ATIS J 1020Z DEP-ATIS EDDF J METAR 101020 RWY 07C 18 ACFT DEPARTING RWY18 : EXPECT POSSIBLE DEPARTURE FROM INTERSECTION M , TORA 3454 METERS. IF UNABLE , ADVISE TWR ON INITIAL CONTACT , TRL 60 ATTN: BIRDS IN THE VICINITY OF THE RUNWAYS 07008KT 010V110 RWY18 06005KT CAVOK T27 DP13 QNH1016 TREND NOSIG END OF ATIS J",
    "EDDL": "[Arrival ATIS] EDDL ARR ATIS C 1050Z ATIS EDDL C METAR 101050 EXPECT VECTORS ILS APPROACH RWY 05L RWY 05R 05L TWY L2 , L4 AND L5 BTN TWY M AND RWY05R CLOSED ILS RWY05R CAT1 ONLY TRL 60 04011KT 010V070 CAVOK T26 DP13 QNH1018 TREND NOSIG\n[Departure ATIS] EDDL DEP ATIS R EDDL ARR/DEP DATIS RPT -ATIS EDDL R METAR 020550 -EXPECT VECTORS ILS APPROACH -RWY 23L -TWY L8 CLOSED BETWEEN TWY M AND RWY 23L -TRL 60 - -23010KT -CAVOK - - -T19 DP13 -QNH1020 - -TREND NOSIG",
    "EDDK": "[Arrival ATIS] EDDK ARR ATIS U EDDK ARR/DEP DATIS RPT -ATIS EDDK U METAR 101120 -EXPECT ILS APCH -RWY 31R -RWY COND RWY 31R AT TIME 0640 RWYCC 6 DEPOSIT TOTAL RWY DRY RWY 06 AND RWY 24 AVAILABLE FOR DEPARTURES -TRL 60 -RWY 13R AND RWY 31L CLOSED FOR DEPARTURE AND LANDING: TAXIING BTN THR RWY 13R AND INTERSECTION RWY 24 POSSIBLE : -VRB06KT -CAVOK - - -T28 DP13 -QNH1017 - -TREND NOSIG\n[Departure ATIS] EDDK DEP ATIS Q EDDK ARR/DEP DATIS RPT -ATIS EDDK Q METAR 291920 -EXPECT ILS APCH -RWY 31R 06 -RWY COND RWY 31R AT TIME 1830 RWYCC 6 DEPOSIT TOTAL RWY DRY RWY 06 AT TIME 1830 RWYCC 6 DEPOSIT TOTAL RWY DRY -TRL 60 -RWY 13R AND RWY 31L CLOSED FOR DEPARTURE AND LANDING: TAXIING BTN THR RWY 13R AND INTERSECTION RWY 24 POSSIBLE : -04003KT -CAVOK - - -T24 DP13 -QNH1024 - -TREND NOSIG",
    "EBLG": "[Arrival ATIS] EBLG ATIS S 1220Z EBLG INFO, ARR RWY04R DEP RWY04R RWY 04R DRY, RWYCC 666. TRL 055 ADZ ON GND FREQ IF UNABLE S2 050/12KT MNM6 MAX20 CAVOK T27 DP13 QNH 1017HPA NOSIG CFM ATIS S",
    "LSZH": "[Arrival ATIS] LSZH ARR ATIS H 1220Z ARRIVALS, EXP ILS APCH, RWY 14. TRL 70. DEP RWY 10. DEPENDENT OPS ON CONVERGING RWY. WIND 080 DEG, 9 KT, VRB BTN 050 AND 120 DEG. CAVOK. T 30. DP 14. QNH 1015. NOSIG.\n[Departure ATIS] LSZH DEP ATIS W 1213Z DEP RWY 10. DEPENDENT OPS ON CONVERGING RWY. TRL 70. ARRIVALS, EXP ILS APCH, RWY 14. TMA S 1 IS NOT ACT. TMA S 2 AND S 3 ARE NOT ACT. WIND 080 DEG, 9 KT. CAVOK. T 30. DP 14. QNH 1015. NOSIG.",
    "LIMC": "[Arrival ATIS] LIMC ARR ATIS A 1151Z LIMC ARR A 1151Z I.L.S. ZULU RWY IN USE 35L TL 70 WIND TDZ VRB3KT CAVOK T33 DP13 QNH 1013HPA QFE 0988HPA\n[Departure ATIS] LIMC DEP ATIS K 1311Z LIMC DEP K 1311Z RWY IN USE 35L TL 70 WIND END VRB10KT CAVOK T33 DP12 QNH 1013HPA QFE 0987HPA DATALINK CLEARANCE AVAILABLE.... CONTACT 1 3 1 8 8 0 TO BE RELEASED BY THE AIRPORT OPERATOR ...",
    "LIRF": "[Arrival ATIS] LIRF ARR ATIS Q 1220Z LIRF ARR Q 1220Z RWY 16L ILS W RWY 16R ILS Z RWY IN USE 16L 16R TL 70 DEPENDENT PARL ILS APCH INPR RWY IN USE 16R OR 16L ASSIGNED BY ROME RADAR WIND RWY 16L TDZ 190/9KT RWY 16R TDZ 200/8KT CAVOK T32 DP18 QNH 1013HPA RRSM\n[Departure ATIS] LIRF DEP ATIS V 0608Z LIRF DEP V 0608Z RWY IN USE 25 TL 75 RWYS IN USE FOR ARR 16L AND 16R WIND END 090/6KT CAVOK T28 DP20 QNH 1012HPA REA IS SENT AUTOMATICALLY ONCE RLSD BY RAMP WHEN READY CONTACT FIUME RAMP 121.725 RRSM",
    "EINN": "[Arrival ATIS] EINN ARR ATIS Q 1500Z EXPECT V O R LDG RWY24 TKOF RWY24 TRL FL060 26005KT 9999 FEW028 SCT042 20/09 QNH Q1021 TREND NOSIG ADVISE AT FIRST CONTACT YOU HAVE ATIS INFO Q",
    "EGLL": "[Arrival ATIS] EGLL ARR ATIS V 1220Z LANDING RWY 09L TRANSITION-LEVEL: FL 70 RUNWAY 09L REDUCED DECLARED DISTANCES IF STAND GUIDANCE IS OFF OR FAILS, REMAIN ON THE TAXIWAY CENTRELINE AND ADVISE ATC AUTO 10012KT 070V130 9999 NCD 30/13 Q1017 ACKNOWLEDGE RECEIPT OF INFORMATION V\n[Departure ATIS] EGLL DEP ATIS I 1220Z DEPARTURE RWY 09R RUNWAY 09L REDUCED DECLARED DISTANCES PILOTS THAT ARE IN RECEIPT OF DATALINK CLEARANCES ARE REMINDED THEY MUST CONTACT DELIVERY ON 121.980 WHEN READY FOR START DATALINK CLEARANCES NOT AVAILABLE FOR CPT DEPARTURES AUTO 10013KT 9999 NCD 30/13 Q1017 ACKNOWLEDGE RECEIPT OF INFORMATION I AND REPORT AIRCRAFT TYPE AND CURRENT QNH ON FIRST CONTACT WITH HEATHROW",
    "EPWA": "[Arrival ATIS] EPWA ARR ATIS C 1501Z EPWA ARR C. TIME 1500. EXP N ARR ILS Z APCH FOR RWY 11. TRANSITION LEVEL 80. WIND 130 DEG, 6 KT, VRB BTN 090 AND 160 DEG. CAVOK. T 30. DP 15. QNH 1020. NOSIG. CAUTION. BIRD ACT. END OF EPWA ARR C\n[Departure ATIS] EPWA DEP ATIS S 1248Z EPWA DEP S. TIME 1246. DEP RWY 29. ARR RWY 33, EXP U ARR ILS Z. REPORT READY FOR STARTUP ON DELIVERY 121 DECIMAL 605. RWY 29 RCC 5, 5, 5. 1ST PART, WET. 2ND PART, WET. 3RD PART, WET. RWY REPORT END. TRANSITION LEVEL 80. WIND 300 DEG, 8 KT. VIS MID 10 KM OR MORE. CLD BKN CB 2600 FT. T 17. DP 14. QNH 1012. RESHRA. TREND TEMPO VIS 3000 M, TSRA, CLD BKN CB 3000 FT. MOD ICING REPORTED BTW FL 135 AND FL 150 CAUTION. BIRD ACT. END OF EPWA DEP S",
    "EFHK": "[Arrival ATIS] EFHK ARR ATIS Z 1250Z EXPECT ILS APCH ARR RWY 15 RUNWAY 15 CONDITION REPORT AT 0802 UTC RUNWAY CONDITION CODES 6 , 6 , 6 CONTAMINANTS ALL PARTS DRY TRL 60 WIND 120 DEG 10 KT VIS 10KM SCT 4100 FT T 20 DP 11 QNH 1018 NOSIG ACK INFO Z\n[Departure ATIS] EFHK DEP ATIS H 1620Z DEP RWYS 22R AND 22L RUNWAY 22R CONDITION REPORT AT 1329 UTC RUNWAY CONDITION CODES 6 , 6 , 6 CONTAMINANTS ALL PARTS DRY RUNWAY 22L CONDITION REPORT AT 1330 UTC RUNWAY CONDITION CODES 6 , 6 , 6 CONTAMINANTS ALL PARTS DRY WIND 110 DEG 6 KT VIS 10KM FEW 1400 FT. SCT 1600 FT. FEW TCU 2800 FT T 19 DP 15 QNH 1003 TEMPO CLD FEW CB 3000 FT. ACK INFO H",
    "LTAC": "[Arrival ATIS] LTAC ARR ATIS Z 1250Z EXP ILS Z APCH 21C DEP RWY 21R RWY 21C WIND 300 DEG 12 KT RWY 21R WIND 280 DEG 09 KT VRB BTN 240 DEG AND 310 DEG TRL 110 VIS 9999 SCT04000 FT SCT08000 FT T 29 DP 06 QNH 1014 NOSIG FOR DELIVERY CTC 121.9. FOR DELIVERY FIRST USE DIGITAL DEP CLR. CTN BIRD HAZARD OVR AERODROME. APCH FREQUENCY 129.050. INDEPENDENT PARL DEPS INPR. END OF ATIS Z",
    "UBBB": "[Arrival ATIS] UBBB ARR ATIS I 1430Z ATIS I EXP ILS/ LDG 35 DEP 35 IN USE RWY 35 CLEAR DRY 70 TLVL 110 WIND WIND RWY 34 100 6 KT SPD MAX 12 MIN 6 WIND RWY 35 080 4 KT SPD MAX 8 MIN 2 VIS CAVOK T 31 / DP 16 QNH 1009 HPA TREND TREND NOSIG MODERATE BIRDS ACT IN VICINITY OF AP RWY 34 DUE TO MAINTENANCE NOT IS USE END OF ATIS I\n[Departure ATIS] UBBB DEP ATIS M 1230Z ATIS M EXP ILS/ LDG 16 17 DEP 16 17 IN USE RWY 16 CLEAR DRY 70 RWY 17 CLEAR DRY 70 TLVL 110 WIND WIND RWY 16 150 6 KT SPD MAX 10 MIN 4 WIND RWY 17 160 6 KT SPD MAX 10 MIN 4 VIS CAVOK T 30 / DP 20 QNH 1008 HPA TREND TREND NOSIG MODERATE BIRDS ACT IN VICINITY OF AP END OF ATIS M",
    "ZWWW": "[Arrival ATIS] ZWWW ARR ATIS K 1500Z EXP ILSDME Z APCH LDG RWY 26R TA 3000 WIND 270/3MPS CAVOK T 31 /DP 09 QNH 1008 HPA ADZ YOU HAVE INFO K.\n[Departure ATIS] ZWWW DEP ATIS B 1200Z DEP RWY 26L TA 3000 WIND 330/4MPS VIS 9999M CLD FEW TCU 1380M T 35 /DP 09 QNH 1007 HPA ADZ YOU HAVE INFO B.",
    "ZLXY": "[Arrival ATIS] ZLXY ARR ATIS F 1000Z EXP ILS APCH LDG RWY 05L & 06R WIND 030/3MPS VIS 9999M CLD FEW 1500M T 36 /DP 22 QNH 996 HPA VISUAL APPROACH IN PROGRESS ADZ YOU HAVE INFO F.\n[Departure ATIS] ZLXY DEP ATIS T 1200Z DEP RWY 23R & 24R WIND 230/3MPS CAVOK T 20 /DP 18 QNH 1012 HPA VISUAL APPROACH IN PROGRESS ADZ YOU HAVE INFO T.",
    "ZBAA": "[Arrival ATIS] ZBAA ARR ATIS G 1312Z EXP ILS APCH DEPENDENT PARL INSTR APCH LDG RWY 36L & 36R & 01 WIND 030 DEG 2 MPS VIS 2800 -SHRA BR CLD SCT 330M /BKN 1200M /FEW CB 1200M T 25 /DP 24 QNH 1003 HPA SUPPLEMENT INFO /RETS RWY 36L RWYCC 5/5/5 ISSUED AT 1122 ALL PARTS WET NR 100PCT RWY 36R RWYCC 5/5/5 ISSUED AT 1122 ALL PARTS WET NR 100PCT RWY 01 RWYCC 5/5/5 ISSUED AT 1122 ALL PARTS WET NR 100PCT ADZ YOU HAVE INFO G.\n[Departure ATIS] ZBAA DEP ATIS B 1200Z DEP RWY 18R & 18L & 19 WIND 030 DEG 3 MPS 340V060 DEG VIS 2000 -TSRA BR CLD SCT 180M /SCT 990M /SCT CB 990M T 25 /DP 24 QNH 1002 HPA SUPPLEMENT INFO /RESHRA RWY INDEPENDENT PARALLEL DEP RWY 19 RWYCC 5/5/5 ISSUED AT 1122 ALL PARTS WET NR 100PCT RWY 18L RWYCC 5/5/5 ISSUED AT 1122 ALL PARTS WET NR 100PCT RWY 18R RWYCC 5/5/5 ISSUED AT 1122 ALL PARTS WET NR 100PCT ADZ YOU HAVE INFO B.",
    "ZBHH": "[Arrival ATIS] ZBHH ARR ATIS X 0300Z EXP ILSDME APCH LDG RWY 26 TA 3000 /TRL 3600 WIND 340/5MPS CAVOK T 16 /DP 01 QNH 1016 HPA ADZ YOU HAVE INFO X.\n[Departure ATIS] ZBHH DEP ATIS T 2300Z DEP RWY 26 TA 3000 /TRL 3600 WIND 330/5MPS VRB BTN 280/ AND 360/ CAVOK T 10 /DP M01 QNH 1015 HPA ADZ YOU HAVE INFO T.",
    "ZSQD": "[Arrival ATIS] ZSQD ARR ATIS J 1100Z EXP ILSDME APCH LDG RWY 35 TA 3000 /TRL 3600 WIND 360/3MPS CAVOK T 28 /DP 17 QNH 1005 HPA SEGREGATED OPERATION VISUAL APPROACH OPERATION IN PROGRESS. WHEN READY CONTACT QINGDAO TOWER ON 118.7 RUNWAY 35,IF MISSED APPROACH,EXPECT FOLLOW THE STANDARD MISSED APPROACH PROCEDURE,CLIMB TO 1200M ON QNH OR BY ATC CAUTION MAYBE THERE IS A FLOCK OF BIRDS IN THE VICINITY OF AIRPORT ADZ YOU HAVE INFO J.\n[Departure ATIS] ZSQD DEP ATIS Z 0400Z DEP RWY 34 TA 3000 /TRL 3600 WIND 290/4MPS VIS 9999M CLD BKN 1200M T 29 /DP 18 QNH 1003 HPA SEGREGATED OPERATION VISUAL APPROACH OPERATION IN PROGRESS. RUNWAY 35,IF MISSED APPROACH,EXPECT FOLLOW THE STANDARD MISSED APPROACH PROCEDURE,CLIMB TO 1200M ON QNH OR BY ATC CAUTION MAYBE THERE IS A FLOCK OF BIRDS IN THE VICINITY OF AIRPORT ADZ YOU HAVE INFO Z."
  },
  "windtemp_alaska": "\n000\nFBAK31 KWNO 100801\nFD1AK1\nDATA BASED ON 100600Z    \nVALID 101200Z   FOR USE 0800-1500Z. TEMPS NEG ABV 24000\n\nFT  3000    6000    9000   12000   18000   24000  30000  34000  39000\nADK 3511 2510+07 2324+04 2334-01 2252-13 2273-24 731436 743645 741154\nADQ 3417 3614+05 3521+01 3525-05 3435-18 3347-29 337542 338648 334549\nAKN 3609 3511+05 9900+02 9900-03 3312-16 3232-26 305942 307551 314954\nANC 0405 0310+06 0312+00 0618-04 0721-16 0624-28 113644 113653 050952\nANN 1907 1808-01 1708-07 1305-13 1011-25 1209-37 110940 210840 241441\nBET 9900 1507+04 1811+01 1811-04 1915-16 2422-26 274641 276151 284254\nBRW 2417 2225+04 2330-02 2224-07 2229-20 2335-31 234348 233752 232246\nBTI 9900 9900+09 9900+02 2707-05 2615-18 2524-28 244145 244655 242954\nBTT 2207 2311+09 2114+03 2215-04 2311-16 2220-28 223345 214655 212853\nCDB 1729 2030+09 2132+04 2126-01 2319-10 2537-21 255137 266547 278359\nCZF 1910 1712+02 1613-02 1817-06 1826-18 2127-27 234042 245650 253751\nEHM 1507 1613+05 1812+02 2111-03 2625-12 2732-24 264641 266250 275756\nFAI 2905 0212+09 0508+02 0607-04 9900-16 1807-27 192344 182654 181457\nFYU 9900 0407+10 0410+03 0506-03 2405-16 2411-27 231543 241854 211960\nGAL 9900 2308+05 2310+01 2110-04 1917-17 1825-29 193647 203355 221649\nGKN 3607 0312+05 0619+01 0623-04 0724-16 0925-27 093344 103453 091655\nHOM 0318 0217+06 0220+01 0220-04 0527-18 0634-29 094244 072251 342549\nJNU 2705 3309+02 0111-03 0417-08 0728-20 0740-31 075046 064752 031745\nLUR 2121 2121+03 2121-03 2122-07 2226-18 2230-31 233746 233453 241945\nMCG 3609 0407+06 0507+00 9900-04 1508-16 1713-28 183147 201854 261250\nMDO 3608 0106+05 0307+00 0610-06 0828-20 0936-29 094644 094552 041848\nOME 2208 2410+03 2210-02 2115-06 2024-17 2020-29 232245 242553 242148\nORT      3606+07 0406+02 0714-03 0723-16 0623-27 062643 072954 062059\nOTZ 2111 2118+02 2115-02 2020-06 2120-18 2215-30 251746 251654 241847\nSNP 1124 1214+02 1913+02 2220-02 2136-13 2140-25 225541 226150 235451\nTKA 0412 0516+07 0516+01 0717-03 0615-16 0811-27 133344 133454 110553\nUNK 2909 2309+04 2017+01 1918-04 2114-17 2315-30 272346 272752 252249\nYAK 3206 0206+05 0412+00 0415-06 0721-19 0831-30 074845 074653 062250\nIKO 2334 2340+11 2342+06 2344+02 2345-10 2462-22 257934 259545 760757\nAFM 3009 2608+06 2110+00 2217-05 2021-18 2027-30 204447 203454 221948\n5AB 3110 3111+03 3212-02 3112-08 2824-19 3023-32 272741 253442 252743\n5AC 2818 2913+00 3014-05 2816-10 2726-22 2636-34 254045 253442 262642\n5AD 2912 2912+02 3016-02 3022-08 3131-20 3246-33 327947 325446 324244\n5AE 2917 2914+06 3020+02 3126-03 3138-14 3159-24 317539 308849 317858\n5AF 3517 0114+00 0314-06 0318-11 0323-22 0430-35 075146 062946 021243\n5AG 3011 3507+05 0512-02 0611-08 0716-20 0923-32 094744 094852 052046\n",
  "vaac_tokyo": [
    {
      "id": "20260710_30027000_0258",
      "year": "2026",
      "volcano": "Sheveluch",
      "psn": "N5639 E16122",
      "issued": "20260710",
      "text": "FVFE01 RJTD 101200\nVA ADVISORY\nDTG: 20260710/1200Z\nVAAC: TOKYO\nVOLCANO: SHEVELUCH 300270\nPSN: N5639 E16122\nAREA: RUSSIA\nSOURCE ELEV: 3283M AMSL\nADVISORY NR: 2026/258\nINFO SOURCE: HIMAWARI-9\nERUPTION DETAILS: VA CONTINUOUSLY OBS IN SATELLITE IMAGERY\nOBS VA DTG: 10/1120Z\nOBS VA CLD: SFC/FL280 N4746 E15721 - N4806 E15810 - N4643 E15845 - \nN4213 E15804 - N4236 E15709 MOV S 60KT\nFCST VA CLD +6 HR: 10/1720Z SFC/FL280 N3756 E16148 - N3736 E15938 - \nN4248 E15448 - N4457 E15623\nFCST VA CLD +12 HR: 10/2320Z SFC/FL290 N3716 E16713 - N3545 E16725 - \nN3545 E16101 - N3914 E15437 - N4244 E15538 - N3811 E15933\nFCST VA CLD +18 HR: 11/0520Z SFC/FL300 N4102 E17336 - N3827 E17328 - \nN3341 E16323 - N3720 E15408 - N4112 E15528 - N3540 E16248\nRMK: VA HEIGHT UPDATED TO FL280 BASED ON SATELLITE DATA. SOME PART OF \nVA OBSCURED BY MET CLOUD.\nNXT ADVISORY: 20260710/1800Z=",
      "img_url": "https://ds.data.jma.go.jp/svd/vaac/data/VAGFN/2026/Images/20260710_30027000_0258_QH21_01.png",
      "sat_img_url": "https://ds.data.jma.go.jp/svd/vaac/data/Sat/2026/Images/30027000/09-ir/20260710_1120_202607101200_ir.png",
      "text_url": "https://ds.data.jma.go.jp/svd/vaac/data/TextData/2026/20260710_30027000_0258_Text.html"
    },
    {
      "id": "20260706_27202000_0232",
      "year": "2026",
      "volcano": "Kanlaon",
      "psn": "N1025 E12308",
      "issued": "20260706",
      "text": "FVFE01 RJTD 061545\nVA ADVISORY\nDTG: 20260706/1545Z\nVAAC: TOKYO\nVOLCANO: KANLAON 272020\nPSN: N1025 E12308\nAREA: PHILIPPINES\nSOURCE ELEV: 2435M AMSL\nADVISORY NR: 2026/232\nINFO SOURCE: HIMAWARI-9 PHIVOLCS\nERUPTION DETAILS: ERUPTION AT 20260706/1520Z FL100 EXTD SW REPORTED\nOBS VA DTG: 06/1530Z\nOBS VA CLD: VA NOT IDENTIFIABLE FM SATELLITE DATA WIND FL100 350/5KT\nFCST VA CLD +6 HR: NOT AVBL\nFCST VA CLD +12 HR: NOT AVBL\nFCST VA CLD +18 HR: NOT AVBL\nRMK: WE WILL ISSUE FURTHER ADVISORY IF VA IS DETECTED IN SATELLITE \nIMAGERY.\nNXT ADVISORY: NO FURTHER ADVISORIES=",
      "img_url": "https://ds.data.jma.go.jp/svd/vaac/data/VAGFN/2026/Images/20260706_27202000_0232_QH21_01.png",
      "sat_img_url": null,
      "text_url": "https://ds.data.jma.go.jp/svd/vaac/data/TextData/2026/20260706_27202000_0232_Text.html"
    },
    {
      "id": "20260705_27303000_0717",
      "year": "2026",
      "volcano": "Mayon",
      "psn": "N1315 E12341",
      "issued": "20260705",
      "text": "FVFE01 RJTD 051936\nVA ADVISORY\nDTG: 20260705/1936Z\nVAAC: TOKYO\nVOLCANO: MAYON 273030\nPSN: N1315 E12341\nAREA: PHILIPPINES\nSOURCE ELEV: 2462M AMSL\nADVISORY NR: 2026/717\nINFO SOURCE: HIMAWARI-9 PHIVOLCS\nERUPTION DETAILS: ERUPTION AT 20260705/1914Z FL090 EXTD WSW REPORTED\nOBS VA DTG: 05/1920Z\nOBS VA CLD: VA NOT IDENTIFIABLE FM SATELLITE DATA WIND FL090 050/8KT\nFCST VA CLD +6 HR: NOT AVBL\nFCST VA CLD +12 HR: NOT AVBL\nFCST VA CLD +18 HR: NOT AVBL\nRMK: WE WILL ISSUE FURTHER ADVISORY IF VA IS DETECTED IN SATELLITE \nIMAGERY.\nNXT ADVISORY: NO FURTHER ADVISORIES=",
      "img_url": "https://ds.data.jma.go.jp/svd/vaac/data/VAGFN/2026/Images/20260705_27303000_0717_QH21_01.png",
      "sat_img_url": null,
      "text_url": "https://ds.data.jma.go.jp/svd/vaac/data/TextData/2026/20260705_27303000_0717_Text.html"
    },
    {
      "id": "20260701_30006000_0001",
      "year": "2026",
      "volcano": "Mutnovsky",
      "psn": "N5227 E15812",
      "issued": "20260701",
      "text": "FVFE01 RJTD 012206\nVA ADVISORY\nDTG: 20260701/2206Z\nVAAC: TOKYO\nVOLCANO: MUTNOVSKY 300060\nPSN: N5227 E15812\nAREA: RUSSIA\nSOURCE ELEV: 2288M AMSL\nADVISORY NR: 2026/1\nINFO SOURCE: KVERT KBGS UHPP HIMAWARI-9\nERUPTION DETAILS: ERUPTION AT 20260701/2016Z FL170 EXTD W REPORTED\nOBS VA DTG: 01/2140Z\nOBS VA CLD: VA NOT IDENTIFIABLE FM SATELLITE DATA WIND FL170 120/8KT\nFCST VA CLD +6 HR: NOT AVBL\nFCST VA CLD +12 HR: NOT AVBL\nFCST VA CLD +18 HR: NOT AVBL\nRMK: WE WILL ISSUE FURTHER ADVISORY IF VA IS DETECTED IN SATELLITE \nIMAGERY.\nNXT ADVISORY: NO FURTHER ADVISORIES=",
      "img_url": "https://ds.data.jma.go.jp/svd/vaac/data/VAGFN/2026/Images/20260701_30006000_0001_QH21_01.png",
      "sat_img_url": null,
      "text_url": "https://ds.data.jma.go.jp/svd/vaac/data/TextData/2026/20260701_30006000_0001_Text.html"
    }
  ],
  "vaac_alaska": [
    {
      "text": "\n000\nFVAK21 PAWU 100010\nVAAAK1\nVA ADVISORY\n\nDTG: 20260710/0007Z\n\nVAAC: ANCHORAGE\n\nVOLCANO: SHEVELUCH 300270\n\nPSN: N5639 E16122\n\nAREA: KAMCHATKA PENINSULA\n\nSOURCE ELEV: 10771 FT AMSL\n\nADVISORY NR: 2026/190\n\nRMK: PLEASE SEE FVFE01 RJTD ISSUED BY VAAC TOKYO WHICH DESCRIBES\nCONDITIONS NEAR THE VAAC ANCHORAGE AREA OF RESPONSIBILITY...SC\n\n\n\n",
      "issued": "2026-07-10T00:10:00+00:00",
      "volcano": "Sheveluch",
      "psn": "N5639 E16122"
    }
  ]
}