{
  "updated_utc": "2026-07-02T17:32Z",
  "metar": {
    "RJAA": "METAR RJAA 021600Z AUTO 01010KT 9999 BKN004 OVC007 20/20 Q1007 NOSIG",
    "PANC": "METAR PANC 021553Z 21004KT 10SM SCT070 SCT250 11/06 A2978 RMK AO2 SLP086 T01110061",
    "PAFA": "METAR PAFA 021553Z 00000KT 10SM FEW070 SCT100 13/07 A2972 RMK AO2 SLP066 T01280072",
    "PAED": "METAR PAED 021555Z 20003KT 10SM BKN085 BKN220 11/05 A2976 RMK AO2A SLP074 T01100053 $",
    "KSEA": "METAR KSEA 021553Z 17007KT 110V190 10SM OVC013 13/09 A3007 RMK AO2 SLP188 T01280089",
    "ZSPD": "METAR ZSPD 021600Z 19002MPS 2800 BR NSC 25/25 Q1011 BECMG TL1630 3000",
    "ZSSS": "METAR ZSSS 021600Z 17002MPS 140V200 6000 -SHRA NSC 26/25 Q1011 NOSIG",
    "RJFR": "METAR RJFR 021600Z AUTO 30004KT 9999 NCD 22/20 Q1012",
    "VHHH": "METAR VHHH 021600Z 11010KT 9999 FEW010 29/25 Q1011 NOSIG",
    "RCTP": "METAR RCTP 021600Z 17006KT CAVOK 28/24 Q1012 NOSIG RMK A2991",
    "ZGSZ": "METAR ZGSZ 021600Z 16004MPS 9999 FEW020 SCT050 28/26 Q1011 NOSIG",
    "WSSS": "METAR WSSS 021600Z VRB02KT 9999 FEW020 BKN160 28/24 Q1012 NOSIG",
    "WMKK": "METAR WMKK 021600Z 12004KT 050V190 9999 FEW030 28/25 Q1010 NOSIG",
    "WIDD": "METAR WIDD 021600Z 00000KT 9999 FEW014 26/25 Q1012 NOSIG",
    "VTBS": "METAR VTBS 021600Z 26003KT 9999 -RA FEW020 SCT040 27/26 Q1008 NOSIG",
    "VTBU": "METAR VTBU 021600Z 26006KT 9999 FEW020 29/26 Q1009 NOSIG",
    "ROAH": "METAR ROAH 021600Z AUTO 19006KT 9999 NCD 27/26 Q1014",
    "VVDN": "METAR VVDN 021600Z 21003KT 9999 FEW020 SCT070 30/24 Q1006 TEMPO FM1710 4000 SHRA",
    "RCKH": "METAR RCKH 021600Z 03003KT 9999 SCT010 SCT027 30/25 Q1013 NOSIG RMK A2992",
    "KLAX": "METAR KLAX 021553Z 25004KT 10SM SCT010 SCT018 OVC028 19/14 A2998 RMK AO2 SLP149 T01940144 $",
    "KONT": "METAR KONT 021553Z 00000KT 5SM HZ OVC014 17/13 A2998 RMK AO2 SLP144 T01720133 $",
    "KSFO": "METAR KSFO 021556Z 16011KT 10SM FEW006 SCT200 16/11 A2994 RMK AO2 SLP138 T01610106",
    "KOAK": "METAR KOAK 021553Z 17007KT 10SM FEW013 BKN017 BKN200 16/11 A2995 RMK AO2 SLP141 T01560111",
    "KMHR": "METAR KMHR 021535Z 21006KT 9SM CLR 17/11 A2991 RMK AO2 T01730114",
    "KDFW": "METAR KDFW 021553Z 20007KT 10SM FEW200 SCT250 32/20 A3003 RMK AO2 SLP159 T03170200 $",
    "KIAH": "METAR KIAH 021553Z 11003KT 10SM FEW030 SCT045 SCT150 32/23 A3005 RMK AO2 SLP174 T03170228",
    "KORD": "METAR KORD 021551Z 09004KT 10SM FEW033 BKN250 29/21 A3006 RMK AO2 SLP174 T02890206",
    "KJFK": "METAR KJFK 021551Z VRB05KT 10SM CLR 38/17 A2998 RMK SLP152 T03780172 $",
    "KRFD": "METAR KRFD 021554Z 08003KT 10SM FEW030 FEW250 29/23 A3006 RMK AO2 SLP175 T02890233",
    "KIND": "METAR KIND 021554Z 29005KT 10SM BKN030 32/23 A3014 RMK AO2 SLP196 T03170233",
    "KDTW": "METAR KDTW 021553Z 21008KT 180V240 10SM FEW035 SCT045 SCT250 32/24 A3007 RMK AO2 SLP176 T03220239",
    "KMSP": "METAR KMSP 021553Z 09005KT 10SM BKN250 26/22 A2995 RMK AO2 SLP137 T02610217 $",
    "CYEG": "METAR CYEG 021600Z 25005KT 230V300 20SM FEW017 FEW110 FEW250 17/13 A2986 RMK CU1AC1CI1 CU TR AC TR CI TR SLP118 DENSITY ALT 3200FT",
    "EHAM": "METAR EHAM 021555Z 31017KT 280V340 9999 FEW035 20/10 Q1021 NOSIG",
    "EBBR": "METAR EBBR 021550Z 27010KT 230V300 9999 SCT028 23/16 Q1022 NOSIG",
    "EDDF": "METAR EDDF 021550Z AUTO 29014KT CAVOK 28/12 Q1018 NOSIG",
    "EDFH": "METAR EDFH 021550Z 29011KT 260V330 9999 -RA FEW013 SCT035 BKN042 21/14 Q1022",
    "EDDL": "METAR EDDL 021550Z AUTO 25010KT 9999 FEW019 21/16 Q1020 NOSIG",
    "EDDK": "METAR EDDK 021550Z AUTO 27015KT 240V300 9999 BKN027 OVC031 21/15 Q1021 NOSIG",
    "EBLG": "METAR EBLG 021550Z 28008KT 250V320 9999 SCT018 20/15 Q1022 NOSIG",
    "LSZH": "METAR LSZH 021550Z 26007KT 220V300 9999 FEW070 27/08 Q1022 NOSIG",
    "LIMC": "METAR LIMC 021550Z 24011KT CAVOK 30/12 Q1016 NOSIG",
    "LIRF": "METAR LIRF 021550Z 28009KT CAVOK 28/19 Q1011 NOSIG",
    "EINN": "METAR EINN 021600Z 28009KT 250V330 9999 SCT028 17/10 Q1029 NOSIG",
    "EGLL": "METAR EGLL 021550Z AUTO 33011KT 290V010 9999 NCD 25/07 Q1023",
    "EGSS": "METAR EGSS 021550Z AUTO 31010KT 270V360 9999 NCD 24/07 Q1023",
    "EPWA": "METAR EPWA 021600Z 31008KT CAVOK 26/11 Q1014 NOSIG",
    "UHPP": "METAR UHPP 021600Z VRB01MPS 0400 0250SE R16/1600D FG VV002 06/06 Q1018 R16R/CLRD62 NOSIG RMK QFE761/1014",
    "EFHK": "METAR EFHK 021550Z 20006KT 9999 SCT005 FEW040CB 16/15 Q1009 BECMG SCT025",
    "LBBG": "METAR LBBG 021600Z AUTO 01010KT 9999 NSC 28/15 Q1009 TEMPO 3000 SHRA SCT030TCU BKN040",
    "LTAC": "METAR LTAC 021550Z 35010KT 310V010 CAVOK 31/10 Q1009 NOSIG RMK RWY21C 36009KT RWY03L 34009KT 300V010 RWY21R 35008KT RWY03R 34007KT 290V020 RWY21L 35009KT",
    "UBBB": "METAR UBBB 021600Z 20008KT CAVOK 27/17 Q1009 NOSIG",
    "UTAA": "METAR UTAA 021600Z 30006KT 9999 SCT050 BKN100 28/11 Q1009 R88/CLRD70 NOSIG",
    "UACC": "METAR UACC 021600Z 15006G11MPS 9999 SCT040CB 24/12 Q1001 NOSIG RMK QFE720/0960",
    "UAAA": "METAR UAAA 021600Z 23003MPS 170V240 5000 -SHRA BR BKN036CB OVC100 19/18 Q1015 NOSIG",
    "UZTT": "METAR UZTT 021600Z 11004KT CAVOK 24/12 Q1011 NOSIG",
    "ZWWW": "METAR ZWWW 021600Z 00000MPS CAVOK 32/14 Q1005 NOSIG",
    "ZLXY": "METAR ZLXY 021600Z 05002MPS CAVOK 22/19 Q1010 NOSIG",
    "ZBAA": "METAR ZBAA 021600Z 36002MPS CAVOK 24/20 Q1006 NOSIG",
    "ZBHH": "METAR ZBHH 021600Z 06003MPS CAVOK 21/14 Q1010 NOSIG",
    "ZSQD": "METAR ZSQD 021600Z 16005MPS 5000 BR NSC 24/24 Q1009 NOSIG",
    "ZMCK": "METAR ZMCK 021600Z 33004MPS 9999 SCT030CB SCT033 20/12 Q1013 NOSIG RMK QFE644.6 60 NT",
    "UUEE": "METAR UUEE 021600Z 24008MPS 9999 -SHRA SCT050CB 25/17 Q1009 R24L/CLRD62 R24C/CLRD62 NOSIG",
    "UUDD": "METAR UUDD 021600Z 21003MPS CAVOK 27/15 Q1010 R13R/CLRD65 TEMPO 27009G16MPS",
    "ULLI": "SPECI ULLI 021556Z 26007MPS 9000 -SHRA BKN006 BKN018CB OVC036 16/15 Q1003 WS R28R R88/290050 NOSIG RMK OBST OBSC",
    "USSS": "METAR USSS 021600Z 36003MPS 9999 VCTS SCT025CB 18/16 Q1006 R26L/210060 R26R/210060 TEMPO -TSRA RMK QFE734/0979",
    "UNNT": "METAR UNNT 021600Z 07002MPS CAVOK 22/15 Q1009 R07/CLRD// R34/////// NOSIG RMK QFE747/0996",
    "UNKL": "METAR UNKL 021600Z VRB01MPS CAVOK 19/17 Q1009 R29/CLRD// NOSIG RMK QFE732",
    "UIBB": "METAR UIBB 021600Z AUTO 29002MPS 7000 // NSC 15/15 Q1009 RMK QFE714/0952",
    "UEEE": "METAR UEEE 021600Z 32002MPS CAVOK 14/07 Q1004 R23/09//69 NOSIG RMK QFE745",
    "UHHH": "METAR UHHH 021600Z 20002MPS CAVOK 19/18 Q1007 R23R/090060 NOSIG RMK QFE749/0999",
    "UHSS": "METAR UHSS 021600Z 30001MPS 9999 BKN005 08/08 Q1014 R19/CLRD70 NOSIG RMK MT OBSC QFE759/1012"
  },
  "taf": {
    "RJAA": "TAF RJAA 021705Z 0218/0400 03012KT 9999 FEW005 BKN015 TEMPO 0218/0221 FEW002 BKN005 TEMPO 0221/0300 FEW003 BKN008 TEMPO 0309/0315 FEW002 BKN005 TEMPO 0315/0321 3000 BR FEW001 BKN003 TEMPO 0321/0400 FEW002 BKN005 BECMG 0321/0400 11004KT",
    "PANC": "TAF PANC 021726Z 0218/0324 24006KT P6SM SCT250 FM022000 27007KT P6SM FEW050 BKN140 FM030400 16012G20KT P6SM FEW050 BKN100 FM031000 18010KT P6SM VCSH BKN060 FM031500 19005KT P6SM OVC050",
    "PAFA": "TAF PAFA 021720Z 0218/0324 VRB04KT P6SM FEW070 FM030100 01006KT P6SM FEW100 FM030800 VRB03KT P6SM FEW100",
    "PAED": "TAF PAED 021300Z 0213/0319 24006KT 9999 FEW050 SCT100 QNH2977INS BECMG 0302/0303 27009KT 9999 VCSH FEW040 BKN060 OVC085 QNH2969INS BECMG 0304/0305 24009KT 9999 -RA FEW025 BKN040 OVC055 QNH2969INS BECMG 0310/0311 21006KT 9999 NSW BKN023 OVC040 QNH2977INS TX20/0302Z TN07/0213Z",
    "KSEA": "TAF KSEA 021720Z 0218/0324 20006KT P6SM BKN012 OVC020 FM022000 21008KT P6SM SCT025 BKN050 FM022300 22010G18KT P6SM VCSH BKN040 FM030500 22005KT P6SM VCSH OVC025 FM031500 21005KT P6SM SCT008 OVC015 FM031800 23005KT P6SM OVC025 FM032000 26007KT P6SM BKN045",
    "ZSPD": "TAF ZSPD 021506Z 0218/0324 18004MPS 6000 -SHRA BKN015 TX29/0305Z TN24/0221Z TN24/0321Z TEMPO 0221/0301 TSRA BKN010 FEW030CB TEMPO 0306/0310 33008G13MPS 2000 TSRA BKN010 SCT030CB BECMG 0310/0312 NSW",
    "ZSSS": "TAF ZSSS 021505Z 0218/0324 18004MPS 6000 -SHRA BKN015 TX30/0305Z TN24/0221Z TN24/0321Z TEMPO 0221/0301 TSRA BKN010 FEW030CB TEMPO 0306/0310 33008G13MPS 2000 TSRA BKN010 SCT030CB BECMG 0310/0312 NSW",
    "RJFR": "TAF RJFR 021705Z 0218/0400 02006KT 9999 FEW025 BECMG 0309/0312 12006KT TEMPO 0315/0321 4000 SHRA BR BKN002 BKN004 TEMPO 0321/0400 BKN002 BKN007",
    "VHHH": "TAF VHHH 021700Z 0218/0324 12020KT 9999 FEW015 SCT030 TX31/0306Z TN27/0222Z TN27/0322Z TEMPO 0218/0224 12020G30KT 2500 SHRA FEW008CB SCT020 TEMPO 0300/0306 13020G30KT 1500 +SHRA FEW008CB SCT015 TEMPO 0306/0315 13025G35KT 1500 TSRA +SHRA FEW008CB SCT015 TEMPO 0315/0321 13025G35KT 2000 TSRA SHRA FEW008CB SCT020 TEMPO 0321/0324 14020G30KT 1000 +SHRA FEW006CB SCT015",
    "RCTP": "TAF RCTP 021700Z 0218/0324 18005KT 9999 FEW015 BKN032 BECMG 0300/0302 33005KT TEMPO 0306/0310 30010KT FEW010 FEW015CB BKN018 BECMG 0310/0312 20005KT TEMPO 0318/0324 14005KT",
    "ZGSZ": "TAF ZGSZ 021513Z 0218/0324 15007G13MPS 8000 BKN040 TX31/0306Z TN27/0222Z TN25/0322Z TEMPO 0222/0302 SHRA FEW020CB BKN030 TEMPO 0303/0307 2800 TSRA SCT015 FEW020CB BKN030 BECMG 0316/0318 SHRA SCT015 FEW020CB BKN030",
    "WSSS": "TAF WSSS 021100Z 0212/0318 18008KT 9999 FEW015 SCT020 TEMPO 0306/0309 3000 TSRA FEW012CB BKN015",
    "WMKK": "TAF WMKK 021100Z 0212/0318 VRB03KT 9999 FEW030 PROB30 TEMPO 0306/0310 5000 TSRA FEW017CB SCT018",
    "VTBS": "TAF VTBS 021100Z 0212/0318 19008KT 9999 FEW020 TEMPO 0212/0218 VRB15G25KT 4000 TSRA FEW018CB SCT030 BKN100 TEMPO 0308/0314 VRB15G25KT 4000 TSRA FEW018CB SCT030 BKN100",
    "VTBU": "TAF VTBU 021100Z 0212/0312 23008KT 9999 FEW020 TEMPO 0214/0218 VRB15KT 4000 TSRA FEW018CB SCT030 BKN100",
    "ROAH": "TAF ROAH 021705Z 0218/0400 19008KT 9999 FEW012",
    "VVDN": "TAF VVDN 021100Z 0212/0312 02010KT 9999 SCT020 BECMG 0213/0214 25007KT TEMPO 0215/0302 4000 SHRA BKN013 FEW015CB BKN060 TEMPO 0309/0312 25015G25KT 4000 TSRA BKN013 FEW015CB BKN050",
    "RCKH": "TAF RCKH 021700Z 0218/0324 10005KT 9999 FEW015 BECMG 0300/0302 18010KT TEMPO 0303/0309 17016G26KT BECMG 0312/0314 14005KT TEMPO 0318/0324 08005KT",
    "KLAX": "TAF KLAX 021722Z 0218/0324 25006KT P6SM SCT015 OVC025 FM022000 26012KT P6SM SCT035 FM030300 VRB03KT P6SM SKC FM030600 VRB03KT P6SM OVC012 FM031700 25006KT P6SM BKN015 FM031900 26012KT P6SM FEW015",
    "KONT": "TAF KONT 021120Z 0212/0318 VRB04KT P6SM OVC012 FM021630 VRB05KT P6SM SCT020 FM022100 25010KT P6SM SKC FM030500 25005KT P6SM SKC FM031200 VRB03KT P6SM BKN010 FM031600 VRB04KT P6SM FEW012",
    "KSFO": "TAF KSFO 021652Z 0217/0318 19006KT P6SM FEW006 FEW200 FM022000 27015KT P6SM FEW020 FM030300 28011KT P6SM FEW012 FM030900 28006KT P6SM SCT010",
    "KOAK": "TAF KOAK 021701Z 0217/0318 20008KT P6SM FEW015 SCT200 TEMPO 0217/0218 SCT015 SCT200 FM021800 24007KT P6SM FEW020 FM022000 28012KT P6SM FEW020 FM031100 27005KT P6SM OVC015",
    "KMHR": "TAF KMHR 021721Z 0218/0318 22007KT P6SM FEW250 FM030100 22012KT P6SM SKC FM030500 16006KT P6SM SKC",
    "KDFW": "TAF KDFW 021730Z 0218/0324 17011KT P6SM SCT060",
    "KIAH": "TAF KIAH 021720Z 0218/0324 14009KT P6SM VCTS SCT035CB BKN060 PROB30 0218/0222 6SM -TSRA BR BKN035CB FM030000 15006KT P6SM FEW030 SCT060 TEMPO 0311/0314 17002KT 6SM BR SCT015",
    "KORD": "TAF KORD 021724Z 0218/0324 22012G20KT P6SM FEW040 FEW300 FM030100 22010KT P6SM SCT050 SCT250 PROB30 0305/0310 31012G24KT 3SM TSRA BKN050CB FM031200 25010KT P6SM FEW030 SCT050 PROB30 0318/0324 27015G30KT 3SM TSRA BKN030CB",
    "KJFK": "TAF KJFK 021721Z 0218/0324 19015KT P6SM FEW050 FEW250 FM022100 19019G25KT P6SM FEW050 FEW250 FM030100 20012KT P6SM FEW250 FM030300 23010KT P6SM FEW250 FM030700 27008KT P6SM FEW250 FM031300 30005KT P6SM FEW250 FM031800 24011KT P6SM FEW250 FM032000 21015KT P6SM FEW250",
    "KRFD": "TAF KRFD 021727Z 0218/0318 23010KT P6SM FEW060 FEW300 PROB30 0303/0309 3SM TSRA BKN050CB FM031200 25010KT P6SM FEW030 SCT050",
    "KIND": "TAF KIND 021629Z 0216/0318 23008KT P6SM SCT030 TEMPO 0217/0221 BKN030 FM030300 22004KT P6SM SCT250 FM031600 23008KT P6SM FEW050 SCT250",
    "KDTW": "TAF KDTW 021723Z 0218/0324 22013G20KT P6SM SCT045 SCT250 FM030100 22008KT P6SM SCT060 BKN250 FM031600 25013G20KT P6SM BKN045",
    "KMSP": "TAF KMSP 021731Z 0218/0324 17005KT P6SM SCT200 PROB30 0219/0221 4SM -TSRA BKN050CB FM022200 19008KT P6SM FEW080 SCT200 FM030200 17006KT P6SM BKN250 PROB30 0305/0308 4SM -TSRA BKN040CB FM031000 15005KT P6SM BKN120",
    "CYEG": "TAF CYEG 021440Z 0215/0312 28006KT P6SM FEW080 FM022100 25006KT P6SM BKN060 TEMPO 0221/0301 VRB15G25KT P6SM -SHRA VCTS BKN040CB FM030100 14006KT P6SM SCT080 RMK NXT FCST BY 021800Z",
    "EHAM": "TAF EHAM 021703Z 0218/0324 33015KT CAVOK BECMG 0220/0223 26006KT BECMG 0306/0309 29012KT",
    "EBBR": "TAF EBBR 021707Z 0218/0324 35007KT 9999 FEW042",
    "EDDF": "TAF EDDF 021700Z 0218/0324 31011KT CAVOK PROB30 TEMPO 0218/0221 BKN035 BECMG 0220/0223 31006KT",
    "EDFH": "TAF EDFH 021700Z 0218/0318 30012KT 9999 BKN035 BECMG 0218/0221 31005KT",
    "EDDL": "TAF EDDL 021700Z 0218/0324 30009KT CAVOK BECMG 0221/0224 VRB03KT BECMG 0305/0308 29010KT BECMG 0318/0321 32005KT",
    "EDDK": "TAF EDDK 021700Z 0218/0324 31010KT CAVOK BECMG 0220/0223 31005KT BECMG 0300/0303 VRB03KT BECMG 0307/0310 31010KT BECMG 0319/0322 34004KT",
    "EBLG": "TAF EBLG 021707Z 0218/0324 33006KT 9999 FEW035",
    "LSZH": "TAF LSZH 021725Z 0218/0324 29008KT 9999 FEW070 TX26/0314Z TN16/0302Z BECMG 0218/0220 VRB02KT PROB40 0218/0221 CAVOK BECMG 0306/0308 04007KT BECMG 0311/0313 34004KT BECMG 0320/0322 CAVOK",
    "LIMC": "TAF LIMC 021700Z 0218/0324 21007KT CAVOK BECMG 0221/0223 01010KT BECMG 0303/0305 VRB05KT",
    "LIRF": "TAF LIRF 021700Z 0218/0324 06012KT 9999 SCT030 BECMG 0218/0220 VRB05KT BECMG 0302/0304 04010KT BECMG 0309/0311 26012KT PROB30 TEMPO 0312/0318 TSRA",
    "EINN": "TAF EINN 021700Z 0218/0318 30010KT 9999 FEW010 BKN025 BECMG 0223/0301 VRB03KT BECMG 0308/0310 25010KT TEMPO 0314/0318 26015KT -DZ BKN012",
    "EGLL": "TAF EGLL 021703Z 0218/0324 31012KT 9999 FEW045 BECMG 0315/0318 25006KT",
    "EGSS": "TAF EGSS 021654Z 0218/0324 32011KT CAVOK BECMG 0316/0319 25008KT",
    "EPWA": "TAF EPWA 021730Z 0218/0318 31010KT CAVOK BECMG 0218/0221 25004KT PROB40 TEMPO 0304/0307 4000 SHRA BKN012 BKN030CB TEMPO 0306/0318 28022G35KT BECMG 0306/0309 29018KT ",
    "UHPP": "TAF UHPP 021644Z 0218/0324 19003G12MPS 9999 BKN030CB TEMPO 0218/0222 0500 FG VV001 TEMPO 0300/0309 -SHRA BKN014 OVC025CB TEMPO 0309/0321 1000 -SHRA BR VV002",
    "EFHK": "TAF EFHK 021431Z 0215/0315 21010KT 9999 FEW025 SCT040 TEMPO 0215/0219 7000 SHRA FEW040CB PROB40 TEMPO 0215/0217 TS PROB40 0223/0305 2000 BR BKN002 BECMG 0305/0307 14010KT FEW040CB TEMPO 0307/0315 7000 SHRA BKN012 PROB40 0309/0315 TSRA",
    "LBBG": "TAF LBBG 021700Z 0218/0318 VRB03KT 9999 SCT040 PROB40 TEMPO 0218/0220 5000 SHRA FEW030CB BKN045 TEMPO 0223/0305 3000 BR BKN008 BECMG 0308/0309 12010KT TEMPO 0310/0317 VRB16G28KT 4000 TSRA SCT030CB BKN045",
    "LTAC": "TAF LTAC 021640Z 0218/0318 VRB02KT CAVOK BECMG 0304/0307 32012KT SCT040 BECMG 0314/0316 VRB02KT CAVOK",
    "UBBB": "TAF UBBB 021655Z 0218/0318 22005KT CAVOK TX31/0309Z TN22/0301Z TEMPO 0218/0220 18008KT TEMPO 0221/0304 VRB04KT FEW015 BECMG 0304/0306 19008KT TEMPO 0307/0314 17014KT",
    "UTAA": "TAF UTAA 021645Z 0218/0318 30016KT 6000 SCT050CB SCT050 TEMPO 0218/0303 24012KT TEMPO 0305/0313 34014G24KT 4000 DRDU",
    "UACC": "TAF UACC 021703Z 0218/0318 17005MPS 9999 SCT030 BKN050 TX24/0310Z TN14/0223Z TEMPO 0218/0301 21007MPS SCT030CB BECMG 0301/0303 21009MPS SCT030CB TEMPO 0303/0315 VRB18MPS 3100 -TSRA SQ BKN020CB BECMG 0315/0317 21004MPS SCT040 BKN100 TEMPO 0315/0318 -SHRA SCT030CB",
    "UAAA": "TAF UAAA 021702Z 0218/0318 22003G08MPS 9999 BKN040CB OVC100 TX20/0310Z TN17/0301Z TEMPO 0218/0303 16005MPS 3100 -TSRA BR BKN015CB FM030400 34005MPS 6000 -SHRA BKN040CB OVC100 TEMPO 0304/0315 26005MPS 3100 -TSRA BR BKN015CB BECMG 0315/0316 3100 BR",
    "UZTT": "TAF UZTT 021700Z 0218/0318 07010KT 7000 FEW060CB SCT100 PROB40 TEMPO 0218/0304 VRB12G22KT -TSRA BKN050CB",
    "ZWWW": "TAF ZWWW 021501Z 0218/0324 18004MPS CAVOK TX39/0309Z TN28/0223Z TN27/0323Z BECMG 0302/0303 36004MPS BECMG 0313/0314 18004MPS",
    "ZLXY": "TAF ZLXY 021501Z 0218/0318 06003MPS 3000 HZ NSC TX33/0308Z TN21/0222Z",
    "ZBAA": "TAF ZBAA 021500Z 0218/0324 19003MPS 3200 BR NSC TX37/0306Z TN23/0221Z TN24/0321Z TEMPO 0309/0313 -TSRA FEW040CB BKN040",
    "ZBHH": "TAF ZBHH 021505Z 0218/0318 04004MPS 9999 FEW040 TX35/0308Z TN17/0222Z TEMPO 0306/0309 FEW040CB FEW040",
    "ZSQD": "TAF ZSQD 021501Z 0218/0318 16004MPS 3500 BR NSC TX33/0306Z TN23/0220Z",
    "ZMCK": "TAF COR ZMCK 021644Z 0218/0324 VRB02MPS 9999 FEW030CB BKN033 TN14/0221Z TX22/0307Z PROB40 TEMPO 0219/0305 VRB08MPS TSRA SCT027CB BKN030 TEMPO 0305/0314 VRB09G14MPS 6000 TSRA SCT027CB BKN030 BECMG 0314/0316 6000 RA FEW017 FEW027CB BKN030",
    "UUEE": "TAF UUEE 021656Z 0218/0318 26003G08MPS 9999 SCT030 TX25/0312Z TN18/0301Z TEMPO 0218/0224 22008G15MPS -TSRA BKN020CB BECMG 0300/0302 32005MPS PROB40 TEMPO 0306/0318 -TSRA BKN020CB",
    "UUDD": "TAF UUDD 021654Z 0218/0324 24005MPS 9999 BKN020 TX29/0312Z TN20/0301Z TEMPO 0218/0303 27008G13MPS 2000 TSRA BKN016CB TEMPO 0303/0306 BKN009 BECMG 0303/0305 31005MPS PROB40 TEMPO 0306/0315 -TSRA BKN020CB",
    "ULLI": "TAF ULLI 021651Z 0218/0318 30003MPS 6000 BKN006 TEMPO 0218/0222 30006G12MPS 3000 -SHRA BR BKN004 BKN016CB BECMG 0222/0224 2000 BR BKN010 TEMPO 0300/0304 0300 FG BKN003 BECMG 0306/0307 6000 NSW BKN016 TEMPO 0312/0318 3100 -SHRA BKN020CB",
    "USSS": "TAF USSS 021651Z 0218/0318 34003MPS 6000 SCT016CB TEMPO 0218/0303 0300 -TSRA FG BKN002 BKN010CB FM030300 35003G14MPS 9999 BKN016CB TEMPO 0303/0318 -TSRA",
    "UNNT": "TAF UNNT 021700Z 0218/0318 11003G08MPS CAVOK TX33/0310Z TN17/0222Z TEMPO 0309/0318 -TSRA BKN020CB",
    "UNKL": "TAF UNKL 021644Z 0218/0318 27003G08MPS 9999 SCT040 TX30/0306Z TN15/0222Z TEMPO 0218/0221 -TSRA SCT040CB",
    "UIBB": "TAF UIBB 021700Z 0218/0318 31003G08MPS 0300 FG BKN001 BKN016CB TEMPO 0218/0302 6000 -TSRA BKN016CB BECMG 0302/0303 9999 NSW BKN016CB",
    "UEEE": "TAF UEEE 021700Z 0218/0324 08003G08MPS CAVOK TX30/0306Z TN12/0218Z",
    "UHHH": "TAF UHHH 021655Z 0218/0324 20003MPS 5000 BR FEW006 SCT022 TX28/0305Z TN17/0219Z FM022300 22003G08MPS 9999 SCT022CB TEMPO 0301/0315 5000 -SHRA",
    "UHSS": "TAF UHSS 021650Z 0218/0324 18003MPS 0550 FG BKN002 BECMG 0222/0224 9999 NSW NSC"
  },
  "atis": {
    "RJAA": "[Arrival ATIS] RJAA ARR ATIS V 0117Z MS0100 (APCH)ILS Z RWY34R LDG RWY 34R DEP RWY 34L DEP FREQ 124.2. TWY A1 CLSD. OBSERVE GEAR DOWN OPS PROC ON FNL. MS 180100Z 07009KT 020V090 15KM -SHRA FEW002ST BKN005ST 21/20 Q1010/A2983= Q/TWO NINE EIGHT THREE STP\n[Departure ATIS] RJAA DEP ATIS V 0102Z MS0100 (APCH)ILS Z RWY34R LDG RWY 34R DEP RWY 34L DEP FREQ 124.2. TWY A1 CLSD. OBSERVE GEAR DOWN OPS PROC ON FNL. MS 180100Z 07009KT 020V090 15KM -SHRA FEW002ST BKN005ST 21/20 Q1010/A2983= Q/TWO NINE EIGHT THREE STP",
    "PANC": "[Arrival ATIS] PANC ARR ATIS A 1653Z ANC ATIS INFO A 1653Z. 21006KT 10SM CLR 12/07 A2977 (TWO NINER SEVEN SEVEN). 7R, 7L APPROACHES IN USE. LANDING RWY 7R, 7L, DEPARTING RWY 7L, 33. NOTICE TO AIRMEN. TWY Q CLSD. TWY R CLSD BTWN TWY, S AND TWY U . TWY E CLSD BTWN TWY, L AND TWY M . TWY K BTWN A AND D RESTRICTED TO AIRCRAFT WITH WINGSPAN LESS THAN 118 FEET. CONTACT TOWER 118.3 FOR TAXI. ...ADVS YOU HAVE INFO A.\n[Departure ATIS] PANC DEP ATIS Q 0753Z ANC ATIS INFO Q 0753Z. 19009KT 10SM FEW060 SCT240 13/08 A2980 (TWO NINER EIGHT ZERO). 7R, 7L APPROACHES IN USE. LANDING RWY 7L, 33, DEPARTING RWY 33. NOTICE TO AIRMEN. TWY Q CLSD. TWY R CLSD BTWN TWY, S AND TWY U . TWY E CLSD BTWN TWY, L AND TWY M . TWY K BTWN A AND D RESTRICTED TO AIRCRAFT WITH WINGSPAN LESS THAN 118 FEET. CONTACT TOWER 118.3 FOR TAXI. ...ADVS YOU HAVE INFO Q.",
    "KSEA": "[Arrival ATIS] KSEA ARR ATIS B 1553Z SEA ATIS INFO B 1553Z. 15007KT 110V190 10SM OVC013 13/09 A3007 (THREE ZERO ZERO SEVEN). ILS RY 16R, RNAV, Y, RY 16L , APCH IN USE. DEPG RWY 16L, DEPG ACFT PLAN AND BRIEF NUM\n[Departure ATIS] KSEA DEP ATIS B 1553Z SEA ATIS INFO B 1553Z. 15007KT 110V190 10SM OVC013 13/09 A3007 (THREE ZERO ZERO SEVEN). ILS RY 16R, RNAV, Y, RY 16L , APCH IN USE. DEPG RWY 16L, DEPG ACFT PLAN AND BRIEF NUM",
    "ZSPD": "[Arrival ATIS] ZSPD ARR ATIS I 1716Z EXP ILS APCH INDEPENDENT PARL INSTR APCH LDG RWY 17R & 16L WIND RWY 17R TDZ 190/2MPS MID 180/2MPS END 190/2MPS RWY 16L TDZ 190/2MPS MID 160/2MPS END 160/2MPS VIS RWY 17R TDZ 2600M MID 3000M END 3000M VIS RWY 16L TDZ 3800M MID 2800M END 2700M FBL SHRA BR NSC T 25 /DP 25 QNH 1011 HPA CAUTION THE BIRDS NEAR THE RUNWAY RWY 17L/17R/16L/16R RWYCC 5/5/5 ISSUED AT 1433 WET/WET/WET DPT NR/NR/NR COV 100PCT/100PCT/100PCT. ADZ YOU HAVE INFO I.\n[Departure ATIS] ZSPD DEP ATIS U 0100Z DEP RWY 35R & 34L WIND RWY 35R TDZ 060/3MPS MID 060/3MPS VRB BTN 030/ AND 100/ END 020/3MPS RWY 34L TDZ 050/3MPS MID 030/3MPS END 050/3MPS VIS RWY 35R TDZ 10000M MID 10000M END 10000M VIS RWY 34L TDZ 10000M MID 8000M END 10000M CLD BKN 300M T 25 /DP 22 QNH 1009 HPA CAUTION THE BIRDS NEAR THE RUNWAY ADZ YOU HAVE INFO U.",
    "ZSSS": "[Arrival ATIS] ZSSS ARR ATIS G 0100Z EXP ILS APCH LDG RWY 36R WIND RWY 36R TDZ 030/3MPS VRB BTN 360/ AND 060/ MID 140/2MPS END 140/2MPS VIS RWY 36R TDZ 8000M MID 6000M END 7000M BR CLD BKN 480M T 27 /DP 23 QNH 1009 HPA VISUAL APCH IN USE QNH OF SHANGHAI TERMINAL CONTROL AREA 1009 HPA ADZ YOU HAVE INFO G.\n[Departure ATIS] ZSSS DEP ATIS I 1330Z DEP RWY 18R WIND RWY 18R TDZ 130/2MPS MID 140/3MPS END 150/3MPS VIS RWY 18R TDZ 6000M MID 7000M END 6000M BR NSC T 27 /DP 22 QNH 1008 HPA VISUAL APCH IN USE QNH OF SHANGHAI TERMINAL CONTROL AREA 1009 HPA ADZ YOU HAVE INFO I.",
    "VHHH": "[Arrival ATIS] VHHH ARR ATIS G 0107Z ARRIVALS, RWY 25R/L. EXP RNAV TRANSITION TO ILS APCH, RWY 25R. RNP APCH IS AVBL ON REQ, RWY 25R. EXP ILS APCH RWY 25L. CAUTION POSSIBLE GP FLUCTUATION RWY 25L. RWY 25 RUNWAY CONDITION REPORT AT 0000Z. RWY 25R RUNWAY CONDITION CODES 5 , 5 , 5 . RWY SFC ALL PARTS WET. RWY 25L RUNWAY CONDITION CODES 5 , 5 , 5 . RWY SFC ALL PARTS WET. SIG WS FCST 25R 25L. WIND RWY 25R 210/11KT RWY 25L 170/07KT. VIS RWY 25R 9KM RWY 25L 10KM. MOD SHRA. CLD FEW 800FT FEW CB 1200FT SCT 1800FT. T29 DP25. QNH 1009HPA. TREND TEMPO 240/25KT MAX35 VIS 2500M MOD TSRA MOD SHRA. ACK INFO G ON FIRST CTC WITH APP.\n[Departure ATIS] VHHH DEP ATIS Y 0108Z DEPARTURES, RWY 25C/L. RWY 25 RUNWAY CONDITION REPORT AT 0000Z. RWY 25C RUNWAY CONDITION CODES 5 , 5 , 5 . RWY SFC ALL PARTS WET. RWY 25L RUNWAY CONDITION CODES 5 , 5 , 5 . RWY SFC ALL PARTS WET. INDEPENDENT PARALLEL DEPARTURE IN PROGRESS. SIG WS FCST 25C 25L. WIND RWY 25C 210/13KT RWY 25L 200/13KT. VIS RWY 25C 5KM RWY 25L 6KM. MOD SHRA. CLD FEW 800FT FEW CB 1200FT SCT 1800FT. T29 DP25. QNH 1009HPA. TREND TEMPO 240/25KT MAX35 VIS 2500M MOD TSRA MOD SHRA. ACK INFO Y ON FIRST CTC WITH DELIVERY .",
    "RCTP": "[Arrival ATIS] RCTP ARR ATIS K 0100Z EXP ILS APCH RWY23L AND RWY23R ARR/DEP. WIND VRB/03KT VIS 10 KM OR MORE CLD FEW 1500FT SCT 20000FT T 34 DP 23 QNH 1011HPA NOSIG DUE TO FLOW CONTROL BY MANILA F-I-R, TRAFFIC CONCERNED MAY BE DELAYED. CTN BIRD ACTIVITY IN THE VCY OF THE AD. INFORM TAIPEI APCH OR TAIPEI TOWER ON INITIAL CONTACT YOU HAVE INFORMATION K\n[Departure ATIS] RCTP DEP ATIS K 0100Z EXP ILS APCH RWY23L AND RWY23R ARR/DEP. WIND VRB/03KT VIS 10 KM OR MORE CLD FEW 1500FT SCT 20000FT T 34 DP 23 QNH 1011HPA NOSIG DUE TO FLOW CONTROL BY MANILA F-I-R, TRAFFIC CONCERNED MAY BE DELAYED. CTN BIRD ACTIVITY IN THE VCY OF THE AD. INFORM TAIPEI APCH OR TAIPEI TOWER ON INITIAL CONTACT YOU HAVE INFORMATION K",
    "ZGSZ": "[Arrival ATIS] ZGSZ ARR ATIS H 0100Z EXP ILS APCH 15 EXP ILS OR VIS APCH 16R WIND VRB/1MPS VIS 6000M SHRA CLD SCT 270M /FEW CB 600M /BKN 990M T 27 /DP 26 QNH 1009 HPA INDEPENDENT PARALLEL DEPARTURES DEPENDENT PARALLEL APPROACHES MISSED APPROACH ALTITUDE SETTING 1200METERS WHEN AIRBORNE CONTACT ZHUHAI APPROACH EXPECTED RNP ILS DME Z APPROACH RWY 15 16L 16R RWYCC 5/5/5 ISSUED AT 2320UTC WET/WET/WET DPT NR/NR/NR COV 100PCT/100PCT/100PCT ADZ YOU HAVE INFO H.\n[Departure ATIS] ZGSZ DEP ATIS G 0030Z DEP RWY 15 & 16L WIND VRB/1MPS VIS 6000M SHRA CLD SCT 270M /FEW CB 600M /BKN 990M T 26 /DP 25 QNH 1009 HPA INDEPENDENT PARALLEL DEPARTURES DEPENDENT PARALLEL APPROACHES MISSED APPROACH ALTITUDE SETTING 1200METERS WHEN AIRBORNE CONTACT ZHUHAI APPROACH EXPECTED RNP ILS DME Z APPROACH RWY 15 16L 16R RWYCC 5/5/5 ISSUED AT 2320UTC WET/WET/WET DPT NR/NR/NR COV 100PCT/100PCT/100PCT ADZ YOU HAVE INFO G.",
    "WSSS": "[Arrival ATIS] WSSS ARR ATIS X 0130Z METREPORT 0130Z ILS APCHRWY 20R SIMUL INDEPENDENT ILS AND VISUAL APPROACHES ARE CONDUCTED ON RWY 20. TWY W 9 CLOSED, RWY 02C 20C RAPID EXIT TAXIWAY INDICATOR LIGHTS OFF WIND 160/ 07KT VRB BTN120 AND180 VIS 10KM CLD SCT 1500FT FEW TCU 1800FT FEW CB 2000FT T29 DP26 QNH 1013HPA NOSIG ACK ATIS X\n[Departure ATIS] WSSS DEP ATIS Y 0130Z METREPORT 0130Z RWY 20C SIMUL INDEPENDENT ILS AND VISUAL APPROACHES ARE CONDUCTED ON RWY 20. TWY W 9 CLOSED, RWY 02C 20C RAPID EXIT TAXIWAY INDICATOR LIGHTS OFF WIND 170/ 08KT VIS 10KM CLD SCT 1500FT FEW TCU 1800FT FEW CB 2000FT T29 DP26 QNH 1013HPA NOSIG DEP,INITIAL CMB 3000FT ACK ATIS Y",
    "WMKK": "[Arrival ATIS] WMKK ARR ATIS G 2218Z WMKK ARR INFO G. TIME 2200. INDEPENDENT PARALLEL APPROACHES FOR RWY 14 L AND 15 ARE IN PROGRESS. EXP RNAV / ILS APCH FOR RWY 14 LEFT. EXP RNAV / ILS APCH FOR RWY 15. WIND RWY 14L 010 DEG, 5 KT. WIND RWY 15 330 DEG, 5 KT. VIS RWY 14L TDZ 10 KM OR MORE. VIS RWY 15 TDZ 10 KM OR MORE. CLD FEW 3000 FT. T 26. DP 24. QNH 1010. NOSIG. AT FIRST CONTACT WITH LUMPUR RADAR, NOTIFY RCPT OF G\n[Departure ATIS] WMKK DEP ATIS N 0053Z WMKK DEP INFO N. TIME 0030. INDEPENDENT PARALLEL DEPARTURES FOR RWY 14 R AND 15 ARE IN PROGRESS. RWY 14 RIGHT. RWY 15. WIND RWY 14R 070 DEG, 3 KT. WIND RWY 15 100 DEG, 3 KT. VIS RWY 14R TDZ 10 KM OR MORE. VIS RWY 15 TDZ 10 KM OR MORE. CLD FEW 3000 FT. T 27. DP 25. QNH 1011. NOSIG. ALL DEP ACFT TO CONTACT LUMPUR DEP AT 135 DECIMAL 25 MHZ WHEN ABN. AT FIRST CONTACT WITH LUMPUR GROUND, NOTIFY RCPT OF N",
    "VTBS": "[Arrival ATIS] VTBS ARR ATIS I 0100Z VTBS ARR ATIS I 0100Z EXP ILS Z APCH ARR RWY 19 OR RNP APCH RWY 20R , ,PILOT SHALL ADZ BKK APCH ON INITIAL CTC IF UNA TO CONDUCT RNP APCH DUE TO OPERATIONAL CONSTRAINT 0100Z WIND VRB BTN 330/ AND 070/1KT VIS 10KM CLD FEW 2000FT T30 DP25 QNH 1011HPA TREND NOSIG ADZ BKK APCH ON INITIAL CONTACT THAT YOU HAVE INFO I\n[Departure ATIS] VTBS DEP ATIS A 1930Z VTBS DEP ATIS A 1931Z DEP RWY 20L RWY 20R CLSD DUE TO WIP , ,AFT AIRBORNE ALL DEPARTING ACFT SHALL CTC 119.25 1930Z WIND 210/4KT VIS 10KM CLD FEW 2000FT T30 DP24 QNH 1010HPA TREND NOSIG ADZ GND WHEN INITIAL CONTACT YOU HAVE INFO A",
    "VTBU": "[Arrival ATIS] VTBU ARR ATIS W 1400Z VTBU ARR ATIS W 1402Z RNP RWY 18 TRL FL130 1400Z WIND 250/3KT VIS 10KM CLD FEW 2000FT T29 DP27 QNH 1007HPA TREND NOSIG ADZ CONTROLLER WHEN INITIAL CONTACT YOU HAVE INFO W\n[Departure ATIS] VTBU DEP ATIS D VTBU ARR/DEP DATIS RPT VTBU ARR ATIS D 0330Z ILS \"Z\" APCH RWY 18 TRL FL130 0330Z WIND 110/4KT VRB BTN 350/ AND 120/ VIS 6KM CLD FEW 2000FT T31 DP27 QNH 1014HPA TREND NOSIG ADZ CONTROLLER WHEN INITIAL CONTACT YOU HAVE INFO D",
    "ROAH": "[Arrival ATIS] ROAH ARR ATIS P 1404Z M1400 (APCH)RNP RWY18R USING RWY 18R DEP FREQ 126.5 258.3 RWY 18L/36R CLSD M 021400Z AUTO 19005KT 9999 NCD 27/26 Q1015/A2998= Q/TWO NINE NINE EIGHT STP\n[Departure ATIS] ROAH DEP ATIS Z 0534Z M0530 (APCH)RNP RWY18R LDG RWY 18R DEP RWY 18L DEP FREQ 126.5 258.3 M 010530Z 20011KT 40KM FEW010CU 30/27 Q1012/A2988= Q/TWO NINE EIGHT EIGHT STP",
    "VVDN": "[Arrival ATIS] VVDN ARR ATIS C 2302Z VVDN INFO C 2302Z. ILS VICTOR APPROACH 35L.. DPTG RWY 35R.. 2302Z. WIND 230/01KT VIS 5KM CLD NSC T27 DP25 QNH 1008HPA TREND NOSIG. ADZ ON INITIAL CTC YOU HAVE INFO. C.\n[Departure ATIS] VVDN DEP ATIS S 0604Z VVDN INFO S 0604Z. ILS VICTOR APPROACH 35L.. DPTG RWY 35R.. 0604Z. WIND VRB/09KT CAVOK T37 DP24 QNH 1006HPA TREND NOSIG. ADZ ON INITIAL CTC YOU HAVE INFO. S.",
    "RCKH": "[Arrival ATIS] RCKH ARR ATIS D 0030Z EXPECT ILS APPROACH RWY 09 ARR/DEP TAXIWAY BRAVO, TAXIWAY DELTA AND TAXIWAY ECHO CLOSED DUE MAINTENANCE. RUNWAY 0 9 ARRIVALS PLAN VACATE VIA CHARLIE OR FOXTROT AND EXPEDITE VACATE. WIND 170/09KT VARYING BTN 140 AND 210 VIS 10 KM OR MORE CLD FEW 1400FT SCT 12000FT T 30 DP 25 QNH 1011HPA NOSIG CAUTION BIRD ACTIVITY IN VICINITY OF THE AERODROME. INFORM KAO-HSIUN APCH OR KAO-HSIUN TOWER ON INITIAL CONTACT YOU HAVE INFORMATION D\n[Departure ATIS] RCKH DEP ATIS F 1000Z EXPECT ILS APPROACH RWY 09 ARR/DEP TAXIWAY JULIETT, TAXIWAY BRAVO, TAXIWAY DELTA AND TAXIWAY ECHO CLOSED DUE MAINTENANCE. RUNWAY 0 9 ARRIVALS PLAN VACATE VIA CHARLIE OR FO",
    "KLAX": "[Arrival ATIS] KLAX ARR ATIS K 0119Z LAX ATIS INFO K 0119Z SPECIAL. 25012KT 10SM BKN014 19/15 A2991 (TWO NINER NINER ONE) RMK AO2 T01940150. INST APCHS AND RNAV RNP APCHS ILS RY 24R, ILS RY 25L, AND SIMUL APCHS IN PROG BTWN LAX AND HHR, SIMUL INSTR DEPARTURES IN PROG RWYS 24 AND 25. CTC L A GC ON 121.75 FOR PUSH OR TAXI ON A. TWY C CLSD BTN TWY, C8 AND TWY C9 , , TWY B CLSD BTN TWY, F AND TWY B1, TWY B1 CLSD. ILS RY 25R OTS, RY 25R SFL OTS, RY 24L ALSF-2 OTS. LAX VOR UNMONITORED. IF ASSIGNED RUNWAY 25R FOR DEPARTURE, EXPECT DEPARTURE FROM INTERSECTION FOXTROT. TAXILANE CHARLIE EIGHT RESTRICTED TO AIRCRAFT WITH A WINGSPAN LESS THAN ONE HUNDRED EIGHTEEN FEET. USE CAUTION FOR INCREASED DRONE ACTIVIY IN THE VICINITY OF SOFI STADIUM AT OR BELOW 200FT AGL DURING THE WORLD CUP FROM 06/12/26 THROUGH 07/10/2026. HAZD WX INFO FOR LAX AREA AVBL FM FSS. USE CAUTION FOR HANG GLIDING 1 MILE SOUTH LOS ANGELES VOR. BIRD ACTIVITY VICINITY ARPT. INCLUDE YOUR CALL SIGN IN ALL READBACKS. USE CAUTION WHEN EXITING RY24R AT TWY V, W, AND Y, TO HOLD SHORT OF RY24L. MULTIPLE RUNWAY INCURSIONS HAVE OCCURRED. ...ADVS YOU HAVE INFO K.\n[Departure ATIS] KLAX DEP ATIS K 0953Z LAX ATIS INFO K 0953Z. 23004KT 9SM OVC006 17/15 A2992 (TWO NINER NINER TWO) RMK AO2 SLP128 T01670150. INST APCHS AND RNAV RNP APCHS ILS RY 24L, ILS RY 25L, AND SIMUL APCHS IN PROG BTWN LAX AND HHR, SIMUL INSTR DEPARTURES IN PROG 24L, 25R. CTC L A GC ON 121.75 FOR PUSH OR TAXI ON A. RWY 2 4 RIGHT SIX LEFT CLSD. TWY C CLSD BTN TWY, C8 AND TWY C9 , , TWY B CLSD BTN TWY, F AND TWY B1, TWY B1 CLSD. ILS RY 25R OTS, RY 25R SFL OTS, RY 24L ALSF-2 OTS. LAX VOR UNMONITORED. IF ASSIGNED RUNWAY 25R FOR DEPARTURE, EXPECT DEPARTURE FROM INTERSECTION FOXTROT. TAXILANE CHARLIE EIGHT RESTRICTED TO AIRCRAFT WITH A WINGSPAN LESS THAN ONE HUNDRED EIGHTEEN FEET. USE CAUTION FOR INCREASED DRONE ACTIVIY IN THE VICINITY OF SOFI STADIUM AT OR BELOW 200FT AGL DURING THE WORLD CUP FROM 06/12/26 THROUGH 07/10/2026. HAZD WX INFO FOR LAX AREA AVBL FM FSS. BIRD ACTIVITY VICINITY ARPT. TWR FREQ FOR ALL RWYS IS 120.95. CD AND GC FREQ IS 121.75. INCLUDE YOUR CALL SIGN IN ALL READBACKS. USE CAUTION WHEN EXITING RY24R AT TWY V, W, AND Y, TO HOLD SHORT OF RY24L. MULTIPLE RUNWAY INCURSIONS HAVE OCCURRED. ...ADVS YOU HAVE INFO K.",
    "KONT": "[Arrival ATIS] KONT ARR ATIS L 1453Z ONT ATIS INFO L 1453Z. 00000KT 5SM HZ OVC013 17/13 A2997 (TWO NINER NINER SEVEN). ILS APR IN USE. RY26L & RY26R. LNDG AND DEPG RY 26L AND RY 26R. NOTAMS... TAXIWAY SIERRA FIVE CLOSED. TAXIWAY SIERRA CLOSED BETWEEN TAXIWAY SIERRA 8 AND TAXIWAY WHISKEY. RY 26L IM OTS, RY 26R ALS OTS. 75 FT UNLIGHTED CRANE AT GUARDIAN JET CENTER. USE CAUTION FOR NUMEROUS BIRDS OBSERVED IN VICINITY OF ONT. PILOTS READBACK RWY ASSIGNMENTS AND HOLD SHORT INSTRUCTIONS. ...ADVS YOU HAVE INFO L.\n[Departure ATIS] KONT DEP ATIS N 0553Z - KONT ATIS INFO N 0553Z. 24004KT 10SM BKN250 22/15 A2988 (TWO NINER EIGHT EIGHT) RMK AO2 SLP100. ILS AND VIS APR IN USE, RY26L & RY26R. LNDG AND DEPG RY 26L AND RY 26R. NOTAMS... TAXIWAY SIERRA CLSD BETWEEN SIERRA 8 AND W TAXIWAY Q SOUTH OF RWY 26L CLSD TAXIWAY T CLSD TAXIWAY SIERRA 5 CLSD. RY 26L IM OTS, RY 26R ALS OTS. USE CAUTION FOR NUMEROUS BIRDS OBSERVED IN VICINITY OF ONT. HAZD WX INFO FOR SOUTHERN CA AVBL ON FSS FREQUENCIES. PILOTS READBACK RWY ASSIGNMENTS AND HOLD SHORT INSTRUCTIONS. ...ADVS YOU HAVE INFO N.",
    "KSFO": "[Arrival ATIS] KSFO ARR ATIS E 1156Z - KSFO ATIS INFO E 1156Z. 00000KT 10SM FEW018 14/10 A2990 (TWO NINER NINER ZERO). ILS RY 28L APP IN USE. DEPG RWYS 28L. DEPG ACFT SHOULD BE PREPARED FOR A SHORT NOTICE RY CHANGE. RY 28R, 1L, 1R CLSD. NUMEROUS TWY CLOSURES FOR CONSTRUCTION ON THE FIELD, PILOTS CHECK NOTAMS. DEPG ACFT WAITING ON FINAL NUMBERS ADVISE GROUND PRIOR TO ENTERING TWY F. ...ADVS YOU HAVE INFO E.\n[Departure ATIS] KSFO DEP ATIS K 1556Z SFO ATIS INFO K 1556Z. 15011KT 10SM FEW006 SCT200 16/11 A2994 (TWO NINER NINER FOUR). SIMUL CLSLY SPCD DPNDNT ILS RY 28R AND ILS RY 28L APP IN USE. DEPG RWYS 28L, 28R. DEPG ACFT SHOULD BE PREPARED FOR A SHORT NOTICE RY CHANGE. RY 1L, 1R CLSD. NUMEROUS TWY CLOSURES FOR CONSTRUCTION ON THE FIELD, PILOTS CHECK NOTAMS. DEPG ACFT WAITING ON FINAL NUMBERS ADVISE GROUND PRIOR TO ENTERING TWY F. ...ADVS YOU HAVE INFO K.",
    "KOAK": "[Arrival ATIS] KOAK ARR ATIS S 1453Z OAK ATIS INFO S 1453Z. 18008KT 10SM FEW013 BKN017 BKN200 16/11 A2994 (TWO NINER NINER FOUR). RNAV, AND VA, RWY 30. ILS, AND VA, RWY 28R, RNAV Z RUNWAY 30, ILS RUNWAY 28R. FLOW TO LAX, SAN, SEA. ILS RWY 30, OTS, RWY 28R RAIL, OTS. UNN LIT CLOSE-IN OBSTACLES FOR RWY 30 DEPARTURES. RWY 30 DEPARTURES ARE ADVISED TO AVOID TURNING LEFT PRIOR TO DEPARTURE END OF RUNWAY. CTN, CRANE 1 POINT 6 NAUTICAL MILES, , AT 140 FEET AGL. CAUTION, BIRDS NEAR AIRPORT. ...ADVS YOU HAVE INFO S.\n[Departure ATIS] KOAK DEP ATIS O 1953Z OAK ATIS INFO O 1953Z. 28014KT 10SM FEW005 22/14 A2988 (TWO NINER EIGHT EIGHT). RNAV Z/VA RWY 30 ILS/VA RWY 28R. FLOW TO LAX, LAS, SAN. ILS RWY 30, OTS. UNN LIT CLOSE-IN OBSTACLES FOR RWY 30 DEPARTURES. RWY 30 DEPARTURES ARE ADVISED TO AVOID TURNING LEFT PRIOR TO DEPARTURE END OF RUNWAY. SIGNATURE UNI-COM OUT OF SERVICE. CAUTION, BIRDS NEAR AIRPORT. ...ADVS YOU HAVE INFO O.",
    "KDFW": "[Arrival ATIS] KDFW ARR ATIS O 1653Z DFW ARR INFO O 1653Z. 15009KT 10SM FEW050 FEW200 SCT250 32/19 A3003 (THREE ZERO ZERO THREE). SIMUL VISUAL APCH TO RWYS, 13R, 18R, 17C, 17L. LDG RWY 17C EXP LAHSO TWY B 10460 FT AVAIL, LDG RWY 18R EXP LAHSO TWY B 10100 FT AVL. NOTICE TO AIRMEN. WARNING, RWY 18L HAS BEEN SHORTENED, 9273 FT AVAILABLE. RWY 18L ILS OTS, CL OTS. BIRD ACTIVITY VCNTY ARPT. ...ADVS YOU HAVE INFO O.\n[Departure ATIS] KDFW DEP ATIS W 1553Z - KDFW DEP INFO W 1553Z. 21022G32KT 10SM FEW025 FEW180 SCT250 31/21 A2994 (TWO NINER NINER FOUR) RMK AO2 PK WND 20032/1547 SLP128 T03110206. SIMUL PARL TRAFFIC DEPG RWYS 17R, 18L. NOTICE TO AIRMEN. WARNING, RWY 18L HAS BEEN SHORTENED, 9273 FT AVAILABLE. RWY 18L CL OTS. BIRD ACTIVITY VCNTY ARPT. ...ADVS YOU HAVE INFO W.",
    "KIAH": "[Arrival ATIS] KIAH ARR ATIS Q 1053Z IAH ATIS INFO Q 1053Z. 00000KT 10SM FEW020 FEW250 24/24 A3000 (THREE ZERO ZERO ZERO). ARRIVALS EXPECT ILS OR RNAV Y RY 26R, ILS OR RNAV Y RY 26L, ILS OR RNAV Y RY 27. SIMUL APPROACHES IN USE. DEPG RY 15L, RY 15R. NOTICE TO AIRMEN. UNITED RAMP CONTROL IN EFFECT. RY 15R, 33L CLSD. HAZD WX INFO FOR IAH AREA AVBL FM FSS. BIRD ACTIVITY VICINITY ARPT. CRANES ARE DOWN. TWY SA CLSD BTN TWY, SF AND TWY SK , TWY SB CLSD BTN TWY, SF AND TWY SK , , TWY WB CLSD BTN TWY, WG AND TWY WH . TWY EA CLSD. NOTAM ATIS IN USE ON FREQUENCY 126.225. ...ADVS YOU HAVE INFO Q.\n[Departure ATIS] KIAH DEP ATIS A 2053Z IAH ATIS INFO A 2053Z. 19008G16KT 10SM SCT035 BKN250 33/24 A2993 (TWO NINER NINER THREE) RMK AO2 LTG DSNT E TSB02E23 SLP135 CB DSNT NE-E AND SW MOV NE 60000 T03280239 57019. ARRIVALS EXPECT ILS OR RNAV Y RY 26R, ILS OR RNAV Y RY 26L, ILS OR RNAV Y RY 27. SIMUL APPROACHES IN USE. DEPG RY 15L, RY 15R. NOTICE TO AIRMEN. UNITED RAMP CONTROL IN EFFECT. ALL RWY COND CODES, , 5 , , 5 , , 5 , AT 1730Z. HAZD WX INFO FOR IAH AREA AVBL FM FSS. BIRD ACTIVITY VICINITY ARPT. TWY SA CLSD BTN TWY, SG AND TWY SK , TWY SB CLSD BTN TWY, SG AND TWY SK , , TWY SG CLSD, TWY EA CLSD. NOTAM ATIS IN USE ON FREQUENCY 126.225. ...ADVS YOU HAVE INFO A.",
    "KORD": "[Arrival ATIS] KORD ARR ATIS J 1651Z ORD ATIS INFO J 1651Z. 10004KT 10SM FEW038 BKN250 31/22 A3007 (THREE ZERO ZERO SEVEN) RMK AO2 SLP175 CB DSNT SW-W T03060217. ARR EXP VECTORS ILS RWY 28C APCH, VISUAL APCH RWY 27C, VISUAL APCH RWY 27R. SIMUL APCHS IN USE. LAND AND HOLD SHORT OPERATIONS ARE IN EFFECT. RWY 27C ARR PLAN TO H/S OF TWY V V, 9 THSD 7 HND 25 FT AVBL, RWY 28C ARR PLAN TO H/S OF TWY Z, 9 THSD 6 HND TEN FT AVBL. DEPS EXP RWYS 22L 27L FROM T T 9960 FT AVL. RWY 4L, 22R CLSD. RWY 22R LOC OTS, RWY 9L IM OTS, RWY 9C IM OTS, RWY 10L IM OTS, RWY 10R IM OTS, RWY 27R IM OTS, RWY 28L IM OTS, RWY 28R IM OTS, RWY 9L PAPI OTS, RWY 27R PAPI OTS. PILOTS USE CTN FOR BIRD ACTIVITY IN THE VICINITY OF THE ARPT. HAZD WX INFO FOR ORD AREA AVBL ON FSS. USE CTN FOR PERSONNEL AND EQUIP AT NUMEROUS SITES ON THE FIELD. READBACK ALL RWY HOLD SHORT INSTRUCTIONS. WHEN READY TO TAXI CONTACT GND METERING ON FREQ 121.67. ...ADVS YOU HAVE INFO J.\n[Departure ATIS] KORD DEP ATIS X 1251Z - KORD ATIS INFO X 1251Z. 34006KT 10SM SCT021 BKN030 BKN060 27/23 A3005 (THREE ZERO ZERO FIVE) RMK AO2 SLP170 T02720228. ARR EXP VECTORS ILS RWY 9L APCH, ILS PRM RWY 10C APCH, ILS PRM Y RY 10R APCH. CTN RY 10R LOC IS OFFSET 2.5 DEGREES. SIMUL APCHS IN USE. DEPS EXP RWYS 9C FROM F F 9200 FT AVL, 10L FROM DD. 10,093 FT AVBL. ATTN PILOTS. SIMUL PARL DEPS IN USE. EXP TO INITIALLY FLY RWY. HDG ON DEP. PILOTS MUST READ BACK DRCTN OF TURNS BY ATC. RWY 4L, 22R CLSD. RWY 22R LOC OTS, RWY 9L IM OTS, RWY 9C IM OTS, RWY 10L IM OTS, RWY 10R IM OTS, RWY 27R IM OTS, RWY 28L IM OTS, RWY 28R IM OTS, RWY 9L PAPI OTS, RWY 27R PAPI OTS. PILOTS USE CTN FOR BIRD ACTIVITY IN THE VICINITY OF THE ARPT. USE CTN FOR PERSONNEL AND EQUIP AT NUMEROUS SITES ON THE FIELD. MODERATE TURB VC OF ORD. READBACK ALL RWY HOLD SHORT INSTRUCTIONS. WHEN READY TO TAXI CONTACT GND METERING ON FREQ 121.67. ...ADVS YOU HAVE INFO X.",
    "KJFK": "[Arrival ATIS] KJFK ARR ATIS G 1651Z JFK ATIS INFO G 1651Z. 21013KT 10SM FEW070 37/21 A2998 (TWO NINER NINER EIGHT). APPROACH IN USE ILS RY 22L, ILS RY 22R. DEPG RY 22R. CRI OTS. RWY 22L/4R INNER MARKER OTS. NUM CRANES OPERATING AT JFK. BIRD ACTIVITY VICINITY ARPT. READBACK ALL RWY ASSIGNMENTS AND HOLD SHORT INSTRUCTIONS. ...ADVS YOU HAVE INFO G.\n[Departure ATIS] KJFK DEP ATIS D 1451Z JFK ATIS INFO D 1451Z. 36006KT 10SM CLR 37/19 A2998 (TWO NINER NINER EIGHT). APPROACH IN USE ILS RY 31R, VISUAL APCH RY 31L. DEPG RY 31L. RWY 4L, 22R CLSD. CRI OTS. RWY 22L/4R INNER MARKER OTS. NUM CRANES OPERATING AT JFK. BIRD ACTIVITY VICINITY ARPT. READBACK ALL RWY ASSIGNMENTS AND HOLD SHORT INSTRUCTIONS. ...ADVS YOU HAVE INFO D.",
    "KIND": "[Arrival ATIS] KIND ATIS Q 1254Z IND ATIS INFO Q 1254Z. 24006KT 9SM CLR 27/24 A3014 (THREE ZERO ONE FOUR). PARL ILS RWY 23R AND 23L APPROACHES IN USE. CROSS RUNWAY OPERATIONS MAY BE IN EFFECT. NOTICE TO AIRMEN . RWY 32 GS OTS. TWY, P BTN TWY, H AND TWY B CLSD. P PAD CLSD. ILS RUNWAY 5R AND RUNWAY 5L INNER MARKER UNSERVICEABLE. RUNWAY 32 PAPI OTS. RUNWAY 32 TOUCHDOWN RVR OTS. RUNWAY 14 ROLLOUT RVR OTS. ...ADVS YOU HAVE INFO Q.\n[Departure ATIS] KIND DEP ATIS H 1854Z IND ATIS INFO H 1854Z. 26009G19KT 10SM SCT036 BKN041 BKN170 23/16 A2981 (TWO NINER EIGHT ONE) RMK AO2 SLP088 T02280156. PARL ILS RWY 23R AND 23L APPROACHES IN USE. CROSS RU",
    "KDTW": "[Arrival ATIS] KDTW ARR ATIS I 1453Z DTW ARR INFO I 1453Z. 26008KT 10SM FEW028 SCT045 SCT250 31/24 A3007 (THREE ZERO ZERO SEVEN) RMK AO2 SLP175 T03110239 50005. SIMUL VISUAL RY 21L, RY 22R USE Z LOC FREQ 111.95 APCH IN USE. NOTICE TO AIRMEN. RWY 21R, 3L CLSD, RWY 27L, 9R CLSD, RWY 27R, 9L CLSD. RY 22L ALS OTS, RY 22R PAPI LGTS OTS. PILOTS USE CTN FOR BIRD ACTIVITY. DEPARTURE ATIS 118.125. ...ADVS YOU HAVE INFO I.\n[Departure ATIS] KDTW DEP ATIS Q 2253Z - KDTW DEP INFO Q 2253Z. 21009KT 10SM FEW050 FEW250 33/24 A2991 (TWO NINER NINER ONE). DEPG RWY 21R, RWY 22L ;. NOTICE TO AIRMEN. RWY 27L, 9R CLSD, RWY 27R, 9L CLSD. PILOTS USE CTN FOR BIRD ACTIVITY. ...ADVS YOU HAVE INFO Q.",
    "KMSP": "[Arrival ATIS] KMSP ARR ATIS G 0953Z MSP ARR INFO G 0953Z. 00000KT 10SM CLR 22/21 A2989 (TWO NINER EIGHT NINER) RMK AO2 SLP116 T02220206. VISUAL RWY 12R APCH IN USE, VISUAL RWY 12L APCH IN USE. NOTICE TO AIRMEN. RWYS 4, 22 CLSD. TWY R7. R8. R9. R10. CLOSED, TWY R BETWEEN R6 AND R10 CLOSED. GS RWY 12L OTS, RWYS 12R, 12L, INNER MARKER OTS.. HAZD WX INFO FOR MSP AREA AVBL FM FSS. CTN, BIRDS NEAR MSP. READ BACK HS AND ALT. ALL ACFT TAXI WITH TRANSPONDER AND ALTITUDE ENCODING ON. ...ADVS YOU HAVE INFO G.\n[Departure ATIS] KMSP DEP ATIS P 1653Z - KMSP DEP INFO P 1653Z. 15006KT 10SM FEW020 FEW200 BKN250 27/22 A2994 (TWO NINER NINER FOUR). DEPARTING RWY 12L, RWY 12R, RWY 17. NOTICE TO AIRMEN. RWYS 4, 22 CLSD. TWY R7. R8. R9. R10. CLOSED, TWY R BETWEEN R6 AND R10 CLOSED. ALL ACFT CTC METERING ON ONE THREE THREE POINT FIVE SEVEN WHEN READY TO PUSHBACK OR TAXI. HAZD WX INFO FOR MSP AREA AVBL FM FSS. CTN, BIRDS NEAR MSP. READ BACK HS AND ALT. ALL ACFT TAXI WITH TRANSPONDER AND ALTITUDE ENCODING ON. ...ADVS YOU HAVE INFO P.",
    "CYEG": "[Arrival ATIS] CYEG ARR ATIS W 1700Z VRB05KT 20SM FEW023 FEW110 FEW250 18/12 A2986 APCH RNAV Z OR Y RWY 02, INFORM ARRL OF REQ APCH ON INITIAL CTC. LDG AND DEP RWY 02. SIMUL APPROACHES MAY BE IN EFCT. CYYC GDP IN EFCT CTC CYEG FIC ON FREQ 122.375 OR TEL 1-780-890-8386. INFORM CYEG ATC INFO W\n[Departure ATIS] CYEG DEP ATIS W 1700Z CYEG ARR ATIS W 1700Z VRB05KT 20SM FEW023 FEW110 FEW250 18/12 A2986 APCH RNAV Z OR Y RWY 02, INFORM ARRL OF REQ APCH ON INITIAL CTC. LDG AND DEP RWY 02. SIMUL APPROACHES MAY BE IN EFCT. CYYC GDP IN EFCT CTC CYEG FIC ON FREQ 122.375 OR TEL 1-780-890-8386. INFORM CYEG ATC INFO W",
    "EHAM": "[Arrival ATIS] EHAM ARR ATIS I 1720Z EHAM ARRIVAL INFO I. DEMAND. MAIN LANDING RWY 27. SECONDARY LANDING RWY 36 C. TRANSITION LEVEL 040. WIND 330 DEG, 14 KT, VRB BTN 300 AND 010 DEG, 23 KT MAX, 9 KT MNM. WIND SECONDARY RUNWAY 340 DEG, 17 KT, 20 KT MAX, 11 KT MNM. VIS 10 KM OR MORE. CLD FEW 3500 FT. T 19. DP 10. QNH 1022 HPA. NOSIG. OPERATIONAL REPORT. CONVERGING APPROACHES IN PROGRESS. ILS RWY 36 C DOWNGRADED CLASSIFICATION I/C/ 1 SUPPORTS CAT 1. CONTACT APCH WITH CALLSIGN ONLY. END OF INFO I\n[Departure ATIS] EHAM DEP ATIS O 0833Z EHAM DEPARTURE INFO O. DEMAND. MAIN DEPARTURE RWY 24. MAIN LANDING RWY 18 R. RWY 24 RCR AT TIME 0806. RWYCC: 5/5/5 WET/WET/WET COVERAGE(%): 100/100/100. WIND 240 DEG, 15 KT, 26 KT MAX, 11 KT MNM. VIS 10 KM OR MORE. WX -RADZ. CLD FEW 700 FT SCT 1000 FT BKN 1600 FT. T 18. DP 16. QNH 1017 HPA. OPERATIONAL REPORT. CONVERGING DEPARTURES AND APPROACHES IN PROGRESS. INFORM SCHIPHOL DEL BY VOICE IF UNABLE TO COMPLY WITH NADP 2. END OF INFO O",
    "EBBR": "[Arrival ATIS] EBBR ARR ATIS N 1520Z EBBR NAT, EXP VECT FOR ILS APP ARR RWY25L RSCD AT 1008 RWY25L WET, RWYCC 555. DEP RWY25R TRL 055 TWY C6 CLSD. ILS RWY 25R U/S. RNP RWY 25R AT ATC DISCRETION 260/6KT VRB BTN 220 AND 280 VIS ABV 10KM BKN2700FT T22 DP16 QNH 1022HPA NOSIG CFM ARR N\n[Departure ATIS] EBBR DEP ATIS K 1550Z EBBR NAT, DEP RWY25R RSCD AT 1536 RWY25R DRY. ARR RWY25L TRL 055 TWY OUT6, B3 CLSD. OUT7, E6, B1 MAX CAT C 250/9KT MNM6 MAX14 VIS ABV 10KM FEW3800FT T26 DP17 QNH 1019HPA NOSIG CFM DEP K",
    "EDDF": "[Arrival ATIS] EDDF ARR ATIS F 0120Z -ARR-ATIS EDDF F METAR 180120 -EXPECT RNP X APCH -RWY 25L - -TRL 60 - -02004KT -CAVOK - - -T18 DP16 -QNH1020 - -TREND NOSIG\n[Departure ATIS] EDDF DEP ATIS U 1520Z DEP-ATIS EDDF U METAR 021520 RWY 25C 18 TRL 60 AD WRNG UNTIL 1800 , SFC WIND 270 DEG 15 KT MAX 30 KT , FCST NC 26014KT RWY18 VRB06G17KT CAVOK T29 DP12 QNH1018 TREND NOSIG END OF ATIS U",
    "EDDL": "[Arrival ATIS] EDDL ARR ATIS E 1020Z -ATIS EDDL E METAR 021020 -EXPECT VECTORS ILS APPROACH -RWY 23L -TWY L8 CLOSED BETWEEN TWY M AND RWY 23L -TRL 60 - -24018KT -9999 - -FEW047 -T25 DP12 -QNH1019 - -TREND NOSIG\n[Departure ATIS] EDDL DEP ATIS R EDDL ARR/DEP DATIS RPT -ATIS EDDL R METAR 020550 -EXPECT VECTORS ILS APPROACH -RWY 23L -TWY L8 CLOSED BETWEEN TWY M AND RWY 23L -TRL 60 - -23010KT -CAVOK - - -T19 DP13 -QNH1020 - -TREND NOSIG",
    "EDDK": "[Arrival ATIS] EDDK ATIS K 1020Z -ATIS EDDK K METAR 021020 -EXPECT ILS APCH RWY 24 -RWY 24 -RWY COND RWY 24 AT TIME 0000 RWYCC 6 DEPOSIT TOTAL RWY DRY -TRL 60 -RWY 13R AND RWY 31L CLOSED FOR DEPARTURE AND LANDING: TAXIING BTN THR RWY 13R AND INTERSECTION RWY 24 POSSIBLE : -23012KT -CAVOK - - -T25 DP12 -QNH1020 - -TREND NOSIG\n[Departure ATIS] EDDK DEP ATIS Q EDDK ARR/DEP DATIS RPT -ATIS EDDK Q METAR 291920 -EXPECT ILS APCH -RWY 31R 06 -RWY COND RWY 31R AT TIME 1830 RWYCC 6 DEPOSIT TOTAL RWY DRY RWY 06 AT TIME 1830 RWYCC 6 DEPOSIT TOTAL RWY DRY -TRL 60 -RWY 13R AND RWY 31L CLOSED FOR DEPARTURE AND LANDING: TAXIING BTN THR RWY 13R AND INTERSECTION RWY 24 POSSIBLE : -04003KT -CAVOK - - -T24 DP13 -QNH1024 - -TREND NOSIG",
    "EBLG": "[Arrival ATIS] EBLG ATIS X 1512Z EBLG INFO, EXP RNAV TO ILS APP ARR RWY22L DEP RWY22L RWY 22L DRY, RWYCC 666. TRL 055 TWY A4 DISPLACED. ADZ ON GND FREQ IF UNABLE S4 260/8KT MNM6 MAX15 VIS ABV 10KM FBLRADZ FEW700FT BKN1600FT T19 DP17 QNH 1022HPA TEMPO VIS4500M FBL RADZ BKN1300FT CFM ATIS X",
    "LSZH": "[Arrival ATIS] LSZH ARR ATIS M 1150Z ARRIVALS, EXP ILS APCH, RWY 14. TRL 70. DEP RWY 28. WIND 270 DEG, 5 KT, VRB BTN 220 AND 350 DEG. VIS 10 KM OR MORE, TDZ 10 KM OR MORE. CLD FEW 6000 FT. T 26. DP 10. QNH 1023. NOSIG.\n[Departure ATIS] LSZH DEP ATIS Z 1150Z DEP RWY 28. TRL 70. ARRIVALS, EXP ILS APCH, RWY 14. TMA S 1 IS NOT ACT. TMA S 2 AND S 3 ARE NOT ACT. WIND 280 DEG, 5 KT, VRB BTN 220 AND 350 DEG. VIS 10 KM OR MORE. CLD FEW 6000 FT. T 26. DP 10. QNH 1023. NOSIG.",
    "LIMC": "[Arrival ATIS] LIMC ARR ATIS H 1150Z LIMC ARR H 1150Z I.L.S. ZULU RWY IN USE 35L TL 70 WIND TDZ 140/6KT VRB BTN 080/AND 170/ CAVOK T31 DP09 QNH 1016HPA QFE 0991HPA\n[Departure ATIS] LIMC DEP ATIS A 1450Z LIMC DEP A 1450Z RWY IN USE 35L TL 70 INTERSECTION ECHO WHISKY CLOSED.. WIND END VRB8KT CAVOK T31 DP16 QNH 1018HPA QFE 0993HPA DATALINK CLEARANCE AVAILABLE.... CONTACT 1 3 1 8 8 0 TO BE RELEASED BY THE AIRPORT OPERATOR ...",
    "LIRF": "[Arrival ATIS] LIRF ARR ATIS D 1120Z LIRF ARR D 1120Z RWY 16L ILS W RWY 16R ILS Z RWY IN USE 16L 16R TL 75 DEPENDENT PARL ILS APCH INPR RWY IN USE 16R OR 16L ASSIGNED BY ROME RADAR WIND RWY 16L TDZ 160/7KT VRB BTN 080/AND 190/ RWY 16R TDZ 200/10KT VRB BTN 150/AND 230/ VIS RWY 16L 10KM RWY 16R 10KM CLD RWY 16L SCT 3500FT RWY 16R FEW 3500FT T30 DP18 QNH 1010HPA\n[Departure ATIS] LIRF DEP ATIS B 1020Z LIRF DEP B 1020Z RWY IN USE 34L TL 75 RWYS IN USE FOR ARR 34R AND 34L WIND END 130/13KT VRB BTN 090/AND 160/ VIS 10KM CLD NSC T29 DP18 QNH 1011HPA REA IS SENT AUTOMATICALLY ONCE RLSD BY RAMP WHEN READY CONTACT FIUME RAMP 121.725",
    "EINN": "[Arrival ATIS] EINN ARR ATIS G 1230Z EXPECT I L S CATEGORY 1 LDG RWY06 TKOF RWY06 TRL FL065 02004KT 290V120 9999 FEW013 BKN017 25/20 QNH Q1009 TREND NOSIG ADVISE AT FIRST CONTACT YOU HAVE ATIS",
    "EGLL": "[Arrival ATIS] EGLL ARR ATIS Y 1150Z RUNWAY 27R REDUCED DECLARED DISTANCES WITH TAKE OFF RUN AVAILABLE 3362METRES AND LANDING DISTANCE AVAILABLE 3362METRES LANDING RWY 27R TRANSITION-LEVEL: FL 70 IF STAND GUIDANCE IS OFF OR FAILS, REMAIN ON THE TAXIWAY CENTRELINE AND ADVISE ATC AUTO 28011G23KT 250V330 9999 NCD 25/10 Q1021 TURBULENCE POSSIBLE ON THE LAST MILE OF THE APPROACH FOR RUNWAY 27R ACKNOWLEDGE RECEIPT OF INFORMATION Y\n[Departure ATIS] EGLL DEP ATIS L 1150Z DEPARTURE RWY 27L PILOTS THAT ARE IN RECEIPT OF DATALINK CLEARANCES ARE REMINDED THEY MUST CONTACT DELIVERY ON 121.980 WHEN READY FOR START AUTO 29016KT 9999 NCD 25/10 Q1021 ACKNOWLEDGE RECEIPT OF INFORMATION L AND REPORT AIRCRAFT TYPE AND CURRENT QNH ON FIRST CONTACT WITH HEATHROW",
    "EPWA": "[Arrival ATIS] EPWA ARR ATIS D 1301Z EPWA ARR D. TIME 1300. EXP U ARR ILS Z APCH FOR RWY 33. TRANSITION LEVEL 80. WIND 310 DEG, 9 KT, VRB BTN 280 AND 020 DEG. CAVOK. T 26. DP 11. QNH 1015. NOSIG. CAUTION. BIRD ACT. END OF EPWA ARR D\n[Departure ATIS] EPWA DEP ATIS Y 1437Z EPWA DEP Y. TIME 1435. DEP RWY 29. ARR RWY 33, EXP U ARR ILS Z. REPORT READY FOR STARTUP ON DELIVERY 121 DECIMAL 605. TRANSITION LEVEL 80. WIND 360 DEG, 8 KT, VRB BTN 330 AND 120 DEG. CAVOK. T 31. DP 16. QNH 1019. NOSIG. CAUTION. BIRD ACT. END OF EPWA DEP Y",
    "EFHK": "[Arrival ATIS] EFHK ARR ATIS U 0020Z EXPECT ILS APCH ARR RWY 22L RUNWAY 22L CONDITION REPORT AT 2009 UTC RUNWAY CONDITION CODES 6 , 6 , 6 CONTAMINANTS ALL PARTS 25 PERCENT SLIPPERY WET TRL 65 OBSERVE TAILWIND ON FINAL RWY22L WIND 290 DEG 8 KT CAVOK T 12 DP 9 QNH 1006 NOSIG ACK INFO U\n[Departure ATIS] EFHK DEP ATIS U 1550Z DEP RWYS 22R AND 22L RUNWAY 22R CONDITION REPORT AT 1252 UTC RUNWAY CONDITION CODES 6 , 6 , 6 CONTAMINANTS ALL PARTS DRY RUNWAY 22L CONDITION REPORT AT 1307 UTC RUNWAY CONDITION CODES 6 , 6 , 6 CONTAMINANTS ALL PARTS DRY WIND 110 DEG 8 KT CAVOK T 22 DP 10 QNH 1016 NOSIG ACK INFO U",
    "LTAC": "[Arrival ATIS] LTAC ARR ATIS V 0120Z EXP ILS V APCH 03C DEP RWY 03L RWY 03C WIND VRB 02 KT RWY 03L WIND 110 DEG 03 KT TRL 110 CAVOK T 16 DP 11 QNH 1016 NOSIG FOR DELIVERY CTC 121.9. FOR DELIVERY FIRST USE DIGITAL DEP CLR. CTN BIRD HAZARD OVR AERODROME. APCH FREQUENCY 129.050. TAXIWAY ECHO 1 IS CLOSED. END OF ATIS V",
    "UBBB": "[Arrival ATIS] UBBB ARR ATIS E 0100Z ATIS E EXP ILS/ LDG 34 35 DEP 34 35 IN USE RWY 34 CLEAR DRY 70 RWY 35 CLEAR DRY 70 TLVL 110 WIND WIND RWY 34 310 4 KT SPD MAX 6 MIN 4 WIND RWY 35 320 4 KT SPD MAX 6 MIN 4 VIS 7 KM NSC T 20 / DP 19 QNH 1016 HPA TREND TREND NOSIG MODERATE BIRDS ACT IN VICINITY OF AP END OF ATIS E\n[Departure ATIS] UBBB DEP ATIS K 1700Z ATIS K EXP ILS/ LDG 16 17 DEP 16 17 IN USE RWY 16 CLEAR DRY 70 RWY 17 CLEAR DRY 70 TLVL 110 WIND WIND RWY 16 160 8 KT SPD MAX 8 MIN 6 WIND RWY 17 200 8 KT SPD MAX 10 MIN 6 VIS CAVOK T 25 / DP 19 QNH 1009 HPA TREND TREND NOSIG MODERATE BIRDS ACT IN VICINITY OF AP END OF ATIS K",
    "ZWWW": "[Arrival ATIS] ZWWW ARR ATIS J 0100Z EXP ILSDME Z APCH LDG RWY 26R TA 3000 WIND 280/2MPS VRB BTN 250/ AND 310/ CAVOK T 28 /DP 09 QNH 1012 HPA ADZ YOU HAVE INFO J.\n[Departure ATIS] ZWWW DEP ATIS G 1300Z DEP RWY 26L TA 3000 WIND 300/2MPS CAVOK T 29 /DP 11 QNH 1011 HPA ADZ YOU HAVE INFO G.",
    "ZLXY": "[Arrival ATIS] ZLXY ARR ATIS P 0000Z EXP ILS APCH LDG RWY 05L & 06R WIND 150/2MPS VIS 9999M CLD SCT 1200M /OVC 2100M T 21 /DP 19 QNH 1009 HPA VISUAL APPROACH IN PROGRESS ADZ YOU HAVE INFO P.\n[Departure ATIS] ZLXY DEP ATIS P 0900Z DEP RWY 05L & 06L WIND 080/4MPS VRB BTN 030/ AND 120/ VIS 9999M CLD FEW 1500M /FEW TCU 1500M T 34 /DP 17 QNH 1005 HPA VISUAL APPROACH IN PROGRESS ADZ YOU HAVE INFO P.",
    "ZBAA": "[Arrival ATIS] ZBAA ARR ATIS U 0130Z EXP ILS APCH DEPENDENT PARL INSTR APCH LDG RWY 36L & 36R & 01 WIND 090 DEG 2 MPS 010V140 DEG VIS 4000 BR NSC T 27 /DP 22 QNH 1007 HPA ADZ YOU HAVE INFO U.\n[Departure ATIS] ZBAA DEP ATIS S 0030Z DEP RWY 36L & 36R & 01 WIND VRB DEG 1 MPS VIS 3200 BR NSC T 26 /DP 23 QNH 1008 HPA RWY INDEPENDENT PARALLEL DEP ADZ YOU HAVE INFO S.",
    "ZBHH": "[Arrival ATIS] ZBHH ARR ATIS M 0100Z EXP ILSDME APCH LDG RWY 26 TA 3000 /TRL 3600 WIND 180/2MPS VRB BTN 150/ AND 220/ VIS 9999M CLD FEW 1200M T 25 /DP 16 QNH 1010 HPA ADZ YOU HAVE INFO M.\n[Departure ATIS] ZBHH DEP ATIS K 2300Z DEP RWY 26 TA 3000 /TRL 3600 WIND 060/3MPS VRB BTN 010/ AND 080/ CAVOK T 21 /DP 15 QNH 1010 HPA ADZ YOU HAVE INFO K.",
    "ZSQD": "[Arrival ATIS] ZSQD ARR ATIS K 0100Z EXP ILSDME APCH LDG RWY 17 TA 3000 /TRL 3600 WIND 180/4MPS VRB BTN 140/ AND 210/ CAVOK T 26 /DP 21 QNH 1009 HPA SEGREGATED OPERATION VISUAL APPROACH OPERATION IN PROGRESS. RUNWAY 17,IF MISSED APPROACH,EXPECT FOLLOW THE STANDARD MISSED APPROACH PROCEDURE,CLIMB TO 900M ON QNH OR BY ATC CAUTION MAYBE THERE IS A FLOCK OF BIRDS IN THE VICINITY OF AIRPORT ADZ YOU HAVE INFO K.\n[Departure ATIS] ZSQD DEP ATIS F 2200Z DEP RWY 16 TA 3000 /TRL 3600 WIND 160/4MPS VIS 9999M CLD SCT 270M T 23 /DP 22 QNH 1009 HPA VISUAL APPROACH OPERATION IN PROGRESS. RUNWAY 16,IF MISSED APPROACH,EXPECT FOLLOW THE STANDARD MISSED APPROACH PROCEDURE,CLIMB TO 600M ON QNH OR BY ATC CAUTION MAYBE THERE IS A FLOCK OF BIRDS IN THE VICINITY OF AIRPORT ADZ YOU HAVE INFO F."
  },
  "windtemp_alaska": "\n000\nFBAK31 KWNO 021359\nFD1AK1\nDATA BASED ON 021200Z    \nVALID 021800Z   FOR USE 1400-2100Z. TEMPS NEG ABV 24000\n\nFT  3000    6000    9000   12000   18000   24000  30000  34000  39000\nADK 0113 3614+06 3513+03 3217-02 3124-14 3029-28 292944 292752 283855\nADQ 0905 1506+01 1906-04 1905-10 2207-22 2209-32 241845 252247 261943\nAKN 0708 1007+00 1206-04 9900-10 1006-22 0509-32 070746 280548 271242\nANC 9900 0805+01 0906-04 1307-10 1207-22 3308-34 311548 301050 280942\nANN 9900 2806+00 2711-04 2718-09 2733-21 2744-32 285246 284445 282941\nBET 9900 0307+00 0207-04 0510-09 0207-20 3609-33 310948 301050 281244\nBRW 9900 2216-02 2214-06 2317-12 2322-23 2324-35 241448 990044 070942\nBTI 1405 9900+03 9900-04 9900-11 1912-22 1824-34 185447 183550 181943\nBTT 9900 9900+02 2305-05 9900-10 9900-23 9900-35 210749 180849 150743\nCDB 2816 2917-01 3118-06 3120-10 3224-20 3324-32 312344 302844 282642\nCZF 9900 9900-01 9900-05 2809-09 2712-20 2717-32 282849 282451 281344\nEHM 9900 9900-01 0305-06 0210-09 0115-20 0116-32 011547 321149 291643\nFAI 1305 0805+04 0609-04 0508-10 0506-23 0806-36 030849 990049 990042\nFYU 0805 0207+03 0209-04 3608-10 0406-22 1511-34 163249 151850 151243\nGAL 9900 1505+01 1708-06 2008-11 9900-22 9900-34 241250 241050 990043\nGKN 9900 0207+01 0408-05 0307-10 3509-23 3614-36 340947 320647 990041\nHOM 1406 1109+00 1111-04 1308-09 1107-22 9900-33 270747 271349 271343\nJNU 2007 2408-02 3011-07 3215-12 0125-25 0146-37 352443 321840 281239\nLUR 0617 1309-03 1614-07 1819-12 1825-23 1934-36 160746 071544 061342\nMCG 0607 0811+02 1012-04 1109-11 9900-21 3307-33 300649 290551 280543\nMDO 9900 9900+01 9900-04 0805-10 9900-22 3011-33 291947 282249 281642\nOME 1606 1718-01 1915-06 1916-11 2118-21 2123-34 222650 231748 260642\nORT      3509+02 3306-04 9900-10 1508-22 1423-34 132149 130947 990042\nOTZ 1408 1713-01 1715-07 1716-11 1919-22 1918-34 202250 191248 990042\nSNP 3321 3430+02 3530-01 3427-06 3330-18 3333-31 334347 334353 312747\nTKA 9900 9900+02 0807-04 1007-10 1107-23 3608-34 341348 331050 290742\nUNK 1508 1609+00 1709-07 1708-10 9900-21 9900-33 330750 260950 260643\nYAK 2707 3009-02 3207-04 3607-09 1707-22 1111-36 340748 311445 291140\nIKO 3123 3130+03 3234-01 3237-05 3339-19 3337-31 323746 313947 293945\nAFM 9900 9900+00 9900-06 1308-10 1706-23 9900-35 300651 990048 990043\n5AB 9900 9900+04 9900+02 2106-02 2417-14 2422-27 252544 253254 253257\n5AC 3110 3014+04 2921+00 2928-04 2942-17 2954-28 308042 297949 296148\n5AD 2924 2928+02 2835-01 2834-06 2745-18 2764-28 277143 277249 275648\n5AE 2620 2520+00 2521-04 2317-10 2530-19 2634-30 254644 254845 263943\n5AF 2908 2708-01 2811-05 3017-10 3128-22 3043-33 295646 295146 293241\n5AG 9900 9900-02 2808-04 2805-09 3105-22 3021-33 293146 293348 292342\n",
  "vaac_tokyo": [
    {
      "id": "20260702_27303000_0714",
      "year": "2026",
      "volcano": "Mayon",
      "psn": "N1315 E12341",
      "issued": "20260702",
      "text": "FVFE01 RJTD 021550\nVA ADVISORY\nDTG: 20260702/1550Z\nVAAC: TOKYO\nVOLCANO: MAYON 273030\nPSN: N1315 E12341\nAREA: PHILIPPINES\nSOURCE ELEV: 2462M AMSL\nADVISORY NR: 2026/714\nINFO SOURCE: HIMAWARI-9 PHIVOLCS\nERUPTION DETAILS: ERUPTION AT 20260702/1535Z FL090 EXTD WSW REPORTED\nOBS VA DTG: 02/1530Z\nOBS VA CLD: VA NOT IDENTIFIABLE FM SATELLITE DATA WIND FL090 100/11KT\nFCST VA CLD +6 HR: NOT AVBL\nFCST VA CLD +12 HR: NOT AVBL\nFCST VA CLD +18 HR: NOT AVBL\nRMK: WE WILL ISSUE FURTHER ADVISORY IF VA IS DETECTED IN SATELLITE \nIMAGERY.\nNXT ADVISORY: NO FURTHER ADVISORIES=",
      "img_url": "https://ds.data.jma.go.jp/svd/vaac/data/VAGFN/2026/Images/20260702_27303000_0714_QH21_01.png",
      "sat_img_url": null,
      "text_url": "https://ds.data.jma.go.jp/svd/vaac/data/TextData/2026/20260702_27303000_0714_Text.html"
    },
    {
      "id": "20260702_30027000_0216",
      "year": "2026",
      "volcano": "Sheveluch",
      "psn": "N5639 E16122",
      "issued": "20260702",
      "text": "FVFE01 RJTD 021500\nVA ADVISORY\nDTG: 20260702/1500Z\nVAAC: TOKYO\nVOLCANO: SHEVELUCH 300270\nPSN: N5639 E16122\nAREA: RUSSIA\nSOURCE ELEV: 3283M AMSL\nADVISORY NR: 2026/216\nINFO SOURCE: HIMAWARI-9\nERUPTION DETAILS: VA CONTINUOUSLY OBS IN SATELLITE IMAGERY\nOBS VA DTG: 02/1420Z\nOBS VA CLD: SFC/FL350 N5621 E15752 - N5830 E15955 - N5702 E16111 - \nN5640 E15944 - N5600 E15836 MOV W 20KT\nFCST VA CLD +6 HR: 02/2020Z SFC/FL350 N5852 E15900 - N5651 E15823 - \nN5452 E15545 - N5450 E15442\nFCST VA CLD +12 HR: 03/0220Z SFC/FL350 N5905 E15736 - N5538 E15626 - \nN5145 E15321 - N5206 E15138\nFCST VA CLD +18 HR: 03/0820Z SFC/FL340 N5013 E15417 - N4646 E15457 - \nN4949 E15134 - N5253 E15226 - N5816 E15611\nRMK: NIL\nNXT ADVISORY: 20260702/1800Z=",
      "img_url": "https://ds.data.jma.go.jp/svd/vaac/data/VAGFN/2026/Images/20260702_30027000_0216_QH21_01.png",
      "sat_img_url": "https://ds.data.jma.go.jp/svd/vaac/data/Sat/2026/Images/30027000/09-ir/20260702_1420_202607021500_ir.png",
      "text_url": "https://ds.data.jma.go.jp/svd/vaac/data/TextData/2026/20260702_30027000_0216_Text.html"
    },
    {
      "id": "20260701_30006000_0001",
      "year": "2026",
      "volcano": "Mutnovsky",
      "psn": "N5227 E15812",
      "issued": "20260701",
      "text": "FVFE01 RJTD 012206\nVA ADVISORY\nDTG: 20260701/2206Z\nVAAC: TOKYO\nVOLCANO: MUTNOVSKY 300060\nPSN: N5227 E15812\nAREA: RUSSIA\nSOURCE ELEV: 2288M AMSL\nADVISORY NR: 2026/1\nINFO SOURCE: KVERT KBGS UHPP HIMAWARI-9\nERUPTION DETAILS: ERUPTION AT 20260701/2016Z FL170 EXTD W REPORTED\nOBS VA DTG: 01/2140Z\nOBS VA CLD: VA NOT IDENTIFIABLE FM SATELLITE DATA WIND FL170 120/8KT\nFCST VA CLD +6 HR: NOT AVBL\nFCST VA CLD +12 HR: NOT AVBL\nFCST VA CLD +18 HR: NOT AVBL\nRMK: WE WILL ISSUE FURTHER ADVISORY IF VA IS DETECTED IN SATELLITE \nIMAGERY.\nNXT ADVISORY: NO FURTHER ADVISORIES=",
      "img_url": "https://ds.data.jma.go.jp/svd/vaac/data/VAGFN/2026/Images/20260701_30006000_0001_QH21_01.png",
      "sat_img_url": null,
      "text_url": "https://ds.data.jma.go.jp/svd/vaac/data/TextData/2026/20260701_30006000_0001_Text.html"
    },
    {
      "id": "20260701_27202000_0225",
      "year": "2026",
      "volcano": "Kanlaon",
      "psn": "N1025 E12308",
      "issued": "20260701",
      "text": "FVFE01 RJTD 012010\nVA ADVISORY\nDTG: 20260701/2010Z\nVAAC: TOKYO\nVOLCANO: KANLAON 272020\nPSN: N1025 E12308\nAREA: PHILIPPINES\nSOURCE ELEV: 2435M AMSL\nADVISORY NR: 2026/225\nINFO SOURCE: HIMAWARI-9 PHIVOLCS\nERUPTION DETAILS: ERUPTION AT 20260701/1954Z FL090 EXTD NNW REPORTED\nOBS VA DTG: 01/1950Z\nOBS VA CLD: VA NOT IDENTIFIABLE FM SATELLITE DATA WIND FL090 120/5KT\nFCST VA CLD +6 HR: NOT AVBL\nFCST VA CLD +12 HR: NOT AVBL\nFCST VA CLD +18 HR: NOT AVBL\nRMK: WE WILL ISSUE FURTHER ADVISORY IF VA IS DETECTED IN SATELLITE \nIMAGERY.\nNXT ADVISORY: NO FURTHER ADVISORIES=",
      "img_url": "https://ds.data.jma.go.jp/svd/vaac/data/VAGFN/2026/Images/20260701_27202000_0225_QH21_01.png",
      "sat_img_url": null,
      "text_url": "https://ds.data.jma.go.jp/svd/vaac/data/TextData/2026/20260701_27202000_0225_Text.html"
    }
  ],
  "vaac_alaska": [
    {
      "text": "\n000\nFVAK21 PAWU 292114\nVAAAK1\nVA ADVISORY\n\nDTG: 20260629/2111Z\n\nVAAC: ANCHORAGE\n\nVOLCANO: SHEVELUCH 300270\n\nPSN: N5639 E16122\n\nAREA: KAMCHATKA PENINSULA\n\nSOURCE ELEV: 10771 FT AMSL\n\nADVISORY NR: 2026/163\n\nRMK: PLEASE SEE FVFE01 RJTD ISSUED BY VAAC TOKYO WHICH DESCRIBES\nCONDITIONS NEAR THE VAAC ANCHORAGE AREA OF RESPONSIBILITY...BS\n\n\n\n",
      "issued": "2026-06-29T21:14:00+00:00",
      "volcano": "Sheveluch",
      "psn": "N5639 E16122"
    }
  ]
}