{
  "updated_utc": "2026-07-07T09:54Z",
  "metar": {
    "RJAA": "METAR RJAA 070800Z 07007KT 040V130 9999 FEW030 BKN060 24/18 Q1013 NOSIG",
    "PANC": "METAR PANC 070853Z 17004KT 10SM FEW050 BKN090 BKN230 12/09 A2974 RMK AO2 SLP071 60000 T01220094 401890078 56005",
    "PAFA": "METAR PAFA 070853Z 35007KT 10SM SCT120 BKN150 BKN200 17/09 A2973 RMK AO2 SLP070 T01720094 402560106 56008 $",
    "PAED": "METAR PAED 070755Z 26005KT 10SM FEW080 BKN100 BKN120 15/08 A2972 RMK AO2A SLP060 T01510076 $",
    "KSEA": "METAR KSEA 070853Z 22003KT 10SM CLR 15/12 A2999 RMK AO2 SLP160 T01500117 51011 $",
    "ZSPD": "METAR ZSPD 070800Z 18008MPS CAVOK 34/26 Q1000 NOSIG",
    "ZSSS": "METAR ZSSS 070800Z 19006MPS CAVOK 36/25 Q1000 NOSIG",
    "RJFR": "METAR RJFR 070800Z 06005KT 9999 FEW025 BKN/// 27/25 Q1008",
    "VHHH": "METAR VHHH 070800Z 13011KT 9999 FEW010 SCT025 30/25 Q1005 TEMPO 2500 TSRA SHRA FEW010CB SCT020",
    "RCTP": "METAR RCTP 070800Z 28012KT 9999 FEW020 SCT060 34/23 Q1008 NOSIG RMK A2977",
    "ZGSZ": "METAR ZGSZ 070800Z 03002MPS 350V130 9999 -SHRA FEW015 FEW020CB BKN043 28/26 Q1005 NOSIG",
    "WSSS": "METAR WSSS 070800Z 11010KT 9999 FEW018 FEW020TCU BKN300 32/23 Q1009 NOSIG",
    "WMKK": "METAR WMKK 070800Z 14006KT 050V190 9999 FEW017CB 32/25 Q1008 NOSIG",
    "WIDD": "METAR WIDD 070800Z 13008KT 090V190 9999 FEW014 32/25 Q1009 NOSIG",
    "VTBS": "METAR VTBS 070800Z 20007KT 9999 -RA FEW020CB SCT040 30/25 Q1007 NOSIG",
    "VTBU": "METAR VTBU 070800Z 21008KT 170V250 9999 FEW020 32/27 Q1007 NOSIG",
    "ROAH": "METAR ROAH 070800Z 33007KT 9999 FEW020 30/24 Q1008",
    "VVDN": "METAR VVDN 070800Z 23008KT 9999 FEW017 SCT070 31/24 Q1004 NOSIG",
    "RCKH": "METAR RCKH 070800Z 24009KT 200V280 9999 FEW016 SCT028 32/25 Q1008 NOSIG RMK 24009KT/R09 A2977",
    "KLAX": "METAR KLAX 070853Z 19005KT 10SM FEW011 18/15 A2992 RMK AO2 SLP127 T01780150 50002 $",
    "KONT": "METAR KONT 070853Z 28003KT 10SM CLR 21/12 A2993 RMK AO2 SLP117 T02060122 50001 $",
    "KSFO": "METAR KSFO 070756Z 26009G14KT 10SM FEW004 BKN007 OVC010 13/12 A3001 RMK AO2 SLP162 T01330117 402000133 $",
    "KOAK": "METAR KOAK 070853Z 23007KT 10SM FEW003 BKN007 OVC011 14/12 A3001 RMK AO2 SLP160 T01390117 58005",
    "KMHR": "METAR KMHR 070755Z AUTO 17007KT 10SM CLR 13/11 A2992 RMK AO2 T01350113 403260103 $",
    "KDFW": "METAR KDFW 070853Z 15005KT 10SM FEW075 FEW250 27/20 A2998 RMK AO2 SLP143 T02670200 53002",
    "KIAH": "METAR KIAH 070853Z 19004KT 10SM FEW025 SCT250 27/24 A3001 RMK AO2 SLP162 T02670244 56004",
    "KORD": "METAR KORD 070851Z 35005KT 10SM CLR 18/14 A3007 RMK AO2 SLP180 T01830144 58001 $",
    "KJFK": "METAR KJFK 070851Z 04010KT 10SM OVC007 18/17 A3002 RMK SLP165 T01830172 55004 $",
    "KRFD": "METAR KRFD 070854Z 00000KT 10SM CLR 16/15 A3011 RMK AO2 SLP191 T01560150 51004",
    "KIND": "METAR KIND 070854Z 36006KT 10SM BKN250 22/20 A3003 RMK AO2 SLP161 T02220200 53002",
    "KDTW": "METAR KDTW 070853Z 33003KT 8SM FEW055 SCT095 BKN250 19/13 A3003 RMK AO2 SLP167 T01890128 55001 $",
    "KMSP": "METAR KMSP 070853Z 28007KT 10SM FEW012 SCT018 BKN110 20/18 A3007 RMK AO2 RAE31 SLP176 P0003 60031 T02000183 58020 $",
    "CYEG": "METAR CYEG 070800Z 12006KT 20SM FEW250 13/11 A3006 RMK CI1 CI TR SLP183",
    "EHAM": "METAR EHAM 070755Z 28016KT CAVOK 22/14 Q1012 NOSIG",
    "EBBR": "METAR EBBR 070820Z 27009KT CAVOK 23/12 Q1015 NOSIG",
    "EDDF": "METAR EDDF 070820Z AUTO 20006KT 170V230 CAVOK 25/09 Q1015 NOSIG",
    "EDFH": "METAR EDFH 070820Z 27012KT 230V290 CAVOK 23/07 Q1017",
    "EDDL": "METAR EDDL 070820Z AUTO 26009KT 220V280 CAVOK 23/12 Q1013 NOSIG",
    "EDDK": "METAR EDDK 070820Z AUTO 24009KT CAVOK 25/11 Q1014 NOSIG",
    "EBLG": "METAR EBLG 070820Z 25012KT CAVOK 24/11 Q1016 NOSIG",
    "LSZH": "METAR LSZH 070820Z 22007KT 170V270 CAVOK 26/13 Q1021 NOSIG",
    "LIMC": "METAR LIMC 070820Z VRB02KT CAVOK 29/14 Q1019 NOSIG",
    "LIRF": "METAR LIRF 070820Z 11003KT 360V150 CAVOK 29/18 Q1018 NOSIG",
    "EINN": "METAR EINN 070800Z 26007KT 9999 OVC009 15/13 Q1019 BECMG SCT010",
    "EGLL": "METAR EGLL 070820Z AUTO 28010KT 9999 NCD 22/12 Q1016",
    "EGSS": "METAR EGSS 070820Z AUTO 29009KT 250V320 9999 NCD 23/13 Q1016",
    "EPWA": "METAR EPWA 070800Z 27012KT 9999 BKN013 BKN022 18/15 Q1007 BECMG SCT013",
    "UHPP": "METAR UHPP 070800Z 18003MPS CAVOK 12/07 Q1014 R16R/CLRD62 NOSIG RMK QFE758/1010",
    "EFHK": "METAR EFHK 070820Z 28008KT 9999 -SHRA FEW009 SCT030 FEW031CB 12/12 Q0993 TEMPO FEW009 SCT030",
    "LBBG": "METAR LBBG 070800Z VRB04KT 9999 FEW028 29/13 Q1015 NOSIG",
    "LTAC": "METAR LTAC 070820Z 05007KT 330V090 9999 SCT040 24/10 Q1017 NOSIG RMK RWY21C VRB06KT RWY03L 06006KT 330V140 RWY21R 08007KT 030V120 RWY03R VRB05KT RWY21L 08007KT 010V120",
    "UBBB": "METAR UBBB 070800Z 33022G32KT 9999 FEW060CB 26/19 Q1011 NOSIG",
    "UTAA": "METAR UTAA 070800Z 31006KT 9999 NSC 37/11 Q1008 R88/CLRD70 NOSIG",
    "UACC": "METAR UACC 070800Z 04002MPS 9999 BKN030 27/14 Q1011 NOSIG RMK QFE727/0970",
    "UAAA": "METAR UAAA 070800Z 03003MPS 9999 SCT050CB BKN200 33/09 Q1007 NOSIG",
    "UZTT": "METAR UZTT 070800Z 23006KT 110V270 CAVOK 35/11 Q1006 NOSIG",
    "ZWWW": "METAR ZWWW 070800Z 35004MPS CAVOK 33/14 Q1006 NOSIG",
    "ZLXY": "METAR ZLXY 070800Z 12001MPS 9999 FEW050 36/22 Q0999 NOSIG",
    "ZBAA": "METAR ZBAA 070800Z 14006MPS 110V180 9999 -TSRA FEW033CB 25/22 Q0997 BECMG AT0840 35009G15MPS TSRA",
    "ZBHH": "METAR ZBHH 070800Z 31004MPS 270V360 9999 SCT040 29/11 Q1003 NOSIG",
    "ZSQD": "METAR ZSQD 070800Z 17004MPS 9999 BKN008 OVC050 22/22 Q0999 BECMG TL0930 BKN010",
    "ZMCK": "METAR ZMCK 070800Z 29004MPS 250V330 9999 FEW030CB SCT033 29/07 Q1005 NOSIG RMK QFE639.8 25 MOP",
    "UUEE": "METAR UUEE 070800Z 21007MPS 9999 FEW019 18/13 Q1005 R24L/220157 R24C/220157 NOSIG",
    "UUDD": "METAR UUDD 070800Z 23007MPS 9999 SCT033 19/12 Q1006 R13R/CLRD65 NOSIG",
    "ULLI": "METAR ULLI 070800Z 18004MPS 9999 SCT028CB 14/09 Q0998 R88/090065 NOSIG",
    "USSS": "METAR USSS 070800Z 31007MPS 280V340 8000 3100W -TSRA SCT012 OVC023CB 19/19 Q1015 RESHRA R26L/290540 R26R/CLRD60 TEMPO VRB27MPS 0700 +TSRAGR SQ RMK QFE740/0987",
    "UNNT": "METAR UNNT 070800Z 03004MPS 350V060 9999 SCT040CB 29/15 Q1011 R25/CLRD// R34/////// NOSIG RMK QFE748/0998",
    "UNKL": "METAR UNKL 070800Z 32004MPS 290V010 CAVOK 26/14 Q1008 R29/CLRD// NOSIG RMK QFE731",
    "UIBB": "METAR UIBB 070800Z 28003G10MPS 170V340 9000 -TSRA BKN012CB 24/19 Q1003 R30/290151 NOSIG RMK MT OBSC QFE710/0946",
    "UEEE": "METAR UEEE 070800Z 16003MPS CAVOK 31/11 Q1002 R23/09//64 NOSIG RMK QFE743",
    "UHHH": "METAR UHHH 070800Z 07002MPS 050V110 9999 SCT031 26/20 Q1011 R88/090060 NOSIG RMK QFE752/1003",
    "UHSS": "METAR UHSS 070800Z 18002MPS 9999 BKN006 17/16 Q1015 R19/CLRD70 NOSIG RMK MT OBSC QFE759/1013"
  },
  "taf": {
    "RJAA": "TAF RJAA 070505Z 0706/0812 10008KT 9999 FEW020 BKN040 BECMG 0710/0712 03004KT BECMG 0721/0800 12010KT",
    "PANC": "TAF PANC 070520Z 0706/0812 28004KT P6SM FEW040 SCT090 FM070800 18005KT P6SM FEW040 BKN120 FM072200 15015G25KT P6SM FEW050 BKN090",
    "PAFA": "TAF PAFA 070530Z 0706/0812 01006KT P6SM SCT080 BKN150 FM072100 10008KT P6SM VCSH SCT080 SCT150 PROB30 0723/0805 VRB10G20KT -TSRA OVC060CB FM080500 10008KT P6SM BKN080 BKN150",
    "PAED": "TAF PAED 070500Z 0705/0811 23008KT 9999 FEW060 SCT100 BKN200 QNH2966INS BECMG 0800/0801 15010G20KT 9999 VCSH SCT045 BKN060 BKN120 QNH2970INS BECMG 0806/0807 11012KT 9999 -SHRA SCT040 OVC055 620802 QNH2974INS TX21/0801Z TN11/0712Z",
    "KSEA": "TAF KSEA 070856Z 0709/0812 20005KT P6SM FEW250 TEMPO 0712/0715 SCT015 FM071700 22007KT P6SM FEW250 FM072300 28006KT P6SM SCT250 FM080100 34006KT P6SM SCT250 FM080400 05005KT P6SM BKN060 FM080900 17005KT P6SM OVC050",
    "ZSPD": "TAF ZSPD 070303Z 0706/0812 18008MPS 8000 SCT020 TX35/0706Z TX34/0806Z TN27/0721Z BECMG 0712/0713 18003MPS",
    "ZSSS": "TAF ZSSS 070302Z 0706/0812 18004MPS 8000 SCT030 TX37/0706Z TX36/0806Z TN27/0721Z",
    "RJFR": "TAF RJFR 070505Z 0706/0812 09006KT 8000 -SHRA FEW014 BKN020 TEMPO 0706/0708 4000 -TSRA BR FEW007 BKN020 FEW020CB BECMG 0706/0708 06004KT",
    "VHHH": "TAF AMD VHHH 070843Z 0709/0815 19015KT 9999 FEW010 SCT025 TX31/0806Z TN27/0722Z TEMPO 0709/0714 20020G30KT 1500 TSRA +SHRA FEW008CB SCT020 TEMPO 0715/0718 3000 SHRA FEW008CB SCT020 TEMPO 0718/0724 20015G25KT 1500 TSRA +SHRA FEW008CB SCT015 TEMPO 0800/0806 3000 SHRA FEW008CB SCT020",
    "RCTP": "TAF RCTP 070500Z 0706/0812 26012KT 9999 FEW015 BKN032 TEMPO 0709/0711 18005KT 5000 SHRA FEW010 FEW015TCU BKN025 BECMG 0711/0713 18005KT BECMG 0800/0802 28010KT TEMPO 0806/0812 34005KT",
    "ZGSZ": "TAF AMD ZGSZ 070845Z 0706/0812 17004MPS 8000 BKN040 TX30/0707Z TX31/0806Z TN26/0722Z TEMPO 0708/0712 2000 +TSRA SCT010 FEW025CB BKN033 TEMPO 0712/0715 SHRA FEW025CB BKN033 TEMPO 0718/0722 SHRA FEW025CB BKN033 TEMPO 0722/0802 TSRA SCT012 FEW025CB BKN033 TEMPO 0805/0808 TSRA SCT012 FEW025CB BKN033",
    "WSSS": "TAF WSSS 070500Z 0706/0812 18008KT 9999 FEW015 SCT020",
    "WMKK": "TAF WMKK 070500Z 0706/0812 VRB03KT 9999 FEW018 PROB30 TEMPO 0708/0712 5000 TSRA FEW017CB",
    "VTBS": "TAF VTBS 070500Z 0706/0812 22008KT 9999 FEW020 TEMPO 0711/0715 VRB15KT 4000 TSRA FEW018CB SCT020 BKN080",
    "VTBU": "TAF VTBU 070500Z 0706/0806 21010KT 9999 FEW020",
    "ROAH": "TAF ROAH 070505Z 0706/0812 32007KT 9999 FEW015 BECMG 0800/0803 03014KT",
    "VVDN": "TAF VVDN 070500Z 0706/0806 20011KT 9999 SCT015 BKN050 TEMPO 0706/0712 4000 RA",
    "RCKH": "TAF RCKH 070500Z 0706/0812 22010KT 9999 FEW015 TEMPO 0712/0718 24005KT TEMPO 0718/0724 06005KT BECMG 0800/0802 29007KT",
    "KLAX": "TAF KLAX 070844Z 0709/0812 22005KT P6SM SKC FM071100 26003KT P6SM BKN015 FM071600 VRB03KT P6SM SCT025 FM071700 25012KT P6SM SKC FM080300 25006KT P6SM SKC FM080900 VRB03KT P6SM SCT008",
    "KONT": "TAF KONT 070520Z 0706/0812 VRB05KT P6SM SKC FM072000 25012G20KT P6SM SKC FM080400 VRB05KT P6SM SKC",
    "KSFO": "TAF KSFO 070850Z 0709/0812 26015KT P6SM FEW004 BKN007 OVC010 FM071700 28015KT P6SM BKN015 FM072100 28020G28KT P6SM SCT015 FM080300 28015KT P6SM BKN015 FM080900 28011KT P6SM OVC015",
    "KOAK": "TAF KOAK 070520Z 0706/0812 26012KT P6SM OVC008 FM071800 27008KT P6SM BKN015 FM072000 28016KT P6SM SCT015 FM080300 28015KT P6SM OVC012 FM080600 26010KT P6SM OVC008",
    "KMHR": "TAF KMHR 070520Z 0706/0806 19008KT P6SM SKC FM071000 16005KT P6SM BKN040 FM071500 21008KT P6SM FEW150 FM080200 15008KT P6SM SKC",
    "KDFW": "TAF KDFW 070900Z 0709/0812 17005KT P6SM SCT100 FM072200 22006KT P6SM VCTS SCT060CB FM080100 15009KT P6SM FEW060",
    "KIAH": "TAF KIAH 070854Z 0709/0812 19003KT P6SM FEW025 FEW120 SCT250 TEMPO 0710/0714 VRB02KT FEW015 SCT025 FM071500 24006KT P6SM SCT035 SCT120 SCT250 FM071800 18008KT P6SM SCT050 SCT120 BKN250 FM080200 18006KT P6SM FEW040 SCT250 FM080700 19003KT P6SM FEW250",
    "KORD": "TAF KORD 070850Z 0709/0812 35005KT P6SM FEW040 FEW250 FM071800 08008KT P6SM FEW050 FEW250 FM080700 21005KT P6SM SKC",
    "KJFK": "TAF KJFK 070832Z 0709/0812 05006KT 5SM BR OVC005 FM071300 03010KT 5SM BR OVC008 FM071800 02010KT P6SM SCT008 BKN012 FM080000 02008KT P6SM BKN015",
    "KRFD": "TAF KRFD 070850Z 0709/0806 VRB03KT P6SM FEW200 FM071500 36005KT P6SM FEW050 FEW250 FM080100 14004KT P6SM SKC",
    "KIND": "TAF KIND 070900Z 0709/0812 03010KT P6SM FEW060 FEW250 FM071100 03007KT P6SM SCT015 BKN025 FM071500 04008KT P6SM SCT025 SCT250 FM071800 03010KT P6SM BKN050 FM080000 03006KT P6SM SCT050",
    "KDTW": "TAF KDTW 070857Z 0709/0812 03005KT P6SM SCT040 TEMPO 0712/0714 6SM BR BKN025 FM071700 05007KT P6SM BKN045 FM072200 14007KT P6SM SCT060 FM080200 05005KT P6SM SKC",
    "KMSP": "TAF KMSP 070848Z 0709/0812 19005KT P6SM BKN120 FM071200 VRB04KT P6SM SCT250 FM071700 25007KT P6SM SCT050 FM080300 VRB04KT P6SM SCT060 BKN150 PROB30 0804/0810 VRB20G35KT 2SM TSRA BKN015CB",
    "CYEG": "TAF CYEG 070840Z 0709/0806 12008KT P6SM SCT200 FM071200 14010KT P6SM BKN200 BECMG 0714/0716 14015G25KT BECMG 0802/0804 14012KT RMK NXT FCST BY 071200Z",
    "EHAM": "TAF EHAM 070445Z 0706/0812 26006KT CAVOK BECMG 0707/0710 28012KT BECMG 0712/0715 31015KT BECMG 0720/0723 30005KT PROB40 TEMPO 0802/0807 BKN016",
    "EBBR": "TAF EBBR 070500Z 0706/0812 26010KT CAVOK BECMG 0717/0719 32006KT",
    "EDDF": "TAF EDDF 070500Z 0706/0812 22004KT CAVOK BECMG 0707/0709 25012KT TEMPO 0710/0719 27015G25KT BECMG 0719/0722 31008KT PROB30 TEMPO 0804/0812 BKN030",
    "EDFH": "TAF EDFH 070500Z 0706/0806 27008KT CAVOK BECMG 0707/0709 27013KT TEMPO 0710/0718 28015G25KT BECMG 0719/0721 30005KT PROB30 TEMPO 0804/0806 BKN012",
    "EDDL": "TAF EDDL 070500Z 0706/0812 24008KT CAVOK BECMG 0708/0711 27015G25KT PROB30 TEMPO 0712/0717 29020G30KT BECMG 0718/0720 30009KT BECMG 0723/0802 29004KT PROB30 TEMPO 0805/0808 BKN014 BECMG 0806/0809 31009KT",
    "EDDK": "TAF EDDK 070500Z 0706/0812 23004KT CAVOK BECMG 0707/0709 27011KT BECMG 0709/0712 29015G25KT PROB30 TEMPO 0713/0717 30020G30KT BECMG 0719/0722 31011KT BECMG 0722/0801 31006KT PROB30 TEMPO 0804/0807 BKN014",
    "EBLG": "TAF EBLG 070500Z 0706/0812 25010KT CAVOK BECMG 0718/0720 31006KT",
    "LSZH": "TAF LSZH 070825Z 0709/0815 24010KT CAVOK TX33/0715Z TN16/0804Z TX31/0815Z BECMG 0711/0713 28012G25KT PROB40 TEMPO 0713/0716 31015G30KT BECMG 0717/0720 VRB02KT BECMG 0810/0813 32008KT",
    "LIMC": "TAF LIMC 070500Z 0706/0812 VRB05KT CAVOK TEMPO 0712/0716 22010KT BECMG 0810/0812 24010KT",
    "LIRF": "TAF LIRF 070500Z 0706/0812 VRB05KT CAVOK BECMG 0709/0711 26010KT BECMG 0716/0718 VRB05KT BECMG 0722/0724 3000 BCFG PROB40 TEMPO 0800/0806 0700 FG",
    "EINN": "TAF AMD EINN 070906Z 0709/0806 27008KT 9999 BKN009 BECMG 0709/0711 SCT009 TEMPO 0719/0806 BKN012",
    "EGLL": "TAF EGLL 070452Z 0706/0812 26009KT CAVOK BECMG 0714/0717 32012KT BECMG 0800/0803 02002KT",
    "EGSS": "TAF EGSS 070452Z 0706/0812 26007KT CAVOK BECMG 0714/0717 32010KT PROB40 TEMPO 0800/0806 02005KT",
    "EPWA": "TAF EPWA 070830Z 0709/0809 27012KT 9999 BKN025 TEMPO 0709/0801 26018G28KT 3000 SHRA BKN010 BKN020CB BECMG 0803/0805 27015G25KT TEMPO 0803/0809 27024G35KT ",
    "UHPP": "TAF UHPP 070731Z 0709/0815 35003G10MPS 9999 BKN030CB TEMPO 0709/0721 0700 FG VV002 BECMG 0723/0802 17005G12MPS BECMG 0808/0810 35003G10MPS",
    "EFHK": "TAF AMD EFHK 070851Z 0709/0809 28010KT 9999 FEW009 SCT030 TEMPO 0709/0713 SHRA BKN008 FEW030CB BECMG 0713/0715 22006KT TEMPO 0713/0719 SHRA FEW030CB PROB30 0722/0802 2500 BCFG BECMG 0802/0804 1200 BR BKN002 BECMG 0804/0806 9999 NSW FEW005",
    "LBBG": "TAF LBBG 070500Z 0706/0806 24010KT CAVOK BECMG 0710/0711 13012KT SCT045 PROB40 TEMPO 0712/0718 VRB16G26KT 3000 TSRA SCT030CB BKN040 BECMG 0718/0720 VRB04KT",
    "LTAC": "TAF LTAC 070440Z 0706/0806 03012KT 9999 SCT040 BECMG 0718/0720 VRB02KT CAVOK",
    "UBBB": "TAF UBBB 070504Z 0706/0806 32018G28KT 9999 FEW060CB TX28/0709Z TN21/0801Z TEMPO 0706/0715 34022G32KT FEW015 TEMPO 0722/0806 35014G24KT -SHRA SCT010 SCT040CB",
    "UTAA": "TAF UTAA 070445Z 0706/0806 33018KT 6000 SCT050 TX40/0711Z TEMPO 0709/0714 28014G24KT 4000 DRDU BECMG 0716/0718 24014KT",
    "UACC": "TAF UACC 070501Z 0706/0806 03005MPS 9999 SCT030 BKN100 TX27/0710Z TN17/0723Z TEMPO 0708/0716 08008MPS -TSRA BKN030CB BECMG 0716/0718 VRB01MPS TEMPO 0803/0806 05005MPS",
    "UAAA": "TAF UAAA 070502Z 0706/0806 34005MPS 9999 SCT050CB BKN100 TX33/0710Z TN18/0800Z TEMPO 0706/0713 04005G10MPS TS BECMG 0713/0715 22003MPS BECMG 0802/0803 32003G08MPS BKN050CB OVC100 TEMPO 0802/0806 26006G14MPS 5000 -TSRA BLDU",
    "UZTT": "TAF UZTT 070500Z 0706/0806 22010KT 7000 NSC TX37/0710Z TN23/0800Z TEMPO 0706/0716 32012G22KT",
    "ZWWW": "TAF ZWWW 070302Z 0706/0812 02004MPS CAVOK TX33/0709Z TX32/0809Z TN25/0723Z BECMG 0713/0714 18004MPS BECMG 0802/0803 36004MPS",
    "ZLXY": "TAF ZLXY 070302Z 0706/0806 17003MPS 6000 NSC TX37/0708Z TN24/0722Z",
    "ZBAA": "TAF AMD ZBAA 070832Z 0706/0812 15003MPS CAVOK TX31/0706Z TX33/0806Z TN22/0721Z TEMPO 0708/0711 35009G15MPS TSRA SCT040CB BKN040 TEMPO 0808/0812 -TSRA FEW040CB BKN040",
    "ZBHH": "TAF AMD ZBHH 070901Z 0706/0806 24004G09MPS 9999 FEW040 TX28/0708Z TN14/0722Z TEMPO 0708/0712 36006G12MPS TEMPO 0804/0806 SCT040 FEW040CB",
    "ZSQD": "TAF AMD ZSQD 070547Z 0700/0724 18004MPS 5000 -RA BKN040 TX26/0706Z TN22/0721Z TEMPO 0706/0708 RA",
    "ZMCK": "TAF ZMCK 070453Z 0706/0812 VRB02MPS 9999 FEW030CB SCT033 TX27/0707Z TN14/0721Z PROB40 TEMPO 0712/0722 VRB08MPS TSRA SCT027CB SCT030 TEMPO 0722/0812 VRB08G13MPS 8000 TSRA SCT027CB BKN030 BECMG 0800/0803 30007MPS",
    "UUEE": "TAF UUEE 070750Z 0709/0809 22006MPS 9999 BKN020 TX19/0712Z TN13/0801Z TEMPO 0709/0716 26008G15MPS PROB40 TEMPO 0709/0715 -TSRA BKN016CB BECMG 0716/0718 15005MPS TEMPO 0721/0808 BKN007",
    "UUDD": "TAF UUDD 070756Z 0709/0815 24006MPS 9999 BKN016 TX23/0812Z TN13/0800Z TEMPO 0709/0715 24008G14MPS PROB40 TEMPO 0709/0712 -TSRA BKN020CB BECMG 0715/0717 18003MPS TEMPO 0807/0815 18008G15MPS PROB40 TEMPO 0811/0815 -TSRA BKN020CB",
    "ULLI": "TAF ULLI 070753Z 0709/0809 18005G10MPS 6000 BKN016 TEMPO 0709/0716 23007G14MPS 3100 -TSRA BKN017CB BECMG 0720/0721 16003MPS PROB40 TEMPO 0721/0803 1000 BR",
    "USSS": "TAF USSS 070739Z 0709/0809 18003G14MPS 8000 -SHRA BKN016CB TEMPO 0709/0809 VRB25MPS -TSRAGR SQ",
    "UNNT": "TAF UNNT 070800Z 0709/0809 02003G08MPS 8000 SCT040 TX29/0709Z TN16/0722Z TEMPO 0709/0715 -TSRA BKN020CB",
    "UNKL": "TAF UNKL 070753Z 0709/0809 33003G08MPS 9999 SCT040 BECMG 0803/0805 02005MPS BECMG 0806/0808 33003G08MPS",
    "UIBB": "TAF UIBB 070800Z 0709/0809 29005G15MPS 6000 -TSRA BKN005 BKN016CB TEMPO 0709/0718 VRB12MPS 1900 SHRA VV002 BECMG 0718/0719 NSW FEW001 BKN011CB BECMG 0803/0806 35003G08MPS",
    "UEEE": "TAF UEEE 070800Z 0709/0815 16003G10MPS 9999 SCT030CB BKN100 TX32/0807Z TN16/0718Z TEMPO 0709/0721 VRB17MPS 3200 -TSRA SQ",
    "UHHH": "TAF UHHH 070752Z 0709/0815 08003MPS 9999 SCT018CB TX25/0806Z TN19/0718Z TEMPO 0712/0718 5000 -SHRA BR FEW004 BKN016CB FM080000 10003MPS 6000 -SHRA FEW006 BKN016CB TEMPO 0802/0810 14008MPS",
    "UHSS": "TAF AMD UHSS 070907Z 0709/0815 18003MPS 9999 BKN005 BKN020CB TEMPO 0709/0712 1400 BR BKN002 BECMG 0712/0714 0600 FG BKN002 BECMG 0721/0723 9999 NSW SCT004 BKN025"
  },
  "atis": {
    "RJAA": "[Arrival ATIS] RJAA ARR ATIS U 0500Z M0430 (APCH)ILS Z RWY16R/ILS Z RWY16L LDG RWY 16R/16L DEP RWY 16R DEP FREQ 124.2. SIMUL PARL APCHS INPR. M 070430Z 07009KT 30KM VCSH FEW020CU SCT025CU BKN045SC 25/19\n[Departure ATIS] RJAA DEP ATIS S 1257Z M1230 (APCH)ILS Y RWY16L LDG RWY 16L DEP RWY 16R DEP FREQ 124.2. TWY A1 CLSD. M 191230Z 08005KT 050V150 25KM FEW010CU BKN020CU BKN035SC 21/19 Q1013/A2992= Q/TWO NINE NINE TWO STP",
    "PANC": "[Arrival ATIS] PANC ARR ATIS N 1253Z ANC ATIS INFO N 1253Z. VRB05KT 10SM BKN200 13/09 A3028 (THREE ZERO TWO EIGHT). ILS RWY 15 APPROACHES IN USE. LANDING RWY 15, DEPARTING RWY 25L. NOTICE TO AIRMEN. RWY 25R CLSD. CHECK NOTAMS FOR TAXIWAY CLOSURES. CONTACT TOWER 118.3 FOR TAXI. ...ADVS YOU HAVE INFO N.\n[Departure ATIS] PANC DEP ATIS H 1953Z ANC ATIS INFO H 1953Z. VRB03KT 10SM FEW080 SCT110 14/07 A2994 (TWO NINER NINER FOUR). 7R, 7L APPROACHES IN USE. LANDING RWY 7R, 7L, DEPARTING RWY 33. NOTICE TO AIRMEN. TWY Q CLSD. TWY R CLSD BTWN TWY, S AND TWY U . TWY E CLSD BTWN TWY, L AND TWY M . RWY 15 PAPI OTS. TWY K BTWN A AND D RESTRICTED TO AIRCRAFT WITH WINGSPAN LESS THAN 118 FEET. HAZD WX INFO FOR ANC AREA AVBL FM FSS. CONTACT TOWER 118.3 FOR TAXI. ...ADVS YOU HAVE INFO H.",
    "KSEA": "[Arrival ATIS] KSEA ARR ATIS M 1253Z SEA ATIS INFO M 1253Z. 36006KT 10SM FEW100 BKN190 BKN250 17/10 A2991 (TWO NINER NINER ONE). ILS AND CHARTED VISUAL APPROACH RWYS 34L AND 34R , APCH IN USE. DEPG RWY 34R, DEPG ACFT PLAN AND BRIEF NUMBERS FOR BOTH RWYS 34R AND 34C. SIMUL ARRIVALS TO RWY 34L AND DEPARTURES TO RWY 34R ARE IN USE. SIMUL APCHS IN USE TO PARA RYS. NOTAMS... ILS RWY 34C OTS. BIRD ACTIVITY VICINITY ARPT. ...ADVS YOU HAVE INFO M.\n[Departure ATIS] KSEA DEP ATIS H 0653Z SEA ATIS INFO H 0653Z. 26004KT 10SM CLR 17/11 A2997 (TWO NINER NINER SEVEN) RMK AO2 SLP152 T01670106. ILS AND CHARTED VISUAL APPROACH RWYS 34C AND 34R , APCH IN USE. DEPG RWY 34R. SIMUL APCHS IN USE TO PARA RYS. NOTAMS... BIRD ACTIVITY VICINITY ARPT. APCH AND DEP PATHS ARE OVER NOISE SENSITIVE AREAS. ...ADVS YOU HAVE INFO H.",
    "ZSPD": "[Arrival ATIS] ZSPD ARR ATIS A 1300Z EXP ILS APCH INDEPENDENT PARL INSTR APCH LDG RWY 17R & 16L WIND RWY 17R TDZ 220/4MPS MID 200/4MPS END 210/4MPS RWY 16L TDZ 230/4MPS MID 210/4MPS END 200/3MPS CAVOK T 27 /DP 25 QNH 1001 HPA CAUTION THE BIRDS NEAR THE RUNWAY RWY 17L/17R/16L/16R RWYCC 5/5/5 ISSUED AT 0710 WET/WET/WET DPT NR/NR/NR COV 100PCT/100PCT/100PCT. ADZ YOU HAVE INFO A.\n[Departure ATIS] ZSPD DEP ATIS A 1300Z DEP RWY 17L & 16R WIND RWY 17L TDZ 220/4MPS MID 210/3MPS END 210/4MPS RWY 16R TDZ 230/5MPS MID 210/5MPS END 210/3MPS CAVOK T 27 /DP 25 QNH 1001 HPA CAUTION THE BIRDS NEAR THE RUNWAY RWY 17L/17R/16L/16R RWYCC 5/5/5 ISSUED AT 0710 WET/WET/WET DPT NR/NR/NR COV 100PCT/100PCT/100PCT. ADZ YOU HAVE INFO A.",
    "ZSSS": "[Arrival ATIS] ZSSS ARR ATIS N 1300Z EXP ILS APCH LDG RWY 18L WIND RWY 18L TDZ 220/6MPS MID 220/5MPS END 230/5MPS CAVOK T 27 /DP 24 QNH 1001 HPA RWY18R RWYCC 5/5/5 ISSUED AT 1050 WET/WET/WET DPT NR/NR/NR COV 100PCT/100PCT/100PCT RWY18L RWYCC 5/5/5 ISSUED AT 1050 WET/WET/WET DPT NR/NR/NR COV 100PCT/100PCT/100PCT QNH OF SHANGHAI TERMINAL CONTROL AREA 1001 HPA ADZ YOU HAVE INFO N.\n[Departure ATIS] ZSSS DEP ATIS J 1100Z DEP RWY 18R WIND RWY 18R TDZ 210/5MPS MID 210/5MPS END 220/4MPS VIS RWY 18R TDZ 10000M MID 10000M END 10000M FBL SHRA NSC T 27 /DP 24 QNH 1000 HPA RWY18R RWYCC 5/5/5 ISSUED AT 1050 WET/WET/WET DPT NR/NR/NR COV 100PCT/100PCT/100PCT RWY18L RWYCC 5/5/5 ISSUED AT 1050 WET/WET/WET DPT NR/NR/NR COV 100PCT/100PCT/100PCT QNH OF SHANGHAI TERMINAL CONTROL AREA 1000 HPA ADZ YOU HAVE INFO J.",
    "VHHH": "[Arrival ATIS] VHHH ARR ATIS A 1236Z ARRIVALS, RWY 25R. EXP RNAV TRANSITION TO ILS APCH, RWY 25R. RNP APCH IS AVBL ON REQ, RWY 25R. SIG WS FCST. WIND 180/11KT. VIS 10KM. FBL SHRA. CLD FEW 1000FT SCT 2500FT. T30 DP25. QNH 1009HPA. ACK INFO A ON FIRST CTC WITH APP.\n[Departure ATIS] VHHH DEP ATIS Q 1236Z DEPARTURES, RWY 25L. SIG WS FCST. WIND 170/13KT. VIS 10KM. FBL SHRA. CLD FEW 1000FT SCT 2500FT. T30 DP25. QNH 1009HPA. ACK INFO Q ON FIRST CTC WITH DELIVERY .",
    "RCTP": "[Arrival ATIS] RCTP ARR ATIS P 1300Z EXP ILS APCH RWY23R AND RWY23L ARR/DEP. WIND 210/10KT VIS 10 KM OR MORE CLD FEW 2000FT T 28 DP 25 QNH 1010HPA NOSIG INFORM TAIPEI APCH OR TAIPEI TOWER ON INITIAL CONTACT YOU HAVE INFORMATION P\n[Departure ATIS] RCTP DEP ATIS L 1100Z EXP ILS APCH RWY23R AND RWY23L ARR/DEP. WIND 230/12KT VIS 10 KM OR MORE CLD FEW 2000FT SCT 5000FT T 28 DP 25 QNH 1010HPA NOSIG INFORM TAIPEI APCH OR TAIPEI TOWER ON INITIAL CONTACT YOU HAVE INFORMATION L",
    "ZGSZ": "[Arrival ATIS] ZGSZ ARR ATIS B 0900Z EXP ILS APCH 15 EXP ILS OR VIS APCH 16R WIND 220/4MPS MAX11 VRB BTN 170/ AND 280/ VIS 5000M +TSRA CLD SCT 450M /SCT CB 600M /BKN 780M T 26 /DP 25 QNH 1005 HPA INDEPENDENT\n[Departure ATIS] ZGSZ DEP ATIS M 1100Z DEP RWY 15 & 16L WIND 160/6MPS VIS 9999M CLD FEW 450M /SCT 900M T 29 /DP 27 QNH 1008 HPA INDEPENDENT PARALLEL DEPARTURES INDEPENDENT PARALLEL APPROACHES V17,V18 AVAILABLE AFTER SULAS FLY HEADING 040 MISSED APPROACH ALTITUDE SETTING 1200METERS WHEN AIRBORNE CONTACT ZHUHAI APPROACH EXPECTED RNP ILS DME Z APPROACH ADZ YOU HAVE INFO M.",
    "WSSS": "[Arrival ATIS] WSSS ARR ATIS F 1330Z METREPORT 1330Z ILS APCHRWY 20R SIMUL INDEPENDENT ILS AND VISUAL APPROACHES ARE CONDUCTED ON RWY 20. TWY W 9 CLOSED, RWY 02C 20C RAPID EXIT TAXIWAY INDICATOR LIGHTS OFFFOLLOW THE GREENS TRIAL IN PROGRESS. WHEN VACATING THE RWY, PILOTS TO ADHERE TO ATC VERBAL INSTRUCTIONS. WHEN ON TWY, PILOT TO ADHERE TO FOLLOW THE GREENS INSTRUCTIONS. WHEN APPROACHING [A] JUNCTION, KEEP [A] LOOKOUT FOR CONTINUOUS GREENS. [IF] [A] BREAK IN THE GREENS IS OBSERVED, STOP AND CLARIFY WITH ATC. WIND 130/ 05KT VIS 10KM CLD FEW 1500FT FEW TCU 1700FT FEW CB 1800FT SCT 4000FT T29 DP24 QNH 1011HPA NOSIG ACK ATIS F\n[Departure ATIS] WSSS DEP ATIS F 1300Z METREPORT 1300Z RWY 20C SIMUL INDEPENDENT ILS AND VISUAL APPROACHES ARE CONDUCTED ON RWY 20. TWY W 9 CLOSED, RWY 02C 20C RAPID EXIT TAXIWAY INDICATOR LIGHTS OFFFOLLOW THE GREENS TRIAL IN PROGRESS. WHEN VACATING THE RWY, PILOTS TO ADHERE TO ATC VERBAL INSTRUCTIONS. WHEN ON TWY, PILOT TO ADHERE TO FOLLOW THE GREENS INSTRUCTIONS. WHEN APPROACHING [A] JUNCTION, KEEP [A] LOOKOUT FOR CONTINUOUS GREENS. [IF] [A] BREAK IN THE GREENS IS OBSERVED, STOP AND CLARIFY WITH ATC. WIND 130/ 08KT VIS 10KM CLD FEW 1500FT FEW TCU 1700FT FEW CB 2000FT T29 DP25 QNH 1011HPA NOSIG DEP,INITIAL CMB 3000FT ACK ATIS F",
    "WMKK": "[Arrival ATIS] WMKK ARR ATIS G 1304Z WMKK ARR INFO G. TIME 1300. INDEPENDENT PARALLEL APPROACHES FOR RWY 14 L AND 15 ARE IN PROGRESS. EXP RNAV / ILS APCH FOR RWY 14 LEFT. EXP RNAV / ILS APCH FOR RWY 15. WIND RWY 14L 010 DEG, 4 KT. WIND RWY 15 340 DEG, 3 KT. VIS RWY 14L TDZ 9 KM. VIS RWY 15 TDZ 9 KM. CLD FEW 3000 FT. T 28. DP 25. QNH 1010. NOSIG. AT FIRST CONTACT WITH LUMPUR RADAR, NOTIFY RCPT OF G\n[Departure ATIS] WMKK DEP ATIS U 0717Z WMKK DEP INFO U. TIME 0700. INDEPENDENT PARALLEL DEPARTURES FOR RWY 14 R AND 15 ARE IN PROGRESS. RWY 14 RIGHT. RWY 15. WIND RWY 14R 150 DEG, 8 KT. WIND RWY 15 140 DEG, 8 KT. VIS RWY 14R TDZ 10 KM OR MORE. VIS RWY 15 TDZ 10 KM OR MORE. WX TS, VCSH. CLD FEW CB 1700 FT, CLD SCT 1800 FT. T 30. DP 24. QNH 1008. NOSIG. ALL DEP ACFT TO CONTACT LUMPUR DEP AT 135 DECIMAL 25 MHZ WHEN ABN. AT FIRST CONTACT WITH LUMPUR GROUND, NOTIFY RCPT OF U",
    "VTBS": "[Arrival ATIS] VTBS ARR ATIS U 1300Z VTBS ARR ATIS U 1302Z EXP ILS Z APCH ARR RWY 01 OR RNP APCH RWY 02L 06191020 01 5/5/5 100/100/100 NR/NR/NR WET/WET/WET 06191025 02L 5/5/5 100/100/100 NR/NR/NR WET/WET/WET ,RETIL RWY 01 U/S ,PILOT SHALL ADZ BKK APCH ON INITIAL CTC IF UNA TO CONDUCT RNP APCH DUE TO OPERATIONAL CONSTRAINT 1300Z WIND VRB BTN 300/ AND 020/2KT VIS 8KM FBL RA CLD FEW 2000FT T25 DP24 QNH 1011HPA TREND NOSIG ADZ BKK APCH ON INITIAL CONTACT THAT YOU HAVE INFO U\n[Departure ATIS] VTBS DEP ATIS V 1106Z VTBS DEP ATIS V 1108Z DEP RWY 20L MOD WS IN APCH OBS ATP 1100 06191029 20L 5/5/5 100/100/100 NR/NR/NR WET/WET/WET ,LGT WRNG PROC IN OPERATION ,AFT AIRBORNE ALL DEPARTING ACFT SHALL CTC 119.25 1106Z WIND 260/8KT VIS 1500M HVY RA CLD FEW 600FT FEW CB 1800FT SCT 3000FT T24 DP24 QNH 1009HPA TREND BECMG TL1130 VIS 3000M MOD TSRA ADZ GND WHEN INITIAL CONTACT YOU HAVE INFO V",
    "VTBU": "[Arrival ATIS] VTBU ARR ATIS U 0430Z VTBU ARR ATIS U 0430Z RNP RWY 18 TRL FL130 MOBILE ACFT ARST SYSTEM INSTL ATP SIX HUNDRED AND TEN METERS FM THR RWY 36 CABLE HGT 3 INCHES. 0430Z WIND 360/6KT VRB BTN 320/ AND 020/ VIS 10KM CLD FEW 2000FT T34 DP27 QNH 1010HPA TREND NOSIG ADZ CONTROLLER WHEN INITIAL CONTACT YOU HAVE INFO U\n[Departure ATIS] VTBU DEP ATIS D VTBU ARR/DEP DATIS RPT VTBU ARR ATIS D 0330Z ILS \"Z\" APCH RWY 18 TRL FL130 0330Z WIND 110/4KT VRB BTN 350/ AND 120/ VIS 6KM CLD FEW 2000FT T31 DP27 QNH 1014HPA TREND NOSIG ADZ CONTROLLER WHEN INITIAL CONTACT YOU HAVE INFO D",
    "ROAH": "[Arrival ATIS] ROAH ARR ATIS M 0831Z M0830 (APCH)ILS Z RWY36L LDG RWY 36L DEP RWY 36R DEP FREQ 119.1 335.8 M 070830Z 34007KT 60KM FEW020CU 30/25 Q1008/A2978= Q/TWO NINE SEVEN EIGHT STP\n[Departure ATIS] ROAH DEP ATIS P 0641Z M0630 (APCH)RNP RWY18R LDG RWY 18R DEP RWY 18L DEP FREQ 126.5 258.3 M 190630Z 20010KT 40KM FEW005ST SCT/// 29/27 Q1012/A2989= Q/TWO NINE EIGHT NINE STP",
    "VVDN": "[Arrival ATIS] VVDN ARR ATIS L 1302Z VVDN INFO L 1302Z. ILS VICTOR APPROACH 35L.. DPTG RWY 35R.. 1302Z. WIND 330/03KT VIS 10KM CLD FEW 5400FT T30 DP26 QNH 1008HPA TREND NOSIG. ADZ ON INITIAL CTC YOU HAVE INFO. L.\n[Departure ATIS] VVDN DEP ATIS X 0632Z VVDN INFO X 0632Z. ILS VICTOR APPROACH 35L.. DPTG RWY 35R.. 0632Z. WIND 130/0KT CAVOK T34 DP26 QNH 1006HPA TREND NOSIG. ADZ ON INITIAL CTC YOU HAVE INFO. X.",
    "RCKH": "[Arrival ATIS] RCKH ARR ATIS G 0600Z EXPECT ILS APPROACH RWY 27 ARR/DEP TAXIWAY JULIETT, TAXIWAY BRAVO, TAXIWAY DELTA AND TAXIWAY ECHO CLOSED DUE MAINTENANCE. RUNWAY 2 7 ARRIVALS PLAN VACATE VIA CHARLIE OR\n[Departure ATIS] RCKH DEP ATIS I 0700Z EXPECT ILS APPROACH RWY 27 ARR/DEP TAXIWAY JULIETT, TAXIWAY BRAVO, TAXIWAY DELTA AND TAXIWAY ECHO CLOSED DUE MAINTENANCE. RUNWAY 2 7 ARRIVALS PLAN VACATE VIA CHARLIE OR",
    "KLAX": "[Arrival ATIS] KLAX ARR ATIS O 0153Z LAX ATIS INFO O 0153Z. 24011KT 10SM FEW010 21/16 A2989 (TWO NINER EIGHT NINER) RMK AO2 SLP121 T02060156. INST APCHS AND RNAV RNP APCHS RY 24R AND 25L, OR VCTR FOR VISUAL APCH WILL BE PROVIDED, SIMUL VISUAL APCHS TO ALL RWYS ARE IN PROG, SIMUL INSTR DEPARTURES IN PROG RWYS 24 AND 25. CTC L A GC ON 121.75 FOR PUSH OR TAXI ON A. TWY B CLSD BTN TWY, C10 AND TWY C7 , , TWY B6 CLSD, TWY B7 CLSD, TWY C CLSD BTN TWY, C1 AND TWY C3, TWY C1 CLSD, TWY C9 CLSD BTN TWY, B AND TWY C, TWY C8 CLSD BTN TWY, B AND TWY C. RY 25R SFL OTS, RY 24L ALSF-2 OTS. LAX VOR UNMONITORED. USE CAUTION FOR INCREASED DRONE ACTIVIY IN THE VICINITY OF SOFI STADIUM AT OR BELOW 200FT AGL DURING THE WORLD CUP FROM JUNE TWELFTH TWENTY TWENTY SIX THROUGH JULY TENTH TWENTY TWENTY SIX. HAZD WX INFO FOR LAX AREA AVBL FM FSS. USE CAUTION FOR HANG GLIDING 1 MILE SOUTH LOS ANGELES VOR. BIRD ACTIVITY VICINITY ARPT. INCLUDE YOUR CALL SIGN IN ALL READBACKS. USE CAUTION WHEN EXITING RY24R AT TWY V, W, AND Y, TO HOLD SHORT OF RY24L. MULTIPLE RUNWAY INCURSIONS HAVE OCCURRED. ...ADVS YOU HAVE INFO O.\n[Departure ATIS] KLAX DEP ATIS D 0653Z LAX ATIS INFO D 0653Z. 28011KT 10SM FEW012 BKN018 17/14 A2998 (TWO NINER NINER EIGHT) RMK AO2 SLP151 T01720144. INST APCHS AND RNAV RNP APCHS RY 24R AND 25L, OR VCTR FOR VISUAL APCH WILL BE PROVIDED, SIMUL VISUAL APCHS TO ALL RWYS ARE IN PROG. CTC L A GC ON 121.75 FOR PUSH OR TAXI ON A. TWY C CLSD BTN TWY, C8 AND TWY C9 , , TWY B CLSD BTN TWY, F AND TWY B1, TWY B1 CLSD. ILS RY 25R OTS, RY 25R SFL OTS, RY 24L ALSF-2 OTS. LAX VOR UNMONITORED. IF ASSIGNED RUNWAY 25R FOR DEPARTURE, EXPECT DEPARTURE FROM INTERSECTION FOXTROT. TAXILANE CHARLIE EIGHT RESTRICTED TO AIRCRAFT WITH A WINGSPAN LESS THAN ONE HUNDRED EIGHTEEN FEET. USE CAUTION FOR INCREASED DRONE ACTIVIY IN THE VICINITY OF SOFI STADIUM AT OR BELOW 200FT AGL DURING THE WORLD CUP FROM 06/12/26 THROUGH 07/10/2026. HAZD WX INFO FOR LAX AREA AVBL FM FSS. BIRD ACTIVITY VICINITY ARPT. TWR FREQ FOR ALL RWYS IS 120.95. INCLUDE YOUR CALL SIGN IN ALL READBACKS. USE CAUTION WHEN EXITING RY24R AT TWY V, W, AND Y, TO HOLD SHORT OF RY24L. MULTIPLE RUNWAY INCURSIONS HAVE OCCURRED. ...ADVS YOU HAVE INFO D.",
    "KONT": "[Arrival ATIS] KONT ARR ATIS H 1153Z ONT ATIS INFO H 1153Z. 25004KT 8SM OVC013 17/13 A2998 (TWO NINER NINER EIGHT). ILS APR IN USE. RY26L & RY26R. LNDG AND DEPG RY 26L AND RY 26R. NOTAMS... TAXIWAY SIERRA CLSD BETWEEN SIERRA 8 AND W TAXIWAY Q SOUTH OF RWY 26L CLSD TAXIWAY T CLSD TAXIWAY SIERRA 5 CLSD. RY 26L IM OTS. HAZD WX INFO FOR SOUTHERN CA AVBL ON FSS FREQUENCIES. UAS IN THE VICINITY ONTARIO AIRPORT AT OR BELOW TWO HUNDRED FEET. PILOTS READBACK RWY ASSIGNMENTS AND HOLD SHORT INSTRUCTIONS. ...ADVS YOU HAVE INFO H.\n[Departure ATIS] KONT DEP ATIS N 0553Z - KONT ATIS INFO N 0553Z. 24004KT 10SM BKN250 22/15 A2988 (TWO NINER EIGHT EIGHT) RMK AO2 SLP100. ILS AND VIS APR IN USE, RY26L & RY26R. LNDG AND DEPG RY 26L AND RY 26R. NOTAMS... TAXIWAY SIERRA CLSD BETWEEN SIERRA 8 AND W TAXIWAY Q SOUTH OF RWY 26L CLSD TAXIWAY T CLSD TAXIWAY SIERRA 5 CLSD. RY 26L IM OTS, RY 26R ALS OTS. USE CAUTION FOR NUMEROUS BIRDS OBSERVED IN VICINITY OF ONT. HAZD WX INFO FOR SOUTHERN CA AVBL ON FSS FREQUENCIES. PILOTS READBACK RWY ASSIGNMENTS AND HOLD SHORT INSTRUCTIONS. ...ADVS YOU HAVE INFO N.",
    "KSFO": "[Arrival ATIS] KSFO ARR ATIS J 1256Z SFO ATIS INFO J 1256Z. 19009KT 10SM FEW007 BKN022 16/11 A2994 (TWO NINER NINER FOUR). ILS RY 28R APP IN USE. DEPG RWYS 28L, 28R. RY 1L, 1R CLSD. NUMEROUS TWY CLOSURES FOR CONSTRUCTION ON THE FIELD, PILOTS CHECK NOTAMS. HAZWX INFO FOR SFO AREA AVBL FM FSS FREQ. DEPG ACFT WAITING ON FINAL NUMBERS ADVISE GROUND PRIOR TO ENTERING TWY F. ...ADVS YOU HAVE INFO J.\n[Departure ATIS] KSFO DEP ATIS R 1456Z SFO ATIS INFO R 1456Z. 30006KT 10SM FEW006 OVC011 14/11 A3002 (THREE ZERO ZERO TWO). SIMUL CLSLY SPCD DPNDNT ILS RY 28R AND ILS RY 28L APP IN USE. DEPG RWYS 28L, 28R. GATE",
    "KOAK": "[Arrival ATIS] KOAK ARR ATIS S 0253Z - KOAK ATIS INFO S 0253Z. 25012KT 10SM FEW005 BKN010 14/11 A2999 (TWO NINER NINER NINER). RNAV, RWY 30. ILS, RWY 28R. FLOW TO LAX, LAS, SAN, SEA. TWY S CLSD BETWEEN B AND GATE 1. ILS RWY 30, OTS, RWY 28R RAIL, OTS. UNN LIT CLOSE-IN OBSTACLES FOR RWY 30 DEPARTURES. RWY 30 DEPARTURES ARE ADVISED TO AVOID TURNING LEFT PRIOR TO DEPARTURE END OF RUNWAY. CTN, CRANE 1 POINT 6 NAUTICAL MILES, , AT 140 FEET AGL. CAUTION, BIRDS NEAR AIRPORT. ...ADVS YOU HAVE INFO S.\n[Departure ATIS] KOAK DEP ATIS O 1953Z OAK ATIS INFO O 1953Z. 28014KT 10SM FEW005 22/14 A2988 (TWO NINER EIGHT EIGHT). RNAV Z/VA RWY 30 ILS/VA RWY 28R. FLOW TO LAX, LAS, SAN. ILS RWY 30, OTS. UNN LIT CLOSE-IN OBSTACLES FOR RWY 30 DEPARTURES. RWY 30 DEPARTURES ARE ADVISED TO AVOID TURNING LEFT PRIOR TO DEPARTURE END OF RUNWAY. SIGNATURE UNI-COM OUT OF SERVICE. CAUTION, BIRDS NEAR AIRPORT. ...ADVS YOU HAVE INFO O.",
    "KDFW": "[Arrival ATIS] KDFW ARR ATIS N 1253Z - KDFW ARR INFO N 1253Z. 05016G23KT 3SM TSRA BR FEW009 BKN018CB OVC025 22/20 A2994 (TWO NINER NINER FOUR) RMK AO2 PK WND 34027/1159 SLP128 CONS LTGICCG NE-SE-S TS NE-SE-S MOV E P0029 T02170200. SIMUL APCH IN USE. EXPECT ILS TO RWYS, 36L, 35C, 35R, 31R. LDG RWY 35C EXP LAHSO TWY EJ 9050 FT AVL, LDG RWY 36L EXP LAHSO TWY Z 10650 FT AVL. NOTICE TO AIRMEN. RWY 18L ILS OTS, CL OTS. LLWS ADZYS IN EFCT. HAZD WX FOR DFW AVBL ON FSS. RWY CONDITION CODES. RWY 35L CONDITION CODES, 5 , 5 , 5 , AT 1145Z, RWY 35C CON CODES, 5 , 5 , 5 , AT 1145Z, RWY 35R CON CODES, 5 , 5 , 5 , AT 1145Z, RWY 31R CON CODES, 5 , 5 , 5 , AT 1145Z, RWY 36R CON CODES, 5 , 5 , 5 , AT 1145Z, RWY 36L CON CODES, 5 , 5 , 5 , AT 1145Z, RWY 31L CON CODES, 5 , 5 , 5 , AT 1145Z. BIRD ACTIVITY VCNTY ARPT. ...ADVS YOU HAVE INFO N.\n[Departure ATIS] KDFW DEP ATIS W 1553Z - KDFW DEP INFO W 1553Z. 21022G32KT 10SM FEW025 FEW180 SCT250 31/21 A2994 (TWO NINER NINER FOUR) RMK AO2 PK WND 20032/1547 SLP128 T03110206. SIMUL PARL TRAFFIC DEPG RWYS 17R, 18L. NOTICE TO AIRMEN. WARNING, RWY 18L HAS BEEN SHORTENED, 9273 FT AVAILABLE. RWY 18L CL OTS. BIRD ACTIVITY VCNTY ARPT. ...ADVS YOU HAVE INFO W.",
    "KIAH": "[Arrival ATIS] KIAH ARR ATIS C 0453Z IAH ATIS INFO C 0453Z. 17005KT 10SM CLR 28/24 A3002 (THREE ZERO ZERO TWO). ARRIVALS EXPECT ILS OR RNAV Y RY 26R, ILS OR RNAV Y RY 26L, ILS OR RNAV Y RY 27. DEPG RY 15L. NOTICE TO AIRMEN. UAL RAMP PROCEDURES TERMINATED PUSH BACK AT PILOTS DISCRETION. RY 15R, 33L CLSD. HAZD WX INFO FOR IAH AREA AVBL FM FSS. BIRD ACTIVITY VICINITY ARPT. CRANES ARE DOWN. TWY SA CLSD BTN TWY, SF AND TWY SK , TWY SB CLSD BTN TWY, SF AND TWY SK , , TWY WB CLSD BTN TWY, WG AND TWY WH . TWY EA CLSD. NOTAM ATIS IN USE ON FREQUENCY 126.225. ...ADVS YOU HAVE INFO C.\n[Departure ATIS] KIAH DEP ATIS T 0353Z IAH ATIS INFO T 0353Z. 15007KT 10SM FEW035 FEW180 BKN250 27/23 A2996 (TWO NINER NINER SIX). ARRIVALS EXPECT ILS OR RNAV Y RY 8R, ILS OR RNAV Y RY 8L. DEPG RY 15R. NOTICE TO AIRMEN. UNITED RAMP CONTROL IN EFFECT. RY 15L, 33R CLSD. HAZD WX INFO FOR IAH AREA AVBL FM FSS. BIRD ACTIVITY VICINITY ARPT. CRANES ARE DOWN. TWY SA CLSD BTN TWY, SF AND TWY SK , TWY SB CLSD BTN TWY, SF AND TWY SK , , TWY WB CLSD BTN TWY, WG AND TWY WH . TWY EA CLSD. NOTAM ATIS IN USE ON FREQUENCY 126.225. ...ADVS YOU HAVE INFO T.",
    "KORD": "[Arrival ATIS] KORD ARR ATIS D 1251Z - KORD ATIS INFO D 1251Z. 30007KT 10SM FEW055 19/11 A2995 (TWO NINER NINER FIVE) RMK AO2 SLP140 T01890111. ARR EXP VECTORS ILS RWY 27C APCH, VISUAL APCH RWY 27R, VISUAL APCH RWY 28C. SIMUL APCHS IN USE. LAND AND HOLD SHORT OPERATIONS ARE IN EFFECT. RWY 27C ARR PLAN TO H/S OF TWY V V, 9 THSD 7 HND 25 FT AVBL, RWY 28C ARR PLAN TO H/S OF TWY Z, 9 THSD 6 HND TEN FT AVBL. DEPS EXP RWYS 22L 28R FROM NOVEMBER 5 9750 FT AVL. RWY 4L, 22R CLSD, RWY 9R, 27L CLSD. RWY 22L ILS OTS, RWY 22R LOC OTS, RWY 9L IM OTS, RWY 9C IM OTS, RWY 10L IM OTS, RWY 10R IM OTS, RWY 27R IM OTS, RWY 28L IM OTS, RWY 28R IM OTS, RWY 9L PAPI OTS, RWY 27R PAPI OTS. PILOTS USE CTN FOR BIRD ACTIVITY IN THE VICINITY OF THE ARPT. USE CTN FOR PERSONNEL AND EQUIP AT NUMEROUS SITES ON THE FIELD. READBACK ALL RWY HOLD SHORT INSTRUCTIONS. WHEN READY TO TAXI CONTACT GND METERING ON FREQ 121.67. ...ADVS YOU HAVE INFO D.\n[Departure ATIS] KORD DEP ATIS S 0751Z ORD ATIS INFO S 0751Z. 35005KT 10SM CLR 18/15 A3007 (THREE ZERO ZERO SEVEN) RMK AO2 SLP181 T01830150. ARR EXP VECTORS ILS RWY 10C APCH. DEPS EXP RWYS 22L, 10L, 9C. RWY 4L, 22R CLSD, RWY 9L, 27R CLSD, RWY 9R, 27L CLSD, RWY 10R, 28L CLSD. RWY 22L ILS OTS, RWY 22R LOC OTS, RWY 28L GS OTS, RWY 9L IM OTS, RWY 9C IM OTS, RWY 10L IM OTS, RWY 10R IM OTS, RWY 27R IM OTS, RWY 28L IM OTS, RWY 28R IM OTS, RWY 9L PAPI OTS, RWY 27R PAPI OTS. PILOTS USE CTN FOR BIRD ACTIVITY IN THE VICINITY OF THE ARPT. NOISE ABATEMENT PROCEDURES ARE IN EFFECT. USE CTN FOR PERSONNEL AND EQUIP AT NUMEROUS SITES ON THE FIELD. READBACK ALL RWY HOLD SHORT INSTRUCTIONS. FOR CD GND METERING AND GC CONTACT ORD ON FREQ 121.9. ...ADVS YOU HAVE INFO S.",
    "KJFK": "[Arrival ATIS] KJFK ARR ATIS V 0951Z - KJFK ATIS INFO V 0951Z. 05008KT 10SM OVC006 18/17 A3002 (THREE ZERO ZERO TWO). APPROACH IN USE ILS RY 4R, ILS RY 4L. DEPG RY 4L. CRI OTS. RWY 22L/4R INNER MARKER OTS. HAZD WX INFO FOR NY METRO AREA AVBL ON FSS. NUM CRANES OPERATING AT JFK. BIRD ACTIVITY VICINITY ARPT. READBACK ALL RWY ASSIGNMENTS AND HOLD SHORT INSTRUCTIONS. ...ADVS YOU HAVE INFO V.\n[Departure ATIS] KJFK DEP ATIS M 1051Z JFK ATIS INFO M 1051Z. 31012KT 10SM BKN190 BKN250 22/09 A2969 (TWO NINER SIX NINER) RMK PK WND 30026/1034. APPROACH IN USE ILS RY 31R, VISUAL APCH RY 31L. DEPG RY 31L. RWY 22L/4R INNER MARKER OTS. NUM CRANES OPERATING AT JFK. BIRD ACTIVITY VICINITY ARPT. READBACK ALL RWY ASSIGNMENTS AND HOLD SHORT INSTRUCTIONS. ...ADVS YOU HAVE INFO M.",
    "KIND": "[Arrival ATIS] KIND ARR ATIS C 0254Z - KIND ATIS INFO C 0254Z. 03010KT 10SM FEW055 FEW250 25/21 A3001 (THREE ZERO ZERO ONE). PARL ILS RWY 5R AND 5L APPROACHES IN USE. CROSS RUNWAY OPERATIONS MAY BE IN EFFECT. NOTICE TO AIRMEN. RWY 32 GS OTS. TWY, P BTN TWY, H AND TWY B CLSD. P PAD CLSD. ILS RUNWAY 5R AND RUNWAY 5L INNER MARKER UNSERVICEABLE. RUNWAY 32 TOUCHDOWN RVR OTS. RUNWAY 14 ROLLOUT RVR OTS. ...ADVS YOU HAVE INFO C.\n[Departure ATIS] KIND DEP ATIS H 1854Z IND ATIS INFO H 1854Z. 26009G19KT 10SM SCT036 BKN041 BKN170 23/16 A2981 (TWO NINER EIGHT ONE) RMK AO2 SLP088 T02280156. PARL ILS RWY 23R AND 23L APPROACHES IN USE. CROSS RU",
    "KDTW": "[Arrival ATIS] KDTW ARR ATIS J 0753Z DTW ARR INFO J 0753Z. 00000KT 9SM FEW055 SCT095 BKN250 19/13 A3003 (THREE ZERO ZERO THREE) RMK AO2 SLP165 T01940133. ILS Z RY 4L APCH IN USE. NOTICE TO AIRMEN. RWY 22L, 4R CLSD, RWY 21R, 3L CLSD, RWY 21L, 3R CLSD, RWY 27L, 9R CLSD, RWY 27R, 9L CLSD. TWYS Y1 CLSD ;. PILOTS USE CTN FOR BIRD ACTIVITY. TWR AND GC COMB ON FREQ 135.0. DEPARTURE ATIS 118.125. ...ADVS YOU HAVE INFO J.\n[Departure ATIS] KDTW DEP ATIS Q 2253Z - KDTW DEP INFO Q 2253Z. 21009KT 10SM FEW050 FEW250 33/24 A2991 (TWO NINER NINER ONE). DEPG RWY 21R, RWY 22L ;. NOTICE TO AIRMEN. RWY 27L, 9R CLSD, RWY 27R, 9L CLSD. PILOTS USE CTN FOR BIRD ACTIVITY. ...ADVS YOU HAVE INFO Q.",
    "KMSP": "[Arrival ATIS] KMSP ARR ATIS H 0853Z MSP ARR INFO H 0853Z. 28007KT 10SM FEW012 SCT018 BKN110 20/18 A3007 (THREE ZERO ZERO SEVEN) RMK AO2 RAE31 SLP176 P0003 60031 T02000183 58020. ILS RWY 12R APCH IN USE, LOCALIZER RWY 12L APCH IN USE. FINAL APCH, OVER NOISE SENSITIVE AREA. NOTICE TO AIRMEN. RWYS 4, 22 CLSD. TWY R7. R8. R9. R10. CLOSED, TWY R BETWEEN R6 AND R10 CLOSED, TWY A7 CLSD. GS RWY 12L OTS, RWYS 12R, 12L, INNER MARKER OTS.. HAZD WX INFO FOR MSP AREA AVBL FM FSS. CTN, BIRDS NEAR MSP. READ BACK HS AND ALT. ALL ACFT TAXI WITH TRANSPONDER AND ALTITUDE ENCODING ON. ...ADVS YOU HAVE INFO H.\n[Departure ATIS] KMSP DEP ATIS S 2153Z MSP DEP INFO S 2153Z. 17011KT 10SM FEW045 SCT060 SCT250 30/19 A3003 (THREE ZERO ZERO THREE) RMK AO2 SLP164 T03000194. DEPARTING RWY 12L, RWY 12R, RWY 17. NOTICE TO AIRMEN.",
    "CYEG": "[Arrival ATIS] CYEG ARR ATIS R 0600Z 11008KT 20SM FEW100 FEW250 14/11 A3006 APCH RNAV Z OR Y RWY 20, INFORM ARRL OF REQ APCH ON INITIAL CTC. LDG AND DEP RWY 20. SIMUL APPROACHES MAY BE IN EFCT. INFORM CYEG ATC INFO R\n[Departure ATIS] CYEG DEP ATIS N 0200Z CYEG ARR ATIS N 0200Z 12011KT 20SM FEW062 FEW100 FEW250 21/09 A3007 APCH RNAV Z OR Y RWY 20, INFORM ARRL OF REQ APCH ON INITIAL CTC. LDG AND DEP RWY 20. SIMUL APPROACHES MAY BE IN EFCT. INFORM CYEG ATC INFO N",
    "EHAM": "[Arrival ATIS] EHAM ARR ATIS H 0851Z EHAM ARRIVAL INFO H. DEMAND. MAIN LANDING RWY 18 R. SECONDARY LANDING RWY 18 C. TRANSITION LEVEL 045. WIND 270 DEG, 13 KT, VRB BTN 240 AND 310 DEG, 18 KT MAX, 7 KT MNM. WIND SECONDARY RUNWAY 280 DEG, 14 KT, VRB BTN 240 AND 300 DEG, 18 KT MAX, 9 KT MNM. CAVOK. T 23. DP 15. QNH 1012 HPA. NOSIG. OPERATIONAL REPORT. CONTACT APCH WITH CALLSIGN ONLY. END OF INFO H\n[Departure ATIS] EHAM DEP ATIS Z 0750Z EHAM DEPARTURE INFO Z. DEMAND. MAIN DEPARTURE RWY 24. SECONDARY DEPARTURE RWY 18 L. MAIN LANDING RWY 18 R. WIND 280 DEG, 11 KT, VRB BTN 230 AND 320 DEG, 18 KT MAX, 7 KT MNM. WIND SECONDARY RUNWAY 270 DEG, 12 KT, VRB BTN 240 AND 310 DEG, 19 KT MAX, 8 KT MNM. CAVOK. T 22. DP 14. QNH 1012 HPA. OPERATIONAL REPORT. INFORM SCHIPHOL DEL BY VOICE IF UNABLE TO COMPLY WITH NADP 2. END OF INFO Z",
    "EBBR": "[Arrival ATIS] EBBR ARR ATIS D 0250Z EBBR NAT, EXP VECT FOR ILS APP ARR RWY25L RSCD AT 2102 RWY25R RSCD AT 0138 RWY25L DRY. RWY25R DRY. DEP RWY25R RWY19 TRL 055 TWY C6 CLSD. ILS RWY 25R U/S. RNP RWY 25R AT ATC DISCRETION. XNG RWY OPS INPR 230/8KT CAVOK T19 DP9 QNH 1015HPA NOSIG CFM ARR D\n[Departure ATIS] EBBR DEP ATIS N 0820Z EBBR NAT, DEP RWY25R RSCD AT 0712 RWY25R DRY. ARR RWY25L TRL 055 B3 CLSD 250/10KT MNM6 MAX16 CAVOK T23 DP12 QNH 1015HPA NOSIG CFM DEP N",
    "EDDF": "[Arrival ATIS] EDDF ARR ATIS F 1320Z -ARR-ATIS EDDF F METAR 191320 -EXPECT INDEPENDENT PARALLEL ILS Z APCH RWY 25R OR ILS APCH RWY 25L -RWY 25R 25L -GLS APCH ON REQUEST , DO NOT MISTAKE TWY M FOR RWY 25C WHEN PERFORMING VISUAL APPROACH , -TRL 60 -ATTN : BIRDS IN THE VCY OF THE AD -27005KT 170V340 -CAVOK - - -T36 DP14 -QNH1016 - -TREND NOSIG\n[Departure ATIS] EDDF DEP ATIS N 0920Z DEP-ATIS EDDF N METAR 070920 RWY 25C 18 TRL 60 ATTN : BIRDS IN THE VICINITY OF THE RWYS , 23014KT RWY18 VRB07KT CAVOK T28 DP08 QNH1014 TREND NOSIG END OF ATIS N",
    "EDDL": "[Arrival ATIS] EDDL ARR ATIS U 0650Z ATIS EDDL U METAR 070650 EXPECT VECTORS ILS APPROACH RWY 23L TWY L2 , L4 AND L5 BTN TWY M AND RWY 23L CLOSED TRL 60 24008KT CAVOK T21 DP11 QNH1014 TREND BECMG 27013KT\n[Departure ATIS] EDDL DEP ATIS R EDDL ARR/DEP DATIS RPT -ATIS EDDL R METAR 020550 -EXPECT VECTORS ILS APPROACH -RWY 23L -TWY L8 CLOSED BETWEEN TWY M AND RWY 23L -TRL 60 - -23010KT -CAVOK - - -T19 DP13 -QNH1020 - -TREND NOSIG",
    "EDDK": "[Arrival ATIS] EDDK ARR ATIS Z 0620Z ATIS EDDK Z METAR 070620 EXPECT ILS APCH RWY 31R RWY 31R RWY COND RWY 31R AT TIME 2345 RWYCC 6 DEPOSIT TOTAL RWY DRY TRL 60 RWY 13R AND RWY 31L CLOSED FOR DEPARTURE AND LANDING: TAXIING BTN THR RWY 13R AND INTERSECTION RWY 24 POSSIBLE : VRB01KT CAVOK T20 DP14 QNH1014 TREND BECMG 27008KT\n[Departure ATIS] EDDK DEP ATIS Q EDDK ARR/DEP DATIS RPT -ATIS EDDK Q METAR 291920 -EXPECT ILS APCH -RWY 31R 06 -RWY COND RWY 31R AT TIME 1830 RWYCC 6 DEPOSIT TOTAL RWY DRY RWY 06 AT TIME 1830 RWYCC 6 DEPOSIT TOTAL RWY DRY -TRL 60 -RWY 13R AND RWY 31L CLOSED FOR DEPARTURE AND LANDING: TAXIING BTN THR RWY 13R AND INTERSECTION RWY 24 POSSIBLE : -04003KT -CAVOK - - -T24 DP13 -QNH1024 - -TREND NOSIG",
    "EBLG": "[Arrival ATIS] EBLG ATIS C 0950Z EBLG INFO, EXP RNAV TO ILS APP ARR RWY22L DEP RWY22L RWY 22L DRY, RWYCC 666. TRL 055 TWY A4 PTLY CLSD 250/13KT MNM10 MAX19 CAVOK T26 DP10 QNH 1015HPA NOSIG CFM ATIS C",
    "LSZH": "[Arrival ATIS] LSZH ARR ATIS D 0950Z ARRIVALS, EXP ILS APCH, RWY 14. TRL 70. DEP RWY 28. WIND 240 DEG, 10 KT, VRB BTN 200 AND 270 DEG. CAVOK. T 28. DP 11. QNH 1020. NOSIG.\n[Departure ATIS] LSZH DEP ATIS W 0850Z DEP RWY 28. TRL 70. ARRIVALS, EXP ILS APCH, RWY 14. TMA S 1 IS NOT ACT. TMA S 2 AND S 3 ARE NOT ACT. WIND 230 DEG, 6 KT, VRB BTN 190 AND 270 DEG. CAVOK. T 27. DP 12. QNH 1021. NOSIG.",
    "LIMC": "[Arrival ATIS] LIMC ARR ATIS E 0850Z LIMC ARR E 0850Z I.L.S. ZULU RWY IN USE 35R TL 70 WIND TDZ 080/4KT VRB BTN 040/AND 120/ CAVOK T30 DP15 QNH 1019HPA QFE 0994HPA\n[Departure ATIS] LIMC DEP ATIS G 0850Z LIMC DEP G 0850Z RWY IN USE 35L TL 70 INTERSECTION ECHO WHISKY CLOSED.. WIND END 080/4KT VRB BTN 030/AND 200/ CAVOK T29 DP18 QNH 1020HPA QFE 0995HPA DATALINK CLEARANCE AVAILABLE.... CONTACT 1 3 1 8 8 0 TO BE RELEASED BY THE AIRPORT OPERATOR ...",
    "LIRF": "[Arrival ATIS] LIRF ARR ATIS H 0950Z LIRF ARR H 0950Z RWY 16L ILS W RWY 16R ILS Z RWY IN USE 16L 16R TL 70 RWYS IN USE FOR ARR 16L AND 16R WIND RWY 16L TDZ 220/9KT RWY 16R TDZ 220/8KT VRB BTN 200/AND 260/ CAVOK T30 DP21 QNH 1018HPA RRSM\n[Departure ATIS] LIRF DEP ATIS S 1320Z LIRF DEP S 1320Z RWY IN USE 25 TL 70 RWYS IN USE FOR ARR 16L AND 16R WIND END 260/7KT VRB BTN 230/AND 310/ CAVOK T30 DP19 QNH 1018HPA REA IS SENT AUTOMATICALLY ONCE RLSD BY RAMP WHEN READY CONTACT FIUME RAMP 121.725 RRSM",
    "EINN": "[Arrival ATIS] EINN ARR ATIS I 0900Z EXPECT I L S CATEGORY 1 LDG RWY24 TKOF RWY24 TRL FL060 26008KT 9999 BKN009 16/13 QNH Q1020 TREND BECMG SCT010 ADVISE AT FIRST CONTACT YOU HAVE ATIS INFO I",
    "EGLL": "[Arrival ATIS] EGLL ARR ATIS S 0950Z LANDING RWY 27L TRANSITION-LEVEL: FL 70 RUNWAY 27R REDUCED DECLARED DISTANCES WITH TAKE OFF RUN AVAILABLE 3362METRES AND LANDING DISTANCE AVAILABLE 3362METRES IF STAND GUIDANCE IS OFF OR FAILS, REMAIN ON THE TAXIWAY CENTRELINE AND ADVISE ATC AUTO 28015KT 9999 NCD 26/12 Q1016 ACKNOWLEDGE RECEIPT OF INFORMATION S\n[Departure ATIS] EGLL DEP ATIS F 1304Z DEPARTURE RWY 27L PILOTS THAT ARE IN RECEIPT OF DATALINK CLEARANCES ARE REMINDED THEY MUST CONTACT DELIVERY ON 121.980 WHEN READY FOR START DET VOR OOS PILOTS ARE EXPECTED TO CHANGE TO RWY 27R AT AT 14:00 HOURS. DATALINK CLEARANCES FOR CERTAIN ROUTES MAY NOT BE AVAILABLE DURING THIS PERIOD. AUTO 22013KT 190V260 9999 NCD 29/16 Q1012 ACKNOWLEDGE RECEIPT OF INFORMATION F AND REPORT AIRCRAFT TYPE AND CURRENT QNH ON FIRST CONTACT WITH HEATHROW",
    "EPWA": "[Arrival ATIS] EPWA ARR ATIS D 0833Z EPWA ARR D. TIME 0833. EXP U ARR ILS Z APCH FOR RWY 33. RWY 33 RCC 5, 5, 5. 1ST PART, WET. 2ND PART, WET. 3RD PART, WET. RWY REPORT END. TRANSITION LEVEL 80. WIND 290 DEG, 10 KT, VRB BTN 220 AND 310 DEG. VIS TDZ 2700 M. WX MOD SHRA. CLD SCT 1000 FT, CLD BKN CB 2400 FT. T 17. DP 15. QNH 1007. NOSIG. CAUTION. BIRD ACT. END OF EPWA ARR D\n[Departure ATIS] EPWA DEP ATIS P 0512Z EPWA DEP P. TIME 0511. DEP RWY 29. ARR RWY 33, EXP U ARR ILS Z. REPORT READY FOR STARTUP ON DELIVERY 121. 605. RWY 29 RCC 5, 5, 5. 1ST PART, WET. 2ND PART, WET. 3RD PART, WET. RWY REPORT END. TRANSITION LEVEL 80. WIND 270 DEG, 10 KT. VIS MID 5 KM. WX FBL RA. CLD BKN 1100 FT, CLD BKN 2900 FT. T 17. DP 15. QNH 1006. NOSIG. CAUTION. BIRD ACT. END OF EPWA DEP P",
    "EFHK": "[Arrival ATIS] EFHK ARR ATIS C 0920Z EXPECT ILS APCH ARR RWY 22L RUNWAY 22L CONDITION REPORT AT 0725 UTC RUNWAY CONDITION CODES 4 DOWNGRADED , 4 DOWNGRADED , 4 DOWNGRADED CONTAMINANTS ALL PARTS 100 PERCENT WET TRL 70 WIND 280 DEG 12 KT VIS 10KM BKN 1000 FT T 14 DP 12 QNH 994 NOSIG ACK INFO C\n[Departure ATIS] EFHK DEP ATIS H 1620Z DEP RWYS 22R AND 22L RUNWAY 22R CONDITION REPORT AT 1329 UTC RUNWAY CONDITION CODES 6 , 6 , 6 CONTAMINANTS ALL PARTS DRY RUNWAY 22L CONDITION REPORT AT 1330 UTC RUNWAY CONDITION CODES 6 , 6 , 6 CONTAMINANTS ALL PARTS DRY WIND 110 DEG 6 KT VIS 10KM FEW 1400 FT. SCT 1600 FT. FEW TCU 2800 FT T 19 DP 15 QNH 1003 TEMPO CLD FEW CB 3000 FT. ACK INFO H",
    "LTAC": "[Arrival ATIS] LTAC ARR ATIS R 0850Z EXP ILS V APCH 03C DEP RWY 03L RWY 03C WIND VRB 08 KT RWY 03L WIND 050 DEG 08 KT VRB BTN 340 DEG AND 070 DEG TRL 110 VIS 9999 SCT04000 FT T 25 DP 10 QNH 1016 NOSIG FOR DELIVERY CTC 121.9. FOR DELIVERY FIRST USE DIGITAL DEP CLR. CTN BIRD HAZARD OVR AERODROME. APCH FREQUENCY 129.050. TAXIWAY ECHO 1 IS CLOSED. END OF ATIS R",
    "UBBB": "[Arrival ATIS] UBBB ARR ATIS O 0850Z ATIS O EXP ILS/ LDG 34 35 DEP 34 35 IN USE RWY 34 CLEAR DRY 70 RWY 35 CLEAR DRY 70 TLVL 110 WIND WIND RWY 34 340 22 KT SPD MAX 28 MIN 14 WIND RWY 35 320 24 KT SPD MAX 30 MIN 18 VIS 10 KM FEW CB 6000 FT RWY 34 FEW CB 6000 FT RWY 35 T 27 / DP 20 QNH 1011 HPA TREND TREND NOSIG MODERATE BIRDS ACT IN VICINITY OF AP END OF ATIS O\n[Departure ATIS] UBBB DEP ATIS I 0800Z ATIS I EXP ILS/ LDG 34 35 DEP 34 35 IN USE RWY 34 CLEAR DRY 70 RWY 35 CLEAR DRY 70 TLVL 110 WIND WIND RWY 34 340 20 KT SPD MAX 28 MIN 14 WIND RWY 35 330 24 KT SPD MAX 30 MIN 20 VIS 10 KM FEW CB 6000 FT RWY 34 FEW CB 6000 FT RWY 35 T 26 / DP 19 QNH 1011 HPA TREND TREND NOSIG MODERATE BIRDS ACT IN VICINITY OF AP END OF ATIS I",
    "ZWWW": "[Arrival ATIS] ZWWW ARR ATIS G 1300Z EXP ILSDME Z APCH LDG RWY 26R TA 3000 WIND 330/3MPS CAVOK T 34 /DP 07 QNH 1009 HPA ADZ YOU HAVE INFO G.\n[Departure ATIS] ZWWW DEP ATIS C 1230Z DEP RWY 26L TA 3000 WIND 320/3MPS CAVOK T 34 /DP 07 QNH 1009 HPA ADZ YOU HAVE INFO C.",
    "ZLXY": "[Arrival ATIS] ZLXY ARR ATIS O 1300Z EXP ILS APCH LDG RWY 05L & 06R WIND 080/3MPS CAVOK T 28 /DP 17 QNH 1004 HPA VISUAL APPROACH IN PROGRESS ADZ YOU HAVE INFO O.\n[Departure ATIS] ZLXY DEP ATIS G 0600Z DEP RWY 05L & 06L WIND VRB/1MPS VIS 9999M CLD SCT 1500M T 29 /DP 19 QNH 1005 HPA VISUAL APPROACH IN PROGRESS ADZ YOU HAVE INFO G.",
    "ZBAA": "[Arrival ATIS] ZBAA ARR ATIS X 1300Z EXP ILS APCH INDEPENDENT PARL INSTR APCH LDG RWY 36L & 01 WIND 020 DEG 2 MPS VIS 8000 CLD FEW 300M T 21 /DP 21 QNH 1004 HPA RWY 36L RWYCC 5/5/5 ISSUED AT 0700 ALL PARTS WET NR 100PCT RWY 36R RWYCC 5/5/5 ISSUED AT 0700 ALL PARTS WET NR 100PCT RWY 01 RWYCC 5/5/5 ISSUED AT 0700 ALL PARTS WET NR 100PCT ADZ YOU HAVE INFO X.\n[Departure ATIS] ZBAA DEP ATIS I 0930Z DEP RWY 36L & 36R & 01 WIND 130 DEG 4 MPS 080V160 DEG VIS 9999 -TSRA CLD BKN CB 990M T 23 /DP 21 QNH 999 HPA RWY INDEPENDENT PARALLEL DEP VISUAL APPROACH IS IN PROGRESS. RWY 36L RWYCC 5/5/5 ISSUED AT 0928 ALL PARTS WET NR 100PCT RWY 36R RWYCC 5/5/5 ISSUED AT 0928 ALL PARTS WET NR 100PCT RWY 01 RWYCC 5/5/5 ISSUED AT 0928 ALL PARTS WET NR 100PCT ADZ YOU HAVE INFO I.",
    "ZBHH": "[Arrival ATIS] ZBHH ARR ATIS A 1015Z EXP ILSDME APCH LDG RWY 08 SFC COND & BA NOTICE: RWYCC 08 5/5/5 ISSUED AT 0834Z ALL PARTS WET NR NR TA 3000 /TRL 3600 WIND VRB/2MPS MAX7 VIS 9999M -SHRA CLD FEW 1200M /FEW CB 1200M T 18 /DP 14 QNH 1008 HPA SUPPLEMENT INFO RETS BEFORE 1300 UTC, TURBULENCE MAY OCCUR IN LOCAL FIELD. ADZ YOU HAVE INFO A.\n[Departure ATIS] ZBHH DEP ATIS K 0600Z DEP RWY 26 TA 3000 /TRL 3600 WIND 240/4MPS VIS 9999M CLD SCT 900M /FEW TCU 900M T 23 /DP 16 QNH 1006 HPA BEFORE 1300 UTC, TURBULENCE MAY OCCUR IN LOCAL FIELD. ADZ YOU HAVE INFO K.",
    "ZSQD": "[Arrival ATIS] ZSQD ARR ATIS B 1138Z EXP ILSDME APCH LDG RWY 17 TA 3000 /TRL 3600 WIND 110/2MPS VIS 9999M CLD SCT 750M T 24 /DP 20 QNH 1002 HPA SEGREGATED OPERATION VISUAL APPROACH OPERATION IN PROGRESS. WHEN READY CONTACT QINGDAO TOWER ON 118.7 RUNWAY 17,IF MISSED APPROACH,EXPECT FOLLOW THE STANDARD MISSED APPROACH PROCEDURE,CLIMB TO 900M ON QNH OR BY ATC CAUTION MAYBE THERE IS A FLOCK OF BIRDS IN THE VICINITY OF AIRPORT RWY 17 RWYCC 6/6/5 ISSUED AT 1119UTC DRY/DRY/WET DPT NR/NR/NR COV NR/NR/75PCT ADZ YOU HAVE INFO B.\n[Departure ATIS] ZSQD DEP ATIS W 0900Z DEP RWY 16 TA 3000 /TRL 3600 WIND 140/2MPS VRB BTN 100/ AND 170/ VIS 9999M CLD BKN 900M T 25 /DP 19 QNH 1002 HPA SEGREGATED OPERATION VISUAL APPROACH OPERATION IN PROGRESS. RUNWAY 17,IF MISSED APPROACH,EXPECT FOLLOW THE STANDARD MISSED APPROACH PROCEDURE,CLIMB TO 900M ON QNH OR BY ATC CAUTION MAYBE THERE IS A FLOCK OF BIRDS IN THE VICINITY OF AIRPORT ADZ YOU HAVE INFO W."
  },
  "windtemp_alaska": "\n000\nFBAK31 KWNO 070800\nFD1AK1\nDATA BASED ON 070600Z    \nVALID 071200Z   FOR USE 0800-1500Z. TEMPS NEG ABV 24000\n\nFT  3000    6000    9000   12000   18000   24000  30000  34000  39000\nADK 2620 2625+03 2630+01 2637-04 2553-16 2466-29 238543 248047 246147\nADQ 2813 2511+05 2711-01 2913-07 3124-19 3147-30 307043 307449 304048\nAKN 2307 9900+04 2205+00 2207-06 2613-18 2834-30 286743 288050 284049\nANC 3407 0212+05 0412-01 0407-07 1312-18 1422-31 133548 102651 990045\nANN 2211 1726+00 1927-03 2033-09 2054-22 1965-34 199443 196944 193543\nBET 9900 9900+03 1505-02 1508-08 1710-20 2415-32 253947 253248 252445\nBRW 1413 2008+07 2107+00 2010-06 1817-19 1818-31 202146 212253 191648\nBTI 1309 1608+09 2306+02 2309-04 1813-17 1719-30 162646 172554 181749\nBTT 9900 1405+08 1505+00 1606-07 1510-19 1723-30 162246 152054 161748\nCDB 1818 2118+05 2422+04 2427-01 2545-12 2558-24 256540 256849 266656\nCZF 9900 1706+02 1408-03 1510-08 1412-22 1812-33 231948 221647 221344\nEHM 1610 1315+02 1319-05 1619-07 2220-17 2327-30 267342 268550 264648\nFAI 0811 1011+09 1113+01 1111-06 1323-18 1530-29 162846 162556 151847\nFYU 1206 0706+09 0605+01 1109-06 1420-18 1617-29 181646 171755 151848\nGAL 0205 1406+06 1706-01 1705-07 1309-20 1311-32 131748 121652 151145\nGKN 0516 0724+06 0820+00 0917-05 0922-18 1229-29 114546 114654 111147\nHOM 3105 3407+05 3307-02 3309-07 3315-20 3310-32 331647 322347 311546\nJNU 1807 1716+00 1528-06 1431-12 1246-24 1368-34 136242 144642 163141\nLUR 1920 1821+06 1921+00 2018-06 1614-19 1412-30 141646 131553 141048\nMCG 0410 0609+05 0811-01 0712-07 0906-20 1308-32 131548 131050 180645\nMDO 3011 3307+05 9900-02 9900-07 0117-20 0519-32 093348 061347 011244\nOME 9900 1709+05 1611-02 1612-07 1312-21 1416-33 132150 131550 171044\nORT      0918+08 0927+00 0924-06 1223-17 1229-29 113745 122955 131947\nOTZ 1806 1910+05 1910-01 1909-07 1805-20 1606-33 141447 131952 151345\nSNP 1119 1612+03 1711-01 1912-07 2121-19 2236-32 226942 226045 233644\nTKA 0306 0617+06 0719-01 0613-08 1316-18 1525-30 134547 123354 150646\nUNK 9900 1108+05 1208-02 1312-07 1312-20 1212-33 132049 141651 171044\nYAK 9900 9900+00 1310-04 1317-09 1141-23 1158-34 107545 104745 111543\nIKO 2526 2432+05 2437+03 2443-01 2463-12 2473-24 248140 248648 248154\nAFM 9900 1908+06 1808-01 1711-07 1314-20 1418-32 162146 152153 161647\n5AB 3514 3413+02 3412-02 3210-05 3613-18 0323-31 053246 021649 251547\n5AC 2521 2422-02 2427-04 2330-08 2442-21 2447-34 244545 254142 253442\n5AD 3338 3337+01 3338-03 3341-09 3247-20 3259-33 810044 318946 315144\n5AE 2117 2016+05 2116+01 2521-02 2836-15 2859-25 298040 298149 296455\n5AF 1525 1525-02 1624-07 1623-14 1431-28 1433-39 191735 201237 211139\n5AG 0214 0214+00 0210-04 0508-11 3523-23 0236-36 052743 041640 021141\n",
  "vaac_tokyo": [
    {
      "id": "20260707_30027000_0243",
      "year": "2026",
      "volcano": "Sheveluch",
      "psn": "N5639 E16122",
      "issued": "20260707",
      "text": "FVFE01 RJTD 070900\nVA ADVISORY\nDTG: 20260707/0900Z\nVAAC: TOKYO\nVOLCANO: SHEVELUCH 300270\nPSN: N5639 E16122\nAREA: RUSSIA\nSOURCE ELEV: 3283M AMSL\nADVISORY NR: 2026/243\nINFO SOURCE: HIMAWARI-9\nERUPTION DETAILS: VA CONTINUOUSLY OBS IN SATELLITE IMAGERY\nOBS VA DTG: 07/0820Z\nOBS VA CLD: SFC/FL400 N5545 E16209 - N5601 E16209 - N5638 E16305 - \nN5550 E16344 - N5535 E16247 MOV SE 15KT\nFCST VA CLD +6 HR: 07/1420Z SFC/FL400 N5540 E16544 - N5433 E16352 - \nN5442 E16206 - N5548 E16333\nFCST VA CLD +12 HR: 07/2020Z SFC/FL400 N5544 E16805 - N5341 E16513 - \nN5346 E16151 - N5541 E16629\nFCST VA CLD +18 HR: 08/0220Z SFC/FL400 N5549 E17129 - N5334 E16618 - \nN5238 E16119 - N5543 E16933\nRMK: NIL\nNXT ADVISORY: 20260707/1200Z=",
      "img_url": "https://ds.data.jma.go.jp/svd/vaac/data/VAGFN/2026/Images/20260707_30027000_0243_QH21_01.png",
      "sat_img_url": "https://ds.data.jma.go.jp/svd/vaac/data/Sat/2026/Images/30027000/09-ir/20260707_0820_202607070900_ir.png",
      "text_url": "https://ds.data.jma.go.jp/svd/vaac/data/TextData/2026/20260707_30027000_0243_Text.html"
    },
    {
      "id": "20260706_27202000_0232",
      "year": "2026",
      "volcano": "Kanlaon",
      "psn": "N1025 E12308",
      "issued": "20260706",
      "text": "FVFE01 RJTD 061545\nVA ADVISORY\nDTG: 20260706/1545Z\nVAAC: TOKYO\nVOLCANO: KANLAON 272020\nPSN: N1025 E12308\nAREA: PHILIPPINES\nSOURCE ELEV: 2435M AMSL\nADVISORY NR: 2026/232\nINFO SOURCE: HIMAWARI-9 PHIVOLCS\nERUPTION DETAILS: ERUPTION AT 20260706/1520Z FL100 EXTD SW REPORTED\nOBS VA DTG: 06/1530Z\nOBS VA CLD: VA NOT IDENTIFIABLE FM SATELLITE DATA WIND FL100 350/5KT\nFCST VA CLD +6 HR: NOT AVBL\nFCST VA CLD +12 HR: NOT AVBL\nFCST VA CLD +18 HR: NOT AVBL\nRMK: WE WILL ISSUE FURTHER ADVISORY IF VA IS DETECTED IN SATELLITE \nIMAGERY.\nNXT ADVISORY: NO FURTHER ADVISORIES=",
      "img_url": "https://ds.data.jma.go.jp/svd/vaac/data/VAGFN/2026/Images/20260706_27202000_0232_QH21_01.png",
      "sat_img_url": null,
      "text_url": "https://ds.data.jma.go.jp/svd/vaac/data/TextData/2026/20260706_27202000_0232_Text.html"
    },
    {
      "id": "20260705_27303000_0717",
      "year": "2026",
      "volcano": "Mayon",
      "psn": "N1315 E12341",
      "issued": "20260705",
      "text": "FVFE01 RJTD 051936\nVA ADVISORY\nDTG: 20260705/1936Z\nVAAC: TOKYO\nVOLCANO: MAYON 273030\nPSN: N1315 E12341\nAREA: PHILIPPINES\nSOURCE ELEV: 2462M AMSL\nADVISORY NR: 2026/717\nINFO SOURCE: HIMAWARI-9 PHIVOLCS\nERUPTION DETAILS: ERUPTION AT 20260705/1914Z FL090 EXTD WSW REPORTED\nOBS VA DTG: 05/1920Z\nOBS VA CLD: VA NOT IDENTIFIABLE FM SATELLITE DATA WIND FL090 050/8KT\nFCST VA CLD +6 HR: NOT AVBL\nFCST VA CLD +12 HR: NOT AVBL\nFCST VA CLD +18 HR: NOT AVBL\nRMK: WE WILL ISSUE FURTHER ADVISORY IF VA IS DETECTED IN SATELLITE \nIMAGERY.\nNXT ADVISORY: NO FURTHER ADVISORIES=",
      "img_url": "https://ds.data.jma.go.jp/svd/vaac/data/VAGFN/2026/Images/20260705_27303000_0717_QH21_01.png",
      "sat_img_url": null,
      "text_url": "https://ds.data.jma.go.jp/svd/vaac/data/TextData/2026/20260705_27303000_0717_Text.html"
    },
    {
      "id": "20260701_30006000_0001",
      "year": "2026",
      "volcano": "Mutnovsky",
      "psn": "N5227 E15812",
      "issued": "20260701",
      "text": "FVFE01 RJTD 012206\nVA ADVISORY\nDTG: 20260701/2206Z\nVAAC: TOKYO\nVOLCANO: MUTNOVSKY 300060\nPSN: N5227 E15812\nAREA: RUSSIA\nSOURCE ELEV: 2288M AMSL\nADVISORY NR: 2026/1\nINFO SOURCE: KVERT KBGS UHPP HIMAWARI-9\nERUPTION DETAILS: ERUPTION AT 20260701/2016Z FL170 EXTD W REPORTED\nOBS VA DTG: 01/2140Z\nOBS VA CLD: VA NOT IDENTIFIABLE FM SATELLITE DATA WIND FL170 120/8KT\nFCST VA CLD +6 HR: NOT AVBL\nFCST VA CLD +12 HR: NOT AVBL\nFCST VA CLD +18 HR: NOT AVBL\nRMK: WE WILL ISSUE FURTHER ADVISORY IF VA IS DETECTED IN SATELLITE \nIMAGERY.\nNXT ADVISORY: NO FURTHER ADVISORIES=",
      "img_url": "https://ds.data.jma.go.jp/svd/vaac/data/VAGFN/2026/Images/20260701_30006000_0001_QH21_01.png",
      "sat_img_url": null,
      "text_url": "https://ds.data.jma.go.jp/svd/vaac/data/TextData/2026/20260701_30006000_0001_Text.html"
    }
  ],
  "vaac_alaska": [
    {
      "text": "\n000\nFVAK21 PAWU 070300\nVAAAK1\nVA ADVISORY\n\nDTG: 20260707/0239Z\n\nVAAC: ANCHORAGE\n\nVOLCANO: SHEVELUCH 300270\n\nPSN: N5639 E16122\n\nAREA: KAMCHATKA PENINSULA\n\nSOURCE ELEV: 10771 FT AMSL\n\nADVISORY NR: 2026/180\n\nINFO SOURCE: HIMAWARI/GOES\n\nERUPTION DETAILS: VA NOT IDENTIFIABLE FM SATELLITE DATA.\n\nOBS VA DTG: 07/0239Z\n\nOBS VA CLD: VA NOT IDENTIFIABLE FM SATELLITE DATA.\n\nFCST VA CLD +6HR: NOT AVBL\n\nFCST VA CLD +12HR: NOT AVBL\n\nFCST VA CLD +18HR: NOT AVBL\n\nRMK: A NEW ADVISORY WILL BE ISSUED IF VA IS DETECTED IN SATELLITE IMAGERY....CC\n\nNXT ADVISORY: NO FURTHER ADVISORIES=\n\n",
      "issued": "2026-07-07T03:00:00+00:00",
      "volcano": "Sheveluch",
      "psn": "N5639 E16122"
    }
  ]
}