{
  "updated_utc": "2026-07-13T18:28Z",
  "metar": {
    "RJAA": "METAR RJAA 131630Z AUTO 24003KT 9999 NCD 25/23 Q1007 NOSIG",
    "PANC": "METAR PANC 131653Z 17007KT 10SM -RA BKN011 BKN050 OVC075 12/11 A3004 RMK AO2 SLP173 P0002 T01170106",
    "PAFA": "METAR PAFA 131653Z 19004KT 10SM FEW015 FEW050 SCT100 BKN180 13/11 A2994 RMK AO2 SLP143 T01330111 $",
    "PAED": "METAR PAED 131655Z 00000KT 10SM -RA SCT011 OVC050 12/11 A3003 RMK AO2A SLP165 P0002 T01220106 $",
    "KSEA": "METAR KSEA 131653Z 33005KT 10SM FEW250 18/09 A3013 RMK AO2 SLP207 T01780094",
    "ZSPD": "METAR ZSPD 131630Z 18008MPS CAVOK 29/25 Q1003 NOSIG",
    "ZSSS": "METAR ZSSS 131630Z 19006MPS CAVOK 30/25 Q1003 NOSIG",
    "RJFR": "METAR RJFR 131700Z AUTO 30003KT 250V350 9999 NCD 28/24 Q1011",
    "VHHH": "METAR VHHH 131630Z 11007KT 9999 FEW015 30/25 Q1002 TEMPO 3500 SHRA FEW010CB SCT020",
    "RCTP": "METAR RCTP 131630Z 14004KT 110V200 9999 FEW020 BKN050 28/26 Q1007 NOSIG RMK A2976",
    "ZGSZ": "METAR ZGSZ 131700Z 09003MPS 070V130 9999 FEW033 30/25 Q1003 NOSIG",
    "WSSS": "METAR WSSS 131630Z 13006KT 9999 FEW018 BKN300 29/24 Q1011 NOSIG",
    "WMKK": "METAR WMKK 131630Z 13003KT 070V200 9000 FEW030 29/25 Q1009 NOSIG",
    "WIDD": "METAR WIDD 131630Z 14005KT 100V190 9999 FEW014 29/25 Q1011 NOSIG",
    "VTBS": "METAR VTBS 131630Z 22006KT 9999 FEW020 29/23 Q1008 NOSIG",
    "VTBU": "METAR VTBU 131630Z 24006KT 9999 FEW020 29/27 Q1008 NOSIG",
    "ROAH": "METAR ROAH 131630Z AUTO 17011KT 9999 NCD 27/25 Q1012",
    "VVDN": "METAR VVDN 131630Z VRB02KT 9999 FEW017 BKN080 28/26 Q1005 NOSIG",
    "RCKH": "METAR RCKH 131700Z 17014KT 120V200 9000 -RA FEW008 SCT018 BKN070 28/25 Q1007 NOSIG RMK A2976 RA AMT 0.2MM",
    "KLAX": "METAR KLAX 131653Z VRB05KT 9SM FEW019 SCT100 SCT160 BKN250 22/18 A2998 RMK AO2 SLP149 T02220178 $",
    "KONT": "METAR KONT 131653Z 00000KT 10SM BKN130 BKN170 25/17 A2998 RMK AO2 SLP136 VIRGA DSNT E-SE T02500172 $",
    "KSFO": "METAR KSFO 131656Z 33004KT 10SM SCT140 BKN200 21/13 A2994 RMK AO2 SLP139 T02110133 $",
    "KOAK": "METAR KOAK 131653Z 28007KT 10SM SCT140 BKN180 BKN220 20/14 A2995 RMK AO2 SLP140 T02000144",
    "KMHR": "METAR KMHR 131635Z AUTO 30003KT 10SM CLR 28/14 A2991 RMK AO2 T02750137 $",
    "KDFW": "METAR KDFW 131653Z 11006KT 10SM SCT014 BKN020 BKN060 OVC160 27/23 A3013 RMK AO2 RAB1557E27 SLP195 P0002 T02720233 $",
    "KIAH": "SPECI KIAH 131645Z 17012G20KT 2SM -TSRA FEW007 BKN025CB BKN170 BKN250 28/24 A3011 RMK AO2 RAB41 TSB22 TS FRQ LTGICCCCGCA AT AP MOVG E P0000 T02830244",
    "KORD": "METAR KORD 131651Z 28005KT 10SM FEW140 FEW200 FEW250 31/18 A3020 RMK AO2 SLP221 T03110178",
    "KJFK": "METAR KJFK 131651Z 20012KT 10SM FEW060 SCT100 27/17 A3023 RMK AO2 SLP235 T02670172",
    "KRFD": "METAR KRFD 131654Z 29009KT 10SM FEW250 30/19 A3023 RMK AO2 SLP231 T03000189",
    "KIND": "METAR KIND 131654Z 05011KT 10SM CLR 29/13 A3019 RMK AO2 SLP217 T02890133",
    "KDTW": "METAR KDTW 131653Z VRB04KT 10SM BKN250 29/17 A3019 RMK AO2 SLP221 T02940167 $",
    "KMSP": "METAR KMSP 131653Z 26007KT 10SM CLR 31/20 A3017 RMK AO2 SLP211 T03060200",
    "CYEG": "METAR CYEG 131700Z 06005KT 360V120 20SM FEW066 FEW089 FEW250 19/05 A3008 RMK CU1ACC1CI1 CU TR SLP195 DENSITY ALT 3200FT",
    "EHAM": "METAR EHAM 131655Z 07008KT CAVOK 24/15 Q1019 NOSIG",
    "EBBR": "METAR EBBR 131650Z 02009KT CAVOK 29/16 Q1018 NOSIG",
    "EDDF": "METAR EDDF 131650Z AUTO 06009KT 020V080 CAVOK 32/07 Q1015 NOSIG",
    "EDFH": "METAR EDFH 131650Z 10003KT 020V170 CAVOK 28/10 Q1018",
    "EDDL": "METAR EDDL 131650Z AUTO 01009KT CAVOK 31/14 Q1016 NOSIG",
    "EDDK": "METAR EDDK 131650Z AUTO 04007KT 010V070 CAVOK 32/14 Q1016 NOSIG",
    "EBLG": "METAR EBLG 131650Z 01011KT CAVOK 29/15 Q1017 NOSIG",
    "LSZH": "METAR LSZH 131650Z 10004KT CAVOK 30/14 Q1016 NOSIG",
    "LIMC": "METAR LIMC 131650Z 23006KT CAVOK 30/18 Q1016 NOSIG",
    "LIRF": "METAR LIRF 131650Z 26008KT 240V300 CAVOK 29/24 Q1016 NOSIG",
    "EINN": "METAR EINN 131630Z 03014KT CAVOK 25/14 Q1021 NOSIG",
    "EGLL": "METAR EGLL 131650Z AUTO 07015KT 040V100 9999 NCD 27/12 Q1020",
    "EGSS": "METAR EGSS 131650Z AUTO 06014KT 9999 NCD 24/16 Q1022",
    "EPWA": "METAR EPWA 131630Z 32009KT 9999 FEW030 25/20 Q1017 NOSIG",
    "UHPP": "METAR UHPP 131700Z VRB01MPS 2500 1000N R16/1100D BR BKN002 BKN093 11/11 Q1011 R16R/CLRD62 NOSIG RMK QFE755/1007",
    "EFHK": "METAR EFHK 131650Z 34008KT 9999 BKN022 19/15 Q1018 NOSIG",
    "LBBG": "METAR LBBG 131630Z AUTO 17005KT 9999 NCD 22/17 Q1013 NOSIG",
    "LTAC": "METAR LTAC 131650Z 31006KT 9999 FEW040 28/03 Q1011 NOSIG RMK RWY21C 31007KT 280V010 RWY03L 30006KT 270V340 RWY21R 30007KT 260V360 RWY03R 28005KT RWY21L 29007KT",
    "UBBB": "METAR UBBB 131630Z 33010KT CAVOK 26/21 Q1007 NOSIG",
    "UTAA": "METAR UTAA 131700Z 24004KT 9999 FEW100 35/08 Q1006 R88/CLRD70 NOSIG",
    "UACC": "METAR UACC 131630Z 15004MPS CAVOK 28/15 Q1007 NOSIG RMK QFE724/0966",
    "UAAA": "METAR UAAA 131630Z 15003MPS 120V200 9999 SCT050CB OVC100 27/11 Q1009 NOSIG",
    "UZTT": "METAR UZTT 131630Z 06010KT CAVOK 32/11 Q1005 NOSIG",
    "ZWWW": "METAR ZWWW 131630Z VRB01MPS CAVOK 32/06 Q1005 NOSIG",
    "ZLXY": "METAR ZLXY 131700Z VRB01MPS CAVOK 28/23 Q1000 NOSIG",
    "ZBAA": "METAR ZBAA 131630Z 14001MPS CAVOK 26/25 Q1001 NOSIG",
    "ZBHH": "METAR ZBHH 131700Z 05003MPS CAVOK 21/12 Q1008 NOSIG",
    "ZSQD": "METAR ZSQD 131700Z 14007MPS 9999 -RA BKN009 OVC020 26/26 Q0996 BECMG TL1740 RA",
    "ZMCK": "METAR ZMCK 131630Z VRB02MPS 9999 FEW033 12/10 Q1012 NOSIG RMK QFE643.9 90 NT",
    "UUEE": "METAR UUEE 131630Z 15001G06MPS CAVOK 20/15 Q1006 R06R/290151 R06C/290151 NOSIG",
    "UUDD": "METAR UUDD 131630Z 30003MPS CAVOK 20/16 Q1006 R13R/CLRD65 NOSIG",
    "ULLI": "METAR ULLI 131630Z 04004MPS 010V080 9999 SCT043 25/14 Q1013 R88/090065 NOSIG",
    "USSS": "METAR USSS 131630Z 10002MPS 9999 SCT040 18/18 Q1013 R08L/CLRD60 R08R/CLRD60 NOSIG RMK QFE740/0986",
    "UNNT": "METAR UNNT 131630Z 01001MPS 9000 NSC 19/15 Q1005 R07/CLRD// R16/CLRD// NOSIG RMK QFE744/0992",
    "UNKL": "METAR UNKL 131630Z 00000MPS CAVOK 14/12 Q1006 R11/CLRD// NOSIG RMK QFE729",
    "UIBB": "METAR UIBB 131630Z AUTO 27002MPS 9999 // NCD 14/08 Q1008 RMK QFE714/0952",
    "UEEE": "METAR UEEE 131630Z 36004MPS 9999 SCT050CB 20/17 Q0994 R05/09//65 NOSIG RMK QFE737",
    "UHHH": "METAR UHHH 131630Z 20002MPS 160V240 CAVOK 25/23 Q0999 R23L/090060 NOSIG RMK QFE743/0991",
    "UHSS": "METAR UHSS 131700Z 24001MPS 0100 R19/0275N FG VV002 18/17 Q1005 RMK QBB060 MT OBSC QFE752/1003"
  },
  "taf": {
    "RJAA": "TAF RJAA 131705Z 1318/1500 20004KT 9999 FEW030 TEMPO 1319/1321 4000 BR BECMG 1400/1402 03006KT BECMG 1403/1405 14010KT",
    "PANC": "TAF PANC 131733Z 1318/1424 15008G16KT 6SM -RA BR BKN050 OVC080 FM132000 15010G20KT P6SM VCSH BKN050 FM140200 15015G25KT P6SM -SHRA OVC035 FM140900 15015G25KT 6SM -RA BR OVC020",
    "PAFA": "TAF PAFA 131739Z 1318/1424 20005KT P6SM VCSH SCT050 BKN100 FM132100 22006KT P6SM BKN035 OVC050 FM132200 23006KT 6SM -SHRA BR BKN040 OVC050 PROB30 1322/1402 -TSRA BKN040CB FM140600 VRB03KT 6SM -SHRA BR BKN040 OVC050",
    "PAED": "TAF AMD PAED 131715Z 1317/1419 21005KT 9000 -RA SCT006 BKN012 OVC045 620808 QNH2997INS TEMPO 1317/1321 6000 RA BKN006 BKN012 OVC040 BECMG 1320/1321 24006KT 9000 -SHRA FEW015 BKN025 OVC035 620808 QNH3005INS BECMG 1407/1408 15006KT 9000 -RA SCT006 BKN015 OVC020 620808 QNH2990INS TX14/1400Z TN11/1413Z",
    "KSEA": "TAF KSEA 131720Z 1318/1424 35005KT P6SM FEW250 FM132200 31010KT P6SM FEW250 FM140200 36006KT P6SM FEW250 FM140800 01004KT P6SM SKC FM141400 35006KT P6SM SKC",
    "ZSPD": "TAF ZSPD 131503Z 1318/1424 18009G15MPS 8000 BKN020 TX35/1406Z TN28/1321Z TN29/1421Z BECMG 1321/1322 17006MPS",
    "ZSSS": "TAF ZSSS 131503Z 1318/1424 17005MPS 8000 BKN020 TX36/1406Z TN28/1321Z TN29/1421Z",
    "RJFR": "TAF RJFR 131705Z 1318/1500 25004KT 9999 FEW015 SCT045 BECMG 1323/1401 07008KT BECMG 1409/1412 18006KT",
    "VHHH": "TAF VHHH 131700Z 1318/1424 10010KT 9999 FEW015 SCT025 TX31/1406Z TN27/1322Z TN27/1422Z TEMPO 1318/1322 09015G25KT 2000 TSRA SHRA FEW010CB SCT020 TEMPO 1322/1406 12020G30KT 1500 TSRA +SHRA FEW008CB SCT015 TEMPO 1406/1412 18022G32KT 2000 +SHRA FEW010CB SCT020 TEMPO 1412/1421 20015G25KT 3000 SHRA FEW010CB SCT020 TEMPO 1421/1424 20015G25KT 2000 TSRA SHRA FEW008CB SCT020",
    "RCTP": "TAF RCTP 131700Z 1318/1424 17005KT 9999 FEW015 BKN032 TEMPO 1318/1324 11005KT BECMG 1400/1402 36005KT TEMPO 1404/1410 29010KT 5000 SHRA FEW010 FEW015CB BKN020 BECMG 1410/1412 16005KT",
    "ZGSZ": "TAF ZGSZ 131504Z 1318/1424 12004MPS 8000 SCT030 TX30/1406Z TN26/1322Z TN26/1422Z BECMG 1319/1320 03004MPS SHRA SCT010 FEW020CB BKN030 TEMPO 1321/1402 TSRA TEMPO 1404/1409 2800 +TSRA BECMG 1413/1414 NSW BKN040",
    "WSSS": "TAF WSSS 131700Z 1318/1500 16009KT 9999 FEW015 SCT020",
    "WMKK": "TAF WMKK 131700Z 1318/1500 VRB03KT 9999 FEW030",
    "VTBS": "TAF VTBS 131700Z 1318/1424 23008KT 9999 FEW020 TEMPO 1406/1412 VRB15G25KT 4000 TSRA FEW018CB SCT030 BKN100",
    "VTBU": "TAF VTBU 131700Z 1318/1418 25008KT 9999 FEW020",
    "ROAH": "TAF ROAH 131705Z 1318/1500 18010KT 9999 FEW010 SCT015",
    "VVDN": "TAF VVDN 131700Z 1318/1418 22006KT 9999 FEW015 SCT060 BECMG 1404/1405 01010KT PROB40 TEMPO 1409/1413 24015G25KT 4000 TSRA BKN013 FEW015CB BKN050 BECMG 1413/1414 22006KT",
    "RCKH": "TAF RCKH 131700Z 1318/1424 16010G20KT 9999 FEW015 BKN032 TEMPO 1318/1324 13015G25KT 5000 SHRA FEW010 FEW015CB BKN020 TEMPO 1400/1406 6000 -SHRA FEW010 BKN022 BKN040 TEMPO 1406/1412 14015G25KT 4000 SHRA FEW010 FEW015CB BKN017",
    "KLAX": "TAF KLAX 131720Z 1318/1424 26006KT P6SM BKN150 BKN250 FM131900 26012KT P6SM BKN150 BKN250 FM140400 26006KT P6SM BKN250 FM140900 VRB03KT P6SM BKN006 FM141600 26006KT P6SM SCT250 FM141900 26012KT P6SM SCT250",
    "KONT": "TAF KONT 131728Z 1318/1424 VRB04KT P6SM BKN150 FM132200 27012KT P6SM BKN200 FM140500 VRB04KT P6SM SCT200 FM142100 25011KT P6SM SCT200",
    "KSFO": "TAF KSFO 131738Z 1318/1424 29009KT P6SM BKN200 FM132100 30015KT P6SM BKN200 FM140600 29011KT P6SM BKN200 FM141500 30005KT P6SM FEW010 BKN200 FM141900 31012KT P6SM BKN200 FM142100 31015G25KT P6SM BKN150",
    "KOAK": "TAF KOAK 131738Z 1318/1424 30007KT P6SM BKN180 FM132100 30008KT P6SM BKN200 FM141200 29004KT P6SM FEW010 BKN200 FM141800 26007KT P6SM BKN150 FM142100 29012KT P6SM BKN150",
    "KMHR": "TAF KMHR 131726Z 1318/1418 VRB05KT P6SM OVC150 FM132200 23008KT P6SM BKN200 FM140500 VRB05KT P6SM BKN250",
    "KDFW": "TAF KDFW 131725Z 1318/1424 12004KT P6SM VCSH SCT020 BKN060 FM132000 10004KT P6SM VCTS SCT020 BKN060CB TEMPO 1321/1323 06008KT 2SM -TSRA BKN025CB FM140000 09006KT P6SM BKN060 FM140800 12006KT P6SM BKN010 FM141600 14006KT P6SM SCT040",
    "KIAH": "TAF KIAH 131734Z 1318/1424 14015G20KT 6SM -SHRA VCTS BKN011 BKN020CB OVC030 TEMPO 1318/1322 1SM TSRA BKN020CB FM132300 14007KT P6SM -SHRA SCT035 BKN050 TEMPO 1323/1403 4SM TSRA BKN035CB FM140300 VRB03KT P6SM BKN025 FM140900 15004KT P6SM VCTS BKN025CB PROB30 1413/1418 3SM TSRA BKN025CB FM142000 14006KT P6SM OVC050",
    "KORD": "TAF KORD 131724Z 1318/1424 29007KT P6SM FEW250 FM132030 11007KT P6SM FEW050 FM140300 VRB03KT P6SM SKC FM141400 32005KT P6SM SKC FM141900 08006KT P6SM SKC",
    "KJFK": "TAF KJFK 131727Z 1318/1424 19011KT P6SM SCT070 FM132000 18016KT P6SM SCT070 FM140300 22011KT P6SM SKC FM140900 25008KT P6SM FEW250 FM141400 23012KT P6SM FEW250 FM141800 22015G21KT P6SM FEW250",
    "KRFD": "TAF KRFD 131724Z 1318/1418 29008KT P6SM FEW250 FM140300 VRB03KT P6SM SKC FM141600 32005KT P6SM SKC",
    "KIND": "TAF KIND 131720Z 1318/1424 05012KT P6SM SKC FM140000 04007KT P6SM SKC FM140400 04003KT P6SM SKC FM141700 09004KT P6SM FEW050",
    "KDTW": "TAF KDTW 131720Z 1318/1424 24007KT P6SM SCT250 FM140100 23005KT P6SM SCT250 FM141400 26008KT P6SM SCT250",
    "KMSP": "TAF KMSP 131720Z 1318/1424 23010G18KT P6SM SKC FM140100 21008KT P6SM SKC FM141800 24010KT P6SM SKC",
    "CYEG": "TAF CYEG 131740Z 1318/1418 VRB03KT P6SM FEW100 BECMG 1318/1320 12008KT FM140000 12008KT P6SM SCT080 TEMPO 1400/1405 P6SM VCTS SCT060CB FM140500 10006KT P6SM FEW060 RMK NXT FCST BY 132100Z",
    "EHAM": "TAF EHAM 131654Z 1318/1424 04009KT CAVOK BECMG 1405/1408 05013KT",
    "EBBR": "TAF EBBR 131715Z 1318/1424 03010KT CAVOK",
    "EDDF": "TAF EDDF 131700Z 1318/1424 04010KT CAVOK PROB40 TEMPO 1413/1418 31020G35KT 4500 TSRA BKN070CB PROB30 TEMPO 1414/1417 31030G45KT 2000 +TSRAGR",
    "EDFH": "TAF EDFH 131700Z 1318/1418 08007KT CAVOK BECMG 1412/1414 02008KT PROB40 TEMPO 1412/1418 31020G35KT 4000 TSRA BKN060CB PROB30 TEMPO 1413/1416 31030G45KT 2000 +TSRAGR",
    "EDDL": "TAF EDDL 131700Z 1318/1424 03009KT CAVOK BECMG 1323/1402 03004KT BECMG 1407/1410 04011KT BECMG 1419/1422 03006KT",
    "EDDK": "TAF EDDK 131700Z 1318/1424 03007KT CAVOK BECMG 1322/1401 VRB03KT BECMG 1407/1410 04007KT PROB30 TEMPO 1412/1416 03025G40KT 2500 +TSRA BKN040CB BECMG 1416/1419 VRB03KT",
    "EBLG": "TAF EBLG 131715Z 1318/1424 03010KT CAVOK",
    "LSZH": "TAF LSZH 131725Z 1318/1424 11005KT CAVOK TX31/1415Z TN20/1404Z TEMPO 1321/1409 9999 FEW070TCU PROB40 TEMPO 1400/1408 32015G25KT TSRA SCT060CB BECMG 1411/1414 26008KT 9999 FEW070 PROB30 TEMPO 1415/1419 30018G30KT TSRA SCT060CB BECMG 1419/1421 VRB02KT",
    "LIMC": "TAF LIMC 131700Z 1318/1424 VRB05KT 9999 SCT050 BECMG 1414/1416 15010KT BECMG 1418/1420 VRB05KT",
    "LIRF": "TAF LIRF 131700Z 1318/1424 27010KT CAVOK BECMG 1319/1321 VRB05KT PROB40 TEMPO 1400/1405 4000 BCFG BECMG 1409/1411 20010KT BECMG 1417/1419 14006KT",
    "EINN": "TAF EINN 131700Z 1318/1418 04012KT CAVOK PROB30 TEMPO 1318/1322 08010KT BECMG 1322/1324 VRB03KT BECMG 1407/1409 08010KT",
    "EGLL": "TAF EGLL 131657Z 1318/1424 05012KT CAVOK PROB30 TEMPO 1318/1319 07015G25KT PROB30 TEMPO 1320/1323 BKN025 BECMG 1323/1402 BKN020 PROB30 TEMPO 1400/1408 BKN010 BECMG 1409/1412 CAVOK",
    "EGSS": "TAF EGSS 131656Z 1318/1424 05012KT 9999 FEW045 PROB40 TEMPO 1322/1401 BKN010 BECMG 1401/1404 BKN010 PROB30 TEMPO 1402/1407 8000 -DZ BKN008 BECMG 1407/1410 FEW030",
    "EPWA": "TAF EPWA 131730Z 1318/1418 32007KT 9999 SCT030 TEMPO 1321/1406 BKN008 BKN011 PROB40 TEMPO 1400/1406 BKN004 PROB40 TEMPO 1411/1418 -SHRA SCT040CB",
    "UHPP": "TAF UHPP 131635Z 1318/1424 34003G10MPS 9999 SCT050 TEMPO 1318/1321 0500 FG VV002 TEMPO 1401/1410 18006MPS",
    "EFHK": "TAF EFHK 131735Z 1318/1418 35008KT 9999 SCT025 BKN040 PROB30 1404/1407 BKN014",
    "LBBG": "TAF LBBG 131700Z 1318/1418 VRB04KT 9999 SCT045 TEMPO 1318/1320 VRB16G26KT 3000 TSRA SCT030CB BKN040 BECMG 1322/1324 33010KT TEMPO 1409/1415 5000 TSRA SCT033CB BKN040",
    "LTAC": "TAF LTAC 131640Z 1318/1418 VRB02KT CAVOK BECMG 1404/1407 SCT040 TEMPO 1409/1413 30012KT TEMPO 1413/1417 35012KT BECMG 1416/1418 CAVOK",
    "UBBB": "TAF UBBB 131700Z 1318/1418 32008KT CAVOK TX34/1410Z TN23/1401Z TEMPO 1318/1324 35014KT SCT015 BECMG 1404/1406 35012KT TEMPO 1406/1409 01018KT TEMPO 1410/1414 03008KT",
    "UTAA": "TAF UTAA 131645Z 1318/1418 30016KT 6000 SCT050 TX41/1411Z TEMPO 1318/1324 24014KT TEMPO 1322/1408 30016G26KT 3000 BLDU",
    "UACC": "TAF UACC 131705Z 1318/1418 VRB01MPS 9999 SCT030CB BKN100 TX37/1409Z TN18/1324Z TEMPO 1318/1321 16005MPS -TSRA BKN030CB BECMG 1321/1323 SCT030 BKN070 TEMPO 1402/1406 10005MPS BECMG 1406/1408 10006MPS SCT030CB BKN100 TEMPO 1406/1416 VRB16MPS 3100 -TSRA SQ BKN030CB",
    "UAAA": "TAF UAAA 131701Z 1318/1418 16003MPS 9999 SCT050CB BKN100 TX33/1410Z TN21/1401Z TEMPO 1318/1403 22003MPS BECMG 1403/1405 35003MPS TEMPO 1404/1415 05005G10MPS BECMG 1415/1417 17003MPS",
    "UZTT": "TAF UZTT 131700Z 1318/1418 07012KT CAVOK TX39/1411Z TN26/1400Z TEMPO 1318/1324 VRB04KT 4000 FU TEMPO 1406/1418 24015KT",
    "ZWWW": "TAF ZWWW 131505Z 1318/1424 18004MPS CAVOK TX38/1409Z TN27/1323Z TN28/1423Z BECMG 1402/1403 36004MPS BECMG 1414/1415 18004MPS",
    "ZLXY": "TAF ZLXY 131503Z 1318/1418 06004MPS 6000 NSC TX36/1408Z TN25/1322Z TEMPO 1412/1415 TSRA FEW040CB BKN060",
    "ZBAA": "TAF ZBAA 131501Z 1318/1424 04004MPS CAVOK TX35/1407Z TN25/1321Z TN24/1421Z",
    "ZBHH": "TAF ZBHH 131515Z 1318/1418 06004MPS 9999 FEW040 TX29/1408Z TN17/1322Z TEMPO 1407/1411 FEW040 FEW040CB",
    "ZSQD": "TAF ZSQD 131508Z 1318/1418 09005MPS 5000 RA BR BKN009 OVC020 TX32/1406Z TN25/1320Z TEMPO 1318/1320 2500 +RA BR BECMG 1321/1322 30008G14MPS -RA BR BKN020",
    "ZMCK": "TAF ZMCK 131636Z 1318/1424 VRB02MPS 9999 FEW030CB SCT033 TN08/1321Z TX23/1407Z BECMG 1403/1405 29006MPS BECMG 1410/1412 VRB02MPS",
    "UUEE": "TAF UUEE 131652Z 1318/1418 36003MPS 9999 BKN016 TX24/1412Z TN16/1401Z PROB40 TEMPO 1318/1321 -TSRA BKN016CB TEMPO 1321/1405 BKN005 PROB40 TEMPO 1321/1405 0300 FG TEMPO 1410/1416 33010G16MPS PROB40 TEMPO 1410/1416 -TSRA BKN016CB",
    "UUDD": "TAF UUDD 131654Z 1318/1424 34003MPS 8000 BKN020 TX24/1412Z TN15/1401Z TEMPO 1321/1404 0300 FG FEW002 TEMPO 1408/1418 34008G13MPS PROB40 TEMPO 1410/1418 -TSRA BKN016CB",
    "ULLI": "TAF ULLI 131654Z 1318/1418 01005G10MPS 9999 BKN030 TEMPO 1318/1320 3100 -SHRA BKN016CB",
    "USSS": "TAF USSS 131656Z 1318/1418 06003G13MPS 9999 -SHRA BKN020CB TEMPO 1318/1418 -TSRA BECMG 1403/1405 12003G13MPS",
    "UNNT": "TAF UNNT 131700Z 1318/1418 36003G08MPS 8000 SCT040 TX25/1409Z TN13/1323Z TEMPO 1318/1403 -TSRA BKN005 BKN022CB",
    "UNKL": "TAF UNKL 131645Z 1318/1418 21003G08MPS 6000 SCT040 TEMPO 1400/1406 -TSRA BKN016CB BECMG 1402/1404 26006G15MPS TEMPO 1406/1415 -TSRA BKN016CB BECMG 1409/1411 31008G16MPS BECMG 1412/1414 24003G08MPS",
    "UIBB": "TAF UIBB 131700Z 1318/1418 26002MPS 9999 FEW001 SCT050CB TEMPO 1400/1412 VRB07MPS",
    "UEEE": "TAF UEEE 131700Z 1318/1424 11003G10MPS 9999 BKN030CB OVC100 TX29/1406Z TN19/1318Z TEMPO 1318/1406 VRB15MPS 2100 -TSRA SQ SCT010 BKN030CB OVC100",
    "UHHH": "TAF UHHH 131652Z 1318/1424 22003MPS 9999 FEW006 SCT017CB TX31/1406Z TN22/1318Z FM140000 24004MPS 9999 FEW010 SCT020CB TEMPO 1400/1410 26005G10MPS",
    "UHSS": "TAF UHSS 131645Z 1318/1424 21003MPS 0550 FG BKN002 BKN016CB BECMG 1322/1324 1400 BR BKN004 FM140100 22003MPS 9999 SCT030"
  },
  "atis": {},
  "windtemp_alaska": "\n000\nFBAK31 KWNO 131359\nFD1AK1\nDATA BASED ON 131200Z    \nVALID 131800Z   FOR USE 1400-2100Z. TEMPS NEG ABV 24000\n\nFT  3000    6000    9000   12000   18000   24000  30000  34000  39000\nADK 2506 3206+05 3309+00 3208-04 2313-14 2518-25 311941 311651 231549\nADQ 1907 2211+02 2516-01 2721-04 2848-13 2875-23 289238 780347 289156\nAKN 1918 2020-01 2120-01 2424-05 2649-16 2678-25 269439 761447 269254\nANC 1611 1718+01 1917-04 1821-10 2319-21 2739-30 287443 276647 263846\nANN 3306 3010+02 3211-01 3309-06 0312-18 0423-31 053647 052853 361145\nBET 2019 2017-01 2019-04 2222-09 2447-22 2580-28 750341 259147 256045\nBRW 2307 2009+02 1913-03 1814-08 1622-20 1532-31 154147 164651 172146\nBTI 9900 9900+06 2011+00 2016-05 2025-17 2028-29 213944 193753 192555\nBTT 2215 2221+01 2220-04 2024-09 1728-22 1636-33 165746 164748 172344\nCDB 2018 2535+09 2443+05 2449-01 2452-12 2563-22 257637 248246 248756\nCZF 2319 2324+00 2222-06 2320-11 2514-24 2408-34 253541 254242 243542\nEHM 1916 1916+01 2321-01 2325-05 2448-17 2572-26 259140 751647 258653\nFAI 2108 2020+02 2124-04 2025-10 1726-22 1737-33 165947 164247 202445\nFYU 2620 2014+05 1822-01 1731-07 1736-19 1743-30 164945 164753 172750\nGAL 2025 2125-01 2227-05 2126-11 2024-23 1921-34 182147 202044 211841\nGKN 1622 1924+02 1919-04 1920-09 1821-22 1827-33 183145 222345 242445\nHOM 2110 1909+00 2013-04 2414-08 2735-16 2759-27 288741 780449 277651\nJNU 2505 2707+00 3208+01 9900-04 9900-16 9900-29 990046 110755 310751\nLUR 1209 1218+00 1323-05 1425-10 1318-23 1219-35 091848 111645 131341\nMCG 2125 2120-01 2117-04 2017-10 2122-24 2328-34 243844 254144 243042\nMDO 1710 1809+01 1911-04 2011-08 2626-17 2949-27 297342 297249 284749\nOME 2115 1813-02 1813-06 2013-10 1807-21 9900-33 300548 241044 221540\nORT      2510+05 2010-01 1920-07 1634-19 1642-31 164746 164552 212247\nOTZ 1318 1418-02 1516-08 1417-12 1207-23 9900-35 990045 161142 181540\nSNP 0305 9900+01 2313-03 2322-05 2440-16 2358-27 237741 229748 236950\nTKA 1815 1915+00 2017-05 1921-10 2117-22 2221-33 274644 264345 252944\nUNK 2021 2229-01 2329-06 2227-11 2021-24 1714-35 201045 232042 232341\nYAK 9900 2307+00 2511-01 2214-06 1926-17 1930-29 183445 192852 262349\nIKO 2223 2241+10 2241+05 2247+00 2152-12 2274-22 218738 219448 208255\nAFM 1517 1622+00 1625-06 1627-12 1533-23 1438-35 153945 172542 182042\n5AB 0216 3415+04 3219+02 3223-01 3136-13 3143-24 325839 326549 326156\n5AC 1109 0911+02 1011-01 0607-04 0315-19 0427-33 012647 363247 331845\n5AD 2308 2310+04 2712+00 3016-02 3231-12 3249-23 338038 338948 318457\n5AE 2118 2316+06 2423+04 2748+00 2651-10 2748-22 276936 277846 277957\n5AF 9900 2707+03 2607-01 2405-04 9900-16 9900-29 990045 341853 333451\n5AG 1815 2012+03 2015-01 1918-07 2321-16 2827-27 306142 306851 304951\n",
  "vaac_active": [
    {
      "volcano": "MAYON",
      "volcano_jp": "マヨン",
      "advisory_nr": "2026/734",
      "obs_time": "2026-07-13 12:01Z",
      "issued_time": "2026-07-13 16:19Z",
      "text_url": "https://www.data.jma.go.jp/vaac/data/TextData/2026/20260713_27303000_0734_Text.html",
      "lat": 13.25,
      "lon": 123.683,
      "text": "FVFE01 RJTD 131619\nVA ADVISORY\nDTG: 20260713/1619Z\nVAAC: TOKYO\nVOLCANO: MAYON 273030\nPSN: N1315 E12341\nAREA: PHILIPPINES\nSOURCE ELEV: 2462M AMSL\nADVISORY NR: 2026/734\nINFO SOURCE: HIMAWARI-9 PHIVOLCS\nERUPTION DETAILS: ERUPTION AT 20260713/1201Z FL120 EXTD NE REPORTED\nOBS VA DTG: 13/1600Z\nOBS VA CLD: VA NOT IDENTIFIABLE FM SATELLITE DATA WIND FL120 030/2KT\nFCST VA CLD +6 HR: NOT AVBL\nFCST VA CLD +12 HR: NOT AVBL\nFCST VA CLD +18 HR: NOT AVBL\nRMK: WE WILL ISSUE FURTHER ADVISORY IF VA IS DETECTED IN SATELLITE \nIMAGERY.\nNXT ADVISORY: NO FURTHER ADVISORIES="
    }
  ],
  "vaac_tokyo": [
    {
      "id": "20260713_27303000_0734",
      "year": "2026",
      "volcano": "Mayon",
      "psn": "N1315 E12341",
      "issued": "20260713",
      "text": "FVFE01 RJTD 131619\nVA ADVISORY\nDTG: 20260713/1619Z\nVAAC: TOKYO\nVOLCANO: MAYON 273030\nPSN: N1315 E12341\nAREA: PHILIPPINES\nSOURCE ELEV: 2462M AMSL\nADVISORY NR: 2026/734\nINFO SOURCE: HIMAWARI-9 PHIVOLCS\nERUPTION DETAILS: ERUPTION AT 20260713/1201Z FL120 EXTD NE REPORTED\nOBS VA DTG: 13/1600Z\nOBS VA CLD: VA NOT IDENTIFIABLE FM SATELLITE DATA WIND FL120 030/2KT\nFCST VA CLD +6 HR: NOT AVBL\nFCST VA CLD +12 HR: NOT AVBL\nFCST VA CLD +18 HR: NOT AVBL\nRMK: WE WILL ISSUE FURTHER ADVISORY IF VA IS DETECTED IN SATELLITE \nIMAGERY.\nNXT ADVISORY: NO FURTHER ADVISORIES=",
      "img_url": "https://ds.data.jma.go.jp/svd/vaac/data/VAGFN/2026/Images/20260713_27303000_0734_QH21_01.png",
      "sat_img_url": null,
      "text_url": "https://ds.data.jma.go.jp/svd/vaac/data/TextData/2026/20260713_27303000_0734_Text.html"
    },
    {
      "id": "20260713_28208001_0083",
      "year": "2026",
      "volcano": null,
      "psn": "N3136 E13039",
      "issued": "20260713",
      "text": "FVFE01 RJTD 130254\nVA ADVISORY\nDTG: 20260713/0254Z\nVAAC: TOKYO\nVOLCANO: SAKURAJIMA (AIRA CALDERA) 282080\nPSN: N3136 E13039\nAREA: JAPAN\nSOURCE ELEV: 1117M AMSL\nADVISORY NR: 2026/83\nINFO SOURCE: JMA HIMAWARI-9\nERUPTION DETAILS: ERUPTED AT 20260713/0152Z FL100 EXTD N\nOBS VA DTG: 13/0230Z\nOBS VA CLD: SFC/FL100 N3136 E13039 - N3142 E13040 - N3141 E13044 - \nN3134 E13042 MOV NE 15KT\nFCST VA CLD +6 HR: 13/0830Z SFC/FL100 N3234 E13121 - N3145 E13155 - \nN3202 E13110 - N3227 E13051\nFCST VA CLD +12 HR: 13/1430Z SFC/FL100 N3318 E13206 - N3142 E13317 - \nN3134 E13226 - N3312 E13118\nFCST VA CLD +18 HR: NO VA EXP\nRMK: NIL\nNXT ADVISORY: 20260713/0600Z=",
      "img_url": "https://ds.data.jma.go.jp/svd/vaac/data/VAGFN/2026/Images/20260713_28208001_0083_QH21_01.png",
      "sat_img_url": "https://ds.data.jma.go.jp/svd/vaac/data/Sat/2026/Images/28208001/09-ir/20260713_0230_202607130254_ir.png",
      "text_url": "https://ds.data.jma.go.jp/svd/vaac/data/TextData/2026/20260713_28208001_0083_Text.html"
    },
    {
      "id": "20260712_27307000_0012",
      "year": "2026",
      "volcano": "Taal",
      "psn": "N1400 E12100",
      "issued": "20260712",
      "text": "FVFE01 RJTD 121243\nVA ADVISORY\nDTG: 20260712/1243Z\nVAAC: TOKYO\nVOLCANO: TAAL 273070\nPSN: N1400 E12100\nAREA: PHILIPPINES\nSOURCE ELEV: 311M AMSL\nADVISORY NR: 2026/12\nINFO SOURCE: HIMAWARI-9 PHIVOLCS\nERUPTION DETAILS: ERUPTION AT 20260712/1227Z FL050 EXTD NE REPORTED\nOBS VA DTG: 12/1230Z\nOBS VA CLD: VA NOT IDENTIFIABLE FM SATELLITE DATA WIND FL050 230/19KT\nFCST VA CLD +6 HR: NOT AVBL\nFCST VA CLD +12 HR: NOT AVBL\nFCST VA CLD +18 HR: NOT AVBL\nRMK: WE WILL ISSUE FURTHER ADVISORY IF VA IS DETECTED IN SATELLITE \nIMAGERY.\nNXT ADVISORY: NO FURTHER ADVISORIES=",
      "img_url": "https://ds.data.jma.go.jp/svd/vaac/data/VAGFN/2026/Images/20260712_27307000_0012_QH21_01.png",
      "sat_img_url": null,
      "text_url": "https://ds.data.jma.go.jp/svd/vaac/data/TextData/2026/20260712_27307000_0012_Text.html"
    },
    {
      "id": "20260712_30019000_0003",
      "year": "2026",
      "volcano": "Krasheninnikov",
      "psn": "N5436 E16016",
      "issued": "20260712",
      "text": "FVFE01 RJTD 120130\nVA ADVISORY\nDTG: 20260712/0130Z\nVAAC: TOKYO\nVOLCANO: KRASHENINNIKOV 300190\nPSN: N5436 E16016\nAREA: RUSSIA\nSOURCE ELEV: 1816M AMSL\nADVISORY NR: 2026/3\nINFO SOURCE: HIMAWARI-9\nERUPTION DETAILS: VA AT 20260712/0100Z FL080 EXTD SE\nOBS VA DTG: 12/0100Z\nOBS VA CLD: SFC/FL080 N5440 E16023 - N5412 E16045 - N5402 E16033 - \nN5434 E16013 MOV SE 20KT\nFCST VA CLD +6 HR: 12/0700Z SFC/FL080 N5310 E16258 - N5251 E16229 - \nN5302 E16111 - N5436 E16016\nFCST VA CLD +12 HR: 12/1300Z SFC/FL090 N5233 E16425 - N5158 E16444 - \nN5210 E16103 - N5446 E16008 - N5251 E16216\nFCST VA CLD +18 HR: 12/1900Z SFC/FL090 N5142 E16614 - N5044 E16548 - \nN5213 E15943 - N5432 E15924 - N5448 E16118 - N5223 E16227\nRMK: NIL\nNXT ADVISORY: 20260712/0600Z=",
      "img_url": "https://ds.data.jma.go.jp/svd/vaac/data/VAGFN/2026/Images/20260712_30019000_0003_QH21_01.png",
      "sat_img_url": "https://ds.data.jma.go.jp/svd/vaac/data/Sat/2026/Images/30019000/09-ir/20260712_0100_202607120130_ir.png",
      "text_url": "https://ds.data.jma.go.jp/svd/vaac/data/TextData/2026/20260712_30019000_0003_Text.html"
    }
  ],
  "vaac_alaska": [
    {
      "text": "\n000\nFVAK21 PAWU 111230\nVAAAK1\nVA ADVISORY\n\nDTG: 20260711/1224Z\n\nVAAC: ANCHORAGE\n\nVOLCANO: SHEVELUCH 300270\n\nPSN: N5639 E16122\n\nAREA: KAMCHATKA PENINSULA\n\nSOURCE ELEV: 10771 FT AMSL\n\nADVISORY NR: 2026/193\n\nRMK: PLEASE SEE FVXX2 KNES ISSUED BY VAAC WASHINGTON WHICH DESCRIBES\nCONDITIONS NEAR THE VAAC ANCHORAGE AREA OF RESPONSIBILITY...CC\n\n\n\n",
      "issued": "2026-07-11T12:30:00+00:00",
      "volcano": "Sheveluch",
      "psn": "N5639 E16122"
    }
  ]
}