{
  "updated_utc": "2026-07-22T23:28Z",
  "metar": {
    "RJAA": "METAR RJAA 222130Z 03004KT 6000 FEW020 SCT080 29/26 Q1007 NOSIG",
    "PANC": "METAR PANC 222153Z 15014G27KT 10SM OVC035 14/08 A3007 RMK AO2 PK WND 17030/2129 SLP183 T01390083",
    "PAFA": "METAR PAFA 222153Z VRB03KT 10SM FEW070 SCT120 BKN140 17/07 A2990 RMK AO2 SLP130 T01670072",
    "KSEA": "METAR KSEA 222153Z 36009KT 9SM FEW050 SCT250 BKN250 34/13 A2988 RMK A02 SLP121 T03390128",
    "ZSPD": "METAR ZSPD 222130Z 20003MPS CAVOK 28/27 Q1006 NOSIG",
    "ZSSS": "METAR ZSSS 222130Z 18001MPS CAVOK 28/26 Q1005 NOSIG",
    "RJFR": "METAR RJFR 222200Z VRB02KT 9999 FEW010 29/24 Q1009",
    "VHHH": "METAR VHHH 222130Z 20003KT 9999 FEW012 28/24 Q1007 NOSIG",
    "RCTP": "METAR RCTP 222130Z 24005KT 9999 FEW015 SCT030 BKN160 27/25 Q1007 NOSIG RMK A2976",
    "ZGSZ": "METAR ZGSZ 222200Z VRB01MPS 9999 FEW016 28/26 Q1007 NOSIG",
    "WSSS": "METAR WSSS 222130Z 18004KT 9999 FEW016 SCT050 BKN140 27/25 Q1011 NOSIG",
    "WMKK": "METAR WMKK 222130Z 00000KT 6000 FEW010 FEW017CB 25/24 Q1010 NOSIG",
    "WIDD": "METAR WIDD 222130Z AUTO 21003KT 9000 OVC055 26/25 Q1011 NOSIG",
    "VTBS": "METAR VTBS 222130Z 22005KT 9999 FEW020 28/24 Q1007 NOSIG",
    "VTBU": "METAR VTBU 222130Z 25015KT 4000 SHRA VCTS FEW018CB 25/25 Q1009 TEMPO TL2220 3000 TSRA",
    "ROAH": "METAR ROAH 222130Z 09005KT 9999 VCSH FEW020 29/27 Q1009",
    "VVDN": "METAR VVDN 222130Z 00000KT 9999 FEW020 BKN070 30/22 Q1005 NOSIG",
    "RCKH": "METAR RCKH 222200Z 05003KT 9999 FEW014 SCT022 BKN150 28/26 Q1007 NOSIG RMK A2976",
    "KLAX": "METAR KLAX 222153Z 26016KT 10SM FEW009 FEW050 25/17 A2994 RMK AO2 SLP135 T02500172",
    "KONT": "METAR KONT 222153Z 24009G16KT 10SM FEW120 34/17 A2992 RMK AO2 SLP112 T03390172 $",
    "KSFO": "METAR KSFO 222156Z 25015KT 10SM SCT017 22/14 A3007 RMK AO2 PK WND 27026/2136 SLP181 T02220139",
    "KOAK": "METAR KOAK 222153Z 24014KT 10SM FEW017 23/14 A3008 RMK AO2 SLP184 T02280144",
    "KMHR": "METAR KMHR 222135Z AUTO 22012KT 10SM CLR 30/14 A3000 RMK AO2 T02970140 $",
    "KDFW": "METAR KDFW 222153Z 03013G18KT 10SM SCT080 41/22 A2985 RMK AO2 SLP095 TCU DSNT S T04060217",
    "KIAH": "METAR KIAH 222153Z COR 04003KT 10SM FEW070 FEW200 38/23 A2979 RMK AO2 SLP085 T03830233",
    "KORD": "METAR KORD 222151Z 06007G20KT 020V090 10SM SCT050 SCT250 22/05 A3009 RMK AO2 SLP188 T02220050 $",
    "KJFK": "METAR KJFK 222151Z 24013KT 10SM SCT065 SCT095 BKN250 29/18 A2979 RMK AO2 SLP087 T02940183 $",
    "KRFD": "METAR KRFD 222154Z 00000KT 10SM BKN070 24/08 A3011 RMK AO2 SLP192 T02390078 $",
    "KIND": "METAR KIND 222154Z 33010KT 10SM BKN055 BKN250 23/11 A3006 RMK AO2 SLP173 T02330111",
    "KDTW": "METAR KDTW 222153Z 30010KT 10SM BKN070 23/08 A3002 RMK AO2 SLP164 T02280078",
    "KMSP": "METAR KMSP 222153Z 01006KT 10SM BKN070 22/07 A3014 RMK AO2 SLP203 T02170067",
    "CYEG": "METAR CYEG 222200Z 25006KT 220V280 15SM FEW036 FEW260 27/19 A2995 RMK CU1CI2 CU TR SLP139 DENSITY ALT 4300FT",
    "EHAM": "METAR EHAM 222155Z 32007KT 9999 FEW024 BKN042 17/11 Q1022 NOSIG",
    "EBBR": "METAR EBBR 222150Z 31006KT 9999 FEW025 SCT042 15/11 Q1023 NOSIG",
    "EDDF": "METAR EDDF 222150Z AUTO 29003KT 220V350 CAVOK 17/12 Q1020 NOSIG",
    "EDFH": "METAR EDFH 222150Z 31005KT 280V340 9999 FEW024 14/10 Q1022",
    "EDDL": "METAR EDDL 222150Z AUTO 32010KT 9999 FEW024 17/11 Q1022 NOSIG",
    "EDDK": "METAR EDDK 222150Z AUTO 31008KT 280V340 9999 BKN027 16/11 Q1021 NOSIG",
    "EBLG": "METAR EBLG 222150Z 32005KT 9999 FEW034 14/10 Q1023 NOSIG",
    "LSZH": "METAR LSZH 222150Z AUTO VRB01KT CAVOK 17/09 Q1020 NOSIG",
    "LIMC": "METAR LIMC 222150Z VRB02KT CAVOK 21/15 Q1016 NOSIG",
    "LIRF": "METAR LIRF 222150Z 32004KT CAVOK 25/20 Q1013 NOSIG",
    "EINN": "METAR EINN 222130Z 36004KT 9999 FEW035 BKN050 20/15 Q1028 NOSIG",
    "EGLL": "METAR EGLL 222150Z AUTO 09010KT 9999 NCD 20/13 Q1024",
    "EGSS": "METAR EGSS 222150Z AUTO VRB07KT 9999 NCD 16/14 Q1025",
    "EPWA": "METAR EPWA 222130Z 26006KT CAVOK 16/11 Q1013 NOSIG",
    "UHPP": "METAR UHPP 222130Z 22004MPS 9999 FEW013 BKN024 13/09 Q1012 R34L/CLRD62 NOSIG RMK MT OBSC QFE755/1007",
    "EFHK": "METAR EFHK 222150Z 26005KT CAVOK 14/11 Q1006 NOSIG",
    "LBBG": "METAR LBBG 222130Z AUTO 30011KT 9999 OVC026/// 19/14 Q1012 NOSIG",
    "LTAC": "METAR LTAC 222150Z 01005KT 310V060 CAVOK 22/09 Q1013 NOSIG RMK RWY21C 07003KT 360V090 RWY03L 36003KT 320V060 RWY21R VRB03KT RWY03R 01003KT RWY21L 07004KT 350V100",
    "UBBB": "METAR UBBB 222130Z 00000KT CAVOK 25/18 Q1008 NOSIG",
    "UTAA": "METAR UTAA 222200Z 26006KT 9999 FEW050 SCT100 28/11 Q1007 R88/CLRD70 NOSIG",
    "UACC": "METAR UACC 222130Z VRB01MPS 9999 FEW046 17/14 Q1003 NOSIG RMK QFE721/0962",
    "UAAA": "METAR UAAA 222130Z 21003MPS 9999 SCT050CB BKN100 20/15 Q1007 NOSIG",
    "UZTT": "METAR UZTT 222130Z 07006KT 9999 FEW066CB 24/14 Q1005 NOSIG",
    "ZWWW": "METAR ZWWW 222130Z 28004MPS CAVOK 24/16 Q1008 NOSIG",
    "ZLXY": "METAR ZLXY 222200Z 00000MPS CAVOK 22/18 Q1003 NOSIG",
    "ZBAA": "METAR ZBAA 222130Z VRB01MPS 9999 BKN040 23/22 Q1004 NOSIG",
    "ZBHH": "METAR ZBHH 222200Z 07002MPS 9999 FEW040 16/14 Q1007 NOSIG",
    "ZSQD": "METAR ZSQD 222200Z 30002MPS 250V350 4000 BR SCT010 BKN020 25/25 Q1004 NOSIG",
    "ZMCK": "METAR ZMCK 222130Z 09006MPS 9999 SCT100 12/10 Q1009 NOSIG RMK QFE642.2 87 MOP",
    "UUEE": "METAR UUEE 222130Z 19002MPS CAVOK 17/12 Q1006 R24L/CLRD62 R24C/CLRD62 NOSIG",
    "UUDD": "METAR UUDD 222130Z 28002MPS 270V330 9999 -SHRA SCT040CB 15/12 Q1007 R13R/290045 NOSIG",
    "ULLI": "METAR ULLI 222130Z 26004MPS 9999 FEW011 BKN033 13/11 Q1005 R88/090065 NOSIG",
    "USSS": "METAR USSS 222130Z VRB01MPS 8000 NSC 16/16 Q1011 R08R/CLRD60 R08L/CLRD60 NOSIG RMK QFE738/0985",
    "UNNT": "METAR UNNT 222130Z 00000MPS 3900 BR NSC 16/16 Q1000 R07/CLRD// R16/290160 NOSIG RMK QFE740/0987",
    "UNKL": "METAR UNKL 222130Z 26004MPS 9999 SCT014 17/17 Q0999 R29/150060 NOSIG RMK QFE724",
    "UIBB": "METAR UIBB 222130Z 13002MPS 6000 -SHRA SCT033CB 17/16 Q0999 R12/CLRD62 NOSIG RMK QFE707/0943",
    "UEEE": "METAR UEEE 222130Z 00000MPS 9999 SCT040CB 20/18 Q1003 R23/290159 NOSIG RMK QFE743",
    "UHHH": "METAR UHHH 222130Z 02004MPS CAVOK 21/19 Q1008 R88/090060 NOSIG RMK QFE750/1000",
    "UHSS": "METAR UHSS 222130Z 12002MPS 6000 BKN010 16/15 Q1010 R01/290060 NOSIG RMK MT OBSC QFE756/1009"
  },
  "taf": {
    "RJAA": "TAF RJAA 222305Z 2300/2406 10010KT 9999 FEW030 BECMG 2310/2312 04006KT TEMPO 2311/2315 4000 -SHRA BR FEW002 BKN005 TEMPO 2315/2321 0700 FG FEW001 BKN003 TEMPO 2321/2400 4000 BR FEW003 BKN008 BECMG 2400/2403 14012KT",
    "PANC": "TAF PANC 221908Z 2219/2324 15011G20KT P6SM VCSH OVC025 TEMPO 2220/2224 FEW035 OVC060 FM230000 15010G20KT P6SM -RA SCT025 OVC040 FM230300 16015G25KT 5SM -RA SCT015 OVC025 FM230800 16025G40KT 5SM -RA SCT015 OVC030",
    "PAFA": "TAF PAFA 222320Z 2300/2406 VRB04KT P6SM BKN090 FM230600 15006KT P6SM -RA SCT030 OVC050 FM231000 15006KT 5SM -RA BR BKN015 OVC030",
    "PAED": "TAF PAED 222100Z 2221/2403 02009KT 9999 VCSH OVC040 650604 QNH2999INS BECMG 2300/2301 VRB06KT 9000 -RA OVC035 650357 QNH2980INS BECMG 2309/2310 19010G25KT 6000 RA SCT020 BKN030 OVC040 650604 530008 QNH2978INS BECMG 2314/2315 19020G35KT 6000 -RA BKN030 OVC040 620604 530008 QNH2964INS TEMPO 2315/2318 18025G40KT BECMG 2319/2320 20015G28KT 9999 -SHRA BKN030 530008 QNH2967INS BECMG 2322/2323 20010G20KT 9999 NSW SCT030 SCT060 QNH2971INS TX16/2300Z TN12/2312Z",
    "KSEA": "TAF KSEA 222320Z 2300/2406 36009KT P6SM FEW050 SCT150 FM230400 25008KT 6SM -TSRA BKN100CB FM230600 23010KT P6SM VCSH SCT120 BKN250 FM231200 21010G18KT P6SM OVC025 FM231600 21012KT P6SM OVC015 FM232100 24008KT P6SM BKN035 FM240000 24008KT P6SM SCT045",
    "ZSPD": "TAF ZSPD 222125Z 2300/2406 18004MPS 6000 SCT030 TX35/2306Z TX35/2406Z TN28/2321Z TEMPO 2307/2312 23010G15MPS TSRA BKN011 SCT030CB",
    "ZSSS": "TAF ZSSS 222124Z 2300/2406 18004MPS 8000 SCT030 TX36/2306Z TX36/2406Z TN28/2321Z TEMPO 2307/2312 27009G15MPS +TSRA BKN013 SCT030CB",
    "RJFR": "TAF RJFR 221705Z 2218/2400 28004KT 9999 FEW050 BECMG 2303/2305 34012KT BECMG 2315/2318 27006KT",
    "VHHH": "TAF VHHH 222300Z 2300/2406 18010KT 9999 FEW015 TX34/2306Z TX34/2406Z TN28/2322Z TEMPO 2300/2303 VRB05KT BECMG 2303/2305 24010KT BECMG 2310/2312 16010KT TEMPO 2315/2324 VRB05KT BECMG 2402/2404 24010KT",
    "RCTP": "TAF RCTP 222300Z 2300/2406 25005KT 9999 FEW015 BKN032 TEMPO 2302/2308 28010KT TEMPO 2306/2310 5000 SHRA FEW010 FEW015CB BKN020 BECMG 2308/2310 15005KT TEMPO 2310/2316 08008KT TEMPO 2400/2404 03005KT BECMG 2404/2406 09015KT",
    "ZGSZ": "TAF ZGSZ 222101Z 2300/2406 18004MPS 8000 SCT040 TX33/2306Z TX33/2406Z TN28/2322Z",
    "WSSS": "TAF WSSS 221700Z 2218/2400 18008KT 9999 FEW015 SCT020",
    "WMKK": "TAF WMKK 221700Z 2218/2400 VRB02KT 9000 FEW030 PROB30 TEMPO 2220/2300 5000 TSRA FEW010 FEW017CB",
    "VTBS": "TAF VTBS 221700Z 2218/2324 21008KT 9999 FEW020 TEMPO 2308/2312 VRB15KT 4000 TSRA FEW018CB SCT030 BKN100",
    "VTBU": "TAF VTBU 221700Z 2218/2318 22006KT 9000 FEW020",
    "ROAH": "TAF ROAH 222305Z 2300/2406 13008KT 9999 FEW012 BKN020 TEMPO 2305/2309 4000 SHRA BR FEW008 BKN015 FEW020CB",
    "VVDN": "TAF VVDN 221700Z 2218/2318 24006KT 9999 FEW020 BECMG 2304/2305 02010KT TEMPO 2308/2313 23015G25KT 3500 TSRA BKN013 FEW015CB BKN060 BECMG 2313/2314 23005KT",
    "RCKH": "TAF RCKH 222300Z 2300/2406 28005KT 9999 FEW015 TEMPO 2304/2310 31010KT TEMPO 2306/2310 5000 SHRA FEW010 FEW015TCU BKN022 BECMG 2310/2312 33005KT BECMG 2322/2324 36010KT FEW015 BKN032",
    "KLAX": "TAF KLAX 222106Z 2221/2324 26015KT P6SM SKC FM222300 26015G22KT P6SM SKC FM230300 26010KT P6SM FEW250 FM230700 VRB03KT P6SM SCT250 FM231800 26006KT P6SM FEW250 FM232000 26012KT P6SM FEW250",
    "KONT": "TAF KONT 221720Z 2218/2324 VRB05KT P6SM SKC FM222100 25011G19KT P6SM FEW200 FM230600 VRB05KT P6SM SKC FM231800 25008KT P6SM SKC",
    "KSFO": "TAF KSFO 222320Z 2300/2406 29015KT P6SM SCT015 TEMPO 2300/2303 26015G25KT FM230900 27010KT P6SM OVC015 FM232100 28015KT P6SM SKC FM240000 27020KT P6SM SKC",
    "KOAK": "TAF KOAK 222320Z 2300/2406 26015KT P6SM FEW020 FM230600 28008KT P6SM OVC015 FM231200 26006KT P6SM OVC007 FM231800 26011KT P6SM SKC",
    "KMHR": "TAF KMHR 222320Z 2300/2324 22010KT P6SM SKC FM230600 16008KT P6SM SKC FM231200 VRB05KT P6SM FEW250 TEMPO 2313/2316 6SM BR SCT030 FM232200 24008KT P6SM SKC",
    "KDFW": "TAF KDFW 222320Z 2300/2406 07010KT P6SM FEW080",
    "KIAH": "TAF KIAH 222323Z 2300/2406 36006KT P6SM FEW050 SCT070 BKN100 TEMPO 2300/2302 VRB15G25KT 4SM TSRA BKN050CB BKN100 FM230200 VRB03KT P6SM FEW040 FEW070 SCT250 FM231400 04010G20KT P6SM FEW040 SCT060 SCT250 FM231800 05018G28KT P6SM VCSH SCT030 SCT050 BKN100 PROB30 2320/2402 VRB20G30KT 4SM TSRA SCT025 BKN050CB OVC100 FM240200 10014G24KT 6SM -SHRA BR BKN025 BKN050 OVC100",
    "KORD": "TAF KORD 222320Z 2300/2406 05011KT P6SM SKC FM230200 VRB04KT P6SM FEW060 FM231800 03007KT P6SM SCT060 SCT250",
    "KJFK": "TAF KJFK 222320Z 2300/2406 29012KT P6SM SCT070 TEMPO 2300/2301 30013G24KT FM230300 33009KT P6SM SCT090 FM230600 36008KT P6SM SCT090 FM231900 14009KT P6SM FEW060 FM240100 16004KT P6SM SKC",
    "KRFD": "TAF KRFD 222320Z 2300/2324 VRB04KT P6SM SCT060 FM231600 25007KT P6SM SCT060 SCT250",
    "KIND": "TAF KIND 222320Z 2300/2406 01005KT P6SM FEW050 SCT200 FM231500 06006KT P6SM SCT050 SCT200",
    "KDTW": "TAF KDTW 222323Z 2300/2406 30010KT P6SM BKN080 FM230400 30005KT P6SM SKC FM231600 30008KT P6SM SCT050 FM232300 24005KT P6SM SCT080",
    "KMSP": "TAF KMSP 222322Z 2300/2406 34006KT P6SM BKN070 FM230200 14005KT P6SM FEW070 FM230600 20004KT P6SM SKC FM231700 22007KT P6SM FEW250",
    "CYEG": "TAF CYEG 222040Z 2221/2318 21005KT P6SM FEW040 FM230300 16005KT P6SM SKC PROB30 2310/2314 1SM BR FM231400 20006KT P6SM SKC RMK NXT FCST BY 230000Z",
    "EHAM": "TAF EHAM 222313Z 2300/2406 32007KT 9999 SCT022 BKN040 BECMG 2309/2312 33013KT BECMG 2317/2320 VRB02KT",
    "EBBR": "TAF EBBR 222303Z 2300/2406 29004KT 9999 SCT020 SCT040 PROB30 TEMPO 2302/2307 4500 -SHRA BKN014",
    "EDDF": "TAF EDDF 222300Z 2300/2406 30006KT CAVOK PROB40 TEMPO 2307/2311 BKN030 BECMG 2308/2311 32011KT BECMG 2319/2321 03005KT",
    "EDFH": "TAF EDFH 222300Z 2300/2324 32005KT 9999 SCT040 BECMG 2307/2310 33010KT BECMG 2318/2320 02004KT",
    "EDDL": "TAF EDDL 222300Z 2300/2406 30007KT 9999 SCT025 BKN040 PROB30 TEMPO 2304/2308 BKN010 TEMPO 2310/2317 32012KT BECMG 2318/2320 36004KT",
    "EDDK": "TAF EDDK 222300Z 2300/2406 32005KT 9999 SCT020 BKN030 PROB30 TEMPO 2303/2307 BKN010 BECMG 2308/2311 32010KT BECMG 2318/2320 01003KT",
    "EBLG": "TAF EBLG 222303Z 2300/2406 30004KT 9999 FEW020 SCT035 PROB30 TEMPO 2304/2309 4500 -SHRA BKN012",
    "LSZH": "TAF LSZH 222025Z 2221/2403 34004KT CAVOK TX27/2315Z TN12/2304Z PROB40 TEMPO 2305/2309 03005KT TEMPO 2308/2316 9999 FEW050 PROB40 TEMPO 2315/2318 32008KT PROB30 TEMPO 2318/2320 03006KT",
    "LIMC": "TAF LIMC 222300Z 2300/2406 VRB05KT CAVOK BECMG 2319/2321 02010KT",
    "LIRF": "TAF LIRF 222300Z 2300/2406 05006KT 9999 FEW030 BECMG 2310/2312 25012KT BECMG 2319/2321 33010KT BECMG 2401/2403 03010KT",
    "EINN": "TAF EINN 222300Z 2300/2324 36008KT 9999 SCT050 PROB30 2303/2307 0500 FG BKN001 PROB30 TEMPO 2307/2308 3000 BR BKN004",
    "EGLL": "TAF EGLL 222259Z 2300/2406 15004KT 9999 FEW045 BECMG 2303/2306 23010KT",
    "EGSS": "TAF EGSS 222259Z 2300/2406 VRB04KT 9999 FEW045 PROB40 2302/2307 6000 PROB40 2401/2406 6000",
    "EPWA": "TAF EPWA 222030Z 2221/2321 26010KT 9999 FEW045 PROB40 TEMPO 2221/2302 SCT045CB TEMPO 2308/2320 SHRA BKN030CB PROB40 2310/2318 27020G30KT 3000 TSRA BKN020 BECMG 2316/2318 33005KT",
    "UHPP": "TAF UHPP 222242Z 2300/2406 32003G12MPS 9999 BKN030CB TEMPO 2300/2309 18005G12MPS",
    "EFHK": "TAF EFHK 222033Z 2221/2321 27005KT CAVOK PROB30 TEMPO 2300/2307 BKN007 FEW020CB TEMPO 2307/2310 SCT020CB TEMPO 2310/2319 SHRA SCT030CB PROB40 TEMPO 2314/2319 2500 TSRA",
    "LBBG": "TAF LBBG 222300Z 2300/2324 27010KT 9999 SCT010 SCT015 BECMG 2304/2306 34014KT BECMG 2318/2320 VRB04KT",
    "LTAC": "TAF LTAC 222240Z 2300/2324 VRB02KT CAVOK BECMG 2300/2303 SCT040 SCT100 BECMG 2304/2307 25012KT PROB30 TEMPO 2307/2311 30015G25KT -SHRA FEW025CB BKN030 TEMPO 2311/2315 33015G25KT TEMPO 2315/2318 35015G25KT BECMG 2316/2318 CAVOK",
    "UBBB": "TAF UBBB 222300Z 2300/2324 16005KT CAVOK TX33/2310Z TN22/2301Z TEMPO 2300/2306 VRB04KT SCT040 BECMG 2307/2309 15008KT TEMPO 2309/2318 18012KT",
    "UTAA": "TAF UTAA 222245Z 2300/2324 35016KT 6000 SCT050CB SCT050 TEMPO 2300/2308 29014G24KT 4000 DRDU TEMPO 2308/2314 03016KT",
    "UACC": "TAF UACC 222305Z 2300/2324 35003MPS 9999 SCT040 BKN100 TX25/2309Z TN15/2301Z TEMPO 2300/2304 02005MPS -TSRA SCT011 BKN030CB BECMG 2304/2306 02005MPS SCT030CB BKN050 TEMPO 2304/2316 VRB15MPS 3100 -TSRA SQ BKN020CB BECMG 2316/2318 SCT040 BKN100 TEMPO 2316/2324 VRB01MPS SCT030CB",
    "UAAA": "TAF UAAA 222300Z 2300/2324 26005MPS 9999 SCT050CB BKN100 TX31/2309Z TN19/2300Z TEMPO 2300/2305 32006G12MPS 5000 -TSRA BLDU BECMG 2305/2306 34005MPS TEMPO 2305/2316 04007G15MPS 4000 -TSRA BLDU BECMG 2316/2317 20003MPS BKN050CB OVC100",
    "UZTT": "TAF UZTT 222300Z 2300/2324 06010KT 7000 FEW060CB SCT100 TEMPO 2303/2312 28014G24KT SCT060CB PROB40 TEMPO 2303/2312 -TSRA BKN050CB",
    "ZWWW": "TAF ZWWW 222106Z 2300/2406 33004G11MPS 8000 BKN040 TX31/2309Z TX30/2406Z TN23/2323Z BECMG 2306/2307 FEW040CB BKN040 BECMG 2313/2314 16004MPS CAVOK BECMG 2402/2403 36004MPS",
    "ZLXY": "TAF ZLXY 222117Z 2300/2324 06004MPS 6000 NSC TX36/2308Z TN23/2322Z",
    "ZBAA": "TAF ZBAA 222106Z 2300/2406 14003MPS 5000 BR NSC TX29/2306Z TX30/2406Z TN21/2321Z TEMPO 2311/2315 -TSRA FEW040CB BKN040",
    "ZBHH": "TAF ZBHH 222101Z 2300/2324 24004MPS 9999 SCT040 TX29/2308Z TN16/2322Z TEMPO 2308/2311 VRB09G14MPS -TSRA SCT040 FEW040CB",
    "ZSQD": "TAF ZSQD 222109Z 2300/2324 18004MPS 6000 NSC TX31/2306Z TN24/2322Z TEMPO 2318/2322 SHRA BKN010",
    "ZMCK": "TAF COR ZMCK 222240Z 2300/2406 VRB02MPS 9999 FEW030CB SCT033 TX30/2307Z TN17/2321Z BECMG 2314/2316 09005MPS PROB40 TEMPO 2316/2406 VRB08G13MPS TSRA SCT027CB SCT030",
    "UUEE": "TAF UUEE 222256Z 2300/2324 21003MPS 9999 SCT016 TX22/2312Z TN14/2301Z TEMPO 2300/2308 -TSRA BKN010 BKN016CB BECMG 2303/2306 27005MPS PROB40 TEMPO 2308/2312 -TSRA BKN020CB BECMG 2318/2321 33003MPS",
    "UUDD": "TAF UUDD 222257Z 2300/2406 21003MPS 6000 FEW008 BKN016 TX22/2312Z TN12/2401Z PROB40 TEMPO 2300/2312 -TSRA BKN012CB BECMG 2304/2306 27006MPS BECMG 2316/2318 34003MPS",
    "ULLI": "TAF ULLI 222254Z 2300/2324 26003MPS 6000 SCT006 BKN016 TEMPO 2300/2304 0300 FG BKN003 TEMPO 2304/2306 BKN010 BECMG 2306/2308 30005G10MPS BKN016 BECMG 2320/2322 24003MPS",
    "USSS": "TAF USSS 222243Z 2300/2324 30003MPS 6000 SCT016 TEMPO 2300/2303 0300 FG VV002 FM230300 07003G10MPS 9999 SCT040 TEMPO 2305/2318 -TSRAGR BKN033CB FM231800 28003MPS 6000 SCT016",
    "UNNT": "TAF UNNT 222300Z 2300/2324 31003G08MPS 8000 BKN030 TX25/2309Z TN16/2322Z TEMPO 2300/2302 0150 FG BKN001 BKN020CB TEMPO 2302/2315 -TSRA BKN020CB",
    "UNKL": "TAF UNKL 222249Z 2300/2324 26003G08MPS 9999 SCT016CB TEMPO 2300/2303 BKN010 BKN016CB BECMG 2303/2305 27008G14MPS -TSRA BECMG 2306/2309 27003G08MPS NSW TEMPO 2309/2314 -TSRA",
    "UIBB": "TAF UIBB 222300Z 2300/2324 26003G08MPS 9999 -SHRA BKN009CB TEMPO 2300/2312 VRB10MPS 1900 TSRA BKN004 BKN013CB BECMG 2312/2315 BKN016CB",
    "UEEE": "TAF UEEE 222300Z 2300/2406 22003G08MPS 9999 SCT025CB OVC100 TX30/2306Z TN19/2318Z TEMPO 2300/2315 VRB14MPS 2100 -TSRA SCT007 BKN020CB OVC100",
    "UHHH": "TAF UHHH 222252Z 2300/2406 05003MPS 9999 SCT020CB TX30/2305Z TN19/2318Z TEMPO 2306/2315 -TSRA",
    "UHSS": "TAF UHSS 222250Z 2300/2406 11003MPS 9999 BKN020 TEMPO 2300/2309 BKN004 BECMG 2309/2312 36003MPS"
  },
  "atis": {},
  "windtemp_alaska": "\n000\nFBAK31 KWNO 221959\nFD1AK1\nDATA BASED ON 221800Z    \nVALID 230000Z   FOR USE 2000-0300Z. TEMPS NEG ABV 24000\n\nFT  3000    6000    9000   12000   18000   24000  30000  34000  39000\nADK 2441 2343+13 2344+09 2443+05 2448-06 2452-16 245832 245742 235654\nADQ 2434 2443+10 2437+05 2434+01 2534-09 2832-19 305733 306744 307756\nAKN 2338 2339+08 2344+04 2444+02 2638-07 2754-17 277332 288043 288055\nANC 1912 2020+01 2320-01 2634-03 2753-10 2756-20 277036 287746 297650\nANN 3423 3217+12 3018+08 3015+03 2920-11 2923-24 322442 333252 282150\nBET 2137 2346+09 2351+06 2352+01 2463-09 2570-20 259134 751343 750450\nBRW 2718 2609+07 1405+01 1115-05 1021-17 1119-28 112545 123047 141643\nBTI 2608 1809+07 1813-01 1718-06 1530-17 1533-27 164045 143348 172342\nBTT 2012 2113+01 2117-04 2016-09 2109-20 2410-32 273740 263139 252540\nCDB 2451 2558+11 2757+08 2756+05 2746-06 2742-16 263831 263842 264255\nCZF 2026 2029+05 2136+01 2247-03 2271-12 2390-21 740335 239543 247840\nEHM 2339 2445+11 2444+08 2444+03 2554-08 2571-17 259032 259642 259553\nFAI 1908 2018+01 2017-04 2217-09 2534-18 2756-26 278939 278044 274543\nFYU 2519 2722+02 2617-03 2418-09 2220-22 2320-34 242838 242838 242340\nGAL 1822 1820+00 1920-03 2021-06 2333-15 2456-25 258339 258244 255543\nGKN 1620 1917+03 2114-02 2422-05 2637-13 2744-21 287637 287747 286351\nHOM 1822 2225+06 2436+04 2540-01 2539-09 2740-20 285634 296945 298654\nJNU 2508 2817+07 2927+05 3027-01 2929-14 2836-24 303538 303950 323851\nLUR 9900 9900+01 1708-04 1509-09 1115-19 0916-31 092045 111242 160840\nMCG 1834 2024+03 2334+00 2437-04 2552-11 2562-22 268036 268746 277947\nMDO 2412 2518+06 2626+02 2629-02 2939-09 2941-19 294736 284746 295153\nOME 1219 1216-01 1216-04 1316-08 1923-17 2023-30 235737 235639 234340\nORT      2520+04 2520-01 2524-05 2639-14 2645-24 288138 297948 274648\nOTZ 1218 1316+00 1317-05 1317-08 1515-19 1912-30 212343 232840 232439\nSNP 2644 2554+10 2561+06 2568+02 2577-08 2490-19 740631 741542 741051\nTKA 1929 1927+00 2125-03 2328-05 2642-12 2767-21 278036 277947 287649\nUNK 1531 1623+01 1923-02 1926-05 2243-15 2366-24 248937 248643 256343\nYAK 1808 2514+04 2728+02 2731-03 2828-12 3035-20 314237 316248 315855\nIKO 2541 2441+13 2440+09 2439+05 2537-06 2541-16 253931 254242 253454\nAFM 1413 1513+01 1417-05 1417-08 1611-19 2212-31 253542 242940 232240\n5AB 2110 2324+12 2328+08 2333+03 2439-08 2450-17 246232 247442 237454\n5AC 3636 3525+11 3519+07 3413+04 3214-11 3011-25 300642 281049 251852\n5AD 2722 2719+08 2618+05 2620+01 2721-11 3019-22 362736 362947 363457\n5AE 2438 2434+11 2438+06 2636+01 2824-08 3126-17 324732 325342 325457\n5AF 3126 3127+08 3025+05 2921+00 2727-12 2830-23 313338 333649 344756\n5AG 2727 2631+07 2632+04 2633-01 2734-12 3141-19 313835 314146 314357\n",
  "vaac_active": [
    {
      "volcano": "SHEVELUCH",
      "volcano_jp": "シベルチ",
      "advisory_nr": "2026/278",
      "obs_time": "2026-07-22 21:28Z",
      "issued_time": "2026-07-22 22:20Z",
      "text_url": "https://www.data.jma.go.jp/vaac/data/TextData/2026/20260722_30027000_0278_Text.html",
      "lat": 56.65,
      "lon": 161.367,
      "text": "FVFE01 RJTD 222220\nVA ADVISORY\nDTG: 20260722/2220Z\nVAAC: TOKYO\nVOLCANO: SHEVELUCH 300270\nPSN: N5639 E16122\nAREA: RUSSIA\nSOURCE ELEV: 3283M AMSL\nADVISORY NR: 2026/278\nINFO SOURCE: KBGS UHPP HIMAWARI-9\nERUPTION DETAILS: VA AT 20260722/2128Z FL240 EXTD SW MOV 5KT REPORTED\nOBS VA DTG: 22/2150Z\nOBS VA CLD: SFC/FL200 N5642 E16116 - N5647 E16136 - N5640 E16137 - \nN5636 E16117 MOV E 20KT\nFCST VA CLD +6 HR: 23/0350Z SFC/FL190 N5541 E16303 - N5524 E16305 - \nN5512 E15949 - N5541 E15949\nFCST VA CLD +12 HR: 23/0950Z SFC/FL190 N5442 E16219 - N5349 E15918 - \nN5351 E15636 - N5431 E15706 - N5421 E15858\nFCST VA CLD +18 HR: NO VA EXP\nRMK: NIL\nNXT ADVISORY: 20260723/0000Z="
    },
    {
      "volcano": "SHEVELUCH",
      "volcano_jp": "シベルチ",
      "advisory_nr": "2026/277",
      "obs_time": "2026-07-22 21:28Z",
      "issued_time": "2026-07-22 21:52Z",
      "text_url": "https://www.data.jma.go.jp/vaac/data/TextData/2026/20260722_30027000_0277_Text.html",
      "lat": 56.65,
      "lon": 161.367,
      "text": "FVFE01 RJTD 222152\nVA ADVISORY\nDTG: 20260722/2152Z\nVAAC: TOKYO\nVOLCANO: SHEVELUCH 300270\nPSN: N5639 E16122\nAREA: RUSSIA\nSOURCE ELEV: 3283M AMSL\nADVISORY NR: 2026/277\nINFO SOURCE: KBGS UHPP HIMAWARI-9\nERUPTION DETAILS: VA AT 20260722/2128Z FL240 EXTD SW MOV 5KT REPORTED\nOBS VA DTG: 22/2130Z\nOBS VA CLD: VA NOT IDENTIFIABLE FM SATELLITE DATA WIND FL240 310/22KT\nFCST VA CLD +6 HR: NOT AVBL\nFCST VA CLD +12 HR: NOT AVBL\nFCST VA CLD +18 HR: NOT AVBL\nRMK: WE WILL ISSUE FURTHER ADVISORY IF VA IS DETECTED IN SATELLITE \nIMAGERY.\nNXT ADVISORY: NO FURTHER ADVISORIES="
    }
  ],
  "vaac_tokyo": [
    {
      "id": "20260722_30027000_0278",
      "year": "2026",
      "volcano": "Sheveluch",
      "psn": "N5639 E16122",
      "issued": "20260722",
      "text": "FVFE01 RJTD 222220\nVA ADVISORY\nDTG: 20260722/2220Z\nVAAC: TOKYO\nVOLCANO: SHEVELUCH 300270\nPSN: N5639 E16122\nAREA: RUSSIA\nSOURCE ELEV: 3283M AMSL\nADVISORY NR: 2026/278\nINFO SOURCE: KBGS UHPP HIMAWARI-9\nERUPTION DETAILS: VA AT 20260722/2128Z FL240 EXTD SW MOV 5KT REPORTED\nOBS VA DTG: 22/2150Z\nOBS VA CLD: SFC/FL200 N5642 E16116 - N5647 E16136 - N5640 E16137 - \nN5636 E16117 MOV E 20KT\nFCST VA CLD +6 HR: 23/0350Z SFC/FL190 N5541 E16303 - N5524 E16305 - \nN5512 E15949 - N5541 E15949\nFCST VA CLD +12 HR: 23/0950Z SFC/FL190 N5442 E16219 - N5349 E15918 - \nN5351 E15636 - N5431 E15706 - N5421 E15858\nFCST VA CLD +18 HR: NO VA EXP\nRMK: NIL\nNXT ADVISORY: 20260723/0000Z=",
      "img_url": "https://ds.data.jma.go.jp/svd/vaac/data/VAGFN/2026/Images/20260722_30027000_0278_QH21_01.png",
      "sat_img_url": "https://ds.data.jma.go.jp/svd/vaac/data/Sat/2026/Images/30027000/09-ir/20260722_2150_202607222220_ir.png",
      "text_url": "https://ds.data.jma.go.jp/svd/vaac/data/TextData/2026/20260722_30027000_0278_Text.html"
    },
    {
      "id": "20260722_28505000_0001",
      "year": "2026",
      "volcano": "Tokachidake",
      "psn": "N4325 E14241",
      "issued": "20260722",
      "text": "FVFE01 RJTD 220219\nVA ADVISORY\nDTG: 20260722/0219Z\nVAAC: TOKYO\nVOLCANO: TOKACHIDAKE 285050\nPSN: N4325 E14241\nAREA: JAPAN\nSOURCE ELEV: 2077M AMSL\nADVISORY NR: 2026/1\nINFO SOURCE: JMA HIMAWARI-9\nERUPTION DETAILS: ERUPTED AT 20260722/0207Z FL070 STNR\nOBS VA DTG: 22/0200Z\nOBS VA CLD: VA NOT IDENTIFIABLE FM SATELLITE DATA WIND FL070 290/9KT\nFCST VA CLD +6 HR: NOT AVBL\nFCST VA CLD +12 HR: NOT AVBL\nFCST VA CLD +18 HR: NOT AVBL\nRMK: WE WILL ISSUE FURTHER ADVISORY IF VA IS DETECTED IN SATELLITE \nIMAGERY.\nNXT ADVISORY: NO FURTHER ADVISORIES=",
      "img_url": "https://ds.data.jma.go.jp/svd/vaac/data/VAGFN/2026/Images/20260722_28505000_0001_QH21_01.png",
      "sat_img_url": null,
      "text_url": "https://ds.data.jma.go.jp/svd/vaac/data/TextData/2026/20260722_28505000_0001_Text.html"
    },
    {
      "id": "20260721_27307000_0019",
      "year": "2026",
      "volcano": "Taal",
      "psn": "N1400 E12100",
      "issued": "20260721",
      "text": "FVFE01 RJTD 211319\nVA ADVISORY\nDTG: 20260721/1319Z\nVAAC: TOKYO\nVOLCANO: TAAL 273070\nPSN: N1400 E12100\nAREA: PHILIPPINES\nSOURCE ELEV: 311M AMSL\nADVISORY NR: 2026/19\nINFO SOURCE: HIMAWARI-9 PHIVOLCS\nERUPTION DETAILS: ERUPTION AT 20260721/1209Z FL110 REPORTED\nOBS VA DTG: 21/1250Z\nOBS VA CLD: SFC/FL110 N1404 E12056 - N1359 E12050 - N1354 E12057 - \nN1358 E12100 MOV W 15KT\nFCST VA CLD +6 HR: 21/1850Z SFC/FL130 N1329 E12051 - N1306 E12036 - \nN1322 E11953 - N1339 E12003\nFCST VA CLD +12 HR: 22/0050Z SFC/FL140 N1259 E12029 - N1227 E12001 - \nN1251 E11858 - N1320 E11911\nFCST VA CLD +18 HR: NO VA EXP\nRMK: NIL\nNXT ADVISORY: 20260721/1800Z=",
      "img_url": "https://ds.data.jma.go.jp/svd/vaac/data/VAGFN/2026/Images/20260721_27307000_0019_QH21_01.png",
      "sat_img_url": "https://ds.data.jma.go.jp/svd/vaac/data/Sat/2026/Images/27307000/09-ir/20260721_1250_202607211319_ir.png",
      "text_url": "https://ds.data.jma.go.jp/svd/vaac/data/TextData/2026/20260721_27307000_0019_Text.html"
    },
    {
      "id": "20260721_28208001_0086",
      "year": "2026",
      "volcano": null,
      "psn": "N3136 E13039",
      "issued": "20260721",
      "text": "FVFE01 RJTD 210627\nVA ADVISORY\nDTG: 20260721/0627Z\nVAAC: TOKYO\nVOLCANO: SAKURAJIMA (AIRA CALDERA) 282080\nPSN: N3136 E13039\nAREA: JAPAN\nSOURCE ELEV: 1117M AMSL\nADVISORY NR: 2026/86\nINFO SOURCE: JMA HIMAWARI-9\nERUPTION DETAILS: ERUPTED AT 20260721/0514Z FL140 STNR\nOBS VA DTG: 21/0610Z\nOBS VA CLD: SFC/FL140 N3140 E13037 - N3139 E13043 - N3131 E13043 - \nN3131 E13036 MOV S 5KT\nFCST VA CLD +6 HR: 21/1210Z SFC/FL140 N3207 E13054 - N3118 E13054 - \nN3119 E13021 - N3159 E13012\nFCST VA CLD +12 HR: 21/1810Z SFC/FL140 N3224 E13103 - N3138 E13035 - \nN3138 E12953 - N3315 E13009\nFCST VA CLD +18 HR: NO VA EXP\nRMK: NIL\nNXT ADVISORY: 20260721/1200Z=",
      "img_url": "https://ds.data.jma.go.jp/svd/vaac/data/VAGFN/2026/Images/20260721_28208001_0086_QH21_01.png",
      "sat_img_url": "https://ds.data.jma.go.jp/svd/vaac/data/Sat/2026/Images/28208001/09-ir/20260721_0610_202607210627_ir.png",
      "text_url": "https://ds.data.jma.go.jp/svd/vaac/data/TextData/2026/20260721_28208001_0086_Text.html"
    }
  ],
  "vaac_alaska": [
    {
      "text": "\n000\nFVAK21 PAWU 222214\nVAAAK1\nVA ADVISORY\n\nDTG: 20260722/2215Z\n\nVAAC: ANCHORAGE\n\nVOLCANO: SHEVELUCH 300270\n\nPSN: N5639 E16122\n\nAREA: KAMCHATKA PENINSULA\n\nSOURCE ELEV: 10771 FT AMSL\n\nADVISORY NR: 2026/219\n\nINFO SOURCE: GOES\n\nERUPTION DETAILS: VA CONTINUOUSLY OBS IN SATELLITE IMAGERY.\n\nOBS VA DTG: 22/2215Z\n\nOBS VA CLD: FL100/FL360 N6859 W14110 - N6417 W13615 - N6013\nW13702 - N6037 W13901 - N6516 W14001 - N6516 W14326 - N6557\nW14336 - N6548 W14032 - N6834 W14247 - N6859 W14110 MOV E 40KT\n\nFCST VA CLD +6HR: 23/0415Z FL100/FL360 N6820 W13227 - N5909\nW13127 - N5915 W13349 - N6703 W13423 - N7011 W14405 - N7112\nW14227 - N6820 W13227 - N6820 W13227\n\nFCST VA CLD +12HR: 23/1015Z NO VA EXP\n\nFCST VA CLD +18HR: 23/1615Z NO VA EXP\n\nRMK: SOME PART OF VA OBSCURED BY MET CLOUD.\nTHE RESPONSIBILITY FOR THIS EVENT IS BEING TRANSFERRED\nTO VAAC MONTREAL. THE NEXT ADVISORY WILL BE ISSUED BY\nVAAC MONTREAL BY 0200 UTC UNDER HEADER FVCN01 CWAO....TS\n\nNXT ADVISORY: NO FURTHER ADVISORIES=\n\n",
      "issued": "2026-07-22T22:14:00+00:00",
      "volcano": "Sheveluch",
      "psn": "N5639 E16122"
    }
  ]
}