{
  "updated_utc": "2026-07-18T19:56Z",
  "metar": {
    "RJAA": "METAR RJAA 181800Z AUTO 15003KT 9999 BKN033 23/23 Q1008 NOSIG",
    "PANC": "SPECI PANC 181802Z 26005KT 10SM -RA BKN008 OVC015 10/09 A3003 RMK AO2 P0000 T01000089",
    "PAFA": "METAR PAFA 181853Z 00000KT 10SM FEW030 FEW080 BKN100 14/09 A2994 RMK AO2 SLP141 PRSNT WX VCSH E SE T01440094 $",
    "PAED": "METAR PAED 181855Z 26005KT 10SM -RA SCT007 OVC011 11/09 A3003 RMK AO2A SLP165 P0000 T01090093 $",
    "KSEA": "METAR KSEA 181853Z 24007KT 10SM FEW012 SCT046 19/12 A3017 RMK AO2 SLP222 T01890117 $",
    "ZSPD": "METAR ZSPD 181800Z 22002MPS 200V280 CAVOK 27/26 Q1002 NOSIG",
    "ZSSS": "METAR ZSSS 181800Z 27002MPS 190V320 CAVOK 28/25 Q1001 NOSIG",
    "RJFR": "METAR RJFR 181800Z AUTO 34006KT 9999 FEW048 BKN050 28/26 Q1004",
    "VHHH": "METAR VHHH 181800Z 18007KT 9999 FEW010 30/25 Q1005 NOSIG",
    "RCTP": "METAR RCTP 181800Z 23006KT 9999 FEW020 BKN180 27/24 Q1005 NOSIG RMK A2970",
    "ZGSZ": "METAR ZGSZ 181800Z 17005MPS 9999 FEW020 28/27 Q1005 NOSIG",
    "WSSS": "METAR WSSS 181800Z 12003KT 080V190 9999 FEW018 BKN300 28/25 Q1012 NOSIG",
    "WMKK": "METAR WMKK 181800Z 00000KT 9000 FEW030 26/24 Q1011 NOSIG",
    "WIDD": "METAR WIDD 181800Z VRB02KT 9999 FEW014 26/25 Q1012 NOSIG",
    "VTBS": "METAR VTBS 181800Z 21006KT 9999 SCT020 29/26 Q1009 NOSIG",
    "VTBU": "METAR VTBU 181800Z 21010KT 9000 FEW020 29/29 Q1010 NOSIG",
    "ROAH": "METAR ROAH 181800Z AUTO 20005KT 7000 BKN003 28/27 Q1006",
    "VVDN": "METAR VVDN 181800Z VRB01KT 9999 FEW020 30/22 Q1006 NOSIG",
    "RCKH": "METAR RCKH 181800Z 09003KT 9999 FEW015 SCT025 27/24 Q1007 NOSIG RMK A2975",
    "KLAX": "METAR KLAX 181853Z 26008KT 10SM FEW014 FEW170 25/18 A2999 RMK AO2 SLP153 ACSL DSNT NE T02500183 $",
    "KONT": "METAR KONT 181853Z 27008KT 10SM FEW120 FEW200 32/14 A2999 RMK AO2 SLP135 T03170139 $",
    "KSFO": "METAR KSFO 181856Z 06004KT 10SM FEW020 20/13 A3004 RMK AO2 SLP172 T02000128 $",
    "KOAK": "SPECI KOAK 181803Z 25007KT 10SM FEW008 SCT015 SCT250 17/12 A3006 RMK AO2 T01720122",
    "KMHR": "METAR KMHR 181815Z AUTO 21006KT 10SM CLR 24/12 A2999 RMK AO2 T02390118 $",
    "KDFW": "METAR KDFW 181853Z 20011KT 10SM FEW047 BKN250 33/21 A3003 RMK AO2 SLP158 T03330211 $",
    "KIAH": "METAR KIAH 181853Z 16007KT 10SM FEW046 BKN250 33/23 A3007 RMK AO2 SLP180 T03330228 $",
    "KORD": "METAR KORD 181851Z 32011G19KT 10SM SCT041 BKN065 BKN080 BKN250 31/22 A2987 RMK AO2 SLP107 T03060217 $",
    "KJFK": "SPECI KJFK 181803Z 16007KT 2SM R04R/4500VP6000FT +TSRA FU SCT015 BKN032CB OVC055 22/21 A2989 RMK AO2 FRQ LTGICCG OHD TS OHD MOV E FU OVC055 P0023 T02170211 $",
    "KRFD": "METAR KRFD 181854Z COR 32008KT 10SM FEW028 SCT040 BKN065 31/22 A2990 RMK AO2 SLP119 T03110222 $",
    "KIND": "METAR KIND 181854Z 27014G24KT 10SM FEW041 SCT048 BKN060 33/22 A2989 RMK AO2 PK WND 25027/1842 SLP113 CB DSNT N-NE MOV SE T03280222 $",
    "KDTW": "METAR KDTW 181853Z 28017G29KT 10SM FEW045 BKN055 BKN200 32/21 A2971 RMK AO2 PK WND 26031/1834 SLP056 T03220211 $",
    "KMSP": "METAR KMSP 181853Z 33009G20KT 10SM FEW250 31/14 A2999 RMK AO2 SLP149 T03060139",
    "CYEG": "METAR CYEG 181800Z 30006KT 250V320 15SM FEW100 25/19 A2981 RMK ACC1 ACC TR SLP089 DENSITY ALT 4200FT",
    "EHAM": "METAR EHAM 181825Z 34010KT 310V020 9999 FEW028 18/11 Q1017 NOSIG",
    "EBBR": "METAR EBBR 181820Z 33009KT 9999 FEW026 SCT046 18/11 Q1018 NOSIG",
    "EDDF": "METAR EDDF 181820Z AUTO 01007KT 9999 -SHRA FEW034 FEW///CB 21/16 Q1013 TEMPO SHRA BKN030CB",
    "EDFH": "METAR EDFH 181820Z 01008KT 9999 -SHRA BKN044CB 16/15 Q1016",
    "EDDL": "METAR EDDL 181820Z AUTO 30010KT 280V340 CAVOK 20/10 Q1015 NOSIG",
    "EDDK": "METAR EDDK 181820Z AUTO 32010KT 9999 FEW044 20/11 Q1015 NOSIG",
    "EBLG": "METAR EBLG 181820Z 31008KT 9999 FEW038 19/10 Q1017 NOSIG",
    "LSZH": "METAR LSZH 181820Z 11005KT 070V210 9999 4300SE TSRA FEW030CB BKN062 18/16 Q1016 TEMPO TS",
    "LIMC": "METAR LIMC 181820Z 04006KT 9999 FEW045 FEW070TCU 30/17 Q1008 TEMPO SHRA",
    "LIRF": "METAR LIRF 181820Z 28005KT CAVOK 30/26 Q1010 NOSIG",
    "EINN": "METAR EINN 181800Z 36010KT 9999 FEW025 21/11 Q1024 NOSIG",
    "EGLL": "METAR EGLL 181820Z AUTO 04008KT 350V070 9999 NCD 22/09 Q1020",
    "EGSS": "METAR EGSS 181820Z AUTO 36008KT 9999 NCD 19/10 Q1021",
    "EPWA": "METAR EPWA 181800Z 29007KT CAVOK 22/16 Q1010 NOSIG",
    "UHPP": "METAR UHPP 181800Z 34005MPS 9999 FEW050 21/14 Q1018 R34L/CLRD62 NOSIG RMK MT OBSC QFE760/1013",
    "EFHK": "METAR EFHK 181820Z 26004KT 9999 -SHRA FEW050CB 20/18 Q1002 NOSIG",
    "LBBG": "METAR LBBG 181800Z AUTO 12008KT 9999 NCD 24/20 Q1012 NOSIG",
    "LTAC": "METAR LTAC 181820Z 09007KT 050V110 9999 FEW040 24/09 Q1014 NOSIG RMK RWY21C 03004KT 350V060 RWY03L 05004KT 010V090 RWY21R 01004KT 340V060 RWY03R 07007KT RWY21L 11005KT",
    "UBBB": "METAR UBBB 181800Z 34012KT CAVOK 26/22 Q1010 NOSIG",
    "UTAA": "METAR UTAA 181800Z 26010KT 9999 NSC 35/18 Q1006 R88/CLRD70 NOSIG",
    "UACC": "METAR UACC 181800Z 14003MPS CAVOK 25/17 Q1004 NOSIG RMK QFE722/0963",
    "UAAA": "METAR UAAA 181800Z 13003MPS 9999 BKN200 28/11 Q1006 NOSIG",
    "UZTT": "METAR UZTT 181800Z 13004KT CAVOK 32/18 Q1001 NOSIG",
    "ZWWW": "METAR ZWWW 181800Z 15003MPS CAVOK 32/12 Q1007 NOSIG",
    "ZLXY": "METAR ZLXY 181800Z 23001MPS CAVOK 22/18 Q1006 NOSIG",
    "ZBAA": "METAR ZBAA 181800Z 04001MPS CAVOK 22/21 Q1002 NOSIG",
    "ZBHH": "METAR ZBHH 181800Z 06002MPS CAVOK 16/14 Q1008 NOSIG",
    "ZSQD": "METAR ZSQD 181800Z 19001MPS 9999 FEW053 24/19 Q1003 NOSIG",
    "ZMCK": "METAR ZMCK 181800Z VRB01MPS 9999 FEW033 12/11 Q1004 NOSIG RMK QFE639.0 97 NT",
    "UUEE": "METAR UUEE 181800Z 12003MPS 080V170 CAVOK 20/13 Q1014 R06R/CLRD62 R06C/CLRD62 NOSIG",
    "UUDD": "METAR UUDD 181800Z VRB01MPS CAVOK 18/14 Q1015 R31L/CLRD65 NOSIG",
    "ULLI": "METAR ULLI 181800Z 15004MPS CAVOK 23/10 Q1007 R88/090065 NOSIG",
    "USSS": "METAR USSS 181800Z 36002MPS 330V040 9999 SCT023CB 19/19 Q1003 R08R/220050 TEMPO -TSRA RMK QFE733/0977",
    "UNNT": "METAR UNNT 181800Z 29001MPS 9000 NSC 18/18 Q1004 R25/CLRD// R16/CLRD// NOSIG RMK QFE743/0991",
    "UNKL": "METAR UNKL 181800Z 30001MPS 9999 FEW033 17/16 Q1002 R29/CLRD// NOSIG RMK QFE726",
    "UIBB": "METAR UIBB 181800Z AUTO 32001MPS 9000 // NSC 13/12 Q1001 RMK QFE708/0944",
    "UEEE": "METAR UEEE 181800Z 05002MPS 9999 BKN017CB 17/16 Q0997 R23/290151 NOSIG RMK QFE739",
    "UHHH": "METAR UHHH 181800Z 30002MPS CAVOK 18/17 Q1005 R88/090060 NOSIG RMK QFE747/0997",
    "UHSS": "METAR UHSS 181800Z 19003MPS 9999 -SHRA BKN017CB 20/20 Q1010 R19/290060 NOSIG RMK MT OBSC QFE756/1008"
  },
  "taf": {
    "RJAA": "TAF RJAA 181705Z 1818/2000 17006KT 9999 FEW015 SCT020",
    "PANC": "TAF PANC 181744Z 1818/1924 VRB04KT P6SM -SHRA SCT007 OVC015 TEMPO 1818/1820 -RA BKN007 FM182000 16008KT 6SM -RA SCT015 OVC040 TEMPO 1820/1823 -RA BKN015 FM182300 14012G24KT P6SM VCSH SCT040 OVC070 FM190800 34005KT 6SM -RA OVC060 WS008/12030KT",
    "PAFA": "TAF PAFA 181730Z 1818/1924 VRB03KT P6SM SCT080 FM190000 17006KT P6SM BKN250",
    "PAED": "TAF AMD PAED 181930Z 1819/1919 VRB03KT 9999 -RA BKN007 BKN015 OVC020 620802 QNH2999INS BECMG 1822/1823 02005KT 9999 -SHRA SCT010 OVC040 620802 QNH2998INS BECMG 1904/1905 03008KT 9999 VCSH SCT030 BKN060 BKN080 640604 520208 QNH3002INS BECMG 1913/1914 36010KT 8000 -RA SCT050 BKN080 640802 560208 QNH2998INS TX15/1900Z TN10/19",
    "KSEA": "TAF KSEA 181720Z 1818/1924 24006KT P6SM BKN010 BKN050 FM181900 26006KT P6SM SCT015 SCT050 FM182200 29007KT P6SM FEW020 SCT050 FM190200 01008KT P6SM FEW250 FM191100 02004KT P6SM SCT250 FM191300 01004KT P6SM BKN008 FM191700 35006KT P6SM SCT010 BKN040",
    "ZSPD": "TAF ZSPD 181504Z 1818/1924 04004MPS 8000 SCT030 TX33/1906Z TN27/1821Z TN27/1921Z TEMPO 1905/1909 TSRA BKN011 FEW030CB",
    "ZSSS": "TAF ZSSS 181503Z 1818/1924 11004MPS 8000 SCT030 TX33/1906Z TN27/1821Z TN27/1921Z TEMPO 1904/1908 TSRA BKN011 FEW030CB",
    "RJFR": "TAF RJFR 181705Z 1818/2000 06004KT 9999 FEW020 SCT040 BECMG 1822/1900 09008KT BECMG 1901/1903 06010KT TEMPO 1906/1912 -TSRA FEW015 BKN030 FEW030CB BECMG 1912/1915 16004KT TEMPO 1921/2000 BKN005",
    "VHHH": "TAF VHHH 181700Z 1818/1924 20010KT 9999 FEW010 SCT025 TX31/1906Z TN27/1822Z TN27/1922Z TEMPO 1818/1824 3000 SHRA FEW010CB SCT020 TEMPO 1900/1906 24015G25KT 2500 TSRA SHRA FEW008CB SCT015 PROB30 TEMPO 1921/1924 24015G25KT 2500 TSRA SHRA FEW008CB SCT015",
    "RCTP": "TAF RCTP 181700Z 1818/1924 24010KT 9999 FEW015 TEMPO 1900/1906 25015KT TEMPO 1906/1910 FEW010 FEW015TCU BKN032",
    "ZGSZ": "TAF ZGSZ 181502Z 1818/1924 18004MPS 8000 BKN040 TX30/1906Z TN27/1822Z TN26/1922Z TEMPO 1822/1901 SHRA FEW020CB BKN030 TEMPO 1902/1906 2500 +TSRA SCT010 FEW020CB BKN030",
    "WSSS": "TAF WSSS 181700Z 1818/2000 14006KT 9999 FEW015 SCT020",
    "WMKK": "TAF WMKK 181700Z 1818/2000 VRB03KT 9999 FEW018 PROB30 TEMPO 1820/1823 6000 RA FEW017CB",
    "VTBS": "TAF VTBS 181700Z 1818/1924 22008KT 9999 FEW020",
    "VTBU": "TAF VTBU 181700Z 1818/1918 21006KT 9000 FEW020 BECMG 1819/1821 36004KT BECMG 1900/1902 24008KT",
    "ROAH": "TAF ROAH 181705Z 1818/2000 22006KT 9999 FEW005 BKN010 TEMPO 1818/1821 FEW003 BKN005 TEMPO 1821/1900 FEW005 BKN008 TEMPO 1915/1921 FEW005 BKN008",
    "VVDN": "TAF VVDN 181700Z 1818/1918 24006KT 9999 FEW020 BECMG 1905/1906 01010KT BECMG 1912/1913 24006KT",
    "RCKH": "TAF RCKH 181700Z 1818/1924 09005KT 9999 FEW012 BKN032 TEMPO 1818/1823 25005KT 3200 SHRA FEW005 FEW010CB BKN018 TEMPO 1823/1903 4000 SHRA FEW008 FEW012CB BKN018 BECMG 1903/1905 24012KT TEMPO 1905/1911 21008KT 7000 -SHRA FEW008 FEW012CB BKN025 BECMG 1911/1913 09005KT",
    "KLAX": "TAF KLAX 181803Z 1818/1924 26012KT P6SM FEW020 FM190300 25006KT P6SM FEW015 SCT150 FM190900 VRB03KT P6SM OVC012 FM191700 25006KT P6SM SCT020 FM191900 25012KT P6SM FEW025",
    "KONT": "TAF KONT 181728Z 1818/1924 VRB04KT P6SM FEW200 FM182000 25010G21KT P6SM SCT150 FM190200 25010KT P6SM FEW200 FM190900 VRB04KT P6SM SKC FM192000 25010G20KT P6SM FEW150",
    "KSFO": "TAF KSFO 181737Z 1818/1924 VRB04KT P6SM SCT015 FM182000 28015G25KT P6SM SKC FM190300 28013KT P6SM BKN015 FM190600 26005KT P6SM SCT009 OVC012 FM191600 31006KT P6SM SCT012 FM192000 31010KT P6SM SKC",
    "KOAK": "TAF KOAK 181737Z 1818/1924 27010KT P6SM FEW008 FM190400 26007KT P6SM SCT009 BKN012 FM190600 29006KT P6SM BKN009 FM191700 28005KT P6SM SCT009",
    "KMHR": "TAF KMHR 181720Z 1818/1918 21007KT P6SM FEW250 FM182200 20012KT P6SM SKC FM190600 19010KT P6SM SKC FM191100 16007KT P6SM SCT250",
    "KDFW": "TAF KDFW 181720Z 1818/1924 18016KT P6SM SCT060 FM190200 18007KT P6SM FEW250 FM191000 19008KT P6SM BKN040 FM191500 19009KT P6SM FEW250",
    "KIAH": "TAF KIAH 181736Z 1818/1924 18008KT P6SM SCT045 SCT250 FM182100 15009KT P6SM SCT050 SCT250 FM190300 20005KT P6SM FEW020 SCT250",
    "KORD": "TAF KORD 181947Z 1820/1924 33012KT P6SM SCT040 BKN050 FM182030 05012G17KT P6SM FEW040 SCT050 FM190100 03011G18KT 5SM FU SCT060 BKN250 FM190800 05008KT 4SM FU SCT060 BKN250",
    "KJFK": "TAF KJFK 181935Z 1820/1924 22009KT 2SM -TSRA FU BKN045CB FM182100 20014G22KT 5SM -SHRA BKN015 OVC050 TEMPO 1823/1903 2SM TSRA BR BKN009 OVC050CB FM190300 24012KT 4SM SHRA BKN025 OVC050 FM190700 28012KT P6SM SCT040 BKN100 FM191200 33013KT P6SM BKN250",
    "KRFD": "TAF KRFD 181734Z 1818/1918 34010KT P6SM SCT040 FM190300 07007KT 4SM FU SCT060 BKN250",
    "KIND": "TAF KIND 181720Z 1818/1924 27014G22KT P6SM BKN060 FM182300 29012KT P6SM VCTS BKN050CB TEMPO 1900/1904 VRB20G30KT 2SM -TSRA BKN035CB FM190400 34007KT P6SM SCT040 BKN150 FM190800 04007KT P6SM SCT050 BKN250",
    "KDTW": "TAF KDTW 181827Z 1818/1924 26015G29KT P6SM SCT030 BKN050 OVC120 TEMPO 1820/1822 26015G35KT 3SM TSRA OVC035CB FM182200 32014G22KT P6SM SCT045 BKN060 FM190100 35010KT P6SM BKN200 FM190600 01005KT P6SM SKC",
    "KMSP": "TAF KMSP 181720Z 1818/1924 01010G18KT P6SM FEW250 FM190200 04005KT P6SM SCT250 FM191600 20010KT P6SM FEW080",
    "CYEG": "TAF CYEG 181740Z 1818/1918 16005KT P6SM FEW020 FM190000 27006KT P6SM FEW050 TEMPO 1900/1904 VRB25G40KT P6SM -SHRA VCTS BKN050CB FM190400 25008KT P6SM FEW012 SCT100 FM191000 27008KT P6SM FEW040 SCT100 TEMPO 1910/1918 VRB25G35KT P6SM VCTS BKN040CB OVC100 RMK NXT FCST BY 182100Z",
    "EHAM": "TAF EHAM 181720Z 1818/1924 32013KT 9999 SCT025 BKN030 PROB30 TEMPO 1818/1901 7000 -SHRA -DZRA SCT018 FEW020TCU BECMG 1819/1822 31008KT BECMG 1907/1910 32015KT BECMG 1918/1921 32008KT",
    "EBBR": "TAF EBBR 181703Z 1818/1924 32010KT 9999 SCT030 SCT045",
    "EDDF": "TAF EDDF 181700Z 1818/1924 31009KT 9999 SCT040 PROB30 TEMPO 1818/1821 32015KT SHRA BKN030CB PROB30 TEMPO 1821/1908 BKN040 PROB30 TEMPO 1912/1915 32015G25KT",
    "EDFH": "TAF COR EDFH 181752Z 1818/1918 34007KT 9999 SCT040 TEMPO 1818/1820 34020G30KT TSRA BKN030CB PROB30 TEMPO 1912/1915 32015G25KT",
    "EDDL": "TAF EDDL 181700Z 1818/1924 32011KT 9999 FEW045 BECMG 1819/1822 30006KT BECMG 1907/1910 30012KT PROB40 TEMPO 1913/1917 31015G25KT BECMG 1919/1922 30005KT",
    "EDDK": "TAF EDDK 181700Z 1818/1924 32011KT 9999 FEW045 BECMG 1819/1822 31006KT BECMG 1907/1910 31012KT PROB30 TEMPO 1913/1918 31015G25KT BECMG 1918/1921 33005KT",
    "EBLG": "TAF EBLG 181703Z 1818/1924 31010KT 9999 SCT030 SCT045",
    "LSZH": "TAF LSZH 181725Z 1818/1924 06006KT 9999 FEW060CB TX24/1915Z TN15/1904Z PROB40 TEMPO 1818/1819 23015G26KT 4000 TSRA BECMG 1819/1821 10006KT BECMG 1821/1824 CAVOK BECMG 1905/1908 9999 SCT040 PROB40 TEMPO 1907/1917 SHRA SCT050TCU BECMG 1908/1911 30010KT PROB30 TEMPO 1912/1916 32015G25KT TSRA FEW050CB BECMG 1918/1921 03006KT CAVOK",
    "LIMC": "TAF LIMC 181700Z 1818/1924 VRB05KT 9999 SCT040 PROB40 TEMPO 1819/1824 TSRA",
    "LIRF": "TAF LIRF 181700Z 1818/1924 27010KT CAVOK BECMG 1819/1821 VRB05KT BECMG 1907/1909 17010KT BECMG 1912/1914 23010KT BECMG 1917/1919 VRB05KT",
    "EINN": "TAF EINN 181700Z 1818/1918 35012KT 9999 FEW025",
    "EGLL": "TAF EGLL 181651Z 1818/1924 03007KT 9999 FEW030",
    "EGSS": "TAF EGSS 181704Z 1818/1924 02009KT 9999 SCT035",
    "EPWA": "TAF EPWA 181730Z 1818/1918 29010KT 9999 FEW030 BECMG 1818/1820 VRB02KT TEMPO 1910/1918 -SHRA SCT040CB PROB40 TEMPO 1915/1918 VRB17G30KT 2000 TSRA BKN008",
    "UHPP": "TAF UHPP 181651Z 1818/1924 30003G12MPS 9999 SCT050 TX28/1903Z TN18/1916Z TEMPO 1818/1824 36005MPS TEMPO 1912/1924 36005MPS",
    "EFHK": "TAF EFHK 181736Z 1818/1918 19008KT CAVOK TEMPO 1818/1822 6000 SHRA FEW012 BKN050CB PROB30 TEMPO 1818/1822 2500 +TSRA BKN012 BKN040CB BECMG 1822/1824 BKN012 FEW040CB BECMG 1900/1902 BKN007 TEMPO 1902/1907 4000 -DZRA BKN004 FEW040CB BECMG 1907/1909 28012KT BKN012 BECMG 1909/1911 BKN015 BECMG 1911/1913 34010KT",
    "LBBG": "TAF LBBG 181700Z 1818/1918 12012KT CAVOK BECMG 1820/1822 VRB03KT TEMPO 1902/1905 3000 BR BKN010 BECMG 1906/1908 12012KT",
    "LTAC": "TAF LTAC 181640Z 1818/1918 05012KT 9999 SCT040 BECMG 1818/1820 CAVOK BECMG 1906/1909 VRB02KT FEW040",
    "UBBB": "TAF UBBB 181700Z 1818/1918 34014KT CAVOK TX30/1910Z TN23/1901Z TEMPO 1820/1903 35008KT FEW050CB PROB40 TEMPO 1820/1902 TS FEW012 SCT040CB BECMG 1903/1905 34020G30KT TEMPO 1906/1918 34026G36KT SCT016 FEW040",
    "UTAA": "TAF UTAA 181655Z 1818/1918 27016KT 6000 SCT050 TX42/1911Z TEMPO 1906/1914 32014G24KT 4000 DRDU",
    "UACC": "TAF UACC 181703Z 1818/1918 15003MPS 9999 SCT040CB BKN100 TX34/1909Z TN20/1823Z TEMPO 1818/1904 22008MPS -TSRA BKN030CB BECMG 1904/1906 24006MPS TEMPO 1904/1916 28009MPS -TSRA BKN030CB TEMPO 1916/1918 32005MPS",
    "UAAA": "TAF UAAA 181701Z 1818/1918 17002MPS 9999 FEW050 SCT100 TX42/1910Z TN23/1900Z BECMG 1903/1904 35005MPS TEMPO 1905/1914 04005G10MPS BECMG 1914/1915 20003MPS",
    "UZTT": "TAF UZTT 181700Z 1818/1918 07010KT 7000 NSC TX44/1911Z TN27/1900Z TEMPO 1906/1916 30015KT",
    "ZWWW": "TAF ZWWW 181502Z 1818/1924 18004MPS CAVOK TX39/1909Z TN28/1823Z TN29/1923Z BECMG 1902/1903 36004MPS BECMG 1913/1914 18004MPS",
    "ZLXY": "TAF ZLXY 181502Z 1818/1918 26003MPS 6000 NSC TX36/1907Z TN21/1821Z",
    "ZBAA": "TAF ZBAA 181501Z 1818/1924 18003MPS CAVOK TX31/1906Z TN21/1821Z TN22/1921Z",
    "ZBHH": "TAF ZBHH 181501Z 1818/1918 06004MPS CAVOK TX30/1908Z TN15/1822Z TEMPO 1909/1912 VRB08G13MPS -TSRA FEW040CB FEW040",
    "ZSQD": "TAF ZSQD 181501Z 1818/1918 18004MPS 3500 BR NSC TX31/1906Z TN22/1820Z",
    "ZMCK": "TAF ZMCK 181636Z 1818/1924 VRB02MPS 9999 FEW030CB SCT033 TN12/1821Z TX24/1907Z BECMG 1900/1902 32005MPS PROB40 TEMPO 1905/1912 VRB09G14MPS TSRA SCT027CB SCT030 BECMG 1911/1913 VRB02MPS",
    "UUEE": "TAF UUEE 181652Z 1818/1918 12003MPS CAVOK TX27/1912Z TN15/1901Z TEMPO 1903/1915 22005MPS",
    "UUDD": "TAF UUDD 181651Z 1818/1924 20003MPS CAVOK TX27/1912Z TN12/1901Z",
    "ULLI": "TAF ULLI 181651Z 1818/1918 17005G10MPS 9999 SCT020 BECMG 1906/1908 22006G12MPS TEMPO 1909/1915 25009G15MPS 3100 -TSRA BKN017CB BECMG 1915/1916 29005G10MPS",
    "USSS": "TAF USSS 181651Z 1818/1918 02003G14MPS 6000 -SHRA BKN016CB TEMPO 1818/1904 -TSRA BKN003 BKN011CB FM190400 04003G14MPS 8000 -SHRA BKN020CB TEMPO 1904/1918 -TSRAGR",
    "UNNT": "TAF UNNT 181700Z 1818/1918 32003G08MPS 8000 SCT040 TX26/1912Z TN16/1822Z TEMPO 1818/1902 0150 -TSRA FG BKN001 BKN020CB TEMPO 1902/1918 02006G13MPS -TSRA BKN020CB",
    "UNKL": "TAF UNKL 181644Z 1818/1918 27003MPS 6000 NSC TEMPO 1818/1819 0400 FG BECMG 1819/1821 0400 FG VV002 BECMG 1822/1824 6000 NSW SCT016 TEMPO 1904/1915 -TSRA BKN016CB",
    "UIBB": "TAF UIBB 181700Z 1818/1918 20004MPS 0300 FG BKN001 BKN016CB TEMPO 1818/1821 4000 -SHRA FEW001 BKN017CB FM190100 26005G10MPS 9999 -SHRA BKN017CB TEMPO 1901/1915 VRB10MPS -TSRA",
    "UEEE": "TAF UEEE 181700Z 1818/1924 03003MPS 9999 FEW007 BKN020CB OVC100 TEMPO 1818/1901 0300 -TSRA FG VV002 TEMPO 1901/1915 VRB08MPS 2100 -TSRA SCT007 BKN015CB OVC070",
    "UHHH": "TAF UHHH 181650Z 1818/1924 17003MPS 9999 NSC TX30/1904Z TN19/1917Z TEMPO 1818/1823 0400 FG FEW010 FM190000 26003MPS 9999 SCT020CB",
    "UHSS": "TAF UHSS 181650Z 1818/1924 36003MPS 5000 -SHRA BKN005 BKN016CB BECMG 1906/1908 9999 NSW BKN020CB"
  },
  "atis": {
    "RJAA": "[Arrival ATIS] RJAA ARR ATIS E 0904Z M0900 (APCH)ILS Z RWY34R LDG RWY 34R DEP RWY 34L/34R DEP FREQ 124.2 FM RWY 34L, 119.6 FM RWY 34R. TWY A1 CLSD. SIMUL PARL DEPS INPR. CK INITIAL WPT ON FMS. OBSERVE GEAR DOWN OPS PROC ON FNL. M 230900Z 05010KT 25KM FEW010CU BKN013CU 19/16 Q1012/A2989= Q/TWO NINE EIGHT NINE STP\n[Departure ATIS] RJAA DEP ATIS A 0819Z M0800 (APCH)ILS Z RWY34R LDG RWY 34R DEP RWY 34L DEP FREQ 124.2. TWY A1 CLSD. OBSERVE GEAR DOWN OPS PROC ON FNL. M 230800Z 05009KT 25KM SCT013CU BKN020CU BKN/// 19/16 Q1011/A2987= Q/TWO NINE EIGHT SEVEN STP",
    "PANC": "[Arrival ATIS] PANC ARR ATIS N 0853Z ANC ATIS INFO N 0853Z. 13015G33KT 10SM FEW039 SCT050 BKN100 13/08 A3007 (THREE ZERO ZERO SEVEN). ILS RWY 15 APPROACHES IN USE. LANDING RWY 15, DEPARTING RWY 25L, 15. NOTICE TO AIRMEN. RWY 25R CLSD. CHECK NOTAMS FOR TAXIWAY CLOSURES. CAUTION FOR BIRD ACTIVITY IN THE ARPT AREA. CONTACT TOWER 118.3 FOR TAXI. ...ADVS YOU HAVE INFO N.\n[Departure ATIS] PANC DEP ATIS N 0853Z ANC ATIS INFO N 0853Z. 13015G33KT 10SM FEW039 SCT050 BKN100 13/08 A3007 (THREE ZERO ZERO SEVEN). ILS RWY 15 APPROACHES IN USE. LANDING RWY 15, DEPARTING RWY 25L, 15. NOTICE TO AIRMEN. RWY 25R CLSD. CHECK NOTAMS FOR TAXIWAY CLOSURES. CAUTION FOR BIRD ACTIVITY IN THE ARPT AREA. CONTACT TOWER 118.3 FOR TAXI. ...ADVS YOU HAVE INFO N.",
    "KSEA": "[Arrival ATIS] KSEA ARR ATIS B 1853Z SEA ATIS INFO B 1853Z. 22007KT 10SM FEW012 SCT046 19/12 A3017 (THREE ZERO ONE SEVEN). ILS, RYS 16R AND 16L , APCH IN USE. DEPG RWY 16L, DEPG ACFT PLAN AND BRIEF NUMBERS FOR BOTH RWYS 16L AND 16C. SIMUL APCHS IN USE, BFI & SEA. TRAFFIC BELOW YOU ON FINAL. SIMUL APCHS IN USE TO PARA RYS. NOTAMS... TAXIWAY A RESTRICTED TO ADG 3 AND SMALLER BETWEEN TAXIWAY Y AND CARGO 1. BIRD ACTIVITY VICINITY ARPT. ...ADVS YOU HAVE INFO B.\n[Departure ATIS] KSEA DEP ATIS A 1853Z SEA ATIS INFO A 1853Z. 22007KT 10SM FEW012 SCT046 19/12 A3017 (THREE ZERO ONE SEVEN). ILS, RYS 16R AND 16L , APCH IN USE. DEPG RWY 16L, DEPG ACFT PLAN AND BRIEF NUMBERS FOR",
    "ZSPD": "[Arrival ATIS] ZSPD ARR ATIS U 0900Z EXP ILS APCH INDEPENDENT PARL INSTR APCH LDG RWY 35L & 34R WIND RWY 35L TDZ 360/4MPS MID 010/3MPS END 010/3MPS RWY 34R TDZ 010/4MPS MID 020/4MPS END 010/4MPS VIS RWY 35L TDZ 10000M MID 10000M END 10000M VIS RWY 34R TDZ 10000M MID 10000M END 10000M FBL SHRA CLD BKN 270M T 23 /DP 23 QNH 1004 HPA CAUTION THE BIRDS NEAR THE RUNWAY RWY 35R/35L/34R/34L RWYCC 5/5/5 ISSUED AT 0731 WET/WET/WET DPT NR/NR/NR COV 100PCT/100PCT/100PCT. ADZ YOU HAVE INFO U.\n[Departure ATIS] ZSPD DEP ATIS K 1300Z DEP RWY 17L & 16R WIND RWY 17L TDZ 000/0MPS MID 190/1MPS END 220/2MPS VRB BTN 170/ AND 240/ RWY 16R TDZ 150/2MPS MID 220/2MPS VRB BTN 190/ AND 250/ END 160/3MPS VIS RWY 17L TDZ 10000M MID 10000M END 10000M VIS RWY 16R TDZ 10000M MID 10000M END 10000M FBL SHRA CLD FEW CB 900M T 27 /DP 24 QNH 1003 HPA CAUTION THE BIRDS NEAR THE RUNWAY WIND SHEAR ON ALL RUNWAY RWY 17L/17R/16L/16R RWYCC 5/5/5 ISSUED AT 1120 WET/WET/WET DPT NR/NR/NR COV 100PCT/100PCT/100PCT ADZ YOU HAVE INFO K.",
    "ZSSS": "[Arrival ATIS] ZSSS ARR ATIS Y 0900Z EXP ILS APCH LDG RWY 36R WIND RWY 36R TDZ 030/3MPS MID 040/3MPS END 020/4MPS VIS RWY 36R TDZ 10000M MID 10000M END 10000M CLD BKN 390M T 23 /DP 21 QNH 1004 HPA RWY36L RWYCC 5/5/5 ISSUED AT 0600 WET/WET/WET DPT NR/NR/NR COV 100PCT/100PCT/100PCT RWY36R RWYCC 5/5/5 ISSUED AT 0600 WET/WET/WET DPT NR/NR/NR COV 100PCT/100PCT/100PCT QNH OF SHANGHAI TERMINAL CONTROL AREA 1004 HPA ADZ YOU HAVE INFO Y.\n[Departure ATIS] ZSSS DEP ATIS Y 0900Z DEP RWY 36L WIND RWY 36L TDZ 030/3MPS MID 040/3MPS END 020/4MPS VIS RWY 36L TDZ 10000M MID 10000M END 10000M CLD BKN 390M T 23 /DP 21 QNH 1004 HPA RWY36L RWYCC 5/5/5 ISSUED AT 0600 WET/WET/WET DPT NR/NR/NR COV 100PCT/100PCT/100PCT RWY36R RWYCC 5/5/5 ISSUED AT 0600 WET/WET/WET DPT NR/NR/NR COV 100PCT/100PCT/100PCT QNH OF SHANGHAI TERMINAL CONTROL AREA 1004 HPA ADZ YOU HAVE INFO Y.",
    "VHHH": "[Arrival ATIS] VHHH ARR ATIS A 0904Z ARRIVALS, RWY 25R. EXP RNAV TRANSITION TO ILS APCH, RWY 25R. RNP APCH IS AVBL ON REQ, RWY 25R. WIND 200/11KT. VIS 10KM. CLD FEW 1000FT SCT 2500FT. T32 DP26. QNH 1002HPA. ACK INFO A ON FIRST CTC WITH APP.\n[Departure ATIS] VHHH DEP ATIS O 0810Z DEPARTURES, RWY 25L. WIND 190/06KT. VIS 10KM. CLD FEW 1200FT SCT 2500FT. T32 DP26. QNH 1002HPA. ACK INFO O ON FIRST CTC WITH DELIVERY .",
    "RCTP": "[Arrival ATIS] RCTP ARR ATIS Z 0900Z EXP ILS APCH RWY23R FOR ARR. RWY23L FOR DEP. WIND 240/04KT VARYING BTN 200 AND 280 VIS 10 KM OR MORE CLD FEW 2000FT BKN 20000FT T 31 DP 26 QNH 1002HPA NOSIG CTN BIRD ACTIVITY IN THE VCY OF THE AD. INFORM TAIPEI APCH OR TAIPEI TOWER ON INITIAL CONTACT YOU HAVE INFORMATION Z\n[Departure ATIS] RCTP DEP ATIS T 0600Z EXP ILS APCH RWY23R FOR ARR. RWY23L FOR DEP. WIND 290/11KT VIS 10 KM OR MORE CLD FEW 2000FT BKN 20000FT T 34 DP 26 QNH 1003HPA NOSIG DUE TO FLOW CONTROL BY FUKUOKA F-I-R, TRAFFIC CONCERNED MAY BE DELAYED. CTN BIRD ACTIVITY IN THE VCY OF THE AD. INFORM TAIPEI APCH OR TAIPEI TOWER ON INITIAL CONTACT YOU HAVE INFORMATION T",
    "ZGSZ": "[Arrival ATIS] ZGSZ ARR ATIS A 0900Z EXP ILS APCH 15 EXP ILS OR VIS APCH 16R WIND 160/8MPS VIS 9999M CLD FEW 600M T 31 /DP 28 QNH 1002 HPA INDEPENDENT PARALLEL DEPARTURES INDEPENDENT PARALLEL APPROACHES MISSED APPROACH ALTITUDE SETTING 1200METERS WHEN AIRBORNE CONTACT ZHUHAI APPROACH EXPECTED RNP ILS DME Z APPROACH ADZ YOU HAVE INFO A.\n[Departure ATIS] ZGSZ DEP ATIS Z 0830Z DEP RWY 15 & 16L WIND 170/9MPS VIS 9999M CLD FEW 600M T 32 /DP 27 QNH 1002 HPA INDEPENDENT PARALLEL DEPARTURES INDEPENDENT PARALLEL APPROACHES MISSED APPROACH ALTITUDE SETTING 1200METERS WHEN AIRBORNE CONTACT ZHUHAI APPROACH EXPECTED RNP ILS DME Z APPROACH ADZ YOU HAVE INFO Z.",
    "WSSS": "[Arrival ATIS] WSSS ARR ATIS U 0900Z METREPORT 0900Z ILS APCHRWY 20R SIMUL INDEPENDENT ILS AND VISUAL APPROACHES ARE CONDUCTED ON RWY 20. TWY W 9 CLOSED, RWY 02C 20C RAPID EXIT TAXIWAY INDICATOR LIGHTS OFF WIND 190/ 08KT VRB BTN160 AND240 VIS 10KM CLD FEW 1800FT T32 DP23 QNH 1007HPA NOSIG ACK ATIS U\n[Departure ATIS] WSSS DEP ATIS V 0800Z METREPORT 0800Z RWY 20C SIMUL INDEPENDENT ILS AND VISUAL APPROACHES ARE CONDUCTED ON RWY 20. TWY W 9 CLOSED, RWY 02C 20C RAPID EXIT TAXIWAY INDICATOR LIGHTS OFF WIND 220/ 11KT VIS 10KM CLD FEW 1800FT FEW TCU 2000FT T31 DP23 QNH 1008HPA NOSIG DEP,INITIAL CMB 3000FT ACK ATIS V",
    "WMKK": "[Arrival ATIS] WMKK ARR ATIS F 1203Z WMKK ARR INFO F. TIME 1200. INDEPENDENT PARALLEL APPROACHES FOR RWY 14 L AND 15 ARE IN PROGRESS. EXP RNAV / ILS APCH FOR RWY 14 LEFT. EXP RNAV / ILS APCH FOR RWY 15. WIND RWY 14L 040 DEG, 4 KT, VRB BTN 350 AND 100 DEG. WIND RWY 15 010 DEG, 6 KT, VRB BTN 340 AND 070 DEG. VIS RWY 14L TDZ 10 KM OR MORE. VIS RWY 15 TDZ 10 KM OR MORE. CLD FEW CB 1700 FT. T 28. DP 24. QNH 1008. NOSIG. AT FIRST CONTACT WITH LUMPUR RADAR, NOTIFY RCPT OF F\n[Departure ATIS] WMKK DEP ATIS S 0805Z WMKK DEP INFO S. TIME 0800. INDEPENDENT PARALLEL DEPARTURES FOR RWY 32 L AND 33 ARE IN PROGRESS. RWY 32 LEFT. RWY 33. WIND RWY 32L DIRECTION NOT AVBL SPEED NOT AVBL. WIND RWY 33 DIRECTION NOT AVBL SPEED NOT AVBL. VIS RWY 32L TDZ NOT AVBL. VIS RWY 33 TDZ NOT AVBL. WX FBL TSRA. CLD FEW 1000 FT, CLD FEW CB 1700 FT. T 29. DP 27. QNH 1007. NOSIG. ALL DEP ACFT TO CONTACT LUMPUR DEP AT 135 DECIMAL 25 MHZ WHEN ABN. AT FIRST CONTACT WITH LUMPUR GROUND, NOTIFY RCPT OF S",
    "VTBS": "[Arrival ATIS] VTBS ARR ATIS M 1930Z VTBS ARR ATIS M 1930Z EXP ILS Z APCH ARR RWY 19 RWY 20R CLSD DUE TO WIP ,RETIL RWY 19 U/S 1930Z WIND 230/6KT VIS 10KM CLD FEW 2000FT T29 DP25 QNH 1009HPA TREND NOSIG ADZ BKK APCH ON INITIAL CONTACT THAT YOU HAVE INFO M\n[Departure ATIS] VTBS DEP ATIS W 0900Z VTBS DEP ATIS W 0901Z DEP RWY 20L , ,AFT AIRBORNE ALL DEPARTING ACFT SHALL CTC 119.25 0900Z WIND 310/6KT VRB BTN 260/ AND 340/ VIS 10KM CLD FEW 2000FT T35 DP20 QNH 1005HPA TREND NOSIG ADZ GND WHEN INITIAL CONTACT YOU HAVE INFO W",
    "VTBU": "[Arrival ATIS] VTBU ARR ATIS S 0430Z VTBU ARR ATIS S 0431Z RNP RWY 36 TRL FL130 MOBILE ACFT ARST SYSTEM INSTL ATP SIX HUNDRED AND TEN METERS FM THR RWY 36 CABLE HGT 3 INCHES. 0430Z WIND 330/5KT VRB BTN 290/ AND 030/ VIS 10KM CLD FEW 2000FT T32 DP26 QNH 1009HPA TREND NOSIG ADZ CONTROLLER WHEN INITIAL CONTACT YOU HAVE INFO S\n[Departure ATIS] VTBU DEP ATIS D VTBU ARR/DEP DATIS RPT VTBU ARR ATIS D 0330Z ILS \"Z\" APCH RWY 18 TRL FL130 0330Z WIND 110/4KT VRB BTN 350/ AND 120/ VIS 6KM CLD FEW 2000FT T31 DP27 QNH 1014HPA TREND NOSIG ADZ CONTROLLER WHEN INITIAL CONTACT YOU HAVE INFO D",
    "ROAH": "[Arrival ATIS] ROAH ARR ATIS Z 0808Z M0800 (APCH)RNP RWY18R LDG RWY 18R DEP RWY 18L DEP FREQ 126.5 258.3 M 230800Z 18011KT 25KM FEW015CU SCT020CU BKN/// 31/26 Q1005/A2970= Q/TWO NINE SEVEN ZERO STP\n[Departure ATIS] ROAH DEP ATIS Q 1131Z M1130 (APCH)RNP RWY18R LDG RWY 18R DEP RWY 18L DEP FREQ 126.5 258.3 M 181130Z 21006KT 15KM FEW005ST SCT015CU 28/28 Q1006/A2971= Q/TWO NINE SEVEN ONE STP",
    "VVDN": "[Arrival ATIS] VVDN ARR ATIS Q 0633Z VVDN INFO Q 0633Z. ILS VICTOR APPROACH 35L.. DPTG RWY 35R.. 0633Z. WIND 080/06KT VIS 10KM CLD SCT 6400FT T37 DP24 QNH 1003HPA TREND NOSIG. ADZ ON INITIAL CTC YOU HAVE INFO. Q.\n[Departure ATIS] VVDN DEP ATIS M 0536Z VVDN INFO M 0536Z. ILS VICTOR APPROACH 35L.. DPTG RWY 35R.. 0536Z. WIND 040/01KT VIS 10KM CLD FEW 6600FT T39 DP24 QNH 1003HPA TREND NOSIG. ADZ ON INITIAL CTC YOU HAVE INFO. M.",
    "RCKH": "[Arrival ATIS] RCKH ARR ATIS F 0900Z EXPECT ILS APPROACH RWY 27 ARR/DEP TAXIWAY JULIETT, TAXIWAY BRAVO, TAXIWAY DELTA AND TAXIWAY ECHO CLOSED DUE MAINTENANCE. RUNWAY 27 ARRIVALS PLAN VACATE VIA CHARLIE OR ALPHA AND EXPEDITE VACATE. WIND 280/10KT VIS 10 KM OR MORE CLD FEW 2000FT T 31 DP 25 QNH 1003HPA NOSIG CAUTION BIRD ACTIVITY IN VICINITY OF THE AERODROME. INFORM KAO-HSIUN APCH OR KAO-HSIUN TOWER ON INITIAL CONTACT YOU HAVE INFORMATION F\n[Departure ATIS] RCKH DEP ATIS M 0900Z EXPECT ILS APPROACH RWY 09 ARR/DEP RWY SFC RWY 09 SFC COND 5/5/5 ISSUED AT 0340Z. 100/100/100 NR/NR/NR WET/WET/WET TAXIWAY JULIETT, TAXIWAY BRAVO, TAXIWAY DELTA AND TAX",
    "KLAX": "[Arrival ATIS] KLAX ARR ATIS K 0853Z LAX ATIS INFO K 0853Z. 24004KT 10SM SCT009 BKN011 17/15 A2999 (TWO NINER NINER NINER) RMK AO2 SLP154 T01720150 53001. INST APCHS AND RNAV RNP APCHS RY 24R AND 25L, AND SIMUL APCHS IN PROG BTWN LAX AND HHR, SIMUL INSTR DEPARTURES IN PROG RWYS 24 AND 25. CTC L A GC ON 121.75 FOR PUSH OR TAXI ON A. RWY 2 5 LEFT 7 RIGHT CLSD. TWY C CLSD BTN TWY, C8 AND TWY C9 , , TWY C10 CLSD BTN TWY, B AND TWY C, TWY B CLSD BTN TWY, C3 AND TWY F, TWY B CLSD BTN TWY, F AND TWY B1, TWY B1 CLSD. ILS RY 25R OTS, RY 25R SFL OTS, RY 24L ALSF-2 OTS. LAX VOR UNMONITORED. IF ASSIGNED RUNWAY 25R FOR DEPARTURE, EXPECT DEPARTURE FROM INTERSECTION FOXTROT. TAXIWAY CHARLIE EIGHT BTWN TWY B AND TWY C AND TAXIWAY CHARLIE NINE BTWN TWY B AND TWY C ARE RESTRICTED TO AIRCRAFT WITH A WINGSPAN LESS THAN ONE HUNDRED EIGHTEEN FEET. USE CAUTION FOR INCREASED DRONE ACTIVIY IN THE VICINITY OF SOFI STADIUM AT OR BELOW 200FT AGL DURING THE WORLD CUP FROM 06/12/26 THROUGH 07/10/2026. HAZD WX INFO FOR LAX AREA AVBL FM FSS. BIRD ACTIVITY VICINITY ARPT. TWR FREQ FOR ALL RWYS IS 120.95. CD AND GC FREQ IS 121.75. INCLUDE YOUR CALL SIGN IN ALL READBACKS. USE CAUTION WHEN EXITING RY24R AT TWY V, W, AND Y, TO HOLD SHORT OF RY24L. MULTIPLE RUNWAY INCURSIONS HAVE OCCURRED. ...ADVS YOU HAVE INFO K.\n[Departure ATIS] KLAX DEP ATIS I 0753Z - KLAX ATIS INFO I 0753Z. 24004KT 10SM FEW009 SCT011 17/15 A2999 (TWO NINER NINER NINER) RMK AO2 SLP153 T01720150 402220167. INST APCHS AND RNAV RNP APCHS RY 24R AND 25L, AND SIMUL APCHS IN PROG BTWN LAX AND HHR, SIMUL INSTR DEPARTURES IN PROG RWYS 24 AND 25. CTC L A GC ON 121.75 FOR PUSH OR TAXI ON A. RWY 2 5 LEFT 7 RIGHT CLSD. TWY C CLSD BTN TWY, C8 AND TWY C9 , , TWY C10 CLSD BTN TWY, B AND TWY C, TWY B CLSD BTN TWY, C3 AND TWY F, TWY B CLSD BTN TWY, F AND TWY B1, TWY B1 CLSD. ILS RY 25R OTS, RY 25R SFL OTS, RY 24L ALSF-2 OTS. LAX VOR UNMONITORED. IF ASSIGNED RUNWAY 25R FOR DEPARTURE, EXPECT DEPARTURE FROM INTERSECTION FOXTROT. TAXIWAY CHARLIE EIGHT BTWN TWY B AND TWY C AND TAXIWAY CHARLIE NINE BTWN TWY B AND TWY C ARE RESTRICTED TO AIRCRAFT WITH A WINGSPAN LESS THAN ONE HUNDRED EIGHTEEN FEET. USE CAUTION FOR INCREASED DRONE ACTIVIY IN THE VICINITY OF SOFI STADIUM AT OR BELOW 200FT AGL DURING THE WORLD CUP FROM 06/12/26 THROUGH 07/10/2026. HAZD WX INFO FOR LAX AREA AVBL FM FSS. BIRD ACTIVITY VICINITY ARPT. TWR FREQ FOR ALL RWYS IS 120.95. CD AND GC FREQ IS 121.75. INCLUDE YOUR CALL SIGN IN ALL READBACKS. USE CAUTION WHEN EXITING RY24R AT TWY V, W, AND Y, TO HOLD SHORT OF RY24L. MULTIPLE RUNWAY INCURSIONS HAVE OCCURRED. ...ADVS YOU HAVE INFO I.",
    "KONT": "[Arrival ATIS] KONT ARR ATIS H 1553Z ONT ATIS INFO H 1553Z. 00000KT 10SM FEW200 24/17 A3002 (THREE ZERO ZERO TWO). ILS AND VIS APR IN USE, RY26L & RY26R. LNDG AND DEPG RY 26L AND RY 26R. NOTAMS... TAXIWAY SIERRA FIVE CLOSED. TAXIWAY SIERRA CLOSED BETWEEN TAXIWAY SIERRA 8 AND TAXIWAY WHISKEY. RY 26L IM OTS, RY 26R ALS OTS. USE CAUTION FOR NUMEROUS BIRDS OBSERVED IN VICINITY OF ONT. PILOTS READBACK RWY ASSIGNMENTS AND HOLD SHORT INSTRUCTIONS. ...ADVS YOU HAVE INFO H.\n[Departure ATIS] KONT DEP ATIS N 0553Z - KONT ATIS INFO N 0553Z. 24004KT 10SM BKN250 22/15 A2988 (TWO NINER EIGHT EIGHT) RMK AO2 SLP100. ILS AND VIS APR IN USE, RY26L & RY26R. LNDG AND DEPG RY 26L AND RY 26R. NOTAMS... TAXIWAY SIERRA CLSD BETWEEN SIERRA 8 AND W TAXIWAY Q SOUTH OF RWY 26L CLSD TAXIWAY T CLSD TAXIWAY SIERRA 5 CLSD. RY 26L IM OTS, RY 26R ALS OTS. USE CAUTION FOR NUMEROUS BIRDS OBSERVED IN VICINITY OF ONT. HAZD WX INFO FOR SOUTHERN CA AVBL ON FSS FREQUENCIES. PILOTS READBACK RWY ASSIGNMENTS AND HOLD SHORT INSTRUCTIONS. ...ADVS YOU HAVE INFO N.",
    "KSFO": "[Arrival ATIS] KSFO ARR ATIS Y 0856Z - KSFO ATIS INFO Y 0856Z. 26010KT 10SM FEW004 SCT009 OVC012 14/12 A3000 (THREE ZERO ZERO ZERO). ILS RY 28L APP IN USE. DEPG RWYS 28L. DEPG ACFT SHOULD BE PREPARED FOR A SHORT NOTICE RY CHANGE. RY 28R, 1L, 1R CLSD. NUMEROUS TWY CLOSURES FOR CONSTRUCTION ON THE FIELD, PILOTS CHECK NOTAMS. DEPG ACFT WAITING ON FINAL NUMBERS ADVISE GROUND PRIOR TO ENTERING TWY F. ...ADVS YOU HAVE INFO Y.\n[Departure ATIS] KSFO DEP ATIS O 0156Z SFO ATIS INFO O 0156Z. 25015KT 10SM FEW007 SCT012 16/12 A2996 (TWO NINER NINER SIX). SIMUL CLSLY SPCD DPNDNT ILS RY 28R AND ILS RY 28L APP IN USE. DEPG RWYS 28L, 28R. DEPG ACFT SHOULD BE PREPARED FOR A SHORT NOTICE RY CHANGE. RY 1L, 1R CLSD. NUMEROUS TWY CLOSURES FOR CONSTRUCTION ON THE FIELD, PILOTS CHECK NOTAMS. MULTIPLE CRANES VCY OF SFO CHECK NOTAMS. DEPG ACFT WAITING ON FINAL NUMBERS ADVISE GROUND PRIOR TO ENTERING TWY F. ...ADVS YOU HAVE INFO O.",
    "KOAK": "[Arrival ATIS] KOAK ARR ATIS E 0453Z - KOAK ATIS INFO E 0453Z. 23009KT 10SM FEW007 FEW012 15/12 A2989 (TWO NINER EIGHT NINER). RNAV, AND VA, RWY 30. ILS, AND VA, RWY 28R. FLOW TO LAX, LAS. RWY 28L CLSD. TAXIWAYS G,H,P, CLSD BETWEEN RWYS 28R AND 28L. ILS RWY 30, OTS, RWY 28R RAIL, OTS. UNN LIT CLOSE-IN OBSTACLES FOR RWY 30 DEPARTURES. RWY 30 DEPARTURES ARE ADVISED TO AVOID TURNING LEFT PRIOR TO DEPARTURE END OF RUNWAY. CTN, CRANE 1 POINT 6 NAUTICAL MILES, , AT 140 FEET AGL. CAUTION, BIRDS NEAR AIRPORT. ...ADVS YOU HAVE INFO E.\n[Departure ATIS] KOAK DEP ATIS O 1953Z OAK ATIS INFO O 1953Z. 28014KT 10SM FEW005 22/14 A2988 (TWO NINER EIGHT EIGHT). RNAV Z/VA RWY 30 ILS/VA RWY 28R. FLOW TO LAX, LAS, SAN. ILS RWY 30, OTS. UNN LIT CLOSE-IN OBSTACLES FOR RWY 30 DEPARTURES. RWY 30 DEPARTURES ARE ADVISED TO AVOID TURNING LEFT PRIOR TO DEPARTURE END OF RUNWAY. SIGNATURE UNI-COM OUT OF SERVICE. CAUTION, BIRDS NEAR AIRPORT. ...ADVS YOU HAVE INFO O.",
    "KDFW": "[Arrival ATIS] KDFW ARR ATIS E 0853Z DFW ARR INFO E 0853Z. 21013G21KT 10SM FEW075 28/23 A3001 (THREE ZERO ZERO ONE) RMK AO2 SLP152 T02780233 53002. ILS APCH TO RWYS, 13R, 17C. LDG RWY 17C EXP LAHSO TWY B 10460 FT AVAIL, LDG RWY 18R EXP LAHSO TWY B 10100 FT AVL. NOTICE TO AIRMEN. RWY 13L CLSD. RWY 17L CLSD. RWY 18L CLSD, WARNING, RWY 18L HAS BEEN SHORTENED, 9273 FT AVAILABLE. RWY 18L ILS OTS, CL OTS. RWY 18R CLSD. HAZD WX FOR DFW AVBL ON FSS. BIRD ACTIVITY VCNTY ARPT. ...ADVS YOU HAVE INFO E.\n[Departure ATIS] KDFW DEP ATIS Q 1153Z DFW DEP INFO Q 1153Z. 18009KT 10SM BKN014 BKN150 BKN250 26/23 A3009 (THREE ZERO ZERO NINER) RMK AO2 SLP180 T02610233 10261 20250 53004. SIMUL PARL TRAFFIC DEPG RWYS 17R, 18L. NOTICE TO AIRMEN. WARNING, RWY 18L HAS BEEN SHORTENED, 9273 FT AVAILABLE. BIRD ACTIVITY VCNTY ARPT. ...ADVS YOU HAVE INFO Q.",
    "KIAH": "[Arrival ATIS] KIAH ARR ATIS F 1453Z IAH ATIS INFO F 1453Z. 17006KT 10SM SCT022 SCT035 BKN250 31/25 A3012 (THREE ZERO ONE TWO) RMK AO2 SLP199 T03060250 53006. ARRIVALS EXPECT ILS OR RNAV Y RY 26R, ILS OR RNAV Y RY 26L, ILS OR RNAV Y RY 27. SIMUL APPROACHES IN USE. DEPG RY 15L, RY 15R. NOTICE TO AIRMEN. UNITED RAMP CONTROL IN EFFECT. BIRD ACTIVITY VICINITY ARPT. CRANES ARE DOWN. TWY SA CLSD BTN TWY, SF AND TWY SK , TWY SB CLSD BTN TWY, SF AND TWY SK , , TWY EA CLSD. NOTAM ATIS IN USE ON FREQUENCY 126.225. ...ADVS YOU HAVE INFO F.\n[Departure ATIS] KIAH DEP ATIS T 0353Z IAH ATIS INFO T 0353Z. 15007KT 10SM FEW035 FEW180 BKN250 27/23 A2996 (TWO NINER NINER SIX). ARRIVALS EXPECT ILS OR RNAV Y RY 8R, ILS OR RNAV Y RY 8L. DEPG RY 15R. NOTICE TO AIRMEN. UNITED RAMP CONTROL IN EFFECT. RY 15L, 33R CLSD. HAZD WX INFO FOR IAH AREA AVBL FM FSS. BIRD ACTIVITY VICINITY ARPT. CRANES ARE DOWN. TWY SA CLSD BTN TWY, SF AND TWY SK , TWY SB CLSD BTN TWY, SF AND TWY SK , , TWY WB CLSD BTN TWY, WG AND TWY WH . TWY EA CLSD. NOTAM ATIS IN USE ON FREQUENCY 126.225. ...ADVS YOU HAVE INFO T.",
    "KORD": "[Arrival ATIS] KORD ARR ATIS Y 1751Z ORD ATIS INFO Y 1751Z. 31011KT 270V330 10SM SCT036 SCT048 BKN080 BKN140 BKN250 29/23 A2987 (TWO NINER EIGHT SEVEN) RMK AO2 RAE04 SLP107 CB DSNT E-SE MOV SE P0000 60000 T0294\n[Departure ATIS] KORD DEP ATIS W 0151Z ORD ATIS INFO W 0151Z. 26007KT 10SM FEW045 BKN250 30/22 A2993 (TWO NINER NINER THREE) RMK AO2 SLP127 T03000217. ARR EXP VECTORS ILS RWY 27C APCH, ILS RWY 27R APCH, ILS RWY 28C",
    "KJFK": "[Arrival ATIS] KJFK ARR ATIS A 0851Z JFK ATIS INFO A 0851Z. 26003KT 1/4SM R04R/P6000FT BR SCT002 BKN006 OVC017 20/20 A2983 (TWO NINER EIGHT THREE) RMK AO2 SFC VIS 1 1/2 SLP100 T02000200 55008. APPROACH IN USE ILS RY 22L, ILS RY 22R. DEPG RY 22R. RWY 13L, 31R CLSD. RY 22L PAPI OTS, RWY 22L/4R INNER MARKER OTS.RWY 13L FLASHERS OTS. HAZD WX INFO FOR NY METRO AREA AVBL ON FSS. SWAP IN EFFECT EXPECT REROUTES. NUM CRANES OPERATING AT JFK. BIRD ACTIVITY VICINITY ARPT. READBACK ALL RWY ASSIGNMENTS AND HOLD SHORT INSTRUCTIONS. ...ADVS YOU HAVE INFO A.\n[Departure ATIS] KJFK DEP ATIS S 1251Z JFK ATIS INFO S 1251Z. 23011KT 4SM FU BKN035 BKN045 BKN150 BKN250 25/17 A2997 (TWO NINER NINER SEVEN) RMK AO2 SLP150 FU BKN035 T02500167. APPROACH IN USE ILS RY 22L, ILS RY 22R. DEPG RY 22R. RY 13L SFL OTS, RWY 22L/4R INNER MARKER OTS. SWAP IN EFFECT EXPECT REROUTES. NUM CRANES OPERATING AT JFK. BIRD ACTIVITY VICINITY ARPT. READBACK ALL RWY ASSIGNMENTS AND HOLD SHORT INSTRUCTIONS. ...ADVS YOU HAVE INFO S.",
    "KIND": "[Arrival ATIS] KIND ARR ATIS R 1354Z IND ATIS INFO R 1354Z. 27012KT 10SM FEW045 FEW100 SCT250 29/23 A2997 (TWO NINER NINER SEVEN) RMK CB DSNT N-NE MOV SE. PARL ILS RWY 23R AND 23L APPROACHES IN USE. CROSS RUNWAY OPERATIONS MAY BE IN EFFECT. NOTICE TO AIRMEN. TWY, P BTN TWY, H AND TWY B CLSD, TWY, P BTN TWY, H AND TWY J CLSD, TWY, H BTN TWY, R AND TWY N CLSD. P PAD CLSD. ILS RUNWAY 5R AND RUNWAY 5L INNER MARKER UNSERVICEABLE. ARPT ADZY FLOCK OF SMALL BIRDS IN THE VICINITY OF THE AIRPORT, ALT UNKN. ...ADVS YOU HAVE INFO R.\n[Departure ATIS] KIND DEP ATIS G 0254Z IND ATIS INFO G 0254Z. 03006KT 10SM SCT060 BKN110 BKN190 OVC250 28/22 A3007 (THREE ZERO ZERO SEVEN). PARL ILS RWY 5R AND 5L APPROACHES IN USE. CROSS RUNWAY OPERATIONS MAY BE IN EFFECT. NOTICE TO AIRMEN. TWY, P BTN TWY, H AND TWY B CLSD, TWY, P BTN TWY, H AND TWY J CLSD, TWY, H BTN TWY, R AND TWY N CLSD. P PAD CLSD. ILS RUNWAY 5R AND RUNWAY 5L INNER MARKER UNSERVICEABLE. HIWAS. ARPT ADZY FLOCK OF MEDIUM BIRDS IN THE VICINITY OF THE AIRPORT, ALT UNKN. ...ADVS YOU HAVE INFO G.",
    "KDTW": "[Arrival ATIS] KDTW ARR ATIS G 0753Z DTW ARR INFO G 0753Z. 00000KT 8SM FEW070 SCT220 14/11 A3007 (THREE ZERO ZERO SEVEN) RMK AO2 SLP181 T01440106. VISUAL RY 3R APCH IN USE. NOTICE TO AIRMEN. RWY 22R, 4L CLSD, RWY 22L, 4R CLSD, RWY 21R, 3L CLSD, RWY 27L, 9R CLSD, RWY 27R, 9L CLSD. PILOTS USE CTN FOR BIRD ACTIVITY. TWR AND GC COMB ON FREQ 118.4. DEPARTURE ATIS 118.125. ...ADVS YOU HAVE INFO G.\n[Departure ATIS] KDTW DEP ATIS N 0953Z DTW DEP INFO N 0953Z. 35003KT 1SM R03R/P6000FT FU SCT000 OVC027 22/16 A3004 (THREE ZERO ZERO FOUR) RMK AO2 TWR VIS 2 SLP167 FU SCT000 T02170161. DEPG RWY 4R. . RWY 4R DEPARTURE POINT IS Y 2, DISTANCE REMAINING IS 11, THOUSAND, 450, FT, FULL LENGTH AVAIL UPON REQ ;. NOTICE TO AIRMEN. RWY 21R, 3L CLSD, RWY 27L, 9R CLSD, RWY 27R, 9L CLSD. TWYS Y1 CLSD ;. PILOTS USE CTN FOR BIRD ACTIVITY. TWR AND GC COMB ON FREQ 135.0. ...ADVS YOU HAVE INFO N.",
    "KMSP": "[Arrival ATIS] KMSP ARR ATIS I 0853Z MSP ARR INFO I 0853Z. 14005KT 10SM FEW140 BKN170 18/09 A3018 (THREE ZERO ONE EIGHT) RMK AO2 SLP215 T01830089 51003. VISUAL RWY 12L APCH IN USE. FINAL APCH, OVER NOISE SENSITIVE AREA. NOTICE TO AIRMEN. RWYS 12R, 30L CLSD, RWYS 4, 22 CLSD. TWY R7. R8. R9. R10. CLOSED, TWY R BETWEEN R6 AND R10 CLOSED. GS RWY 12L OTS, RWYS 12R, 12L, INNER MARKER OTS.. HAZD WX INFO FOR MSP AREA AVBL FM FSS. CTN, BIRDS NEAR MSP. READ BACK HS AND ALT. ALL ACFT TAXI WITH TRANSPONDER AND ALTITUDE ENCODING ON. ...ADVS YOU HAVE INFO I.\n[Departure ATIS] KMSP DEP ATIS U 1453Z - KMSP DEP INFO U 1453Z. 32006G15KT 10SM FEW250 27/18 A2999 (TWO NINER NINER NINER) RMK AO2 SLP149 T02670178 50005. DEPARTING RWY 30L, RWY 30R. NOTICE TO AIRMEN. RWYS 4, 22 CLSD. TWY R7. R8. R9. R10. CLOSED. TWY R BTWN R6 AND R10 CLSD, TWY A7 CLSD, TWY A CLSD BTN TWY, A7 AND TWY D. ALL ACFT CTC METERING ON ONE THREE THREE POINT FIVE SEVEN WHEN READY TO PUSHBACK OR TAXI. HAZD WX INFO FOR MSP AREA AVBL FM FSS. CTN, BIRDS NEAR MSP. READ BACK HS AND ALT. ALL ACFT TAXI WITH TRANSPONDER AND ALTITUDE ENCODING ON. ...ADVS YOU HAVE INFO U.",
    "CYEG": "[Arrival ATIS] CYEG ARR ATIS C 1800Z CYEG ARR ATIS C 1800Z 29006KT 240V310 15SM FEW100 25/19 A2981 APCH RNAV Z OR Y RWY 20, INFORM ARRL OF REQ APCH ON INITIAL CTC. LDG AND DEP RWY 20. SIMUL APPROACHES MAY BE IN EFCT. INFORM CYEG ATC INFO C\n[Departure ATIS] CYEG DEP ATIS D 1900Z CYEG ARR ATIS D 1900Z 24007KT 220V300 15SM FEW024 26/20 A2981 APCH RNAV Z OR Y RWY 20, INFORM ARRL OF REQ APCH ON INITIAL CTC. LDG AND DEP RWY 20. SIMUL APPROACHES MAY BE IN EFCT. INFORM CYEG ATC INFO D",
    "EHAM": "[Arrival ATIS] EHAM ARR ATIS J 1850Z EHAM ARRIVAL INFO J. DEMAND. MAIN LANDING RWY 06. TRANSITION LEVEL 040. WIND 340 DEG, 11 KT, VRB BTN 300 AND 030 DEG, 21 KT MAX, 8 KT MNM. VIS 10 KM OR MORE. CLD FEW 2700 FT. T 17. DP 10. QNH 1017 HPA. NOSIG. OPERATIONAL REPORT. CONTACT APCH WITH CALLSIGN ONLY. END OF INFO J\n[Departure ATIS] EHAM DEP ATIS S 1850Z EHAM DEPARTURE INFO S. DEMAND. MAIN DEPARTURE RWY 36 L. SECONDARY DEPARTURE RWY 36 C. MAIN LANDING RWY 06. WIND 350 DEG, 9 KT, VRB BTN 310 AND 020 DEG, 17 KT MAX, 6 KT MNM. WIND SECONDARY RUNWAY 350 DEG, 13 KT, 16 KT MAX, 7 KT MNM. VIS 10 KM OR MORE. CLD FEW 2700 FT. T 17. DP 10. QNH 1017 HPA. OPERATIONAL REPORT. INDEPENDENT PARALLEL DEPARTURES IN PROGRESS CHECK CORRECT SID IN FMS. INFORM SCHIPHOL DEL BY VOICE IF UNABLE TO COMPLY WITH NADP 2. END OF INFO S",
    "EBBR": "[Arrival ATIS] EBBR ARR ATIS M 0850Z EBBR NAT, EXP VECT FOR ILS APP ARR RWY25L RSCD AT 0720 RWY25L DRY. DEP RWY25R TRL 055 TWY OUTER 6 B3 CLSD. ILS 25R U/S. RNP 25R ATC DISCRETION 340/1KT VRB BTN 310 AND 060 CAVOK T22 DP18 QNH 1023HPA NOSIG CFM ARR M\n[Departure ATIS] EBBR DEP ATIS B 1720Z EBBR NAT, DEP RWY25R RSCD AT 1139 RWY25R DRY. ARR RWY25R TRL 055 B3 CLSD, RWY 19 CLSD WIP 320/10KT VRB BTN 290 AND 350 MNM4 MAX18 VIS ABV 10KM FEW3400FT BKN4900FT T18 DP11 QNH 1017HPA NOSIG CFM DEP B",
    "EDDF": "[Arrival ATIS] EDDF ARR ATIS W 1750Z ARR-ATIS EDDF W METAR 181750 EXPECT INDEPENDENT PARALLEL ILS Y APCH RWY 25R OR ILS APCH RWY 25L RWY 25R 25L GLS APCH ON REQUEST , DO NOT MISTAKE TWY M FOR RWY 25C WHEN PERFORMING VISUAL APPROACH , RWY COND AT TIME 1703 : ALL RWYS DRY , RWYCC 6 , TRL 70 VRB08KT CAVOK T21 DP15 QNH1013 TREND TEMPO SHRA BKN030CB END OF ATIS W\n[Departure ATIS] EDDF DEP ATIS I 1520Z DEP-ATIS EDDF I METAR 181520 RWY 25C 18 TRL 70 28006KT 210V330 RWY18 VRB03KT 9999 VCSH FEW///TCU T28 DP10 QNH1013 TREND TEMPO SHRA BKN030CB END OF ATIS I",
    "EDDL": "[Arrival ATIS] EDDL ARR ATIS X 1820Z ATIS EDDL X METAR 181820 EXPECT VECTORS ILS APPROACH RWY 23L TRL 60 EXPECT INTENSE BIRD ACTIVITY IN THE VICINITY OF RWY SYSTEM 30010KT 280V340 CAVOK T20 DP10 QNH1015 TREND NOSIG\n[Departure ATIS] EDDL DEP ATIS R EDDL ARR/DEP DATIS RPT -ATIS EDDL R METAR 020550 -EXPECT VECTORS ILS APPROACH -RWY 23L -TWY L8 CLOSED BETWEEN TWY M AND RWY 23L -TRL 60 - -23010KT -CAVOK - - -T19 DP13 -QNH1020 - -TREND NOSIG",
    "EDDK": "[Arrival ATIS] EDDK ATIS A 1450Z -ATIS EDDK A METAR 181450 -EXPECT ILS APCH -RWY 31R 24 -RWY COND RWY 31R AT TIME 1315 RWYCC 6 DEPOSIT TOTAL RWY DRY RWY 24 AT TIME 1315 RWYCC 6 DEPOSIT TOTAL RWY DRY -TRL 60 -RWY 13R AND RWY 31L CLOSED FOR DEPARTURE AND LANDING: TAXIING BTN THR RWY 13R AND INTERSECTION RWY 24 POSSIBLE : -32012KT 290V350 -9999 - -FEW045 -T25 DP13 -QNH1015 - -TREND NOSIG\n[Departure ATIS] EDDK DEP ATIS E 2050Z -ATIS EDDK E METAR 142050 -EXPECT CDO FOR ILS APCH RWY 31R -RWY 31R 06 -RWY COND RWY 31R AT TIME 1837 RWYCC 6 DEPOSIT TOTAL RWY DRY RWY 06 AT TIME 1837 RWYCC 6 DEPOSIT TOTAL RWY DRY -TRL 60 -RWY 13R AND RWY 31L CLOSED FOR DEPARTURE AND LANDING: TAXIING BTN THR RWY 13R AND INTERSECTION RWY 24 POSSIBLE : -02006KT 350V050 -CAVOK - - -T23 DP14 -QNH1018 - -TREND NOSIG",
    "EBLG": "[Arrival ATIS] EBLG ATIS A 1920Z EBLG INFO, EXP RNAV TO ILS APP ARR RWY22L DEP RWY22L RWY 22L DRY, RWYCC 666. TRL 055 ADZ ON GND FREQ IF UNABLE C4 330/8KT MNM6 MAX15 VIS ABV 10KM FEW4000FT T18 DP10 QNH 1017HPA NOSIG CFM ATIS A",
    "LSZH": "[Arrival ATIS] LSZH ARR ATIS D 1920Z ARRIVALS, EXP ILS APCH, RWY 14. RWY COND REPORT. RWY COND CODE 5, 5, 5. COVERAGE 100 PER CENT, 100 PER CENT, 100 PER CENT. DEPTH NR, NR, NR. WET AND WET AND WET. RWY REPORT END. TRL 70. DEP RWY 28. WIND 130 DEG, 3 KT. VIS 10 KM OR MORE, TDZ 10 KM OR MORE. CLD FEW TCU 6000 FT. T 18. DP 17. QNH 1016. NOSIG.\n[Departure ATIS] LSZH DEP ATIS O 1850Z DEP RWY 28. RWY COND REPORT. RWY 28. RWY COND CODE 5, 5, 5. COVERAGE 100 PER CENT, 100 PER CENT, 100 PER CENT. DEPTH NR, NR, NR. WET AND WET AND WET. RWY 16. RWY COND CODE 5, 5, 5. COVERAGE 100 PER CENT, 100 PER CENT, 100 PER CENT. DEPTH NR, NR, NR. WET AND WET AND WET. RWY REPORT END. TRL 70. ARRIVALS, EXP ILS APCH, RWY 14. TMA S 1 IS ACT. TMA S 2 AND S 3 ARE ACT. WIND 150 DEG, 4 KT. VIS 10 KM OR MORE. CLD FEW CB 6000 FT. T 18. DP 17. QNH 1016. RETSRA. NOSIG.",
    "LIMC": "[Arrival ATIS] LIMC ARR ATIS L 1855Z LIMC ARR L 1855Z I.L.S. ZULU RWY IN USE 35R TL 75 WIND TDZ VRB1KT VIS 10KM FBL TSRA CLD SCT CB 7000FT T30 DP18 QNH 1009HPA QFE 0984HPA\n[Departure ATIS] LIMC DEP ATIS R 0950Z LIMC DEP R 0950Z RWY IN USE 35R TL 75 WIND END 080/6KT VRB BTN 050/AND 150/ CAVOK T31 DP18 QNH 1012HPA QFE 0987HPA DATALINK CLEARANCE AVAILABLE.... CONTACT 1 3 1 8 8 0 TO BE RELEASED BY THE AIRPORT OPERATOR ...",
    "LIRF": "[Arrival ATIS] LIRF ARR ATIS Y 0850Z LIRF ARR Y 0850Z RWY 16L ILS W RWY 16R ILS Z RWY IN USE 16L 16R TL 70 DEPENDENT PARL ILS APCH INPR RWY IN USE 16R OR 16L ASSIGNED BY ROME RADAR WIND RWY 16L TDZ VRB5KT RWY 16R TDZ 270/8KT CAVOK T32 DP18 QNH 1017HPA RRSM\n[Departure ATIS] LIRF DEP ATIS W 1350Z LIRF DEP W 1350Z RWY IN USE 25 TL 75 RWYS IN USE FOR ARR 16L AND 16R WIND END 270/9KT CAVOK T32 DP24 QNH 1011HPA REA IS SENT AUTOMATICALLY ONCE RLSD BY RAMP WHEN READY CONTACT FIUME RAMP 121.725 RRSM",
    "EINN": "[Arrival ATIS] EINN ARR ATIS C 0900Z EXPECT I L S CATEGORY 1 LDG RWY24 TKOF RWY24 TRL FL060 VRB05KT 9999 FEW040 20/13 QNH Q1020 TREND NOSIG ADVISE AT FIRST CONTACT YOU HAVE ATIS INFO C",
    "EGLL": "[Arrival ATIS] EGLL ARR ATIS F 1850Z LANDING RWY 09L TRANSITION-LEVEL: FL 70 RUNWAY 09L REDUCED DECLARED DISTANCES IF STAND GUIDANCE IS OFF OR FAILS, REMAIN ON THE TAXIWAY CENTRELINE AND ADVISE ATC AUTO 04009KT 020V080 9999 NCD 21/09 Q1020 ACKNOWLEDGE RECEIPT OF INFORMATION F\n[Departure ATIS] EGLL DEP ATIS V 1950Z DEPARTURE RWY 09R RUNWAY 09L REDUCED DECLARED DISTANCES PILOTS THAT ARE IN RECEIPT OF DATALINK CLEARANCES ARE REMINDED THEY MUST CONTACT DELIVERY ON 121.980 WHEN READY FOR START DATALINK CLEARANCES NOT AVAILABLE FOR CPT DEPARTURES AUTO 04011KT 010V070 9999 NCD 20/10 Q1020 ACKNOWLEDGE RECEIPT OF INFORMATION V AND REPORT AIRCRAFT TYPE AND CURRENT QNH ON FIRST CONTACT WITH HEATHROW",
    "EPWA": "[Arrival ATIS] EPWA ARR ATIS G 1226Z EPWA ARR G. TIME 1224. EXP N ARR ILS Z APCH FOR RWY 11. TRANSITION LEVEL 80. WIND 200 DEG, 3 KT, VRB BTN 110 AND 230 DEG. CAVOK. T 30. DP 15. QNH 1013. NOSIG. CAUTION. BIRD ACT. END OF EPWA ARR G\n[Departure ATIS] EPWA DEP ATIS N 1431Z EPWA DEP N. TIME 1430. DEP RWY 29. ARR RWY 33, EXP U ARR ILS Z. REPORT READY FOR STARTUP ON DELIVERY 121 DECIMAL 605. TRANSITION LEVEL 80. WIND 270 DEG, 15 KT. VIS MID 10 KM OR MORE. CLD FEW TCU 4000 FT, CLD SCT 4200 FT. T 25. DP 17. QNH 1009. TREND TEMPO WIND 260 DEG, 15 KT, GUSTING TO 27 KT, CLD SCT CB 4000 FT. CAUTION. BIRD ACT. END OF EPWA DEP N",
    "EFHK": "[Arrival ATIS] EFHK ARR ATIS C 1750Z EXPECT ILS APCH ARR RWY 15 RUNWAY 15 CONDITION REPORT AT 1747 UTC RUNWAY CONDITION CODES 5 , 5 , 5 CONTAMINANTS ALL PARTS 100 PERCENT WET TRL 65 WIND 200 DEG 7 KT VIS 10KM FBL SHRA SCT CB 6000 FT T 21 DP 17 QNH 1002 TEMPO VIS 6KM MOD SHRA ACK INFO C\n[Departure ATIS] EFHK DEP ATIS B 1120Z DEP RWY 22R RUNWAY 22R CONDITION REPORT AT 0809 UTC RUNWAY CONDITION CODES 6 , 6 , 6 CONTAMINANTS ALL PARTS DRY WIND 150 DEG 14 KT VIS 10KM FEW TCU 6000 FT T 24 DP 16 QNH 1005 NOSIG ACK INFO B",
    "LTAC": "[Arrival ATIS] LTAC ARR ATIS G 0750Z EXP ILS V APCH 03C DEP RWY 03L RWY 03C WIND 050 DEG 12 KT VRB BTN 010 DEG AND 110 DEG RWY 03L WIND 040 DEG 12 KT VRB BTN 360 DEG AND 070 DEG TRL 110 CAVOK T 20 DP 08 QNH 1016 NOSIG FOR DELIVERY CTC 121.9. FOR DELIVERY FIRST USE DIGITAL DEP CLR. CTN BIRD HAZARD OVR AERODROME. APCH FREQUENCY 129.050. TAXIWAY ECHO 1 IS CLOSED. END OF ATIS G",
    "UBBB": "[Arrival ATIS] UBBB ARR ATIS X 0830Z ATIS X EXP ILS/ LDG 16 17 DEP 16 17 IN USE RWY 16 CLEAR DRY 70 RWY 17 CLEAR DRY 70 TLVL 110 WIND WIND RWY 16 180 12 KT SPD MAX 18 MIN 8 WIND RWY 17 150 14 KT SPD MAX 16 MIN 10 VIS CAVOK T 29 / DP 12 QNH 1015 HPA TREND TREND NOSIG MODERATE BIRDS ACT IN VICINITY OF AP END OF ATIS X\n[Departure ATIS] UBBB DEP ATIS V 0800Z ATIS V EXP ILS/ LDG 16 17 DEP 16 17 IN USE RWY 16 CLEAR DRY 70 RWY 17 CLEAR DRY 70 TLVL 110 WIND WIND RWY 16 150 12 KT SPD MAX 14 MIN 8 WIND RWY 17 170 12 KT SPD MAX 16 MIN 6 VIS 10 KM FEW HEIGHT OF CLD BASE NOT AVBL RWY 16 FEW 2700 FT RWY 17 T 28 / DP 13 QNH 1015 HPA TREND TREND NOSIG MODERATE BIRDS ACT IN VICINITY OF AP END OF ATIS V",
    "ZWWW": "[Arrival ATIS] ZWWW ARR ATIS X 0900Z EXP ILSDME Z APCH LDG RWY 26R TA 3000 WIND 300/7MPS VIS 9999M CLD FEW TCU 1200M T 31 /DP 05 QNH 1007 HPA ADZ YOU HAVE INFO X.\n[Departure ATIS] ZWWW DEP ATIS S 0800Z DEP RWY 26L TA 3000 WIND 310/7MPS VRB BTN 280/ AND 350/ CAVOK T 32 /DP 06 QNH 1006 HPA ADZ YOU HAVE INFO S.",
    "ZLXY": "[Arrival ATIS] ZLXY ARR ATIS D 0900Z EXP ILS APCH LDG RWY 05L & 06R WIND 120/2MPS VRB BTN 060/ AND 190/ VIS 9999M CLD FEW 1200M T 28 /DP 19 QNH 1006 HPA VISUAL APPROACH IN PROGRESS ADZ YOU HAVE INFO D.\n[Departure ATIS] ZLXY DEP ATIS X 0300Z DEP RWY 05L & 06L WIND 060/4MPS VIS 9999M CLD FEW 2100M T 26 /DP 18 QNH 1007 HPA VISUAL APPROACH IN PROGRESS ADZ YOU HAVE INFO X.",
    "ZBAA": "[Arrival ATIS] ZBAA ARR ATIS L 0900Z EXP ILS APCH DEPENDENT PARL INSTR APCH LDG RWY 36L & 36R & 01 WIND VRB DEG 1 MPS VIS 9999 CLD FEW TCU 1200M T 26 /DP 18 QNH 1006 HPA ADZ YOU HAVE INFO L.\n[Departure ATIS] ZBAA DEP ATIS C 0530Z DEP RWY 36L & 36R & 01 WIND VRB DEG 2 MPS CAVOK T 27 /DP 15 QNH 1007 HPA RWY INDEPENDENT PARALLEL DEP ADZ YOU HAVE INFO C.",
    "ZBHH": "[Arrival ATIS] ZBHH ARR ATIS Q 0700Z EXP ILSDME APCH LDG RWY 26 TA 3000 /TRL 3600 WIND 350/6MPS VRB BTN 320/ AND 040/ CAVOK T 26 /DP 04 QNH 1009 HPA ADZ YOU HAVE INFO Q.\n[Departure ATIS] ZBHH DEP ATIS Q 1500Z DEP RWY 08 TA 3000 /TRL 3600 WIND 140/2MPS VIS 5000M BR NSC T 19 /DP 19 QNH 1007 HPA ADZ YOU HAVE INFO Q.",
    "ZSQD": "[Arrival ATIS] ZSQD ARR ATIS E 0900Z EXP ILSDME APCH LDG RWY 17 TA 3000 /TRL 3600 WIND 180/6MPS VIS 9999M CLD FEW 990M T 26 /DP 17 QNH 1008 HPA SEGREGATED OPERATION VISUAL APPROACH OPERATION IN PROGRESS. RUNWAY 17,IF MISSED APPROACH,EXPECT FOLLOW THE STANDARD MISSED APPROACH PROCEDURE,CLIMB TO 900M ON QNH OR BY ATC CAUTION MAYBE THERE IS A FLOCK OF BIRDS IN THE VICINITY OF AIRPORT ADZ YOU HAVE INFO E.\n[Departure ATIS] ZSQD DEP ATIS V 0000Z DEP RWY 16 TA 3000 /TRL 3600 WIND 110/4MPS VRB BTN 080/ AND 140/ VIS 9999M CLD SCT 600M T 24 /DP 19 QNH 1008 HPA SEGREGATED OPERATION VISUAL APPROACH OPERATION IN PROGRESS. RUNWAY 17,IF MISSED APPROACH,EXPECT FOLLOW THE STANDARD MISSED APPROACH PROCEDURE,CLIMB TO 900M ON QNH OR BY ATC CAUTION MAYBE THERE IS A FLOCK OF BIRDS IN THE VICINITY OF AIRPORT ADZ YOU HAVE INFO V."
  },
  "windtemp_alaska": "\n000\nFBAK31 KWNO 181359\nFD1AK1\nDATA BASED ON 181200Z    \nVALID 181800Z   FOR USE 1400-2100Z. TEMPS NEG ABV 24000\n\nFT  3000    6000    9000   12000   18000   24000  30000  34000  39000\nADK 3318 3323+03 3329-02 3233-07 3350-18 3377-26 840936 841845 841349\nADQ 1725 1928+02 2128-03 2239-08 2148-15 2156-27 226741 227149 225254\nAKN 1633 1726+00 1727-05 1620-08 1923-19 2047-30 208244 218649 204146\nANC 1608 1519+00 1520-06 1717-10 2335-17 2353-27 236942 237350 234950\nANN 3213 3110+05 3014+03 2915-01 3018-15 3231-27 335442 334749 302249\nBET 1314 1011-02 0914-07 1113-11 1617-22 1824-34 193246 182643 181641\nBRW 0820 0921+02 0823-03 0818-09 0922-20 1126-31 083148 093148 102141\nBTI 0606 9900+04 2205-01 1909-06 1621-18 1533-29 165342 165750 163347\nBTT 9900 9900+02 9900-04 1705-10 1614-24 1813-35 201946 171843 161740\nCDB 1917 2015-02 2020-05 2025-09 2027-21 2041-32 205240 204040 212640\nCZF 0408 0309+00 0512-06 0516-12 0513-24 0505-36 990047 040542 050839\nEHM 1023 1219-02 1319-04 1421-10 1631-22 1743-34 184745 183341 181940\nFAI 1908 1509+02 1512-04 1411-10 1614-22 2320-31 233746 233546 202342\nFYU 2709 2305+03 9900-03 9900-08 1718-21 1637-34 154046 172944 172242\nGAL 1711 1713+00 1713-06 1713-13 1819-24 1925-34 202847 192044 171440\nGKN 1714 1818+01 1818-05 1916-09 2223-18 2441-26 256143 257050 243348\nHOM 1516 1717-01 1918-05 2122-08 2238-16 2352-27 226941 227050 225653\nJNU 2407 2806+01 2714+02 2616-02 2822-15 3139-27 315441 315551 291948\nLUR 0816 0714+02 0616-03 0621-09 0629-21 0539-32 045346 053948 052041\nMCG 1408 1508-01 1212-06 1314-12 1919-21 2236-33 213848 213445 202341\nMDO 2011 1910-01 2017-03 2326-05 2440-16 2438-26 244341 244850 244655\nOME 1210 1208+01 0705-05 0308-12 0515-24 0520-36 052145 051341 050939\nORT      2808+03 2308-03 2210-08 2217-18 2627-29 276043 285849 242546\nOTZ 1216 1216+00 1018-05 0819-10 0721-24 0627-36 063045 062342 071439\nSNP 3627 0126-03 0128-07 3630-12 3630-23 3529-34 353545 353641 353239\nTKA 9900 1512+00 1615-06 1816-11 1921-20 2240-28 237043 237749 223646\nUNK 1810 1916+00 1913-06 1709-12 1709-25 2019-36 212546 181142 150939\nYAK 2405 2506+01 2609-03 2614-04 2726-15 2939-26 284341 284750 283753\nIKO 3340 3336-02 3341-06 3341-11 3235-22 3229-34 323143 323638 323139\nAFM 1410 1414+00 1416-05 1418-11 1220-25 1220-36 121846 121442 121139\n5AB 2610 3119+09 3225+05 3336+01 3350-11 3356-18 336732 337842 338353\n5AC 3218 3121+07 3121+04 3124+00 3035-12 3037-24 312740 323750 323558\n5AD 2114 2420+05 2524+02 2528-02 2523-13 2428-24 243440 253049 232259\n5AE 1830 2037+04 2039-01 2044-06 2149-14 2155-25 216841 217349 216454\n5AF 3014 3015+05 2916+02 2918-03 3030-13 2929-25 292740 303050 303757\n5AG 2613 2711+02 2616-01 2722-04 2730-14 2736-26 263740 263949 263956\n",
  "vaac_tokyo": [
    {
      "id": "20260718_30027000_0268",
      "year": "2026",
      "volcano": "Sheveluch",
      "psn": "N5639 E16122",
      "issued": "20260718",
      "text": "FVFE01 RJTD 180000\nVA ADVISORY\nDTG: 20260718/0000Z\nVAAC: TOKYO\nVOLCANO: SHEVELUCH 300270\nPSN: N5639 E16122\nAREA: RUSSIA\nSOURCE ELEV: 3283M AMSL\nADVISORY NR: 2026/268\nINFO SOURCE: KVERT HIMAWARI-9\nERUPTION DETAILS: VA CONTINUOUSLY OBS IN SATELLITE IMAGERY\nOBS VA DTG: 17/2320Z\nOBS VA CLD: SFC/FL290 N5601 E16322 - N5605 E16357 - N5546 E16401 - \nN5544 E16326 MOV SE 25KT\nFCST VA CLD +6 HR: 18/0520Z SFC/FL300 N5529 E16617 - N5404 E16714 - \nN5357 E16639 - N5527 E16530\nFCST VA CLD +12 HR: 18/1120Z SFC/FL300 N5352 E17006 - N5152 E17037 - \nN5152 E16936 - N5344 E16817\nFCST VA CLD +18 HR: NO VA EXP\nRMK: SOME PART OF VA OBSCURED BY MET CLOUD.\nNXT ADVISORY: 20260718/0600Z=",
      "img_url": "https://ds.data.jma.go.jp/svd/vaac/data/VAGFN/2026/Images/20260718_30027000_0268_QH21_01.png",
      "sat_img_url": "https://ds.data.jma.go.jp/svd/vaac/data/Sat/2026/Images/30027000/09-ir/20260717_2320_202607180000_ir.png",
      "text_url": "https://ds.data.jma.go.jp/svd/vaac/data/TextData/2026/20260718_30027000_0268_Text.html"
    },
    {
      "id": "20260717_27303000_0761",
      "year": "2026",
      "volcano": "Mayon",
      "psn": "N1315 E12341",
      "issued": "20260717",
      "text": "FVFE01 RJTD 172222\nVA ADVISORY\nDTG: 20260717/2222Z\nVAAC: TOKYO\nVOLCANO: MAYON 273030\nPSN: N1315 E12341\nAREA: PHILIPPINES\nSOURCE ELEV: 2462M AMSL\nADVISORY NR: 2026/761\nINFO SOURCE: HIMAWARI-9 PHIVOLCS\nERUPTION DETAILS: ERUPTION AT 20260717/2208Z FL100 EXTD SSE REPORTED\nOBS VA DTG: 17/2210Z\nOBS VA CLD: VA NOT IDENTIFIABLE FM SATELLITE DATA WIND FL100 360/6KT\nFCST VA CLD +6 HR: NOT AVBL\nFCST VA CLD +12 HR: NOT AVBL\nFCST VA CLD +18 HR: NOT AVBL\nRMK: WE WILL ISSUE FURTHER ADVISORY IF VA IS DETECTED IN SATELLITE \nIMAGERY.\nNXT ADVISORY: NO FURTHER ADVISORIES=",
      "img_url": "https://ds.data.jma.go.jp/svd/vaac/data/VAGFN/2026/Images/20260717_27303000_0761_QH21_01.png",
      "sat_img_url": null,
      "text_url": "https://ds.data.jma.go.jp/svd/vaac/data/TextData/2026/20260717_27303000_0761_Text.html"
    },
    {
      "id": "20260717_27307000_0014",
      "year": "2026",
      "volcano": "Taal",
      "psn": "N1400 E12100",
      "issued": "20260717",
      "text": "FVFE01 RJTD 171113\nVA ADVISORY\nDTG: 20260717/1113Z\nVAAC: TOKYO\nVOLCANO: TAAL 273070\nPSN: N1400 E12100\nAREA: PHILIPPINES\nSOURCE ELEV: 311M AMSL\nADVISORY NR: 2026/14\nINFO SOURCE: HIMAWARI-9 PHIVOLCS\nERUPTION DETAILS: ERUPTION AT 20260717/1051Z FL040 EXTD E REPORTED\nOBS VA DTG: 17/1100Z\nOBS VA CLD: VA NOT IDENTIFIABLE FM SATELLITE DATA WIND FL040 270/8KT\nFCST VA CLD +6 HR: NOT AVBL\nFCST VA CLD +12 HR: NOT AVBL\nFCST VA CLD +18 HR: NOT AVBL\nRMK: WE WILL ISSUE FURTHER ADVISORY IF VA IS DETECTED IN SATELLITE \nIMAGERY.\nNXT ADVISORY: NO FURTHER ADVISORIES=",
      "img_url": "https://ds.data.jma.go.jp/svd/vaac/data/VAGFN/2026/Images/20260717_27307000_0014_QH21_01.png",
      "sat_img_url": null,
      "text_url": "https://ds.data.jma.go.jp/svd/vaac/data/TextData/2026/20260717_27307000_0014_Text.html"
    },
    {
      "id": "20260713_28208001_0083",
      "year": "2026",
      "volcano": null,
      "psn": "N3136 E13039",
      "issued": "20260713",
      "text": "FVFE01 RJTD 130254\nVA ADVISORY\nDTG: 20260713/0254Z\nVAAC: TOKYO\nVOLCANO: SAKURAJIMA (AIRA CALDERA) 282080\nPSN: N3136 E13039\nAREA: JAPAN\nSOURCE ELEV: 1117M AMSL\nADVISORY NR: 2026/83\nINFO SOURCE: JMA HIMAWARI-9\nERUPTION DETAILS: ERUPTED AT 20260713/0152Z FL100 EXTD N\nOBS VA DTG: 13/0230Z\nOBS VA CLD: SFC/FL100 N3136 E13039 - N3142 E13040 - N3141 E13044 - \nN3134 E13042 MOV NE 15KT\nFCST VA CLD +6 HR: 13/0830Z SFC/FL100 N3234 E13121 - N3145 E13155 - \nN3202 E13110 - N3227 E13051\nFCST VA CLD +12 HR: 13/1430Z SFC/FL100 N3318 E13206 - N3142 E13317 - \nN3134 E13226 - N3312 E13118\nFCST VA CLD +18 HR: NO VA EXP\nRMK: NIL\nNXT ADVISORY: 20260713/0600Z=",
      "img_url": "https://ds.data.jma.go.jp/svd/vaac/data/VAGFN/2026/Images/20260713_28208001_0083_QH21_01.png",
      "sat_img_url": "https://ds.data.jma.go.jp/svd/vaac/data/Sat/2026/Images/28208001/09-ir/20260713_0230_202607130254_ir.png",
      "text_url": "https://ds.data.jma.go.jp/svd/vaac/data/TextData/2026/20260713_28208001_0083_Text.html"
    }
  ],
  "vaac_alaska": [
    {
      "text": "\n000\nFVAK21 PAWU 180008\nVAAAK1\nVA ADVISORY\n\nDTG: 20260718/0000Z\n\nVAAC: ANCHORAGE\n\nVOLCANO: SHEVELUCH 300270\n\nPSN: N5639 E16122\n\nAREA: KAMCHATKA PENINSULA\n\nSOURCE ELEV: 10771 FT AMSL\n\nADVISORY NR: 2026/205\n\nRMK: PLEASE SEE FVFE01 RJTD ISSUED BY VAAC TOKYO WHICH DESCRIBES\nCONDITIONS NEAR THE VAAC ANCHORAGE AREA OF RESPONSIBILITY...BS\n\n\n\n",
      "issued": "2026-07-18T00:08:00+00:00",
      "volcano": "Sheveluch",
      "psn": "N5639 E16122"
    }
  ]
}