{
  "updated_utc": "2026-07-20T20:15Z",
  "metar": {
    "RJAA": "METAR RJAA 201830Z AUTO 18002KT 9999 NCD 25/24 Q1008 NOSIG",
    "PANC": "METAR PANC 201853Z 00000KT 5SM -RA BR FEW007 SCT014 OVC075 13/12 A3005 RMK AO2 SLP176 P0007 T01280122",
    "PAFA": "METAR PAFA 201853Z 00000KT 10SM SCT140 BKN170 OVC200 22/11 A2992 RMK AO2 SLP133 T02170106 $",
    "PAED": "METAR PAED 201855Z 05006KT 5SM -RA BKN004 OVC036 13/12 A3003 RMK AO2A BKN V OVC SLP165 P0008 T01300117 $",
    "KSEA": "METAR KSEA 201853Z COR 00000KT 10SM FEW220 BKN250 23/13 A2999 RMK AO2 SLP157 T02330133 $",
    "ZSPD": "METAR ZSPD 201830Z 03002MPS 300V070 9999 BKN016 29/27 Q1004 NOSIG",
    "ZSSS": "METAR ZSSS 201830Z 16001MPS 9999 -RA NSC 27/26 Q1003 NOSIG",
    "RJFR": "METAR RJFR 201900Z AUTO 32004KT 9999 FEW008 27/25 Q1008",
    "VHHH": "METAR VHHH 201830Z 19011KT 9999 FEW010 SCT028 29/26 Q1006 NOSIG",
    "RCTP": "METAR RCTP 201830Z 17003KT 9999 FEW015 SCT045 28/24 Q1008 NOSIG RMK A2978",
    "ZGSZ": "METAR ZGSZ 201900Z 14004MPS 9999 BKN033 29/26 Q1006 NOSIG",
    "WSSS": "METAR WSSS 201830Z VRB02KT 7000 FEW016 FEW018TCU SCT040 27/25 Q1011 NOSIG",
    "WMKK": "METAR WMKK 201830Z VRB02KT 8000 FEW010 FEW017CB 26/25 Q1011 NOSIG",
    "WIDD": "METAR WIDD 201830Z VRB01KT 9000 FEW013CB FEW014 26/25 Q1012 NOSIG RMK CB TO SW AND W",
    "VTBS": "METAR VTBS 201830Z 21007KT 9999 FEW020 30/25 Q1009 NOSIG",
    "VTBU": "METAR VTBU 201830Z 20008KT 9999 FEW020 29/29 Q1009 NOSIG",
    "ROAH": "METAR ROAH 201830Z AUTO 24007KT 9999 FEW008 28/27 Q1009",
    "VVDN": "METAR VVDN 201830Z 22001KT 9999 FEW020 28/22 Q1007 NOSIG",
    "RCKH": "METAR RCKH 201900Z 09003KT 060V120 9000 VCSH FEW015 SCT020 BKN035 28/25 Q1008 NOSIG RMK A2979",
    "KLAX": "METAR KLAX 201853Z 25011G19KT 10SM FEW009 SCT025 BKN120 BKN180 26/18 A2994 RMK AO2 SLP137 T02610183 $",
    "KONT": "METAR KONT 201853Z 00000KT 10SM SCT150 BKN190 BKN250 31/12 A2996 RMK AO2 SLP125 VIRGA DSNT SW ACC DSNT E T03110122 $",
    "KSFO": "METAR KSFO 201856Z 32010KT 10SM FEW006 SCT013 BKN100 19/14 A2996 RMK AO2 RAB08E17 SLP144 P0000 T01890144",
    "KOAK": "METAR KOAK 201853Z 29004KT 10SM FEW035 BKN100 BKN140 19/15 A2997 RMK AO2 RAB14E48 SLP148 P0000 T01940150",
    "KMHR": "METAR KMHR 201835Z AUTO 23009KT 9SM CLR 29/09 A2992 RMK AO2 T02880093 $",
    "KDFW": "METAR KDFW 201853Z 13003KT 10SM SCT050 36/20 A2991 RMK AO2 SLP119 T03560200 $",
    "KIAH": "METAR KIAH 201853Z 30004KT 10SM FEW250 34/23 A2995 RMK AO2 SLP141 T03390228",
    "KORD": "METAR KORD 201851Z 21012G19KT 7SM FEW035 BKN110 BKN180 OVC250 25/18 A2986 RMK AO2 SLP109 T02500178",
    "KJFK": "METAR KJFK 201851Z 20009KT 10SM FEW060 SCT250 25/13 A3000 RMK AO2 SLP160 T02500128 $",
    "KRFD": "METAR KRFD 201854Z 17010KT 5SM FU FEW012 SCT150 OVC230 23/21 A2984 RMK AO2 RAE00 SLP102 P0001 T02330211",
    "KIND": "METAR KIND 201854Z 27009KT 7SM SCT042 OVC250 30/18 A2993 RMK AO2 SLP127 HZ ALF T03000178",
    "KDTW": "METAR KDTW 201853Z 19011KT 7SM FEW050 OVC200 26/14 A2993 RMK AO2 SLP131 T02610144",
    "KMSP": "METAR KMSP 201853Z 23014G21KT 10SM BKN028 BKN036 30/23 A2970 RMK AO2 SLP050 T03000233",
    "CYEG": "SPECI CYEG 201853Z 34007KT 310V010 6SM FU BKN014TCU BKN031 19/16 A3018 RMK TCU6SC1 SC TR SLP225 DENSITY ALT 3100FT",
    "EHAM": "METAR EHAM 201825Z 33011KT 310V010 9999 FEW038 18/10 Q1025 NOSIG",
    "EBBR": "METAR EBBR 201820Z 34009KT 310V010 CAVOK 19/10 Q1024 NOSIG",
    "EDDF": "METAR EDDF 201820Z AUTO 01008KT CAVOK 20/07 Q1022 NOSIG",
    "EDFH": "METAR EDFH 201820Z 02009KT CAVOK 16/07 Q1024",
    "EDDL": "METAR EDDL 201820Z AUTO VRB02KT CAVOK 20/09 Q1023 NOSIG",
    "EDDK": "METAR EDDK 201820Z AUTO 34003KT 310V040 CAVOK 19/10 Q1023 NOSIG",
    "EBLG": "METAR EBLG 201820Z 34005KT CAVOK 20/07 Q1024 NOSIG",
    "LSZH": "METAR LSZH 201820Z 08003KT 060V120 9999 FEW065 24/08 Q1019 NOSIG",
    "LIMC": "METAR LIMC 201820Z 19004KT CAVOK 29/15 Q1013 NOSIG",
    "LIRF": "METAR LIRF 201820Z 26006KT CAVOK 29/24 Q1013 NOSIG",
    "EINN": "METAR EINN 201830Z 35011KT 9999 FEW033 20/13 Q1030 NOSIG",
    "EGLL": "METAR EGLL 201820Z AUTO 03006KT 340V070 9999 NCD 25/05 Q1025",
    "EGSS": "METAR EGSS 201820Z AUTO 12010KT 090V160 9999 NCD 21/11 Q1026",
    "EPWA": "METAR EPWA 201830Z 23005KT 9999 FEW040CB 17/12 Q1014 TEMPO 4000 SHRA",
    "UHPP": "METAR UHPP 201830Z 13002MPS 9999 -SHRA BKN012 OVC019CB 17/17 Q1005 R34L/290250 NOSIG RMK MT OBSC QFE750/1000",
    "EFHK": "METAR EFHK 201820Z 04009KT 010V070 9999 FEW049 16/08 Q1016 NOSIG",
    "LBBG": "METAR LBBG 201830Z AUTO 09006KT 9999 NCD 24/19 Q1014 NOSIG",
    "LTAC": "METAR LTAC 201820Z 02005KT CAVOK 26/11 Q1016 NOSIG RMK RWY21C 06005KT 020V130 RWY03L 01004KT RWY21R 01005KT 340V080 RWY03R 04005KT 010V070 RWY21L 05004KT 010V070",
    "UBBB": "METAR UBBB 201830Z 33008KT CAVOK 24/20 Q1014 NOSIG",
    "UTAA": "METAR UTAA 201900Z 29016KT 9999 SCT100 32/19 Q1009 R88/CLRD70 NOSIG",
    "UACC": "METAR UACC 201830Z 23003MPS CAVOK 22/11 Q0999 NOSIG RMK QFE719/0958",
    "UAAA": "METAR UAAA 201830Z 17003MPS 9999 SCT050CB BKN100 29/11 Q1000 NOSIG",
    "UZTT": "METAR UZTT 201830Z 35012KT 320V020 CAVOK 32/11 Q1001 NOSIG",
    "ZWWW": "METAR ZWWW 201830Z 18004MPS CAVOK 34/08 Q1001 NOSIG",
    "ZLXY": "METAR ZLXY 201900Z 04003MPS CAVOK 26/22 Q1003 NOSIG",
    "ZBAA": "METAR ZBAA 201830Z 01002MPS CAVOK 22/21 Q1003 NOSIG",
    "ZBHH": "METAR ZBHH 201900Z 06002MPS CAVOK 15/13 Q1008 NOSIG",
    "ZSQD": "METAR ZSQD 201900Z VRB01MPS 5000 BR FEW012 22/22 Q1005 NOSIG",
    "ZMCK": "METAR ZMCK 201830Z 04003MPS 340V050 CAVOK 13/08 Q1007 NOSIG RMK QFE641.0 73",
    "UUEE": "METAR UUEE 201830Z 20003MPS CAVOK 23/14 Q1012 R24L/CLRD62 R24C/CLRD62 NOSIG",
    "UUDD": "METAR UUDD 201830Z 13002MPS CAVOK 21/16 Q1013 R31L/CLRD65 NOSIG",
    "ULLI": "METAR ULLI 201830Z 04005G10MPS 350V080 9999 BKN020 OVC034 16/11 Q1014 R88/090065 NOSIG",
    "USSS": "METAR USSS 201830Z 35005MPS CAVOK 18/18 Q1007 R08R/220060 NOSIG RMK QFE736/0981",
    "UNNT": "METAR UNNT 201830Z 36003MPS CAVOK 17/15 Q1001 R07/CLRD// R16/CLRD// NOSIG RMK QFE741/0988",
    "UNKL": "METAR UNKL 201830Z 00000MPS 9999 FEW049 12/12 Q1002 R29/CLRD// NOSIG RMK QFE726",
    "UIBB": "METAR UIBB 201830Z AUTO VRB01MPS 9000 // NCD 12/12 Q1003 RMK QFE710/0947",
    "UEEE": "METAR UEEE 201830Z 35003MPS CAVOK 15/13 Q1008 R23/190063 NOSIG RMK QFE747",
    "UHHH": "METAR UHHH 201830Z VRB01MPS CAVOK 18/18 Q1006 R23L/090060 NOSIG RMK QFE748/0998",
    "UHSS": "METAR UHSS 201900Z 11002MPS 9999 NSC 17/16 Q1004 R01/CLRD70 NOSIG RMK QFE752/1003"
  },
  "taf": {
    "RJAA": "TAF RJAA 201705Z 2018/2200 15005KT 9999 FEW030 BECMG 2021/2023 31004KT BECMG 2101/2103 16006KT BECMG 2109/2112 27004KT",
    "PANC": "TAF PANC 201933Z 2020/2124 VRB04KT 6SM -RA SCT006 SCT025 OVC050 TEMPO 2020/2022 5SM -RA BR OVC006 FM202200 24006KT 5SM -RA SCT006 OVC020 FM210300 19008KT P6SM -RA SCT010 OVC025 FM210800 16008KT P6SM SCT030 BKN040",
    "PAFA": "TAF PAFA 201729Z 2018/2124 15005KT P6SM SCT060 BKN120 FM210300 24006KT P6SM VCSH FEW025 BKN050 FM211200 20006KT 6SM -SHRA BR BKN025 OVC050",
    "PAED": "TAF AMD PAED 201743Z 2017/2119 01003KT 4800 RA BKN004 OVC040 620709 510008 QNH2998INS BECMG 2020/2021 26005KT 8000 RA BKN004 OVC020 620707 510005 QNH3003INS BECMG 2101/2102 26005KT 9000 -RA BKN010 OVC040 620207 QNH3003INS BECMG 2106/2107 21004KT 9000 -RA SCT015 BKN030 BKN050 620604 QNH3007INS TX13/2021Z TN10/2108Z",
    "KSEA": "TAF KSEA 201720Z 2018/2124 01008KT P6SM BKN250 FM202200 31007KT P6SM BKN250 FM210600 36005KT P6SM SCT250 FM211600 35004KT P6SM FEW250",
    "ZSPD": "TAF ZSPD 201505Z 2018/2124 20004MPS 6000 SCT030 TX33/2106Z TN26/2021Z TN27/2121Z TEMPO 2106/2110 TSRA BKN015 FEW030CB",
    "ZSSS": "TAF ZSSS 201505Z 2018/2124 20004MPS 6000 SCT030 TX34/2106Z TN27/2021Z TN28/2121Z TEMPO 2106/2110 TSRA BKN015 FEW030CB",
    "RJFR": "TAF RJFR 201705Z 2018/2200 09008KT 9999 FEW015 SCT045 BECMG 2106/2109 33008KT",
    "VHHH": "TAF VHHH 202000Z 2021/2203 20010KT 9999 FEW010 SCT025 TX31/2106Z TN27/2022Z TN27/2122Z TEMPO 2021/2024 3500 SHRA FEW010CB SCT020 TEMPO 2100/2106 24015G25KT 2500 TSRA SHRA FEW008CB SCT015",
    "RCTP": "TAF RCTP 201700Z 2018/2124 22007KT 9999 FEW015 BKN032 TEMPO 2018/2022 15005KT BECMG 2023/2101 24012KT TEMPO 2103/2109 27017KT TEMPO 2107/2111 5000 SHRA FEW010 FEW015CB BKN020 BECMG 2110/2112 20005KT",
    "ZGSZ": "TAF AMD ZGSZ 201751Z 2012/2118 18004MPS 8000 BKN040 TX29/2012Z TX31/2106Z TN28/2022Z TEMPO 2017/2019 TSRA SCT020 FEW025CB BKN030 TEMPO 2021/2101 2500 +TSRA SCT020 FEW025CB BKN030 TEMPO 2103/2107 TSRA SCT020 FEW025CB BKN030",
    "WSSS": "TAF WSSS 201700Z 2018/2200 33004KT 9999 FEW015 SCT020",
    "WMKK": "TAF WMKK 201700Z 2018/2200 VRB03KT 9000 FEW030 PROB30 TEMPO 2019/2022 6000 -TSRA FEW017CB",
    "VTBS": "TAF VTBS 201700Z 2018/2124 21008KT 9999 FEW020 BECMG 2020/2022 27005KT BECMG 2106/2108 21008KT TEMPO 2108/2112 VRB15KT 4000 TSRA FEW018CB SCT030 BKN100",
    "VTBU": "TAF VTBU 201700Z 2018/2118 21006KT 9999 FEW020",
    "ROAH": "TAF ROAH 201705Z 2018/2200 22006KT 9999 FEW008 SCT015 BECMG 2106/2109 29006KT TEMPO 2106/2109 4000 SHRA BR FEW005 BKN008 FEW015CB BECMG 2112/2115 23006KT",
    "VVDN": "TAF VVDN 201700Z 2018/2118 23006KT 9999 FEW020 BECMG 2105/2106 10010KT BECMG 2112/2113 22007KT",
    "RCKH": "TAF RCKH 201700Z 2018/2124 08005KT 9999 FEW015 BKN032 TEMPO 2020/2102 27008KT 5000 SHRA FEW008 FEW015CB BKN018 BECMG 2102/2104 22005KT TEMPO 2104/2110 24010KT FEW010 FEW015CB BKN022 BECMG 2110/2112 07005KT",
    "KLAX": "TAF KLAX 201745Z 2018/2124 26012KT P6SM SCT200 FM210400 26006KT P6SM SCT200 FM210800 VRB03KT P6SM SCT250 FM211000 VRB03KT 6SM BR BKN006 FM211500 26006KT P6SM SCT250",
    "KONT": "TAF KONT 201733Z 2018/2124 VRB05KT P6SM BKN150 FM202000 25011G20KT P6SM SCT150 FM210300 25009KT P6SM FEW200 FM210600 VRB05KT P6SM SKC FM212200 25011G18KT P6SM SCT150",
    "KSFO": "TAF KSFO 201738Z 2018/2124 04005KT P6SM FEW006 BKN100 FM202000 28015KT P6SM BKN150 FM210600 30010KT P6SM BKN150 TEMPO 2113/2117 04004KT P6SM BKN007 OVC150 FM211700 31006KT P6SM SCT010 BKN150 FM212100 30015KT P6SM BKN200",
    "KOAK": "TAF KOAK 201738Z 2018/2124 28010KT P6SM FEW012 BKN180 FM202300 30013KT P6SM FEW015 BKN180 FM210500 26004KT P6SM BKN007 OVC150 FM211600 27006KT P6SM SCT010 BKN150",
    "KMHR": "TAF KMHR 201720Z 2018/2118 22008KT P6SM SCT250 FM210600 15005KT P6SM BKN250",
    "KDFW": "TAF KDFW 201720Z 2018/2124 20009KT P6SM FEW250",
    "KIAH": "TAF KIAH 201739Z 2018/2124 23007KT P6SM FEW025 FM210000 21005KT P6SM FEW050 FEW250 FM211000 23005KT 6SM BR SCT015 FM211400 26007KT P6SM FEW025",
    "KORD": "TAF KORD 201740Z 2018/2124 22010KT 6SM HZ FEW040 SCT100 OVC220 FM202100 22013G22KT P6SM FEW050 SCT120 TEMPO 2103/2107 34020G30KT 2SM TSRA BR SCT015 OVC040CB FM210700 24011KT P6SM -SHRA BKN050 OVC150 FM211000 27011KT 6SM HZ FEW020 BKN050 FM211500 30012G22KT P6SM SCT050",
    "KJFK": "TAF KJFK 201932Z 2019/2124 18009KT P6SM FEW060 FEW250 FM210100 16007KT P6SM SCT250 FM211300 15013G22KT P6SM SCT025 BKN050 FM211600 16014G23KT P6SM VCSH BKN025 BKN050 PROB30 2116/2120 4SM -TSRA BKN020CB FM212000 17014G23KT P6SM VCSH BKN025 BKN050 TEMPO 2123/2124 2SM TSRA BKN020CB",
    "KRFD": "TAF KRFD 201740Z 2018/2118 20011KT 5SM FU FEW040 SCT120 OVC250 FM202000 21012G20KT P6SM FEW050 SCT120 FM210000 20007KT P6SM VCSH SCT050 BKN150 TEMPO 2101/2105 34020G30KT 2SM TSRA BR SCT015 OVC040CB FM210600 25007KT 6SM BR FEW020 BKN050 FM211400 30013G23KT P6SM SCT050",
    "KIND": "TAF KIND 202006Z 2020/2124 24008KT 6SM HZ SCT045 BKN250 FM202300 23006KT 6SM HZ SCT250 FM210800 22008KT P6SM VCTS BKN040CB BKN150 FM211000 23010KT P6SM -SHRA BKN040 TEMPO 2111/2113 2SM -TSRA OVC020CB FM211400 22010KT P6SM BKN025 FM211700 28008G19KT P6SM SCT035",
    "KDTW": "TAF KDTW 202013Z 2020/2124 20010KT P6SM SCT050 SCT250 FM210100 19007KT P6SM SCT100 BKN200 FM210600 22012KT P6SM BKN080 OVC120 PROB30 2106/2111 4SM TSRA BKN040CB OVC060 FM211100 25014G25KT P6SM BKN040 FM212000 28015G25KT P6SM SCT060",
    "KMSP": "TAF KMSP 201725Z 2018/2124 26014G22KT P6SM BKN025 BKN100 FM202000 29016G28KT P6SM SKC FM210200 31013G21KT P6SM SKC FM211000 32016G26KT P6SM SCT028 FM211600 33016G26KT P6SM FEW050",
    "CYEG": "TAF CYEG 201742Z 2018/2118 34010KT P6SM BKN012 OVC050 TEMPO 2018/2020 SCT012 OVC050 FM202000 34010KT 4SM FU SCT020 BKN060 TEMPO 2020/2103 6SM FU PROB30 2020/2024 2SM FU FM210300 VRB03KT 3SM FU BKN070 PROB30 2111/2116 3/4SM FU BR VV006 FM211600 27005KT 5SM FU SCT012 BKN030 RMK NXT FCST BY 202100Z",
    "EHAM": "TAF EHAM 201700Z 2018/2124 34012KT 9999 SCT035 BECMG 2018/2021 36006KT BECMG 2110/2113 32013KT BECMG 2118/2121 33006KT",
    "EBBR": "TAF EBBR 201700Z 2018/2124 35008KT CAVOK",
    "EDDF": "TAF EDDF 201700Z 2018/2124 02007KT CAVOK",
    "EDFH": "TAF EDFH 201700Z 2018/2118 01007KT CAVOK",
    "EDDL": "TAF AMD EDDL 201934Z 2019/2124 VRB03KT CAVOK BECMG 2107/2110 33008KT",
    "EDDK": "TAF EDDK 201700Z 2018/2124 34006KT CAVOK BECMG 2018/2021 VRB03KT BECMG 2107/2110 34007KT",
    "EBLG": "TAF EBLG 201700Z 2018/2124 01007KT CAVOK",
    "LSZH": "TAF LSZH 201725Z 2018/2124 07005KT 9999 FEW065 TX25/2115Z TN12/2104Z BECMG 2018/2020 CAVOK PROB30 TEMPO 2018/2022 04010KT BECMG 2022/2024 34004KT BECMG 2107/2109 05009KT 9999 FEW070 BECMG 2119/2122 VRB02KT CAVOK",
    "LIMC": "TAF LIMC 201700Z 2018/2124 VRB05KT 9999 FEW050 TEMPO 2101/2110 4000 TSRA TEMPO 2115/2118 4000 SHRA",
    "LIRF": "TAF LIRF 201700Z 2018/2124 VRB05KT CAVOK PROB30 TEMPO 2101/2105 3000 BR BECMG 2106/2108 16010KT BECMG 2112/2114 22012KT BECMG 2118/2120 VRB05KT",
    "EINN": "TAF EINN 201700Z 2018/2118 35009KT 9999 SCT032",
    "EGLL": "TAF EGLL 201659Z 2018/2124 02006KT CAVOK BECMG 2018/2021 10010KT TEMPO 2100/2113 BKN030 BECMG 2102/2105 02005KT",
    "EGSS": "TAF EGSS 201703Z 2018/2124 01008KT CAVOK PROB40 2018/2022 12010KT TEMPO 2100/2113 SCT018 BKN030",
    "EPWA": "TAF EPWA 201730Z 2018/2118 23007KT 9999 SCT040 PROB40 TEMPO 2018/2024 -SHRA BKN020CB TEMPO 2100/2109 24015G25KT 4000 SHRA BKN008 BKN015CB TEMPO 2109/2118 28020G32KT -SHRA SCT020TCU PROB40 TEMPO 2109/2118 SHRA BKN012 BKN020CB",
    "UHPP": "TAF UHPP 201633Z 2018/2124 18003G12MPS 9999 -SHRA BKN010 OVC020CB TEMPO 2018/2024 1000 SHRA BR VV002 BECMG 2106/2108 NSW SCT015 BKN030CB TEMPO 2108/2118 1000 BR VV002",
    "EFHK": "TAF EFHK 201727Z 2018/2118 04013KT CAVOK PROB30 TEMPO 2101/2110 04015G25KT",
    "LBBG": "TAF LBBG 201700Z 2018/2118 VRB04KT 9999 SCT045 TEMPO 2101/2105 2000 BR PROB40 2102/2104 0500 BCFG SCT002 BECMG 2108/2110 12012KT TEMPO 2111/2116 5000 TSRA FEW030CB BKN040",
    "LTAC": "TAF LTAC 201640Z 2018/2118 VRB02KT CAVOK TEMPO 2018/2022 02013KT BECMG 2107/2110 FEW040 BECMG 2113/2115 CAVOK TEMPO 2114/2118 02015KT",
    "UBBB": "TAF UBBB 201715Z 2018/2118 33012KT 9999 FEW015 TX31/2110Z TN21/2101Z TEMPO 2018/2024 FEW060CB TEMPO 2100/2106 28005KT SCT010 BECMG 2106/2108 14008KT CAVOK TEMPO 2108/2118 18014KT FEW025",
    "UTAA": "TAF UTAA 201645Z 2017/2118 33010G20KT 4000 DRDU BKN030 SCT050CB TEMPO 2017/2024 30022G32KT 0800 DS VV007 PROB40 TEMPO 2100/2105 VRB34KT 2000 BLDU -TSRA",
    "UACC": "TAF UACC 201701Z 2018/2118 24003MPS 9999 SCT040 BKN100 TX25/2112Z TN18/2024Z BECMG 2023/2101 24008MPS SCT030CB BKN050 TEMPO 2101/2104 3100 -SHRA BKN030CB TEMPO 2104/2109 VRB16MPS 3100 -TSRA SQ BKN020CB TEMPO 2109/2118 VRB20MPS 3100 -TSRA SQ BKN020CB",
    "UAAA": "TAF UAAA 201703Z 2018/2118 19002MPS 9999 SCT050CB BKN100 TX34/2110Z TN25/2100Z BECMG 2103/2105 32005MPS BECMG 2108/2110 21005MPS TEMPO 2108/2118 27007G14MPS 4000 -TSRA BLDU SCT015CB OVC050",
    "UZTT": "TAF UZTT 201700Z 2018/2118 30012KT 7000 NSC TX35/2111Z TN24/2100Z TEMPO 2018/2024 30015G25KT 3000 -DS",
    "ZWWW": "TAF ZWWW 201503Z 2018/2124 18004G09MPS CAVOK TX42/2109Z TN30/2023Z TN28/2123Z BECMG 2102/2103 36004MPS BECMG 2114/2115 20004MPS BECMG 2122/2123 33007G15MPS",
    "ZLXY": "TAF ZLXY 201503Z 2018/2118 06003MPS 6000 NSC TX37/2107Z TN24/2021Z TEMPO 2108/2111 -SHRA FEW040CB BKN050",
    "ZBAA": "TAF ZBAA 201501Z 2018/2124 16004MPS 6000 NSC TX31/2106Z TN21/2021Z TN23/2121Z",
    "ZBHH": "TAF ZBHH 201502Z 2018/2118 36004MPS 9999 SCT040 TX30/2107Z TN16/2019Z BECMG 2109/2110 -TSRA FEW040CB SCT040 TEMPO 2110/2112 +TSRA BECMG 2112/2113 NSW NSC",
    "ZSQD": "TAF ZSQD 201501Z 2018/2118 16003MPS 3500 BR NSC TX31/2106Z TN20/2020Z",
    "ZMCK": "TAF ZMCK 201634Z 2018/2124 VRB02MPS 9999 FEW030CB SCT033 TN10/2021Z TX25/2107Z PROB40 TEMPO 2104/2115 VRB08G13MPS TSRA SCT027CB SCT030",
    "UUEE": "TAF UUEE 201656Z 2018/2118 18003MPS 9999 SCT030 TX25/2113Z TN18/2102Z TEMPO 2100/2105 BKN005 PROB40 TEMPO 2105/2113 -TSRA BKN016CB",
    "UUDD": "TAF UUDD 201651Z 2018/2124 18003MPS 9999 FEW007 BKN016 TX25/2112Z TN18/2101Z PROB40 TEMPO 2021/2103 -TSRA BKN020CB BECMG 2103/2105 26005MPS TEMPO 2107/2118 26008G13MPS -TSRA BKN020CB BECMG 2118/2120 19003MPS",
    "ULLI": "TAF ULLI 201654Z 2018/2118 06007G13MPS 6000 BKN016 TEMPO 2021/2023 2100 -SHRA BKN010 BKN017CB BECMG 2023/2024 BKN010 TEMPO 2100/2113 1000 TSRA BR BKN004 BKN017CB BECMG 2115/2116 01003MPS TEMPO 2115/2118 2100 BR BKN004",
    "USSS": "TAF USSS 201640Z 2018/2118 01003G14MPS 9999 BKN020CB TEMPO 2018/2118 -TSRA BKN016CB",
    "UNNT": "TAF UNNT 201700Z 2018/2118 04003G08MPS 9999 BKN040 TX28/2109Z TN16/2022Z",
    "UNKL": "TAF UNKL 201645Z 2018/2118 VRB01MPS 8000 SCT040 TEMPO 2020/2024 0300 FG BKN002",
    "UIBB": "TAF UIBB 201700Z 2018/2118 10002MPS 0300 FG BKN001 BKN016CB TEMPO 2018/2101 4000 BR FEW003 SCT016CB BECMG 2101/2103 9999 NSW BKN016CB BECMG 2103/2105 25005G10MPS",
    "UEEE": "TAF UEEE 201700Z 2018/2124 32003G08MPS 9999 SCT030CB BKN100 TEMPO 2018/2023 VRB01MPS 0500 FG VV003",
    "UHHH": "TAF UHHH 201646Z 2018/2124 25003MPS 9999 SCT030 TX30/2106Z TN19/2019Z TEMPO 2018/2022 5000 BR",
    "UHSS": "TAF AMD UHSS 201949Z 2019/2124 VRB01MPS 9999 BKN100 TEMPO 2019/2021 BKN004 BECMG 2021/2023 20003MPS BKN040CB"
  },
  "atis": {
    "RJAA": "[Arrival ATIS] RJAA ARR ATIS P 0224Z M0200 (APCH)ILS Y RWY16L LDG RWY 16L DEP RWY 16R DEP FREQ 124.2. TWY A1 CLSD. M 240200Z 10006KT 040V140 25KM SCT020CU BKN/// 24/18 Q1012/A2991= Q/TWO NINE NINE ONE STP\n[Departure ATIS] RJAA DEP ATIS P 0222Z M0200 (APCH)ILS Y RWY16L LDG RWY 16L DEP RWY 16R DEP FREQ 124.2. TWY A1 CLSD. M 240200Z 10006KT 040V140 25KM SCT020CU BKN/// 24/18 Q1012/A2991= Q/TWO NINE NINE ONE STP",
    "PANC": "[Arrival ATIS] PANC ARR ATIS I 0153Z ANC ATIS INFO I 0153Z. 13013G21KT 10SM FEW065 OVC085 14/06 A3011 (THREE ZERO ONE ONE). ILS RWY 15 APPROACHES IN USE. LANDING RWY 15, DEPARTING RWY 25L. NOTICE TO AIRMEN. RWY 25R CLSD. CHECK NOTAMS FOR TAXIWAY CLOSURES. CAUTION FOR BIRD ACTIVITY IN THE ARPT AREA. ...ADVS YOU HAVE INFO I.\n[Departure ATIS] PANC DEP ATIS V 0053Z ANC ATIS INFO V 0053Z. 35005KT 9SM -RA FEW006 BKN075 OVC100 12/11 A3007 (THREE ZERO ZERO SEVEN) RMK AO2 SLP183 P0005 T01170111. 7R, 7L APPROACHES IN USE. LANDING RWY 7R, 7L, DE",
    "KSEA": "[Arrival ATIS] KSEA ARR ATIS G 1353Z SEA ATIS INFO G 1353Z. 20004KT 10SM OVC005 14/12 A3013 (THREE ZERO ONE THREE). ILS, RYS 16R AND 16L , APCH IN USE. DEPG RWY 16L, DEPG ACFT PLAN AND BRIEF NUMBERS FOR BOTH RWYS 16L AND 16C. SIMUL APCHS IN USE, BFI & SEA. TRAFFIC BELOW YOU ON FINAL. SIMUL APCHS IN USE TO PARA RYS. NOTAMS... BIRD ACTIVITY VICINITY ARPT. ...ADVS YOU HAVE INFO G.\n[Departure ATIS] KSEA DEP ATIS D 1953Z SEA ATIS INFO D 1953Z. 27008KT 10SM FEW220 BKN250 25/14 A2998 (TWO NINER NINER EIGHT). ILS AND CHARTED VISUAL APPROACH RWY 34L , APCH IN USE. DEPG RWY 34R. SIMUL ARRIVALS TO RWY 34L AND DEPARTURES TO RWY 34R ARE IN USE. SIMUL APCHS IN USE TO PARA RYS. NOTAMS... BIRD ACTIVITY VICINITY ARPT. ...ADVS YOU HAVE INFO D.",
    "ZSPD": "[Arrival ATIS] ZSPD ARR ATIS U 2000Z EXP ILS APCH LDG RWY 17R RWY 17L IS CLSD RWY 16L IS CLSD WIND RWY 17R TDZ 060/1MPS MID 080/1MPS END 060/1MPS VIS RWY 17R TDZ 10000M MID 10000M END 8000M CLD BKN 390M T 29 /DP 27 QNH 1004 HPA CAUTION THE BIRDS NEAR THE RUNWAY ADZ YOU HAVE INFO U.\n[Departure ATIS] ZSPD DEP ATIS P 0200Z DEP RWY 35R & 34L WIND RWY 35R TDZ 040/6MPS MID 020/6MPS VRB BTN 350/ AND 050/ END 030/5MPS RWY 34L TDZ 040/6MPS MID 050/6MPS END 030/6MPS VIS RWY 35R TDZ 2700M MID 1900M END 2800M VIS RWY 34L TDZ 5000M MID 10000M END 2100M FBL SHRA CLD BKN 240M T 23 /DP 23 QNH 1005 HPA CAUTION THE BIRDS NEAR THE RUNWAY RWY 35R/35L/34R/34L RWYCC 5/5/5 ISSUED AT 2212 WET/WET/WET DPT NR/NR/NR COV 100PCT/100PCT/100PCT. ADZ YOU HAVE INFO P.",
    "ZSSS": "[Arrival ATIS] ZSSS ARR ATIS I 0200Z EXP ILS APCH LDG RWY 36R WIND RWY 36R TDZ 060/4MPS MID 040/5MPS END 060/4MPS VIS RWY 36R TDZ 10000M MID 10000M END 10000M FBL RA CLD BKN 270M T 23 /DP 22 QNH 1005 HPA RWY36R RWYCC 5/5/5 ISSUED AT 2130 WET/WET/WET DPT NR/NR/NR COV 100PCT/100PCT/100PCT RWY36L RWYCC 5/5/5 ISSUED AT 2130 WET/WET/WET DPT NR/NR/NR COV 100PCT/100PCT/100PCT QNH OF SHANGHAI TERMINAL CONTROL AREA 1005 HPA ADZ YOU HAVE INFO I.\n[Departure ATIS] ZSSS DEP ATIS C 1100Z DEP RWY 36L WIND RWY 36L TDZ 030/3MPS MID 020/3MPS END 020/3MPS VIS RWY 36L TDZ 10000M MID 10000M END 10000M FBL SHRA CLD BKN 390M T 22 /DP 21 QNH 1004 HPA RWY36L RWYCC 5/5/5 ISSUED AT 0600 WET/WET/WET DPT NR/NR/NR COV 100PCT/100PCT/100PCT RWY36R RWYCC 5/5/5 ISSUED AT 0600 WET/WET/WET DPT NR/NR/NR COV 100PCT/100PCT/100PCT QNH OF SHANGHAI TERMINAL CONTROL AREA 1004 HPA ADZ YOU HAVE INFO C.",
    "VHHH": "[Arrival ATIS] VHHH ARR ATIS I 0207Z ARRIVALS, RWY 25R/L. EXP ILS APCH, RWY 25L. EXP RNAV TRANSITION TO ILS APCH, RWY 25R. RNP APCH IS AVBL ON REQ, RWY 25R. CAUTION POSSIBLE GP FLUCTUATION RWY 25L. WIND RWY 25R 230/11KT RWY 25L 230/05KT. VIS RWY 25R 10KM RWY 25L 10KM. CLD FEW 1000FT SCT 2500FT. T32 DP26. QNH 1005HPA. ACK INFO I ON FIRST CTC WITH APP.\n[Departure ATIS] VHHH DEP ATIS W 0208Z DEPARTURES, RWY 25C/L. INDEPENDENT PARALLEL DEPARTURE IN PROGRESS. WIND RWY 25C 240/11KT RWY 25L 250/10KT. VIS RWY 25C 10KM RWY 25L 10KM. CLD FEW 1000FT SCT 2500FT. T32 DP26. QNH 1005HPA. ACK INFO W ON FIRST CTC WITH DELIVERY .",
    "RCTP": "[Arrival ATIS] RCTP ARR ATIS L 0200Z EXP ILS APCH RWY23R AND RWY23L ARR/DEP. WIND 260/10KT VARYING BTN 220 AND 300 VIS 10 KM OR MORE CLD FEW 1200FT BKN 3000FT BKN 20000FT T 33 DP 25 QNH 1004HPA NOSIG DUE TO FLOW CONTROL BY MANILA F-I-R, TRAFFIC CONCERNED MAY BE DELAYED. CTN BIRD ACTIVITY IN THE VCY OF THE AD. INFORM TAIPEI APCH OR TAIPEI TOWER ON INITIAL CONTACT YOU HAVE INFORMATION L\n[Departure ATIS] RCTP DEP ATIS J 0100Z EXP ILS APCH RWY23R AND RWY23L ARR/DEP. WIND 260/09KT VIS 10 KM OR MORE CLD FEW 1200FT BKN 2000FT T 32 DP 26 QNH 1004HPA NOSIG DUE TO FLOW CONTROL BY MANILA F-I-R, TRAFFIC CONCERNED MAY BE DELAYED. CTN BIRD ACTIVITY IN THE VCY OF THE AD. INFORM TAIPEI APCH OR TAIPEI TOWER ON INITIAL CONTACT YOU HAVE INFORMATION J",
    "ZGSZ": "[Arrival ATIS] ZGSZ ARR ATIS D 0200Z EXP ILS APCH 15 EXP ILS OR VIS APCH 16R WIND 180/5MPS VRB BTN 140/ AND 200/ VIS 9999M CLD FEW 480M T 31 /DP 28 QNH 1005 HPA INDEPENDENT PARALLEL DEPARTURES DEPENDENT PARALLEL APPROACHES MISSED APPROACH ALTITUDE SETTING 1200METERS WHEN AIRBORNE CONTACT ZHUHAI APPROACH EXPECTED RNP ILS DME Z APPROACH ADZ YOU HAVE INFO D.\n[Departure ATIS] ZGSZ DEP ATIS D 0200Z DEP RWY 15 & 16L WIND 180/5MPS VRB BTN 140/ AND 200/ VIS 9999M CLD FEW 480M T 31 /DP 28 QNH 1005 HPA INDEPENDENT PARALLEL DEPARTURES DEPENDENT PARALLEL APPROACHES MISSED APPROACH ALTITUDE SETTING 1200METERS WHEN AIRBORNE CONTACT ZHUHAI APPROACH EXPECTED RNP ILS DME Z APPROACH ADZ YOU HAVE INFO D.",
    "WSSS": "[Arrival ATIS] WSSS ARR ATIS W 0200Z METREPORT 0200Z ILS APCHRWY 20R SIMUL INDEPENDENT ILS AND VISUAL APPROACHES ARE CONDUCTED ON RWY 20. RSCD RWY20R 2348Z RWYCC:5.5.5. WHOLE RWY 100% WET. TWY W 9 CLOSED, RWY 02C 20C RAPID EXIT TAXIWAY INDICATOR LIGHTS OFF WIND VRB BTN330 AND050 02KT VIS 10KM CLD FEW CB 2000FT T30 DP25 QNH 1011HPA RETS NOSIG ACK ATIS W\n[Departure ATIS] WSSS DEP ATIS V 0000Z METREPORT 0000Z RWY 20C SIMUL INDEPENDENT ILS AND VISUAL APPROACHES ARE CONDUCTED ON RWY 20. RSCD RWY20C 2348Z RWYCC:5.5.5. WHOLE RWY 100% WET. TWY W 9 CLOSED, RWY 02C 20C RAPID EXIT TAXIWAY INDICATOR LIGHTS OFF WIND 220/ 08KT VRB BTN190 AND270 VIS 4100M FBL TSRA CLD FEW 1200FT FEW CB 1400FT SCT TCU 1600FT T26 DP24 QNH 1010HPA BECMG FM0030 TL0045 VIS6KM NSW DEP,INITIAL CMB 3000FT ACK ATIS V",
    "WMKK": "[Arrival ATIS] WMKK ARR ATIS H 0206Z WMKK ARR INFO H. TIME 0200. INDEPENDENT PARALLEL APPROACHES FOR RWY 32 R AND 33 ARE IN PROGRESS. EXP RNAV / ILS APCH FOR RWY 32 RIGHT. EXP RNAV / ILS APCH FOR RWY 33. WIND RWY 32R DIRECTION NOT AVBL SPEED NOT AVBL. WIND RWY 32L DIRECTION NOT AVBL SPEED NOT AVBL. WIND RWY 33 DIRECTION NOT AVBL SPEED NOT AVBL. VIS RWY 32R TDZ NOT AVBL. VIS RWY 33 TDZ NOT AVBL. CLD FEW CB 1700 FT. T 30. DP 25. QNH 1010. NOSIG. AT FIRST CONTACT WITH LUMPUR RADAR, NOTIFY RCPT OF H\n[Departure ATIS] WMKK DEP ATIS O 1704Z WMKK DEP INFO O. TIME 1700. INDEPENDENT PARALLEL DEPARTURES FOR RWY 32 R AND 33 ARE IN PROGRESS. RWY 32 RIGHT. RWY 33. WIND RWY 32R DIRECTION NOT AVBL SPEED NOT AVBL. WIND RWY 32L DIRECTION NOT AVBL SPEED NOT AVBL. WIND RWY 33 DIRECTION NOT AVBL SPEED NOT AVBL. VIS RWY 32R TDZ NOT AVBL. VIS RWY 33 TDZ NOT AVBL. CLD FEW 3000 FT. T 26. DP 23. QNH 1010. NOSIG. ALL DEP ACFT TO CONTACT LUMPUR DEP AT 135 DECIMAL 25 MHZ WHEN ABN. AT FIRST CONTACT WITH LUMPUR GROUND, NOTIFY RCPT OF O",
    "VTBS": "[Arrival ATIS] VTBS ARR ATIS E 0201Z EXP ILS Z APCH ARR RWY 19 OR RNP APCH RWY 20R ,ALL ACFT WILL BE DLA DUE PAPI RWY 19 FLTCK ,PILOT SHALL ADZ BKK APCH ON INITIAL CTC IF UNA TO CONDUCT RNP APCH DUE TO OPERATIONAL CONSTRAINT 0200Z WIND 270/9KT VRB BTN 240/ AND 300/ VIS 10KM CLD FEW 2000FT T32 DP22 QNH 1009HPA TREND NOSIG ADZ BKK APCH ON INITIAL CONTACT THAT YOU HAVE INFO E\n[Departure ATIS] VTBS DEP ATIS K 0200Z VTBS DEP ATIS K 0201Z DEP RWY 20L OR DEP RWY 19 ,ALL ACFT WILL BE DLA DUE PAPI RWY 19 FLTCK ,AFT AIRBORNE ALL DEPARTING ACFT SHALL CTC 119.25 0200Z WIND 260/10KT VRB BTN 230/ AND 310/ VIS 10KM CLD FEW 2000FT T32 DP22 QNH 1009HPA TREND NOSIG ADZ GND WHEN INITIAL CONTACT YOU HAVE INFO K",
    "VTBU": "[Arrival ATIS] VTBU ARR ATIS S 0430Z VTBU ARR ATIS S 0431Z RNP RWY 36 TRL FL130 MOBILE ACFT ARST SYSTEM INSTL ATP SIX HUNDRED AND TEN METERS FM THR RWY 36 CABLE HGT 3 INCHES. 0430Z WIND 330/5KT VRB BTN 290/ AND 030/ VIS 10KM CLD FEW 2000FT T32 DP26 QNH 1009HPA TREND NOSIG ADZ CONTROLLER WHEN INITIAL CONTACT YOU HAVE INFO S\n[Departure ATIS] VTBU DEP ATIS D VTBU ARR/DEP DATIS RPT VTBU ARR ATIS D 0330Z ILS \"Z\" APCH RWY 18 TRL FL130 0330Z WIND 110/4KT VRB BTN 350/ AND 120/ VIS 6KM CLD FEW 2000FT T31 DP27 QNH 1014HPA TREND NOSIG ADZ CONTROLLER WHEN INITIAL CONTACT YOU HAVE INFO D",
    "ROAH": "[Arrival ATIS] ROAH ARR ATIS K 0220Z M0200 (APCH)RNP RWY18R LDG RWY 18R DEP RWY 18L DEP FREQ 126.5 258.3 M 240200Z 16015KT 15KM FEW015CU 32/26 Q1005/A2970= Q/TWO NINE SEVEN ZERO STP\n[Departure ATIS] ROAH DEP ATIS Q 1131Z M1130 (APCH)RNP RWY18R LDG RWY 18R DEP RWY 18L DEP FREQ 126.5 258.3 M 181130Z 21006KT 15KM FEW005ST SCT015CU 28/28 Q1006/A2971= Q/TWO NINE SEVEN ONE STP",
    "VVDN": "[Arrival ATIS] VVDN ARR ATIS G 0157Z VVDN INFO G 0157Z. ILS VICTOR APPROACH 35L.. DPTG RWY 35R.. 0132Z. WIND VRB/02KT CAVOK T34 DP23 QNH 1005HPA TREND NOSIG. ADZ ON INITIAL CTC YOU HAVE INFO. G.\n[Departure ATIS] VVDN DEP ATIS J 1833Z VVDN INFO J 1833Z. ILS VICTOR APPROACH 35L.. DPTG RWY 35R.. 1833Z. WIND 300/02KT CAVOK T30 DP22 QNH 1006HPA TREND NOSIG. ADZ ON INITIAL CTC YOU HAVE INFO. J.",
    "RCKH": "[Arrival ATIS] RCKH ARR ATIS G 0030Z EXPECT ILS APPROACH RWY 27 ARR/DEP TAXIWAY JULIETT, TAXIWAY BRAVO, TAXIWAY DELTA AND TAXIWAY ECHO CLOSED DUE MAINTENANCE. RUNWAY 2 7 ARRIVALS PLAN VACATE VIA CHARLIE OR ALPHA AND EXPEDITE VACATE. FROM 0 2 5 0 ZULU TO 0 3 3 0 ZULU RUNWAY CLOSED. ALL TAKE-OFF AND LANDING SUSPENDED DUE CONSTRUCTION. WIND 290/09KT VARYING BTN 260 AND 330 VIS 10 KM OR MORE CLD SCT 1200FT SCT 2500FT T 31 DP 25 QNH 1004HPA NOSIG CAUTION BIRD ACTIVITY IN VICINITY OF THE AERODROME. INFORM KAO-HSIUN APCH OR KAO-HSIUN TOWER ON INITIAL CONTACT YOU HAVE INFORMATION G\n[Departure ATIS] RCKH DEP ATIS G 0430Z EXPECT ILS APPROACH RWY 27 ARR/DEP RWY SFC RWY 09 SFC COND 5/5/5 ISSUED AT 0255Z. 100/100/100 NR/NR/NR WET/WET/WET TAXIWAY JULIETT, TAXIWAY BRAVO, TAXIWAY DELTA AND TAX",
    "KLAX": "[Arrival ATIS] KLAX ARR ATIS N 1953Z LAX ATIS INFO N 1953Z. 24012KT 10SM FEW009 SCT028 BKN120 BKN180 26/18 A2993 (TWO NINER NINER THREE) RMK AO2 SLP134 T02610183. INST APCHS AND RNAV RNP APCHS RY 24R AND 25L, OR VCTR FOR VISUAL APCH WILL BE PROVIDED, SIMUL VISUAL APCHS TO ALL RWYS ARE IN PROG, SIMUL INSTR DEPARTURES IN PROG RWYS 24 AND 25. CTC L A GC ON 121.75 FOR PUSH OR TAXI ON A. TWY B CLSD BTN TWY, C10 AND TWY C7 , , TWY B6 CLSD, TWY B7 CLSD, TWY C CLSD BTN TWY, C1 AND TWY C3, TWY C1 CLSD, TWY C9 CLSD BTN TWY, B AND TWY C, TWY C8 CLSD BTN TWY, B AND TWY C. PAPI OTS 24R, SEAL BEACH VOR OTS. HAZD WX INFO FOR LAX AREA AVBL FM FSS. BIRD ACTIVITY VICINITY ARPT. INCLUDE YOUR CALL SIGN IN ALL READBACKS. USE CAUTION WHEN EXITING RY24R AT TWY V, W, AND Y, TO HOLD SHORT OF RY24L. MULTIPLE RUNWAY INCURSIONS HAVE OCCURRED. ...ADVS YOU HAVE INFO N.\n[Departure ATIS] KLAX DEP ATIS M 1853Z LAX ATIS INFO M 1853Z. 24011G19KT 10SM FEW009 SCT025 BKN120 BKN180 26/18 A2994 (TWO NINER NINER FOUR) RMK AO2 SLP137 T02610183. INST APCHS AND RNAV RNP APCHS RY 24R AND 25L, OR VCTR FOR VISUAL APCH WILL BE PROVIDED, SIMUL VISUAL APCHS TO ALL RWYS ARE IN PROG, SIMUL INSTR DEPARTURES IN PROG RWYS 24 AND 25. CTC L A GC ON 121.75 FOR PUSH OR TAXI ON A. TWY B CLSD BTN TWY, C10 AND TWY C7 , , TWY B6 CLSD, TWY B7 CLSD, TWY C CLSD BTN TWY, C1 AND TWY C3, TWY C1 CLSD, TWY C9 CLSD BTN TWY, B AND TWY C, TWY C8 CLSD BTN TWY, B AND TWY C. PAPI OTS 24R, SEAL BEACH VOR OTS. HAZD WX INFO FOR LAX AREA AVBL FM FSS. BIRD ACTIVITY VICINITY ARPT. INCLUDE YOUR CALL SIGN IN ALL READBACKS. USE CAUTION WHEN EXITING RY24R AT TWY V, W, AND Y, TO HOLD SHORT OF RY24L. MULTIPLE RUNWAY INCURSIONS HAVE OCCURRED. ...ADVS YOU HAVE INFO M.",
    "KONT": "[Arrival ATIS] KONT ARR ATIS D 1153Z ONT ATIS INFO D 1153Z. 23004KT 10SM FEW200 21/17 A3001 (THREE ZERO ZERO ONE). ILS AND VIS APR IN USE, RY26L & RY26R. LNDG AND DEPG RY 26L AND RY 26R. NOTAMS... TAXIWAY SIERRA FIVE CLOSED. TAXIWAY SIERRA CLOSED BETWEEN TAXIWAY SIERRA 8 AND TAXIWAY WHISKEY. RY 26L IM OTS, RY 26R ALS OTS. PILOTS READBACK RWY ASSIGNMENTS AND HOLD SHORT INSTRUCTIONS. ...ADVS YOU HAVE INFO D.\n[Departure ATIS] KONT DEP ATIS N 0553Z - KONT ATIS INFO N 0553Z. 24004KT 10SM BKN250 22/15 A2988 (TWO NINER EIGHT EIGHT) RMK AO2 SLP100. ILS AND VIS APR IN USE, RY26L & RY26R. LNDG AND DEPG RY 26L AND RY 26R. NOTAMS... TAXIWAY SIERRA CLSD BETWEEN SIERRA 8 AND W TAXIWAY Q SOUTH OF RWY 26L CLSD TAXIWAY T CLSD TAXIWAY SIERRA 5 CLSD. RY 26L IM OTS, RY 26R ALS OTS. USE CAUTION FOR NUMEROUS BIRDS OBSERVED IN VICINITY OF ONT. HAZD WX INFO FOR SOUTHERN CA AVBL ON FSS FREQUENCIES. PILOTS READBACK RWY ASSIGNMENTS AND HOLD SHORT INSTRUCTIONS. ...ADVS YOU HAVE INFO N.",
    "KSFO": "[Arrival ATIS] KSFO ARR ATIS E 1656Z SFO ATIS INFO E 1656Z. 03004KT 10SM FEW006 BKN100 18/14 A2995 (TWO NINER NINER FIVE) RMK AO2 SLP143 T01780144. SIMUL CLSLY SPCD DPNDNT ILS RY 28R AND ILS RY 28L APP IN USE.\n[Departure ATIS] KSFO DEP ATIS R 0056Z SFO ATIS INFO R 0056Z. 28016KT 10SM FEW008 18/12 A2999 (TWO NINER NINER NINER) RMK AO2 SLP156 T01780117. SIMUL CLSLY SPCD DPNDNT ILS RY 28R AND ILS RY 28L APP IN USE. DEPG RWYS 28L, 28R. DEPG ACFT SHOULD BE PREPARED FOR A SHORT NOTICE RY CHANGE. RY 1L, 1R CLSD. NUMEROUS TWY CLOSURES FOR CONSTRUCTION ON THE FIELD, PILOTS CHECK NOTAMS. DEPG ACFT WAITING ON FINAL NUMBERS ADVISE GROUND PRIOR TO ENTERING TWY F. ...ADVS YOU HAVE INFO R.",
    "KOAK": "[Arrival ATIS] KOAK ARR ATIS G 2353Z - KOAK ATIS INFO G 2353Z. 27013KT 10SM FEW009 FEW015 18/12 A3002 (THREE ZERO ZERO TWO). RNAV, AND VA, RWY 30. ILS, AND VA, RWY 28R. FLOW TO LAX, LAS, SAN, SLC, SEA. ILS RWY 30, OTS. UNN LIT CLOSE-IN OBSTACLES FOR RWY 30 DEPARTURES. RWY 30 DEPARTURES ARE ADVISED TO AVOID TURNING LEFT PRIOR TO DEPARTURE END OF RUNWAY. SIGNATURE UNI-COM OUT OF SERVICE. CTN, CRANE 1 POINT 6 NAUTICAL MILES, , AT 140 FEET AGL. CAUTION, BIRDS NEAR AIRPORT. ...ADVS YOU HAVE INFO G.\n[Departure ATIS] KOAK DEP ATIS O 1953Z OAK ATIS INFO O 1953Z. 28014KT 10SM FEW005 22/14 A2988 (TWO NINER EIGHT EIGHT). RNAV Z/VA RWY 30 ILS/VA RWY 28R. FLOW TO LAX, LAS, SAN. ILS RWY 30, OTS. UNN LIT CLOSE-IN OBSTACLES FOR RWY 30 DEPARTURES. RWY 30 DEPARTURES ARE ADVISED TO AVOID TURNING LEFT PRIOR TO DEPARTURE END OF RUNWAY. SIGNATURE UNI-COM OUT OF SERVICE. CAUTION, BIRDS NEAR AIRPORT. ...ADVS YOU HAVE INFO O.",
    "KDFW": "[Arrival ATIS] KDFW ARR ATIS E 1753Z - KDFW ARR INFO E 1753Z. 18008KT 10SM FEW040 35/21 A2993 (TWO NINER NINER THREE) RMK AO2 SLP125 T03500211 10350 20267 58010. ILS APCH TO RWYS, 13R, 18R, 17C, 17L. LDG RWY 17C EXP LAHSO TWY B 10460 FT AVAIL, LDG RWY 18R EXP LAHSO TWY B 10100 FT AVL. NOTICE TO AIRMEN. WARNING, RWY 18L HAS BEEN SHORTENED, 9273 FT AVAILABLE. RWY 18L ILS OTS, CL OTS. BIRD ACTIVITY VCNTY ARPT. ...ADVS YOU HAVE INFO E.\n[Departure ATIS] KDFW DEP ATIS J 0253Z DFW DEP INFO J 0253Z. 17008KT 10SM FEW250 31/19 A2994 (TWO NINER NINER FOUR) RMK AO2 SLP128 T03110194 53004. SIMUL PARL TRAFFIC DEPG RWYS 17R, 18L. NOTICE TO AIRMEN. RWY 13L CLSD. RWY 13R CLSD. RWY 17L CLSD. WARNING, RWY 18L HAS BEEN SHORTENED, 9273 FT AVAILABLE. HAZD WX FOR DFW AVBL ON FSS. BIRD ACTIVITY VCNTY ARPT. ...ADVS YOU HAVE INFO J.",
    "KIAH": "[Arrival ATIS] KIAH ARR ATIS Q 1953Z IAH ATIS INFO Q 1953Z. 22004KT 10SM FEW250 35/21 A2993 (TWO NINER NINER THREE). ARRIVALS EXPECT ILS OR RNAV Y RY 26R, ILS OR RNAV Y RY 26L, ILS OR RNAV Y RY 27. SIMUL APPROA\n[Departure ATIS] KIAH DEP ATIS T 0353Z IAH ATIS INFO T 0353Z. 15007KT 10SM FEW035 FEW180 BKN250 27/23 A2996 (TWO NINER NINER SIX). ARRIVALS EXPECT ILS OR RNAV Y RY 8R, ILS OR RNAV Y RY 8L. DEPG RY 15R. NOTICE TO AIRMEN. UNITED RAMP CONTROL IN EFFECT. RY 15L, 33R CLSD. HAZD WX INFO FOR IAH AREA AVBL FM FSS. BIRD ACTIVITY VICINITY ARPT. CRANES ARE DOWN. TWY SA CLSD BTN TWY, SF AND TWY SK , TWY SB CLSD BTN TWY, SF AND TWY SK , , TWY WB CLSD BTN TWY, WG AND TWY WH . TWY EA CLSD. NOTAM ATIS IN USE ON FREQUENCY 126.225. ...ADVS YOU HAVE INFO T.",
    "KORD": "[Arrival ATIS] KORD ARR ATIS Q 1351Z ORD ATIS INFO Q 1351Z. 27011G17KT 10SM FEW080 SCT110 BKN200 BKN250 28/22 A2986 (TWO NINER EIGHT SIX) RMK AO2 SLP104 T02780222. ARR EXP VECTORS ILS RWY 27C APCH, VISUAL APCH RWY 27R, VISUAL APCH RWY 28C. SIMUL APCHS IN USE. LAND AND HOLD SHORT OPERATIONS ARE IN EFFECT. RWY 27C ARR PLAN TO H/S OF TWY V V, 9 THSD 7 HND 25 FT AVBL, RWY 28C ARR PLAN TO H/S OF TWY Z, 9 THSD 6 HND TEN FT AVBL. DEPS EXP RWYS 22L 28R FROM NOVEMBER 5 9750 FT AVL. RWY 4L, 22R CLSD. RWY 22R LOC OTS, RWY 28L GS OTS, RWY 9L IM OTS, RWY 9C IM OTS, RWY 10L IM OTS, RWY 10R IM OTS, RWY 27R IM OTS, RWY 28L IM OTS, RWY 28R IM OTS, RWY 9L PAPI OTS, RWY 27R PAPI OTS. PILOTS USE CTN FOR BIRD ACTIVITY IN THE VICINITY OF THE ARPT. USE CTN FOR PERSONNEL AND EQUIP AT NUMEROUS SITES ON THE FIELD. READBACK ALL RWY HOLD SHORT INSTRUCTIONS. WHEN READY TO TAXI CONTACT GND METERING ON FREQ 121.67. ...ADVS YOU HAVE INFO Q.\n[Departure ATIS] KORD DEP ATIS G 1751Z ORD ATIS INFO G 1751Z. 22012G18KT 7SM SCT150 BKN200 OVC250 26/18 A2990 (TWO NINER NINER ZERO) RMK AO2 SLP121 T02560178 10261 20194 56014. ARR EXP VECTORS ILS RWY 27C APCH, ILS RWY 27R APCH, ILS RWY 28C APCH. SIMUL APCHS IN USE. LAND AND HOLD SHORT OPERATIONS ARE IN EFFECT. RWY 27C ARR PLAN TO H/S OF TWY V V, 9 THSD 7 HND 25 FT AVBL, RWY 28C ARR PLAN TO H/S OF TWY Z, 9 THSD 6 HND TEN FT AVBL. DEPS EXP RWYS 22L 28R FROM NOVEMBER 5 9750 FT AVL. RWY 4L, 22R CLSD. RWY 22R LOC OTS, RWY 28L GS OTS, RWY 9L IM OTS, RWY 9C IM OTS, RWY 10L IM OTS, RWY 10R IM OTS, RWY 27R IM OTS, RWY 28L IM OTS, RWY 28R IM OTS, RWY 9L PAPI OTS, RWY 27R PAPI OTS. PILOTS USE CTN FOR BIRD ACTIVITY IN THE VICINITY OF THE ARPT. USE CTN FOR PERSONNEL AND EQUIP AT NUMEROUS SITES ON THE FIELD. READBACK ALL RWY HOLD SHORT INSTRUCTIONS. WHEN READY TO TAXI CONTACT GND METERING ON FREQ 121.67. ...ADVS YOU HAVE INFO G.",
    "KJFK": "[Arrival ATIS] KJFK ARR ATIS O 1951Z JFK ATIS INFO O 1951Z. 20008KT 10SM SCT250 25/10 A3000 (THREE ZERO ZERO ZERO) RMK AO2 SLP158 T02500100. APPROACH IN USE RNAV GPS Z RY 13L, RNAV GPS X RY 22L. DEPG RY 13R. CONVERGING RY OPERATIONS IN USE. RY 13L ALS OTS, RY 13L SFL OTS, RWY 22L/4R INNER MARKER OTS. SWAP IN EFFECT EXPECT REROUTES. NUM CRANES OPERATING AT JFK. BIRD ACTIVITY VICINITY ARPT. READBACK ALL RWY ASSIGNMENTS AND HOLD SHORT INSTRUCTIONS. ...ADVS YOU HAVE INFO O.\n[Departure ATIS] KJFK DEP ATIS O 2351Z - KJFK ATIS INFO O 2351Z. 35008KT 10SM FEW100 SCT180 BKN250 25/10 A2987 (TWO NINER EIGHT SEVEN). APPROACH IN USE ILS RY 31R, VISUAL APCH RY 31L. DEPG RY 31L. RY 13L SFL OTS, RWY 22L/4R INNER MARKER OTS. SWAP IN EFFECT EXPECT REROUTES. NUM CRANES OPERATING AT JFK. BIRD ACTIVITY VICINITY ARPT. READBACK ALL RWY ASSIGNMENTS AND HOLD SHORT INSTRUCTIONS. ...ADVS YOU HAVE INFO O.",
    "KIND": "[Arrival ATIS] KIND ARR ATIS H 2154Z - KIND ATIS INFO H 2154Z. 33012KT 10SM FEW060 FEW250 24/11 A3013 (THREE ZERO ONE THREE). PARL ILS RWY 5R AND 5L APPROACHES IN USE. CROSS RUNWAY OPERATIONS MAY BE IN EFFECT. NOTICE TO AIRMEN. RWY 32 GS OTS. TWY, P BTN TWY, H AND TWY B CLSD. P PAD CLSD. ILS RUNWAY 5R AND RUNWAY 5L INNER MARKER UNSERVICEABLE. RUNWAY 32 PAPI OTS. RUNWAY 32 TOUCHDOWN RVR OTS. RUNWAY 14 ROLLOUT RVR OTS. ARPT ADZY FLOCK OF MEDIUM BIRDS IN THE VICINITY OF THE AIRPORT, ALT UNKN. ...ADVS YOU HAVE INFO H.\n[Departure ATIS] KIND DEP ATIS G 0254Z IND ATIS INFO G 0254Z. 03006KT 10SM SCT060 BKN110 BKN190 OVC250 28/22 A3007 (THREE ZERO ZERO SEVEN). PARL ILS RWY 5R AND 5L APPROACHES IN USE. CROSS RUNWAY OPERATIONS MAY BE IN EFFECT. NOTICE TO AIRMEN. TWY, P BTN TWY, H AND TWY B CLSD, TWY, P BTN TWY, H AND TWY J CLSD, TWY, H BTN TWY, R AND TWY N CLSD. P PAD CLSD. ILS RUNWAY 5R AND RUNWAY 5L INNER MARKER UNSERVICEABLE. HIWAS. ARPT ADZY FLOCK OF MEDIUM BIRDS IN THE VICINITY OF THE AIRPORT, ALT UNKN. ...ADVS YOU HAVE INFO G.",
    "KDTW": "[Arrival ATIS] KDTW ARR ATIS K 1353Z DTW ARR INFO K 1353Z. 20007KT 5SM HZ SCT250 23/14 A2999 (TWO NINER NINER NINER). SIMUL ILS Z RY 22R AND RY 21L APCH IN USE. NOTICE TO AIRMEN. RWY 21R, 3L CLSD, RWY 27L, 9R CLSD, RWY 27R, 9L CLSD. TWYS Y1 CLSD ;. RY 22L ALS OTS, RWSL OUT OF SERVICE. PILOTS USE CTN FOR BIRD ACTIVITY. DEPARTURE ATIS 118.125. ...ADVS YOU HAVE INFO K.\n[Departure ATIS] KDTW DEP ATIS N 0953Z DTW DEP INFO N 0953Z. 35003KT 1SM R03R/P6000FT FU SCT000 OVC027 22/16 A3004 (THREE ZERO ZERO FOUR) RMK AO2 TWR VIS 2 SLP167 FU SCT000 T02170161. DEPG RWY 4R. . RWY 4R DEPARTURE POINT IS Y 2, DISTANCE REMAINING IS 11, THOUSAND, 450, FT, FULL LENGTH AVAIL UPON REQ ;. NOTICE TO AIRMEN. RWY 21R, 3L CLSD, RWY 27L, 9R CLSD, RWY 27R, 9L CLSD. TWYS Y1 CLSD ;. PILOTS USE CTN FOR BIRD ACTIVITY. TWR AND GC COMB ON FREQ 135.0. ...ADVS YOU HAVE INFO N.",
    "KMSP": "[Arrival ATIS] KMSP ARR ATIS L 1905Z MSP ARR INFO L 1905Z SPECIAL. 24016G23KT 9SM SCT028 BKN034 31/23 A2969 (TWO NINER SIX NINER). SIMULTANEOUS DEPENDENT, ILS RWY 30L APCH IN USE, ILS RWY 30R APCH IN USE. NOTICE TO AIRMEN. TWY R7. R8. R9. R10. CLOSED. TWY R BTWN R6 AND R10 CLSD, TWY A7 CLSD, TWY A CLSD BTN TWY, A7 AND TWY D. GS RWY 12L OTS, RWYS 12R, 12L, INNER MARKER OTS. HAZD WX INFO FOR MSP AREA AVBL FM FSS. CTN, BIRDS NEAR MSP. READ BACK HS AND ALT. ALL ACFT TAXI WITH TRANSPONDER AND ALTITUDE ENCODING ON. ...ADVS YOU HAVE INFO L.\n[Departure ATIS] KMSP DEP ATIS X 1905Z - KMSP DEP INFO X 1905Z SPECIAL. 24016G23KT 9SM SCT028 BKN034 31/23 A2969 (TWO NINER SIX NINER). DEPARTING RWY 30L, RWY 30R, RWY 17. NOTICE TO AIRMEN. TWY R7. R8. R9. R10. CLOSED. TWY R BTWN R6 AND R10 CLSD, TWY A7 CLSD, TWY A CLSD BTN TWY, A7 AND TWY D. SWAP IN EFCT, INCLUDING CDR. ALL ACFT CTC METERING ON ONE THREE THREE POINT FIVE SEVEN WHEN READY TO PUSHBACK OR TAXI. HAZD WX INFO FOR MSP AREA AVBL FM FSS. CTN, BIRDS NEAR MSP. READ BACK HS AND ALT. ALL ACFT TAXI WITH TRANSPONDER AND ALTITUDE ENCODING ON. ...ADVS YOU HAVE INFO X.",
    "CYEG": "[Arrival ATIS] CYEG ARR ATIS X 2000Z 32012KT 4SM FU CIG BKN015TCU 19/16 A3020 APCH RNAV Z OR Y OR ILS RWY 02, INFORM ARRL OF REQ APCH ON INITIAL CTC. LDG AND DEP RWY 02. RSC 02 5/5/5 100 PCT WET, 100 PCT WET, 100 PCT WET. VALID JUL 20 1737 - JUL 21 0137. SIMUL APPROACHES MAY BE IN EFCT. INFORM CYEG ATC INFO X\n[Departure ATIS] CYEG DEP ATIS V 1853Z CYEG ARR ATIS V 1853Z 33007KT 300V360 6SM FU CIG BKN014TCU BKN031 19/16 A3018 APCH RNAV Z OR Y OR ILS RWY 02, INFORM ARRL OF REQ APCH ON INITIAL CTC. LDG AND DEP RWY 02. RSC 02 5/5/5 100 PCT WET, 100 PCT WET, 100 PCT WET. VALID JUL 20 1737 - JUL 21 0137. SIMUL APPROACHES MAY BE IN EFCT. INFORM CYEG ATC INFO V",
    "EHAM": "[Arrival ATIS] EHAM ARR ATIS K 1600Z EHAM ARRIVAL INFO K. DEMAND. MAIN LANDING RWY 06. SECONDARY LANDING RWY 36 R. TRANSITION LEVEL 040. WIND 320 DEG, 11 KT, VRB BTN 270 AND 030 DEG, 15 KT MAX, 4 KT MNM. WIND SECONDARY RUNWAY 330 DEG, 7 KT, VRB BTN 300 AND 030 DEG, 14 KT MAX, 5 KT MNM. VIS 10 KM OR MORE. CLD FEW 4100 FT. T 20. DP 10. QNH 1024 HPA. NOSIG. OPERATIONAL REPORT. CONVERGING APPROACHES IN PROGRESS. CONTACT APCH WITH CALLSIGN ONLY. END OF INFO K\n[Departure ATIS] EHAM DEP ATIS N 1950Z EHAM DEPARTURE INFO N. DEMAND. MAIN DEPARTURE RWY 36 L. MAIN LANDING RWY 06. WIND 360 DEG, 7 KT. VIS 10 KM OR MORE. CLD FEW 3000 FT. T 16. DP 10. QNH 1025 HPA. OPERATIONAL REPORT. INFORM SCHIPHOL DEL BY VOICE IF UNABLE TO COMPLY WITH NADP 2. END OF INFO N",
    "EBBR": "[Arrival ATIS] EBBR ARR ATIS W 1534Z EBBR NAT, EXP VECT FOR ILS APP ARR RWY25L RSCD AT 1501 RWY25L DRY. DEP RWY25R TRL 055 ILS 25R NOT AVBL. RNP RWY 25R AVBL AT ATC DISCRETION. TAIL OPS 010/9KT VRB BTN 300 AND 020 CAVOK T21 DP8 QNH 1024HPA NOSIG CFM ARR W\n[Departure ATIS] EBBR DEP ATIS P 1407Z EBBR NAT, DEP RWY25R RSCD AT 1058 RWY25R DRY. ARR RWY25L TRL 055 TWY B1 CLSD. ADV DLC IF UNA TO LINEUP VIA B3 , TORA 2760 M. TAIL OPS 310/8KT VRB BTN 290 AND 010 MNM4 MAX14 CAVOK T21 DP8 QNH 1024HPA NOSIG CFM DEP P",
    "EDDF": "[Arrival ATIS] EDDF ARR ATIS Z 1520Z ARR-ATIS EDDF Z METAR 201520 EXPECT INDEPENDENT PARALLEL ILS Z APCH RWY 07L OR ILS APCH RWY 07R RWY 07L 07R GLS APCH ON REQUEST , TRL 60 34011KT 300V010 CAVOK T21 DP08 QNH1022 TREND NOSIG\n[Departure ATIS] EDDF DEP ATIS U 1920Z -DEP-ATIS EDDF U METAR 201920 - -RWY 07C 18 -ACFT DEPARTING RWY18 : EXPECT POSSIBLE DEPARTURE FROM INTERSECTION M , TORA 3454 METERS. IF UNABLE , ADVISE TWR ON INITIAL CONTACT , -TRL 60 - -01008KT RWY18 01007KT -CAVOK - - -T19 DP08 -QNH1022 - -TREND NOSIG",
    "EDDL": "[Arrival ATIS] EDDL ARR ATIS H 1150Z -ATIS EDDL H METAR 181150 -EXPECT VECTORS ILS APPROACH -RWY 23L - -TRL 60 -EXPECT INTENSE BIRD ACTIVITY IN THE VICINITY OF RWY SYSTEM -25009KT 220V290 -9999 - -BKN032 BKN043 -T21 DP13 -QNH1016 - -TREND NOSIG\n[Departure ATIS] EDDL DEP ATIS R EDDL ARR/DEP DATIS RPT -ATIS EDDL R METAR 020550 -EXPECT VECTORS ILS APPROACH -RWY 23L -TWY L8 CLOSED BETWEEN TWY M AND RWY 23L -TRL 60 - -23010KT -CAVOK - - -T19 DP13 -QNH1020 - -TREND NOSIG",
    "EDDK": "[Arrival ATIS] EDDK ARR ATIS Z 1520Z ATIS EDDK Z METAR 201520 EXPECT ILS APCH RWY 31R 06 RWY COND RWY 31R AT TIME 1425 RWYCC 6 DEPOSIT TOTAL RWY DRY RWY 06 AT TIME 1425 RWYCC 6 DEPOSIT TOTAL RWY DRY FLIGHT CALIBRATION IN PROGRESS: NO AUTOMATIC LANDING RWY 31R POSSIBLE / ILS RWY 13L TRANSMITTING PARALLEL: INCREASED BIRD ACTIVITY OVER RWY 31R TRL 60 RWY 13R AND RWY 31L CLOSED FOR DEPARTURE AND LANDING: TAXIING BTN THR RWY 13R AND INTERSECTION RWY 24 POSSIBLE : 03004KT 350V090 CAVOK T19 DP10 QNH1024 TREND NOSIG\n[Departure ATIS] EDDK DEP ATIS E 2050Z -ATIS EDDK E METAR 142050 -EXPECT CDO FOR ILS APCH RWY 31R -RWY 31R 06 -RWY COND RWY 31R AT TIME 1837 RWYCC 6 DEPOSIT TOTAL RWY DRY RWY 06 AT TIME 1837 RWYCC 6 DEPOSIT TOTAL RWY DRY -TRL 60 -RWY 13R AND RWY 31L CLOSED FOR DEPARTURE AND LANDING: TAXIING BTN THR RWY 13R AND INTERSECTION RWY 24 POSSIBLE : -02006KT 350V050 -CAVOK - - -T23 DP14 -QNH1018 - -TREND NOSIG",
    "EBLG": "[Arrival ATIS] EBLG ATIS G 1820Z EBLG INFO, EXP RNAV TO ILS APP ARR RWY04R DEP RWY04R RWY 04R DRY, RWYCC 666. TRL 055 ADZ ON GND FREQ IF UNABLE S2 340/5KT CAVOK T20 DP7 QNH 1024HPA NOSIG CFM ATIS G",
    "LSZH": "[Arrival ATIS] LSZH ARR ATIS K 1550Z ARRIVALS, EXP ILS APCH, RWY 14. TRL 70. DEP RWY 28. WIND VRB, 5 KT. VIS 10 KM OR MORE, TDZ 10 KM OR MORE. CLD FEW 6000 FT. T 25. DP 7. QNH 1019. NOSIG.\n[Departure ATIS] LSZH DEP ATIS Q 1550Z DEP RWY 28. TRL 70. ARRIVALS, EXP ILS APCH, RWY 14. TMA S 1 IS NOT ACT. TMA S 2 AND S 3 ARE NOT ACT. WIND VRB, 4 KT. VIS 10 KM OR MORE. CLD FEW 6000 FT. T 25. DP 7. QNH 1019. NOSIG.",
    "LIMC": "[Arrival ATIS] LIMC ARR ATIS U 1950Z LIMC ARR U 1950Z I.L.S. ZULU RWY IN USE 35R TL 70 WIND TDZ VRB1KT VRB BTN 040/AND 150/ CAVOK T26 DP18 QNH 1014HPA QFE 0989HPA\n[Departure ATIS] LIMC DEP ATIS Y 1150Z LIMC DEP Y 1150Z RWY IN USE 35L TL 70 WIND END 250/3KT VRB BTN 210/AND 320/ CAVOK T33 DP21 QNH 1018HPA QFE 0993HPA DATALINK CLEARANCE AVAILABLE.... CONTACT 1 3 1 8 8 0 TO BE RELEASED BY THE AIRPORT OPERATOR ...",
    "LIRF": "[Arrival ATIS] LIRF ARR ATIS J 1550Z LIRF ARR J 1550Z RWY 16L ILS W RWY 16R ILS Z RWY IN USE 16L 16R TL 70 DEPENDENT PARL ILS APCH INPR RWY IN USE 16R OR 16L ASSIGNED BY ROME RADAR WIND RWY 16L TDZ 230/9KT RWY 16R TDZ 250/8KT CAVOK T32 DP25 QNH 1013HPA RRSM\n[Departure ATIS] LIRF DEP ATIS Q 1220Z LIRF DEP Q 1220Z RWY IN USE 25 TL 75 RWYS IN USE FOR ARR 16L AND 16R WIND END 270/8KT VRB BTN 240/AND 310/ CAVOK T32 DP24 QNH 1012HPA REA IS SENT AUTOMATICALLY ONCE RLSD BY RAMP WHEN READY CONTACT FIUME RAMP 121.725 RRSM",
    "EINN": "[Arrival ATIS] EINN ARR ATIS Z 0100Z EXPECT I L S CATEGORY 1 LDG RWY24 TKOF RWY24 TRL FL060 34003KT 300V010 9999 FEW003 BKN004 15/14 QNH Q1020 TREND TEMPO BKN006 ADVISE AT FIRST CONTACT YOU HAVE ATIS INFO Z",
    "EGLL": "[Arrival ATIS] EGLL ARR ATIS J 0220Z LANDING RWY 09R TRANSITION-LEVEL: FL 70 IF STAND GUIDANCE IS OFF OR FAILS, REMAIN ON THE TAXIWAY CENTRELINE AND ADVISE ATC AUTO 03003KT 9999 NCD 23/20 Q1016 ACKNOWLEDGE RECEIPT OF INFORMATION J\n[Departure ATIS] EGLL DEP ATIS I 1820Z DEPARTURE RWY 09R RUNWAY 09L REDUCED DECLARED DISTANCES PILOTS THAT ARE IN RECEIPT OF DATALINK CLEARANCES ARE REMINDED THEY MUST CONTACT DELIVERY ON 121.980 WHEN READY FOR START DATALINK CLEARANCES NOT AVAILABLE FOR CPT DEPARTURES AUTO 36006KT 340V060 9999 NCD 25/05 Q1025 ACKNOWLEDGE RECEIPT OF INFORMATION I AND REPORT AIRCRAFT TYPE AND CURRENT QNH ON FIRST CONTACT WITH HEATHROW",
    "EPWA": "[Arrival ATIS] EPWA ARR ATIS K 1401Z EPWA ARR K. TIME 1401. EXP U ARR ILS Z APCH FOR RWY 33. TRANSITION LEVEL 80. WIND 280 DEG, 11 KT, VRB BTN 250 AND 310 DEG. VIS TDZ 10 KM OR MORE. CLD SCT TCU 4000 FT. T 24. DP 17. QNH 1009. TREND TEMPO WIND 260 DEG, 15 KT, GUSTING TO 27 KT, CLD SCT CB 4000 FT. CAUTION. BIRD ACT. END OF EPWA ARR K\n[Departure ATIS] EPWA DEP ATIS Z 1420Z EPWA DEP Z. TIME 1420. DEP RWY 29. ARR RWY 33, EXP U ARR ILS Z. REPORT READY FOR STARTUP ON DELIVERY 121 DECIMAL 605. RWY 29 RCC 5, 5, 5. 1ST PART, WET. 2ND PART, WET. 3RD PART, WET. RWY REPORT END. TRANSITION LEVEL 80. WIND 270 DEG, 17 KT GUSTING FM 13 KT TO 28 KT. VIS MID 10 KM OR MORE. WX FBL SHRA. CLD BKN CB 3700 FT. T 15. DP 11. QNH 1016. TREND TEMPO WIND 260 DEG, 20 KT, GUSTING TO 32 KT, VIS 4000 M, MOD SHRA. CAUTION. BIRD ACT. END OF EPWA DEP Z",
    "EFHK": "[Arrival ATIS] EFHK ARR ATIS H 1920Z EXPECT ILS APCH ARR RWY 04L RUNWAY 04L CONDITION REPORT AT 1852 UTC RUNWAY CONDITION CODES 6 , 6 , 6 CONTAMINANTS ALL PARTS DRY TRL 60 WIND 050 DEG 8 KT VIS 10KM FEW 4300 FT T 15 DP 8 QNH 1016 NOSIG ACK INFO H\n[Departure ATIS] EFHK DEP ATIS S 1250Z DEP RWYS 22R AND 22L RUNWAY 22R CONDITION REPORT AT 1003 UTC RUNWAY CONDITION CODES 6 , 6 , 6 CONTAMINANTS ALL PARTS DRY RUNWAY 22L CONDITION REPORT AT 1004 UTC RUNWAY CONDITION CODES 6 , 6 , 6 CONTAMINANTS ALL PARTS DRY WIND 270 DEG 15 KT VRB BTN 230 AND 300 DEG CAVOK T 19 DP 3 QNH 1018 NOSIG ACK INFO S",
    "LTAC": "[Arrival ATIS] LTAC ARR ATIS K 1320Z EXP ILS V APCH 03C DEP RWY 03L RWY 03C WIND 350 DEG 03 KT VRB BTN 250 DEG AND 050 DEG RWY 03L WIND VRB 05 KT TRL 110 VIS 9999 SCT04000 FT T 29 DP 07 QNH 1013 NOSIG FOR DELIVERY CTC 121.9. FOR DELIVERY FIRST USE DIGITAL DEP CLR. CTN BIRD HAZARD OVR AERODROME. APCH FREQUENCY 129.050. INDEPENDENT PARL DEPS INPR. END OF ATIS K",
    "UBBB": "[Arrival ATIS] UBBB ARR ATIS E 0130Z ATIS E EXP ILS/ LDG 16 17 DEP 16 17 IN USE RWY 16 CLEAR DRY 70 RWY 17 CLEAR DRY 70 TLVL 110 WIND WIND RWY 16 060 6 KT SPD MAX 6 MIN 4 WIND RWY 17 070 4 KT SPD MAX 8 MIN 4 VIS CAVOK T 21 / DP 17 QNH 1011 HPA TREND TREND NOSIG MODERATE BIRDS ACT IN VICINITY OF AP END OF ATIS E\n[Departure ATIS] UBBB DEP ATIS R 1730Z ATIS R EXP ILS/ LDG 34 35 DEP 34 35 IN USE RWY 34 CLEAR DRY 70 RWY 35 CLEAR DRY 70 TLVL 110 WIND WIND RWY 34 350 10 KT SPD MAX 12 MIN 8 WIND RWY 35 350 10 KT SPD MAX 14 MIN 8 VIS CAVOK T 24 / DP 19 QNH 1013 HPA TREND TREND NOSIG MODERATE BIRDS ACT IN VICINITY OF AP END OF ATIS R",
    "ZWWW": "[Arrival ATIS] ZWWW ARR ATIS K 0200Z EXP ILSDME Z APCH LDG RWY 26R TA 3000 WIND 180/5MPS CAVOK T 27 /DP 04 QNH 1010 HPA ADZ YOU HAVE INFO K.\n[Departure ATIS] ZWWW DEP ATIS F 0100Z DEP RWY 26L TA 3000 WIND 170/5MPS VRB BTN 150/ AND 210/ CAVOK T 25 /DP 03 QNH 1010 HPA ADZ YOU HAVE INFO F.",
    "ZLXY": "[Arrival ATIS] ZLXY ARR ATIS A 0200Z EXP ILS APCH LDG RWY 05L & 06R WIND 060/6MPS CAVOK T 25 /DP 19 QNH 1009 HPA VISUAL APPROACH IN PROGRESS ADZ YOU HAVE INFO A.\n[Departure ATIS] ZLXY DEP ATIS X 0300Z DEP RWY 05L & 06L WIND 060/4MPS VIS 9999M CLD FEW 2100M T 26 /DP 18 QNH 1007 HPA VISUAL APPROACH IN PROGRESS ADZ YOU HAVE INFO X.",
    "ZBAA": "[Arrival ATIS] ZBAA ARR ATIS C 0200Z EXP ILS APCH DEPENDENT PARL INSTR APCH LDG RWY 36L & 36R & 01 WIND VRB DEG 1 MPS CAVOK T 27 /DP 18 QNH 1008 HPA ADZ YOU HAVE INFO C.\n[Departure ATIS] ZBAA DEP ATIS Z 0030Z DEP RWY 36L & 36R & 01 WIND VRB DEG 1 MPS CAVOK T 25 /DP 20 QNH 1009 HPA RWY INDEPENDENT PARALLEL DEP ADZ YOU HAVE INFO Z.",
    "ZBHH": "[Arrival ATIS] ZBHH ARR ATIS J 0200Z EXP ILSDME APCH LDG RWY 26 TA 3000 /TRL 3600 WIND 140/2MPS VRB BTN 080/ AND 230/ CAVOK T 22 /DP 03 QNH 1014 HPA ADZ YOU HAVE INFO J.\n[Departure ATIS] ZBHH DEP ATIS Q 1500Z DEP RWY 08 TA 3000 /TRL 3600 WIND 140/2MPS VIS 5000M BR NSC T 19 /DP 19 QNH 1007 HPA ADZ YOU HAVE INFO Q.",
    "ZSQD": "[Arrival ATIS] ZSQD ARR ATIS B 0100Z EXP ILSDME APCH LDG RWY 35 TA 3000 /TRL 3600 WIND VRB/1MPS VIS 9999M CLD FEW 570M T 24 /DP 19 QNH 1009 HPA SEGREGATED OPERATION VISUAL APPROACH OPERATION IN PROGRESS. RUNWAY 35,IF MISSED APPROACH,EXPECT FOLLOW THE STANDARD MISSED APPROACH PROCEDURE,CLIMB TO 1200M ON QNH OR BY ATC CAUTION MAYBE THERE IS A FLOCK OF BIRDS IN THE VICINITY OF AIRPORT ADZ YOU HAVE INFO B.\n[Departure ATIS] ZSQD DEP ATIS B 0100Z DEP RWY 34 TA 3000 /TRL 3600 WIND VRB/1MPS VIS 9999M CLD FEW 570M T 24 /DP 19 QNH 1009 HPA SEGREGATED OPERATION VISUAL APPROACH OPERATION IN PROGRESS. RUNWAY 35,IF MISSED APPROACH,EXPECT FOLLOW THE STANDARD MISSED APPROACH PROCEDURE,CLIMB TO 1200M ON QNH OR BY ATC CAUTION MAYBE THERE IS A FLOCK OF BIRDS IN THE VICINITY OF AIRPORT ADZ YOU HAVE INFO B."
  },
  "windtemp_alaska": "\n000\nFBAK31 KWNO 201358\nFD1AK1\nDATA BASED ON 201200Z    \nVALID 201800Z   FOR USE 1400-2100Z. TEMPS NEG ABV 24000\n\nFT  3000    6000    9000   12000   18000   24000  30000  34000  39000\nADK 3120 3022+11 3126+06 3126+00 2927-13 3025-23 303638 304147 304558\nADQ 2112 2012-02 1916-06 1921-11 1731-23 1643-35 155943 165042 173442\nAKN 1716 1712-02 1709-08 1713-13 1724-25 1629-36 162842 172240 171540\nANC 1414 1624+03 1638-01 1649-05 1657-16 1657-28 156742 156851 165452\nANN 3608 9900+13 3406+09 9900+02 9900-12 2007-25 191340 191549 201558\nBET 1613 1714-01 1714-07 1611-14 1706-25 3005-36 990042 200740 180640\nBRW 1011 1308+04 1510-02 1413-07 1827-17 2040-29 217045 205652 152447\nBTI 1405 1706+07 2314+01 2418-02 2418-14 2432-27 254343 244553 242654\nBTT 1224 1524+08 1529+02 1638-04 1846-16 1749-27 185843 186052 173451\nCDB 2117 2217+00 2418-05 2621-09 2931-19 3157-28 318344 317252 313746\nCZF 1612 1609-02 1410-07 1410-13 2405-24 2712-35 292144 281040 990039\nEHM 1908 1809-03 1809-07 2307-12 3018-23 3137-34 315344 303042 291141\nFAI 1716 1720+09 1826+02 1827-03 1626-16 1536-27 153942 153652 172355\nFYU 1609 1512+11 1616+04 1620-02 1721-15 1817-26 161942 172153 172357\nGAL 2206 1712+01 1616-03 1523-08 1643-20 1682-29 660343 169350 165346\nGKN 1520 1729+07 1822+02 1622-02 1627-16 1636-27 153242 142851 163155\nHOM 1614 1618+00 1623-04 1631-09 1557-20 1682-30 149443 159749 165145\nJNU 9900 9900+11 2207+07 2208+01 1910-13 1816-25 192141 192550 192257\nLUR 0912 1017+02 1219-04 1320-10 1427-22 1437-34 153748 133343 112540\nMCG 9900 1906+00 1614-04 1521-10 1650-20 1681-30 650243 169549 164945\nMDO 1630 1633+06 1529+00 1632-04 1639-17 1743-27 164942 154851 164854\nOME 1412 1314+00 1218-06 1319-12 1325-25 1329-36 142844 142840 141838\nORT      1708+10 1515+05 1513+00 1517-15 1622-27 173043 173352 172654\nOTZ 0813 0713+01 0814-04 1017-09 1231-22 1347-34 167046 154843 142940\nSNP 1626 1816+02 2718+01 2729-03 2938-15 2842-27 284543 294250 294347\nTKA 1716 1720+03 1733-01 1647-05 1656-17 1659-29 156541 156852 175253\nUNK 1511 1411+00 1514-06 1524-12 1434-23 1550-34 157444 155242 153141\nYAK 2805 2610+05 2010+04 1716+00 1719-15 1726-27 163743 164451 173153\nIKO 2429 2630+07 2628+03 2633-02 2838-13 2938-25 294142 315351 313951\nAFM 1225 1525+03 1418-02 1329-07 1542-18 1769-29 179744 179051 174846\n5AB 2831 2725+12 2723+07 2826+01 2931-14 2931-22 304337 304546 304855\n5AC 3520 3515+12 3412+08 3510+01 2407-14 2012-26 192440 192649 192257\n5AD 2610 2217+05 2127+00 2033-05 1848-17 1857-28 186244 186451 195850\n5AE 2421 2317+00 2419-06 2522-12 2623-24 2623-37 272244 261941 241641\n5AF 2908 2309+09 2316+06 2319+00 2115-15 2020-26 183442 184250 193554\n5AG 1815 2012+04 1815+03 1819-02 1826-15 1826-27 192842 192550 183254\n",
  "vaac_tokyo": [
    {
      "id": "20260720_30027000_0272",
      "year": "2026",
      "volcano": "Sheveluch",
      "psn": "N5639 E16122",
      "issued": "20260720",
      "text": "FVFE01 RJTD 201500\nVA ADVISORY\nDTG: 20260720/1500Z\nVAAC: TOKYO\nVOLCANO: SHEVELUCH 300270\nPSN: N5639 E16122\nAREA: RUSSIA\nSOURCE ELEV: 3283M AMSL\nADVISORY NR: 2026/272\nINFO SOURCE: HIMAWARI-9\nERUPTION DETAILS: VA CONTINUOUSLY OBS IN SATELLITE IMAGERY\nOBS VA DTG: 20/1420Z\nOBS VA CLD: SFC/FL390 N5626 E16711 - N5644 E16801 - N5334 E17100 - \nN5320 E17046 - N5455 E16741 MOV SE 80KT\nFCST VA CLD +6 HR: 20/2020Z SFC/FL400 N5451 E17745 - N5237 E17715 - \nN5013 E17845 - N5030 E17644 - N5236 E17455 - N5459 E17606\nFCST VA CLD +12 HR: 21/0220Z SFC/FL400 N5255 W17530 - N4753 W17642 - \nN4554 W17523 - N4517 W17545 - N4651 W17824 - N5004 W17948\nFCST VA CLD +18 HR: 21/0820Z SFC/FL400 N5101 W17024 - N4432 W17322 - \nN4036 W16942 - N4024 W17143 - N4405 W17542 - N4722 W17530\nRMK: SOME PART OF VA OBSCURED BY MET CLOUD. THE RESPONSIBILITY FOR \nTHIS ASH EVENT IS BEING TRANSFERRED TO VAAC ANCHORAGE. THE NEXT \nADVISORY WILL BE ISSUED BY VAAC ANCHORAGE BY 1800UTC UNDER HEADER \nFVAK21 PAWU.\nNXT ADVISORY: NO FURTHER ADVISORIES=",
      "img_url": "https://ds.data.jma.go.jp/svd/vaac/data/VAGFN/2026/Images/20260720_30027000_0272_QH21_01.png",
      "sat_img_url": "https://ds.data.jma.go.jp/svd/vaac/data/Sat/2026/Images/30027000/09-ir/20260720_1420_202607201500_ir.png",
      "text_url": "https://ds.data.jma.go.jp/svd/vaac/data/TextData/2026/20260720_30027000_0272_Text.html"
    },
    {
      "id": "20260719_27303000_0769",
      "year": "2026",
      "volcano": "Mayon",
      "psn": "N1315 E12341",
      "issued": "20260719",
      "text": "FVFE01 RJTD 192213\nVA ADVISORY\nDTG: 20260719/2213Z\nVAAC: TOKYO\nVOLCANO: MAYON 273030\nPSN: N1315 E12341\nAREA: PHILIPPINES\nSOURCE ELEV: 2462M AMSL\nADVISORY NR: 2026/769\nINFO SOURCE: HIMAWARI-9 PHIVOLCS\nERUPTION DETAILS: ERUPTION AT 20260719/2148Z FL080 EXTD W REPORTED\nOBS VA DTG: 19/2200Z\nOBS VA CLD: VA NOT IDENTIFIABLE FM SATELLITE DATA WIND FL080 010/2KT\nFCST VA CLD +6 HR: NOT AVBL\nFCST VA CLD +12 HR: NOT AVBL\nFCST VA CLD +18 HR: NOT AVBL\nRMK: WE WILL ISSUE FURTHER ADVISORY IF VA IS DETECTED IN SATELLITE \nIMAGERY.\nNXT ADVISORY: NO FURTHER ADVISORIES=",
      "img_url": "https://ds.data.jma.go.jp/svd/vaac/data/VAGFN/2026/Images/20260719_27303000_0769_QH21_01.png",
      "sat_img_url": null,
      "text_url": "https://ds.data.jma.go.jp/svd/vaac/data/TextData/2026/20260719_27303000_0769_Text.html"
    },
    {
      "id": "20260717_27307000_0014",
      "year": "2026",
      "volcano": "Taal",
      "psn": "N1400 E12100",
      "issued": "20260717",
      "text": "FVFE01 RJTD 171113\nVA ADVISORY\nDTG: 20260717/1113Z\nVAAC: TOKYO\nVOLCANO: TAAL 273070\nPSN: N1400 E12100\nAREA: PHILIPPINES\nSOURCE ELEV: 311M AMSL\nADVISORY NR: 2026/14\nINFO SOURCE: HIMAWARI-9 PHIVOLCS\nERUPTION DETAILS: ERUPTION AT 20260717/1051Z FL040 EXTD E REPORTED\nOBS VA DTG: 17/1100Z\nOBS VA CLD: VA NOT IDENTIFIABLE FM SATELLITE DATA WIND FL040 270/8KT\nFCST VA CLD +6 HR: NOT AVBL\nFCST VA CLD +12 HR: NOT AVBL\nFCST VA CLD +18 HR: NOT AVBL\nRMK: WE WILL ISSUE FURTHER ADVISORY IF VA IS DETECTED IN SATELLITE \nIMAGERY.\nNXT ADVISORY: NO FURTHER ADVISORIES=",
      "img_url": "https://ds.data.jma.go.jp/svd/vaac/data/VAGFN/2026/Images/20260717_27307000_0014_QH21_01.png",
      "sat_img_url": null,
      "text_url": "https://ds.data.jma.go.jp/svd/vaac/data/TextData/2026/20260717_27307000_0014_Text.html"
    },
    {
      "id": "20260713_28208001_0083",
      "year": "2026",
      "volcano": null,
      "psn": "N3136 E13039",
      "issued": "20260713",
      "text": "FVFE01 RJTD 130254\nVA ADVISORY\nDTG: 20260713/0254Z\nVAAC: TOKYO\nVOLCANO: SAKURAJIMA (AIRA CALDERA) 282080\nPSN: N3136 E13039\nAREA: JAPAN\nSOURCE ELEV: 1117M AMSL\nADVISORY NR: 2026/83\nINFO SOURCE: JMA HIMAWARI-9\nERUPTION DETAILS: ERUPTED AT 20260713/0152Z FL100 EXTD N\nOBS VA DTG: 13/0230Z\nOBS VA CLD: SFC/FL100 N3136 E13039 - N3142 E13040 - N3141 E13044 - \nN3134 E13042 MOV NE 15KT\nFCST VA CLD +6 HR: 13/0830Z SFC/FL100 N3234 E13121 - N3145 E13155 - \nN3202 E13110 - N3227 E13051\nFCST VA CLD +12 HR: 13/1430Z SFC/FL100 N3318 E13206 - N3142 E13317 - \nN3134 E13226 - N3312 E13118\nFCST VA CLD +18 HR: NO VA EXP\nRMK: NIL\nNXT ADVISORY: 20260713/0600Z=",
      "img_url": "https://ds.data.jma.go.jp/svd/vaac/data/VAGFN/2026/Images/20260713_28208001_0083_QH21_01.png",
      "sat_img_url": "https://ds.data.jma.go.jp/svd/vaac/data/Sat/2026/Images/28208001/09-ir/20260713_0230_202607130254_ir.png",
      "text_url": "https://ds.data.jma.go.jp/svd/vaac/data/TextData/2026/20260713_28208001_0083_Text.html"
    }
  ],
  "vaac_alaska": [
    {
      "text": "\n000\nFVAK21 PAWU 201758\nVAAAK1\nVA ADVISORY\n\nDTG: 20260720/1800Z\n\nVAAC: ANCHORAGE\n\nVOLCANO: SHEVELUCH 300270\n\nPSN: N5639 E16122\n\nAREA: KAMCHATKA PENINSULA\n\nSOURCE ELEV: 10771 FT AMSL\n\nADVISORY NR: 2026/209\n\nINFO SOURCE: HIMAWARI\n\nERUPTION DETAILS: SOME PART OF VA OBSCURED BY MET CLOUDS.\n\nOBS VA DTG: 20/1800Z\n\nOBS VA CLD: SFC/FL400 N5214 E17533 - N4903 E17910 - N4837 E17630\n- N5202 E17358 - N5214 E17533 MOV SE 80KT\n\nFCST VA CLD +6HR: 21/0000Z SFC/FL400 N4926 E17911 - N4929 E17942\n- N4622 E17958 - N4624 E17905 - N4926 E17911 - N4926 E17911\n\nFCST VA CLD +12HR: 21/0600Z NO VA EXP\n\nFCST VA CLD +18HR: 21/1200Z NO VA EXP\n\nRMK: VAAC TOKYO HAS TRANSFERRED RESPONSIBILITY OF THIS EVENT\nTO VAAC ANCHORAGE. THIS ADVISORY UPDATES MESSAGE FVFE01 RJTD....TS\n\nNXT ADVISORY: WILL BE ISSUED BY 20260721/2100Z=\n\n",
      "issued": "2026-07-20T17:58:00+00:00",
      "volcano": "Sheveluch",
      "psn": "N5639 E16122"
    }
  ]
}