{
  "updated_utc": "2026-07-06T01:17Z",
  "metar": {
    "RJAA": "METAR RJAA 052330Z 11008KT 9999 -SHRA FEW015 BKN080 24/20 Q1012 NOSIG",
    "PANC": "METAR PANC 052353Z 16007KT 10SM SCT040 BKN110 15/07 A2994 RMK AO2 SLP139 SH N T01500072 10150 20122 58003 $",
    "PAFA": "METAR PAFA 052353Z 05011KT 10SM SCT065 SCT090 BKN200 22/09 A2989 RMK AO2 SLP125 T02220089 10233 20167 56007 $",
    "PAED": "METAR PAED 052355Z 27005KT 10SM FEW060 SCT100 BKN150 BKN200 16/08 A2992 RMK AO2A LTG DSNT W SLP128 T01610078 $",
    "KSEA": "METAR KSEA 052353Z 35009G17KT 10SM CLR 24/09 A3007 RMK AO2 SLP186 T02440089 10250 20183 58018 $",
    "ZSPD": "METAR ZSPD 052330Z 22004MPS CAVOK 29/24 Q1006 NOSIG",
    "ZSSS": "METAR ZSSS 052330Z 20004MPS 9999 -SHRA FEW040 28/25 Q1006 NOSIG",
    "RJFR": "METAR RJFR 060000Z 12005KT 9999 FEW005 SCT025 BKN130 26/25 Q1008",
    "VHHH": "METAR VHHH 052330Z 17012KT 120V210 9999 FEW010 SCT020 28/25 Q1007 TEMPO 16015G25KT 3500 SHRA FEW010CB SCT020",
    "RCTP": "METAR RCTP 052330Z 23010KT 9999 FEW015 31/25 Q1011 NOSIG RMK A2986",
    "ZGSZ": "METAR ZGSZ 060000Z 18007MPS 9999 OVC026 28/26 Q1007 NOSIG",
    "WSSS": "METAR WSSS 052330Z VRB02KT 7000 FEW015 FEW018TCU FEW020CB SCT300 27/25 Q1011 NOSIG",
    "WMKK": "METAR WMKK 052330Z 01004KT 310V100 8000 FEW010 25/24 Q1010 NOSIG",
    "WIDD": "METAR WIDD 052330Z 18004KT 130V230 1900 -RA BKN014 25/24 Q1011 NOSIG",
    "VTBS": "METAR VTBS 052330Z 17005KT 9999 FEW020 29/27 Q1009 NOSIG",
    "VTBU": "METAR VTBU 052330Z VRB02KT 8000 -RA FEW020 BKN090 26/26 Q1010 NOSIG",
    "ROAH": "METAR ROAH 052330Z 20005KT 9999 FEW014 30/27 Q1012",
    "VVDN": "METAR VVDN 052330Z VRB01KT 9999 FEW017 SCT080 30/22 Q1007 NOSIG",
    "RCKH": "METAR RCKH 052330Z 19008KT 160V260 9999 FEW016 30/23 Q1011 NOSIG RMK A2988",
    "KLAX": "METAR KLAX 052353Z 26015G23KT 10SM FEW010 FEW100 SCT150 22/16 A2993 RMK AO2 SLP134 T02220156 10239 20217 58016",
    "KONT": "METAR KONT 052353Z 25012G19KT 10SM FEW080 FEW250 31/14 A2990 RMK AO2 SLP109 T03110144 10322 20272 58015 $",
    "KSFO": "METAR KSFO 052356Z 27015KT 10SM FEW009 FEW180 19/12 A2998 RMK AO2 SLP150 T01890117 10211 20178 56006 $",
    "KOAK": "SPECI KOAK 052322Z 26014KT 10SM FEW009 FEW150 19/12 A2998 RMK AO2 T01940122 $",
    "KMHR": "METAR KMHR 052335Z AUTO 23008KT 10SM CLR 32/06 A2988 RMK AO2 T03180062",
    "KDFW": "METAR KDFW 052353Z 13009KT 10SM FEW065 FEW150 BKN250 32/19 A2987 RMK AO2 SLP106 T03220194 10361 20322 57019 $",
    "KIAH": "METAR KIAH 052353Z 00000KT 10SM FEW060 SCT250 35/21 A2988 RMK AO2 SLP118 T03500206 10356 20333 55021",
    "KORD": "METAR KORD 052351Z 03012KT 10SM BKN012 23/19 A2997 RMK AO2 SLP145 T02280194 10244 20217 58002 $",
    "KJFK": "METAR KJFK 052351Z 10011KT 10SM FEW012 SCT040 BKN090 BKN180 BKN250 23/21 A2998 RMK SLP151 T02330211 10289 20233 52005$",
    "KRFD": "METAR KRFD 052354Z 02005KT 10SM FEW050 SCT140 BKN250 24/21 A2999 RMK AO2 SLP153 60070 T02440211 10278 20211 58002 $",
    "KIND": "METAR KIND 052354Z 30009KT 10SM FEW035 SCT250 27/21 A2991 RMK AO2 SLP121 T02720206 10289 20267 55002 $",
    "KDTW": "METAR KDTW 052353Z 07008KT 10SM SCT025 BKN070 24/20 A2994 RMK AO2 SLP136 60000 T02440200 10261 20239 53001 $",
    "KMSP": "METAR KMSP 052353Z 21004KT 10SM FEW060 29/16 A3001 RMK AO2 SLP159 T02940161 10300 20272 58009",
    "CYEG": "METAR CYEG 060000Z 26012KT 20SM FEW041CB FEW060 BKN220 17/10 A3004 RMK CB1SC1CI5 CB DIST N AND SE MOV E SLP184 DENSITY ALT 3100FT",
    "EHAM": "METAR EHAM 052325Z 22008KT CAVOK 18/15 Q1020 NOSIG",
    "EBBR": "METAR EBBR 052320Z 20005KT CAVOK 15/14 Q1022 NOSIG",
    "EDDF": "METAR EDDF 052320Z AUTO 25004KT 210V300 CAVOK 18/14 Q1021 NOSIG",
    "EDFH": "METAR EDFH 052320Z 28005KT 250V310 CAVOK 16/13 Q1023",
    "EDDL": "METAR EDDL 052320Z AUTO 28005KT 250V310 9999 OVC038 19/14 Q1021 NOSIG",
    "EDDK": "METAR EDDK 052320Z AUTO VRB01KT 9999 OVC047 18/14 Q1021 NOSIG",
    "EBLG": "METAR EBLG 052320Z 24002KT CAVOK 17/13 Q1022 NOSIG",
    "LSZH": "METAR LSZH 052320Z AUTO VRB02KT CAVOK 17/13 Q1023 NOSIG",
    "LIMC": "METAR LIMC 052320Z 02007KT CAVOK 21/14 Q1017 NOSIG",
    "LIRF": "METAR LIRF 052320Z VRB01KT CAVOK 24/23 Q1017 NOSIG",
    "EINN": "METAR EINN 052330Z 27004KT 9999 FEW008 SCT240 14/13 Q1022 NOSIG",
    "EGLL": "METAR EGLL 052320Z AUTO 26008KT 9999 NCD 21/14 Q1021",
    "EGSS": "METAR EGSS 052320Z AUTO 24007KT 9999 NCD 21/16 Q1021",
    "EPWA": "METAR EPWA 052330Z 26007KT CAVOK 13/11 Q1011 NOSIG",
    "UHPP": "METAR UHPP 052330Z 15004MPS 120V180 9999 FEW050 15/09 Q1018 R16R/CLRD62 NOSIG RMK MT OBSC QFE760/1013",
    "EFHK": "METAR EFHK 052320Z 32005KT CAVOK 14/13 Q0997 NOSIG",
    "LBBG": "METAR LBBG 052330Z AUTO 33004KT 9999 NCD 18/15 Q1015 NOSIG",
    "LTAC": "METAR LTAC 052320Z 05010KT 9999 FEW040 SCT100 16/10 Q1015 NOSIG",
    "UBBB": "METAR UBBB 052330Z 34006KT CAVOK 22/21 Q1007 NOSIG",
    "UTAA": "METAR UTAA 060000Z 28008KT 9999 NSC 28/09 Q1006 R88/CLRD70 NOSIG",
    "UACC": "METAR UACC 052330Z 21002MPS 9999 FEW046 14/13 Q1009 NOSIG RMK QFE726/0968",
    "UAAA": "METAR UAAA 052330Z VRB01MPS 9999 FEW100 SCT200 16/11 Q1009 NOSIG",
    "UZTT": "METAR UZTT 052330Z 07004KT CAVOK 22/12 Q1007 NOSIG",
    "ZWWW": "METAR ZWWW 052330Z 16003MPS 9999 -RA SCT046 23/16 Q1012 NOSIG",
    "ZLXY": "METAR ZLXY 060000Z 10003MPS CAVOK 31/19 Q1000 NOSIG",
    "ZBAA": "METAR ZBAA 052330Z 04002MPS 010V080 CAVOK 24/19 Q1000 NOSIG",
    "ZBHH": "METAR ZBHH 060000Z VRB01MPS CAVOK 20/14 Q1006 NOSIG",
    "ZSQD": "METAR ZSQD 060000Z 22003MPS 190V250 9999 FEW012 25/22 Q1001 NOSIG",
    "ZMCK": "METAR ZMCK 052330Z VRB02MPS CAVOK 15/12 Q1012 NOSIG RMK QFE644.3 80",
    "UUEE": "METAR UUEE 052330Z 21003MPS 170V230 CAVOK 15/13 Q0999 R24C/CLRD62 NOSIG",
    "UUDD": "METAR UUDD 052330Z 21004MPS 9000 -SHRA SCT040CB 15/14 Q1001 R13R/CLRD65 NOSIG",
    "ULLI": "METAR ULLI 052330Z 00000MPS 9999 SCT013 BKN025CB 16/14 Q0995 R28L/290050 NOSIG",
    "USSS": "SPECI USSS 052318Z 16001MPS 7000 0200E R26R/0300D PRFG NSC 16/16 Q1010 R26R/CLRD60 R26L/CLRD60 NOSIG RMK QFE737/0983",
    "UNNT": "METAR UNNT 052330Z 20002MPS CAVOK 19/14 Q1008 R25/CLRD// R34/////// NOSIG RMK QFE746/0994",
    "UNKL": "METAR UNKL 052330Z 30003MPS 9000 -SHRA SCT006 BKN014CB 18/18 Q1002 R29/290150 NOSIG RMK QFE726",
    "UIBB": "METAR UIBB 052330Z 11002MPS 080V140 9999 NSC 20/17 Q1004 R12/CLRD62 NOSIG RMK QFE711/0948",
    "UEEE": "METAR UEEE 052330Z 15002MPS CAVOK 19/09 Q1014 R23/09//61 NOSIG RMK QFE751",
    "UHHH": "METAR UHHH 052330Z 03004MPS 8000 -SHRA BKN002 BKN020CB 16/16 Q1010 R88/290045 NOSIG RMK QBB070 QFE751/1002",
    "UHSS": "METAR UHSS 052330Z 36004MPS 9999 FEW006 16/13 Q1016 R01/150065 NOSIG RMK MT OBSC QFE760/1014"
  },
  "taf": {
    "RJAA": "TAF RJAA 052305Z 0600/0706 10006KT 9999 FEW020 SCT040 BECMG 0606/0608 02008KT TEMPO 0610/0612 FEW005 BKN008 TEMPO 0612/0621 4000 BR FEW001 BKN003 TEMPO 0621/0703 FEW005 BKN008",
    "PANC": "TAF PANC 052335Z 0600/0706 16007KT P6SM VCSH FEW040 OVC090 FM060200 16012G20KT P6SM SCT040 BKN090 FM060900 17006KT P6SM BKN070 FM062000 26006KT P6SM FEW050 BKN100",
    "PAFA": "TAF PAFA 052320Z 0600/0706 VRB06KT P6SM VCTS BKN050CB FM060600 04004KT P6SM SCT070 FM062300 06005KT P6SM VCTS BKN050CB PROB30 0623/0705 VRB10G20KT 6SM -TSRA OVC050CB",
    "PAED": "TAF PAED 052100Z 0521/0703 34006KT 9999 VCSH FEW045 BKN060 BKN200 620802 QNH2990INS TEMPO 0603/0606 25005KT -RA SCT030 BKN040 OVC060 BECMG 0610/0611 VRB06KT 9999 NSW FEW035 SCT060 BKN120 BKN200 QNH2984INS WND 23008KT AFT 0618 TX17/0601Z TN09/0612Z",
    "KSEA": "TAF KSEA 052320Z 0600/0706 36010G18KT P6SM FEW020 FM060900 03006KT P6SM SCT035 SCT060 FM061800 35009KT P6SM FEW250 FM070500 03005KT P6SM FEW250",
    "ZSPD": "TAF ZSPD 052104Z 0600/0706 17004MPS 6000 BKN020 TX32/0606Z TX32/0706Z TN26/0621Z",
    "ZSSS": "TAF ZSSS 052104Z 0600/0706 18004MPS 6000 BKN030 TX33/0606Z TX33/0706Z TN26/0621Z",
    "RJFR": "TAF RJFR 052305Z 0600/0706 30006KT 9999 FEW020 SCT045 BECMG 0612/0615 10006KT",
    "VHHH": "TAF VHHH 052300Z 0600/0706 16015KT 9999 FEW010 SCT025 TX32/0606Z TX31/0706Z TN27/0622Z TEMPO 0600/0604 16015G25KT 3500 SHRA FEW010CB SCT020 TEMPO 0622/0703 3500 SHRA FEW010CB SCT020 PROB30 TEMPO 0703/0706 16015G25KT 2500 TSRA SHRA FEW008CB SCT020",
    "RCTP": "TAF RCTP 052300Z 0600/0706 27012KT 9999 FEW015 TEMPO 0604/0610 30010KT BECMG 0610/0612 22005KT TEMPO 0618/0623 16005KT FEW012 BKN018 BECMG 0700/0702 32008KT TEMPO 0702/0706 FEW012 BKN020",
    "ZGSZ": "TAF AMD ZGSZ 052253Z 0518/0624 17006MPS 8000 BKN020 TX32/0606Z TN28/0522Z TN27/0622Z TEMPO 0519/0524 1200 +SHRA FEW015 FEW025CB BKN030 TEMPO 0605/0607 TSRA SCT015 FEW025CB BKN030 TEMPO 0609/0612 SHRA FEW015 FEW025CB BKN030 TEMPO 0619/0623 2000 +SHRA SCT015 FEW025CB BKN030",
    "WSSS": "TAF WSSS 052300Z 0600/0706 16007KT 9999 FEW015 SCT020",
    "WMKK": "TAF WMKK 052300Z 0600/0706 VRB03KT 9999 FEW030 PROB30 TEMPO 0608/0611 6000 -TSRA FEW017CB",
    "VTBS": "TAF VTBS 052300Z 0600/0706 20008KT 9999 FEW020 TEMPO 0608/0612 VRB15KT 4000 TSRA FEW018CB SCT030 BKN080",
    "VTBU": "TAF VTBU 052300Z 0600/0624 22010KT 9000 FEW020 BKN100",
    "ROAH": "TAF ROAH 052305Z 0600/0706 20006KT 9999 FEW015 BECMG 0700/0703 32010KT",
    "VVDN": "TAF VVDN 052300Z 0600/0624 24008KT 9999 FEW017 SCT060",
    "RCKH": "TAF RCKH 052300Z 0600/0706 20010KT 9999 FEW015 BECMG 0610/0612 17005KT TEMPO 0618/0624 07005KT BECMG 0700/0702 21010KT",
    "KLAX": "TAF KLAX 052327Z 0600/0706 26012KT P6SM FEW010 SCT250 FM060700 26007KT P6SM FEW008 FM061100 26004KT P6SM BKN008 FM061700 26006KT P6SM SKC FM062100 26012KT P6SM SKC",
    "KONT": "TAF KONT 052320Z 0600/0706 25012KT P6SM FEW250 FM060700 25006KT P6SM FEW250 FM061300 VRB03KT 4SM HZ BKN250 FM062000 25014KT P6SM FEW250 FM070400 25006KT P6SM SKC",
    "KSFO": "TAF KSFO 052336Z 0600/0706 28014G20KT P6SM FEW010 FM060300 27010KT P6SM SCT007 FM060800 25005KT P6SM BKN012 FM061800 29015KT P6SM FEW012",
    "KOAK": "TAF KOAK 052336Z 0600/0706 26013KT P6SM FEW010 FM060330 28010KT P6SM BKN007 FM061600 28010KT P6SM BKN015 FM062100 29015KT P6SM SKC FM070400 28012KT P6SM BKN007",
    "KMHR": "TAF KMHR 052320Z 0600/0624 22011KT P6SM FEW250 FM060500 16007KT P6SM FEW250 FM061200 VRB05KT P6SM SKC FM062200 19007KT P6SM SKC",
    "KDFW": "TAF KDFW 052333Z 0600/0706 12010KT P6SM SCT100 SCT250 FM060500 16005KT P6SM FEW250",
    "KIAH": "TAF KIAH 052328Z 0600/0706 26005KT P6SM FEW060 SCT250 PROB30 0600/0604 18007KT 6SM -TSRA BR BKN040CB FM060400 19005KT P6SM SCT060 SCT250 FM061000 VRB05KT P6SM SCT030",
    "KORD": "TAF KORD 052326Z 0600/0706 02012KT P6SM BKN011 OVC025 FM060300 02007KT P6SM SCT015 BKN120 FM061400 03012KT P6SM SCT040 SCT250",
    "KJFK": "TAF KJFK 052342Z 0600/0706 12011KT P6SM BKN020 BKN040 BKN090 FM060100 11007KT 4SM -SHRA BR OVC020 TEMPO 0601/0605 2SM TSRA OVC010CB FM060500 09007KT 3SM RA BR OVC007 PROB30 0605/0607 2SM TSRA BKN006CB FM060900 08011KT 3SM RA BR OVC006 FM061400 06012G18KT 2SM RA BR OVC006 FM061800 05013G19KT 2SM RA BR OVC005 PROB30 0618/0624 1SM +TSRA BKN004CB",
    "KRFD": "TAF KRFD 052326Z 0600/0624 05006KT 6SM BR VCSH BKN035 BKN060 FM060100 05006KT P6SM SCT030 BKN060 FM061400 04008KT P6SM SCT030 SCT250",
    "KIND": "TAF KIND 052326Z 0600/0706 33008KT P6SM SCT040 BKN250 FM060800 35005KT P6SM BKN010 OVC035 TEMPO 0609/0613 5SM BR SCT004 OVC006 FM061400 36010KT P6SM SCT010 BKN020 FM062000 36009KT P6SM VCSH BKN035",
    "KDTW": "TAF KDTW 052320Z 0600/0706 06008KT P6SM SCT025 BKN070 FM060300 03007KT P6SM BKN030 BKN100 FM060900 03006KT 5SM BR BKN030 BKN120 PROB30 0609/0613 3SM -SHRA BR OVC020 FM061300 06009KT P6SM BKN030 BKN150 FM061700 05010KT P6SM SCT050 BKN150 FM070000 04007KT P6SM BKN250",
    "KMSP": "TAF KMSP 052320Z 0600/0706 09003KT P6SM FEW050 SCT100 FM060200 10004KT P6SM SKC FM061200 17005KT P6SM FEW250 FM061800 18008KT P6SM FEW050 SCT250",
    "CYEG": "TAF CYEG 052341Z 0600/0624 26008KT P6SM SCT040 TEMPO 0600/0603 P6SM -SHRA VCTS BKN040CB FM060300 30008KT P6SM FEW050 BECMG 0604/0606 23005KT FM061500 VRB03KT P6SM SKC FM061800 16006KT P6SM FEW050 SCT240 RMK NXT FCST BY 060300Z",
    "EHAM": "TAF EHAM 052314Z 0600/0706 22006KT 9999 FEW020 PROB40 TEMPO 0601/0606 SCT008 BKN012 BECMG 0607/0610 28012KT BECMG 0617/0620 25006KT BECMG 0703/0706 28010KT",
    "EBBR": "TAF EBBR 052300Z 0600/0706 23007KT CAVOK",
    "EDDF": "TAF EDDF 052300Z 0600/0706 28006KT 9999 FEW045 BECMG 0605/0607 22009KT PROB30 TEMPO 0607/0610 BKN045 TEMPO 0612/0618 25015G25KT BECMG 0617/0619 28007KT BECMG 0700/0702 22004KT",
    "EDFH": "TAF EDFH 052300Z 0600/0624 27004KT 9999 FEW030 BECMG 0606/0608 27010KT TEMPO 0611/0618 27015G25KT",
    "EDDL": "TAF EDDL 052300Z 0600/0706 28005KT 9999 FEW040 BECMG 0600/0603 22007KT BECMG 0606/0609 26012KT PROB40 TEMPO 0611/0616 27015G25KT BECMG 0618/0621 24007KT",
    "EDDK": "TAF EDDK 052300Z 0600/0706 28005KT 9999 FEW040 BECMG 0601/0604 18004KT BECMG 0607/0610 28012KT PROB30 TEMPO 0613/0617 28015G25KT BECMG 0618/0621 24006KT",
    "EBLG": "TAF EBLG 052300Z 0600/0706 21006KT CAVOK BECMG 0608/0611 27011KT",
    "LSZH": "TAF LSZH 052325Z 0600/0706 34003KT CAVOK TX29/0615Z TN15/0604Z TN15/0704Z BECMG 0610/0612 29010KT 9999 FEW075 BECMG 0615/0618 26004KT CAVOK",
    "LIMC": "TAF LIMC 052300Z 0600/0706 VRB05KT CAVOK TEMPO 0600/0605 01010KT",
    "LIRF": "TAF LIRF 052300Z 0600/0706 VRB05KT CAVOK TEMPO 0600/0605 1500 BCFG BECMG 0609/0611 26012KT BECMG 0618/0620 VRB05KT",
    "EINN": "TAF EINN 052300Z 0600/0624 26007KT 9999 SCT010 TEMPO 0600/0612 BKN010 PROB30 TEMPO 0603/0610 -DZ BKN007",
    "EGLL": "TAF EGLL 052253Z 0600/0706 27012KT 9999 FEW040 PROB30 TEMPO 0604/0608 FEW004 BKN006 PROB30 TEMPO 0613/0618 27015G25KT PROB30 TEMPO 0704/0706 BKN006",
    "EGSS": "TAF EGSS 052254Z 0600/0706 27007KT 9999 FEW045 PROB30 TEMPO 0614/0617 27015G25KT",
    "EPWA": "TAF EPWA 052330Z 0600/0624 28010KT CAVOK TEMPO 0608/0617 29017G27KT BECMG 0619/0621 22010KT TEMPO 0622/0624 25015G28KT 3000 RA BKN006 BKN020",
    "UHPP": "TAF AMD UHPP 060007Z 0600/0706 18003G10MPS 9999 SCT030CB TEMPO 0600/0606 16008MPS VA TEMPO 0612/0621 0700 FG VV002",
    "EFHK": "TAF EFHK 052328Z 0600/0624 30005KT 9999 FEW015 TEMPO 0600/0603 BKN008 TEMPO 0603/0609 7000 SHRA BKN010 FEW020CB BECMG 0610/0612 26015G25KT TEMPO 0621/0624 FEW030CB",
    "LBBG": "TAF LBBG 052300Z 0600/0624 VRB04KT 9999 SCT045 BECMG 0608/0610 12012KT BECMG 0618/0620 VRB04KT",
    "LTAC": "TAF LTAC 052240Z 0600/0624 03009KT 9999 SCT040 PROB30 TEMPO 0609/0613 -SHRA FEW025CB BKN030 BECMG 0618/0620 CAVOK",
    "UBBB": "TAF UBBB 052259Z 0600/0624 32005KT CAVOK TX30/0610Z TN22/0601Z TEMPO 0600/0606 35010KT SCT040 BECMG 0606/0608 34012KT TEMPO 0608/0618 36014G24KT SCT020 SCT040CB TEMPO 0618/0624 33016G26KT FEW012 SCT020",
    "UTAA": "TAF UTAA 052245Z 0600/0624 34016KT 6000 SCT050CB SCT050 TX40/0610Z TEMPO 0600/0605 28014KT TEMPO 0605/0612 29016G26KT 4000 DRDU BECMG 0616/0618 26014KT",
    "UACC": "TAF UACC 052300Z 0600/0624 VRB01MPS 9999 SCT030CB BKN100 TX27/0610Z TN15/0601Z TEMPO 0600/0605 32005MPS 3100 -TSRA BKN020CB BECMG 0605/0607 36006MPS TEMPO 0605/0616 VRB16MPS 3100 -TSRA SQ BKN030CB BECMG 0616/0618 VRB01MPS SCT030 BKN070 TEMPO 0616/0624 SCT030CB",
    "UAAA": "TAF UAAA 052303Z 0600/0624 22003MPS 9999 FEW050 SCT100 TX30/0610Z TN15/0600Z BECMG 0603/0605 34003MPS TEMPO 0604/0612 04005G10MPS BECMG 0612/0614 20003MPS SCT050CB BKN100",
    "UZTT": "TAF UZTT 052300Z 0600/0624 07010KT CAVOK TX36/0610Z TN21/0600Z TEMPO 0606/0616 30015KT FEW060CB",
    "ZWWW": "TAF ZWWW 052102Z 0600/0706 20004MPS CAVOK TX31/0609Z TX34/0706Z TN23/0600Z BECMG 0603/0604 01004MPS BECMG 0614/0615 18004MPS BECMG 0702/0703 36004MPS",
    "ZLXY": "TAF ZLXY 052120Z 0600/0624 06003MPS 6000 NSC TX39/0608Z TN24/0621Z TEMPO 0609/0612 -TSRA FEW040CB BKN050",
    "ZBAA": "TAF ZBAA 052102Z 0600/0706 19004MPS CAVOK TX35/0606Z TX34/0706Z TN22/0621Z TEMPO 0610/0614 -TSRA FEW040CB BKN040",
    "ZBHH": "TAF ZBHH 052103Z 0600/0624 36004MPS 9999 FEW040 TX29/0608Z TN14/0622Z BECMG 0605/0606 -TSRA FEW040CB SCT040 TEMPO 0606/0609 VRB08G13MPS TSRA BECMG 0609/0610 NSW NSC",
    "ZSQD": "TAF ZSQD 052109Z 0600/0624 21004MPS 5000 BR NSC TX32/0605Z TN24/0621Z TEMPO 0618/0622 TSRA BKN020 SCT030CB",
    "ZMCK": "TAF ZMCK 052238Z 0600/0706 VRB02MPS 9999 FEW030CB SCT033 TX25/0607Z TN13/0621Z BECMG 0602/0604 34005MPS BECMG 0609/0611 VRB02MPS BECMG 0613/0615 09005MPS BECMG 0701/0703 VRB02MPS",
    "UUEE": "TAF UUEE 052255Z 0600/0624 21003G08MPS 6000 BKN020 TX22/0613Z TN14/0601Z TEMPO 0600/0605 BKN004 TEMPO 0607/0618 24010G17MPS -TSRA BKN016CB",
    "UUDD": "TAF UUDD 052254Z 0600/0706 22005MPS 6000 BKN020 TX23/0610Z TN14/0601Z TEMPO 0600/0604 BKN004 TEMPO 0608/0618 22008G15MPS -TSRA BKN016CB",
    "ULLI": "TAF ULLI 052251Z 0600/0624 09003MPS 3100 BR BKN010 TEMPO 0600/0603 0400 FG BKN003 TEMPO 0603/0605 1000 TSRA BKN006 BKN016CB BECMG 0605/0606 6000 NSW BKN016 TEMPO 0606/0613 3100 -TSRA BKN010 BKN017CB BECMG 0609/0610 26006G12MPS",
    "USSS": "TAF USSS 052246Z 0600/0624 24003MPS 6000 SCT040 TEMPO 0600/0603 0300 FG FM060400 17003G13MPS 9999 SCT033CB BECMG 0618/0620 SCT040",
    "UNNT": "TAF UNNT 052300Z 0600/0624 28003G08MPS 8000 SCT040 TX29/0609Z TN18/0622Z TEMPO 0603/0618 -TSRA BKN020CB",
    "UNKL": "TAF UNKL 052259Z 0600/0624 02003G08MPS 6000 -SHRA BKN006 BKN016CB TEMPO 0600/0603 30005MPS 0500 +TSRA BKN003 BKN016CB BECMG 0603/0605 -TSRA BKN016CB BECMG 0606/0608 35006G15MPS NSW TEMPO 0608/0624 -TSRA BECMG 0610/0612 29003G08MPS",
    "UIBB": "TAF UIBB 052300Z 0600/0624 10003G08MPS 9999 SCT050CB TEMPO 0600/0606 VRB08MPS BECMG 0606/0609 16005MPS TEMPO 0612/0624 VRB10MPS -TSRA",
    "UEEE": "TAF UEEE 052300Z 0600/0706 22003G08MPS 9999 SCT030CB TX30/0606Z TN13/0618Z TEMPO 0600/0609 VRB08MPS",
    "UHHH": "TAF UHHH 052249Z 0600/0706 03003MPS 5000 -SHRA BKN004 BKN020CB TX20/0606Z TN15/0618Z TEMPO 0600/0615 3000 -SHRA BR BKN002 BKN020CB",
    "UHSS": "TAF UHSS 052244Z 0600/0706 18003MPS 9999 SCT030CB BECMG 0610/0612 BKN004 BECMG 0617/0619 6000 -SHRA BKN016CB"
  },
  "atis": {
    "RJAA": "[Arrival ATIS] RJAA ARR ATIS Y 0342Z M0330 (APCH)ILS Z RWY16L LDG RWY 16L DEP RWY 16R DEP FREQ 124.2. TWY A1 CLSD. M 190330Z 15009KT 090V180 25KM FEW015CU BKN020CU 27/21 Q1010/A2984= Q/TWO NINE EIGHT FOUR STP\n[Departure ATIS] RJAA DEP ATIS Y 0339Z M0330 (APCH)ILS Z RWY16L LDG RWY 16L DEP RWY 16R DEP FREQ 124.2. TWY A1 CLSD. M 190330Z 15009KT 090V180 25KM FEW015CU BKN020CU 27/21 Q1010/A2984= Q/TWO NINE EIGHT FOUR STP",
    "PANC": "[Arrival ATIS] PANC ARR ATIS N 0053Z - PANC ATIS INFO N 0053Z. 15010KT 10SM FEW050 SCT120 16/07 A2994 (TWO NINER NINER FOUR) RMK AO2 SLP140 T01560072. ILS RWY 15 APPROACHES IN USE. LANDING RWY 15, DEPARTING RWY 25L. NOTICE TO AIRMEN. TWY Q CLSD. TWY R CLSD BTWN TWY, S AND TWY U . TWY E CLSD BTWN TWY, L AND TWY M . RWY 15 PAPI OTS. TWY K BTWN A AND D RESTRICTED TO AIRCRAFT WITH WINGSPAN LESS THAN 118 FEET. HAZD WX INFO FOR ANC AREA AVBL FM FSS. CONTACT TOWER 118.3 FOR TAXI. ...ADVS YOU HAVE INFO N.\n[Departure ATIS] PANC DEP ATIS H 1953Z ANC ATIS INFO H 1953Z. VRB03KT 10SM FEW080 SCT110 14/07 A2994 (TWO NINER NINER FOUR). 7R, 7L APPROACHES IN USE. LANDING RWY 7R, 7L, DEPARTING RWY 33. NOTICE TO AIRMEN. TWY Q CLSD. TWY R CLSD BTWN TWY, S AND TWY U . TWY E CLSD BTWN TWY, L AND TWY M . RWY 15 PAPI OTS. TWY K BTWN A AND D RESTRICTED TO AIRCRAFT WITH WINGSPAN LESS THAN 118 FEET. HAZD WX INFO FOR ANC AREA AVBL FM FSS. CONTACT TOWER 118.3 FOR TAXI. ...ADVS YOU HAVE INFO H.",
    "KSEA": "[Arrival ATIS] KSEA ARR ATIS A 2253Z - KSEA ATIS INFO A 2253Z. 31010KT 10SM CLR 24/08 A3009 (THREE ZERO ZERO NINER). ILS AND CHARTED VISUAL APPROACH RWYS 34L AND 34R , APCH IN USE. DEPG RWY 34R, DEPG ACFT PLAN AND BRIEF NUMBERS FOR BOTH RWYS 34R AND 34C. SIMUL ARRIVALS TO RWY 34L AND DEPARTURES TO RWY 34R ARE IN USE. SIMUL APCHS IN USE TO PARA RYS. NOTAMS... BIRD ACTIVITY VICINITY ARPT. STADIUM TFR IN EFFECT CHECK FDC NOTAMS FOR MORE INFO. ...ADVS YOU HAVE INFO A.\n[Departure ATIS] KSEA DEP ATIS B 1553Z SEA ATIS INFO B 1553Z. 35009KT 10SM FEW250 18/09 A3007 (THREE ZERO ZERO SEVEN). ILS AND CHARTED VISUAL APPROACH RWYS 34L AND 34R , APCH IN USE. DEPG RWY 34R. SIMUL ARRIVALS TO RWY 34L AND DEPARTURES TO RWY 34R ARE IN USE. SIMUL APCHS IN USE TO PARA RYS. NOTAMS... ILS RWY 34C OTS. BIRD ACTIVITY VICINITY ARPT. ...ADVS YOU HAVE INFO B.",
    "ZSPD": "[Arrival ATIS] ZSPD ARR ATIS L 0100Z EXP ILS APCH INDEPENDENT PARL INSTR APCH LDG RWY 17R & 16L WIND RWY 17R TDZ 230/6MPS MID 230/6MPS END 220/6MPS RWY 16L TDZ 240/7MPS MID 230/5MPS END 230/5MPS CAVOK T 31 /DP 25 QNH 1006 HPA CAUTION THE BIRDS NEAR THE RUNWAY ADZ YOU HAVE INFO L.\n[Departure ATIS] ZSPD DEP ATIS E 0300Z DEP RWY 17L & 16R WIND RWY 17L TDZ 190/7MPS MID 190/6MPS END 180/6MPS RWY 16R TDZ 190/7MPS MID 210/7MPS END 210/6MPS CAVOK T 29 /DP 24 QNH 1003 HPA CAUTION THE BIRDS NEAR THE RUNWAY RWY 17L/17R/16L/16R RWYCC 5/5/5 ISSUED AT 2100 WET/WET/WET DPT NR/NR/NR COV 100PCT/100PCT/100PCT. ADZ YOU HAVE INFO E.",
    "ZSSS": "[Arrival ATIS] ZSSS ARR ATIS N 0300Z EXP ILS APCH LDG RWY 18L WIND RWY 18L TDZ 180/6MPS MID 170/5MPS END 190/6MPS VIS RWY 18L TDZ 10000M MID 10000M END 10000M CLD BKN 360M T 29 /DP 24 QNH 1003 HPA RWY18L RWYCC 5/5/5 ISSUED AT 0520 WET/WET/WET DPT NR/NR/NR COV 100PCT/100PCT/100PCT RWY18R RWYCC 5/5/5 ISSUED AT 0520 WET/WET/WET DPT NR/NR/NR COV 50PCT/50PCT/50PCT QNH OF SHANGHAI TERMINAL CONTROL AREA 1003 HPA ADZ YOU HAVE INFO N.\n[Departure ATIS] ZSSS DEP ATIS K 0130Z DEP RWY 18R WIND RWY 18R TDZ 180/5MPS MID 190/4MPS END 190/5MPS VIS RWY 18R TDZ 5000M MID 6000M END 5000M FBL RA BR CLD BKN 300M T 27 /DP 24 QNH 1004 HPA RWY18L RWYCC 5/5/5 ISSUED AT 0520 WET/WET/WET DPT NR/NR/NR COV 100PCT/100PCT/100PCT RWY18R RWYCC 5/5/5 ISSUED AT 0520 WET/WET/WET DPT NR/NR/NR COV 50PCT/50PCT/50PCT QNH OF SHANGHAI TERMINAL CONTROL AREA 1004 HPA ADZ YOU HAVE INFO K.",
    "VHHH": "[Arrival ATIS] VHHH ARR ATIS C 0306Z ARRIVALS, RWY 25R/L. EXP RNAV TRANSITION TO ILS APCH, RWY 25R. RNP APCH IS AVBL ON REQ, RWY 25R. EXP ILS APCH RWY 25L CAUTION POSSIBLE GP FLUCTUATION RWY 25L. SIG WS FCST RWY 25R/L. MOD TURB FCST RWY 25R/L. WIND RWY 25R 210/14KT RWY 25L 200/15KT. VIS RWY 25R 10KM RWY 25L 10KM. CLD FEW 1000FT SCT 2000FT. T30 DP25. QNH 1009HPA. ACK INFO C ON FIRST CTC WITH APP.\n[Departure ATIS] VHHH DEP ATIS S 0307Z DEPARTURES, RWY 25C/L. INDEPENDENT PARALLEL DEPARTURE IN PROGRESS. SIG WS FCST RWY 25C/L. MOD TURB FCST RWY 25C/L. WIND RWY 25C 210/15KT RWY 25L 200/12KT. VIS RWY 25C 10KM RWY 25L 10KM. CLD FEW 1000FT SCT 2000FT. T30 DP25. QNH 1009HPA. ACK INFO S ON FIRST CTC WITH DELIVERY .",
    "RCTP": "[Arrival ATIS] RCTP ARR ATIS Q 0330Z EXP ILS APCH RWY23R AND RWY23L ARR/DEP. RWY23L CLSD BTN 0400Z AND 0430Z FOR INSPECTION. WIND 250/17KT VIS 10 KM OR MORE CLD FEW 2000FT SCT 20000FT T 33 DP 24 QNH 1011HPA WS R23R NOSIG CTN BIRD ACTIVITY IN THE VCY OF THE AD. LOW LVL WS ADVISORY IN EFFECT. INFORM TAIPEI APCH OR TAIPEI TOWER ON INITIAL CONTACT YOU HAVE INFORMATION Q\n[Departure ATIS] RCTP DEP ATIS H 2330Z EXP ILS APCH RWY23R AND RWY23L ARR/DEP. WIND 180/04KT VARYING BTN 160 AND 220 VIS 10 KM OR MORE CLD FEW 2000FT T 31 DP 25 QNH 1010HPA NOSIG CTN BIRD ACTIVITY IN THE VCY OF THE AD. INFORM TAIPEI APCH OR TAIPEI TOWER ON INITIAL CONTACT YOU HAVE INFORMATION H",
    "ZGSZ": "[Arrival ATIS] ZGSZ ARR ATIS O 0306Z EXP ILS APCH 15 EXP ILS OR VIS APCH 16R WIND 200/5MPS VIS 7000M SHRA CLD SCT 390M /FEW CB 780M /BKN 1500M T 29 /DP 27 QNH 1009 HPA INDEPENDENT PARALLEL DEPARTURES DEPENDENT PARALLEL APPROACHES V17,V18 AVAILABLE AFTER SULAS FLY HEADING 040 MISSED APPROACH ALTITUDE SETTING 1200METERS WHEN AIRBORNE CONTACT ZHUHAI APPROACH EXPECTED RNP ILS DME Z APPROACH RWY 15 16L 16R RWYCC 5/5/5 ISSUED AT 0130UTC WET/WET/WET DPT NR/NR/NR COV 100PCT/100PCT/100PCT ADZ YOU HAVE INFO O.\n[Departure ATIS] ZGSZ DEP ATIS J 0208Z DEP RWY 15 & 16L WIND 190/6MPS VIS 6000M +SHRA CLD SCT 390M /FEW CB 900M /BKN 1200M T 28 /DP 27 QNH 1009 HPA SUPPLEMENT INFO RETS INDEPENDENT PARALLEL DEPARTURES DEPENDENT PARALLEL APPROACHES V17,V18 AVAILABLE AFTER SULAS FLY HEADING 040 MISSED APPROACH ALTITUDE SETTING 1200METERS WHEN AIRBORNE CONTACT ZHUHAI APPROACH EXPECTED RNP ILS DME Z APPROACH RWY 15 16L 16R RWYCC 5/5/5 ISSUED AT 2200UTC WET/WET/WET DPT NR/NR/NR COV 100PCT/100PCT/100PCT ADZ YOU HAVE INFO J.",
    "WSSS": "[Arrival ATIS] WSSS ARR ATIS I 0330Z METREPORT 0330Z ILS APCHRWY 20R SIMUL INDEPENDENT ILS AND VISUAL APPROACHES ARE CONDUCTED ON RWY 20. TWY W 9 CLOSED, RWY 02C 20C RAPID EXIT TAXIWAY INDICATOR LIGHTS OFFFOLLOW THE GREENS TRIAL IN PROGRESS. WHEN VACATING THE RWY, PILOTS TO ADHERE TO ATC VERBAL INSTRUCTIONS. WHEN ON TWY, PILOT TO ADHERE TO FOLLOW THE GREENS INSTRUCTIONS. WHEN APPROACHING [A] JUNCTION, KEEP [A] LOOKOUT FOR CONTINUOUS GREENS. [IF] [A] BREAK IN THE GREENS IS OBSERVED, STOP AND CLARIFY WITH ATC. TAXIING GUIDANCE LIGHTS ON ALL TAXIWAYS ARE ON, FOR LIGHTING INSPECTION, WIND 150/ 09KT VIS 10KM CLD SCT 1800FT FEW TCU 2000FT T30 DP25 QNH 1011HPA NOSIG ACK ATIS I\n[Departure ATIS] WSSS DEP ATIS A 2330Z METREPORT 2330Z RWY 20C SIMUL INDEPENDENT ILS AND VISUAL APPROACHES ARE CONDUCTED ON RWY 20. TWY W 9 CLOSED, RWY 02C 20C RAPID EXIT TAXIWAY INDICATOR LIGHTS OFFFOLLOW THE GREENS TRIAL IN PROGRESS. WHEN VACATING THE RWY, PILOTS TO ADHERE TO ATC VERBAL INSTRUCTIONS. WHEN ON TWY, PILOT TO ADHERE TO FOLLOW THE GREENS INSTRUCTIONS. WHEN APPROACHING [A] JUNCTION, KEEP [A] LOOKOUT FOR CONTINUOUS GREENS. [IF] [A] BREAK IN THE GREENS IS OBSERVED, STOP AND CLARIFY WITH ATC. WIND 140/ 02KT VIS 10KM CLD FEW TCU 1700FT T27 DP24 QNH 1011HPA NOSIG DEP,INITIAL CMB 3000FT ACK ATIS A",
    "WMKK": "[Arrival ATIS] WMKK ARR ATIS G 0337Z WMKK ARR INFO G. TIME 0330. INDEPENDENT PARALLEL APPROACHES FOR RWY 14 L AND 15 ARE IN PROGRESS. EXP RNAV / ILS APCH FOR RWY 14 LEFT. EXP RNAV / ILS APCH FOR RWY 15. WIND RWY 14L 130 DEG, 7 KT. WIND RWY 15 170 DEG, 5 KT. VIS RWY 14L TDZ 10 KM OR MORE. VIS RWY 15 TDZ 10 KM OR MORE. WX VCSH. CLD FEW CB 1700 FT. T 31. DP 26. QNH 1010. NOSIG. AT FIRST CONTACT WITH LUMPUR RADAR, NOTIFY RCPT OF G\n[Departure ATIS] WMKK DEP ATIS O 0033Z WMKK DEP INFO O. TIME 0030. INDEPENDENT PARALLEL DEPARTURES FOR RWY 14 R AND 15 ARE IN PROGRESS. RWY 14 RIGHT. RWY 15. WIND RWY 14R DIRECTION NOT AVBL SPEED NOT AVBL. WIND RWY 15 DIRECTION NOT AVBL SPEED NOT AVBL. VIS RWY 14R TDZ NOT AVBL. VIS RWY 15 TDZ NOT AVBL. CLD FEW CB 1700 FT. T 28. DP 25. QNH 1010. NOSIG. ALL DEP ACFT TO CONTACT LUMPUR DEP AT 135 DECIMAL 25 MHZ WHEN ABN. AT FIRST CONTACT WITH LUMPUR GROUND, NOTIFY RCPT OF O",
    "VTBS": "[Arrival ATIS] VTBS ARR ATIS A 0300Z VTBS ARR ATIS A 0302Z SIMULTANEOUS INDEPENDENT PARL APCH IN PROGRESS EXP ILS Z APCH ARR RWY 19 OR RNP APCH RWY 20R 06181550 19 6/6/6 NR/NR/NR NR/NR/NR DRY/DRY/DRY 06181555 20R 6/6/6 NR/NR/NR NR/NR/NR DRY/DRY/DRY , , 0300Z WIND 330/4KT VRB BTN 250/ AND 360/ VIS 10KM RVR RWY 19 ABV 2000M CLD FEW 2000FT T31 DP22 QNH 1010HPA TREND NOSIG ADZ BKK APCH ON INITIAL CONTACT THAT YOU HAVE INFO A\n[Departure ATIS] VTBS DEP ATIS M 0300Z VTBS DEP ATIS M 0302Z DEP RWY 20L 06181555 20L 6/6/6 NR/NR/NR NR/NR/NR DRY/DRY/DRY , ,AFT AIRBORNE ALL DEPARTING ACFT SHALL CTC 119.25 0300Z WIND VRB1KT VIS 10KM RVR RWY 20L ABV 2000M CLD FEW 2000FT T31 DP22 QNH 1010HPA TREND NOSIG ADZ GND WHEN INITIAL CONTACT YOU HAVE INFO M",
    "VTBU": "[Arrival ATIS] VTBU ARR ATIS E 1000Z VTBU ARR ATIS E 1005Z RNP RWY 18 TRL FL130 1000Z WIND 170/9KT VIS 10KM CLD FEW CB 1800FT T30 DP28 QNH 1009HPA TS IN APCH TREND BECMG TL1045 NSW ADZ CONTROLLER WHEN INITIAL CONTACT YOU HAVE INFO E\n[Departure ATIS] VTBU DEP ATIS D VTBU ARR/DEP DATIS RPT VTBU ARR ATIS D 0330Z ILS \"Z\" APCH RWY 18 TRL FL130 0330Z WIND 110/4KT VRB BTN 350/ AND 120/ VIS 6KM CLD FEW 2000FT T31 DP27 QNH 1014HPA TREND NOSIG ADZ CONTROLLER WHEN INITIAL CONTACT YOU HAVE INFO D",
    "ROAH": "[Arrival ATIS] ROAH ARR ATIS I 0323Z M0300 (APCH)RNP RWY18R LDG RWY 18R DEP RWY 18L DEP FREQ 126.5 258.3 M 190300Z 18012KT 40KM SCT010CU SCT/// 29/26 Q1012/A2990= Q/TWO NINE NINE ZERO STP\n[Departure ATIS] ROAH DEP ATIS J 0338Z M0330 (APCH)RNP RWY18R LDG RWY 18R DEP RWY 18L DEP FREQ 126.5 258.3 M 190330Z 18011KT 40KM FEW010CU BKN/// 29/26 Q1012/A2989= Q/TWO NINE EIGHT NINE STP",
    "VVDN": "[Arrival ATIS] VVDN ARR ATIS R 0333Z VVDN INFO R 0333Z. ILS VICTOR APPROACH 35L.. DPTG RWY 35R.. 0333Z. WIND VRB BTN 040/ AND 170/ CAVOK T35 DP24 QNH 1008HPA TREND NOSIG. ADZ ON INITIAL CTC YOU HAVE INFO. R.\n[Departure ATIS] VVDN DEP ATIS Q 1502Z VVDN INFO Q 1502Z. ILS VICTOR APPROACH 35L.. DPTG RWY 35R.. 1502Z. WIND 260/02KT CAVOK T28 DP23 QNH 1008HPA TREND NOSIG. ADZ ON INITIAL CTC YOU HAVE INFO. Q.",
    "RCKH": "[Arrival ATIS] RCKH ARR ATIS P 1400Z EXPECT ILS APPROACH RWY 09 ARR/DEP TAXIWAY JULIETT, TAXIWAY BRAVO, TAXIWAY DELTA AND TAXIWAY ECHO CLOSED DUE MAINTENANCE. RUNWAY 0 9 ARRIVALS PLAN VACATE VIA CHARLIE OR\n[Departure ATIS] RCKH DEP ATIS U 0400Z EXPECT ILS APPROACH RWY 27 ARR/DEP TAXIWAY JULIETT, TAXIWAY BRAVO, TAXIWAY DELTA AND TAXIWAY ECHO CLOSED DUE MAINTENANCE. RUNWAY 27 ARRIVALS PLAN VACATE VIA CHARLIE OR",
    "KLAX": "[Arrival ATIS] KLAX ARR ATIS H KLAX ARR/DEP DATIS RPT LAX ATIS INFO H 2353Z. 25015G23KT 10SM FEW010 FEW100 SCT150 22/16 A2993 (TWO NINER NINER THREE) RMK AO2 SLP134 T02220156 10239 20217 58016. INST APCHS AND RNAV RNP APCHS RY 24R AND 25L, OR VCTR FOR VISUAL APCH WILL BE PROVIDED, SIMUL VISUAL APCHS TO ALL RWYS ARE IN PROG, SIMUL INSTR DEPARTURES IN PROG RWYS 24 AND 25. CTC L A GC ON 121.75 FOR PUSH OR TAXI ON A. TWY B CLSD BTN TWY, C10 AND TWY C7 , , TWY B6 CLSD, TWY B7 CLSD, TWY C CLSD BTN TWY, C1 AND TWY C3, TWY C1 CLSD, TWY C9 CLSD BTN TWY, B AND TWY C, TWY C8 CLSD BTN TWY, B AND TWY C. RY 25R SFL OTS, RY 24L ALSF-2 OTS. LAX VOR UNMONITORED. USE CAUTION FOR INCREASED DRONE ACTIVIY IN THE VICINITY OF SOFI STADIUM AT OR BELOW 200FT AGL DURING THE WORLD CUP FROM JUNE TWELFTH TWENTY TWENTY SIX THROUGH JULY TENTH TWENTY TWENTY SIX. HAZD WX INFO FOR LAX AREA AVBL FM FSS. BIRD ACTIVITY VICINITY ARPT. INCLUDE YOUR CALL SIGN IN ALL READBACKS. USE CAUTION WHEN EXITING RY24R AT TWY V, W, AND Y, TO HOLD SHORT OF RY24L. MULTIPLE RUNWAY INCURSIONS HAVE OCCURRED. ...ADVS YOU HAVE INFO H.\n[Departure ATIS] KLAX DEP ATIS X 0153Z LAX ATIS INFO X 0153Z. 25014KT 10SM FEW013 19/14 A2995 (TWO NINER NINER FIVE) RMK AO2 SLP139 T01890144. INST APCHS AND RNAV RNP APCHS RY 24R AND 25L, OR VCTR FOR VISUAL APCH WILL BE PROVIDED, SIMUL VISUAL APCHS TO ALL RWYS ARE IN PROG. CTC L A GC ON 121.75 FOR PUSH OR TAXI ON A. TWY C CLSD BTN TWY, C8 AND TWY C9 , , TWY B CLSD BTN TWY, F AND TWY B1, TWY B1 CLSD. ILS RY 25R OTS, RY 25R SFL OTS, RY 24L ALSF-2 OTS. LAX VOR UNMONITORED. IF ASSIGNED RUNWAY 25R FOR DEPARTURE, EXPECT DEPARTURE FROM INTERSECTION FOXTROT. TAXILANE CHARLIE EIGHT RESTRICTED TO AIRCRAFT WITH A WINGSPAN LESS THAN ONE HUNDRED EIGHTEEN FEET. USE CAUTION FOR INCREASED DRONE ACTIVIY IN THE VICINITY OF SOFI STADIUM AT OR BELOW 200FT AGL DURING THE WORLD CUP FROM 06/12/26 THROUGH 07/10/2026. HAZD WX INFO FOR LAX AREA AVBL FM FSS. BIRD ACTIVITY VICINITY ARPT. INCLUDE YOUR CALL SIGN IN ALL READBACKS. USE CAUTION WHEN EXITING RY24R AT TWY V, W, AND Y, TO HOLD SHORT OF RY24L. MULTIPLE RUNWAY INCURSIONS HAVE OCCURRED. ...ADVS YOU HAVE INFO X.",
    "KONT": "[Arrival ATIS] KONT ARR ATIS N 1453Z ONT ATIS INFO N 1453Z. 22003KT 1 1/2SM FU BKN240 21/14 A3000 (THREE ZERO ZERO ZERO). ILS APR IN USE. RY26L & RY26R. LNDG AND DEPG RY 26L AND RY 26R. NOTAMS... TAXIWAY SIERRA FIVE CLOSED. TAXIWAY SIERRA CLOSED BETWEEN TAXIWAY SIERRA 8 AND TAXIWAY WHISKEY. RY 26L IM OTS, RY 26R ALS OTS. USE CAUTION FOR NUMEROUS BIRDS OBSERVED IN VICINITY OF ONT. HAZD WX INFO FOR SOUTHERN CA AVBL ON FSS FREQUENCIES. ILS CRITICAL AREAS ARE IN EFFECT. PILOTS READBACK RWY ASSIGNMENTS AND HOLD SHORT INSTRUCTIONS. ...ADVS YOU HAVE INFO N.\n[Departure ATIS] KONT DEP ATIS N 0553Z - KONT ATIS INFO N 0553Z. 24004KT 10SM BKN250 22/15 A2988 (TWO NINER EIGHT EIGHT) RMK AO2 SLP100. ILS AND VIS APR IN USE, RY26L & RY26R. LNDG AND DEPG RY 26L AND RY 26R. NOTAMS... TAXIWAY SIERRA CLSD BETWEEN SIERRA 8 AND W TAXIWAY Q SOUTH OF RWY 26L CLSD TAXIWAY T CLSD TAXIWAY SIERRA 5 CLSD. RY 26L IM OTS, RY 26R ALS OTS. USE CAUTION FOR NUMEROUS BIRDS OBSERVED IN VICINITY OF ONT. HAZD WX INFO FOR SOUTHERN CA AVBL ON FSS FREQUENCIES. PILOTS READBACK RWY ASSIGNMENTS AND HOLD SHORT INSTRUCTIONS. ...ADVS YOU HAVE INFO N.",
    "KSFO": "[Arrival ATIS] KSFO ARR ATIS C 2356Z SFO ATIS INFO C 2356Z. 26015KT 10SM FEW009 FEW180 19/12 A2998 (TWO NINER NINER EIGHT). SIMUL CLSLY SPCD DPNDNT ILS RY 28R AND ILS RY 28L APP IN USE. DEPG RWYS 28L, 28R. DEPG ACFT SHOULD BE PREPARED FOR A SHORT NOTICE RY CHANGE. RY 1L, 1R CLSD. NUMEROUS TWY CLOSURES FOR CONSTRUCTION ON THE FIELD, PILOTS CHECK NOTAMS. HAZWX INFO FOR SFO AREA AVBL FM FSS FREQ. DEPG ACFT WAITING ON FINAL NUMBERS ADVISE GROUND PRIOR TO ENTERING TWY F. ...ADVS YOU HAVE INFO C.\n[Departure ATIS] KSFO DEP ATIS R 1456Z SFO ATIS INFO R 1456Z. 30006KT 10SM FEW006 OVC011 14/11 A3002 (THREE ZERO ZERO TWO). SIMUL CLSLY SPCD DPNDNT ILS RY 28R AND ILS RY 28L APP IN USE. DEPG RWYS 28L, 28R. GATE",
    "KOAK": "[Arrival ATIS] KOAK ARR ATIS V 1453Z OAK ATIS INFO V 1453Z. 23008KT 10SM OVC009 14/12 A3001 (THREE ZERO ZERO ONE). RNAV, RWY 30. ILS, RWY 28R. FLOW TO LAX, SAN, SEA. ILS RWY 30, OTS, RWY 28R RAIL, OTS. UNN LIT CLOSE-IN OBSTACLES FOR RWY 30 DEPARTURES. RWY 30 DEPARTURES ARE ADVISED TO AVOID TURNING LEFT PRIOR TO DEPARTURE END OF RUNWAY. CTN, CRANE 1 POINT 6 NAUTICAL MILES, , AT 140 FEET AGL. CAUTION, BIRDS NEAR AIRPORT. ...ADVS YOU HAVE INFO V.\n[Departure ATIS] KOAK DEP ATIS O 1953Z OAK ATIS INFO O 1953Z. 28014KT 10SM FEW005 22/14 A2988 (TWO NINER EIGHT EIGHT). RNAV Z/VA RWY 30 ILS/VA RWY 28R. FLOW TO LAX, LAS, SAN. ILS RWY 30, OTS. UNN LIT CLOSE-IN OBSTACLES FOR RWY 30 DEPARTURES. RWY 30 DEPARTURES ARE ADVISED TO AVOID TURNING LEFT PRIOR TO DEPARTURE END OF RUNWAY. SIGNATURE UNI-COM OUT OF SERVICE. CAUTION, BIRDS NEAR AIRPORT. ...ADVS YOU HAVE INFO O.",
    "KDFW": "[Arrival ATIS] KDFW ARR ATIS V 2353Z DFW ARR INFO V 2353Z. 14009KT 10SM FEW065 FEW150 BKN250 32/19 A2987 (TWO NINER EIGHT SEVEN). SIMUL VISUAL APCH TO RWYS, 13R, 18R, 17C, 17L. LDG RWY 17C EXP LAHSO TWY B 10460 FT AVAIL, LDG RWY 18R EXP LAHSO TWY B 10100 FT AVL. NOTICE TO AIRMEN. WARNING, RWY 18L HAS BEEN SHORTENED, 9273 FT AVAILABLE. RWY 18L ILS OTS, CL OTS. HAZD WX FOR DFW AVBL ON FSS. BIRD ACTIVITY VCNTY ARPT. ...ADVS YOU HAVE INFO V.\n[Departure ATIS] KDFW DEP ATIS W 1553Z - KDFW DEP INFO W 1553Z. 21022G32KT 10SM FEW025 FEW180 SCT250 31/21 A2994 (TWO NINER NINER FOUR) RMK AO2 PK WND 20032/1547 SLP128 T03110206. SIMUL PARL TRAFFIC DEPG RWYS 17R, 18L. NOTICE TO AIRMEN. WARNING, RWY 18L HAS BEEN SHORTENED, 9273 FT AVAILABLE. RWY 18L CL OTS. BIRD ACTIVITY VCNTY ARPT. ...ADVS YOU HAVE INFO W.",
    "KIAH": "[Arrival ATIS] KIAH ARR ATIS M 2253Z IAH ATIS INFO M 2253Z. 26005KT 10SM FEW055 SCT250 36/21 A2988 (TWO NINER EIGHT EIGHT). ARRIVALS EXPECT ILS OR RNAV Y RY 26R, ILS OR RNAV Y RY 26L, ILS OR RNAV Y RY 27. SIMUL APPROACHES IN USE. DEPG RY 15L, RY 15R. NOTICE TO AIRMEN. UNITED RAMP CONTROL IN EFFECT. CODED DEPARTURE ROUTES IN EFFECT. HAZD WX INFO FOR IAH AREA AVBL FM FSS. BIRD ACTIVITY VICINITY ARPT. CRANES ARE DOWN. TWY SA CLSD BTN TWY, SF AND TWY SK , TWY SB CLSD BTN TWY, SF AND TWY SK , , TWY WB CLSD BTN TWY, WG AND TWY WH . TWY EA CLSD. NOTAM ATIS IN USE ON FREQUENCY 126.225. ...ADVS YOU HAVE INFO M.\n[Departure ATIS] KIAH DEP ATIS D 0453Z IAH ATIS INFO D 0453Z. 19003KT 10SM CLR 25/24 A2963 (TWO NINER SIX THREE). ARRIVALS EXPECT ILS OR RNAV Y RY 26L. DEPG RY 15L. NOTICE TO AIRMEN. UAL RAMP PROCEDURES TERMINATED PUSH BACK AT PILOTS DISCRETION. RY 26R, 8L CLSD. BIRD ACTIVITY VICINITY ARPT. TWY SA CLSD BTN TWY, SG AND TWY SK , TWY SB CLSD BTN TWY, SG AND TWY SK , , TWY SF CLSD BTN TWY, NB AND TWY RB . TWY SG CLSD, TWY EA CLSD. NOTAM ATIS IN USE ON FREQUENCY 126.225. ...ADVS YOU HAVE INFO D.",
    "KORD": "[Arrival ATIS] KORD ARR ATIS L 0010Z - KORD ATIS INFO L 0010Z SPECIAL. 02010KT 10SM SCT015 BKN028 BKN100 23/19 A2997 (TWO NINER NINER SEVEN) RMK AO2 T02280194. ARR EXP VECTORS ILS RWY 9L APCH, ILS PRM RWY 10C APCH, ILS PRM Y RY 10R APCH. CTN RY 10R LOC IS OFFSET 2.5 DEGREES. SIMUL APCHS IN USE. DEPS EXP RWYS 9C FROM F F 9200 FT AVL, 10L FROM DD. 10,093 FT AVBL. ATTN PILOTS. SIMUL PARL DEPS IN USE. EXP TO INITIALLY FLY RWY. HDG ON DEP. PILOTS MUST READ BACK DRCTN OF TURNS BY ATC. RWY 4L, 22R CLSD. RWY 22L ILS OTS, RWY 22R LOC OTS, RWY 28L GS OTS, RWY 9L IM OTS, RWY 9C IM OTS, RWY 10L IM OTS, RWY 10R IM OTS, RWY 27R IM OTS, RWY 28L IM OTS, RWY 28R IM OTS, RWY 9L PAPI OTS, RWY 27R PAPI OTS. PILOTS USE CTN FOR BIRD ACTIVITY IN THE VICINITY OF THE ARPT. USE CTN FOR PERSONNEL AND EQUIP AT NUMEROUS SITES ON THE FIELD. READBACK ALL RWY HOLD SHORT INSTRUCTIONS. WHEN READY TO TAXI CONTACT GND METERING ON FREQ 121.67. ...ADVS YOU HAVE INFO L.\n[Departure ATIS] KORD DEP ATIS U 1451Z ORD ATIS INFO U 1451Z. 01010KT 5SM BR OVC006 21/19 A2998 (TWO NINER NINER EIGHT) RMK AO2 SLP148 T02110194 53016. ARR EXP VECTORS ILS RWY 9L APCH, ILS RWY 10C APCH. SIMUL APCHS IN USE. DEPS EXP RWYS 9C FROM F F 9200 FT AVL, 10L FROM DD. 10,093 FT AVBL. ATTN PILOTS. SIMUL PARL DEPS IN USE. EXP TO INITIALLY FLY RWY. RWY 4L, 22R CLSD. RWY 22L ILS OTS, RWY 22R LOC OTS, RWY 28L GS OTS, RWY 9L IM OTS, RWY 9C IM OTS, RWY 10L IM OTS, RWY 10R IM OTS, RWY 27R IM OTS, RWY 28L IM OTS, RWY 28R IM OTS, RWY 9L PAPI OTS, RWY 27R PAPI OTS. USE CTN FOR PERSONNEL AND EQUIP AT NUMEROUS SITES ON THE FIELD. READBACK ALL RWY HOLD SHORT INSTRUCTIONS. WHEN READY TO TAXI CONTACT GND METERING ON FREQ 121.67. ...ADVS YOU HAVE INFO U.",
    "KJFK": "[Arrival ATIS] KJFK ARR ATIS D 0051Z JFK ATIS INFO D 0051Z. 11012KT 10SM BKN010 BKN100 BKN180 BKN250 23/21 A2999 (TWO NINER NINER NINER) RMK AO2 SLP155 CB DSNT S T02330206. APPROACH IN USE ILS RY 22L, ILS RY 22R. DEPG RY 22R. CRI OTS. RWY 22L/4R INNER MARKER OTS. SWAP IN EFFECT EXPECT REROUTES. UNAUTHORIZED UAS EVENT AT, 1846Z 3 NM NE, AT 009 FEET BLACK OBJECT. NUM CRANES OPERATING AT JFK. BIRD ACTIVITY VICINITY ARPT. READBACK ALL RWY ASSIGNMENTS AND HOLD SHORT INSTRUCTIONS. ...ADVS YOU HAVE INFO D.\n[Departure ATIS] KJFK DEP ATIS A 0151Z - KJFK ATIS INFO A 0151Z. 25017KT 10SM SCT070 SCT250 25/16 A2958 (TWO NINER FIVE EIGHT) RMK AO2 PK WND 25026/0107 SLP016 T02500161. APPROACH IN USE ILS RY 22L, ILS RY 22R. DEPG RY 22R, ACFT FILED OVER RBV OR DIXIE EXPECT RY 31L KE FOR DEP. RWY 22L/4R INNER MARKER OTS. NUM CRANES OPERATING AT JFK. BIRD ACTIVITY VICINITY ARPT. READBACK ALL RWY ASSIGNMENTS AND HOLD SHORT INSTRUCTIONS. ...ADVS YOU HAVE INFO A.",
    "KIND": "[Arrival ATIS] KIND ARR ATIS O 2054Z IND ATIS INFO O 2054Z. 29008KT 270V330 10SM BKN032 BKN050 BKN250 29/21 A2992 (TWO NINER NINER TWO). PARL ILS RWY 23R AND 23L APPROACHES IN USE. CROSS RUNWAY OPERATIONS MAY BE IN EFFECT. NOTICE TO AIRMEN. RWY 32 GS OTS. TWY, P BTN TWY, H AND TWY B CLSD. P PAD CLSD. ILS RUNWAY 5R AND RUNWAY 5L INNER MARKER UNSERVICEABLE. RUNWAY 32 PAPI OTS. RUNWAY 32 TOUCHDOWN RVR OTS. RUNWAY 14 ROLLOUT RVR OTS. HIWAS. ...ADVS YOU HAVE INFO O.\n[Departure ATIS] KIND DEP ATIS H 1854Z IND ATIS INFO H 1854Z. 26009G19KT 10SM SCT036 BKN041 BKN170 23/16 A2981 (TWO NINER EIGHT ONE) RMK AO2 SLP088 T02280156. PARL ILS RWY 23R AND 23L APPROACHES IN USE. CROSS RU",
    "KDTW": "[Arrival ATIS] KDTW ARR ATIS E 1453Z DTW ARR INFO E 1453Z. 25020G29KT 10SM FEW030 SCT035 OVC060 20/13 A2951 (TWO NINER FIVE ONE) RMK AO2 PK WND 26029/1450 SLP989 T02000133 51023. SIMUL ILS Z RY 22R AND RY 21L APCH IN USE. NOTICE TO AIRMEN. RWY 22L, 4R CLSD, RWY 27R, 9L CLSD. PILOTS USE CTN FOR BIRD ACTIVITY. DEPARTURE ATIS 118.125. WARNING, RUNWAY TWO SEVEN LEFT HAS BEEN SHORTENED, SIX THOUSAND SEVEN HUNDRED EIGHTY-SEVEN FEET AVAILABLE. ...ADVS YOU HAVE INFO E.\n[Departure ATIS] KDTW DEP ATIS Q 2253Z - KDTW DEP INFO Q 2253Z. 21009KT 10SM FEW050 FEW250 33/24 A2991 (TWO NINER NINER ONE). DEPG RWY 21R, RWY 22L ;. NOTICE TO AIRMEN. RWY 27L, 9R CLSD, RWY 27R, 9L CLSD. PILOTS USE CTN FOR BIRD ACTIVITY. ...ADVS YOU HAVE INFO Q.",
    "KMSP": "[Arrival ATIS] KMSP ARR ATIS B 2353Z MSP ARR INFO B 2353Z. 21004KT 10SM FEW060 29/16 A3001 (THREE ZERO ZERO ONE). VISUAL RWY 12R APCH IN USE, VISUAL RWY 12L APCH IN USE. FINAL APCH, OVER NOISE SENSITIVE AREA. NOTICE TO AIRMEN. RWYS 4, 22 CLSD. TWY R7. R8. R9. R10. CLOSED, TWY R BETWEEN R6 AND R10 CLOSED. GS RWY 12L OTS, RWYS 12R, 12L, INNER MARKER OTS.. HAZD WX INFO FOR MSP AREA AVBL FM FSS. CTN, BIRDS NEAR MSP. READ BACK HS AND ALT. ALL ACFT TAXI WITH TRANSPONDER AND ALTITUDE ENCODING ON. ...ADVS YOU HAVE INFO B.\n[Departure ATIS] KMSP DEP ATIS P 0053Z MSP DEP INFO P 0053Z. 34004KT 10SM FEW060 29/16 A3002 (THREE ZERO ZERO TWO) RMK AO2 SLP160 T02890161. DEPARTING RWY 12L, RWY 12R, RWY 17. NOTICE TO AIRMEN. RWYS 4, 22 CLSD. TWY R7. R8. R9. R10. CLOSED, TWY R BETWEEN R6 AND R10 CLOSED. ALL ACFT CTC METERING ON ONE THREE THREE POINT FIVE SEVEN WHEN READY TO PUSHBACK OR TAXI. HAZD WX INFO FOR MSP AREA AVBL FM FSS. CTN, BIRDS NEAR MSP. READ BACK HS AND ALT. ALL ACFT TAXI WITH TRANSPONDER AND ALTITUDE ENCODING ON. ...ADVS YOU HAVE INFO P.",
    "CYEG": "[Arrival ATIS] CYEG ARR ATIS K 0100Z CYEG ARR ATIS K 0100Z 26011KT 20SM FEW041CB SCT200 18/10 A3004 SIGMET Z7 IN EFFECT. APCH RNAV Z OR Y RWY 20, INFORM ARRL OF REQ APCH ON INITIAL CTC. LDG AND DEP RWY 20. SIMUL APPROACHES MAY BE IN EFCT. INFORM CYEG ATC INFO K\n[Departure ATIS] CYEG DEP ATIS J 0000Z CYEG ARR ATIS J 0000Z 25012KT 20SM FEW041CB FEW060 CIG BKN220 17/10 A3004 SIGMET Z7 IN EFFECT. APCH RNAV Z OR Y RWY 20, INFORM ARRL OF REQ APCH ON INITIAL CTC. LDG AND DEP RWY 20. SIMUL APPROACHES MAY BE IN EFCT. INFORM CYEG ATC INFO J",
    "EHAM": "[Arrival ATIS] EHAM ARR ATIS E 0054Z EHAM ARRIVAL INFO E. DEMAND. MAIN LANDING RWY 18 R. TRANSITION LEVEL 040. WIND 190 DEG, 6 KT. VIS 10 KM OR MORE. CLD FEW 4900 FT. T 17. DP 15. QNH 1018 HPA. NOSIG. OPERATIONAL REPORT. EXP RNP APCH. CONTACT APCH WITH CALLSIGN ONLY. END OF INFO E\n[Departure ATIS] EHAM DEP ATIS Y 1106Z EHAM DEPARTURE INFO Y. DEMAND. MAIN DEPARTURE RWY 36 L. MAIN LANDING RWY 36 R. WIND 280 DEG, 12 KT, VRB BTN 250 AND 330 DEG, 17 KT MAX, 7 KT MNM. VIS 10 KM OR MORE. WX -RA. CLD FEW 1200 FT BKN 1900 FT. T 19. DP 16. QNH 1022 HPA. OPERATIONAL REPORT. INFORM SCHIPHOL DEL BY VOICE IF UNABLE TO COMPLY WITH NADP 2. END OF INFO Y",
    "EBBR": "[Arrival ATIS] EBBR ARR ATIS S 0050Z EBBR NAT, EXP VECT FOR ILS APP ARR RWY19 RSCD AT 2054 RWY19 DRY. DEP RWY19 TRL 055 RWY 25R CLSD WIP 210/7KT CAVOK T16 DP14 QNH 1021HPA NOSIG CFM ARR S\n[Departure ATIS] EBBR DEP ATIS J 1800Z EBBR NAT, DEP RWY25R RSCD AT 1438 RWY25R DRY. ARR RWY25L TRL 055 B3 CLSD 330/8KT VIS ABV 10KM SCT3600FT BKN4200FT T21 DP14 QNH 1023HPA NOSIG CFM DEP J",
    "EDDF": "[Arrival ATIS] EDDF ARR ATIS S 0050Z -ARR-ATIS EDDF S METAR 060050 -EXPECT RNP X APCH -RWY 25C -FROM 0250 EXPECT ILS OR GLS APCH , -TRL 60 - -30006KT -CAVOK - - -T16 DP14 -QNH1021 - -TREND NOSIG\n[Departure ATIS] EDDF DEP ATIS H 1250Z DEP-ATIS EDDF H METAR 051250 RWY 25C 18 RWY COND AT TIME 1145 : ALL RWYS DRY , RWYCC 6 , ALL DEPARTING ACFT VIA OBOKA , MARUN AND TOBAK EXPECT SID WITH DESIGNATOR F OR G , TRL 60 BIRDS OBSERVED AROUND THE AERODROME VRB08KT RWY18 34006KT 9999 -SHRA FEW///CB T24 DP14 QNH1021 RESHRA TREND TEMPO SHRA BKN040TCU END OF ATIS H",
    "EDDL": "[Arrival ATIS] EDDL ARR ATIS D 0320Z -ATIS EDDL D METAR 190320 -EXPECT VECTORS ILS APPROACH -RWY 23L 23R -RWY COND RWY 23L AT TIME 0320 RWYCC 6 DEPOSIT TOTAL RWY DRY RWY 23R AT TIME 0320 RWYCC 6 DEPOSIT TOTAL RWY DRY -TRL 60 -EXPECT INTENSE BIRD ACTIVITY IN THE VICINITY OF RWY SYSTEM -16006KT 110V200 -CAVOK - - -T21 DP17 -QNH1015 - -TREND NOSIG\n[Departure ATIS] EDDL DEP ATIS R EDDL ARR/DEP DATIS RPT -ATIS EDDL R METAR 020550 -EXPECT VECTORS ILS APPROACH -RWY 23L -TWY L8 CLOSED BETWEEN TWY M AND RWY 23L -TRL 60 - -23010KT -CAVOK - - -T19 DP13 -QNH1020 - -TREND NOSIG",
    "EDDK": "[Arrival ATIS] EDDK ATIS W 0050Z -ATIS EDDK W METAR 060050 -EXPECT CDO FOR ILS APCH -RWY 31R 24 -RWY COND RWY 31R AT TIME 0025 RWYCC 6 DEPOSIT TOTAL RWY DRY RWY 24 AT TIME 0025 RWYCC 6 DEPOSIT TOTAL RWY DRY -TRL 60 -RWY 13R AND RWY 31L CLOSED FOR DEPARTURE AND LANDING: TAXIING BTN THR RWY 13R AND INTERSECTION RWY 24 POSSIBLE : -23004KT 200V260 -9999 - -BKN044 -T17 DP14 -QNH1021 - -TREND NOSIG\n[Departure ATIS] EDDK DEP ATIS Q EDDK ARR/DEP DATIS RPT -ATIS EDDK Q METAR 291920 -EXPECT ILS APCH -RWY 31R 06 -RWY COND RWY 31R AT TIME 1830 RWYCC 6 DEPOSIT TOTAL RWY DRY RWY 06 AT TIME 1830 RWYCC 6 DEPOSIT TOTAL RWY DRY -TRL 60 -RWY 13R AND RWY 31L CLOSED FOR DEPARTURE AND LANDING: TAXIING BTN THR RWY 13R AND INTERSECTION RWY 24 POSSIBLE : -04003KT -CAVOK - - -T24 DP13 -QNH1024 - -TREND NOSIG",
    "EBLG": "[Arrival ATIS] EBLG ATIS N 0320Z EBLG INFO, EXP RNAV TO ILS APP ARR RWY22L DEP RWY22L RWY 22L WET, RWYCC 555. TRL 055 TWY A4 DISPLACED. ADZ ON GND FREQ IF UNABLE S4 140/10KT CAVOK T20 DP17 QNH 1015HPA NOSIG CFM ATIS N",
    "LSZH": "[Arrival ATIS] LSZH ARR ATIS D 0320Z ARRIVALS, EXP ILS APCH, RWY 34. TRL 70. DEP RWY 32. DEPENDENT OPS ON CONVERGING RWY. WIND 340 DEG, 4 KT. CAVOK. T 16. DP 14. QNH 1020. INVERSION OF 8 C BTN 1400 FT AND 2400 FT QNH. NOSIG.\n[Departure ATIS] LSZH DEP ATIS R 1720Z DEP RWY 32. TRL 70. ARRIVALS, EXP RNP APCH, RWY 28. TMA S 1 IS ACT. TMA S 2 AND S 3 ARE ACT. WIND 320 DEG, 5 KT, VRB BTN 280 AND 350 DEG. VIS 10 KM OR MORE. CLD FEW 7500 FT. T 25. DP 12. QNH 1021. NOSIG.",
    "LIMC": "[Arrival ATIS] LIMC ARR ATIS F 0050Z LIMC ARR F 0050Z I.L.S. ZULU RWY IN USE 35L TL 70 RWY 35R CLSD WIND TDZ 150/1KT CAVOK T20 DP14 QNH 1016HPA QFE 0991HPA\n[Departure ATIS] LIMC DEP ATIS M 2020Z LIMC DEP M 2020Z RWY IN USE 35R TL 70 WIND END 360/3KT CAVOK T25 DP16 QNH 1016HPA QFE 0991HPA DATALINK CLEARANCE AVAILABLE.... CONTACT 1 3 1 8 8 0 TO BE RELEASED BY THE AIRPORT OPERATOR ...",
    "LIRF": "[Arrival ATIS] LIRF ARR ATIS D 0050Z LIRF ARR D 0050Z 1 6 LEFT ILS WHISKEY RWY IN USE 16L TL 70 WIND TDZ 350/2KT CAVOK T21 DP20 QNH 1016HPA\n[Departure ATIS] LIRF DEP ATIS Y 2020Z LIRF DEP Y 2020Z RWY IN USE 25 TL 70 RWYS IN USE FOR ARR 34R AND 34L WIND END 310/7KT CAVOK T25 DP20 QNH 1017HPA REA IS SENT AUTOMATICALLY ONCE RLSD BY RAMP WHEN READY CONTACT FIUME RAMP 121.725",
    "EINN": "[Arrival ATIS] EINN ARR ATIS A 0100Z EXPECT I L S CATEGORY 1 LDG RWY24 TKOF RWY24 TRL FL060 27007KT 9999 BKN003 14/13 QNH Q1021 TREND NOSIG ADVISE AT FIRST CONTACT YOU HAVE ATIS INFO A",
    "EGLL": "[Arrival ATIS] EGLL ARR ATIS E 0050Z 27L SINGLE RUNWAY OPERATIONS IN FORCE LANDING RWY 27L RWY27L SURFACE CONDITION CODES: 6/6/6 DRY/DRY/DRY DEPTH: NR/NR/NR COVERAGE: NR/NR/NR TRANSITION-LEVEL: FL 70 RUNWAY 27R REDUCED DECLARED DISTANCES WITH TAKE OFF RUN AVAILABLE 3362METRES AND LANDING DISTANCE AVAILABLE 3362METRES IF STAND GUIDANCE IS OFF OR FAILS, REMAIN ON THE TAXIWAY CENTRELINE AND ADVISE ATC AUTO 25009KT 9999 NCD 19/14 Q1021 ACKNOWLEDGE RECEIPT OF INFORMATION E\n[Departure ATIS] EGLL DEP ATIS J 2120Z PILOTS SHOULD EXPECT 27L SINGLE RUNWAY OPERATIONS FROM AT 21:55 HOURS DEPARTURE RWY 27R RUNWAY 27R REDUCED DECLARED DISTANCES WITH TAKE OFF RUN AVAILABLE 3362METRES AND LANDING DISTANCE AVAILABLE 3362METRES PILOTS THAT ARE IN RECEIPT OF DATALINK CLEARANCES ARE REMINDED THEY MUST CONTACT DELIVERY ON 121.980 WHEN READY FOR START DET VOR OOS AUTO 26011KT 9999 NCD 24/15 Q1022 ACKNOWLEDGE RECEIPT OF INFORMATION J AND REPORT AIRCRAFT TYPE AND CURRENT QNH ON FIRST CONTACT WITH HEATHROW",
    "EPWA": "[Arrival ATIS] EPWA ARR ATIS J 2331Z EPWA ARR J. TIME 2330. EXP U ARR ILS Z APCH FOR RWY 33. RWY 33 RCC 5, 5, 5. 1ST PART, WET. 2ND PART, WET. 3RD PART, WET. RWY REPORT END. TRANSITION LEVEL 80. WIND 270 DEG, 4 KT, VRB BTN 240 AND 300 DEG. CAVOK. T 13. DP 11. QNH 1011. NOSIG. CAUTION. BIRD ACT. END OF EPWA ARR J\n[Departure ATIS] EPWA DEP ATIS T 1535Z EPWA DEP T. TIME 1535. DEP RWY 29. ARR RWY 33, EXP U ARR ILS Z. REPORT READY FOR STARTUP ON DELIVERY 121. 605. RWY 29 RCC 5, 5, 5. 1ST PART, WET. 2ND PART, WET. 3RD PART, WET. RWY REPORT END. TRANSITION LEVEL 80. WIND 230 DEG, 7 KT. VIS MID 10 KM OR MORE. CLD FEW CB 2300 FT. T 18. DP 16. QNH 1009. NOSIG. CAUTION. BIRD ACT. END OF EPWA DEP T",
    "EFHK": "[Arrival ATIS] EFHK ARR ATIS I 0103Z EXPECT ILS APCH ARR RWY 22L RUNWAY 22L CONDITION REPORT AT 2219 UTC RUNWAY CONDITION CODES 4 DOWNGRADED , 4 DOWNGRADED , 4 DOWNGRADED CONTAMINANTS ALL PARTS 100 PERCENT WET TRL 65 SPECIAL WIND 290 DEG 5 KT VIS 10KM BKN 1100 FT T 13 DP 13 QNH 996 BECMG CLD BKN 500 FT. ACK INFO I\n[Departure ATIS] EFHK DEP ATIS H 1620Z DEP RWYS 22R AND 22L RUNWAY 22R CONDITION REPORT AT 1329 UTC RUNWAY CONDITION CODES 6 , 6 , 6 CONTAMINANTS ALL PARTS DRY RUNWAY 22L CONDITION REPORT AT 1330 UTC RUNWAY CONDITION CODES 6 , 6 , 6 CONTAMINANTS ALL PARTS DRY WIND 110 DEG 6 KT VIS 10KM FEW 1400 FT. SCT 1600 FT. FEW TCU 2800 FT T 19 DP 15 QNH 1003 TEMPO CLD FEW CB 3000 FT. ACK INFO H",
    "LTAC": "[Arrival ATIS] LTAC ARR ATIS C 0050Z EXP ILS V APCH 03C DEP RWY 03L RWY 03C WIND 040 DEG 09 KT RWY 03L WIND 030 DEG 09 KT TRL 110 VIS 9999 FEW04000 FT SCT08000 FT T 15 DP 11 QNH 1015 NOSIG FOR DELIVERY CTC 121.9. FOR DELIVERY FIRST USE DIGITAL DEP CLR. CTN BIRD HAZARD OVR AERODROME. APCH FREQUENCY 129.050. TAXIWAY ECHO 1 IS CLOSED. END OF ATIS C",
    "UBBB": "[Arrival ATIS] UBBB ARR ATIS C 0030Z ATIS C EXP ILS/ LDG 34 35 DEP 34 35 IN USE RWY 34 CLEAR DRY 70 RWY 35 CLEAR DRY 70 TLVL 110 WIND WIND RWY 34 300 4 KT SPD MAX 4 MIN 4 WIND RWY 35 320 4 KT SPD MAX 6 MIN 4 VIS CAVOK T 23 / DP 21 QNH 1008 HPA TREND TREND NOSIG MODERATE BIRDS ACT IN VICINITY OF AP END OF ATIS C\n[Departure ATIS] UBBB DEP ATIS C 0030Z ATIS C EXP ILS/ LDG 34 35 DEP 34 35 IN USE RWY 34 CLEAR DRY 70 RWY 35 CLEAR DRY 70 TLVL 110 WIND WIND RWY 34 300 4 KT SPD MAX 4 MIN 4 WIND RWY 35 320 4 KT SPD MAX 6 MIN 4 VIS CAVOK T 23 / DP 21 QNH 1008 HPA TREND TREND NOSIG MODERATE BIRDS ACT IN VICINITY OF AP END OF ATIS C",
    "ZWWW": "[Arrival ATIS] ZWWW ARR ATIS D 0100Z EXP ILSDME Z APCH LDG RWY 26R TA 3000 WIND 340/2MPS VRB BTN 270/ AND 020/ VIS 9999M -RA CLD FEW 600M /BKN 1200M T 23 /DP 18 QNH 1012 HPA ADZ YOU HAVE INFO D.\n[Departure ATIS] ZWWW DEP ATIS N 0430Z DEP RWY 26L TA 3000 WIND 010/6MPS VIS 9999M CLD FEW 990M T 28 /DP 14 QNH 1013 HPA ADZ YOU HAVE INFO N.",
    "ZLXY": "[Arrival ATIS] ZLXY ARR ATIS C 0300Z EXP ILS APCH LDG RWY 23R WIND 160/2MPS VRB BTN 110/ AND 230/ VIS 9999M CLD SCT 1200M /SCT 1500M T 26 /DP 19 QNH 1006 HPA VISUAL APPROACH IN PROGRESS ADZ YOU HAVE INFO C.\n[Departure ATIS] ZLXY DEP ATIS U 0400Z DEP RWY 05L & 06L WIND VRB/1MPS VIS 9999M CLD FEW 450M /SCT 900M /OVC 1800M T 23 /DP 19 QNH 1008 HPA ADZ YOU HAVE INFO U.",
    "ZBAA": "[Arrival ATIS] ZBAA ARR ATIS G 0100Z EXP ILS APCH DEPENDENT PARL INSTR APCH LDG RWY 36L & 36R & 01 WIND 120 DEG 2 MPS 060V200 DEG CAVOK T 27 /DP 20 QNH 1000 HPA VISUAL APPROACH IS IN PROGRESS. ADZ YOU HAVE INFO G.\n[Departure ATIS] ZBAA DEP ATIS W 0300Z DEP RWY 36L & 36R & 01 WIND VRB DEG 2 MPS VIS 4000 BR CLD FEW 480M T 27 /DP 23 QNH 1003 HPA RWY INDEPENDENT PARALLEL DEP ADZ YOU HAVE INFO W.",
    "ZBHH": "[Arrival ATIS] ZBHH ARR ATIS H 0300Z EXP ILSDME APCH LDG RWY 26 TA 3000 /TRL 3600 WIND VRB/1MPS VIS 9999M CLD FEW 1200M /FEW TCU 1200M T 21 /DP 16 QNH 1008 HPA BEFORE 1300 UTC, TURBULENCE MAY OCCUR IN LOCAL FIELD. ADZ YOU HAVE INFO H.\n[Departure ATIS] ZBHH DEP ATIS K 2300Z DEP RWY 26 TA 3000 /TRL 3600 WIND 060/3MPS VRB BTN 010/ AND 080/ CAVOK T 21 /DP 15 QNH 1010 HPA ADZ YOU HAVE INFO K.",
    "ZSQD": "[Arrival ATIS] ZSQD ARR ATIS Q 0300Z EXP ILSDME APCH LDG RWY 17 TA 3000 /TRL 3600 WIND 130/3MPS VRB BTN 100/ AND 160/ VIS 9999M CLD SCT 450M T 24 /DP 21 QNH 1005 HPA SEGREGATED OPERATION VISUAL APPROACH OPERATION IN PROGRESS. RUNWAY 17,IF MISSED APPROACH,EXPECT FOLLOW THE STANDARD MISSED APPROACH PROCEDURE,CLIMB TO 900M ON QNH OR BY ATC CAUTION MAYBE THERE IS A FLOCK OF BIRDS IN THE VICINITY OF AIRPORT ADZ YOU HAVE INFO Q.\n[Departure ATIS] ZSQD DEP ATIS Q 0300Z DEP RWY 16 TA 3000 /TRL 3600 WIND 130/3MPS VRB BTN 100/ AND 160/ VIS 9999M CLD SCT 450M T 24 /DP 21 QNH 1005 HPA SEGREGATED OPERATION VISUAL APPROACH OPERATION IN PROGRESS. RUNWAY 17,IF MISSED APPROACH,EXPECT FOLLOW THE STANDARD MISSED APPROACH PROCEDURE,CLIMB TO 900M ON QNH OR BY ATC CAUTION MAYBE THERE IS A FLOCK OF BIRDS IN THE VICINITY OF AIRPORT ADZ YOU HAVE INFO Q."
  },
  "windtemp_alaska": "\n000\nFBAK31 KWNO 052001\nFD1AK1\nDATA BASED ON 051800Z    \nVALID 060000Z   FOR USE 2000-0300Z. TEMPS NEG ABV 24000\n\nFT  3000    6000    9000   12000   18000   24000  30000  34000  39000\nADK 1616 2117+08 2220+05 2323+00 2329-10 2340-22 236838 238349 248959\nADQ 0415 0415-03 0617-08 0615-15 0820-28 0830-38 021137 330838 291040\nAKN 3510 0418+00 0427-06 0532-11 0537-24 0539-37 043748 351542 321041\nANC 9900 0912+01 0919-04 0919-10 1019-23 1024-36 112850 112145 101241\nANN 1811 1813+01 1915-02 2118-08 2521-16 2628-26 253641 254451 263858\nBET 3108 9900+01 0305-03 0608-09 0106-22 0710-35 091652 061148 030843\nBRW 2208 2508+06 2712+02 2712-03 2810-15 3406-27 011044 021553 031456\nBTI 2815 2812+05 3012+01 3110-04 0311-16 0315-30 042746 043354 041450\nBTT 9900 9900+06 0708-01 0814-06 0722-18 0727-31 073046 072654 072249\nCDB 9900 3306+02 3211-01 3116-07 2929-20 2968-29 790042 790349 287349\nCZF 3107 9900+03 0606-03 0711-08 0712-22 0818-35 082949 072749 061244\nEHM 0211 0408+02 0613-04 0610-09 0512-22 0712-36 040649 292146 302143\nFAI 9900 0705+05 0806-01 0906-07 1007-21 1016-33 093248 093351 092045\nFYU 9900 9900+04 9900-02 0808-07 0821-18 0821-30 082146 092054 081848\nGAL 0206 0507+05 0606-02 0505-07 1009-21 0832-32 075546 085453 082947\nGKN 1407 1405+03 0905-03 0908-09 0917-22 1028-35 122949 122347 131243\nHOM 0714 0829-01 0829-06 0933-11 0833-23 0939-36 103348 091542 090740\nJNU 1408 1620+00 1617-04 1613-08 2310-18 2420-30 254343 255053 242550\nLUR 2013 1912+07 2012+03 2107-03 1305-16 1111-28 082344 093053 082056\nMCG 0108 0509+03 0611-02 0717-08 0823-22 0827-34 083350 083449 091944\nMDO 1128 1130+00 1029-05 1125-10 1019-23 1424-35 163149 162245 161241\nOME 2105 9900+04 1705-01 9900-06 0813-19 0832-30 083746 073754 082750\nORT      0806+05 0914-02 1015-08 1116-21 1222-33 122848 122451 131045\nOTZ 2609 2105+05 1206+00 1015-05 0920-17 0823-30 082846 083053 082351\nSNP 9900 9900+02 9900-03 9900-09 2714-21 2840-31 278243 277548 274147\nTKA 9900 9900+03 0909-03 1015-09 0926-22 0931-35 103350 102747 101543\nUNK 9900 0910+04 0910-02 0912-07 0813-21 0818-34 086147 086252 082746\nYAK 1412 1316-01 1315-04 1518-10 1814-20 2019-32 223845 224051 201746\nIKO 1314 1508+06 2208+02 2621-01 2743-12 2755-23 277638 277849 268658\nAFM 2805 9900+06 1008+00 0914-05 0822-18 0827-30 073046 073053 072451\n5AB 0914 1109+04 2109+03 2115-03 2025-17 2143-29 228442 227347 224548\n5AC 2025 2230+04 2233+02 2333-02 2431-14 2528-26 243841 244051 253956\n5AD 3019 2717+03 2522-01 2530-06 2541-19 2553-31 256544 256245 264745\n5AE 3123 3226-02 3225-06 3133-11 3051-24 2974-34 308340 296641 295042\n5AF 1523 1622+00 1625-04 1724-06 2029-16 2135-27 224043 224853 243551\n5AG 1327 1326+00 1325-05 1427-09 1524-20 1830-32 195145 204949 212344\n",
  "vaac_tokyo": [
    {
      "id": "20260706_30027000_0236",
      "year": "2026",
      "volcano": "Sheveluch",
      "psn": "N5639 E16122",
      "issued": "20260706",
      "text": "FVFE01 RJTD 060000\nVA ADVISORY\nDTG: 20260706/0000Z\nVAAC: TOKYO\nVOLCANO: SHEVELUCH 300270\nPSN: N5639 E16122\nAREA: RUSSIA\nSOURCE ELEV: 3283M AMSL\nADVISORY NR: 2026/236\nINFO SOURCE: KVERT HIMAWARI-9\nERUPTION DETAILS: VA CONTINUOUSLY OBS IN SATELLITE IMAGERY\nOBS VA DTG: 05/2320Z\nOBS VA CLD: SFC/FL280 N5317 E15755 - N5335 E16001 - N5150 E15905 - \nN5208 E15711 MOV SW 30KT\nFCST VA CLD +6 HR: 06/0520Z SFC/FL270 N5153 E15833 - N4911 E15827 - \nN4917 E15636 - N5146 E15538\nFCST VA CLD +12 HR: 06/1120Z SFC/FL260 N5033 E15841 - N4627 E15841 - \nN4627 E15706 - N5033 E15530\nFCST VA CLD +18 HR: 06/1720Z SFC/FL260 N4820 E16112 - N4351 E15836 - \nN5044 E15512\nRMK: VA HEIGHT UPDATED TO FL280 BASED ON SATELLITE DATA.\nNXT ADVISORY: 20260706/0600Z=",
      "img_url": "https://ds.data.jma.go.jp/svd/vaac/data/VAGFN/2026/Images/20260706_30027000_0236_QH21_01.png",
      "sat_img_url": "https://ds.data.jma.go.jp/svd/vaac/data/Sat/2026/Images/30027000/09-ir/20260705_2320_202607060000_ir.png",
      "text_url": "https://ds.data.jma.go.jp/svd/vaac/data/TextData/2026/20260706_30027000_0236_Text.html"
    },
    {
      "id": "20260705_27303000_0717",
      "year": "2026",
      "volcano": "Mayon",
      "psn": "N1315 E12341",
      "issued": "20260705",
      "text": "FVFE01 RJTD 051936\nVA ADVISORY\nDTG: 20260705/1936Z\nVAAC: TOKYO\nVOLCANO: MAYON 273030\nPSN: N1315 E12341\nAREA: PHILIPPINES\nSOURCE ELEV: 2462M AMSL\nADVISORY NR: 2026/717\nINFO SOURCE: HIMAWARI-9 PHIVOLCS\nERUPTION DETAILS: ERUPTION AT 20260705/1914Z FL090 EXTD WSW REPORTED\nOBS VA DTG: 05/1920Z\nOBS VA CLD: VA NOT IDENTIFIABLE FM SATELLITE DATA WIND FL090 050/8KT\nFCST VA CLD +6 HR: NOT AVBL\nFCST VA CLD +12 HR: NOT AVBL\nFCST VA CLD +18 HR: NOT AVBL\nRMK: WE WILL ISSUE FURTHER ADVISORY IF VA IS DETECTED IN SATELLITE \nIMAGERY.\nNXT ADVISORY: NO FURTHER ADVISORIES=",
      "img_url": "https://ds.data.jma.go.jp/svd/vaac/data/VAGFN/2026/Images/20260705_27303000_0717_QH21_01.png",
      "sat_img_url": null,
      "text_url": "https://ds.data.jma.go.jp/svd/vaac/data/TextData/2026/20260705_27303000_0717_Text.html"
    },
    {
      "id": "20260704_27202000_0228",
      "year": "2026",
      "volcano": "Kanlaon",
      "psn": "N1025 E12308",
      "issued": "20260704",
      "text": "FVFE01 RJTD 040601\nVA ADVISORY\nDTG: 20260704/0601Z\nVAAC: TOKYO\nVOLCANO: KANLAON 272020\nPSN: N1025 E12308\nAREA: PHILIPPINES\nSOURCE ELEV: 2435M AMSL\nADVISORY NR: 2026/228\nINFO SOURCE: HIMAWARI-9 PHIVOLCS\nERUPTION DETAILS: ERUPTION AT 20260704/0539Z FL090 EXTD SW REPORTED\nOBS VA DTG: 04/0540Z\nOBS VA CLD: VA NOT IDENTIFIABLE FM SATELLITE DATA WIND FL090 070/7KT\nFCST VA CLD +6 HR: NOT AVBL\nFCST VA CLD +12 HR: NOT AVBL\nFCST VA CLD +18 HR: NOT AVBL\nRMK: WE WILL ISSUE FURTHER ADVISORY IF VA IS DETECTED IN SATELLITE \nIMAGERY.\nNXT ADVISORY: NO FURTHER ADVISORIES=",
      "img_url": "https://ds.data.jma.go.jp/svd/vaac/data/VAGFN/2026/Images/20260704_27202000_0228_QH21_01.png",
      "sat_img_url": null,
      "text_url": "https://ds.data.jma.go.jp/svd/vaac/data/TextData/2026/20260704_27202000_0228_Text.html"
    },
    {
      "id": "20260701_30006000_0001",
      "year": "2026",
      "volcano": "Mutnovsky",
      "psn": "N5227 E15812",
      "issued": "20260701",
      "text": "FVFE01 RJTD 012206\nVA ADVISORY\nDTG: 20260701/2206Z\nVAAC: TOKYO\nVOLCANO: MUTNOVSKY 300060\nPSN: N5227 E15812\nAREA: RUSSIA\nSOURCE ELEV: 2288M AMSL\nADVISORY NR: 2026/1\nINFO SOURCE: KVERT KBGS UHPP HIMAWARI-9\nERUPTION DETAILS: ERUPTION AT 20260701/2016Z FL170 EXTD W REPORTED\nOBS VA DTG: 01/2140Z\nOBS VA CLD: VA NOT IDENTIFIABLE FM SATELLITE DATA WIND FL170 120/8KT\nFCST VA CLD +6 HR: NOT AVBL\nFCST VA CLD +12 HR: NOT AVBL\nFCST VA CLD +18 HR: NOT AVBL\nRMK: WE WILL ISSUE FURTHER ADVISORY IF VA IS DETECTED IN SATELLITE \nIMAGERY.\nNXT ADVISORY: NO FURTHER ADVISORIES=",
      "img_url": "https://ds.data.jma.go.jp/svd/vaac/data/VAGFN/2026/Images/20260701_30006000_0001_QH21_01.png",
      "sat_img_url": null,
      "text_url": "https://ds.data.jma.go.jp/svd/vaac/data/TextData/2026/20260701_30006000_0001_Text.html"
    }
  ],
  "vaac_alaska": [
    {
      "text": "\n000\nFVAK21 PAWU 051146\nVAAAK1\nVA ADVISORY\n\nDTG: 20260705/1142Z\n\nVAAC: ANCHORAGE\n\nVOLCANO: SHEVELUCH 300270\n\nPSN: N5639 E16122\n\nAREA: KAMCHATKA PENINSULA\n\nSOURCE ELEV: 10771 FT AMSL\n\nADVISORY NR: 2026/177\n\nINFO SOURCE: HIMAWARI\n\nERUPTION DETAILS: VA NOT IDENTIFIABLE FM SATELLITE DATA.\n\nOBS VA DTG: 05/1142Z\n\nOBS VA CLD: VA NOT IDENTIFIABLE\n\nFCST VA CLD +6HR: NOT AVBL\n\nFCST VA CLD +12HR: NOT AVBL\n\nFCST VA CLD +18HR: NOT AVBL\n\nRMK: A NEW ADVISORY WILL BE ISSUED IF VA IS DETECTED IN SATELLITE IMAGERY....TS\n\nNXT ADVISORY: NO FURTHER ADVISORIES=\n\n",
      "issued": "2026-07-05T11:46:00+00:00",
      "volcano": "Sheveluch",
      "psn": "N5639 E16122"
    }
  ]
}