{
  "updated_utc": "2026-07-15T20:30Z",
  "metar": {
    "RJAA": "METAR RJAA 151900Z AUTO 14005KT 4500 BR FEW020 BKN023 BKN028 25/25 Q1000 BECMG 6000 NSW",
    "PANC": "METAR PANC 151853Z 20013G22KT 10SM -RA FEW027 SCT033 OVC060 12/08 A2989 RMK AO2 SLP124 P0001 T01170083",
    "PAFA": "METAR PAFA 151853Z 22005KT 10SM -RA SCT020 BKN065 BKN085 12/10 A2976 RMK AO2 SLP082 P0002 T01220100",
    "PAED": "METAR PAED 151855Z 21011G25KT 10SM SCT040 SCT050 OVC060 13/09 A2988 RMK AO2A RAE12 SLP114 P0001 T01300085 $",
    "KSEA": "METAR KSEA 151853Z VRB05KT 10SM FEW080 FEW130 SCT230 23/11 A3008 RMK AO2 SLP191 HZ FEW080 T02280111 $",
    "ZSPD": "METAR ZSPD 151900Z 21002MPS CAVOK 30/27 Q1003 NOSIG",
    "ZSSS": "METAR ZSSS 151900Z 19001MPS CAVOK 32/27 Q1003 NOSIG",
    "RJFR": "METAR RJFR 151900Z AUTO 14002KT 9999 OVC019 28/26 Q1002",
    "VHHH": "SPECI VHHH 151845Z 19013KT 7000 2000N +SHRA FEW010 FEW015CB SCT025 27/24 Q1005 TEMPO 3000 SHRA FEW010CB SCT020",
    "RCTP": "METAR RCTP 151900Z 22008KT 9999 FEW015 28/25 Q1008 NOSIG RMK A2979",
    "ZGSZ": "METAR ZGSZ 151900Z 22008G14MPS 4000 SHRA SCT020 BKN033 26/25 Q1005 NOSIG",
    "WSSS": "METAR WSSS 151900Z VRB02KT 9999 FEW018 BKN160 27/25 Q1012 NOSIG",
    "WMKK": "METAR WMKK 151900Z 09004KT 050V130 9999 FEW017CB 29/25 Q1011 NOSIG",
    "WIDD": "METAR WIDD 151900Z 14004KT 090V180 9999 FEW014 28/26 Q1012 NOSIG",
    "VTBS": "METAR VTBS 151900Z 21005KT 9999 FEW020 29/23 Q1010 NOSIG",
    "VTBU": "METAR VTBU 151900Z VRB02KT 9000 FEW020 27/27 Q1010 NOSIG",
    "ROAH": "METAR ROAH 151900Z AUTO 23013KT 9999 SCT005 OVC011 27/27 Q1009",
    "VVDN": "METAR VVDN 151900Z 25006KT 9999 FEW020 SCT070 30/22 Q1006 NOSIG",
    "RCKH": "METAR RCKH 151900Z 06004KT 9999 FEW014 SCT030 27/24 Q1009 NOSIG RMK A2982",
    "KLAX": "METAR KLAX 151853Z 25008KT 10SM FEW011 FEW025 26/18 A2987 RMK AO2 SLP111 T02610183 $",
    "KONT": "METAR KONT 151853Z 00000KT 10SM FEW110 35/13 A2987 RMK AO2 SLP094 T03500133 $",
    "KSFO": "METAR KSFO 151856Z 32017KT 10SM CLR 21/12 A2996 RMK AO2 SLP144 T02110117",
    "KOAK": "METAR KOAK 151853Z 25008KT 10SM FEW006 22/13 A2996 RMK AO2 SLP144 T02170128",
    "KMHR": "METAR KMHR 151835Z AUTO 28005KT 10SM CLR 35/09 A2987 RMK AO2 T03490093 $",
    "KDFW": "METAR KDFW 151853Z VRB04KT 10SM SCT050 SCT060 BKN080 BKN160 BKN250 32/19 A3006 RMK AO2 SLP168 CB DSNT SE-SW MOV NW T03170189 $",
    "KIAH": "METAR KIAH 151853Z 05010KT 10SM FEW045 SCT095 OVC150 27/22 A3007 RMK AO2 RAB27E38 SLP181 P0000 T02670222",
    "KORD": "METAR KORD 151851Z 22005KT 10SM FEW050 SCT300 33/21 A3006 RMK AO2 SLP172 T03330211",
    "KJFK": "METAR KJFK 151851Z 27020G30KT 10SM SCT250 BKN300 35/20 A2980 RMK AO2 PK WND 27030/1847 SLP089 FU BKN300 T03500200",
    "KRFD": "METAR KRFD 151854Z 27005KT 10SM FEW039 FEW250 32/22 A3009 RMK AO2 SLP184 T03220217",
    "KIND": "METAR KIND 151854Z VRB04KT 10SM SCT050 33/20 A3009 RMK AO2 SLP180 T03280200",
    "KDTW": "METAR KDTW 151853Z 26008KT 10SM FEW055 BKN200 34/23 A3001 RMK AO2 SLP155 T03390228",
    "KMSP": "METAR KMSP 151853Z 24006KT 10SM SCT040 BKN250 34/21 A3010 RMK AO2 SLP185 T03390206",
    "CYEG": "METAR CYEG 151900Z VRB03KT 20SM BKN022 BKN150 BKN250 23/18 A3008 RMK CU5AC1CI2 AC TR SLP184 DENSITY ALT 3700FT",
    "EHAM": "METAR EHAM 151855Z 04012G22KT 360V080 CAVOK 25/14 Q1021 NOSIG",
    "EBBR": "METAR EBBR 151850Z 03005KT CAVOK 26/09 Q1019 NOSIG",
    "EDDF": "METAR EDDF 151850Z AUTO 05013KT CAVOK 28/12 Q1017 NOSIG",
    "EDFH": "METAR EDFH 151850Z 08003KT 030V140 CAVOK 24/11 Q1019",
    "EDDL": "METAR EDDL 151850Z AUTO 04010KT CAVOK 27/09 Q1019 NOSIG",
    "EDDK": "METAR EDDK 151850Z AUTO 04008KT CAVOK 27/12 Q1018 NOSIG",
    "EBLG": "METAR EBLG 151850Z 03009KT CAVOK 26/11 Q1019 NOSIG",
    "LSZH": "METAR LSZH 151850Z 09005KT 040V130 9999 FEW070 21/17 Q1019 NOSIG",
    "LIMC": "METAR LIMC 151850Z 36006KT CAVOK 25/19 Q1016 NOSIG",
    "LIRF": "METAR LIRF 151850Z 19004KT CAVOK 29/23 Q1015 NOSIG",
    "EINN": "METAR EINN 151900Z 19003KT 9999 FEW035 BKN060 28/15 Q1022 NOSIG",
    "EGLL": "METAR EGLL 151850Z AUTO 11011KT 9999 NCD 25/12 Q1021",
    "EGSS": "METAR EGSS 151850Z AUTO 05012KT 9999 NCD 24/13 Q1023",
    "EPWA": "METAR EPWA 151900Z 03008KT 360V060 CAVOK 25/14 Q1020 NOSIG",
    "UHPP": "METAR UHPP 151900Z 19003MPS 9999 OVC004 14/13 Q1016 R34L/CLRD62 NOSIG RMK MT OBSC QFE758/1011",
    "EFHK": "METAR EFHK 151850Z 30008KT CAVOK 23/15 Q1018 NOSIG",
    "LBBG": "METAR LBBG 151900Z AUTO 05009KT 9999 NCD 22/20 Q1017 NOSIG",
    "LTAC": "METAR LTAC 151850Z 05011KT CAVOK 22/11 Q1017 NOSIG RMK RWY21C 04014KT RWY03L 04011KT RWY21R 03012KT RWY03R 02012KT RWY21L 03010KT",
    "UBBB": "METAR UBBB 151900Z 32020G30KT CAVOK 26/21 Q1009 NOSIG",
    "UTAA": "METAR UTAA 151900Z 23004KT 9999 NSC 32/07 Q1005 R88/CLRD70 NOSIG",
    "UACC": "METAR UACC 151900Z 26004MPS CAVOK 22/16 Q1005 NOSIG RMK QFE723/0964",
    "UAAA": "METAR UAAA 151900Z 08002MPS 9999 SCT100 23/10 Q1009 NOSIG",
    "UZTT": "METAR UZTT 151900Z 08008KT CAVOK 29/12 Q1005 NOSIG",
    "ZWWW": "METAR ZWWW 151900Z 16002MPS CAVOK 28/11 Q1009 NOSIG",
    "ZLXY": "METAR ZLXY 151900Z 03003MPS CAVOK 25/23 Q1003 NOSIG",
    "ZBAA": "METAR ZBAA 151900Z VRB01MPS CAVOK 25/23 Q1001 NOSIG",
    "ZBHH": "METAR ZBHH 151900Z 05002MPS CAVOK 19/09 Q1009 NOSIG",
    "ZSQD": "METAR ZSQD 151900Z VRB01MPS 9000 SCT022 OVC046 21/21 Q1002 NOSIG",
    "ZMCK": "METAR ZMCK 151900Z VRB01MPS 9999 FEW033 15/10 Q1010 NOSIG RMK QFE642.9 75 NT",
    "UUEE": "METAR UUEE 151900Z 29004G10MPS 230V350 CAVOK 19/16 Q1012 R24L/290345 R24C/290345 NOSIG",
    "UUDD": "METAR UUDD 151900Z 31005MPS CAVOK 18/17 Q1012 R31L/290045 NOSIG",
    "ULLI": "METAR ULLI 151900Z 34006MPS CAVOK 22/13 Q1016 R88/090065 NOSIG",
    "USSS": "SPECI USSS 151840Z VRB01MPS 9999 TS FEW010 BKN031CB 16/16 Q0999 R08R/290050 R08L/290040 NOSIG RMK QFE729/0973",
    "UNNT": "METAR UNNT 151900Z 00000MPS CAVOK 14/13 Q1008 R25/CLRD// R34/CLRD// NOSIG RMK QFE746/0995",
    "UNKL": "METAR UNKL 151900Z 27001MPS CAVOK 10/10 Q1010 R29/CLRD// NOSIG RMK QFE732",
    "UIBB": "METAR UIBB 151900Z AUTO 28002MPS 9000 // ///009/// 12/11 Q1007 RMK QBB290 QFE712/0950",
    "UEEE": "METAR UEEE 151900Z 02002MPS 9999 SCT050CB 18/18 Q0996 R23/09//74 NOSIG RMK QFE739",
    "UHHH": "METAR UHHH 151900Z 26003MPS CAVOK 18/17 Q0991 R23L/090060 NOSIG RMK QFE737/0982",
    "UHSS": "METAR UHSS 151900Z 17001MPS 7000 BKN010CB 20/19 Q0992 R19/290060 NOSIG RMK MT OBSC QFE743/0991"
  },
  "taf": {
    "RJAA": "TAF RJAA 151705Z 1518/1700 17005KT 9999 FEW012 BKN020 TEMPO 1518/1520 4000 BR FEW005 BKN008 TEMPO 1615/1621 3000 BR FEW005 BKN008",
    "PANC": "TAF PANC 151724Z 1518/1624 16010G18KT P6SM -SHRA FEW007 SCT045 OVC070 TEMPO 1518/1521 6SM -RA OVC045 FM152100 18014G24KT P6SM VCSH SCT040 BKN060 FM160100 18012KT P6SM SCT070 FM160900 16008KT P6SM BKN080 FM161400 17007KT P6SM VCSH SCT030 OVC040",
    "PAFA": "TAF PAFA 151720Z 1518/1624 24008KT P6SM -SHRA SCT025 BKN050 OVC070 FM152100 24010KT P6SM OVC050 TEMPO 1603/1606 P6SM -SHRA BKN025 FM160600 22009G19KT P6SM OVC050 FM161600 23005KT P6SM BKN050",
    "PAED": "TAF AMD PAED 151330Z 1513/1619 21010KT 9999 -SHRA OVC040 620703 540406 QNH2982INS BECMG 1517/1518 22012G22KT 9999 -SHRA SCT045 OVC060 620703 520009 QNH2990INS BECMG 1604/1605 21009KT 9999 NSW SCT050 BKN065 620703 QNH3002INS TX14/1600Z TN10/1514Z",
    "KSEA": "TAF KSEA 151720Z 1518/1624 25007KT P6SM SKC FM152100 33007KT P6SM FEW250 FM160600 VRB04KT P6SM VCSH BKN150 FM161200 05005KT P6SM VCSH OVC100 FM161700 21005KT P6SM VCSH OVC040",
    "ZSPD": "TAF ZSPD 151502Z 1518/1624 18004MPS 8000 SCT030 TX38/1606Z TN29/1521Z TN28/1621Z TEMPO 1606/1610 TSRA BKN008 SCT030CB",
    "ZSSS": "TAF ZSSS 151502Z 1518/1624 18004MPS 8000 SCT030 TX38/1606Z TN29/1521Z TN28/1621Z TEMPO 1606/1610 TSRA BKN011 SCT030CB",
    "RJFR": "TAF RJFR 151705Z 1518/1700 32008KT 9999 FEW045",
    "VHHH": "TAF VHHH 152000Z 1521/1703 18010KT 9999 FEW010 SCT030 TX31/1606Z TN27/1522Z TN27/1622Z TEMPO 1521/1603 24015G25KT 2000 TSRA +SHRA FEW008CB SCT015 TEMPO 1603/1606 3000 SHRA FEW010CB SCT020 PROB30 TEMPO 1621/1703 24015G25KT 2500 TSRA SHRA FEW008CB SCT015",
    "RCTP": "TAF RCTP 151700Z 1518/1624 24013KT 9999 FEW015 BKN032 TEMPO 1518/1524 18005KT FEW010 BKN020 TEMPO 1603/1609 27015G25KT FEW010 BKN020 TEMPO 1612/1618 22005KT",
    "ZGSZ": "TAF AMD ZGSZ 151821Z 1518/1624 18004MPS 8000 BKN040 TX31/1606Z TN26/1522Z TN27/1622Z TEMPO 1518/1521 2500 +SHRA SCT011 FEW020CB TEMPO 1522/1601 2000 +SHRA SCT012 FEW020CB BKN030 TEMPO 1602/1605 SHRA SCT011 FEW020CB BKN030 TEMPO 1605/1608 SHRA SCT011 FEW020CB",
    "WSSS": "TAF WSSS 151700Z 1518/1700 14008KT 9999 FEW015 SCT020",
    "WMKK": "TAF WMKK 151700Z 1518/1700 13005KT 9999 FEW030",
    "VTBS": "TAF VTBS 151700Z 1518/1624 22008KT 9999 FEW020 TEMPO 1610/1615 VRB15KT 4000 TSRA FEW018CB SCT020 BKN080",
    "VTBU": "TAF VTBU 151700Z 1518/1618 35004KT 9000 FEW020 SCT100 BECMG 1600/1602 24008KT",
    "ROAH": "TAF ROAH 151705Z 1518/1700 23010KT 9999 FEW006 BKN010 TEMPO 1518/1521 4000 BR FEW003 BKN005 TEMPO 1521/1600 FEW003 BKN005 TEMPO 1600/1603 FEW005 BKN008 TEMPO 1612/1615 FEW005 BKN008 TEMPO 1615/1700 FEW003 BKN005",
    "VVDN": "TAF VVDN 151700Z 1518/1618 24007KT 9999 FEW020 BECMG 1606/1607 01010KT BECMG 1611/1612 22007KT",
    "RCKH": "TAF RCKH 151700Z 1518/1624 18005KT 9999 FEW015 BKN032 TEMPO 1518/1522 06005KT TEMPO 1523/1605 20011KT 4000 SHRA FEW006 FEW010CB BKN018 TEMPO 1606/1611 21010KT TEMPO 1612/1618 09005KT 4000 RA FEW010 BKN020",
    "KLAX": "TAF KLAX 151730Z 1518/1624 26012KT P6SM SKC FM160300 26006KT P6SM SKC FM160900 11006KT P6SM SCT008 FM161800 24006KT P6SM FEW010 FM162000 26012KT P6SM SKC",
    "KONT": "TAF KONT 151720Z 1518/1624 VRB05KT P6SM SKC FM152000 25012G22KT P6SM FEW150 FM160500 VRB05KT P6SM FEW150 FM161900 25012G20KT P6SM FEW150",
    "KSFO": "TAF KSFO 151737Z 1518/1624 31015KT P6SM SKC FM152000 30022G30KT P6SM SKC FM160900 27015G25KT P6SM SKC FM161300 29015KT P6SM SKC FM162000 30020G28KT P6SM SKC",
    "KOAK": "TAF KOAK 151737Z 1518/1624 27008KT P6SM SKC FM152000 28016KT P6SM SKC FM160400 28009KT P6SM SKC FM161300 26007KT P6SM SCT009 FM162000 28016KT P6SM SKC",
    "KMHR": "TAF KMHR 151720Z 1518/1618 VRB05KT P6SM SKC FM152100 24008G15KT P6SM SKC FM160000 23011KT P6SM SKC FM160400 17006KT P6SM SKC",
    "KDFW": "TAF KDFW 152024Z 1520/1624 19017KT 6SM -RA BKN050 TEMPO 1520/1522 18015G27KT 4SM RA FM160000 18009KT P6SM BKN035 TEMPO 1603/1606 BKN025 FM161400 16004KT P6SM BKN020 FM161600 18006KT P6SM OVC120",
    "KIAH": "TAF KIAH 151732Z 1518/1624 25006KT P6SM -RA VCTS SCT023CB BKN100 OVC110 TEMPO 1518/1522 4SM -TSRA BKN035CB FM152200 13007KT P6SM VCSH SCT035 BKN050 FM160200 VRB04KT P6SM OVC150 FM161400 17007KT P6SM SCT060 BKN150",
    "KORD": "TAF KORD 152030Z 1521/1624 29007KT P6SM FEW050 FEW250 FM152230 09007KT P6SM FEW060 FEW250 FM160200 VRB04KT P6SM SCT250 FM161200 06006KT 6SM FU SCT060 SCT250",
    "KJFK": "TAF KJFK 151957Z 1520/1624 28019G29KT 5SM FU BKN250 PROB30 1521/1523 3SM TSRA FU BKN050CB FM160000 32013KT 6SM FU BKN250 TEMPO 1600/1604 4SM FU FM160400 30007KT 6SM FU BKN250 FM161500 28012G20KT 5SM FU BKN250",
    "KRFD": "TAF KRFD 151731Z 1518/1618 26006KT P6SM FEW050 FEW250 FM160100 VRB04KT P6SM FEW250 FM161200 21006KT P6SM SCT060 SCT250",
    "KIND": "TAF KIND 152021Z 1520/1624 26005KT P6SM SCT050 FM160100 VRB03KT P6SM FEW250 FM161300 27004KT P6SM FEW250",
    "KDTW": "TAF KDTW 152017Z 1520/1624 28008KT P6SM SCT250 FM152300 31006KT 6SM FU FEW060 BKN200 PROB30 1600/1603 4SM -TSRA BKN060CB BKN150 FM160300 05005KT 5SM FU BKN040 BKN200 FM160600 01004KT 3SM FU BKN030 BKN200 FM161600 33007KT 5SM FU BKN035 BKN200",
    "KMSP": "TAF KMSP 151736Z 1518/1624 29003KT P6SM FEW250 FM152200 VRB03KT 5SM FU SCT150 FM160500 14005KT 6SM FU FEW250",
    "CYEG": "TAF CYEG 151740Z 1518/1618 VRB03KT P6SM SCT015 SCT150 TEMPO 1518/1520 BKN015 BKN150 FM152000 18008KT P6SM SCT040 SCT240 FM152300 16008KT P6SM FEW040 SCT220 TEMPO 1523/1602 VRB15G25KT P6SM VCTS SCT030CB BKN100 FM160200 26008KT P6SM FEW030 SCT100 PROB30 1602/1606 VRB20G30KT 3SM TSRA OVC050CB FM160600 30006KT P6SM FEW020 FM160800 VRB03KT P6SM SCT008 TEMPO 1608/1616 BKN008 PROB30 1608/1616 1SM BR BKN003 FM161600 VRB03KT P6SM FEW012 RMK NXT FCST BY 152100Z",
    "EHAM": "TAF EHAM 151643Z 1518/1624 04015KT CAVOK BECMG 1520/1523 03008KT",
    "EBBR": "TAF EBBR 151720Z 1518/1624 04009KT CAVOK",
    "EDDF": "TAF EDDF 151700Z 1518/1624 04010KT CAVOK BECMG 1522/1524 03005KT BECMG 1613/1616 18006KT PROB30 TEMPO 1613/1620 21015G30KT TSRA SCT050CB",
    "EDFH": "TAF EDFH 151700Z 1518/1618 07006KT CAVOK BECMG 1611/1614 16005KT PROB40 TEMPO 1611/1618 19015G30KT TSRA SCT040CB PROB30 TEMPO 1613/1616 23030G40KT 2000 TSRAGR BKN020CB",
    "EDDL": "TAF EDDL 151700Z 1518/1624 05012KT CAVOK BECMG 1518/1521 03006KT BECMG 1600/1603 VRB03KT BECMG 1609/1612 36006KT",
    "EDDK": "TAF EDDK 151700Z 1518/1624 05008KT CAVOK BECMG 1520/1523 VRB03KT BECMG 1610/1613 05005KT BECMG 1618/1621 VRB03KT",
    "EBLG": "TAF EBLG 151720Z 1518/1624 04009KT CAVOK",
    "LSZH": "TAF LSZH 152025Z 1521/1703 34006KT 9999 FEW070 TX31/1615Z TN17/1604Z TEMPO 1521/1604 SHRA SCT050TCU PROB40 TEMPO 1521/1604 28010KT TSRA SCT050CB PROB30 TEMPO 1521/1523 26015G25KT 4000 BECMG 1604/1606 CAVOK BECMG 1611/1614 9999 FEW060 BECMG 1615/1617 SCT050TCU PROB40 1615/1618 06006KT TEMPO 1617/1622 25015G35KT 4500 TSRA SCT040CB BECMG 1622/1701 CAVOK",
    "LIMC": "TAF LIMC 151700Z 1518/1624 VRB06KT 9999 SCT050 TEMPO 1616/1619 TSRA BECMG 1617/1619 36010KT BECMG 1621/1623 VRB06KT",
    "LIRF": "TAF LIRF 151700Z 1518/1624 VRB05KT CAVOK TEMPO 1600/1606 3000 BCFG BECMG 1609/1611 28012KT BECMG 1618/1620 VRB05KT",
    "EINN": "TAF EINN 151700Z 1518/1618 12006KT CAVOK",
    "EGLL": "TAF EGLL 151653Z 1518/1624 09012KT 9999 FEW040 BECMG 1520/1523 03008KT TEMPO 1603/1608 BKN012 PROB30 TEMPO 1603/1607 BKN009 BECMG 1615/1618 09010KT",
    "EGSS": "TAF EGSS 151702Z 1518/1624 05009KT 9999 FEW045 TEMPO 1523/1607 BKN008",
    "EPWA": "TAF EPWA 152030Z 1521/1621 04008KT CAVOK",
    "UHPP": "TAF UHPP 151933Z 1521/1703 17003G12MPS 9999 BKN022CB TEMPO 1521/1523 BKN003 OVC020CB TEMPO 1612/1621 1000 BR VV003",
    "EFHK": "TAF EFHK 151730Z 1518/1618 32006KT CAVOK BECMG 1609/1611 17010KT",
    "LBBG": "TAF LBBG 151700Z 1518/1618 VRB04KT 9999 SCT045 BECMG 1609/1611 12012KT PROB30 TEMPO 1611/1616 5000 TSRA FEW030CB BKN040",
    "LTAC": "TAF LTAC 151640Z 1518/1618 VRB02KT CAVOK BECMG 1607/1609 01012KT SCT040 BECMG 1616/1618 VRB02KT CAVOK",
    "UBBB": "TAF UBBB 151656Z 1518/1618 33022G32KT 9999 SCT015 TX29/1610Z TN23/1601Z TEMPO 1518/1606 34026G36KT FEW050CB BECMG 1608/1610 35018G28KT TEMPO 1612/1618 34014KT SCT020",
    "UTAA": "TAF UTAA 151645Z 1518/1618 09014KT 6000 SCT050 TX42/1609Z TEMPO 1520/1603 20012KT BECMG 1523/1601 33016KT TEMPO 1603/1606 29018G28KT 3000 DRDU",
    "UACC": "TAF UACC 151700Z 1518/1618 24004MPS 9999 SCT030 BKN100 TX30/1609Z TN20/1523Z TEMPO 1518/1602 18005MPS BKN030CB BECMG 1602/1604 21007MPS SCT030CB BKN050 TEMPO 1602/1614 24011G16MPS 3100 -TSRA BKN030CB BECMG 1614/1616 30003MPS SCT040 BKN100",
    "UAAA": "TAF UAAA 151701Z 1518/1618 17002MPS 9999 FEW050CB SCT100 TX38/1610Z TN20/1601Z TEMPO 1518/1524 23005MPS BECMG 1603/1604 34005MPS TEMPO 1605/1614 04005G10MPS BECMG 1614/1615 20005MPS",
    "UZTT": "TAF UZTT 151700Z 1518/1618 07010KT 7000 NSC TX41/1611Z TN25/1600Z TEMPO 1606/1616 32015KT",
    "ZWWW": "TAF ZWWW 151507Z 1518/1624 20004MPS CAVOK TX38/1609Z TN26/1523Z TN28/1623Z BECMG 1602/1603 36004MPS BECMG 1614/1615 18004MPS",
    "ZLXY": "TAF ZLXY 151509Z 1518/1618 06003MPS 6000 NSC TX33/1607Z TN25/1522Z TEMPO 1609/1611 33008G15MPS TSRA FEW030CB OVC050 BECMG 1610/1611 33008G15MPS TSRA FEW030CB OVC050 BECMG 1613/1614 26004MPS NSW NSC",
    "ZBAA": "TAF ZBAA 151501Z 1518/1624 18004MPS CAVOK TX33/1606Z TN24/1521Z TN23/1621Z",
    "ZBHH": "TAF ZBHH 151512Z 1518/1618 04004MPS 9999 FEW040 TX30/1608Z TN16/1522Z TEMPO 1609/1612 -TSRA FEW040CB FEW040",
    "ZSQD": "TAF ZSQD 151502Z 1518/1618 36003MPS 3500 BR BKN020 TX32/1606Z TN21/1520Z",
    "ZMCK": "TAF ZMCK 151645Z 1518/1624 VRB02MPS 9999 FEW030CB SCT033 TN14/1521Z TX23/1607Z PROB40 TEMPO 1519/1609 VRB08MPS 6000 TSRA SCT027CB SCT030 BECMG 1602/1604 32006MPS BECMG 1610/1612 VRB02MPS",
    "UUEE": "TAF UUEE 151950Z 1521/1621 32005MPS 9999 SCT020 TX21/1612Z TN14/1618Z TEMPO 1521/1605 1200 BR BKN005 TEMPO 1605/1617 35009G17MPS",
    "UUDD": "TAF UUDD 151953Z 1521/1703 30006MPS 9999 SCT016 TX20/1612Z TN10/1701Z BECMG 1604/1606 36006MPS TEMPO 1606/1618 36009G17MPS",
    "ULLI": "TAF ULLI 151953Z 1521/1621 34005G10MPS 6000 BKN016 BECMG 1600/1602 03005G10MPS BECMG 1616/1618 03003MPS",
    "USSS": "TAF USSS 151947Z 1521/1621 23003G10MPS 6000 -SHRA BKN016CB TEMPO 1521/1604 0300 -TSRA FG BKN003 BKN011CB FM160400 28003G14MPS 9999 BKN020CB TEMPO 1604/1619 -TSRA",
    "UNNT": "TAF UNNT 152000Z 1521/1621 13003G08MPS 9999 SCT040 TX25/1611Z TN14/1523Z PROB40 TEMPO 1603/1615 -TSRA BKN030CB TEMPO 1615/1621 -TSRA BKN020CB",
    "UNKL": "TAF UNKL 151950Z 1521/1621 24003MPS 8000 SCT040 TEMPO 1521/1601 0400 FG VV002",
    "UIBB": "TAF UIBB 152000Z 1521/1621 28003G08MPS 0300 FG BKN001 BKN016CB TEMPO 1521/1601 5000 BR FEW004 BKN016CB BECMG 1601/1603 9999 NSW BKN020CB TEMPO 1603/1612 VRB08MPS BECMG 1615/1617 20005MPS",
    "UEEE": "TAF UEEE 152000Z 1521/1703 06003MPS 9999 BKN020CB OVC100 TX26/1606Z TN16/1618Z TEMPO 1521/1524 1000 TSRA BR VV004 TEMPO 1600/1612 VRB16MPS 3200 -TSRA SCT011 BKN020CB OVC070",
    "UHHH": "TAF UHHH 151950Z 1521/1703 21005G12MPS 9999 SCT016CB TX27/1606Z TN19/1617Z TEMPO 1521/1610 5000 -TSRA FEW003 BKN016CB",
    "UHSS": "TAF UHSS 151949Z 1521/1703 23003MPS 6000 -SHRA BKN008 BKN016CB TEMPO 1521/1601 25003G08MPS 1400 SHRA BR BKN004 BKN012CB BECMG 1605/1607 9999 NSW SCT040"
  },
  "atis": {},
  "windtemp_alaska": "\n000\nFBAK31 KWNO 152000\nFD1AK1\nDATA BASED ON 151800Z    \nVALID 160000Z   FOR USE 2000-0300Z. TEMPS NEG ABV 24000\n\nFT  3000    6000    9000   12000   18000   24000  30000  34000  39000\nADK 0315 3216+04 2923+01 2928-05 2756-15 2671-26 258641 258749 266050\nADQ 2613 2616+01 2619-03 2728-06 2651-17 2779-27 269341 269049 266751\nAKN 2414 2713-01 2616-04 2621-08 2533-20 2655-31 760343 269149 255546\nANC 2111 2314+00 2515-05 2617-10 2915-24 3314-37 282243 263240 253140\nANN 3207 2606+09 2808+06 2708+01 2811-12 3310-23 351440 361850 281258\nBET 2317 2511-02 2514-05 2417-10 2323-22 2427-34 243247 243345 242842\nBRW 9900 2605+00 2705-05 2314-10 2217-21 2130-32 203348 202651 201042\nBTI 0714 0811+04 0610-02 0905-07 1709-18 1824-29 193946 193754 201644\nBTT 2706 9900+03 9900-02 0205-07 9900-21 9900-32 121249 121351 181442\nCDB 1817 2120+00 2326-01 2337-03 2451-14 2460-25 256940 257549 267257\nCZF 1809 2210-01 2313-07 2011-11 2012-23 2013-35 201347 231243 241242\nEHM 2411 2412-02 2315-05 2317-09 2425-21 2561-30 750244 258249 254645\nFAI 2623 2520+01 2616-03 2613-09 2608-21 0509-33 091750 180745 201540\nFYU 2811 3605+02 9900-02 0605-07 0710-19 0712-32 112947 131848 191741\nGAL 2006 1708+01 1111-03 1108-08 1107-21 1107-33 090649 990050 211042\nGKN 1820 2023+01 2220-05 2215-11 2213-25 2310-38 232441 233239 233340\nHOM 2517 2613+00 2814-04 2816-09 2829-22 2745-34 266444 266143 264543\nJNU 1907 2213+04 2321+02 2424+00 2433-12 2438-23 243840 243750 253460\nLUR 0805 1607-01 1810-06 2008-10 2315-21 2222-34 213348 211948 990042\nMCG 2424 2516+00 2514-04 2513-10 1505-21 1207-33 990048 251047 232041\nMDO 2519 2719+00 2619-05 2426-09 2553-21 2574-31 259740 258844 244644\nOME 9900 2306-01 9900-06 1506-10 1614-20 1511-33 141849 131051 990043\nORT      2614+03 2309-03 2416-10 2024-23 2134-35 224443 223841 233240\nOTZ 3205 9900+00 1906-05 2008-09 1913-20 1812-32 161048 170953 170743\nSNP 2907 3408-02 3206-06 3006-10 2708-22 2516-34 234344 244044 243243\nTKA 1915 2109+00 2508-05 2508-10 2713-23 3107-35 320746 261942 252440\nUNK 2721 2911+00 9900-05 1605-08 1510-21 1308-33 131049 180750 211142\nYAK 2009 2012+01 2222-02 2332-06 2457-14 2471-24 247541 247350 245755\nIKO 2512 2535+07 2447+03 2450-01 2452-14 2457-24 246939 247248 247458\nAFM 9900 2006+02 1906-03 1807-08 1605-20 1307-33 130748 120652 170843\n5AB 0308 3409+03 3317+01 3226-03 3143-14 3155-26 327941 338447 326751\n5AC 3018 3016+08 3111+05 3109+01 3311-12 3617-24 011840 361950 331158\n5AD 2718 2822+09 2826+04 2728+00 2632-12 2533-24 253640 263550 262658\n5AE 2209 2517+02 2535+01 2544-02 2646-14 2649-25 265440 265949 266059\n5AF 2707 2713+07 2617+05 2620+02 2526-12 2626-23 262940 263250 273060\n5AG 2516 2418+03 2523+01 2534-03 2451-13 2562-24 246741 246850 256157\n",
  "vaac_active": [
    {
      "volcano": "MAYON",
      "volcano_jp": "マヨン",
      "advisory_nr": "2026/750",
      "obs_time": "2026-07-15 17:31Z",
      "issued_time": "2026-07-15 18:01Z",
      "text_url": "https://www.data.jma.go.jp/vaac/data/TextData/2026/20260715_27303000_0750_Text.html",
      "lat": 13.25,
      "lon": 123.683,
      "text": "FVFE01 RJTD 151801\nVA ADVISORY\nDTG: 20260715/1801Z\nVAAC: TOKYO\nVOLCANO: MAYON 273030\nPSN: N1315 E12341\nAREA: PHILIPPINES\nSOURCE ELEV: 2462M AMSL\nADVISORY NR: 2026/750\nINFO SOURCE: HIMAWARI-9 PHIVOLCS\nERUPTION DETAILS: ERUPTION AT 20260715/1731Z FL110 EXTD SSW REPORTED\nOBS VA DTG: 15/1750Z\nOBS VA CLD: VA NOT IDENTIFIABLE FM SATELLITE DATA WIND FL110 320/2KT\nFCST VA CLD +6 HR: NOT AVBL\nFCST VA CLD +12 HR: NOT AVBL\nFCST VA CLD +18 HR: NOT AVBL\nRMK: WE WILL ISSUE FURTHER ADVISORY IF VA IS DETECTED IN SATELLITE \nIMAGERY.\nNXT ADVISORY: NO FURTHER ADVISORIES="
    },
    {
      "volcano": "MAYON",
      "volcano_jp": "マヨン",
      "advisory_nr": "2026/749",
      "obs_time": "2026-07-15 16:37Z",
      "issued_time": "2026-07-15 17:06Z",
      "text_url": "https://www.data.jma.go.jp/vaac/data/TextData/2026/20260715_27303000_0749_Text.html",
      "lat": 13.25,
      "lon": 123.683,
      "text": "FVFE01 RJTD 151706\nVA ADVISORY\nDTG: 20260715/1706Z\nVAAC: TOKYO\nVOLCANO: MAYON 273030\nPSN: N1315 E12341\nAREA: PHILIPPINES\nSOURCE ELEV: 2462M AMSL\nADVISORY NR: 2026/749\nINFO SOURCE: HIMAWARI-9 PHIVOLCS\nERUPTION DETAILS: ERUPTION AT 20260715/1637Z VA CLD UNKNOWN REPORTED\nOBS VA DTG: 15/1650Z\nOBS VA CLD: VA NOT IDENTIFIABLE FM SATELLITE DATA WIND FL180 010/6KT\nFCST VA CLD +6 HR: NOT AVBL\nFCST VA CLD +12 HR: NOT AVBL\nFCST VA CLD +18 HR: NOT AVBL\nRMK: WE WILL ISSUE FURTHER ADVISORY IF VA IS DETECTED IN SATELLITE \nIMAGERY.\nNXT ADVISORY: NO FURTHER ADVISORIES="
    }
  ],
  "vaac_tokyo": [
    {
      "id": "20260715_27303000_0750",
      "year": "2026",
      "volcano": "Mayon",
      "psn": "N1315 E12341",
      "issued": "20260715",
      "text": "FVFE01 RJTD 151801\nVA ADVISORY\nDTG: 20260715/1801Z\nVAAC: TOKYO\nVOLCANO: MAYON 273030\nPSN: N1315 E12341\nAREA: PHILIPPINES\nSOURCE ELEV: 2462M AMSL\nADVISORY NR: 2026/750\nINFO SOURCE: HIMAWARI-9 PHIVOLCS\nERUPTION DETAILS: ERUPTION AT 20260715/1731Z FL110 EXTD SSW REPORTED\nOBS VA DTG: 15/1750Z\nOBS VA CLD: VA NOT IDENTIFIABLE FM SATELLITE DATA WIND FL110 320/2KT\nFCST VA CLD +6 HR: NOT AVBL\nFCST VA CLD +12 HR: NOT AVBL\nFCST VA CLD +18 HR: NOT AVBL\nRMK: WE WILL ISSUE FURTHER ADVISORY IF VA IS DETECTED IN SATELLITE \nIMAGERY.\nNXT ADVISORY: NO FURTHER ADVISORIES=",
      "img_url": "https://ds.data.jma.go.jp/svd/vaac/data/VAGFN/2026/Images/20260715_27303000_0750_QH21_01.png",
      "sat_img_url": null,
      "text_url": "https://ds.data.jma.go.jp/svd/vaac/data/TextData/2026/20260715_27303000_0750_Text.html"
    },
    {
      "id": "20260714_30027000_0263",
      "year": "2026",
      "volcano": "Sheveluch",
      "psn": "N5639 E16122",
      "issued": "20260714",
      "text": "FVFE01 RJTD 141200\nVA ADVISORY\nDTG: 20260714/1200Z\nVAAC: TOKYO\nVOLCANO: SHEVELUCH 300270\nPSN: N5639 E16122\nAREA: RUSSIA\nSOURCE ELEV: 3283M AMSL\nADVISORY NR: 2026/263\nINFO SOURCE: HIMAWARI-9\nERUPTION DETAILS: VA CONTINUOUSLY OBS IN SATELLITE IMAGERY\nOBS VA DTG: 14/1120Z\nOBS VA CLD: SFC/FL390 N5359 E16539 - N5422 E16550 - N5414 E16656 - \nN5349 E16654 MOV SE 40KT\nFCST VA CLD +6 HR: 14/1720Z SFC/FL400 N5233 E17412 - N5141 E17210 - \nN5144 E17002 - N5224 E17116\nFCST VA CLD +12 HR: 14/2320Z SFC/FL400 N5147 W17910 - N5115 W17906 - \nN5025 E17725 - N5008 E17317 - N5113 E17652\nFCST VA CLD +18 HR: 15/0520Z SFC/FL400 N5217 W17056 - N5119 W17200 - \nN4942 W17651 - N4907 E17606 - N5056 W17716\nRMK: THE RESPONSIBILITY FOR THIS ASH EVENT IS BEING TRANSFERRED TO \nVAAC ANCHORAGE. THE NEXT ADVISORY WILL BE ISSUED BY VAAC ANCHORAGE \nBY 1800UTC UNDER HEADER FVAK21 PAWU. SOME PART OF VA OBSCURED BY MET \nCLOUD.\nNXT ADVISORY: NO FURTHER ADVISORIES=",
      "img_url": "https://ds.data.jma.go.jp/svd/vaac/data/VAGFN/2026/Images/20260714_30027000_0263_QH21_01.png",
      "sat_img_url": "https://ds.data.jma.go.jp/svd/vaac/data/Sat/2026/Images/30027000/09-ir/20260714_1120_202607141200_ir.png",
      "text_url": "https://ds.data.jma.go.jp/svd/vaac/data/TextData/2026/20260714_30027000_0263_Text.html"
    },
    {
      "id": "20260713_28208001_0083",
      "year": "2026",
      "volcano": null,
      "psn": "N3136 E13039",
      "issued": "20260713",
      "text": "FVFE01 RJTD 130254\nVA ADVISORY\nDTG: 20260713/0254Z\nVAAC: TOKYO\nVOLCANO: SAKURAJIMA (AIRA CALDERA) 282080\nPSN: N3136 E13039\nAREA: JAPAN\nSOURCE ELEV: 1117M AMSL\nADVISORY NR: 2026/83\nINFO SOURCE: JMA HIMAWARI-9\nERUPTION DETAILS: ERUPTED AT 20260713/0152Z FL100 EXTD N\nOBS VA DTG: 13/0230Z\nOBS VA CLD: SFC/FL100 N3136 E13039 - N3142 E13040 - N3141 E13044 - \nN3134 E13042 MOV NE 15KT\nFCST VA CLD +6 HR: 13/0830Z SFC/FL100 N3234 E13121 - N3145 E13155 - \nN3202 E13110 - N3227 E13051\nFCST VA CLD +12 HR: 13/1430Z SFC/FL100 N3318 E13206 - N3142 E13317 - \nN3134 E13226 - N3312 E13118\nFCST VA CLD +18 HR: NO VA EXP\nRMK: NIL\nNXT ADVISORY: 20260713/0600Z=",
      "img_url": "https://ds.data.jma.go.jp/svd/vaac/data/VAGFN/2026/Images/20260713_28208001_0083_QH21_01.png",
      "sat_img_url": "https://ds.data.jma.go.jp/svd/vaac/data/Sat/2026/Images/28208001/09-ir/20260713_0230_202607130254_ir.png",
      "text_url": "https://ds.data.jma.go.jp/svd/vaac/data/TextData/2026/20260713_28208001_0083_Text.html"
    },
    {
      "id": "20260712_27307000_0012",
      "year": "2026",
      "volcano": "Taal",
      "psn": "N1400 E12100",
      "issued": "20260712",
      "text": "FVFE01 RJTD 121243\nVA ADVISORY\nDTG: 20260712/1243Z\nVAAC: TOKYO\nVOLCANO: TAAL 273070\nPSN: N1400 E12100\nAREA: PHILIPPINES\nSOURCE ELEV: 311M AMSL\nADVISORY NR: 2026/12\nINFO SOURCE: HIMAWARI-9 PHIVOLCS\nERUPTION DETAILS: ERUPTION AT 20260712/1227Z FL050 EXTD NE REPORTED\nOBS VA DTG: 12/1230Z\nOBS VA CLD: VA NOT IDENTIFIABLE FM SATELLITE DATA WIND FL050 230/19KT\nFCST VA CLD +6 HR: NOT AVBL\nFCST VA CLD +12 HR: NOT AVBL\nFCST VA CLD +18 HR: NOT AVBL\nRMK: WE WILL ISSUE FURTHER ADVISORY IF VA IS DETECTED IN SATELLITE \nIMAGERY.\nNXT ADVISORY: NO FURTHER ADVISORIES=",
      "img_url": "https://ds.data.jma.go.jp/svd/vaac/data/VAGFN/2026/Images/20260712_27307000_0012_QH21_01.png",
      "sat_img_url": null,
      "text_url": "https://ds.data.jma.go.jp/svd/vaac/data/TextData/2026/20260712_27307000_0012_Text.html"
    }
  ],
  "vaac_alaska": [
    {
      "text": "\n000\nFVAK21 PAWU 151258\nVAAAK1\nVA ADVISORY\n\nDTG: 20260715/1254Z\n\nVAAC: ANCHORAGE\n\nVOLCANO: SHEVELUCH 300270\n\nPSN: N5639 E16122\n\nAREA: KAMCHATKA PENINSULA\n\nSOURCE ELEV: 10771 FT AMSL\n\nADVISORY NR: 2026/201\n\nINFO SOURCE: HIMAWARI\n\nERUPTION DETAILS: VA NOT IDENTIFIABLE FM SATELLITE DATA.\n\nOBS VA DTG: 15/1254Z\n\nOBS VA CLD: VA NOT IDENTIFIABLE FM SATELLITE DATA.\n\nFCST VA CLD +6HR: NOT AVBL\n\nFCST VA CLD +12HR: NOT AVBL\n\nFCST VA CLD +18HR: NOT AVBL\n\nRMK: A NEW ADVISORY WILL BE ISSUED IF VA IS DETECTED IN SATELLITE IMAGERY....SC\n\nNXT ADVISORY: NO FURTHER ADVISORIES=\n\n",
      "issued": "2026-07-15T12:58:00+00:00",
      "volcano": "Sheveluch",
      "psn": "N5639 E16122"
    }
  ]
}