{
  "updated_utc": "2026-07-18T11:52Z",
  "metar": {
    "RJAA": "METAR RJAA 181000Z 15007KT 9999 FEW015 BKN/// 25/23 Q1008 NOSIG",
    "PANC": "METAR PANC 180953Z 00000KT 10SM -RA SCT010 BKN015 OVC039 11/10 A2997 RMK AO2 SLP151 P0004 T01060100",
    "PAFA": "METAR PAFA 180953Z 00000KT 10SM SCT065 BKN085 BKN160 11/09 A2985 RMK AO2 SLP112 T01060089 $",
    "PAED": "METAR PAED 180955Z 24004KT 10SM SCT008 BKN015 11/10 A2995 RMK AO2A RAE55 SLP138 P0000 T01140101 $",
    "KSEA": "METAR KSEA 180953Z 19003KT 10SM SCT039 BKN046 16/12 A3009 RMK AO2 SLP195 T01560117",
    "ZSPD": "METAR ZSPD 181000Z 14005MPS 9999 FEW030CB 32/26 Q0999 BECMG TL1140 TS",
    "ZSSS": "METAR ZSSS 181000Z 35005MPS CAVOK 33/26 Q0999 NOSIG",
    "RJFR": "METAR RJFR 181000Z 07009KT 9999 FEW035 BKN/// 29/27 Q1002",
    "VHHH": "METAR VHHH 181000Z 20010KT 160V220 9999 -SHRA FEW010 SCT025 30/26 Q1004 NOSIG",
    "RCTP": "METAR RCTP 181000Z 24014KT 9999 FEW020 BKN200 31/26 Q1004 WS R23R NOSIG RMK A2966",
    "ZGSZ": "METAR ZGSZ 181000Z 18006MPS 9999 SCT033 30/27 Q1004 NOSIG",
    "WSSS": "METAR WSSS 181000Z 06004KT 9999 FEW018TCU FEW020CB SCT050 30/24 Q1009 NOSIG",
    "WMKK": "METAR WMKK 181000Z 35004KT 290V060 9000 FEW018 26/24 Q1009 NOSIG",
    "WIDD": "METAR WIDD 181000Z 14006KT 100V190 9999 SCT014 29/25 Q1009 NOSIG",
    "VTBS": "METAR VTBS 181000Z 20009KT 9999 FEW020 34/22 Q1006 NOSIG",
    "VTBU": "METAR VTBU 181000Z 19009KT 9000 FEW020 31/26 Q1007 NOSIG",
    "ROAH": "METAR ROAH 181000Z 20007KT 9999 FEW007 SCT018 28/27 Q1005",
    "VVDN": "METAR VVDN 181000Z 32003KT 9999 FEW020 35/22 Q1003 NOSIG",
    "RCKH": "METAR RCKH 181000Z 32006KT 300V010 9999 FEW016 SCT024 BKN120 28/23 Q1007 NOSIG RMK A2974",
    "KLAX": "METAR KLAX 180953Z VRB03KT 10SM SCT015 SCT150 21/18 A2998 RMK AO2 SLP149 T02110178 $",
    "KONT": "METAR KONT 180953Z 25006KT 10SM SCT200 22/17 A2999 RMK AO2 SLP138 T02170167 $",
    "KSFO": "METAR KSFO 180956Z 23005KT 10SM FEW004 OVC013 14/12 A3001 RMK AO2 SLP161 T01440117 $",
    "KOAK": "METAR KOAK 180953Z 24008KT 10SM FEW005 OVC010 15/12 A3001 RMK AO2 SLP160 T01500122",
    "KMHR": "METAR KMHR 180955Z AUTO 16006KT 10SM CLR 15/11 A2993 RMK AO2 T01520113 $",
    "KDFW": "METAR KDFW 180953Z 19010KT 10SM FEW150 BKN250 27/21 A3006 RMK AO2 SLP169 T02670211 $",
    "KIAH": "METAR KIAH 180953Z 17003KT 7SM FEW022 FEW120 SCT250 27/25 A3010 RMK AO2 SLP190 T02670250 $",
    "KORD": "METAR KORD 181051Z 25010G17KT 10SM BKN250 BKN300 26/22 A2987 RMK AO2 SLP107 T02610222 $",
    "KJFK": "METAR KJFK 181051Z 22008KT 4SM FU BKN035 BKN250 23/19 A2999 RMK AO2 SLP154 FU BKN035 T02280189 $",
    "KRFD": "METAR KRFD 180954Z 24011G17KT 10SM FEW120 BKN250 25/22 A2989 RMK AO2 SLP116 T02500222 $",
    "KIND": "METAR KIND 180954Z 23009KT 10SM FEW041 24/23 A2997 RMK AO2 SLP141 CB DSNT SE MOV NE T02390228 $",
    "KDTW": "METAR KDTW 180953Z COR 20007KT 2 1/2SM FU BKN006 22/21 A2985 RMK AO2 TWR VIS 5 SLP105 FU BKN006 T02220211 $",
    "KMSP": "METAR KMSP 180953Z 01009KT 10SM CLR 23/17 A2996 RMK AO2 SLP137 T02280172",
    "CYEG": "METAR CYEG 181000Z 13012G17KT 20SM FEW100 19/15 A2985 RMK ACC1 ACC TR SLP100 DENSITY ALT 3500FT",
    "EHAM": "METAR EHAM 180955Z 31011KT 280V350 9999 FEW025 BKN039 19/12 Q1016 NOSIG",
    "EBBR": "METAR EBBR 181020Z 29007KT 250V330 9999 BKN030 20/13 Q1017 NOSIG",
    "EDDF": "METAR EDDF 181020Z AUTO VRB06KT 9999 FEW044 25/12 Q1015 NOSIG",
    "EDFH": "METAR EDFH 181020Z 28005KT 220V350 9999 FEW026 21/13 Q1017",
    "EDDL": "METAR EDDL 181020Z AUTO 26007KT 230V330 9999 SCT023 OVC032 20/13 Q1016 NOSIG",
    "EDDK": "METAR EDDK 181020Z AUTO 31009KT 280V350 9999 BKN032 21/13 Q1016 NOSIG",
    "EBLG": "METAR EBLG 181020Z 28006KT 250V340 9999 FEW028 BKN033 21/13 Q1017 NOSIG",
    "LSZH": "METAR LSZH 181020Z VRB03KT 9999 FEW055 26/12 Q1017 NOSIG",
    "LIMC": "METAR LIMC 181020Z 14005KT 110V190 CAVOK 31/18 Q1012 NOSIG",
    "LIRF": "METAR LIRF 181020Z 27009KT CAVOK 31/24 Q1013 NOSIG",
    "EINN": "METAR EINN 181000Z 35010KT 9999 SCT018 19/12 Q1024 NOSIG",
    "EGLL": "METAR EGLL 181020Z AUTO 02007KT 310V100 9999 NCD 21/09 Q1020",
    "EGSS": "METAR EGSS 181020Z AUTO 36009KT 9999 OVC029 18/10 Q1020",
    "EPWA": "METAR EPWA 181000Z 21008KT 160V260 9999 SCT030CB 26/19 Q1008 TEMPO 27015KT 2000 TSRA",
    "UHPP": "METAR UHPP 181000Z 33005MPS 9999 FEW050 BKN100 22/15 Q1018 R34L/CLRD62 NOSIG RMK MT OBSC QFE760/1014",
    "EFHK": "METAR EFHK 181020Z 13011KT CAVOK 24/16 Q1006 NOSIG",
    "LBBG": "METAR LBBG 181000Z AUTO 12010KT 9000 NCD 29/20 Q1013 NOSIG",
    "LTAC": "METAR LTAC 181020Z VRB05KT 9999 SCT040 27/08 Q1014 NOSIG RMK RWY21C 14007KT RWY03L VRB05KT RWY21R 03008G19KT 320V090 RWY03R 06008KT 340V100 RWY21L 04009KT 280V090",
    "UBBB": "METAR UBBB 181000Z 02014KT CAVOK 30/22 Q1008 NOSIG",
    "UTAA": "METAR UTAA 181000Z 30012G22KT 260V330 9999 FEW050 40/19 Q1005 R88/CLRD70 NOSIG",
    "UACC": "METAR UACC 181000Z 28007G12MPS 260V330 9999 SCT046 34/11 Q1005 WS R22 NOSIG RMK QFE723/0964",
    "UAAA": "METAR UAAA 181000Z 06005MPS 020V090 9999 FEW050 41/09 Q1006 NOSIG",
    "UZTT": "METAR UZTT 181000Z 32006KT 290V010 CAVOK 43/12 Q1001 NOSIG",
    "ZWWW": "METAR ZWWW 181000Z 03006MPS 350V060 8000 NSC 37/13 Q1007 NOSIG",
    "ZLXY": "METAR ZLXY 181000Z 28002MPS 250V310 CAVOK 30/17 Q1007 NOSIG",
    "ZBAA": "METAR ZBAA 181000Z 08003MPS 040V120 CAVOK 25/19 Q1001 NOSIG",
    "ZBHH": "METAR ZBHH 181000Z 33004MPS 300V360 9999 FEW040 27/10 Q1007 NOSIG",
    "ZSQD": "METAR ZSQD 181000Z 36002MPS 330V030 9999 SCT053 31/19 Q1001 BECMG TL1100 16005MPS",
    "ZMCK": "METAR ZMCK 181000Z 31011MPS 280V340 9999 -TSRA SCT027CB SCT030 18/13 Q1003 NOSIG RMK QFE638.2 72 MOP",
    "UUEE": "METAR UUEE 181000Z 35002G09MPS CAVOK 23/10 Q1016 R06R/CLRD62 R06C/CLRD62 NOSIG",
    "UUDD": "METAR UUDD 181000Z 03004MPS 360V070 CAVOK 22/10 Q1017 R13R/CLRD65 NOSIG",
    "ULLI": "METAR ULLI 181000Z 18007MPS CAVOK 26/09 Q1011 R88/090065 NOSIG",
    "USSS": "METAR USSS 181000Z 04006MPS 010V070 9999 BKN020CB 22/20 Q1002 R08R/210060 TEMPO VRB20MPS -TSRAGR SQ RMK QFE732/0976",
    "UNNT": "METAR UNNT 181000Z 35004MPS 9999 SCT040CB 27/19 Q1002 R25/CLRD// R16/CLRD// NOSIG RMK QFE741/0989",
    "UNKL": "METAR UNKL 181000Z 09002MPS 030V130 9999 SCT026 22/17 Q1000 R29/CLRD// NOSIG RMK QFE725",
    "UIBB": "METAR UIBB 181000Z 14002MPS 090V200 9999 NSC 21/13 Q0999 R12/CLRD62 NOSIG RMK QFE707/0943",
    "UEEE": "METAR UEEE 181000Z 05004MPS 9999 SCT030CB 20/17 Q0996 R23/290143 NOSIG RMK QFE739",
    "UHHH": "METAR UHHH 181000Z VRB01MPS CAVOK 27/17 Q1004 R88/090060 NOSIG RMK QFE747/0996",
    "UHSS": "METAR UHSS 181000Z 21003MPS 9999 SCT024 21/19 Q1010 R19/CLRD70 NOSIG RMK MT OBSC QFE756/1008"
  },
  "taf": {
    "RJAA": "TAF RJAA 181105Z 1812/1918 16004KT 8000 FEW005 BKN020",
    "PANC": "TAF PANC 181142Z 1812/1918 VRB02KT P6SM -SHRA SCT010 OVC040 TEMPO 1812/1816 BKN030 FM181800 19004KT P6SM VCSH OVC050 FM182000 16008KT 6SM -RA OVC040 FM182300 14012G24KT P6SM VCSH SCT040 OVC070 FM190800 34005KT 6SM -RA OVC060 WS008/12030KT",
    "PAFA": "TAF PAFA 181136Z 1812/1918 20003KT P6SM SCT060 BKN100 FM190000 17006KT P6SM SCT050 SCT120",
    "PAED": "TAF AMD PAED 180817Z 1808/1911 20006KT 9999 BKN007 BKN012 OVC023 620604 QNH2986INS TEMPO 1805/1810 -RA BKN015 BECMG 1810/1811 VRB06KT 9999 NSW BKN040 620604 QNH2993INS BECMG 1819/1820 32010KT 9000 -RA FEW007 SCT015 OVC050 640703 QNH3002INS BECMG 1902/1903 34012KT 9999 VCSH BKN045 OVC060 QNH3002INS BECMG 1907/1908 36010KT 9000 -RA FEW006 SCT030 BKN045 OVC060 QNH3002INS TX14/1902Z TN10/1812",
    "KSEA": "TAF KSEA 181120Z 1812/1918 21006KT P6SM SCT006 BKN045 TEMPO 1812/1816 5SM BR BKN005 FM181700 24006KT P6SM SCT008 BKN045 FM181900 27006KT P6SM SCT050 FM190200 01008KT P6SM FEW250 FM191100 36005KT P6SM SCT250",
    "ZSPD": "TAF ZSPD 180918Z 1812/1918 13004MPS 8000 SCT030 TX32/1812Z TX33/1906Z TN28/1821Z BECMG 1820/1821 07004MPS TEMPO 1905/1909 TSRA BKN011 FEW030CB",
    "ZSSS": "TAF ZSSS 180918Z 1812/1918 29004MPS 8000 SCT030 TX34/1812Z TX33/1906Z TN28/1821Z BECMG 1821/1822 20004MPS TEMPO 1904/1908 TSRA BKN011 FEW030CB",
    "RJFR": "TAF RJFR 181105Z 1812/1918 01004KT 9999 FEW030 SCT040 BECMG 1821/1823 11006KT BECMG 1900/1903 06010KT TEMPO 1906/1912 -TSRA FEW020 BKN030 FEW030CB BECMG 1909/1912 31006KT TEMPO 1915/1918 BKN005 BKN020",
    "VHHH": "TAF VHHH 181100Z 1812/1918 20010KT 9999 FEW010 SCT025 TX31/1906Z TN27/1822Z TEMPO 1818/1824 3000 SHRA FEW010CB SCT020 TEMPO 1900/1906 24015G25KT 2500 TSRA SHRA FEW008CB SCT015",
    "RCTP": "TAF RCTP 181100Z 1812/1918 23015KT 9999 FEW010 BKN032 TEMPO 1812/1818 24010KT TEMPO 1818/1824 24009KT TEMPO 1900/1906 23020KT TEMPO 1906/1912 23022KT",
    "ZGSZ": "TAF ZGSZ 180903Z 1812/1918 17004MPS 8000 BKN040 TX29/1812Z TX31/1906Z TN27/1822Z TEMPO 1822/1901 SHRA FEW020CB SCT020 TEMPO 1902/1906 2500 +TSRA SCT010 FEW020CB BKN030",
    "WSSS": "TAF WSSS 181100Z 1812/1918 14005KT 9999 FEW015 SCT020",
    "WMKK": "TAF WMKK 181100Z 1812/1918 VRB03KT 9999 FEW018 PROB30 TEMPO 1820/1900 5000 TSRA FEW017CB",
    "VTBS": "TAF VTBS 181100Z 1812/1918 22008KT 9999 FEW020",
    "VTBU": "TAF VTBU 181100Z 1812/1912 22006KT 9000 FEW020 BECMG 1816/1818 36004KT BECMG 1900/1902 24008KT",
    "ROAH": "TAF ROAH 181105Z 1812/1918 21004KT 9999 FEW005 BKN010 TEMPO 1814/1821 FEW003 BKN005 TEMPO 1821/1900 FEW005 BKN008 TEMPO 1912/1918 FEW005 BKN008",
    "VVDN": "TAF VVDN 181100Z 1812/1912 22008KT 9999 FEW020 BECMG 1905/1906 01010KT",
    "RCKH": "TAF COR RCKH 181148Z 1812/1918 18005KT 9999 FEW010 BKN032 TEMPO 1812/1818 10005KT 4000 RA FEW010 BKN020 TEMPO 1818/1824 07005KT 4500 RA FEW010 BKN020 TEMPO 1900/1906 26009KT 5000 RA FEW010 BKN020 TEMPO 1906/1912 26010KT",
    "KLAX": "TAF KLAX 181145Z 1812/1918 10006KT P6SM FEW015 BKN150 FM181300 VRB03KT P6SM BKN015 FM181600 16005KT P6SM SCT015 FM181900 26012KT P6SM FEW025 FM190300 24006KT P6SM FEW015 SCT150 FM190600 VRB03KT P6SM FEW015 SCT150 FM190900 VRB03KT P6SM BKN015 FM191700 VRB03KT P6SM SCT015",
    "KONT": "TAF KONT 181120Z 1812/1918 VRB04KT P6SM SCT200 FM182000 26010G21KT P6SM SCT150 FM190200 25010KT P6SM FEW200 FM190900 VRB04KT P6SM SKC",
    "KSFO": "TAF KSFO 181122Z 1812/1918 26007KT P6SM OVC010 FM181800 28015G25KT P6SM SKC FM190600 26007KT P6SM OVC010",
    "KOAK": "TAF KOAK 181122Z 1812/1918 24007KT P6SM OVC010 FM181800 27010KT P6SM SKC FM190500 26007KT P6SM OVC010",
    "KMHR": "TAF KMHR 181120Z 1812/1912 17008KT P6SM SKC FM181600 VRB05KT P6SM FEW250 FM182200 22011KT P6SM SKC FM190600 16007KT P6SM FEW250",
    "KDFW": "TAF KDFW 181120Z 1812/1918 18012KT P6SM SCT025 TEMPO 1813/1815 BKN020 FM181600 18016KT P6SM SCT060 FM190200 18007KT P6SM FEW250",
    "KIAH": "TAF KIAH 181120Z 1812/1918 17006KT P6SM FEW020 SCT250 FM181500 20007KT P6SM SCT020 BKN035 FM181900 17008KT P6SM SCT045 SCT250 FM190400 19004KT P6SM FEW020 SCT250",
    "KORD": "TAF KORD 181120Z 1812/1918 25010KT P6SM SCT250 FM181400 27013G22KT P6SM SCT050 BKN250 FM181700 29012KT P6SM VCTS BKN050CB TEMPO 1817/1820 VRB20G30KT 1SM TSRA BKN020 OVC050CB FM182000 06011G17KT P6SM FEW015 SCT035 FM190100 03012G18KT 5SM FU SCT015",
    "KJFK": "TAF KJFK 181124Z 1812/1918 17004KT 4SM FU BKN250 FM181300 20010KT 4SM FU OVC150 FM181500 19012KT 4SM FU VCSH SCT015 OVC070 TEMPO 1815/1818 3SM SHRA BKN015 OVC070 FM181800 19014KT P6SM VCSH SCT015 OVC070 TEMPO 1819/1823 2SM TSRA BR BKN015 OVC050CB FM182300 20014G22KT 5SM -SHRA BKN015 OVC050 TEMPO 1823/1903 2SM TSRA BR BKN009 OVC050CB FM190300 24012KT 4SM SHRA BKN025 OVC050 FM190700 28012KT P6SM SCT040 BKN100 FM191200 33013KT P6SM BKN250",
    "KRFD": "TAF KRFD 181120Z 1812/1912 25010KT P6SM BKN250 FM181400 28013G22KT P6SM SCT050 BKN250 PROB30 1815/1817 1SM TSRA BKN020 OVC050CB FM181900 31011KT P6SM SCT035 FM190300 01009KT 5SM FU SCT035",
    "KIND": "TAF KIND 181120Z 1812/1918 23008KT P6SM FEW040 SCT180 FM181500 27013KT P6SM VCSH SCT050 PROB30 1821/1903 VRB15G25KT 5SM -TSRA BKN030CB FM190300 34007KT P6SM VCSH BKN150",
    "KDTW": "TAF KDTW 181120Z 1812/1918 22008KT 3SM BR FU BKN007 FM181500 26016G23KT P6SM SCT030 BKN050 OVC120 TEMPO 1817/1820 2SM TSRA OVC030CB FM182100 32014G22KT P6SM SCT045 BKN060 FM190100 35010KT P6SM BKN200 FM190600 01005KT P6SM SKC",
    "KMSP": "TAF KMSP 181124Z 1812/1918 36008KT P6SM SKC FM181300 01011KT P6SM SKC FM190200 03004KT P6SM SCT250",
    "CYEG": "TAF CYEG 181140Z 1812/1912 13010KT P6SM SKC FM181400 14010KT P6SM BKN020 TEMPO 1814/1816 BKN030 FM181600 27006KT P6SM FEW030 FM182200 27006KT P6SM FEW050 TEMPO 1822/1824 VRB25G40KT P6SM VCTS BKN050CB FM190000 25008KT P6SM SCT050 PROB30 1900/1904 VRB25G40KT 1SM +TSRA BR FEW020 BKN040CB FM190400 25008KT P6SM FEW100 FM191000 27008KT P6SM SCT080 TEMPO 1910/1912 VRB25G35KT P6SM VCTS BKN080CB RMK NXT FCST BY 181500Z",
    "EHAM": "TAF EHAM 181115Z 1812/1918 32013KT 9999 SCT025 BKN030 BECMG 1819/1822 31008KT PROB30 TEMPO 1820/1824 7000 -SHRA FEW020TCU BECMG 1906/1909 32016KT",
    "EBBR": "TAF EBBR 181112Z 1812/1918 32010KT 9999 SCT030 SCT045",
    "EDDF": "TAF EDDF 181100Z 1812/1918 29009KT 9999 SCT045 PROB30 TEMPO 1814/1820 31015G25KT TSRA BKN045CB BECMG 1819/1822 31004KT PROB30 TEMPO 1901/1904 SHRA BKN035CB BECMG 1906/1908 30009KT",
    "EDFH": "TAF EDFH 181100Z 1812/1912 31007KT 9999 FEW045 PROB30 TEMPO 1814/1819 32015G25KT TSRA BKN035CB",
    "EDDL": "TAF EDDL 181100Z 1812/1918 31011KT 9999 SCT035 BECMG 1819/1822 29006KT BECMG 1907/1910 30012KT PROB30 TEMPO 1914/1917 31015G25KT",
    "EDDK": "TAF EDDK 181100Z 1812/1918 32011KT 9999 SCT040 BECMG 1819/1822 31006KT BECMG 1907/1910 31011KT PROB30 TEMPO 1913/1918 31015G25KT",
    "EBLG": "TAF EBLG 181112Z 1812/1918 31010KT 9999 SCT030 SCT045",
    "LSZH": "TAF LSZH 181125Z 1812/1918 27008KT 9999 SCT060TCU TX27/1813Z TN15/1904Z TX24/1914Z PROB40 TEMPO 1813/1817 31015G26KT TSRA FEW060CB BECMG 1818/1820 15004KT BECMG 1821/1824 CAVOK BECMG 1905/1908 9999 SCT040 PROB40 TEMPO 1907/1915 SHRA SCT050TCU BECMG 1908/1911 30010KT PROB30 TEMPO 1912/1916 32015G25KT TSRA FEW050CB",
    "LIMC": "TAF LIMC 181100Z 1812/1918 22010KT 9999 FEW040 BECMG 1816/1818 VRB05KT PROB40 TEMPO 1819/1902 TSRA",
    "LIRF": "TAF LIRF 181100Z 1812/1918 27012KT CAVOK BECMG 1820/1822 VRB05KT BECMG 1907/1909 17010KT BECMG 1912/1914 23010KT BECMG 1916/1918 VRB05KT",
    "EINN": "TAF EINN 181100Z 1812/1912 36012KT 9999 FEW025",
    "EGLL": "TAF EGLL 181053Z 1812/1918 02010KT 9999 FEW030 PROB40 TEMPO 1903/1908 32006KT",
    "EGSS": "TAF EGSS 181056Z 1812/1918 03006KT 9999 SCT032 BECMG 1823/1902 33010KT",
    "EPWA": "TAF EPWA 181130Z 1812/1912 26012KT 9999 SCT035 TEMPO 1812/1821 27015G25KT 4000 SHRA SCT030CB PROB40 TEMPO 1812/1818 VRB17G28KT 2000 TSRA BKN030CB BECMG 1817/1819 VRB02KT PROB40 TEMPO 1909/1912 -SHRA SCT040CB",
    "UHPP": "TAF UHPP 181039Z 1812/1918 36003G12MPS 9999 SCT050 TX28/1903Z TN18/1816Z TEMPO 1821/1912 30005G12MPS",
    "EFHK": "TAF EFHK 181131Z 1812/1912 15009KT CAVOK PROB40 TEMPO 1812/1816 FEW050CB TEMPO 1816/1823 21012G22KT 4000 TSRA BKN012 BKN030CB BECMG 1823/1901 21010KT 6000 -RADZ BKN007 FEW030CB BECMG 1904/1906 28010KT 9999 BECMG 1908/1910 34011KT BKN015",
    "LBBG": "TAF LBBG 181100Z 1812/1912 12012KT CAVOK BECMG 1820/1822 VRB03KT TEMPO 1902/1905 3000 BR BKN010 BECMG 1906/1908 12012KT",
    "LTAC": "TAF LTAC 181040Z 1812/1912 06012KT 9999 SCT040 BECMG 1816/1819 CAVOK BECMG 1900/1903 VRB02KT",
    "UBBB": "TAF UBBB 181052Z 1812/1912 34016KT CAVOK TX30/1812Z TN25/1901Z TEMPO 1812/1818 02014KT FEW050CB PROB40 TEMPO 1818/1824 TS SCT040CB TEMPO 1900/1906 SCT012 FEW050CB",
    "UTAA": "TAF UTAA 181045Z 1812/1912 27016KT 6000 SCT050 TX42/1912Z TEMPO 1812/1818 34014G24KT 4000 DRDU TEMPO 1900/1907 30012G22KT",
    "UACC": "TAF UACC 181110Z 1812/1912 27006MPS 9999 SCT040CB BKN100 TX34/1909Z TN20/1900Z TEMPO 1812/1816 31007G12MPS BECMG 1816/1818 14003MPS TEMPO 1818/1904 20008MPS -TSRA BKN030CB BECMG 1904/1906 24006MPS TEMPO 1904/1912 28009MPS -TSRA BKN030CB",
    "UAAA": "TAF UAAA 181104Z 1812/1912 17002MPS 9999 FEW050 SCT100 TX42/1910Z TN23/1900Z TEMPO 1812/1816 04005MPS BECMG 1903/1904 01005MPS TEMPO 1905/1912 06005G10MPS",
    "UZTT": "TAF UZTT 181100Z 1812/1912 07010KT 7000 NSC TX44/1911Z TN27/1900Z TEMPO 1812/1816 32015KT",
    "ZWWW": "TAF ZWWW 180905Z 1812/1918 36004G10MPS CAVOK TX38/1909Z TN28/1823Z TN30/1918Z BECMG 1815/1816 18004MPS BECMG 1902/1903 36004MPS BECMG 1913/1914 18004MPS",
    "ZLXY": "TAF ZLXY 180907Z 1812/1912 24003MPS 6000 NSC TX35/1908Z TN22/1821Z",
    "ZBAA": "TAF ZBAA 180901Z 1812/1918 18004MPS CAVOK TX31/1906Z TN21/1821Z TN23/1918Z",
    "ZBHH": "TAF ZBHH 180903Z 1812/1912 36004MPS CAVOK TX30/1908Z TN15/1822Z TEMPO 1909/1912 VRB08G13MPS -TSRA FEW040CB FEW040",
    "ZSQD": "TAF ZSQD 180901Z 1812/1912 16003MPS 3500 BR NSC TX30/1906Z TN21/1820Z",
    "ZMCK": "TAF ZMCK 181044Z 1812/1918 VRB02MPS 9999 FEW030CB SCT033 TN12/1821Z TX24/1907Z PROB40 TEMPO 1812/1816 VRB09G14MPS TSRA SCT027CB SCT030 BECMG 1900/1902 32005MPS PROB40 TEMPO 1905/1912 VRB09G14MPS TSRA SCT027CB SCT030 BECMG 1911/1913 VRB02MPS",
    "UUEE": "TAF UUEE 181053Z 1812/1912 05003MPS CAVOK TX27/1912Z TN15/1902Z TEMPO 1903/1912 21005MPS",
    "UUDD": "TAF UUDD 181052Z 1812/1918 03003MPS CAVOK TX28/1912Z TN12/1901Z BECMG 1906/1908 20005MPS",
    "ULLI": "TAF ULLI 181053Z 1812/1912 18006G12MPS 9999 SCT020 TEMPO 1909/1912 22009G15MPS 3100 -TSRA BKN017CB",
    "USSS": "TAF USSS 181042Z 1812/1912 06003G14MPS 6000 -SHRA BKN016CB TEMPO 1812/1912 VRB20MPS -TSRAGR SQ BKN004 BKN011CB",
    "UNNT": "TAF UNNT 181100Z 1812/1912 32003G08MPS 8000 SCT040 TX26/1812Z TN16/1822Z TEMPO 1812/1819 22008G18MPS -TSRA BKN020CB TEMPO 1819/1902 0300 FG BKN001 TEMPO 1902/1912 02006G13MPS -TSRA BKN020CB",
    "UNKL": "TAF UNKL 181052Z 1812/1912 27003MPS 9999 SCT040 TEMPO 1812/1815 -TSRA BKN016CB BECMG 1819/1821 0400 FG VV003 BECMG 1822/1901 6000 NSW TEMPO 1903/1912 -TSRA BKN016CB",
    "UIBB": "TAF UIBB 181100Z 1812/1912 18002MPS 9999 BKN020CB TEMPO 1812/1815 VRB07MPS -TSRA BECMG 1815/1816 25005MPS",
    "UEEE": "TAF UEEE 181100Z 1812/1918 12003G10MPS 9999 BKN017CB OVC070 TEMPO 1812/1821 VRB01MPS 0500 TSRA FG VV003",
    "UHHH": "TAF UHHH 181045Z 1812/1918 24003MPS CAVOK TX30/1904Z TN18/1818Z FM190000 28003MPS 9999 SCT020CB",
    "UHSS": "TAF UHSS 181049Z 1812/1918 24003MPS 9999 BKN020CB FM181500 36006MPS 5000 -SHRA BKN005 BKN016CB BECMG 1906/1908 9999 NSW BKN020CB"
  },
  "atis": {},
  "windtemp_alaska": "\n000\nFBAK31 KWNO 180800\nFD1AK1\nDATA BASED ON 180600Z    \nVALID 181200Z   FOR USE 0800-1500Z. TEMPS NEG ABV 24000\n\nFT  3000    6000    9000   12000   18000   24000  30000  34000  39000\nADK 3423 3325+03 3329-01 3334-06 3354-17 3378-27 841237 842245 349549\nADQ 2118 2323+00 2327-04 2331-06 2348-15 2344-26 234941 235649 235354\nAKN 1626 1722-02 1721-06 1921-08 2122-18 2145-29 228644 228449 214147\nANC 1405 1610+00 1709-05 1807-10 2219-19 2440-28 257443 257650 243346\nANN 3107 2911+08 2614+05 2315+01 2220-15 2423-27 223241 223149 232152\nBET 0714 0915-01 1015-07 1112-12 1610-22 1816-33 202645 202644 201441\nBRW 0821 0820+02 0920-04 0825-08 0723-19 0633-31 063746 072449 091743\nBTI 0808 9900+04 9900-02 9900-06 1415-17 1526-28 184243 184851 172445\nBTT 2507 2408+02 2207-04 1609-10 1411-23 1314-36 132746 142242 141940\nCDB 1925 1931-02 2041-01 2046-06 2059-18 2069-31 208042 216143 213442\nCZF 0308 0410+00 0712-06 0616-12 0518-24 0507-35 210647 990042 030539\nEHM 1125 1127-02 1222-06 1518-09 1721-21 1935-33 205344 204043 202141\nFAI 2006 2108+02 2010-04 1908-10 1911-24 2013-37 202244 202442 192040\nFYU 2708 9900+03 1707-03 1611-09 1524-22 1538-32 155145 164345 173342\nGAL 1813 1717+00 1718-06 1721-12 1815-25 1817-36 202345 191542 161039\nGKN 1817 1912+02 1814-05 1717-10 2026-20 2640-30 276544 265148 232542\nHOM 1912 1912-01 1815-05 1817-10 2436-16 2454-27 246542 247250 244650\nJNU 2707 2313+03 2320-01 2423-04 2526-17 2332-30 223643 223245 232745\nLUR 0713 0813+04 0716-02 0620-08 0629-19 0638-31 054446 053851 062142\nMCG 1907 1809-01 1712-06 1719-11 1815-22 2224-32 224347 233546 211941\nMDO 2409 2308-01 2515-03 2519-06 2527-16 2747-26 265742 266650 264251\nOME 9900 0406+01 0409-05 0408-10 0509-23 0520-36 052446 051841 061039\nORT      3111+04 3306-03 2005-09 1921-20 1924-32 212145 212144 192442\nOTZ 1212 0914+01 0817-04 0819-10 0724-23 0629-35 065047 073143 071840\nSNP 0230 0231-03 0232-07 0234-12 0128-22 0130-34 363344 353039 342739\nTKA 1908 1911+00 1712-06 1710-11 2213-21 2633-31 256445 255548 222643\nUNK 9900 1806+00 1805-05 9900-11 9900-24 2106-37 221644 190942 110539\nYAK 9900 2407+02 2308-04 2514-06 2625-18 2943-29 307743 295747 252645\nIKO 3242 3240-03 3236-05 3134-09 3131-21 3128-34 292939 293137 302839\nAFM 1609 1611+00 1412-05 1313-10 1016-24 0823-36 093146 092542 091540\n5AB 3009 3111+07 3325+05 3233+01 3345-10 3360-18 337732 338742 349152\n5AC 3118 3023+07 2925+04 2825+00 2929-13 3134-25 324542 335051 293054\n5AD 2513 2620+04 2624+02 2624-01 2634-13 2637-25 264140 274549 264159\n5AE 2029 2129+02 2138-02 2148-05 2248-14 2250-26 226141 236449 225655\n5AF 3016 2916+05 2718+02 2719-03 2726-14 3037-26 315442 315750 293351\n5AG 2817 2816+00 2621-01 2622-05 2729-15 2843-26 285641 286250 284051\n",
  "vaac_active": [
    {
      "volcano": "MAYON",
      "volcano_jp": "マヨン",
      "advisory_nr": "2026/764",
      "obs_time": "2026-07-18 09:39Z",
      "issued_time": "2026-07-18 09:57Z",
      "text_url": "https://www.data.jma.go.jp/vaac/data/TextData/2026/20260718_27303000_0764_Text.html",
      "lat": 13.25,
      "lon": 123.683,
      "text": "FVFE01 RJTD 180957\nVA ADVISORY\nDTG: 20260718/0957Z\nVAAC: TOKYO\nVOLCANO: MAYON 273030\nPSN: N1315 E12341\nAREA: PHILIPPINES\nSOURCE ELEV: 2462M AMSL\nADVISORY NR: 2026/764\nINFO SOURCE: HIMAWARI-9 PHIVOLCS\nERUPTION DETAILS: ERUPTION AT 20260718/0939Z VA CLD UNKNOWN REPORTED\nOBS VA DTG: 18/0940Z\nOBS VA CLD: VA NOT IDENTIFIABLE FM SATELLITE DATA WIND FL180 020/4KT\nFCST VA CLD +6 HR: NOT AVBL\nFCST VA CLD +12 HR: NOT AVBL\nFCST VA CLD +18 HR: NOT AVBL\nRMK: WE WILL ISSUE FURTHER ADVISORY IF VA IS DETECTED IN SATELLITE \nIMAGERY.\nNXT ADVISORY: NO FURTHER ADVISORIES="
    },
    {
      "volcano": "MAYON",
      "volcano_jp": "マヨン",
      "advisory_nr": "2026/763",
      "obs_time": "2026-07-18 05:47Z",
      "issued_time": "2026-07-18 06:07Z",
      "text_url": "https://www.data.jma.go.jp/vaac/data/TextData/2026/20260718_27303000_0763_Text.html",
      "lat": 13.25,
      "lon": 123.683,
      "text": "FVFE01 RJTD 180607\nVA ADVISORY\nDTG: 20260718/0607Z\nVAAC: TOKYO\nVOLCANO: MAYON 273030\nPSN: N1315 E12341\nAREA: PHILIPPINES\nSOURCE ELEV: 2462M AMSL\nADVISORY NR: 2026/763\nINFO SOURCE: HIMAWARI-9 PHIVOLCS\nERUPTION DETAILS: ERUPTION AT 20260718/0547Z VA CLD UNKNOWN REPORTED\nOBS VA DTG: 18/0550Z\nOBS VA CLD: VA NOT IDENTIFIABLE FM SATELLITE DATA WIND FL180 010/6KT\nFCST VA CLD +6 HR: NOT AVBL\nFCST VA CLD +12 HR: NOT AVBL\nFCST VA CLD +18 HR: NOT AVBL\nRMK: WE WILL ISSUE FURTHER ADVISORY IF VA IS DETECTED IN SATELLITE \nIMAGERY.\nNXT ADVISORY: NO FURTHER ADVISORIES="
    },
    {
      "volcano": "SHEVELUCH",
      "volcano_jp": "シベルチ",
      "advisory_nr": "2026/269",
      "obs_time": "2026-07-18 05:20Z",
      "issued_time": "2026-07-18 05:50Z",
      "text_url": "https://www.data.jma.go.jp/vaac/data/TextData/2026/20260718_30027000_0269_Text.html",
      "lat": 56.65,
      "lon": 161.367,
      "text": "FVFE01 RJTD 180550\nVA ADVISORY\nDTG: 20260718/0550Z\nVAAC: TOKYO\nVOLCANO: SHEVELUCH 300270\nPSN: N5639 E16122\nAREA: RUSSIA\nSOURCE ELEV: 3283M AMSL\nADVISORY NR: 2026/269\nINFO SOURCE: HIMAWARI-9\nERUPTION DETAILS: VA IS NOT IDENTIFIABLE IN SATELLITE IMAGERY.\nOBS VA DTG: 18/0520Z\nOBS VA CLD: VA NOT IDENTIFIABLE FM SATELLITE DATA WIND FL180 270/19KT\nFCST VA CLD +6 HR: NOT AVBL\nFCST VA CLD +12 HR: NOT AVBL\nFCST VA CLD +18 HR: NOT AVBL\nRMK: VA IS NOT IDENTIFIABLE DUE TO MET CLOUD OR HAS DISSIPATED. WE \nWILL ISSUE FURTHER ADVISORY IF VA DETECTED IN SATELLITE IMAGERY.\nNXT ADVISORY: NO FURTHER ADVISORIES="
    }
  ],
  "vaac_tokyo": [
    {
      "id": "20260718_30027000_0268",
      "year": "2026",
      "volcano": "Sheveluch",
      "psn": "N5639 E16122",
      "issued": "20260718",
      "text": "FVFE01 RJTD 180000\nVA ADVISORY\nDTG: 20260718/0000Z\nVAAC: TOKYO\nVOLCANO: SHEVELUCH 300270\nPSN: N5639 E16122\nAREA: RUSSIA\nSOURCE ELEV: 3283M AMSL\nADVISORY NR: 2026/268\nINFO SOURCE: KVERT HIMAWARI-9\nERUPTION DETAILS: VA CONTINUOUSLY OBS IN SATELLITE IMAGERY\nOBS VA DTG: 17/2320Z\nOBS VA CLD: SFC/FL290 N5601 E16322 - N5605 E16357 - N5546 E16401 - \nN5544 E16326 MOV SE 25KT\nFCST VA CLD +6 HR: 18/0520Z SFC/FL300 N5529 E16617 - N5404 E16714 - \nN5357 E16639 - N5527 E16530\nFCST VA CLD +12 HR: 18/1120Z SFC/FL300 N5352 E17006 - N5152 E17037 - \nN5152 E16936 - N5344 E16817\nFCST VA CLD +18 HR: NO VA EXP\nRMK: SOME PART OF VA OBSCURED BY MET CLOUD.\nNXT ADVISORY: 20260718/0600Z=",
      "img_url": "https://ds.data.jma.go.jp/svd/vaac/data/VAGFN/2026/Images/20260718_30027000_0268_QH21_01.png",
      "sat_img_url": "https://ds.data.jma.go.jp/svd/vaac/data/Sat/2026/Images/30027000/09-ir/20260717_2320_202607180000_ir.png",
      "text_url": "https://ds.data.jma.go.jp/svd/vaac/data/TextData/2026/20260718_30027000_0268_Text.html"
    },
    {
      "id": "20260717_27303000_0761",
      "year": "2026",
      "volcano": "Mayon",
      "psn": "N1315 E12341",
      "issued": "20260717",
      "text": "FVFE01 RJTD 172222\nVA ADVISORY\nDTG: 20260717/2222Z\nVAAC: TOKYO\nVOLCANO: MAYON 273030\nPSN: N1315 E12341\nAREA: PHILIPPINES\nSOURCE ELEV: 2462M AMSL\nADVISORY NR: 2026/761\nINFO SOURCE: HIMAWARI-9 PHIVOLCS\nERUPTION DETAILS: ERUPTION AT 20260717/2208Z FL100 EXTD SSE REPORTED\nOBS VA DTG: 17/2210Z\nOBS VA CLD: VA NOT IDENTIFIABLE FM SATELLITE DATA WIND FL100 360/6KT\nFCST VA CLD +6 HR: NOT AVBL\nFCST VA CLD +12 HR: NOT AVBL\nFCST VA CLD +18 HR: NOT AVBL\nRMK: WE WILL ISSUE FURTHER ADVISORY IF VA IS DETECTED IN SATELLITE \nIMAGERY.\nNXT ADVISORY: NO FURTHER ADVISORIES=",
      "img_url": "https://ds.data.jma.go.jp/svd/vaac/data/VAGFN/2026/Images/20260717_27303000_0761_QH21_01.png",
      "sat_img_url": null,
      "text_url": "https://ds.data.jma.go.jp/svd/vaac/data/TextData/2026/20260717_27303000_0761_Text.html"
    },
    {
      "id": "20260717_27307000_0014",
      "year": "2026",
      "volcano": "Taal",
      "psn": "N1400 E12100",
      "issued": "20260717",
      "text": "FVFE01 RJTD 171113\nVA ADVISORY\nDTG: 20260717/1113Z\nVAAC: TOKYO\nVOLCANO: TAAL 273070\nPSN: N1400 E12100\nAREA: PHILIPPINES\nSOURCE ELEV: 311M AMSL\nADVISORY NR: 2026/14\nINFO SOURCE: HIMAWARI-9 PHIVOLCS\nERUPTION DETAILS: ERUPTION AT 20260717/1051Z FL040 EXTD E REPORTED\nOBS VA DTG: 17/1100Z\nOBS VA CLD: VA NOT IDENTIFIABLE FM SATELLITE DATA WIND FL040 270/8KT\nFCST VA CLD +6 HR: NOT AVBL\nFCST VA CLD +12 HR: NOT AVBL\nFCST VA CLD +18 HR: NOT AVBL\nRMK: WE WILL ISSUE FURTHER ADVISORY IF VA IS DETECTED IN SATELLITE \nIMAGERY.\nNXT ADVISORY: NO FURTHER ADVISORIES=",
      "img_url": "https://ds.data.jma.go.jp/svd/vaac/data/VAGFN/2026/Images/20260717_27307000_0014_QH21_01.png",
      "sat_img_url": null,
      "text_url": "https://ds.data.jma.go.jp/svd/vaac/data/TextData/2026/20260717_27307000_0014_Text.html"
    },
    {
      "id": "20260713_28208001_0083",
      "year": "2026",
      "volcano": null,
      "psn": "N3136 E13039",
      "issued": "20260713",
      "text": "FVFE01 RJTD 130254\nVA ADVISORY\nDTG: 20260713/0254Z\nVAAC: TOKYO\nVOLCANO: SAKURAJIMA (AIRA CALDERA) 282080\nPSN: N3136 E13039\nAREA: JAPAN\nSOURCE ELEV: 1117M AMSL\nADVISORY NR: 2026/83\nINFO SOURCE: JMA HIMAWARI-9\nERUPTION DETAILS: ERUPTED AT 20260713/0152Z FL100 EXTD N\nOBS VA DTG: 13/0230Z\nOBS VA CLD: SFC/FL100 N3136 E13039 - N3142 E13040 - N3141 E13044 - \nN3134 E13042 MOV NE 15KT\nFCST VA CLD +6 HR: 13/0830Z SFC/FL100 N3234 E13121 - N3145 E13155 - \nN3202 E13110 - N3227 E13051\nFCST VA CLD +12 HR: 13/1430Z SFC/FL100 N3318 E13206 - N3142 E13317 - \nN3134 E13226 - N3312 E13118\nFCST VA CLD +18 HR: NO VA EXP\nRMK: NIL\nNXT ADVISORY: 20260713/0600Z=",
      "img_url": "https://ds.data.jma.go.jp/svd/vaac/data/VAGFN/2026/Images/20260713_28208001_0083_QH21_01.png",
      "sat_img_url": "https://ds.data.jma.go.jp/svd/vaac/data/Sat/2026/Images/28208001/09-ir/20260713_0230_202607130254_ir.png",
      "text_url": "https://ds.data.jma.go.jp/svd/vaac/data/TextData/2026/20260713_28208001_0083_Text.html"
    }
  ],
  "vaac_alaska": [
    {
      "text": "\n000\nFVAK21 PAWU 180008\nVAAAK1\nVA ADVISORY\n\nDTG: 20260718/0000Z\n\nVAAC: ANCHORAGE\n\nVOLCANO: SHEVELUCH 300270\n\nPSN: N5639 E16122\n\nAREA: KAMCHATKA PENINSULA\n\nSOURCE ELEV: 10771 FT AMSL\n\nADVISORY NR: 2026/205\n\nRMK: PLEASE SEE FVFE01 RJTD ISSUED BY VAAC TOKYO WHICH DESCRIBES\nCONDITIONS NEAR THE VAAC ANCHORAGE AREA OF RESPONSIBILITY...BS\n\n\n\n",
      "issued": "2026-07-18T00:08:00+00:00",
      "volcano": "Sheveluch",
      "psn": "N5639 E16122"
    }
  ]
}