{
  "updated_utc": "2026-07-18T10:57Z",
  "metar": {
    "RJAA": "METAR RJAA 180900Z 16008KT 9999 FEW015 BKN/// 27/23 Q1007 NOSIG",
    "PANC": "METAR PANC 180953Z 00000KT 10SM -RA SCT010 BKN015 OVC039 11/10 A2997 RMK AO2 SLP151 P0004 T01060100",
    "PAFA": "METAR PAFA 180953Z 00000KT 10SM SCT065 BKN085 BKN160 11/09 A2985 RMK AO2 SLP112 T01060089 $",
    "PAED": "SPECI PAED 180903Z COR 23006KT 10SM -RA BKN011 BKN016 BKN050 12/10 A2995 RMK AO2A RAB03 SLP138 PCPN VRY LGT $",
    "KSEA": "METAR KSEA 180953Z 19003KT 10SM SCT039 BKN046 16/12 A3009 RMK AO2 SLP195 T01560117",
    "ZSPD": "METAR ZSPD 180900Z 14004MPS CAVOK 34/27 Q0999 NOSIG",
    "ZSSS": "METAR ZSSS 180900Z 29003MPS 260V330 CAVOK 36/25 Q0999 NOSIG",
    "RJFR": "METAR RJFR 180900Z 12003KT 080V150 9999 FEW030 BKN/// 31/27 Q1002",
    "VHHH": "METAR VHHH 180900Z 19008KT 9999 FEW010 SCT025 31/25 Q1004 NOSIG",
    "RCTP": "METAR RCTP 180900Z 24016KT 9999 FEW020 SCT100 BKN150 31/24 Q1004 NOSIG RMK A2967",
    "ZGSZ": "METAR ZGSZ 180900Z 16006MPS 9999 SCT033 30/27 Q1003 NOSIG",
    "WSSS": "METAR WSSS 180900Z 08006KT 030V120 9999 FEW018 FEW020CB SCT060 BKN140 30/25 Q1008 NOSIG",
    "WMKK": "METAR WMKK 180900Z COR 02005KT 300V070 9000 FEW017CB 27/23 Q1009 RETS NOSIG",
    "WIDD": "METAR WIDD 180900Z 14006KT 080V210 9999 FEW013CB FEW014 30/25 Q1009 NOSIG RMK CB TO NE AND S",
    "VTBS": "METAR VTBS 180900Z 22009KT 170V240 9999 FEW020 35/22 Q1006 NOSIG",
    "VTBU": "METAR VTBU 180900Z 23007KT 9000 FEW020 33/25 Q1007 NOSIG",
    "ROAH": "METAR ROAH 180900Z 21008KT 9999 FEW006 SCT008 29/28 Q1005",
    "VVDN": "METAR VVDN 180900Z 36008KT 9999 FEW020 35/23 Q1003 NOSIG",
    "RCKH": "METAR RCKH 180900Z 36006KT 330V040 9999 SCT022 SCT038 BKN120 29/24 Q1006 NOSIG RMK A2972",
    "KLAX": "METAR KLAX 180953Z VRB03KT 10SM SCT015 SCT150 21/18 A2998 RMK AO2 SLP149 T02110178 $",
    "KONT": "METAR KONT 180953Z 25006KT 10SM SCT200 22/17 A2999 RMK AO2 SLP138 T02170167 $",
    "KSFO": "METAR KSFO 180956Z 23005KT 10SM FEW004 OVC013 14/12 A3001 RMK AO2 SLP161 T01440117 $",
    "KOAK": "METAR KOAK 180953Z 24008KT 10SM FEW005 OVC010 15/12 A3001 RMK AO2 SLP160 T01500122",
    "KMHR": "METAR KMHR 180915Z AUTO 16007KT 10SM CLR 16/11 A2993 RMK AO2 T01590112 $",
    "KDFW": "METAR KDFW 180953Z 19010KT 10SM FEW150 BKN250 27/21 A3006 RMK AO2 SLP169 T02670211 $",
    "KIAH": "METAR KIAH 180953Z 17003KT 7SM FEW022 FEW120 SCT250 27/25 A3010 RMK AO2 SLP190 T02670250 $",
    "KORD": "METAR KORD 180951Z 25009KT 10SM SCT250 27/22 A2987 RMK AO2 SLP110 T02670222 $",
    "KJFK": "METAR KJFK 180951Z 19004KT 3SM FU BKN036 BKN250 22/19 A3000 RMK AO2 SLP157 FU BKN036 T02170194 $",
    "KRFD": "METAR KRFD 180954Z 24011G17KT 10SM FEW120 BKN250 25/22 A2989 RMK AO2 SLP116 T02500222 $",
    "KIND": "METAR KIND 180954Z 23009KT 10SM FEW041 24/23 A2997 RMK AO2 SLP141 CB DSNT SE MOV NE T02390228 $",
    "KDTW": "METAR KDTW 180953Z COR 20007KT 2 1/2SM FU BKN006 22/21 A2985 RMK AO2 TWR VIS 5 SLP105 FU BKN006 T02220211 $",
    "KMSP": "METAR KMSP 180953Z 01009KT 10SM CLR 23/17 A2996 RMK AO2 SLP137 T02280172",
    "CYEG": "METAR CYEG 180900Z 13011KT 20SM SKC 20/15 A2986 RMK SLP103 DENSITY ALT 3600FT",
    "EHAM": "METAR EHAM 180925Z 33010KT 290V360 9999 FEW025 BKN035 18/12 Q1016 NOSIG",
    "EBBR": "METAR EBBR 180920Z 27005KT 240V310 9999 BKN028 20/13 Q1017 NOSIG",
    "EDDF": "METAR EDDF 180920Z AUTO VRB06KT 9999 SCT036 24/13 Q1015 NOSIG",
    "EDFH": "METAR EDFH 180920Z 26005KT 220V330 9999 FEW018 SCT022 19/13 Q1017",
    "EDDL": "METAR EDDL 180920Z AUTO 25007KT 220V300 9999 FEW023 SCT027 OVC031 19/13 Q1016 NOSIG",
    "EDDK": "METAR EDDK 180920Z AUTO 29008KT 250V330 9999 FEW026 OVC033 21/13 Q1016 NOSIG",
    "EBLG": "METAR EBLG 180920Z 27006KT 250V340 9999 FEW023 BKN030 20/13 Q1017 NOSIG",
    "LSZH": "METAR LSZH 180920Z 24006KT 190V340 9999 FEW055 26/12 Q1017 NOSIG",
    "LIMC": "METAR LIMC 180920Z VRB04KT CAVOK 30/18 Q1013 NOSIG",
    "LIRF": "METAR LIRF 180920Z 26010KT CAVOK 31/24 Q1013 NOSIG",
    "EINN": "METAR EINN 180900Z 01011KT 9999 SCT015 17/12 Q1024 NOSIG",
    "EGLL": "METAR EGLL 180920Z AUTO 36007KT 310V070 9999 FEW033 19/09 Q1020",
    "EGSS": "METAR EGSS 180920Z AUTO 01009KT 330V040 9999 OVC028 18/10 Q1020",
    "EPWA": "METAR EPWA 180900Z 19006KT 140V230 9999 SCT024 24/19 Q1008 NOSIG",
    "UHPP": "METAR UHPP 180900Z 35005MPS 9999 FEW050 BKN120 24/15 Q1018 R34L/CLRD62 NOSIG RMK MT OBSC QFE760/1013",
    "EFHK": "METAR EFHK 180920Z 14010KT CAVOK 23/17 Q1007 NOSIG",
    "LBBG": "METAR LBBG 180900Z AUTO 12008KT 9999 NCD 28/21 Q1013 NOSIG",
    "LTAC": "METAR LTAC 180920Z 05009KT 010V110 9999 SCT040 27/08 Q1015 NOSIG RMK RWY21C 07009KT 360V160 RWY03L 04009KT 330V100 RWY21R 03009KT 300V070 RWY03R 04006KT 350V070 RWY21L 06007KT 010V120",
    "UBBB": "METAR UBBB 180900Z 02014KT CAVOK 30/21 Q1009 NOSIG",
    "UTAA": "METAR UTAA 180900Z 30010KT 250V340 9999 NSC 39/19 Q1006 R88/CLRD70 NOSIG",
    "UACC": "METAR UACC 180900Z 27007MPS 9999 BKN046 34/11 Q1005 NOSIG RMK QFE723/0964",
    "UAAA": "METAR UAAA 180900Z 04006MPS 020V080 9999 FEW050 41/10 Q1006 NOSIG",
    "UZTT": "METAR UZTT 180900Z 27008KT 220V330 CAVOK 43/13 Q1002 NOSIG",
    "ZWWW": "METAR ZWWW 180900Z 03009MPS 7000 NSC 37/12 Q1007 NOSIG",
    "ZLXY": "METAR ZLXY 180900Z 28003MPS 250V310 CAVOK 31/18 Q1007 NOSIG",
    "ZBAA": "METAR ZBAA 180900Z 19003MPS 9999 -SHRA FEW050CB 29/22 Q1001 BECMG TL0920 TS",
    "ZBHH": "METAR ZBHH 180900Z 31005MPS 270V340 9999 SCT040 28/11 Q1007 NOSIG",
    "ZSQD": "METAR ZSQD 180900Z 02003MPS CAVOK 31/19 Q1001 NOSIG",
    "ZMCK": "METAR ZMCK 180900Z 27009MPS 9999 SCT030CB SCT033 26/09 Q1002 NOSIG RMK QFE637.8 34 MOP",
    "UUEE": "METAR UUEE 180900Z 33002MPS CAVOK 22/10 Q1017 R06R/CLRD62 R06C/CLRD62 NOSIG",
    "UUDD": "METAR UUDD 180900Z 02004MPS 310V050 CAVOK 22/09 Q1017 R13R/CLRD65 NOSIG",
    "ULLI": "METAR ULLI 180900Z 17007MPS 150V210 CAVOK 25/10 Q1012 R88/090065 NOSIG",
    "USSS": "METAR USSS 180900Z 04006MPS 360V070 9999 SCT017CB 23/20 Q1002 R08R/210060 TEMPO VRB20MPS -TSRAGR SQ RMK QFE732/0976",
    "UNNT": "METAR UNNT 180900Z 30005MPS 9999 BKN040CB 27/16 Q1001 R25/CLRD// R16/CLRD// NOSIG RMK QFE741/0988",
    "UNKL": "METAR UNKL 180900Z 33001MPS 9999 SCT049 22/16 Q1000 R29/CLRD// NOSIG RMK QFE725",
    "UIBB": "METAR UIBB 180900Z 22002MPS 9999 FEW050CB 20/14 Q0999 R12/210162 NOSIG RMK QFE707/0943",
    "UEEE": "METAR UEEE 180900Z 07001MPS 9999 SCT030CB 21/17 Q0996 R23/290143 NOSIG RMK QFE738",
    "UHHH": "METAR UHHH 180900Z 31002MPS 270V350 CAVOK 28/18 Q1004 R88/090060 NOSIG RMK QFE747/0996",
    "UHSS": "METAR UHSS 180900Z 22004MPS 9999 SCT030 23/20 Q1009 R19/CLRD70 NOSIG RMK MT OBSC QFE755/1007"
  },
  "taf": {
    "RJAA": "TAF RJAA 180505Z 1806/1912 14008KT 9999 FEW020 SCT040",
    "PANC": "TAF PANC 180859Z 1809/1912 21004KT P6SM -SHRA FEW015 SCT045 BKN070 TEMPO 1809/1812 6SM -RA SCT008 BKN025 FM181800 19004KT P6SM VCSH OVC050 FM182000 16008KT 6SM -RA OVC040 FM182300 14012G24KT P6SM VCSH SCT040 OVC070 FM190800 34005KT 6SM -RA OVC060 WS008/12030KT",
    "PAFA": "TAF PAFA 180530Z 1806/1912 22002KT P6SM SCT070 FM190000 18009KT P6SM SCT050 SCT100",
    "PAED": "TAF AMD PAED 180817Z 1808/1911 20006KT 9999 BKN007 BKN012 OVC023 620604 QNH2986INS TEMPO 1805/1810 -RA BKN015 BECMG 1810/1811 VRB06KT 9999 NSW BKN040 620604 QNH2993INS BECMG 1819/1820 32010KT 9000 -RA FEW007 SCT015 OVC050 640703 QNH3002INS BECMG 1902/1903 34012KT 9999 VCSH BKN045 OVC060 QNH3002INS BECMG 1907/1908 36010KT 9000 -RA FEW006 SCT030 BKN045 OVC060 QNH3002INS TX14/1902Z TN10/1812",
    "KSEA": "TAF KSEA 180922Z 1809/1912 24005KT P6SM BKN050 FM181100 20004KT P6SM BKN035 FM181700 24006KT P6SM BKN045 FM182100 29007KT P6SM SCT050 FM190200 01008KT P6SM FEW250 FM191100 36006KT P6SM FEW025",
    "ZSPD": "TAF ZSPD 180918Z 1812/1918 13004MPS 8000 SCT030 TX32/1812Z TX33/1906Z TN28/1821Z BECMG 1820/1821 07004MPS TEMPO 1905/1909 TSRA BKN011 FEW030CB",
    "ZSSS": "TAF ZSSS 180918Z 1812/1918 29004MPS 8000 SCT030 TX34/1812Z TX33/1906Z TN28/1821Z BECMG 1821/1822 20004MPS TEMPO 1904/1908 TSRA BKN011 FEW030CB",
    "RJFR": "TAF RJFR 180505Z 1806/1912 07005KT 9999 FEW025 BECMG 1815/1817 10004KT BECMG 1900/1903 07010KT TEMPO 1909/1912 -TSRA FEW010 FEW020CB BKN030",
    "VHHH": "TAF VHHH 180800Z 1809/1915 20010KT 9999 FEW010 SCT025 TX31/1906Z TN27/1822Z TEMPO 1809/1811 3000 SHRA FEW010CB SCT020 TEMPO 1821/1903 24015G25KT 2500 TSRA SHRA FEW008CB SCT015 TEMPO 1903/1906 3000 SHRA FEW010CB SCT020",
    "RCTP": "TAF RCTP 180500Z 1806/1912 24014KT 9999 FEW010 BKN032 TEMPO 1806/1812 24020KT TEMPO 1812/1818 24009KT TEMPO 1818/1824 24005KT TEMPO 1900/1906 25005KT",
    "ZGSZ": "TAF ZGSZ 180903Z 1812/1918 17004MPS 8000 BKN040 TX29/1812Z TX31/1906Z TN27/1822Z TEMPO 1822/1901 SHRA FEW020CB SCT020 TEMPO 1902/1906 2500 +TSRA SCT010 FEW020CB BKN030",
    "WSSS": "TAF WSSS 180500Z 1806/1912 14009KT 9999 FEW015 SCT020",
    "WMKK": "TAF WMKK 180500Z 1806/1912 VRB03KT 9999 FEW018 PROB40 TEMPO 1806/1810 5000 TSRA FEW017CB SCT018",
    "VTBS": "TAF VTBS 180500Z 1806/1912 24008KT 9999 FEW020",
    "VTBU": "TAF VTBU 180500Z 1806/1906 24008KT 9999 FEW020 BECMG 1816/1818 36004KT BECMG 1900/1902 24008KT",
    "ROAH": "TAF ROAH 180505Z 1806/1912 20008KT 9999 FEW008 SCT015 TEMPO 1812/1814 FEW005 BKN008 TEMPO 1814/1821 FEW003 BKN005 TEMPO 1821/1900 FEW005 BKN008",
    "VVDN": "TAF VVDN 180500Z 1806/1906 23010KT 9999 FEW020 BECMG 1806/1807 01010KT BECMG 1808/1809 12010KT BECMG 1812/1813 22008KT",
    "RCKH": "TAF RCKH 180500Z 1806/1912 25005KT 9999 FEW010 BKN032 TEMPO 1806/1812 24010KT 4000 SHRA FEW010 BKN017 FEW020CB BECMG 1812/1813 07005KT TEMPO 1813/1818 13005KT 5000 RA FEW010 BKN017 TEMPO 1818/1824 4000 RA FEW010 BKN017 BECMG 1900/1901 24005KT TEMPO 1901/1906 25011KT 3000 SHRA FEW010 BKN014 FEW020CB",
    "KLAX": "TAF KLAX 180900Z 1809/1912 VRB03KT P6SM FEW012 BKN150 FM181000 11007KT P6SM BKN012 BKN150 FM181600 16005KT P6SM SCT015 FM181900 26012KT P6SM FEW025 FM190300 24006KT P6SM FEW015 SCT150 FM190600 VRB03KT P6SM FEW015 SCT150 FM190900 VRB03KT P6SM BKN015",
    "KONT": "TAF KONT 180520Z 1806/1912 25007KT P6SM BKN180 FM180800 VRB04KT P6SM SCT200 FM182000 26010G21KT P6SM SCT150 FM190200 25010KT P6SM FEW200 FM190900 VRB04KT P6SM SKC",
    "KSFO": "TAF KSFO 180848Z 1809/1912 26007KT 6SM BR FEW004 OVC009 FM181800 28015G25KT P6SM SKC FM190300 27012KT P6SM SCT015 FM190600 26007KT P6SM OVC015",
    "KOAK": "TAF KOAK 180520Z 1806/1912 26010KT P6SM SCT008 OVC010 FM180800 26010KT 6SM BR OVC008 FM181800 28010KT P6SM FEW005 SCT010 FM182000 30015KT P6SM SKC FM190300 29012KT P6SM SCT015 FM190600 29006KT P6SM OVC010",
    "KMHR": "TAF KMHR 180520Z 1806/1906 17008KT P6SM SKC FM181800 22006KT P6SM SKC",
    "KDFW": "TAF KDFW 180853Z 1809/1912 18011KT P6SM FEW060 FM181200 18012KT P6SM SCT025 TEMPO 1813/1815 BKN020 FM181600 18016KT P6SM SCT060 FM190200 18007KT P6SM FEW250",
    "KIAH": "TAF KIAH 180835Z 1809/1912 17006KT P6SM FEW020 SCT250 FM181500 20007KT P6SM SCT020 BKN035 FM181900 17008KT P6SM SCT045 SCT250 FM190400 19004KT P6SM FEW020 SCT250",
    "KORD": "TAF KORD 180845Z 1809/1912 24010KT P6SM SKC FM181300 27013G22KT P6SM SCT050 BKN250 FM181800 33012KT P6SM VCTS BKN050CB TEMPO 1818/1820 01020G30KT 1SM TSRA BR BKN020 OVC050CB FM182000 06011G17KT P6SM FEW015 SCT035 FM190100 03012G18KT 5SM FU SCT015",
    "KJFK": "TAF KJFK 180831Z 1809/1912 17004KT 4SM FU BKN250 FM181300 20010KT 4SM FU OVC150 FM181500 19012KT 4SM FU VCSH SCT015 OVC070 TEMPO 1815/1818 3SM SHRA BKN015 OVC070 FM181800 19014KT P6SM VCSH SCT015 OVC070 TEMPO 1819/1823 2SM TSRA BR BKN015 OVC050CB FM182300 20014G22KT 5SM -SHRA BKN015 OVC050 TEMPO 1823/1903 2SM TSRA BR BKN009 OVC050CB FM190300 24012KT 4SM SHRA BKN025 OVC050 FM190700 28012KT P6SM SCT040 BKN100",
    "KRFD": "TAF KRFD 180845Z 1809/1906 20006KT P6SM SCT250 FM181300 28013G22KT P6SM SCT050 BKN250 FM181900 33011KT P6SM SCT035 FM182200 01011KT P6SM SCT040 FM190400 01010KT 5SM FU SCT035",
    "KIND": "TAF KIND 180520Z 1806/1912 23007KT P6SM FEW040 SCT180 FM181500 27013KT P6SM VCSH SCT050 PROB30 1821/1903 VRB15G25KT 5SM -TSRA BKN030CB FM190300 34007KT P6SM VCSH BKN150",
    "KDTW": "TAF KDTW 180921Z 1809/1912 22008KT P6SM BKN007 FM181500 26016G23KT P6SM SCT030 BKN050 OVC120 TEMPO 1817/1820 2SM TSRA OVC030CB FM182100 32014G22KT P6SM SCT045 BKN060 FM190100 02010KT P6SM BKN200",
    "KMSP": "TAF KMSP 180834Z 1809/1912 35011KT P6SM FEW250 FM181300 36007KT P6SM SKC",
    "CYEG": "TAF CYEG 180841Z 1809/1906 12010KT P6SM SKC FM181500 13005KT P6SM FEW020 FM181800 27006KT P6SM FEW050 TEMPO 1823/1901 VRB25G40KT P6SM VCTS BKN050CB FM190100 25008KT P6SM SCT050 PROB30 1901/1904 VRB25G40KT 1SM +TSRA BR FEW020 BKN040CB FM190400 25008KT P6SM FEW100 RMK NXT FCST BY 181200Z",
    "EHAM": "TAF EHAM 180458Z 1806/1912 31010KT 9999 SCT025 PROB30 TEMPO 1819/1824 7000 -SHRA FEW020TCU",
    "EBBR": "TAF EBBR 180507Z 1806/1912 32006KT 9999 SCT020 SCT040",
    "EDDF": "TAF AMD EDDF 180633Z 1806/1912 29009KT 9999 SCT025 PROB30 TEMPO 1815/1820 30015G25KT TSRA BKN045CB BECMG 1819/1822 35004KT PROB30 TEMPO 1901/1904 SHRA BKN035CB BECMG 1906/1908 30009KT",
    "EDFH": "TAF EDFH 180500Z 1806/1906 30006KT CAVOK PROB30 TEMPO 1814/1818 30015G25KT TSRA BKN050CB PROB30 TEMPO 1900/1902 35015G25KT TSRA BKN030CB",
    "EDDL": "TAF EDDL 180500Z 1806/1912 28007KT 9999 SCT040 PROB30 TEMPO 1806/1808 BKN014 BECMG 1809/1812 30012KT BECMG 1818/1821 29006KT BECMG 1906/1909 30011KT",
    "EDDK": "TAF EDDK 180500Z 1806/1912 30007KT 9999 FEW025 BECMG 1810/1813 31012KT BECMG 1818/1821 31006KT BECMG 1906/1909 31011KT",
    "EBLG": "TAF EBLG 180507Z 1806/1912 32008KT 9999 SCT020 SCT040",
    "LSZH": "TAF LSZH 180825Z 1809/1915 25005KT 9999 FEW040 TX26/1814Z TN15/1904Z TX23/1914Z BECMG 1809/1811 27010KT SCT060TCU PROB40 TEMPO 1812/1817 30015G25KT TSRA FEW060CB BECMG 1818/1820 VRB02KT SCT060 BECMG 1820/1822 CAVOK BECMG 1905/1908 9999 SCT040 PROB40 TEMPO 1907/1915 SHRA SCT050TCU BECMG 1908/1911 29010KT PROB30 TEMPO 1911/1915 32015G25KT TSRA SCT050CB",
    "LIMC": "TAF LIMC 180500Z 1806/1912 02005KT 9999 FEW040 BECMG 1812/1814 22010KT PROB30 TEMPO 1812/1817 4000 TSRA BECMG 1817/1819 VRB05KT",
    "LIRF": "TAF LIRF 180500Z 1806/1912 VRB05KT CAVOK BECMG 1809/1811 27012KT BECMG 1818/1820 VRB05KT BECMG 1910/1912 24010KT",
    "EINN": "TAF EINN 180500Z 1806/1906 36010KT 9999 FEW030",
    "EGLL": "TAF EGLL 180500Z 1806/1912 04010KT 9999 FEW030 PROB40 TEMPO 1900/1908 34006KT",
    "EGSS": "TAF EGSS 180500Z 1806/1912 03006KT 9999 SCT035 BECMG 1823/1902 33010KT BECMG 1906/1909 03010KT",
    "EPWA": "TAF EPWA 180830Z 1809/1909 20008KT 9999 SCT020 BECMG 1809/1812 27012KT TEMPO 1810/1821 -SHRA SCT040CB PROB40 TEMPO 1811/1819 27015G25KT 2000 TSRA BKN030CB BECMG 1817/1819 VRB02KT",
    "UHPP": "TAF UHPP 180730Z 1809/1915 33005G12MPS 9999 SCT040CB TX28/1903Z TN18/1816Z",
    "EFHK": "TAF EFHK 180836Z 1809/1909 15009KT CAVOK PROB40 TEMPO 1809/1816 FEW050CB TEMPO 1816/1824 21013G23KT 4000 TSRA BKN012 BKN030CB BECMG 1900/1902 22010KT 7000 -DZ BKN007 BECMG 1904/1906 29009KT 9999 BKN011 FEW035TCU BECMG 1907/1909 BKN015",
    "LBBG": "TAF LBBG 180500Z 1806/1906 VRB03KT 9999 SCT045 BECMG 1807/1809 12012KT BECMG 1818/1820 VRB03KT",
    "LTAC": "TAF LTAC 180440Z 1806/1906 04009KT CAVOK BECMG 1806/1809 SCT040 SCT100 BECMG 1818/1820 CAVOK",
    "UBBB": "TAF UBBB 181052Z 1812/1912 34016KT CAVOK TX30/1812Z TN25/1901Z TEMPO 1812/1818 02014KT FEW050CB PROB40 TEMPO 1818/1824 TS SCT040CB TEMPO 1900/1906 SCT012 FEW050CB",
    "UTAA": "TAF UTAA 180445Z 1806/1906 01016KT 6000 SCT050 TX42/1812Z TEMPO 1806/1812 31014G24KT 4000 DRDU BECMG 1816/1818 27014KT",
    "UACC": "TAF UACC 180500Z 1806/1906 24006MPS 9999 SCT040CB BKN100 TX35/1809Z TN20/1900Z TEMPO 1806/1814 28008G13MPS -TSRA BKN030CB BECMG 1814/1816 VRB01MPS TEMPO 1814/1818 10006MPS -TSRA BKN020CB TEMPO 1821/1904 14003MPS -TSRA BKN030CB BECMG 1904/1906 24006MPS",
    "UAAA": "TAF UAAA 180505Z 1806/1906 02005MPS 9999 FEW050 SCT100 TX41/1810Z TN22/1900Z TEMPO 1806/1815 07006G11MPS 5000 BLDU BECMG 1815/1816 17002MPS TEMPO 1902/1906 32005MPS",
    "UZTT": "TAF UZTT 180500Z 1806/1906 22010KT 7000 NSC TX45/1811Z TN27/1900Z TEMPO 1806/1816 32015KT",
    "ZWWW": "TAF ZWWW 180905Z 1812/1918 36004G10MPS CAVOK TX38/1909Z TN28/1823Z TN30/1918Z BECMG 1815/1816 18004MPS BECMG 1902/1903 36004MPS BECMG 1913/1914 18004MPS",
    "ZLXY": "TAF ZLXY 180907Z 1812/1912 24003MPS 6000 NSC TX35/1908Z TN22/1821Z",
    "ZBAA": "TAF ZBAA 180901Z 1812/1918 18004MPS CAVOK TX31/1906Z TN21/1821Z TN23/1918Z",
    "ZBHH": "TAF ZBHH 180903Z 1812/1912 36004MPS CAVOK TX30/1908Z TN15/1822Z TEMPO 1909/1912 VRB08G13MPS -TSRA FEW040CB FEW040",
    "ZSQD": "TAF ZSQD 180901Z 1812/1912 16003MPS 3500 BR NSC TX30/1906Z TN21/1820Z",
    "ZMCK": "TAF ZMCK 181044Z 1812/1918 VRB02MPS 9999 FEW030CB SCT033 TN12/1821Z TX24/1907Z PROB40 TEMPO 1812/1816 VRB09G14MPS TSRA SCT027CB SCT030 BECMG 1900/1902 32005MPS PROB40 TEMPO 1905/1912 VRB09G14MPS TSRA SCT027CB SCT030 BECMG 1911/1913 VRB02MPS",
    "UUEE": "TAF UUEE 180754Z 1809/1909 04003MPS CAVOK TX26/1812Z TN15/1902Z TEMPO 1903/1909 21005MPS",
    "UUDD": "TAF UUDD 180753Z 1809/1915 03003MPS 9999 SCT040 TX28/1912Z TN10/1901Z BECMG 1906/1908 20005MPS",
    "ULLI": "TAF ULLI 180754Z 1809/1909 18006G12MPS 9999 SCT020",
    "USSS": "TAF USSS 180746Z 1809/1909 06003G14MPS 6000 -SHRA BKN016CB TEMPO 1809/1909 VRB20MPS -TSRAGR SQ BKN004 BKN011CB",
    "UNNT": "TAF UNNT 180800Z 1809/1909 32003G08MPS 8000 SCT040 TX28/1809Z TN16/1822Z TEMPO 1809/1819 22008G18MPS -TSRA BKN020CB TEMPO 1819/1902 0300 FG BKN001 TEMPO 1902/1909 02006G13MPS -TSRA BKN020CB",
    "UNKL": "TAF UNKL 180750Z 1809/1909 27003MPS 8000 -SHRA SCT017CB TEMPO 1809/1812 27008G16MPS -TSRA BKN010 BKN016CB TEMPO 1812/1815 -TSRA",
    "UIBB": "TAF UIBB 180800Z 1809/1909 18002G08MPS 9999 BKN020CB TEMPO 1809/1815 VRB07MPS -TSRA BECMG 1815/1816 28005MPS",
    "UEEE": "TAF COR UEEE 180800Z 1809/1915 18003G10MPS 9999 BKN017CB OVC070 TEMPO 1809/1818 VRB16MPS 1000 TSRA SCT005 BKN020CB OVC070",
    "UHHH": "TAF UHHH 180745Z 1809/1915 24003MPS CAVOK TX30/1904Z TN18/1818Z FM190000 28003MPS 9999 SCT020CB",
    "UHSS": "TAF UHSS 180750Z 1809/1915 18003MPS 9999 BKN016CB"
  },
  "atis": {},
  "windtemp_alaska": "\n000\nFBAK31 KWNO 180800\nFD1AK1\nDATA BASED ON 180600Z    \nVALID 181200Z   FOR USE 0800-1500Z. TEMPS NEG ABV 24000\n\nFT  3000    6000    9000   12000   18000   24000  30000  34000  39000\nADK 3423 3325+03 3329-01 3334-06 3354-17 3378-27 841237 842245 349549\nADQ 2118 2323+00 2327-04 2331-06 2348-15 2344-26 234941 235649 235354\nAKN 1626 1722-02 1721-06 1921-08 2122-18 2145-29 228644 228449 214147\nANC 1405 1610+00 1709-05 1807-10 2219-19 2440-28 257443 257650 243346\nANN 3107 2911+08 2614+05 2315+01 2220-15 2423-27 223241 223149 232152\nBET 0714 0915-01 1015-07 1112-12 1610-22 1816-33 202645 202644 201441\nBRW 0821 0820+02 0920-04 0825-08 0723-19 0633-31 063746 072449 091743\nBTI 0808 9900+04 9900-02 9900-06 1415-17 1526-28 184243 184851 172445\nBTT 2507 2408+02 2207-04 1609-10 1411-23 1314-36 132746 142242 141940\nCDB 1925 1931-02 2041-01 2046-06 2059-18 2069-31 208042 216143 213442\nCZF 0308 0410+00 0712-06 0616-12 0518-24 0507-35 210647 990042 030539\nEHM 1125 1127-02 1222-06 1518-09 1721-21 1935-33 205344 204043 202141\nFAI 2006 2108+02 2010-04 1908-10 1911-24 2013-37 202244 202442 192040\nFYU 2708 9900+03 1707-03 1611-09 1524-22 1538-32 155145 164345 173342\nGAL 1813 1717+00 1718-06 1721-12 1815-25 1817-36 202345 191542 161039\nGKN 1817 1912+02 1814-05 1717-10 2026-20 2640-30 276544 265148 232542\nHOM 1912 1912-01 1815-05 1817-10 2436-16 2454-27 246542 247250 244650\nJNU 2707 2313+03 2320-01 2423-04 2526-17 2332-30 223643 223245 232745\nLUR 0713 0813+04 0716-02 0620-08 0629-19 0638-31 054446 053851 062142\nMCG 1907 1809-01 1712-06 1719-11 1815-22 2224-32 224347 233546 211941\nMDO 2409 2308-01 2515-03 2519-06 2527-16 2747-26 265742 266650 264251\nOME 9900 0406+01 0409-05 0408-10 0509-23 0520-36 052446 051841 061039\nORT      3111+04 3306-03 2005-09 1921-20 1924-32 212145 212144 192442\nOTZ 1212 0914+01 0817-04 0819-10 0724-23 0629-35 065047 073143 071840\nSNP 0230 0231-03 0232-07 0234-12 0128-22 0130-34 363344 353039 342739\nTKA 1908 1911+00 1712-06 1710-11 2213-21 2633-31 256445 255548 222643\nUNK 9900 1806+00 1805-05 9900-11 9900-24 2106-37 221644 190942 110539\nYAK 9900 2407+02 2308-04 2514-06 2625-18 2943-29 307743 295747 252645\nIKO 3242 3240-03 3236-05 3134-09 3131-21 3128-34 292939 293137 302839\nAFM 1609 1611+00 1412-05 1313-10 1016-24 0823-36 093146 092542 091540\n5AB 3009 3111+07 3325+05 3233+01 3345-10 3360-18 337732 338742 349152\n5AC 3118 3023+07 2925+04 2825+00 2929-13 3134-25 324542 335051 293054\n5AD 2513 2620+04 2624+02 2624-01 2634-13 2637-25 264140 274549 264159\n5AE 2029 2129+02 2138-02 2148-05 2248-14 2250-26 226141 236449 225655\n5AF 3016 2916+05 2718+02 2719-03 2726-14 3037-26 315442 315750 293351\n5AG 2817 2816+00 2621-01 2622-05 2729-15 2843-26 285641 286250 284051\n",
  "vaac_active": [
    {
      "volcano": "MAYON",
      "volcano_jp": "マヨン",
      "advisory_nr": "2026/764",
      "obs_time": "2026-07-18 09:39Z",
      "issued_time": "2026-07-18 09:57Z",
      "text_url": "https://www.data.jma.go.jp/vaac/data/TextData/2026/20260718_27303000_0764_Text.html",
      "lat": 13.25,
      "lon": 123.683,
      "text": "FVFE01 RJTD 180957\nVA ADVISORY\nDTG: 20260718/0957Z\nVAAC: TOKYO\nVOLCANO: MAYON 273030\nPSN: N1315 E12341\nAREA: PHILIPPINES\nSOURCE ELEV: 2462M AMSL\nADVISORY NR: 2026/764\nINFO SOURCE: HIMAWARI-9 PHIVOLCS\nERUPTION DETAILS: ERUPTION AT 20260718/0939Z VA CLD UNKNOWN REPORTED\nOBS VA DTG: 18/0940Z\nOBS VA CLD: VA NOT IDENTIFIABLE FM SATELLITE DATA WIND FL180 020/4KT\nFCST VA CLD +6 HR: NOT AVBL\nFCST VA CLD +12 HR: NOT AVBL\nFCST VA CLD +18 HR: NOT AVBL\nRMK: WE WILL ISSUE FURTHER ADVISORY IF VA IS DETECTED IN SATELLITE \nIMAGERY.\nNXT ADVISORY: NO FURTHER ADVISORIES="
    },
    {
      "volcano": "MAYON",
      "volcano_jp": "マヨン",
      "advisory_nr": "2026/763",
      "obs_time": "2026-07-18 05:47Z",
      "issued_time": "2026-07-18 06:07Z",
      "text_url": "https://www.data.jma.go.jp/vaac/data/TextData/2026/20260718_27303000_0763_Text.html",
      "lat": 13.25,
      "lon": 123.683,
      "text": "FVFE01 RJTD 180607\nVA ADVISORY\nDTG: 20260718/0607Z\nVAAC: TOKYO\nVOLCANO: MAYON 273030\nPSN: N1315 E12341\nAREA: PHILIPPINES\nSOURCE ELEV: 2462M AMSL\nADVISORY NR: 2026/763\nINFO SOURCE: HIMAWARI-9 PHIVOLCS\nERUPTION DETAILS: ERUPTION AT 20260718/0547Z VA CLD UNKNOWN REPORTED\nOBS VA DTG: 18/0550Z\nOBS VA CLD: VA NOT IDENTIFIABLE FM SATELLITE DATA WIND FL180 010/6KT\nFCST VA CLD +6 HR: NOT AVBL\nFCST VA CLD +12 HR: NOT AVBL\nFCST VA CLD +18 HR: NOT AVBL\nRMK: WE WILL ISSUE FURTHER ADVISORY IF VA IS DETECTED IN SATELLITE \nIMAGERY.\nNXT ADVISORY: NO FURTHER ADVISORIES="
    },
    {
      "volcano": "SHEVELUCH",
      "volcano_jp": "シベルチ",
      "advisory_nr": "2026/269",
      "obs_time": "2026-07-18 05:20Z",
      "issued_time": "2026-07-18 05:50Z",
      "text_url": "https://www.data.jma.go.jp/vaac/data/TextData/2026/20260718_30027000_0269_Text.html",
      "lat": 56.65,
      "lon": 161.367,
      "text": "FVFE01 RJTD 180550\nVA ADVISORY\nDTG: 20260718/0550Z\nVAAC: TOKYO\nVOLCANO: SHEVELUCH 300270\nPSN: N5639 E16122\nAREA: RUSSIA\nSOURCE ELEV: 3283M AMSL\nADVISORY NR: 2026/269\nINFO SOURCE: HIMAWARI-9\nERUPTION DETAILS: VA IS NOT IDENTIFIABLE IN SATELLITE IMAGERY.\nOBS VA DTG: 18/0520Z\nOBS VA CLD: VA NOT IDENTIFIABLE FM SATELLITE DATA WIND FL180 270/19KT\nFCST VA CLD +6 HR: NOT AVBL\nFCST VA CLD +12 HR: NOT AVBL\nFCST VA CLD +18 HR: NOT AVBL\nRMK: VA IS NOT IDENTIFIABLE DUE TO MET CLOUD OR HAS DISSIPATED. WE \nWILL ISSUE FURTHER ADVISORY IF VA DETECTED IN SATELLITE IMAGERY.\nNXT ADVISORY: NO FURTHER ADVISORIES="
    }
  ],
  "vaac_tokyo": [
    {
      "id": "20260718_30027000_0268",
      "year": "2026",
      "volcano": "Sheveluch",
      "psn": "N5639 E16122",
      "issued": "20260718",
      "text": "FVFE01 RJTD 180000\nVA ADVISORY\nDTG: 20260718/0000Z\nVAAC: TOKYO\nVOLCANO: SHEVELUCH 300270\nPSN: N5639 E16122\nAREA: RUSSIA\nSOURCE ELEV: 3283M AMSL\nADVISORY NR: 2026/268\nINFO SOURCE: KVERT HIMAWARI-9\nERUPTION DETAILS: VA CONTINUOUSLY OBS IN SATELLITE IMAGERY\nOBS VA DTG: 17/2320Z\nOBS VA CLD: SFC/FL290 N5601 E16322 - N5605 E16357 - N5546 E16401 - \nN5544 E16326 MOV SE 25KT\nFCST VA CLD +6 HR: 18/0520Z SFC/FL300 N5529 E16617 - N5404 E16714 - \nN5357 E16639 - N5527 E16530\nFCST VA CLD +12 HR: 18/1120Z SFC/FL300 N5352 E17006 - N5152 E17037 - \nN5152 E16936 - N5344 E16817\nFCST VA CLD +18 HR: NO VA EXP\nRMK: SOME PART OF VA OBSCURED BY MET CLOUD.\nNXT ADVISORY: 20260718/0600Z=",
      "img_url": "https://ds.data.jma.go.jp/svd/vaac/data/VAGFN/2026/Images/20260718_30027000_0268_QH21_01.png",
      "sat_img_url": "https://ds.data.jma.go.jp/svd/vaac/data/Sat/2026/Images/30027000/09-ir/20260717_2320_202607180000_ir.png",
      "text_url": "https://ds.data.jma.go.jp/svd/vaac/data/TextData/2026/20260718_30027000_0268_Text.html"
    },
    {
      "id": "20260717_27303000_0761",
      "year": "2026",
      "volcano": "Mayon",
      "psn": "N1315 E12341",
      "issued": "20260717",
      "text": "FVFE01 RJTD 172222\nVA ADVISORY\nDTG: 20260717/2222Z\nVAAC: TOKYO\nVOLCANO: MAYON 273030\nPSN: N1315 E12341\nAREA: PHILIPPINES\nSOURCE ELEV: 2462M AMSL\nADVISORY NR: 2026/761\nINFO SOURCE: HIMAWARI-9 PHIVOLCS\nERUPTION DETAILS: ERUPTION AT 20260717/2208Z FL100 EXTD SSE REPORTED\nOBS VA DTG: 17/2210Z\nOBS VA CLD: VA NOT IDENTIFIABLE FM SATELLITE DATA WIND FL100 360/6KT\nFCST VA CLD +6 HR: NOT AVBL\nFCST VA CLD +12 HR: NOT AVBL\nFCST VA CLD +18 HR: NOT AVBL\nRMK: WE WILL ISSUE FURTHER ADVISORY IF VA IS DETECTED IN SATELLITE \nIMAGERY.\nNXT ADVISORY: NO FURTHER ADVISORIES=",
      "img_url": "https://ds.data.jma.go.jp/svd/vaac/data/VAGFN/2026/Images/20260717_27303000_0761_QH21_01.png",
      "sat_img_url": null,
      "text_url": "https://ds.data.jma.go.jp/svd/vaac/data/TextData/2026/20260717_27303000_0761_Text.html"
    },
    {
      "id": "20260717_27307000_0014",
      "year": "2026",
      "volcano": "Taal",
      "psn": "N1400 E12100",
      "issued": "20260717",
      "text": "FVFE01 RJTD 171113\nVA ADVISORY\nDTG: 20260717/1113Z\nVAAC: TOKYO\nVOLCANO: TAAL 273070\nPSN: N1400 E12100\nAREA: PHILIPPINES\nSOURCE ELEV: 311M AMSL\nADVISORY NR: 2026/14\nINFO SOURCE: HIMAWARI-9 PHIVOLCS\nERUPTION DETAILS: ERUPTION AT 20260717/1051Z FL040 EXTD E REPORTED\nOBS VA DTG: 17/1100Z\nOBS VA CLD: VA NOT IDENTIFIABLE FM SATELLITE DATA WIND FL040 270/8KT\nFCST VA CLD +6 HR: NOT AVBL\nFCST VA CLD +12 HR: NOT AVBL\nFCST VA CLD +18 HR: NOT AVBL\nRMK: WE WILL ISSUE FURTHER ADVISORY IF VA IS DETECTED IN SATELLITE \nIMAGERY.\nNXT ADVISORY: NO FURTHER ADVISORIES=",
      "img_url": "https://ds.data.jma.go.jp/svd/vaac/data/VAGFN/2026/Images/20260717_27307000_0014_QH21_01.png",
      "sat_img_url": null,
      "text_url": "https://ds.data.jma.go.jp/svd/vaac/data/TextData/2026/20260717_27307000_0014_Text.html"
    },
    {
      "id": "20260713_28208001_0083",
      "year": "2026",
      "volcano": null,
      "psn": "N3136 E13039",
      "issued": "20260713",
      "text": "FVFE01 RJTD 130254\nVA ADVISORY\nDTG: 20260713/0254Z\nVAAC: TOKYO\nVOLCANO: SAKURAJIMA (AIRA CALDERA) 282080\nPSN: N3136 E13039\nAREA: JAPAN\nSOURCE ELEV: 1117M AMSL\nADVISORY NR: 2026/83\nINFO SOURCE: JMA HIMAWARI-9\nERUPTION DETAILS: ERUPTED AT 20260713/0152Z FL100 EXTD N\nOBS VA DTG: 13/0230Z\nOBS VA CLD: SFC/FL100 N3136 E13039 - N3142 E13040 - N3141 E13044 - \nN3134 E13042 MOV NE 15KT\nFCST VA CLD +6 HR: 13/0830Z SFC/FL100 N3234 E13121 - N3145 E13155 - \nN3202 E13110 - N3227 E13051\nFCST VA CLD +12 HR: 13/1430Z SFC/FL100 N3318 E13206 - N3142 E13317 - \nN3134 E13226 - N3312 E13118\nFCST VA CLD +18 HR: NO VA EXP\nRMK: NIL\nNXT ADVISORY: 20260713/0600Z=",
      "img_url": "https://ds.data.jma.go.jp/svd/vaac/data/VAGFN/2026/Images/20260713_28208001_0083_QH21_01.png",
      "sat_img_url": "https://ds.data.jma.go.jp/svd/vaac/data/Sat/2026/Images/28208001/09-ir/20260713_0230_202607130254_ir.png",
      "text_url": "https://ds.data.jma.go.jp/svd/vaac/data/TextData/2026/20260713_28208001_0083_Text.html"
    }
  ],
  "vaac_alaska": [
    {
      "text": "\n000\nFVAK21 PAWU 180008\nVAAAK1\nVA ADVISORY\n\nDTG: 20260718/0000Z\n\nVAAC: ANCHORAGE\n\nVOLCANO: SHEVELUCH 300270\n\nPSN: N5639 E16122\n\nAREA: KAMCHATKA PENINSULA\n\nSOURCE ELEV: 10771 FT AMSL\n\nADVISORY NR: 2026/205\n\nRMK: PLEASE SEE FVFE01 RJTD ISSUED BY VAAC TOKYO WHICH DESCRIBES\nCONDITIONS NEAR THE VAAC ANCHORAGE AREA OF RESPONSIBILITY...BS\n\n\n\n",
      "issued": "2026-07-18T00:08:00+00:00",
      "volcano": "Sheveluch",
      "psn": "N5639 E16122"
    }
  ]
}