{
  "updated_utc": "2026-07-16T19:58Z",
  "metar": {
    "RJAA": "METAR RJAA 161800Z AUTO 13005KT 3000 BR OVC001 26/26 Q1002 BECMG FEW001 BKN003",
    "PANC": "METAR PANC 161853Z VRB03KT 10SM FEW025 BKN060 BKN160 12/07 A3006 RMK AO2 SLP179 T01220067",
    "PAFA": "METAR PAFA 161853Z 21005KT 10SM SCT028 SCT045 BKN075 14/08 A2997 RMK AO2 SLP153 T01440078",
    "PAED": "METAR PAED 161855Z 34003KT 9SM SCT045 BKN060 OVC013 14/07 A3004 RMK AO2A SLP168 T01350073 $",
    "KSEA": "SPECI KSEA 161831Z 21007KT 3SM R16L/6000VP6000FT RA BR SCT010 SCT048 OVC100 13/12 A3002 RMK AO2 RAB1754 VIS 2V4 CB DSNT N AND S P0012 T01330122 $",
    "ZSPD": "METAR ZSPD 161800Z 18003MPS CAVOK 30/26 Q1001 NOSIG",
    "ZSSS": "METAR ZSSS 161800Z 20004MPS CAVOK 32/27 Q1001 NOSIG",
    "RJFR": "METAR RJFR 161800Z AUTO 32005KT 9999 NSC 27/26 Q1002",
    "VHHH": "METAR VHHH 161800Z VRB03KT 9999 -SHRA FEW010 SCT025 28/25 Q1005 TEMPO 4000 SHRA FEW010CB SCT020",
    "RCTP": "METAR RCTP 161800Z 22006KT 9999 FEW015 27/24 Q1006 NOSIG RMK A2972",
    "ZGSZ": "METAR ZGSZ 161800Z 15002MPS 9999 FEW020 27/25 Q1006 NOSIG",
    "WSSS": "METAR WSSS 161800Z 10005KT 9999 SCT016 BKN300 29/26 Q1011 NOSIG",
    "WMKK": "METAR WMKK 161800Z VRB03KT 9999 FEW030 28/25 Q1010 NOSIG",
    "WIDD": "METAR WIDD 161800Z 11003KT 9999 FEW014 28/26 Q1012 NOSIG",
    "VTBS": "METAR VTBS 161800Z 28002KT 9999 FEW020 27/26 Q1010 NOSIG",
    "VTBU": "METAR VTBU 161800Z 23006KT 9000 FEW020 29/28 Q1010 NOSIG",
    "ROAH": "METAR ROAH 161800Z AUTO 23013KT 9999 FEW006 SCT009 BKN010 28/27 Q1007",
    "VVDN": "METAR VVDN 161800Z VRB01KT 9999 FEW017 31/22 Q1006 NOSIG",
    "RCKH": "METAR RCKH 161800Z 20003KT 130V230 9999 FEW014 SCT060 28/25 Q1008 NOSIG RMK A2979",
    "KLAX": "METAR KLAX 161853Z 18004KT 10SM FEW012 FEW050 28/18 A2984 RMK AO2 SLP101 T02780183 $",
    "KONT": "METAR KONT 161853Z 26004KT 10SM FEW110 FEW200 34/14 A2983 RMK AO2 SLP080 T03440139 $",
    "KSFO": "METAR KSFO 161856Z 30015G25KT 10SM FEW018 20/09 A2993 RMK AO2 SLP135 T02000094",
    "KOAK": "METAR KOAK 161853Z 24008KT 10SM FEW014 19/12 A2994 RMK AO2 SLP136 T01940117",
    "KMHR": "METAR KMHR 161815Z AUTO 18007KT 10SM CLR 29/09 A2984 RMK AO2 T02880089 $",
    "KDFW": "METAR KDFW 161853Z 19011G20KT 10SM FEW037 FEW046TCU SCT160 BKN250 33/21 A3006 RMK AO2 SLP170 OCNL LTGIC DSNT NE AND NW CB DSNT NE AND NW MOV NE TCU E-SE AND W-NW T03280206 $",
    "KIAH": "METAR KIAH 161853Z 12012KT 10SM SCT043 BKN250 33/23 A3009 RMK AO2 SLP187 T03280233",
    "KORD": "METAR KORD 161851Z 04008KT 1SM R10L/P6000FT FU BKN024 OVC028 32/21 A3005 RMK AO2 SLP168 T03170206",
    "KJFK": "METAR KJFK 161851Z 23011KT 6SM FU FEW035 SCT050 OVC300 29/18 A2986 RMK AO2 SLP110 FU OVC300 T02890178 $",
    "KRFD": "METAR KRFD 161854Z VRB03KT 6SM FU FEW040 SCT250 32/23 A3007 RMK AO2 SLP175 T03170228",
    "KIND": "METAR KIND 161854Z VRB05KT 10SM SCT049 BKN060 BKN200 33/21 A3006 RMK AO2 SLP170 T03280206",
    "KDTW": "METAR KDTW 161853Z 36007KT 3/4SM R03R/4500V5500FT FU BKN022 OVC030 29/15 A3005 RMK AO2 TWR VIS 1 SLP170 FU BKN022 T02940150",
    "KMSP": "SPECI KMSP 161815Z VRB03KT 1 1/2SM FU SCT000 BKN022 BKN050 31/22 A3005 RMK AO2 SFC VIS 2 FU SCT000 T03110217",
    "CYEG": "METAR CYEG 161800Z VRB03KT 20SM FEW022 FEW250 22/17 A3002 RMK CU1CI1 CU TR CI TR SLP165 DENSITY ALT 3700FT",
    "EHAM": "METAR EHAM 161825Z 03008KT CAVOK 23/11 Q1016 NOSIG",
    "EBBR": "METAR EBBR 161820Z 01008KT CAVOK 26/15 Q1015 NOSIG",
    "EDDF": "METAR EDDF 161820Z AUTO VRB02KT CAVOK 22/18 Q1013 NOSIG",
    "EDFH": "METAR EDFH 161820Z 07004KT 040V130 CAVOK 21/17 Q1016",
    "EDDL": "METAR EDDL 161820Z AUTO 01009KT CAVOK 27/13 Q1014 NOSIG",
    "EDDK": "METAR EDDK 161820Z AUTO 10003KT 060V150 CAVOK 28/13 Q1014 NOSIG",
    "EBLG": "METAR EBLG 161820Z 01005KT 330V050 CAVOK 27/11 Q1015 NOSIG",
    "LSZH": "METAR LSZH 161820Z 14011KT 9999 VCSH FEW030 FEW070CB 21/17 Q1017 NOSIG",
    "LIMC": "METAR LIMC 161820Z 32003KT 290V360 CAVOK 31/16 Q1016 NOSIG",
    "LIRF": "METAR LIRF 161820Z 29006KT CAVOK 29/26 Q1015 NOSIG",
    "EINN": "METAR EINN 161800Z 04004KT 010V070 CAVOK 28/14 Q1019 NOSIG",
    "EGLL": "METAR EGLL 161820Z AUTO 10012KT 9999 NCD 25/11 Q1017",
    "EGSS": "METAR EGSS 161820Z AUTO 05011KT 9999 NCD 25/12 Q1018",
    "EPWA": "METAR EPWA 161800Z 02007KT 340V060 CAVOK 28/13 Q1018 NOSIG",
    "UHPP": "METAR UHPP 161800Z 18003MPS 9999 OVC007 14/13 Q1019 R34L/CLRD62 NOSIG RMK MT OBSC QFE761/1014",
    "EFHK": "METAR EFHK 161820Z 16007KT CAVOK 20/11 Q1021 NOSIG",
    "LBBG": "METAR LBBG 161800Z AUTO 11005KT 9999 NSC 25/20 Q1015 NOSIG",
    "LTAC": "METAR LTAC 161820Z 05015KT CAVOK 24/12 Q1015 NOSIG RMK RWY21C 04012KT RWY03L 05013KT RWY21R 03012KT RWY03R 02012KT RWY21L 03012KT",
    "UBBB": "METAR UBBB 161800Z 33010KT CAVOK 26/19 Q1008 NOSIG",
    "UTAA": "METAR UTAA 161800Z 28012KT 9999 NSC 35/18 Q1005 R88/CLRD70 NOSIG",
    "UACC": "METAR UACC 161800Z 25003MPS CAVOK 23/11 Q1002 NOSIG RMK QFE721/0961",
    "UAAA": "METAR UAAA 161800Z VRB01MPS 9999 NSC 25/08 Q1008 NOSIG",
    "UZTT": "METAR UZTT 161800Z 10006KT 4000 FU NSC 31/15 Q1004 NOSIG",
    "ZWWW": "METAR ZWWW 161800Z 17003MPS CAVOK 30/07 Q1009 NOSIG",
    "ZLXY": "METAR ZLXY 161800Z 28004MPS 250V310 9999 FEW050 26/20 Q1005 NOSIG",
    "ZBAA": "METAR ZBAA 161800Z VRB01MPS CAVOK 25/22 Q1002 NOSIG",
    "ZBHH": "METAR ZBHH 161800Z 14002MPS 9999 SCT033 18/17 Q1010 NOSIG",
    "ZSQD": "METAR ZSQD 161800Z 06001MPS 4000 BR SCT026 23/23 Q1002 BECMG TL1900 2800",
    "ZMCK": "METAR ZMCK 161800Z VRB02MPS 9999 SCT030CB SCT033 16/12 Q1010 NOSIG RMK QFE643.1 78 NT",
    "UUEE": "METAR UUEE 161800Z 35003G11MPS 270V050 9999 SCT047 15/07 Q1016 R06R/CLRD62 R06C/CLRD62 NOSIG",
    "UUDD": "METAR UUDD 161800Z 02005MPS CAVOK 15/07 Q1015 R31L/CLRD65 NOSIG",
    "ULLI": "METAR ULLI 161800Z VRB01MPS CAVOK 18/05 Q1021 R88/090065 NOSIG",
    "USSS": "METAR USSS 161800Z 25003MPS 9999 SCT022CB 17/17 Q0997 R26L/290050 R26R/290340 NOSIG RMK QFE727/0970",
    "UNNT": "METAR UNNT 161800Z 15004MPS 120V200 9999 FEW044CB 22/15 Q0998 R07/CLRD// R34/CLRD// NOSIG RMK QFE739/0985",
    "UNKL": "METAR UNKL 161800Z 00000MPS CAVOK 13/12 Q1004 R29/CLRD// NOSIG RMK QFE728",
    "UIBB": "METAR UIBB 161800Z AUTO 25002MPS 9999 // NCD 14/10 Q1005 RMK QFE711/0949",
    "UEEE": "METAR UEEE 161800Z 09001MPS 9999 SCT050CB 20/17 Q0992 R23/290149 NOSIG RMK QFE735",
    "UHHH": "METAR UHHH 161800Z 17002MPS 140V200 CAVOK 18/17 Q0997 R23L/090060 NOSIG RMK QFE741/0989",
    "UHSS": "METAR UHSS 161800Z 12002MPS 9999 BKN007 17/17 Q1003 R01/CLRD70 NOSIG RMK MT OBSC QFE751/1001"
  },
  "taf": {
    "RJAA": "TAF RJAA 161705Z 1618/1800 15010KT 8000 -SHRA FEW005 BKN015 TEMPO 1618/1621 3000 -SHRA BR FEW001 BKN003 TEMPO 1621/1700 4000 -SHRA BR FEW001 BKN005 TEMPO 1700/1706 4000 -TSRA BR FEW005 BKN012 FEW020CB",
    "PANC": "TAF PANC 161726Z 1618/1724 27004KT P6SM SCT025 BKN060 FM162000 16010KT P6SM VCSH SCT025 OVC060 FM162100 17012KT 5SM -RA SCT015 OVC025 FM170900 34006KT P6SM SCT020 OVC035 WS020/12025KT FM171800 02003KT 6SM -RA OVC040",
    "PAFA": "TAF PAFA 161737Z 1618/1724 23009KT P6SM SCT020 BKN035 FM161900 21010KT P6SM BKN050 FM170100 VRB03KT P6SM BKN100 FM171000 25004KT 6SM -RA BR SCT030 OVC050 FM171500 24007KT P6SM OVC050",
    "PAED": "TAF AMD PAED 161425Z 1614/1719 24005KT 9999 BKN060 620604 QNH3004INS BECMG 1620/1621 33009KT 9000 -RA BKN040 OVC050 650604 QNH2993INS BECMG 1705/1706 33005KT 9999 NSW SCT040 BKN050 QNH2988INS BECMG 1711/1712 36006KT 9999 -SHRA BKN040 620604 QNH2985INS TX15/1700Z TN11/1614Z",
    "KSEA": "TAF KSEA 161904Z 1619/1724 22007KT 6SM -RA VCTS SCT007 BKN025CB BKN070 FM162000 22009KT P6SM -SHRA BKN035 BKN070 FM162100 22010G18KT P6SM BKN040 PROB30 1621/1624 3SM TSRA BR BKN020CB BKN040 FM170000 22007KT P6SM BKN050 FM171200 20004KT P6SM BKN025 FM171800 23007KT P6SM BKN035 FM172100 24007KT P6SM SCT035",
    "ZSPD": "TAF ZSPD 161506Z 1618/1724 18004MPS 8000 SCT030 TX38/1706Z TN30/1621Z TN28/1721Z TEMPO 1706/1710 TSRA BKN015 FEW030CB",
    "ZSSS": "TAF ZSSS 161505Z 1618/1724 20004MPS 8000 SCT030 TX38/1706Z TN30/1621Z TN28/1721Z TEMPO 1706/1710 TSRA BKN015 FEW030CB",
    "RJFR": "TAF RJFR 161705Z 1618/1800 33007KT 9999 FEW014 BKN030 BECMG 1618/1620 10006KT TEMPO 1704/1709 -TSRA FEW007 BKN020 FEW025CB BECMG 1706/1709 06004KT TEMPO 1709/1800 BKN005 BKN050 BECMG 1721/1800 09008KT",
    "VHHH": "TAF VHHH 161700Z 1618/1724 14010KT 9999 FEW010 SCT025 TX30/1706Z TN26/1622Z TN26/1722Z TEMPO 1618/1621 VRB15G25KT 2500 TSRA SHRA FEW010CB SCT015 BECMG 1621/1623 20010KT TEMPO 1623/1705 VRB20G30KT 2000 TSRA +SHRA FEW008CB SCT015 TEMPO 1705/1708 3000 SHRA FEW010CB SCT020 TEMPO 1720/1724 3000 SHRA FEW010CB SCT020",
    "RCTP": "TAF RCTP 161700Z 1618/1724 22007KT 9999 FEW015 TEMPO 1618/1623 15005KT BECMG 1623/1701 24015KT TEMPO 1703/1707 25020KT BECMG 1710/1712 21010KT TEMPO 1718/1723 16005KT",
    "ZGSZ": "TAF ZGSZ 161514Z 1618/1724 18004MPS 8000 BKN040 TX30/1706Z TN25/1622Z TN26/1722Z TEMPO 1621/1624 SHRA SCT012 FEW020CB BKN030 TEMPO 1704/1708 TSRA SCT012 FEW020CB BKN030",
    "WSSS": "TAF WSSS 161700Z 1618/1800 14008KT 9999 FEW015 SCT020 TEMPO 1705/1708 3000 TSRA FEW012CB BKN015",
    "WMKK": "TAF WMKK 161700Z 1618/1800 VRB03KT 9999 FEW030",
    "VTBS": "TAF VTBS 161700Z 1618/1724 22008KT 9999 FEW020 TEMPO 1709/1713 VRB15KT 3000 TSRA FEW018CB SCT030 BKN080",
    "VTBU": "TAF VTBU 161700Z 1618/1718 24006KT 9000 FEW020",
    "ROAH": "TAF ROAH 161707Z 1618/1800 23011KT 9999 FEW005 BKN010 TEMPO 1618/1621 FEW003 BKN005 TEMPO 1621/1703 FEW005 BKN008 TEMPO 1712/1800 FEW004 BKN006",
    "VVDN": "TAF VVDN 161700Z 1618/1718 23007KT 9999 FEW017 SCT060 TEMPO 1709/1712 TS SCT013 FEW015CB SCT060",
    "RCKH": "TAF RCKH 161700Z 1618/1724 22007KT 9999 FEW015 BKN032 TEMPO 1618/1624 09005KT 4000 SHRA FEW012 FEW015CB BKN020 TEMPO 1700/1704 5000 SHRA FEW012 FEW015TCU BKN020 TEMPO 1704/1710 25013KT BECMG 1710/1712 09005KT TEMPO 1718/1724 30005KT 5000 SHRA FEW012 BKN020",
    "KLAX": "TAF KLAX 161728Z 1618/1724 26006KT P6SM SKC FM162000 26012KT P6SM SKC FM170300 26006KT P6SM SCT250 FM170800 11008KT P6SM BKN009 FM171700 14008KT P6SM SCT012 FM172000 24010KT P6SM SCT250",
    "KONT": "TAF KONT 161749Z 1618/1724 VRB04KT P6SM FEW200 FM161900 25012G20KT P6SM SCT150 FM170300 26010KT P6SM FEW150 FM170700 VRB04KT P6SM FEW150 FM171900 25012G20KT P6SM SCT150",
    "KSFO": "TAF KSFO 161720Z 1618/1724 30015KT P6SM SKC FM162000 29021G27KT P6SM SKC FM170600 28013G23KT P6SM SCT009 FM170900 28011KT P6SM BKN009 FM171700 29014KT P6SM SCT009 FM172000 29021G28KT P6SM SKC",
    "KOAK": "TAF KOAK 161720Z 1618/1724 26009KT P6SM SKC FM162000 26015KT P6SM SKC FM170400 26008KT P6SM SKC FM170800 25006KT P6SM BKN007 FM171700 26008KT P6SM SCT007 FM172000 28015KT P6SM SKC",
    "KMHR": "TAF KMHR 161751Z 1618/1718 19006KT P6SM SKC FM162200 23010G18KT P6SM SKC FM170400 16008KT P6SM SKC",
    "KDFW": "TAF KDFW 161720Z 1618/1724 18011KT P6SM VCTS SCT025CB BKN035 BKN120 PROB30 1619/1622 4SM -TSRA BKN025CB FM162200 18010KT P6SM -SHRA VCTS SCT040CB BKN250 FM170100 16010KT P6SM FEW100 BKN250 FM171200 17010KT P6SM BKN020",
    "KIAH": "TAF KIAH 161721Z 1618/1724 14009KT P6SM FEW030 BKN210 OVC250 FM170200 15007KT P6SM FEW020 SCT250 FM170600 VRB03KT P6SM SCT015 SCT025 FM171400 19007KT P6SM SCT250",
    "KORD": "TAF KORD 161738Z 1618/1724 06007KT 1 1/2SM FU BKN020 BKN050 FM162100 07007KT 2SM FU FEW020 SCT050 BKN250 FM170600 VRB03KT 2SM FU SCT050 BKN250 FM171500 24009KT P6SM SCT050 BKN100 PROB30 1718/1724 VRB15G25KT 3SM -TSRA BR BKN040CB",
    "KJFK": "TAF KJFK 161724Z 1618/1724 23014G23KT 5SM FU SCT045 BKN250 PROB30 1620/1624 VRB15G35KT -TSRA BKN050CB FM170000 31012KT 5SM FU BKN250 FM170600 34006KT 5SM FU BKN250 FM171300 34008KT P6SM SCT250 FM171800 21011KT P6SM FEW050 SCT250",
    "KRFD": "TAF KRFD 161742Z 1618/1718 VRB04KT 5SM FU SCT050 BKN250 FM170300 VRB04KT 3SM FU SCT050 BKN250 FM171500 23007KT P6SM SCT050 BKN100",
    "KIND": "TAF KIND 161722Z 1618/1724 29006KT P6SM SCT050 BKN250 FM170400 28003KT P6SM FEW050 SCT250 FM171200 18003KT P6SM SCT050 FM171800 23007KT P6SM SCT050 BKN200 PROB30 1718/1724 5SM -TSRA BKN035CB",
    "KDTW": "TAF KDTW 161730Z 1618/1724 35005KT 3/4SM FU SCT020 OVC030 FM162000 35005KT 2SM FU SCT025 OVC035 FM170100 14003KT 1SM FU OVC025 FM171900 19008KT 5SM HZ SCT035 SCT200",
    "KMSP": "TAF KMSP 161722Z 1618/1724 16003KT 4SM FU SCT022 TEMPO 1618/1621 2SM FU BKN022 FM162100 15006KT 6SM HZ SCT050 FM170200 16004KT P6SM SKC FM171400 21010KT P6SM FEW050",
    "CYEG": "TAF CYEG 161740Z 1618/1718 VRB03KT P6SM FEW020 FM162100 14006KT P6SM FEW040 FM170200 12006KT P6SM SKC FM171000 12006KT P6SM SCT040 PROB30 1710/1715 1SM BR FEW004 RMK NXT FCST BY 162100Z",
    "EHAM": "TAF COR EHAM 161718Z 1618/1724 04010KT CAVOK BECMG 1623/1702 34007KT PROB30 TEMPO 1702/1707 7000 BKN012 BECMG 1710/1713 33015KT PROB30 TEMPO 1712/1714 6000 SHRA SCT030CB BECMG 1718/1721 32008KT",
    "EBBR": "TAF EBBR 161706Z 1618/1724 02008KT 9999 FEW045",
    "EDDF": "TAF EDDF 161700Z 1618/1724 20005KT CAVOK PROB30 TEMPO 1704/1710 TSRA BKN030CB BECMG 1709/1711 26008KT PROB40 TEMPO 1713/1719 26015G30KT TSRA BKN030CB",
    "EDFH": "TAF EDFH 161700Z 1618/1718 14007KT CAVOK PROB30 TEMPO 1618/1620 TSRA SCT040CB BECMG 1621/1623 21005KT PROB30 TEMPO 1704/1709 TSRA BKN020CB BECMG 1706/1709 27008KT PROB40 TEMPO 1712/1716 26015G30KT TSRA BKN020CB",
    "EDDL": "TAF EDDL 161700Z 1618/1724 06007KT CAVOK BECMG 1618/1621 33004KT BECMG 1708/1711 29010KT",
    "EDDK": "TAF EDDK 161700Z 1618/1724 05005KT CAVOK BECMG 1620/1623 VRB03KT PROB30 TEMPO 1706/1711 SHRA BKN040TCU BECMG 1708/1711 29010KT",
    "EBLG": "TAF EBLG 161706Z 1618/1724 02008KT 9999 FEW045",
    "LSZH": "TAF COR LSZH 161746Z 1618/1724 VRB02KT 9999 FEW070 TX26/1714Z TN17/1704Z TEMPO 1618/1619 16012KT FEW070CB PROB40 TEMPO 1620/1624 27015G25KT TSRA FEW050CB BECMG 1700/1702 CAVOK BECMG 1705/1707 9999 FEW050 PROB30 TEMPO 1707/1712 SHRA SCT050TCU PROB40 TEMPO 1712/1718 29015G25KT TSRA FEW050CB PROB30 TEMPO 1718/1724 23015G25KT TSRA FEW050CB",
    "LIMC": "TAF LIMC 161700Z 1618/1724 VRB05KT 9999 FEW040 TEMPO 1623/1708 4000 TSRA BECMG 1700/1702 36010KT BECMG 1709/1711 VRB05KT",
    "LIRF": "TAF LIRF 161700Z 1618/1724 28007KT CAVOK PROB40 TEMPO 1702/1705 2000 BR BECMG 1702/1704 13010KT BECMG 1709/1711 19010KT BECMG 1717/1719 VRB05KT PROB30 TEMPO 1722/1724 4000 BR BKN014",
    "EINN": "TAF EINN 161700Z 1618/1718 03008KT 9999 FEW040 PROB30 TEMPO 1620/1624 33010KT BECMG 1708/1710 33010KT",
    "EGLL": "TAF EGLL 161652Z 1618/1724 10010KT CAVOK BECMG 1622/1701 03005KT PROB30 TEMPO 1703/1708 BKN008 BECMG 1711/1714 33010KT BECMG 1719/1722 04010KT",
    "EGSS": "TAF EGSS 161655Z 1618/1724 05010KT CAVOK TEMPO 1700/1708 8000 BKN008 PROB30 TEMPO 1701/1707 4000 BR BKN004 BECMG 1702/1705 35005KT",
    "EPWA": "TAF EPWA 161730Z 1618/1718 VRB04KT CAVOK BECMG 1707/1710 15010KT TEMPO 1714/1718 SCT050CB",
    "UHPP": "TAF UHPP 161641Z 1618/1724 16003G12MPS 9999 BKN010 TEMPO 1618/1621 0500 FG VV002 BECMG 1621/1623 BKN040CB",
    "EFHK": "TAF EFHK 161724Z 1618/1718 17008KT CAVOK",
    "LBBG": "TAF LBBG 161700Z 1618/1718 VRB04KT 9999 SCT045 BECMG 1707/1709 12012KT PROB40 TEMPO 1710/1715 5000 TSRA FEW030CB BKN040 BECMG 1716/1718 VRB04KT",
    "LTAC": "TAF LTAC 161640Z 1618/1718 03011KT CAVOK BECMG 1706/1708 SCT040 TEMPO 1714/1718 02015G25KT BECMG 1716/1718 CAVOK",
    "UBBB": "TAF UBBB 161715Z 1618/1718 32016G26KT 9999 FEW015 TX31/1710Z TN23/1701Z TEMPO 1618/1706 35020KT SCT010 FEW050CB BECMG 1710/1712 34012KT FEW030",
    "UTAA": "TAF UTAA 161645Z 1618/1718 35014KT 6000 SCT050 TEMPO 1618/1624 29014G24KT TEMPO 1700/1708 30018G28KT 3000 DRDU",
    "UACC": "TAF UACC 161701Z 1618/1718 VRB01MPS 9999 SCT030 BKN050 TX32/1709Z TN17/1623Z TEMPO 1618/1704 26005MPS BECMG 1704/1706 25006MPS TEMPO 1704/1714 27011MPS SCT030CB PROB40 TEMPO 1706/1714 -TSRA BKN030CB",
    "UAAA": "TAF UAAA 161700Z 1618/1718 16003MPS 9999 FEW100 TX41/1710Z TN20/1701Z BECMG 1703/1704 04003G09MPS BECMG 1713/1714 20003MPS",
    "UZTT": "TAF UZTT 161700Z 1618/1718 09010KT 7000 NSC TX43/1711Z TN26/1700Z TEMPO 1618/1624 34015KT",
    "ZWWW": "TAF ZWWW 161503Z 1618/1724 18004MPS CAVOK TX39/1709Z TN28/1623Z TN29/1718Z BECMG 1702/1703 36004MPS BECMG 1714/1715 18004MPS",
    "ZLXY": "TAF ZLXY 161501Z 1618/1718 26004MPS 5000 HZ NSC TX32/1708Z TN23/1621Z",
    "ZBAA": "TAF ZBAA 161501Z 1618/1724 18004MPS CAVOK TX35/1707Z TN24/1621Z TN21/1721Z",
    "ZBHH": "TAF ZBHH 161505Z 1618/1718 24004MPS 9999 SCT040 TX29/1708Z TN16/1622Z BECMG 1708/1709 -TSRA SCT040 FEW040CB TEMPO 1709/1711 33008G14MPS TSRA BECMG 1711/1712 NSW NSC",
    "ZSQD": "TAF ZSQD 161502Z 1618/1718 16004MPS 3500 BR BKN010 TX26/1706Z TN22/1620Z BECMG 1702/1703 03005MPS BKN030 TEMPO 1703/1707 2500 +TSRA BKN020 FEW030CB TEMPO 1707/1711 SHRA",
    "ZMCK": "TAF ZMCK 161639Z 1618/1724 VRB02MPS 9999 FEW030CB SCT033 TN10/1621Z TX24/1707Z TEMPO 1618/1708 VRB08MPS 6000 TSRA FEW023 SCT027CB SCT030 BECMG 1704/1706 29005MPS BECMG 1710/1712 VRB02MPS",
    "UUEE": "TAF UUEE 161656Z 1618/1718 36003G08MPS 9999 SCT040 TX21/1712Z TN10/1701Z TEMPO 1709/1718 33008G14MPS",
    "UUDD": "TAF UUDD 161650Z 1618/1724 36005MPS 9999 SCT030 TX23/1712Z TN09/1702Z TEMPO 1708/1715 36008G15MPS",
    "ULLI": "TAF ULLI 161654Z 1618/1718 05005MPS 6000 SCT020 BECMG 1620/1622 22003MPS TEMPO 1623/1703 1000 BR MIFG",
    "USSS": "TAF USSS 161656Z 1618/1718 26003MPS 6000 SCT016CB TEMPO 1618/1702 0300 -TSRA FG FM170300 28003G14MPS 9999 -SHRA BKN016CB TEMPO 1703/1718 -TSRA",
    "UNNT": "TAF UNNT 161700Z 1618/1718 15003G08MPS 8000 BKN040 TX25/1710Z TN16/1622Z TEMPO 1618/1703 22008G15MPS -TSRA BKN010 BKN020CB BECMG 1703/1705 26007G15MPS TEMPO 1703/1715 -TSRA BKN016CB BECMG 1712/1714 20003G08MPS",
    "UNKL": "TAF UNKL 161649Z 1618/1718 21003G08MPS 8000 SCT040 TEMPO 1706/1712 -TSRA BKN020CB BECMG 1712/1714 4500 -SHRA BKN016CB TEMPO 1714/1718 0300 -TSRA FG BKN006 BKN016CB",
    "UIBB": "TAF UIBB 161700Z 1618/1718 18002G07MPS 9999 FEW001 BKN016CB BECMG 1701/1703 24005G10MPS",
    "UEEE": "TAF UEEE 161700Z 1618/1724 10005G10MPS 9999 SCT010 BKN020CB OVC100 TEMPO 1618/1706 VRB01MPS 2100 -SHRA SCT005 BKN017CB OVC070",
    "UHHH": "TAF UHHH 161647Z 1618/1724 18003MPS 9999 SCT020CB TX26/1706Z TN17/1618Z FM170000 21008G13MPS 9999 FEW006 BKN016CB TEMPO 1700/1712 2000 TSRA",
    "UHSS": "TAF UHSS 161650Z 1618/1724 16003MPS 0550 FG BKN002 FM162300 18006MPS 9999 BKN010 BECMG 1700/1703 SCT030"
  },
  "atis": {},
  "windtemp_alaska": "\n000\nFBAK31 KWNO 161358\nFD1AK1\nDATA BASED ON 161200Z    \nVALID 161800Z   FOR USE 1400-2100Z. TEMPS NEG ABV 24000\n\nFT  3000    6000    9000   12000   18000   24000  30000  34000  39000\nADK 3209 3207+01 3215-02 3225-07 3446-16 3463-27 358941 850349 348653\nADQ 1818 2017+02 2131+01 2337-02 2241-14 2249-25 235340 235349 225257\nAKN 1414 1713-02 2014-04 2021-07 2147-16 2061-27 217342 218449 224949\nANC 1408 1415+01 1611-04 1812-07 2326-16 2547-27 256543 257551 254751\nANN 3505 3007+10 2909+07 2809+02 2711-12 2515-23 241640 241350 300959\nBET 9900 0505-02 1107-08 1408-12 1612-22 1915-35 193644 202944 201841\nBRW 1005 9900+01 2107-04 2112-08 1916-20 1820-33 182848 162051 161543\nBTI 3611 0313+03 0315-02 0513-07 0412-18 0417-30 072746 073254 150842\nBTT 2809 9900+04 9900-03 0505-08 1406-20 1413-32 141749 131252 181143\nCDB 3124 3022+00 2822-04 2728-08 2737-22 2544-32 245840 235742 234644\nCZF 1608 1608-02 1609-08 9900-12 9900-23 1907-36 270546 310842 290741\nEHM 0210 0310-03 0309-07 0305-12 2405-22 2011-35 203543 213042 212442\nFAI 2516 2613+02 2712-04 9900-07 2306-20 1607-32 220748 251948 242044\nFYU 3016 3212+04 3215-01 3317-07 3212-19 3510-31 042049 030651 210642\nGAL 2606 9900+00 1508-04 1608-09 1518-21 1522-34 162248 192347 201743\nGKN 1613 1912+01 9900-04 2706-08 2719-19 2748-28 277243 277950 264247\nHOM 1515 1416-01 1320-05 2025-05 2344-14 2343-26 235642 246850 245855\nJNU 9900 9900+04 2709+02 2618-02 2738-12 2642-24 264740 275050 274358\nLUR 0613 1009+00 1413-06 1611-10 1813-22 1818-34 182047 171349 090542\nMCG 9900 1608-01 1618-05 1617-10 1618-21 2032-31 226345 235849 223045\nMDO 1413 1510+01 1908-02 2215-05 2637-14 2636-25 265040 266049 265457\nOME 9900 1506-01 1408-06 1407-12 1510-23 1318-35 121949 130844 990041\nORT      2610+02 2811-04 2712-09 2816-20 2923-33 285145 284846 272844\nOTZ 2611 2110+01 1908-04 1708-10 1615-21 1415-34 142249 141649 140742\nSNP 3119 3326-01 3331-04 3231-09 3332-23 3440-34 345346 344445 333143\nTKA 1908 1812+00 1611-05 1710-08 2316-19 2435-29 256943 257550 254249\nUNK 9900 9900-02 1108-06 1307-11 1413-23 1516-35 161947 191945 201342\nYAK 9900 3205+01 2708+00 2614-04 2738-15 2753-25 275941 276650 275655\nIKO 3223 3226-01 3224-03 3122-07 2824-20 2724-33 262147 272946 282745\nAFM 9900 1605+02 1709-03 1515-09 1620-21 1623-33 162249 151550 161243\n5AB 2516 2916+07 3022+01 3229-01 3229-10 3331-22 323336 323346 343358\n5AC 3418 3415+10 3413+06 3308+02 3408-11 3412-23 321241 321151 341159\n5AD 2208 2412+08 2518+05 2623+01 2626-12 2627-24 263239 263449 263160\n5AE 2131 2340+08 2339+03 2241-01 2351-14 2358-25 236440 235849 225057\n5AF 3211 3014+07 2920+05 2822+01 2721-13 2721-24 272139 282348 292060\n5AG 9900 2707+03 2616+01 2728-02 2730-13 2634-25 264039 274748 274759\n",
  "vaac_active": [
    {
      "volcano": "MAYON",
      "volcano_jp": "マヨン",
      "advisory_nr": "2026/755",
      "obs_time": "2026-07-16 16:23Z",
      "issued_time": "2026-07-16 19:00Z",
      "text_url": "https://www.data.jma.go.jp/vaac/data/TextData/2026/20260716_27303000_0755_Text.html",
      "lat": 13.25,
      "lon": 123.683,
      "text": "FVFE01 RJTD 161900\nVA ADVISORY\nDTG: 20260716/1900Z\nVAAC: TOKYO\nVOLCANO: MAYON 273030\nPSN: N1315 E12341\nAREA: PHILIPPINES\nSOURCE ELEV: 2462M AMSL\nADVISORY NR: 2026/755\nINFO SOURCE: HIMAWARI-9 PHIVOLCS\nERUPTION DETAILS: ERUPTION AT 20260716/1623Z FL120 EXTD SSE REPORTED\nOBS VA DTG: 16/1840Z\nOBS VA CLD: VA NOT IDENTIFIABLE FM SATELLITE DATA WIND FL120 360/7KT\nFCST VA CLD +6 HR: NOT AVBL\nFCST VA CLD +12 HR: NOT AVBL\nFCST VA CLD +18 HR: NOT AVBL\nRMK: WE WILL ISSUE FURTHER ADVISORY IF VA IS DETECTED IN SATELLITE \nIMAGERY.\nNXT ADVISORY: NO FURTHER ADVISORIES="
    },
    {
      "volcano": "MAYON",
      "volcano_jp": "マヨン",
      "advisory_nr": "2026/754",
      "obs_time": "2026-07-16 16:23Z",
      "issued_time": "2026-07-16 16:40Z",
      "text_url": "https://www.data.jma.go.jp/vaac/data/TextData/2026/20260716_27303000_0754_Text.html",
      "lat": 13.25,
      "lon": 123.683,
      "text": "FVFE01 RJTD 161640\nVA ADVISORY\nDTG: 20260716/1640Z\nVAAC: TOKYO\nVOLCANO: MAYON 273030\nPSN: N1315 E12341\nAREA: PHILIPPINES\nSOURCE ELEV: 2462M AMSL\nADVISORY NR: 2026/754\nINFO SOURCE: HIMAWARI-9 PHIVOLCS\nERUPTION DETAILS: ERUPTION AT 20260716/1623Z VA CLD UNKNOWN REPORTED\nOBS VA DTG: 16/1620Z\nOBS VA CLD: VA NOT IDENTIFIABLE FM SATELLITE DATA WIND FL180 030/3KT\nFCST VA CLD +6 HR: NOT AVBL\nFCST VA CLD +12 HR: NOT AVBL\nFCST VA CLD +18 HR: NOT AVBL\nRMK: WE WILL ISSUE FURTHER ADVISORY IF VA IS DETECTED IN SATELLITE \nIMAGERY.\nNXT ADVISORY: NO FURTHER ADVISORIES="
    },
    {
      "volcano": "SHEVELUCH",
      "volcano_jp": "シベルチ",
      "advisory_nr": "2026/203",
      "obs_time": "2026-07-16 16:00Z",
      "issued_time": "2026-07-16 16:00Z",
      "text_url": "https://www.data.jma.go.jp/vaac/data/TextData/2026/20260716_30027000_0203_AN_Text.html",
      "lat": 56.65,
      "lon": 161.367,
      "text": "FVFE01 RJTD 161608\nVAAAK1\nVA ADVISORY\n\nDTG: 20260716/1600Z\n\nVAAC: ANCHORAGE\n\nVOLCANO: SHEVELUCH 300270\n\nPSN: N5639 E16122\n\nAREA: KAMCHATKA PENINSULA\n\nSOURCE ELEV: 10771 FT AMSL\n\nADVISORY NR: 2026/203\n\nINFO SOURCE: HIMAWARI\n\nERUPTION DETAILS: RESIDUAL VA VISIBLE IN SATELLITE IMAGERY.\n\nOBS VA DTG: 16/1600Z\n\nOBS VA CLD: SFC/FL230 N5304 E17158 - N5220 E17342 - N5144 E17242\n- N5226 E17109 - N5304 E17158 MOV SE 35KT\n\nFCST VA CLD +6HR: 16/2200Z SFC/FL230 N5203 E17446 - N5022 E17716\n- N4941 E17535 - N5125 E17317 - N5203 E17446 - N5203 E17446\n\nFCST VA CLD +12HR: 17/0400Z NO VA EXP\n\nFCST VA CLD +18HR: 17/1000Z NO VA EXP\n\nRMK: VAAC TOKYO HAS TRANSFERRED RESPONSIBILITY OF THIS EVENT\nTO VAAC ANCHORAGE. THIS ADVISORY UPDATES MESSAGE FVFE01 RJTD.\nVA PARTIALLY OBSCURED BY MET CLOUD. VA ALSO FADING QUICKLY...SC\n\nNXT ADVISORY: WILL BE ISSUED BY 20260716/2200Z="
    }
  ],
  "vaac_tokyo": [
    {
      "id": "20260716_27303000_0755",
      "year": "2026",
      "volcano": "Mayon",
      "psn": "N1315 E12341",
      "issued": "20260716",
      "text": "FVFE01 RJTD 161900\nVA ADVISORY\nDTG: 20260716/1900Z\nVAAC: TOKYO\nVOLCANO: MAYON 273030\nPSN: N1315 E12341\nAREA: PHILIPPINES\nSOURCE ELEV: 2462M AMSL\nADVISORY NR: 2026/755\nINFO SOURCE: HIMAWARI-9 PHIVOLCS\nERUPTION DETAILS: ERUPTION AT 20260716/1623Z FL120 EXTD SSE REPORTED\nOBS VA DTG: 16/1840Z\nOBS VA CLD: VA NOT IDENTIFIABLE FM SATELLITE DATA WIND FL120 360/7KT\nFCST VA CLD +6 HR: NOT AVBL\nFCST VA CLD +12 HR: NOT AVBL\nFCST VA CLD +18 HR: NOT AVBL\nRMK: WE WILL ISSUE FURTHER ADVISORY IF VA IS DETECTED IN SATELLITE \nIMAGERY.\nNXT ADVISORY: NO FURTHER ADVISORIES=",
      "img_url": "https://ds.data.jma.go.jp/svd/vaac/data/VAGFN/2026/Images/20260716_27303000_0755_QH21_01.png",
      "sat_img_url": null,
      "text_url": "https://ds.data.jma.go.jp/svd/vaac/data/TextData/2026/20260716_27303000_0755_Text.html"
    },
    {
      "id": "20260716_30027000_0266",
      "year": "2026",
      "volcano": "Sheveluch",
      "psn": "N5639 E16122",
      "issued": "20260716",
      "text": "FVFE01 RJTD 161200\nVA ADVISORY\nDTG: 20260716/1200Z\nVAAC: TOKYO\nVOLCANO: SHEVELUCH 300270\nPSN: N5639 E16122\nAREA: RUSSIA\nSOURCE ELEV: 3283M AMSL\nADVISORY NR: 2026/266\nINFO SOURCE: HIMAWARI-9\nERUPTION DETAILS: VA CONTINUOUSLY OBS IN SATELLITE IMAGERY\nOBS VA DTG: 16/1120Z\nOBS VA CLD: SFC/FL230 N5556 E16558 - N5544 E16655 - N5425 E16745 - \nN5359 E17000 - N5312 E16918 - N5403 E16711 MOV SE 35KT\nFCST VA CLD +6 HR: 16/1720Z SFC/FL240 N5329 E17049 - N5230 E17321 - \nN5147 E17227 - N5314 E16939 - N5525 E16945 - N5436 E17056\nFCST VA CLD +12 HR: 16/2320Z SFC/FL250 N5118 E17628 - N5008 E17537 - \nN5210 E17232 - N5303 E17348 - N5459 E17402\nFCST VA CLD +18 HR: NO VA EXP\nRMK: THE RESPONSIBILITY FOR THIS ASH EVENT IS BEING TRANSFERRED TO \nVAAC ANCHORAGE. THE NEXT ADVISORY WILL BE ISSUED BY VAAC ANCHORAGE \nBY 1800UTC UNDER HEADER FVAK21 PAWU. WESTERN PART OF VA OBSCURED BY \nMET CLOUD.\nNXT ADVISORY: NO FURTHER ADVISORIES=",
      "img_url": "https://ds.data.jma.go.jp/svd/vaac/data/VAGFN/2026/Images/20260716_30027000_0266_QH21_01.png",
      "sat_img_url": "https://ds.data.jma.go.jp/svd/vaac/data/Sat/2026/Images/30027000/09-ir/20260716_1120_202607161200_ir.png",
      "text_url": "https://ds.data.jma.go.jp/svd/vaac/data/TextData/2026/20260716_30027000_0266_Text.html"
    },
    {
      "id": "20260715_27307000_0013",
      "year": "2026",
      "volcano": "Taal",
      "psn": "N1400 E12100",
      "issued": "20260715",
      "text": "FVFE01 RJTD 152348\nVA ADVISORY\nDTG: 20260715/2348Z\nVAAC: TOKYO\nVOLCANO: TAAL 273070\nPSN: N1400 E12100\nAREA: PHILIPPINES\nSOURCE ELEV: 311M AMSL\nADVISORY NR: 2026/13\nINFO SOURCE: HIMAWARI-9 PHIVOLCS\nERUPTION DETAILS: ERUPTION AT 20260715/2330Z FL030 EXTD ENE REPORTED\nOBS VA DTG: 15/2340Z\nOBS VA CLD: VA NOT IDENTIFIABLE FM SATELLITE DATA WIND FL030 170/2KT\nFCST VA CLD +6 HR: NOT AVBL\nFCST VA CLD +12 HR: NOT AVBL\nFCST VA CLD +18 HR: NOT AVBL\nRMK: WE WILL ISSUE FURTHER ADVISORY IF VA IS DETECTED IN SATELLITE \nIMAGERY.\nNXT ADVISORY: NO FURTHER ADVISORIES=",
      "img_url": "https://ds.data.jma.go.jp/svd/vaac/data/VAGFN/2026/Images/20260715_27307000_0013_QH21_01.png",
      "sat_img_url": null,
      "text_url": "https://ds.data.jma.go.jp/svd/vaac/data/TextData/2026/20260715_27307000_0013_Text.html"
    },
    {
      "id": "20260713_28208001_0083",
      "year": "2026",
      "volcano": null,
      "psn": "N3136 E13039",
      "issued": "20260713",
      "text": "FVFE01 RJTD 130254\nVA ADVISORY\nDTG: 20260713/0254Z\nVAAC: TOKYO\nVOLCANO: SAKURAJIMA (AIRA CALDERA) 282080\nPSN: N3136 E13039\nAREA: JAPAN\nSOURCE ELEV: 1117M AMSL\nADVISORY NR: 2026/83\nINFO SOURCE: JMA HIMAWARI-9\nERUPTION DETAILS: ERUPTED AT 20260713/0152Z FL100 EXTD N\nOBS VA DTG: 13/0230Z\nOBS VA CLD: SFC/FL100 N3136 E13039 - N3142 E13040 - N3141 E13044 - \nN3134 E13042 MOV NE 15KT\nFCST VA CLD +6 HR: 13/0830Z SFC/FL100 N3234 E13121 - N3145 E13155 - \nN3202 E13110 - N3227 E13051\nFCST VA CLD +12 HR: 13/1430Z SFC/FL100 N3318 E13206 - N3142 E13317 - \nN3134 E13226 - N3312 E13118\nFCST VA CLD +18 HR: NO VA EXP\nRMK: NIL\nNXT ADVISORY: 20260713/0600Z=",
      "img_url": "https://ds.data.jma.go.jp/svd/vaac/data/VAGFN/2026/Images/20260713_28208001_0083_QH21_01.png",
      "sat_img_url": "https://ds.data.jma.go.jp/svd/vaac/data/Sat/2026/Images/28208001/09-ir/20260713_0230_202607130254_ir.png",
      "text_url": "https://ds.data.jma.go.jp/svd/vaac/data/TextData/2026/20260713_28208001_0083_Text.html"
    }
  ],
  "vaac_alaska": [
    {
      "text": "\n000\nFVAK21 PAWU 161602\nVAAAK1\nVA ADVISORY\n\nDTG: 20260716/1600Z\n\nVAAC: ANCHORAGE\n\nVOLCANO: SHEVELUCH 300270\n\nPSN: N5639 E16122\n\nAREA: KAMCHATKA PENINSULA\n\nSOURCE ELEV: 10771 FT AMSL\n\nADVISORY NR: 2026/203\n\nINFO SOURCE: HIMAWARI\n\nERUPTION DETAILS: RESIDUAL VA VISIBLE IN SATELLITE IMAGERY.\n\nOBS VA DTG: 16/1600Z\n\nOBS VA CLD: SFC/FL230 N5304 E17158 - N5220 E17342 - N5144 E17242\n- N5226 E17109 - N5304 E17158 MOV SE 35KT\n\nFCST VA CLD +6HR: 16/2200Z SFC/FL230 N5203 E17446 - N5022 E17716\n- N4941 E17535 - N5125 E17317 - N5203 E17446 - N5203 E17446\n\nFCST VA CLD +12HR: 17/0400Z NO VA EXP\n\nFCST VA CLD +18HR: 17/1000Z NO VA EXP\n\nRMK: VAAC TOKYO HAS TRANSFERRED RESPONSIBILITY OF THIS EVENT\nTO VAAC ANCHORAGE. THIS ADVISORY UPDATES MESSAGE FVFE01 RJTD.\nVA PARTIALLY OBSCURED BY MET CLOUD. VA ALSO FADING QUICKLY...SC\n\nNXT ADVISORY: WILL BE ISSUED BY 20260716/2200Z=\n\n",
      "issued": "2026-07-16T16:02:00+00:00",
      "volcano": "Sheveluch",
      "psn": "N5639 E16122"
    }
  ]
}