{
  "updated_utc": "2026-07-15T19:59Z",
  "metar": {
    "RJAA": "METAR RJAA 151800Z AUTO 14005KT 4900 BR BKN020 25/24 Q1000 TEMPO FEW008 BKN012",
    "PANC": "METAR PANC 151853Z 20013G22KT 10SM -RA FEW027 SCT033 OVC060 12/08 A2989 RMK AO2 SLP124 P0001 T01170083",
    "PAFA": "METAR PAFA 151853Z 22005KT 10SM -RA SCT020 BKN065 BKN085 12/10 A2976 RMK AO2 SLP082 P0002 T01220100",
    "PAED": "SPECI PAED 151812Z 21012KT 10SM SCT046 OVC065 13/08 A2987 RMK AO2A SLP111",
    "KSEA": "METAR KSEA 151853Z VRB05KT 10SM FEW080 FEW130 SCT230 23/11 A3008 RMK AO2 SLP191 HZ FEW080 T02280111 $",
    "ZSPD": "METAR ZSPD 151800Z 19002MPS CAVOK 30/27 Q1003 NOSIG",
    "ZSSS": "METAR ZSSS 151800Z 20002MPS CAVOK 32/27 Q1002 NOSIG",
    "RJFR": "METAR RJFR 151800Z AUTO 36005KT 9999 OVC020 28/26 Q1003",
    "VHHH": "METAR VHHH 151800Z 19011KT 9999 -SHRA FEW010 SCT025 28/25 Q1005 TEMPO 3000 SHRA FEW010CB SCT020",
    "RCTP": "METAR RCTP 151800Z 19006KT 9999 FEW015 BKN030 BKN120 29/25 Q1009 NOSIG RMK A2980",
    "ZGSZ": "METAR ZGSZ 151800Z 20004MPS 8000 SHRA SCT020 BKN033 27/26 Q1006 BECMG AT1810 -SHRA",
    "WSSS": "METAR WSSS 151800Z 14006KT 9999 FEW018 BKN300 29/25 Q1012 NOSIG",
    "WMKK": "METAR WMKK 151800Z 11004KT 070V160 9999 FEW030 29/25 Q1011 NOSIG",
    "WIDD": "METAR WIDD 151800Z 11003KT 070V170 9999 FEW014 28/26 Q1012 NOSIG",
    "VTBS": "METAR VTBS 151800Z 21007KT 9999 FEW020 29/24 Q1010 NOSIG",
    "VTBU": "METAR VTBU 151800Z VRB02KT 9000 FEW020 26/26 Q1011 NOSIG",
    "ROAH": "METAR ROAH 151800Z AUTO 23013KT 9999 FEW005 SCT009 OVC011 27/26 Q1009",
    "VVDN": "METAR VVDN 151800Z 23005KT 9999 FEW020 SCT070 30/22 Q1007 NOSIG",
    "RCKH": "METAR RCKH 151800Z 06002KT 9999 FEW014 SCT030 27/24 Q1010 NOSIG RMK A2983",
    "KLAX": "METAR KLAX 151853Z 25008KT 10SM FEW011 FEW025 26/18 A2987 RMK AO2 SLP111 T02610183 $",
    "KONT": "METAR KONT 151853Z 00000KT 10SM FEW110 35/13 A2987 RMK AO2 SLP094 T03500133 $",
    "KSFO": "METAR KSFO 151856Z 32017KT 10SM CLR 21/12 A2996 RMK AO2 SLP144 T02110117",
    "KOAK": "METAR KOAK 151853Z 25008KT 10SM FEW006 22/13 A2996 RMK AO2 SLP144 T02170128",
    "KMHR": "METAR KMHR 151815Z AUTO 27006KT 10SM CLR 34/08 A2988 RMK AO2 T03410084 $",
    "KDFW": "METAR KDFW 151853Z VRB04KT 10SM SCT050 SCT060 BKN080 BKN160 BKN250 32/19 A3006 RMK AO2 SLP168 CB DSNT SE-SW MOV NW T03170189 $",
    "KIAH": "SPECI KIAH 151803Z 06010KT 10SM FEW023 BKN110 OVC150 25/23 A3010 RMK AO2 CB MOVD NE T02500228",
    "KORD": "METAR KORD 151851Z 22005KT 10SM FEW050 SCT300 33/21 A3006 RMK AO2 SLP172 T03330211",
    "KJFK": "METAR KJFK 151851Z 27020G30KT 10SM SCT250 BKN300 35/20 A2980 RMK AO2 PK WND 27030/1847 SLP089 FU BKN300 T03500200",
    "KRFD": "METAR KRFD 151854Z 27005KT 10SM FEW039 FEW250 32/22 A3009 RMK AO2 SLP184 T03220217",
    "KIND": "METAR KIND 151854Z VRB04KT 10SM SCT050 33/20 A3009 RMK AO2 SLP180 T03280200",
    "KDTW": "METAR KDTW 151853Z 26008KT 10SM FEW055 BKN200 34/23 A3001 RMK AO2 SLP155 T03390228",
    "KMSP": "METAR KMSP 151853Z 24006KT 10SM SCT040 BKN250 34/21 A3010 RMK AO2 SLP185 T03390206",
    "CYEG": "METAR CYEG 151800Z 14004KT 100V220 20SM SCT020 SCT150 BKN250 22/17 A3009 RMK CU4AC1CI1 AC TR SLP188 DENSITY ALT 3600FT",
    "EHAM": "METAR EHAM 151825Z 03014KT 010V070 CAVOK 25/14 Q1021 NOSIG",
    "EBBR": "METAR EBBR 151820Z 03007KT CAVOK 27/08 Q1019 NOSIG",
    "EDDF": "METAR EDDF 151820Z AUTO 05012KT CAVOK 28/11 Q1017 NOSIG",
    "EDFH": "METAR EDFH 151820Z 07004KT 020V110 CAVOK 25/11 Q1019",
    "EDDL": "METAR EDDL 151820Z AUTO 05010KT CAVOK 27/09 Q1019 NOSIG",
    "EDDK": "METAR EDDK 151820Z AUTO 05009KT CAVOK 28/12 Q1018 NOSIG",
    "EBLG": "METAR EBLG 151820Z 03009KT CAVOK 27/10 Q1019 NOSIG",
    "LSZH": "METAR LSZH 151820Z VRB04KT 9999 FEW074 22/17 Q1019 NOSIG",
    "LIMC": "METAR LIMC 151820Z 21004KT 180V250 CAVOK 25/18 Q1016 NOSIG",
    "LIRF": "METAR LIRF 151820Z 26005KT CAVOK 29/24 Q1016 NOSIG",
    "EINN": "METAR EINN 151800Z 11005KT 070V140 9999 FEW035 SCT060 29/13 Q1021 NOSIG",
    "EGLL": "METAR EGLL 151820Z AUTO 11012KT 9999 NCD 26/12 Q1021",
    "EGSS": "METAR EGSS 151820Z AUTO 04011KT 9999 FEW049 25/13 Q1022",
    "EPWA": "METAR EPWA 151800Z 02008KT 360V060 CAVOK 27/14 Q1019 NOSIG",
    "UHPP": "METAR UHPP 151800Z 21004MPS 9999 OVC003 14/13 Q1016 R34L/CLRD62 NOSIG RMK MT OBSC QFE758/1011",
    "EFHK": "METAR EFHK 151820Z 29006KT CAVOK 24/15 Q1018 NOSIG",
    "LBBG": "METAR LBBG 151800Z AUTO 08005KT 9999 NCD 24/21 Q1016 NOSIG",
    "LTAC": "METAR LTAC 151820Z 05011KT CAVOK 23/09 Q1017 NOSIG RMK RWY21C 05012KT RWY03L 04009KT RWY21R 03010KT RWY03R 03012KT RWY21L 03010KT",
    "UBBB": "METAR UBBB 151800Z 33020G30KT CAVOK 26/21 Q1008 NOSIG",
    "UTAA": "METAR UTAA 151800Z 22004KT 9999 NSC 34/07 Q1005 R88/CLRD70 NOSIG",
    "UACC": "METAR UACC 151800Z 25004MPS 240V330 CAVOK 23/16 Q1006 NOSIG RMK QFE723/0964",
    "UAAA": "METAR UAAA 151800Z 15003MPS 9999 BKN100 27/08 Q1008 NOSIG",
    "UZTT": "METAR UZTT 151800Z 08008KT CAVOK 30/13 Q1005 NOSIG",
    "ZWWW": "METAR ZWWW 151800Z 16002MPS 120V290 CAVOK 28/10 Q1009 NOSIG",
    "ZLXY": "METAR ZLXY 151800Z 04002MPS CAVOK 26/23 Q1004 NOSIG",
    "ZBAA": "METAR ZBAA 151800Z VRB01MPS CAVOK 25/24 Q1001 NOSIG",
    "ZBHH": "METAR ZBHH 151800Z 07002MPS CAVOK 19/09 Q1009 NOSIG",
    "ZSQD": "METAR ZSQD 151800Z 14002MPS 9999 FEW053 21/21 Q1002 NOSIG",
    "ZMCK": "METAR ZMCK 151800Z VRB02MPS 9999 FEW033 16/10 Q1010 NOSIG RMK QFE642.5 70 NT",
    "UUEE": "METAR UUEE 151800Z 30004G09MPS 260V330 CAVOK 18/16 Q1012 R24L/290345 R24C/290345 NOSIG",
    "UUDD": "METAR UUDD 151800Z 31005MPS 9999 FEW040CB 18/17 Q1012 R31L/290045 NOSIG",
    "ULLI": "METAR ULLI 151800Z 30004MPS CAVOK 21/15 Q1015 R88/090065 NOSIG",
    "USSS": "METAR USSS 151800Z 00000MPS 9999 BKN029CB 16/16 Q0999 R08R/290050 R08L/290040 NOSIG RMK QFE729/0973",
    "UNNT": "METAR UNNT 151800Z 00000MPS CAVOK 16/13 Q1008 R25/CLRD// R34/CLRD// NOSIG RMK QFE746/0995",
    "UNKL": "METAR UNKL 151800Z 00000MPS CAVOK 11/11 Q1010 R29/CLRD// NOSIG RMK QFE732",
    "UIBB": "METAR UIBB 151800Z AUTO VRB01MPS 9999 // ///010/// 12/10 Q1007 RMK QFE712/0950",
    "UEEE": "METAR UEEE 151800Z 36002MPS 9999 SCT050CB 19/18 Q0996 R23/09//74 NOSIG RMK QFE739",
    "UHHH": "METAR UHHH 151800Z 22003MPS CAVOK 18/18 Q0990 R23L/090060 NOSIG RMK QFE736/0982",
    "UHSS": "METAR UHSS 151800Z 23001MPS 7000 BKN006 19/19 Q0993 RMK MT OBSC QFE743/0991"
  },
  "taf": {
    "RJAA": "TAF RJAA 151705Z 1518/1700 17005KT 9999 FEW012 BKN020 TEMPO 1518/1520 4000 BR FEW005 BKN008 TEMPO 1615/1621 3000 BR FEW005 BKN008",
    "PANC": "TAF PANC 151724Z 1518/1624 16010G18KT P6SM -SHRA FEW007 SCT045 OVC070 TEMPO 1518/1521 6SM -RA OVC045 FM152100 18014G24KT P6SM VCSH SCT040 BKN060 FM160100 18012KT P6SM SCT070 FM160900 16008KT P6SM BKN080 FM161400 17007KT P6SM VCSH SCT030 OVC040",
    "PAFA": "TAF PAFA 151720Z 1518/1624 24008KT P6SM -SHRA SCT025 BKN050 OVC070 FM152100 24010KT P6SM OVC050 TEMPO 1603/1606 P6SM -SHRA BKN025 FM160600 22009G19KT P6SM OVC050 FM161600 23005KT P6SM BKN050",
    "PAED": "TAF AMD PAED 151330Z 1513/1619 21010KT 9999 -SHRA OVC040 620703 540406 QNH2982INS BECMG 1517/1518 22012G22KT 9999 -SHRA SCT045 OVC060 620703 520009 QNH2990INS BECMG 1604/1605 21009KT 9999 NSW SCT050 BKN065 620703 QNH3002INS TX14/1600Z TN10/1514Z",
    "KSEA": "TAF KSEA 151720Z 1518/1624 25007KT P6SM SKC FM152100 33007KT P6SM FEW250 FM160600 VRB04KT P6SM VCSH BKN150 FM161200 05005KT P6SM VCSH OVC100 FM161700 21005KT P6SM VCSH OVC040",
    "ZSPD": "TAF ZSPD 151502Z 1518/1624 18004MPS 8000 SCT030 TX38/1606Z TN29/1521Z TN28/1621Z TEMPO 1606/1610 TSRA BKN008 SCT030CB",
    "ZSSS": "TAF ZSSS 151502Z 1518/1624 18004MPS 8000 SCT030 TX38/1606Z TN29/1521Z TN28/1621Z TEMPO 1606/1610 TSRA BKN011 SCT030CB",
    "RJFR": "TAF RJFR 151705Z 1518/1700 32008KT 9999 FEW045",
    "VHHH": "TAF VHHH 151700Z 1518/1624 18010KT 9999 FEW010 SCT030 TX31/1606Z TN27/1522Z TN27/1622Z TEMPO 1518/1521 08010KT 3000 SHRA FEW010CB SCT020 TEMPO 1521/1603 24015G25KT 2000 TSRA +SHRA FEW008CB SCT015 TEMPO 1603/1606 3000 SHRA FEW010CB SCT020 PROB30 TEMPO 1621/1624 24015G25KT 2500 TSRA SHRA FEW008CB SCT015",
    "RCTP": "TAF RCTP 151700Z 1518/1624 24013KT 9999 FEW015 BKN032 TEMPO 1518/1524 18005KT FEW010 BKN020 TEMPO 1603/1609 27015G25KT FEW010 BKN020 TEMPO 1612/1618 22005KT",
    "ZGSZ": "TAF AMD ZGSZ 151821Z 1518/1624 18004MPS 8000 BKN040 TX31/1606Z TN26/1522Z TN27/1622Z TEMPO 1518/1521 2500 +SHRA SCT011 FEW020CB TEMPO 1522/1601 2000 +SHRA SCT012 FEW020CB BKN030 TEMPO 1602/1605 SHRA SCT011 FEW020CB BKN030 TEMPO 1605/1608 SHRA SCT011 FEW020CB",
    "WSSS": "TAF WSSS 151700Z 1518/1700 14008KT 9999 FEW015 SCT020",
    "WMKK": "TAF WMKK 151700Z 1518/1700 13005KT 9999 FEW030",
    "VTBS": "TAF VTBS 151700Z 1518/1624 22008KT 9999 FEW020 TEMPO 1610/1615 VRB15KT 4000 TSRA FEW018CB SCT020 BKN080",
    "VTBU": "TAF VTBU 151700Z 1518/1618 35004KT 9000 FEW020 SCT100 BECMG 1600/1602 24008KT",
    "ROAH": "TAF ROAH 151705Z 1518/1700 23010KT 9999 FEW006 BKN010 TEMPO 1518/1521 4000 BR FEW003 BKN005 TEMPO 1521/1600 FEW003 BKN005 TEMPO 1600/1603 FEW005 BKN008 TEMPO 1612/1615 FEW005 BKN008 TEMPO 1615/1700 FEW003 BKN005",
    "VVDN": "TAF VVDN 151700Z 1518/1618 24007KT 9999 FEW020 BECMG 1606/1607 01010KT BECMG 1611/1612 22007KT",
    "RCKH": "TAF RCKH 151700Z 1518/1624 18005KT 9999 FEW015 BKN032 TEMPO 1518/1522 06005KT TEMPO 1523/1605 20011KT 4000 SHRA FEW006 FEW010CB BKN018 TEMPO 1606/1611 21010KT TEMPO 1612/1618 09005KT 4000 RA FEW010 BKN020",
    "KLAX": "TAF KLAX 151730Z 1518/1624 26012KT P6SM SKC FM160300 26006KT P6SM SKC FM160900 11006KT P6SM SCT008 FM161800 24006KT P6SM FEW010 FM162000 26012KT P6SM SKC",
    "KONT": "TAF KONT 151720Z 1518/1624 VRB05KT P6SM SKC FM152000 25012G22KT P6SM FEW150 FM160500 VRB05KT P6SM FEW150 FM161900 25012G20KT P6SM FEW150",
    "KSFO": "TAF KSFO 151737Z 1518/1624 31015KT P6SM SKC FM152000 30022G30KT P6SM SKC FM160900 27015G25KT P6SM SKC FM161300 29015KT P6SM SKC FM162000 30020G28KT P6SM SKC",
    "KOAK": "TAF KOAK 151737Z 1518/1624 27008KT P6SM SKC FM152000 28016KT P6SM SKC FM160400 28009KT P6SM SKC FM161300 26007KT P6SM SCT009 FM162000 28016KT P6SM SKC",
    "KMHR": "TAF KMHR 151720Z 1518/1618 VRB05KT P6SM SKC FM152100 24008G15KT P6SM SKC FM160000 23011KT P6SM SKC FM160400 17006KT P6SM SKC",
    "KDFW": "TAF KDFW 151915Z 1519/1624 17008KT P6SM VCTS BKN050CB TEMPO 1519/1521 15020G35KT 3SM TSRA FM160100 18006KT P6SM BKN200 FM161400 16004KT P6SM BKN020 FM161600 18006KT P6SM OVC120",
    "KIAH": "TAF KIAH 151732Z 1518/1624 25006KT P6SM -RA VCTS SCT023CB BKN100 OVC110 TEMPO 1518/1522 4SM -TSRA BKN035CB FM152200 13007KT P6SM VCSH SCT035 BKN050 FM160200 VRB04KT P6SM OVC150 FM161400 17007KT P6SM SCT060 BKN150",
    "KORD": "TAF KORD 151722Z 1518/1624 27007KT P6SM FEW050 FEW250 FM152100 09007KT P6SM FEW050 FEW250 FM160200 VRB04KT P6SM SCT250 FM161200 06006KT 6SM FU SCT060 SCT250",
    "KJFK": "TAF KJFK 151957Z 1520/1624 28019G29KT 5SM FU BKN250 PROB30 1521/1523 3SM TSRA FU BKN050CB FM160000 32013KT 6SM FU BKN250 TEMPO 1600/1604 4SM FU FM160400 30007KT 6SM FU BKN250 FM161500 28012G20KT 5SM FU BKN250",
    "KRFD": "TAF KRFD 151731Z 1518/1618 26006KT P6SM FEW050 FEW250 FM160100 VRB04KT P6SM FEW250 FM161200 21006KT P6SM SCT060 SCT250",
    "KIND": "TAF KIND 151720Z 1518/1624 26005KT P6SM FEW050 SCT250 FM160100 VRB03KT P6SM FEW250 FM161300 27004KT P6SM FEW250",
    "KDTW": "TAF KDTW 151736Z 1518/1624 28008KT P6SM SCT250 FM152300 31006KT 6SM FU FEW060 BKN200 PROB30 1600/1603 4SM -TSRA BKN060CB BKN150 FM160300 05005KT 5SM FU BKN040 BKN200 FM160600 01004KT 3SM FU BKN030 BKN200 FM161600 33007KT 5SM FU BKN035 BKN200",
    "KMSP": "TAF KMSP 151736Z 1518/1624 29003KT P6SM FEW250 FM152200 VRB03KT 5SM FU SCT150 FM160500 14005KT 6SM FU FEW250",
    "CYEG": "TAF CYEG 151740Z 1518/1618 VRB03KT P6SM SCT015 SCT150 TEMPO 1518/1520 BKN015 BKN150 FM152000 18008KT P6SM SCT040 SCT240 FM152300 16008KT P6SM FEW040 SCT220 TEMPO 1523/1602 VRB15G25KT P6SM VCTS SCT030CB BKN100 FM160200 26008KT P6SM FEW030 SCT100 PROB30 1602/1606 VRB20G30KT 3SM TSRA OVC050CB FM160600 30006KT P6SM FEW020 FM160800 VRB03KT P6SM SCT008 TEMPO 1608/1616 BKN008 PROB30 1608/1616 1SM BR BKN003 FM161600 VRB03KT P6SM FEW012 RMK NXT FCST BY 152100Z",
    "EHAM": "TAF EHAM 151643Z 1518/1624 04015KT CAVOK BECMG 1520/1523 03008KT",
    "EBBR": "TAF EBBR 151720Z 1518/1624 04009KT CAVOK",
    "EDDF": "TAF EDDF 151700Z 1518/1624 04010KT CAVOK BECMG 1522/1524 03005KT BECMG 1613/1616 18006KT PROB30 TEMPO 1613/1620 21015G30KT TSRA SCT050CB",
    "EDFH": "TAF EDFH 151700Z 1518/1618 07006KT CAVOK BECMG 1611/1614 16005KT PROB40 TEMPO 1611/1618 19015G30KT TSRA SCT040CB PROB30 TEMPO 1613/1616 23030G40KT 2000 TSRAGR BKN020CB",
    "EDDL": "TAF EDDL 151700Z 1518/1624 05012KT CAVOK BECMG 1518/1521 03006KT BECMG 1600/1603 VRB03KT BECMG 1609/1612 36006KT",
    "EDDK": "TAF EDDK 151700Z 1518/1624 05008KT CAVOK BECMG 1520/1523 VRB03KT BECMG 1610/1613 05005KT BECMG 1618/1621 VRB03KT",
    "EBLG": "TAF EBLG 151720Z 1518/1624 04009KT CAVOK",
    "LSZH": "TAF AMD LSZH 151920Z 1519/1624 04004KT 9999 FEW050TCU TX31/1615Z TN17/1604Z PROB40 TEMPO 1520/1604 26010KT TSRA SCT050CB PROB30 TEMPO 1520/1522 26015G25KT 4500 BECMG 1604/1606 CAVOK BECMG 1611/1614 9999 FEW060 BECMG 1615/1617 SCT050TCU PROB40 1615/1618 06006KT TEMPO 1618/1621 25015G40KT 4500 TSRA SCT040CB BECMG 1621/1624 CAVOK",
    "LIMC": "TAF LIMC 151700Z 1518/1624 VRB06KT 9999 SCT050 TEMPO 1616/1619 TSRA BECMG 1617/1619 36010KT BECMG 1621/1623 VRB06KT",
    "LIRF": "TAF LIRF 151700Z 1518/1624 VRB05KT CAVOK TEMPO 1600/1606 3000 BCFG BECMG 1609/1611 28012KT BECMG 1618/1620 VRB05KT",
    "EINN": "TAF EINN 151700Z 1518/1618 12006KT CAVOK",
    "EGLL": "TAF EGLL 151653Z 1518/1624 09012KT 9999 FEW040 BECMG 1520/1523 03008KT TEMPO 1603/1608 BKN012 PROB30 TEMPO 1603/1607 BKN009 BECMG 1615/1618 09010KT",
    "EGSS": "TAF EGSS 151702Z 1518/1624 05009KT 9999 FEW045 TEMPO 1523/1607 BKN008",
    "EPWA": "TAF EPWA 151730Z 1518/1618 04008KT CAVOK",
    "UHPP": "TAF AMD UHPP 151810Z 1518/1624 16003G12MPS 9999 BKN022CB TEMPO 1518/1522 1000 BR VV003 TEMPO 1612/1621 1000 BR VV003",
    "EFHK": "TAF EFHK 151730Z 1518/1618 32006KT CAVOK BECMG 1609/1611 17010KT",
    "LBBG": "TAF LBBG 151700Z 1518/1618 VRB04KT 9999 SCT045 BECMG 1609/1611 12012KT PROB30 TEMPO 1611/1616 5000 TSRA FEW030CB BKN040",
    "LTAC": "TAF LTAC 151640Z 1518/1618 VRB02KT CAVOK BECMG 1607/1609 01012KT SCT040 BECMG 1616/1618 VRB02KT CAVOK",
    "UBBB": "TAF UBBB 151656Z 1518/1618 33022G32KT 9999 SCT015 TX29/1610Z TN23/1601Z TEMPO 1518/1606 34026G36KT FEW050CB BECMG 1608/1610 35018G28KT TEMPO 1612/1618 34014KT SCT020",
    "UTAA": "TAF UTAA 151645Z 1518/1618 09014KT 6000 SCT050 TX42/1609Z TEMPO 1520/1603 20012KT BECMG 1523/1601 33016KT TEMPO 1603/1606 29018G28KT 3000 DRDU",
    "UACC": "TAF UACC 151700Z 1518/1618 24004MPS 9999 SCT030 BKN100 TX30/1609Z TN20/1523Z TEMPO 1518/1602 18005MPS BKN030CB BECMG 1602/1604 21007MPS SCT030CB BKN050 TEMPO 1602/1614 24011G16MPS 3100 -TSRA BKN030CB BECMG 1614/1616 30003MPS SCT040 BKN100",
    "UAAA": "TAF UAAA 151701Z 1518/1618 17002MPS 9999 FEW050CB SCT100 TX38/1610Z TN20/1601Z TEMPO 1518/1524 23005MPS BECMG 1603/1604 34005MPS TEMPO 1605/1614 04005G10MPS BECMG 1614/1615 20005MPS",
    "UZTT": "TAF UZTT 151700Z 1518/1618 07010KT 7000 NSC TX41/1611Z TN25/1600Z TEMPO 1606/1616 32015KT",
    "ZWWW": "TAF ZWWW 151507Z 1518/1624 20004MPS CAVOK TX38/1609Z TN26/1523Z TN28/1623Z BECMG 1602/1603 36004MPS BECMG 1614/1615 18004MPS",
    "ZLXY": "TAF ZLXY 151509Z 1518/1618 06003MPS 6000 NSC TX33/1607Z TN25/1522Z TEMPO 1609/1611 33008G15MPS TSRA FEW030CB OVC050 BECMG 1610/1611 33008G15MPS TSRA FEW030CB OVC050 BECMG 1613/1614 26004MPS NSW NSC",
    "ZBAA": "TAF ZBAA 151501Z 1518/1624 18004MPS CAVOK TX33/1606Z TN24/1521Z TN23/1621Z",
    "ZBHH": "TAF ZBHH 151512Z 1518/1618 04004MPS 9999 FEW040 TX30/1608Z TN16/1522Z TEMPO 1609/1612 -TSRA FEW040CB FEW040",
    "ZSQD": "TAF ZSQD 151502Z 1518/1618 36003MPS 3500 BR BKN020 TX32/1606Z TN21/1520Z",
    "ZMCK": "TAF ZMCK 151645Z 1518/1624 VRB02MPS 9999 FEW030CB SCT033 TN14/1521Z TX23/1607Z PROB40 TEMPO 1519/1609 VRB08MPS 6000 TSRA SCT027CB SCT030 BECMG 1602/1604 32006MPS BECMG 1610/1612 VRB02MPS",
    "UUEE": "TAF UUEE 151650Z 1518/1618 32005MPS 9999 BKN020 TX21/1612Z TN14/1618Z TEMPO 1521/1605 1200 BR BKN005 TEMPO 1605/1617 35009G17MPS",
    "UUDD": "TAF UUDD 151652Z 1518/1624 33006MPS 9999 SCT016 TX21/1612Z TN12/1623Z TEMPO 1605/1618 36009G17MPS",
    "ULLI": "TAF ULLI 151653Z 1518/1618 32005G10MPS 6000 SCT016 BECMG 1523/1524 36003MPS BECMG 1606/1608 05003G08MPS",
    "USSS": "TAF USSS 151654Z 1518/1618 16003G10MPS 6000 -SHRA BKN016CB TEMPO 1518/1603 0300 -TSRAGR FG VV003 BECMG 1520/1523 22003G13MPS FM160300 28003G14MPS 9999 BKN020CB TEMPO 1603/1618 -TSRA",
    "UNNT": "TAF UNNT 151700Z 1518/1618 13003G08MPS 9999 SCT040 TX25/1611Z TN14/1523Z PROB40 TEMPO 1603/1615 -TSRA BKN030CB TEMPO 1615/1618 -TSRA BKN020CB",
    "UNKL": "TAF UNKL 151652Z 1518/1618 24003MPS 8000 SCT040 TEMPO 1518/1521 1000 BR TEMPO 1521/1601 0400 FG VV002",
    "UIBB": "TAF UIBB 151700Z 1518/1618 28003G08MPS 0300 FG BKN001 BKN016CB TEMPO 1518/1601 5000 BR FEW004 BKN016CB BECMG 1601/1603 9999 NSW BKN020CB TEMPO 1603/1612 VRB08MPS BECMG 1615/1617 20005MPS",
    "UEEE": "TAF COR UEEE 151700Z 1518/1624 04003G10MPS 9999 BKN020CB OVC100 TX26/1606Z TN17/1518Z TEMPO 1518/1523 VRB01MPS 0500 TSRA FG VV002 TEMPO 1523/1609 VRB16MPS 3200 -TSRA SCT011 BKN020CB OVC070",
    "UHHH": "TAF UHHH 151650Z 1518/1624 21003G10MPS 9999 SCT020CB TX26/1606Z TN19/1617Z TEMPO 1518/1609 3000 -TSRA FEW003 BKN016CB",
    "UHSS": "TAF UHSS 151647Z 1518/1624 23003MPS 6000 -SHRA BKN006 BKN016CB TEMPO 1518/1601 25005G12MPS 1400 SHRA BR BKN002 BKN012CB FM160600 19003MPS 9999 SCT040"
  },
  "atis": {
    "RJAA": "[Arrival ATIS] RJAA ARR ATIS J 0904Z M0900 (APCH)ILS Z RWY34R LDG RWY 34R DEP RWY 34L/34R DEP FREQ 124.2 FM RWY 34L, 119.6 FM RWY 34R. TWY A1 CLSD. SIMUL PARL DEPS INPR. CK INITIAL WPT ON FMS. OBSERVE GEAR DOWN OPS PROC ON FNL. M 220900Z 05013KT 020V090 35KM FEW010CU BKN025SC BKN/// 19/16 Q1003/A2962= Q/TWO NINE SIX TWO STP\n[Departure ATIS] RJAA DEP ATIS J 0902Z M0900 (APCH)ILS Z RWY34R LDG RWY 34R DEP RWY 34L/34R DEP FREQ 124.2 FM RWY 34L, 119.6 FM RWY 34R. TWY A1 CLSD. SIMUL PARL DEPS INPR. CK INITIAL WPT ON FMS. OBSERVE GEAR DOWN OPS PROC ON FNL. M 220900Z 05013KT 020V090 35KM FEW010CU BKN025SC BKN/// 19/16 Q1003/A2962= Q/TWO NINE SIX TWO STP",
    "PANC": "[Arrival ATIS] PANC ARR ATIS M 0853Z ANC ATIS INFO M 0853Z. 22006KT 10SM SCT110 BKN200 13/09 A3008 (THREE ZERO ZERO EIGHT) RMK AO2 SLP188 T01280089 401720100 53002. ILS RWY 15 APPROACHES IN USE. LANDING RWY 15, DEPARTING RWY 25L. NOTICE TO AIRMEN. RWY 25R CLSD. CHECK NOTAMS FOR TAXIWAY CLOSURES. CONTACT TOWER 118.3 FOR TAXI. ...ADVS YOU HAVE INFO M.\n[Departure ATIS] PANC DEP ATIS I 0353Z ANC ATIS INFO I 0353Z. 14016G33KT 10SM OVC055 14/08 A3007 (THREE ZERO ZERO SEVEN). ILS RWY 15 APPROACHES IN USE. LANDING RWY 15, DEPARTING RWY 25L. NOTICE TO AIRMEN. TWY Q",
    "KSEA": "[Arrival ATIS] KSEA ARR ATIS A 0753Z SEA ATIS INFO A 0753Z. 35006KT 10SM CLR 18/09 A3004 (THREE ZERO ZERO FOUR). ILS AND CHARTED VISUAL APPROACH RWYS 34C AND 34R , APCH IN USE. DEPG RWY 34R, DEPG ACFT PLAN AND BRIEF NUMBERS FOR BOTH RWYS 34R AND 34C. SIMUL ARRIVALS TO RWY 34L AND DEPARTURES TO RWY 34R ARE IN USE. SIMUL APCHS IN USE TO PARA RYS. NOTAMS... RY 34L CLSD. BIRD ACTIVITY VICINITY ARPT. APCH AND DEP PATHS ARE OVER NOISE SENSITIVE AREAS. ...ADVS YOU HAVE INFO A.\n[Departure ATIS] KSEA DEP ATIS A 1953Z SEA ATIS INFO A 1953Z. 27006KT 10SM FEW080 FEW130 SCT230 24/11 A3006 (THREE ZERO ZERO SIX). ILS AND CHARTED VISUAL APPROACH RWYS 34L AND 34R , APCH IN USE. DEPG RWY 34R. SIMUL ARRIVALS TO RWY 34L AND DEPARTURES TO RWY 34R ARE IN USE. SIMUL APCHS IN USE TO PARA RYS. NOTAMS... BIRD ACTIVITY VICINITY ARPT. ...ADVS YOU HAVE INFO A.",
    "ZSPD": "[Arrival ATIS] ZSPD ARR ATIS A 0830Z EXP ILS APCH INDEPENDENT PARL INSTR APCH LDG RWY 17R & 16L WIND RWY 17R TDZ 100/10MPS MID 100/10MPS END 090/10MPS RWY 16L TDZ 110/10MPS MID 100/9MPS END 100/10MPS VIS RWY 17R TDZ 6000M MID 4800M END 8000M VIS RWY 16L TDZ 10000M MID 9000M END 9000M FBL SHRA CLD BKN 150M T 23 /DP 23 QNH 1001 HPA CAUTION THE BIRDS NEAR THE RUNWAY RWY 17L/17R/16L/16R RWYCC 5/5/5 ISSUED AT 0300 WET/WET/WET DPT NR/NR/NR COV 100PCT/100PCT/100PCT ADZ YOU HAVE INFO A.\n[Departure ATIS] ZSPD DEP ATIS Z 0800Z DEP RWY 17L & 16R WIND RWY 17L TDZ 090/9MPS MID 090/11MPS END 090/11MPS RWY 16R TDZ 100/12MPS MID 100/10MPS END 100/11MPS VIS RWY 17L TDZ 10000M MID 10000M END 10000M VIS RWY 16R TDZ 10000M MID 10000M END 10000M FBL SHRA CLD BKN 150M T 23 /DP 23 QNH 1001 HPA CAUTION THE BIRDS NEAR THE RUNWAY RWY 17L/17R/16L/16R RWYCC 5/5/5 ISSUED AT 0300 WET/WET/WET DPT NR/NR/NR COV 100PCT/100PCT/100PCT ADZ YOU HAVE INFO Z.",
    "ZSSS": "[Arrival ATIS] ZSSS ARR ATIS S 0900Z EXP ILS APCH LDG RWY 36R WIND RWY 36R TDZ 290/4MPS MID 280/3MPS VRB BTN 210/ AND 320/ END VRB BTN 280/ AND 340/1MPS VIS RWY 36R TDZ 2400M MID 3000M END 4800M MOD SHRA CLD BKN 180M /SCT CB 900M /BKN 900M T 23 /DP 22 QNH 1002 HPA SUPPLEMENT INFO RETS RWY36L RWYCC 5/5/5 ISSUED AT 0640 WET/WET/WET DPT NR/NR/NR COV 100PCT/100PCT/100PCT RWY36R RWYCC 5/5/5 ISSUED AT 0640 WET/WET/WET DPT NR/NR/NR COV 100PCT/100PCT/100PCT QNH OF SHANGHAI TERMINAL CONTROL AREA 1001 HPA ADZ YOU HAVE INFO S.\n[Departure ATIS] ZSSS DEP ATIS S 0030Z DEP RWY 18R WIND RWY 18R TDZ 110/5MPS VRB BTN 060/ AND 130/ MID 100/5MPS END 120/4MPS VIS RWY 18R TDZ 10000M MID 10000M END 10000M CLD BKN 210M T 24 /DP 23 QNH 1004 HPA RWY18L RWYCC 5/5/5 ISSUED AT 2130 WET/WET/WET DPT NR/NR/NR COV 100PCT/100PCT/100PCT RWY18R RWYCC 5/5/5 ISSUED AT 2130 WET/WET/WET DPT NR/NR/NR COV 100PCT/100PCT/100PCT VISUAL APCH IN USE QNH OF SHANGHAI TERMINAL CONTROL AREA 1005 HPA ADZ YOU HAVE INFO S.",
    "VHHH": "[Arrival ATIS] VHHH ARR ATIS L 0804Z ARRIVALS, RWY 25R. EXP RNAV TRANSITION TO ILS APCH, RWY 25R. RNP APCH IS AVBL ON REQ, RWY 25R. RWY 25C CLSD. WIND 220/16KT. VIS 10KM. CLD FEW 2000FT. T32 DP25. QNH 1004HPA. ACK INFO L ON FIRST CTC WITH APP.\n[Departure ATIS] VHHH DEP ATIS Y 1506Z DEPARTURES, RWY 25L. RWY 25 RUNWAY CONDITION REPORT AT 0745Z. RWY 25L RUNWAY CONDITION CODES 5 , 5 , 5 . RWY SFC ALL PARTS WET. WIND 160/14KT. VIS 10KM. FBL SHRA. CLD FEW 8",
    "RCTP": "[Arrival ATIS] RCTP ARR ATIS C 0900Z EXP ILS APCH RWY23R FOR ARR. RWY23L FOR DEP. WIND 230/09KT VIS 10 KM OR MORE CLD FEW 2500FT T 32 DP 25 QNH 1004HPA NOSIG CTN BIRD ACTIVITY IN THE VCY OF THE AD. INFORM TAIPEI APCH OR TAIPEI TOWER ON INITIAL CONTACT YOU HAVE INFORMATION C\n[Departure ATIS] RCTP DEP ATIS U 0500Z EXP ILS APCH RWY23R FOR ARR. RWY23L FOR DEP. WIND 290/11KT VIS 10 KM OR MORE CLD FEW 2000FT T 33 DP 26 QNH 1005HPA NOSIG CTN BIRD ACTIVITY IN THE VCY OF THE AD. INFORM TAIPEI APCH OR TAIPEI TOWER ON INITIAL CONTACT YOU HAVE INFORMATION U",
    "ZGSZ": "[Arrival ATIS] ZGSZ ARR ATIS H 0900Z EXP ILS APCH 15 EXP ILS OR VIS APCH 16R WIND 170/8MPS CAVOK T 31 /DP 27 QNH 1003 HPA INDEPENDENT PARALLEL DEPARTURES DEPENDENT PARALLEL APPROACHES V17,V18 AVAILABLE AFTER SULAS FLY HEADING 040 MISSED APPROACH ALTITUDE SETTING 1200METERS WHEN AIRBORNE CONTACT ZHUHAI APPROACH EXPECTED RNP ILS DME Z APPROACH ADZ YOU HAVE INFO H.\n[Departure ATIS] ZGSZ DEP ATIS N 0100Z DEP RWY 15 & 16L WIND 200/5MPS VIS 9999M CLD SCT 900M T 30 /DP 26 QNH 1008 HPA INDEPENDENT PARALLEL DEPARTURES DEPENDENT PARALLEL APPROACHES V17,V18 AVAILABLE AFTER SULAS FLY HEADING 040 MISSED APPROACH ALTITUDE SETTING 1200METERS WHEN AIRBORNE CONTACT ZHUHAI APPROACH EXPECTED RNP ILS DME Z APPROACH ADZ YOU HAVE INFO N.",
    "WSSS": "[Arrival ATIS] WSSS ARR ATIS I 0900Z METREPORT 0900Z ILS APCHRWY 20R SIMUL INDEPENDENT ILS AND VISUAL APPROACHES ARE CONDUCTED ON RWY 20. RSCD RWY20R 0344Z RWYCC:5.5.5. WHOLE RWY 100% WET. TWY W 9 CLOSED, RWY 02C 20C RAPID EXIT TAXIWAY INDICATOR LIGHTS OFF WIND 240/ 04KT VRB BTN210 AND270 VIS 10KM FBL RA CLD FEW 1200FT T28 DP24 QNH 1009HPA NOSIG ACK ATIS I\n[Departure ATIS] WSSS DEP ATIS F 0700Z METREPORT 0700Z RWY 20C SIMUL INDEPENDENT ILS AND VISUAL APPROACHES ARE CONDUCTED ON RWY 20. RSCD RWY20C 0344Z RWYCC:5.5.5. WHOLE RWY 100% WET. TWY W 9 CLOSED, RWY 02C 20C RAPID EXIT TAXIWAY INDICATOR LIGHTS OFFRAIN OVER AIRFIELD, WIND 220/ 07KT VRB BTN190 AND290 VIS 10KM FBL RA CLD FEW 1200FT FEW TCU 1700FT T27 DP25 QNH 1011HPA RERA NOSIG DEP,INITIAL CMB 3000FT ACK ATIS F",
    "WMKK": "[Arrival ATIS] WMKK ARR ATIS I 0704Z WMKK ARR INFO I. TIME 0700. INDEPENDENT PARALLEL APPROACHES FOR RWY 32 R AND 33 ARE IN PROGRESS. EXP RNAV / ILS APCH FOR RWY 32 RIGHT. EXP RNAV / ILS APCH FOR RWY 33. WIND RWY 32R DIRECTION NOT AVBL SPEED NOT AVBL. WIND RWY 32L DIRECTION NOT AVBL SPEED NOT AVBL. WIND RWY 33 DIRECTION NOT AVBL SPEED NOT AVBL. VIS RWY 32R TDZ NOT AVBL. VIS RWY 33 TDZ NOT AVBL. CLD SCT 1800 FT. T 33. DP 24. QNH 1009. NOSIG. AT FIRST CONTACT WITH LUMPUR RADAR, NOTIFY RCPT OF I\n[Departure ATIS] WMKK DEP ATIS Q 0734Z WMKK DEP INFO Q. TIME 0730. INDEPENDENT PARALLEL DEPARTURES FOR RWY 32 L AND 33 ARE IN PROGRESS. RWY 32 LEFT. RWY 33. WIND RWY 32L DIRECTION NOT AVBL SPEED NOT AVBL. WIND RWY 33 DIRECTION NOT AVBL SPEED NOT AVBL. VIS RWY 32L TDZ NOT AVBL. VIS RWY 33 TDZ NOT AVBL. CLD SCT 1800 FT. T 33. DP 23. QNH 1008. NOSIG. ALL DEP ACFT TO CONTACT LUMPUR DEP AT 135 DECIMAL 25 MHZ WHEN ABN. AT FIRST CONTACT WITH LUMPUR GROUND, NOTIFY RCPT OF Q",
    "VTBS": "[Arrival ATIS] VTBS ARR ATIS D 0830Z VTBS ARR ATIS D 0831Z SIMULTANEOUS INDEPENDENT PARL APCH IN PROGRESS EXP ILS Z APCH ARR RWY 19 OR RNP APCH RWY 20R , ,PILOT SHALL ADZ BKK APCH ON INITIAL CTC IF UNA TO CONDUCT RNP APCH DUE TO OPERATIONAL CONSTRAINT 0830Z WIND 320/11KT VIS 10KM CLD FEW 2000FT T34 DP21 QNH 1007HPA TREND NOSIG ADZ BKK APCH ON INITIAL CONTACT THAT YOU HAVE INFO D\n[Departure ATIS] VTBS DEP ATIS M 0830Z VTBS DEP ATIS M 0842Z SIMULTANEOUS INDEPENDENT PARL DEP IN PROGRESS DEP RWY 20L OR DEP RWY 19 , ,AFT AIRBORNE ALL DEPARTING ACFT SHALL CTC 119.25 0830Z WIND 300/6KT VRB BTN 220/ AND 360/ VIS 10KM CLD FEW 2000FT T34 DP21 QNH 1007HPA TREND NOSIG ADZ GND WHEN INITIAL CONTACT YOU HAVE INFO M",
    "VTBU": "[Arrival ATIS] VTBU ARR ATIS U 0430Z VTBU ARR ATIS U 0430Z RNP RWY 18 TRL FL130 MOBILE ACFT ARST SYSTEM INSTL ATP SIX HUNDRED AND TEN METERS FM THR RWY 36 CABLE HGT 3 INCHES. 0430Z WIND 360/6KT VRB BTN 320/ AND 020/ VIS 10KM CLD FEW 2000FT T34 DP27 QNH 1010HPA TREND NOSIG ADZ CONTROLLER WHEN INITIAL CONTACT YOU HAVE INFO U\n[Departure ATIS] VTBU DEP ATIS D VTBU ARR/DEP DATIS RPT VTBU ARR ATIS D 0330Z ILS \"Z\" APCH RWY 18 TRL FL130 0330Z WIND 110/4KT VRB BTN 350/ AND 120/ VIS 6KM CLD FEW 2000FT T31 DP27 QNH 1014HPA TREND NOSIG ADZ CONTROLLER WHEN INITIAL CONTACT YOU HAVE INFO D",
    "ROAH": "[Arrival ATIS] ROAH ARR ATIS D 0807Z M0800 (APCH)RNP RWY18R LDG RWY 18R DEP RWY 18L DEP FREQ 126.5 258.3 M 220800Z 24006KT 50KM FEW015CU 30/26 Q1006/A2972= Q/TWO NINE SEVEN TWO STP\n[Departure ATIS] ROAH DEP ATIS X 0517Z M0500 (APCH)RNP RWY18R LDG RWY 18R DEP RWY 18L DEP FREQ 126.5 258.3 M 220500Z 23007KT 50KM FEW015CU 30/26 Q1007/A2975= Q/TWO NINE SEVEN FIVE STP",
    "VVDN": "[Arrival ATIS] VVDN ARR ATIS R 0732Z VVDN INFO R 0732Z. ILS VICTOR APPROACH 35L.. DPTG RWY 35R.. 0732Z. WIND 070/07KT CAVOK T35 DP25 QNH 1004HPA TREND NOSIG. ADZ ON INITIAL CTC YOU HAVE INFO. R.\n[Departure ATIS] VVDN DEP ATIS N 0423Z VVDN INFO N 0423Z. ILS VICTOR APPROACH 35L.. DPTG RWY 35R.. 0423Z. WIND 010/02KT CAVOK T36 DP24 QNH 1008HPA TREND NOSIG. WS ALL RWY. ADZ ON INITIAL CTC YOU HAVE INFO. N.",
    "RCKH": "[Arrival ATIS] RCKH ARR ATIS J 0700Z EXPECT ILS APPROACH RWY 27 ARR/DEP TAXIWAY JULIETT, TAXIWAY BRAVO, TAXIWAY DELTA AND TAXIWAY ECHO CLOSED DUE MAINTENANCE.RUNWAY 2 7 ARRIVALS PLAN VACATE VIA CHARLIE OR ALPHA AND EXPEDITE VACATE. WIND 270/10KT VARYING BTN 240 AND 320 VIS 10 KM OR MORE CLD FEW 2200FT T 31 DP 24 QNH 1005HPA NOSIG CAUTION BIRD ACTIVITY IN VICINITY OF THE AERODROME. INFORM KAO-HSIUN APCH OR KAO-HSIUN TOWER ON INITIAL CONTACT YOU HAVE INFORMATION J\n[Departure ATIS] RCKH DEP ATIS M 1300Z EXPECT ILS APPROACH RWY 09 ARR/DEP RWY SFC RWY 09 SFC COND 5/5/5 ISSUED AT 2227Z. 100/100/100 NR/NR/NR WET/WET/WET TAXIWAY JULIETT, TAXIWAY BRAVO, TAXIWAY DELTA AND TAX",
    "KLAX": "[Arrival ATIS] KLAX ARR ATIS U 1853Z - KLAX ATIS INFO U 1853Z. 24008KT 10SM FEW011 FEW025 26/18 A2987 (TWO NINER EIGHT SEVEN) RMK AO2 SLP111 T02610183. SIMUL INST APCHS AND RNAV RNP RWYS 24R AND 25L APCHS, OR VCTR FOR VISUAL APCH WILL BE PROVIDED, SIMUL VISUAL APCHS TO ALL RWYS ARE IN PROG, AND SIMUL APCHS IN PROG BTWN LAX AND HHR, SIMUL INSTR DEPARTURES IN PROG RWYS 24 AND 25. CTC L A GC ON 121.75 FOR PUSH OR TAXI ON A. TWY B CLSD BTN TWY, C10 AND TWY C7 , , TWY B6 CLSD, TWY B7 CLSD, TWY C CLSD BTN TWY, C1 AND TWY C3, TWY C1 CLSD, TWY C9 CLSD BTN TWY, B AND TWY C, TWY C8 CLSD BTN TWY, B AND TWY C. PAPI OTS 24R, SEAL BEACH VOR OTS. LAX VOR UNMONITORED. HAZD WX INFO FOR LAX AREA AVBL FM FSS. USE CAUTION FOR HANG GLIDING 1 MILE SOUTH LOS ANGELES VOR. BIRD ACTIVITY VICINITY ARPT. INCLUDE YOUR CALL SIGN IN ALL READBACKS. USE CAUTION WHEN EXITING RY24R AT TWY V, W, AND Y, TO HOLD SHORT OF RY24L. MULTIPLE RUNWAY INCURSIONS HAVE OCCURRED. ...ADVS YOU HAVE INFO U.\n[Departure ATIS] KLAX DEP ATIS U 0653Z LAX ATIS INFO U 0653Z. 23008KT 10SM FEW015 17/14 A2990 (TWO NINER NINER ZERO) RMK AO2 SLP124 T01670144. INST APCHS AND RNAV RNP APCHS RY 24R AND 25L, OR VCTR FOR VISUAL APCH WILL BE PROVIDED, SIMUL VISUAL APCHS TO ALL RWYS ARE IN PROG, SIMUL INSTR DEPARTURES IN PROG RWYS 24 AND 25. CTC L A GC ON 121.75 FOR PUSH OR TAXI ON A. TWY C CLSD BTN TWY, C8 AND TWY C9 , , TWY B CLSD BTN TWY, F AND TWY B1, TWY B1 CLSD. ILS RY 25R OTS, RY 25R SFL OTS, RY 24L ALSF-2 OTS. UNAUTHORIZED UAS ACTIVITY IN VICINITY OF AIRPORT. LAX VOR UNMONITORED. IF ASSIGNED RUNWAY 25R FOR DEPARTURE, EXPECT DEPARTURE FROM INTERSECTION FOXTROT. TAXILANE CHARLIE EIGHT RESTRICTED TO AIRCRAFT WITH A WINGSPAN LESS THAN ONE HUNDRED EIGHTEEN FEET. USE CAUTION FOR INCREASED DRONE ACTIVIY IN THE VICINITY OF SOFI STADIUM AT OR BELOW 200FT AGL DURING THE WORLD CUP FROM 06/12/26 THROUGH 07/10/2026. HAZD WX INFO FOR LAX AREA AVBL FM FSS. BIRD ACTIVITY VICINITY ARPT. TWR FREQ FOR ALL RWYS IS 120.95. CD AND GC FREQ IS 121.75. INCLUDE YOUR CALL SIGN IN ALL READBACKS. USE CAUTION WHEN EXITING RY24R AT TWY V, W, AND Y, TO HOLD SHORT OF RY24L. MULTIPLE RUNWAY INCURSIONS HAVE OCCURRED. ...ADVS YOU HAVE INFO U.",
    "KONT": "[Arrival ATIS] KONT ARR ATIS S 1953Z ONT ATIS INFO S 1953Z. 23006G15KT 10SM FEW120 34/16 A2995 (TWO NINER NINER FIVE). ILS AND VIS APR IN USE, RY26L & RY26R. LNDG AND DEPG RY 26L AND RY 26R. NOTAMS... TAXIWAY SIERRA FIVE CLOSED. TAXIWAY SIERRA CLOSED BETWEEN TAXIWAY SIERRA 8 AND TAXIWAY WHISKEY. RY 26L IM OTS, RY 26R ALS OTS. USE CAUTION FOR NUMEROUS BIRDS OBSERVED IN VICINITY OF ONT. HAZD WX INFO FOR SOUTHERN CA AVBL ON FSS FREQUENCIES. PILOTS READBACK RWY ASSIGNMENTS AND HOLD SHORT INSTRUCTIONS. ...ADVS YOU HAVE INFO S.\n[Departure ATIS] KONT DEP ATIS N 0553Z - KONT ATIS INFO N 0553Z. 24004KT 10SM BKN250 22/15 A2988 (TWO NINER EIGHT EIGHT) RMK AO2 SLP100. ILS AND VIS APR IN USE, RY26L & RY26R. LNDG AND DEPG RY 26L AND RY 26R. NOTAMS... TAXIWAY SIERRA CLSD BETWEEN SIERRA 8 AND W TAXIWAY Q SOUTH OF RWY 26L CLSD TAXIWAY T CLSD TAXIWAY SIERRA 5 CLSD. RY 26L IM OTS, RY 26R ALS OTS. USE CAUTION FOR NUMEROUS BIRDS OBSERVED IN VICINITY OF ONT. HAZD WX INFO FOR SOUTHERN CA AVBL ON FSS FREQUENCIES. PILOTS READBACK RWY ASSIGNMENTS AND HOLD SHORT INSTRUCTIONS. ...ADVS YOU HAVE INFO N.",
    "KSFO": "[Arrival ATIS] KSFO ARR ATIS W 1856Z SFO ATIS INFO W 1856Z. 31017KT 10SM CLR 21/12 A2996 (TWO NINER NINER SIX). SIMUL CLSLY SPCD DPNDNT ILS RY 28R AND ILS RY 28L APP IN USE. DEPG RWYS 28L, 28R. DEPG ACFT SHOULD BE PREPARED FOR A SHORT NOTICE RY CHANGE. RY 1L, 1R CLSD. NUMEROUS TWY CLOSURES FOR CONSTRUCTION ON THE FIELD, PILOTS CHECK NOTAMS. MULTIPLE CRANES VCY OF SFO CHECK NOTAMS. DEPG ACFT WAITING ON FINAL NUMBERS ADVISE GROUND PRIOR TO ENTERING TWY F. ...ADVS YOU HAVE INFO W.\n[Departure ATIS] KSFO DEP ATIS T 1456Z SFO ATIS INFO T 1456Z. 00000KT 10SM SCT140 BKN200 18/13 A2991 (TWO NINER NINER ONE) RMK AO2 SLP128 T01780133 53008. SIMUL CLSLY SPCD DPNDNT ILS RY 28R AND ILS RY 28L APP IN USE. DEPG RWYS 28L, 28R. RY 1L, 1R CLSD. NUMEROUS TWY CLOSURES FOR CONSTRUCTION ON THE FIELD, PILOTS CHECK NOTAMS. DEPG ACFT WAITING ON FINAL NUMBERS ADVISE GROUND PRIOR TO ENTERING TWY F. ...ADVS YOU HAVE INFO T.",
    "KOAK": "[Arrival ATIS] KOAK ARR ATIS T 2053Z - KOAK ATIS INFO T 2053Z. 25015KT 10SM FEW008 20/13 A2994 (TWO NINER NINER FOUR). RNAV, AND VA, RWY 30. ILS, AND VA, RWY 28R. FLOW TO LAX, LAS, SAN, SEA. RWY 28L CLSD. TAXIWAYS GOLF, HOTEL, PAPA, JULIET BETWEEN RUNWAYS 28 RIGHT AND 28 LEFT CLOSED. ILS RWY 30, OTS, RWY 28R RAIL, OTS. UNN LIT CLOSE-IN OBSTACLES FOR RWY 30 DEPARTURES. RWY 30 DEPARTURES ARE ADVISED TO AVOID TURNING LEFT PRIOR TO DEPARTURE END OF RUNWAY. CTN, CRANE 1 POINT 6 NAUTICAL MILES, , AT 140 FEET AGL. CAUTION, BIRDS NEAR AIRPORT. ...ADVS YOU HAVE INFO T.\n[Departure ATIS] KOAK DEP ATIS O 1953Z OAK ATIS INFO O 1953Z. 28014KT 10SM FEW005 22/14 A2988 (TWO NINER EIGHT EIGHT). RNAV Z/VA RWY 30 ILS/VA RWY 28R. FLOW TO LAX, LAS, SAN. ILS RWY 30, OTS. UNN LIT CLOSE-IN OBSTACLES FOR RWY 30 DEPARTURES. RWY 30 DEPARTURES ARE ADVISED TO AVOID TURNING LEFT PRIOR TO DEPARTURE END OF RUNWAY. SIGNATURE UNI-COM OUT OF SERVICE. CAUTION, BIRDS NEAR AIRPORT. ...ADVS YOU HAVE INFO O.",
    "KDFW": "[Arrival ATIS] KDFW ARR ATIS K 1853Z DFW ARR INFO K 1853Z. VRB04KT 10SM SCT050 SCT060 BKN080 BKN160 BKN250 32/19 A3006 (THREE ZERO ZERO SIX). SIMUL APCH IN USE. EXPECT ILS TO RWYS, 13R, 18R, 17C, 17L. LDG RWY 17C EXP LAHSO TWY B 10460 FT AVAIL, LDG RWY 18R EXP LAHSO TWY B 10100 FT AVL. NOTICE TO AIRMEN. BIRD ACTIVITY VCNTY ARPT. ...ADVS YOU HAVE INFO K.\n[Departure ATIS] KDFW DEP ATIS F 1453Z DFW DEP INFO F 1453Z. 11005KT 10SM SCT020 BKN030 BKN055 BKN250 27/22 A3008 (THREE ZERO ZERO EIGHT) RMK AO2 SLP178 T02720217 51013. SIMUL PARL TRAFFIC DEPG RWYS 17R, 18L. NOTICE TO AIRMEN. WARNING, RWY 18L HAS BEEN SHORTENED, 9273 FT AVAILABLE. HAZD WX FOR DFW AVBL ON FSS. BIRD ACTIVITY VCNTY ARPT. ...ADVS YOU HAVE INFO F.",
    "KIAH": "[Arrival ATIS] KIAH ARR ATIS Z 1853Z IAH ATIS INFO Z 1853Z. 05010KT 10SM FEW045 SCT095 OVC150 27/22 A3007 (THREE ZERO ZERO SEVEN). ARRIVALS EXPECT ILS OR RNAV Y RY 8R, ILS OR RNAV Y RY 8L. SIMUL APPROACHES IN USE. DEPG RY 15L, RY 15R. NOTICE TO AIRMEN. UNITED RAMP CONTROL IN EFFECT. CODED DEPARTURE ROUTES IN EFFECT. HAZD WX INFO FOR IAH AREA AVBL FM FSS. BIRD ACTIVITY VICINITY ARPT. CRANES ARE DOWN. TWY SA CLSD BTN TWY, SF AND TWY SK , TWY SB CLSD BTN TWY, SF AND TWY SK , , TWY EA CLSD. NOTAM ATIS IN USE ON FREQUENCY 126.225. ...ADVS YOU HAVE INFO Z.\n[Departure ATIS] KIAH DEP ATIS T 0353Z IAH ATIS INFO T 0353Z. 15007KT 10SM FEW035 FEW180 BKN250 27/23 A2996 (TWO NINER NINER SIX). ARRIVALS EXPECT ILS OR RNAV Y RY 8R, ILS OR RNAV Y RY 8L. DEPG RY 15R. NOTICE TO AIRMEN. UNITED RAMP CONTROL IN EFFECT. RY 15L, 33R CLSD. HAZD WX INFO FOR IAH AREA AVBL FM FSS. BIRD ACTIVITY VICINITY ARPT. CRANES ARE DOWN. TWY SA CLSD BTN TWY, SF AND TWY SK , TWY SB CLSD BTN TWY, SF AND TWY SK , , TWY WB CLSD BTN TWY, WG AND TWY WH . TWY EA CLSD. NOTAM ATIS IN USE ON FREQUENCY 126.225. ...ADVS YOU HAVE INFO T.",
    "KORD": "[Arrival ATIS] KORD ARR ATIS F 1851Z ORD ATIS INFO F 1851Z. 22005KT 10SM FEW050 SCT300 33/21 A3006 (THREE ZERO ZERO SIX) RMK AO2 SLP172 T03330211. ARR EXP VECTORS ILS RWY 27C APCH, VISUAL APCH RWY 27R, VISUAL APCH RWY 28C. SIMUL APCHS IN USE. LAND AND HOLD SHORT OPERATIONS ARE IN EFFECT. RWY 27C ARR PLAN TO H/S OF TWY V V, 9 THSD 7 HND 25 FT AVBL, RWY 28C ARR PLAN TO H/S OF TWY Z, 9 THSD 6 HND TEN FT AVBL. DEPS EXP RWYS 22L 28R FROM NOVEMBER 5 9750 FT AVL. RWY 4L, 22R CLSD. RWY 22R LOC OTS, RWY 28L GS OTS, RWY 9L IM OTS, RWY 9C IM OTS, RWY 10L IM OTS, RWY 10R IM OTS, RWY 27R IM OTS, RWY 28L IM OTS, RWY 28R IM OTS, RWY 9L PAPI OTS, RWY 27R PAPI OTS. PILOTS USE CTN FOR BIRD ACTIVITY IN THE VICINITY OF THE ARPT. USE CTN FOR PERSONNEL AND EQUIP AT NUMEROUS SITES ON THE FIELD. AUTHORIZED DRONE ACTIVITY, OVER TERMINAL, , 100 FEET. READBACK ALL RWY HOLD SHORT INSTRUCTIONS. WHEN READY TO TAXI CONTACT GND METERING ON FREQ 121.67. ...ADVS YOU HAVE INFO F.\n[Departure ATIS] KORD DEP ATIS U 2051Z ORD ATIS INFO U 2051Z. 21004KT 10SM FEW060 FEW300 36/19 A3011 (THREE ZERO ONE ONE) RMK AO2 SLP189 T03560194 58014. ARR EXP VECTORS ILS RWY 27C APCH, VISUAL APCH RWY 27R, VI",
    "KJFK": "[Arrival ATIS] KJFK ARR ATIS G 1851Z JFK ATIS INFO G 1851Z. 28020G30KT 10SM SCT250 BKN300 35/20 A2980 (TWO NINER EIGHT ZERO) RMK AO2 PK WND 27030/1847 SLP089 FU BKN300 T03500200. APPROACH IN USE ILS RY 22L, ILS RY 22R. DEPG RY 22R, ACFT FILED OVER RBV OR DIXIE EXPECT RY 31L KE FOR DEP. CRI OTS. RY 4R PAPI OTS, RY 13L SFL OTS, JFK RADAR OTS, RWY 22L/4R INNER MARKER OTS. LOW LEVEL WIND SHEAR ADZYS IN EFFECT. NUM CRANES OPERATING AT JFK. BIRD ACTIVITY VICINITY ARPT. READBACK ALL RWY ASSIGNMENTS AND HOLD SHORT INSTRUCTIONS. ...ADVS YOU HAVE INFO G.\n[Departure ATIS] KJFK DEP ATIS Y 1251Z - KJFK ATIS INFO Y 1251Z. 25016KT 10SM SCT250 28/22 A2988 (TWO NINER EIGHT EIGHT) RMK AO2 SLP117 T02780217. APPROACH IN USE ILS RY 22L, ILS RY 22R. DEPG RY 22R. RWY 13L, 31R CLSD. RY 4R PAPI OTS, RY 13L SFL OTS, RWY 22L/4R INNER MARKER OTS. NUM CRANES OPERATING AT JFK. BIRD ACTIVITY VICINITY ARPT. READBACK ALL RWY ASSIGNMENTS AND HOLD SHORT INSTRUCTIONS. ...ADVS YOU HAVE INFO Y.",
    "KIND": "[Arrival ATIS] KIND ARR ATIS K 0754Z IND ATIS INFO K 0754Z. 02003KT 10SM CLR 22/17 A3017 (THREE ZERO ONE SEVEN). PARL ILS RWY 23R AND 23L APPROACHES IN USE. CROSS RUNWAY OPERATIONS MAY BE IN EFFECT. PARL APCHS IN USE. NOTICE TO AIRMEN. TWY, P BTN TWY, H AND TWY B CLSD, TWY, P BTN TWY, H AND TWY J CLSD, TWY, H BTN TWY, R AND TWY N CLSD. P PAD CLSD. ILS RUNWAY 5R AND RUNWAY 5L INNER MARKER UNSERVICEABLE. ARPT ADZY FLOCK OF SMALL BIRDS IN THE VICINITY OF THE AIRPORT, ALT UNKN. ...ADVS YOU HAVE INFO K.\n[Departure ATIS] KIND DEP ATIS H 1854Z IND ATIS INFO H 1854Z. 26009G19KT 10SM SCT036 BKN041 BKN170 23/16 A2981 (TWO NINER EIGHT ONE) RMK AO2 SLP088 T02280156. PARL ILS RWY 23R AND 23L APPROACHES IN USE. CROSS RU",
    "KDTW": "[Arrival ATIS] KDTW ARR ATIS E 1853Z - KDTW ARR INFO E 1853Z. 26008KT 10SM FEW055 BKN200 34/23 A3001 (THREE ZERO ZERO ONE). SIMUL VISUAL RY 21L, RY 22R USE Z LOC FREQ 111.95 APCH IN USE. NOTICE TO AIRMEN. RWY 21R, 3L CLSD, RWY 27L, 9R CLSD, RWY 27R, 9L CLSD. TWYS Y1, Y3, Y4 CLSD ;. PILOTS USE CTN FOR BIRD ACTIVITY. DEPARTURE ATIS 118.125. ...ADVS YOU HAVE INFO E.\n[Departure ATIS] KDTW DEP ATIS Q 2253Z - KDTW DEP INFO Q 2253Z. 21009KT 10SM FEW050 FEW250 33/24 A2991 (TWO NINER NINER ONE). DEPG RWY 21R, RWY 22L ;. NOTICE TO AIRMEN. RWY 27L, 9R CLSD, RWY 27R, 9L CLSD. PILOTS USE CTN FOR BIRD ACTIVITY. ...ADVS YOU HAVE INFO Q.",
    "KMSP": "[Arrival ATIS] KMSP ARR ATIS F 1753Z MSP ARR INFO F 1753Z. VRB03KT 10SM FEW042 BKN250 33/21 A3011 (THREE ZERO ONE ONE) RMK AO2 SLP189 T03280211 10333 20244 58009. SIMULTANEOUS DEPENDENT, ILS RWY 30L APCH IN USE, ILS RWY 30R APCH IN USE. LAHSO, ACFT LNDG RWY 30L EXP TO HLDSHRT TWY A9 FOR CRSSGTFC, 8 THSD 1 HND FIFTY FT AVBL. NOTICE TO AIRMEN. RWYS 4, 22 CLSD. TWY R7. R8. R9. R10. CLOSED. TWY R BTWN R6 AND R10 CLSD, USE CAUTION, NUMEROUS TAXIWAY CLOSURES, TWY A7 CLSD, TWY A CLSD BTN TWY, A7 AND TWY D. GS RWY 12L OTS, RWYS 12R, 12L, INNER MARKER OTS. HAZD WX INFO FOR MSP AREA AVBL FM FSS. CTN, BIRDS NEAR MSP. READ BACK HS AND ALT. ALL ACFT TAXI WITH TRANSPONDER AND ALTITUDE ENCODING ON. ...ADVS YOU HAVE INFO F.\n[Departure ATIS] KMSP DEP ATIS T 1853Z - KMSP DEP INFO T 1853Z. 24006KT 10SM SCT040 BKN250 34/21 A3010 (THREE ZERO ONE ZERO) RMK AO2 SLP185 T03390206. DEPARTING RWY 30L, RWY 30R, RWY 17. NOTICE TO AIRMEN. RWYS 4, 22 CLSD. TWY R7. R8. R9. R10. CLOSED. TWY R BTWN R6 AND R10 CLSD, USE CAUTION, NUMEROUS TAXIWAY CLOSURES, TWY A7 CLSD, TWY A CLSD BTN TWY, A7 AND TWY D. ALL ACFT CTC METERING ON ONE THREE THREE POINT FIVE SEVEN WHEN READY TO PUSHBACK OR TAXI. HAZD WX INFO FOR MSP AREA AVBL FM FSS. CTN, BIRDS NEAR MSP. READ BACK HS AND ALT. ALL ACFT TAXI WITH TRANSPONDER AND ALTITUDE ENCODING ON. ...ADVS YOU HAVE INFO T.",
    "CYEG": "[Arrival ATIS] CYEG ARR ATIS W 1900Z VRB03KT 20SM CIG BKN022 BKN150 BKN250 23/18 A3008 SIGMET E2 IN EFFECT. APCH RNAV Z OR Y RWY 20, INFORM ARRL OF REQ APCH ON INITIAL CTC. LDG AND DEP RWY 20. SIMUL APPROACHES MAY BE IN EFCT. INFORM CYEG ATC INFO W\n[Departure ATIS] CYEG DEP ATIS W 1900Z CYEG ARR ATIS W 1900Z VRB03KT 20SM CIG BKN022 BKN150 BKN250 23/18 A3008 SIGMET E2 IN EFFECT. APCH RNAV Z OR Y RWY 20, INFORM ARRL OF REQ APCH ON INITIAL CTC. LDG AND DEP RWY 20. SIMUL APPROACHES MAY BE IN EFCT. INFORM CYEG ATC INFO W",
    "EHAM": "[Arrival ATIS] EHAM ARR ATIS K 0852Z EHAM ARRIVAL INFO K. DEMAND. MAIN LANDING RWY 06. SECONDARY LANDING RWY 36 R. TRANSITION LEVEL 040. WIND 040 DEG, 10 KT, VRB BTN 010 AND 070 DEG. WIND SECONDARY RUNWAY 040 DEG, 10 KT, VRB BTN 010 AND 070 DEG. VIS 10 KM OR MORE. CLD FEW 3500 FT. T 21. DP 15. QNH 1027 HPA. NOSIG. OPERATIONAL REPORT. CONVERGING APPROACHES IN PROGRESS. CONTACT APCH WITH CALLSIGN ONLY. END OF INFO K\n[Departure ATIS] EHAM DEP ATIS S 0852Z EHAM DEPARTURE INFO S. DEMAND. MAIN DEPARTURE RWY 36 L. MAIN LANDING RWY 06. WIND 050 DEG, 13 KT, 15 KT MAX, 6 KT MNM. VIS 10 KM OR MORE. CLD FEW 3500 FT. T 21. DP 15. QNH 1027 HPA. OPERATIONAL REPORT. INFORM SCHIPHOL DEL BY VOICE IF UNABLE TO COMPLY WITH NADP 2. END OF INFO S",
    "EBBR": "[Arrival ATIS] EBBR ARR ATIS G 1820Z EBBR NAT, EXP VECT FOR ILS APP ARR RWY01 RSCD AT 1545 RWY01 DRY. DEP RWY07R RWY07L TRL 055 XNG RWY OPS INPR 030/11KT CAVOK T27 DP8 QNH 1019HPA NOSIG CFM ARR G\n[Departure ATIS] EBBR DEP ATIS L 0850Z EBBR NAT, DEP RWY07R RSCD AT 0524 RWY07R DRY. ARR RWY01 TRL 055 TWY OUT 6 B3 CLSD. XNG RWY OPS INPR 040/5KT VRB BTN 020 AND 080 CAVOK T24 DP20 QNH 1026HPA NOSIG CFM DEP L",
    "EDDF": "[Arrival ATIS] EDDF ARR ATIS W 1850Z -ARR-ATIS EDDF W METAR 151850 -EXPECT INDEPENDENT PARALLEL ILS Y APCH RWY 07L OR ILS APCH RWY 07R -RWY 07L 07R - -TRL 60 - -05013KT -CAVOK - - -T28 DP12 -QNH1017 - -TREND NOSIG\n[Departure ATIS] EDDF DEP ATIS Z 1920Z DEP-ATIS EDDF Z METAR 151920 RWY 07C 18 ACFT DEPARTING RWY18 : EXPECT POSSIBLE DEPARTURE FROM INTERSECTION M , TORA 3454 METERS. IF UNABLE , ADVISE TWR ON INITIAL CONTACT , TRL 60 06011KT RWY18 07007KT CAVOK T27 DP11 QNH1017 TREND NOSIG",
    "EDDL": "[Arrival ATIS] EDDL ARR ATIS E 1850Z -ATIS EDDL E METAR 151850 -EXPECT VECTORS ILS APPROACH RWY05L -RWY 05R 05L -ATTENTION, RISK OF TWY INCURSION WHEN TAXIING TO RWY05R, CHECK HOT SPOTS T1 AND L9 ON TAXI CHART -TRL 60 -EXPECT INTENSE BIRD ACTIVITY IN THE VICINITY OF RWY SYSTEM -04010KT -CAVOK - - -T27 DP09 -QNH1019 - -TREND NOSIG\n[Departure ATIS] EDDL DEP ATIS R EDDL ARR/DEP DATIS RPT -ATIS EDDL R METAR 020550 -EXPECT VECTORS ILS APPROACH -RWY 23L -TWY L8 CLOSED BETWEEN TWY M AND RWY 23L -TRL 60 - -23010KT -CAVOK - - -T19 DP13 -QNH1020 - -TREND NOSIG",
    "EDDK": "[Arrival ATIS] EDDK ATIS U 1920Z -ATIS EDDK U METAR 151920 -EXPECT ILS OR RNP APCH -RWY 13L 06 -RWY COND RWY 13L AT TIME 1845 RWYCC 6 DEPOSIT TOTAL RWY DRY RWY 06 AT TIME 1845 RWYCC 6 DEPOSIT TOTAL RWY DRY TOWER FREQUENCY UFN 120, 505 -TRL 60 -RWY 13R AND RWY 31L CLOSED FOR DEPARTURE AND LANDING: TAXIING BTN THR RWY 13R AND INTERSECTION RWY 24 POSSIBLE : -04007KT -CAVOK - - -T26 DP12 -QNH1019 - -TREND NOSIG\n[Departure ATIS] EDDK DEP ATIS E 2050Z -ATIS EDDK E METAR 142050 -EXPECT CDO FOR ILS APCH RWY 31R -RWY 31R 06 -RWY COND RWY 31R AT TIME 1837 RWYCC 6 DEPOSIT TOTAL RWY DRY RWY 06 AT TIME 1837 RWYCC 6 DEPOSIT TOTAL RWY DRY -TRL 60 -RWY 13R AND RWY 31L CLOSED FOR DEPARTURE AND LANDING: TAXIING BTN THR RWY 13R AND INTERSECTION RWY 24 POSSIBLE : -02006KT 350V050 -CAVOK - - -T23 DP14 -QNH1018 - -TREND NOSIG",
    "EBLG": "[Arrival ATIS] EBLG ATIS I 0744Z EBLG INFO, EXP RNAV TO ILS APP ARR RWY04R DEP RWY04R RWY 04R DRY, RWYCC 666. TRL 055 TWY A4 CLSD 020/6KT CAVOK T24 DP20 QNH 1026HPA NOSIG CFM ATIS I",
    "LSZH": "[Arrival ATIS] LSZH ARR ATIS M 1920Z ARRIVALS, EXP RNP APCH, RWY 28. RWY COND REPORT. RWY COND CODE 6, 6, 6. COVERAGE NR, NR, NR. DEPTH NR, NR, NR. DRY AND DRY AND DRY. RWY REPORT END. TRL 70. DEP RWY 32. WIND 030 DEG, 4 KT, VRB BTN 020 AND 100 DEG. CAVOK. T 20. DP 17. QNH 1019. FRQ TSGR, TOP FL 400. WS, WIND AT 3800 FT QNH 100 DEG 12 KT, WIND AT 4600 FT QNH 330 DEG 7 KT. TREND TEMPO MOD TSRA.\n[Departure ATIS] LSZH DEP ATIS S 1920Z DEP RWY 32. RWY COND REPORT. RWY 32. RWY COND CODE 6, 6, 6. COVERAGE NR, NR, NR. DEPTH NR, NR, NR. DRY AND DRY AND DRY. RWY 34. RWY COND CODE 6, 6, 6. COVERAGE NR, NR, NR. DEPTH NR, NR, NR. DRY AND DRY AND DRY. RWY REPORT END. TRL 70. ARRIVALS, EXP RNP APCH, RWY 28. TMA S 1 IS ACT. TMA S 2 AND S 3 ARE ACT. WIND VRB, 3 KT. CAVOK. T 20. DP 17. QNH 1019. FREQUENT TS WITH HAIL, TOP FLT LEVEL 400. WS, WIND AT 3800 FT QNH 100 DEG 12 KT, WIND AT 4600 FT QNH 330 DEG 7 KT. TREND TEMPO MOD TSRA.",
    "LIMC": "[Arrival ATIS] LIMC ARR ATIS B 1920Z LIMC ARR B 1920Z I.L.S. ZULU RWY IN USE 35L TL 70 WIND TDZ 360/4KT CAVOK T24 DP19 QNH 1017HPA QFE 0991HPA\n[Departure ATIS] LIMC DEP ATIS I 1521Z LIMC DEP I 1521Z RWY IN USE 35R TL 70 BIRDS CONCENTRATION ON RWY STRIP WIND END 040/10KT VRB BTN 360/AND 060/ CAVOK T27 DP17 QNH 1017HPA QFE 0991HPA DATALINK CLEARANCE AVAILABLE.... CONTACT 1 3 1 8 8 0 TO BE RELEASED BY THE AIRPORT OPERATOR ...",
    "LIRF": "[Arrival ATIS] LIRF ARR ATIS D 1908Z LIRF ARR D 1908Z RWY 16L ILS W RWY 16R ILS Z RWY IN USE 16L 16R TL 70 DEPENDENT PARL ILS APCH INPR RWY IN USE 16R OR 16L ASSIGNED BY ROME RADAR WIND RWY 16L TDZ VRB2KT VRB BTN 200/AND 260/ RWY 16R TDZ 200/3KT CAVOK T29 DP24 QNH 1016HPA RRSM\n[Departure ATIS] LIRF DEP ATIS H 0550Z LIRF DEP H 0550Z RWY IN USE 25 TL 70 RWYS IN USE FOR ARR 16L AND 16R WIND END 140/6KT CAVOK T27 DP19 QNH 1016HPA REA IS SENT AUTOMATICALLY ONCE RLSD BY RAMP WHEN READY CONTACT FIUME RAMP 121.725 RRSM",
    "EINN": "[Arrival ATIS] EINN ARR ATIS M 0830Z EXPECT I L S CATEGORY 1 LDG RWY06 TKOF RWY06 TRL FL060 VRB02KT CAVOK 16/13 QNH Q1025 TREND NOSIG ADVISE AT FIRST CONTACT YOU HAVE ATIS INFO M",
    "EGLL": "[Arrival ATIS] EGLL ARR ATIS C 1920Z LANDING RWY 09L TRANSITION-LEVEL: FL 70 RUNWAY 09L REDUCED DECLARED DISTANCES IF STAND GUIDANCE IS OFF OR FAILS, REMAIN ON THE TAXIWAY CENTRELINE AND ADVISE ATC AUTO 10012KT 9999 NCD 24/13 Q1022 ACKNOWLEDGE RECEIPT OF INFORMATION C\n[Departure ATIS] EGLL DEP ATIS K 1650Z DEPARTURE RWY 09R PILOTS THAT ARE IN RECEIPT OF DATALINK CLEARANCES ARE REMINDED THEY MUST CONTACT DELIVERY ON 121.980 WHEN READY FOR START DATALINK CLEARANCES NOT AVAILABLE FOR CPT DEPARTURES AUTO 11013KT 9999 NCD 28/13 Q1021 ACKNOWLEDGE RECEIPT OF INFORMATION K AND REPORT AIRCRAFT TYPE AND CURRENT QNH ON FIRST CONTACT WITH HEATHROW",
    "EPWA": "[Arrival ATIS] EPWA ARR ATIS C 1231Z EPWA ARR C. TIME 1231. EXP N ARR ILS Z APCH FOR RWY 11. RWY 11 RCC 5, 5, 5. 1ST PART, WET. 2ND PART, WET. 3RD PART, WET. RWY REPORT END. TRANSITION LEVEL 80. WIND 070 DEG, 3 KT, VRB BTN 030 AND 180 DEG. VIS TDZ 10 KM OR MORE. CLD SCT CB 3300 FT, CLD SCT 3600 FT. T 18. DP 15. QNH 1016. RETSRA. TREND BECMG WIND 320 DEG, 10 KT. CAUTION. BIRD ACT. END OF EPWA ARR C\n[Departure ATIS] EPWA DEP ATIS X 1801Z EPWA DEP X. TIME 1800. DEP RWY 29. ARR RWY 33, EXP U ARR ILS Z. REPORT READY FOR STARTUP ON DELIVERY 121 DECIMAL 605. TRANSITION LEVEL 80. WIND 020 DEG, 7 KT, VRB BTN 350 AND 060 DEG. CAVOK. T 26. DP 14. QNH 1019. NOSIG. CAUTION. BIRD ACT. END OF EPWA DEP X",
    "EFHK": "[Arrival ATIS] EFHK ARR ATIS A 0850Z EXPECT ILS APCH ARR RWY 04L RUNWAY 04L CONDITION REPORT AT 0751 UTC RUNWAY CONDITION CODES 6 , 6 , 6 C ONTAMINANTS ALL PARTS DRY TRL 60 WIND 330 DEG 6 KT VRB BTN 260 AND 010 DEG VIS 10KM FEW 4800 FT T 21 DP 9 QNH 1020 NOSIG ACK INFO A\n[Departure ATIS] EFHK DEP ATIS S 1720Z DEP RWY 04R RUNWAY 04R CONDITION REPORT AT 1617 UTC RUNWAY CONDITION CODES 6 , 6 , 6 CONTAMINANTS ALL PARTS DRY WIND 310 DEG 7 KT CAVOK T 25 DP 15 QNH 1018 NOSIG ACK INFO S",
    "LTAC": "[Arrival ATIS] LTAC ARR ATIS W 1820Z EXP ILS V APCH 03C DEP RWY 03L RWY 03C WIND 050 DEG 13 KT RWY 03L WIND 040 DEG 09 KT TRL 110 CAVOK T 23 DP 09 QNH 1017 NOSIG FOR DELIVERY CTC 121.9. FOR DELIVERY FIRST USE DIGITAL DEP CLR. CTN BIRD HAZARD OVR AERODROME. APCH FREQUENCY 129.050. END OF ATIS W",
    "UBBB": "[Arrival ATIS] UBBB ARR ATIS S 1901Z ATIS S EXP ILS/ LDG 34 35 DEP 34 35 IN USE RWY 34 CLEAR DRY 70 RWY 35 CLEAR DRY 70 TLVL 110 WIND WIND RWY 34 320 20 KT SPD MAX 30 MIN 14 WIND RWY 35 320 18 KT SPD MAX 28 MIN 14 VIS CAVOK T 26 / DP 21 QNH 1009 HPA TREND TREND NOSIG MODERATE BIRDS ACT IN VICINITY OF AP END OF ATIS S\n[Departure ATIS] UBBB DEP ATIS N 1809Z ATIS N EXP ILS/ LDG 34 35 DEP 34 35 IN USE RWY 34 CLEAR DRY 70 RWY 35 CLEAR DRY 70 TLVL 110 WIND WIND RWY 34 330 22 KT SPD MAX 30 MIN 16 WIND RWY 35 330 22 KT SPD MAX 30 MIN 18 VIS CAVOK T 26 / DP 21 QNH 1008 HPA TREND TREND NOSIG MODERATE BIRDS ACT IN VICINITY OF AP END OF ATIS N",
    "ZWWW": "[Arrival ATIS] ZWWW ARR ATIS X 0830Z EXP ILSDME Z APCH LDG RWY 26R TA 3000 WIND 290/3MPS CAVOK T 29 /DP 09 QNH 1007 HPA ADZ YOU HAVE INFO X.\n[Departure ATIS] ZWWW DEP ATIS H 0230Z DEP RWY 26L TA 3000 WIND VRB/1MPS CAVOK T 28 /DP 07 QNH 1008 HPA BIRDS ACTIVITY IN THE VICINITY OF THE AERODROME ADZ YOU HAVE INFO H.",
    "ZLXY": "[Arrival ATIS] ZLXY ARR ATIS A 0800Z EXP ILS APCH LDG RWY 05L & 06R WIND 010/1MPS VIS 9999M CLD SCT 900M T 26 /DP 18 QNH 1007 HPA VISUAL APPROACH IN PROGRESS ADZ YOU HAVE INFO A.\n[Departure ATIS] ZLXY DEP ATIS Z 1100Z DEP RWY 05L & 06L WIND 040/3MPS VRB BTN 010/ AND 070/ VIS 4500M -RA BR CLD SCT 240M /SCT 600M /OVC 1200M T 19 /DP 18 QNH 1011 HPA RUNWAY 05L SURFACE CONDITION CODE 555 RUNWAY 06L SURFACE CONDITION CODE 555 RUNWAY 06R SURFACE CONDITION CODE 555 ADZ YOU HAVE INFO Z.",
    "ZBAA": "[Arrival ATIS] ZBAA ARR ATIS V 0900Z EXP ILS APCH DEPENDENT PARL INSTR APCH LDG RWY 18R & 18L & 19 WIND 180 DEG 7G12 MPS CAVOK T 31 /DP 15 QNH 1003 HPA VISUAL APPROACH IS IN PROGRESS. ADZ YOU HAVE INFO V.\n[Departure ATIS] ZBAA DEP ATIS O 0530Z DEP RWY 18R & 18L & 19 WIND 210 DEG 6 MPS 150V250 DEG CAVOK T 30 /DP 16 QNH 1005 HPA RWY INDEPENDENT PARALLEL DEP VISUAL APPROACH IS IN PROGRESS. ADZ YOU HAVE INFO O.",
    "ZBHH": "[Arrival ATIS] ZBHH ARR ATIS J 0715Z EXP ILSDME APCH LDG RWY 08 TA 3000 /TRL 3600 WIND 180/5MPS MAX10 VRB BTN 150/ AND 210/ VIS 9999M TS CLD FEW 1200M /SCT CB 1200M T 26 /DP 13 QNH 1005 HPA BETWEEN 0400 AND 1200 UTC, TURBULENCE MAY OCCUR IN LOCAL FIELD. BETWEEN 0600 AND 1000 UTC, WINDSHEAR MAY OCCUR IN LOCAL FIELD. ADZ YOU HAVE INFO J.\n[Departure ATIS] ZBHH DEP ATIS Q 1500Z DEP RWY 08 TA 3000 /TRL 3600 WIND 140/2MPS VIS 5000M BR NSC T 19 /DP 19 QNH 1007 HPA ADZ YOU HAVE INFO Q.",
    "ZSQD": "[Arrival ATIS] ZSQD ARR ATIS Q 0800Z EXP ILSDME APCH LDG RWY 17 TA 3000 /TRL 3600 WIND 170/6MPS CAVOK T 27 /DP 19 QNH 1007 HPA SEGREGATED OPERATION VISUAL APPROACH OPERATION IN PROGRESS. RUNWAY 17,IF MISSED APPROACH,EXPECT FOLLOW THE STANDARD MISSED APPROACH PROCEDURE,CLIMB TO 900M ON QNH OR BY ATC CAUTION MAYBE THERE IS A FLOCK OF BIRDS IN THE VICINITY OF AIRPORT ADZ YOU HAVE INFO Q.\n[Departure ATIS] ZSQD DEP ATIS Y 2112Z DEP RWY 16 TA 3000 /TRL 3600 WIND 140/2MPS VIS 4000M BR CLD FEW 450M T 22 /DP 21 QNH 1009 HPA VISUAL APPROACH OPERATION IN PROGRESS. WHEN READY CONTACT QINGDAO TOWER ON 118.7 RUNWAY 16,IF MISSED APPROACH,EXPECT FOLLOW THE STANDARD MISSED APPROACH PROCEDURE,CLIMB TO 600M ON QNH OR BY ATC CAUTION MAYBE THERE IS A FLOCK OF BIRDS IN THE VICINITY OF AIRPORT ADZ YOU HAVE INFO Y."
  },
  "windtemp_alaska": "\n000\nFBAK31 KWNO 151358\nFD1AK1\nDATA BASED ON 151200Z    \nVALID 151800Z   FOR USE 1400-2100Z. TEMPS NEG ABV 24000\n\nFT  3000    6000    9000   12000   18000   24000  30000  34000  39000\nADK 2815 2732+08 2741+03 2744-01 2650-13 2663-24 266439 266848 266757\nADQ 2822 2823+01 2726-04 2632-08 2658-20 2583-29 750540 750348 266046\nAKN 2721 2723-01 2723-06 2829-10 2833-22 2748-34 266143 265543 254443\nANC 2113 2116+00 2016-05 1915-11 2017-25 1914-35 222241 233239 233040\nANN 3207 9900+09 3206+06 3411+01 3312-13 3415-24 341940 321549 311457\nBET 2620 2717-02 2617-05 2618-10 2414-22 1811-35 201047 252144 252342\nBRW 9900 2205+00 2005-06 2306-11 2112-22 2222-33 223947 212349 171342\nBTI 0714 0607+04 0905-03 1206-09 2010-19 2019-30 213245 213253 201945\nBTT 0605 1006+01 0806-03 9900-08 9900-20 9900-32 131948 131652 181342\nCDB 1909 2213+00 2318-02 2527-04 2550-15 2567-26 268441 268651 267054\nCZF 2606 2805-03 2507-06 2508-12 2108-23 1612-35 142147 190844 241142\nEHM 2720 2722-02 2622-05 2625-10 2626-21 2633-34 254545 264944 264143\nFAI 2316 2411+02 2211-03 2212-08 2012-20 1511-32 081749 151345 191641\nFYU 0505 0610+03 0809-02 1008-07 1509-19 1715-31 142748 142850 181942\nGAL 1609 1614+02 1413-03 1213-08 1109-20 1108-33 990049 090550 191042\nGKN 1621 1930+02 2025-04 2016-10 2025-22 2228-33 223545 233842 223140\nHOM 2525 2524-01 2626-07 2626-11 2627-26 2538-34 255638 255340 243642\nJNU 1711 2321+06 2419+01 2425+00 2527-11 2534-23 253640 263450 263360\nLUR 0708 1410-01 1708-06 2006-11 2213-23 2222-34 223348 221746 990041\nMCG 1909 2213+00 2108-05 2105-09 1306-20 0910-32 071049 990046 231441\nMDO 2319 2218+01 2320-02 2327-09 2351-18 2474-29 740341 740148 245346\nOME 0209 0106+00 0106-06 9900-10 1715-21 1515-33 141547 161151 990043\nORT      2419+04 2419-02 2216-09 2131-21 2232-33 224145 223643 223142\nOTZ 3606 0506+00 0506-04 9900-09 2014-20 1815-32 180948 201052 200642\nSNP 2307 2607-02 2608-06 2611-09 2619-21 2531-33 247144 256346 254244\nTKA 1922 2015+00 2018-06 1917-11 1811-23 1211-34 140746 221841 222340\nUNK 9900 9900+01 9900-04 0906-08 1212-20 1312-33 110848 090650 230842\nYAK 1814 2112+03 2223+00 2334-04 2351-14 2462-24 246640 247150 245754\nIKO 2320 2328+04 2342+04 2448-01 2446-13 2551-24 266239 266848 266658\nAFM 1206 1506+02 1509-03 1611-08 1808-20 1608-33 171048 151052 181043\n5AB 3615 3221+04 3133+01 3050-02 2957-14 2961-24 296939 307248 306354\n5AC 3518 3517+08 3517+06 3515+01 3516-12 3518-24 351740 351549 331158\n5AD 2821 2727+08 2729+06 2627+01 2631-11 2533-23 253840 253950 253460\n5AE 2813 2620+02 2630+00 2642-03 2655-14 2661-24 256640 256749 266358\n5AF 2313 2318+08 2519+05 2620+01 2622-11 2624-23 262440 262250 271960\n5AG 2517 2519+04 2427+02 2436-03 2449-13 2551-24 245940 246150 245958\n",
  "vaac_tokyo": [
    {
      "id": "20260715_27303000_0750",
      "year": "2026",
      "volcano": "Mayon",
      "psn": "N1315 E12341",
      "issued": "20260715",
      "text": "FVFE01 RJTD 151801\nVA ADVISORY\nDTG: 20260715/1801Z\nVAAC: TOKYO\nVOLCANO: MAYON 273030\nPSN: N1315 E12341\nAREA: PHILIPPINES\nSOURCE ELEV: 2462M AMSL\nADVISORY NR: 2026/750\nINFO SOURCE: HIMAWARI-9 PHIVOLCS\nERUPTION DETAILS: ERUPTION AT 20260715/1731Z FL110 EXTD SSW REPORTED\nOBS VA DTG: 15/1750Z\nOBS VA CLD: VA NOT IDENTIFIABLE FM SATELLITE DATA WIND FL110 320/2KT\nFCST VA CLD +6 HR: NOT AVBL\nFCST VA CLD +12 HR: NOT AVBL\nFCST VA CLD +18 HR: NOT AVBL\nRMK: WE WILL ISSUE FURTHER ADVISORY IF VA IS DETECTED IN SATELLITE \nIMAGERY.\nNXT ADVISORY: NO FURTHER ADVISORIES=",
      "img_url": "https://ds.data.jma.go.jp/svd/vaac/data/VAGFN/2026/Images/20260715_27303000_0750_QH21_01.png",
      "sat_img_url": null,
      "text_url": "https://ds.data.jma.go.jp/svd/vaac/data/TextData/2026/20260715_27303000_0750_Text.html"
    },
    {
      "id": "20260714_30027000_0263",
      "year": "2026",
      "volcano": "Sheveluch",
      "psn": "N5639 E16122",
      "issued": "20260714",
      "text": "FVFE01 RJTD 141200\nVA ADVISORY\nDTG: 20260714/1200Z\nVAAC: TOKYO\nVOLCANO: SHEVELUCH 300270\nPSN: N5639 E16122\nAREA: RUSSIA\nSOURCE ELEV: 3283M AMSL\nADVISORY NR: 2026/263\nINFO SOURCE: HIMAWARI-9\nERUPTION DETAILS: VA CONTINUOUSLY OBS IN SATELLITE IMAGERY\nOBS VA DTG: 14/1120Z\nOBS VA CLD: SFC/FL390 N5359 E16539 - N5422 E16550 - N5414 E16656 - \nN5349 E16654 MOV SE 40KT\nFCST VA CLD +6 HR: 14/1720Z SFC/FL400 N5233 E17412 - N5141 E17210 - \nN5144 E17002 - N5224 E17116\nFCST VA CLD +12 HR: 14/2320Z SFC/FL400 N5147 W17910 - N5115 W17906 - \nN5025 E17725 - N5008 E17317 - N5113 E17652\nFCST VA CLD +18 HR: 15/0520Z SFC/FL400 N5217 W17056 - N5119 W17200 - \nN4942 W17651 - N4907 E17606 - N5056 W17716\nRMK: THE RESPONSIBILITY FOR THIS ASH EVENT IS BEING TRANSFERRED TO \nVAAC ANCHORAGE. THE NEXT ADVISORY WILL BE ISSUED BY VAAC ANCHORAGE \nBY 1800UTC UNDER HEADER FVAK21 PAWU. SOME PART OF VA OBSCURED BY MET \nCLOUD.\nNXT ADVISORY: NO FURTHER ADVISORIES=",
      "img_url": "https://ds.data.jma.go.jp/svd/vaac/data/VAGFN/2026/Images/20260714_30027000_0263_QH21_01.png",
      "sat_img_url": "https://ds.data.jma.go.jp/svd/vaac/data/Sat/2026/Images/30027000/09-ir/20260714_1120_202607141200_ir.png",
      "text_url": "https://ds.data.jma.go.jp/svd/vaac/data/TextData/2026/20260714_30027000_0263_Text.html"
    },
    {
      "id": "20260713_28208001_0083",
      "year": "2026",
      "volcano": null,
      "psn": "N3136 E13039",
      "issued": "20260713",
      "text": "FVFE01 RJTD 130254\nVA ADVISORY\nDTG: 20260713/0254Z\nVAAC: TOKYO\nVOLCANO: SAKURAJIMA (AIRA CALDERA) 282080\nPSN: N3136 E13039\nAREA: JAPAN\nSOURCE ELEV: 1117M AMSL\nADVISORY NR: 2026/83\nINFO SOURCE: JMA HIMAWARI-9\nERUPTION DETAILS: ERUPTED AT 20260713/0152Z FL100 EXTD N\nOBS VA DTG: 13/0230Z\nOBS VA CLD: SFC/FL100 N3136 E13039 - N3142 E13040 - N3141 E13044 - \nN3134 E13042 MOV NE 15KT\nFCST VA CLD +6 HR: 13/0830Z SFC/FL100 N3234 E13121 - N3145 E13155 - \nN3202 E13110 - N3227 E13051\nFCST VA CLD +12 HR: 13/1430Z SFC/FL100 N3318 E13206 - N3142 E13317 - \nN3134 E13226 - N3312 E13118\nFCST VA CLD +18 HR: NO VA EXP\nRMK: NIL\nNXT ADVISORY: 20260713/0600Z=",
      "img_url": "https://ds.data.jma.go.jp/svd/vaac/data/VAGFN/2026/Images/20260713_28208001_0083_QH21_01.png",
      "sat_img_url": "https://ds.data.jma.go.jp/svd/vaac/data/Sat/2026/Images/28208001/09-ir/20260713_0230_202607130254_ir.png",
      "text_url": "https://ds.data.jma.go.jp/svd/vaac/data/TextData/2026/20260713_28208001_0083_Text.html"
    },
    {
      "id": "20260712_27307000_0012",
      "year": "2026",
      "volcano": "Taal",
      "psn": "N1400 E12100",
      "issued": "20260712",
      "text": "FVFE01 RJTD 121243\nVA ADVISORY\nDTG: 20260712/1243Z\nVAAC: TOKYO\nVOLCANO: TAAL 273070\nPSN: N1400 E12100\nAREA: PHILIPPINES\nSOURCE ELEV: 311M AMSL\nADVISORY NR: 2026/12\nINFO SOURCE: HIMAWARI-9 PHIVOLCS\nERUPTION DETAILS: ERUPTION AT 20260712/1227Z FL050 EXTD NE REPORTED\nOBS VA DTG: 12/1230Z\nOBS VA CLD: VA NOT IDENTIFIABLE FM SATELLITE DATA WIND FL050 230/19KT\nFCST VA CLD +6 HR: NOT AVBL\nFCST VA CLD +12 HR: NOT AVBL\nFCST VA CLD +18 HR: NOT AVBL\nRMK: WE WILL ISSUE FURTHER ADVISORY IF VA IS DETECTED IN SATELLITE \nIMAGERY.\nNXT ADVISORY: NO FURTHER ADVISORIES=",
      "img_url": "https://ds.data.jma.go.jp/svd/vaac/data/VAGFN/2026/Images/20260712_27307000_0012_QH21_01.png",
      "sat_img_url": null,
      "text_url": "https://ds.data.jma.go.jp/svd/vaac/data/TextData/2026/20260712_27307000_0012_Text.html"
    }
  ],
  "vaac_alaska": [
    {
      "text": "\n000\nFVAK21 PAWU 151258\nVAAAK1\nVA ADVISORY\n\nDTG: 20260715/1254Z\n\nVAAC: ANCHORAGE\n\nVOLCANO: SHEVELUCH 300270\n\nPSN: N5639 E16122\n\nAREA: KAMCHATKA PENINSULA\n\nSOURCE ELEV: 10771 FT AMSL\n\nADVISORY NR: 2026/201\n\nINFO SOURCE: HIMAWARI\n\nERUPTION DETAILS: VA NOT IDENTIFIABLE FM SATELLITE DATA.\n\nOBS VA DTG: 15/1254Z\n\nOBS VA CLD: VA NOT IDENTIFIABLE FM SATELLITE DATA.\n\nFCST VA CLD +6HR: NOT AVBL\n\nFCST VA CLD +12HR: NOT AVBL\n\nFCST VA CLD +18HR: NOT AVBL\n\nRMK: A NEW ADVISORY WILL BE ISSUED IF VA IS DETECTED IN SATELLITE IMAGERY....SC\n\nNXT ADVISORY: NO FURTHER ADVISORIES=\n\n",
      "issued": "2026-07-15T12:58:00+00:00",
      "volcano": "Sheveluch",
      "psn": "N5639 E16122"
    }
  ]
}