{
  "updated_utc": "2026-07-19T09:24Z",
  "metar": {
    "RJAA": "METAR RJAA 190730Z 15011KT 9999 FEW025 SCT/// 31/25 Q1006 NOSIG",
    "PANC": "METAR PANC 190753Z VRB04KT 10SM -RA SCT050 OVC065 12/07 A3009 RMK AO2 SLP189 P0000 T01220067",
    "PAFA": "METAR PAFA 190753Z 00000KT 10SM FEW060 FEW090 SCT220 12/09 A2998 RMK AO2 SLP157 T01220094 $",
    "PAED": "METAR PAED 190757Z 00000KT 10SM -RA FEW037 OVC070 12/08 A3006 RMK AO2A SLP176 P0001 T01220077 $",
    "KSEA": "METAR KSEA 190753Z 03008KT 10SM CLR 17/12 A3013 RMK AO2 SLP206 T01670117 402390133 $",
    "ZSPD": "METAR ZSPD 190730Z 08005MPS 050V110 CAVOK 30/26 Q1001 NOSIG",
    "ZSSS": "METAR ZSSS 190730Z 08007MPS 1000 R36R/1300D R36L/1400D +TSRA SCT010 SCT030CB 26/25 Q1001 BECMG TL0750 3000 TSRA",
    "RJFR": "METAR RJFR 190800Z 08011KT 9999 FEW015 30/27 Q1004",
    "VHHH": "METAR VHHH 190730Z 08005KT 020V120 9999 FEW010 SCT025 30/26 Q1003 NOSIG",
    "RCTP": "METAR RCTP 190730Z 22012KT 9999 FEW020 34/25 Q1003 NOSIG RMK A2964",
    "ZGSZ": "METAR ZGSZ 190800Z 18004MPS 9999 SCT050 30/27 Q1003 NOSIG",
    "WSSS": "METAR WSSS 190730Z VRB04KT 9999 FEW020CB FEW022TCU BKN300 32/24 Q1009 NOSIG",
    "WMKK": "METAR WMKK 190730Z VRB03KT 9999 FEW018 29/26 Q1008 NOSIG",
    "WIDD": "METAR WIDD 190730Z 11006KT 9999 SCT014 32/25 Q1010 NOSIG",
    "VTBS": "METAR VTBS 190730Z 22009KT 180V250 9999 FEW020 34/21 Q1007 NOSIG",
    "VTBU": "METAR VTBU 190730Z 25009KT 220V290 9000 FEW020 33/26 Q1008 NOSIG",
    "ROAH": "METAR ROAH 190730Z 23008KT 9999 FEW025 BKN030 30/27 Q1006",
    "VVDN": "METAR VVDN 190730Z 01008KT 340V050 9999 FEW020 SCT080 38/22 Q1003 NOSIG",
    "RCKH": "METAR RCKH 190730Z 23008KT 200V280 9999 -RA FEW014 BKN040 BKN080 29/25 Q1006 NOSIG RMK 22009KT/R09 A2973",
    "KLAX": "METAR KLAX 190753Z VRB04KT 10SM BKN010 21/18 A2999 RMK AO2 SLP152 T02060183 402560206 $",
    "KONT": "METAR KONT 190753Z 26006KT 10SM CLR 22/17 A2999 RMK AO2 SLP137 T02220172 403560206 $",
    "KSFO": "METAR KSFO 190756Z 30006KT 10SM FEW004 SCT009 13/12 A3001 RMK AO2 SLP163 T01330117 402220133 $",
    "KOAK": "METAR KOAK 190753Z 28006KT 10SM FEW003 BKN008 14/12 A3002 RMK AO2 SLP163 T01440122 402110144 $",
    "KMHR": "METAR KMHR 190735Z AUTO 18006KT 10SM CLR 18/11 A2993 RMK AO2 T01760114 $",
    "KDFW": "METAR KDFW 190753Z 18011KT 10SM FEW250 28/21 A2998 RMK AO2 SLP140 T02830211 $",
    "KIAH": "METAR KIAH 190753Z 19003KT 10SM FEW016 FEW250 27/25 A3002 RMK AO2 SLP163 T02670250 $",
    "KORD": "METAR KORD 190751Z 03009KT 6SM FU SCT019 21/17 A3001 RMK AO2 SLP156 T02060167 $",
    "KJFK": "METAR KJFK 190751Z 28009KT 10SM FEW050 BKN170 BKN250 24/21 A2967 RMK AO2 SLP047 T02440211 $",
    "KRFD": "METAR KRFD 190754Z 04005KT 3SM FU BKN032 19/16 A3003 RMK AO2 SLP163 T01940161 $",
    "KIND": "METAR KIND 190754Z 35005KT 9SM SCT060 SCT250 22/20 A2994 RMK AO2 SLP131 T02220200 $",
    "KDTW": "METAR KDTW 190753Z 01006KT 8SM FEW030 FEW250 18/14 A2997 RMK AO2 SLP142 T01830139 $",
    "KMSP": "METAR KMSP 190753Z 14004KT 8SM CLR 22/17 A3005 RMK AO2 SLP168 T02220167",
    "CYEG": "METAR CYEG 190800Z 27012KT 20SM FEW230 14/12 A2979 RMK CI1 PRESRR SLP084 DENSITY ALT 3000FT",
    "EHAM": "METAR EHAM 190725Z 35011KT 320V020 9999 FEW033 17/10 Q1019 NOSIG",
    "EBBR": "METAR EBBR 190750Z 33009KT 9999 BKN028 17/10 Q1021 NOSIG",
    "EDDF": "METAR EDDF 190750Z AUTO 34009KT 300V020 9999 FEW035 19/10 Q1018 NOSIG",
    "EDFH": "METAR EDFH 190750Z 29008KT 250V330 9999 FEW016 SCT021 13/09 Q1020",
    "EDDL": "METAR EDDL 190750Z AUTO 31011KT 280V340 9999 SCT032 BKN049 18/10 Q1019 NOSIG",
    "EDDK": "METAR EDDK 190750Z AUTO 29012KT 260V360 9999 SCT034 BKN045 17/09 Q1019 NOSIG",
    "EBLG": "METAR EBLG 190750Z 33006KT 300V020 9999 SCT024 17/10 Q1020 NOSIG",
    "LSZH": "METAR LSZH 190750Z VRB02KT 9999 -SHRA FEW045TCU BKN075 18/14 Q1019 TEMPO SHRA",
    "LIMC": "METAR LIMC 190750Z 10006KT 070V130 CAVOK 25/16 Q1014 NOSIG",
    "LIRF": "METAR LIRF 190750Z 17007KT 140V210 9999 SCT015 30/26 Q1011 NOSIG",
    "EINN": "METAR EINN 190730Z 02008KT 9999 FEW012 BKN016 14/10 Q1028 NOSIG",
    "EGLL": "METAR EGLL 190750Z AUTO 01009KT 340V060 9999 NCD 17/07 Q1024",
    "EGSS": "METAR EGSS 190750Z AUTO 35012KT 9999 NCD 16/07 Q1024",
    "EPWA": "METAR EPWA 190730Z VRB01KT 9999 FEW036 23/14 Q1013 NOSIG",
    "UHPP": "METAR UHPP 190730Z 13003MPS 110V170 9999 BKN120 25/16 Q1015 R16R/CLRD62 NOSIG RMK QFE758/1011",
    "EFHK": "METAR EFHK 190750Z 27014KT 9999 BKN015 BKN018 16/13 Q1004 TEMPO BKN014",
    "LBBG": "METAR LBBG 190730Z 16004KT 110V260 CAVOK 28/18 Q1014 NOSIG",
    "LTAC": "METAR LTAC 190750Z VRB03KT 9999 FEW040 26/12 Q1016 NOSIG RMK RWY21C VRB03KT RWY03L VRB03KT RWY21R VRB04KT RWY03R VRB02KT RWY21L VRB04KT",
    "UBBB": "METAR UBBB 190730Z 34016KT CAVOK 29/21 Q1009 NOSIG",
    "UTAA": "METAR UTAA 190800Z 30012KT 250V340 9999 FEW050 37/18 Q1008 R88/CLRD70 NOSIG",
    "UACC": "METAR UACC 190730Z 25009MPS 9999 SCT030 31/15 Q1004 NOSIG RMK QFE722/0963",
    "UAAA": "METAR UAAA 190730Z 07005MPS 030V110 9999 SCT100 41/10 Q1006 NOSIG",
    "UZTT": "METAR UZTT 190730Z 17004KT 120V260 CAVOK 41/14 Q1003 NOSIG",
    "ZWWW": "METAR ZWWW 190730Z 01004MPS 320V040 CAVOK 36/11 Q1007 NOSIG",
    "ZLXY": "METAR ZLXY 190800Z VRB02MPS CAVOK 37/13 Q1002 NOSIG",
    "ZBAA": "METAR ZBAA 190730Z 15003MPS 120V180 CAVOK 33/23 Q1000 NOSIG",
    "ZBHH": "METAR ZBHH 190800Z 18002MPS 150V210 CAVOK 30/18 Q1003 BECMG TL0930 30005MPS -TSRA",
    "ZSQD": "METAR ZSQD 190800Z 16004MPS CAVOK 29/21 Q1003 NOSIG",
    "ZMCK": "METAR ZMCK 190730Z 33007MPS 310V010 9999 SCT030CB SCT033 21/10 Q1004 NOSIG RMK QFE638.9 48 MOP",
    "UUEE": "METAR UUEE 190730Z 25004MPS 220V280 CAVOK 23/12 Q1015 R24L/CLRD62 R24C/CLRD62 NOSIG",
    "UUDD": "METAR UUDD 190730Z 25003MPS 210V280 CAVOK 23/12 Q1016 R31L/CLRD65 NOSIG",
    "ULLI": "METAR ULLI 190730Z 20007MPS 9999 SCT033 22/14 Q1004 R88/090065 NOSIG",
    "USSS": "METAR USSS 190730Z 02005MPS 9999 BKN020CB 20/20 Q1005 R08R/290350 TEMPO -TSRA RMK QFE734/0978",
    "UNNT": "METAR UNNT 190730Z 06002MPS 020V090 9999 SCT030CB 26/18 Q1006 R25/CLRD// R16/CLRD// NOSIG RMK QFE744/0992",
    "UNKL": "METAR UNKL 190730Z 27004MPS CAVOK 23/16 Q1003 R29/CLRD// NOSIG RMK QFE727",
    "UIBB": "METAR UIBB 190730Z VRB01MPS 9999 BKN040CB 19/15 Q1002 R30/290151 NOSIG RMK QFE709/0946",
    "UEEE": "METAR UEEE 190730Z 30002MPS 260V340 9999 BKN030CB 20/18 Q0999 R23/290160 NOSIG RMK QFE741",
    "UHHH": "METAR UHHH 190730Z 29003MPS 260V330 CAVOK 28/19 Q1004 R88/090060 NOSIG RMK QFE746/0995",
    "UHSS": "METAR UHSS 190730Z 20004MPS 3700 -SHRA BR BKN003 BKN011CB 19/19 Q1005 R19/290060 NOSIG RMK QBB100 MT OBSC QFE752/1003"
  },
  "taf": {
    "RJAA": "TAF RJAA 190505Z 1906/2012 15008KT 9999 FEW015 SCT030",
    "PANC": "TAF PANC 190520Z 1906/2012 14010G20KT P6SM -RA FEW015 SCT035 OVC070 FM190800 34005KT 6SM -RA OVC060 WS008/12030KT FM200000 VRB05G20KT P6SM VCSH SCT050 OVC070 WS008/12030KT FM201100 VRB04KT 6SM -RA BR SCT015 OVC035",
    "PAFA": "TAF PAFA 190531Z 1906/2012 18005KT P6SM SCT050 BKN100 FM191500 10007KT P6SM SCT100",
    "PAED": "TAF PAED 190500Z 1905/2013 35009KT 9999 -SHRA BKN080 QNH3003INS BECMG 1909/1910 29007KT 9999 -RA BKN040 OVC060 QNH3000INS BECMG 2001/2002 25006KT 9999 -SHRA BKN060 OVC100 QNH3000INS TX15/1923Z TN11/1911Z",
    "KSEA": "TAF KSEA 190907Z 1909/2012 35010KT P6SM FEW040 FM191100 02007KT P6SM FEW040 FM191300 02006KT P6SM FEW007 FM191700 35006KT P6SM SCT040 FM192200 33010KT P6SM SCT050",
    "ZSPD": "TAF ZSPD 190309Z 1906/2012 16004MPS 8000 SCT030 TX33/1906Z TX33/2006Z TN27/1921Z TEMPO 1906/1910 33008G15MPS TSRA BKN015 FEW030CB TEMPO 1910/1914 33008G15MPS 2000 TSRA BKN015 FEW030CB",
    "ZSSS": "TAF AMD ZSSS 190746Z 1906/2012 16004MPS 6000 SCT030 TX36/1906Z TX33/2006Z TN27/1921Z TEMPO 1906/1910 04008G15MPS 1000 +TSRA BKN015 SCT030CB TEMPO 1910/1914 33008G15MPS 2000 +TSRA BKN015 SCT030CB",
    "RJFR": "TAF RJFR 190505Z 1906/2012 07010KT 8000 -SHRA FEW025 BKN030 TEMPO 1906/1909 4000 -TSRA BR FEW020CB FEW025 BKN030 BECMG 1911/1913 12004KT TEMPO 1913/1918 BKN005 BKN045 TEMPO 2000/2003 BKN005 BECMG 2003/2006 31006KT TEMPO 2006/2009 4000 -TSRA BR FEW015 FEW020CB BKN030",
    "VHHH": "TAF VHHH 190800Z 1909/2015 20010KT 9999 FEW010 SCT025 TX31/2006Z TN28/1922Z TEMPO 1909/1910 10010KT TEMPO 1922/2004 24015G25KT 2500 TSRA SHRA FEW008CB SCT015 TEMPO 2004/2006 3000 SHRA FEW010CB SCT020",
    "RCTP": "TAF RCTP 190500Z 1906/2012 23013KT 9999 FEW020 BKN032 BECMG 1910/1912 20005KT BECMG 2000/2002 25012KT BECMG 2007/2009 18005KT",
    "ZGSZ": "TAF ZGSZ 190305Z 1906/2012 18004MPS 8000 BKN040 TX31/1906Z TX31/2006Z TN27/1922Z TEMPO 1906/1908 TSRA FEW012 FEW025CB BKN033 TEMPO 1921/1924 1200 +TSRA SCT012 FEW025CB BKN033 TEMPO 2004/2007 TSRA SCT012 FEW025CB BKN033",
    "WSSS": "TAF WSSS 190500Z 1906/2012 14007KT 9999 FEW015 SCT020",
    "WMKK": "TAF WMKK 190500Z 1906/2012 VRB03KT 9999 FEW018 TEMPO 1907/1911 5000 TSRA FEW017CB SCT020",
    "VTBS": "TAF VTBS 190500Z 1906/2012 23008KT 9999 FEW020",
    "VTBU": "TAF VTBU 190500Z 1906/2006 24008KT 9999 FEW020",
    "ROAH": "TAF ROAH 190505Z 1906/2012 28006KT 9999 FEW015 SCT025 BECMG 1907/1909 21006KT TEMPO 1914/1916 FEW005 BKN008 TEMPO 1916/1921 FEW003 BKN005 TEMPO 1921/2000 FEW005 BKN008",
    "VVDN": "TAF VVDN 190500Z 1906/2006 23010KT 9999 FEW017 BECMG 1906/1907 01010KT BECMG 1912/1913 24007KT",
    "RCKH": "TAF RCKH 190500Z 1906/2012 34005KT 9999 FEW015 BKN032 TEMPO 1906/1912 27010KT 4000 SHRA FEW010 FEW012CB BKN017 BECMG 1909/1910 08005KT TEMPO 1912/1916 14007KT 5000 RA FEW010 BKN022 TEMPO 1916/1922 4000 SHRA FEW010 FEW012CB BKN017 BECMG 2001/2003 20007KT",
    "KLAX": "TAF KLAX 190857Z 1909/2012 24006KT P6SM BKN012 FM191500 VRB03KT P6SM OVC018 FM191700 25006KT P6SM SCT020 FM191900 25012KT P6SM SCT015 FM200300 24006KT P6SM FEW012 SCT200 FM201100 VRB03KT P6SM OVC012",
    "KONT": "TAF KONT 190520Z 1906/2012 25005KT P6SM FEW120 FM190800 VRB04KT P6SM FEW120 FM192000 25010G20KT P6SM FEW120 FM200500 VRB05KT P6SM FEW200",
    "KSFO": "TAF KSFO 190851Z 1909/2012 27006KT P6SM FEW004 BKN007 FM191700 28010G20KT P6SM SKC FM200400 27007KT P6SM BKN010",
    "KOAK": "TAF KOAK 190520Z 1906/2012 29008KT P6SM FEW005 OVC007 FM191800 28005KT P6SM SCT009 FM192000 30015KT P6SM SKC FM200300 29010KT P6SM OVC009",
    "KMHR": "TAF KMHR 190520Z 1906/2006 20010KT P6SM SKC FM191000 VRB05KT P6SM SCT250 FM192000 22007KT P6SM BKN250",
    "KDFW": "TAF KDFW 190852Z 1909/2012 18008KT P6SM FEW040 FM191500 19010KT P6SM FEW250",
    "KIAH": "TAF KIAH 190842Z 1909/2012 17007KT P6SM FEW020 SCT250 FM191000 21003KT 6SM BR FEW010 SCT250 FM191300 20004KT P6SM SCT040 SCT250 FM200900 18004KT P6SM FEW020 SCT250",
    "KORD": "TAF KORD 190850Z 1908/2012 05012KT 6SM FU SCT025 FM200900 19004KT 6SM FU SCT025",
    "KJFK": "TAF KJFK 190830Z 1909/2012 28010KT P6SM FEW050 BKN200 FM191100 32013KT P6SM SCT250 FM191400 32014G20KT P6SM SCT250 FM192000 32011KT P6SM SCT250 FM200100 33007KT P6SM FEW250",
    "KRFD": "TAF KRFD 190520Z 1906/2006 06009KT 4SM FU SCT050",
    "KIND": "TAF KIND 190528Z 1906/2012 VRB06KT P6SM FEW040 BKN250 FM191200 03007KT P6SM SCT050 SCT250 FM200000 06005KT P6SM FEW250",
    "KDTW": "TAF KDTW 190907Z 1909/2012 36005KT 6SM HZ SKC TEMPO 1910/1914 5SM FU FEW045 FM191700 35007KT P6SM SCT060 FM200100 12003KT P6SM SCT250",
    "KMSP": "TAF KMSP 190837Z 1909/2012 13005KT P6SM SKC FM191300 21005KT P6SM FEW250 FM191700 20010KT P6SM FEW070 SCT250 FM200500 18009KT P6SM SCT250 PROB30 2009/2011 4SM -TSRA BKN050CB",
    "CYEG": "TAF CYEG 190840Z 1909/2006 25012KT P6SM FEW070 SCT100 TEMPO 1909/1910 5SM -SHRA BR BKN070 OVC100 FM191000 26012KT 4SM -SHRA BR BKN020 OVC050 TEMPO 1910/1913 P6SM -SHRA SCT020 BKN050 FM191300 28012KT P6SM BKN030 BECMG 1916/1918 29020G30KT FM191800 29020G30KT P6SM -SHRA BKN025 FM192200 29020G35KT P6SM BKN020 BKN080 TEMPO 1922/2002 5SM -SHRA VCTS BR BKN020CB OVC080 FM200200 30015G25KT P6SM SCT012 BKN020 BECMG 2004/2006 30012KT RMK NXT FCST BY 191200Z",
    "EHAM": "TAF EHAM 190454Z 1906/2012 32013KT 9999 SCT030 BECMG 1918/1921 32006KT BECMG 2006/2009 34011KT",
    "EBBR": "TAF EBBR 190500Z 1906/2012 33008KT 9999 SCT045",
    "EDDF": "TAF EDDF 190500Z 1906/2012 31009KT CAVOK BECMG 1922/1924 33004KT",
    "EDFH": "TAF EDFH 190500Z 1906/2006 32007KT 9999 SCT020",
    "EDDL": "TAF EDDL 190500Z 1906/2012 31005KT CAVOK BECMG 1907/1910 30012KT PROB40 TEMPO 1912/1918 30015G25KT BECMG 1919/1922 30004KT BECMG 2010/2012 32009KT",
    "EDDK": "TAF EDDK 190500Z 1906/2012 32006KT CAVOK BECMG 1907/1910 30012KT PROB30 TEMPO 1912/1917 30015G25KT BECMG 1918/1921 32005KT",
    "EBLG": "TAF EBLG 190500Z 1906/2012 33008KT 9999 SCT045",
    "LSZH": "TAF LSZH 190825Z 1909/2015 VRB02KT 9999 FEW060 TX25/1915Z TN12/2004Z TX25/2015Z PROB40 TEMPO 1909/1916 SHRA SCT050TCU BECMG 1912/1914 30010KT PROB30 TEMPO 1912/1915 32015G25KT TSRA FEW050CB BECMG 1916/1919 02005KT BECMG 1920/1922 34004KT BECMG 1921/1924 CAVOK PROB30 2000/2005 8000 NSC BECMG 2006/2009 06006KT",
    "LIMC": "TAF LIMC 190500Z 1906/2012 VRB05KT 9999 SCT040 TEMPO 2000/2006 4000 SHRA",
    "LIRF": "TAF LIRF 190500Z 1906/2012 VRB05KT CAVOK BECMG 1907/1909 17010KT BECMG 1912/1914 23012KT BECMG 1917/1919 VRB05KT TEMPO 2003/2005 4000 BR BECMG 2010/2012 21012KT",
    "EINN": "TAF EINN 190500Z 1906/2006 VRB03KT 9999 FEW023 BECMG 1906/1908 36010KT BECMG 1912/1914 03010KT BECMG 1917/1919 36009KT",
    "EGLL": "TAF EGLL 190453Z 1906/2012 01008KT 9999 FEW040",
    "EGSS": "TAF EGSS 190457Z 1906/2012 34009KT 9999 FEW040",
    "EPWA": "TAF EPWA 190830Z 1909/2009 VRB05KT CAVOK PROB30 TEMPO 1912/1917 VRB15G25KT 2500 TSRA SCT050CB TEMPO 1917/1921 27022G35KT 2000 TSRA BKN020CB BECMG 1918/1920 28010KT TEMPO 1921/2006 4000 BR BKN005 BKN010",
    "UHPP": "TAF UHPP 190733Z 1909/2015 31003G10MPS 9999 SCT040 TX27/2003Z TN18/1917Z TEMPO 1909/1924 01005G12MPS",
    "EFHK": "TAF EFHK 190838Z 1909/2009 27013KT 9999 BKN015 BKN020 TEMPO 1909/1910 BKN014 BECMG 1911/1913 34010KT BECMG 1917/1919 04008KT",
    "LBBG": "TAF LBBG 190500Z 1906/2006 VRB03KT CAVOK BECMG 1907/1909 12014KT BECMG 1921/1923 VRB03KT",
    "LTAC": "TAF LTAC 190440Z 1906/2006 04012KT CAVOK BECMG 1906/1909 VRB02KT FEW040 BECMG 1915/1918 04012KT CAVOK",
    "UBBB": "TAF UBBB 190511Z 1906/2006 33018G28KT CAVOK TX30/1910Z TN23/2001Z TEMPO 1906/1910 FEW020 BECMG 1910/1912 32022G32KT 9999 FEW015 TEMPO 1918/2006 34028G38KT SCT010 FEW050CB PROB40 TEMPO 1918/2006 -TSRA SCT040CB",
    "UTAA": "TAF UTAA 190445Z 1906/2006 34016KT 6000 SCT050 TX40/1910Z TEMPO 1906/1912 29016G26KT 3000 BLDU TEMPO 1918/1924 26014KT",
    "UACC": "TAF AMD UACC 190913Z 1909/2006 22007MPS 9999 SCT040 BKN100 TX34/1909Z TN18/1923Z TEMPO 1909/1917 26011G16MPS BKN030CB BECMG 1917/1919 VRB01MPS SCT030 BECMG 2003/2005 26006MPS",
    "UAAA": "TAF UAAA 190501Z 1906/2006 04005G10MPS 9999 FEW050 SCT100 TX42/1910Z TN25/2000Z BECMG 1914/1915 19002MPS TEMPO 2002/2006 32005MPS",
    "UZTT": "TAF UZTT 190500Z 1906/2006 22010KT 7000 NSC TX44/1911Z TN26/2000Z TEMPO 1912/1916 32015KT",
    "ZWWW": "TAF ZWWW 190304Z 1906/2012 36004MPS CAVOK TX39/1909Z TX40/2009Z TN29/1923Z BECMG 1913/1914 18004MPS BECMG 2002/2003 36004MPS",
    "ZLXY": "TAF ZLXY 190302Z 1906/2006 16003MPS 6000 NSC TX36/1907Z TN22/1921Z",
    "ZBAA": "TAF ZBAA 190301Z 1906/2012 18004MPS CAVOK TX31/1906Z TX30/2006Z TN22/1921Z",
    "ZBHH": "TAF AMD ZBHH 190447Z 1906/2006 23004G09MPS 9999 SCT040 TX32/1908Z TN15/1922Z BECMG 1909/1910 VRB10G17MPS -TSRA SCT040 SCT040CB TEMPO 1910/1912 +TSRA BECMG 1912/1913 NSW NSC TEMPO 1921/2001 FEW040 FEW040CB",
    "ZSQD": "TAF ZSQD 190301Z 1906/2006 16004MPS 3500 BR NSC TX30/1906Z TN21/1920Z",
    "ZMCK": "TAF ZMCK 190447Z 1906/2012 33006MPS 9999 FEW030CB SCT033 TX25/1907Z TN09/1921Z PROB30 TEMPO 1906/1912 VRB08G13MPS TSRA SCT027CB SCT030 BECMG 1911/1913 VRB02MPS BECMG 2002/2004 32005MPS PROB40 TEMPO 2005/2012 VRB09G15MPS TSRA SCT027CB SCT030",
    "UUEE": "TAF UUEE 190750Z 1909/2009 20003G08MPS CAVOK TX28/1912Z TN16/2001Z",
    "UUDD": "TAF UUDD 190755Z 1909/2015 21003MPS CAVOK TX28/2012Z TN13/2001Z",
    "ULLI": "TAF ULLI 190752Z 1909/2009 27006G13MPS 6000 BKN016 TEMPO 1909/1918 22008G16MPS -TSRA BKN017CB BECMG 1922/1924 35003MPS",
    "USSS": "TAF USSS 190742Z 1909/2009 04003G14MPS 6000 -SHRA BKN016CB TEMPO 1909/2009 02009G20MPS -TSRA",
    "UNNT": "TAF UNNT 190800Z 1909/2009 32003G08MPS 9999 BKN040 TX26/1912Z TN16/1922Z TEMPO 1909/1918 02006G13MPS -TSRA BKN020CB",
    "UNKL": "TAF UNKL 190755Z 1909/2009 29003G08MPS 6000 SCT040 TEMPO 1909/1915 32008G18MPS 1000 TSRA BKN016CB TEMPO 1915/1918 0250 FG VV002 BECMG 1918/1920 0250 FG VV002 BECMG 1921/1923 6000 NSW SCT040 TEMPO 2003/2009 34005MPS -TSRA BKN016CB",
    "UIBB": "TAF UIBB 190800Z 1909/2009 27004MPS 5000 -TSRA BKN003 BKN016CB TEMPO 1909/1914 0300 +SHRA FG VV001 BECMG 1914/1915 0300 FG BKN001 TEMPO 1915/2001 4000 BR FEW003 BKN011 BECMG 2001/2002 6000 -SHRA BKN011CB TEMPO 2002/2009 VRB09MPS -TSRA",
    "UEEE": "TAF UEEE 190800Z 1909/2015 30003G08MPS 9999 BKN023CB OVC070 TEMPO 1909/1912 VRB12MPS 1000 TSRA VV003 TEMPO 1912/1923 VRB01MPS 0500 FG VV003",
    "UHHH": "TAF UHHH 190749Z 1909/2015 30003MPS 9999 SCT025CB TX30/2003Z TN19/1917Z FM192300 26003MPS 9999 SCT020 TEMPO 1923/2009 29008MPS",
    "UHSS": "TAF UHSS 190750Z 1909/2015 17003MPS 5000 -SHRA BKN006 BKN016CB TEMPO 1909/1922 1500 SHRA BR BKN003 BKN016CB FM200000 32003MPS 9999 SCT030CB"
  },
  "atis": {},
  "windtemp_alaska": "\n000\nFBAK31 KWNO 190800\nFD1AK1\nDATA BASED ON 190600Z    \nVALID 191200Z   FOR USE 0800-1500Z. TEMPS NEG ABV 24000\n\nFT  3000    6000    9000   12000   18000   24000  30000  34000  39000\nADK 2210 2612+02 3021+01 3230-02 3238-14 3360-23 337037 327745 327452\nADQ 1826 1833+04 1837-01 1846-04 1861-16 1971-27 197341 186951 186353\nAKN 1628 1532-01 1637-03 1742-08 1746-20 1862-31 188644 177444 184343\nANC 1222 1537+03 1939+01 2042-04 1955-16 2056-27 196142 196251 204953\nANN 3416 3418+07 3317+05 3313+01 3414-12 3513-25 351640 351949 342657\nBET 1211 1218-01 1226-06 1221-11 1419-22 1316-35 152744 162540 161839\nBRW 9900 9900+02 1805-04 1606-08 1313-21 1220-31 102746 102745 111842\nBTI 2415 2517+04 2512-02 2308-08 1808-21 1716-31 152346 162246 171741\nBTT 1506 1510+02 1410-04 1410-09 2124-19 2133-32 225446 224848 202844\nCDB 2713 2815-01 2820-07 2720-12 2325-24 2231-35 212542 211538 211039\nCZF 0610 0615-01 0613-06 0615-10 0809-22 1114-35 101847 110541 050539\nEHM 1211 1113-01 1015-07 1013-11 1314-22 1317-35 152044 151939 161939\nFAI 2024 1821+03 1824-03 1930-09 2136-16 2354-27 226942 217452 214550\nFYU 2306 2108+04 2008-03 1910-09 2322-18 2345-29 247642 237651 223848\nGAL 1311 1210+01 1113-05 1416-11 1523-19 1829-32 194848 194747 182842\nGKN 1625 1729+04 1931+01 2137-04 2235-16 2143-26 214442 214651 223655\nHOM 1331 1832+04 1842+00 1851-04 1961-16 1965-26 196742 196851 195853\nJNU 9900 3210+06 3214+05 3113+01 2905-13 3010-25 301240 291048 240759\nLUR 1208 1408+01 1310-05 1212-10 1017-24 0832-35 093145 082342 081640\nMCG 1119 1419+00 1519-05 1523-09 1733-19 1849-31 198145 198448 193744\nMDO 1830 1830+06 1826+01 2027-03 2128-16 2035-26 203742 204151 204056\nOME 1211 1211+00 1112-06 1011-11 1611-23 1826-35 182748 161142 120839\nORT      1911+05 2216+01 2427-03 2332-15 2235-25 224042 224251 233257\nOTZ 1511 1414+01 1417-05 1419-11 1616-24 1931-35 183347 161841 131239\nSNP 3318 3416-01 3417-04 3421-10 3535-22 3446-34 346443 345842 344141\nTKA 9900 1517+00 1722-04 1832-06 1959-17 2062-27 206742 206751 204751\nUNK 1522 1520+00 1320-06 1326-11 1221-21 1529-32 163150 163044 151440\nYAK 2805 2819+06 2824+02 2919-02 2215-13 2020-25 212840 203050 212758\nIKO 3220 3222-01 3328-04 3332-09 3342-22 3455-34 337143 336842 335142\nAFM 1508 1511+01 1512-04 1614-11 1922-21 1925-34 203548 182345 161841\n5AB 3112 3021+12 3027+07 3133+02 3135-10 3041-21 305036 305146 305053\n5AC 3319 3321+08 3223+06 3224+01 3121-13 3016-25 271540 251149 180758\n5AD 2229 2126+06 2123+02 2127-01 2131-14 2131-26 203541 194050 194058\n5AE 2022 1934+03 1939-01 1942-06 1959-17 1982-28 199343 198349 195947\n5AF 3016 3116+08 3118+04 3116+00 2712-13 2411-24 231440 211549 211859\n5AG 2116 2313+06 2117+02 2216-02 2321-14 2325-25 222840 212950 212858\n",
  "vaac_active": [],
  "vaac_tokyo": [
    {
      "id": "20260719_27303000_0767",
      "year": "2026",
      "volcano": "Mayon",
      "psn": "N1315 E12341",
      "issued": "20260719",
      "text": "FVFE01 RJTD 190225\nVA ADVISORY\nDTG: 20260719/0225Z\nVAAC: TOKYO\nVOLCANO: MAYON 273030\nPSN: N1315 E12341\nAREA: PHILIPPINES\nSOURCE ELEV: 2462M AMSL\nADVISORY NR: 2026/767\nINFO SOURCE: HIMAWARI-9 PHIVOLCS\nERUPTION DETAILS: ERUPTION AT 20260719/0207Z FL090 REPORTED\nOBS VA DTG: 19/0210Z\nOBS VA CLD: VA NOT IDENTIFIABLE FM SATELLITE DATA WIND FL090 350/1KT\nFCST VA CLD +6 HR: NOT AVBL\nFCST VA CLD +12 HR: NOT AVBL\nFCST VA CLD +18 HR: NOT AVBL\nRMK: WE WILL ISSUE FURTHER ADVISORY IF VA IS DETECTED IN SATELLITE \nIMAGERY.\nNXT ADVISORY: NO FURTHER ADVISORIES=",
      "img_url": "https://ds.data.jma.go.jp/svd/vaac/data/VAGFN/2026/Images/20260719_27303000_0767_QH21_01.png",
      "sat_img_url": null,
      "text_url": "https://ds.data.jma.go.jp/svd/vaac/data/TextData/2026/20260719_27303000_0767_Text.html"
    },
    {
      "id": "20260718_30027000_0268",
      "year": "2026",
      "volcano": "Sheveluch",
      "psn": "N5639 E16122",
      "issued": "20260718",
      "text": "FVFE01 RJTD 180000\nVA ADVISORY\nDTG: 20260718/0000Z\nVAAC: TOKYO\nVOLCANO: SHEVELUCH 300270\nPSN: N5639 E16122\nAREA: RUSSIA\nSOURCE ELEV: 3283M AMSL\nADVISORY NR: 2026/268\nINFO SOURCE: KVERT HIMAWARI-9\nERUPTION DETAILS: VA CONTINUOUSLY OBS IN SATELLITE IMAGERY\nOBS VA DTG: 17/2320Z\nOBS VA CLD: SFC/FL290 N5601 E16322 - N5605 E16357 - N5546 E16401 - \nN5544 E16326 MOV SE 25KT\nFCST VA CLD +6 HR: 18/0520Z SFC/FL300 N5529 E16617 - N5404 E16714 - \nN5357 E16639 - N5527 E16530\nFCST VA CLD +12 HR: 18/1120Z SFC/FL300 N5352 E17006 - N5152 E17037 - \nN5152 E16936 - N5344 E16817\nFCST VA CLD +18 HR: NO VA EXP\nRMK: SOME PART OF VA OBSCURED BY MET CLOUD.\nNXT ADVISORY: 20260718/0600Z=",
      "img_url": "https://ds.data.jma.go.jp/svd/vaac/data/VAGFN/2026/Images/20260718_30027000_0268_QH21_01.png",
      "sat_img_url": "https://ds.data.jma.go.jp/svd/vaac/data/Sat/2026/Images/30027000/09-ir/20260717_2320_202607180000_ir.png",
      "text_url": "https://ds.data.jma.go.jp/svd/vaac/data/TextData/2026/20260718_30027000_0268_Text.html"
    },
    {
      "id": "20260717_27307000_0014",
      "year": "2026",
      "volcano": "Taal",
      "psn": "N1400 E12100",
      "issued": "20260717",
      "text": "FVFE01 RJTD 171113\nVA ADVISORY\nDTG: 20260717/1113Z\nVAAC: TOKYO\nVOLCANO: TAAL 273070\nPSN: N1400 E12100\nAREA: PHILIPPINES\nSOURCE ELEV: 311M AMSL\nADVISORY NR: 2026/14\nINFO SOURCE: HIMAWARI-9 PHIVOLCS\nERUPTION DETAILS: ERUPTION AT 20260717/1051Z FL040 EXTD E REPORTED\nOBS VA DTG: 17/1100Z\nOBS VA CLD: VA NOT IDENTIFIABLE FM SATELLITE DATA WIND FL040 270/8KT\nFCST VA CLD +6 HR: NOT AVBL\nFCST VA CLD +12 HR: NOT AVBL\nFCST VA CLD +18 HR: NOT AVBL\nRMK: WE WILL ISSUE FURTHER ADVISORY IF VA IS DETECTED IN SATELLITE \nIMAGERY.\nNXT ADVISORY: NO FURTHER ADVISORIES=",
      "img_url": "https://ds.data.jma.go.jp/svd/vaac/data/VAGFN/2026/Images/20260717_27307000_0014_QH21_01.png",
      "sat_img_url": null,
      "text_url": "https://ds.data.jma.go.jp/svd/vaac/data/TextData/2026/20260717_27307000_0014_Text.html"
    },
    {
      "id": "20260713_28208001_0083",
      "year": "2026",
      "volcano": null,
      "psn": "N3136 E13039",
      "issued": "20260713",
      "text": "FVFE01 RJTD 130254\nVA ADVISORY\nDTG: 20260713/0254Z\nVAAC: TOKYO\nVOLCANO: SAKURAJIMA (AIRA CALDERA) 282080\nPSN: N3136 E13039\nAREA: JAPAN\nSOURCE ELEV: 1117M AMSL\nADVISORY NR: 2026/83\nINFO SOURCE: JMA HIMAWARI-9\nERUPTION DETAILS: ERUPTED AT 20260713/0152Z FL100 EXTD N\nOBS VA DTG: 13/0230Z\nOBS VA CLD: SFC/FL100 N3136 E13039 - N3142 E13040 - N3141 E13044 - \nN3134 E13042 MOV NE 15KT\nFCST VA CLD +6 HR: 13/0830Z SFC/FL100 N3234 E13121 - N3145 E13155 - \nN3202 E13110 - N3227 E13051\nFCST VA CLD +12 HR: 13/1430Z SFC/FL100 N3318 E13206 - N3142 E13317 - \nN3134 E13226 - N3312 E13118\nFCST VA CLD +18 HR: NO VA EXP\nRMK: NIL\nNXT ADVISORY: 20260713/0600Z=",
      "img_url": "https://ds.data.jma.go.jp/svd/vaac/data/VAGFN/2026/Images/20260713_28208001_0083_QH21_01.png",
      "sat_img_url": "https://ds.data.jma.go.jp/svd/vaac/data/Sat/2026/Images/28208001/09-ir/20260713_0230_202607130254_ir.png",
      "text_url": "https://ds.data.jma.go.jp/svd/vaac/data/TextData/2026/20260713_28208001_0083_Text.html"
    }
  ],
  "vaac_alaska": [
    {
      "text": "\n000\nFVAK21 PAWU 180008\nVAAAK1\nVA ADVISORY\n\nDTG: 20260718/0000Z\n\nVAAC: ANCHORAGE\n\nVOLCANO: SHEVELUCH 300270\n\nPSN: N5639 E16122\n\nAREA: KAMCHATKA PENINSULA\n\nSOURCE ELEV: 10771 FT AMSL\n\nADVISORY NR: 2026/205\n\nRMK: PLEASE SEE FVFE01 RJTD ISSUED BY VAAC TOKYO WHICH DESCRIBES\nCONDITIONS NEAR THE VAAC ANCHORAGE AREA OF RESPONSIBILITY...BS\n\n\n\n",
      "issued": "2026-07-18T00:08:00+00:00",
      "volcano": "Sheveluch",
      "psn": "N5639 E16122"
    }
  ]
}