{
  "updated_utc": "2026-07-22T15:00Z",
  "metar": {
    "RJAA": "METAR RJAA 221330Z 25003KT 220V290 9999 FEW030 BKN070 30/26 Q1006 NOSIG",
    "PANC": "METAR PANC 221353Z 15016G27KT 10SM FEW033 OVC055 11/06 A3004 RMK AO2 PK WND 15036/1300 SLP174 T01060056",
    "PAFA": "METAR PAFA 221353Z 35005KT 10SM -RA BKN060 11/08 A2989 RMK AO2 SLP124 P0001 T01110078",
    "PAED": "SPECI PAED 221447Z 00000KT 10SM -SHRA SCT007 SCT022 BKN0028 BKN037 OVC044 11/09 A3003 RMK AO2A SLP165 $",
    "KSEA": "METAR KSEA 221353Z 31003KT 10SM FEW160 19/14 A2994 RMK A02 SLP141 T01940139",
    "ZSPD": "METAR ZSPD 221330Z 18002MPS 150V210 9999 -SHRA NSC 26/23 Q1007 NOSIG",
    "ZSSS": "METAR ZSSS 221330Z VRB01MPS 9999 -SHRA NSC 26/25 Q1007 NOSIG",
    "RJFR": "METAR RJFR 221400Z 25004KT 9999 FEW025 29/25 Q1010",
    "VHHH": "METAR VHHH 221330Z 14006KT 110V210 9999 FEW012 29/25 Q1007 NOSIG",
    "RCTP": "METAR RCTP 221330Z 11005KT 090V150 9999 FEW020 29/25 Q1009 NOSIG RMK A2981",
    "ZGSZ": "METAR ZGSZ 221400Z 15004MPS CAVOK 29/25 Q1007 NOSIG",
    "WSSS": "METAR WSSS 221330Z 18005KT 9999 FEW018 BKN300 26/24 Q1012 NOSIG",
    "WMKK": "METAR WMKK 221330Z 00000KT 9999 FEW030 27/25 Q1010 NOSIG",
    "WIDD": "METAR WIDD 221330Z 00000KT 9999 FEW014 26/25 Q1012 NOSIG",
    "VTBS": "METAR VTBS 221330Z 32004KT 9999 -RA FEW020 SCT040 27/23 Q1010 NOSIG",
    "VTBU": "METAR VTBU 221330Z VRB03KT 9000 FEW020 SCT100 30/28 Q1009 NOSIG",
    "ROAH": "METAR ROAH 221330Z 12005KT 9999 FEW020 29/26 Q1010",
    "VVDN": "METAR VVDN 221330Z 19004KT 9999 FEW020 SCT050 31/24 Q1007 NOSIG",
    "RCKH": "METAR RCKH 221330Z 27004KT 9999 FEW016 SCT060 29/25 Q1009 NOSIG RMK A2980",
    "KLAX": "METAR KLAX 221353Z 23005KT 8SM FEW004 OVC006 21/19 A3000 RMK AO2 SLP155 T02060189",
    "KONT": "METAR KONT 221353Z 28003KT 10SM CLR 22/14 A3001 RMK AO2 SLP145 T02220144 $",
    "KSFO": "SPECI KSFO 221332Z 19015G20KT 10SM BKN019 18/15 A3002 RMK AO2 T01830150",
    "KOAK": "METAR KOAK 221353Z 20013KT 10SM FEW005 FEW015 SCT020 19/16 A3003 RMK AO2 SLP167 T01890161",
    "KMHR": "METAR KMHR 221315Z AUTO 19006KT 10SM CLR 20/16 A2998 RMK AO2 T02010158 $",
    "KDFW": "METAR KDFW 221353Z 01006KT 10SM CLR 33/22 A2992 RMK AO2 SLP118 T03330222 $",
    "KIAH": "METAR KIAH 221353Z 27006KT 10SM FEW250 30/22 A2989 RMK AO2 SLP121 T03000222",
    "KORD": "METAR KORD 221351Z 36012KT 10SM FEW032 FEW250 19/09 A3006 RMK AO2 SLP175 T01890089",
    "KJFK": "SPECI KJFK 221327Z 26012KT 10SM SCT020 BKN120 26/21 A2973 RMK AO2 T02610211 $",
    "KRFD": "METAR KRFD 221354Z 01010KT 10SM FEW250 18/09 A3011 RMK AO2 SLP193 T01780089 $",
    "KIND": "METAR KIND 221354Z 02012KT 10SM SCT055 BKN070 19/09 A3003 RMK AO2 SLP164 T01940089",
    "KDTW": "SPECI KDTW 221329Z 33011KT 10SM SCT028 BKN180 16/09 A2997 RMK AO2 T01610094",
    "KMSP": "METAR KMSP 221353Z VRB05KT 10SM OVC055 18/10 A3017 RMK AO2 SLP213 T01780100",
    "CYEG": "SPECI CYEG 221315Z 13003KT 4SM BR BKN072 16/16 A3002 RMK ACC5 SLP167 DENSITY ALT 3000FT",
    "EHAM": "METAR EHAM 221325Z 32015KT 290V350 9999 SCT025 BKN045 19/12 Q1023 NOSIG",
    "EBBR": "METAR EBBR 221320Z 31009KT 280V350 9999 SCT036 20/12 Q1024 NOSIG",
    "EDDF": "METAR EDDF 221320Z AUTO 33011KT 270V020 9999 FEW049 22/09 Q1021 NOSIG",
    "EDFH": "METAR EDFH 221320Z 30008KT 260V020 9999 FEW041 18/07 Q1023",
    "EDDL": "METAR EDDL 221320Z AUTO 29009KT 250V320 9999 FEW024 BKN036 OVC047 19/13 Q1022 NOSIG",
    "EDDK": "METAR EDDK 221320Z AUTO 29011KT 260V340 9999 BKN041 BKN048 20/10 Q1022 NOSIG",
    "EBLG": "METAR EBLG 221320Z 30008KT 250V330 9999 FEW024 BKN048 20/11 Q1024 NOSIG",
    "LSZH": "METAR LSZH 221320Z 25005KT 200V320 9999 FEW070 26/06 Q1021 NOSIG",
    "LIMC": "METAR LIMC 221320Z 22008KT 180V280 9999 SCT060 29/13 Q1017 NOSIG",
    "LIRF": "METAR LIRF 221320Z 28012KT CAVOK 33/19 Q1013 NOSIG",
    "EINN": "METAR EINN 221330Z 36010KT 320V040 9999 SCT039 22/11 Q1029 NOSIG",
    "EGLL": "METAR EGLL 221320Z AUTO VRB03KT 9999 SCT047 25/13 Q1025",
    "EGSS": "METAR EGSS 221320Z AUTO 04006KT 360V070 9999 BKN040 23/12 Q1025",
    "EPWA": "METAR EPWA 221330Z 26010KT CAVOK 21/09 Q1014 NOSIG",
    "UHPP": "METAR UHPP 221400Z 05002MPS 010V080 9999 FEW013 OVC020CB 11/10 Q1010 R16R/290248 NOSIG RMK QFE754/1006",
    "EFHK": "METAR EFHK 221320Z 35007KT 320V030 9999 FEW048 19/07 Q1006 NOSIG",
    "LBBG": "METAR LBBG 221330Z 06004KT 020V140 9999 -SHRA FEW018 FEW036TCU SCT042 20/19 Q1010 NOSIG",
    "LTAC": "METAR LTAC 221320Z VRB04KT 9999 FEW040 31/07 Q1012 NOSIG RMK RWY21C VRB07KT RWY03L VRB05KT RWY21R 22007KT 150V250 RWY03R VRB05KT RWY21L 22009KT 160V260",
    "UBBB": "METAR UBBB 221330Z 14008KT CAVOK 31/13 Q1009 NOSIG",
    "UTAA": "METAR UTAA 221400Z 28008KT 250V310 9999 FEW050 SCT100 35/12 Q1007 R88/CLRD70 NOSIG",
    "UACC": "METAR UACC 221330Z 33004MPS 9999 SCT046CB 18/14 Q1002 NOSIG RMK QFE721/0961",
    "UAAA": "METAR UAAA 221330Z 06004MPS 9999 SCT050CB BKN100 27/17 Q1006 NOSIG",
    "UZTT": "METAR UZTT 221330Z 02008KT 7000 NSC 30/12 Q1007 NOSIG",
    "ZWWW": "METAR ZWWW 221330Z 35003MPS 300V020 CAVOK 27/17 Q1007 NOSIG",
    "ZLXY": "METAR ZLXY 221400Z 03006MPS 9999 FEW050 29/14 Q1003 NOSIG",
    "ZBAA": "METAR ZBAA 221330Z VRB01MPS 9999 FEW040 23/21 Q1005 NOSIG",
    "ZBHH": "METAR ZBHH 221400Z 23003MPS 190V250 9999 -SHRA SCT040 FEW040CB 20/14 Q1008 NOSIG",
    "ZSQD": "METAR ZSQD 221400Z 15002MPS 110V180 9999 FEW050 25/25 Q1005 NOSIG",
    "ZMCK": "METAR ZMCK 221330Z 35003MPS 9999 FEW033 20/10 Q1009 NOSIG RMK QFE642.1 52 NT",
    "UUEE": "METAR UUEE 221330Z 20005MPS CAVOK 23/12 Q1006 R24L/CLRD62 R24C/CLRD62 NOSIG",
    "UUDD": "METAR UUDD 221330Z VRB02MPS 9999 FEW040 23/13 Q1007 R13R/CLRD65 NOSIG",
    "ULLI": "METAR ULLI 221330Z 32005MPS 9999 SCT024CB BKN046 16/11 Q1005 R88/090065 NOSIG",
    "USSS": "METAR USSS 221330Z 36004MPS 330V030 9999 SCT044CB 29/15 Q1010 R26L/CLRD60 R26R/CLRD60 NOSIG RMK QFE737/0982",
    "UNNT": "METAR UNNT 221330Z VRB01MPS 9999 -SHRA BKN043CB 19/17 Q0999 R25/290160 R16/CLRD// NOSIG RMK QFE740/0986",
    "UNKL": "METAR UNKL 221330Z VRB01MPS CAVOK 20/16 Q0998 R29/CLRD// NOSIG RMK QFE723",
    "UIBB": "METAR UIBB 221330Z 08003MPS 9999 NSC 21/14 Q1000 R12/CLRD62 NOSIG RMK QFE708/0944",
    "UEEE": "METAR UEEE 221330Z 09002MPS 9999 SCT050CB 21/16 Q1004 R23/09//60 NOSIG RMK QFE744",
    "UHHH": "METAR UHHH 221330Z 35002MPS CAVOK 23/21 Q1006 R05R/090060 NOSIG RMK QFE749/0998",
    "UHSS": "METAR UHSS 221400Z 36005MPS 9999 BKN004 17/17 Q1009 R01/CLRD70 NOSIG RMK MT OBSC QFE755/1007"
  },
  "taf": {
    "RJAA": "TAF AMD RJAA 221255Z 2212/2318 12004KT 9999 FEW030 BECMG 2309/2312 04008KT TEMPO 2309/2315 4000 -SHRA BR FEW005 BKN008 TEMPO 2315/2318 2000 -SHRA BR FEW002 BKN005",
    "PANC": "TAF PANC 221125Z 2212/2318 15018G28KT P6SM -RA SCT025 OVC045 FM221400 15014G24KT P6SM SCT020 OVC035 FM221800 16012G22KT P6SM SCT045 BKN080 FM230000 15010G20KT P6SM -RA SCT025 OVC040 FM230300 16015G25KT 5SM -RA SCT015 OVC025 FM230800 16025G40KT 5SM -RA SCT015 OVC030",
    "PAFA": "TAF PAFA 221350Z 2214/2318 22005KT P6SM -RA SCT040 OVC060 FM221600 18006KT P6SM SCT040 BKN060 FM230000 18010KT P6SM VCSH SCT040 BKN060 FM230500 15006KT P6SM -RA SCT030 OVC050 FM231200 15006KT 5SM -RA BR SCT015 OVC030",
    "PAED": "TAF PAED 220500Z 2205/2311 33009KT 9000 -SHRA FEW022 SCT037 OVC060 640703 520106 QNH2996INS BECMG 2210/2211 33009KT 9999 NSW FEW020 OVC040 620604 QNH2996INS BECMG 2302/2303 32007KT 9000 -RA FEW009 BKN055 OVC070 640901 QNH2978INS TX13/2301Z TN09/2212Z",
    "KSEA": "TAF KSEA 221120Z 2212/2318 02007KT P6SM SKC FM221700 33006KT P6SM SKC FM222100 33009KT P6SM SCT250 FM230600 23007KT P6SM SCT120 BKN250 FM231200 21009KT P6SM OVC015",
    "ZSPD": "TAF AMD ZSPD 221124Z 2206/2312 19004MPS 6000 SCT030 TX34/2206Z TX34/2306Z TN27/2221Z TEMPO 2211/2214 23010G16MPS +TSRA SQ SCT030CB",
    "ZSSS": "TAF AMD ZSSS 221032Z 2206/2312 20004MPS 6000 SCT030 TX33/2206Z TX35/2306Z TN27/2221Z TEMPO 2210/2213 27012G17MPS +TSRA SQ BKN013 SCT030CB",
    "RJFR": "TAF RJFR 221105Z 2212/2318 28004KT CAVOK BECMG 2303/2306 34012KT BECMG 2312/2315 28006KT",
    "VHHH": "TAF VHHH 221400Z 2215/2321 16010KT 9999 FEW010 SCT025 TX34/2306Z TN28/2222Z TEMPO 2215/2224 VRB05KT BECMG 2304/2306 22010KT BECMG 2310/2312 16010KT TEMPO 2315/2321 VRB05KT",
    "RCTP": "TAF RCTP 221100Z 2212/2318 21005KT 9999 FEW015 TEMPO 2218/2223 15005KT SCT010 BKN017 BECMG 2223/2301 25005KT TEMPO 2302/2308 27010KT TEMPO 2306/2310 FEW010 FEW015TCU BKN020 BECMG 2308/2310 08007KT",
    "ZGSZ": "TAF ZGSZ 220905Z 2212/2318 18004MPS 8000 SCT040 TX30/2212Z TX33/2306Z TN28/2222Z",
    "WSSS": "TAF WSSS 221100Z 2212/2318 19008KT 9999 FEW015 SCT020",
    "WMKK": "TAF WMKK 221100Z 2212/2318 VRB03KT 9000 FEW018 PROB30 TEMPO 2220/2300 5000 TSRA FEW010 FEW017CB",
    "VTBS": "TAF VTBS 221100Z 2212/2318 22008KT 9999 FEW020 TEMPO 2212/2215 VRB15G25KT 4000 TSRA FEW018CB SCT030 BKN100 TEMPO 2309/2313 VRB15G25KT 4000 TSRA FEW018CB SCT030 BKN100",
    "VTBU": "TAF VTBU 221100Z 2212/2312 23008KT 9999 FEW020",
    "ROAH": "TAF ROAH 221105Z 2212/2318 14005KT 9999 FEW012 SCT020 BECMG 2214/2216 04004KT TEMPO 2303/2309 4000 SHRA BR FEW008 BKN015 FEW020CB BECMG 2309/2312 11006KT",
    "VVDN": "TAF AMD VVDN 221400Z 2214/2312 20006KT 9999 SCT017 SCT050 TEMPO 2214/2218 4000 SHRA BKN013 FEW015CB BKN050 BECMG 2304/2305 01010KT TEMPO 2308/2312 23015G25KT 3500 TSRA BKN013 FEW015CB BKN050",
    "RCKH": "TAF RCKH 221100Z 2212/2318 24005KT 9999 FEW015 BKN032 BECMG 2214/2216 07005KT TEMPO 2220/2302 6000 -RA FEW010 BKN022 BECMG 2300/2302 30005KT TEMPO 2303/2309 29010KT BECMG 2316/2318 35005KT",
    "KLAX": "TAF KLAX 221459Z 2215/2318 26005KT P6SM OVC006 FM221800 26008KT P6SM SCT006 FM222000 26015KT P6SM SCT250 FM222300 26015G22KT P6SM SCT250 FM230300 26010KT P6SM SCT250 FM230600 26008KT P6SM BKN008",
    "KONT": "TAF KONT 221120Z 2212/2318 VRB05KT P6SM SKC FM222100 25011G19KT P6SM FEW200 FM230600 VRB05KT P6SM SKC",
    "KSFO": "TAF KSFO 221120Z 2212/2318 20015KT P6SM SCT012 FM221800 22015KT P6SM SKC FM222300 25015KT P6SM SKC FM230600 27010KT P6SM BKN015",
    "KOAK": "TAF KOAK 221120Z 2212/2318 26009KT P6SM FEW008 FM221300 25015KT P6SM BKN015 FM221800 28015KT P6SM SKC FM230500 28010KT P6SM BKN015",
    "KMHR": "TAF KMHR 221120Z 2212/2312 16007KT P6SM FEW250 FM221800 22009G15KT P6SM SKC FM222100 23012G21KT P6SM SKC FM230300 22010KT P6SM SKC FM230600 17005KT P6SM SKC",
    "KDFW": "TAF KDFW 221455Z 2215/2318 04010KT P6SM FEW250 FM230000 07008KT P6SM SCT070 SCT250",
    "KIAH": "TAF KIAH 221121Z 2212/2318 VRB03KT P6SM BKN250 FM221400 29006KT P6SM FEW070 SCT250 FM221800 34006KT P6SM FEW070 SCT250 FM230600 VRB05KT P6SM SKC",
    "KORD": "TAF KORD 221457Z 2215/2318 03011KT P6SM FEW035 SCT050 FM230200 VRB04KT P6SM FEW060",
    "KJFK": "TAF KJFK 221436Z 2215/2318 25014G20KT P6SM SCT030 SCT060 PROB30 2218/2221 5SM -SHRA FM222200 28011G17KT P6SM SCT070 FM230000 34009KT P6SM FEW090 FM230600 36009KT P6SM SKC",
    "KRFD": "TAF KRFD 221457Z 2215/2312 36011KT P6SM FEW070 FM230200 VRB04KT P6SM SCT060",
    "KIND": "TAF KIND 221120Z 2212/2318 01011KT P6SM SCT050 FM230100 36007KT P6SM FEW050 FM231300 05006KT P6SM FEW050",
    "KDTW": "TAF KDTW 221450Z 2215/2318 33012G22KT P6SM SCT045 FM221900 31012KT P6SM BKN060 FM230100 30007KT P6SM SCT060 FM230600 34004KT P6SM SKC",
    "KMSP": "TAF KMSP 221131Z 2212/2318 02005KT P6SM SCT050 FM221800 35007KT P6SM FEW060 FM230600 18003KT P6SM SKC",
    "CYEG": "TAF CYEG 221440Z 2215/2312 VRB03KT 5SM FU FEW020 FEW080 TEMPO 2215/2222 P6SM NSW FM222200 21005KT P6SM SCT030 TEMPO 2222/2303 5SM FU FM230300 16005KT P6SM SKC PROB30 2310/2312 1SM BR RMK NXT FCST BY 221800Z",
    "EHAM": "TAF EHAM 221103Z 2212/2318 32015KT 9999 FEW017 BKN030 BECMG 2217/2220 33008KT BECMG 2309/2312 33014KT BECMG 2315/2318 32007KT",
    "EBBR": "TAF EBBR 221105Z 2212/2318 33010KT 9999 SCT025 BKN045 PROB30 TEMPO 2303/2306 4500 -SHRA BKN012",
    "EDDF": "TAF EDDF 221100Z 2212/2318 31010KT 9999 FEW045 TEMPO 2212/2218 32010G20KT BECMG 2222/2224 31005KT TEMPO 2306/2310 BKN045 BECMG 2308/2310 31010KT TEMPO 2312/2318 32010G20KT",
    "EDFH": "TAF EDFH 221100Z 2212/2312 32007KT 9999 FEW045",
    "EDDL": "TAF EDDL 221100Z 2212/2318 30008KT 9999 BKN040 BECMG 2212/2214 30013KT BECMG 2218/2221 30004KT PROB30 TEMPO 2305/2308 BKN010 BECMG 2308/2311 31009KT",
    "EDDK": "TAF EDDK 221100Z 2212/2318 31012KT 9999 BKN030 BECMG 2218/2221 32005KT PROB30 TEMPO 2304/2308 BKN010 BECMG 2309/2312 32010KT",
    "EBLG": "TAF EBLG 221105Z 2212/2318 32010KT 9999 SCT020 BKN045 PROB30 TEMPO 2304/2309 4500 -SHRA BKN012",
    "LSZH": "TAF LSZH 221425Z 2215/2321 VRB02KT CAVOK TX27/2215Z TN13/2304Z TX27/2315Z PROB40 TEMPO 2215/2218 30008KT 9999 FEW060 PROB40 2304/2309 03005KT TEMPO 2308/2317 9999 FEW050 PROB40 TEMPO 2315/2320 31008KT",
    "LIMC": "TAF LIMC 221100Z 2212/2318 VRB05KT 9999 FEW050",
    "LIRF": "TAF LIRF 221100Z 2212/2318 29015KT 9999 FEW030 BECMG 2213/2215 32015KT BECMG 2222/2224 04008KT BECMG 2310/2312 25010KT",
    "EINN": "TAF EINN 221100Z 2212/2312 36009KT 9999 FEW028 SCT035 PROB30 2303/2308 0500 FG BKN001",
    "EGLL": "TAF EGLL 221053Z 2212/2318 04005KT 9999 FEW045 BECMG 2218/2221 11010KT BECMG 2303/2306 22005KT",
    "EGSS": "TAF EGSS 221051Z 2212/2318 04007KT 9999 FEW045 PROB40 2302/2307 6000",
    "EPWA": "TAF EPWA 221430Z 2215/2315 29005KT CAVOK TEMPO 2303/2315 27020G30KT 2500 TSRA BKN010 BKN025CB",
    "UHPP": "TAF UHPP 221345Z 2215/2321 15003G10MPS 9999 SCT012 BKN030CB TEMPO 2215/2221 0500 DZ FG VV002",
    "EFHK": "TAF EFHK 221432Z 2215/2315 02010KT CAVOK TEMPO 2215/2216 12008KT BECMG 2216/2217 32010KT TEMPO 2303/2306 7000 SHRA BKN007 SCT020CB TEMPO 2307/2315 SCT025CB PROB40 2310/2315 SHRA",
    "LBBG": "TAF LBBG 221100Z 2212/2312 34012KT 9999 SCT015 SCT045 TEMPO 2212/2217 VRB20G35KT 3000 TSRA SCT010 SCT025CB BKN030 TEMPO 2222/2306 BKN010 OVC020",
    "LTAC": "TAF LTAC 221040Z 2212/2312 VRB02KT 9999 FEW040 BECMG 2212/2215 CAVOK BECMG 2300/2303 SCT040 SCT100 BECMG 2304/2307 27012KT PROB30 TEMPO 2307/2311 33015G25KT -SHRA FEW025CB BKN030",
    "UBBB": "TAF UBBB 221050Z 2212/2312 17012KT CAVOK TX32/2212Z TN22/2301Z TEMPO 2212/2218 14006KT SCT020 BECMG 2218/2220 VRB04KT TEMPO 2220/2304 30005KT FEW010 BECMG 2304/2306 17008KT",
    "UTAA": "TAF UTAA 221055Z 2211/2312 28016KT 6000 SCT030 SCT050CB TEMPO 2211/2214 22018G28KT 3000 BLDU TEMPO 2214/2218 18014G24KT 4000 DRDU",
    "UACC": "TAF UACC 221100Z 2212/2312 36005MPS 9999 SCT020CB BKN050 TX22/2310Z TN15/2223Z TEMPO 2212/2218 32005MPS -TSRA SCT011 BKN015CB BECMG 2218/2220 36003MPS SCT030 BKN100 TEMPO 2218/2304 02005MPS -SHRA SCT011 BKN020CB BECMG 2304/2306 02006MPS SCT030CB TEMPO 2304/2312 VRB15MPS -TSRA SQ BKN020CB",
    "UAAA": "TAF UAAA 221104Z 2212/2312 22003MPS 9999 SCT050CB BKN100 TX31/2309Z TN18/2300Z TEMPO 2212/2218 16005G12MPS TS TEMPO 2223/2305 28005G10MPS 5000 -TSRA BECMG 2305/2307 34005MPS TEMPO 2308/2312 04006G14MPS 5000 -TSRA BLDU",
    "UZTT": "TAF UZTT 221100Z 2212/2312 32010KT 7000 FEW060CB SCT100 TX35/2311Z TN24/2300Z TEMPO 2212/2218 VRB15G25KT 3000 -TSRA -DS BKN050CB",
    "ZWWW": "TAF ZWWW 220915Z 2212/2318 33004G11MPS 8000 BKN040 TX31/2309Z TN24/2223Z TN26/2318Z BECMG 2306/2307 FEW040CB BKN040 BECMG 2313/2314 18004MPS CAVOK",
    "ZLXY": "TAF AMD ZLXY 221439Z 2212/2312 06004MPS 6000 NSC TX36/2308Z TN25/2221Z",
    "ZBAA": "TAF ZBAA 220900Z 2212/2318 14003MPS 6000 NSC TX29/2306Z TN21/2221Z TN22/2318Z TEMPO 2218/2224 -TSRA FEW030CB BKN040 TEMPO 2311/2315 TS FEW040CB",
    "ZBHH": "TAF AMD ZBHH 221123Z 2206/2306 24004G09MPS 9999 SCT040 TX30/2208Z TN15/2222Z TEMPO 2206/2209 SCT040 FEW040CB TEMPO 2210/2212 33006G12MPS BECMG 2211/2212 -TSRA SCT040 FEW040CB TEMPO 2212/2214 2800 +TSRA BECMG 2214/2215 NSW NSC",
    "ZSQD": "TAF ZSQD 220901Z 2212/2312 16005MPS 5000 BR NSC TX31/2306Z TN22/2220Z BECMG 2217/2218 34003MPS BECMG 2305/2306 18005MPS",
    "ZMCK": "TAF ZMCK 221053Z 2212/2318 VRB02MPS 9999 FEW030CB SCT033 TN12/2221Z TX30/2307Z",
    "UUEE": "TAF UUEE 221358Z 2215/2315 21003G08MPS 9999 SCT016 TX22/2215Z TN14/2301Z PROB40 TEMPO 2300/2312 -TSRA BKN016CB BECMG 2303/2306 27005MPS",
    "UUDD": "TAF UUDD 221354Z 2215/2321 21003MPS 9999 BKN016 TX23/2215Z TN14/2321Z PROB40 TEMPO 2215/2218 -TSRA BKN020CB BECMG 2304/2306 27006MPS BECMG 2316/2318 VRB01MPS",
    "ULLI": "TAF ULLI 221354Z 2215/2315 30003G08MPS 6000 BKN016 TEMPO 2215/2217 3100 -TSRA BKN016CB TEMPO 2222/2303 0300 FG SCT003",
    "USSS": "TAF USSS 221351Z 2215/2315 35003G14MPS 9999 SCT040CB FM221800 32003MPS 6000 SCT016 FM230300 12003G12MPS 9999 SCT040CB TEMPO 2306/2315 -TSRA",
    "UNNT": "TAF UNNT 221400Z 2215/2315 31003G08MPS 8000 BKN030 TX25/2309Z TN16/2222Z TEMPO 2215/2302 0300 -TSRA FG BKN002 BKN020CB TEMPO 2302/2315 -TSRA BKN020CB",
    "UNKL": "TAF UNKL 221349Z 2215/2315 26003G08MPS 6000 SCT016CB TEMPO 2215/2218 -TSRA BECMG 2304/2307 -TSRA BECMG 2308/2311 NSW TEMPO 2311/2314 -TSRA",
    "UIBB": "TAF UIBB 221400Z 2215/2315 10003G08MPS 9999 BKN020CB TEMPO 2215/2218 VRB08MPS BECMG 2218/2220 23005MPS TEMPO 2221/2312 VRB10MPS -TSRA",
    "UEEE": "TAF UEEE 221400Z 2215/2321 11003G08MPS 9999 SCT020CB OVC100 TEMPO 2215/2224 VRB01MPS 0500 TSRA FG VV003",
    "UHHH": "TAF UHHH 221348Z 2215/2321 06003MPS 9999 SCT020CB TX30/2305Z TN20/2218Z TEMPO 2215/2222 0300 FG FEW003 SCT015CB",
    "UHSS": "TAF UHSS 221345Z 2215/2321 36003MPS 9999 BKN004 BECMG 2216/2218 0700 FG BKN002 BECMG 2222/2301 SCT040CB"
  },
  "atis": {},
  "windtemp_alaska": "\n000\nFBAK31 KWNO 221359\nFD1AK1\nDATA BASED ON 221200Z    \nVALID 221800Z   FOR USE 1400-2100Z. TEMPS NEG ABV 24000\n\nFT  3000    6000    9000   12000   18000   24000  30000  34000  39000\nADK 2453 2453+13 2450+09 2449+05 2351-05 2451-16 245431 245541 245254\nADQ 2622 2633+07 2735+03 2840-01 2841-09 2836-19 284935 294944 294855\nAKN 2221 2329+05 2446+03 2543-01 2741-09 2751-20 285735 287245 297752\nANC 1911 2115+01 2321-03 2522-05 2637-13 2745-21 288336 298746 286651\nANN 3428 3318+11 3320+08 3220+03 2822-11 2924-25 292543 292553 272850\nBET 1830 1931+03 2138+00 2248-02 2558-10 2567-20 267836 278445 267449\nBRW 2506 9900+06 1211+01 1221-05 1133-16 1037-28 115443 125550 142345\nBTI 2619 1911+07 1722+02 1621-04 1533-16 1539-28 143642 133249 162547\nBTT 2311 2310+02 2209-04 2211-09 1808-21 1422-33 144044 171639 231439\nCDB 2439 2539+09 2738+06 2740+02 2850-06 2944-16 294732 295242 305556\nCZF 1426 1424+01 1827-01 2131-04 2349-13 2477-22 259836 259944 257945\nEHM 2237 2236+06 2244+04 2349+01 2648-08 2760-18 278433 289843 279653\nFAI 2617 2617+00 2313-04 2308-09 2115-21 2315-34 263539 263438 252941\nFYU 2412 1418+02 1623-03 1718-08 1623-19 1536-28 145144 163843 192041\nGAL 2017 2017+00 2015-06 2212-08 2415-19 2744-28 277941 276242 263441\nGKN 1621 2119+01 2310-03 2421-07 2643-15 2554-23 276440 286748 274848\nHOM 2016 2313+03 2523-01 2630-03 2844-10 2851-20 285635 285645 285153\nJNU 2605 3117+06 3230+04 3228+01 3134-14 3044-25 314442 324553 322648\nLUR 9900 2705+01 9900-05 1508-09 1309-19 1117-32 103046 112643 141340\nMCG 2025 2119+00 2014-05 2423-06 2537-15 2753-24 279437 289946 276046\nMDO 2516 2523+05 2533+02 2534-02 2535-13 2740-21 305236 306345 296556\nOME 1209 1012+00 0814-06 1510-08 2113-18 2422-29 245842 245441 243840\nORT      2518+02 2319-03 2326-06 2338-15 2456-25 245841 245449 253347\nOTZ 1111 1011+01 1014-05 1017-10 1312-20 1318-32 201243 231640 221639\nSNP 2440 2449+12 2456+08 2457+03 2576-07 2587-16 259831 259541 258653\nTKA 1923 2022+00 2121-05 2328-07 2646-15 2753-25 289138 289346 275647\nUNK 1912 1615-01 1914-03 2116-06 2424-16 2546-26 258739 268544 265042\nYAK 9900 2522+04 2740+02 2641-02 2741-14 2639-23 293439 304051 303854\nIKO 2440 2442+13 2544+08 2540+04 2630-06 2630-16 263131 283442 293355\nAFM 1508 1412+01 1214-05 1021-10 1316-21 1317-33 151042 200939 211339\n5AB 2317 2425+12 2429+08 2530+03 2341-08 2363-18 237432 238142 238754\n5AC 3634 3627+10 3520+07 3415+03 3112-11 3012-25 301542 272050 252553\n5AD 2621 2717+08 2715+05 2715+00 2715-13 2713-24 352938 364447 016257\n5AE 2435 2222+10 2823+05 2722-01 2822-08 2930-18 325134 325345 336855\n5AF 3122 3226+08 3321+05 3320+00 3020-12 2924-25 292242 311853 312653\n5AG 2627 2629+06 2533+04 2531-01 2637-13 2638-23 284038 324648 325656\n",
  "vaac_active": [
    {
      "volcano": "SHEVELUCH",
      "volcano_jp": "シベルチ",
      "advisory_nr": "2026/216",
      "obs_time": "2026-07-22 12:30Z",
      "issued_time": "2026-07-22 12:30Z",
      "text_url": "https://www.data.jma.go.jp/vaac/data/TextData/2026/20260722_30027000_0216_AN_Text.html",
      "lat": 56.65,
      "lon": 161.367,
      "text": "FVFE01 RJTD 221237\nVAAAK1\nVA ADVISORY\n\nDTG: 20260722/1230Z\n\nVAAC: ANCHORAGE\n\nVOLCANO: SHEVELUCH 300270\n\nPSN: N5639 E16122\n\nAREA: KAMCHATKA PENINSULA\n\nSOURCE ELEV: 10771 FT AMSL\n\nADVISORY NR: 2026/216\n\nINFO SOURCE: HIMAWARI/GOES\n\nERUPTION DETAILS: VA CONTINUOUSLY OBS IN SATELLITE IMAGERY\n\nOBS VA DTG: 22/1230Z\n\nOBS VA CLD: SFC/FL320 N6201 W15427 - N6453 W15735 - N6524 W17007\n- N6309 W17425 - N6201 W15427 MOV E 90KT\n\nFCST VA CLD +6HR: 22/1830Z SFC/FL320 N6700 W16147 - N6245 W14108\n- N6056 W14242 - N6356 W16602 - N6700 W16147\n\nFCST VA CLD +12HR: 23/0030Z SFC/FL320 N6717 W15308 - N6256\nW14010 - N5935 W13457 - N6727 W13449 - N6615 W14056 - N6717\nW15308 - N6717 W15308\n\nFCST VA CLD +18HR: 23/0630Z NO VA EXP\n\nRMK: NIL...BS\n\nNXT ADVISORY: WILL BE ISSUED BY 20260722/1830Z="
    },
    {
      "volcano": "SHEVELUCH",
      "volcano_jp": "シベルチ",
      "advisory_nr": "2026/215",
      "obs_time": "2026-07-22 09:30Z",
      "issued_time": "2026-07-22 09:30Z",
      "text_url": "https://www.data.jma.go.jp/vaac/data/TextData/2026/20260722_30027000_0215_AN_Text.html",
      "lat": 56.65,
      "lon": 161.367,
      "text": "FVFE01 RJTD 220945\nVAAAK1\nVA ADVISORY\n\nDTG: 20260722/0930Z\n\nVAAC: ANCHORAGE\n\nVOLCANO: SHEVELUCH 300270\n\nPSN: N5639 E16122\n\nAREA: KAMCHATKA PENINSULA\n\nSOURCE ELEV: 10771 FT AMSL\n\nADVISORY NR: 2026/215\n\nINFO SOURCE: HIMAWARI/GOES\n\nERUPTION DETAILS: VA CONTINUOUSLY OBS IN SATELLITE IMAGERY\n\nOBS VA DTG: 22/0930Z\n\nOBS VA CLD: SFC/FL320 N6507 W16714 - N6212 W16318 - N6201 W17748\n- N6518 W16953 - N6507 W16714 MOV E 100KT\n\nFCST VA CLD +6HR: 22/1530Z SFC/FL320 N6215 W14746 - N6102 W14944\n- N6342 W17247 - N6702 W16420 - N6215 W14746 - N6215 W14746\n\nFCST VA CLD +12HR: 22/2130Z NO VA EXP\n\nFCST VA CLD +18HR: 23/0330Z NO VA EXP\n\nRMK: NIL...BS\n\nNXT ADVISORY: WILL BE ISSUED BY 20260722/1530Z="
    }
  ],
  "vaac_tokyo": [
    {
      "id": "20260722_30027000_0276",
      "year": "2026",
      "volcano": "Sheveluch",
      "psn": "N5639 E16122",
      "issued": "20260722",
      "text": "FVFE01 RJTD 220506\nVA ADVISORY\nDTG: 20260722/0506Z\nVAAC: TOKYO\nVOLCANO: SHEVELUCH 300270\nPSN: N5639 E16122\nAREA: RUSSIA\nSOURCE ELEV: 3283M AMSL\nADVISORY NR: 2026/276\nINFO SOURCE: HIMAWARI-9\nERUPTION DETAILS: VA CONTINUOUSLY OBS IN SATELLITE IMAGERY\nOBS VA DTG: 22/0430Z\nOBS VA CLD: SFC/FL350 N6057 E17954 - N6010 W17949 - N5908 E17504 - \nN5937 E17453 - N6015 E17614 MOV NE 100KT\nFCST VA CLD +6 HR: 22/1030Z SFC/FL370 N6217 W15947 - N6303 W17404 - \nN6354 W17256 - N6401 W16626\nFCST VA CLD +12 HR: 22/1630Z SFC/FL380 N6204 W14422 - N6050 W14304 - \nN6532 W16429 - N6624 W16339\nFCST VA CLD +18 HR: 22/2230Z SFC/FL390 N6338 W13523 - N5921 W13421 - \nN6726 W15737 - N6713 W15453\nRMK: THE RESPONSIBILITY FOR THIS ASH EVENT IS BEING TRANSFERRED TO \nVAAC ANCHORAGE. THE NEXT ADVISORY WILL BE ISSUED BY VAAC ANCHORAGE \nBY 0700UTC UNDER HEADER FVAK21 PAWU. SOUTHERN PART OF VA OBSCURED BY \nMET CLOUD.\nNXT ADVISORY: NO FURTHER ADVISORIES=",
      "img_url": "https://ds.data.jma.go.jp/svd/vaac/data/VAGFN/2026/Images/20260722_30027000_0276_QH21_01.png",
      "sat_img_url": "https://ds.data.jma.go.jp/svd/vaac/data/Sat/2026/Images/30027000/09-ir/20260722_0430_202607220506_ir.png",
      "text_url": "https://ds.data.jma.go.jp/svd/vaac/data/TextData/2026/20260722_30027000_0276_Text.html"
    },
    {
      "id": "20260722_28505000_0001",
      "year": "2026",
      "volcano": "Tokachidake",
      "psn": "N4325 E14241",
      "issued": "20260722",
      "text": "FVFE01 RJTD 220219\nVA ADVISORY\nDTG: 20260722/0219Z\nVAAC: TOKYO\nVOLCANO: TOKACHIDAKE 285050\nPSN: N4325 E14241\nAREA: JAPAN\nSOURCE ELEV: 2077M AMSL\nADVISORY NR: 2026/1\nINFO SOURCE: JMA HIMAWARI-9\nERUPTION DETAILS: ERUPTED AT 20260722/0207Z FL070 STNR\nOBS VA DTG: 22/0200Z\nOBS VA CLD: VA NOT IDENTIFIABLE FM SATELLITE DATA WIND FL070 290/9KT\nFCST VA CLD +6 HR: NOT AVBL\nFCST VA CLD +12 HR: NOT AVBL\nFCST VA CLD +18 HR: NOT AVBL\nRMK: WE WILL ISSUE FURTHER ADVISORY IF VA IS DETECTED IN SATELLITE \nIMAGERY.\nNXT ADVISORY: NO FURTHER ADVISORIES=",
      "img_url": "https://ds.data.jma.go.jp/svd/vaac/data/VAGFN/2026/Images/20260722_28505000_0001_QH21_01.png",
      "sat_img_url": null,
      "text_url": "https://ds.data.jma.go.jp/svd/vaac/data/TextData/2026/20260722_28505000_0001_Text.html"
    },
    {
      "id": "20260721_27307000_0019",
      "year": "2026",
      "volcano": "Taal",
      "psn": "N1400 E12100",
      "issued": "20260721",
      "text": "FVFE01 RJTD 211319\nVA ADVISORY\nDTG: 20260721/1319Z\nVAAC: TOKYO\nVOLCANO: TAAL 273070\nPSN: N1400 E12100\nAREA: PHILIPPINES\nSOURCE ELEV: 311M AMSL\nADVISORY NR: 2026/19\nINFO SOURCE: HIMAWARI-9 PHIVOLCS\nERUPTION DETAILS: ERUPTION AT 20260721/1209Z FL110 REPORTED\nOBS VA DTG: 21/1250Z\nOBS VA CLD: SFC/FL110 N1404 E12056 - N1359 E12050 - N1354 E12057 - \nN1358 E12100 MOV W 15KT\nFCST VA CLD +6 HR: 21/1850Z SFC/FL130 N1329 E12051 - N1306 E12036 - \nN1322 E11953 - N1339 E12003\nFCST VA CLD +12 HR: 22/0050Z SFC/FL140 N1259 E12029 - N1227 E12001 - \nN1251 E11858 - N1320 E11911\nFCST VA CLD +18 HR: NO VA EXP\nRMK: NIL\nNXT ADVISORY: 20260721/1800Z=",
      "img_url": "https://ds.data.jma.go.jp/svd/vaac/data/VAGFN/2026/Images/20260721_27307000_0019_QH21_01.png",
      "sat_img_url": "https://ds.data.jma.go.jp/svd/vaac/data/Sat/2026/Images/27307000/09-ir/20260721_1250_202607211319_ir.png",
      "text_url": "https://ds.data.jma.go.jp/svd/vaac/data/TextData/2026/20260721_27307000_0019_Text.html"
    },
    {
      "id": "20260721_28208001_0086",
      "year": "2026",
      "volcano": null,
      "psn": "N3136 E13039",
      "issued": "20260721",
      "text": "FVFE01 RJTD 210627\nVA ADVISORY\nDTG: 20260721/0627Z\nVAAC: TOKYO\nVOLCANO: SAKURAJIMA (AIRA CALDERA) 282080\nPSN: N3136 E13039\nAREA: JAPAN\nSOURCE ELEV: 1117M AMSL\nADVISORY NR: 2026/86\nINFO SOURCE: JMA HIMAWARI-9\nERUPTION DETAILS: ERUPTED AT 20260721/0514Z FL140 STNR\nOBS VA DTG: 21/0610Z\nOBS VA CLD: SFC/FL140 N3140 E13037 - N3139 E13043 - N3131 E13043 - \nN3131 E13036 MOV S 5KT\nFCST VA CLD +6 HR: 21/1210Z SFC/FL140 N3207 E13054 - N3118 E13054 - \nN3119 E13021 - N3159 E13012\nFCST VA CLD +12 HR: 21/1810Z SFC/FL140 N3224 E13103 - N3138 E13035 - \nN3138 E12953 - N3315 E13009\nFCST VA CLD +18 HR: NO VA EXP\nRMK: NIL\nNXT ADVISORY: 20260721/1200Z=",
      "img_url": "https://ds.data.jma.go.jp/svd/vaac/data/VAGFN/2026/Images/20260721_28208001_0086_QH21_01.png",
      "sat_img_url": "https://ds.data.jma.go.jp/svd/vaac/data/Sat/2026/Images/28208001/09-ir/20260721_0610_202607210627_ir.png",
      "text_url": "https://ds.data.jma.go.jp/svd/vaac/data/TextData/2026/20260721_28208001_0086_Text.html"
    }
  ],
  "vaac_alaska": [
    {
      "text": "\n000\nFVAK21 PAWU 221234\nVAAAK1\nVA ADVISORY\n\nDTG: 20260722/1230Z\n\nVAAC: ANCHORAGE\n\nVOLCANO: SHEVELUCH 300270\n\nPSN: N5639 E16122\n\nAREA: KAMCHATKA PENINSULA\n\nSOURCE ELEV: 10771 FT AMSL\n\nADVISORY NR: 2026/216\n\nINFO SOURCE: HIMAWARI/GOES\n\nERUPTION DETAILS: VA CONTINUOUSLY OBS IN SATELLITE IMAGERY\n\nOBS VA DTG: 22/1230Z\n\nOBS VA CLD: SFC/FL320 N6201 W15427 - N6453 W15735 - N6524 W17007\n- N6309 W17425 - N6201 W15427 MOV E 90KT\n\nFCST VA CLD +6HR: 22/1830Z SFC/FL320 N6700 W16147 - N6245 W14108\n- N6056 W14242 - N6356 W16602 - N6700 W16147\n\nFCST VA CLD +12HR: 23/0030Z SFC/FL320 N6717 W15308 - N6256\nW14010 - N5935 W13457 - N6727 W13449 - N6615 W14056 - N6717\nW15308 - N6717 W15308\n\nFCST VA CLD +18HR: 23/0630Z NO VA EXP\n\nRMK: NIL...BS\n\nNXT ADVISORY: WILL BE ISSUED BY 20260722/1830Z=\n\n",
      "issued": "2026-07-22T12:34:00+00:00",
      "volcano": "Sheveluch",
      "psn": "N5639 E16122"
    }
  ]
}