{
  "updated_utc": "2026-07-14T10:40Z",
  "metar": {
    "RJAA": "METAR RJAA 140900Z 16006KT 9999 FEW030 SCT/// 30/23 Q1005 NOSIG",
    "PANC": "METAR PANC 140853Z 16017G32KT 10SM FEW050 BKN060 OVC085 13/08 A3006 RMK AO2 PK WND 13034/0830 RAB0758E43 SLP179 P0000 60000 T01330078 401560106 55002",
    "PAFA": "METAR PAFA 140853Z 05006KT 10SM BKN085 BKN160 BKN200 13/11 A2992 RMK AO2 SLP134 T01330106 401890122 58002 $",
    "PAED": "METAR PAED 140855Z 01010KT 10SM -RA BKN060 11/09 A3004 RMK AO2A SLP169 P0001 60002 T01110092 401510106 55003 $",
    "KSEA": "METAR KSEA 140853Z 36007KT 10SM CLR 16/08 A3007 RMK AO2 SLP186 T01560078 53003 $",
    "ZSPD": "METAR ZSPD 140900Z 16006MPS CAVOK 34/26 Q1003 NOSIG",
    "ZSSS": "METAR ZSSS 140900Z 19006MPS CAVOK 36/26 Q1002 NOSIG",
    "RJFR": "METAR RJFR 140900Z 34008KT 9999 FEW030 SCT/// 31/25 Q1007",
    "VHHH": "METAR VHHH 140900Z 20015KT 9999 -SHRA FEW008 SCT012 26/25 Q1002 NOSIG",
    "RCTP": "METAR RCTP 140900Z 02005KT 340V040 9999 VCSH FEW012 FEW015CB SCT020 BKN100 30/26 Q1008 NOSIG RMK CB S A2979",
    "ZGSZ": "METAR ZGSZ 140900Z 16009MPS 9999 SCT011 BKN040 27/25 Q1001 BECMG AT1040 BKN013 BKN040",
    "WSSS": "METAR WSSS 140900Z 12012KT 9999 FEW016 FEW018TCU SCT030 31/24 Q1009 NOSIG",
    "WMKK": "METAR WMKK 140900Z VRB07KT 9000 FEW018 32/25 Q1007 NOSIG",
    "WIDD": "METAR WIDD 140900Z 15007KT 9999 SCT014 31/24 Q1009 NOSIG",
    "VTBS": "METAR VTBS 140900Z 20015KT 9999 SCT020 SCT030 32/24 Q1006 NOSIG",
    "VTBU": "METAR VTBU 140900Z 25010KT 9999 VCSH FEW018CB SCT020 30/28 Q1007 NOSIG",
    "ROAH": "METAR ROAH 140900Z 20008KT 9999 FEW015 SCT/// 28/25 Q1011",
    "VVDN": "METAR VVDN 140900Z 10006KT 060V130 9999 FEW017 32/26 Q1003 NOSIG",
    "RCKH": "SPECI RCKH 140845Z 16014G24KT 130V190 9999 -RA FEW010TCU FEW014 SCT020 BKN052 31/25 Q1008 WS R09 NOSIG RMK TCU NW A2978",
    "KLAX": "METAR KLAX 140853Z 26006KT 10SM BKN010 20/18 A2998 RMK AO2 SLP150 T02000178 58000 $",
    "KONT": "METAR KONT 140853Z 00000KT 10SM FEW160 23/14 A2999 RMK AO2 SLP137 T02280139 58003 $",
    "KSFO": "METAR KSFO 140856Z 27004KT 10SM BKN200 17/13 A2995 RMK AO2 SLP141 T01670128 56002",
    "KOAK": "METAR KOAK 140853Z 00000KT 10SM FEW006 FEW170 17/14 A2995 RMK AO2 SLP141 FU FEW006 T01670139 56004",
    "KMHR": "METAR KMHR 140855Z AUTO 15005KT 10SM CLR 21/12 A2990 RMK AO2 T02120118 50000 $",
    "KDFW": "METAR KDFW 140853Z 16004KT 10SM FEW017 FEW150 FEW200 24/22 A3006 RMK AO2 SLP170 T02440222 58004 $",
    "KIAH": "METAR KIAH 140853Z 09006KT 1/4SM BR BKN003 BKN044 25/25 A3004 RMK AO2 SFC VIS 6 SLP172 60000 T02500250 56011 $",
    "KORD": "METAR KORD 140851Z 22003KT 10SM CLR 24/20 A3016 RMK AO2 SLP206 T02440200 55000 $",
    "KJFK": "METAR KJFK 140851Z 25011KT 10SM FEW250 22/16 A3012 RMK AO2 SLP200 T02170161 55004 $",
    "KRFD": "METAR KRFD 140854Z 33003KT 8SM CLR 20/19 A3019 RMK AO2 SLP216 T02000194 58001",
    "KIND": "METAR KIND 140854Z 02005KT 10SM CLR 22/18 A3017 RMK AO2 SLP208 T02170178 55002 $",
    "KDTW": "METAR KDTW 140853Z 24004KT 8SM SCT140 OVC250 22/20 A3015 RMK AO2 SLP206 T02220200 55000 $",
    "KMSP": "METAR KMSP 140853Z 23005KT 10SM CLR 24/21 A3016 RMK AO2 SLP206 T02440206 50001",
    "CYEG": "METAR CYEG 140900Z 16005KT 20SM FEW093 13/11 A3017 RMK AC1 AC TR SLP222",
    "EHAM": "METAR EHAM 140855Z 05012KT 020V090 CAVOK 24/16 Q1019 NOSIG",
    "EBBR": "METAR EBBR 140850Z 02004KT 310V070 CAVOK 24/17 Q1018 NOSIG",
    "EDDF": "METAR EDDF 140850Z AUTO 06007KT 360V130 CAVOK 28/15 Q1016 NOSIG",
    "EDFH": "METAR EDFH 140850Z VRB04KT CAVOK 25/14 Q1018",
    "EDDL": "METAR EDDL 140850Z AUTO 03011KT 010V070 CAVOK 26/15 Q1018 NOSIG",
    "EDDK": "METAR EDDK 140850Z AUTO 02006KT 320V050 CAVOK 27/15 Q1017 NOSIG",
    "EBLG": "METAR EBLG 140850Z 04006KT 330V090 9999 FEW040 26/16 Q1018 NOSIG",
    "LSZH": "METAR LSZH 140850Z VRB03KT 9999 FEW060 24/16 Q1018 NOSIG",
    "LIMC": "METAR LIMC 140850Z VRB02KT CAVOK 31/19 Q1017 NOSIG",
    "LIRF": "METAR LIRF 140850Z 20006KT 160V260 CAVOK 33/17 Q1018 NOSIG",
    "EINN": "METAR EINN 140900Z 09005KT 020V180 CAVOK 22/14 Q1023 NOSIG",
    "EGLL": "METAR EGLL 140850Z AUTO 04010KT 350V070 9999 OVC018 20/15 Q1022",
    "EGSS": "METAR EGSS 140850Z AUTO 01012KT 330V040 9999 BKN018 BKN042 21/15 Q1022",
    "EPWA": "METAR EPWA 140900Z 34004KT 220V020 CAVOK 22/16 Q1019 NOSIG",
    "UHPP": "SPECI UHPP 140855Z 32006MPS 290V350 9999 FEW040CB SCT050 BKN070 23/14 Q1009 R34L/CLRD62 NOSIG RMK MT OBSC QFE753/1005",
    "EFHK": "METAR EFHK 140850Z 34007KT 300V040 9999 BKN025 19/12 Q1020 NOSIG",
    "LBBG": "METAR LBBG 140900Z 02009KT 350V050 9999 SCT042 27/14 Q1015 NOSIG",
    "LTAC": "METAR LTAC 140850Z 27007KT 200V300 9999 SCT040 SCT100 26/13 Q1013 NOSIG RMK RWY21C 29007KT 250V330 RWY03L 28009KT 220V320 RWY21R 27006KT 210V300 RWY03R 27006KT 210V310 RWY21L 27006KT 220V300",
    "UBBB": "METAR UBBB 140900Z 36008KT CAVOK 32/18 Q1007 NOSIG",
    "UTAA": "METAR UTAA 140900Z 36004KT 9999 FEW050 43/06 Q1007 R88/CLRD70 NOSIG",
    "UACC": "METAR UACC 140900Z 15004MPS 120V180 CAVOK 36/11 Q1007 NOSIG RMK QFE724/0965",
    "UAAA": "METAR UAAA 140900Z 02004MPS 350V070 9999 FEW050CB BKN200 33/13 Q1009 NOSIG",
    "UZTT": "METAR UZTT 140900Z 24008KT 200V300 CAVOK 38/04 Q1006 NOSIG",
    "ZWWW": "METAR ZWWW 140900Z 35004MPS 320V020 CAVOK 36/11 Q1005 NOSIG",
    "ZLXY": "METAR ZLXY 140900Z 35002MPS 320V040 CAVOK 35/24 Q0999 BECMG TL0930 33010G15MPS",
    "ZBAA": "METAR ZBAA 140900Z VRB01MPS CAVOK 30/23 Q0999 NOSIG",
    "ZBHH": "METAR ZBHH 140900Z 20004MPS 170V230 CAVOK 25/17 Q1008 NOSIG",
    "ZSQD": "METAR ZSQD 140900Z 31007MPS 9999 SCT020 BKN050 29/25 Q0998 NOSIG",
    "ZMCK": "METAR ZMCK 140900Z 31009MPS 9999 FEW030CB FEW033 22/09 Q1008 NOSIG RMK QFE641.9 45 MOP",
    "UUEE": "METAR UUEE 140900Z 35003G08MPS 240V050 9999 SCT026 22/15 Q1011 R24L/CLRD62 R24C/CLRD62 NOSIG",
    "UUDD": "METAR UUDD 140900Z 35005MPS 320V030 9999 SCT023 22/16 Q1011 R31L/CLRD65 NOSIG",
    "ULLI": "METAR ULLI 140900Z 35005MPS 9999 OVC026 18/12 Q1018 R88/090065 NOSIG",
    "USSS": "METAR USSS 140900Z 08004MPS 9999 BKN008 OVC015CB 19/19 Q1012 R08R/290350 R08L/290335 NOSIG RMK QFE739/0986",
    "UNNT": "METAR UNNT 140900Z 02004MPS CAVOK 24/12 Q1010 R34/CLRD// R25/CLRD// NOSIG RMK QFE747/0997",
    "UNKL": "METAR UNKL 140900Z 31005MPS CAVOK 20/14 Q1007 R29/CLRD// TEMPO 28011G16MPS RMK QFE730",
    "UIBB": "METAR UIBB 140900Z 14002MPS 030V200 9999 FEW046 23/11 Q1005 R30/CLRD62 NOSIG RMK QFE711/0948",
    "UEEE": "METAR UEEE 140900Z 11003MPS 9999 SCT050CB 28/19 Q0992 R23/09//55 NOSIG RMK QFE735",
    "UHHH": "METAR UHHH 140900Z 24005MPS 9999 FEW040 27/19 Q0999 R88/090060 NOSIG RMK QFE743/0991",
    "UHSS": "METAR UHSS 140900Z 16003MPS 9999 BKN009 BKN/// 21/20 Q1002 R19/CLRD70 NOSIG RMK MT OBSC QFE750/1000"
  },
  "taf": {
    "RJAA": "TAF RJAA 140505Z 1406/1512 13008KT 9999 FEW030",
    "PANC": "TAF PANC 140540Z 1406/1512 16020G30KT P6SM VCSH FEW030 OVC050 FM140800 15015G32KT P6SM -RA SCT020 OVC040 FM141500 14028G35KT 6SM -RA BR SCT020 OVC030 FM142100 13020G28KT P6SM -SHRA SCT020 OVC040 FM150300 15012G22KT P6SM VCSH FEW030 BKN050",
    "PAFA": "TAF PAFA 140520Z 1406/1512 VRB04KT P6SM SCT080 BKN200 FM141200 13007KT P6SM VCSH BKN060 OVC100",
    "PAED": "TAF PAED 140500Z 1405/1511 33009KT 9999 FEW013 FEW050 OVC060 620802 540109 QNH3004INS BECMG 1406/1407 33009KT 9999 -SHRA SCT015 BKN030 OVC045 640604 QNH3003INS BECMG 1410/1411 17010G15KT 9000 -RA SCT010 BKN020 OVC040 640604 550109 QNH2986INS BECMG 1421/1422 36009KT 9999 NSW FEW060 BKN080 OVC120 WS013/14035KT 610802 QNH2976INS BECMG 1502/1503 32012KT 9999 -SHRA FEW035 SCT050 OVC070 640703 550357 QNH2976INS BECMG 1506/1507 02008KT 8000 -RA BKN010 OVC020 640604 540109 QNH2979INS TX17/1501Z TN10/1414Z",
    "KSEA": "TAF KSEA 140850Z 1409/1512 01004KT P6SM SKC FM141400 34005KT P6SM SKC FM141900 31008KT P6SM SKC FM150300 35005KT P6SM SKC",
    "ZSPD": "TAF ZSPD 140905Z 1412/1518 18004MPS 8000 SCT030 TX32/1412Z TX35/1506Z TN28/1421Z TEMPO 1505/1509 TSRA BKN008 SCT030CB",
    "ZSSS": "TAF ZSSS 140904Z 1412/1518 18004MPS 8000 SCT030 TX34/1412Z TX37/1506Z TN29/1421Z TEMPO 1506/1509 TSRA BKN008 SCT030CB",
    "RJFR": "TAF RJFR 140505Z 1406/1512 36010KT 9999 FEW030 BECMG 1408/1410 17006KT",
    "VHHH": "TAF VHHH 140800Z 1409/1515 20015KT 9999 FEW015 SCT025 TX30/1506Z TN26/1422Z TEMPO 1409/1412 20020G30KT 2500 SHRA FEW010CB SCT020 TEMPO 1418/1421 20020G30KT 2000 +SHRA FEW010CB SCT020 TEMPO 1421/1503 20020G30KT 1500 TSRA +SHRA FEW008CB SCT015 TEMPO 1503/1506 3000 SHRA FEW010CB SCT020",
    "RCTP": "TAF RCTP 140500Z 1406/1512 33009KT 9999 FEW010 BKN032 TEMPO 1407/1412 26009KT 4000 SHRA FEW010 BKN017 FEW020CB BECMG 1412/1413 12005KT TEMPO 1413/1418 19005KT TEMPO 1418/1424 19005KT BECMG 1500/1501 27005KT",
    "ZGSZ": "TAF ZGSZ 140907Z 1412/1518 16004MPS 8000 SCT013 SCT040 TX27/1412Z TX31/1506Z TN26/1422Z TEMPO 1421/1423 SHRA FEW020 FEW025CB BKN030 TEMPO 1500/1503 2000 +SHRA FEW012 FEW020CB BKN030 TEMPO 1505/1508 TSRA FEW012 FEW020CB BKN030",
    "WSSS": "TAF WSSS 140500Z 1406/1512 16009KT 9999 FEW015 SCT020",
    "WMKK": "TAF WMKK 140500Z 1406/1512 15007KT 9999 FEW018 PROB30 TEMPO 1406/1410 6000 -TSRA FEW017CB SCT018",
    "VTBS": "TAF VTBS 140500Z 1406/1512 21008KT 9999 FEW020 TEMPO 1406/1412 VRB15G25KT 4000 TSRA FEW018CB SCT030 BKN100 TEMPO 1508/1512 VRB15G25KT 4000 TSRA FEW018CB SCT030 BKN100",
    "VTBU": "TAF VTBU 140500Z 1406/1506 23010KT 9999 FEW020",
    "ROAH": "TAF ROAH 140505Z 1406/1512 19010KT 9999 FEW008 SCT015 TEMPO 1415/1500 FEW005 BKN008",
    "VVDN": "TAF VVDN 140500Z 1406/1506 01010KT 9999 FEW020 SCT060 TEMPO 1407/1410 TS SCT013 FEW015CB SCT060 PROB30 TEMPO 1410/1413 24015G25KT 4500 TSRA BKN013 FEW015CB BKN060 BECMG 1413/1414 21006KT",
    "RCKH": "TAF RCKH 140500Z 1406/1512 15009KT 6000 FEW010 BKN032 TEMPO 1406/1412 16015KT 3200 SHRA FEW010 BKN017 FEW020CB BECMG 1412/1413 14005KT TEMPO 1418/1424 20005KT 4000 SHRA FEW010 BKN017 FEW020CB TEMPO 1500/1506 21005KT 3500 SHRA FEW010 BKN017",
    "KLAX": "TAF KLAX 140843Z 1409/1512 VRB03KT P6SM BKN012 FM141000 VRB03KT P6SM OVC006 FM141700 26006KT P6SM SCT008 FM141900 26012KT P6SM SCT250 FM150300 26008KT P6SM SCT250 FM150500 24005KT P6SM BKN008 FM151000 VRB03KT P6SM OVC006",
    "KONT": "TAF KONT 140520Z 1406/1512 VRB04KT P6SM FEW150 FM142000 25012G20KT P6SM FEW200 FM150300 25007KT P6SM SKC FM150700 VRB04KT P6SM SKC",
    "KSFO": "TAF KSFO 140849Z 1409/1512 28007KT P6SM FEW200 FM141900 28015G25KT P6SM FEW200 FM150800 26008KT P6SM FEW010",
    "KOAK": "TAF KOAK 140520Z 1406/1512 29008KT P6SM BKN150 BKN200 FM141200 29004KT P6SM FEW010 BKN200 FM141800 26007KT P6SM BKN150 FM142100 29012KT P6SM BKN150 FM150400 28010KT P6SM FEW010 BKN150",
    "KMHR": "TAF KMHR 140520Z 1406/1506 VRB04KT P6SM SKC FM142100 24010G17KT P6SM SCT250",
    "KDFW": "TAF KDFW 140832Z 1409/1512 13004KT P6SM FEW020 FEW060 FM141800 12007KT P6SM VCSH SCT080 FM150000 18004KT P6SM SCT210",
    "KIAH": "TAF KIAH 140842Z 1409/1512 VRB03KT 6SM BR FEW008 SCT020 OVC150 TEMPO 1409/1410 SCT004 BKN008 FM141000 VRB04KT P6SM VCTS SCT008 SCT015 BKN020CB FM141200 16005KT 5SM SHRA VCTS SCT015 BKN020CB TEMPO 1412/1416 3SM TSRA OVC015CB FM141600 18007KT 6SM SHRA BR SCT020 BKN025 FM141900 15007KT P6SM SCT030 OVC100 FM150300 VRB03KT P6SM SCT030 BKN070",
    "KORD": "TAF KORD 140851Z 1409/1512 26006KT P6SM SKC FM141200 31005KT P6SM SKC FM141900 08006KT P6SM SKC FM150000 25005KT P6SM SKC",
    "KJFK": "TAF KJFK 140831Z 1409/1512 23013KT P6SM FEW250 FM141500 24013G20KT P6SM FEW250 FM141800 21018G25KT P6SM FEW250 FM150200 24014KT P6SM FEW250 FM150700 25011KT P6SM FEW250",
    "KRFD": "TAF KRFD 140851Z 1409/1506 24003KT P6SM SKC FM141200 32005KT P6SM SKC FM142000 27004KT P6SM SKC",
    "KIND": "TAF KIND 140529Z 1406/1512 04005KT P6SM FEW250 FM141600 09006KT P6SM FEW050",
    "KDTW": "TAF KDTW 140830Z 1409/1512 23005KT P6SM SCT250 FM141400 26008KT P6SM SCT250 FM142000 25010KT P6SM SKC FM150100 24006KT P6SM SKC",
    "KMSP": "TAF KMSP 140850Z 1409/1512 23008KT P6SM SKC",
    "CYEG": "TAF CYEG 140840Z 1409/1506 08006KT P6SM FEW090 FM141300 10005KT P6SM SKC FM142200 13012KT P6SM SCT060 FM150300 12014KT P6SM VCTS BKN060CB FM150500 16012KT P6SM FEW040 RMK NXT FCST BY 141200Z",
    "EHAM": "TAF EHAM 140432Z 1406/1512 04012KT CAVOK",
    "EBBR": "TAF EBBR 140507Z 1406/1512 03006KT CAVOK ",
    "EDDF": "TAF EDDF 140500Z 1406/1512 04012KT CAVOK TEMPO 1413/1419 04020G30KT TSRA BKN070CB PROB30 TEMPO 1414/1418 31025G45KT 2000 +TSRAGR",
    "EDFH": "TAF EDFH 140500Z 1406/1506 08008KT CAVOK PROB40 TEMPO 1412/1419 04020G30KT TSRA BKN060CB PROB30 TEMPO 1414/1419 31025G45KT 2000 +TSRAGR",
    "EDDL": "TAF EDDL 140500Z 1406/1512 VRB03KT CAVOK BECMG 1406/1408 04008KT BECMG 1410/1412 04013KT PROB30 TEMPO 1413/1417 04015G25KT BECMG 1419/1422 02005KT BECMG 1508/1510 04010KT",
    "EDDK": "TAF EDDK 140500Z 1406/1512 VRB03KT CAVOK BECMG 1407/1410 04008KT PROB30 TEMPO 1413/1416 03015G25KT BECMG 1420/1423 VRB03KT BECMG 1508/1511 04008KT",
    "EBLG": "TAF EBLG 140507Z 1406/1512 03007KT CAVOK",
    "LSZH": "TAF COR LSZH 140838Z 1409/1515 12004KT 9999 FEW060 TX30/1415Z TN19/1504Z TX28/1514Z TEMPO 1409/1413 CAVOK TEMPO 1413/1420 22012KT FEW080TCU PROB40 TEMPO 1414/1419 32015G25KT TSRA SCT060CB BECMG 1420/1422 CAVOK PROB40 TEMPO 1513/1515 21018G30KT TSRA SCT060CB",
    "LIMC": "TAF LIMC 140500Z 1406/1512 VRB05KT 9999 FEW060 BECMG 1412/1414 23010KT BECMG 1418/1420 VRB05KT",
    "LIRF": "TAF LIRF 140500Z 1406/1512 VRB05KT CAVOK BECMG 1409/1411 20010KT BECMG 1417/1419 14010KT",
    "EINN": "TAF EINN 140500Z 1406/1506 03007KT CAVOK BECMG 1407/1409 08010KT BECMG 1418/1420 04007KT",
    "EGLL": "TAF EGLL 140455Z 1406/1512 05010KT 9999 BKN016 TEMPO 1406/1408 BKN010 BECMG 1409/1412 CAVOK PROB30 TEMPO 1504/1506 BKN010",
    "EGSS": "TAF AMD EGSS 141019Z 1410/1512 04012KT 9999 BKN014 BECMG 1410/1413 FEW025 PROB40 TEMPO 1412/1419 05015G25KT BECMG 1422/1501 BKN008 PROB30 1502/1506 8000 -DZ BKN004",
    "EPWA": "TAF EPWA 140830Z 1409/1509 VRB06KT CAVOK TEMPO 1410/1416 34010KT PROB40 1418/1424 03010KT PROB40 1500/1507 BKN005",
    "UHPP": "TAF UHPP 140734Z 1409/1515 32003G08MPS 9999 BKN040CB",
    "EFHK": "TAF EFHK 140828Z 1409/1509 36009KT 9999 BKN025",
    "LBBG": "TAF LBBG 140500Z 1406/1506 35010KT 9999 SCT050 PROB30 TEMPO 1410/1415 5000 SHRA FEW030CB BKN050 BECMG 1413/1415 13010KT BECMG 1417/1419 VRB04KT",
    "LTAC": "TAF LTAC 140440Z 1406/1506 VRB02KT 9999 SCT040 SCT100 TEMPO 1409/1413 30012KT TEMPO 1413/1417 35012KT BECMG 1416/1418 CAVOK",
    "UBBB": "TAF UBBB 140500Z 1406/1506 35014KT CAVOK TX33/1410Z TN25/1501Z TEMPO 1408/1416 05010KT BECMG 1416/1418 33010KT SCT015 BECMG 1420/1422 34020G30KT SCT012 FEW030CB TEMPO 1422/1506 33026G36KT",
    "UTAA": "TAF AMD UTAA 140559Z 1406/1506 03016KT 6000 SCT050 TX41/1406Z TEMPO 1410/1416 33016G26KT 3000 BLDU BECMG 1416/1418 23012KT TEMPO 1420/1503 20014KT",
    "UACC": "TAF UACC 140500Z 1406/1506 17005MPS 9999 SCT040 BKN100 TX38/1409Z TN22/1423Z TEMPO 1406/1418 -TSRA BKN030CB BECMG 1418/1420 14005MPS TEMPO 1418/1504 18005MPS -TSRA BKN030CB BECMG 1504/1506 24005MPS SCT040CB",
    "UAAA": "TAF UAAA 140502Z 1406/1506 34003MPS 9999 SCT050CB BKN100 TX33/1410Z TN20/1501Z TEMPO 1406/1415 04005G10MPS BECMG 1415/1417 14003MPS TEMPO 1415/1424 20005MPS BECMG 1502/1503 01005MPS SCT100",
    "UZTT": "TAF UZTT 140500Z 1406/1506 22010KT 7000 NSC TX40/1411Z TN26/1500Z TEMPO 1406/1418 32015KT",
    "ZWWW": "TAF ZWWW 140904Z 1412/1518 20004G09MPS CAVOK TX35/1509Z TN28/1423Z TN28/1518Z BECMG 1500/1501 34004G11MPS BECMG 1507/1508 9999 FEW040CB BECMG 1514/1515 20004MPS CAVOK",
    "ZLXY": "TAF ZLXY 140905Z 1412/1512 26010G15MPS 3000 TSRA BR FEW040CB OVC050 TX34/1507Z TN25/1421Z BECMG 1413/1414 26004MPS -SHRA BECMG 1415/1416 BR NSC",
    "ZBAA": "TAF ZBAA 140901Z 1412/1518 17004MPS CAVOK TX36/1506Z TN23/1421Z TN25/1518Z",
    "ZBHH": "TAF ZBHH 140902Z 1412/1512 06004MPS 9999 FEW040 TX31/1508Z TN14/1422Z TEMPO 1412/1414 FEW040CB FEW040",
    "ZSQD": "TAF ZSQD 140902Z 1412/1512 34005MPS 3500 BR NSC TX28/1506Z TN22/1420Z BECMG 1414/1415 22003MPS BECMG 1420/1421 1200 BECMG 1423/1424 3000",
    "ZMCK": "TAF ZMCK 141037Z 1412/1518 VRB02MPS 9999 FEW030CB SCT033 TN08/1421Z TX27/1507Z BECMG 1503/1505 28005MPS BECMG 1510/1512 VRB02MPS",
    "UUEE": "TAF UUEE 140753Z 1409/1509 34005MPS 9999 BKN020 TX25/1412Z TN17/1501Z TEMPO 1410/1418 31009G16MPS PROB40 TEMPO 1410/1418 -TSRA BKN016CB",
    "UUDD": "TAF UUDD 140754Z 1409/1515 33005MPS 9999 BKN016 TX25/1412Z TN16/1501Z TEMPO 1410/1418 35008G14MPS PROB40 TEMPO 1410/1418 -TSRA BKN020CB TEMPO 1421/1506 BKN007 TEMPO 1509/1515 35008G14MPS",
    "ULLI": "TAF ULLI 140751Z 1409/1509 36005G10MPS 9999 BKN020 BECMG 1416/1418 30003MPS",
    "USSS": "TAF USSS 140752Z 1409/1509 12003G13MPS 8000 -SHRA BKN011CB TEMPO 1409/1509 VRB20MPS -TSRAGR SQ BKN004 BKN010CB",
    "UNNT": "TAF UNNT 140800Z 1409/1509 34003G08MPS 9999 SCT020 TX25/1409Z TN13/1422Z TEMPO 1420/1424 0300 FG",
    "UNKL": "TAF UNKL 140750Z 1409/1509 27003G08MPS 8000 SCT040 TEMPO 1409/1415 30008G16MPS -TSRA BKN010 BKN016CB",
    "UIBB": "TAF UIBB 140800Z 1409/1509 17003G08MPS 9999 SCT050CB TEMPO 1409/1412 VRB08MPS BECMG 1412/1415 30005MPS",
    "UEEE": "TAF UEEE 140800Z 1409/1515 13005G10MPS 9999 SCT030CB BKN100 TX28/1409Z TN18/1418Z TEMPO 1409/1418 VRB17MPS 3200 -TSRA SQ SCT010 BKN025CB OVC100",
    "UHHH": "TAF UHHH 140748Z 1409/1515 23005MPS 9999 SCT030CB TX26/1508Z TN21/1420Z BECMG 1410/1412 17003MPS FM141600 10003MPS 5000 -SHRA FEW005 BKN016CB TEMPO 1416/1506 1400 SHRA BKN003 BKN016CB BECMG 1422/1424 01005MPS",
    "UHSS": "TAF UHSS 140750Z 1409/1515 19003MPS 9999 BKN025 BECMG 1410/1412 3000 BR BKN004 TEMPO 1412/1422 0600 FG BKN002 BECMG 1422/1424 9999 NSW BKN016CB BECMG 1505/1507 6000 -SHRA"
  },
  "atis": {},
  "windtemp_alaska": "\n000\nFBAK31 KWNO 140800\nFD1AK1\nDATA BASED ON 140600Z    \nVALID 141200Z   FOR USE 0800-1500Z. TEMPS NEG ABV 24000\n\nFT  3000    6000    9000   12000   18000   24000  30000  34000  39000\nADK 2912 2917+04 2728+01 2748-01 2859-12 2856-24 286639 286949 286060\nADQ 2242 2249+10 2347+05 2352-01 2242-13 2243-23 236139 227149 237658\nAKN 1925 2028+07 2139+02 2143-03 2057-15 2068-26 209639 700249 218152\nANC 1520 1632+02 1928-01 2130-04 2341-14 2453-25 247441 258551 258256\nANN 3509 3308+05 3309+02 3206-03 3209-16 3418-29 353145 353951 342347\nBET 1419 1619+03 1825+00 1926-06 2028-17 1924-29 203445 204048 213844\nBRW 2115 1916+00 1820-05 1818-11 1612-22 1609-34 121149 141245 141041\nBTI 2814 2818+03 2519-03 2219-08 1821-22 1538-33 155047 163548 191844\nBTT 1812 1819+00 1825-04 1729-10 1730-23 2229-34 254646 254345 232342\nCDB 2332 2340+06 2343+02 2345-04 2348-16 2254-27 226642 226647 225545\nCZF 0609 1010-01 1113-05 1011-10 1723-19 1933-30 193546 203350 202243\nEHM 1828 1831+05 1929+00 1930-05 2029-18 2130-30 213144 223646 224143\nFAI 2026 2125+03 2223-03 2125-08 2438-19 2553-28 256144 256052 254247\nFYU 2312 2115+03 2115-03 2118-08 2121-22 2127-34 266345 265848 243044\nGAL 1707 1812-01 2020-04 2018-08 2122-20 2337-29 224745 224752 223044\nGKN 1630 1835+02 2127-02 2220-05 2532-16 2645-25 266841 278151 266555\nHOM 1436 1834+05 2230+04 2333-01 2251-13 2359-24 237140 238249 248157\nJNU 2706 3007+00 2709+00 2407-04 3012-15 3230-27 345942 336452 345252\nLUR 2015 1910-01 1709-06 9900-11 0313-24 0317-37 071643 110742 140641\nMCG 1511 1716+00 1623-03 1921-07 2236-16 2142-28 225544 227751 225648\nMDO 1719 1816+04 2117+02 2523-02 2537-13 2644-23 265439 266649 277459\nOME 2110 1916-03 1815-05 2015-09 2014-21 2129-32 224947 213447 211843\nORT      2314+04 2115-02 2318-07 2531-17 2639-27 275842 276452 275553\nOTZ 1811 1714-02 1818-05 1817-11 1916-21 2123-33 223248 222246 211942\nSNP 3220 3121-01 3119-06 2921-10 2626-21 2527-32 242745 252842 252640\nTKA 1719 1830+00 1929-03 2035-05 2339-14 2355-26 247342 249251 256853\nUNK 1308 1615-01 1719-05 1818-08 2125-19 2229-29 204146 204052 212544\nYAK 9900 2709+02 2610-02 2910-03 2929-14 3038-24 304941 316750 306358\nIKO 2825 2826+02 2731+02 2737-04 2751-16 2769-27 299241 298850 275947\nAFM 1909 1813+00 1712-07 1915-11 2215-22 2321-33 243348 232846 222342\n5AB 2214 2729+06 2834+03 2837-01 2942-11 2947-22 285239 285349 285360\n5AC 3415 3310+05 3410+01 3411-02 3615-16 3632-27 366342 367849 365752\n5AD 2419 3034+11 2932+06 3030+01 3124-10 3019-22 292038 292248 302958\n5AE 2257 2247+10 2247+06 2252+00 2254-13 2359-24 226238 226647 227257\n5AF 2909 3110+03 2907-01 2810-03 3219-13 3435-24 345940 347450 337457\n5AG 1808 1912+03 2409+02 2612-01 2925-12 2933-24 304539 305149 306159\n",
  "vaac_active": [
    {
      "volcano": "SHEVELUCH",
      "volcano_jp": "シベルチ",
      "advisory_nr": "2026/262",
      "obs_time": "2026-07-14 08:20Z",
      "issued_time": "2026-07-14 09:00Z",
      "text_url": "https://www.data.jma.go.jp/vaac/data/TextData/2026/20260714_30027000_0262_Text.html",
      "lat": 56.65,
      "lon": 161.367,
      "text": "FVFE01 RJTD 140900\nVA ADVISORY\nDTG: 20260714/0900Z\nVAAC: TOKYO\nVOLCANO: SHEVELUCH 300270\nPSN: N5639 E16122\nAREA: RUSSIA\nSOURCE ELEV: 3283M AMSL\nADVISORY NR: 2026/262\nINFO SOURCE: KVERT HIMAWARI-9\nERUPTION DETAILS: VA CONTINUOUSLY OBS IN SATELLITE IMAGERY\nOBS VA DTG: 14/0820Z\nOBS VA CLD: SFC/FL390 N5512 E16343 - N5540 E16346 - N5540 E16429 - \nN5509 E16417 MOV SE 40KT\nFCST VA CLD +6 HR: 14/1420Z SFC/FL400 N5314 E17206 - N5244 E16756 - \nN5344 E16936 - N5353 E17105\nFCST VA CLD +12 HR: 14/2020Z SFC/FL400 N5256 E17936 - N5208 W17958 - \nN5103 E17602 - N5054 E17122\nFCST VA CLD +18 HR: 15/0220Z SFC/FL400 N5318 W17011 - N5241 W16952 - \nN5008 W17741 - N4939 E17352\nRMK: SOME PART OF VA OBSCURED BY MET CLOUD.\nNXT ADVISORY: 20260714/1200Z="
    },
    {
      "volcano": "SHEVELUCH",
      "volcano_jp": "シベルチ",
      "advisory_nr": "2026/261",
      "obs_time": "2026-07-14 05:40Z",
      "issued_time": "2026-07-14 07:10Z",
      "text_url": "https://www.data.jma.go.jp/vaac/data/TextData/2026/20260714_30027000_0261_Text.html",
      "lat": 56.65,
      "lon": 161.367,
      "text": "FVFE01 RJTD 140710\nVA ADVISORY\nDTG: 20260714/0710Z\nVAAC: TOKYO\nVOLCANO: SHEVELUCH 300270\nPSN: N5639 E16122\nAREA: RUSSIA\nSOURCE ELEV: 3283M AMSL\nADVISORY NR: 2026/261\nINFO SOURCE: HIMAWARI-9\nERUPTION DETAILS: POSS ERUPTION OBS AT 20260714/0540Z FL390 EXTD SE\nOBS VA DTG: 14/0630Z\nOBS VA CLD: SFC/FL390 N5622 E16211 - N5626 E16242 - N5616 E16247 - \nN5608 E16216 MOV SE 40KT\nFCST VA CLD +6 HR: 14/1230Z SFC/FL400 N5454 E17052 - N5332 E16940 - \nN5326 E16622 - N5424 E16710 - N5438 E16254 - N5628 E16110 - N5507 \nE16430\nFCST VA CLD +12 HR: 14/1830Z SFC/FL400 N5348 W17809 - N5134 E17749 - \nN5121 E17011 - N5306 E17326 - N5324 E16311 - N5639 E16125 - N5406 \nE16538\nFCST VA CLD +18 HR: 15/0030Z SFC/FL400 N5440 W16554 - N5330 W16532 - \nN4902 E17336 - N5202 E17316 - N5255 E16335 - N5630 E16139 - N5308 \nE16755\nRMK: SOME PART OF VA OBSCURED BY MET CLOUD.\nNXT ADVISORY: 20260714/0900Z="
    },
    {
      "volcano": "MAYON",
      "volcano_jp": "マヨン",
      "advisory_nr": "2026/740",
      "obs_time": "2026-07-14 06:29Z",
      "issued_time": "2026-07-14 06:51Z",
      "text_url": "https://www.data.jma.go.jp/vaac/data/TextData/2026/20260714_27303000_0740_Text.html",
      "lat": 13.25,
      "lon": 123.683,
      "text": "FVFE01 RJTD 140651\nVA ADVISORY\nDTG: 20260714/0651Z\nVAAC: TOKYO\nVOLCANO: MAYON 273030\nPSN: N1315 E12341\nAREA: PHILIPPINES\nSOURCE ELEV: 2462M AMSL\nADVISORY NR: 2026/740\nINFO SOURCE: HIMAWARI-9 PHIVOLCS\nERUPTION DETAILS: ERUPTION AT 20260714/0629Z VA CLD UNKNOWN REPORTED\nOBS VA DTG: 14/0640Z\nOBS VA CLD: VA NOT IDENTIFIABLE FM SATELLITE DATA WIND FL180 050/6KT\nFCST VA CLD +6 HR: NOT AVBL\nFCST VA CLD +12 HR: NOT AVBL\nFCST VA CLD +18 HR: NOT AVBL\nRMK: WE WILL ISSUE FURTHER ADVISORY IF VA IS DETECTED IN SATELLITE \nIMAGERY.\nNXT ADVISORY: NO FURTHER ADVISORIES="
    }
  ],
  "vaac_tokyo": [
    {
      "id": "20260714_30027000_0262",
      "year": "2026",
      "volcano": "Sheveluch",
      "psn": "N5639 E16122",
      "issued": "20260714",
      "text": "FVFE01 RJTD 140900\nVA ADVISORY\nDTG: 20260714/0900Z\nVAAC: TOKYO\nVOLCANO: SHEVELUCH 300270\nPSN: N5639 E16122\nAREA: RUSSIA\nSOURCE ELEV: 3283M AMSL\nADVISORY NR: 2026/262\nINFO SOURCE: KVERT HIMAWARI-9\nERUPTION DETAILS: VA CONTINUOUSLY OBS IN SATELLITE IMAGERY\nOBS VA DTG: 14/0820Z\nOBS VA CLD: SFC/FL390 N5512 E16343 - N5540 E16346 - N5540 E16429 - \nN5509 E16417 MOV SE 40KT\nFCST VA CLD +6 HR: 14/1420Z SFC/FL400 N5314 E17206 - N5244 E16756 - \nN5344 E16936 - N5353 E17105\nFCST VA CLD +12 HR: 14/2020Z SFC/FL400 N5256 E17936 - N5208 W17958 - \nN5103 E17602 - N5054 E17122\nFCST VA CLD +18 HR: 15/0220Z SFC/FL400 N5318 W17011 - N5241 W16952 - \nN5008 W17741 - N4939 E17352\nRMK: SOME PART OF VA OBSCURED BY MET CLOUD.\nNXT ADVISORY: 20260714/1200Z=",
      "img_url": "https://ds.data.jma.go.jp/svd/vaac/data/VAGFN/2026/Images/20260714_30027000_0262_QH21_01.png",
      "sat_img_url": "https://ds.data.jma.go.jp/svd/vaac/data/Sat/2026/Images/30027000/09-ir/20260714_0820_202607140900_ir.png",
      "text_url": "https://ds.data.jma.go.jp/svd/vaac/data/TextData/2026/20260714_30027000_0262_Text.html"
    },
    {
      "id": "20260714_27303000_0739",
      "year": "2026",
      "volcano": "Mayon",
      "psn": "N1315 E12341",
      "issued": "20260714",
      "text": "FVFE01 RJTD 140246\nVA ADVISORY\nDTG: 20260714/0246Z\nVAAC: TOKYO\nVOLCANO: MAYON 273030\nPSN: N1315 E12341\nAREA: PHILIPPINES\nSOURCE ELEV: 2462M AMSL\nADVISORY NR: 2026/739\nINFO SOURCE: HIMAWARI-9 PHIVOLCS\nERUPTION DETAILS: ERUPTION AT 20260714/0006Z FL130 EXTD ENE REPORTED\nOBS VA DTG: 14/0230Z\nOBS VA CLD: VA NOT IDENTIFIABLE FM SATELLITE DATA WIND FL130 020/4KT\nFCST VA CLD +6 HR: NOT AVBL\nFCST VA CLD +12 HR: NOT AVBL\nFCST VA CLD +18 HR: NOT AVBL\nRMK: WE WILL ISSUE FURTHER ADVISORY IF VA IS DETECTED IN SATELLITE \nIMAGERY.\nNXT ADVISORY: NO FURTHER ADVISORIES=",
      "img_url": "https://ds.data.jma.go.jp/svd/vaac/data/VAGFN/2026/Images/20260714_27303000_0739_QH21_01.png",
      "sat_img_url": null,
      "text_url": "https://ds.data.jma.go.jp/svd/vaac/data/TextData/2026/20260714_27303000_0739_Text.html"
    },
    {
      "id": "20260713_28208001_0083",
      "year": "2026",
      "volcano": null,
      "psn": "N3136 E13039",
      "issued": "20260713",
      "text": "FVFE01 RJTD 130254\nVA ADVISORY\nDTG: 20260713/0254Z\nVAAC: TOKYO\nVOLCANO: SAKURAJIMA (AIRA CALDERA) 282080\nPSN: N3136 E13039\nAREA: JAPAN\nSOURCE ELEV: 1117M AMSL\nADVISORY NR: 2026/83\nINFO SOURCE: JMA HIMAWARI-9\nERUPTION DETAILS: ERUPTED AT 20260713/0152Z FL100 EXTD N\nOBS VA DTG: 13/0230Z\nOBS VA CLD: SFC/FL100 N3136 E13039 - N3142 E13040 - N3141 E13044 - \nN3134 E13042 MOV NE 15KT\nFCST VA CLD +6 HR: 13/0830Z SFC/FL100 N3234 E13121 - N3145 E13155 - \nN3202 E13110 - N3227 E13051\nFCST VA CLD +12 HR: 13/1430Z SFC/FL100 N3318 E13206 - N3142 E13317 - \nN3134 E13226 - N3312 E13118\nFCST VA CLD +18 HR: NO VA EXP\nRMK: NIL\nNXT ADVISORY: 20260713/0600Z=",
      "img_url": "https://ds.data.jma.go.jp/svd/vaac/data/VAGFN/2026/Images/20260713_28208001_0083_QH21_01.png",
      "sat_img_url": "https://ds.data.jma.go.jp/svd/vaac/data/Sat/2026/Images/28208001/09-ir/20260713_0230_202607130254_ir.png",
      "text_url": "https://ds.data.jma.go.jp/svd/vaac/data/TextData/2026/20260713_28208001_0083_Text.html"
    },
    {
      "id": "20260712_27307000_0012",
      "year": "2026",
      "volcano": "Taal",
      "psn": "N1400 E12100",
      "issued": "20260712",
      "text": "FVFE01 RJTD 121243\nVA ADVISORY\nDTG: 20260712/1243Z\nVAAC: TOKYO\nVOLCANO: TAAL 273070\nPSN: N1400 E12100\nAREA: PHILIPPINES\nSOURCE ELEV: 311M AMSL\nADVISORY NR: 2026/12\nINFO SOURCE: HIMAWARI-9 PHIVOLCS\nERUPTION DETAILS: ERUPTION AT 20260712/1227Z FL050 EXTD NE REPORTED\nOBS VA DTG: 12/1230Z\nOBS VA CLD: VA NOT IDENTIFIABLE FM SATELLITE DATA WIND FL050 230/19KT\nFCST VA CLD +6 HR: NOT AVBL\nFCST VA CLD +12 HR: NOT AVBL\nFCST VA CLD +18 HR: NOT AVBL\nRMK: WE WILL ISSUE FURTHER ADVISORY IF VA IS DETECTED IN SATELLITE \nIMAGERY.\nNXT ADVISORY: NO FURTHER ADVISORIES=",
      "img_url": "https://ds.data.jma.go.jp/svd/vaac/data/VAGFN/2026/Images/20260712_27307000_0012_QH21_01.png",
      "sat_img_url": null,
      "text_url": "https://ds.data.jma.go.jp/svd/vaac/data/TextData/2026/20260712_27307000_0012_Text.html"
    }
  ],
  "vaac_alaska": [
    {
      "text": "\n000\nFVAK21 PAWU 140922\nVAAAK1\nVA ADVISORY\n\nDTG: 20260714/0920Z\n\nVAAC: ANCHORAGE\n\nVOLCANO: SHEVELUCH 300270\n\nPSN: N5639 E16122\n\nAREA: KAMCHATKA PENINSULA\n\nSOURCE ELEV: 10771 FT AMSL\n\nADVISORY NR: 2026/195\n\nRMK: PLEASE SEE FVFE01 RJTD ISSUED BY VAAC TOKYO WHICH DESCRIBES\nCONDITIONS NEAR THE VAAC ANCHORAGE AREA OF RESPONSIBILITY...CC\n\n\n\n",
      "issued": "2026-07-14T09:22:00+00:00",
      "volcano": "Sheveluch",
      "psn": "N5639 E16122"
    }
  ]
}