{
  "updated_utc": "2026-07-15T07:10Z",
  "metar": {
    "RJAA": "METAR RJAA 150530Z 15014KT 110V180 9999 FEW025 SCT/// 32/27 Q1002 NOSIG",
    "PANC": "METAR PANC 150553Z 30006KT 10SM -RA OVC055 11/10 A2983 RMK AO2 SLP100 P0008 60014 T01110100 10144 20111 58004 $",
    "PAFA": "METAR PAFA 150553Z 26003KT 10SM FEW050 BKN100 BKN150 18/07 A2968 RMK AO2 SLP054 T01780072 10206 20172 56006 $",
    "PAED": "METAR PAED 150555Z 34004KT 10SM -RA SCT004 BKN041 OVC065 11/10 A2980 RMK AO2A SLP088 P0004 60011 T01140100 10156 20112 55004 $",
    "KSEA": "METAR KSEA 150553Z 35003KT 10SM SCT250 19/07 A3007 RMK AO2 SLP188 T01940067 10294 20194 53008 $",
    "ZSPD": "METAR ZSPD 150530Z 23004MPS 200V260 CAVOK 38/25 Q1003 NOSIG",
    "ZSSS": "METAR ZSSS 150530Z VRB04G09MPS CAVOK 38/25 Q1002 NOSIG",
    "RJFR": "METAR RJFR 150600Z 22015KT 9999 FEW025 BKN035 BKN/// 34/25 Q1002",
    "VHHH": "SPECI VHHH 150526Z 21012KT 9999 1200E R07R/P2000N R25L/P2000D R07L/P2000N R25R/P2000N +SHRA FEW010 SCT025 29/25 Q1006 TEMPO 24015G25KT 1500 TSRA +SHRA FEW008CB SCT015",
    "RCTP": "METAR RCTP 150530Z 26014KT 9999 FEW020 35/26 Q1008 NOSIG RMK A2979",
    "ZGSZ": "METAR ZGSZ 150600Z 27003MPS 4000 SHRA SCT015 FEW023CB BKN033 26/25 Q1006 BECMG AT0640 -SHRA",
    "WSSS": "METAR WSSS 150530Z 11008KT 070V140 9999 FEW020TCU BKN300 32/25 Q1011 NOSIG",
    "WMKK": "METAR WMKK 150530Z VRB06KT 9999 SCT018 33/25 Q1010 NOSIG",
    "WIDD": "METAR WIDD 150530Z 10008KT 9999 FEW014 33/26 Q1011 NOSIG",
    "VTBS": "METAR VTBS 150530Z 21010KT 9999 FEW020 33/22 Q1010 NOSIG",
    "VTBU": "METAR VTBU 150530Z 22012KT 190V260 9999 FEW020 31/26 Q1010 NOSIG",
    "ROAH": "METAR ROAH 150530Z 21009KT 9999 FEW010 30/27 Q1010",
    "VVDN": "METAR VVDN 150530Z 21009KT 9999 FEW020 35/22 Q1006 NOSIG",
    "RCKH": "METAR RCKH 150530Z 17007KT 130V220 9999 FEW016 SCT030 32/25 Q1010 NOSIG RMK A2983",
    "KLAX": "METAR KLAX 150553Z 24005KT 10SM CLR 21/17 A2991 RMK AO2 SLP126 T02060167 10244 20206 51012 $",
    "KONT": "METAR KONT 150553Z 26004KT 10SM CLR 25/14 A2994 RMK AO2 SLP120 T02500144 10361 20250 51019 $",
    "KSFO": "METAR KSFO 150556Z 31012KT 10SM FEW200 18/11 A2995 RMK AO2 SLP141 T01780106 10250 20178 53005",
    "KOAK": "METAR KOAK 150553Z 28006KT 10SM CLR 18/13 A2995 RMK A02 SLP142 T01780128 10256 20178 53007",
    "KMHR": "METAR KMHR 150515Z AUTO 11003KT 10SM CLR 27/08 A2987 RMK AO2 T02700084 $",
    "KDFW": "METAR KDFW 150553Z 17005KT 10SM FEW150 SCT250 24/21 A3007 RMK AO2 SLP171 T02440211 10300 20244 403330239 50005 $",
    "KIAH": "METAR KIAH 150553Z 09004KT 10SM FEW030 OVC160 24/23 A3008 RMK AO2 SLP187 T02440233 10256 20244 402610228 50004 $",
    "KORD": "METAR KORD 150551Z 26005KT 10SM CLR 28/23 A3010 RMK AO2 SLP186 T02780233 10339 20272 403560233 58001 $",
    "KJFK": "METAR KJFK 150551Z 24010KT 10SM FEW250 26/22 A2988 RMK AO2 SLP119 T02560217 10317 20256 58004",
    "KRFD": "METAR KRFD 150554Z 00000KT 8SM CLR 23/22 A3014 RMK AO2 SLP200 T02280222 10322 20228 403330194 50000",
    "KIND": "METAR KIND 150554Z 00000KT 10SM CLR 26/19 A3014 RMK AO2 SLP196 T02560194 10311 20256 58001 $",
    "KDTW": "METAR KDTW 150553Z 26005KT 9SM FEW065 SCT160 BKN250 26/22 A3007 RMK AO2 SLP177 T02560222 10317 20256 50001 $",
    "KMSP": "METAR KMSP 150553Z 27003KT 10SM CLR 27/23 A3013 RMK AO2 SLP195 T02720228 10328 20272 403440233 50002",
    "CYEG": "METAR CYEG 150600Z 11010KT 20SM FEW053 SCT150 19/14 A3013 RMK SC1AC3 SLP202 DENSITY ALT 3200FT",
    "EHAM": "METAR EHAM 150525Z 04007KT 020V080 CAVOK 20/17 Q1022 NOSIG",
    "EBBR": "METAR EBBR 150520Z 01003KT CAVOK 18/15 Q1020 NOSIG",
    "EDDF": "METAR EDDF 150520Z AUTO 04013KT CAVOK 21/14 Q1018 NOSIG",
    "EDFH": "METAR EDFH 150520Z 05004KT 020V080 CAVOK 17/15 Q1020",
    "EDDL": "METAR EDDL 150520Z AUTO 05008KT CAVOK 20/15 Q1020 NOSIG",
    "EDDK": "METAR EDDK 150520Z AUTO VRB02KT CAVOK 20/15 Q1020 NOSIG",
    "EBLG": "METAR EBLG 150520Z 03007KT CAVOK 19/14 Q1020 NOSIG",
    "LSZH": "METAR LSZH 150520Z VRB01KT 9999 VCSH FEW060 20/16 Q1018 NOSIG",
    "LIMC": "METAR LIMC 150520Z 02003KT CAVOK 24/18 Q1017 NOSIG",
    "LIRF": "METAR LIRF 150520Z 09004KT CAVOK 25/17 Q1016 NOSIG",
    "EINN": "METAR EINN 150530Z VRB02KT CAVOK 13/11 Q1023 NOSIG",
    "EGLL": "METAR EGLL 150520Z AUTO 04009KT 360V090 9999 NCD 18/15 Q1023",
    "EGSS": "METAR EGSS 150520Z AUTO 02010KT 9999 BKN009 17/16 Q1024",
    "EPWA": "METAR EPWA 150530Z 06006KT 030V100 CAVOK 20/15 Q1020 NOSIG",
    "UHPP": "METAR UHPP 150530Z 16004MPS 9999 FEW040CB SCT062 27/15 Q1011 R16R/CLRD62 NOSIG RMK MT OBSC QFE755/1007",
    "EFHK": "METAR EFHK 150520Z 31007KT CAVOK 19/13 Q1019 NOSIG",
    "LBBG": "METAR LBBG 150530Z 25005KT CAVOK 23/16 Q1016 NOSIG",
    "LTAC": "METAR LTAC 150520Z 02007KT 340V070 CAVOK 19/09 Q1018 NOSIG RMK RWY21C 03009KT 360V060 RWY03L 03008KT RWY21R 02008KT RWY03R 02005KT 340V050 RWY21L 02009KT 340V060",
    "UBBB": "METAR UBBB 150530Z 34018KT CAVOK 31/17 Q1006 NOSIG",
    "UTAA": "METAR UTAA 150600Z 02004KT 320V090 9999 NSC 39/07 Q1006 R88/CLRD70 NOSIG",
    "UACC": "METAR UACC 150530Z 27004MPS 240V330 CAVOK 31/16 Q1003 NOSIG RMK QFE722/0962",
    "UAAA": "METAR UAAA 150530Z 01004MPS 340V040 9999 FEW100 33/13 Q1009 NOSIG",
    "UZTT": "METAR UZTT 150530Z 27004KT CAVOK 35/13 Q1007 NOSIG",
    "ZWWW": "METAR ZWWW 150530Z 36006MPS CAVOK 32/11 Q1010 NOSIG",
    "ZLXY": "METAR ZLXY 150600Z 23002MPS 180V300 9999 SCT050 31/20 Q1004 NOSIG",
    "ZBAA": "METAR ZBAA 150530Z VRB02MPS CAVOK 36/19 Q0999 NOSIG",
    "ZBHH": "METAR ZBHH 150600Z 19003MPS 140V240 CAVOK 29/17 Q1008 NOSIG",
    "ZSQD": "METAR ZSQD 150600Z 17005MPS 9999 -SHRA NSC 26/21 Q1002 NOSIG",
    "ZMCK": "METAR ZMCK 150530Z 27004MPS 9999 FEW033 26/10 Q1010 NOSIG RMK QFE642.6 36 MOP",
    "UUEE": "METAR UUEE 150530Z 30005MPS 220V360 9999 OVC004 17/15 Q1012 R24L/CLRD62 R24C/CLRD62 NOSIG",
    "UUDD": "SPECI UUDD 150526Z 33005MPS 9999 SCT012 19/16 Q1012 R31L/CLRD65 NOSIG",
    "ULLI": "METAR ULLI 150530Z 29003MPS 250V310 CAVOK 19/15 Q1017 R88/090065 NOSIG",
    "USSS": "METAR USSS 150530Z 13006MPS 9999 OVC014 19/19 Q1005 R08R/210060 R08L/290040 NOSIG RMK QFE734/0979",
    "UNNT": "METAR UNNT 150530Z 15002MPS 050V200 CAVOK 25/11 Q1012 R25/CLRD// R34/CLRD// NOSIG RMK QFE749/0999",
    "UNKL": "METAR UNKL 150530Z 26006MPS 220V290 CAVOK 23/13 Q1009 R29/CLRD// NOSIG RMK QFE731",
    "UIBB": "METAR UIBB 150530Z 29006MPS 250V320 9999 SCT040CB 20/12 Q1005 R30/210162 NOSIG RMK QFE711/0948",
    "UEEE": "METAR UEEE 150530Z 07003MPS 9999 BKN020CB 23/20 Q0996 R23/09//65 NOSIG RMK QFE739",
    "UHHH": "METAR UHHH 150530Z 35005MPS 9999 FEW015 SCT029CB 23/21 Q0992 R88/090060 NOSIG RMK QFE738/0984",
    "UHSS": "METAR UHSS 150530Z 18005MPS 9999 -SHRA BKN015CB 24/22 Q0999 R19/290060 NOSIG RMK MT OBSC QFE748/0998"
  },
  "taf": {
    "RJAA": "TAF RJAA 150505Z 1506/1612 17010KT 9999 FEW030 BECMG 1521/1600 28004KT BECMG 1600/1603 12010KT",
    "PANC": "TAF PANC 150527Z 1506/1612 VRB05KT 5SM -RA BR SCT020 OVC060 WS015/13030KT TEMPO 1506/1510 4SM -RA BR SCT020 OVC060 FM151000 18018G28KT P6SM -RA BKN025 BKN040 OVC560 FM152200 18012G20KT P6SM VCSH SCT030 OVC050 FM160100 18012KT P6SM BKN050 OVC070 FM160900 16011KT P6SM BKN080",
    "PAFA": "TAF PAFA 150534Z 1506/1612 30004KT P6SM VCSH SCT070 BKN090 FM151500 17004KT P6SM -SHRA OVC035 FM160000 24008KT P6SM -RA OVC025",
    "PAED": "TAF AMD PAED 150655Z 1506/1611 31009KT 9000 -RA SCT020 BKN040 OVC060 620703 550406 QNH2979INS TEMPO 1507/1512 8000 BR BKN004 BECMG 1518/1519 21012G18KT 9999 -SHRA SCT030 BKN060 620604 510003 QNH2985INS BECMG 1602/1603 22009KT 9999 NSW SCT035 BKN065 620654 QNH2991INS TX15/1603Z TN10/1512Z",
    "KSEA": "TAF KSEA 150527Z 1506/1612 33005KT P6SM FEW250 FM151200 20004KT P6SM FEW250 FM151500 32004KT P6SM FEW250 FM152100 31007KT P6SM SKC FM160000 34008KT P6SM SKC",
    "ZSPD": "TAF ZSPD 150302Z 1506/1612 18004MPS 8000 SCT030 TX36/1506Z TX37/1606Z TN28/1521Z TEMPO 1506/1509 TSRA BKN008 SCT030CB",
    "ZSSS": "TAF ZSSS 150302Z 1506/1612 18004MPS 8000 SCT030 TX38/1506Z TX37/1606Z TN29/1521Z TEMPO 1506/1509 TSRA BKN011 SCT030CB",
    "RJFR": "TAF RJFR 150505Z 1506/1612 22014KT 9999 FEW025 BKN040 BECMG 1514/1516 28004KT",
    "VHHH": "TAF VHHH 150500Z 1506/1612 20010KT 9999 FEW015 SCT030 TX30/1506Z TX31/1606Z TN27/1522Z TEMPO 1506/1510 24015G25KT 1500 TSRA +SHRA FEW008CB SCT015 TEMPO 1521/1603 24015G25KT 2500 TSRA SHRA FEW008CB SCT015 TEMPO 1603/1606 3000 SHRA FEW010CB SCT020",
    "RCTP": "TAF RCTP 150500Z 1506/1612 24010KT 9999 FEW010 BKN032 TEMPO 1506/1511 27013KT FEW010 BKN020 FEW025TCU TEMPO 1512/1518 18005KT TEMPO 1518/1524 15005KT TEMPO 1604/1610 28013KT",
    "ZGSZ": "TAF ZGSZ 150307Z 1506/1612 18005MPS 8000 BKN040 TX31/1506Z TX31/1606Z TN27/1522Z TEMPO 1506/1508 SHRA FEW025CB BKN033 TEMPO 1518/1521 SHRA FEW025CB BKN033 TEMPO 1521/1601 2000 +SHRA SCT012 FEW025CB BKN033 TEMPO 1603/1606 TSRA SCT012 FEW025CB BKN033",
    "WSSS": "TAF WSSS 150500Z 1506/1612 15007KT 9999 FEW015 SCT020",
    "WMKK": "TAF WMKK 150500Z 1506/1612 12005KT 9999 FEW018",
    "VTBS": "TAF VTBS 150500Z 1506/1612 22010KT 9999 FEW020 TEMPO 1509/1514 VRB15KT 4000 TSRA FEW018CB SCT020 BKN080",
    "VTBU": "TAF VTBU 150500Z 1506/1606 24010KT 9999 FEW020",
    "ROAH": "TAF AMD ROAH 150702Z 1507/1612 22010KT 9999 FEW008 BKN012 TEMPO 1507/1603 FEW004 BKN006",
    "VVDN": "TAF VVDN 150500Z 1506/1606 20010KT 9999 FEW020 BECMG 1506/1507 05010KT BECMG 1512/1513 20006KT",
    "RCKH": "TAF RCKH 150500Z 1506/1612 16005KT 9999 FEW010 BKN032 TEMPO 1506/1512 23008KT 5000 SHRA FEW010 BKN018 FEW022TCU TEMPO 1518/1524 05005KT TEMPO 1604/1610 22008KT",
    "KLAX": "TAF KLAX 150538Z 1506/1612 25006KT P6SM SKC FM151000 VRB03KT P6SM SKC FM151600 24006KT P6SM SKC FM152000 26012KT P6SM SKC FM160300 26006KT P6SM SKC FM161000 VRB03KT P6SM SKC",
    "KONT": "TAF KONT 150520Z 1506/1612 VRB04KT P6SM SKC FM152000 25012G22KT P6SM FEW120 FM160500 VRB04KT P6SM SCT120",
    "KSFO": "TAF KSFO 150520Z 1506/1612 29015KT P6SM SKC FM150800 26009KT P6SM SKC FM151800 30012KT P6SM SKC FM152100 29020G25KT P6SM SKC FM160400 29017KT P6SM SCT009",
    "KOAK": "TAF KOAK 150520Z 1506/1612 24007KT P6SM SKC FM152100 28013KT P6SM SKC FM160400 28010KT P6SM FEW009 FM161100 27008KT P6SM BKN009",
    "KMHR": "TAF KMHR 150520Z 1506/1606 20006KT P6SM SKC FM152100 24008G15KT P6SM SKC FM160000 23012G20KT P6SM SKC FM160500 17006KT P6SM SKC",
    "KDFW": "TAF KDFW 150525Z 1506/1612 18003KT P6SM FEW025 SCT040 FM151800 20007KT P6SM VCSH FEW090 FM160000 18004KT P6SM FEW200",
    "KIAH": "TAF KIAH 150520Z 1506/1612 VRB04KT P6SM SCT015 BKN150 FM150800 VRB03KT P6SM VCSH BKN035 FM151500 13006KT P6SM VCSH SCT030 BKN040 FM151700 14007KT 6SM SHRA SCT030 BKN050 PROB30 1517/1522 4SM TSRA BKN035CB FM152200 13007KT P6SM SCT035 BKN050 FM160200 VRB04KT P6SM OVC150",
    "KORD": "TAF KORD 150526Z 1506/1612 25005KT P6SM SKC FM152000 09006KT P6SM FEW050 FEW250 FM161000 04005KT 5SM FU FEW050 SCT250",
    "KJFK": "TAF KJFK 150524Z 1506/1612 25012KT P6SM BKN250 FM151600 26015G23KT 6SM HZ BKN250 FM152000 27018G27KT 6SM FU BKN250 TEMPO 1520/1524 5SM FU FM160000 32013KT 6SM FU BKN250 TEMPO 1600/1604 5SM FU FM160400 31007KT 6SM HZ BKN250",
    "KRFD": "TAF KRFD 150526Z 1506/1606 26005KT P6SM SKC FM160500 11005KT 6SM FU FEW050 SCT250",
    "KIND": "TAF KIND 150533Z 1506/1612 VRB03KT P6SM FEW250 FM151600 26005KT P6SM FEW050 SCT250",
    "KDTW": "TAF KDTW 150520Z 1506/1612 26006KT P6SM SCT250 FM151600 29008KT P6SM SCT250 FM152200 33006KT 6SM FU FEW060 BKN200 PROB30 1523/1602 4SM -TSRA BKN060CB BKN150 FM160200 05005KT 4SM FU BKN200",
    "KMSP": "TAF KMSP 150540Z 1506/1612 24005KT P6SM SKC FM151300 VRB03KT P6SM SKC FM152200 VRB03KT 5SM FU SCT150 FM160500 09005KT 6SM FU FEW250",
    "CYEG": "TAF CYEG 150541Z 1506/1606 12010KT P6SM BKN050 PROB30 1506/1508 VRB15G25KT 5SM TSRA BKN050CB FM150800 10008KT P6SM SCT030 BECMG 1509/1511 10005KT FM151200 VRB03KT P6SM FEW020 FM152200 16008G18KT P6SM FEW050 SCT220 PROB30 1601/1604 VRB20G30KT 3SM TSRA OVC050CB FM160400 26008KT P6SM FEW030 SCT100 RMK NXT FCST BY 150900Z",
    "EHAM": "TAF EHAM 150455Z 1506/1612 04009KT CAVOK BECMG 1509/1512 05015KT BECMG 1520/1523 04008KT BECMG 1609/1612 03014KT",
    "EBBR": "TAF EBBR 150509Z 1506/1612 04007KT CAVOK",
    "EDDF": "TAF EDDF 150500Z 1506/1612 04010KT CAVOK PROB30 TEMPO 1513/1517 04015G30KT TSRA SCT045CB BECMG 1518/1521 05005KT",
    "EDFH": "TAF EDFH 150500Z 1506/1606 06008KT CAVOK PROB30 TEMPO 1513/1517 07015G30KT TSRA BKN050CB BECMG 1523/1602 12005KT",
    "EDDL": "TAF EDDL 150500Z 1506/1612 04007KT CAVOK BECMG 1507/1510 04012KT BECMG 1518/1521 03006KT",
    "EDDK": "TAF EDDK 150500Z 1506/1612 VRB03KT CAVOK BECMG 1508/1511 04008KT BECMG 1520/1523 VRB03KT BECMG 1610/1612 05005KT",
    "EBLG": "TAF EBLG 150509Z 1506/1612 04007KT CAVOK",
    "LSZH": "TAF LSZH 150525Z 1506/1612 VRB02KT CAVOK TX29/1513Z TN21/1506Z TN17/1604Z PROB40 TEMPO 1506/1507 9999 FEW070TCU BECMG 1509/1512 9999 FEW070TCU PROB40 TEMPO 1511/1518 21015G25KT PROB40 TEMPO 1512/1524 TSRA SCT060CB PROB30 TEMPO 1513/1516 24020G35KT 4000 TSGR BECMG 1601/1604 CAVOK PROB30 1603/1605 2000 BCFG NSC",
    "LIMC": "TAF LIMC 150500Z 1506/1612 VRB05KT 9999 FEW060 TEMPO 1512/1524 4000 TSRA",
    "LIRF": "TAF LIRF 150500Z 1506/1612 10006KT CAVOK BECMG 1509/1511 22010KT BECMG 1518/1520 VRB05KT TEMPO 1600/1605 4000 BCFG BECMG 1609/1611 24012KT",
    "EINN": "TAF EINN 150500Z 1506/1606 VRB03KT CAVOK BECMG 1509/1511 08010KT BECMG 1516/1518 VRB03KT",
    "EGLL": "TAF EGLL 150459Z 1506/1612 03010KT CAVOK TEMPO 1506/1508 BKN009 BECMG 1510/1513 09011KT BECMG 1519/1522 03008KT PROB40 TEMPO 1603/1607 BKN009",
    "EGSS": "TAF EGSS 150455Z 1506/1612 04009KT 9999 BKN006 BECMG 1506/1509 FEW020 PROB30 TEMPO 1509/1511 BKN012 TEMPO 1523/1606 BKN008",
    "EPWA": "TAF EPWA 150530Z 1506/1606 04008KT CAVOK",
    "UHPP": "TAF UHPP 150440Z 1506/1612 33003G08MPS 9999 SCT040CB TX25/1506Z TN13/1518Z TEMPO 1506/1510 18005G12MPS TEMPO 1512/1521 1000 BR VV003",
    "EFHK": "TAF EFHK 150528Z 1506/1606 32008KT CAVOK",
    "LBBG": "TAF LBBG 150500Z 1506/1606 VRB04KT 9999 SCT045 BECMG 1509/1511 13012KT PROB30 TEMPO 1511/1514 5000 TSRA FEW030CB SCT045 BECMG 1517/1519 VRB04KT",
    "LTAC": "TAF LTAC 150440Z 1506/1606 VRB02KT CAVOK BECMG 1506/1508 SCT040 BECMG 1512/1515 04012KT BECMG 1515/1517 CAVOK BECMG 1519/1522 VRB02KT",
    "UBBB": "TAF UBBB 150501Z 1506/1606 32020G30KT CAVOK TX32/1510Z TN23/1601Z TEMPO 1506/1508 34016KT FEW060CB TEMPO 1508/1520 34026G36KT SCT015 TEMPO 1520/1606 SCT010 FEW050CB",
    "UTAA": "TAF UTAA 150445Z 1506/1606 12016KT 6000 SCT050 TX44/1511 TEMPO 1506/1512 09014G24KT 4000 DRDU BECMG 1518/1520 22012KT",
    "UACC": "TAF UACC 150502Z 1506/1606 27005MPS 9999 SCT030 BKN100 TX35/1509Z TN22/1523Z TEMPO 1508/1517 31012MPS -TSRA BKN030CB BECMG 1517/1519 VRB01MPS TEMPO 1517/1603 18005MPS 3100 -TSRA BKN030CB TEMPO 1603/1606 22007MPS BKN030CB",
    "UAAA": "TAF UAAA 150503Z 1506/1606 34003MPS 9999 FEW050CB SCT100 TX37/1510Z TN20/1601Z TEMPO 1506/1512 04003G08MPS BECMG 1512/1514 16003MPS BECMG 1603/1604 34003MPS",
    "UZTT": "TAF UZTT 150500Z 1506/1606 22010KT 7000 NSC TX41/1511Z TN25/1600Z TEMPO 1506/1518 32015KT",
    "ZWWW": "TAF ZWWW 150315Z 1506/1612 34004G11MPS CAVOK TX35/1509Z TX38/1609Z TN26/1523Z TEMPO 1509/1512 30010G17MPS 9999 -TSRA FEW040CB BECMG 1514/1515 20004MPS BECMG 1602/1603 36004MPS",
    "ZLXY": "TAF ZLXY 150302Z 1506/1606 06003MPS 6000 NSC TX34/1507Z TN26/1521Z",
    "ZBAA": "TAF ZBAA 150301Z 1506/1612 18003MPS CAVOK TX36/1506Z TX35/1606Z TN23/1521Z",
    "ZBHH": "TAF ZBHH 150301Z 1506/1606 24004MPS 9999 FEW040 TX31/1508Z TN16/1522Z",
    "ZSQD": "TAF ZSQD 150307Z 1506/1606 20003MPS 5000 BR NSC TX32/1606Z TN21/1520Z TEMPO 1506/1509 SHRA TEMPO 1513/1517 2000 +TSRA BKN010 SCT030CB BECMG 1518/1519 2500 BECMG 1600/1601 36005MPS 3500",
    "ZMCK": "TAF COR ZMCK 150449Z 1506/1612 28005MPS 9999 FEW030CB SCT033 TX27/1507Z TN14/1521Z PROB30 TEMPO 1508/1515 VRB09G14MPS TSRA SCT027CB SCT030 BECMG 1510/1512 VRB02MPS PROB40 TEMPO 1518/1610 VRB08MPS 6000 TSRA SCT027CB SCT030 BECMG 1602/1604 32006MPS",
    "UUEE": "TAF UUEE 150453Z 1506/1606 33005MPS 9999 BKN006 TX24/1512Z TN15/1601Z BECMG 1507/1508 BKN016 TEMPO 1508/1517 35008G15MPS",
    "UUDD": "TAF UUDD 150454Z 1506/1612 33006MPS 9999 BKN012 TX25/1512Z TN15/1601Z BECMG 1507/1509 BKN016 TEMPO 1509/1517 35008G14MPS PROB40 TEMPO 1509/1517 -TSRA BKN020CB TEMPO 1606/1612 36009G15MPS",
    "ULLI": "TAF ULLI 150453Z 1506/1606 27005MPS 9999 SCT030 BECMG 1510/1512 32005G10MPS BECMG 1520/1522 02003G08MPS",
    "USSS": "TAF USSS 150452Z 1506/1606 15003G14MPS 6000 -SHRA BKN016CB TEMPO 1506/1606 VRB21MPS -TSRAGR SQ SCT006 BKN011CB",
    "UNNT": "TAF UNNT 150500Z 1506/1606 17003G08MPS 9999 SCT040 TX27/1508Z TN15/1523Z TEMPO 1600/1606 11005G10MPS",
    "UNKL": "TAF UNKL 150444Z 1506/1606 29007G15MPS 9999 SCT040 BECMG 1510/1512 23003G08MPS",
    "UIBB": "TAF UIBB 150500Z 1506/1606 28006G13MPS 9999 -SHRA BKN016CB TEMPO 1506/1515 VRB12MPS 1900 TSRA",
    "UEEE": "TAF UEEE 150500Z 1506/1612 08003G08MPS 9999 BKN020CB OVC100 TEMPO 1506/1512 3200 -TSRA SCT007 BKN025CB OVC070 TEMPO 1512/1523 VRB01MPS 0500 FG VV003",
    "UHHH": "TAF UHHH 150446Z 1506/1612 01003G08MPS 9999 FEW010 SCT016CB TX24/1506Z TN20/1515Z FM160000 24005G12MPS 9999 SCT020CB",
    "UHSS": "TAF UHSS 150450Z 1506/1612 20006MPS 6000 -SHRA BKN015CB BECMG 1522/1524 26005G10MPS FM160600 19003MPS 9999 SCT040"
  },
  "atis": {},
  "windtemp_alaska": "\n000\nFBAK31 KWNO 150200\nFD1AK1\nDATA BASED ON 150000Z    \nVALID 150600Z   FOR USE 0200-0900Z. TEMPS NEG ABV 24000\n\nFT  3000    6000    9000   12000   18000   24000  30000  34000  39000\nADK 2224 2431+08 2531+04 2635+00 2742-12 2750-23 275438 285848 295358\nADQ 2627 2629+02 2632+00 2541-04 2555-17 2571-27 750341 751050 256148\nAKN 2631 2629-01 2636-04 2537-08 2440-20 2448-31 257042 256244 234242\nANC 1413 1723+02 2025-02 1925-07 1824-20 1721-32 183044 203043 223041\nANN 3408 9900+09 2206+03 2506-01 3514-13 3637-24 364339 364849 364356\nBET 2923 2922-01 2920-05 2815-10 1612-20 1223-32 122146 201443 232240\nBRW 1906 2113+00 2111-05 2108-10 1910-23 2215-35 232947 221946 191141\nBTI 9900 9900+04 2508-02 2411-09 2318-21 2432-30 243546 233350 232443\nBTT 1306 1508+02 1212-03 1409-08 2118-19 2120-31 213045 203352 202545\nCDB 2718 2625-01 2631-04 2637-07 2666-16 2584-26 750040 750550 257752\nCZF 3314 3213-02 3113-06 3110-11 9900-21 1318-32 142848 171045 231142\nEHM 2928 2926-02 2824-07 2725-11 2424-24 2319-36 243440 243740 243341\nFAI 1709 1613+03 1819-02 2025-06 1922-17 1936-28 184945 194751 193544\nFYU 1208 1512+05 1809-02 1910-07 2117-17 2133-28 214844 215053 213547\nGAL 1414 1313+02 1413-03 1614-07 2011-19 1809-31 171546 181751 201742\nGKN 1624 1739+02 2037+01 2139-04 2038-17 1941-29 185445 185649 203445\nHOM 2318 2422+01 2325-02 2329-07 2334-19 2330-32 244043 244543 233242\nJNU 2405 2511+03 2711+05 2908+02 2813-12 2516-24 261839 261548 282358\nLUR 1206 1207-01 1306-06 9900-12 2608-23 2610-35 251245 240743 990041\nMCG 2018 1818+01 1616-04 1514-07 1318-19 1417-31 141747 171648 202141\nMDO 2224 2127+04 2131+03 2136-04 2242-18 2349-31 235843 235644 234545\nOME 0318 0411+00 0405-05 0407-10 1712-19 1819-31 182347 181851 191142\nORT      1612+06 2223+02 2332-03 2133-15 1934-26 204743 206251 214452\nOTZ 1110 1110-01 1207-05 1706-09 2115-20 2227-31 203347 202852 210942\nSNP 2618 2816-02 2819-05 2823-10 2934-21 2834-34 283946 274345 274042\nTKA 2106 1721+00 1720-03 2019-07 2025-19 1730-32 173745 183145 212942\nUNK 1413 1015+01 1210-02 1412-07 1613-19 1814-31 171146 171152 201542\nYAK 1514 2017+05 2327+03 2429-02 2241-14 2246-25 224940 215249 214956\nIKO 2309 2522+01 2638+02 2646-03 2654-14 2665-24 267139 267550 267358\nAFM 0808 1111+01 1312-04 1711-08 2321-20 2323-30 212346 201853 201743\n5AB 2919 2927+09 2835+05 2840+00 2841-12 2846-23 285337 295547 305459\n5AC 3316 3412+07 3409+04 3513+01 3624-11 3631-23 363939 363848 013357\n5AD 2531 2434+10 2436+05 2534+01 2634-11 2730-23 273440 284150 264159\n5AE 2622 2628+03 2535+02 2544-02 2557-13 2567-24 257639 257949 257359\n5AF 2410 2811+08 3216+06 3217+01 3016-12 2821-23 282539 272348 262158\n5AG 2127 2131+08 2230+03 2334-02 2346-13 2457-24 256941 246251 225655\n",
  "vaac_active": [
    {
      "volcano": "MAYON",
      "volcano_jp": "マヨン",
      "advisory_nr": "2026/747",
      "obs_time": "2026-07-15 03:22Z",
      "issued_time": "2026-07-15 03:40Z",
      "text_url": "https://www.data.jma.go.jp/vaac/data/TextData/2026/20260715_27303000_0747_Text.html",
      "lat": 13.25,
      "lon": 123.683,
      "text": "FVFE01 RJTD 150340\nVA ADVISORY\nDTG: 20260715/0340Z\nVAAC: TOKYO\nVOLCANO: MAYON 273030\nPSN: N1315 E12341\nAREA: PHILIPPINES\nSOURCE ELEV: 2462M AMSL\nADVISORY NR: 2026/747\nINFO SOURCE: HIMAWARI-9 PHIVOLCS\nERUPTION DETAILS: ERUPTION AT 20260715/0322Z VA CLD UNKNOWN REPORTED\nOBS VA DTG: 15/0330Z\nOBS VA CLD: VA NOT IDENTIFIABLE FM SATELLITE DATA WIND FL180 360/7KT\nFCST VA CLD +6 HR: NOT AVBL\nFCST VA CLD +12 HR: NOT AVBL\nFCST VA CLD +18 HR: NOT AVBL\nRMK: WE WILL ISSUE FURTHER ADVISORY IF VA IS DETECTED IN SATELLITE \nIMAGERY.\nNXT ADVISORY: NO FURTHER ADVISORIES="
    }
  ],
  "vaac_tokyo": [
    {
      "id": "20260714_27303000_0746",
      "year": "2026",
      "volcano": "Mayon",
      "psn": "N1315 E12341",
      "issued": "20260714",
      "text": "FVFE01 RJTD 142339\nVA ADVISORY\nDTG: 20260714/2339Z\nVAAC: TOKYO\nVOLCANO: MAYON 273030\nPSN: N1315 E12341\nAREA: PHILIPPINES\nSOURCE ELEV: 2462M AMSL\nADVISORY NR: 2026/746\nINFO SOURCE: HIMAWARI-9 PHIVOLCS\nERUPTION DETAILS: ERUPTION AT 20260714/2207Z FL130 EXTD SE REPORTED\nOBS VA DTG: 14/2320Z\nOBS VA CLD: VA NOT IDENTIFIABLE FM SATELLITE DATA WIND FL130 030/3KT\nFCST VA CLD +6 HR: NOT AVBL\nFCST VA CLD +12 HR: NOT AVBL\nFCST VA CLD +18 HR: NOT AVBL\nRMK: VA OF PREVIOUS VAA HAS DISSIPATED IN SATELLITE IMAGERY. NEW \nERUPTION REPORTED. WE WILL ISSUE FURTHER ADVISORY IF VA IS DETECTED \nIN SATELLITE IMAGERY.\nNXT ADVISORY: NO FURTHER ADVISORIES=",
      "img_url": "https://ds.data.jma.go.jp/svd/vaac/data/VAGFN/2026/Images/20260714_27303000_0746_QH21_01.png",
      "sat_img_url": "https://ds.data.jma.go.jp/svd/vaac/data/Sat/2026/Images/27303000/09-ir/20260714_2320_202607142339_ir.png",
      "text_url": "https://ds.data.jma.go.jp/svd/vaac/data/TextData/2026/20260714_27303000_0746_Text.html"
    },
    {
      "id": "20260714_30027000_0263",
      "year": "2026",
      "volcano": "Sheveluch",
      "psn": "N5639 E16122",
      "issued": "20260714",
      "text": "FVFE01 RJTD 141200\nVA ADVISORY\nDTG: 20260714/1200Z\nVAAC: TOKYO\nVOLCANO: SHEVELUCH 300270\nPSN: N5639 E16122\nAREA: RUSSIA\nSOURCE ELEV: 3283M AMSL\nADVISORY NR: 2026/263\nINFO SOURCE: HIMAWARI-9\nERUPTION DETAILS: VA CONTINUOUSLY OBS IN SATELLITE IMAGERY\nOBS VA DTG: 14/1120Z\nOBS VA CLD: SFC/FL390 N5359 E16539 - N5422 E16550 - N5414 E16656 - \nN5349 E16654 MOV SE 40KT\nFCST VA CLD +6 HR: 14/1720Z SFC/FL400 N5233 E17412 - N5141 E17210 - \nN5144 E17002 - N5224 E17116\nFCST VA CLD +12 HR: 14/2320Z SFC/FL400 N5147 W17910 - N5115 W17906 - \nN5025 E17725 - N5008 E17317 - N5113 E17652\nFCST VA CLD +18 HR: 15/0520Z SFC/FL400 N5217 W17056 - N5119 W17200 - \nN4942 W17651 - N4907 E17606 - N5056 W17716\nRMK: THE RESPONSIBILITY FOR THIS ASH EVENT IS BEING TRANSFERRED TO \nVAAC ANCHORAGE. THE NEXT ADVISORY WILL BE ISSUED BY VAAC ANCHORAGE \nBY 1800UTC UNDER HEADER FVAK21 PAWU. SOME PART OF VA OBSCURED BY MET \nCLOUD.\nNXT ADVISORY: NO FURTHER ADVISORIES=",
      "img_url": "https://ds.data.jma.go.jp/svd/vaac/data/VAGFN/2026/Images/20260714_30027000_0263_QH21_01.png",
      "sat_img_url": "https://ds.data.jma.go.jp/svd/vaac/data/Sat/2026/Images/30027000/09-ir/20260714_1120_202607141200_ir.png",
      "text_url": "https://ds.data.jma.go.jp/svd/vaac/data/TextData/2026/20260714_30027000_0263_Text.html"
    },
    {
      "id": "20260713_28208001_0083",
      "year": "2026",
      "volcano": null,
      "psn": "N3136 E13039",
      "issued": "20260713",
      "text": "FVFE01 RJTD 130254\nVA ADVISORY\nDTG: 20260713/0254Z\nVAAC: TOKYO\nVOLCANO: SAKURAJIMA (AIRA CALDERA) 282080\nPSN: N3136 E13039\nAREA: JAPAN\nSOURCE ELEV: 1117M AMSL\nADVISORY NR: 2026/83\nINFO SOURCE: JMA HIMAWARI-9\nERUPTION DETAILS: ERUPTED AT 20260713/0152Z FL100 EXTD N\nOBS VA DTG: 13/0230Z\nOBS VA CLD: SFC/FL100 N3136 E13039 - N3142 E13040 - N3141 E13044 - \nN3134 E13042 MOV NE 15KT\nFCST VA CLD +6 HR: 13/0830Z SFC/FL100 N3234 E13121 - N3145 E13155 - \nN3202 E13110 - N3227 E13051\nFCST VA CLD +12 HR: 13/1430Z SFC/FL100 N3318 E13206 - N3142 E13317 - \nN3134 E13226 - N3312 E13118\nFCST VA CLD +18 HR: NO VA EXP\nRMK: NIL\nNXT ADVISORY: 20260713/0600Z=",
      "img_url": "https://ds.data.jma.go.jp/svd/vaac/data/VAGFN/2026/Images/20260713_28208001_0083_QH21_01.png",
      "sat_img_url": "https://ds.data.jma.go.jp/svd/vaac/data/Sat/2026/Images/28208001/09-ir/20260713_0230_202607130254_ir.png",
      "text_url": "https://ds.data.jma.go.jp/svd/vaac/data/TextData/2026/20260713_28208001_0083_Text.html"
    },
    {
      "id": "20260712_27307000_0012",
      "year": "2026",
      "volcano": "Taal",
      "psn": "N1400 E12100",
      "issued": "20260712",
      "text": "FVFE01 RJTD 121243\nVA ADVISORY\nDTG: 20260712/1243Z\nVAAC: TOKYO\nVOLCANO: TAAL 273070\nPSN: N1400 E12100\nAREA: PHILIPPINES\nSOURCE ELEV: 311M AMSL\nADVISORY NR: 2026/12\nINFO SOURCE: HIMAWARI-9 PHIVOLCS\nERUPTION DETAILS: ERUPTION AT 20260712/1227Z FL050 EXTD NE REPORTED\nOBS VA DTG: 12/1230Z\nOBS VA CLD: VA NOT IDENTIFIABLE FM SATELLITE DATA WIND FL050 230/19KT\nFCST VA CLD +6 HR: NOT AVBL\nFCST VA CLD +12 HR: NOT AVBL\nFCST VA CLD +18 HR: NOT AVBL\nRMK: WE WILL ISSUE FURTHER ADVISORY IF VA IS DETECTED IN SATELLITE \nIMAGERY.\nNXT ADVISORY: NO FURTHER ADVISORIES=",
      "img_url": "https://ds.data.jma.go.jp/svd/vaac/data/VAGFN/2026/Images/20260712_27307000_0012_QH21_01.png",
      "sat_img_url": null,
      "text_url": "https://ds.data.jma.go.jp/svd/vaac/data/TextData/2026/20260712_27307000_0012_Text.html"
    }
  ],
  "vaac_alaska": [
    {
      "text": "\n000\nFVAK21 PAWU 150456\nVAAAK1\nVA ADVISORY\n\nDTG: 20260715/0443Z\n\nVAAC: ANCHORAGE\n\nVOLCANO: SHEVELUCH 300270\n\nPSN: N5639 E16122\n\nAREA: KAMCHATKA PENINSULA\n\nSOURCE ELEV: 10771 FT AMSL\n\nADVISORY NR: 2026/199\n\nINFO SOURCE: HIMAWARI/GOES\n\nERUPTION DETAILS: RESIDUAL VA CONTINUOUSLY OBS ON SATELLITE.\n\nOBS VA DTG: 15/0443Z\n\nOBS VA CLD: FL100/FL280 N5002 E17347 - N5019 E17923 - N4953\nE17907 - N4915 E17440 - N5002 E17347 MOV SE 35KT\n\nFCST VA CLD +6HR: 15/1043Z FL100/FL280 N4932 E17812 - N5035\nW17723 - N4948 W17734 - N4852 E17817 - N4932 E17812\n\nFCST VA CLD +12HR: 15/1643Z FL100/FL280 N5124 W17400 - N5044\nW17347 - N4927 W17736 - N5014 W17819 - N5124 W17400 - N5124 W17400\n\nFCST VA CLD +18HR: 15/2243Z NO VA EXP\n\nRMK: NIL...PD\n\nNXT ADVISORY: WILL BE ISSUED BY 20260715/1043Z=\n\n",
      "issued": "2026-07-15T04:56:00+00:00",
      "volcano": "Sheveluch",
      "psn": "N5639 E16122"
    }
  ]
}