{
  "updated_utc": "2026-07-18T14:33Z",
  "metar": {
    "RJAA": "METAR RJAA 181300Z 15004KT 9999 FEW009 24/23 Q1008 NOSIG",
    "PANC": "METAR PANC 181253Z 24007KT 10SM FEW007 BKN021 OVC030 10/08 A2999 RMK AO2 SLP158 T01000083",
    "PAFA": "METAR PAFA 181253Z 00000KT 10SM SCT065 BKN085 11/09 A2989 RMK AO2 SLP125 T01060089 $",
    "PAED": "METAR PAED 181255Z 00000KT 10SM BKN019 OVC055 11/08 A2997 RMK AO2A SLP145 T01080084 $",
    "KSEA": "METAR KSEA 181253Z 21004KT 10SM SCT006 BKN046 13/12 A3012 RMK AO2 SLP205 T01330117 $",
    "ZSPD": "METAR ZSPD 181300Z 21002MPS 160V240 9999 -SHRA FEW030CB 27/24 Q1003 NOSIG",
    "ZSSS": "SPECI ZSSS 181239Z 19008MPS 9999 -SHRA FEW030CB 31/26 Q1003 NOSIG",
    "RJFR": "METAR RJFR 181300Z 05009KT 9999 FEW020 SCT040 28/25 Q1003",
    "VHHH": "METAR VHHH 181300Z 19007KT 150V230 9999 FEW010 30/25 Q1006 NOSIG",
    "RCTP": "METAR RCTP 181300Z 26007KT 220V280 9999 FEW020 28/24 Q1005 NOSIG RMK A2969",
    "ZGSZ": "METAR ZGSZ 181300Z 16004MPS 9999 SCT016 29/27 Q1006 NOSIG",
    "WSSS": "METAR WSSS 181300Z 35002KT 9999 SCT016 FEW018TCU SCT160 27/25 Q1011 NOSIG",
    "WMKK": "METAR WMKK 181300Z VRB01KT 9999 FEW030 26/24 Q1010 NOSIG",
    "WIDD": "METAR WIDD 181300Z 13003KT 9999 FEW014 29/25 Q1011 NOSIG",
    "VTBS": "METAR VTBS 181300Z 22009KT 9999 FEW020 31/23 Q1007 NOSIG",
    "VTBU": "METAR VTBU 181300Z 24003KT 9000 FEW020 29/27 Q1008 NOSIG",
    "ROAH": "METAR ROAH 181300Z 19009KT 9999 FEW004 BKN012 28/27 Q1006",
    "VVDN": "METAR VVDN 181300Z VRB02KT 9999 FEW020 31/27 Q1005 NOSIG",
    "RCKH": "METAR RCKH 181300Z 06002KT 9999 FEW016 SCT050 BKN130 27/24 Q1008 NOSIG RMK A2977",
    "KLAX": "METAR KLAX 181253Z 11004KT 10SM FEW012 FEW050 21/18 A3000 RMK AO2 SLP156 T02060178 $",
    "KONT": "METAR KONT 181253Z 00000KT 10SM FEW160 FEW200 21/17 A3001 RMK AO2 SLP145 T02060172 $",
    "KSFO": "SPECI KSFO 181247Z 25009KT 10SM OVC014 15/12 A3002 RMK AO2 T01500117 $",
    "KOAK": "METAR KOAK 181253Z 26008KT 10SM OVC013 15/12 A3002 RMK AO2 SLP166 T01500122",
    "KMHR": "METAR KMHR 181235Z AUTO 14005KT 9SM CLR 13/11 A2996 RMK AO2 T01270112 $",
    "KDFW": "METAR KDFW 181253Z 19015KT 10SM FEW020 FEW090 SCT200 SCT250 27/22 A3007 RMK AO2 SLP173 T02670222 $",
    "KIAH": "METAR KIAH 181253Z 00000KT 9SM BKN250 27/26 A3010 RMK AO2 SLP192 T02720256 $",
    "KORD": "METAR KORD 181251Z 27009KT 10SM FEW120 SCT200 BKN250 27/22 A2985 RMK AO2 SLP101 T02670222 $",
    "KJFK": "METAR KJFK 181251Z 22011KT 4SM FU BKN035 BKN045 BKN150 BKN250 25/17 A2997 RMK AO2 SLP150 FU BKN035 T02500167 $",
    "KRFD": "METAR KRFD 181254Z 24008KT 10SM FEW100 SCT190 BKN250 26/22 A2988 RMK AO2 SLP111 T02610222 $",
    "KIND": "METAR KIND 181254Z 25011KT 10SM FEW045 FEW100 SCT250 27/23 A2997 RMK AO2 SLP141 T02670233 $",
    "KDTW": "METAR KDTW 181253Z 24013KT 6SM HZ FEW010 BKN070 BKN180 26/22 A2982 RMK AO2 SLP094 T02610222 $",
    "KMSP": "METAR KMSP 181253Z 36008KT 9SM CLR 23/18 A2999 RMK AO2 SLP147 T02330183",
    "CYEG": "METAR CYEG 181300Z 23005KT 150V240 15SM SCT160 SCT250 19/17 A2986 RMK ACC3CI1 PRESRR SLP104 DENSITY ALT 3500FT",
    "EHAM": "METAR EHAM 181255Z 29013KT 260V320 9999 -RA FEW018 SCT032 BKN040 19/12 Q1017 TEMPO 7000 BKN020",
    "EBBR": "METAR EBBR 181250Z 32009KT 270V360 9999 FEW031 BKN048 21/13 Q1017 NOSIG",
    "EDDF": "METAR EDDF 181250Z AUTO 31006KT 240V020 CAVOK 27/12 Q1014 NOSIG",
    "EDFH": "METAR EDFH 181250Z VRB05KT 9999 FEW044 24/12 Q1016",
    "EDDL": "METAR EDDL 181250Z AUTO 26011KT 230V300 9999 FEW038 23/12 Q1016 NOSIG",
    "EDDK": "METAR EDDK 181250Z AUTO 31009KT 260V350 9999 SCT036 BKN046 23/13 Q1016 NOSIG",
    "EBLG": "METAR EBLG 181250Z 30009KT 270V330 9999 FEW033 BKN038 21/12 Q1017 NOSIG",
    "LSZH": "METAR LSZH 181250Z 17011KT 9999 -SHRA FEW040 FEW060CB SCT070 26/16 Q1016 TEMPO TS",
    "LIMC": "METAR LIMC 181250Z 19005KT 140V210 9999 SCT060 33/18 Q1011 NOSIG",
    "LIRF": "METAR LIRF 181250Z 26009KT 220V290 CAVOK 33/23 Q1012 NOSIG",
    "EINN": "METAR EINN 181300Z 33013KT 9999 FEW025 SCT200 21/11 Q1024 NOSIG",
    "EGLL": "METAR EGLL 181250Z AUTO 03008KT 300V060 9999 NCD 22/09 Q1020",
    "EGSS": "METAR EGSS 181250Z AUTO 36006KT 320V040 9999 OVC032 19/10 Q1021",
    "EPWA": "METAR EPWA 181300Z 26014KT 9999 FEW033TCU SCT035 25/16 Q1008 NOSIG",
    "UHPP": "METAR UHPP 181300Z 33004MPS CAVOK 21/15 Q1018 R34L/CLRD62 NOSIG RMK QFE760/1014",
    "EFHK": "METAR EFHK 181250Z 16015KT CAVOK 26/15 Q1004 NOSIG",
    "LBBG": "METAR LBBG 181300Z AUTO 12012KT 9999 NCD 28/18 Q1013 NOSIG",
    "LTAC": "METAR LTAC 181250Z 10008KT 040V130 9999 SCT040 29/08 Q1013 NOSIG RMK RWY21C VRB05KT RWY03L 08008KT 040V120 RWY21R VRB06KT RWY03R VRB06G16KT RWY21L 34006KT 270V060",
    "UBBB": "METAR UBBB 181300Z 36012KT CAVOK 30/18 Q1008 NOSIG",
    "UTAA": "METAR UTAA 181300Z 29010KT 260V340 9999 NSC 40/18 Q1005 R88/CLRD70 NOSIG",
    "UACC": "METAR UACC 181300Z 27004MPS 240V330 CAVOK 34/11 Q1005 NOSIG RMK QFE723/0964",
    "UAAA": "METAR UAAA 181300Z 07002MPS 9999 FEW050 SCT100 40/06 Q1006 NOSIG",
    "UZTT": "METAR UZTT 181300Z 24008KT CAVOK 42/12 Q1000 NOSIG",
    "ZWWW": "METAR ZWWW 181300Z VRB01MPS 7000 NSC 35/13 Q1007 NOSIG",
    "ZLXY": "METAR ZLXY 181300Z 25002MPS CAVOK 27/18 Q1007 NOSIG",
    "ZBAA": "METAR ZBAA 181300Z VRB01MPS CAVOK 23/20 Q1002 NOSIG",
    "ZBHH": "METAR ZBHH 181300Z 23002MPS CAVOK 20/16 Q1008 NOSIG",
    "ZSQD": "METAR ZSQD 181300Z 21003MPS 180V240 9999 BKN040 27/20 Q1003 NOSIG",
    "ZMCK": "METAR ZMCK 181300Z VRB02MPS 9999 SCT030CB SCT033 18/11 Q1003 NOSIG RMK QFE638.7 63 MOP",
    "UUEE": "METAR UUEE 181300Z 23002MPS CAVOK 25/13 Q1015 R06R/CLRD62 R06C/CLRD62 NOSIG",
    "UUDD": "METAR UUDD 181300Z VRB02MPS CAVOK 24/10 Q1016 R31L/CLRD65 NOSIG",
    "ULLI": "METAR ULLI 181300Z 17006MPS CAVOK 27/10 Q1010 R88/090065 NOSIG",
    "USSS": "SPECI USSS 181254Z 03006MPS 9999 VCTS BKN021CB 21/20 Q1002 R08R/250050 TEMPO VRB20MPS -TSRAGR SQ RMK QFE732/0976",
    "UNNT": "METAR UNNT 181300Z VRB01MPS 9999 SCT042CB 23/18 Q1003 R07/CLRD// R16/CLRD// NOSIG RMK QFE742/0990",
    "UNKL": "METAR UNKL 181300Z 22001MPS CAVOK 20/19 Q1001 R29/CLRD// NOSIG RMK QFE725",
    "UIBB": "METAR UIBB 181300Z VRB01MPS 9999 -TSRA FEW050CB 18/14 Q1000 R12/CLRD62 NOSIG RMK QFE708/0944",
    "UEEE": "METAR UEEE 181300Z 12001MPS 9999 SCT030CB 17/16 Q0997 R23/290151 NOSIG RMK QFE739",
    "UHHH": "METAR UHHH 181300Z 31002MPS CAVOK 20/19 Q1005 R23L/090060 NOSIG RMK QFE747/0997",
    "UHSS": "SPECI UHSS 181240Z 16003MPS 8000 -TSRA SCT009 BKN016CB 20/19 Q1011 R19/CLRD70 NOSIG RMK MT OBSC QFE757/1009"
  },
  "taf": {
    "RJAA": "TAF RJAA 181105Z 1812/1918 16004KT 8000 FEW005 BKN020",
    "PANC": "TAF PANC 181142Z 1812/1918 VRB02KT P6SM -SHRA SCT010 OVC040 TEMPO 1812/1816 BKN030 FM181800 19004KT P6SM VCSH OVC050 FM182000 16008KT 6SM -RA OVC040 FM182300 14012G24KT P6SM VCSH SCT040 OVC070 FM190800 34005KT 6SM -RA OVC060 WS008/12030KT",
    "PAFA": "TAF PAFA 181136Z 1812/1918 20003KT P6SM SCT060 BKN100 FM190000 17006KT P6SM SCT050 SCT120",
    "PAED": "TAF PAED 181300Z 1813/1919 00000KT 9999 SCT008 BKN015 BKN020 620802 QNH2998INS BECMG 1819/1820 27004KT 9999 -SHRA BKN030 BKN060 650604 QNH3002INS BECMG 1904/1905 03008KT 9999 VCSH SCT030 BKN060 BKN080 640604 520208 QNH3002INS BECMG 1913/1914 36010KT 8000 -RA SCT050 BKN080 640802 550208 QNH2998INS TX13/1900Z TN10/1912Z",
    "KSEA": "TAF KSEA 181120Z 1812/1918 21006KT P6SM SCT006 BKN045 TEMPO 1812/1816 5SM BR BKN005 FM181700 24006KT P6SM SCT008 BKN045 FM181900 27006KT P6SM SCT050 FM190200 01008KT P6SM FEW250 FM191100 36005KT P6SM SCT250",
    "ZSPD": "TAF AMD ZSPD 181221Z 1812/1918 30004MPS 8000 TSRA SCT030 FEW030CB TX28/1812Z TX33/1906Z TN27/1821Z BECMG 1812/1813 18005MPS -SHRA BECMG 1813/1814 10004MPS TEMPO 1905/1909 TSRA BKN011 FEW030CB",
    "ZSSS": "TAF AMD ZSSS 181310Z 1812/1918 29015G30MPS 1500 +TSRA SQ BKN008 SCT030CB TX28/1813Z TX33/1906Z TN27/1821Z BECMG 1813/1814 15004MPS 6000 -SHRA BKN015 TEMPO 1904/1908 TSRA BKN011 FEW030CB",
    "RJFR": "TAF RJFR 181105Z 1812/1918 01004KT 9999 FEW030 SCT040 BECMG 1821/1823 11006KT BECMG 1900/1903 06010KT TEMPO 1906/1912 -TSRA FEW020 BKN030 FEW030CB BECMG 1909/1912 31006KT TEMPO 1915/1918 BKN005 BKN020",
    "VHHH": "TAF VHHH 181400Z 1815/1921 20010KT 9999 FEW010 SCT025 TX31/1906Z TN27/1822Z TEMPO 1818/1824 3000 SHRA FEW010CB SCT020 TEMPO 1900/1906 24015G25KT 2500 TSRA SHRA FEW008CB SCT015",
    "RCTP": "TAF RCTP 181100Z 1812/1918 23015KT 9999 FEW010 BKN032 TEMPO 1812/1818 24010KT TEMPO 1818/1824 24009KT TEMPO 1900/1906 23020KT TEMPO 1906/1912 23022KT",
    "ZGSZ": "TAF ZGSZ 180903Z 1812/1918 17004MPS 8000 BKN040 TX29/1812Z TX31/1906Z TN27/1822Z TEMPO 1822/1901 SHRA FEW020CB SCT020 TEMPO 1902/1906 2500 +TSRA SCT010 FEW020CB BKN030",
    "WSSS": "TAF WSSS 181100Z 1812/1918 14005KT 9999 FEW015 SCT020",
    "WMKK": "TAF WMKK 181100Z 1812/1918 VRB03KT 9999 FEW018 PROB30 TEMPO 1820/1900 5000 TSRA FEW017CB",
    "VTBS": "TAF VTBS 181100Z 1812/1918 22008KT 9999 FEW020",
    "VTBU": "TAF VTBU 181100Z 1812/1912 22006KT 9000 FEW020 BECMG 1816/1818 36004KT BECMG 1900/1902 24008KT",
    "ROAH": "TAF ROAH 181105Z 1812/1918 21004KT 9999 FEW005 BKN010 TEMPO 1814/1821 FEW003 BKN005 TEMPO 1821/1900 FEW005 BKN008 TEMPO 1912/1918 FEW005 BKN008",
    "VVDN": "TAF VVDN 181100Z 1812/1912 22008KT 9999 FEW020 BECMG 1905/1906 01010KT",
    "RCKH": "TAF COR RCKH 181148Z 1812/1918 18005KT 9999 FEW010 BKN032 TEMPO 1812/1818 10005KT 4000 RA FEW010 BKN020 TEMPO 1818/1824 07005KT 4500 RA FEW010 BKN020 TEMPO 1900/1906 26009KT 5000 RA FEW010 BKN020 TEMPO 1906/1912 26010KT",
    "KLAX": "TAF KLAX 181351Z 1814/1918 11005KT P6SM FEW015 BKN150 FM181500 13006KT P6SM BKN015 FM181800 13006KT P6SM BKN015 FM182000 26012KT P6SM FEW025 FM190300 24006KT P6SM FEW015 SCT150 FM190600 VRB03KT P6SM FEW015 SCT150 FM190900 VRB03KT P6SM BKN015 FM191700 VRB03KT P6SM SCT015",
    "KONT": "TAF KONT 181120Z 1812/1918 VRB04KT P6SM SCT200 FM182000 26010G21KT P6SM SCT150 FM190200 25010KT P6SM FEW200 FM190900 VRB04KT P6SM SKC",
    "KSFO": "TAF KSFO 181245Z 1813/1918 26007KT P6SM OVC015 FM181800 28015G25KT P6SM SKC FM190600 26007KT P6SM OVC010",
    "KOAK": "TAF KOAK 181122Z 1812/1918 24007KT P6SM OVC010 FM181800 27010KT P6SM SKC FM190500 26007KT P6SM OVC010",
    "KMHR": "TAF KMHR 181120Z 1812/1912 17008KT P6SM SKC FM181600 VRB05KT P6SM FEW250 FM182200 22011KT P6SM SKC FM190600 16007KT P6SM FEW250",
    "KDFW": "TAF KDFW 181120Z 1812/1918 18012KT P6SM SCT025 TEMPO 1813/1815 BKN020 FM181600 18016KT P6SM SCT060 FM190200 18007KT P6SM FEW250",
    "KIAH": "TAF KIAH 181120Z 1812/1918 17006KT P6SM FEW020 SCT250 FM181500 20007KT P6SM SCT020 BKN035 FM181900 17008KT P6SM SCT045 SCT250 FM190400 19004KT P6SM FEW020 SCT250",
    "KORD": "TAF KORD 181120Z 1812/1918 25010KT P6SM SCT250 FM181400 27013G22KT P6SM SCT050 BKN250 FM181700 29012KT P6SM VCTS BKN050CB TEMPO 1817/1820 VRB20G30KT 1SM TSRA BKN020 OVC050CB FM182000 06011G17KT P6SM FEW015 SCT035 FM190100 03012G18KT 5SM FU SCT015",
    "KJFK": "TAF KJFK 181421Z 1814/1918 18010KT 4SM SHRA FU OVC140 TEMPO 1815/1818 3SM TSRA BKN025CB FM181800 19014KT P6SM VCSH SCT015 OVC070 TEMPO 1819/1823 2SM TSRA BR BKN015 OVC050CB FM182300 20014G22KT 5SM -SHRA BKN015 OVC050 TEMPO 1823/1903 2SM TSRA BR BKN009 OVC050CB FM190300 24012KT 4SM SHRA BKN025 OVC050 FM190700 28012KT P6SM SCT040 BKN100 FM191200 33013KT P6SM BKN250",
    "KRFD": "TAF KRFD 181120Z 1812/1912 25010KT P6SM BKN250 FM181400 28013G22KT P6SM SCT050 BKN250 PROB30 1815/1817 1SM TSRA BKN020 OVC050CB FM181900 31011KT P6SM SCT035 FM190300 01009KT 5SM FU SCT035",
    "KIND": "TAF KIND 181120Z 1812/1918 23008KT P6SM FEW040 SCT180 FM181500 27013KT P6SM VCSH SCT050 PROB30 1821/1903 VRB15G25KT 5SM -TSRA BKN030CB FM190300 34007KT P6SM VCSH BKN150",
    "KDTW": "TAF KDTW 181244Z 1813/1918 22008KT 6SM BR FU SCT007 BKN070 FM181500 26016G23KT P6SM SCT030 BKN050 OVC120 TEMPO 1817/1820 2SM TSRA OVC030CB FM182100 32014G22KT P6SM SCT045 BKN060 FM190100 35010KT P6SM BKN200 FM190600 01005KT P6SM SKC",
    "KMSP": "TAF KMSP 181124Z 1812/1918 36008KT P6SM SKC FM181300 01011KT P6SM SKC FM190200 03004KT P6SM SCT250",
    "CYEG": "TAF AMD CYEG 181323Z 1813/1912 21006KT P6SM BKN020 TEMPO 1813/1816 BKN030 FM181600 27006KT P6SM FEW030 FM182200 27006KT P6SM FEW050 TEMPO 1822/1824 VRB25G40KT P6SM VCTS BKN050CB FM190000 25008KT P6SM SCT050 PROB30 1900/1904 VRB25G40KT 1SM +TSRA BR FEW020 BKN040CB FM190400 25008KT P6SM FEW100 FM191000 27008KT P6SM SCT080 TEMPO 1910/1912 VRB25G35KT P6SM VCTS BKN080CB RMK NXT FCST BY 181500Z",
    "EHAM": "TAF EHAM 181115Z 1812/1918 32013KT 9999 SCT025 BKN030 BECMG 1819/1822 31008KT PROB30 TEMPO 1820/1824 7000 -SHRA FEW020TCU BECMG 1906/1909 32016KT",
    "EBBR": "TAF EBBR 181112Z 1812/1918 32010KT 9999 SCT030 SCT045",
    "EDDF": "TAF EDDF 181100Z 1812/1918 29009KT 9999 SCT045 PROB30 TEMPO 1814/1820 31015G25KT TSRA BKN045CB BECMG 1819/1822 31004KT PROB30 TEMPO 1901/1904 SHRA BKN035CB BECMG 1906/1908 30009KT",
    "EDFH": "TAF EDFH 181100Z 1812/1912 31007KT 9999 FEW045 PROB30 TEMPO 1814/1819 32015G25KT TSRA BKN035CB",
    "EDDL": "TAF EDDL 181100Z 1812/1918 31011KT 9999 SCT035 BECMG 1819/1822 29006KT BECMG 1907/1910 30012KT PROB30 TEMPO 1914/1917 31015G25KT",
    "EDDK": "TAF EDDK 181100Z 1812/1918 32011KT 9999 SCT040 BECMG 1819/1822 31006KT BECMG 1907/1910 31011KT PROB30 TEMPO 1913/1918 31015G25KT",
    "EBLG": "TAF EBLG 181112Z 1812/1918 31010KT 9999 SCT030 SCT045",
    "LSZH": "TAF LSZH 181425Z 1815/1921 20008KT 9999 FEW060CB TX26/1815Z TN15/1904Z TX24/1914Z PROB40 TEMPO 1815/1817 23015G26KT TSRA BECMG 1818/1820 15005KT BECMG 1821/1824 CAVOK BECMG 1905/1908 9999 SCT040 PROB40 TEMPO 1907/1917 SHRA SCT050TCU BECMG 1908/1911 30010KT PROB30 TEMPO 1912/1916 32015G25KT TSRA FEW050CB BECMG 1918/1921 03006KT CAVOK",
    "LIMC": "TAF LIMC 181100Z 1812/1918 22010KT 9999 FEW040 BECMG 1816/1818 VRB05KT PROB40 TEMPO 1819/1902 TSRA",
    "LIRF": "TAF LIRF 181100Z 1812/1918 27012KT CAVOK BECMG 1820/1822 VRB05KT BECMG 1907/1909 17010KT BECMG 1912/1914 23010KT BECMG 1916/1918 VRB05KT",
    "EINN": "TAF EINN 181100Z 1812/1912 36012KT 9999 FEW025",
    "EGLL": "TAF EGLL 181053Z 1812/1918 02010KT 9999 FEW030 PROB40 TEMPO 1903/1908 32006KT",
    "EGSS": "TAF EGSS 181056Z 1812/1918 03006KT 9999 SCT032 BECMG 1823/1902 33010KT",
    "EPWA": "TAF EPWA 181430Z 1815/1915 26012KT 9999 SCT035 TEMPO 1815/1820 27015G25KT 4000 SHRA SCT030CB PROB40 TEMPO 1815/1818 VRB17G28KT 2000 TSRA BKN030CB BECMG 1817/1819 VRB02KT TEMPO 1909/1915 -SHRA SCT040CB PROB30 TEMPO 1911/1915 VRB15G25KT 3000 TSRA BKN040CB",
    "UHPP": "TAF UHPP 181351Z 1815/1921 36003G12MPS 9999 SCT050 TX28/1903Z TN18/1816Z TEMPO 1821/1912 30005G12MPS",
    "EFHK": "TAF EFHK 181131Z 1812/1912 15009KT CAVOK PROB40 TEMPO 1812/1816 FEW050CB TEMPO 1816/1823 21012G22KT 4000 TSRA BKN012 BKN030CB BECMG 1823/1901 21010KT 6000 -RADZ BKN007 FEW030CB BECMG 1904/1906 28010KT 9999 BECMG 1908/1910 34011KT BKN015",
    "LBBG": "TAF LBBG 181100Z 1812/1912 12012KT CAVOK BECMG 1820/1822 VRB03KT TEMPO 1902/1905 3000 BR BKN010 BECMG 1906/1908 12012KT",
    "LTAC": "TAF LTAC 181040Z 1812/1912 06012KT 9999 SCT040 BECMG 1816/1819 CAVOK BECMG 1900/1903 VRB02KT",
    "UBBB": "TAF UBBB 181052Z 1812/1912 34016KT CAVOK TX30/1812Z TN25/1901Z TEMPO 1812/1818 02014KT FEW050CB PROB40 TEMPO 1818/1824 TS SCT040CB TEMPO 1900/1906 SCT012 FEW050CB",
    "UTAA": "TAF UTAA 181045Z 1812/1912 27016KT 6000 SCT050 TX42/1912Z TEMPO 1812/1818 34014G24KT 4000 DRDU TEMPO 1900/1907 30012G22KT",
    "UACC": "TAF UACC 181110Z 1812/1912 27006MPS 9999 SCT040CB BKN100 TX34/1909Z TN20/1900Z TEMPO 1812/1816 31007G12MPS BECMG 1816/1818 14003MPS TEMPO 1818/1904 20008MPS -TSRA BKN030CB BECMG 1904/1906 24006MPS TEMPO 1904/1912 28009MPS -TSRA BKN030CB",
    "UAAA": "TAF UAAA 181104Z 1812/1912 17002MPS 9999 FEW050 SCT100 TX42/1910Z TN23/1900Z TEMPO 1812/1816 04005MPS BECMG 1903/1904 01005MPS TEMPO 1905/1912 06005G10MPS",
    "UZTT": "TAF UZTT 181100Z 1812/1912 07010KT 7000 NSC TX44/1911Z TN27/1900Z TEMPO 1812/1816 32015KT",
    "ZWWW": "TAF ZWWW 180905Z 1812/1918 36004G10MPS CAVOK TX38/1909Z TN28/1823Z TN30/1918Z BECMG 1815/1816 18004MPS BECMG 1902/1903 36004MPS BECMG 1913/1914 18004MPS",
    "ZLXY": "TAF ZLXY 180907Z 1812/1912 24003MPS 6000 NSC TX35/1908Z TN22/1821Z",
    "ZBAA": "TAF ZBAA 180901Z 1812/1918 18004MPS CAVOK TX31/1906Z TN21/1821Z TN23/1918Z",
    "ZBHH": "TAF ZBHH 180903Z 1812/1912 36004MPS CAVOK TX30/1908Z TN15/1822Z TEMPO 1909/1912 VRB08G13MPS -TSRA FEW040CB FEW040",
    "ZSQD": "TAF ZSQD 180901Z 1812/1912 16003MPS 3500 BR NSC TX30/1906Z TN21/1820Z",
    "ZMCK": "TAF ZMCK 181044Z 1812/1918 VRB02MPS 9999 FEW030CB SCT033 TN12/1821Z TX24/1907Z PROB40 TEMPO 1812/1816 VRB09G14MPS TSRA SCT027CB SCT030 BECMG 1900/1902 32005MPS PROB40 TEMPO 1905/1912 VRB09G14MPS TSRA SCT027CB SCT030 BECMG 1911/1913 VRB02MPS",
    "UUEE": "TAF UUEE 181350Z 1815/1915 05003MPS CAVOK TX27/1912Z TN15/1901Z TEMPO 1903/1915 22005MPS",
    "UUDD": "TAF UUDD 181352Z 1815/1921 20003MPS CAVOK TX27/1912Z TN12/1901Z",
    "ULLI": "TAF ULLI 181352Z 1815/1915 18006G12MPS 9999 SCT020 BECMG 1906/1908 22006G12MPS TEMPO 1909/1915 25009G15MPS 3100 -TSRA BKN017CB",
    "USSS": "TAF USSS 181345Z 1815/1915 06003G14MPS 6000 -SHRA BKN016CB TEMPO 1815/1915 VRB20MPS 0500 +TSRAGR SQ BKN003 BKN011CB",
    "UNNT": "TAF UNNT 181400Z 1815/1915 32003G08MPS 8000 SCT040 TX26/1912Z TN16/1822Z TEMPO 1815/1819 22006G15MPS -TSRA BKN020CB TEMPO 1819/1902 0150 FG BKN001 TEMPO 1902/1915 02006G13MPS -TSRA BKN020CB",
    "UNKL": "TAF UNKL 181347Z 1815/1915 27003MPS 6000 NSC TEMPO 1816/1818 0400 FG BECMG 1818/1820 0300 FG VV002 BECMG 1821/1823 6000 NSW TEMPO 1904/1915 -TSRA BKN016CB",
    "UIBB": "TAF UIBB 181400Z 1815/1915 20004MPS 0300 FG BKN001 BKN016CB TEMPO 1815/1821 4000 -SHRA FEW001 BKN017CB FM190100 26005G10MPS 9999 -SHRA BKN017CB TEMPO 1901/1915 VRB10MPS -TSRA",
    "UEEE": "TAF UEEE 181400Z 1815/1921 06003MPS 9999 FEW007 BKN017CB OVC070 TEMPO 1815/1901 0300 -TSRA FG VV002 TEMPO 1901/1915 VRB10MPS 2100 -TSRA SCT007 BKN015CB OVC070",
    "UHHH": "TAF UHHH 181353Z 1815/1921 24003MPS CAVOK TX30/1904Z TN18/1818Z FM181800 VRB01MPS 0400 FG VV002 BECMG 1821/1823 5000 BR FEW010 FM190100 28003MPS 9999 SCT020CB",
    "UHSS": "TAF UHSS 181350Z 1815/1921 36006MPS 5000 -SHRA BKN005 BKN016CB TEMPO 1815/1820 -TSRA BECMG 1906/1908 9999 NSW BKN020CB"
  },
  "atis": {},
  "windtemp_alaska": "\n000\nFBAK31 KWNO 181359\nFD1AK1\nDATA BASED ON 181200Z    \nVALID 181800Z   FOR USE 1400-2100Z. TEMPS NEG ABV 24000\n\nFT  3000    6000    9000   12000   18000   24000  30000  34000  39000\nADK 3318 3323+03 3329-02 3233-07 3350-18 3377-26 840936 841845 841349\nADQ 1725 1928+02 2128-03 2239-08 2148-15 2156-27 226741 227149 225254\nAKN 1633 1726+00 1727-05 1620-08 1923-19 2047-30 208244 218649 204146\nANC 1608 1519+00 1520-06 1717-10 2335-17 2353-27 236942 237350 234950\nANN 3213 3110+05 3014+03 2915-01 3018-15 3231-27 335442 334749 302249\nBET 1314 1011-02 0914-07 1113-11 1617-22 1824-34 193246 182643 181641\nBRW 0820 0921+02 0823-03 0818-09 0922-20 1126-31 083148 093148 102141\nBTI 0606 9900+04 2205-01 1909-06 1621-18 1533-29 165342 165750 163347\nBTT 9900 9900+02 9900-04 1705-10 1614-24 1813-35 201946 171843 161740\nCDB 1917 2015-02 2020-05 2025-09 2027-21 2041-32 205240 204040 212640\nCZF 0408 0309+00 0512-06 0516-12 0513-24 0505-36 990047 040542 050839\nEHM 1023 1219-02 1319-04 1421-10 1631-22 1743-34 184745 183341 181940\nFAI 1908 1509+02 1512-04 1411-10 1614-22 2320-31 233746 233546 202342\nFYU 2709 2305+03 9900-03 9900-08 1718-21 1637-34 154046 172944 172242\nGAL 1711 1713+00 1713-06 1713-13 1819-24 1925-34 202847 192044 171440\nGKN 1714 1818+01 1818-05 1916-09 2223-18 2441-26 256143 257050 243348\nHOM 1516 1717-01 1918-05 2122-08 2238-16 2352-27 226941 227050 225653\nJNU 2407 2806+01 2714+02 2616-02 2822-15 3139-27 315441 315551 291948\nLUR 0816 0714+02 0616-03 0621-09 0629-21 0539-32 045346 053948 052041\nMCG 1408 1508-01 1212-06 1314-12 1919-21 2236-33 213848 213445 202341\nMDO 2011 1910-01 2017-03 2326-05 2440-16 2438-26 244341 244850 244655\nOME 1210 1208+01 0705-05 0308-12 0515-24 0520-36 052145 051341 050939\nORT      2808+03 2308-03 2210-08 2217-18 2627-29 276043 285849 242546\nOTZ 1216 1216+00 1018-05 0819-10 0721-24 0627-36 063045 062342 071439\nSNP 3627 0126-03 0128-07 3630-12 3630-23 3529-34 353545 353641 353239\nTKA 9900 1512+00 1615-06 1816-11 1921-20 2240-28 237043 237749 223646\nUNK 1810 1916+00 1913-06 1709-12 1709-25 2019-36 212546 181142 150939\nYAK 2405 2506+01 2609-03 2614-04 2726-15 2939-26 284341 284750 283753\nIKO 3340 3336-02 3341-06 3341-11 3235-22 3229-34 323143 323638 323139\nAFM 1410 1414+00 1416-05 1418-11 1220-25 1220-36 121846 121442 121139\n5AB 2610 3119+09 3225+05 3336+01 3350-11 3356-18 336732 337842 338353\n5AC 3218 3121+07 3121+04 3124+00 3035-12 3037-24 312740 323750 323558\n5AD 2114 2420+05 2524+02 2528-02 2523-13 2428-24 243440 253049 232259\n5AE 1830 2037+04 2039-01 2044-06 2149-14 2155-25 216841 217349 216454\n5AF 3014 3015+05 2916+02 2918-03 3030-13 2929-25 292740 303050 303757\n5AG 2613 2711+02 2616-01 2722-04 2730-14 2736-26 263740 263949 263956\n",
  "vaac_active": [
    {
      "volcano": "MAYON",
      "volcano_jp": "マヨン",
      "advisory_nr": "2026/764",
      "obs_time": "2026-07-18 09:39Z",
      "issued_time": "2026-07-18 09:57Z",
      "text_url": "https://www.data.jma.go.jp/vaac/data/TextData/2026/20260718_27303000_0764_Text.html",
      "lat": 13.25,
      "lon": 123.683,
      "text": "FVFE01 RJTD 180957\nVA ADVISORY\nDTG: 20260718/0957Z\nVAAC: TOKYO\nVOLCANO: MAYON 273030\nPSN: N1315 E12341\nAREA: PHILIPPINES\nSOURCE ELEV: 2462M AMSL\nADVISORY NR: 2026/764\nINFO SOURCE: HIMAWARI-9 PHIVOLCS\nERUPTION DETAILS: ERUPTION AT 20260718/0939Z VA CLD UNKNOWN REPORTED\nOBS VA DTG: 18/0940Z\nOBS VA CLD: VA NOT IDENTIFIABLE FM SATELLITE DATA WIND FL180 020/4KT\nFCST VA CLD +6 HR: NOT AVBL\nFCST VA CLD +12 HR: NOT AVBL\nFCST VA CLD +18 HR: NOT AVBL\nRMK: WE WILL ISSUE FURTHER ADVISORY IF VA IS DETECTED IN SATELLITE \nIMAGERY.\nNXT ADVISORY: NO FURTHER ADVISORIES="
    }
  ],
  "vaac_tokyo": [
    {
      "id": "20260718_30027000_0268",
      "year": "2026",
      "volcano": "Sheveluch",
      "psn": "N5639 E16122",
      "issued": "20260718",
      "text": "FVFE01 RJTD 180000\nVA ADVISORY\nDTG: 20260718/0000Z\nVAAC: TOKYO\nVOLCANO: SHEVELUCH 300270\nPSN: N5639 E16122\nAREA: RUSSIA\nSOURCE ELEV: 3283M AMSL\nADVISORY NR: 2026/268\nINFO SOURCE: KVERT HIMAWARI-9\nERUPTION DETAILS: VA CONTINUOUSLY OBS IN SATELLITE IMAGERY\nOBS VA DTG: 17/2320Z\nOBS VA CLD: SFC/FL290 N5601 E16322 - N5605 E16357 - N5546 E16401 - \nN5544 E16326 MOV SE 25KT\nFCST VA CLD +6 HR: 18/0520Z SFC/FL300 N5529 E16617 - N5404 E16714 - \nN5357 E16639 - N5527 E16530\nFCST VA CLD +12 HR: 18/1120Z SFC/FL300 N5352 E17006 - N5152 E17037 - \nN5152 E16936 - N5344 E16817\nFCST VA CLD +18 HR: NO VA EXP\nRMK: SOME PART OF VA OBSCURED BY MET CLOUD.\nNXT ADVISORY: 20260718/0600Z=",
      "img_url": "https://ds.data.jma.go.jp/svd/vaac/data/VAGFN/2026/Images/20260718_30027000_0268_QH21_01.png",
      "sat_img_url": "https://ds.data.jma.go.jp/svd/vaac/data/Sat/2026/Images/30027000/09-ir/20260717_2320_202607180000_ir.png",
      "text_url": "https://ds.data.jma.go.jp/svd/vaac/data/TextData/2026/20260718_30027000_0268_Text.html"
    },
    {
      "id": "20260717_27303000_0761",
      "year": "2026",
      "volcano": "Mayon",
      "psn": "N1315 E12341",
      "issued": "20260717",
      "text": "FVFE01 RJTD 172222\nVA ADVISORY\nDTG: 20260717/2222Z\nVAAC: TOKYO\nVOLCANO: MAYON 273030\nPSN: N1315 E12341\nAREA: PHILIPPINES\nSOURCE ELEV: 2462M AMSL\nADVISORY NR: 2026/761\nINFO SOURCE: HIMAWARI-9 PHIVOLCS\nERUPTION DETAILS: ERUPTION AT 20260717/2208Z FL100 EXTD SSE REPORTED\nOBS VA DTG: 17/2210Z\nOBS VA CLD: VA NOT IDENTIFIABLE FM SATELLITE DATA WIND FL100 360/6KT\nFCST VA CLD +6 HR: NOT AVBL\nFCST VA CLD +12 HR: NOT AVBL\nFCST VA CLD +18 HR: NOT AVBL\nRMK: WE WILL ISSUE FURTHER ADVISORY IF VA IS DETECTED IN SATELLITE \nIMAGERY.\nNXT ADVISORY: NO FURTHER ADVISORIES=",
      "img_url": "https://ds.data.jma.go.jp/svd/vaac/data/VAGFN/2026/Images/20260717_27303000_0761_QH21_01.png",
      "sat_img_url": null,
      "text_url": "https://ds.data.jma.go.jp/svd/vaac/data/TextData/2026/20260717_27303000_0761_Text.html"
    },
    {
      "id": "20260717_27307000_0014",
      "year": "2026",
      "volcano": "Taal",
      "psn": "N1400 E12100",
      "issued": "20260717",
      "text": "FVFE01 RJTD 171113\nVA ADVISORY\nDTG: 20260717/1113Z\nVAAC: TOKYO\nVOLCANO: TAAL 273070\nPSN: N1400 E12100\nAREA: PHILIPPINES\nSOURCE ELEV: 311M AMSL\nADVISORY NR: 2026/14\nINFO SOURCE: HIMAWARI-9 PHIVOLCS\nERUPTION DETAILS: ERUPTION AT 20260717/1051Z FL040 EXTD E REPORTED\nOBS VA DTG: 17/1100Z\nOBS VA CLD: VA NOT IDENTIFIABLE FM SATELLITE DATA WIND FL040 270/8KT\nFCST VA CLD +6 HR: NOT AVBL\nFCST VA CLD +12 HR: NOT AVBL\nFCST VA CLD +18 HR: NOT AVBL\nRMK: WE WILL ISSUE FURTHER ADVISORY IF VA IS DETECTED IN SATELLITE \nIMAGERY.\nNXT ADVISORY: NO FURTHER ADVISORIES=",
      "img_url": "https://ds.data.jma.go.jp/svd/vaac/data/VAGFN/2026/Images/20260717_27307000_0014_QH21_01.png",
      "sat_img_url": null,
      "text_url": "https://ds.data.jma.go.jp/svd/vaac/data/TextData/2026/20260717_27307000_0014_Text.html"
    },
    {
      "id": "20260713_28208001_0083",
      "year": "2026",
      "volcano": null,
      "psn": "N3136 E13039",
      "issued": "20260713",
      "text": "FVFE01 RJTD 130254\nVA ADVISORY\nDTG: 20260713/0254Z\nVAAC: TOKYO\nVOLCANO: SAKURAJIMA (AIRA CALDERA) 282080\nPSN: N3136 E13039\nAREA: JAPAN\nSOURCE ELEV: 1117M AMSL\nADVISORY NR: 2026/83\nINFO SOURCE: JMA HIMAWARI-9\nERUPTION DETAILS: ERUPTED AT 20260713/0152Z FL100 EXTD N\nOBS VA DTG: 13/0230Z\nOBS VA CLD: SFC/FL100 N3136 E13039 - N3142 E13040 - N3141 E13044 - \nN3134 E13042 MOV NE 15KT\nFCST VA CLD +6 HR: 13/0830Z SFC/FL100 N3234 E13121 - N3145 E13155 - \nN3202 E13110 - N3227 E13051\nFCST VA CLD +12 HR: 13/1430Z SFC/FL100 N3318 E13206 - N3142 E13317 - \nN3134 E13226 - N3312 E13118\nFCST VA CLD +18 HR: NO VA EXP\nRMK: NIL\nNXT ADVISORY: 20260713/0600Z=",
      "img_url": "https://ds.data.jma.go.jp/svd/vaac/data/VAGFN/2026/Images/20260713_28208001_0083_QH21_01.png",
      "sat_img_url": "https://ds.data.jma.go.jp/svd/vaac/data/Sat/2026/Images/28208001/09-ir/20260713_0230_202607130254_ir.png",
      "text_url": "https://ds.data.jma.go.jp/svd/vaac/data/TextData/2026/20260713_28208001_0083_Text.html"
    }
  ],
  "vaac_alaska": [
    {
      "text": "\n000\nFVAK21 PAWU 180008\nVAAAK1\nVA ADVISORY\n\nDTG: 20260718/0000Z\n\nVAAC: ANCHORAGE\n\nVOLCANO: SHEVELUCH 300270\n\nPSN: N5639 E16122\n\nAREA: KAMCHATKA PENINSULA\n\nSOURCE ELEV: 10771 FT AMSL\n\nADVISORY NR: 2026/205\n\nRMK: PLEASE SEE FVFE01 RJTD ISSUED BY VAAC TOKYO WHICH DESCRIBES\nCONDITIONS NEAR THE VAAC ANCHORAGE AREA OF RESPONSIBILITY...BS\n\n\n\n",
      "issued": "2026-07-18T00:08:00+00:00",
      "volcano": "Sheveluch",
      "psn": "N5639 E16122"
    }
  ]
}