{
  "updated_utc": "2026-07-18T20:01Z",
  "metar": {
    "RJAA": "METAR RJAA 181830Z AUTO 15003KT 9999 FEW031 BKN033 23/23 Q1008 NOSIG",
    "PANC": "SPECI PANC 181802Z 26005KT 10SM -RA BKN008 OVC015 10/09 A3003 RMK AO2 P0000 T01000089",
    "PAFA": "METAR PAFA 181853Z 00000KT 10SM FEW030 FEW080 BKN100 14/09 A2994 RMK AO2 SLP141 PRSNT WX VCSH E SE T01440094 $",
    "PAED": "METAR PAED 181855Z 26005KT 10SM -RA SCT007 OVC011 11/09 A3003 RMK AO2A SLP165 P0000 T01090093 $",
    "KSEA": "METAR KSEA 181853Z 24007KT 10SM FEW012 SCT046 19/12 A3017 RMK AO2 SLP222 T01890117 $",
    "ZSPD": "METAR ZSPD 181830Z 17003MPS CAVOK 27/27 Q1002 NOSIG",
    "ZSSS": "METAR ZSSS 181830Z 26002MPS 210V300 CAVOK 28/25 Q1001 NOSIG",
    "RJFR": "METAR RJFR 181900Z AUTO 35006KT 9999 FEW039 BKN050 BKN060 28/26 Q1004",
    "VHHH": "METAR VHHH 181830Z 19008KT 9999 FEW010 29/25 Q1005 NOSIG",
    "RCTP": "METAR RCTP 181830Z 23007KT 9999 FEW020 SCT180 26/23 Q1005 NOSIG RMK A2969",
    "ZGSZ": "METAR ZGSZ 181900Z 16004MPS 9999 FEW020 28/27 Q1005 NOSIG",
    "WSSS": "METAR WSSS 181830Z 12004KT 040V180 9999 FEW018 BKN300 28/25 Q1011 NOSIG",
    "WMKK": "METAR WMKK 181830Z 00000KT 9000 FEW030 26/24 Q1010 NOSIG",
    "WIDD": "METAR WIDD 181830Z AUTO VRB01KT 9999 NCD 26/25 Q1011 NOSIG",
    "VTBS": "METAR VTBS 181830Z 22006KT 9999 SCT020 29/26 Q1009 NOSIG",
    "VTBU": "METAR VTBU 181830Z 21009KT 9000 FEW020 29/29 Q1009 NOSIG",
    "ROAH": "METAR ROAH 181830Z AUTO 20007KT 9000 BKN003 28/27 Q1006",
    "VVDN": "METAR VVDN 181830Z VRB02KT CAVOK 29/22 Q1005 NOSIG",
    "RCKH": "METAR RCKH 181900Z 08002KT 9999 FEW015 SCT025 26/25 Q1007 NOSIG RMK A2975",
    "KLAX": "METAR KLAX 181853Z 26008KT 10SM FEW014 FEW170 25/18 A2999 RMK AO2 SLP153 ACSL DSNT NE T02500183 $",
    "KONT": "METAR KONT 181853Z 27008KT 10SM FEW120 FEW200 32/14 A2999 RMK AO2 SLP135 T03170139 $",
    "KSFO": "METAR KSFO 181856Z 06004KT 10SM FEW020 20/13 A3004 RMK AO2 SLP172 T02000128 $",
    "KOAK": "SPECI KOAK 181803Z 25007KT 10SM FEW008 SCT015 SCT250 17/12 A3006 RMK AO2 T01720122",
    "KMHR": "METAR KMHR 181815Z AUTO 21006KT 10SM CLR 24/12 A2999 RMK AO2 T02390118 $",
    "KDFW": "METAR KDFW 181853Z 20011KT 10SM FEW047 BKN250 33/21 A3003 RMK AO2 SLP158 T03330211 $",
    "KIAH": "METAR KIAH 181853Z 16007KT 10SM FEW046 BKN250 33/23 A3007 RMK AO2 SLP180 T03330228 $",
    "KORD": "METAR KORD 181851Z 32011G19KT 10SM SCT041 BKN065 BKN080 BKN250 31/22 A2987 RMK AO2 SLP107 T03060217 $",
    "KJFK": "SPECI KJFK 181803Z 16007KT 2SM R04R/4500VP6000FT +TSRA FU SCT015 BKN032CB OVC055 22/21 A2989 RMK AO2 FRQ LTGICCG OHD TS OHD MOV E FU OVC055 P0023 T02170211 $",
    "KRFD": "METAR KRFD 181854Z COR 32008KT 10SM FEW028 SCT040 BKN065 31/22 A2990 RMK AO2 SLP119 T03110222 $",
    "KIND": "METAR KIND 181854Z 27014G24KT 10SM FEW041 SCT048 BKN060 33/22 A2989 RMK AO2 PK WND 25027/1842 SLP113 CB DSNT N-NE MOV SE T03280222 $",
    "KDTW": "METAR KDTW 181853Z 28017G29KT 10SM FEW045 BKN055 BKN200 32/21 A2971 RMK AO2 PK WND 26031/1834 SLP056 T03220211 $",
    "KMSP": "METAR KMSP 181853Z 33009G20KT 10SM FEW250 31/14 A2999 RMK AO2 SLP149 T03060139",
    "CYEG": "METAR CYEG 181900Z 25007KT 230V310 15SM FEW024 26/20 A2981 RMK CU1 CU TR SLP087 DENSITY ALT 4300FT",
    "EHAM": "METAR EHAM 181825Z 34010KT 310V020 9999 FEW028 18/11 Q1017 NOSIG",
    "EBBR": "METAR EBBR 181820Z 33009KT 9999 FEW026 SCT046 18/11 Q1018 NOSIG",
    "EDDF": "METAR EDDF 181820Z AUTO 01007KT 9999 -SHRA FEW034 FEW///CB 21/16 Q1013 TEMPO SHRA BKN030CB",
    "EDFH": "METAR EDFH 181820Z 01008KT 9999 -SHRA BKN044CB 16/15 Q1016",
    "EDDL": "METAR EDDL 181820Z AUTO 30010KT 280V340 CAVOK 20/10 Q1015 NOSIG",
    "EDDK": "METAR EDDK 181820Z AUTO 32010KT 9999 FEW044 20/11 Q1015 NOSIG",
    "EBLG": "METAR EBLG 181820Z 31008KT 9999 FEW038 19/10 Q1017 NOSIG",
    "LSZH": "METAR LSZH 181820Z 11005KT 070V210 9999 4300SE TSRA FEW030CB BKN062 18/16 Q1016 TEMPO TS",
    "LIMC": "METAR LIMC 181820Z 04006KT 9999 FEW045 FEW070TCU 30/17 Q1008 TEMPO SHRA",
    "LIRF": "METAR LIRF 181820Z 28005KT CAVOK 30/26 Q1010 NOSIG",
    "EINN": "METAR EINN 181830Z 35011KT 9999 FEW025 SCT200 21/11 Q1024 NOSIG",
    "EGLL": "METAR EGLL 181820Z AUTO 04008KT 350V070 9999 NCD 22/09 Q1020",
    "EGSS": "METAR EGSS 181820Z AUTO 36008KT 9999 NCD 19/10 Q1021",
    "EPWA": "METAR EPWA 181830Z 30004KT CAVOK 22/15 Q1010 NOSIG",
    "UHPP": "METAR UHPP 181830Z VRB01MPS 9999 FEW020 20/15 Q1018 R34L/CLRD62 NOSIG RMK MT OBSC QFE760/1013",
    "EFHK": "METAR EFHK 181820Z 26004KT 9999 -SHRA FEW050CB 20/18 Q1002 NOSIG",
    "LBBG": "METAR LBBG 181830Z AUTO 12008KT 9999 NCD 24/20 Q1013 NOSIG",
    "LTAC": "METAR LTAC 181820Z 09007KT 050V110 9999 FEW040 24/09 Q1014 NOSIG RMK RWY21C 03004KT 350V060 RWY03L 05004KT 010V090 RWY21R 01004KT 340V060 RWY03R 07007KT RWY21L 11005KT",
    "UBBB": "METAR UBBB 181830Z 33012KT CAVOK 26/22 Q1010 NOSIG",
    "UTAA": "METAR UTAA 181900Z 26008KT 9999 NSC 34/18 Q1006 R88/CLRD70 NOSIG",
    "UACC": "METAR UACC 181830Z VRB01MPS CAVOK 26/15 Q1004 NOSIG RMK QFE722/0963",
    "UAAA": "METAR UAAA 181830Z 17002MPS 9999 SCT200 26/11 Q1006 NOSIG",
    "UZTT": "METAR UZTT 181830Z 11004KT CAVOK 32/17 Q1001 NOSIG",
    "ZWWW": "METAR ZWWW 181830Z 15003MPS CAVOK 32/12 Q1007 NOSIG",
    "ZLXY": "METAR ZLXY 181900Z VRB01MPS CAVOK 22/18 Q1006 NOSIG",
    "ZBAA": "METAR ZBAA 181830Z VRB01MPS CAVOK 22/21 Q1002 NOSIG",
    "ZBHH": "METAR ZBHH 181900Z 08002MPS CAVOK 15/13 Q1008 NOSIG",
    "ZSQD": "METAR ZSQD 181900Z 17002MPS 9999 FEW040 23/20 Q1003 NOSIG",
    "ZMCK": "METAR ZMCK 181830Z VRB02MPS 9999 FEW033 12/10 Q1004 NOSIG RMK QFE639.1 90 NT",
    "UUEE": "METAR UUEE 181830Z 20004MPS CAVOK 21/13 Q1014 R06R/CLRD62 R06C/CLRD62 NOSIG",
    "UUDD": "METAR UUDD 181830Z VRB01MPS CAVOK 18/13 Q1015 R31L/CLRD65 NOSIG",
    "ULLI": "METAR ULLI 181830Z 15004MPS CAVOK 22/10 Q1007 R88/090065 NOSIG",
    "USSS": "METAR USSS 181830Z 36003MPS 9999 SCT023CB 19/19 Q1003 R08R/220050 TEMPO -TSRA RMK QFE733/0977",
    "UNNT": "METAR UNNT 181830Z 27001MPS CAVOK 19/19 Q1004 R25/CLRD// R16/CLRD// NOSIG RMK QFE743/0991",
    "UNKL": "METAR UNKL 181830Z 30001MPS CAVOK 16/16 Q1002 R29/CLRD// NOSIG RMK QFE726",
    "UIBB": "METAR UIBB 181830Z AUTO VRB01MPS 9999 // NSC 14/13 Q1000 RMK QFE708/0944",
    "UEEE": "METAR UEEE 181830Z 03001MPS 9999 BKN014CB 17/16 Q0997 R23/290151 NOSIG RMK QFE739",
    "UHHH": "METAR UHHH 181830Z 28002MPS CAVOK 18/17 Q1005 R88/090060 NOSIG RMK QFE747/0997",
    "UHSS": "METAR UHSS 181900Z 17003MPS 5000 -SHRA SCT007 BKN016CB 20/19 Q1009 R19/290060 NOSIG RMK MT OBSC QFE756/1008"
  },
  "taf": {
    "RJAA": "TAF RJAA 181705Z 1818/2000 17006KT 9999 FEW015 SCT020",
    "PANC": "TAF PANC 181744Z 1818/1924 VRB04KT P6SM -SHRA SCT007 OVC015 TEMPO 1818/1820 -RA BKN007 FM182000 16008KT 6SM -RA SCT015 OVC040 TEMPO 1820/1823 -RA BKN015 FM182300 14012G24KT P6SM VCSH SCT040 OVC070 FM190800 34005KT 6SM -RA OVC060 WS008/12030KT",
    "PAFA": "TAF PAFA 181730Z 1818/1924 VRB03KT P6SM SCT080 FM190000 17006KT P6SM BKN250",
    "PAED": "TAF AMD PAED 181930Z 1819/1919 VRB03KT 9999 -RA BKN007 BKN015 OVC020 620802 QNH2999INS BECMG 1822/1823 02005KT 9999 -SHRA SCT010 OVC040 620802 QNH2998INS BECMG 1904/1905 03008KT 9999 VCSH SCT030 BKN060 BKN080 640604 520208 QNH3002INS BECMG 1913/1914 36010KT 8000 -RA SCT050 BKN080 640802 560208 QNH2998INS TX15/1900Z TN10/19",
    "KSEA": "TAF KSEA 181720Z 1818/1924 24006KT P6SM BKN010 BKN050 FM181900 26006KT P6SM SCT015 SCT050 FM182200 29007KT P6SM FEW020 SCT050 FM190200 01008KT P6SM FEW250 FM191100 02004KT P6SM SCT250 FM191300 01004KT P6SM BKN008 FM191700 35006KT P6SM SCT010 BKN040",
    "ZSPD": "TAF ZSPD 181504Z 1818/1924 04004MPS 8000 SCT030 TX33/1906Z TN27/1821Z TN27/1921Z TEMPO 1905/1909 TSRA BKN011 FEW030CB",
    "ZSSS": "TAF ZSSS 181503Z 1818/1924 11004MPS 8000 SCT030 TX33/1906Z TN27/1821Z TN27/1921Z TEMPO 1904/1908 TSRA BKN011 FEW030CB",
    "RJFR": "TAF RJFR 181705Z 1818/2000 06004KT 9999 FEW020 SCT040 BECMG 1822/1900 09008KT BECMG 1901/1903 06010KT TEMPO 1906/1912 -TSRA FEW015 BKN030 FEW030CB BECMG 1912/1915 16004KT TEMPO 1921/2000 BKN005",
    "VHHH": "TAF VHHH 181700Z 1818/1924 20010KT 9999 FEW010 SCT025 TX31/1906Z TN27/1822Z TN27/1922Z TEMPO 1818/1824 3000 SHRA FEW010CB SCT020 TEMPO 1900/1906 24015G25KT 2500 TSRA SHRA FEW008CB SCT015 PROB30 TEMPO 1921/1924 24015G25KT 2500 TSRA SHRA FEW008CB SCT015",
    "RCTP": "TAF RCTP 181700Z 1818/1924 24010KT 9999 FEW015 TEMPO 1900/1906 25015KT TEMPO 1906/1910 FEW010 FEW015TCU BKN032",
    "ZGSZ": "TAF ZGSZ 181502Z 1818/1924 18004MPS 8000 BKN040 TX30/1906Z TN27/1822Z TN26/1922Z TEMPO 1822/1901 SHRA FEW020CB BKN030 TEMPO 1902/1906 2500 +TSRA SCT010 FEW020CB BKN030",
    "WSSS": "TAF WSSS 181700Z 1818/2000 14006KT 9999 FEW015 SCT020",
    "WMKK": "TAF WMKK 181700Z 1818/2000 VRB03KT 9999 FEW018 PROB30 TEMPO 1820/1823 6000 RA FEW017CB",
    "VTBS": "TAF VTBS 181700Z 1818/1924 22008KT 9999 FEW020",
    "VTBU": "TAF VTBU 181700Z 1818/1918 21006KT 9000 FEW020 BECMG 1819/1821 36004KT BECMG 1900/1902 24008KT",
    "ROAH": "TAF ROAH 181705Z 1818/2000 22006KT 9999 FEW005 BKN010 TEMPO 1818/1821 FEW003 BKN005 TEMPO 1821/1900 FEW005 BKN008 TEMPO 1915/1921 FEW005 BKN008",
    "VVDN": "TAF VVDN 181700Z 1818/1918 24006KT 9999 FEW020 BECMG 1905/1906 01010KT BECMG 1912/1913 24006KT",
    "RCKH": "TAF RCKH 181700Z 1818/1924 09005KT 9999 FEW012 BKN032 TEMPO 1818/1823 25005KT 3200 SHRA FEW005 FEW010CB BKN018 TEMPO 1823/1903 4000 SHRA FEW008 FEW012CB BKN018 BECMG 1903/1905 24012KT TEMPO 1905/1911 21008KT 7000 -SHRA FEW008 FEW012CB BKN025 BECMG 1911/1913 09005KT",
    "KLAX": "TAF KLAX 181803Z 1818/1924 26012KT P6SM FEW020 FM190300 25006KT P6SM FEW015 SCT150 FM190900 VRB03KT P6SM OVC012 FM191700 25006KT P6SM SCT020 FM191900 25012KT P6SM FEW025",
    "KONT": "TAF KONT 181728Z 1818/1924 VRB04KT P6SM FEW200 FM182000 25010G21KT P6SM SCT150 FM190200 25010KT P6SM FEW200 FM190900 VRB04KT P6SM SKC FM192000 25010G20KT P6SM FEW150",
    "KSFO": "TAF KSFO 181737Z 1818/1924 VRB04KT P6SM SCT015 FM182000 28015G25KT P6SM SKC FM190300 28013KT P6SM BKN015 FM190600 26005KT P6SM SCT009 OVC012 FM191600 31006KT P6SM SCT012 FM192000 31010KT P6SM SKC",
    "KOAK": "TAF KOAK 181737Z 1818/1924 27010KT P6SM FEW008 FM190400 26007KT P6SM SCT009 BKN012 FM190600 29006KT P6SM BKN009 FM191700 28005KT P6SM SCT009",
    "KMHR": "TAF KMHR 181720Z 1818/1918 21007KT P6SM FEW250 FM182200 20012KT P6SM SKC FM190600 19010KT P6SM SKC FM191100 16007KT P6SM SCT250",
    "KDFW": "TAF KDFW 181720Z 1818/1924 18016KT P6SM SCT060 FM190200 18007KT P6SM FEW250 FM191000 19008KT P6SM BKN040 FM191500 19009KT P6SM FEW250",
    "KIAH": "TAF KIAH 181736Z 1818/1924 18008KT P6SM SCT045 SCT250 FM182100 15009KT P6SM SCT050 SCT250 FM190300 20005KT P6SM FEW020 SCT250",
    "KORD": "TAF KORD 181947Z 1820/1924 33012KT P6SM SCT040 BKN050 FM182030 05012G17KT P6SM FEW040 SCT050 FM190100 03011G18KT 5SM FU SCT060 BKN250 FM190800 05008KT 4SM FU SCT060 BKN250",
    "KJFK": "TAF KJFK 181935Z 1820/1924 22009KT 2SM -TSRA FU BKN045CB FM182100 20014G22KT 5SM -SHRA BKN015 OVC050 TEMPO 1823/1903 2SM TSRA BR BKN009 OVC050CB FM190300 24012KT 4SM SHRA BKN025 OVC050 FM190700 28012KT P6SM SCT040 BKN100 FM191200 33013KT P6SM BKN250",
    "KRFD": "TAF KRFD 181734Z 1818/1918 34010KT P6SM SCT040 FM190300 07007KT 4SM FU SCT060 BKN250",
    "KIND": "TAF KIND 181720Z 1818/1924 27014G22KT P6SM BKN060 FM182300 29012KT P6SM VCTS BKN050CB TEMPO 1900/1904 VRB20G30KT 2SM -TSRA BKN035CB FM190400 34007KT P6SM SCT040 BKN150 FM190800 04007KT P6SM SCT050 BKN250",
    "KDTW": "TAF KDTW 181827Z 1818/1924 26015G29KT P6SM SCT030 BKN050 OVC120 TEMPO 1820/1822 26015G35KT 3SM TSRA OVC035CB FM182200 32014G22KT P6SM SCT045 BKN060 FM190100 35010KT P6SM BKN200 FM190600 01005KT P6SM SKC",
    "KMSP": "TAF KMSP 181720Z 1818/1924 01010G18KT P6SM FEW250 FM190200 04005KT P6SM SCT250 FM191600 20010KT P6SM FEW080",
    "CYEG": "TAF CYEG 181740Z 1818/1918 16005KT P6SM FEW020 FM190000 27006KT P6SM FEW050 TEMPO 1900/1904 VRB25G40KT P6SM -SHRA VCTS BKN050CB FM190400 25008KT P6SM FEW012 SCT100 FM191000 27008KT P6SM FEW040 SCT100 TEMPO 1910/1918 VRB25G35KT P6SM VCTS BKN040CB OVC100 RMK NXT FCST BY 182100Z",
    "EHAM": "TAF EHAM 181720Z 1818/1924 32013KT 9999 SCT025 BKN030 PROB30 TEMPO 1818/1901 7000 -SHRA -DZRA SCT018 FEW020TCU BECMG 1819/1822 31008KT BECMG 1907/1910 32015KT BECMG 1918/1921 32008KT",
    "EBBR": "TAF EBBR 181703Z 1818/1924 32010KT 9999 SCT030 SCT045",
    "EDDF": "TAF EDDF 181700Z 1818/1924 31009KT 9999 SCT040 PROB30 TEMPO 1818/1821 32015KT SHRA BKN030CB PROB30 TEMPO 1821/1908 BKN040 PROB30 TEMPO 1912/1915 32015G25KT",
    "EDFH": "TAF COR EDFH 181752Z 1818/1918 34007KT 9999 SCT040 TEMPO 1818/1820 34020G30KT TSRA BKN030CB PROB30 TEMPO 1912/1915 32015G25KT",
    "EDDL": "TAF EDDL 181700Z 1818/1924 32011KT 9999 FEW045 BECMG 1819/1822 30006KT BECMG 1907/1910 30012KT PROB40 TEMPO 1913/1917 31015G25KT BECMG 1919/1922 30005KT",
    "EDDK": "TAF EDDK 181700Z 1818/1924 32011KT 9999 FEW045 BECMG 1819/1822 31006KT BECMG 1907/1910 31012KT PROB30 TEMPO 1913/1918 31015G25KT BECMG 1918/1921 33005KT",
    "EBLG": "TAF EBLG 181703Z 1818/1924 31010KT 9999 SCT030 SCT045",
    "LSZH": "TAF LSZH 181725Z 1818/1924 06006KT 9999 FEW060CB TX24/1915Z TN15/1904Z PROB40 TEMPO 1818/1819 23015G26KT 4000 TSRA BECMG 1819/1821 10006KT BECMG 1821/1824 CAVOK BECMG 1905/1908 9999 SCT040 PROB40 TEMPO 1907/1917 SHRA SCT050TCU BECMG 1908/1911 30010KT PROB30 TEMPO 1912/1916 32015G25KT TSRA FEW050CB BECMG 1918/1921 03006KT CAVOK",
    "LIMC": "TAF LIMC 181700Z 1818/1924 VRB05KT 9999 SCT040 PROB40 TEMPO 1819/1824 TSRA",
    "LIRF": "TAF LIRF 181700Z 1818/1924 27010KT CAVOK BECMG 1819/1821 VRB05KT BECMG 1907/1909 17010KT BECMG 1912/1914 23010KT BECMG 1917/1919 VRB05KT",
    "EINN": "TAF EINN 181700Z 1818/1918 35012KT 9999 FEW025",
    "EGLL": "TAF EGLL 181651Z 1818/1924 03007KT 9999 FEW030",
    "EGSS": "TAF EGSS 181704Z 1818/1924 02009KT 9999 SCT035",
    "EPWA": "TAF EPWA 181730Z 1818/1918 29010KT 9999 FEW030 BECMG 1818/1820 VRB02KT TEMPO 1910/1918 -SHRA SCT040CB PROB40 TEMPO 1915/1918 VRB17G30KT 2000 TSRA BKN008",
    "UHPP": "TAF UHPP 181651Z 1818/1924 30003G12MPS 9999 SCT050 TX28/1903Z TN18/1916Z TEMPO 1818/1824 36005MPS TEMPO 1912/1924 36005MPS",
    "EFHK": "TAF EFHK 181736Z 1818/1918 19008KT CAVOK TEMPO 1818/1822 6000 SHRA FEW012 BKN050CB PROB30 TEMPO 1818/1822 2500 +TSRA BKN012 BKN040CB BECMG 1822/1824 BKN012 FEW040CB BECMG 1900/1902 BKN007 TEMPO 1902/1907 4000 -DZRA BKN004 FEW040CB BECMG 1907/1909 28012KT BKN012 BECMG 1909/1911 BKN015 BECMG 1911/1913 34010KT",
    "LBBG": "TAF LBBG 181700Z 1818/1918 12012KT CAVOK BECMG 1820/1822 VRB03KT TEMPO 1902/1905 3000 BR BKN010 BECMG 1906/1908 12012KT",
    "LTAC": "TAF LTAC 181640Z 1818/1918 05012KT 9999 SCT040 BECMG 1818/1820 CAVOK BECMG 1906/1909 VRB02KT FEW040",
    "UBBB": "TAF UBBB 181700Z 1818/1918 34014KT CAVOK TX30/1910Z TN23/1901Z TEMPO 1820/1903 35008KT FEW050CB PROB40 TEMPO 1820/1902 TS FEW012 SCT040CB BECMG 1903/1905 34020G30KT TEMPO 1906/1918 34026G36KT SCT016 FEW040",
    "UTAA": "TAF UTAA 181655Z 1818/1918 27016KT 6000 SCT050 TX42/1911Z TEMPO 1906/1914 32014G24KT 4000 DRDU",
    "UACC": "TAF UACC 181703Z 1818/1918 15003MPS 9999 SCT040CB BKN100 TX34/1909Z TN20/1823Z TEMPO 1818/1904 22008MPS -TSRA BKN030CB BECMG 1904/1906 24006MPS TEMPO 1904/1916 28009MPS -TSRA BKN030CB TEMPO 1916/1918 32005MPS",
    "UAAA": "TAF UAAA 181701Z 1818/1918 17002MPS 9999 FEW050 SCT100 TX42/1910Z TN23/1900Z BECMG 1903/1904 35005MPS TEMPO 1905/1914 04005G10MPS BECMG 1914/1915 20003MPS",
    "UZTT": "TAF UZTT 181700Z 1818/1918 07010KT 7000 NSC TX44/1911Z TN27/1900Z TEMPO 1906/1916 30015KT",
    "ZWWW": "TAF ZWWW 181502Z 1818/1924 18004MPS CAVOK TX39/1909Z TN28/1823Z TN29/1923Z BECMG 1902/1903 36004MPS BECMG 1913/1914 18004MPS",
    "ZLXY": "TAF ZLXY 181502Z 1818/1918 26003MPS 6000 NSC TX36/1907Z TN21/1821Z",
    "ZBAA": "TAF ZBAA 181501Z 1818/1924 18003MPS CAVOK TX31/1906Z TN21/1821Z TN22/1921Z",
    "ZBHH": "TAF ZBHH 181501Z 1818/1918 06004MPS CAVOK TX30/1908Z TN15/1822Z TEMPO 1909/1912 VRB08G13MPS -TSRA FEW040CB FEW040",
    "ZSQD": "TAF ZSQD 181501Z 1818/1918 18004MPS 3500 BR NSC TX31/1906Z TN22/1820Z",
    "ZMCK": "TAF ZMCK 181636Z 1818/1924 VRB02MPS 9999 FEW030CB SCT033 TN12/1821Z TX24/1907Z BECMG 1900/1902 32005MPS PROB40 TEMPO 1905/1912 VRB09G14MPS TSRA SCT027CB SCT030 BECMG 1911/1913 VRB02MPS",
    "UUEE": "TAF UUEE 181652Z 1818/1918 12003MPS CAVOK TX27/1912Z TN15/1901Z TEMPO 1903/1915 22005MPS",
    "UUDD": "TAF UUDD 181651Z 1818/1924 20003MPS CAVOK TX27/1912Z TN12/1901Z",
    "ULLI": "TAF ULLI 181651Z 1818/1918 17005G10MPS 9999 SCT020 BECMG 1906/1908 22006G12MPS TEMPO 1909/1915 25009G15MPS 3100 -TSRA BKN017CB BECMG 1915/1916 29005G10MPS",
    "USSS": "TAF USSS 181651Z 1818/1918 02003G14MPS 6000 -SHRA BKN016CB TEMPO 1818/1904 -TSRA BKN003 BKN011CB FM190400 04003G14MPS 8000 -SHRA BKN020CB TEMPO 1904/1918 -TSRAGR",
    "UNNT": "TAF UNNT 181700Z 1818/1918 32003G08MPS 8000 SCT040 TX26/1912Z TN16/1822Z TEMPO 1818/1902 0150 -TSRA FG BKN001 BKN020CB TEMPO 1902/1918 02006G13MPS -TSRA BKN020CB",
    "UNKL": "TAF UNKL 181644Z 1818/1918 27003MPS 6000 NSC TEMPO 1818/1819 0400 FG BECMG 1819/1821 0400 FG VV002 BECMG 1822/1824 6000 NSW SCT016 TEMPO 1904/1915 -TSRA BKN016CB",
    "UIBB": "TAF UIBB 181700Z 1818/1918 20004MPS 0300 FG BKN001 BKN016CB TEMPO 1818/1821 4000 -SHRA FEW001 BKN017CB FM190100 26005G10MPS 9999 -SHRA BKN017CB TEMPO 1901/1915 VRB10MPS -TSRA",
    "UEEE": "TAF UEEE 181700Z 1818/1924 03003MPS 9999 FEW007 BKN020CB OVC100 TEMPO 1818/1901 0300 -TSRA FG VV002 TEMPO 1901/1915 VRB08MPS 2100 -TSRA SCT007 BKN015CB OVC070",
    "UHHH": "TAF UHHH 181650Z 1818/1924 17003MPS 9999 NSC TX30/1904Z TN19/1917Z TEMPO 1818/1823 0400 FG FEW010 FM190000 26003MPS 9999 SCT020CB",
    "UHSS": "TAF UHSS 181650Z 1818/1924 36003MPS 5000 -SHRA BKN005 BKN016CB BECMG 1906/1908 9999 NSW BKN020CB"
  },
  "atis": {},
  "windtemp_alaska": "\n000\nFBAK31 KWNO 181359\nFD1AK1\nDATA BASED ON 181200Z    \nVALID 181800Z   FOR USE 1400-2100Z. TEMPS NEG ABV 24000\n\nFT  3000    6000    9000   12000   18000   24000  30000  34000  39000\nADK 3318 3323+03 3329-02 3233-07 3350-18 3377-26 840936 841845 841349\nADQ 1725 1928+02 2128-03 2239-08 2148-15 2156-27 226741 227149 225254\nAKN 1633 1726+00 1727-05 1620-08 1923-19 2047-30 208244 218649 204146\nANC 1608 1519+00 1520-06 1717-10 2335-17 2353-27 236942 237350 234950\nANN 3213 3110+05 3014+03 2915-01 3018-15 3231-27 335442 334749 302249\nBET 1314 1011-02 0914-07 1113-11 1617-22 1824-34 193246 182643 181641\nBRW 0820 0921+02 0823-03 0818-09 0922-20 1126-31 083148 093148 102141\nBTI 0606 9900+04 2205-01 1909-06 1621-18 1533-29 165342 165750 163347\nBTT 9900 9900+02 9900-04 1705-10 1614-24 1813-35 201946 171843 161740\nCDB 1917 2015-02 2020-05 2025-09 2027-21 2041-32 205240 204040 212640\nCZF 0408 0309+00 0512-06 0516-12 0513-24 0505-36 990047 040542 050839\nEHM 1023 1219-02 1319-04 1421-10 1631-22 1743-34 184745 183341 181940\nFAI 1908 1509+02 1512-04 1411-10 1614-22 2320-31 233746 233546 202342\nFYU 2709 2305+03 9900-03 9900-08 1718-21 1637-34 154046 172944 172242\nGAL 1711 1713+00 1713-06 1713-13 1819-24 1925-34 202847 192044 171440\nGKN 1714 1818+01 1818-05 1916-09 2223-18 2441-26 256143 257050 243348\nHOM 1516 1717-01 1918-05 2122-08 2238-16 2352-27 226941 227050 225653\nJNU 2407 2806+01 2714+02 2616-02 2822-15 3139-27 315441 315551 291948\nLUR 0816 0714+02 0616-03 0621-09 0629-21 0539-32 045346 053948 052041\nMCG 1408 1508-01 1212-06 1314-12 1919-21 2236-33 213848 213445 202341\nMDO 2011 1910-01 2017-03 2326-05 2440-16 2438-26 244341 244850 244655\nOME 1210 1208+01 0705-05 0308-12 0515-24 0520-36 052145 051341 050939\nORT      2808+03 2308-03 2210-08 2217-18 2627-29 276043 285849 242546\nOTZ 1216 1216+00 1018-05 0819-10 0721-24 0627-36 063045 062342 071439\nSNP 3627 0126-03 0128-07 3630-12 3630-23 3529-34 353545 353641 353239\nTKA 9900 1512+00 1615-06 1816-11 1921-20 2240-28 237043 237749 223646\nUNK 1810 1916+00 1913-06 1709-12 1709-25 2019-36 212546 181142 150939\nYAK 2405 2506+01 2609-03 2614-04 2726-15 2939-26 284341 284750 283753\nIKO 3340 3336-02 3341-06 3341-11 3235-22 3229-34 323143 323638 323139\nAFM 1410 1414+00 1416-05 1418-11 1220-25 1220-36 121846 121442 121139\n5AB 2610 3119+09 3225+05 3336+01 3350-11 3356-18 336732 337842 338353\n5AC 3218 3121+07 3121+04 3124+00 3035-12 3037-24 312740 323750 323558\n5AD 2114 2420+05 2524+02 2528-02 2523-13 2428-24 243440 253049 232259\n5AE 1830 2037+04 2039-01 2044-06 2149-14 2155-25 216841 217349 216454\n5AF 3014 3015+05 2916+02 2918-03 3030-13 2929-25 292740 303050 303757\n5AG 2613 2711+02 2616-01 2722-04 2730-14 2736-26 263740 263949 263956\n",
  "vaac_active": [
    {
      "volcano": "MAYON",
      "volcano_jp": "マヨン",
      "advisory_nr": "2026/765",
      "obs_time": "2026-07-18 18:16Z",
      "issued_time": "2026-07-18 18:31Z",
      "text_url": "https://www.data.jma.go.jp/vaac/data/TextData/2026/20260718_27303000_0765_Text.html",
      "lat": 13.25,
      "lon": 123.683,
      "text": "FVFE01 RJTD 181831\nVA ADVISORY\nDTG: 20260718/1831Z\nVAAC: TOKYO\nVOLCANO: MAYON 273030\nPSN: N1315 E12341\nAREA: PHILIPPINES\nSOURCE ELEV: 2462M AMSL\nADVISORY NR: 2026/765\nINFO SOURCE: HIMAWARI-9 PHIVOLCS\nERUPTION DETAILS: ERUPTION AT 20260718/1816Z VA CLD UNKNOWN REPORTED\nOBS VA DTG: 18/1810Z\nOBS VA CLD: VA NOT IDENTIFIABLE FM SATELLITE DATA WIND FL180 030/2KT\nFCST VA CLD +6 HR: NOT AVBL\nFCST VA CLD +12 HR: NOT AVBL\nFCST VA CLD +18 HR: NOT AVBL\nRMK: WE WILL ISSUE FURTHER ADVISORY IF VA IS DETECTED IN SATELLITE \nIMAGERY.\nNXT ADVISORY: NO FURTHER ADVISORIES="
    }
  ],
  "vaac_tokyo": [
    {
      "id": "20260718_30027000_0268",
      "year": "2026",
      "volcano": "Sheveluch",
      "psn": "N5639 E16122",
      "issued": "20260718",
      "text": "FVFE01 RJTD 180000\nVA ADVISORY\nDTG: 20260718/0000Z\nVAAC: TOKYO\nVOLCANO: SHEVELUCH 300270\nPSN: N5639 E16122\nAREA: RUSSIA\nSOURCE ELEV: 3283M AMSL\nADVISORY NR: 2026/268\nINFO SOURCE: KVERT HIMAWARI-9\nERUPTION DETAILS: VA CONTINUOUSLY OBS IN SATELLITE IMAGERY\nOBS VA DTG: 17/2320Z\nOBS VA CLD: SFC/FL290 N5601 E16322 - N5605 E16357 - N5546 E16401 - \nN5544 E16326 MOV SE 25KT\nFCST VA CLD +6 HR: 18/0520Z SFC/FL300 N5529 E16617 - N5404 E16714 - \nN5357 E16639 - N5527 E16530\nFCST VA CLD +12 HR: 18/1120Z SFC/FL300 N5352 E17006 - N5152 E17037 - \nN5152 E16936 - N5344 E16817\nFCST VA CLD +18 HR: NO VA EXP\nRMK: SOME PART OF VA OBSCURED BY MET CLOUD.\nNXT ADVISORY: 20260718/0600Z=",
      "img_url": "https://ds.data.jma.go.jp/svd/vaac/data/VAGFN/2026/Images/20260718_30027000_0268_QH21_01.png",
      "sat_img_url": "https://ds.data.jma.go.jp/svd/vaac/data/Sat/2026/Images/30027000/09-ir/20260717_2320_202607180000_ir.png",
      "text_url": "https://ds.data.jma.go.jp/svd/vaac/data/TextData/2026/20260718_30027000_0268_Text.html"
    },
    {
      "id": "20260717_27303000_0761",
      "year": "2026",
      "volcano": "Mayon",
      "psn": "N1315 E12341",
      "issued": "20260717",
      "text": "FVFE01 RJTD 172222\nVA ADVISORY\nDTG: 20260717/2222Z\nVAAC: TOKYO\nVOLCANO: MAYON 273030\nPSN: N1315 E12341\nAREA: PHILIPPINES\nSOURCE ELEV: 2462M AMSL\nADVISORY NR: 2026/761\nINFO SOURCE: HIMAWARI-9 PHIVOLCS\nERUPTION DETAILS: ERUPTION AT 20260717/2208Z FL100 EXTD SSE REPORTED\nOBS VA DTG: 17/2210Z\nOBS VA CLD: VA NOT IDENTIFIABLE FM SATELLITE DATA WIND FL100 360/6KT\nFCST VA CLD +6 HR: NOT AVBL\nFCST VA CLD +12 HR: NOT AVBL\nFCST VA CLD +18 HR: NOT AVBL\nRMK: WE WILL ISSUE FURTHER ADVISORY IF VA IS DETECTED IN SATELLITE \nIMAGERY.\nNXT ADVISORY: NO FURTHER ADVISORIES=",
      "img_url": "https://ds.data.jma.go.jp/svd/vaac/data/VAGFN/2026/Images/20260717_27303000_0761_QH21_01.png",
      "sat_img_url": null,
      "text_url": "https://ds.data.jma.go.jp/svd/vaac/data/TextData/2026/20260717_27303000_0761_Text.html"
    },
    {
      "id": "20260717_27307000_0014",
      "year": "2026",
      "volcano": "Taal",
      "psn": "N1400 E12100",
      "issued": "20260717",
      "text": "FVFE01 RJTD 171113\nVA ADVISORY\nDTG: 20260717/1113Z\nVAAC: TOKYO\nVOLCANO: TAAL 273070\nPSN: N1400 E12100\nAREA: PHILIPPINES\nSOURCE ELEV: 311M AMSL\nADVISORY NR: 2026/14\nINFO SOURCE: HIMAWARI-9 PHIVOLCS\nERUPTION DETAILS: ERUPTION AT 20260717/1051Z FL040 EXTD E REPORTED\nOBS VA DTG: 17/1100Z\nOBS VA CLD: VA NOT IDENTIFIABLE FM SATELLITE DATA WIND FL040 270/8KT\nFCST VA CLD +6 HR: NOT AVBL\nFCST VA CLD +12 HR: NOT AVBL\nFCST VA CLD +18 HR: NOT AVBL\nRMK: WE WILL ISSUE FURTHER ADVISORY IF VA IS DETECTED IN SATELLITE \nIMAGERY.\nNXT ADVISORY: NO FURTHER ADVISORIES=",
      "img_url": "https://ds.data.jma.go.jp/svd/vaac/data/VAGFN/2026/Images/20260717_27307000_0014_QH21_01.png",
      "sat_img_url": null,
      "text_url": "https://ds.data.jma.go.jp/svd/vaac/data/TextData/2026/20260717_27307000_0014_Text.html"
    },
    {
      "id": "20260713_28208001_0083",
      "year": "2026",
      "volcano": null,
      "psn": "N3136 E13039",
      "issued": "20260713",
      "text": "FVFE01 RJTD 130254\nVA ADVISORY\nDTG: 20260713/0254Z\nVAAC: TOKYO\nVOLCANO: SAKURAJIMA (AIRA CALDERA) 282080\nPSN: N3136 E13039\nAREA: JAPAN\nSOURCE ELEV: 1117M AMSL\nADVISORY NR: 2026/83\nINFO SOURCE: JMA HIMAWARI-9\nERUPTION DETAILS: ERUPTED AT 20260713/0152Z FL100 EXTD N\nOBS VA DTG: 13/0230Z\nOBS VA CLD: SFC/FL100 N3136 E13039 - N3142 E13040 - N3141 E13044 - \nN3134 E13042 MOV NE 15KT\nFCST VA CLD +6 HR: 13/0830Z SFC/FL100 N3234 E13121 - N3145 E13155 - \nN3202 E13110 - N3227 E13051\nFCST VA CLD +12 HR: 13/1430Z SFC/FL100 N3318 E13206 - N3142 E13317 - \nN3134 E13226 - N3312 E13118\nFCST VA CLD +18 HR: NO VA EXP\nRMK: NIL\nNXT ADVISORY: 20260713/0600Z=",
      "img_url": "https://ds.data.jma.go.jp/svd/vaac/data/VAGFN/2026/Images/20260713_28208001_0083_QH21_01.png",
      "sat_img_url": "https://ds.data.jma.go.jp/svd/vaac/data/Sat/2026/Images/28208001/09-ir/20260713_0230_202607130254_ir.png",
      "text_url": "https://ds.data.jma.go.jp/svd/vaac/data/TextData/2026/20260713_28208001_0083_Text.html"
    }
  ],
  "vaac_alaska": [
    {
      "text": "\n000\nFVAK21 PAWU 180008\nVAAAK1\nVA ADVISORY\n\nDTG: 20260718/0000Z\n\nVAAC: ANCHORAGE\n\nVOLCANO: SHEVELUCH 300270\n\nPSN: N5639 E16122\n\nAREA: KAMCHATKA PENINSULA\n\nSOURCE ELEV: 10771 FT AMSL\n\nADVISORY NR: 2026/205\n\nRMK: PLEASE SEE FVFE01 RJTD ISSUED BY VAAC TOKYO WHICH DESCRIBES\nCONDITIONS NEAR THE VAAC ANCHORAGE AREA OF RESPONSIBILITY...BS\n\n\n\n",
      "issued": "2026-07-18T00:08:00+00:00",
      "volcano": "Sheveluch",
      "psn": "N5639 E16122"
    }
  ]
}