{
  "updated_utc": "2026-07-09T05:45Z",
  "metar": {
    "RJAA": "METAR RJAA 090400Z 14009KT 110V180 9999 FEW025 SCT030 29/21 Q1014 NOSIG",
    "PANC": "METAR PANC 090353Z 14014G28KT 10SM -RA FEW055 BKN080 OVC120 14/05 A2986 RMK AO2 PK WND 17030/0307 RAB51 SLP113 PCPN VRY LGT P0000 T01390050",
    "PAFA": "METAR PAFA 090353Z 24010KT 10SM FEW065 SCT110 OVC200 19/09 A2971 RMK AO2 SLP062 T01890094 $",
    "PAED": "METAR PAED 090355Z 29004KT 10SM FEW055 OVC075 16/06 A2985 RMK AO2A SLP104 T01590063 $",
    "KSEA": "METAR KSEA 090353Z 29004KT 10SM SCT060 SCT200 18/12 A3016 RMK AO2 SLP218 T01830122 $",
    "ZSPD": "METAR ZSPD 090400Z 12003MPS 080V190 9999 -SHRA NSC 27/26 Q1007 NOSIG",
    "ZSSS": "METAR ZSSS 090400Z 16004MPS 140V200 9999 -SHRA SCT040 28/25 Q1007 NOSIG",
    "RJFR": "METAR RJFR 090400Z 07011KT 9999 FEW025 28/24 Q1011",
    "VHHH": "METAR VHHH 090400Z 15009KT 9999 FEW015 SCT025 30/25 Q1005 TEMPO 4000 SHRA FEW010CB SCT020",
    "RCTP": "METAR RCTP 090400Z 01009KT 320V040 9999 FEW015 SCT020 34/26 Q1007 NOSIG RMK A2974",
    "ZGSZ": "METAR ZGSZ 090400Z 17005MPS 9999 FEW030 31/26 Q1005 NOSIG",
    "WSSS": "METAR WSSS 090400Z 17012KT 130V190 9999 -SHRA FEW018TCU SCT020 BKN300 31/26 Q1012 NOSIG",
    "WMKK": "METAR WMKK 090400Z VRB04KT 9999 FEW018 32/24 Q1012 NOSIG",
    "WIDD": "METAR WIDD 090400Z 16005KT 120V220 9999 FEW013CB SCT014 29/26 Q1013 RERA NOSIG RMK CB TO SE AND S",
    "VTBS": "METAR VTBS 090400Z 23006KT 200V280 9999 FEW020 SCT035 32/23 Q1010 NOSIG",
    "VTBU": "METAR VTBU 090400Z 26011KT 9999 FEW020 SCT100 31/26 Q1010 NOSIG",
    "ROAH": "METAR ROAH 090400Z 08023KT 9999 SCT023 33/26 Q1004",
    "VVDN": "METAR VVDN 090400Z 27004KT 220V330 9999 FEW020 SCT080 33/22 Q1005 NOSIG",
    "RCKH": "METAR RCKH 090400Z 30010KT 260V360 9999 FEW015 SCT200 33/25 Q1005 NOSIG RMK 30013KT/R09 A2968",
    "KLAX": "METAR KLAX 090353Z 25005KT 10SM CLR 20/17 A2987 RMK AO2 SLP112 T02000167",
    "KONT": "METAR KONT 090353Z 24008KT 10SM CLR 26/13 A2988 RMK AO2 SLP101 T02610133 $",
    "KSFO": "METAR KSFO 090356Z 28012G18KT 10SM FEW003 BKN009 13/11 A3004 RMK AO2 SLP171 T01330111 $",
    "KOAK": "METAR KOAK 090353Z 26010KT 10SM FEW003 OVC007 14/12 A3004 RMK AO2 SLP171 T01390117",
    "KMHR": "METAR KMHR 090355Z AUTO 22007KT 9SM CLR 24/13 A2991 RMK AO2 T02360131 $",
    "KDFW": "METAR KDFW 090353Z 17012KT 10SM CLR 32/18 A2995 RMK AO2 SLP130 T03220183",
    "KIAH": "METAR KIAH 090353Z 19007KT 10SM CLR 29/24 A3005 RMK AO2 SLP174 T02890239",
    "KORD": "METAR KORD 090351Z 24004KT 10SM OVC250 26/19 A2994 RMK AO2 SLP133 T02610194",
    "KJFK": "METAR KJFK 090351Z 23007KT 10SM FEW250 22/19 A2996 RMK SLP146 T02170194 $",
    "KRFD": "METAR KRFD 090354Z 00000KT 10SM FEW190 OVC250 23/21 A2997 RMK AO2 SLP141 T02330211",
    "KIND": "METAR KIND 090354Z 32004KT 10SM SCT250 24/19 A2999 RMK AO2 SLP147 T02440194",
    "KDTW": "METAR KDTW 090353Z 24003KT 10SM FEW100 FEW250 25/19 A2995 RMK AO2 SLP135 T02500189",
    "KMSP": "METAR KMSP 090353Z 01006KT 10SM FEW022 BKN029 OVC036 23/20 A2991 RMK AO2 SLP126 T02280200",
    "CYEG": "METAR CYEG 090400Z 29003KT 20SM SCT063 BKN250 15/12 A2992 RMK SC3CI4 SLP136 DENSITY ALT 3000FT",
    "EHAM": "METAR EHAM 090355Z VRB01KT 9999 MIFG NSC 15/14 Q1019 NOSIG",
    "EBBR": "METAR EBBR 090350Z 05002KT CAVOK 15/14 Q1019 NOSIG",
    "EDDF": "METAR EDDF 090350Z AUTO 29004KT CAVOK 14/13 Q1018 NOSIG",
    "EDFH": "METAR EDFH 090350Z 00000KT CAVOK 14/14 Q1019",
    "EDDL": "METAR EDDL 090350Z AUTO VRB01KT CAVOK 14/13 Q1019 NOSIG",
    "EDDK": "METAR EDDK 090350Z AUTO 05004KT CAVOK 13/13 Q1018 NOSIG",
    "EBLG": "METAR EBLG 090350Z 05003KT CAVOK 15/14 Q1019 NOSIG",
    "LSZH": "METAR LSZH 090350Z VRB01KT 9999 FEW057 15/13 Q1018 NOSIG",
    "LIMC": "METAR LIMC 090350Z 01006KT CAVOK 22/19 Q1013 NOSIG",
    "LIRF": "METAR LIRF 090350Z 08003KT CAVOK 21/21 Q1010 NOSIG",
    "EINN": "METAR EINN 090400Z 19003KT 9999 FEW011 BKN016 17/15 Q1020 TEMPO BKN010",
    "EGLL": "METAR EGLL 090350Z AUTO 25006KT 9999 NCD 20/14 Q1018",
    "EGSS": "METAR EGSS 090350Z AUTO 13004KT 9999 NCD 19/16 Q1018",
    "EPWA": "METAR EPWA 090400Z 29007KT 9999 FEW016 13/12 Q1007 NOSIG",
    "UHPP": "METAR UHPP 090400Z 16005MPS 140V200 9999 FEW050 23/10 Q1009 R16R/CLRD62 NOSIG RMK MT OBSC QFE754/1005",
    "EFHK": "METAR EFHK 090350Z 36012KT 9999 -RA NSC 15/11 Q1002 TEMPO FEW060CB",
    "LBBG": "METAR LBBG 090400Z AUTO 29005KT 9999 -SHRA NSC 20/17 Q1009 NOSIG",
    "LTAC": "METAR LTAC 090350Z VRB01KT CAVOK 14/09 Q1011 NOSIG RMK RWY21C VRB01KT RWY03L 00000KT RWY21R 00000KT RWY03R 00000KT RWY21L VRB02KT",
    "UBBB": "METAR UBBB 090400Z 32014KT CAVOK 24/19 Q1007 NOSIG",
    "UTAA": "METAR UTAA 090400Z 30012KT 9999 NSC 33/11 Q1006 R88/CLRD70 NOSIG",
    "UACC": "METAR UACC 090400Z 09005MPS CAVOK 25/11 Q1018 NOSIG RMK QFE732/0976",
    "UAAA": "METAR UAAA 090400Z VRB01MPS 9999 FEW050CB BKN100 27/13 Q1010 NOSIG",
    "UZTT": "METAR UZTT 090400Z 13002KT CAVOK 32/12 Q1006 NOSIG",
    "ZWWW": "METAR ZWWW 090400Z 36003MPS 330V030 9999 -SHRA NSC 25/14 Q1009 NOSIG",
    "ZLXY": "METAR ZLXY 090400Z 06003MPS 010V130 CAVOK 36/23 Q1000 NOSIG",
    "ZBAA": "METAR ZBAA 090400Z 20004MPS 170V250 CAVOK 32/23 Q1000 NOSIG",
    "ZBHH": "METAR ZBHH 090400Z VRB01MPS 9999 SCT040 26/16 Q1005 NOSIG",
    "ZSQD": "METAR ZSQD 090400Z 14009MPS 8000 TS FEW030CB 28/24 Q1002 BECMG TL0420 29008G17MPS 2500 +TSRA",
    "ZMCK": "METAR ZMCK 090400Z 34006MPS 9999 FEW030CB SCT033 22/11 Q1008 NOSIG RMK QFE641.4 47 MOP",
    "UUEE": "METAR UUEE 090400Z 18003MPS 9999 FEW009 BKN040CB 17/16 Q1005 R24L/290151 R24C/290151 NOSIG",
    "UUDD": "METAR UUDD 090400Z 15003MPS CAVOK 18/17 Q1006 R13R/290045 NOSIG",
    "ULLI": "SPECI ULLI 090351Z 13002MPS 070V190 9000 SCT002 13/12 Q1002 R88/290050 NOSIG RMK QBB080 OBST OBSC",
    "USSS": "SPECI USSS 090347Z 35003MPS 300V010 9999 OVC006 20/20 Q1016 R26L/210060 R26R/210060 TEMPO SCT003 RMK QFE741/0988",
    "UNNT": "METAR UNNT 090400Z 35004MPS CAVOK 21/09 Q1016 R25/CLRD// R34/////// NOSIG RMK QFE752/1002",
    "UNKL": "METAR UNKL 090400Z 32003MPS 290V030 CAVOK 14/09 Q1012 R29/CLRD// NOSIG RMK QFE733",
    "UIBB": "METAR UIBB 090400Z 33004MPS 290V020 9999 NSC 19/10 Q1007 R30/CLRD62 NOSIG RMK QFE712/0950",
    "UEEE": "METAR UEEE 090400Z 16004MPS CAVOK 34/20 Q0998 R23/09//64 NOSIG RMK QFE740",
    "UHHH": "METAR UHHH 090400Z 07003MPS 9999 FEW010 SCT028CB 23/23 Q1005 R88/290045 NOSIG RMK QFE748/0997",
    "UHSS": "METAR UHSS 090400Z 18005MPS 9999 NSC 21/17 Q1014 R19/CLRD70 NOSIG RMK QFE759/1012"
  },
  "taf": {
    "RJAA": "TAF RJAA 090505Z 0906/1012 15010KT 9999 FEW030 TEMPO 0918/0921 4000 BR",
    "PANC": "TAF PANC 090527Z 0906/1012 16011KT P6SM VCSH FEW050 BKN080 FM091800 21006KT P6SM -RA OVC050 FM092100 08005KT P6SM -RA OVC009 FM100300 30005KT P6SM OVC050",
    "PAFA": "TAF PAFA 090538Z 0906/1012 25010KT P6SM VCSH SCT040 OVC080 FM090900 25010KT 6SM -RA SCT020 OVC040 FM091600 24010KT P6SM SCT020 BKN040 OVC080",
    "PAED": "TAF PAED 090500Z 0905/1011 VRB06KT 9999 FEW060 OVC080 QNH2980INS BECMG 0912/0913 20009KT 9999 -RA FEW015 OVC055 640703 QNH2985INS BECMG 0915/0916 22009KT 9000 -RA BR SCT008 OVC020 640703 QNH2984INS BECMG 0919/0920 24009KT 8000 -RA BR SCT005 OVC010 640703 QNH2982INS BECMG 1000/1001 33009KT 9999 -RA SCT007 OVC015 640703 QNH2982INS BECMG 1003/1004 34009KT 9999 NSW SCT015 BKN025 OVC060 QNH2982INS TX15/0905Z TN11/0919Z",
    "KSEA": "TAF KSEA 090520Z 0906/1012 02006KT P6SM SCT060 BKN250 FM090900 15004KT P6SM SCT025 BKN100 FM091700 22005KT P6SM BKN100 FM092300 29006KT P6SM FEW250 FM100500 02005KT P6SM FEW060 FEW250 FM101000 16006KT P6SM SCT020 BKN060",
    "ZSPD": "TAF ZSPD 090303Z 0906/1012 14004MPS 8000 BKN030 TX31/0906Z TX32/1006Z TN25/0921Z",
    "ZSSS": "TAF ZSSS 090303Z 0906/1012 14004MPS 8000 BKN030 TX31/0906Z TX33/1006Z TN25/0921Z TEMPO 0906/0908 TSRA BKN013 FEW030CB",
    "RJFR": "TAF RJFR 090505Z 0906/1012 06014KT 9999 FEW030 SCT050 BECMG 0910/0912 10014KT BECMG 1000/1003 06014KT",
    "VHHH": "TAF VHHH 090500Z 0906/1012 14010KT 9999 FEW010 SCT025 TX32/0906Z TX34/1006Z TN28/0922Z TEMPO 0906/0908 22010KT 3000 TSRA SHRA FEW010CB SCT020 TEMPO 0918/1001 VRB05KT BECMG 1001/1003 26010KT BECMG 1009/1011 18010KT",
    "RCTP": "TAF RCTP 090500Z 0906/1012 04010KT 9999 FEW015 BKN032 TEMPO 0906/0910 01015KT BECMG 0912/0914 07010KT BECMG 0922/0924 04015G25KT 6000 FEW010 BKN020 BKN040 TEMPO 1000/1006 02020G30KT 3800 SHRA SCT006 BKN011 FEW015CB TEMPO 1006/1012 01023G35KT 3200 SHRA SCT005 BKN007 FEW012CB",
    "ZGSZ": "TAF ZGSZ 090305Z 0906/1012 18004MPS 8000 SCT040 TX32/0906Z TX34/1006Z TN27/0922Z TEMPO 0906/0908 TSRA FEW012 FEW025CB BKN033",
    "WSSS": "TAF WSSS 090500Z 0906/1012 16010KT 9999 FEW015 SCT020 TEMPO 0906/0908 3000 TSRA FEW012CB BKN015",
    "WMKK": "TAF WMKK 090500Z 0906/1012 VRB03KT 9999 FEW018 PROB30 TEMPO 0908/0911 6000 -TSRA FEW017CB",
    "VTBS": "TAF VTBS 090500Z 0906/1012 22008KT 9999 FEW020 TEMPO 0910/0914 VRB15KT 4000 TSRA FEW018CB SCT030 BKN100",
    "VTBU": "TAF VTBU 090500Z 0906/1006 23010KT 9999 FEW020",
    "ROAH": "TAF ROAH 090518Z 0906/1012 08020KT 9999 FEW012 SCT020 TEMPO 0906/0916 08022G32KT BECMG 0916/0918 10028KT TEMPO 0916/1000 10028G38KT TEMPO 1000/1006 10030G45KT TEMPO 1006/1012 10035G50KT 4000 SHRA BR FEW005 BKN008 FEW015CB",
    "VVDN": "TAF VVDN 090500Z 0906/1006 27010KT 9999 FEW020 SCT060 BECMG 0906/0907 01012KT BECMG 0912/0913 26006KT",
    "RCKH": "TAF RCKH 090500Z 0906/1012 34005KT 9999 FEW015 BKN032 TEMPO 0906/0910 27010KT TEMPO 0916/0922 06005KT BECMG 0922/0924 32010KT TEMPO 1003/1009 28015KT 7000 -RA FEW010 BKN020 BKN040",
    "KLAX": "TAF KLAX 090532Z 0906/1012 24006KT P6SM SKC FM090900 VRB03KT P6SM SKC FM091300 10005KT 2SM HZ OVC004 FM091700 20005KT P6SM SKC FM091800 25010KT P6SM SKC FM100700 25005KT P6SM BKN012",
    "KONT": "TAF KONT 090520Z 0906/1012 VRB05KT P6SM SKC FM092000 26011G18KT P6SM SKC FM100500 VRB04KT P6SM SKC",
    "KSFO": "TAF KSFO 090520Z 0906/1012 27010KT P6SM OVC007 TEMPO 0913/0917 4SM BR OVC004 FM091800 31012KT P6SM FEW007 FM092100 29020KT P6SM SKC FM100300 28015KT P6SM OVC007",
    "KOAK": "TAF KOAK 090520Z 0906/1012 26008KT P6SM OVC007 FM091700 26006KT P6SM BKN010 FM091900 29012KT P6SM SKC FM100300 28010KT P6SM OVC009",
    "KMHR": "TAF KMHR 090520Z 0906/1006 21008KT P6SM SKC FM091200 VRB05KT P6SM SKC FM092300 23008KT P6SM SKC",
    "KDFW": "TAF KDFW 090520Z 0906/1012 19015KT P6SM SKC",
    "KIAH": "TAF KIAH 090535Z 0906/1012 VRB04KT P6SM FEW250 FM091400 22006KT P6SM SCT025 SCT050 SCT250 FM091800 18009KT P6SM SCT040 SCT250 FM100100 18006KT P6SM FEW020 SCT250 FM100800 VRB03KT P6SM SCT012 SCT035 SCT200",
    "KORD": "TAF KORD 090537Z 0906/1012 22006KT P6SM FEW050 BKN200 FM091500 25011KT P6SM VCSH SCT040 BKN100 PROB30 0921/1001 04012KT 1 1/2SM TSRA OVC035CB FM100100 02009KT P6SM VCSH SCT020 BKN035 FM100500 02005KT 6SM BR SCT012 OVC020",
    "KJFK": "TAF KJFK 090521Z 0906/1012 24011KT P6SM FEW250 FM091800 19014KT P6SM SCT040 SCT250 TEMPO 0919/0922 4SM TSRA BR BKN040CB FM092200 20012KT P6SM VCSH SCT040 BKN120 PROB30 0922/1001 4SM TSRA BR BKN040CB FM100300 22008KT P6SM SCT120",
    "KRFD": "TAF KRFD 090537Z 0906/1006 18005KT P6SM SCT040 OVC200 FM091200 24010KT P6SM VCSH SCT040 BKN100 PROB30 0912/0915 34012KT -SHRA BKN040 FM091600 25009KT P6SM VCSH BKN040 PROB30 0921/0924 1 1/2SM TSRA OVC035CB FM100000 36008KT P6SM SCT020 BKN035",
    "KIND": "TAF KIND 090520Z 0906/1012 VRB03KT P6SM SCT250 FM091500 23009G18KT P6SM SCT050 BKN250 FM100000 22007KT P6SM VCSH SCT050 BKN100",
    "KDTW": "TAF KDTW 090520Z 0906/1012 21004KT P6SM SCT250 FM091500 24010KT P6SM BKN050 BKN250 TEMPO 0918/0922 2SM -TSRA BKN050CB FM092200 26010KT P6SM BKN100 FM100400 25005KT P6SM BKN050",
    "KMSP": "TAF KMSP 090520Z 0906/1012 02006KT P6SM OVC035 FM090900 02003KT 6SM BR BKN030 FM091300 03007KT P6SM SCT040 FM100200 VRB02KT P6SM SKC",
    "CYEG": "TAF CYEG 090540Z 0906/1006 14005KT P6SM FEW060 SCT250 FM091100 15005KT P6SM BKN100 OVC250 FM091400 30008KT P6SM BKN060 TEMPO 0914/0922 P6SM -SHRA BKN030 FM092200 30010G20KT P6SM BKN040 FM100000 VRB03KT P6SM FEW060 SCT250 BECMG 1002/1004 15008KT RMK NXT FCST BY 090900Z",
    "EHAM": "TAF EHAM 090358Z 0906/1012 01004KT 9999 FEW018 BECMG 0911/0914 04010KT BECMG 0921/0924 07007KT",
    "EBBR": "TAF EBBR 090502Z 0906/1012 04006KT 9999 FEW025",
    "EDDF": "TAF EDDF 090500Z 0906/1012 VRB03KT CAVOK BECMG 0907/0910 02008KT",
    "EDFH": "TAF EDFH 090500Z 0906/1006 VRB03KT CAVOK BECMG 0907/0909 01007KT BECMG 0922/0924 09006KT",
    "EDDL": "TAF EDDL 090500Z 0906/1012 VRB03KT 9999 BKN020 TEMPO 0906/0909 BKN012 BECMG 0907/0909 35007KT BECMG 0920/0922 VRB03KT BECMG 1007/1009 03008KT",
    "EDDK": "TAF EDDK 090500Z 0906/1012 VRB03KT 9999 SCT020 BECMG 0907/0910 34007KT BECMG 0919/0921 VRB03KT BECMG 1009/1011 02007KT",
    "EBLG": "TAF EBLG 090502Z 0906/1012 03007KT 9999 FEW020",
    "LSZH": "TAF LSZH 090525Z 0906/1012 VRB02KT CAVOK TX31/0915Z TN18/0906Z TN15/1004Z BECMG 0908/0911 06008KT BECMG 0919/0922 VRB02KT BECMG 1008/1010 05008KT",
    "LIMC": "TAF LIMC 090500Z 0906/1012 VRB05KT CAVOK",
    "LIRF": "TAF LIRF 090500Z 0906/1012 VRB05KT CAVOK BECMG 0909/0911 25012KT BECMG 0916/0918 VRB06KT BECMG 1008/1010 22010KT",
    "EINN": "TAF EINN 090500Z 0906/1006 14005KT 9999 BKN015 PROB30 TEMPO 0906/0908 3000 BR BKN008 BECMG 0916/0918 32010KT BECMG 0919/0921 35008KT PROB30 TEMPO 1000/1006 4000 BR",
    "EGLL": "TAF EGLL 090459Z 0906/1012 22010KT CAVOK BECMG 0920/0923 15006KT BECMG 1009/1012 08010KT",
    "EGSS": "TAF EGSS 090457Z 0906/1012 13010KT CAVOK BECMG 0906/0909 20005KT BECMG 0913/0916 12012KT",
    "EPWA": "TAF EPWA 090530Z 0906/1006 27010KT 9999 SCT035 TEMPO 0906/0908 -SHRA BKN030CB BECMG 0906/0908 33012KT TEMPO 0908/0918 34015G25KT SCT040TCU TEMPO 1000/1006 -SHRA SCT020CB ",
    "UHPP": "TAF UHPP 090445Z 0906/1012 17005G14MPS 9999 NSC BECMG 0908/0910 30003G12MPS",
    "EFHK": "TAF EFHK 090533Z 0906/1006 01011KT 9999 -RA BKN030 TEMPO 0906/0908 5000 RA BKN013 BECMG 0908/0910 BKN009 BECMG 0910/0912 SCT020 TEMPO 0914/0918 FEW030TCU BECMG 0922/0924 0500 FG VV002 BECMG 1004/1006 9999 NSW FEW010",
    "LBBG": "TAF LBBG 090500Z 0906/1006 28010KT 9999 BKN040 TEMPO 0906/0908 5000 SHRA FEW030CB OVC040 BECMG 0908/0910 13012KT TEMPO 0910/0918 VRB16G26KT 3000 TSRA SCT030CB OVC040 BECMG 0918/0920 VRB04KT",
    "LTAC": "TAF LTAC 090440Z 0906/1006 VRB02KT CAVOK BECMG 0906/0909 24012KT SCT040 BECMG 0916/0918 VRB02KT CAVOK",
    "UBBB": "TAF UBBB 090503Z 0906/1006 35016KT CAVOK TX28/0910Z TN22/1001Z TEMPO 0906/0908 31020KT SCT015 FEW040 BECMG 0917/0919 34010KT TEMPO 0919/1003 SCT010 SCT040CB",
    "UTAA": "TAF COR UTAA 090445Z 0905/1006 02018KT 6000 SCT050 SCT100 TX40/0910Z TEMPO 0905/0912 32016G26KT 4000 DRDU BECMG 0918/0920 24014KT",
    "UACC": "TAF UACC 090502Z 0906/1006 06005MPS 9999 SCT040 BKN100 TX32/0910Z TN16/0923Z TEMPO 0906/0914 09010MPS SCT040CB PROB40 TEMPO 0906/0914 TS BKN030CB BECMG 0914/0916 VRB01MPS TEMPO 0916/1004 07005MPS",
    "UAAA": "TAF UAAA 090501Z 0906/1006 01003G08MPS 9999 SCT050CB BKN100 TX32/0910Z TN19/1002Z TEMPO 0906/0916 31006G12MPS 5000 -TSRA BLDU BECMG 0916/0917 20003MPS BECMG 1003/1004 02003MPS",
    "UZTT": "TAF UZTT 090500Z 0906/1006 22010KT CAVOK TX39/0910Z TN24/1000Z TEMPO 0906/0918 32015KT",
    "ZWWW": "TAF ZWWW 090302Z 0906/1012 36004MPS CAVOK TX32/0909Z TX33/1009Z TN25/0923Z BECMG 0908/0909 30007G13MPS 9999 -SHRA FEW040CB BKN040 BECMG 0914/0915 18004MPS CAVOK BECMG 1002/1003 36004MPS",
    "ZLXY": "TAF ZLXY 090319Z 0906/1006 08004MPS 6000 NSC TX39/0907Z TN28/0921Z",
    "ZBAA": "TAF ZBAA 090304Z 0906/1012 18004MPS 4000 BR NSC TX33/0907Z TX30/1006Z TN23/0921Z TEMPO 0910/0913 -TSRA FEW040CB BKN040 TEMPO 1008/1012 TSRA FEW040CB BKN040",
    "ZBHH": "TAF ZBHH 090304Z 0906/1006 24004MPS 9999 SCT030 TX31/0908Z TN16/0922Z TEMPO 0912/0915 FEW040CB FEW040 BECMG 0922/0924 2800 -RA TEMPO 1002/1004 SHRA",
    "ZSQD": "TAF AMD ZSQD 090306Z 0906/1006 17004MPS 5000 BR NSC TX31/0906Z TN26/0920Z TEMPO 0906/0908 33008G15MPS TSRA BKN020 SCT030CB",
    "ZMCK": "TAF ZMCK 090443Z 0906/1012 33007MPS 9999 FEW030CB SCT033 TX24/0907Z TN11/0921Z BECMG 0911/0913 VRB02MPS BECMG 0916/0918 09005MPS BECMG 1000/1002 13007MPS TEMPO 1002/1012 VRB10G15MPS TSRA SCT027CB BKN030",
    "UUEE": "TAF UUEE 090454Z 0906/1006 18003G08MPS 9000 BKN010 TX21/0912Z TN16/1001Z TEMPO 0906/0918 24011G17MPS 2000 TSRA BKN020CB",
    "UUDD": "TAF UUDD 090453Z 0906/1012 16005MPS 9999 BKN020 TX26/1012Z TN15/1001Z TEMPO 0906/0916 24010G15MPS 3000 -TSRA SCT006 BKN016CB BECMG 0916/0918 09003MPS PROB40 TEMPO 0920/1004 0300 FG SCT004",
    "ULLI": "TAF ULLI 090453Z 0906/1006 14005G10MPS 6000 BKN016 BECMG 0916/0918 13003MPS",
    "USSS": "TAF USSS 090455Z 0906/1006 34003G12MPS 9999 BKN011 BKN020CB TEMPO 0906/0918 VRB20MPS -TSRAGR SQ FM091800 09003G12MPS 6000 -SHRA BKN016CB TEMPO 0918/1006 -TSRA",
    "UNNT": "TAF UNNT 090500Z 0906/1006 35003G08MPS CAVOK TX24/0909Z TN10/0922Z TEMPO 0906/0918 03008G14MPS",
    "UNKL": "TAF UNKL 090447Z 0906/1006 32003G08MPS 6000 SCT040 BECMG 0907/0909 01005G10MPS 4000 FU BECMG 0910/0913 31003G08MPS 6000 NSW TEMPO 0913/0915 01005G10MPS",
    "UIBB": "TAF UIBB 090500Z 0906/1006 35005G10MPS 9999 SCT030CB TEMPO 0906/0912 VRB10MPS",
    "UEEE": "TAF UEEE 090500Z 0906/1012 19005G10MPS 9999 SCT030CB BKN100 TX35/0907Z TN19/0918Z TEMPO 0906/0918 VRB18MPS 3200 -TSRA",
    "UHHH": "TAF UHHH 090445Z 0906/1012 14003G08MPS 5000 -SHRA FEW010 SCT020CB TX25/0906Z TN20/0918Z TEMPO 0906/0918 1000 TSRA SCT002 BKN016CB",
    "UHSS": "TAF UHSS 090445Z 0906/1012 19003MPS 9999 SCT030 FM092000 16003MPS 6000 -SHRA BKN007 BKN025CB"
  },
  "atis": {
    "RJAA": "[Arrival ATIS] RJAA ARR ATIS W 0511Z M0500 (APCH)ILS Z RWY16R/ILS Z RWY16L LDG RWY 16R/16L DEP RWY 16R DEP FREQ 124.2. TWY A1 CLSD. SIMUL PARL APCHS INPR. M 200500Z 13010KT 20KM VCSH FEW010CU BKN017SC BKN030SC 23/20 Q1012/A2988= Q/TWO NINE EIGHT EIGHT STP\n[Departure ATIS] RJAA DEP ATIS W 0503Z M0500 (APCH)ILS Z RWY16R/ILS Z RWY16L LDG RWY 16R/16L DEP RWY 16R DEP FREQ 124.2. TWY A1 CLSD. SIMUL PARL APCHS INPR. M 200500Z 13010KT 20KM VCSH FEW010CU BKN017SC BKN030SC 23/20 Q1012/A2988= Q/TWO NINE EIGHT EIGHT STP",
    "PANC": "[Arrival ATIS] PANC ARR ATIS T 0453Z ANC ATIS INFO T 0453Z. 13011KT 10SM FEW040 BKN080 BKN120 14/05 A2987 (TWO NINER EIGHT SEVEN). ILS RWY 15 APPROACHES IN USE. LANDING RWY 15, DEPARTING RWY 25L. NOTICE TO AIRMEN. TWY Q CLSD. TWY R CLSD BTWN TWY, S AND TWY U . TWY E CLSD BTWN TWY, L AND TWY M . TWY K BTWN A AND D RESTRICTED TO AIRCRAFT WITH WINGSPAN LESS THAN 118 FEET. CONTACT TOWER 118.3 FOR TAXI. ...ADVS YOU HAVE INFO T.\n[Departure ATIS] PANC DEP ATIS X 0953Z ANC ATIS INFO X 0953Z. 12016G27KT 10SM SCT060 BKN085 OVC100 14/07 A2973 (TWO NINER SEVEN THREE). ILS RWY 15 APPROACHES IN USE. LANDING RWY 15, DEPARTING RWY 25L. NOTICE TO",
    "KSEA": "[Arrival ATIS] KSEA ARR ATIS D 0453Z SEA ATIS INFO D 0453Z. 16005KT 10SM FEW060 FEW230 20/11 A2985 (TWO NINER EIGHT FIVE). ILS AND CHARTED VISUAL APPROACH RWYS 34L AND 34R , APCH IN USE. DEPG RWY 34R, DEPG ACFT PLAN AND BRIEF NUMBERS FOR BOTH RWYS 34R AND 34C. SIMUL ARRIVALS TO RWY 34L AND DEPARTURES TO RWY 34R ARE IN USE. SIMUL APCHS IN USE TO PARA RYS. NOTAMS... BIRD ACTIVITY VICINITY ARPT. STADIUM TFR IN EFFECT CHECK FDC NOTAMS FOR MORE INFO. ...ADVS YOU HAVE INFO D.\n[Departure ATIS] KSEA DEP ATIS C 1953Z SEA ATIS INFO C 1953Z. 20006KT 10SM FEW013 BKN018 OVC024 18/13 A3022 (THREE ZERO TWO TWO). ILS, RYS 16R AND 16L , APCH IN USE. DEPG RWY 16L, DEPG ACFT PLAN AND BRIEF NUMBERS FOR BOTH RWYS 16L AND 16C. SIMUL APCHS IN USE, BFI & SEA. TRAFFIC BELOW YOU ON FINAL. SIMUL APCHS IN USE TO PARA RYS. NOTAMS... BIRD ACTIVITY VICINITY ARPT. ...ADVS YOU HAVE INFO C.",
    "ZSPD": "[Arrival ATIS] ZSPD ARR ATIS T 0500Z EXP ILS APCH LDG RWY 35L & 34R WIND RWY 35L TDZ 280/4MPS MID 310/4MPS END 020/4MPS RWY 34R TDZ 010/4MPS MID 010/5MPS END 010/6MPS VIS RWY 35L TDZ 10000M MID 10000M END 6000M VIS RWY 34R TDZ 9000M MID 7000M END 10000M CLD BKN 480M T 28 /DP 25 QNH 1005 HPA CAUTION THE BIRDS NEAR THE RUNWAY RWY 35R/35L/34R/34L RWYCC 5/5/5 ISSUED AT 0430 WET/WET/WET DPT NR/NR/NR COV 100PCT/100PCT/100PCT. ADZ YOU HAVE INFO T.\n[Departure ATIS] ZSPD DEP ATIS P 0400Z DEP RWY 35R & 34L WIND RWY 35R TDZ 310/2MPS VRB BTN 290/ AND 350/ MID 270/3MPS END 290/3MPS VRB BTN 260/ AND 320/ RWY 34L TDZ 340/2MPS MID 020/3MPS END 010/2MPS VIS RWY 35R TDZ 10000M MID 10000M END 10000M VIS RWY 34L TDZ 10000M MID 7000M END 10000M CLD BKN 600M T 28 /DP 26 QNH 1005 HPA CAUTION THE BIRDS NEAR THE RUNWAY RWY 35R/35L/34R/34L RWYCC 5/5/5 ISSUED AT 2212 WET/WET/WET DPT NR/NR/NR COV 100PCT/100PCT/100PCT. ADZ YOU HAVE INFO P.",
    "ZSSS": "[Arrival ATIS] ZSSS ARR ATIS U 0300Z EXP ILS APCH LDG RWY 36R WIND RWY 36R TDZ 300/2MPS MID 280/3MPS END 290/3MPS VIS RWY 36R TDZ 10000M MID 10000M END 10000M FBL SHRA CLD BKN 360M T 26 /DP 25 QNH 1005 HPA RWY36L RWYCC 5/5/5 ISSUED AT 2130 WET/WET/WET DPT NR/NR/NR COV 100PCT/100PCT/100PCT RWY36R RWYCC 5/5/5 ISSUED AT 2130 WET/WET/WET DPT NR/NR/NR COV 100PCT/100PCT/100PCT QNH OF SHANGHAI TERMINAL CONTROL AREA 1005 HPA ADZ YOU HAVE INFO U.\n[Departure ATIS] ZSSS DEP ATIS U 0300Z DEP RWY 36L WIND RWY 36L TDZ 310/3MPS MID 290/2MPS END VRB/2MPS VIS RWY 36L TDZ 10000M MID 10000M END 10000M FBL SHRA CLD BKN 360M T 26 /DP 25 QNH 1005 HPA RWY36L RWYCC 5/5/5 ISSUED AT 2130 WET/WET/WET DPT NR/NR/NR COV 100PCT/100PCT/100PCT RWY36R RWYCC 5/5/5 ISSUED AT 2130 WET/WET/WET DPT NR/NR/NR COV 100PCT/100PCT/100PCT QNH OF SHANGHAI TERMINAL CONTROL AREA 1005 HPA ADZ YOU HAVE INFO U.",
    "VHHH": "[Arrival ATIS] VHHH ARR ATIS L 0438Z ARRIVALS, RWY 25R/L. EXP RNAV TRANSITION TO ILS APCH, RWY 25R. EXP ILS APCH, RWY 25L. RNP APCH IS AVBL ON REQ, RWY 25R. RWY 25 RUNWAY CONDITION REPORT AT 0436Z. RWY 25L RUNWAY CONDITION CODES 5 , 5 , 5 . RWY SFC ALL PARTS WET. CAUTION POSSIBLE GP FLUCTUATION RWY 25L. MOD TURB FCST RWY 25R/L. WIND RWY 25R 200/12KT RWY 25L 220/12KT. VIS RWY 25R 10KM RWY 25L 10KM. FBL SHRA. CLD FEW 1200FT SCT 2200FT. T32 DP25. QNH 1010HPA. ACK INFO L ON FIRST CTC WITH APP.\n[Departure ATIS] VHHH DEP ATIS N 0440Z DEPARTURES, RWY 25C/L. RWY 25 RUNWAY CONDITION REPORT AT 0436Z. RWY 25L RUNWAY CONDITION CODES 5 , 5 , 5 . RWY SFC ALL PARTS WET. INDEPENDENT PARALLEL DEPARTURE IN PROGRESS. MOD TURB FCST RWY 25C/L. WIND RWY 25C 200/15KT RWY 25L 230/10KT. VIS RWY 25C 10KM RWY 25L 10KM. MOD SHRA. CLD FEW 1200FT SCT 2200FT. T30 DP26. QNH 1010HPA. ACK INFO N ON FIRST CTC WITH DELIVERY .",
    "RCTP": "[Arrival ATIS] RCTP ARR ATIS X 0507Z EXP ILS APCH RWY23R FOR ARR. RWY23L FOR DEP. WIND 240/20KT VIS 10 KM OR MORE CLD FEW 2000FT SCT 20000FT T 33 DP 24 QNH 1010HPA WS R23R NOSIG CTN BIRD ACTIVITY IN THE VCY OF THE AD. INFORM TAIPEI APCH OR TAIPEI TOWER ON INITIAL CONTACT YOU HAVE INFORMATION X\n[Departure ATIS] RCTP DEP ATIS N 0100Z EXP ILS APCH RWY23R AND RWY23L ARR/DEP. WIND 240/13KT VIS 10 KM OR MORE CLD FEW 2000FT SCT 20000FT T 32 DP 24 QNH 1011HPA NOSIG CTN BIRD ACTIVITY IN THE VCY OF THE AD. DUE TO FLOW CONTROL BY HONGKONG F-I-R, TRAFFIC CONCERNED MAY BE DELAYED. INFORM TAIPEI APCH OR TAIPEI TOWER ON INITIAL CONTACT YOU HAVE INFORMATION N",
    "ZGSZ": "[Arrival ATIS] ZGSZ ARR ATIS S 0500Z EXP ILS APCH 15 EXP ILS OR VIS APCH 16R WIND 170/9MPS VIS 9999M CLD FEW 990M T 31 /DP 27 QNH 1009 HPA INDEPENDENT PARALLEL DEPARTURES DEPENDENT PARALLEL APPROACHES V17,V18 AVAILABLE AFTER SULAS FLY HEADING 040 MISSED APPROACH ALTITUDE SETTING 1200METERS WHEN AIRBORNE CONTACT ZHUHAI APPROACH EXPECTED RNP ILS DME Z APPROACH ADZ YOU HAVE INFO S.\n[Departure ATIS] ZGSZ DEP ATIS Z 0300Z DEP RWY 16L WIND 160/6MPS VIS 9999M CLD FEW CB 900M /SCT 900M T 30 /DP 27 QNH 1006 HPA DEPENDENT PARALLEL APPROACHES MISSED APPROACH ALTITUDE SETTING 1200METERS WHEN AIRB",
    "WSSS": "[Arrival ATIS] WSSS ARR ATIS G 0430Z METREPORT 0430Z ILS APCHRWY 20R SIMUL INDEPENDENT ILS AND VISUAL APPROACHES ARE CONDUCTED ON RWY 20. RSCD RWY20R 0347Z RWYCC:5.5.5. WHOLE RWY 100% WET. TWY W 9 CLOSED, RWY 02C 20C RAPID EXIT TAXIWAY INDICATOR LIGHTS OFFTAXIING GUIDANCE LIGHTS ON ALL TAXIWAYS ARE ON, FOR LIGHTING INSPECTION, RAIN OVER AIRFIELD, WIND 170/ 14KT VIS 10KM FBL SHRA CLD FEW 1300FT FEW CB 1700FT FEW TCU 1800FT SCT 4000FT T27 DP25 QNH 1012HPA CHANGI AD 2 VALID 0430/ 0530 TS N APCH MOV N 5KT FCST NC NOSIG ACK ATIS G\n[Departure ATIS] WSSS DEP ATIS Y 0301Z METREPORT 0301Z RWY 20C SIMUL INDEPENDENT ILS AND VISUAL APPROACHES ARE CONDUCTED ON RWY 20. RSCD RWY20C 0301Z RWYCC:6.5.5. SECOND PART 100% WET. THIRD PART 100% WET. TWY W 9 CLOSED, RWY 02C 20C RAPID EXIT TAXIWAY INDICATOR LIGHTS OFFTAXIING GUIDANCE LIGHTS ON ALL TAXIWAYS ARE ON, FOR LIGHTING INSPECTION, WIND 260/ 09KT MAX22KT VRB BTN180 AND270 VIS 10KM CLD SCT 1600FT FEW CB 1700FT SCT TCU 1800FT T27 DP25 QNH 1012HPA CHANGI AD 1 VALID 0225/ 0330 TS S APCH MOV SE 5KT OBS NC NOSIG DEP,INITIAL CMB 3000FT ACK ATIS Y",
    "WMKK": "[Arrival ATIS] WMKK ARR ATIS I 0504Z WMKK ARR INFO I. TIME 0500. INDEPENDENT PARALLEL APPROACHES FOR RWY 14 L AND 15 ARE IN PROGRESS. EXP RNAV / ILS APCH FOR RWY 14 LEFT. EXP RNAV / ILS APCH FOR RWY 15. WIND RWY 14L DIRECTION NOT AVBL SPEED NOT AVBL. WIND RWY 15 DIRECTION NOT AVBL SPEED NOT AVBL. VIS RWY 14L TDZ NOT AVBL. VIS RWY 15 TDZ NOT AVBL. CLD SCT 1800 FT. T 31. DP 24. QNH 1010. NOSIG. AT FIRST CONTACT WITH LUMPUR RADAR, NOTIFY RCPT OF I\n[Departure ATIS] WMKK DEP ATIS O 1804Z WMKK DEP INFO O. TIME 1800. INDEPENDENT PARALLEL DEPARTURES FOR RWY 14 L AND 15 ARE IN PROGRESS. RWY 14 LEFT. RWY 15. WIND RWY 14L DIRECTION NOT AVBL SPEED NOT AVBL. WIND RWY 15 DIRECTION NOT AVBL SPEED NOT AVBL. VIS RWY 14L TDZ NOT AVBL. VIS RWY 15 TDZ NOT AVBL. CLD FEW CB 1700 FT. T 27. DP 24. QNH 1010. NOSIG. ALL DEP ACFT TO CONTACT LUMPUR DEP AT 135 DECIMAL 25 MHZ WHEN ABN. AT FIRST CONTACT WITH LUMPUR GROUND, NOTIFY RCPT OF O",
    "VTBS": "[Arrival ATIS] VTBS ARR ATIS I 0500Z VTBS ARR ATIS I 0500Z SIMULTANEOUS INDEPENDENT PARL APCH IN PROGRESS EXP ILS Z APCH ARR RWY 19 OR RNP APCH RWY 20R , ,PILOT SHALL ADZ BKK APCH ON INITIAL CTC IF UNA TO CONDUCT RNP APCH DUE TO OPERATIONAL CONSTRAINT 0500Z WIND 240/4KT VRB BTN 180/ AND 280/ VIS 10KM CLD FEW 2000FT T31 DP22 QNH 1010HPA TREND NOSIG ADZ BKK APCH ON INITIAL CONTACT THAT YOU HAVE INFO I\n[Departure ATIS] VTBS DEP ATIS M 0300Z VTBS DEP ATIS M 0314Z DEP RWY 20L ,AFT AIRBORNE ALL DEPARTING ACFT SHALL CTC 119.25 0300Z WIND 320/5KT VRB BTN 280/ AND 350/ VIS 10KM CLD FEW 400FT SCT 2000FT T29 DP27 QNH 1011HPA TREND NOSIG ADZ GND WHEN INITIAL CONTACT YOU HAVE INFO M",
    "VTBU": "[Arrival ATIS] VTBU ARR ATIS U 0430Z VTBU ARR ATIS U 0430Z RNP RWY 18 TRL FL130 MOBILE ACFT ARST SYSTEM INSTL ATP SIX HUNDRED AND TEN METERS FM THR RWY 36 CABLE HGT 3 INCHES. 0430Z WIND 360/6KT VRB BTN 320/ AND 020/ VIS 10KM CLD FEW 2000FT T34 DP27 QNH 1010HPA TREND NOSIG ADZ CONTROLLER WHEN INITIAL CONTACT YOU HAVE INFO U\n[Departure ATIS] VTBU DEP ATIS D VTBU ARR/DEP DATIS RPT VTBU ARR ATIS D 0330Z ILS \"Z\" APCH RWY 18 TRL FL130 0330Z WIND 110/4KT VRB BTN 350/ AND 120/ VIS 6KM CLD FEW 2000FT T31 DP27 QNH 1014HPA TREND NOSIG ADZ CONTROLLER WHEN INITIAL CONTACT YOU HAVE INFO D",
    "ROAH": "[Arrival ATIS] ROAH ARR ATIS G 0524Z S0518 (APCH)ILS Z RWY36L LDG RWY 36L DEP RWY 36R DEP FREQ 119.1 335.8 S 090518Z 08022G32/12KT 20KM SCT023CU 32/26 Q1004/A2966= Q/TWO NINE SIX SIX STP\n[Departure ATIS] ROAH DEP ATIS W 0217Z M0200 (APCH)ILS Z RWY36L LDG RWY 36L DEP RWY 36R DEP FREQ 119.1 335.8 M 090200Z 08023G35/13KT 20KM SCT018CU 32/27 Q1005/A2969= Q/TWO NINE SIX NINE STP",
    "VVDN": "[Arrival ATIS] VVDN ARR ATIS M 0502Z VVDN INFO M 0502Z. ILS VICTOR APPROACH 35L.. DPTG RWY 35R.. 0502Z. WIND 270/05KT CAVOK T33 DP22 QNH 1005HPA TREND NOSIG. ADZ ON INITIAL CTC YOU HAVE INFO. M.\n[Departure ATIS] VVDN DEP ATIS X 0632Z VVDN INFO X 0632Z. ILS VICTOR APPROACH 35L.. DPTG RWY 35R.. 0632Z. WIND 130/0KT CAVOK T34 DP26 QNH 1006HPA TREND NOSIG. ADZ ON INITIAL CTC YOU HAVE INFO. X.",
    "RCKH": "[Arrival ATIS] RCKH ARR ATIS P 0530Z EXPECT ILS APPROACH RWY 27 ARR/DEP TAXIWAY JULIETT, TAXIWAY BRAVO, TAXIWAY DELTA AND TAXIWAY ECHO CLOSED DUE MAINTENANCE. RUNWAY 2 7 ARRIVALS PLAN VACATE VIA CHARLIE OR\n[Departure ATIS] RCKH DEP ATIS D 0830Z EXPECT ILS APPROACH RWY 27 ARR/DEP TAXIWAY JULIETT, TAXIWAY BRAVO, TAXIWAY DELTA AND TAXIWAY ECHO CLOSED DUE MAINTENANCE. RUNWAY 2 7 ARRIVALS PLAN VACATE VIA CHARLIE OR",
    "KLAX": "[Arrival ATIS] KLAX ARR ATIS X 0353Z LAX ATIS INFO X 0353Z. 24005KT 10SM CLR 20/17 A2987 (TWO NINER EIGHT SEVEN) RMK AO2 SLP112 T02000167. INST APCHS AND RNAV RNP APCHS RY 24R AND 25L, OR VCTR FOR VISUAL APCH WILL BE PROVIDED, SIMUL VISUAL APCHS TO ALL RWYS ARE IN PROG, SIMUL INSTR DEPARTURES IN PROG RWYS 24 AND 25. CTC L A GC ON 121.75 FOR PUSH OR TAXI ON A. TWY B CLSD BTN TWY, C10 AND TWY C7 , , TWY B6 CLSD, TWY B7 CLSD, TWY C CLSD BTN TWY, C1 AND TWY C3, TWY C1 CLSD, TWY C9 CLSD BTN TWY, B AND TWY C, TWY C8 CLSD BTN TWY, B AND TWY C. RY 25R SFL OTS, RY 24L ALSF-2 OTS. LAX VOR UNMONITORED. USE CAUTION FOR INCREASED DRONE ACTIVIY IN THE VICINITY OF SOFI STADIUM AT OR BELOW 200FT AGL DURING THE WORLD CUP FROM JUNE TWELFTH TWENTY TWENTY SIX THROUGH JULY TENTH TWENTY TWENTY SIX. HAZD WX INFO FOR LAX AREA AVBL FM FSS. BIRD ACTIVITY VICINITY ARPT. INCLUDE YOUR CALL SIGN IN ALL READBACKS. USE CAUTION WHEN EXITING RY24R AT TWY V, W, AND Y, TO HOLD SHORT OF RY24L. MULTIPLE RUNWAY INCURSIONS HAVE OCCURRED. ...ADVS YOU HAVE INFO X.\n[Departure ATIS] KLAX DEP ATIS U 0253Z - KLAX ATIS INFO U 0253Z. 25013KT 10SM CLR 20/16 A2990 (TWO NINER NINER ZERO) RMK AO2 SLP124 T02000161 58003. INST APCHS AND RNAV RNP APCHS RY 24R AND 25L, OR VCTR FOR VISUAL APCH WILL BE PROVIDED, SIMUL VISUAL APCHS TO ALL RWYS ARE IN PROG, SIMUL INSTR DEPARTURES IN PROG RWYS 24 AND 25. CTC L A GC ON 121.75 FOR PUSH OR TAXI ON A. TWY B CLSD BTN TWY, C10 AND TWY C7 , , TWY B6 CLSD, TWY B7 CLSD, TWY C CLSD BTN TWY, C1 AND TWY C3, TWY C1 CLSD, TWY C9 CLSD BTN TWY, B AND TWY C, TWY C8 CLSD BTN TWY, B AND TWY C. RY 25R SFL OTS, RY 24L ALSF-2 OTS. LAX VOR UNMONITORED. USE CAUTION FOR INCREASED DRONE ACTIVIY IN THE VICINITY OF SOFI STADIUM AT OR BELOW 200FT AGL DURING THE WORLD CUP FROM JUNE TWELFTH TWENTY TWENTY SIX THROUGH JULY TENTH TWENTY TWENTY SIX. HAZD WX INFO FOR LAX AREA AVBL FM FSS. BIRD ACTIVITY VICINITY ARPT. INCLUDE YOUR CALL SIGN IN ALL READBACKS. USE CAUTION WHEN EXITING RY24R AT TWY V, W, AND Y, TO HOLD SHORT OF RY24L. MULTIPLE RUNWAY INCURSIONS HAVE OCCURRED. ...ADVS YOU HAVE INFO U.",
    "KONT": "[Arrival ATIS] KONT ARR ATIS R 2053Z - KONT ATIS INFO R 2053Z. 23009G17KT 10SM CLR 34/12 A2992 (TWO NINER NINER TWO). ILS RUNWAY 2 6 LEFT APPROACH IN USE. VISUAL APCH RY 26L, RY 26R IN USE, RNAV/GPS APCH RY 26R IN USE. LNDG AND DEPG RY 26L AND RY 26R. NOTAMS... TAXIWAY SIERRA FIVE CLOSED. TAXIWAY SIERRA CLOSED BETWEEN TAXIWAY SIERRA 8 AND TAXIWAY WHISKEY. ILS RY 26R OTS, RY 26L IM OTS, RY 26R ALS OTS. USE CAUTION FOR NUMEROUS BIRDS OBSERVED IN VICINITY OF ONT. PILOTS READBACK RWY ASSIGNMENTS AND HOLD SHORT INSTRUCTIONS. ...ADVS YOU HAVE INFO R.\n[Departure ATIS] KONT DEP ATIS N 0553Z - KONT ATIS INFO N 0553Z. 24004KT 10SM BKN250 22/15 A2988 (TWO NINER EIGHT EIGHT) RMK AO2 SLP100. ILS AND VIS APR IN USE, RY26L & RY26R. LNDG AND DEPG RY 26L AND RY 26R. NOTAMS... TAXIWAY SIERRA CLSD BETWEEN SIERRA 8 AND W TAXIWAY Q SOUTH OF RWY 26L CLSD TAXIWAY T CLSD TAXIWAY SIERRA 5 CLSD. RY 26L IM OTS, RY 26R ALS OTS. USE CAUTION FOR NUMEROUS BIRDS OBSERVED IN VICINITY OF ONT. HAZD WX INFO FOR SOUTHERN CA AVBL ON FSS FREQUENCIES. PILOTS READBACK RWY ASSIGNMENTS AND HOLD SHORT INSTRUCTIONS. ...ADVS YOU HAVE INFO N.",
    "KSFO": "[Arrival ATIS] KSFO ARR ATIS Z 0456Z SFO ATIS INFO Z 0456Z. 27007KT 10SM FEW003 BKN009 14/12 A3004 (THREE ZERO ZERO FOUR). SIMUL CLSLY SPCD DPNDNT ILS RY 28R AND ILS RY 28L APP IN USE. DEPG RWYS 28L, 28R. DEPG ACFT SHOULD BE PREPARED FOR A SHORT NOTICE RY CHANGE. RY 1L, 1R CLSD. NUMEROUS TWY CLOSURES FOR CONSTRUCTION ON THE FIELD, PILOTS CHECK NOTAMS. DEPG ACFT WAITING ON FINAL NUMBERS ADVISE GROUND PRIOR TO ENTERING TWY F. ...ADVS YOU HAVE INFO Z.\n[Departure ATIS] KSFO DEP ATIS S 0256Z SFO ATIS INFO S 0256Z. 27016G24KT 10SM FEW007 BKN014 14/11 A3006 (THREE ZERO ZERO SIX). SIMUL CLSLY SPCD DPNDNT ILS RY 28R AND ILS RY 28L APP IN USE. DEPG RWYS 28L, 28R. DEPG ACFT SHOULD BE PREPARED FOR A SHORT NOTICE RY CHANGE. RY 1L, 1R CLSD. NUMEROUS TWY CLOSURES FOR CONSTRUCTION ON THE FIELD, PILOTS CHECK NOTAMS. RY 28R PAPI OTS. MOWING BTN RWY 28L AND RWY 28R AT TWY R. DEPG ACFT WAITING ON FINAL NUMBERS ADVISE GROUND PRIOR TO ENTERING TWY F. ...ADVS YOU HAVE INFO S.",
    "KOAK": "[Arrival ATIS] KOAK ARR ATIS Y 0453Z - KOAK ATIS INFO Y 0453Z. 23011KT 10SM FEW008 BKN012 14/11 A3008 (THREE ZERO ZERO EIGHT). RNAV, RWY 30. ILS, RWY 28R. FLOW TO LAX. ILS RWY 30, OTS, RWY 28R RAIL, OTS. UNN LIT CLOSE-IN OBSTACLES FOR RWY 30 DEPARTURES. RWY 30 DEPARTURES ARE ADVISED TO AVOID TURNING LEFT PRIOR TO DEPARTURE END OF RUNWAY. CTN, CRANE 1 POINT 6 NAUTICAL MILES, , AT 140 FEET AGL. CAUTION, BIRDS NEAR AIRPORT. ...ADVS YOU HAVE INFO Y.\n[Departure ATIS] KOAK DEP ATIS O 1953Z OAK ATIS INFO O 1953Z. 28014KT 10SM FEW005 22/14 A2988 (TWO NINER EIGHT EIGHT). RNAV Z/VA RWY 30 ILS/VA RWY 28R. FLOW TO LAX, LAS, SAN. ILS RWY 30, OTS. UNN LIT CLOSE-IN OBSTACLES FOR RWY 30 DEPARTURES. RWY 30 DEPARTURES ARE ADVISED TO AVOID TURNING LEFT PRIOR TO DEPARTURE END OF RUNWAY. SIGNATURE UNI-COM OUT OF SERVICE. CAUTION, BIRDS NEAR AIRPORT. ...ADVS YOU HAVE INFO O.",
    "KDFW": "[Arrival ATIS] KDFW ARR ATIS A 1753Z - KDFW ARR INFO A 1753Z. 22010G17KT 10SM FEW060 FEW250 36/19 A3004 (THREE ZERO ZERO FOUR) RMK AO2 SLP160 T03560189 10356 20267 58006. SIMUL VISUAL APCH TO RWYS, 13R, 18R, 17C, 17L. LDG RWY 17C EXP LAHSO TWY B 10460 FT AVAIL, LDG RWY 18R EXP LAHSO TWY B 10100 FT AVL. NOTICE TO AIRMEN. WARNING, RWY 18L HAS BEEN SHORTENED, 9273 FT AVAILABLE. RWY 18L ILS OTS, CL OTS. BIRD ACTIVITY VCNTY ARPT. ...ADVS YOU HAVE INFO A.\n[Departure ATIS] KDFW DEP ATIS W 1553Z - KDFW DEP INFO W 1553Z. 21022G32KT 10SM FEW025 FEW180 SCT250 31/21 A2994 (TWO NINER NINER FOUR) RMK AO2 PK WND 20032/1547 SLP128 T03110206. SIMUL PARL TRAFFIC DEPG RWYS 17R, 18L. NOTICE TO AIRMEN. WARNING, RWY 18L HAS BEEN SHORTENED, 9273 FT AVAILABLE. RWY 18L CL OTS. BIRD ACTIVITY VCNTY ARPT. ...ADVS YOU HAVE INFO W.",
    "KIAH": "[Arrival ATIS] KIAH ARR ATIS K 0253Z - KIAH ATIS INFO K 0253Z. 19005KT 10SM FEW020 FEW050 SCT100 BKN180 BKN250 25/21 A3005 (THREE ZERO ZERO FIVE) RMK SHRA DSNT E S-SW CB DSNT S-SW MOV SW. ARRIVALS EXPECT ILS OR RNAV Y RY 8R, ILS OR RNAV Y RY 8L. SIMUL APPROACHES IN USE. DEPG RY 15L, RY 15R. NOTICE TO AIRMEN. UNITED RAMP CONTROL IN EFFECT. CODED DEPARTURE ROUTES IN EFFECT. HAZD WX INFO FOR IAH AREA AVBL FM FSS. BIRD ACTIVITY VICINITY ARPT. CRANES ARE DOWN. TWY SA CLSD BTN TWY, SF AND TWY SK , TWY SB CLSD BTN TWY, SF AND TWY SK , , TWY WB CLSD BTN TWY, WG AND TWY WH . TWY EA CLSD. NOTAM ATIS IN USE ON FREQUENCY 126.225. ...ADVS YOU HAVE INFO K.\n[Departure ATIS] KIAH DEP ATIS T 0353Z IAH ATIS INFO T 0353Z. 15007KT 10SM FEW035 FEW180 BKN250 27/23 A2996 (TWO NINER NINER SIX). ARRIVALS EXPECT ILS OR RNAV Y RY 8R, ILS OR RNAV Y RY 8L. DEPG RY 15R. NOTICE TO AIRMEN. UNITED RAMP CONTROL IN EFFECT. RY 15L, 33R CLSD. HAZD WX INFO FOR IAH AREA AVBL FM FSS. BIRD ACTIVITY VICINITY ARPT. CRANES ARE DOWN. TWY SA CLSD BTN TWY, SF AND TWY SK , TWY SB CLSD BTN TWY, SF AND TWY SK , , TWY WB CLSD BTN TWY, WG AND TWY WH . TWY EA CLSD. NOTAM ATIS IN USE ON FREQUENCY 126.225. ...ADVS YOU HAVE INFO T.",
    "KORD": "[Arrival ATIS] KORD ARR ATIS D 1751Z - KORD ATIS INFO D 1751Z. 28007KT 10SM FEW050 30/17 A3002 (THREE ZERO ZERO TWO) RMK AO2 SLP160 T03000167 10300 20228 58010. ARR EXP VECTORS ILS RWY 28C APCH, VISUAL APCH RWY 27C, VISUAL APCH RWY 27R. SIMUL APCHS IN USE. LAND AND HOLD SHORT OPERATIONS ARE IN EFFECT. RWY 27C ARR PLAN TO H/S OF TWY V V, 9 THSD 7 HND 25 FT AVBL, RWY 28C ARR PLAN TO H/S OF TWY Z, 9 THSD 6 HND TEN FT AVBL. DEPS EXP RWYS 22L 27L FROM T T 9960 FT AVL. RWY 4L, 22R CLSD. RWY 22R LOC OTS, RWY 28L GS OTS, RWY 9L IM OTS, RWY 9C IM OTS, RWY 10L IM OTS, RWY 10R IM OTS, RWY 27R IM OTS, RWY 28L IM OTS, RWY 28R IM OTS, RWY 9L PAPI OTS, RWY 27R PAPI OTS. PILOTS USE CTN FOR BIRD ACTIVITY IN THE VICINITY OF THE ARPT. USE CTN FOR PERSONNEL AND EQUIP AT NUMEROUS SITES ON THE FIELD. READBACK ALL RWY HOLD SHORT INSTRUCTIONS. WHEN READY TO TAXI CONTACT GND METERING ON FREQ 121.67. ...ADVS YOU HAVE INFO D.\n[Departure ATIS] KORD DEP ATIS U 0351Z ORD ATIS INFO U 0351Z. 24004KT 10SM OVC250 26/19 A2994 (TWO NINER NINER FOUR) RMK AO2 SLP133 T02610194. ARR EXP VECTORS ILS RWY 10C APCH. DEPS EXP RWYS 22L 9C FROM F F 9200 FT AVL. RWY 4L, 22R CLSD, RWY 10R, 28L CLSD. RWY 22R LOC OTS, RWY 28L GS OTS, RWY 9L IM OTS, RWY 9C IM OTS, RWY 10L IM OTS, RWY 10R IM OTS, RWY 27R IM OTS, RWY 28L IM OTS, RWY 28R IM OTS, RWY 9L PAPI OTS, RWY 27R PAPI OTS. PILOTS USE CTN FOR BIRD ACTIVITY IN THE VICINITY OF THE ARPT. USE CTN FOR PERSONNEL AND EQUIP AT NUMEROUS SITES ON THE FIELD. READBACK ALL RWY HOLD SHORT INSTRUCTIONS. WHEN READY TO TAXI CONTACT GND METERING ON FREQ 121.67. ...ADVS YOU HAVE INFO U.",
    "KJFK": "[Arrival ATIS] KJFK ARR ATIS C 0451Z - KJFK ATIS INFO C 0451Z. 25010KT 10SM FEW250 22/19 A2996 (TWO NINER NINER SIX) RMK AO2 SLP146 T02220194 402720178. APPROACH IN USE RNAV GPS Z RY 13L. DEPG RY 13R. CONVERGING RY OPERATIONS IN USE. RWY 4R, 22L CLSD, RWY 4L, 22R CLSD. RWY 22L/4R INNER MARKER OTS.RWY 31R PAPI OTS. NUM CRANES OPERATING AT JFK. BIRD ACTIVITY VICINITY ARPT. READBACK ALL RWY ASSIGNMENTS AND HOLD SHORT INSTRUCTIONS. ...ADVS YOU HAVE INFO C.\n[Departure ATIS] KJFK DEP ATIS Q 1851Z JFK ATIS INFO Q 1851Z. 20013KT 10SM FEW045 FEW250 26/18 A3001 (THREE ZERO ZERO ONE). APPROACH IN USE RNAV GPS Z RY 13L, RNAV GPS X RY 22L. DEPG RY 13R. CONVERGING RY OPERATIONS IN USE. RWY 22L/4R INNER MARKER OTS.RWY 31R PAPI OTS. SWAP IN EFFECT EXPECT REROUTES. NUM CRANES OPERATING AT JFK. BIRD ACTIVITY VICINITY ARPT. READBACK ALL RWY ASSIGNMENTS AND HOLD SHORT INSTRUCTIONS. ...ADVS YOU HAVE INFO Q.",
    "KIND": "[Arrival ATIS] KIND ARR ATIS E 2254Z - KIND ATIS INFO E 2254Z. 31007KT 10SM FEW050 SCT190 BKN250 29/17 A2998 (TWO NINER NINER EIGHT). PARL ILS RWY 5R AND 5L APPROACHES IN USE. DEPG RWYS 5L, 5R. CROSS RUNWAY O\n[Departure ATIS] KIND DEP ATIS H 1854Z IND ATIS INFO H 1854Z. 26009G19KT 10SM SCT036 BKN041 BKN170 23/16 A2981 (TWO NINER EIGHT ONE) RMK AO2 SLP088 T02280156. PARL ILS RWY 23R AND 23L APPROACHES IN USE. CROSS RU",
    "KDTW": "[Arrival ATIS] KDTW ARR ATIS G 0053Z - KDTW ARR INFO G 0053Z. 19007KT 10SM FEW065 FEW130 BKN250 28/19 A2993 (TWO NINER NINER THREE). SIMUL VISUAL RY 21L, RY 22R USE Z LOC FREQ 111.95 APCH IN USE. NOTICE TO AI\n[Departure ATIS] KDTW DEP ATIS Q 2253Z - KDTW DEP INFO Q 2253Z. 21009KT 10SM FEW050 FEW250 33/24 A2991 (TWO NINER NINER ONE). DEPG RWY 21R, RWY 22L ;. NOTICE TO AIRMEN. RWY 27L, 9R CLSD, RWY 27R, 9L CLSD. PILOTS USE CTN FOR BIRD ACTIVITY. ...ADVS YOU HAVE INFO Q.",
    "KMSP": "[Arrival ATIS] KMSP ARR ATIS K 0453Z - KMSP ARR INFO K 0453Z. 36006KT 10SM FEW027 OVC033 23/20 A2991 (TWO NINER NINER ONE). SIMULTANEOUS DEPENDENT, ILS RWY 30L APCH IN USE, ILS RWY 30R APCH IN USE. NOTICE TO AIRMEN. RWYS 4, 22 CLSD. TWY R7. R8. R9. R10. CLOSED. TWY R BTWN R6 AND R10 CLSD, TWY A7 CLSD, TWY A CLSD BTN TWY, A7 AND TWY D. GS RWY 12L OTS, RWYS 12R, 12L, INNER MARKER OTS.. HAZD WX INFO FOR MSP AREA AVBL FM FSS. CTN, BIRDS NEAR MSP. READ BACK HS AND ALT. ALL ACFT TAXI WITH TRANSPONDER AND ALTITUDE ENCODING ON. ADVISE TOWER OF GATE ON INITIAL CONTACT. ...ADVS YOU HAVE INFO K.\n[Departure ATIS] KMSP DEP ATIS Q 0053Z MSP DEP INFO Q 0053Z. 30003KT 10SM SCT032 SCT043 BKN080 26/19 A2989 (TWO NINER EIGHT NINER). DEPARTING RWY 30L, RWY 30R, RWY 17. NOTICE TO AIRMEN. RWYS 4, 22 CLSD. TWY R7. R8. R9. R10. CLOSED. TWY R BTWN R6 AND R10 CLSD, TWY A7 CLSD, TWY A CLSD BTN TWY, A7 AND TWY D. ALL ACFT CTC METERING ON ONE THREE THREE POINT FIVE SEVEN WHEN READY TO PUSHBACK OR TAXI. HAZD WX INFO FOR MSP AREA AVBL FM FSS. CTN, BIRDS NEAR MSP. READ BACK HS AND ALT. ALL ACFT TAXI WITH TRANSPONDER AND ALTITUDE ENCODING ON. ...ADVS YOU HAVE INFO Q.",
    "CYEG": "[Arrival ATIS] CYEG ARR ATIS F 0400Z CYEG ARR ATIS F 0400Z 28003KT 20SM SCT063 CIG BKN250 15/12 A2992 APCH RNAV Z OR Y RWY 02, INFORM ARRL OF REQ APCH ON INITIAL CTC. LDG AND DEP RWY 02. SIMUL APPROACHES MAY BE IN EFCT. INFORM CYEG ATC INFO F\n[Departure ATIS] CYEG DEP ATIS E 0400Z CYEG ARR ATIS E 0400Z 28003KT 20SM SCT063 CIG BKN250 15/12 A2992 APCH RNAV Z OR Y RWY 02, INFORM ARRL OF REQ APCH ON INITIAL CTC. LDG AND DEP RWY 02. SIMUL APPROACHES MAY BE IN EFCT. INFORM CYEG ATC INFO E",
    "EHAM": "[Arrival ATIS] EHAM ARR ATIS A 0523Z EHAM ARRIVAL INFO A. DEMAND. MAIN LANDING RWY 06. SECONDARY LANDING RWY 36 R. TRANSITION LEVEL 040. WIND 330 DEG, 3 KT, VRB BTN 290 AND 040 DEG, 9 KT MAX, 2 KT MNM. WIND SECONDARY RUNWAY 010 DEG, 1 KT. CAVOK. T 18. DP 15. QNH 1019 HPA. NOSIG. OPERATIONAL REPORT. CONVERGING APPROACHES IN PROGRESS. CONTACT APCH WITH CALLSIGN ONLY. END OF INFO A\n[Departure ATIS] EHAM DEP ATIS O 0450Z EHAM DEPARTURE INFO O. DEMAND. MAIN DEPARTURE RWY 24. SECONDARY DEPARTURE RWY 18 L. MAIN LANDING RWY 18 R. RWY 24 RCR AT TIME 0230. RWYCC: 5/5/5 WET/WET/WET COVERAGE(%): 100/100/100. RWY 18 L RCR AT TIME 0230. RWYCC: 5/5/5 WET/WET/WET COVERAGE(%): 100/100/100. WIND 200 DEG, 4 KT, VRB BTN 180 AND 260 DEG. WIND SECONDARY RUNWAY 200 DEG, 5 KT, VRB BTN 170 AND 250 DEG. CAVOK. T 21. DP 19. QNH 1015 HPA. OPERATIONAL REPORT. INFORM SCHIPHOL DEL BY VOICE IF UNABLE TO COMPLY WITH NADP 2. END OF INFO O",
    "EBBR": "[Arrival ATIS] EBBR ARR ATIS I 0520Z EBBR NAT, EXP VECT FOR ILS APP ARR RWY25L RSCD AT 0446 RWY25L DRY. DEP RWY25R TRL 055 TWY C6 CLSD. ILS RWY 25R U/S. RNP RWY 25R AT ATC DISCRETION. TAIL OPS TAIL REP AT 0514, ALT 1000FT, 080 DEG/06 KT 090/1KT VRB BTN 080 AND 150 CAVOK T17 DP16 QNH 1019HPA NOSIG CFM ARR I\n[Departure ATIS] EBBR DEP ATIS T 1620Z EBBR NAT, DEP RWY25R RSCD AT 1448 RWY25R DRY. ARR RWY25L TRL 055 B3 CLSD 330/8KT VRB BTN 310 AND 050 VIS ABV 10KM FEW3900FT T25 DP16 QNH 1019HPA NOSIG CFM DEP T",
    "EDDF": "[Arrival ATIS] EDDF ARR ATIS F 0450Z ARR-ATIS EDDF F METAR 200450 EXPECT INDEPENDENT PARALLEL ILS Z APCH RWY 25R OR ILS APCH RWY 25L RWY 25R 25L GLS APCH ON REQUEST , DO NOT MISTAKE TWY M FOR RWY 25C WHEN PERFORMING VISUAL APPROACH , TRL 60 10006KT CAVOK T22 DP19 QNH1018 TREND NOSIG\n[Departure ATIS] EDDF DEP ATIS M 1750Z -DEP-ATIS EDDF M METAR 081750 - -RWY 25C 18 - -TRL 60 - -32009KT 280V020 RWY18 36009KT -CAVOK - - -T24 DP14 -QNH1018 - -TREND NOSIG",
    "EDDL": "[Arrival ATIS] EDDL ARR ATIS X 0720Z ATIS EDDL X METAR 080720 EXPECT VECTORS ILS APPROACH RWY 23L TWY L2 , L4 AND L5 BTN TWY M AND RWY 23L CLOSED TRL 60 31007KT 280V340 9999 BKN020 OVC027 T19 DP15 QNH1018 TREND NOSIG\n[Departure ATIS] EDDL DEP ATIS R EDDL ARR/DEP DATIS RPT -ATIS EDDL R METAR 020550 -EXPECT VECTORS ILS APPROACH -RWY 23L -TWY L8 CLOSED BETWEEN TWY M AND RWY 23L -TRL 60 - -23010KT -CAVOK - - -T19 DP13 -QNH1020 - -TREND NOSIG",
    "EDDK": "[Arrival ATIS] EDDK ARR ATIS R 0450Z ATIS EDDK R METAR 090450 EXPECT ILS APCH RWY 13L 06 RWY COND RWY 13L AT TIME 0030 RWYCC 6 DEPOSIT TOTAL RWY DRY RWY 06 AT TIME 0030 RWYCC 6 DEPOSIT TOTAL RWY DRY TRL 60 RWY 13R AND RWY 31L CLOSED FOR DEPARTURE AND LANDING: TAXIING BTN THR RWY 13R AND INTERSECTION RWY 24 POSSIBLE : VRB01KT CAVOK T14 DP13 QNH1019 TREND NOSIG\n[Departure ATIS] EDDK DEP ATIS Q EDDK ARR/DEP DATIS RPT -ATIS EDDK Q METAR 291920 -EXPECT ILS APCH -RWY 31R 06 -RWY COND RWY 31R AT TIME 1830 RWYCC 6 DEPOSIT TOTAL RWY DRY RWY 06 AT TIME 1830 RWYCC 6 DEPOSIT TOTAL RWY DRY -TRL 60 -RWY 13R AND RWY 31L CLOSED FOR DEPARTURE AND LANDING: TAXIING BTN THR RWY 13R AND INTERSECTION RWY 24 POSSIBLE : -04003KT -CAVOK - - -T24 DP13 -QNH1024 - -TREND NOSIG",
    "EBLG": "[Arrival ATIS] EBLG ATIS G 0520Z EBLG INFO, EXP RNAV TO ILS APP ARR RWY04R DEP RWY04R RWY 04R DRY, RWYCC 666. TRL 055 ADZ ON GND FREQ IF UNABLE S2 010/3KT VIS ABV 10KM SCT1700FT T16 DP15 QNH 1020HPA NOSIG CFM ATIS G",
    "LSZH": "[Arrival ATIS] LSZH ARR ATIS B 0520Z ARRIVALS, EXP ILS APCH, RWY 14. TRL 70. DEP RWY 28. WIND 010 DEG, 3 KT. VIS 10 KM OR MORE, TDZ 10 KM OR MORE. NSC. T 18. DP 14. QNH 1018. NOSIG.\n[Departure ATIS] LSZH DEP ATIS P 0530Z DEP RWY 28. TRL 70. ARRIVALS, EXP ILS APCH, RWY 14. TMA S 1 IS NOT ACT. TMA S 2 AND S 3 ARE NOT ACT. WIND 010 DEG, 2 KT. VIS 10 KM OR MORE. CLD FEW 6000 FT. T 18. DP 14. QNH 1018. NOSIG.",
    "LIMC": "[Arrival ATIS] LIMC ARR ATIS X 0520Z LIMC ARR X 0520Z I.L.S. ZULU RWY IN USE 35R TL 70 WIND TDZ 350/4KT VRB BTN 330/AND 030/ CAVOK T24 DP19 QNH 1013HPA QFE 0988HPA\n[Departure ATIS] LIMC DEP ATIS N 1833Z LIMC DEP N 1833Z RWY IN USE 35L TL 75 WIND END VRB2KT CAVOK T34 DP09 QNH 1010HPA QFE 0985HPA DATALINK CLEARANCE AVAILABLE.... CONTACT 1 3 1 8 8 0 TO BE RELEASED BY THE AI",
    "LIRF": "[Arrival ATIS] LIRF ARR ATIS S 0529Z LIRF ARR S 0529Z RWY 16L ILS W RWY 16R ILS Z RWY IN USE 16L 16R TL 75 DEPENDENT PARL ILS APCH INPR RWY IN USE 16R OR 16L ASSIGNED BY ROME RADAR WIND RWY 16L TDZ VRB2KT VRB BTN 350/AND 060/ RWY 16R TDZ 050/5KT VRB BTN 360/AND 070/ CAVOK T24 DP20 QNH 1010HPA\n[Departure ATIS] LIRF DEP ATIS O 0420Z LIRF DEP O 0420Z RWY IN USE 25 TL 75 RWYS IN USE FOR ARR 16L AND 16R WIND END 100/3KT CAVOK T20 DP20 QNH 1010HPA REA IS SENT AUTOMATICALLY ONCE RLSD BY RAMP WHEN READY CONTACT FIUME RAMP 121.725",
    "EINN": "[Arrival ATIS] EINN ARR ATIS F 0500Z EXPECT I L S CATEGORY 1 LDG RWY24 TKOF RWY24 TRL FL060 19004KT 9999 FEW009 BKN016 16/15 QNH Q1020 TREND TEMPO BKN010 ADVISE AT FIRST CONTACT YOU HAVE ATIS INFO F",
    "EGLL": "[Arrival ATIS] EGLL ARR ATIS V 0550Z LANDING RWY 27L TRANSITION-LEVEL: FL 70 RUNWAY 27R REDUCED DECLARED DISTANCES WITH TAKE OFF RUN AVAILABLE 3362METRES AND LANDING DISTANCE AVAILABLE 3362METRES IF STAND GUIDANCE IS OFF OR FAILS, REMAIN ON THE TAXIWAY CENTRELINE AND ADVISE ATC AUTO 21003KT 170V270 9999 NCD 21/14 Q1018 ACKNOWLEDGE RECEIPT OF INFORMATION V\n[Departure ATIS] EGLL DEP ATIS H 0544Z DEPARTURE RWY 27R RUNWAY 27R REDUCED DECLARED DISTANCES WITH TAKE OFF RUN AVAILABLE 3362METRES AND LANDING DISTANCE AVAILABLE 3362METRES PILOTS THAT ARE IN RECEIPT OF DATALINK CLEARANCES ARE REMINDED THEY MUST CONTACT DELIVERY ON 121.980 WHEN READY FOR START AUTO 22004KT 9999 NCD 21/15 Q1018 ACKNOWLEDGE RECEIPT OF INFORMATION H AND REPORT AIRCRAFT TYPE AND CURRENT QNH ON FIRST CONTACT WITH HEATHROW",
    "EPWA": "[Arrival ATIS] EPWA ARR ATIS K 0431Z EPWA ARR K. TIME 0430. EXP U ARR ILS Z APCH FOR RWY 33. RWY 33 RCC 5, 5, 5. 1ST PART, WET. 2ND PART, WET. 3RD PART, WET. RWY REPORT END. TRANSITION LEVEL 80. WIND 300 DEG, 7 KT, VRB BTN 260 AND 320 DEG. VIS TDZ 10 KM OR MORE. WX FBL SHRA. CLD FEW 900 FT, CLD SCT CB 3500 FT. T 13. DP 12. QNH 1007. NOSIG. CAUTION. BIRD ACT LIGHT ICING REPORTED BTN FL 120 AND FL 140. END OF EPWA ARR K\n[Departure ATIS] EPWA DEP ATIS Z 1456Z EPWA DEP Z. TIME 1455. DEP RWY 29. ARR RWY 33, EXP U ARR ILS Z. REPORT READY FOR STARTUP ON DELIVERY 121. 605. RWY 29 RCC 5, 5, 5. 1ST PART, WET. 2ND PART, WET. 3RD PART, WET. RWY REPORT END. TRANSITION LEVEL 80. WIND 290 DEG, 18 KT GUSTING FM 13 KT TO 29 KT. VIS MID 10 KM OR MORE. CLD FEW 1500 FT, CLD SCT CB 3800 FT. T 17. DP 11. QNH 1007. TREND TEMPO WIND 300 DEG, 22 KT, GUSTING TO 35 KT. CAUTION. BIRD ACT. END OF EPWA DEP Z",
    "EFHK": "[Arrival ATIS] EFHK ARR ATIS B 0350Z EXPECT ILS APCH ARR RWY 22L RUNWAY 22L CONDITION REPORT AT 0200 UTC RUNWAY CONDITION CODES 6 , 6 , 6 CONTAMINANTS ALL PARTS DRY TRL 60 WIND 220 DEG 6 KT CAVOK T 16 DP 12 QNH 1018 NOSIG ACK INFO B\n[Departure ATIS] EFHK DEP ATIS H 1620Z DEP RWYS 22R AND 22L RUNWAY 22R CONDITION REPORT AT 1329 UTC RUNWAY CONDITION CODES 6 , 6 , 6 CONTAMINANTS ALL PARTS DRY RUNWAY 22L CONDITION REPORT AT 1330 UTC RUNWAY CONDITION CODES 6 , 6 , 6 CONTAMINANTS ALL PARTS DRY WIND 110 DEG 6 KT VIS 10KM FEW 1400 FT. SCT 1600 FT. FEW TCU 2800 FT T 19 DP 15 QNH 1003 TEMPO CLD FEW CB 3000 FT. ACK INFO H",
    "LTAC": "[Arrival ATIS] LTAC ARR ATIS A 0350Z EXP ILS V APCH 03C DEP RWY 03L RWY 03C WIND VRB 01 KT RWY 03L WIND CALM TRL 115 CAVOK T 14 DP 09 QNH 1011 NOSIG FOR DELIVERY CTC 121.9. FOR DELIVERY FIRST USE DIGITAL DEP CLR. CTN BIRD HAZARD OVR AERODROME. APCH FREQUENCY 129.050. TAXIWAY ECHO 1 IS CLOSED. END OF ATIS A",
    "UBBB": "[Arrival ATIS] UBBB ARR ATIS L 0430Z ATIS L EXP ILS/ LDG 34 35 DEP 34 35 IN USE RWY 34 CLEAR DRY 70 RWY 35 CLEAR DRY 70 TLVL 110 WIND WIND RWY 34 340 14 KT SPD MAX 16 MIN 10 WIND RWY 35 340 12 KT SPD MAX 14 MIN 10 VIS 10 KM FEW CB 6000 FT RWY 34 FEW CB 6000 FT RWY 35 T 29 / DP 17 QNH 1011 HPA TREND TREND NOSIG MODERATE BIRDS ACT IN VICINITY OF AP END OF ATIS L\n[Departure ATIS] UBBB DEP ATIS P 0430Z ATIS P EXP ILS/ LDG 34 35 DEP 34 35 IN USE RWY 34 CLEAR DRY 70 RWY 35 CLEAR DRY 70 TLVL 110 WIND WIND RWY 34 330 16 KT SPD MAX 20 MIN 12 WIND RWY 35 310 14 KT SPD MAX 20 MIN 10 VIS CAVOK T 25 / DP 19 QNH 1007 HPA TREND TREND NOSIG MODERATE BIRDS ACT IN VICINITY OF AP END OF ATIS P",
    "ZWWW": "[Arrival ATIS] ZWWW ARR ATIS N 0430Z EXP ILSDME Z APCH LDG RWY 26R TA 3000 WIND 020/4MPS CAVOK T 33 /DP 08 QNH 1010 HPA ADZ YOU HAVE INFO N.\n[Departure ATIS] ZWWW DEP ATIS H 0300Z DEP RWY 26L TA 3000 WIND 020/3MPS VRB BTN 340/ AND 040/ CAVOK T 33 /DP 09 QNH 1010 HPA ADZ YOU HAVE INFO H.",
    "ZLXY": "[Arrival ATIS] ZLXY ARR ATIS H 0400Z EXP ILS APCH LDG RWY 05L & 06R WIND VRB/1MPS VIS 9999M CLD SCT 1500M T 26 /DP 19 QNH 1011 HPA VISUAL APPROACH IN PROGRESS ADZ YOU HAVE INFO H.\n[Departure ATIS] ZLXY DEP ATIS D 0009Z DEP RWY 05L & 06L WIND 050/3MPS VIS 8000M NSC T 24 /DP 19 QNH 1009 HPA VISUAL APPROACH IN PROGRESS ADZ YOU HAVE INFO D.",
    "ZBAA": "[Arrival ATIS] ZBAA ARR ATIS O 0430Z EXP ILS APCH DEPENDENT PARL INSTR APCH LDG RWY 36L & 36R & 01 WIND 030 DEG 4 MPS 350V070 DEG CAVOK T 26 /DP 13 QNH 1006 HPA VISUAL APPROACH IS IN PROGRESS. ADZ YOU HAVE INFO O.\n[Departure ATIS] ZBAA DEP ATIS P 0500Z DEP RWY 36L & 36R & 01 WIND 050 DEG 3 MPS 010V080 DEG CAVOK T 27 /DP 13 QNH 1006 HPA RWY INDEPENDENT PARALLEL DEP VISUAL APPROACH IS IN PROGRESS. ADZ YOU HAVE INFO P.",
    "ZBHH": "[Arrival ATIS] ZBHH ARR ATIS X 0300Z EXP ILSDME APCH LDG RWY 26 TA 3000 /TRL 3600 WIND 340/5MPS CAVOK T 16 /DP 01 QNH 1016 HPA ADZ YOU HAVE INFO X.\n[Departure ATIS] ZBHH DEP ATIS T 2300Z DEP RWY 26 TA 3000 /TRL 3600 WIND 330/5MPS VRB BTN 280/ AND 360/ CAVOK T 10 /DP M01 QNH 1015 HPA ADZ YOU HAVE INFO T.",
    "ZSQD": "[Arrival ATIS] ZSQD ARR ATIS A 0500Z EXP ILSDME APCH LDG RWY 35 TA 3000 /TRL 3600 WIND 320/5MPS MAX10 VIS 9999M CLD BKN 1500M T 32 /DP 18 QNH 1003 HPA SEGREGATED OPERATION VISUAL APPROACH OPERATION IN PROGRESS. RUNWAY 35,IF MISSED APPROACH,EXPECT FOLLOW THE STANDARD MISSED APPROACH PROCEDURE,CLIMB TO 1200M ON QNH OR BY ATC CAUTION MAYBE THERE IS A FLOCK OF BIRDS IN THE VICINITY OF AIRPORT ADZ YOU HAVE INFO A.\n[Departure ATIS] ZSQD DEP ATIS Z 0400Z DEP RWY 34 TA 3000 /TRL 3600 WIND 290/4MPS VIS 9999M CLD BKN 1200M T 29 /DP 18 QNH 1003 HPA SEGREGATED OPERATION VISUAL APPROACH OPERATION IN PROGRESS. RUNWAY 35,IF MISSED APPROACH,EXPECT FOLLOW THE STANDARD MISSED APPROACH PROCEDURE,CLIMB TO 1200M ON QNH OR BY ATC CAUTION MAYBE THERE IS A FLOCK OF BIRDS IN THE VICINITY OF AIRPORT ADZ YOU HAVE INFO Z."
  },
  "windtemp_alaska": "\n000\nFBAK31 KWNO 090158\nFD1AK1\nDATA BASED ON 090000Z    \nVALID 090600Z   FOR USE 0200-0900Z. TEMPS NEG ABV 24000\n\nFT  3000    6000    9000   12000   18000   24000  30000  34000  39000\nADK 1408 1611+04 2113+03 2216-01 2332-13 2440-25 255740 246151 246157\nADQ 0116 0214-01 0320-04 0424-08 0221-20 0127-32 022648 342147 321842\nAKN 3007 3105+00 9900-03 3607-07 3316-18 3516-31 341948 332052 311945\nANC 9900 3005+01 3206-04 3608-09 0413-20 0420-32 053849 052650 020843\nANN 1729 1726+00 2121-02 2526-07 2635-18 2646-31 265245 265047 273644\nBET 0108 0318+04 0321-02 0515-07 0305-18 2906-31 990047 990054 291445\nBRW 1105 9900+06 1910+00 2117-07 2228-18 2334-30 224346 224154 211647\nBTI 0608 3609+10 3308+03 3008-04 2311-15 2315-27 232345 232055 212053\nBTT 3210 3209+11 0106+03 1011-04 0809-16 1010-28 121546 111656 141452\nCDB 3224 3225+02 3123+00 3029-04 2940-17 2951-29 308243 298752 295451\nCZF 2709 2310+04 2109-02 1909-08 2105-20 1709-32 161748 181251 250846\nEHM 3127 3119+03 3120-02 3119-06 3015-18 2611-31 261347 282151 292346\nFAI 2521 3017+05 0222+00 0625-04 0821-16 0824-29 083247 114556 101648\nFYU 3405 0309+11 0618+03 0716-03 0919-16 1122-28 112445 144256 131953\nGAL 3608 0311+06 0710+01 0908-04 0912-18 1115-30 133247 133356 120647\nGKN 1910 2508+02 2807-03 3107-09 0414-21 0725-32 074349 073347 081244\nHOM 9900 1006+01 0313-04 0418-09 0420-20 0324-32 052649 011549 331143\nJNU 1507 1911-01 9900-05 9900-10 0610-22 0612-35 272345 261243 240842\nLUR 2011 2014+06 2014-01 2016-06 2023-19 2031-32 204347 203753 221145\nMCG 2529 3217+05 0108+00 9900-06 0611-18 1022-31 114947 103753 990046\nMDO 1011 0710-01 0711-05 0613-09 0723-23 0732-35 062847 030844 010541\nOME 3207 9900+05 2006-01 2007-06 1910-20 1815-31 171846 161855 210746\nORT      2915+03 3014-02 3409-07 0822-19 1045-31 087147 095151 111744\nOTZ 3109 9900+06 2305+00 2208-06 2011-18 1918-31 172247 171555 210847\nSNP 2511 2609+02 2615-01 2716-05 2730-18 2740-30 276644 267152 264151\nTKA 2210 2510+02 3108-03 3511-08 0417-19 0624-30 074948 074253 061045\nUNK 3013 3507+06 0105+00 9900-05 0706-18 1007-31 112148 100855 990047\nYAK 9900 2605-01 9900-05 9900-09 0815-21 0920-35 081248 990044 990042\nIKO 9900 2507+04 2612+03 2615-01 2630-14 2637-25 264642 264751 275658\nAFM 2908 9900+08 9900+01 1806-05 1708-17 1713-29 172447 172856 170949\n5AB 9900 9900+03 2106+00 2010-04 2128-17 2236-27 214342 214552 223852\n5AC 2623 2628+07 2635+03 2640-01 2753-15 2758-27 289540 279949 288852\n5AD 2725 2725-01 2728-01 2635-06 2649-20 2670-32 268243 266742 275842\n5AE 3222 3218+01 3221-03 3231-07 3340-21 3341-34 315743 305343 304644\n5AF 1321 1315+00 1406-03 9900-08 2620-20 2627-32 253745 264045 273141\n5AG 1214 1117-01 1114-05 1010-10 9900-21 3305-33 170846 240945 261041\n",
  "vaac_tokyo": [
    {
      "id": "20260708_30027000_0250",
      "year": "2026",
      "volcano": "Sheveluch",
      "psn": "N5639 E16122",
      "issued": "20260708",
      "text": "FVFE01 RJTD 081200\nVA ADVISORY\nDTG: 20260708/1200Z\nVAAC: TOKYO\nVOLCANO: SHEVELUCH 300270\nPSN: N5639 E16122\nAREA: RUSSIA\nSOURCE ELEV: 3283M AMSL\nADVISORY NR: 2026/250\nINFO SOURCE: HIMAWARI-9\nERUPTION DETAILS: VA CONTINUOUSLY OBS IN SATELLITE IMAGERY\nOBS VA DTG: 08/1120Z\nOBS VA CLD: SFC/FL280 N4932 E16000 - N5148 E16308 - N5423 E16933 - \nN5505 E17221 - N5306 E16745 - N5124 E16330 - N4901 E16026 MOV S 15KT \nSFC/FL230 N5012 E15831 - N5147 E16001 - N5139 E16025 - N4958 E15846 \nMOV S 35KT\nFCST VA CLD +6 HR: 08/1720Z SFC/FL280 N5555 E17556 - N5122 E16443 - \nN4646 E16257 - N4644 E16020 - N5129 E16251 - N5527 E17145 SFC/FL230 \nN5039 E16039 - N4856 E16039 - N4702 E15922 - N4719 E15818 - N4901 \nE15944 - N5038 E15950\nFCST VA CLD +12 HR: 08/2320Z SFC/FL280 N5645 W17953 - N5244 E16736 - \nN4651 E16724 - N4426 E16156 - N5133 E16228 - N5635 E17408 SFC/FL220 \nN4702 E16223 - N4456 E16046 - N4502 E15939 - N4745 E16119 - N4914 \nE16026 - N4946 E16119\nFCST VA CLD +18 HR: NO VA EXP\nRMK: THE RESPONSIBILITY FOR VA(FL280) IS BEING TRANSFERRED TO VAAC \nANCHORAGE. THE NEXT ADVISORY FOR THIS VA WILL BE ISSUED BY VAAC \nANCHORAGE BY 1800UTC UNDER HEADER FVAK21 PAWU. NORTHERN PART OF \nVA(FL230) OBSCURED BY MET CLOUD.\nNXT ADVISORY: 20260708/1800Z=",
      "img_url": "https://ds.data.jma.go.jp/svd/vaac/data/VAGFN/2026/Images/20260708_30027000_0250_QH21_01.png",
      "sat_img_url": "https://ds.data.jma.go.jp/svd/vaac/data/Sat/2026/Images/30027000/09-ir/20260708_1120_202607081200_ir.png",
      "text_url": "https://ds.data.jma.go.jp/svd/vaac/data/TextData/2026/20260708_30027000_0250_Text.html"
    },
    {
      "id": "20260706_27202000_0232",
      "year": "2026",
      "volcano": "Kanlaon",
      "psn": "N1025 E12308",
      "issued": "20260706",
      "text": "FVFE01 RJTD 061545\nVA ADVISORY\nDTG: 20260706/1545Z\nVAAC: TOKYO\nVOLCANO: KANLAON 272020\nPSN: N1025 E12308\nAREA: PHILIPPINES\nSOURCE ELEV: 2435M AMSL\nADVISORY NR: 2026/232\nINFO SOURCE: HIMAWARI-9 PHIVOLCS\nERUPTION DETAILS: ERUPTION AT 20260706/1520Z FL100 EXTD SW REPORTED\nOBS VA DTG: 06/1530Z\nOBS VA CLD: VA NOT IDENTIFIABLE FM SATELLITE DATA WIND FL100 350/5KT\nFCST VA CLD +6 HR: NOT AVBL\nFCST VA CLD +12 HR: NOT AVBL\nFCST VA CLD +18 HR: NOT AVBL\nRMK: WE WILL ISSUE FURTHER ADVISORY IF VA IS DETECTED IN SATELLITE \nIMAGERY.\nNXT ADVISORY: NO FURTHER ADVISORIES=",
      "img_url": "https://ds.data.jma.go.jp/svd/vaac/data/VAGFN/2026/Images/20260706_27202000_0232_QH21_01.png",
      "sat_img_url": null,
      "text_url": "https://ds.data.jma.go.jp/svd/vaac/data/TextData/2026/20260706_27202000_0232_Text.html"
    },
    {
      "id": "20260705_27303000_0717",
      "year": "2026",
      "volcano": "Mayon",
      "psn": "N1315 E12341",
      "issued": "20260705",
      "text": "FVFE01 RJTD 051936\nVA ADVISORY\nDTG: 20260705/1936Z\nVAAC: TOKYO\nVOLCANO: MAYON 273030\nPSN: N1315 E12341\nAREA: PHILIPPINES\nSOURCE ELEV: 2462M AMSL\nADVISORY NR: 2026/717\nINFO SOURCE: HIMAWARI-9 PHIVOLCS\nERUPTION DETAILS: ERUPTION AT 20260705/1914Z FL090 EXTD WSW REPORTED\nOBS VA DTG: 05/1920Z\nOBS VA CLD: VA NOT IDENTIFIABLE FM SATELLITE DATA WIND FL090 050/8KT\nFCST VA CLD +6 HR: NOT AVBL\nFCST VA CLD +12 HR: NOT AVBL\nFCST VA CLD +18 HR: NOT AVBL\nRMK: WE WILL ISSUE FURTHER ADVISORY IF VA IS DETECTED IN SATELLITE \nIMAGERY.\nNXT ADVISORY: NO FURTHER ADVISORIES=",
      "img_url": "https://ds.data.jma.go.jp/svd/vaac/data/VAGFN/2026/Images/20260705_27303000_0717_QH21_01.png",
      "sat_img_url": null,
      "text_url": "https://ds.data.jma.go.jp/svd/vaac/data/TextData/2026/20260705_27303000_0717_Text.html"
    },
    {
      "id": "20260701_30006000_0001",
      "year": "2026",
      "volcano": "Mutnovsky",
      "psn": "N5227 E15812",
      "issued": "20260701",
      "text": "FVFE01 RJTD 012206\nVA ADVISORY\nDTG: 20260701/2206Z\nVAAC: TOKYO\nVOLCANO: MUTNOVSKY 300060\nPSN: N5227 E15812\nAREA: RUSSIA\nSOURCE ELEV: 2288M AMSL\nADVISORY NR: 2026/1\nINFO SOURCE: KVERT KBGS UHPP HIMAWARI-9\nERUPTION DETAILS: ERUPTION AT 20260701/2016Z FL170 EXTD W REPORTED\nOBS VA DTG: 01/2140Z\nOBS VA CLD: VA NOT IDENTIFIABLE FM SATELLITE DATA WIND FL170 120/8KT\nFCST VA CLD +6 HR: NOT AVBL\nFCST VA CLD +12 HR: NOT AVBL\nFCST VA CLD +18 HR: NOT AVBL\nRMK: WE WILL ISSUE FURTHER ADVISORY IF VA IS DETECTED IN SATELLITE \nIMAGERY.\nNXT ADVISORY: NO FURTHER ADVISORIES=",
      "img_url": "https://ds.data.jma.go.jp/svd/vaac/data/VAGFN/2026/Images/20260701_30006000_0001_QH21_01.png",
      "sat_img_url": null,
      "text_url": "https://ds.data.jma.go.jp/svd/vaac/data/TextData/2026/20260701_30006000_0001_Text.html"
    }
  ],
  "vaac_alaska": [
    {
      "text": "\n000\nFVAK21 PAWU 090528\nVAAAK1\nVA ADVISORY\n\nDTG: 20260709/0530Z\n\nVAAC: ANCHORAGE\n\nVOLCANO: SHEVELUCH 300270\n\nPSN: N5639 E16122\n\nAREA: KAMCHATKA PENINSULA\n\nSOURCE ELEV: 10771 FT AMSL\n\nADVISORY NR: 2026/188\n\nINFO SOURCE: HIMAWARI/GOES\n\nERUPTION DETAILS: VA CONTINUOUSLY OBS IN SATELLITE IMAGERY\n\nOBS VA DTG: 09/0530Z\n\nOBS VA CLD: SFC/FL280 N5042 E16547 - N4625 E16715 - N4515 E16633\n- N4813 E16539 - N5041 E16532 - N5042 E16547 MOV E 20KT\n\nFCST VA CLD +6HR: 09/1130Z SFC/FL280 N5052 E17237 - N4734 E17259\n- N4358 E16759 - N5107 E16635 - N5052 E17237 - N5052 E17237\n\nFCST VA CLD +12HR: 09/1730Z NO VA EXP\n\nFCST VA CLD +18HR: 09/2330Z NO VA EXP\n\nRMK: NIL...BS\n\nNXT ADVISORY: WILL BE ISSUED BY 20260709/1130Z=\n\n",
      "issued": "2026-07-09T05:28:00+00:00",
      "volcano": "Sheveluch",
      "psn": "N5639 E16122"
    }
  ]
}