{
  "updated_utc": "2026-07-02T09:55Z",
  "metar": {
    "RJAA": "METAR RJAA 020800Z 02011KT 3000 R34L/P2000N R34R/2000N -DZRA BR FEW002 BKN003 BKN004 21/20 Q1004 NOSIG",
    "PANC": "METAR PANC 020853Z 21008KT 10SM FEW070 FEW240 12/04 A2980 RMK AO2 SLP093 T01220039 401830061 53003",
    "PAFA": "METAR PAFA 020853Z 00000KT 10SM BKN075 BKN090 15/08 A2972 RMK AO2 SLP066 VIRGA E T01500083 402220061 56001",
    "PAED": "METAR PAED 020855Z 22006KT 10SM FEW150 10/06 A2978 RMK AO2A SLP081 T01040062 401930066 50003 $",
    "KSEA": "SPECI KSEA 020837Z 20006KT 10SM OVC028 13/11 A3006 RMK AO2 T01280106 $",
    "ZSPD": "METAR ZSPD 020800Z 17005MPS 9999 -SHRA NSC 26/26 Q1010 NOSIG",
    "ZSSS": "METAR ZSSS 020800Z 19004MPS 3500 -SHRA BR FEW008 27/26 Q1010 RESHRA NOSIG",
    "RJFR": "METAR RJFR 020800Z 30014KT 9999 FEW015 SCT050 BKN/// 24/21 Q1010",
    "VHHH": "METAR VHHH 020800Z 12018KT 9999 FEW018 SCT028 32/25 Q1008 NOSIG",
    "RCTP": "METAR RCTP 020800Z 29008KT 9999 FEW020 BKN060 31/25 Q1011 NOSIG RMK A2986",
    "ZGSZ": "METAR ZGSZ 020800Z 13006G14MPS 100V160 9999 BKN030 34/25 Q1007 NOSIG",
    "WSSS": "METAR WSSS 020800Z 18007KT 160V220 9999 FEW018 BKN160 29/24 Q1009 NOSIG",
    "WMKK": "METAR WMKK 020800Z VRB05KT 9999 FEW017CB 32/25 Q1007 NOSIG",
    "WIDD": "METAR WIDD 020800Z 16007KT 9999 SCT014 29/23 Q1009 NOSIG",
    "VTBS": "METAR VTBS 020800Z 19012KT 9999 FEW020 SCT040 32/23 Q1004 NOSIG",
    "VTBU": "METAR VTBU 020800Z 25012KT 9999 FEW020 32/27 Q1005 NOSIG",
    "ROAH": "METAR ROAH 020800Z 21007KT 9999 FEW012 30/27 Q1013",
    "VVDN": "METAR VVDN 020800Z 02012KT 9999 FEW020 33/26 Q1003 NOSIG",
    "RCKH": "METAR RCKH 020800Z 17013G24KT 100V210 CAVOK 33/24 Q1009 NOSIG RMK A2982",
    "KLAX": "SPECI KLAX 020828Z 25008KT 10SM FEW011 BKN016 17/14 A2992 RMK AO2 T01720144 $",
    "KONT": "METAR KONT 020853Z 26004KT 10SM OVC011 17/14 A2993 RMK AO2 SLP125 T01670139 58002 $",
    "KSFO": "METAR KSFO 020756Z 20006KT 10SM FEW016 14/11 A2991 RMK AO2 SLP127 T01440106 402170128 $",
    "KOAK": "SPECI KOAK 020828Z 20009KT 10SM FEW001 SCT018 BKN032 16/12 A2991 RMK AO2 FU FEW001 T01610117",
    "KMHR": "METAR KMHR 020815Z 15005KT 10SM CLR 14/10 A2984 RMK AO2 T01390105",
    "KDFW": "METAR KDFW 020853Z 17008KT 10SM CLR 27/21 A2997 RMK AO2 SLP139 T02720206 50007 $",
    "KIAH": "METAR KIAH 020853Z 00000KT 10SM FEW025 SCT250 25/24 A2999 RMK AO2 SLP155 T02500239 55008",
    "KORD": "METAR KORD 020851Z 20005KT 10SM CLR 27/23 A3000 RMK AO2 SLP152 T02670228 51006 $",
    "KJFK": "METAR KJFK 020851Z 21007KT 10SM SCT250 26/23 A2997 RMK SLP147 T02560233 58007 $",
    "KRFD": "METAR KRFD 020854Z 17005KT 10SM SCT050 25/23 A3001 RMK AO2 SLP155 T02500228 52004",
    "KIND": "METAR KIND 020854Z 21005KT 10SM CLR 24/23 A3007 RMK AO2 SLP175 T02440233 53007",
    "KDTW": "METAR KDTW 020853Z 22008KT 8SM FEW040 SCT240 25/22 A3003 RMK AO2 SLP162 T02500217 51010",
    "KMSP": "METAR KMSP 020853Z 00000KT 10SM CLR 22/21 A2989 RMK AO2 SLP116 T02220206 50007",
    "CYEG": "METAR CYEG 020800Z 31003KT 20SM BKN073 BKN100 14/13 A2982 RMK AC5AC2 SLP103 DENSITY ALT 2900FT",
    "EHAM": "METAR EHAM 020825Z 25017G28KT 210V280 9000 -RADZ FEW008 SCT010 OVC016 18/16 Q1017 REDZRA NOSIG",
    "EBBR": "METAR EBBR 020820Z 23014KT 9999 SCT028 BKN043 19/13 Q1021 NOSIG",
    "EDDF": "METAR EDDF 020820Z AUTO 22007KT 160V280 CAVOK 24/12 Q1021 NOSIG",
    "EDFH": "METAR EDFH 020820Z 26011KT 200V320 CAVOK 21/11 Q1023",
    "EDDL": "METAR EDDL 020820Z AUTO 23017KT 9999 FEW040 23/13 Q1019 TEMPO 22015G25KT",
    "EDDK": "METAR EDDK 020820Z AUTO 27011KT 240V300 9999 FEW042 SCT049 23/14 Q1021 NOSIG",
    "EBLG": "METAR EBLG 020820Z 23014KT 9999 FEW025 21/13 Q1022 NOSIG",
    "LSZH": "METAR LSZH 020820Z VRB02KT 9999 FEW035 22/13 Q1024 NOSIG",
    "LIMC": "METAR LIMC 020820Z 22005KT 170V260 CAVOK 26/13 Q1017 NOSIG",
    "LIRF": "METAR LIRF 020820Z 04012KT 9999 FEW050 23/19 Q1010 NOSIG",
    "EINN": "METAR EINN 020800Z 31009KT 9999 FEW015 SCT018 BKN025 14/10 Q1026 NOSIG",
    "EGLL": "METAR EGLL 020820Z AUTO 30013KT 9999 SCT019 BKN024 OVC028 19/16 Q1020",
    "EGSS": "METAR EGSS 020820Z AUTO 29014G24KT 250V320 9999 FEW024 BKN030 BKN040 21/13 Q1019",
    "EPWA": "METAR EPWA 020800Z 29010KT CAVOK 19/15 Q1016 NOSIG",
    "UHPP": "METAR UHPP 020800Z 15006MPS CAVOK 14/05 Q1018 R16R/CLRD62 NOSIG RMK QFE760/1013",
    "EFHK": "METAR EFHK 020820Z 03007KT 350V070 9999 BKN017 18/14 Q1010 NOSIG",
    "LBBG": "METAR LBBG 020800Z 17008KT 140V200 9999 FEW049 28/18 Q1010 NOSIG",
    "LTAC": "METAR LTAC 020820Z 18005KT 140V240 9999 FEW040 30/11 Q1011 NOSIG RMK RWY21C VRB03KT RWY03L 18005KT 090V240 RWY21R VRB04KT RWY03R 29005KT 230V330 RWY21L 25007KT 200V320",
    "UBBB": "METAR UBBB 020800Z 20010KT CAVOK 32/12 Q1009 NOSIG",
    "UTAA": "METAR UTAA 020800Z 29008KT 9999 SCT050 BKN100 28/11 Q1011 R88/CLRD70 NOSIG",
    "UACC": "METAR UACC 020800Z 05004MPS 020V080 9999 VCTS SCT036CB BKN046 27/16 Q1000 RETS TEMPO VRB18MPS 3100 -TSRA SQ BKN020CB RMK QFE719/0959",
    "UAAA": "METAR UAAA 020800Z 32002MPS 9999 SCT050CB BKN100 30/16 Q1005 NOSIG",
    "UZTT": "METAR UZTT 020800Z 29004KT 230V360 9999 -SHRA BKN066CB 22/13 Q1012 NOSIG",
    "ZWWW": "METAR ZWWW 020800Z 34004MPS 290V010 CAVOK 34/15 Q1006 NOSIG",
    "ZLXY": "METAR ZLXY 020800Z 20003MPS 170V240 9999 SCT040 30/17 Q1009 NOSIG",
    "ZBAA": "METAR ZBAA 020800Z 14004MPS 120V180 CAVOK 34/24 Q1004 NOSIG",
    "ZBHH": "METAR ZBHH 020800Z 21003MPS 180V240 9999 FEW040 32/13 Q1009 NOSIG",
    "ZSQD": "METAR ZSQD 020800Z 16008MPS CAVOK 29/23 Q1007 NOSIG",
    "ZMCK": "METAR ZMCK 020800Z 32008MPS 9999 FEW030CB FEW033 28/11 Q1011 NOSIG RMK QFE643.3 34 MOP",
    "UUEE": "METAR UUEE 020800Z 19003MPS 130V260 CAVOK 27/14 Q1013 R06R/CLRD62 R06C/CLRD62 NOSIG",
    "UUDD": "METAR UUDD 020800Z 17003MPS 140V200 CAVOK 28/16 Q1013 WS R13R R13R/CLRD65 NOSIG",
    "ULLI": "METAR ULLI 020800Z 09005MPS 9000 -SHRA FEW010 BKN020CB OVC040 16/15 Q1008 R88/290050 NOSIG",
    "USSS": "METAR USSS 020800Z 02004MPS 340V050 9999 SCT027CB 21/16 Q1005 R08R/210060 R08L/290040 TEMPO -TSRA RMK QFE734/0979",
    "UNNT": "METAR UNNT 020800Z 13002MPS 9999 SCT036 28/14 Q1009 R25/CLRD// R34/////// NOSIG RMK QFE746/0995",
    "UNKL": "METAR UNKL 020800Z 30001MPS 9999 SCT049 28/13 Q1008 R29/CLRD// NOSIG RMK QFE731",
    "UIBB": "METAR UIBB 020800Z 30002MPS 250V350 9999 TS BKN040CB 20/18 Q1007 R30/290151 NOSIG RMK QFE713/0951",
    "UEEE": "METAR UEEE 020800Z 03005MPS CAVOK 30/09 Q1001 R05/09//62 NOSIG RMK QFE742",
    "UHHH": "METAR UHHH 020800Z 32002MPS 260V020 CAVOK 28/14 Q1006 R23R/090060 NOSIG RMK QFE749/0998",
    "UHSS": "METAR UHSS 020800Z 19003MPS 9999 NSC 15/10 Q1013 R19/CLRD70 NOSIG RMK QFE758/1011"
  },
  "taf": {
    "RJAA": "TAF AMD RJAA 020748Z 0207/0312 02010KT 8000 -RA FEW003 BKN012 TEMPO 0207/0212 4000 -RA BR FEW001 BKN003 TEMPO 0212/0221 FEW002 BKN005 TEMPO 0221/0300 FEW003 BKN008",
    "PANC": "TAF PANC 020541Z 0206/0312 23006KT P6SM FEW045 FEW060 FEW200 FM021200 18005KT P6SM FEW050 SCT160 FM022000 27007KT P6SM FEW050 BKN140 FM030400 16010G18KT P6SM FEW050 BKN100 FM031000 18005KT P6SM VCSH BKN050",
    "PAFA": "TAF PAFA 020535Z 0206/0312 VRB04KT P6SM FEW070 FM030000 33004KT P6SM VCSH SCT060",
    "PAED": "TAF PAED 020500Z 0205/0311 23008KT 9999 SCT055 QNH2967INS WND 02006KT AFT 0212 BECMG 0301/0302 24009KT 9999 -RA SCT050 BKN075 OVC100 620802 QNH2969INS BECMG 0308/0309 22008KT 9999 -SHRA FEW030 SCT045 OVC060 620802 QNH2975INS TX17/0300Z TN07/0213Z",
    "KSEA": "TAF KSEA 020905Z 0209/0312 19006KT P6SM OVC028 FM021500 21006KT P6SM SCT025 BKN040 FM021800 20009KT P6SM SCT040 BKN080 FM022300 24006KT P6SM BKN040",
    "ZSPD": "TAF ZSPD 020302Z 0206/0312 18004MPS 6000 BKN015 TX30/0206Z TX29/0306Z TN24/0221Z",
    "ZSSS": "TAF ZSSS 020302Z 0206/0312 18004MPS 6000 BKN015 TX31/0206Z TX30/0306Z TN25/0221Z",
    "RJFR": "TAF RJFR 020505Z 0206/0312 31010KT 9999 FEW025",
    "VHHH": "TAF VHHH 020800Z 0209/0315 12020KT 9999 FEW015 SCT030 TX31/0306Z TN27/0222Z TEMPO 0209/0215 3500 SHRA FEW010CB SCT020 TEMPO 0218/0224 12020G30KT 2500 SHRA FEW008CB SCT020 TEMPO 0300/0306 13020G30KT 2500 SHRA FEW008CB SCT020 TEMPO 0306/0315 13025G35KT 1500 TSRA +SHRA FEW008CB SCT015",
    "RCTP": "TAF RCTP 020500Z 0206/0312 31005KT 9999 FEW015 BKN032 TEMPO 0207/0211 15005KT 5000 SHRA FEW012 FEW015TCU BKN020 BKN050 BECMG 0211/0213 21005KT BECMG 0301/0303 31005KT TEMPO 0308/0312 15005KT FEW012 FEW015TCU BKN020 BKN050",
    "ZGSZ": "TAF ZGSZ 020315Z 0206/0312 12006MPS 8000 SCT040 TX34/0206Z TX32/0306Z TN29/0222Z TEMPO 0222/0302 SHRA FEW025CB BKN030 TEMPO 0303/0307 TSRA SCT020 FEW020CB BKN030",
    "WSSS": "TAF WSSS 020500Z 0206/0312 20007KT 9999 FEW015 SCT020",
    "WMKK": "TAF WMKK 020500Z 0206/0312 19005KT 9000 FEW017CB SCT018 BECMG 0211/0213 VRB03KT 9999 FEW030",
    "VTBS": "TAF VTBS 020500Z 0206/0312 22008KT 9999 FEW020 TEMPO 0210/0216 VRB15G25KT 3000 TSRA FEW018CB SCT030 BKN100 TEMPO 0308/0312 VRB15KT 3000 TSRA FEW018CB SCT030 BKN100",
    "VTBU": "TAF VTBU 020500Z 0206/0306 23010KT 9999 FEW020",
    "ROAH": "TAF ROAH 020505Z 0206/0312 21008KT 9999 FEW010 TEMPO 0215/0300 FEW005 BKN008",
    "VVDN": "TAF AMD VVDN 020940Z 0210/0306 02013KT 9999 SCT020 BECMG 0212/0213 25007KT TEMPO 0218/0302 4000 SHRA BKN013 FEW017CB BKN050",
    "RCKH": "TAF RCKH 020500Z 0206/0312 21010KT 9999 FEW015 BKN032 TEMPO 0206/0210 15010KT 3200 TSRA SCT008 FEW015CB BKN016 BKN040 BECMG 0210/0212 09005KT BECMG 0301/0303 17010KT",
    "KLAX": "TAF KLAX 020851Z 0209/0312 25006KT P6SM OVC015 FM022000 26012KT P6SM SCT022 FM030700 26010KT P6SM BKN018 BKN025",
    "KONT": "TAF KONT 020752Z 0208/0312 VRB05KT P6SM SCT015 TEMPO 0208/0210 BKN013 FM021000 VRB04KT P6SM OVC012 FM021630 VRB05KT P6SM SCT020 FM022100 25010KT P6SM SKC FM030400 25005KT P6SM SKC",
    "KSFO": "TAF KSFO 020901Z 0209/0312 21006KT P6SM SCT015 TEMPO 0212/0215 BKN015 FM021900 27015KT P6SM FEW020 FM030300 28011KT P6SM FEW012 FM030900 28006KT P6SM FEW007",
    "KOAK": "TAF KOAK 020922Z 0209/0312 17006KT P6SM FEW015 FM021200 23008KT P6SM BKN015 FM021800 24007KT P6SM SCT020 FM022000 28012KT P6SM FEW020 FM031100 27005KT P6SM OVC010",
    "KMHR": "TAF KMHR 020602Z 0206/0306 17009KT P6SM SKC",
    "KDFW": "TAF KDFW 020847Z 0209/0312 17010KT P6SM FEW060 SCT250",
    "KIAH": "TAF KIAH 020853Z 0209/0312 16003KT P6SM FEW020 FEW050 FM021500 17005KT P6SM SCT030 SCT060 FM021800 17009KT P6SM VCTS SCT035CB PROB30 0218/0224 6SM -TSRA BR BKN030CB FM030000 14007KT P6SM FEW030 SCT050 FM030800 17003KT P6SM FEW020 SCT035",
    "KORD": "TAF KORD 020855Z 0209/0312 21008KT P6SM FEW300 TEMPO 0212/0214 01007KT FEW020 SCT040 FM021700 23012G21KT P6SM SCT040 SCT250 FM030100 22010KT P6SM SCT040 BKN200 PROB30 0308/0311 6SM -TSRA SCT040CB",
    "KJFK": "TAF KJFK 020851Z 0209/0312 20005KT P6SM FEW250 FM021000 24005KT P6SM FEW250 FM021200 29006KT P6SM FEW250 FM021500 23008KT P6SM FEW250 FM021700 20012KT P6SM FEW250 FM021900 19017KT P6SM FEW250 FM030100 20009KT P6SM FEW250 FM030300 25007KT P6SM FEW250 FM030600 31006KT P6SM FEW250",
    "KRFD": "TAF KRFD 020855Z 0209/0306 21008KT P6SM FEW025 FEW250 FM021700 23012G21KT P6SM SCT040 SCT250 FM030000 22010KT P6SM SCT040 BKN200",
    "KIND": "TAF KIND 020520Z 0206/0312 20007KT P6SM SKC FM021500 23009KT P6SM FEW250",
    "KDTW": "TAF KDTW 020911Z 0209/0312 23008KT P6SM SKC FM021600 24013G20KT P6SM SCT045 FM030000 25007KT P6SM SCT060",
    "KMSP": "TAF KMSP 020837Z 0209/0312 15003KT P6SM SKC FM021600 17006KT P6SM SCT250 FM022200 20008KT P6SM FEW080 SCT250",
    "CYEG": "TAF CYEG 020840Z 0209/0306 VRB03KT P6SM FEW050 SCT080 TEMPO 0209/0210 BKN080 FM021000 VRB03KT P6SM FEW020 SCT060 PROB30 0210/0214 1SM BR FM021400 28006KT P6SM SCT120 FM022100 16008KT P6SM BKN060 PROB30 0221/0301 VRB15G25KT 5SM TSRA BKN030CB FM030100 VRB03KT P6SM SCT080 RMK NXT FCST BY 021200Z",
    "EHAM": "TAF EHAM 020430Z 0206/0312 22012KT CAVOK BECMG 0206/0208 25017KT 7000 -RADZ BKN018 PROB40 TEMPO 0208/0212 4000 DZRA BKN012 BECMG 0211/0213 30017G27KT 9999 NSW SCT030 BECMG 0216/0219 32012KT BECMG 0219/0222 28006KT BECMG 0305/0308 29012KT",
    "EBBR": "TAF EBBR 020520Z 0206/0312 23007KT CAVOK PROB30 TEMPO 0210/0216 SCT008 BKN011",
    "EDDF": "TAF EDDF 020500Z 0206/0312 23004KT CAVOK BECMG 0208/0210 23010KT PROB30 TEMPO 0212/0218 26015G25KT BECMG 0215/0218 29011KT PROB30 TEMPO 0218/0220 BKN035 BECMG 0220/0223 31006KT",
    "EDFH": "TAF EDFH 020500Z 0206/0306 26004KT CAVOK BECMG 0207/0209 27010KT PROB30 TEMPO 0212/0218 28015G25KT BECMG 0219/0221 31005KT",
    "EDDL": "TAF EDDL 020500Z 0206/0312 23013KT CAVOK BECMG 0208/0210 27015G25KT BECMG 0216/0219 31010KT BECMG 0220/0223 28004KT BECMG 0308/0310 28010KT",
    "EDDK": "TAF EDDK 020500Z 0206/0312 21007KT CAVOK BECMG 0208/0210 28012KT TEMPO 0213/0217 30015G25KT BECMG 0219/0221 31007KT BECMG 0301/0304 VRB03KT BECMG 0308/0310 30008KT",
    "EBLG": "TAF EBLG 020520Z 0206/0312 23008KT CAVOK PROB30 TEMPO 0210/0216 SCT008 BKN011",
    "LSZH": "TAF LSZH 020825Z 0209/0315 25006KT 9999 FEW040 TX27/0214Z TN16/0306Z TX25/0314Z PROB40 TEMPO 0213/0218 27008KT BECMG 0215/0218 CAVOK BECMG 0301/0304 9999 BKN030 BECMG 0306/0308 05007KT BECMG 0310/0312 34005KT",
    "LIMC": "TAF LIMC 020500Z 0206/0312 VRB05KT CAVOK BECMG 0212/0214 20010KT BECMG 0217/0219 VRB05KT BECMG 0221/0223 01010KT BECMG 0303/0305 VRB05KT",
    "LIRF": "TAF LIRF 020500Z 0206/0312 02012KT CAVOK TEMPO 0206/0214 02020G30KT 4000 TSRA BKN010 TEMPO 0214/0218 4000 SHRA BKN010 BECMG 0218/0220 VRB05KT BECMG 0302/0304 04010KT",
    "EINN": "TAF EINN 020500Z 0206/0306 30009KT 9999 FEW010 BKN025",
    "EGLL": "TAF EGLL 020501Z 0206/0312 26012KT 9999 BKN016 TEMPO 0206/0209 BKN012 PROB40 TEMPO 0206/0211 27015G25KT PROB30 TEMPO 0206/0210 8000 -RA BECMG 0209/0212 32012KT CAVOK TEMPO 0306/0311 BKN030",
    "EGSS": "TAF AMD EGSS 020844Z 0208/0312 29014KT 9999 BKN025 TEMPO 0208/0217 31016G26KT BECMG 0209/0212 CAVOK",
    "EPWA": "TAF EPWA 020830Z 0209/0309 31010KT CAVOK BECMG 0218/0220 25004KT TEMPO 0305/0309 28020G30KT PROB40 TEMPO 0305/0307 4000 SHRA BKN012 BKN030CB BECMG 0306/0308 27014KT",
    "UHPP": "TAF UHPP 020733Z 0209/0315 17008G13MPS 9999 NSC BECMG 0210/0212 21003G10MPS BECMG 0215/0217 FEW013 BKN030CB TEMPO 0303/0315 3000 -SHRA BR BKN009 OVC025CB",
    "EFHK": "TAF EFHK 020822Z 0209/0309 03007KT 9999 SCT018 TEMPO 0209/0219 FEW040CB PROB40 0213/0219 SHRA PROB30 0222/0303 2000 BR BKN002 BECMG 0304/0306 14010KT FEW040CB TEMPO 0306/0309 7000 SHRA",
    "LBBG": "TAF LBBG 020500Z 0206/0306 32008KT CAVOK BECMG 0208/0210 12014KT TEMPO 0210/0216 VRB16G28KT 5000 TSRA FEW030CB BKN045 BECMG 0217/0219 24008KT",
    "LTAC": "TAF LTAC 020440Z 0206/0306 VRB02KT CAVOK BECMG 0207/0209 FEW040 SCT100 TEMPO 0213/0217 01012KT BECMG 0219/0221 CAVOK",
    "UBBB": "TAF UBBB 020501Z 0206/0306 20012KT CAVOK TX32/0210Z TN22/0301Z TEMPO 0206/0215 24020KT TEMPO 0215/0218 24005KT FEW060CB BECMG 0218/0220 23005KT TEMPO 0220/0306 VRB04KT FEW012",
    "UTAA": "TAF UTAA 020445Z 0206/0306 02016KT 6000 BKN040 SCT050CB TEMPO 0206/0214 32014G24KT 4000 DRDU PROB30 TEMPO 0208/0215 VRB26KT -TSRA TEMPO 0218/0301 24012KT",
    "UACC": "TAF UACC 020503Z 0206/0306 16008MPS 9999 SCT030CB BKN050 TX30/0210Z TN16/0223Z TEMPO 0206/0218 VRB18MPS 3100 -TSRA SQ BKN030CB BECMG 0218/0220 16003MPS SCT030 BECMG 0301/0303 20009MPS SCT030CB TEMPO 0303/0306 20010G15MPS 3100 -SHRA BKN030CB BKN050",
    "UAAA": "TAF UAAA 020505Z 0206/0306 02003G08MPS 9999 BKN040CB OVC100 TX31/0210Z TN18/0301Z TEMPO 0210/0218 28008G15MPS 3100 -TSRA BLDU BKN015CB OVC100 TEMPO 0218/0302 22003G08MPS 5000 -TSRA BR BECMG 0305/0306 16003G08MPS -SHRA",
    "UZTT": "TAF COR UZTT 020500Z 0206/0306 24010KT 7000 SCT060CB BKN100 TEMPO 0206/0218 VRB12G22KT -TSRA BKN050CB",
    "ZWWW": "TAF ZWWW 020302Z 0206/0312 36004MPS CAVOK TX37/0209Z TX39/0309Z TN28/0223Z BECMG 0213/0214 18004MPS BECMG 0302/0303 36004MPS",
    "ZLXY": "TAF AMD ZLXY 020827Z 0206/0306 22004MPS 6000 NSC TX33/0306Z TN21/0221Z",
    "ZBAA": "TAF ZBAA 020302Z 0206/0312 15004MPS 5000 BR NSC TX34/0207Z TX37/0307Z TN23/0221Z",
    "ZBHH": "TAF ZBHH 020311Z 0206/0306 24004MPS 9999 FEW040 TX35/0208Z TN17/0222Z TEMPO 0206/0209 FEW040CB FEW040",
    "ZSQD": "TAF ZSQD 020301Z 0206/0306 16004MPS 5000 BR NSC TX34/0306Z TN24/0220Z",
    "ZMCK": "TAF ZMCK 020448Z 0206/0312 33005MPS 9999 FEW030CB SCT033 TX28/0207Z TN14/0221Z PROB40 TEMPO 0208/0215 VRB09G14MPS TSRA SCT027CB SCT030 BECMG 0212/0214 VRB02MPS TEMPO 0220/0312 VRB08MPS TSRA SCT027CB BKN030",
    "UUEE": "TAF UUEE 020753Z 0209/0309 19003G08MPS 9999 SCT030 TX29/0213Z TN18/0301Z TEMPO 0209/0216 23008G14MPS BECMG 0216/0217 26005MPS TEMPO 0217/0224 29009G16MPS -TSRA BKN016CB BECMG 0300/0302 32003MPS PROB40 TEMPO 0304/0309 -TSRA BKN020CB",
    "UUDD": "TAF UUDD 020753Z 0209/0315 18005MPS 9999 SCT040 TX30/0212Z TN20/0301Z TEMPO 0209/0216 21008G13MPS TEMPO 0218/0303 27009G15MPS 4000 -TSRA BKN006 BKN016CB BECMG 0303/0305 31005MPS",
    "ULLI": "TAF ULLI 020753Z 0209/0309 10005G10MPS 6000 -RA BKN010 OVC016 TEMPO 0209/0215 1500 SHRA BR BKN006 BKN017CB PROB40 TEMPO 0209/0215 1500 TSRA BKN006 BKN020CB BECMG 0212/0214 27006G12MPS TEMPO 0215/0218 30009G15MPS TEMPO 0221/0304 0300 FG SCT003",
    "USSS": "TAF USSS 020752Z 0209/0309 02003G12MPS 9999 BKN020CB TEMPO 0209/0219 VRB18MPS -TSRAGR SQ FM021900 32003MPS 6000 BKN016CB FM030300 35003G12MPS 9999 BKN020CB",
    "UNNT": "TAF UNNT 020800Z 0209/0309 10003G08MPS CAVOK TX32/0308Z TN17/0222Z TEMPO 0209/0217 13008G15MPS -TSGR BKN016CB PROB40 TEMPO 0306/0309 -TSRA BKN016CB",
    "UNKL": "TAF UNKL 020746Z 0209/0309 32003G08MPS 9999 SCT040 TX30/0306Z TN15/0222Z TEMPO 0209/0215 29008G16MPS -TSRAGR BKN016CB",
    "UIBB": "TAF UIBB 020800Z 0209/0309 29003G08MPS 9999 -TSRA BKN020CB TEMPO 0209/0214 VRB10MPS 1900 TSRA VV006 BECMG 0214/0215 NSW TEMPO 0300/0309 VRB10MPS -TSRA",
    "UEEE": "TAF UEEE 020800Z 0209/0315 06006G12MPS CAVOK TX29/0209Z TN14/0218Z BECMG 0212/0214 08003G08MPS",
    "UHHH": "TAF UHHH 020749Z 0209/0315 19003MPS CAVOK TX28/0305Z TN17/0219Z",
    "UHSS": "TAF UHSS 020745Z 0209/0315 19003MPS 9999 FEW040 BECMG 0211/0213 BKN007 BECMG 0223/0301 SCT040"
  },
  "atis": {
    "RJAA": "[Arrival ATIS] RJAA ARR ATIS O 2220Z M2200 (APCH)ILS Z RWY34R LDG RWY 34R DEP RWY 34L DEP FREQ 124.2. TWY A1 CLSD. OBSERVE GEAR DOWN OPS PROC ON FNL. M 172200Z 05006KT 4000M SHRA BR FEW002ST BKN004ST 20/20 Q1012/A2989= Q/TWO NINE EIGHT NINE STP\n[Departure ATIS] RJAA DEP ATIS I 1101Z M1100 (APCH)ILS Y RWY16L LDG RWY 16L DEP RWY 16R DEP FREQ 124.2. TWY A1 CLSD. M 171100Z 16006KT 20KM FEW020CU BKN/// 20/18 Q1016/A3003= Q/THREE ZERO ZERO THREE STP",
    "PANC": "[Arrival ATIS] PANC ARR ATIS R 0853Z ANC ATIS INFO R 0853Z. 19008KT 10SM FEW070 FEW240 12/04 A2980 (TWO NINER EIGHT ZERO). 7R, 7L APPROACHES IN USE. LANDING RWY 7L, 33, DEPARTING RWY 33. NOTICE TO AIRMEN. TWY Q CLSD. TWY R CLSD BTWN TWY, S AND TWY U . TWY E CLSD BTWN TWY, L AND TWY M . TWY K BTWN A AND D RESTRICTED TO AIRCRAFT WITH WINGSPAN LESS THAN 118 FEET. CONTACT TOWER 118.3 FOR TAXI. ...ADVS YOU HAVE INFO R.\n[Departure ATIS] PANC DEP ATIS Q 0753Z ANC ATIS INFO Q 0753Z. 19009KT 10SM FEW060 SCT240 13/08 A2980 (TWO NINER EIGHT ZERO). 7R, 7L APPROACHES IN USE. LANDING RWY 7L, 33, DEPARTING RWY 33. NOTICE TO AIRMEN. TWY Q CLSD. TWY R CLSD BTWN TWY, S AND TWY U . TWY E CLSD BTWN TWY, L AND TWY M . TWY K BTWN A AND D RESTRICTED TO AIRCRAFT WITH WINGSPAN LESS THAN 118 FEET. CONTACT TOWER 118.3 FOR TAXI. ...ADVS YOU HAVE INFO Q.",
    "KSEA": "[Arrival ATIS] KSEA ARR ATIS J 2153Z SEA ATIS INFO J 2153Z. 21004KT 10SM FEW030 FEW060 20/09 A3012 (THREE ZERO ONE TWO). ILS AND CHARTED VISUAL APPROACH RWYS 34L AND 34R , APCH IN USE. DEPG RWY 34R. SIMUL ARRIVALS TO RWY 34L AND DEPARTURES TO RWY 34R ARE IN USE. SIMUL APCHS IN USE TO PARA RYS. NOTAMS... LOC RWY 34C OTS, RWY 34C GS OTS. BIRD ACTIVITY VICINITY ARPT. ...ADVS YOU HAVE INFO J.\n[Departure ATIS] KSEA DEP ATIS E 2253Z SEA ATIS INFO E 2253Z. 18008KT 10SM FEW026 BKN032 16/08 A3007 (THREE ZERO ZERO SEVEN). ILS, RYS 16R AND 16L , APCH IN USE. DEPG RWY 16L, DEPG ACFT PLAN AND BRIEF NUMBERS FOR BOTH RWYS 16L AND 16C. SIMUL APCHS IN USE, BFI & SEA. TRAFFIC BELOW YOU ON FINAL. SIMUL APCHS IN USE TO PARA RYS. NOTAMS... BIRD ACTIVITY VICINITY ARPT. ...ADVS YOU HAVE INFO E.",
    "ZSPD": "[Arrival ATIS] ZSPD ARR ATIS M 2201Z EXP ILS APCH INDEPENDENT PARL INSTR APCH LDG RWY 34R RWY 34L IS CLSD RWY 35L IS CLSD WIND RWY 34R TDZ 050/4MPS VRB BTN 360/ AND 060/ MID 070/3MPS END 050/4MPS VIS RWY 34R TDZ 8000M MID 8000M END 10000M BR CLD BKN 180M T 24 /DP 24 QNH 1009 HPA CAUTION THE BIRDS NEAR THE RUNWAY ADZ YOU HAVE INFO M.\n[Departure ATIS] ZSPD DEP ATIS K 2130Z DEP RWY 35R RWY 34L IS CLSD RWY 35L IS CLSD WIND RWY 35R TDZ 050/4MPS MID 040/5MPS END 040/4MPS VIS RWY 35R TDZ 5000M MID 5000M END 4900M BR CLD BKN 180M T 24 /DP 24 QNH 1008 HPA DELIVERY FREQ 118.8 CAUTION THE BIRDS NEAR THE RUNWAY ADZ YOU HAVE INFO K.",
    "ZSSS": "[Arrival ATIS] ZSSS ARR ATIS A 0300Z EXP ILS APCH LDG RWY 18L WIND RWY 18L TDZ 180/3MPS VRB BTN 160/ AND 220/ MID 240/2MPS END 180/3MPS VIS RWY 18L TDZ 10000M MID 10000M END 10000M CLD SCT 600M T 30 /DP 23 QNH 1010 HPA QNH OF SHANGHAI TERMINAL CONTROL AREA 1010 HPA ADZ YOU HAVE INFO A.\n[Departure ATIS] ZSSS DEP ATIS I 1330Z DEP RWY 18R WIND RWY 18R TDZ 130/2MPS MID 140/3MPS END 150/3MPS VIS RWY 18R TDZ 6000M MID 7000M END 6000M BR NSC T 27 /DP 22 QNH 1008 HPA VISUAL APCH IN USE QNH OF SHANGHAI TERMINAL CONTROL AREA 1009 HPA ADZ YOU HAVE INFO I.",
    "VHHH": "[Arrival ATIS] VHHH ARR ATIS C 2207Z ARRIVALS, RWY 25C. EXP ILS APCH, RWY 25C. RWY 25 RUNWAY CONDITION REPORT AT 1908Z. RWY 25C RUNWAY CONDITION CODES 5 , 5 , 5 . RWY SFC ALL PARTS WET. CAUTION POSSIBLE GP FLUCTUATION RWY 25C. RWY 25R/L CLSD. EXP RWY 25R AFTER 2300Z. WIND 100/07KT VRB BTN 060/ AND 210/. VIS 3000M. HVY SHRA. CLD FEW CB 1000FT SCT 2000FT. T28 DP25. QNH 1008HPA. TREND TEMPO VIS 3000M MOD TSRA MOD SHRA. ACK INFO C ON FIRST CTC WITH APP.\n[Departure ATIS] VHHH DEP ATIS Y 0905Z DEPARTURES, RWY 07R. SIG WS AND MOD TURB FCST. WIND 110/12KT. VIS 10KM. CLD FEW 1500FT SCT 2800FT. T32 DP26. QNH 1008HPA. ACK INFO Y ON FIRST CTC WITH DELIVERY .",
    "RCTP": "[Arrival ATIS] RCTP ARR ATIS O 0900Z EXP ILS APCH RWY23R FOR ARR. RWY23L FOR DEP. WIND 280/07KT VIS 10 KM OR MORE CLD FEW 1500FT FEW CB 1800FT BKN 6000FT T 31 DP 25 QNH 1011HPA NOSIG CTN BIRD A\n[Departure ATIS] RCTP DEP ATIS D 2200Z EXP ILS APCH RWY23R ARR/DEP. RWY23L CLSD BTN 1700Z AND 2230Z FOR INSPECTION. TWY-Q7 BTN TWY-Q AND TWY-S CLSD. WIND 160/06KT VIS 10 KM OR MORE CLD FEW 1500FT BKN 20000FT T 26 DP 24 QNH 1011HPA NOSIG CTN BIRD ACTIVITY IN THE VCY OF THE AD. INFORM TAIPEI APCH OR TAIPEI TOWER ON INITIAL CONTACT YOU HAVE INFORMATION D",
    "ZGSZ": "[Arrival ATIS] ZGSZ ARR ATIS U 2200Z EXP ILS OR VIS APCH LDG RWY 16L WIND 130/3MPS VIS 9999M -SHRA CLD FEW 480M /BKN 990M T 27 /DP 25 QNH 1008 HPA INDEPENDENT PARALLEL DEPARTURES MISSED APPROACH ALTITUDE SETTING 1200METERS WHEN AIRBORNE CONTACT ZHUHAI APPROACH EXPECTED RNP ILS DME Z APPROACH ADZ YOU HAVE INFO U.\n[Departure ATIS] ZGSZ DEP ATIS O 2000Z DEP RWY 16L WIND 150/4MPS VIS 9999M -SHRA CLD SCT 390M /BKN 900M T 27 /DP 25 QNH 1008 HPA DELIVERY FREQ 121.8 SINGLE RUNWAY OPERATION MISSED APPROACH ALTITUDE SETTING 1200METERS WHEN AIRBORNE CONTACT ZHUHAI APPROACH EXPECTED RNP ILS DME Z APPROACH ADZ YOU HAVE INFO O.",
    "WSSS": "[Arrival ATIS] WSSS ARR ATIS P 2200Z METREPORT 2200Z ILS APCHRWY 20R SIMUL INDEPENDENT ILS AND VISUAL APPROACHES ARE CONDUCTED ON RWY 20. TWY W 9 CLOSED, RWY 02C 20C RAPID EXIT TAXIWAY INDICATOR LIGHTS OFFFOLLOW THE GREENS TRIAL IN PROGRESS. WHEN VACATING THE RWY, PILOTS TO ADHERE TO ATC VERBAL INSTRUCTIONS. WHEN ON TWY, PILOT TO ADHERE TO FOLLOW THE GREENS INSTRUCTIONS. WHEN APPROACHING [A] JUNCTION, KEEP [A] LOOKOUT FOR CONTINUOUS GREENS. [IF] [A] BREAK IN THE GREENS IS OBSERVED, STOP AND CLARIFY WITH ATC. WIND VRB BTN260 AND340 02KT VIS 10KM CLD FEW 1800FT T26 DP24 QNH 1011HPA NOSIG ACK ATIS P\n[Departure ATIS] WSSS DEP ATIS Q 2200Z METREPORT 2200Z RWY 20C SIMUL INDEPENDENT ILS AND VISUAL APPROACHES ARE CONDUCTED ON RWY 20. TWY W 9 CLOSED, RWY 02C 20C RAPID EXIT TAXIWAY INDICATOR LIGHTS OFFFOLLOW THE GREENS TRIAL IN PROGRESS. WHEN VACATING THE RWY, PILOTS TO ADHERE TO ATC VERBAL INSTRUCTIONS. WHEN ON TWY, PILOT TO ADHERE TO FOLLOW THE GREENS INSTRUCTIONS. WHEN APPROACHING [A] JUNCTION, KEEP [A] LOOKOUT FOR CONTINUOUS GREENS. [IF] [A] BREAK IN THE GREENS IS OBSERVED, STOP AND CLARIFY WITH ATC. WIND 290/ 04KT VRB BTN250 AND350 VIS 10KM CLD FEW 1800FT T26 DP24 QNH 1011HPA NOSIG DEP,INITIAL CMB 3000FT ACK ATIS Q",
    "WMKK": "[Arrival ATIS] WMKK ARR ATIS C 2104Z WMKK ARR INFO C. TIME 2100. SINGLE RWY OPS IN PROGRESS. EXP RNAV / ILS APCH FOR RWY 14 LEFT. WIND RWY 14L DIRECTION NOT AVBL SPEED NOT AVBL. VIS RWY 14L TDZ NOT AVBL. CLD FEW 3000 FT. T 26. DP 24. QNH 1011. NOSIG. AT FIRST CONTACT WITH LUMPUR RADAR, NOTIFY RCPT OF C\n[Departure ATIS] WMKK DEP ATIS R 1534Z WMKK DEP INFO R. TIME 1530. SINGLE RWY OPS IN PROGRESS. RWY 14 RIGHT. WIND RWY 14R DIRECTION NOT AVBL SPEED NOT AVBL. VIS RWY 14R TDZ NOT AVBL. CLD FEW 3000 FT. T 27. DP 24. QNH 1012. NOSIG. ALL DEP ACFT TO CONTACT LUMPUR DEP AT 135 DECIMAL 25 MHZ WHEN ABN. AT FIRST CONTACT WITH LUMPUR GROUND, NOTIFY RCPT OF R",
    "VTBS": "[Arrival ATIS] VTBS ARR ATIS X 2130Z VTBS ARR ATIS X 2131Z EXP ILS Z APCH ARR RWY 20L RWY 19 AND 20R CLSD DUE TO WIP ,RETIL RWY 20L U/S , 2130Z WIND 310/2KT VIS 10KM CLD FEW 2000FT T29 DP25 QNH 1009HPA TREND NOSIG ADZ BKK APCH ON INITIAL CONTACT THAT YOU HAVE INFO X\n[Departure ATIS] VTBS DEP ATIS A 1930Z VTBS DEP ATIS A 1931Z DEP RWY 20L RWY 20R CLSD DUE TO WIP , ,AFT AIRBORNE ALL DEPARTING ACFT SHALL CTC 119.25 1930Z WIND 210/4KT VIS 10KM CLD FEW 2000FT T30 DP24 QNH 1010HPA TREND NOSIG ADZ GND WHEN INITIAL CONTACT YOU HAVE INFO A",
    "VTBU": "[Arrival ATIS] VTBU ARR ATIS W 1400Z VTBU ARR ATIS W 1402Z RNP RWY 18 TRL FL130 1400Z WIND 250/3KT VIS 10KM CLD FEW 2000FT T29 DP27 QNH 1007HPA TREND NOSIG ADZ CONTROLLER WHEN INITIAL CONTACT YOU HAVE INFO W\n[Departure ATIS] VTBU DEP ATIS D VTBU ARR/DEP DATIS RPT VTBU ARR ATIS D 0330Z ILS \"Z\" APCH RWY 18 TRL FL130 0330Z WIND 110/4KT VRB BTN 350/ AND 120/ VIS 6KM CLD FEW 2000FT T31 DP27 QNH 1014HPA TREND NOSIG ADZ CONTROLLER WHEN INITIAL CONTACT YOU HAVE INFO D",
    "ROAH": "[Arrival ATIS] ROAH ARR ATIS G 0934Z M0930 (APCH)RNP RWY18R LDG RWY 18R DEP RWY 18L DEP FREQ 126.5 258.3 M 020930Z 22005KT 40KM FEW011CU 29/27 Q1013/A2993= Q/TWO NINE NINE THREE STP\n[Departure ATIS] ROAH DEP ATIS Z 0534Z M0530 (APCH)RNP RWY18R LDG RWY 18R DEP RWY 18L DEP FREQ 126.5 258.3 M 010530Z 20011KT 40KM FEW010CU 30/27 Q1012/A2988= Q/TWO NINE EIGHT EIGHT STP",
    "VVDN": "[Arrival ATIS] VVDN ARR ATIS W 0502Z VVDN INFO W 0502Z. ILS VICTOR APPROACH 35L.. DPTG RWY 35R.. 0502Z. WIND 020/05KT CAVOK T32 DP24 QNH 1005HPA TREND NOSIG. ADZ ON INITIAL CTC YOU HAVE INFO. W.\n[Departure ATIS] VVDN DEP ATIS S 0604Z VVDN INFO S 0604Z. ILS VICTOR APPROACH 35L.. DPTG RWY 35R.. 0604Z. WIND VRB/09KT CAVOK T37 DP24 QNH 1006HPA TREND NOSIG. ADZ ON INITIAL CTC YOU HAVE INFO. S.",
    "RCKH": "[Arrival ATIS] RCKH ARR ATIS D 0900Z EXPECT ILS APPROACH RWY 09 ARR/DEP TAXIWAY JULIETT, TAXIWAY BRAVO, TAXIWAY DELTA AND TAXIWAY ECHO CLOSED DUE MAINTENANCE. RUNWAY 0 9 ARRIVALS PLAN VACATE VIA CHARLIE OR\n[Departure ATIS] RCKH DEP ATIS K 2330Z EXPECT ILS APPROACH RWY 09 ARR/DEP TAXIWAY JULIETT, TAXIWAY BRAVO, TAXIWAY DELTA AND TAXIWAY ECHO CLOSED DUE MAINTENANCE. RUNWAY 0 9 ARRIVALS PLAN VACATE VIA CHARLIE OR",
    "KLAX": "[Arrival ATIS] KLAX ARR ATIS D 2153Z LAX ATIS INFO D 2153Z. 24013KT 10SM BKN015 21/14 A2994 (TWO NINER NINER FOUR) RMK AO2 SLP136 T02060144. INST APCHS AND RNAV RNP APCHS ILS RY 24R, ILS RY 25L, AND SIMUL APCHS IN PROG BTWN LAX AND HHR, SIMUL INSTR DEPARTURES IN PROG 24L, 25L. CTC L A GC ON 121.75 FOR PUSH OR TAXI ON A. RWY 2 5 RIGHT 7 LEFT CLSD. TWY C CLSD BTN TWY, C8 AND TWY C9 , , TWY B CLSD BTN TWY, F AND TWY B1, TWY B1 CLSD. ILS RY 25R OTS, RY 25R SFL OTS, RY 24L ALSF-2 OTS. LAX VOR UNMONITORED. IF ASSIGNED RUNWAY 25R FOR DEPARTURE, EXPECT DEPARTURE FROM INTERSECTION FOXTROT. TAXILANE CHARLIE EIGHT RESTRICTED TO AIRCRAFT WITH A WINGSPAN LESS THAN ONE HUNDRED EIGHTEEN FEET. USE CAUTION FOR INCREASED DRONE ACTIVIY IN THE VICINITY OF SOFI STADIUM AT OR BELOW 200FT AGL DURING THE WORLD CUP FROM 06/12/26 THROUGH 07/10/2026. HAZD WX INFO FOR LAX AREA AVBL FM FSS. BIRD ACTIVITY VICINITY ARPT. INCLUDE YOUR CALL SIGN IN ALL READBACKS. USE CAUTION WHEN EXITING RY24R AT TWY V, W, AND Y, TO HOLD SHORT OF RY24L. MULTIPLE RUNWAY INCURSIONS HAVE OCCURRED. ...ADVS YOU HAVE INFO D.\n[Departure ATIS] KLAX DEP ATIS K 0953Z LAX ATIS INFO K 0953Z. 23004KT 9SM OVC006 17/15 A2992 (TWO NINER NINER TWO) RMK AO2 SLP128 T01670150. INST APCHS AND RNAV RNP APCHS ILS RY 24L, ILS RY 25L, AND SIMUL APCHS IN PROG BTWN LAX AND HHR, SIMUL INSTR DEPARTURES IN PROG 24L, 25R. CTC L A GC ON 121.75 FOR PUSH OR TAXI ON A. RWY 2 4 RIGHT SIX LEFT CLSD. TWY C CLSD BTN TWY, C8 AND TWY C9 , , TWY B CLSD BTN TWY, F AND TWY B1, TWY B1 CLSD. ILS RY 25R OTS, RY 25R SFL OTS, RY 24L ALSF-2 OTS. LAX VOR UNMONITORED. IF ASSIGNED RUNWAY 25R FOR DEPARTURE, EXPECT DEPARTURE FROM INTERSECTION FOXTROT. TAXILANE CHARLIE EIGHT RESTRICTED TO AIRCRAFT WITH A WINGSPAN LESS THAN ONE HUNDRED EIGHTEEN FEET. USE CAUTION FOR INCREASED DRONE ACTIVIY IN THE VICINITY OF SOFI STADIUM AT OR BELOW 200FT AGL DURING THE WORLD CUP FROM 06/12/26 THROUGH 07/10/2026. HAZD WX INFO FOR LAX AREA AVBL FM FSS. BIRD ACTIVITY VICINITY ARPT. TWR FREQ FOR ALL RWYS IS 120.95. CD AND GC FREQ IS 121.75. INCLUDE YOUR CALL SIGN IN ALL READBACKS. USE CAUTION WHEN EXITING RY24R AT TWY V, W, AND Y, TO HOLD SHORT OF RY24L. MULTIPLE RUNWAY INCURSIONS HAVE OCCURRED. ...ADVS YOU HAVE INFO K.",
    "KONT": "[Arrival ATIS] KONT ARR ATIS K 1953Z - KONT ATIS INFO K 1953Z. 25010G18KT 10SM CLR 28/12 A2992 (TWO NINER NINER TWO). ILS AND VIS APR IN USE, RY26L & RY26R. LNDG AND DEPG RY 26L AND RY 26R. NOTAMS... TAXIWAY SIERRA CLSD BETWEEN SIERRA 8 AND W TAXIWAY Q SOUTH OF RWY 26L CLSD TAXIWAY T CLSD TAXIWAY SIERRA 5 CLSD. RY 26L IM OTS, RY 26R ALS OTS. USE CAUTION FOR NUMEROUS BIRDS OBSERVED IN VICINITY OF ONT. PILOTS READBACK RWY ASSIGNMENTS AND HOLD SHORT INSTRUCTIONS. ...ADVS YOU HAVE INFO K.\n[Departure ATIS] KONT DEP ATIS N 0553Z - KONT ATIS INFO N 0553Z. 24004KT 10SM BKN250 22/15 A2988 (TWO NINER EIGHT EIGHT) RMK AO2 SLP100. ILS AND VIS APR IN USE, RY26L & RY26R. LNDG AND DEPG RY 26L AND RY 26R. NOTAMS... TAXIWAY SIERRA CLSD BETWEEN SIERRA 8 AND W TAXIWAY Q SOUTH OF RWY 26L CLSD TAXIWAY T CLSD TAXIWAY SIERRA 5 CLSD. RY 26L IM OTS, RY 26R ALS OTS. USE CAUTION FOR NUMEROUS BIRDS OBSERVED IN VICINITY OF ONT. HAZD WX INFO FOR SOUTHERN CA AVBL ON FSS FREQUENCIES. PILOTS READBACK RWY ASSIGNMENTS AND HOLD SHORT INSTRUCTIONS. ...ADVS YOU HAVE INFO N.",
    "KSFO": "[Arrival ATIS] KSFO ARR ATIS K 2156Z - KSFO ATIS INFO K 2156Z. 21011G18KT 10SM FEW013 22/14 A2988 (TWO NINER EIGHT EIGHT). SIMUL CLSLY SPCD DPNDNT ILS RY 28R AND ILS RY 28L APP IN USE. DEPG RWYS 28L, 28R. RY 1L, 1R CLSD. NUMEROUS TWY CLOSURES FOR CONSTRUCTION ON THE FIELD, PILOTS CHECK NOTAMS. PAEW ADJ LEFT SIDE RY 28R, RIGHT SIDE RY 28L, VCNTY VOR. DEPG ACFT WAITING ON FINAL NUMBERS ADVISE GROUND PRIOR TO ENTERING TWY F. ...ADVS YOU HAVE INFO K.\n[Departure ATIS] KSFO DEP ATIS V 0156Z SFO ATIS INFO V 0156Z. 19008KT 10SM FEW014 18/11 A2987 (TWO NINER EIGHT SEVEN). SIMUL CLSLY SPCD DPNDNT ILS RY 28R AND ILS RY 28L APP IN USE. DEPG RWYS 28L, 28R. DEPG ACFT SHOULD BE PREPARED FOR A SHORT NOTICE RY CHANGE. RY 1L, 1R CLSD. NUMEROUS TWY CLOSURES FOR CONSTRUCTION ON THE FIELD, PILOTS CHECK NOTAMS. MULTIPLE CRANES VCY OF SFO CHECK NOTAMS. DEPG ACFT WAITING ON FINAL NUMBERS ADVISE GROUND PRIOR TO ENTERING TWY F. ...ADVS YOU HAVE INFO V.",
    "KOAK": "[Arrival ATIS] KOAK ARR ATIS R 1953Z - KOAK ATIS INFO R 1953Z. 27010KT 10SM FEW009 FEW022 21/14 A2990 (TWO NINER NINER ZERO). RNAV Z AND VISUAL 3 0, ILS RUNWAY AND VISUAL 2 8 RIGHT IN USE. FLOW TO LAX, SAN, SNA. TWY W CLSD, BTN TWY, U AND TWY, B. ILS RWY 30, OTS. UNN LIT CLOSE-IN OBSTACLES FOR RWY 30 DEPARTURES. RWY 30 DEPARTURES ARE ADVISED TO AVOID TURNING LEFT PRIOR TO DEPARTURE END OF RUNWAY. SIGNATURE UNI-COM OUT OF SERVICE. CTN, PSNL AND EQPT WORKING, NEAR 28R, 28L. CAUTION, BIRDS NEAR AIRPORT. ...ADVS YOU HAVE INFO R.\n[Departure ATIS] KOAK DEP ATIS O 1953Z OAK ATIS INFO O 1953Z. 28014KT 10SM FEW005 22/14 A2988 (TWO NINER EIGHT EIGHT). RNAV Z/VA RWY 30 ILS/VA RWY 28R. FLOW TO LAX, LAS, SAN. ILS RWY 30, OTS. UNN LIT CLOSE-IN OBSTACLES FOR RWY 30 DEPARTURES. RWY 30 DEPARTURES ARE ADVISED TO AVOID TURNING LEFT PRIOR TO DEPARTURE END OF RUNWAY. SIGNATURE UNI-COM OUT OF SERVICE. CAUTION, BIRDS NEAR AIRPORT. ...ADVS YOU HAVE INFO O.",
    "KDFW": "[Arrival ATIS] KDFW ARR ATIS Y 0153Z - KDFW ARR INFO Y 0153Z. 16009KT 10SM FEW250 32/18 A2992 (TWO NINER NINER TWO). SIMUL VISUAL APCH TO RWYS, 13R, 18R, 17C, 17L. LDG RWY 17C EXP LAHSO TWY B 10460 FT AVAIL, LDG RWY 18R EXP LAHSO TWY B 10100 FT AVL. NOTICE TO AIRMEN. WARNING, RWY 18L HAS BEEN SHORTENED, 9273 FT AVAILABLE. RWY 18L ILS OTS, CL OTS. BIRD ACTIVITY VCNTY ARPT. ...ADVS YOU HAVE INFO Y.\n[Departure ATIS] KDFW DEP ATIS W 1553Z - KDFW DEP INFO W 1553Z. 21022G32KT 10SM FEW025 FEW180 SCT250 31/21 A2994 (TWO NINER NINER FOUR) RMK AO2 PK WND 20032/1547 SLP128 T03110206. SIMUL PARL TRAFFIC DEPG RWYS 17R, 18L. NOTICE TO AIRMEN. WARNING, RWY 18L HAS BEEN SHORTENED, 9273 FT AVAILABLE. RWY 18L CL OTS. BIRD ACTIVITY VCNTY ARPT. ...ADVS YOU HAVE INFO W.",
    "KIAH": "[Arrival ATIS] KIAH ARR ATIS D 2353Z IAH ATIS INFO D 2353Z. 15007KT 10SM FEW042 FEW070 SCT250 33/21 A2995 (TWO NINER NINER FIVE). ARRIVALS EXPECT ILS OR RNAV Y RY 8R, ILS OR RNAV Y RY 8L. SIMUL APPROACHES IN USE. DEPG RY 15L, RY 15R. NOTICE TO AIRMEN. UNITED RAMP CONTROL IN EFFECT. HAZD WX INFO FOR IAH AREA AVBL FM FSS. BIRD ACTIVITY VICINITY ARPT. LAHSO RY8R. CRANES ARE DOWN. TWY SA CLSD BTN TWY, SF AND TWY SK , TWY SB CLSD BTN TWY, SF AND TWY SK , , TWY WB CLSD BTN TWY, WG AND TWY WH . TWY EA CLSD. NOTAM ATIS IN USE ON FREQUENCY 126.225. ...ADVS YOU HAVE INFO D.\n[Departure ATIS] KIAH DEP ATIS A 2053Z IAH ATIS INFO A 2053Z. 19008G16KT 10SM SCT035 BKN250 33/24 A2993 (TWO NINER NINER THREE) RMK AO2 LTG DSNT E TSB02E23 SLP135 CB DSNT NE-E AND SW MOV NE 60000 T03280239 57019. ARRIVALS EXPECT ILS OR RNAV Y RY 26R, ILS OR RNAV Y RY 26L, ILS OR RNAV Y RY 27. SIMUL APPROACHES IN USE. DEPG RY 15L, RY 15R. NOTICE TO AIRMEN. UNITED RAMP CONTROL IN EFFECT. ALL RWY COND CODES, , 5 , , 5 , , 5 , AT 1730Z. HAZD WX INFO FOR IAH AREA AVBL FM FSS. BIRD ACTIVITY VICINITY ARPT. TWY SA CLSD BTN TWY, SG AND TWY SK , TWY SB CLSD BTN TWY, SG AND TWY SK , , TWY SG CLSD, TWY EA CLSD. NOTAM ATIS IN USE ON FREQUENCY 126.225. ...ADVS YOU HAVE INFO A.",
    "KORD": "[Arrival ATIS] KORD ARR ATIS G 2051Z - KORD ATIS INFO G 2051Z. 16013G23KT 10SM SCT009 BKN120 BKN250 18/16 A2940 (TWO NINER FOUR ZERO) RMK AO2 RAE1956 PRESFR SLP952 P0000 60020 T01780161 58031. ARR EXP VECTORS ILS RWY 27C APCH, ILS RWY 27R APCH, ILS RWY 28C APCH. SIMUL APCHS IN USE. DEPS EXP RWYS 22L 27L FROM T T 9960 FT AVL. RWY 4L, 22R CLSD. RWY 22L ILS OTS, RWY 22R LOC OTS, RWY 9L IM OTS, RWY 9C IM OTS, RWY 10L IM OTS, RWY 10R IM OTS, RWY 27R IM OTS, RWY 28L IM OTS, RWY 28R IM OTS, RWY 9L PAPI OTS, RWY 27R PAPI OTS, RWSL OTS. PILOTS USE CTN FOR BIRD ACTIVITY IN THE VICINITY OF THE ARPT. HAZD WX INFO FOR ORD AREA AVBL ON FSS. USE CTN FOR PERSONNEL AND EQUIP AT NUMEROUS SITES ON THE FIELD. READBACK ALL RWY HOLD SHORT INSTRUCTIONS. WHEN READY TO TAXI CONTACT GND METERING ON FREQ 121.67. ...ADVS YOU HAVE INFO G.\n[Departure ATIS] KORD DEP ATIS H 0651Z ORD ATIS INFO H 0651Z. 23006KT 10SM CLR 28/23 A2999 (TWO NINER NINER NINER) RMK AO2 SLP149 T02780228. ARR EXP VECTORS ILS RWY 28C APCH. LAND AND HOLD SHORT OPERATIONS ARE IN EFFECT. RWY 28C ARR PLAN TO H/S OF TWY Z, 9 THSD 6 HND TEN FT AVBL. DEPS EXP RWYS 27C. RWY 4L, 22R CLSD, RWY 4R, 22L CLSD, RWY 9L, 27R CLSD, RWY 9R, 27L CLSD, RWY 10L, 28R CLSD, RWY 10R, 28L CLSD. RWY 22R LOC OTS, RWY 9L IM OTS, RWY 9C IM OTS, RWY 10L IM OTS, RWY 10R IM OTS, RWY 27R IM OTS, RWY 28L IM OTS, RWY 28R IM OTS, RWY 9L PAPI OTS, RWY 27R PAPI OTS. PILOTS USE CTN FOR BIRD ACTIVITY IN THE VICINITY OF THE ARPT. HAZD WX INFO FOR ORD AREA AVBL ON FSS. NOISE ABATEMENT PROCEDURES ARE IN EFFECT. USE CTN FOR PERSONNEL AND EQUIP AT NUMEROUS SITES ON THE FIELD. READBACK ALL RWY HOLD SHORT INSTRUCTIONS. FOR CD GND METERING AND GC CONTACT ORD ON FREQ 121.9. ...ADVS YOU HAVE INFO H.",
    "KJFK": "[Arrival ATIS] KJFK ARR ATIS V 0851Z - KJFK ATIS INFO V 0851Z. 22007KT 10SM SCT250 26/23 A2997 (TWO NINER NINER SEVEN). APPROACH IN USE ILS RY 22L, ILS RY 22R. DEPG RY 22R. CRI OTS. RWY 22L/4R INNER MARKER OTS. HAZD WX INFO FOR NY METRO AREA AVBL ON FSS. NUM CRANES OPERATING AT JFK. BIRD ACTIVITY VICINITY ARPT. READBACK ALL RWY ASSIGNMENTS AND HOLD SHORT INSTRUCTIONS. ...ADVS YOU HAVE INFO V.\n[Departure ATIS] KJFK DEP ATIS F 1751Z JFK ATIS INFO F 1751Z. 19014KT 10SM FEW055 29/21 A2999 (TWO NINER NINER NINER). APPROACH IN USE ILS RY 22L, ILS RY 22R. DEPG RY 22R. CRI OTS. RWY 22L/4R INNER MARKER OTS. SWAP IN EFFECT EXPECT REROUTES. NUM CRANES OPERATING AT JFK. BIRD ACTIVITY VICINITY ARPT. READBACK ALL RWY ASSIGNMENTS AND HOLD SHORT INSTRUCTIONS. ...ADVS YOU HAVE INFO F.",
    "KIND": "[Arrival ATIS] KIND ARR ATIS Z 2154Z - KIND ATIS INFO Z 2154Z. 16015G24KT 10SM FEW060 BKN090 OVC180 22/19 A2948 (TWO NINER FOUR EIGHT). PARL ILS RWY 23R AND 23L APPROACHES IN USE. CROSS RUNWAY OPERATIONS MAY BE IN EFFECT. PARL APCHS IN USE. NOTICE TO AIRMEN. RWY 32 GS OTS. TWY, P BTN TWY, H AND TWY B CLSD. P PAD CLSD. ILS RUNWAY 5R AND RUNWAY 5L INNER MARKER UNSERVICEABLE. RUNWAY 32 PAPI OTS. RUNWAY 32 TOUCHDOWN RVR OTS. RUNWAY 14 ROLLOUT RVR OTS. HIWAS. RWY 23R CONDITION CODES 5 5 5 AT 1820Z, RWY 23L CONDITION CODES. 5 5 5 AT 1820Z, RWY 32 CONDITION CODES. 5 5 5 AT 1820Z. ...ADVS YOU HAVE INFO Z.\n[Departure ATIS] KIND DEP ATIS H 1854Z IND ATIS INFO H 1854Z. 26009G19KT 10SM SCT036 BKN041 BKN170 23/16 A2981 (TWO NINER EIGHT ONE) RMK AO2 SLP088 T02280156. PARL ILS RWY 23R AND 23L APPROACHES IN USE. CROSS RU",
    "KDTW": "[Arrival ATIS] KDTW ARR ATIS G 0253Z DTW ARR INFO G 0253Z. 22010KT 10SM CLR 30/20 A2998 (TWO NINER NINER EIGHT) RMK AO2 SLP144 T03000200 53004. SIMUL ILS Z RY 22R AND RY 21L APCH IN USE. NOTICE TO AIRMEN. RWY 21R, 3L CLSD, RWY 27L, 9R CLSD, RWY 27R, 9L CLSD. RY 22L ALS OTS, RY 22R PAPI LGTS OTS. PILOTS USE CTN FOR BIRD ACTIVITY. DEPARTURE ATIS 118.125. ...ADVS YOU HAVE INFO G.\n[Departure ATIS] KDTW DEP ATIS Q 2253Z - KDTW DEP INFO Q 2253Z. 21009KT 10SM FEW050 FEW250 33/24 A2991 (TWO NINER NINER ONE). DEPG RWY 21R, RWY 22L ;. NOTICE TO AIRMEN. RWY 27L, 9R CLSD, RWY 27R, 9L CLSD. PILOTS USE CTN FOR BIRD ACTIVITY. ...ADVS YOU HAVE INFO Q.",
    "KMSP": "[Arrival ATIS] KMSP ARR ATIS L 0353Z MSP ARR INFO L 0353Z. 00000KT 10SM FEW250 26/21 A2986 (TWO NINER EIGHT SIX). VISUAL RWY 30L APCH IN USE. NOTICE TO AIRMEN. RWYS 12L, 30R CLSD, RWYS 4, 22 CLSD, RWYS 17, 35 CLSD. TWY R7. R8. R9. R10. CLOSED, TWY R BETWEEN R6 AND R10 CLOSED. GS RWY 12L OTS, RWYS 12R, 12L, INNER MARKER OTS.. HAZD WX INFO FOR MSP AREA AVBL FM FSS. CTN, BIRDS NEAR MSP. READ BACK HS AND ALT. ALL ACFT TAXI WITH TRANSPONDER AND ALTITUDE ENCODING ON. ...ADVS YOU HAVE INFO L.\n[Departure ATIS] KMSP DEP ATIS V 0153Z MSP DEP INFO V 0153Z. 33003KT 10SM FEW120 SCT140 SCT250 27/20 A2984 (TWO NINER EIGHT FOUR) RMK AO2 SLP101 T02670200. DEPARTING RWY 30L, RWY 30R, RWY 17. NOTICE TO AIRMEN. RWYS 4, 22 CLSD. TWY R7. R8. R9. R10. CLOSED, TWY R BETWEEN R6 AND R10 CLOSED. SWAP IN EFCT, INCLUDING CDR. ALL ACFT CTC METERING ON ONE THREE THREE POINT FIVE SEVEN WHEN READY TO PUSHBACK OR TAXI. HAZD WX INFO FOR MSP AREA AVBL FM FSS. CTN, BIRDS NEAR MSP. READ BACK HS AND ALT. ALL ACFT TAXI WITH TRANSPONDER AND ALTITUDE ENCODING ON. ...ADVS YOU HAVE INFO V.",
    "CYEG": "[Arrival ATIS] CYEG ARR ATIS G 0600Z CYEG ARR ATIS G 0600Z 27003KT 20SM FEW034CB CIG BKN072 14/13 A2981 APCH RNAV Z OR Y RWY 02, INFORM ARRL OF REQ APCH ON INITIAL CTC. LDG AND DEP RWY 02. RSC 02 5/5/5 100 PCT WET, 100 PCT WET, 100 PCT WET. VALID JUL 02 0500 - JUL 02 1300. SIMUL APPROACHES MAY BE IN EFCT. INFORM CYEG ATC INFO G\n[Departure ATIS] CYEG DEP ATIS E 0400Z CYEG ARR ATIS E 0400Z 35000KT 15SM FEW034TCU SCT042 CIG BKN100 BKN120 14/13 A2980 APCH RNAV Z OR Y RWY 02, INFORM ARRL OF REQ APCH ON INITIAL CTC. LDG AND DEP RWY 02. RSC 02 5/5/5 100 PCT WET, 100 PCT WET, 100 PCT WET. VALID JUL 02 0119 - JUL 02 0919. SIMUL APPROACHES MAY BE IN EFCT. INFORM CYEG ATC INFO E",
    "EHAM": "[Arrival ATIS] EHAM ARR ATIS A 0927Z EHAM ARRIVAL INFO A. DEMAND. MAIN LANDING RWY 18 R. TRANSITION LEVEL 040. WIND 250 DEG, 14 KT, VRB BTN 210 AND 290 DEG, 20 KT MAX, 8 KT MNM. VIS 10 KM OR MORE. WX -DZRA. CLD FEW 700 FT BKN 1600 FT. T 18. DP 16. QNH 1017 HPA. TREND BECMG CLD BKN 2200 FT. OPERATIONAL REPORT. CONTACT APCH WITH CALLSIGN ONLY. END OF INFO A\n[Departure ATIS] EHAM DEP ATIS O 1322Z EHAM DEPARTURE INFO O. DEMAND. MAIN DEPARTURE RWY 36 L. MAIN LANDING RWY 06. WIND 320 DEG, 8 KT, VRB BTN 260 AND 030 DEG, 11 KT MAX, 3 KT MNM. VIS 10 KM OR MORE. CLD FEW 4200 FT. T 23. DP 9. QNH 1022 HPA. OPERATIONAL REPORT. INFORM SCHIPHOL DEL BY VOICE IF UNABLE TO COMPLY WITH NADP 2. END OF INFO O",
    "EBBR": "[Arrival ATIS] EBBR ARR ATIS B 0720Z EBBR NAT, EXP VECT FOR ILS APP ARR RWY25L RSCD AT 0555 RWY25L DRY. DEP RWY25R TRL 055 TWY C6 CLSD. ILS RWY 25R U/S. RNP RWY 25R AT ATC DISCRETION. RWY STOPBARS U/S RWY 25R 230/11KT VRB BTN 190 AND 260 MNM6 MAX17 CAVOK T19 DP13 QNH 1021HPA NOSIG CFM ARR B\n[Departure ATIS] EBBR DEP ATIS K 1550Z EBBR NAT, DEP RWY25R RSCD AT 1536 RWY25R DRY. ARR RWY25L TRL 055 TWY OUT6, B3 CLSD. OUT7, E6, B1 MAX CAT C 250/9KT MNM6 MAX14 VIS ABV 10KM FEW3800FT T26 DP17 QNH 1019HPA NOSIG CFM DEP K",
    "EDDF": "[Arrival ATIS] EDDF ARR ATIS S -ARR-ATIS EDDF S METAR 020820 -EXPECT INDEPENDENT PARALLEL ILS Z APCH RWY 25R OR ILS APCH RWY 25L -RWY 25R 25L -GLS APCH ON REQUEST , DO NOT MISTAKE TWY M FOR RWY 25C WHEN PERFORMING VISUAL APPROACH , -TRL 60 - -22007KT 160V280 -CAVOK - - -T24 DP12 -QNH1021 - -TREND NOSIG\n[Departure ATIS] EDDF DEP ATIS B 0820Z DEP-ATIS EDDF B METAR 020820 RWY 25C 18 TRL 60 22007KT 160V280 RWY18 21006KT CAVOK T24 DP12 QNH1021 TREND NOSIG END OF ATIS B",
    "EDDL": "[Arrival ATIS] EDDL ATIS U 0720Z -ATIS EDDL U METAR 020720 -EXPECT VECTORS ILS APPROACH -RWY 23L -TWY L8 CLOSED BETWEEN TWY M AND RWY 23L -TRL 60 - -23015KT -CAVOK - - -T22 DP13 -QNH1020 - -TREND NOSIG\n[Departure ATIS] EDDL DEP ATIS R EDDL ARR/DEP DATIS RPT -ATIS EDDL R METAR 020550 -EXPECT VECTORS ILS APPROACH -RWY 23L -TWY L8 CLOSED BETWEEN TWY M AND RWY 23L -TRL 60 - -23010KT -CAVOK - - -T19 DP13 -QNH1020 - -TREND NOSIG",
    "EDDK": "[Arrival ATIS] EDDK ATIS G 0820Z -ATIS EDDK G METAR 020820 -EXPECT ILS APCH RWY 24 -RWY 24 -RWY COND RWY 24 AT TIME 0000 RWYCC 6 DEPOSIT TOTAL RWY DRY -TRL 60 -RWY 13R AND RWY 31L CLOSED FOR DEPARTURE AND LANDING: TAXIING BTN THR RWY 13R AND INTERSECTION RWY 24 POSSIBLE : -27011KT 240V300 -9999 - -FEW042 SCT049 -T23 DP14 -QNH1021 - -TREND NOSIG\n[Departure ATIS] EDDK DEP ATIS Q EDDK ARR/DEP DATIS RPT -ATIS EDDK Q METAR 291920 -EXPECT ILS APCH -RWY 31R 06 -RWY COND RWY 31R AT TIME 1830 RWYCC 6 DEPOSIT TOTAL RWY DRY RWY 06 AT TIME 1830 RWYCC 6 DEPOSIT TOTAL RWY DRY -TRL 60 -RWY 13R AND RWY 31L CLOSED FOR DEPARTURE AND LANDING: TAXIING BTN THR RWY 13R AND INTERSECTION RWY 24 POSSIBLE : -04003KT -CAVOK - - -T24 DP13 -QNH1024 - -TREND NOSIG",
    "EBLG": "[Arrival ATIS] EBLG ATIS I 2250Z EBLG INFO, EXP RNAV TO ILS APP ARR RWY22L DEP RWY22L RWY 22L DRY, RWYCC 666. TRL 055 TWY A4 DISPLACED 290/3KT CAVOK T18 DP12 QNH 1024HPA NOSIG CFM ATIS I",
    "LSZH": "[Arrival ATIS] LSZH ARR ATIS H 0920Z ARRIVALS, EXP ILS APCH, RWY 14. TRL 70. DEP RWY 28. WIND VRB, 3 KT. VIS 10 KM OR MORE, TDZ 10 KM OR MORE. CLD FEW 3500 FT. T 22. DP 13. QNH 1024. NOSIG.\n[Departure ATIS] LSZH DEP ATIS R 0750Z DEP RWY 28. TRL 70. ARRIVALS, EXP ILS APCH, RWY 14. TMA S 1 IS NOT ACT. TMA S 2 AND S 3 ARE NOT ACT. WIND VRB, 3 KT. VIS 10 KM OR MORE. CLD FEW 3000 FT. T 20. DP 13. QNH 1024. NOSIG.",
    "LIMC": "[Arrival ATIS] LIMC ARR ATIS S 0750Z LIMC ARR S 0750Z I.L.S. ZULU RWY IN USE 35L TL 70 WIND TDZ 220/7KT CAVOK T25 DP15 QNH 1017HPA QFE 0992HPA\n[Departure ATIS] LIMC DEP ATIS A 1450Z LIMC DEP A 1450Z RWY IN USE 35L TL 70 INTERSECTION ECHO WHISKY CLOSED.. WIND END VRB8KT CAVOK T31 DP16 QNH 1018HPA QFE 0993HPA DATALINK CLEARANCE AVAILABLE.... CONTACT 1 3 1 8 8 0 TO BE RELEASED BY THE AIRPORT OPERATOR ...",
    "LIRF": "[Arrival ATIS] LIRF ARR ATIS T 2150Z LIRF ARR T 2150Z RUNWAY 1 6 RIGHT ILS ZULU RWY IN USE 16R TL 70 WIND TDZ 280/4KT CAVOK T23 DP20 QNH 1019HPA\n[Departure ATIS] LIRF DEP ATIS O 1957Z LIRF DEP O 1957Z RWY IN USE 25 TL 70 RWYS IN USE FOR ARR 16L AND 16R WIND END 290/5KT CAVOK T23 DP21 QNH 1019HPA REA IS SENT AUTOMATICALLY ONCE RLSD BY RAMP WHEN READY CONTACT FIUME RAMP 121.725",
    "EINN": "[Arrival ATIS] EINN ARR ATIS Y 0730Z EXPECT I L S CATEGORY 1 LDG RWY24 TKOF RWY24 TRL FL060 32004KT 9999 FEW016 SCT018 BKN022 14/10 QNH Q1025 TREND NOSIG ADVISE AT FIRST CONTACT YOU HAVE ATIS INFO Y",
    "EGLL": "[Arrival ATIS] EGLL ARR ATIS T 0950Z RUNWAY 27R REDUCED DECLARED DISTANCES WITH TAKE OFF RUN AVAILABLE 3362METRES AND LANDING DISTANCE AVAILABLE 3362METRES LANDING RWY 27R TRANSITION-LEVEL: FL 70 IF STAND GUIDANCE IS OFF OR FAILS, REMAIN ON THE TAXIWAY CENTRELINE AND ADVISE ATC AUTO 30013KT 260V320 9999 FEW038 23/12 Q1021 TURBULENCE POSSIBLE ON THE LAST MILE OF THE APPROACH FOR RUNWAY 27R ACKNOWLEDGE RECEIPT OF INFORMATION T\n[Departure ATIS] EGLL DEP ATIS Y 0804Z DEPARTURE RWY 27L PILOTS THAT ARE IN RECEIPT OF DATALINK CLEARANCES ARE REMINDED THEY MUST CONTACT DELIVERY ON 121.980 WHEN READY FOR START AUTO 29022KT 240V300 8000 -RA BKN019 BKN028 BKN033 20/16 Q1020 ACKNOWLEDGE RECEIPT OF INFORMATION Y AND REPORT AIRCRAFT TYPE AND CURRENT QNH ON FIRST CONTACT WITH HEATHROW",
    "EPWA": "[Arrival ATIS] EPWA ARR ATIS F 0931Z EPWA ARR F. TIME 0930. EXP U ARR ILS Z APCH FOR RWY 33. RWY 33 RCC 6, 6, 6. 1ST PART, DRY. 2ND PART, DRY. 3RD PART, DRY. RWY REPORT END. TRANSITION LEVEL 80. WIND 290 DEG, 7 KT. CAVOK. T 20. DP 14. QNH 1017. NOSIG. CAUTION. BIRD ACT. END OF EPWA ARR F\n[Departure ATIS] EPWA DEP ATIS Y 1437Z EPWA DEP Y. TIME 1435. DEP RWY 29. ARR RWY 33, EXP U ARR ILS Z. REPORT READY FOR STARTUP ON DELIVERY 121 DECIMAL 605. TRANSITION LEVEL 80. WIND 360 DEG, 8 KT, VRB BTN 330 AND 120 DEG. CAVOK. T 31. DP 16. QNH 1019. NOSIG. CAUTION. BIRD ACT. END OF EPWA DEP Y",
    "EFHK": "[Arrival ATIS] EFHK ARR ATIS F 0950Z EXPECT ILS APCH ARR RWY 04L RUNWAY 04L CONDITION REPORT AT 0759 UTC RUNWAY CONDITION CODES 6 , 6 , 6 CONTAMINANTS ALL PARTS DRY TRL 65 WIND 030 DEG 6 KT VIS 10KM BKN 2200 FT T 19 DP 13 QNH 1009 NOSIG ACK INFO F\n[Departure ATIS] EFHK DEP ATIS U 1550Z DEP RWYS 22R AND 22L RUNWAY 22R CONDITION REPORT AT 1252 UTC RUNWAY CONDITION CODES 6 , 6 , 6 CONTAMINANTS ALL PARTS DRY RUNWAY 22L CONDITION REPORT AT 1307 UTC RUNWAY CONDITION CODES 6 , 6 , 6 CONTAMINANTS ALL PARTS DRY WIND 110 DEG 8 KT CAVOK T 22 DP 10 QNH 1016 NOSIG ACK INFO U",
    "LTAC": "[Arrival ATIS] LTAC ARR ATIS L 2020Z EXP ILS V APCH 03C DEP RWY 03L RWY 03C WIND 050 DEG 07 KT RWY 03L WIND 060 DEG 05 KT TRL 110 CAVOK T 20 DP 11 QNH 1017 NOSIG FOR DELIVERY CTC 121.9. FOR DELIVERY FIRST USE DIGITAL DEP CLR. CTN BIRD HAZARD OVR AERODROME. APCH FREQUENCY 129.050. TAXIWAY ECHO 1 IS CLOSED. END OF ATIS L",
    "UBBB": "[Arrival ATIS] UBBB ARR ATIS Y 2200Z ATIS Y EXP ILS/ LDG 34 35 DEP 34 35 IN USE RWY 34 CLEAR DRY 70 RWY 35 CLEAR DRY 70 TLVL 110 WIND WIND RWY 34 360 4 KT SPD MAX 4 MIN 4 WIND RWY 35 330 4 KT SPD MAX 4 MIN 2 VIS CAVOK T 21 / DP 19 QNH 1017 HPA TREND TREND NOSIG MODERATE BIRDS ACT IN VICINITY OF AP END OF ATIS Y\n[Departure ATIS] UBBB DEP ATIS Z 2300Z ATIS Z EXP ILS/ LDG 16 17 DEP 16 17 IN USE RWY 16 CLEAR DRY 70 RWY 17 CLEAR DRY 70 TLVL 110 WIND WIND RWY 16 220 6 KT SPD MAX 10 MIN 4 WIND RWY 17 220 2 KT SPD MAX 4 MIN 0 VIS CAVOK T 24 / DP 13 QNH 1011 HPA TREND TREND NOSIG MODERATE BIRDS ACT IN VICINITY OF AP END OF ATIS Z",
    "ZWWW": "[Arrival ATIS] ZWWW ARR ATIS C 2200Z EXP ILSDME Z APCH LDG RWY 26L TA 3000 WIND 170/3MPS CAVOK T 25 /DP 11 QNH 1011 HPA ADZ YOU HAVE INFO C.\n[Departure ATIS] ZWWW DEP ATIS G 1300Z DEP RWY 26L TA 3000 WIND 300/2MPS CAVOK T 29 /DP 11 QNH 1011 HPA ADZ YOU HAVE INFO G.",
    "ZLXY": "[Arrival ATIS] ZLXY ARR ATIS K 2200Z EXP ILS/DME APCH LDG RWY 23R WIND VRB/2MPS MAX7 VIS 9999M CLD SCT 900M /OVC 1800M T 22 /DP 19 QNH 1008 HPA VISUAL APPROACH IN PROGRESS ADZ YOU HAVE INFO K.\n[Departure ATIS] ZLXY DEP ATIS P 0900Z DEP RWY 05L & 06L WIND 080/4MPS VRB BTN 030/ AND 120/ VIS 9999M CLD FEW 1500M /FEW TCU 1500M T 34 /DP 17 QNH 1005 HPA VISUAL APPROACH IN PROGRESS ADZ YOU HAVE INFO P.",
    "ZBAA": "[Arrival ATIS] ZBAA ARR ATIS N 2200Z EXP ILS APCH DEPENDENT PARL INSTR APCH LDG RWY 36L & 36R & 01 WIND VRB DEG 1 MPS VIS 4000 BR NSC T 23 /DP 22 QNH 1008 HPA ADZ YOU HAVE INFO N.\n[Departure ATIS] ZBAA DEP ATIS Y 1530Z DEP RWY 36L & 36R WIND 070 DEG 1 MPS CAVOK T 22 /DP 20 QNH 1008 HPA RWY INDEPENDENT PARALLEL DEP VISUAL APPROACH IS IN PROGRESS. ADZ YOU HAVE INFO Y.",
    "ZBHH": "[Arrival ATIS] ZBHH ARR ATIS J 2200Z EXP ILSDME APCH LDG RWY 26 TA 3000 /TRL 3600 WIND 050/3MPS CAVOK T 19 /DP 14 QNH 1010 HPA ADZ YOU HAVE INFO J.\n[Departure ATIS] ZBHH DEP ATIS K 0100Z DEP RWY 26 TA 3000 /TRL 3600 WIND VRB/2MPS CAVOK T 23 /DP 08 QNH 1010 HPA ADZ YOU HAVE INFO K.",
    "ZSQD": "[Arrival ATIS] ZSQD ARR ATIS F 2200Z EXP ILSDME APCH LDG RWY 16 TA 3000 /TRL 3600 WIND 160/4MPS VIS 9999M CLD SCT 270M T 23 /DP 22 QNH 1009 HPA VISUAL APPROACH OPERATION IN PROGRESS. RUNWAY 16,IF MISSED APPROACH,EXPECT FOLLOW THE STANDARD MISSED APPROACH PROCEDURE,CLIMB TO 600M ON QNH OR BY ATC CAUTION MAYBE THERE IS A FLOCK OF BIRDS IN THE VICINITY OF AIRPORT ADZ YOU HAVE INFO F.\n[Departure ATIS] ZSQD DEP ATIS F 2200Z DEP RWY 16 TA 3000 /TRL 3600 WIND 160/4MPS VIS 9999M CLD SCT 270M T 23 /DP 22 QNH 1009 HPA VISUAL APPROACH OPERATION IN PROGRESS. RUNWAY 16,IF MISSED APPROACH,EXPECT FOLLOW THE STANDARD MISSED APPROACH PROCEDURE,CLIMB TO 600M ON QNH OR BY ATC CAUTION MAYBE THERE IS A FLOCK OF BIRDS IN THE VICINITY OF AIRPORT ADZ YOU HAVE INFO F."
  },
  "windtemp_alaska": "\n000\nFBAK31 KWNO 020800\nFD1AK1\nDATA BASED ON 020600Z    \nVALID 021200Z   FOR USE 0800-1500Z. TEMPS NEG ABV 24000\n\nFT  3000    6000    9000   12000   18000   24000  30000  34000  39000\nADK 3216 3017+03 3118+00 3121-04 3228-17 3231-30 303644 294249 284549\nADQ 9900 9900+00 9900-03 2010-09 2515-20 2419-31 252746 263248 262944\nAKN 2106 2108-01 1812-04 1910-09 1808-20 1807-32 210846 251447 261842\nANC 9900 9900+02 1305-04 1409-10 1605-22 3210-34 312247 301650 281342\nANN 3507 2108-01 2309-05 2715-09 2728-21 2837-32 283846 283843 283140\nBET 9900 1108+00 0907-04 0906-09 0705-20 9900-32 270847 281149 281343\nBRW 0705 2314-01 2315-07 2318-12 2225-24 2331-36 232749 210743 990041\nBTI 1307 9900+02 2505-04 2309-11 2017-22 1922-34 195547 194349 192143\nBTT 9900 9900+02 2210-05 2109-11 2106-23 2308-35 201149 200950 190843\nCDB 2717 2616-02 2413-06 2618-09 2725-19 2734-31 263943 263645 263343\nCZF 0705 0409+00 0106-05 0207-08 3512-20 3316-32 322249 321951 291344\nEHM 9900 9900-01 9900-04 1105-10 9900-20 0405-32 040846 290846 281342\nFAI 9900 9900+04 9900-04 0805-10 9900-23 9900-36 030549 990048 200743\nFYU 9900 9900+03 3605-03 3505-10 0205-23 1005-35 163348 162550 171443\nGAL 9900 1906+01 2107-06 1906-11 9900-22 2206-34 241649 241550 270643\nGKN 9900 3607+02 3609-04 3611-10 3511-23 3510-36 320848 310647 270742\nHOM 9900 1207+01 1210-04 1507-09 2305-21 2707-32 281847 282049 271842\nJNU 1905 2507-02 2808-08 3106-14 0608-28 0611-39 311539 291238 271338\nLUR 0522 1108-03 1815-06 1821-11 2021-24 2131-36 212048 990043 040840\nMCG 9900 1405+02 2006-05 1910-11 9900-22 2705-33 270749 230851 270843\nMDO 2707 9900+01 9900-04 0605-09 9900-22 3018-33 302547 292249 281841\nOME 2105 1915-01 1914-07 1909-09 2213-21 2516-34 252150 261849 270943\nORT      3105+02 9900-04 9900-10 1205-24 1518-34 152148 151348 170842\nOTZ 1308 1815+00 1815-06 1814-10 2013-22 2117-35 232151 241048 990042\nSNP 3511 3620+01 3624-03 3625-06 3630-18 0137-31 364047 352749 311944\nTKA 2208 9900+02 1705-04 1508-10 1509-23 3508-34 321648 321550 271042\nUNK 1607 1707+00 1606-06 1906-11 9900-22 2606-34 261150 291149 270943\nYAK 2706 3007-01 9900-05 3606-11 3612-24 0517-35 351046 321544 291240\nIKO 2827 2929+00 2936-03 2937-05 2843-18 2848-30 275843 275347 274145\nAFM 9900 2207+01 2006-05 9900-10 2305-23 9900-35 251151 240649 990042\n5AB 0105 9900+03 9900+01 9900-03 2905-15 2709-28 282944 273753 273255\n5AC 3408 3116+05 3023+00 3029-05 2944-16 3055-29 308042 308246 296046\n5AD 2822 2928+04 2827+00 2836-04 2848-17 2858-28 288741 288949 286848\n5AE 2522 2429+02 2431-03 2435-07 2541-19 2546-30 256143 256447 264846\n5AF 3106 3210-02 3113-05 3019-10 2932-22 2949-32 295745 295245 283440\n5AG 9900 3108+00 3011-04 3012-10 3115-22 3032-33 303947 293647 282640\n",
  "vaac_tokyo": [
    {
      "id": "20260702_30027000_0214",
      "year": "2026",
      "volcano": "Sheveluch",
      "psn": "N5639 E16122",
      "issued": "20260702",
      "text": "FVFE01 RJTD 020951\nVA ADVISORY\nDTG: 20260702/0951Z\nVAAC: TOKYO\nVOLCANO: SHEVELUCH 300270\nPSN: N5639 E16122\nAREA: RUSSIA\nSOURCE ELEV: 3283M AMSL\nADVISORY NR: 2026/214\nINFO SOURCE: HIMAWARI-9\nERUPTION DETAILS: POSS ERUPTION OBS AT 20260702/0910Z FL350 EXTD NW\nOBS VA DTG: 02/0930Z\nOBS VA CLD: SFC/FL350 N5638 E16117 - N5647 E16101 - N5712 E16114 - \nN5657 E16144 - N5641 E16132 MOV NW 15KT\nFCST VA CLD +6 HR: 02/1530Z SFC/FL350 N5640 E16123 - N5650 E15942 - \nN5609 E15743 - N5802 E16014\nFCST VA CLD +12 HR: 02/2130Z SFC/FL350 N5859 E16124 - N5714 E16020 - \nN5702 E15757 - N5455 E15559 - N5444 E15359 - N5850 E15913\nFCST VA CLD +18 HR: 03/0330Z SFC/FL340 N6007 E16029 - N5726 E15838 - \nN5156 E15330 - N5130 E15214 - N5850 E15650\nRMK: NIL\nNXT ADVISORY: 20260702/1200Z=",
      "img_url": "https://ds.data.jma.go.jp/svd/vaac/data/VAGFN/2026/Images/20260702_30027000_0214_QH21_01.png",
      "sat_img_url": null,
      "text_url": "https://ds.data.jma.go.jp/svd/vaac/data/TextData/2026/20260702_30027000_0214_Text.html"
    },
    {
      "id": "20260701_30006000_0001",
      "year": "2026",
      "volcano": "Mutnovsky",
      "psn": "N5227 E15812",
      "issued": "20260701",
      "text": "FVFE01 RJTD 012206\nVA ADVISORY\nDTG: 20260701/2206Z\nVAAC: TOKYO\nVOLCANO: MUTNOVSKY 300060\nPSN: N5227 E15812\nAREA: RUSSIA\nSOURCE ELEV: 2288M AMSL\nADVISORY NR: 2026/1\nINFO SOURCE: KVERT KBGS UHPP HIMAWARI-9\nERUPTION DETAILS: ERUPTION AT 20260701/2016Z FL170 EXTD W REPORTED\nOBS VA DTG: 01/2140Z\nOBS VA CLD: VA NOT IDENTIFIABLE FM SATELLITE DATA WIND FL170 120/8KT\nFCST VA CLD +6 HR: NOT AVBL\nFCST VA CLD +12 HR: NOT AVBL\nFCST VA CLD +18 HR: NOT AVBL\nRMK: WE WILL ISSUE FURTHER ADVISORY IF VA IS DETECTED IN SATELLITE \nIMAGERY.\nNXT ADVISORY: NO FURTHER ADVISORIES=",
      "img_url": "https://ds.data.jma.go.jp/svd/vaac/data/VAGFN/2026/Images/20260701_30006000_0001_QH21_01.png",
      "sat_img_url": null,
      "text_url": "https://ds.data.jma.go.jp/svd/vaac/data/TextData/2026/20260701_30006000_0001_Text.html"
    },
    {
      "id": "20260701_27202000_0225",
      "year": "2026",
      "volcano": "Kanlaon",
      "psn": "N1025 E12308",
      "issued": "20260701",
      "text": "FVFE01 RJTD 012010\nVA ADVISORY\nDTG: 20260701/2010Z\nVAAC: TOKYO\nVOLCANO: KANLAON 272020\nPSN: N1025 E12308\nAREA: PHILIPPINES\nSOURCE ELEV: 2435M AMSL\nADVISORY NR: 2026/225\nINFO SOURCE: HIMAWARI-9 PHIVOLCS\nERUPTION DETAILS: ERUPTION AT 20260701/1954Z FL090 EXTD NNW REPORTED\nOBS VA DTG: 01/1950Z\nOBS VA CLD: VA NOT IDENTIFIABLE FM SATELLITE DATA WIND FL090 120/5KT\nFCST VA CLD +6 HR: NOT AVBL\nFCST VA CLD +12 HR: NOT AVBL\nFCST VA CLD +18 HR: NOT AVBL\nRMK: WE WILL ISSUE FURTHER ADVISORY IF VA IS DETECTED IN SATELLITE \nIMAGERY.\nNXT ADVISORY: NO FURTHER ADVISORIES=",
      "img_url": "https://ds.data.jma.go.jp/svd/vaac/data/VAGFN/2026/Images/20260701_27202000_0225_QH21_01.png",
      "sat_img_url": null,
      "text_url": "https://ds.data.jma.go.jp/svd/vaac/data/TextData/2026/20260701_27202000_0225_Text.html"
    },
    {
      "id": "20260630_27307000_0011",
      "year": "2026",
      "volcano": "Taal",
      "psn": "N1400 E12100",
      "issued": "20260630",
      "text": "FVFE01 RJTD 300656\nVA ADVISORY\nDTG: 20260630/0656Z\nVAAC: TOKYO\nVOLCANO: TAAL 273070\nPSN: N1400 E12100\nAREA: PHILIPPINES\nSOURCE ELEV: 311M AMSL\nADVISORY NR: 2026/11\nINFO SOURCE: HIMAWARI-9 PHIVOLCS\nERUPTION DETAILS: ERUPTION AT 20260630/0634Z FL050 EXTD SW REPORTED\nOBS VA DTG: 30/0640Z\nOBS VA CLD: VA NOT IDENTIFIABLE FM SATELLITE DATA WIND FL050 100/15KT\nFCST VA CLD +6 HR: NOT AVBL\nFCST VA CLD +12 HR: NOT AVBL\nFCST VA CLD +18 HR: NOT AVBL\nRMK: WE WILL ISSUE FURTHER ADVISORY IF VA IS DETECTED IN SATELLITE \nIMAGERY.\nNXT ADVISORY: NO FURTHER ADVISORIES=",
      "img_url": "https://ds.data.jma.go.jp/svd/vaac/data/VAGFN/2026/Images/20260630_27307000_0011_QH21_01.png",
      "sat_img_url": null,
      "text_url": "https://ds.data.jma.go.jp/svd/vaac/data/TextData/2026/20260630_27307000_0011_Text.html"
    }
  ],
  "vaac_alaska": [
    {
      "text": "\n000\nFVAK21 PAWU 292114\nVAAAK1\nVA ADVISORY\n\nDTG: 20260629/2111Z\n\nVAAC: ANCHORAGE\n\nVOLCANO: SHEVELUCH 300270\n\nPSN: N5639 E16122\n\nAREA: KAMCHATKA PENINSULA\n\nSOURCE ELEV: 10771 FT AMSL\n\nADVISORY NR: 2026/163\n\nRMK: PLEASE SEE FVFE01 RJTD ISSUED BY VAAC TOKYO WHICH DESCRIBES\nCONDITIONS NEAR THE VAAC ANCHORAGE AREA OF RESPONSIBILITY...BS\n\n\n\n",
      "issued": "2026-06-29T21:14:00+00:00",
      "volcano": "Sheveluch",
      "psn": "N5639 E16122"
    }
  ]
}