{
  "updated_utc": "2026-07-17T04:07Z",
  "metar": {
    "RJAA": "METAR RJAA 170230Z 13008KT 4000 R16R/P2000N R16L/1900U SHRA BR FEW003 BKN005 BKN020 26/25 Q1004 BECMG 6000 -SHRA FEW002 BKN007",
    "PANC": "SPECI PANC 170216Z 15011G23KT 8SM -RA FEW011 FEW048 OVC055 11/08 A2996 RMK AO2 WSHFT 0156 P0000 T01060083",
    "PAFA": "METAR PAFA 170253Z 19004KT 10SM SCT060 BKN090 BKN200 19/07 A2985 RMK AO2 SLP111 T01940067 56019",
    "PAED": "SPECI PAED 170219Z 27006KT 6SM -RA BKN005 BKN037 OVC045 12/10 A2995 RMK AO2A SLP138 $",
    "KSEA": "METAR KSEA 170253Z 22005KT 10SM FEW018 OVC045 16/12 A3003 RMK AO2 SLP173 T01560122 53000 $",
    "ZSPD": "METAR ZSPD 170230Z 23005MPS 190V250 CAVOK 37/24 Q1001 NOSIG",
    "ZSSS": "METAR ZSSS 170230Z VRB03MPS 9999 SCT040 37/25 Q1001 NOSIG",
    "RJFR": "METAR RJFR 170300Z 10006KT 9999 FEW015 BKN/// 30/26 Q1003",
    "VHHH": "SPECI VHHH 170211Z 21010KT 9999 VCTS SHRA FEW005 FEW012CB SCT020 26/23 Q1007 RETS RERA TEMPO 22015G25KT 2500 TSRA SHRA FEW005CB SCT015",
    "RCTP": "METAR RCTP 170230Z 25016KT 9999 FEW025 33/25 Q1006 NOSIG RMK A2973",
    "ZGSZ": "METAR ZGSZ 170300Z 19004MPS 6000 SHRA FEW007 FEW026CB BKN050 28/26 Q1006 BECMG AT0320 -SHRA",
    "WSSS": "METAR WSSS 170230Z 12004KT 070V150 9999 FEW018TCU FEW020CB SCT280 BKN300 29/25 Q1012 NOSIG",
    "WMKK": "METAR WMKK 170230Z 12007KT 050V180 9999 FEW017CB 32/25 Q1011 NOSIG",
    "WIDD": "METAR WIDD 170230Z 14008KT 9999 SCT014 30/26 Q1012 NOSIG",
    "VTBS": "METAR VTBS 170230Z 22006KT 9999 FEW020 SCT080 30/24 Q1011 NOSIG",
    "VTBU": "METAR VTBU 170230Z 24009KT 9000 FEW020 31/27 Q1011 NOSIG",
    "ROAH": "METAR ROAH 170230Z 23009KT 9999 BKN007 BKN010 30/28 Q1007",
    "VVDN": "METAR VVDN 170230Z VRB03KT 9999 FEW020 35/22 Q1006 NOSIG",
    "RCKH": "SPECI RCKH 170218Z 06003KT 320V120 9000 3000S -SHRA SCT008CB SCT010 BKN014 BKN026 30/25 Q1009 TEMPO 3000 SHRA RMK CB S-SW A2981",
    "KLAX": "METAR KLAX 170253Z 22005KT 9SM FEW010 22/19 A2981 RMK AO2 SLP092 T02220189 53005 $",
    "KONT": "METAR KONT 170253Z 25010KT 10SM FEW200 28/17 A2981 RMK AO2 SLP075 T02830167 53010 $",
    "KSFO": "METAR KSFO 170256Z 29012KT 10SM FEW010 17/11 A2987 RMK AO2 SLP115 T01670111 55006",
    "KOAK": "METAR KOAK 170253Z 24013KT 10SM FEW010 17/12 A2987 RMK AO2 SLP115 T01670117 55007",
    "KMHR": "METAR KMHR 170215Z AUTO 22011KT 9SM CLR 29/09 A2976 RMK AO2 T02940086 $",
    "KDFW": "METAR KDFW 170253Z 14011G16KT 10SM FEW110 SCT170 BKN250 26/20 A3005 RMK AO2 SLP169 60000 T02560200 51011 $",
    "KIAH": "METAR KIAH 170253Z 17007KT 10SM FEW025 FEW180 BKN250 29/24 A3008 RMK AO2 SLP185 T02890239 51014 $",
    "KORD": "METAR KORD 170251Z VRB05KT 3/4SM R10L/P6000FT FU VV015 27/17 A3006 RMK AO2 SLP174 T02670167 53011",
    "KJFK": "METAR KJFK 170251Z 32011G17KT 5SM FU FEW032 BKN045 29/13 A2992 RMK AO2 SLP132 FU BKN045 T02890128 51019 $",
    "KRFD": "METAR KRFD 170254Z 00000KT 1 1/2SM FU OVC019 26/16 A3008 RMK AO2 SLP180 T02610161 53016",
    "KIND": "METAR KIND 170254Z 03006KT 10SM SCT060 BKN110 BKN190 OVC250 28/22 A3007 RMK AO2 SLP172 CB DSNT NE T02830217 53015 $",
    "KDTW": "METAR KDTW 170253Z 03004KT 1SM R03R/P6000FT FU OVC035 24/15 A3009 RMK AO2 SFC VIS 1 1/2 SLP185 FU OVC035 T02440150 53014",
    "KMSP": "METAR KMSP 170253Z 23004KT 10SM FEW250 31/20 A2999 RMK AO2 SLP150 T03060200 53005",
    "CYEG": "METAR CYEG 170300Z 18003KT 20SM FEW020TCU FEW220 23/21 A2994 RMK TCU1CI2 TCU TR SLP139 DENSITY ALT 3800FT",
    "EHAM": "METAR EHAM 170225Z 33005KT 9999 MIFG FEW012 16/15 Q1014 NOSIG",
    "EBBR": "METAR EBBR 170220Z 33002KT CAVOK 16/14 Q1014 NOSIG",
    "EDDF": "METAR EDDF 170220Z AUTO VRB01KT CAVOK 17/16 Q1013 NOSIG",
    "EDFH": "METAR EDFH 170220Z 15007KT CAVOK 17/14 Q1015",
    "EDDL": "METAR EDDL 170220Z AUTO 02002KT CAVOK 17/14 Q1013 NOSIG",
    "EDDK": "METAR EDDK 170220Z AUTO VRB01KT CAVOK 16/14 Q1013 NOSIG",
    "EBLG": "METAR EBLG 170220Z 04003KT 020V080 CAVOK 18/13 Q1014 NOSIG",
    "LSZH": "METAR LSZH 170220Z AUTO VRB02KT CAVOK 18/16 Q1017 NOSIG",
    "LIMC": "METAR LIMC 170220Z 33016G30KT 270V020 4000 R35R/0750D R17L/P2000N R35L/1500D TSRA BKN030CB BKN035 19/18 Q1018 NOSIG",
    "LIRF": "METAR LIRF 170220Z 12005KT CAVOK 26/25 Q1014 NOSIG",
    "EINN": "METAR EINN 170230Z 34009KT CAVOK 17/15 Q1020 NOSIG",
    "EGLL": "METAR EGLL 170220Z AUTO 36003KT 9999 NCD 18/13 Q1017",
    "EGSS": "METAR EGSS 170220Z AUTO 33004KT 9000 NCD 13/12 Q1017",
    "EPWA": "METAR EPWA 170230Z VRB01KT CAVOK 17/14 Q1017 NOSIG",
    "UHPP": "METAR UHPP 170230Z 18003MPS 130V220 CAVOK 22/13 Q1017 R16R/CLRD62 NOSIG RMK QFE760/1013",
    "EFHK": "METAR EFHK 170220Z 13006KT 9999 FEW045 14/13 Q1020 NOSIG",
    "LBBG": "METAR LBBG 170230Z AUTO 28003KT 9999 NCD 20/17 Q1014 NOSIG",
    "LTAC": "METAR LTAC 170220Z 04006KT CAVOK 16/12 Q1016 NOSIG RMK RWY21C 03007KT RWY03L 03008KT RWY21R 01007KT RWY03R 04005KT RWY21L 04007KT",
    "UBBB": "METAR UBBB 170230Z 31010KT CAVOK 25/21 Q1008 NOSIG",
    "UTAA": "METAR UTAA 170300Z 30010KT 9000 NSC 30/20 Q1006 R88/CLRD70 NOSIG",
    "UACC": "METAR UACC 170230Z 29003MPS 260V320 CAVOK 23/13 Q1004 NOSIG RMK QFE722/0963",
    "UAAA": "METAR UAAA 170230Z 36002MPS 330V050 9999 NSC 28/11 Q1009 NOSIG",
    "UZTT": "METAR UZTT 170230Z 13004KT CAVOK 32/14 Q1004 NOSIG",
    "ZWWW": "METAR ZWWW 170230Z 15003MPS 120V200 CAVOK 35/07 Q1010 NOSIG",
    "ZLXY": "METAR ZLXY 170300Z VRB02MPS CAVOK 30/19 Q1006 NOSIG",
    "ZBAA": "METAR ZBAA 170230Z 20005MPS 170V230 CAVOK 30/19 Q1002 NOSIG",
    "ZBHH": "METAR ZBHH 170300Z 21002MPS 130V290 CAVOK 24/16 Q1008 NOSIG",
    "ZSQD": "METAR ZSQD 170300Z 07004MPS 9999 -RA SCT012 26/24 Q1001 NOSIG",
    "ZMCK": "METAR ZMCK 170230Z VRB02MPS 9999 FEW030CB SCT033 18/12 Q1010 NOSIG RMK QFE643.1 67 MOP",
    "UUEE": "METAR UUEE 170230Z 32004MPS CAVOK 10/06 Q1017 R06R/CLRD62 NOSIG",
    "UUDD": "METAR UUDD 170230Z 35005MPS CAVOK 10/05 Q1017 R31L/CLRD65 NOSIG",
    "ULLI": "SPECI ULLI 170228Z 00000MPS CAVOK 11/08 Q1021 R10R/090065 NOSIG",
    "USSS": "METAR USSS 170230Z 27004MPS 9999 SCT026 18/18 Q0998 R26L/CLRD60 R26R/210060 NOSIG RMK QFE728/0971",
    "UNNT": "METAR UNNT 170230Z 17003MPS CAVOK 22/19 Q0997 R25/250160 R34/CLRD// NOSIG RMK QFE738/0984",
    "UNKL": "METAR UNKL 170230Z 09003MPS CAVOK 19/14 Q1000 R11/CLRD// NOSIG RMK QFE725",
    "UIBB": "METAR UIBB 170230Z 19002MPS 9999 NSC 21/12 Q1004 R12/CLRD62 NOSIG RMK QFE710/0947",
    "UEEE": "METAR UEEE 170230Z 10003MPS 9999 BKN030CB 20/16 Q0991 R23/190157 NOSIG RMK QFE735",
    "UHHH": "METAR UHHH 170230Z 19007MPS 9999 SCT048 26/17 Q0998 R88/090060 NOSIG RMK QFE742/0990",
    "UHSS": "METAR UHSS 170230Z 20005MPS 9999 BKN026CB 25/21 Q1005 R19/CLRD70 NOSIG RMK MT OBSC QFE752/1003"
  },
  "taf": {
    "RJAA": "TAF RJAA 162305Z 1700/1806 14010KT 8000 -SHRA FEW005 BKN012 TEMPO 1700/1706 4000 -TSRA BR FEW003 BKN005 FEW020CB TEMPO 1706/1715 FEW003 BKN005",
    "PANC": "TAF PANC 170242Z 1703/1806 15012G20KT P6SM -RA FEW011 OVC050 FM170700 15006KT P6SM -RA SCT035 OVC045 FM171000 34006KT P6SM FEW030 SCT045 BKN060 FM171700 34003KT 6SM -SHRA OVC045 FM172000 34005KT 5SM -SHRA BKN030",
    "PAFA": "TAF PAFA 162320Z 1700/1806 20007KT P6SM FEW050 BKN100 FM171000 25004KT 6SM -SHRA BR SCT030 OVC050 FM171400 24007KT P6SM OVC050 FM180000 21006KT P6SM VCTS BKN050CB",
    "PAED": "TAF AMD PAED 170242Z 1702/1803 30009KT 9000 -RA SCT004 BKN035 OVC045 650604 QNH2992INS TEMPO 1702/1708 6000 RA BKN004 BECMG 1708/1709 02008KT 9999 VCSH SCT055 OVC070 610703 520208 QNH2980INS BECMG 1721/1722 34009KT 9999 -RA SCT010 BKN020 OVC045 640604 QNH2982INS TX15/1722Z TN09/1714Z",
    "KSEA": "TAF KSEA 170254Z 1703/1806 24007KT P6SM FEW015 BKN040 FM171200 20005KT P6SM SCT010 BKN020 FM171800 23007KT P6SM BKN035 FM172100 24007KT P6SM FEW050 FM180300 31006KT P6SM BKN050",
    "ZSPD": "TAF ZSPD 170303Z 1706/1812 22004MPS 8000 SCT030 TX38/1706Z TX34/1806Z TN28/1721Z TEMPO 1706/1710 TSRA BKN008 FEW030CB TEMPO 1805/1809 TSRA BKN008 FEW030CB",
    "ZSSS": "TAF ZSSS 170303Z 1706/1812 23004MPS 8000 SCT030 TX38/1706Z TX35/1803Z TN28/1721Z TEMPO 1706/1710 TSRA BKN011 FEW030CB TEMPO 1804/1808 TSRA BKN015 FEW030CB",
    "RJFR": "TAF RJFR 162305Z 1700/1806 02004KT 9999 FEW010 BKN030 BECMG 1700/1702 11008KT TEMPO 1703/1705 -TSRA FEW015 BKN030 FEW030CB TEMPO 1705/1709 3000 TSRA BR FEW020 BKN030 FEW030CB TEMPO 1709/1800 BKN005 BKN040 BECMG 1803/1806 07010KT",
    "VHHH": "TAF VHHH 170200Z 1703/1809 20010KT 9999 FEW010 SCT025 TX29/1706Z TX31/1806Z TN26/1722Z TEMPO 1703/1706 22020G30KT 2000 TSRA +SHRA FEW008CB SCT015 TEMPO 1706/1709 3000 SHRA FEW010CB SCT020 TEMPO 1722/1802 VRB15G25KT 2500 TSRA SHRA FEW010CB SCT015",
    "RCTP": "TAF RCTP 162300Z 1700/1806 25015KT 9999 FEW015 TEMPO 1706/1712 24018G28KT TEMPO 1718/1724 24010KT",
    "ZGSZ": "TAF ZGSZ 170302Z 1706/1812 19004MPS 8000 SCT030 BKN050 TX29/1707Z TX30/1806Z TN26/1722Z TEMPO 1706/1708 SHRA FEW020CB BKN040 TEMPO 1720/1724 SHRA FEW020CB BKN040 TEMPO 1804/1807 TSRA SCT015 FEW020CB BKN040",
    "WSSS": "TAF AMD WSSS 170135Z 1701/1806 14008KT 9999 FEW015 SCT020",
    "WMKK": "TAF WMKK 162300Z 1700/1806 13005KT 9999 FEW018 PROB30 TEMPO 1705/1709 5000 TSRA FEW017CB",
    "VTBS": "TAF VTBS 162300Z 1700/1806 22008KT 9999 FEW020 TEMPO 1709/1713 VRB15KT 3000 TSRA FEW018CB SCT030 BKN080",
    "VTBU": "TAF VTBU 162300Z 1700/1724 24008KT 9999 FEW020",
    "ROAH": "TAF ROAH 162305Z 1700/1806 23010KT 9999 FEW010 BKN015 TEMPO 1701/1704 FEW005 BKN008 TEMPO 1711/1803 FEW004 BKN006",
    "VVDN": "TAF VVDN 162300Z 1700/1724 23013KT 9999 FEW017 SCT060 TEMPO 1709/1712 TS SCT013 FEW015CB SCT060",
    "RCKH": "TAF RCKH 162300Z 1700/1806 25007KT 9999 FEW015 BKN032 TEMPO 1701/1704 5000 SHRA FEW010 FEW015TCU BKN020 BECMG 1711/1713 09005KT TEMPO 1711/1714 5000 SHRA FEW010 FEW015CB BKN020 BECMG 1800/1802 26005KT",
    "KLAX": "TAF KLAX 162338Z 1700/1806 27012KT P6SM FEW015 FM170300 26006KT P6SM SCT250 FM170800 11008KT P6SM BKN009 FM171700 14008KT P6SM SCT012 FM172000 24010KT P6SM SCT250 FM180300 24005KT P6SM OVC009",
    "KONT": "TAF KONT 162320Z 1700/1806 25012G20KT P6SM SCT150 FM170300 26010KT P6SM FEW150 FM170700 VRB04KT P6SM FEW150 FM171900 25012G20KT P6SM SCT150 FM180500 VRB05KT P6SM SCT150",
    "KSFO": "TAF KSFO 170253Z 1703/1806 27015KT P6SM FEW012 FM170600 28015KT P6SM SCT010 FM171100 28011KT P6SM BKN010 FM171700 29014KT P6SM SCT010 FM172000 29020G25KT P6SM SKC",
    "KOAK": "TAF KOAK 162327Z 1700/1806 26015KT P6SM SKC FM170400 26010KT P6SM SKC FM170900 25008KT P6SM BKN010 FM171800 26008KT P6SM SCT010 FM172000 28015KT P6SM SKC FM180300 26012KT P6SM SCT010",
    "KMHR": "TAF KMHR 162333Z 1700/1724 22009G14KT P6SM SKC FM170600 16008KT P6SM SKC FM171500 19007KT P6SM SKC FM172000 22008KT P6SM SKC",
    "KDFW": "TAF KDFW 170300Z 1703/1806 16010KT P6SM BKN100 TEMPO 1713/1716 BKN022 FM171600 18016KT P6SM SCT040",
    "KIAH": "TAF KIAH 170313Z 1703/1806 16004KT P6SM FEW025 BKN250 FM171400 19007KT P6SM SCT025 SCT035 SCT250 FM171800 16009KT P6SM SCT040 SCT060 SCT250 FM180300 17004KT P6SM FEW060 SCT250",
    "KORD": "TAF KORD 170300Z 1703/1806 VRB03KT 3/4SM FU VV015 FM171500 24009KT P6SM SCT050 BKN100 PROB30 1718/1724 VRB15G25KT 3SM -TSRA BR BKN040CB",
    "KJFK": "TAF KJFK 170230Z 1702/1806 32009KT 5SM FU SCT030 OVC250 TEMPO 1703/1706 2SM FU BKN030 FM170600 34006KT 5SM FU BKN250 FM171300 34008KT P6SM SCT250 FM171800 21011KT P6SM FEW050 SCT250 FM180000 20008KT 5SM FU SCT250",
    "KRFD": "TAF KRFD 170300Z 1703/1724 VRB03KT 1 1/2SM FU BKN020 FM171400 23007KT P6SM SCT050 BKN100 PROB30 1718/1724 VRB15G25KT 3SM -TSRA BR BKN040CB",
    "KIND": "TAF KIND 170239Z 1703/1806 01006KT P6SM FEW060 OVC110 FM170400 29005KT P6SM FEW060 FM171200 18003KT P6SM SCT050 FM171800 23007KT P6SM SCT050 BKN200 PROB30 1718/1724 4SM -TSRA BKN035CB",
    "KDTW": "TAF KDTW 170305Z 1703/1806 08004KT 1SM FU OVC018 FM171600 18008KT 2SM FU SCT035 FM180000 19005KT 6SM HZ SCT060 BKN080",
    "KMSP": "TAF KMSP 170209Z 1702/1806 24005KT P6SM FEW060 FM170500 16003KT P6SM SKC FM171300 22007KT P6SM SKC FM171700 23010G18KT P6SM FEW050 FM180200 33007KT 6SM FU SKC",
    "CYEG": "TAF CYEG 170240Z 1703/1724 12006KT P6SM FEW030 FM171000 12008KT P6SM SKC PROB30 1710/1715 3/4SM BR FEW004 FM171800 12012KT P6SM SCT040 RMK NXT FCST BY 170600Z",
    "EHAM": "TAF EHAM 162304Z 1700/1806 34005KT CAVOK PROB30 TEMPO 1703/1707 7000 BKN012 BECMG 1709/1712 32014KT BECMG 1717/1720 32008KT SCT020 PROB30 TEMPO 1721/1806 BKN018",
    "EBBR": "TAF EBBR 162300Z 1700/1806 02005KT CAVOK BECMG 1712/1714 32010KT",
    "EDDF": "TAF EDDF 162300Z 1700/1806 20005KT CAVOK PROB30 TEMPO 1706/1710 TSRA BKN030CB BECMG 1709/1711 26008KT PROB40 TEMPO 1714/1718 26015G30KT TSRA BKN030CB",
    "EDFH": "TAF AMD EDFH 170024Z 1700/1724 10004KT CAVOK PROB30 TEMPO 1702/1708 TSRA BKN020CB BECMG 1706/1709 27008KT PROB40 TEMPO 1712/1716 26015G30KT TSRA BKN020CB",
    "EDDL": "TAF EDDL 162300Z 1700/1806 33004KT CAVOK BECMG 1710/1713 30011KT BECMG 1719/1722 29005KT PROB30 TEMPO 1803/1806 BKN012",
    "EDDK": "TAF EDDK 162300Z 1700/1806 VRB03KT CAVOK BECMG 1708/1711 29010KT BECMG 1720/1723 30005KT PROB30 TEMPO 1804/1806 BKN013",
    "EBLG": "TAF EBLG 162300Z 1700/1806 02005KT CAVOK BECMG 1712/1715 32010KT",
    "LSZH": "TAF LSZH 170225Z 1703/1809 15005KT CAVOK TX26/1714Z TN17/1704Z TN16/1805Z BECMG 1709/1711 9999 FEW060 TEMPO 1710/1722 FEW050TCU PROB40 TEMPO 1712/1719 27008KT TSRA FEW050CB PROB30 TEMPO 1712/1718 29015G30KT 4000 TSGR PROB30 TEMPO 1719/1722 SHRA BECMG 1722/1724 CAVOK",
    "LIMC": "TAF AMD LIMC 170212Z 1702/1806 01010KT 9999 FEW040 TEMPO 1702/1706 4000 TSRAGR BECMG 1709/1711 VRB05KT",
    "LIRF": "TAF LIRF 162300Z 1700/1806 VRB05KT CAVOK PROB30 TEMPO 1700/1705 1500 BCFG BECMG 1704/1706 13010KT BECMG 1709/1711 19010KT BECMG 1717/1719 VRB05KT PROB30 TEMPO 1722/1806 2000 BCFG",
    "EINN": "TAF EINN 162300Z 1700/1724 36008KT CAVOK BECMG 1710/1712 32010KT BECMG 1720/1722 35012KT",
    "EGLL": "TAF EGLL 162255Z 1700/1806 03005KT CAVOK PROB30 TEMPO 1703/1708 BKN006 BECMG 1711/1714 33010KT BECMG 1719/1722 07010KT",
    "EGSS": "TAF AMD EGSS 170341Z 1703/1806 36005KT 0300 FG OVC001 BECMG 1703/1706 6000 NSW BKN004 BECMG 1706/1708 9999 BKN009 BECMG 1708/1710 FEW045 PROB30 TEMPO 1802/1806 7000 BKN013",
    "EPWA": "TAF EPWA 170230Z 1703/1803 VRB03KT CAVOK BECMG 1712/1715 14010KT PROB40 TEMPO 1716/1723 SCT050CB PROB40 TEMPO 1723/1803 VRB15G25KT 4000 TSRA BKN045CB",
    "UHPP": "TAF UHPP 170147Z 1703/1809 17005G12MPS 9999 SCT030CB BECMG 1709/1712 36003G10MPS TEMPO 1800/1809 17005G12MPS",
    "EFHK": "TAF EFHK 170228Z 1703/1803 15008KT CAVOK",
    "LBBG": "TAF LBBG 162300Z 1700/1724 VRB04KT 9999 SCT045 BECMG 1708/1710 12014KT PROB40 TEMPO 1711/1715 5000 TSRA FEW030CB BKN040 BECMG 1718/1720 VRB04KT",
    "LTAC": "TAF LTAC 162240Z 1700/1724 03011KT CAVOK BECMG 1706/1708 SCT040 TEMPO 1714/1718 02015G25KT BECMG 1716/1718 CAVOK",
    "UBBB": "TAF UBBB 162257Z 1700/1724 33012KT 9999 FEW020 TX31/1710Z TN23/1701Z TEMPO 1700/1706 SCT010 FEW050CB TEMPO 1710/1718 35008KT",
    "UTAA": "TAF UTAA 162245Z 1700/1724 35014KT 6000 SCT050 TX40/1711Z TEMPO 1700/1708 30018G28KT 2000 BLDU BECMG 1716/1718 26014KT",
    "UACC": "TAF UACC 162301Z 1700/1724 25006MPS 9999 SCT030 BKN050 TX32/1709Z TN16/1723Z TEMPO 1703/1714 27012MPS SCT030CB BECMG 1714/1716 VRB01MPS",
    "UAAA": "TAF UAAA 162302Z 1700/1724 16003MPS 9999 FEW100 TX41/1710Z TN20/1701Z BECMG 1703/1704 04003G09MPS BECMG 1713/1714 20003MPS",
    "UZTT": "TAF UZTT 162300Z 1700/1724 07010KT 7000 NSC TX43/1711Z TN26/1700Z TEMPO 1706/1712 32015KT",
    "ZWWW": "TAF ZWWW 170302Z 1706/1812 36004G09MPS CAVOK TX39/1709Z TX40/1806Z TN28/1723Z BECMG 1713/1714 18004MPS BECMG 1802/1803 36004MPS",
    "ZLXY": "TAF ZLXY 170303Z 1706/1806 15003MPS 6000 NSC TX33/1708Z TN24/1721Z BECMG 1722/1723 28005MPS",
    "ZBAA": "TAF ZBAA 170301Z 1706/1812 20004MPS CAVOK TX35/1707Z TX36/1807Z TN23/1721Z",
    "ZBHH": "TAF ZBHH 170303Z 1706/1806 24004MPS 9999 SCT040 TX29/1708Z TN16/1722Z BECMG 1709/1710 -TSRA SCT040 FEW040CB TEMPO 1710/1713 TSRA BECMG 1713/1714 NSW NSC",
    "ZSQD": "TAF ZSQD 170306Z 1706/1806 05004MPS 3500 -SHRA BR BKN020 TX30/1806Z TN22/1720Z TEMPO 1706/1708 2500 +TSRA BKN020 FEW030CB TEMPO 1708/1712 SHRA",
    "ZMCK": "TAF ZMCK 162244Z 1700/1806 VRB02MPS 9999 FEW030CB SCT033 TX25/1707Z TN11/1721Z PROB40 TEMPO 1700/1708 VRB08MPS TSRA SCT027CB SCT030 BECMG 1704/1707 29005MPS BECMG 1710/1712 VRB02MPS BECMG 1802/1804 23005MPS",
    "UUEE": "TAF UUEE 170151Z 1703/1803 35003G08MPS 9999 SCT040 TX21/1712Z TN10/1801Z TEMPO 1709/1718 33008G14MPS",
    "UUDD": "TAF UUDD 170153Z 1703/1809 36005MPS 9999 SCT040 TX23/1712Z TN10/1801Z TEMPO 1708/1715 36008G15MPS",
    "ULLI": "TAF ULLI 170151Z 1703/1803 18003MPS 6000 SCT020",
    "USSS": "TAF USSS 170141Z 1703/1803 29003G14MPS 9999 BKN016CB TEMPO 1704/1718 -TSRAGR FM171800 31003G08MPS 6000 SCT020CB",
    "UNNT": "TAF UNNT 170200Z 1703/1803 23003G08MPS 9999 BKN040 TX25/1710Z TN16/1722Z TEMPO 1703/1718 28008G16MPS -TSRA BKN016CB",
    "UNKL": "TAF UNKL 170141Z 1703/1803 VRB01MPS CAVOK FM170600 14003G08MPS 6000 -SHRA SCT016CB TEMPO 1706/1714 -TSRA BECMG 1714/1716 -TSRA BKN010 BKN016CB BECMG 1717/1720 NSW SCT016CB TEMPO 1720/1724 3000 -SHRA BKN005 BKN016CB",
    "UIBB": "TAF UIBB 170200Z 1703/1803 17003G08MPS 9999 BKN016CB TEMPO 1703/1718 VRB08MPS -TSRA",
    "UEEE": "TAF UEEE 170200Z 1703/1809 11005G10MPS 9999 BKN020CB OVC100 TEMPO 1703/1712 3200 -SHRA SCT010 BKN017CB OVC070",
    "UHHH": "TAF UHHH 170147Z 1703/1809 21008G13MPS 9999 SCT020CB TX26/1705Z TN18/1717Z TEMPO 1703/1712 2000 TSRA FEW006 BKN016CB BECMG 1710/1712 17003MPS",
    "UHSS": "TAF AMD UHSS 170344Z 1703/1809 18009MPS 9999 BKN025CB BECMG 1709/1710 18003MPS"
  },
  "atis": {},
  "windtemp_alaska": "\n000\nFBAK31 KWNO 170200\nFD1AK1\nDATA BASED ON 170000Z    \nVALID 170600Z   FOR USE 0200-0900Z. TEMPS NEG ABV 24000\n\nFT  3000    6000    9000   12000   18000   24000  30000  34000  39000\nADK 2534 2730+05 2830+02 3034-01 2936-12 3039-22 294037 304247 314759\nADQ 2710 2514+01 2322-01 2332-05 2250-18 2255-32 226745 226544 225043\nAKN 2909 2713-02 2714-07 2612-12 2626-23 2540-36 243643 233139 242639\nANC 1317 1531-01 1819-05 1924-07 1959-17 1867-29 177244 187448 194446\nANN 3410 3208+13 2906+08 2707+02 2609-11 2809-24 300639 340549 350658\nBET 3114 3214-02 3312-06 3408-13 3311-24 3210-35 311045 290841 271140\nBRW 0513 3607+02 3106-02 9900-07 1406-20 1414-31 152748 152553 141043\nBTI 9900 0208+03 0211-03 3509-07 0107-18 0213-30 052947 041551 160743\nBTT 9900 0906+04 1012-02 1114-07 1415-19 1718-29 212945 224552 192147\nCDB 3017 2917-02 2921-03 3024-08 2928-21 3030-32 314445 303745 283044\nCZF 0605 1208-02 1409-07 9900-12 3006-24 3115-35 312246 311442 311340\nEHM 2918 2913-03 2914-06 2916-11 3022-23 3131-35 314246 303042 292240\nFAI 1109 1510+03 1709-03 1811-09 1924-15 2139-27 205144 205550 202852\nFYU 2206 2406+04 9900-01 9900-06 2410-17 2414-29 274044 265751 242448\nGAL 0706 1108+01 1114-05 1216-11 1227-21 1424-30 143947 163749 151742\nGKN 1721 1729+01 1727-04 2033-04 2041-14 2136-26 214442 215651 214155\nHOM 1523 1528+00 2022-04 2131-08 2155-20 2166-32 206544 205642 213942\nJNU 9900 9900+07 9900+05 2606+01 2614-13 2623-24 252740 243049 232957\nLUR 0707 0913+02 1116-04 1316-09 1423-21 1224-34 112449 101547 090741\nMCG 1114 1411+00 1506-05 1505-11 1421-21 1428-34 153945 163144 182040\nMDO 1719 1821+01 2229+02 2139-02 2044-15 2150-27 217142 217050 215354\nOME 0307 1207-01 1210-07 1209-12 0912-23 1216-34 132348 131244 990040\nORT      1511+06 1715-01 1814-05 2529-14 2535-26 253742 244450 232955\nOTZ 3207 9900+00 9900-04 1110-10 1219-22 1422-33 152849 141947 131141\nSNP 2518 2426-01 2126-05 2221-10 2826-17 3049-28 299841 791050 315246\nTKA 1912 1625-01 1520-06 1423-09 1938-18 1859-29 177745 187949 194245\nUNK 0407 0911-01 0810-06 0608-11 0912-23 1318-32 133048 141846 150839\nYAK 9900 2506+04 2512+03 2514-01 2519-13 2624-25 263140 253350 253557\nIKO 2716 2919+01 2922-03 2824-07 3033-15 3149-26 327940 338650 324551\nAFM 3405 0808+02 1015-03 1121-08 1222-21 1423-32 162848 172951 151843\n5AB 2837 2833+09 2831+06 2931+01 2932-10 3035-22 313237 323147 332955\n5AC 3419 3513+11 3511+07 3511+03 3509-11 3410-24 011340 011549 011859\n5AD 2618 2619+09 2623+05 2624+00 2528-12 2532-24 253740 253649 243359\n5AE 2918 2623+02 2531+00 2436-04 2348-18 2373-29 730943 239449 235447\n5AF 3111 2911+09 2714+06 2717+01 2620-11 2720-23 262539 272449 262358\n5AG 1814 2314+07 2417+04 2314-01 2423-12 2532-25 253740 243850 244058\n",
  "vaac_active": [
    {
      "volcano": "MAYON",
      "volcano_jp": "マヨン",
      "advisory_nr": "2026/757",
      "obs_time": "2026-07-17 00:26Z",
      "issued_time": "2026-07-17 00:42Z",
      "text_url": "https://www.data.jma.go.jp/vaac/data/TextData/2026/20260717_27303000_0757_Text.html",
      "lat": 13.25,
      "lon": 123.683,
      "text": "FVFE01 RJTD 170042\nVA ADVISORY\nDTG: 20260717/0042Z\nVAAC: TOKYO\nVOLCANO: MAYON 273030\nPSN: N1315 E12341\nAREA: PHILIPPINES\nSOURCE ELEV: 2462M AMSL\nADVISORY NR: 2026/757\nINFO SOURCE: HIMAWARI-9 PHIVOLCS\nERUPTION DETAILS: ERUPTION AT 20260717/0026Z VA CLD UNKNOWN REPORTED\nOBS VA DTG: 17/0020Z\nOBS VA CLD: VA NOT IDENTIFIABLE FM SATELLITE DATA WIND FL180 030/3KT\nFCST VA CLD +6 HR: NOT AVBL\nFCST VA CLD +12 HR: NOT AVBL\nFCST VA CLD +18 HR: NOT AVBL\nRMK: WE WILL ISSUE FURTHER ADVISORY IF VA IS DETECTED IN SATELLITE \nIMAGERY.\nNXT ADVISORY: NO FURTHER ADVISORIES="
    }
  ],
  "vaac_tokyo": [
    {
      "id": "20260716_27303000_0756",
      "year": "2026",
      "volcano": "Mayon",
      "psn": "N1315 E12341",
      "issued": "20260716",
      "text": "FVFE01 RJTD 162010\nVA ADVISORY\nDTG: 20260716/2010Z\nVAAC: TOKYO\nVOLCANO: MAYON 273030\nPSN: N1315 E12341\nAREA: PHILIPPINES\nSOURCE ELEV: 2462M AMSL\nADVISORY NR: 2026/756\nINFO SOURCE: HIMAWARI-9\nERUPTION DETAILS: ERUPTION AT 20260716/1623Z FL130 EXTD SSE REPORTED\nOBS VA DTG: 16/1950Z\nOBS VA CLD: VA NOT IDENTIFIABLE FM SATELLITE DATA WIND FL130 360/5KT\nFCST VA CLD +6 HR: NOT AVBL\nFCST VA CLD +12 HR: NOT AVBL\nFCST VA CLD +18 HR: NOT AVBL\nRMK: WE WILL ISSUE FURTHER ADVISORY IF VA IS DETECTED IN SATELLITE \nIMAGERY.\nNXT ADVISORY: NO FURTHER ADVISORIES=",
      "img_url": "https://ds.data.jma.go.jp/svd/vaac/data/VAGFN/2026/Images/20260716_27303000_0756_QH21_01.png",
      "sat_img_url": null,
      "text_url": "https://ds.data.jma.go.jp/svd/vaac/data/TextData/2026/20260716_27303000_0756_Text.html"
    },
    {
      "id": "20260716_30027000_0266",
      "year": "2026",
      "volcano": "Sheveluch",
      "psn": "N5639 E16122",
      "issued": "20260716",
      "text": "FVFE01 RJTD 161200\nVA ADVISORY\nDTG: 20260716/1200Z\nVAAC: TOKYO\nVOLCANO: SHEVELUCH 300270\nPSN: N5639 E16122\nAREA: RUSSIA\nSOURCE ELEV: 3283M AMSL\nADVISORY NR: 2026/266\nINFO SOURCE: HIMAWARI-9\nERUPTION DETAILS: VA CONTINUOUSLY OBS IN SATELLITE IMAGERY\nOBS VA DTG: 16/1120Z\nOBS VA CLD: SFC/FL230 N5556 E16558 - N5544 E16655 - N5425 E16745 - \nN5359 E17000 - N5312 E16918 - N5403 E16711 MOV SE 35KT\nFCST VA CLD +6 HR: 16/1720Z SFC/FL240 N5329 E17049 - N5230 E17321 - \nN5147 E17227 - N5314 E16939 - N5525 E16945 - N5436 E17056\nFCST VA CLD +12 HR: 16/2320Z SFC/FL250 N5118 E17628 - N5008 E17537 - \nN5210 E17232 - N5303 E17348 - N5459 E17402\nFCST VA CLD +18 HR: NO VA EXP\nRMK: THE RESPONSIBILITY FOR THIS ASH EVENT IS BEING TRANSFERRED TO \nVAAC ANCHORAGE. THE NEXT ADVISORY WILL BE ISSUED BY VAAC ANCHORAGE \nBY 1800UTC UNDER HEADER FVAK21 PAWU. WESTERN PART OF VA OBSCURED BY \nMET CLOUD.\nNXT ADVISORY: NO FURTHER ADVISORIES=",
      "img_url": "https://ds.data.jma.go.jp/svd/vaac/data/VAGFN/2026/Images/20260716_30027000_0266_QH21_01.png",
      "sat_img_url": "https://ds.data.jma.go.jp/svd/vaac/data/Sat/2026/Images/30027000/09-ir/20260716_1120_202607161200_ir.png",
      "text_url": "https://ds.data.jma.go.jp/svd/vaac/data/TextData/2026/20260716_30027000_0266_Text.html"
    },
    {
      "id": "20260715_27307000_0013",
      "year": "2026",
      "volcano": "Taal",
      "psn": "N1400 E12100",
      "issued": "20260715",
      "text": "FVFE01 RJTD 152348\nVA ADVISORY\nDTG: 20260715/2348Z\nVAAC: TOKYO\nVOLCANO: TAAL 273070\nPSN: N1400 E12100\nAREA: PHILIPPINES\nSOURCE ELEV: 311M AMSL\nADVISORY NR: 2026/13\nINFO SOURCE: HIMAWARI-9 PHIVOLCS\nERUPTION DETAILS: ERUPTION AT 20260715/2330Z FL030 EXTD ENE REPORTED\nOBS VA DTG: 15/2340Z\nOBS VA CLD: VA NOT IDENTIFIABLE FM SATELLITE DATA WIND FL030 170/2KT\nFCST VA CLD +6 HR: NOT AVBL\nFCST VA CLD +12 HR: NOT AVBL\nFCST VA CLD +18 HR: NOT AVBL\nRMK: WE WILL ISSUE FURTHER ADVISORY IF VA IS DETECTED IN SATELLITE \nIMAGERY.\nNXT ADVISORY: NO FURTHER ADVISORIES=",
      "img_url": "https://ds.data.jma.go.jp/svd/vaac/data/VAGFN/2026/Images/20260715_27307000_0013_QH21_01.png",
      "sat_img_url": null,
      "text_url": "https://ds.data.jma.go.jp/svd/vaac/data/TextData/2026/20260715_27307000_0013_Text.html"
    },
    {
      "id": "20260713_28208001_0083",
      "year": "2026",
      "volcano": null,
      "psn": "N3136 E13039",
      "issued": "20260713",
      "text": "FVFE01 RJTD 130254\nVA ADVISORY\nDTG: 20260713/0254Z\nVAAC: TOKYO\nVOLCANO: SAKURAJIMA (AIRA CALDERA) 282080\nPSN: N3136 E13039\nAREA: JAPAN\nSOURCE ELEV: 1117M AMSL\nADVISORY NR: 2026/83\nINFO SOURCE: JMA HIMAWARI-9\nERUPTION DETAILS: ERUPTED AT 20260713/0152Z FL100 EXTD N\nOBS VA DTG: 13/0230Z\nOBS VA CLD: SFC/FL100 N3136 E13039 - N3142 E13040 - N3141 E13044 - \nN3134 E13042 MOV NE 15KT\nFCST VA CLD +6 HR: 13/0830Z SFC/FL100 N3234 E13121 - N3145 E13155 - \nN3202 E13110 - N3227 E13051\nFCST VA CLD +12 HR: 13/1430Z SFC/FL100 N3318 E13206 - N3142 E13317 - \nN3134 E13226 - N3312 E13118\nFCST VA CLD +18 HR: NO VA EXP\nRMK: NIL\nNXT ADVISORY: 20260713/0600Z=",
      "img_url": "https://ds.data.jma.go.jp/svd/vaac/data/VAGFN/2026/Images/20260713_28208001_0083_QH21_01.png",
      "sat_img_url": "https://ds.data.jma.go.jp/svd/vaac/data/Sat/2026/Images/28208001/09-ir/20260713_0230_202607130254_ir.png",
      "text_url": "https://ds.data.jma.go.jp/svd/vaac/data/TextData/2026/20260713_28208001_0083_Text.html"
    }
  ],
  "vaac_alaska": [
    {
      "text": "\n000\nFVAK21 PAWU 162126\nVAAAK1\nVA ADVISORY\n\nDTG: 20260716/2122Z\n\nVAAC: ANCHORAGE\n\nVOLCANO: SHEVELUCH 300270\n\nPSN: N5639 E16122\n\nAREA: KAMCHATKA PENINSULA\n\nSOURCE ELEV: 10771 FT AMSL\n\nADVISORY NR: 2026/204\n\nINFO SOURCE: HIMAWARI\n\nERUPTION DETAILS: VA NOT IDENTIFIABLE FM SATELLITE DATA.\n\nOBS VA DTG: 16/2122Z\n\nOBS VA CLD: VA NOT IDENTIFIABLE FM SATELLITE DATA WIND FL100 280/20KT\n\nFCST VA CLD +6HR: NOT AVBL\n\nFCST VA CLD +12HR: NOT AVBL\n\nFCST VA CLD +18HR: NOT AVBL\n\nRMK: A NEW ADVISORY WILL BE ISSUED IF VA IS DETECTED IN SATELLITE IMAGERY....DK\n\nNXT ADVISORY: NO FURTHER ADVISORIES=\n\n",
      "issued": "2026-07-16T21:26:00+00:00",
      "volcano": "Sheveluch",
      "psn": "N5639 E16122"
    }
  ]
}