{
  "updated_utc": "2026-07-13T23:24Z",
  "metar": {
    "RJAA": "METAR RJAA 132130Z 14004KT CAVOK 25/23 Q1008 NOSIG",
    "PANC": "METAR PANC 132153Z 24005KT 10SM -RA FEW012 BKN025 OVC060 13/11 A3009 RMK AO2 SLP190 P0001 T01330106",
    "PAFA": "METAR PAFA 132153Z 16003KT 10SM FEW045 BKN060 BKN100 OVC200 17/09 A2994 RMK AO2 SLP144 T01720094 $",
    "PAED": "SPECI PAED 132146Z 00000KT 10SM -RA SCT015 BKN021 OVC033 14/11 A3007 RMK AO2A CIG 021V033 SLP179 $",
    "KSEA": "METAR KSEA 132153Z 28010KT 10SM FEW100 FEW230 24/07 A3008 RMK AO2 SLP190 HZ FEW100 T02440072",
    "ZSPD": "METAR ZSPD 132130Z 19007MPS CAVOK 28/25 Q1003 NOSIG",
    "ZSSS": "METAR ZSSS 132130Z 18004MPS CAVOK 29/24 Q1003 NOSIG",
    "RJFR": "METAR RJFR 132200Z 24005KT 9999 FEW020 29/24 Q1011",
    "VHHH": "METAR VHHH 132130Z 06007KT 9999 SHRA FEW010 SCT025 27/25 Q1001 TEMPO 3500 SHRA FEW010CB SCT020",
    "RCTP": "METAR RCTP 132130Z 09003KT 050V150 9999 FEW015 27/26 Q1007 NOSIG RMK A2974",
    "ZGSZ": "METAR ZGSZ 132200Z 06004MPS 040V120 9000 -SHRA FEW020 FEW026CB BKN040 28/25 Q1002 NOSIG",
    "WSSS": "METAR WSSS 132130Z 13004KT 9999 SCT016 BKN300 28/25 Q1009 NOSIG",
    "WMKK": "METAR WMKK 132130Z 13005KT 060V200 8000 FEW030 28/24 Q1009 NOSIG",
    "WIDD": "METAR WIDD 132130Z AUTO 13004KT 080V180 9999 SCT026 BKN031 BKN039 28/25 Q1009 NOSIG",
    "VTBS": "METAR VTBS 132130Z 22007KT 9999 FEW020 29/23 Q1006 NOSIG",
    "VTBU": "METAR VTBU 132130Z 26010KT 9999 FEW020 SCT100 29/26 Q1006 NOSIG",
    "ROAH": "METAR ROAH 132130Z 16012KT 9999 FEW007 BKN/// 27/25 Q1012",
    "VVDN": "METAR VVDN 132130Z 00000KT 9999 FEW020 BKN080 28/24 Q1003 NOSIG",
    "RCKH": "METAR RCKH 132200Z 14014G24KT 110V170 9999 FEW009 SCT018 29/24 Q1007 NOSIG RMK A2975",
    "KLAX": "METAR KLAX 132153Z 28011KT 10SM FEW011 FEW016 SCT110 BKN170 BKN250 23/18 A2996 RMK AO2 SLP142 T02330178 $",
    "KONT": "METAR KONT 132153Z 29005KT 10SM SCT120 BKN150 28/18 A2996 RMK AO2 RAE04B26E51 SLP129 P0000 T02830178 $",
    "KSFO": "METAR KSFO 132156Z 29007KT 10SM FEW110 SCT140 BKN180 24/14 A2995 RMK AO2 SLP142 T02390139 $",
    "KOAK": "METAR KOAK 132153Z 29011KT 10SM BKN150 BKN180 23/15 A2996 RMK AO2 SLP144 T02280150",
    "KMHR": "METAR KMHR 132135Z AUTO 24007KT 10SM CLR 33/15 A2991 RMK AO2 T03260151 $",
    "KDFW": "METAR KDFW 132153Z 06004KT 10SM SCT044 SCT060 BKN140 BKN250 31/21 A3003 RMK AO2 SLP159 TCU DSNT NE-SE T03110206 $",
    "KIAH": "METAR KIAH 132153Z 06005KT 6SM RA BR FEW010 BKN075 OVC095 25/24 A3010 RMK AO2 SLP193 P0001 T02500244",
    "KORD": "METAR KORD 132151Z 34005KT 10SM CLR 33/18 A3014 RMK AO2 SLP202 T03330178",
    "KJFK": "METAR KJFK 132151Z 19017KT 10SM FEW060 SCT250 26/17 A3015 RMK AO2 SLP210 T02560172",
    "KRFD": "METAR KRFD 132154Z 27007KT 10SM CLR 32/19 A3019 RMK AO2 SLP217 T03170194",
    "KIND": "METAR KIND 132154Z 02012G16KT 10SM FEW050 31/15 A3015 RMK AO2 SLP203 T03060150",
    "KDTW": "METAR KDTW 132153Z 26009KT 10SM FEW250 32/18 A3013 RMK AO2 SLP198 T03220178 $",
    "KMSP": "METAR KMSP 132153Z 23008KT 10SM CLR 34/19 A3015 RMK AO2 SLP204 T03390189",
    "CYEG": "METAR CYEG 132200Z 17005KT 20SM FEW066 FEW080 22/10 A3006 RMK CU1AC1 CU TR AC TR SLP187 DENSITY ALT 3700FT",
    "EHAM": "METAR EHAM 132125Z 03010KT 350V050 CAVOK 20/16 Q1019 NOSIG",
    "EBBR": "METAR EBBR 132150Z 36006KT CAVOK 21/15 Q1018 NOSIG",
    "EDDF": "METAR EDDF 132150Z AUTO 02008KT CAVOK 27/12 Q1015 NOSIG",
    "EDFH": "METAR EDFH 132150Z 07003KT 050V110 CAVOK 24/09 Q1018",
    "EDDL": "METAR EDDL 132150Z AUTO 02004KT CAVOK 25/15 Q1016 NOSIG",
    "EDDK": "METAR EDDK 132150Z AUTO 05007KT CAVOK 24/15 Q1016 NOSIG",
    "EBLG": "METAR EBLG 132150Z 36006KT CAVOK 23/15 Q1018 NOSIG",
    "LSZH": "METAR LSZH 132150Z AUTO VRB02KT CAVOK 21/15 Q1016 NOSIG",
    "LIMC": "METAR LIMC 132150Z VRB02KT CAVOK 26/17 Q1017 NOSIG",
    "LIRF": "METAR LIRF 132150Z 28003KT CAVOK 25/24 Q1017 NOSIG",
    "EINN": "METAR EINN 132130Z 05004KT 9999 FEW045 19/12 Q1022 NOSIG",
    "EGLL": "METAR EGLL 132150Z AUTO 04010KT 010V070 9999 NCD 20/15 Q1022",
    "EGSS": "METAR EGSS 132150Z AUTO 01008KT 9999 NCD 17/15 Q1023",
    "EPWA": "METAR EPWA 132130Z 35010KT CAVOK 21/18 Q1018 NOSIG",
    "UHPP": "METAR UHPP 132130Z 36002MPS 310V050 9999 FEW003 SCT038 BKN076 17/14 Q1010 R34L/CLRD62 NOSIG RMK MT OBSC QFE754/1006",
    "EFHK": "METAR EFHK 132150Z 34007KT 9999 BKN035 17/14 Q1019 NOSIG",
    "LBBG": "METAR LBBG 132130Z AUTO 33003KT 260V020 9999 FEW048/// 21/15 Q1014 NOSIG",
    "LTAC": "METAR LTAC 132150Z 02003KT 340V050 CAVOK 20/13 Q1013 NOSIG RMK RWY21C 03005KT RWY03L 00000KT RWY21R 01006KT RWY03R 32004KT RWY21L VRB02KT",
    "UBBB": "METAR UBBB 132130Z 33006KT CAVOK 24/20 Q1007 NOSIG",
    "UTAA": "METAR UTAA 132200Z 19002KT 9999 NSC 29/10 Q1006 R88/CLRD70 NOSIG",
    "UACC": "METAR UACC 132130Z 15003MPS CAVOK 24/14 Q1007 NOSIG RMK QFE724/0966",
    "UAAA": "METAR UAAA 132130Z 11002MPS 9999 FEW050CB BKN100 23/14 Q1008 NOSIG",
    "UZTT": "METAR UZTT 132130Z 07006KT CAVOK 28/11 Q1005 NOSIG",
    "ZWWW": "METAR ZWWW 132130Z 17001MPS CAVOK 28/06 Q1005 NOSIG",
    "ZLXY": "METAR ZLXY 132200Z 05004MPS CAVOK 28/23 Q1000 NOSIG",
    "ZBAA": "METAR ZBAA 132130Z VRB01MPS CAVOK 25/25 Q1000 NOSIG",
    "ZBHH": "METAR ZBHH 132200Z 05002MPS 9999 FEW040 19/13 Q1008 NOSIG",
    "ZSQD": "METAR ZSQD 132200Z 34006MPS 2800 -RA BR BKN005 OVC020 25/25 Q0993 BECMG TL2300 3500",
    "ZMCK": "METAR ZMCK 132130Z VRB02MPS 9999 FEW033 10/10 Q1012 NOSIG RMK QFE644.0 100 MOP",
    "UUEE": "METAR UUEE 132130Z 36004MPS 340V100 CAVOK 17/16 Q1008 R06R/CLRD62 R06C/CLRD62 NOSIG",
    "UUDD": "METAR UUDD 132130Z 34002MPS CAVOK 15/15 Q1007 R13R/CLRD65 NOSIG",
    "ULLI": "METAR ULLI 132130Z 03004MPS 360V070 CAVOK 21/14 Q1015 R88/090065 NOSIG",
    "USSS": "METAR USSS 132130Z 09002MPS 9999 SCT040 17/17 Q1013 R08L/CLRD60 R08R/CLRD60 NOSIG RMK QFE740/0986",
    "UNNT": "METAR UNNT 132130Z 35003MPS 9000 NSC 15/14 Q1006 R25/CLRD// R16/CLRD// NOSIG RMK QFE744/0993",
    "UNKL": "METAR UNKL 132130Z 00000MPS CAVOK 13/13 Q1005 R11/CLRD// NOSIG RMK QFE728",
    "UIBB": "METAR UIBB 132130Z 00000MPS 9999 NSC 11/09 Q1007 R12/CLRD62 NOSIG RMK QFE713/0950",
    "UEEE": "METAR UEEE 132130Z 03002MPS 9999 FEW050CB 23/20 Q0993 R23/09//67 NOSIG RMK QFE736",
    "UHHH": "METAR UHHH 132130Z 23005MPS CAVOK 26/23 Q1000 R88/090060 NOSIG RMK QFE744/0992",
    "UHSS": "METAR UHSS 132130Z 21002MPS 9999 BKN002 BKN013 19/18 Q1004 R01/CLRD70 NOSIG RMK QBB080 MT OBSC QFE752/1002"
  },
  "taf": {
    "RJAA": "TAF RJAA 131705Z 1318/1500 20004KT 9999 FEW030 TEMPO 1319/1321 4000 BR BECMG 1400/1402 03006KT BECMG 1403/1405 14010KT",
    "PANC": "TAF PANC 132210Z 1322/1424 26006KT P6SM VCSH FEW015 SCT025 BKN045 TEMPO 1322/1402 -SHRA SCT015 BKN025 FM140400 15015G25KT P6SM VCSH OVC035 FM140900 15015G25KT 6SM -RA BR OVC020 FM141900 10015G25KT 6SM -RA BR OVC020",
    "PAFA": "TAF PAFA 131739Z 1318/1424 20005KT P6SM VCSH SCT050 BKN100 FM132100 22006KT P6SM BKN035 OVC050 FM132200 23006KT 6SM -SHRA BR BKN040 OVC050 PROB30 1322/1402 -TSRA BKN040CB FM140600 VRB03KT 6SM -SHRA BR BKN040 OVC050",
    "PAED": "TAF AMD PAED 132234Z 1322/1503 24009KT 8000 -SHRA OVC015 620706 QNH3006INS BECMG 1323/1324 30009KT 8000 -SHRA SCT015 OVC055 620706 QNH3006INS BECMG 1402/1403 33009KT 9000 -SHRA SCT010 OVC025 WS015/15020KT 650709 QNH3006INS BECMG 1408/1409 30009KT 9999 NSW FEW015 OVC050 WS015/15025KT 650809 QNH3006INS BECMG 1412/1413 15012KT 8000 -SHRA SCT010 OVC030 650809 520006 QNH3002INS BECMG 1423/1424 16012KT 9999 NSW FEW030 BKN060 650806 520006 QNH2987INS TX15/1323Z TN10/1414Z",
    "KSEA": "TAF KSEA 132320Z 1400/1506 35010KT P6SM FEW250 FM140200 36006KT P6SM FEW250 FM140800 01004KT P6SM SKC FM141400 35006KT P6SM SKC FM141900 31007KT P6SM SKC",
    "ZSPD": "TAF ZSPD 132104Z 1400/1506 18005MPS 8000 BKN020 TX35/1406Z TX36/1506Z TN29/1421Z",
    "ZSSS": "TAF ZSSS 132102Z 1400/1506 18004MPS 8000 BKN020 TX36/1406Z TX37/1506Z TN29/1421Z",
    "RJFR": "TAF RJFR 131705Z 1318/1500 25004KT 9999 FEW015 SCT045 BECMG 1323/1401 07008KT BECMG 1409/1412 18006KT",
    "VHHH": "TAF VHHH 132300Z 1400/1506 11010KT 9999 FEW015 SCT025 TX30/1406Z TN26/1422Z TEMPO 1400/1406 12020G30KT 1500 TSRA +SHRA FEW008CB SCT015 BECMG 1404/1406 19015KT TEMPO 1406/1412 19022G32KT 3000 SHRA FEW010CB SCT020 TEMPO 1418/1421 20015G25KT 3000 SHRA FEW010CB SCT020 TEMPO 1421/1506 20015G25KT 2000 TSRA SHRA FEW008CB SCT020",
    "RCTP": "TAF RCTP 132300Z 1400/1506 34007KT 9999 FEW015 TEMPO 1408/1413 13005KT 5000 SHRA FEW012 FEW015TCU BKN020 BECMG 1413/1415 15005KT BECMG 1500/1502 24010KT",
    "ZGSZ": "TAF ZGSZ 132116Z 1400/1506 07004MPS 8000 BKN040 TX30/1406Z TX30/1506Z TN26/1422Z TEMPO 1400/1403 TSRA FEW020 FEW025CB BKN040 TEMPO 1403/1407 2800 +TSRA FEW015 FEW020CB BKN030 BECMG 1406/1407 18004MPS BECMG 1407/1408 SHRA FEW020 FEW025CB BKN040 BECMG 1414/1415 NSW BKN040",
    "WSSS": "TAF WSSS 131700Z 1318/1500 16009KT 9999 FEW015 SCT020",
    "WMKK": "TAF WMKK 131700Z 1318/1500 VRB03KT 9999 FEW030",
    "VTBS": "TAF VTBS 131700Z 1318/1424 23008KT 9999 FEW020 TEMPO 1406/1412 VRB15G25KT 4000 TSRA FEW018CB SCT030 BKN100",
    "VTBU": "TAF VTBU 131700Z 1318/1418 25008KT 9999 FEW020",
    "ROAH": "TAF ROAH 131705Z 1318/1500 18010KT 9999 FEW010 SCT015",
    "VVDN": "TAF VVDN 131700Z 1318/1418 22006KT 9999 FEW015 SCT060 BECMG 1404/1405 01010KT PROB40 TEMPO 1409/1413 24015G25KT 4000 TSRA BKN013 FEW015CB BKN050 BECMG 1413/1414 22006KT",
    "RCKH": "TAF RCKH 132300Z 1400/1506 15013G23KT 9999 FEW015 BKN032 TEMPO 1404/1410 17018G28KT 5000 SHRA FEW012 FEW015CB BKN020 BECMG 1412/1414 14008KT TEMPO 1416/1422 5000 SHRA FEW012 BKN022 BECMG 1500/1502 20008KT",
    "KLAX": "TAF KLAX 131720Z 1318/1424 26006KT P6SM BKN150 BKN250 FM131900 26012KT P6SM BKN150 BKN250 FM140400 26006KT P6SM BKN250 FM140900 VRB03KT P6SM BKN006 FM141600 26006KT P6SM SCT250 FM141900 26012KT P6SM SCT250",
    "KONT": "TAF KONT 131728Z 1318/1424 VRB04KT P6SM BKN150 FM132200 27012KT P6SM BKN200 FM140500 VRB04KT P6SM SCT200 FM142100 25011KT P6SM SCT200",
    "KSFO": "TAF KSFO 132322Z 1400/1506 29010KT P6SM BKN200 FM141500 30005KT P6SM FEW010 BKN200 FM141900 31012KT P6SM BKN200 FM142100 31015G25KT P6SM BKN150 FM150400 29015KT P6SM BKN150",
    "KOAK": "TAF KOAK 132322Z 1400/1506 30008KT P6SM BKN150 BKN200 FM141200 29004KT P6SM FEW010 BKN200 FM141800 26007KT P6SM BKN150 FM142100 29012KT P6SM BKN150 FM150300 28010KT P6SM BKN150",
    "KMHR": "TAF KMHR 131726Z 1318/1418 VRB05KT P6SM OVC150 FM132200 23008KT P6SM BKN200 FM140500 VRB05KT P6SM BKN250",
    "KDFW": "TAF KDFW 132320Z 1400/1506 12009KT P6SM VCSH SCT060 BKN140 FM140200 10006KT P6SM FEW060 SCT120 FM141000 09004KT 6SM BR BKN010 FM141500 11009KT P6SM SCT040 PROB30 1420/1502 -SHRA",
    "KIAH": "TAF KIAH 132322Z 1400/1506 14008KT P6SM VCSH FEW010 OVC100 FM140200 VRB04KT P6SM SCT025 BKN035 FM141100 VRB04KT P6SM VCTS SCT015 BKN025CB FM141200 13005KT 5SM SHRA VCTS SCT015 BKN020CB TEMPO 1412/1416 3SM TSRA OVC015CB FM142000 14006KT 6SM SHRA BR SCT025 OVC040 FM142200 15006KT P6SM SCT030 OVC100",
    "KORD": "TAF KORD 132320Z 1400/1506 27006KT P6SM SKC FM140300 VRB03KT P6SM SKC FM141400 32005KT P6SM SKC FM141900 08006KT P6SM SKC",
    "KJFK": "TAF KJFK 131955Z 1320/1424 19016KT P6SM SCT070 FM140300 22011KT P6SM SKC FM140900 25008KT P6SM FEW250 FM141400 23012KT P6SM FEW250 FM141800 22015G21KT P6SM FEW250",
    "KRFD": "TAF KRFD 132320Z 1400/1424 31008KT P6SM SKC FM140300 VRB03KT P6SM SKC FM141600 32005KT P6SM SKC",
    "KIND": "TAF KIND 132320Z 1400/1506 04009KT P6SM SKC FM140300 04005KT P6SM FEW250 FM141600 09006KT P6SM FEW050",
    "KDTW": "TAF KDTW 132109Z 1321/1424 25006KT P6SM FEW250 FM140100 23005KT P6SM SCT250 FM141400 26008KT P6SM SCT250",
    "KMSP": "TAF KMSP 132320Z 1400/1506 22007KT P6SM SKC FM141500 25010KT P6SM SKC",
    "CYEG": "TAF CYEG 132040Z 1321/1418 14008KT P6SM FEW060 FM132300 12008KT P6SM SCT080 TEMPO 1323/1405 P6SM VCTS SCT060CB FM140500 10006KT P6SM FEW060 RMK NXT FCST BY 140000Z",
    "EHAM": "TAF EHAM 131654Z 1318/1424 04009KT CAVOK BECMG 1405/1408 05013KT",
    "EBBR": "TAF EBBR 131715Z 1318/1424 03010KT CAVOK",
    "EDDF": "TAF EDDF 131700Z 1318/1424 04010KT CAVOK PROB40 TEMPO 1413/1418 31020G35KT 4500 TSRA BKN070CB PROB30 TEMPO 1414/1417 31030G45KT 2000 +TSRAGR",
    "EDFH": "TAF EDFH 131700Z 1318/1418 08007KT CAVOK BECMG 1412/1414 02008KT PROB40 TEMPO 1412/1418 31020G35KT 4000 TSRA BKN060CB PROB30 TEMPO 1413/1416 31030G45KT 2000 +TSRAGR",
    "EDDL": "TAF EDDL 131700Z 1318/1424 03009KT CAVOK BECMG 1323/1402 03004KT BECMG 1407/1410 04011KT BECMG 1419/1422 03006KT",
    "EDDK": "TAF EDDK 131700Z 1318/1424 03007KT CAVOK BECMG 1322/1401 VRB03KT BECMG 1407/1410 04007KT PROB30 TEMPO 1412/1416 03025G40KT 2500 +TSRA BKN040CB BECMG 1416/1419 VRB03KT",
    "EBLG": "TAF EBLG 131715Z 1318/1424 03010KT CAVOK",
    "LSZH": "TAF LSZH 132025Z 1321/1503 VRB02KT CAVOK TX31/1415Z TN20/1404Z TEMPO 1321/1420 9999 FEW070TCU PROB30 TEMPO 1400/1408 02015G25KT TSRA SCT060CB PROB30 TEMPO 1415/1420 30018G30KT TSRA SCT060CB",
    "LIMC": "TAF LIMC 132300Z 1400/1506 02005KT 9999 FEW060 BECMG 1412/1414 23010KT BECMG 1418/1420 VRB05KT",
    "LIRF": "TAF LIRF 132300Z 1400/1506 VRB05KT CAVOK PROB40 TEMPO 1400/1405 3000 BCFG BECMG 1409/1411 20010KT BECMG 1417/1419 14010KT",
    "EINN": "TAF EINN 132300Z 1400/1424 03007KT CAVOK BECMG 1407/1409 08010KT BECMG 1417/1419 04007KT",
    "EGLL": "TAF EGLL 132255Z 1400/1506 05012KT CAVOK BECMG 1400/1403 BKN020 PROB30 TEMPO 1400/1408 BKN010 BECMG 1409/1412 CAVOK PROB30 TEMPO 1504/1506 BKN010",
    "EGSS": "TAF EGSS 132300Z 1400/1506 03012KT 9999 SCT010 TEMPO 1400/1407 8000 -DZ BKN007 PROB40 1502/1506 BKN007",
    "EPWA": "TAF EPWA 132030Z 1321/1421 33007KT CAVOK BECMG 1322/1401 BKN008 PROB40 1401/1406 4000 BR BKN004 BECMG 1407/1410 BKN020",
    "UHPP": "TAF UHPP 132238Z 1400/1506 32003G10MPS 9999 BKN040CB TEMPO 1402/1409 17006MPS",
    "EFHK": "TAF EFHK 132027Z 1321/1421 35006KT 9999 BKN030 PROB30 1404/1407 BKN014",
    "LBBG": "TAF LBBG 132300Z 1400/1424 VRB04KT 9999 SCT045 BECMG 1405/1407 35010KT PROB30 TEMPO 1411/1417 5000 SHRA FEW030CB BKN050 BECMG 1415/1417 VRB04KT",
    "LTAC": "TAF LTAC 132240Z 1400/1424 VRB02KT CAVOK BECMG 1404/1407 SCT040 TEMPO 1409/1413 30012KT TEMPO 1413/1417 35012KT BECMG 1416/1418 CAVOK",
    "UBBB": "TAF UBBB 132256Z 1400/1424 32008KT CAVOK TX33/1410Z TN23/1401Z TEMPO 1400/1404 35012KT SCT015 BECMG 1404/1406 35014KT TEMPO 1406/1410 02018KT TEMPO 1410/1414 03008KT TEMPO 1418/1424 34016G26KT SCT012 FEW030CB",
    "UTAA": "TAF UTAA 132245Z 1400/1424 03016KT 6000 SCT050 TX41/1411Z TEMPO 1400/1409 32016G26KT 3000 BLDU BECMG 1416/1418 23012KT",
    "UACC": "TAF UACC 132300Z 1400/1424 VRB01MPS 9999 SCT040 BKN100 TX38/1409Z TN18/1400Z TEMPO 1402/1406 10005MPS BECMG 1406/1408 10006MPS SCT030CB BKN070 TEMPO 1406/1418 VRB16MPS 3100 -TSRA SQ BKN030CB BECMG 1418/1420 14006MPS TEMPO 1418/1424 10010MPS 3100 -SHRA BKN030CB",
    "UAAA": "TAF UAAA 132301Z 1400/1424 35003MPS 9999 FEW050CB SCT100 TX33/1410Z TN22/1401Z TEMPO 1406/1415 05005G10MPS BECMG 1415/1417 15003MPS TEMPO 1415/1424 21003MPS",
    "UZTT": "TAF UZTT 132300Z 1400/1424 06012KT CAVOK TX39/1411Z TN26/1400Z TEMPO 1406/1418 32015KT",
    "ZWWW": "TAF ZWWW 132104Z 1400/1506 18004MPS CAVOK TX38/1409Z TX34/1506Z TN28/1423Z BECMG 1402/1403 36004MPS BECMG 1414/1415 18004MPS BECMG 1502/1503 36004MPS",
    "ZLXY": "TAF ZLXY 132108Z 1400/1424 06004MPS 6000 NSC TX36/1408Z TN25/1421Z TEMPO 1412/1415 TSRA FEW040CB OVC060",
    "ZBAA": "TAF ZBAA 132101Z 1400/1506 02004MPS CAVOK TX35/1406Z TX36/1506Z TN24/1421Z",
    "ZBHH": "TAF ZBHH 132109Z 1400/1424 24004MPS 9999 FEW040 TX29/1408Z TN17/1422Z TEMPO 1409/1412 -TSRA FEW040CB FEW040",
    "ZSQD": "TAF ZSQD 132106Z 1400/1424 30008G13MPS 5000 BR NSC TX32/1406Z TN22/1420Z BECMG 1409/1410 32003MPS",
    "ZMCK": "TAF ZMCK 132249Z 1400/1506 VRB02MPS 9999 FEW030CB SCT033 TX24/1407Z TN10/1421Z BECMG 1403/1405 29006MPS BECMG 1410/1412 VRB02MPS",
    "UUEE": "TAF UUEE 132250Z 1400/1424 36003MPS 2000 BR BKN002 TX24/1412Z TN16/1401Z TEMPO 1400/1404 0300 FG BKN001 BECMG 1404/1406 6000 NSW BKN016 TEMPO 1410/1418 33010G16MPS PROB40 TEMPO 1410/1418 -TSRA BKN016CB",
    "UUDD": "TAF UUDD 132253Z 1400/1506 34003MPS 3000 BR SCT020 TX24/1412Z TN13/1401Z TEMPO 1400/1405 0300 FG BKN002 BECMG 1405/1407 9999 NSW TEMPO 1408/1418 34008G13MPS PROB40 TEMPO 1410/1418 -TSRA BKN016CB",
    "ULLI": "TAF ULLI 132254Z 1400/1424 01004G09MPS 9999 SCT030 BECMG 1412/1414 33005MPS BECMG 1418/1419 28003MPS",
    "USSS": "TAF USSS 132249Z 1400/1424 12003G13MPS 9999 -SHRA BKN020CB TEMPO 1400/1419 VRB20MPS -TSRA SQ",
    "UNNT": "TAF UNNT 132300Z 1400/1424 35003G08MPS 6000 SCT040 TX25/1409Z TN13/1421Z",
    "UNKL": "TAF UNKL 132246Z 1400/1424 21003G08MPS 8000 SCT040 TEMPO 1403/1415 -TSRA BKN016CB BECMG 1404/1406 26005G12MPS BECMG 1409/1411 31008G18MPS BECMG 1412/1414 24003G08MPS",
    "UIBB": "TAF UIBB 132300Z 1400/1424 30002G07MPS 9999 BKN050CB TEMPO 1400/1412 VRB07MPS",
    "UEEE": "TAF UEEE 132300Z 1400/1506 11003G10MPS 9999 SCT030CB BKN100 TX30/1406Z TN18/1418Z TEMPO 1400/1412 VRB20MPS 2100 -TSRA SQ SCT010 BKN030CB OVC100",
    "UHHH": "TAF UHHH 132248Z 1400/1506 24003G09MPS 9999 SCT030CB TX31/1406Z TN22/1420Z TEMPO 1400/1409 26008MPS TEMPO 1412/1415 18005MPS",
    "UHSS": "TAF UHSS 132256Z 1400/1506 19003MPS 9999 BKN005 BKN016CB TEMPO 1400/1404 2000 BR BKN003 BECMG 1409/1411 1400 BR TEMPO 1411/1423 0600 FG BKN002 BECMG 1423/1424 9999 NSW BKN016CB"
  },
  "atis": {},
  "windtemp_alaska": "\n000\nFBAK31 KWNO 132000\nFD1AK1\nDATA BASED ON 131800Z    \nVALID 140000Z   FOR USE 2000-0300Z. TEMPS NEG ABV 24000\n\nFT  3000    6000    9000   12000   18000   24000  30000  34000  39000\nADK 3016 2817+05 2920+02 2923-03 2933-15 2938-26 304841 305250 293549\nADQ 1918 2016+04 2318+02 2523-02 2748-13 2755-23 277238 278147 268756\nAKN 1830 2023+04 2222+01 2327-04 2544-14 2570-24 258939 259948 259454\nANC 1512 1821+01 1916-04 2316-09 2535-18 2766-28 279041 780049 276448\nANN 3111 3215+04 3312+00 3408-05 3513-17 3517-29 362446 361953 330947\nBET 1821 1816+00 2119-04 2225-08 2443-18 2465-27 239341 740249 246349\nBRW 9900 1608+03 1513-03 1617-09 1623-21 1528-32 164748 164150 161845\nBTI 2705 2410+08 2217+01 2124-05 1928-18 1829-30 183546 183954 182352\nBTT 2013 2119+00 2022-04 2026-10 1824-23 1817-35 172848 182545 192343\nCDB 2331 2345+10 2349+05 2251+00 2261-11 2263-22 237939 228647 229256\nCZF 2019 1916-01 2017-05 2316-09 2320-21 2443-31 248043 236647 233943\nEHM 1619 2019+03 2128-01 2229-04 2245-14 2366-24 237940 239748 730253\nFAI 1607 2117+02 2123-04 2026-09 1728-23 1726-35 202746 212744 222943\nFYU 2512 2512+04 2216-02 2117-08 1832-21 1747-32 166947 165851 192645\nGAL 2020 2120-01 2123-05 2026-10 1926-25 1822-36 222444 233041 232842\nGKN 1722 1925+02 2021-04 2020-09 2324-20 2538-31 276245 275447 264146\nHOM 1613 1516+01 1918-01 2320-05 2641-16 2763-25 278439 780047 279255\nJNU 2508 2708+01 2910+01 2708-04 2509-16 2712-29 270846 291153 312150\nLUR 1207 1008+00 0813-05 0818-11 0820-23 0826-36 061948 110844 150941\nMCG 2018 1925-01 1925-05 1926-10 2231-23 2450-33 269342 267645 254344\nMDO 1712 1712+01 2011-02 2516-06 2733-14 2846-25 297541 299249 297853\nOME 1918 2030-02 2135-06 2027-11 2018-21 2012-34 250647 242144 232142\nORT      2709+05 2310-02 2114-08 2026-21 1930-32 202846 222647 242846\nOTZ 1712 1809-01 1809-06 2110-12 2219-22 2219-35 221747 201444 201540\nSNP 0410 9900+02 2105-02 2314-05 2228-17 2139-27 214742 205051 224446\nTKA 1812 1926+01 2024-05 2220-10 2431-21 2648-31 278842 277546 264846\nUNK 1921 2012-01 2014-06 2018-11 1916-24 2007-35 242943 243842 243242\nYAK 2205 2308+00 2413-02 2319-07 2424-16 2730-28 304145 304952 293850\nIKO 2237 2234+08 2240+04 2243-02 2152-15 2166-27 710040 710546 216948\nAFM 1723 1925-01 1930-06 1933-10 1931-23 1931-34 182948 171944 201841\n5AB 3310 3113+05 3120+02 3129-01 3142-12 3254-23 326839 327149 316457\n5AC 0307 0708+03 0508+00 0311-04 0221-17 0229-31 024744 366049 353447\n5AD 2214 2414+05 2615+01 3021+01 3134-11 3245-23 325237 327146 327758\n5AE 2535 2648+10 2647+05 2644+00 2640-11 2637-22 264437 254646 255656\n5AF 2606 3009+03 2708+00 2510-04 2514-15 2816-28 334642 335852 334452\n5AG 1913 2212+03 2315-02 2515-05 2722-14 2927-25 314841 317051 316753\n",
  "vaac_active": [
    {
      "volcano": "MAYON",
      "volcano_jp": "マヨン",
      "advisory_nr": "2026/736",
      "obs_time": "2026-07-13 19:12Z",
      "issued_time": "2026-07-13 20:59Z",
      "text_url": "https://www.data.jma.go.jp/vaac/data/TextData/2026/20260713_27303000_0736_Text.html",
      "lat": 13.25,
      "lon": 123.683,
      "text": "FVFE01 RJTD 132059\nVA ADVISORY\nDTG: 20260713/2059Z\nVAAC: TOKYO\nVOLCANO: MAYON 273030\nPSN: N1315 E12341\nAREA: PHILIPPINES\nSOURCE ELEV: 2462M AMSL\nADVISORY NR: 2026/736\nINFO SOURCE: HIMAWARI-9 PHIVOLCS\nERUPTION DETAILS: ERUPTION AT 20260713/1912Z FL130 EXTD NE REPORTED\nOBS VA DTG: 13/2040Z\nOBS VA CLD: VA NOT IDENTIFIABLE FM SATELLITE DATA WIND FL130 010/2KT\nFCST VA CLD +6 HR: NOT AVBL\nFCST VA CLD +12 HR: NOT AVBL\nFCST VA CLD +18 HR: NOT AVBL\nRMK: WE WILL ISSUE FURTHER ADVISORY IF VA IS DETECTED IN SATELLITE \nIMAGERY.\nNXT ADVISORY: NO FURTHER ADVISORIES="
    },
    {
      "volcano": "MAYON",
      "volcano_jp": "マヨン",
      "advisory_nr": "2026/735",
      "obs_time": "2026-07-13 19:12Z",
      "issued_time": "2026-07-13 19:27Z",
      "text_url": "https://www.data.jma.go.jp/vaac/data/TextData/2026/20260713_27303000_0735_Text.html",
      "lat": 13.25,
      "lon": 123.683,
      "text": "FVFE01 RJTD 131927\nVA ADVISORY\nDTG: 20260713/1927Z\nVAAC: TOKYO\nVOLCANO: MAYON 273030\nPSN: N1315 E12341\nAREA: PHILIPPINES\nSOURCE ELEV: 2462M AMSL\nADVISORY NR: 2026/735\nINFO SOURCE: HIMAWARI-9 PHIVOLCS\nERUPTION DETAILS: ERUPTION AT 20260713/1912Z FL090 EXTD NE REPORTED\nOBS VA DTG: 13/1910Z\nOBS VA CLD: VA NOT IDENTIFIABLE FM SATELLITE DATA WIND FL090 320/3KT\nFCST VA CLD +6 HR: NOT AVBL\nFCST VA CLD +12 HR: NOT AVBL\nFCST VA CLD +18 HR: NOT AVBL\nRMK: WE WILL ISSUE FURTHER ADVISORY IF VA IS DETECTED IN SATELLITE \nIMAGERY.\nNXT ADVISORY: NO FURTHER ADVISORIES="
    }
  ],
  "vaac_tokyo": [
    {
      "id": "20260713_27303000_0736",
      "year": "2026",
      "volcano": "Mayon",
      "psn": "N1315 E12341",
      "issued": "20260713",
      "text": "FVFE01 RJTD 132059\nVA ADVISORY\nDTG: 20260713/2059Z\nVAAC: TOKYO\nVOLCANO: MAYON 273030\nPSN: N1315 E12341\nAREA: PHILIPPINES\nSOURCE ELEV: 2462M AMSL\nADVISORY NR: 2026/736\nINFO SOURCE: HIMAWARI-9 PHIVOLCS\nERUPTION DETAILS: ERUPTION AT 20260713/1912Z FL130 EXTD NE REPORTED\nOBS VA DTG: 13/2040Z\nOBS VA CLD: VA NOT IDENTIFIABLE FM SATELLITE DATA WIND FL130 010/2KT\nFCST VA CLD +6 HR: NOT AVBL\nFCST VA CLD +12 HR: NOT AVBL\nFCST VA CLD +18 HR: NOT AVBL\nRMK: WE WILL ISSUE FURTHER ADVISORY IF VA IS DETECTED IN SATELLITE \nIMAGERY.\nNXT ADVISORY: NO FURTHER ADVISORIES=",
      "img_url": "https://ds.data.jma.go.jp/svd/vaac/data/VAGFN/2026/Images/20260713_27303000_0736_QH21_01.png",
      "sat_img_url": null,
      "text_url": "https://ds.data.jma.go.jp/svd/vaac/data/TextData/2026/20260713_27303000_0736_Text.html"
    },
    {
      "id": "20260713_28208001_0083",
      "year": "2026",
      "volcano": null,
      "psn": "N3136 E13039",
      "issued": "20260713",
      "text": "FVFE01 RJTD 130254\nVA ADVISORY\nDTG: 20260713/0254Z\nVAAC: TOKYO\nVOLCANO: SAKURAJIMA (AIRA CALDERA) 282080\nPSN: N3136 E13039\nAREA: JAPAN\nSOURCE ELEV: 1117M AMSL\nADVISORY NR: 2026/83\nINFO SOURCE: JMA HIMAWARI-9\nERUPTION DETAILS: ERUPTED AT 20260713/0152Z FL100 EXTD N\nOBS VA DTG: 13/0230Z\nOBS VA CLD: SFC/FL100 N3136 E13039 - N3142 E13040 - N3141 E13044 - \nN3134 E13042 MOV NE 15KT\nFCST VA CLD +6 HR: 13/0830Z SFC/FL100 N3234 E13121 - N3145 E13155 - \nN3202 E13110 - N3227 E13051\nFCST VA CLD +12 HR: 13/1430Z SFC/FL100 N3318 E13206 - N3142 E13317 - \nN3134 E13226 - N3312 E13118\nFCST VA CLD +18 HR: NO VA EXP\nRMK: NIL\nNXT ADVISORY: 20260713/0600Z=",
      "img_url": "https://ds.data.jma.go.jp/svd/vaac/data/VAGFN/2026/Images/20260713_28208001_0083_QH21_01.png",
      "sat_img_url": "https://ds.data.jma.go.jp/svd/vaac/data/Sat/2026/Images/28208001/09-ir/20260713_0230_202607130254_ir.png",
      "text_url": "https://ds.data.jma.go.jp/svd/vaac/data/TextData/2026/20260713_28208001_0083_Text.html"
    },
    {
      "id": "20260712_27307000_0012",
      "year": "2026",
      "volcano": "Taal",
      "psn": "N1400 E12100",
      "issued": "20260712",
      "text": "FVFE01 RJTD 121243\nVA ADVISORY\nDTG: 20260712/1243Z\nVAAC: TOKYO\nVOLCANO: TAAL 273070\nPSN: N1400 E12100\nAREA: PHILIPPINES\nSOURCE ELEV: 311M AMSL\nADVISORY NR: 2026/12\nINFO SOURCE: HIMAWARI-9 PHIVOLCS\nERUPTION DETAILS: ERUPTION AT 20260712/1227Z FL050 EXTD NE REPORTED\nOBS VA DTG: 12/1230Z\nOBS VA CLD: VA NOT IDENTIFIABLE FM SATELLITE DATA WIND FL050 230/19KT\nFCST VA CLD +6 HR: NOT AVBL\nFCST VA CLD +12 HR: NOT AVBL\nFCST VA CLD +18 HR: NOT AVBL\nRMK: WE WILL ISSUE FURTHER ADVISORY IF VA IS DETECTED IN SATELLITE \nIMAGERY.\nNXT ADVISORY: NO FURTHER ADVISORIES=",
      "img_url": "https://ds.data.jma.go.jp/svd/vaac/data/VAGFN/2026/Images/20260712_27307000_0012_QH21_01.png",
      "sat_img_url": null,
      "text_url": "https://ds.data.jma.go.jp/svd/vaac/data/TextData/2026/20260712_27307000_0012_Text.html"
    },
    {
      "id": "20260712_30019000_0003",
      "year": "2026",
      "volcano": "Krasheninnikov",
      "psn": "N5436 E16016",
      "issued": "20260712",
      "text": "FVFE01 RJTD 120130\nVA ADVISORY\nDTG: 20260712/0130Z\nVAAC: TOKYO\nVOLCANO: KRASHENINNIKOV 300190\nPSN: N5436 E16016\nAREA: RUSSIA\nSOURCE ELEV: 1816M AMSL\nADVISORY NR: 2026/3\nINFO SOURCE: HIMAWARI-9\nERUPTION DETAILS: VA AT 20260712/0100Z FL080 EXTD SE\nOBS VA DTG: 12/0100Z\nOBS VA CLD: SFC/FL080 N5440 E16023 - N5412 E16045 - N5402 E16033 - \nN5434 E16013 MOV SE 20KT\nFCST VA CLD +6 HR: 12/0700Z SFC/FL080 N5310 E16258 - N5251 E16229 - \nN5302 E16111 - N5436 E16016\nFCST VA CLD +12 HR: 12/1300Z SFC/FL090 N5233 E16425 - N5158 E16444 - \nN5210 E16103 - N5446 E16008 - N5251 E16216\nFCST VA CLD +18 HR: 12/1900Z SFC/FL090 N5142 E16614 - N5044 E16548 - \nN5213 E15943 - N5432 E15924 - N5448 E16118 - N5223 E16227\nRMK: NIL\nNXT ADVISORY: 20260712/0600Z=",
      "img_url": "https://ds.data.jma.go.jp/svd/vaac/data/VAGFN/2026/Images/20260712_30019000_0003_QH21_01.png",
      "sat_img_url": "https://ds.data.jma.go.jp/svd/vaac/data/Sat/2026/Images/30019000/09-ir/20260712_0100_202607120130_ir.png",
      "text_url": "https://ds.data.jma.go.jp/svd/vaac/data/TextData/2026/20260712_30019000_0003_Text.html"
    }
  ],
  "vaac_alaska": [
    {
      "text": "\n000\nFVAK21 PAWU 111230\nVAAAK1\nVA ADVISORY\n\nDTG: 20260711/1224Z\n\nVAAC: ANCHORAGE\n\nVOLCANO: SHEVELUCH 300270\n\nPSN: N5639 E16122\n\nAREA: KAMCHATKA PENINSULA\n\nSOURCE ELEV: 10771 FT AMSL\n\nADVISORY NR: 2026/193\n\nRMK: PLEASE SEE FVXX2 KNES ISSUED BY VAAC WASHINGTON WHICH DESCRIBES\nCONDITIONS NEAR THE VAAC ANCHORAGE AREA OF RESPONSIBILITY...CC\n\n\n\n",
      "issued": "2026-07-11T12:30:00+00:00",
      "volcano": "Sheveluch",
      "psn": "N5639 E16122"
    }
  ]
}