{
  "updated_utc": "2026-07-18T14:12Z",
  "metar": {
    "RJAA": "METAR RJAA 181230Z 15004KT 9999 FEW010 24/23 Q1008 NOSIG",
    "PANC": "METAR PANC 181253Z 24007KT 10SM FEW007 BKN021 OVC030 10/08 A2999 RMK AO2 SLP158 T01000083",
    "PAFA": "METAR PAFA 181253Z 00000KT 10SM SCT065 BKN085 11/09 A2989 RMK AO2 SLP125 T01060089 $",
    "PAED": "METAR PAED 181255Z 00000KT 10SM BKN019 OVC055 11/08 A2997 RMK AO2A SLP145 T01080084 $",
    "KSEA": "SPECI KSEA 181228Z 25004KT 10SM SCT006 BKN046 13/12 A3012 RMK AO2 T01330117 $",
    "ZSPD": "METAR ZSPD 181230Z 14004MPS 9999 -SHRA FEW030CB 27/25 Q1002 RETSRA BECMG TL1350 24005MPS SHRA",
    "ZSSS": "METAR ZSSS 181230Z 13005MPS 9999 FEW030CB 31/25 Q1002 BECMG TL1330 05004MPS SHRA",
    "RJFR": "METAR RJFR 181300Z 05009KT 9999 FEW020 SCT040 28/25 Q1003",
    "VHHH": "METAR VHHH 181230Z 18007KT 130V200 9999 FEW010 30/25 Q1005 NOSIG",
    "RCTP": "METAR RCTP 181230Z 24006KT 9999 FEW020 SCT200 28/24 Q1005 NOSIG RMK A2968",
    "ZGSZ": "METAR ZGSZ 181300Z 16004MPS 9999 SCT016 29/27 Q1006 NOSIG",
    "WSSS": "METAR WSSS 181230Z VRB02KT 9999 FEW016 FEW018TCU SCT160 27/25 Q1011 NOSIG",
    "WMKK": "METAR WMKK 181230Z 01004KT 320V070 9999 FEW030 26/24 Q1010 NOSIG",
    "WIDD": "METAR WIDD 181230Z 15005KT 9999 FEW014 29/25 Q1011 NOSIG",
    "VTBS": "METAR VTBS 181230Z 21010KT 9999 FEW020 31/23 Q1007 NOSIG",
    "VTBU": "METAR VTBU 181230Z 20007KT 9000 FEW020 29/28 Q1008 NOSIG",
    "ROAH": "METAR ROAH 181230Z 20007KT 9999 FEW005 SCT013 28/27 Q1006",
    "VVDN": "METAR VVDN 181230Z 11004KT 9999 FEW020 31/27 Q1005 NOSIG",
    "RCKH": "METAR RCKH 181230Z VRB01KT 9999 FEW016 SCT050 BKN120 27/23 Q1007 NOSIG RMK A2976",
    "KLAX": "METAR KLAX 181253Z 11004KT 10SM FEW012 FEW050 21/18 A3000 RMK AO2 SLP156 T02060178 $",
    "KONT": "METAR KONT 181253Z 00000KT 10SM FEW160 FEW200 21/17 A3001 RMK AO2 SLP145 T02060172 $",
    "KSFO": "SPECI KSFO 181247Z 25009KT 10SM OVC014 15/12 A3002 RMK AO2 T01500117 $",
    "KOAK": "METAR KOAK 181253Z 26008KT 10SM OVC013 15/12 A3002 RMK AO2 SLP166 T01500122",
    "KMHR": "METAR KMHR 181215Z AUTO 17006KT 9SM CLR 13/11 A2996 RMK AO2 T01310115 $",
    "KDFW": "METAR KDFW 181253Z 19015KT 10SM FEW020 FEW090 SCT200 SCT250 27/22 A3007 RMK AO2 SLP173 T02670222 $",
    "KIAH": "METAR KIAH 181253Z 00000KT 9SM BKN250 27/26 A3010 RMK AO2 SLP192 T02720256 $",
    "KORD": "METAR KORD 181251Z 27009KT 10SM FEW120 SCT200 BKN250 27/22 A2985 RMK AO2 SLP101 T02670222 $",
    "KJFK": "METAR KJFK 181251Z 22011KT 4SM FU BKN035 BKN045 BKN150 BKN250 25/17 A2997 RMK AO2 SLP150 FU BKN035 T02500167 $",
    "KRFD": "METAR KRFD 181254Z 24008KT 10SM FEW100 SCT190 BKN250 26/22 A2988 RMK AO2 SLP111 T02610222 $",
    "KIND": "METAR KIND 181254Z 25011KT 10SM FEW045 FEW100 SCT250 27/23 A2997 RMK AO2 SLP141 T02670233 $",
    "KDTW": "METAR KDTW 181253Z 24013KT 6SM HZ FEW010 BKN070 BKN180 26/22 A2982 RMK AO2 SLP094 T02610222 $",
    "KMSP": "METAR KMSP 181253Z 36008KT 9SM CLR 23/18 A2999 RMK AO2 SLP147 T02330183",
    "CYEG": "METAR CYEG 181300Z 23005KT 150V240 15SM SCT160 SCT250 19/17 A2986 RMK ACC3CI1 PRESRR SLP104 DENSITY ALT 3500FT",
    "EHAM": "METAR EHAM 181225Z 30013KT 270V330 9999 FEW025 SCT032 BKN040 19/11 Q1017 TEMPO 7000 -RA BKN020",
    "EBBR": "METAR EBBR 181220Z 32010KT 9999 BKN029 20/13 Q1017 NOSIG",
    "EDDF": "METAR EDDF 181220Z AUTO VRB06G18KT CAVOK 27/12 Q1014 NOSIG",
    "EDFH": "METAR EDFH 181220Z VRB04KT 9999 SCT042 23/12 Q1016",
    "EDDL": "METAR EDDL 181220Z AUTO 25009KT 220V280 9999 SCT035 OVC046 22/13 Q1016 NOSIG",
    "EDDK": "METAR EDDK 181220Z AUTO 31007KT 250V010 9999 BKN038 BKN044 23/13 Q1016 NOSIG",
    "EBLG": "METAR EBLG 181220Z 29010KT 260V330 9999 FEW034 BKN040 21/12 Q1017 NOSIG",
    "LSZH": "METAR LSZH 181220Z 26006KT 200V300 9999 TS FEW055 FEW060CB 28/13 Q1016 TEMPO NSW",
    "LIMC": "METAR LIMC 181220Z 20006KT 150V260 9999 SCT060 33/16 Q1011 NOSIG",
    "LIRF": "METAR LIRF 181220Z 27009KT 240V310 CAVOK 32/24 Q1012 NOSIG",
    "EINN": "METAR EINN 181230Z 33013KT 9999 FEW025 SCT240 22/12 Q1024 NOSIG",
    "EGLL": "METAR EGLL 181220Z AUTO 05011KT 010V080 9999 NCD 22/09 Q1020",
    "EGSS": "METAR EGSS 181220Z AUTO 01009KT 300V060 9999 BKN028 OVC035 19/10 Q1021",
    "EPWA": "METAR EPWA 181230Z 26011KT 9999 FEW030TCU SCT033 25/18 Q1008 NOSIG",
    "UHPP": "METAR UHPP 181300Z 33004MPS CAVOK 21/15 Q1018 R34L/CLRD62 NOSIG RMK QFE760/1014",
    "EFHK": "METAR EFHK 181220Z 14012KT 110V170 CAVOK 25/16 Q1005 NOSIG",
    "LBBG": "METAR LBBG 181230Z AUTO 12012KT 9999 NCD 28/18 Q1013 NOSIG",
    "LTAC": "METAR LTAC 181250Z 10008KT 040V130 9999 SCT040 29/08 Q1013 NOSIG RMK RWY21C VRB05KT RWY03L 08008KT 040V120 RWY21R VRB06KT RWY03R VRB06G16KT RWY21L 34006KT 270V060",
    "UBBB": "METAR UBBB 181230Z 01012KT CAVOK 30/19 Q1008 NOSIG",
    "UTAA": "METAR UTAA 181300Z 29010KT 260V340 9999 NSC 40/18 Q1005 R88/CLRD70 NOSIG",
    "UACC": "METAR UACC 181230Z 27005MPS 240V300 CAVOK 34/11 Q1005 NOSIG RMK QFE723/0964",
    "UAAA": "METAR UAAA 181230Z 06003MPS 010V080 9999 FEW050 SCT100 40/07 Q1006 NOSIG",
    "UZTT": "METAR UZTT 181230Z 25008KT 230V290 CAVOK 43/12 Q1000 NOSIG",
    "ZWWW": "METAR ZWWW 181230Z 35002MPS 320V050 7000 NSC 36/12 Q1007 NOSIG",
    "ZLXY": "METAR ZLXY 181300Z 25002MPS CAVOK 27/18 Q1007 NOSIG",
    "ZBAA": "METAR ZBAA 181230Z 06002MPS 030V110 CAVOK 24/20 Q1002 NOSIG",
    "ZBHH": "METAR ZBHH 181300Z 23002MPS CAVOK 20/16 Q1008 NOSIG",
    "ZSQD": "METAR ZSQD 181300Z 21003MPS 180V240 9999 BKN040 27/20 Q1003 NOSIG",
    "ZMCK": "METAR ZMCK 181230Z 32003MPS 9999 SCT030CB SCT033 19/11 Q1004 NOSIG RMK QFE638.9 59 MOP",
    "UUEE": "METAR UUEE 181230Z 06002MPS 010V100 CAVOK 25/11 Q1016 R06R/CLRD62 R06C/CLRD62 NOSIG",
    "UUDD": "METAR UUDD 181230Z 09003MPS 360V120 CAVOK 24/09 Q1016 R31L/CLRD65 NOSIG",
    "ULLI": "METAR ULLI 181230Z 17007MPS 130V210 CAVOK 27/10 Q1010 R88/090065 NOSIG",
    "USSS": "METAR USSS 181230Z 03007MPS 9999 TS BKN018CB 21/20 Q1002 R08R/250050 TEMPO VRB20MPS -TSRAGR SQ RMK QFE732/0976",
    "UNNT": "METAR UNNT 181230Z 02002MPS 9999 SCT040CB 23/18 Q1003 R07/CLRD// R16/CLRD// NOSIG RMK QFE742/0990",
    "UNKL": "METAR UNKL 181230Z 24002MPS CAVOK 21/18 Q1001 R11/CLRD// TEMPO -TSRA BKN016CB RMK QFE725",
    "UIBB": "SPECI UIBB 181216Z 17002MPS 140V230 9999 TS FEW050CB 18/14 Q1000 R12/CLRD62 NOSIG RMK QFE708/0944",
    "UEEE": "METAR UEEE 181230Z 09001MPS 9999 -SHRA SCT030CB 18/16 Q0997 R23/290151 NOSIG RMK QFE739",
    "UHHH": "METAR UHHH 181230Z 00000MPS CAVOK 22/18 Q1005 R23L/090060 NOSIG RMK QFE747/0997",
    "UHSS": "METAR UHSS 181230Z 19002MPS 9000 -SHRA SCT009 BKN016CB 20/19 Q1010 R19/CLRD70 NOSIG RMK MT OBSC QFE756/1009"
  },
  "taf": {
    "RJAA": "TAF RJAA 181105Z 1812/1918 16004KT 8000 FEW005 BKN020",
    "PANC": "TAF PANC 181142Z 1812/1918 VRB02KT P6SM -SHRA SCT010 OVC040 TEMPO 1812/1816 BKN030 FM181800 19004KT P6SM VCSH OVC050 FM182000 16008KT 6SM -RA OVC040 FM182300 14012G24KT P6SM VCSH SCT040 OVC070 FM190800 34005KT 6SM -RA OVC060 WS008/12030KT",
    "PAFA": "TAF PAFA 181136Z 1812/1918 20003KT P6SM SCT060 BKN100 FM190000 17006KT P6SM SCT050 SCT120",
    "PAED": "TAF PAED 181300Z 1813/1919 00000KT 9999 SCT008 BKN015 BKN020 620802 QNH2998INS BECMG 1819/1820 27004KT 9999 -SHRA BKN030 BKN060 650604 QNH3002INS BECMG 1904/1905 03008KT 9999 VCSH SCT030 BKN060 BKN080 640604 520208 QNH3002INS BECMG 1913/1914 36010KT 8000 -RA SCT050 BKN080 640802 550208 QNH2998INS TX13/1900Z TN10/1912Z",
    "KSEA": "TAF KSEA 181120Z 1812/1918 21006KT P6SM SCT006 BKN045 TEMPO 1812/1816 5SM BR BKN005 FM181700 24006KT P6SM SCT008 BKN045 FM181900 27006KT P6SM SCT050 FM190200 01008KT P6SM FEW250 FM191100 36005KT P6SM SCT250",
    "ZSPD": "TAF AMD ZSPD 181221Z 1812/1918 30004MPS 8000 TSRA SCT030 FEW030CB TX28/1812Z TX33/1906Z TN27/1821Z BECMG 1812/1813 18005MPS -SHRA BECMG 1813/1814 10004MPS TEMPO 1905/1909 TSRA BKN011 FEW030CB",
    "ZSSS": "TAF AMD ZSSS 181310Z 1812/1918 29015G30MPS 1500 +TSRA SQ BKN008 SCT030CB TX28/1813Z TX33/1906Z TN27/1821Z BECMG 1813/1814 15004MPS 6000 -SHRA BKN015 TEMPO 1904/1908 TSRA BKN011 FEW030CB",
    "RJFR": "TAF RJFR 181105Z 1812/1918 01004KT 9999 FEW030 SCT040 BECMG 1821/1823 11006KT BECMG 1900/1903 06010KT TEMPO 1906/1912 -TSRA FEW020 BKN030 FEW030CB BECMG 1909/1912 31006KT TEMPO 1915/1918 BKN005 BKN020",
    "VHHH": "TAF VHHH 181400Z 1815/1921 20010KT 9999 FEW010 SCT025 TX31/1906Z TN27/1822Z TEMPO 1818/1824 3000 SHRA FEW010CB SCT020 TEMPO 1900/1906 24015G25KT 2500 TSRA SHRA FEW008CB SCT015",
    "RCTP": "TAF RCTP 181100Z 1812/1918 23015KT 9999 FEW010 BKN032 TEMPO 1812/1818 24010KT TEMPO 1818/1824 24009KT TEMPO 1900/1906 23020KT TEMPO 1906/1912 23022KT",
    "ZGSZ": "TAF ZGSZ 180903Z 1812/1918 17004MPS 8000 BKN040 TX29/1812Z TX31/1906Z TN27/1822Z TEMPO 1822/1901 SHRA FEW020CB SCT020 TEMPO 1902/1906 2500 +TSRA SCT010 FEW020CB BKN030",
    "WSSS": "TAF WSSS 181100Z 1812/1918 14005KT 9999 FEW015 SCT020",
    "WMKK": "TAF WMKK 181100Z 1812/1918 VRB03KT 9999 FEW018 PROB30 TEMPO 1820/1900 5000 TSRA FEW017CB",
    "VTBS": "TAF VTBS 181100Z 1812/1918 22008KT 9999 FEW020",
    "VTBU": "TAF VTBU 181100Z 1812/1912 22006KT 9000 FEW020 BECMG 1816/1818 36004KT BECMG 1900/1902 24008KT",
    "ROAH": "TAF ROAH 181105Z 1812/1918 21004KT 9999 FEW005 BKN010 TEMPO 1814/1821 FEW003 BKN005 TEMPO 1821/1900 FEW005 BKN008 TEMPO 1912/1918 FEW005 BKN008",
    "VVDN": "TAF VVDN 181100Z 1812/1912 22008KT 9999 FEW020 BECMG 1905/1906 01010KT",
    "RCKH": "TAF COR RCKH 181148Z 1812/1918 18005KT 9999 FEW010 BKN032 TEMPO 1812/1818 10005KT 4000 RA FEW010 BKN020 TEMPO 1818/1824 07005KT 4500 RA FEW010 BKN020 TEMPO 1900/1906 26009KT 5000 RA FEW010 BKN020 TEMPO 1906/1912 26010KT",
    "KLAX": "TAF KLAX 181351Z 1814/1918 11005KT P6SM FEW015 BKN150 FM181500 13006KT P6SM BKN015 FM181800 13006KT P6SM BKN015 FM182000 26012KT P6SM FEW025 FM190300 24006KT P6SM FEW015 SCT150 FM190600 VRB03KT P6SM FEW015 SCT150 FM190900 VRB03KT P6SM BKN015 FM191700 VRB03KT P6SM SCT015",
    "KONT": "TAF KONT 181120Z 1812/1918 VRB04KT P6SM SCT200 FM182000 26010G21KT P6SM SCT150 FM190200 25010KT P6SM FEW200 FM190900 VRB04KT P6SM SKC",
    "KSFO": "TAF KSFO 181245Z 1813/1918 26007KT P6SM OVC015 FM181800 28015G25KT P6SM SKC FM190600 26007KT P6SM OVC010",
    "KOAK": "TAF KOAK 181122Z 1812/1918 24007KT P6SM OVC010 FM181800 27010KT P6SM SKC FM190500 26007KT P6SM OVC010",
    "KMHR": "TAF KMHR 181120Z 1812/1912 17008KT P6SM SKC FM181600 VRB05KT P6SM FEW250 FM182200 22011KT P6SM SKC FM190600 16007KT P6SM FEW250",
    "KDFW": "TAF KDFW 181120Z 1812/1918 18012KT P6SM SCT025 TEMPO 1813/1815 BKN020 FM181600 18016KT P6SM SCT060 FM190200 18007KT P6SM FEW250",
    "KIAH": "TAF KIAH 181120Z 1812/1918 17006KT P6SM FEW020 SCT250 FM181500 20007KT P6SM SCT020 BKN035 FM181900 17008KT P6SM SCT045 SCT250 FM190400 19004KT P6SM FEW020 SCT250",
    "KORD": "TAF KORD 181120Z 1812/1918 25010KT P6SM SCT250 FM181400 27013G22KT P6SM SCT050 BKN250 FM181700 29012KT P6SM VCTS BKN050CB TEMPO 1817/1820 VRB20G30KT 1SM TSRA BKN020 OVC050CB FM182000 06011G17KT P6SM FEW015 SCT035 FM190100 03012G18KT 5SM FU SCT015",
    "KJFK": "TAF KJFK 181124Z 1812/1918 17004KT 4SM FU BKN250 FM181300 20010KT 4SM FU OVC150 FM181500 19012KT 4SM FU VCSH SCT015 OVC070 TEMPO 1815/1818 3SM SHRA BKN015 OVC070 FM181800 19014KT P6SM VCSH SCT015 OVC070 TEMPO 1819/1823 2SM TSRA BR BKN015 OVC050CB FM182300 20014G22KT 5SM -SHRA BKN015 OVC050 TEMPO 1823/1903 2SM TSRA BR BKN009 OVC050CB FM190300 24012KT 4SM SHRA BKN025 OVC050 FM190700 28012KT P6SM SCT040 BKN100 FM191200 33013KT P6SM BKN250",
    "KRFD": "TAF KRFD 181120Z 1812/1912 25010KT P6SM BKN250 FM181400 28013G22KT P6SM SCT050 BKN250 PROB30 1815/1817 1SM TSRA BKN020 OVC050CB FM181900 31011KT P6SM SCT035 FM190300 01009KT 5SM FU SCT035",
    "KIND": "TAF KIND 181120Z 1812/1918 23008KT P6SM FEW040 SCT180 FM181500 27013KT P6SM VCSH SCT050 PROB30 1821/1903 VRB15G25KT 5SM -TSRA BKN030CB FM190300 34007KT P6SM VCSH BKN150",
    "KDTW": "TAF KDTW 181244Z 1813/1918 22008KT 6SM BR FU SCT007 BKN070 FM181500 26016G23KT P6SM SCT030 BKN050 OVC120 TEMPO 1817/1820 2SM TSRA OVC030CB FM182100 32014G22KT P6SM SCT045 BKN060 FM190100 35010KT P6SM BKN200 FM190600 01005KT P6SM SKC",
    "KMSP": "TAF KMSP 181124Z 1812/1918 36008KT P6SM SKC FM181300 01011KT P6SM SKC FM190200 03004KT P6SM SCT250",
    "CYEG": "TAF AMD CYEG 181323Z 1813/1912 21006KT P6SM BKN020 TEMPO 1813/1816 BKN030 FM181600 27006KT P6SM FEW030 FM182200 27006KT P6SM FEW050 TEMPO 1822/1824 VRB25G40KT P6SM VCTS BKN050CB FM190000 25008KT P6SM SCT050 PROB30 1900/1904 VRB25G40KT 1SM +TSRA BR FEW020 BKN040CB FM190400 25008KT P6SM FEW100 FM191000 27008KT P6SM SCT080 TEMPO 1910/1912 VRB25G35KT P6SM VCTS BKN080CB RMK NXT FCST BY 181500Z",
    "EHAM": "TAF EHAM 181115Z 1812/1918 32013KT 9999 SCT025 BKN030 BECMG 1819/1822 31008KT PROB30 TEMPO 1820/1824 7000 -SHRA FEW020TCU BECMG 1906/1909 32016KT",
    "EBBR": "TAF EBBR 181112Z 1812/1918 32010KT 9999 SCT030 SCT045",
    "EDDF": "TAF EDDF 181100Z 1812/1918 29009KT 9999 SCT045 PROB30 TEMPO 1814/1820 31015G25KT TSRA BKN045CB BECMG 1819/1822 31004KT PROB30 TEMPO 1901/1904 SHRA BKN035CB BECMG 1906/1908 30009KT",
    "EDFH": "TAF EDFH 181100Z 1812/1912 31007KT 9999 FEW045 PROB30 TEMPO 1814/1819 32015G25KT TSRA BKN035CB",
    "EDDL": "TAF EDDL 181100Z 1812/1918 31011KT 9999 SCT035 BECMG 1819/1822 29006KT BECMG 1907/1910 30012KT PROB30 TEMPO 1914/1917 31015G25KT",
    "EDDK": "TAF EDDK 181100Z 1812/1918 32011KT 9999 SCT040 BECMG 1819/1822 31006KT BECMG 1907/1910 31011KT PROB30 TEMPO 1913/1918 31015G25KT",
    "EBLG": "TAF EBLG 181112Z 1812/1918 31010KT 9999 SCT030 SCT045",
    "LSZH": "TAF AMD LSZH 181228Z 1812/1918 17008KT 9999 FEW060CB TX27/1813Z TN15/1904Z TX24/1914Z BECMG 1812/1813 27010KT PROB40 TEMPO 1813/1817 30015G26KT TSRA BECMG 1818/1820 15005KT BECMG 1821/1824 CAVOK BECMG 1905/1908 9999 SCT040 PROB40 TEMPO 1907/1915 SHRA SCT050TCU BECMG 1908/1911 30010KT PROB30 TEMPO 1912/1916 32015G25KT TSRA FEW050CB",
    "LIMC": "TAF LIMC 181100Z 1812/1918 22010KT 9999 FEW040 BECMG 1816/1818 VRB05KT PROB40 TEMPO 1819/1902 TSRA",
    "LIRF": "TAF LIRF 181100Z 1812/1918 27012KT CAVOK BECMG 1820/1822 VRB05KT BECMG 1907/1909 17010KT BECMG 1912/1914 23010KT BECMG 1916/1918 VRB05KT",
    "EINN": "TAF EINN 181100Z 1812/1912 36012KT 9999 FEW025",
    "EGLL": "TAF EGLL 181053Z 1812/1918 02010KT 9999 FEW030 PROB40 TEMPO 1903/1908 32006KT",
    "EGSS": "TAF EGSS 181056Z 1812/1918 03006KT 9999 SCT032 BECMG 1823/1902 33010KT",
    "EPWA": "TAF EPWA 181130Z 1812/1912 26012KT 9999 SCT035 TEMPO 1812/1821 27015G25KT 4000 SHRA SCT030CB PROB40 TEMPO 1812/1818 VRB17G28KT 2000 TSRA BKN030CB BECMG 1817/1819 VRB02KT PROB40 TEMPO 1909/1912 -SHRA SCT040CB",
    "UHPP": "TAF UHPP 181039Z 1812/1918 36003G12MPS 9999 SCT050 TX28/1903Z TN18/1816Z TEMPO 1821/1912 30005G12MPS",
    "EFHK": "TAF EFHK 181131Z 1812/1912 15009KT CAVOK PROB40 TEMPO 1812/1816 FEW050CB TEMPO 1816/1823 21012G22KT 4000 TSRA BKN012 BKN030CB BECMG 1823/1901 21010KT 6000 -RADZ BKN007 FEW030CB BECMG 1904/1906 28010KT 9999 BECMG 1908/1910 34011KT BKN015",
    "LBBG": "TAF LBBG 181100Z 1812/1912 12012KT CAVOK BECMG 1820/1822 VRB03KT TEMPO 1902/1905 3000 BR BKN010 BECMG 1906/1908 12012KT",
    "LTAC": "TAF LTAC 181040Z 1812/1912 06012KT 9999 SCT040 BECMG 1816/1819 CAVOK BECMG 1900/1903 VRB02KT",
    "UBBB": "TAF UBBB 181052Z 1812/1912 34016KT CAVOK TX30/1812Z TN25/1901Z TEMPO 1812/1818 02014KT FEW050CB PROB40 TEMPO 1818/1824 TS SCT040CB TEMPO 1900/1906 SCT012 FEW050CB",
    "UTAA": "TAF UTAA 181045Z 1812/1912 27016KT 6000 SCT050 TX42/1912Z TEMPO 1812/1818 34014G24KT 4000 DRDU TEMPO 1900/1907 30012G22KT",
    "UACC": "TAF UACC 181110Z 1812/1912 27006MPS 9999 SCT040CB BKN100 TX34/1909Z TN20/1900Z TEMPO 1812/1816 31007G12MPS BECMG 1816/1818 14003MPS TEMPO 1818/1904 20008MPS -TSRA BKN030CB BECMG 1904/1906 24006MPS TEMPO 1904/1912 28009MPS -TSRA BKN030CB",
    "UAAA": "TAF UAAA 181104Z 1812/1912 17002MPS 9999 FEW050 SCT100 TX42/1910Z TN23/1900Z TEMPO 1812/1816 04005MPS BECMG 1903/1904 01005MPS TEMPO 1905/1912 06005G10MPS",
    "UZTT": "TAF UZTT 181100Z 1812/1912 07010KT 7000 NSC TX44/1911Z TN27/1900Z TEMPO 1812/1816 32015KT",
    "ZWWW": "TAF ZWWW 180905Z 1812/1918 36004G10MPS CAVOK TX38/1909Z TN28/1823Z TN30/1918Z BECMG 1815/1816 18004MPS BECMG 1902/1903 36004MPS BECMG 1913/1914 18004MPS",
    "ZLXY": "TAF ZLXY 180907Z 1812/1912 24003MPS 6000 NSC TX35/1908Z TN22/1821Z",
    "ZBAA": "TAF ZBAA 180901Z 1812/1918 18004MPS CAVOK TX31/1906Z TN21/1821Z TN23/1918Z",
    "ZBHH": "TAF ZBHH 180903Z 1812/1912 36004MPS CAVOK TX30/1908Z TN15/1822Z TEMPO 1909/1912 VRB08G13MPS -TSRA FEW040CB FEW040",
    "ZSQD": "TAF ZSQD 180901Z 1812/1912 16003MPS 3500 BR NSC TX30/1906Z TN21/1820Z",
    "ZMCK": "TAF ZMCK 181044Z 1812/1918 VRB02MPS 9999 FEW030CB SCT033 TN12/1821Z TX24/1907Z PROB40 TEMPO 1812/1816 VRB09G14MPS TSRA SCT027CB SCT030 BECMG 1900/1902 32005MPS PROB40 TEMPO 1905/1912 VRB09G14MPS TSRA SCT027CB SCT030 BECMG 1911/1913 VRB02MPS",
    "UUEE": "TAF UUEE 181053Z 1812/1912 05003MPS CAVOK TX27/1912Z TN15/1902Z TEMPO 1903/1912 21005MPS",
    "UUDD": "TAF UUDD 181052Z 1812/1918 03003MPS CAVOK TX28/1912Z TN12/1901Z BECMG 1906/1908 20005MPS",
    "ULLI": "TAF ULLI 181053Z 1812/1912 18006G12MPS 9999 SCT020 TEMPO 1909/1912 22009G15MPS 3100 -TSRA BKN017CB",
    "USSS": "TAF USSS 181042Z 1812/1912 06003G14MPS 6000 -SHRA BKN016CB TEMPO 1812/1912 VRB20MPS -TSRAGR SQ BKN004 BKN011CB",
    "UNNT": "TAF UNNT 181100Z 1812/1912 32003G08MPS 8000 SCT040 TX26/1812Z TN16/1822Z TEMPO 1812/1819 22008G18MPS -TSRA BKN020CB TEMPO 1819/1902 0300 FG BKN001 TEMPO 1902/1912 02006G13MPS -TSRA BKN020CB",
    "UNKL": "TAF UNKL 181052Z 1812/1912 27003MPS 9999 SCT040 TEMPO 1812/1815 -TSRA BKN016CB BECMG 1819/1821 0400 FG VV003 BECMG 1822/1901 6000 NSW TEMPO 1903/1912 -TSRA BKN016CB",
    "UIBB": "TAF AMD UIBB 181316Z 1813/1912 20004MPS 9999 -TSRA FEW001 BKN016CB BECMG 1814/1815 NSW BECMG 1815/1817 0300 FG BKN001 BKN016CB TEMPO 1817/1821 4000 -SHRA FEW001 BKN017CB FM190100 26005G10MPS 9999 -SHRA BKN017CB TEMPO 1901/1912 VRB10MPS -TSRA",
    "UEEE": "TAF UEEE 181100Z 1812/1918 12003G10MPS 9999 BKN017CB OVC070 TEMPO 1812/1821 VRB01MPS 0500 TSRA FG VV003",
    "UHHH": "TAF UHHH 181045Z 1812/1918 24003MPS CAVOK TX30/1904Z TN18/1818Z FM190000 28003MPS 9999 SCT020CB",
    "UHSS": "TAF AMD UHSS 181100Z 1812/1918 24003MPS 9999 BKN020CB TEMPO 1812/1820 -TSRA FM181500 36006MPS 5000 -SHRA BKN005 BKN016CB BECMG 1906/1908 9999 NSW BKN020CB"
  },
  "atis": {
    "RJAA": "[Arrival ATIS] RJAA ARR ATIS Y 0715Z M0700 (APCH)ILS Z RWY34R LDG RWY 34R DEP RWY 34L DEP FREQ 124.2. TWY A1 CLSD. OBSERVE GEAR DOWN OPS PROC ON FNL. M 230700Z 07009KT 020V110 30KM FEW015CU BKN/// 20/16 Q1011/A2985= Q/TWO NINE EIGHT FIVE STP\n[Departure ATIS] RJAA DEP ATIS Y 0705Z M0700 (APCH)ILS Z RWY34R LDG RWY 34R DEP RWY 34L DEP FREQ 124.2. TWY A1 CLSD. OBSERVE GEAR DOWN OPS PROC ON FNL. M 230700Z 07009KT 020V110 30KM FEW015CU BKN/// 20/16 Q1011/A2985= Q/TWO NINE EIGHT FIVE STP",
    "PANC": "[Arrival ATIS] PANC ARR ATIS K 0553Z ANC ATIS INFO K 0553Z. 13016G27KT 10SM FEW055 BKN100 13/07 A3004 (THREE ZERO ZERO FOUR). ILS RWY 15 APPROACHES IN USE. LANDING RWY 15, DEPARTING RWY 25L, 15. NOTICE TO AIRMEN. RWY 25R CLSD. CHECK NOTAMS FOR TAXIWAY CLOSURES. CAUTION FOR BIRD ACTIVITY IN THE ARPT AREA. CONTACT TOWER 118.3 FOR TAXI. ...ADVS YOU HAVE INFO K.\n[Departure ATIS] PANC DEP ATIS K 0553Z ANC ATIS INFO K 0553Z. 13016G27KT 10SM FEW055 BKN100 13/07 A3004 (THREE ZERO ZERO FOUR). ILS RWY 15 APPROACHES IN USE. LANDING RWY 15, DEPARTING RWY 25L, 15. NOTICE TO AIRMEN. RWY 25R CLSD. CHECK NOTAMS FOR TAXIWAY CLOSURES. CAUTION FOR BIRD ACTIVITY IN THE ARPT AREA. CONTACT TOWER 118.3 FOR TAXI. ...ADVS YOU HAVE INFO K.",
    "KSEA": "[Arrival ATIS] KSEA ARR ATIS F 1325Z SEA ATIS INFO F 1325Z SPECIAL. 19005KT 10SM BKN006 OVC043 13/12 A3013 (THREE ZERO ONE THREE). ILS, RYS 16R AND 16L , APCH IN USE. DEPG RWY 16L. SIMUL APCHS IN USE, BFI & SEA. TRAFFIC BELOW YOU ON FINAL. SIMUL APCHS IN USE TO PARA RYS. NOTAMS... BIRD ACTIVITY VICINITY ARPT. ...ADVS YOU HAVE INFO F.\n[Departure ATIS] KSEA DEP ATIS G 1353Z SEA ATIS INFO G 1353Z. 20004KT 10SM OVC005 14/12 A3013 (THREE ZERO ONE THREE). ILS, RYS 16R AND 16L , APCH IN USE. DEPG RWY 16L, DEPG ACFT PLAN AND BRIEF NUMBERS FOR BOTH RWYS 16L AND 16C. SIMUL APCHS IN USE, BFI & SEA. TRAFFIC BELOW YOU ON FINAL. SIMUL APCHS IN USE TO PARA RYS. NOTAMS... BIRD ACTIVITY VICINITY ARPT. ...ADVS YOU HAVE INFO G.",
    "ZSPD": "[Arrival ATIS] ZSPD ARR ATIS N 1403Z EXP ILS APCH INDEPENDENT PARL INSTR APCH LDG RWY 35L & 34R WIND RWY 35L TDZ 340/3MPS MID 340/4MPS END 350/3MPS RWY 34R TDZ 300/4MPS MID 310/5MPS END 330/6MPS VIS RWY 35L TDZ 10000M MID 10000M END 4300M VIS RWY 34R TDZ 10000M MID 10000M END 10000M FBL SHRA NSC T 26 /DP 26 QNH 1003 HPA SUPPLEMENT INFO RETSRA CAUTION THE BIRDS NEAR THE RUNWAY WIND SHEAR ON ALL RUNWAY RWY 17L/17R/16L/16R RWYCC 5/5/5 ISSUED AT 1120 WET/WET/WET DPT NR/NR/NR COV 100PCT/100PCT/100PCT ADZ YOU HAVE INFO N.\n[Departure ATIS] ZSPD DEP ATIS K 1300Z DEP RWY 17L & 16R WIND RWY 17L TDZ 000/0MPS MID 190/1MPS END 220/2MPS VRB BTN 170/ AND 240/ RWY 16R TDZ 150/2MPS MID 220/2MPS VRB BTN 190/ AND 250/ END 160/3MPS VIS RWY 17L TDZ 10000M MID 10000M END 10000M VIS RWY 16R TDZ 10000M MID 10000M END 10000M FBL SHRA CLD FEW CB 900M T 27 /DP 24 QNH 1003 HPA CAUTION THE BIRDS NEAR THE RUNWAY WIND SHEAR ON ALL RUNWAY RWY 17L/17R/16L/16R RWYCC 5/5/5 ISSUED AT 1120 WET/WET/WET DPT NR/NR/NR COV 100PCT/100PCT/100PCT ADZ YOU HAVE INFO K.",
    "ZSSS": "[Arrival ATIS] ZSSS ARR ATIS U 0700Z EXP ILS APCH LDG RWY 36R WIND RWY 36R TDZ 040/4MPS MID 030/3MPS END 040/4MPS VIS RWY 36R TDZ 10000M MID 10000M END 10000M FBL SHRA CLD BKN 270M T 23 /DP 21 QNH 1004 HPA RWY36L RWYCC 5/5/5 ISSUED AT 0600 WET/WET/WET DPT NR/NR/NR COV 100PCT/100PCT/100PCT RWY36R RWYCC 5/5/5 ISSUED AT 0600 WET/WET/WET DPT NR/NR/NR COV 100PCT/100PCT/100PCT QNH OF SHANGHAI TERMINAL CONTROL AREA 1003 HPA ADZ YOU HAVE INFO U.\n[Departure ATIS] ZSSS DEP ATIS U 0700Z DEP RWY 36L WIND RWY 36L TDZ 050/3MPS MID 040/3MPS END 030/4MPS VIS RWY 36L TDZ 10000M MID 10000M END 10000M FBL SHRA CLD BKN 270M T 23 /DP 21 QNH 1004 HPA RWY36L RWYCC 5/5/5 ISSUED AT 0600 WET/WET/WET DPT NR/NR/NR COV 100PCT/100PCT/100PCT RWY36R RWYCC 5/5/5 ISSUED AT 0600 WET/WET/WET DPT NR/NR/NR COV 100PCT/100PCT/100PCT QNH OF SHANGHAI TERMINAL CONTROL AREA 1003 HPA ADZ YOU HAVE INFO U.",
    "VHHH": "[Arrival ATIS] VHHH ARR ATIS C 1303Z ARRIVALS, RWY 25R. EXP RNAV TRANSITION TO ILS APCH, RWY 25R. RNP APCH IS AVBL ON REQ, RWY 25R. WIND 200/08KT. VIS 10KM. CLD FEW 1000FT. T30 DP25. QNH 1006HPA. ACK INFO C ON FIRST CTC WITH APP.\n[Departure ATIS] VHHH DEP ATIS Y 0609Z DEPARTURES, RWY 25C/L. INDEPENDENT PARALLEL DEPARTURE IN PROGRESS. WIND RWY 25C 200/11KT MAX21 MNM05 RWY 25L 220/12KT. VIS RWY 25C 10KM RWY 25L 10KM. CLD FEW 1000FT SCT 2500FT. T33 DP26. QNH 1003HPA. ACK INFO Y ON FIRST CTC WITH DELIVERY .",
    "RCTP": "[Arrival ATIS] RCTP ARR ATIS V 0700Z EXP ILS APCH RWY23R FOR ARR. RWY23L FOR DEP. WIND 270/13KT VIS 10 KM OR MORE CLD FEW 2000FT BKN 20000FT T 33 DP 25 QNH 1003HPA NOSIG DUE TO FLOW CONTROL BY FUKUOKA F-I-R, TRAFFIC CONCERNED MAY BE DELAYED. CTN BIRD ACTIVITY IN THE VCY OF THE AD. INFORM TAIPEI APCH OR TAIPEI TOWER ON INITIAL CONTACT YOU HAVE INFORMATION V\n[Departure ATIS] RCTP DEP ATIS T 0600Z EXP ILS APCH RWY23R FOR ARR. RWY23L FOR DEP. WIND 290/11KT VIS 10 KM OR MORE CLD FEW 2000FT BKN 20000FT T 34 DP 26 QNH 1003HPA NOSIG DUE TO FLOW CONTROL BY FUKUOKA F-I-R, TRAFFIC CONCERNED MAY BE DELAYED. CTN BIRD ACTIVITY IN THE VCY OF THE AD. INFORM TAIPEI APCH OR TAIPEI TOWER ON INITIAL CONTACT YOU HAVE INFORMATION T",
    "ZGSZ": "[Arrival ATIS] ZGSZ ARR ATIS V 0700Z EXP ILS APCH 15 EXP ILS OR VIS APCH 16R WIND 170/9MPS VIS 9999M CLD FEW 600M T 32 /DP 28 QNH 1002 HPA INDEPENDENT PARALLEL DEPARTURES DEPENDENT PARALLEL APPROACHES MISSED APPROACH ALTITUDE SETTING 1200METERS WHEN AIRBORNE CONTACT ZHUHAI APPROACH EXPECTED RNP ILS DME Z APPROACH ADZ YOU HAVE INFO V.\n[Departure ATIS] ZGSZ DEP ATIS U 0630Z DEP RWY 15 & 16L WIND 170/8MPS VIS 9999M CLD FEW 600M T 32 /DP 28 QNH 1003 HPA INDEPENDENT PARALLEL DEPARTURES DEPENDENT PARALLEL APPROACHES MISSED APPROACH ALTITUDE SETTING 1200METERS WHEN AIRBORNE CONTACT ZHUHAI APPROACH EXPECTED RNP ILS DME Z APPROACH ADZ YOU HAVE INFO U.",
    "WSSS": "[Arrival ATIS] WSSS ARR ATIS Q 0700Z METREPORT 0700Z ILS APCHRWY 20R SIMUL INDEPENDENT ILS AND VISUAL APPROACHES ARE CONDUCTED ON RWY 20. TWY W 9 CLOSED, RWY 02C 20C RAPID EXIT TAXIWAY INDICATOR LIGHTS OFF WIND 190/ 11KT VRB BTN150 AND210 VIS 10KM CLD FEW 1800FT FEW TCU 2000FT T32 DP24 QNH 1008HPA NOSIG ACK ATIS Q\n[Departure ATIS] WSSS DEP ATIS T 0700Z METREPORT 0700Z RWY 20C SIMUL INDEPENDENT ILS AND VISUAL APPROACHES ARE CONDUCTED ON RWY 20. TWY W 9 CLOSED, RWY 02C 20C RAPID EXIT TAXIWAY INDICATOR LIGHTS OFF WIND 240/ 10KT VRB BTN190 AND250 VIS 10KM CLD FEW 1800FT FEW TCU 2000FT T32 DP24 QNH 1008HPA NOSIG DEP,INITIAL CMB 3000FT ACK ATIS T",
    "WMKK": "[Arrival ATIS] WMKK ARR ATIS L 0704Z WMKK ARR INFO L. TIME 0700. INDEPENDENT PARALLEL APPROACHES FOR RWY 32 L AND 33 ARE IN PROGRESS. EXP RNAV / ILS APCH FOR RWY 32 RIGHT. EXP RNAV / ILS APCH FOR RWY 33. WIND RWY 32R DIRECTION NOT AVBL SPEED NOT AVBL. WIND RWY 32L DIRECTION NOT AVBL SPEED NOT AVBL. WIND RWY 33 DIRECTION NOT AVBL SPEED NOT AVBL. VIS RWY 32R TDZ NOT AVBL. VIS RWY 33 TDZ NOT AVBL. WX VCSH. CLD FEW CB 1700 FT, CLD SCT 1800 FT. T 31. DP 25. QNH 1008. TREND TEMPO VIS 6 KM, MOD TSRA. AT FIRST CONTACT WITH LUMPUR RADAR, NOTIFY RCPT OF L\n[Departure ATIS] WMKK DEP ATIS Q 0704Z WMKK DEP INFO Q. TIME 0700. INDEPENDENT PARALLEL DEPARTURES FOR RWY 32 L AND 33 ARE IN PROGRESS. RWY 32 LEFT. RWY 33. WIND RWY 32L DIRECTION NOT AVBL SPEED NOT AVBL. WIND RWY 33 DIRECTION NOT AVBL SPEED NOT AVBL. VIS RWY 32L TDZ NOT AVBL. VIS RWY 33 TDZ NOT AVBL. WX VCSH. CLD FEW CB 1700 FT, CLD SCT 1800 FT. T 31. DP 25. QNH 1008. TREND TEMPO VIS 6 KM, MOD TSRA. ALL DEP ACFT TO CONTACT LUMPUR DEP AT 135 DECIMAL 25 MHZ WHEN ABN. AT FIRST CONTACT WITH LUMPUR GROUND, NOTIFY RCPT OF Q",
    "VTBS": "[Arrival ATIS] VTBS ARR ATIS L 0700Z VTBS ARR ATIS L 0701Z SIMULTANEOUS INDEPENDENT PARL APCH IN PROGRESS EXP ILS Z APCH ARR RWY 19 OR RNP APCH RWY 20R , ,PILOT SHALL ADZ BKK APCH ON INITIAL CTC IF UNA TO CONDUCT RNP APCH DUE TO OPERATIONAL CONSTRAINT 0700Z WIND 230/10KT MAX20 MNM6 VRB BTN 210/ AND 300/ VIS 10KM CLD FEW 2000FT T35 DP20 QNH 1007HPA TREND NOSIG ADZ BKK APCH ON INITIAL CONTACT THAT YOU HAVE INFO L\n[Departure ATIS] VTBS DEP ATIS Q 0600Z VTBS DEP ATIS Q 0601Z DEP RWY 20L , ,AFT AIRBORNE ALL DEPARTING ACFT SHALL CTC 119.25 0600Z WIND 240/6KT VRB BTN 210/ AND 300/ VIS 10KM CLD FEW 2000FT T34 DP21 QNH 1008HPA TREND NOSIG ADZ GND WHEN INITIAL CONTACT YOU HAVE INFO Q",
    "VTBU": "[Arrival ATIS] VTBU ARR ATIS S 0430Z VTBU ARR ATIS S 0431Z RNP RWY 36 TRL FL130 MOBILE ACFT ARST SYSTEM INSTL ATP SIX HUNDRED AND TEN METERS FM THR RWY 36 CABLE HGT 3 INCHES. 0430Z WIND 330/5KT VRB BTN 290/ AND 030/ VIS 10KM CLD FEW 2000FT T32 DP26 QNH 1009HPA TREND NOSIG ADZ CONTROLLER WHEN INITIAL CONTACT YOU HAVE INFO S\n[Departure ATIS] VTBU DEP ATIS D VTBU ARR/DEP DATIS RPT VTBU ARR ATIS D 0330Z ILS \"Z\" APCH RWY 18 TRL FL130 0330Z WIND 110/4KT VRB BTN 350/ AND 120/ VIS 6KM CLD FEW 2000FT T31 DP27 QNH 1014HPA TREND NOSIG ADZ CONTROLLER WHEN INITIAL CONTACT YOU HAVE INFO D",
    "ROAH": "[Arrival ATIS] ROAH ARR ATIS L 0905Z M0900 (APCH)RNP RWY18R LDG RWY 18R DEP RWY 18L DEP FREQ 126.5 258.3 M 180900Z 21008KT 15KM FEW006ST SCT008ST 29/28 Q1005/A2969= Q/TWO NINE SIX NINE STP\n[Departure ATIS] ROAH DEP ATIS Q 1131Z M1130 (APCH)RNP RWY18R LDG RWY 18R DEP RWY 18L DEP FREQ 126.5 258.3 M 181130Z 21006KT 15KM FEW005ST SCT015CU 28/28 Q1006/A2971= Q/TWO NINE SEVEN ONE STP",
    "VVDN": "[Arrival ATIS] VVDN ARR ATIS Q 0633Z VVDN INFO Q 0633Z. ILS VICTOR APPROACH 35L.. DPTG RWY 35R.. 0633Z. WIND 080/06KT VIS 10KM CLD SCT 6400FT T37 DP24 QNH 1003HPA TREND NOSIG. ADZ ON INITIAL CTC YOU HAVE INFO. Q.\n[Departure ATIS] VVDN DEP ATIS M 0536Z VVDN INFO M 0536Z. ILS VICTOR APPROACH 35L.. DPTG RWY 35R.. 0536Z. WIND 040/01KT VIS 10KM CLD FEW 6600FT T39 DP24 QNH 1003HPA TREND NOSIG. ADZ ON INITIAL CTC YOU HAVE INFO. M.",
    "RCKH": "[Arrival ATIS] RCKH ARR ATIS A 0630Z EXPECT ILS APPROACH RWY 27 ARR/DEP TAXIWAY JULIETT, TAXIWAY BRAVO, TAXIWAY DELTA AND TAXIWAY ECHO CLOSED DUE MAINTENANCE. RUNWAY 27 ARRIVALS PLAN VACATE VIA CHARLIE OR ALPHA AND EXPEDITE VACATE. WIND 290/12KT VARYING BTN 240 AND 330 VIS 10 KM OR MORE CLD FEW 2000FT T 33 DP 23 QNH 1003HPA NOSIG CAUTION BIRD ACTIVITY IN VICINITY OF THE AERODROME. INFORM KAO-HSIUN APCH OR KAO-HSIUN TOWER ON INITIAL CONTACT YOU HAVE INFORMATION A\n[Departure ATIS] RCKH DEP ATIS M 0900Z EXPECT ILS APPROACH RWY 09 ARR/DEP RWY SFC RWY 09 SFC COND 5/5/5 ISSUED AT 0340Z. 100/100/100 NR/NR/NR WET/WET/WET TAXIWAY JULIETT, TAXIWAY BRAVO, TAXIWAY DELTA AND TAX",
    "KLAX": "[Arrival ATIS] KLAX ARR ATIS F 0653Z LAX ATIS INFO F 0653Z. 24006KT 10SM FEW009 SCT011 17/15 A2999 (TWO NINER NINER NINER) RMK AO2 SLP152 T01720150. INST APCHS AND RNAV RNP APCHS RY 24R AND 25L, AND SIMUL APCHS IN PROG BTWN LAX AND HHR, SIMUL INSTR DEPARTURES IN PROG RWYS 24 AND 25. CTC L A GC ON 121.75 FOR PUSH OR TAXI ON A. TWY C CLSD BTN TWY, C8 AND TWY C9 , , TWY C10 CLSD BTN TWY, B AND TWY C, TWY B CLSD BTN TWY, F AND TWY B1, TWY B1 CLSD. ILS RY 25R OTS, RY 25R SFL OTS, RY 24L ALSF-2 OTS. LAX VOR UNMONITORED. IF ASSIGNED RUNWAY 25R FOR DEPARTURE, EXPECT DEPARTURE FROM INTERSECTION FOXTROT. TAXIWAY CHARLIE EIGHT BTWN TWY B AND TWY C AND TAXIWAY CHARLIE NINE BTWN TWY B AND TWY C ARE RESTRICTED TO AIRCRAFT WITH A WINGSPAN LESS THAN ONE HUNDRED EIGHTEEN FEET. USE CAUTION FOR INCREASED DRONE ACTIVIY IN THE VICINITY OF SOFI STADIUM AT OR BELOW 200FT AGL DURING THE WORLD CUP FROM 06/12/26 THROUGH 07/10/2026. HAZD WX INFO FOR LAX AREA AVBL FM FSS. BIRD ACTIVITY VICINITY ARPT. TWR FREQ FOR ALL RWYS IS 120.95. CD AND GC FREQ IS 121.75. INCLUDE YOUR CALL SIGN IN ALL READBACKS. USE CAUTION WHEN EXITING RY24R AT TWY V, W, AND Y, TO HOLD SHORT OF RY24L. MULTIPLE RUNWAY INCURSIONS HAVE OCCURRED. ...ADVS YOU HAVE INFO F.\n[Departure ATIS] KLAX DEP ATIS D 0653Z LAX ATIS INFO D 0653Z. 24006KT 10SM FEW009 SCT011 17/15 A2999 (TWO NINER NINER NINER) RMK AO2 SLP152 T01720150. INST APCHS AND RNAV RNP APCHS RY 24R AND 25L, AND SIMUL APCHS IN PROG BTWN LAX AND HHR, SIMUL INSTR DEPARTURES IN PROG RWYS 24 AND 25. CTC L A GC ON 121.75 FOR PUSH OR TAXI ON A. TWY C CLSD BTN TWY, C8 AND TWY C9 , , TWY C10 CLSD BTN TWY, B AND TWY C, TWY B CLSD BTN TWY, F AND TWY B1, TWY B1 CLSD. ILS RY 25R OTS, RY 25R SFL OTS, RY 24L ALSF-2 OTS. LAX VOR UNMONITORED. IF ASSIGNED RUNWAY 25R FOR DEPARTURE, EXPECT DEPARTURE FROM INTERSECTION FOXTROT. TAXIWAY CHARLIE EIGHT BTWN TWY B AND TWY C AND TAXIWAY CHARLIE NINE BTWN TWY B AND TWY C ARE RESTRICTED TO AIRCRAFT WITH A WINGSPAN LESS THAN ONE HUNDRED EIGHTEEN FEET. USE CAUTION FOR INCREASED DRONE ACTIVIY IN THE VICINITY OF SOFI STADIUM AT OR BELOW 200FT AGL DURING THE WORLD CUP FROM 06/12/26 THROUGH 07/10/2026. HAZD WX INFO FOR LAX AREA AVBL FM FSS. BIRD ACTIVITY VICINITY ARPT. TWR FREQ FOR ALL RWYS IS 120.95. INCLUDE YOUR CALL SIGN IN ALL READBACKS. USE CAUTION WHEN EXITING RY24R AT TWY V, W, AND Y, TO HOLD SHORT OF RY24L. MULTIPLE RUNWAY INCURSIONS HAVE OCCURRED. ...ADVS YOU HAVE INFO D.",
    "KONT": "[Arrival ATIS] KONT ARR ATIS A 0653Z - KONT ATIS INFO A 0653Z. 25008KT 10SM CLR 22/17 A2989 (TWO NINER EIGHT NINER). ILS AND VIS APR IN USE, RY26L & RY26R. LNDG AND DEPG RY 26L AND RY 26R. NOTAMS... TAXIWAY SIERRA FIVE CLOSED. TAXIWAY SIERRA CLOSED BETWEEN TAXIWAY SIERRA 8 AND TAXIWAY WHISKEY. RY 26L IM OTS, RY 26R ALS OTS. PILOTS READBACK RWY ASSIGNMENTS AND HOLD SHORT INSTRUCTIONS. ...ADVS YOU HAVE INFO A.\n[Departure ATIS] KONT DEP ATIS N 0553Z - KONT ATIS INFO N 0553Z. 24004KT 10SM BKN250 22/15 A2988 (TWO NINER EIGHT EIGHT) RMK AO2 SLP100. ILS AND VIS APR IN USE, RY26L & RY26R. LNDG AND DEPG RY 26L AND RY 26R. NOTAMS... TAXIWAY SIERRA CLSD BETWEEN SIERRA 8 AND W TAXIWAY Q SOUTH OF RWY 26L CLSD TAXIWAY T CLSD TAXIWAY SIERRA 5 CLSD. RY 26L IM OTS, RY 26R ALS OTS. USE CAUTION FOR NUMEROUS BIRDS OBSERVED IN VICINITY OF ONT. HAZD WX INFO FOR SOUTHERN CA AVBL ON FSS FREQUENCIES. PILOTS READBACK RWY ASSIGNMENTS AND HOLD SHORT INSTRUCTIONS. ...ADVS YOU HAVE INFO N.",
    "KSFO": "[Arrival ATIS] KSFO ARR ATIS U 1156Z SFO ATIS INFO U 1156Z. 25007KT 10SM OVC016 15/12 A3002 (THREE ZERO ZERO TWO). ILS RY 28R APP IN USE. DEPG RWYS 28L. DEPG ACFT SHOULD BE PREPARED FOR A SHORT NOTICE RY CHANGE. RY 1L, 1R CLSD. NUMEROUS TWY CLOSURES FOR CONSTRUCTION ON THE FIELD, PILOTS CHECK NOTAMS. DEPG ACFT WAITING ON FINAL NUMBERS ADVISE GROUND PRIOR TO ENTERING TWY F. ...ADVS YOU HAVE INFO U.\n[Departure ATIS] KSFO DEP ATIS O 0156Z SFO ATIS INFO O 0156Z. 25015KT 10SM FEW007 SCT012 16/12 A2996 (TWO NINER NINER SIX). SIMUL CLSLY SPCD DPNDNT ILS RY 28R AND ILS RY 28L APP IN USE. DEPG RWYS 28L, 28R. DEPG ACFT SHOULD BE PREPARED FOR A SHORT NOTICE RY CHANGE. RY 1L, 1R CLSD. NUMEROUS TWY CLOSURES FOR CONSTRUCTION ON THE FIELD, PILOTS CHECK NOTAMS. MULTIPLE CRANES VCY OF SFO CHECK NOTAMS. DEPG ACFT WAITING ON FINAL NUMBERS ADVISE GROUND PRIOR TO ENTERING TWY F. ...ADVS YOU HAVE INFO O.",
    "KOAK": "[Arrival ATIS] KOAK ARR ATIS E 0453Z - KOAK ATIS INFO E 0453Z. 23009KT 10SM FEW007 FEW012 15/12 A2989 (TWO NINER EIGHT NINER). RNAV, AND VA, RWY 30. ILS, AND VA, RWY 28R. FLOW TO LAX, LAS. RWY 28L CLSD. TAXIWAYS G,H,P, CLSD BETWEEN RWYS 28R AND 28L. ILS RWY 30, OTS, RWY 28R RAIL, OTS. UNN LIT CLOSE-IN OBSTACLES FOR RWY 30 DEPARTURES. RWY 30 DEPARTURES ARE ADVISED TO AVOID TURNING LEFT PRIOR TO DEPARTURE END OF RUNWAY. CTN, CRANE 1 POINT 6 NAUTICAL MILES, , AT 140 FEET AGL. CAUTION, BIRDS NEAR AIRPORT. ...ADVS YOU HAVE INFO E.\n[Departure ATIS] KOAK DEP ATIS O 1953Z OAK ATIS INFO O 1953Z. 28014KT 10SM FEW005 22/14 A2988 (TWO NINER EIGHT EIGHT). RNAV Z/VA RWY 30 ILS/VA RWY 28R. FLOW TO LAX, LAS, SAN. ILS RWY 30, OTS. UNN LIT CLOSE-IN OBSTACLES FOR RWY 30 DEPARTURES. RWY 30 DEPARTURES ARE ADVISED TO AVOID TURNING LEFT PRIOR TO DEPARTURE END OF RUNWAY. SIGNATURE UNI-COM OUT OF SERVICE. CAUTION, BIRDS NEAR AIRPORT. ...ADVS YOU HAVE INFO O.",
    "KDFW": "[Arrival ATIS] KDFW ARR ATIS U 1253Z - KDFW ARR INFO U 1253Z. 20015KT 10SM FEW020 FEW090 SCT200 SCT250 27/22 A3007 (THREE ZERO ZERO SEVEN) RMK AO2 SLP173 T02670222. SIMUL APCH IN USE. EXPECT ILS TO RWYS, 13R, 18R, 17C, 17L. LDG RWY 17C EXP LAHSO TWY B 10460 FT AVAIL, LDG RWY 18R EXP LAHSO TWY B 10100 FT AVL. NOTICE TO AIRMEN. WARNING, RWY 18L HAS BEEN SHORTENED, 9273 FT AVAILABLE. BIRD ACTIVITY VCNTY ARPT. ...ADVS YOU HAVE INFO U.\n[Departure ATIS] KDFW DEP ATIS Q 1153Z DFW DEP INFO Q 1153Z. 18009KT 10SM BKN014 BKN150 BKN250 26/23 A3009 (THREE ZERO ZERO NINER) RMK AO2 SLP180 T02610233 10261 20250 53004. SIMUL PARL TRAFFIC DEPG RWYS 17R, 18L. NOTICE TO AIRMEN. WARNING, RWY 18L HAS BEEN SHORTENED, 9273 FT AVAILABLE. BIRD ACTIVITY VCNTY ARPT. ...ADVS YOU HAVE INFO Q.",
    "KIAH": "[Arrival ATIS] KIAH ARR ATIS D 1253Z IAH ATIS INFO D 1253Z. 00000KT 9SM BKN250 27/26 A3010 (THREE ZERO ONE ZERO) RMK AO2 SLP192 T02720256. ARRIVALS EXPECT ILS OR RNAV Y RY 26R, ILS OR RNAV Y RY 26L, ILS OR RNAV Y RY 27. SIMUL APPROACHES IN USE. DEPG RY 15L, RY 15R. NOTICE TO AIRMEN. UNITED RAMP CONTROL IN EFFECT. BIRD ACTIVITY VICINITY ARPT. CRANES ARE DOWN. TWY SA CLSD BTN TWY, SF AND TWY SK , TWY SB CLSD BTN TWY, SF AND TWY SK , , TWY EA CLSD. NOTAM ATIS IN USE ON FREQUENCY 126.225. ...ADVS YOU HAVE INFO D.\n[Departure ATIS] KIAH DEP ATIS T 0353Z IAH ATIS INFO T 0353Z. 15007KT 10SM FEW035 FEW180 BKN250 27/23 A2996 (TWO NINER NINER SIX). ARRIVALS EXPECT ILS OR RNAV Y RY 8R, ILS OR RNAV Y RY 8L. DEPG RY 15R. NOTICE TO AIRMEN. UNITED RAMP CONTROL IN EFFECT. RY 15L, 33R CLSD. HAZD WX INFO FOR IAH AREA AVBL FM FSS. BIRD ACTIVITY VICINITY ARPT. CRANES ARE DOWN. TWY SA CLSD BTN TWY, SF AND TWY SK , TWY SB CLSD BTN TWY, SF AND TWY SK , , TWY WB CLSD BTN TWY, WG AND TWY WH . TWY EA CLSD. NOTAM ATIS IN USE ON FREQUENCY 126.225. ...ADVS YOU HAVE INFO T.",
    "KORD": "[Arrival ATIS] KORD ARR ATIS P 1251Z ORD ATIS INFO P 1251Z. 27009KT 10SM FEW120 SCT200 BKN250 27/22 A2985 (TWO NINER EIGHT FIVE). ARR EXP VECTORS ILS RWY 27C APCH, VISUAL APCH RWY 27R, VISUAL APCH RWY 28C. SIMUL APCHS IN USE. LAND AND HOLD SHORT OPERATIONS ARE IN EFFECT. RWY 27C ARR PLAN TO H/S OF TWY V V, 9 THSD 7 HND 25 FT AVBL, RWY 28C ARR PLAN TO H/S OF TWY Z, 9 THSD 6 HND TEN FT AVBL. DEPS EXP RWYS 22L 28R FROM NOVEMBER 5 9750 FT AVL. RWY 4L, 22R CLSD. RWY 22R LOC OTS, RWY 28L GS OTS, RWY 9L IM OTS, RWY 9C IM OTS, RWY 10L IM OTS, RWY 10R IM OTS, RWY 27R IM OTS, RWY 28L IM OTS, RWY 28R IM OTS, RWY 9L PAPI OTS, RWY 27R PAPI OTS. PILOTS USE CTN FOR BIRD ACTIVITY IN THE VICINITY OF THE ARPT. USE CTN FOR PERSONNEL AND EQUIP AT NUMEROUS SITES ON THE FIELD. READBACK ALL RWY HOLD SHORT INSTRUCTIONS. WHEN READY TO TAXI CONTACT GND METERING ON FREQ 121.67. ...ADVS YOU HAVE INFO P.\n[Departure ATIS] KORD DEP ATIS W 0151Z ORD ATIS INFO W 0151Z. 26007KT 10SM FEW045 BKN250 30/22 A2993 (TWO NINER NINER THREE) RMK AO2 SLP127 T03000217. ARR EXP VECTORS ILS RWY 27C APCH, ILS RWY 27R APCH, ILS RWY 28C",
    "KJFK": "[Arrival ATIS] KJFK ARR ATIS S 1251Z - KJFK ATIS INFO S 1251Z. 23011KT 4SM FU BKN035 BKN045 BKN150 BKN250 25/17 A2997 (TWO NINER NINER SEVEN) RMK AO2 SLP150 FU BKN035 T02500167. APPROACH IN USE ILS RY 22L, ILS RY 22R. DEPG RY 22R. RY 13L SFL OTS, RWY 22L/4R INNER MARKER OTS. SWAP IN EFFECT EXPECT REROUTES. NUM CRANES OPERATING AT JFK. BIRD ACTIVITY VICINITY ARPT. READBACK ALL RWY ASSIGNMENTS AND HOLD SHORT INSTRUCTIONS. ...ADVS YOU HAVE INFO S.\n[Departure ATIS] KJFK DEP ATIS S 1251Z JFK ATIS INFO S 1251Z. 23011KT 4SM FU BKN035 BKN045 BKN150 BKN250 25/17 A2997 (TWO NINER NINER SEVEN) RMK AO2 SLP150 FU BKN035 T02500167. APPROACH IN USE ILS RY 22L, ILS RY 22R. DEPG RY 22R. RY 13L SFL OTS, RWY 22L/4R INNER MARKER OTS. SWAP IN EFFECT EXPECT REROUTES. NUM CRANES OPERATING AT JFK. BIRD ACTIVITY VICINITY ARPT. READBACK ALL RWY ASSIGNMENTS AND HOLD SHORT INSTRUCTIONS. ...ADVS YOU HAVE INFO S.",
    "KIND": "[Arrival ATIS] KIND ARR ATIS G 0254Z - KIND ATIS INFO G 0254Z. 03006KT 10SM SCT060 BKN110 BKN190 OVC250 28/22 A3007 (THREE ZERO ZERO SEVEN). PARL ILS RWY 5R AND 5L APPROACHES IN USE. CROSS RUNWAY OPERATIONS MAY BE IN EFFECT. NOTICE TO AIRMEN. TWY, P BTN TWY, H AND TWY B CLSD, TWY, P BTN TWY, H AND TWY J CLSD, TWY, H BTN TWY, R AND TWY N CLSD. P PAD CLSD. ILS RUNWAY 5R AND RUNWAY 5L INNER MARKER UNSERVICEABLE. HIWAS. ARPT ADZY FLOCK OF MEDIUM BIRDS IN THE VICINITY OF THE AIRPORT, ALT UNKN. ...ADVS YOU HAVE INFO G.\n[Departure ATIS] KIND DEP ATIS G 0254Z IND ATIS INFO G 0254Z. 03006KT 10SM SCT060 BKN110 BKN190 OVC250 28/22 A3007 (THREE ZERO ZERO SEVEN). PARL ILS RWY 5R AND 5L APPROACHES IN USE. CROSS RUNWAY OPERATIONS MAY BE IN EFFECT. NOTICE TO AIRMEN. TWY, P BTN TWY, H AND TWY B CLSD, TWY, P BTN TWY, H AND TWY J CLSD, TWY, H BTN TWY, R AND TWY N CLSD. P PAD CLSD. ILS RUNWAY 5R AND RUNWAY 5L INNER MARKER UNSERVICEABLE. HIWAS. ARPT ADZY FLOCK OF MEDIUM BIRDS IN THE VICINITY OF THE AIRPORT, ALT UNKN. ...ADVS YOU HAVE INFO G.",
    "KDTW": "[Arrival ATIS] KDTW ARR ATIS F 0953Z DTW ARR INFO F 0953Z. 20007KT 2 1/2SM BR FU BKN006 22/21 A2985 (TWO NINER EIGHT FIVE) RMK AO2 TWR VIS 5 SLP105 FU BKN006 T02220211. SIMUL ILS Z RY 22R AND RY 21L APCH IN USE. NOTICE TO AIRMEN. RWY 21R, 3L CLSD, RWY 27L, 9R CLSD, RWY 27R, 9L CLSD. TWYS Y1 CLSD ;. RY 22L ALS OTS. PILOTS USE CTN FOR BIRD ACTIVITY. DEPARTURE ATIS 118.125. ...ADVS YOU HAVE INFO F.\n[Departure ATIS] KDTW DEP ATIS N 0953Z DTW DEP INFO N 0953Z. 35003KT 1SM R03R/P6000FT FU SCT000 OVC027 22/16 A3004 (THREE ZERO ZERO FOUR) RMK AO2 TWR VIS 2 SLP167 FU SCT000 T02170161. DEPG RWY 4R. . RWY 4R DEPARTURE POINT IS Y 2, DISTANCE REMAINING IS 11, THOUSAND, 450, FT, FULL LENGTH AVAIL UPON REQ ;. NOTICE TO AIRMEN. RWY 21R, 3L CLSD, RWY 27L, 9R CLSD, RWY 27R, 9L CLSD. TWYS Y1 CLSD ;. PILOTS USE CTN FOR BIRD ACTIVITY. TWR AND GC COMB ON FREQ 135.0. ...ADVS YOU HAVE INFO N.",
    "KMSP": "[Arrival ATIS] KMSP ARR ATIS B 1053Z MSP ARR INFO B 1053Z. 35007KT 10SM CLR 22/17 A2997 (TWO NINER NINER SEVEN). VISUAL RWY 30L APCH IN USE, VISUAL RWY 30R APCH IN USE. NOTICE TO AIRMEN. RWYS 4, 22 CLSD. TWY R7. R8. R9. R10. CLOSED. TWY R BTWN R6 AND R10 CLSD, TWY A7 CLSD, TWY A CLSD BTN TWY, A7 AND TWY D. GS RWY 12L OTS, DME RWY 30L, 12R OTS, RWYS 12R, 12L, INNER MARKER OTS. HAZD WX INFO FOR MSP AREA AVBL FM FSS. CTN, BIRDS NEAR MSP. READ BACK HS AND ALT. ALL ACFT TAXI WITH TRANSPONDER AND ALTITUDE ENCODING ON. ...ADVS YOU HAVE INFO B.\n[Departure ATIS] KMSP DEP ATIS P 1053Z MSP DEP INFO P 1053Z. 35007KT 10SM CLR 22/17 A2997 (TWO NINER NINER SEVEN). DEPARTING RWY 30L, RWY 30R. NOTICE TO AIRMEN. RWYS 4, 22 CLSD. TWY R7. R8. R9. R10. CLOSED. TWY R BTWN R6 AND R10 CLSD, TWY A7 CLSD, TWY A CLSD BTN TWY, A7 AND TWY D. ALL ACFT CTC METERING ON ONE THREE THREE POINT FIVE SEVEN WHEN READY TO PUSHBACK OR TAXI. HAZD WX INFO FOR MSP AREA AVBL FM FSS. CTN, BIRDS NEAR MSP. READ BACK HS AND ALT. ALL ACFT TAXI WITH TRANSPONDER AND ALTITUDE ENCODING ON. ...ADVS YOU HAVE INFO P.",
    "CYEG": "[Arrival ATIS] CYEG ARR ATIS X 1400Z 16004KT 15SM CIG OVC020 19/17 A2985 APCH RNAV Z OR Y OR ILS RWY 20, INFORM ARRL OF REQ APCH ON INITIAL CTC. LDG AND DEP RWY 20. SIMUL APPROACHES MAY BE IN EFCT. INFORM CYEG ATC INFO X\n[Departure ATIS] CYEG DEP ATIS X 1400Z CYEG ARR ATIS X 1400Z 16004KT 15SM CIG OVC020 19/17 A2985 APCH RNAV Z OR Y OR ILS RWY 20, INFORM ARRL OF REQ APCH ON INITIAL CTC. LDG AND DEP RWY 20. SIMUL APPROACHES MAY BE IN EFCT. INFORM CYEG ATC INFO X",
    "EHAM": "[Arrival ATIS] EHAM ARR ATIS H 1403Z EHAM ARRIVAL INFO H. CONTRACT. MAIN LANDING RWY 36 R. SECONDARY LANDING RWY 06. TRANSITION LEVEL 040. WIND 290 DEG, 12 KT, VRB BTN 230 AND 340 DEG, 16 KT MAX, 4 KT MNM. WIND SECONDARY RUNWAY 310 DEG, 13 KT, VRB BTN 250 AND 340 DEG, 17 KT MAX, 6 KT MNM. VIS 6 KM. WX -DZ. CLD FEW 1500 FT SCT 1700 FT BKN 4200 FT. T 18. DP 14. QNH 1017 HPA. TREND TEMPO VIS 10 KM OR MORE, NSW, CLD BKN 2000 FT. OPERATIONAL REPORT. CONTACT APCH WITH CALLSIGN ONLY. END OF INFO H\n[Departure ATIS] EHAM DEP ATIS V 1222Z EHAM DEPARTURE INFO V. DEMAND. MAIN DEPARTURE RWY 36 L. SECONDARY DEPARTURE RWY 36 C. MAIN LANDING RWY 36 R. WIND 320 DEG, 11 KT, VRB BTN 280 AND 360 DEG, 20 KT MAX, 7 KT MNM. WIND SECONDARY RUNWAY 310 DEG, 11 KT, VRB BTN 260 AND 340 DEG. VIS 10 KM OR MORE. CLD FEW 2500 FT SCT 3200 FT BKN 4000 FT. T 19. DP 11. QNH 1017 HPA. OPERATIONAL REPORT. INDEPENDENT PARALLEL DEPARTURES IN PROGRESS CHECK CORRECT SID IN FMS. INFORM SCHIPHOL DEL BY VOICE IF UNABLE TO COMPLY WITH NADP 2. END OF INFO V",
    "EBBR": "[Arrival ATIS] EBBR ARR ATIS E 1250Z EBBR NAT, EXP VECT FOR RNP APP ARR RWY25R RSCD AT 1139 RWY25R DRY. DEP RWY25R TRL 055 RWY 25L CLSD WIP 310/8KT VRB BTN 280 AND 340 VIS ABV 10KM FEW3100FT BKN4800FT T21 DP13 QNH 1017HPA NOSIG CFM ARR E\n[Departure ATIS] EBBR DEP ATIS S 0350Z EBBR NAT, DEP RWY25R RSCD AT 0319 RWY25R DRY. ARR RWY25L TRL 055 B3 CLSD 310/5KT VIS ABV 10KM BKN1900FT T17 DP13 QNH 1017HPA NOSIG CFM DEP S",
    "EDDF": "[Arrival ATIS] EDDF ARR ATIS B 1350Z ARR-ATIS EDDF B METAR 181350 EXPECT INDEPENDENT PARALLEL ILS Y APCH RWY 25R OR ILS APCH RWY 25L RWY 25R 25L GLS APCH ON REQUEST , DO NOT MISTAKE TWY M FOR RWY 25C WHEN PERFORMING VISUAL APPROACH , TRL 60 28008KT 230V310 CAVOK T28 DP11 QNH1014 TREND NOSIG END OF ATIS B\n[Departure ATIS] EDDF DEP ATIS Z 1120Z DEP-ATIS EDDF Z METAR 181120 RWY 25C 18 TRL 60 26008KT 220V310 RWY18 VRB06KT CAVOK T25 DP12 QNH1015 TREND NOSIG",
    "EDDL": "[Arrival ATIS] EDDL ARR ATIS J 1220Z ATIS EDDL J METAR 181220 EXPECT VECTORS ILS APPROACH RWY 23R RWY 23L 23R TRL 60 EXPECT INTENSE BIRD ACTIVITY IN THE VICINITY OF RWY SYSTEM 25009KT 220V280 9999 SCT035 OVC046 T22 DP13 QNH1016 TREND NOSIG\n[Departure ATIS] EDDL DEP ATIS R EDDL ARR/DEP DATIS RPT -ATIS EDDL R METAR 020550 -EXPECT VECTORS ILS APPROACH -RWY 23L -TWY L8 CLOSED BETWEEN TWY M AND RWY 23L -TRL 60 - -23010KT -CAVOK - - -T19 DP13 -QNH1020 - -TREND NOSIG",
    "EDDK": "[Arrival ATIS] EDDK ATIS N 0920Z -ATIS EDDK N METAR 180920 -EXPECT ILS APCH -RWY 31R 24 -RWY COND RWY 31R AT TIME 0645 RWYCC 6 DEPOSIT TOTAL RWY DRY RWY 24 AT TIME 0645 RWYCC 6 DEPOSIT TOTAL RWY DRY -TRL 60 -RWY 13R AND RWY 31L CLOSED FOR DEPARTURE AND LANDING: TAXIING BTN THR RWY 13R AND INTERSECTION RWY 24 POSSIBLE : -29008KT 250V330 -9999 - -FEW026 OVC033 -T21 DP13 -QNH1016 - -TREND NOSIG\n[Departure ATIS] EDDK DEP ATIS E 2050Z -ATIS EDDK E METAR 142050 -EXPECT CDO FOR ILS APCH RWY 31R -RWY 31R 06 -RWY COND RWY 31R AT TIME 1837 RWYCC 6 DEPOSIT TOTAL RWY DRY RWY 06 AT TIME 1837 RWYCC 6 DEPOSIT TOTAL RWY DRY -TRL 60 -RWY 13R AND RWY 31L CLOSED FOR DEPARTURE AND LANDING: TAXIING BTN THR RWY 13R AND INTERSECTION RWY 24 POSSIBLE : -02006KT 350V050 -CAVOK - - -T23 DP14 -QNH1018 - -TREND NOSIG",
    "EBLG": "[Arrival ATIS] EBLG ATIS W 0720Z EBLG INFO, EXP RNAV TO ILS APP ARR RWY04R DEP RWY04R RWY 04R DRY, RWYCC 666. TRL 055 TWY A4 CLSD 340/7KT CAVOK T21 DP19 QNH 1023HPA NOSIG CFM ATIS W",
    "LSZH": "[Arrival ATIS] LSZH ARR ATIS I 1406Z ARRIVALS, EXP ILS APCH, RWY 14. RWY COND REPORT. RWY COND CODE 5, 5, 5. COVERAGE 100 PER CENT, 100 PER CENT, 100 PER CENT. DEPTH NR, NR, NR. WET AND WET AND WET. RWY REPORT END. TRL 70. DEP RWY 28. WIND 190 DEG, 7 KT, VRB BTN 180 AND 260 DEG. VIS 10 KM OR MORE, TDZ 10 KM OR MORE. VCTS. CLD FEW CB 6000 FT. T 27. DP 14. QNH 1015. TREND TEMPO MOD TSRA.\n[Departure ATIS] LSZH DEP ATIS P 1250Z DEP RWY 28. TRL 70. ARRIVALS, EXP ILS APCH, RWY 14. TMA S 1 IS NOT ACT. TMA S 2 AND S 3 ARE NOT ACT. WIND 170 DEG, 11 KT. VIS 10 KM OR MORE. FBL SHRA. CLD FEW 4000 FT, FEW CB 6000 FT, SCT 7000 FT. T 26. DP 16. QNH 1016. TREND TEMPO TS.",
    "LIMC": "[Arrival ATIS] LIMC ARR ATIS H 1252Z LIMC ARR H 1252Z I.L.S. ZULU RWY IN USE 35R TL 75 WIND TDZ VRB3KT VIS 10KM CLD SCT 6000FT T33 DP17 QNH 1011HPA QFE 0985HPA BIRDS CONCENTRATION ON FINAL AND ON RWY STRIP\n[Departure ATIS] LIMC DEP ATIS R 0950Z LIMC DEP R 0950Z RWY IN USE 35R TL 75 WIND END 080/6KT VRB BTN 050/AND 150/ CAVOK T31 DP18 QNH 1012HPA QFE 0987HPA DATALINK CLEARANCE AVAILABLE.... CONTACT 1 3 1 8 8 0 TO BE RELEASED BY THE AIRPORT OPERATOR ...",
    "LIRF": "[Arrival ATIS] LIRF ARR ATIS S 0950Z LIRF ARR S 0950Z RWY 16L ILS W RWY 16R ILS Z RWY IN USE 16L 16R TL 70 DEPENDENT PARL ILS APCH INPR RWY IN USE 16R OR 16L ASSIGNED BY ROME RADAR WIND RWY 16L TDZ 160/8KT RWY 16R TDZ 140/13KT VRB BTN 120/AND 190/ CAVOK T32 DP25 QNH 1014HPA RRSM\n[Departure ATIS] LIRF DEP ATIS W 1350Z LIRF DEP W 1350Z RWY IN USE 25 TL 75 RWYS IN USE FOR ARR 16L AND 16R WIND END 270/9KT CAVOK T32 DP24 QNH 1011HPA REA IS SENT AUTOMATICALLY ONCE RLSD BY RAMP WHEN READY CONTACT FIUME RAMP 121.725 RRSM",
    "EINN": "[Arrival ATIS] EINN ARR ATIS Q 1330Z EXPECT I L S CATEGORY 1 LDG RWY06 TKOF RWY06 TRL FL060 35011KT 9999 FEW025 BKN200 21/12 QNH Q1024 TREND NOSIG ADVISE AT FIRST CONTACT YOU HAVE ATIS INFO Q",
    "EGLL": "[Arrival ATIS] EGLL ARR ATIS R 1250Z LANDING RWY 09L TRANSITION-LEVEL: FL 70 RUNWAY 09L REDUCED DECLARED DISTANCES IF STAND GUIDANCE IS OFF OR FAILS, REMAIN ON THE TAXIWAY CENTRELINE AND ADVISE ATC AUTO 03009KT 360V090 9999 NCD 22/09 Q1020 ACKNOWLEDGE RECEIPT OF INFORMATION R\n[Departure ATIS] EGLL DEP ATIS E 1250Z DEPARTURE RWY 09R RUNWAY 09L REDUCED DECLARED DISTANCES PILOTS THAT ARE IN RECEIPT OF DATALINK CLEARANCES ARE REMINDED THEY MUST CONTACT DELIVERY ON 121.980 WHEN READY FOR START DATALINK CLEARANCES NOT AVAILABLE FOR CPT DEPARTURES AUTO 02011KT 360V070 9999 NCD 22/09 Q1020 ACKNOWLEDGE RECEIPT OF INFORMATION E AND REPORT AIRCRAFT TYPE AND CURRENT QNH ON FIRST CONTACT WITH HEATHROW",
    "EPWA": "[Arrival ATIS] EPWA ARR ATIS L 0852Z EPWA ARR L. TIME 0851. EXP N ARR ILS Z APCH FOR RWY 11. TRANSITION LEVEL 80. WIND 130 DEG, 7 KT, VRB BTN 090 AND 170 DEG. CAVOK. T 28. DP 17. QNH 1015. NOSIG. CAUTION. BIRD ACT. END OF EPWA ARR L\n[Departure ATIS] EPWA DEP ATIS Y 1401Z EPWA DEP Y. TIME 1401. DEP RWY 29. ARR RWY 33, EXP U ARR ILS Z. REPORT READY FOR STARTUP ON DELIVERY 121 DECIMAL 605. TRANSITION LEVEL 80. WIND 270 DEG, 12 KT. VIS MID 10 KM OR MORE. CLD SCT TCU 4000 FT. T 24. DP 17. QNH 1009. TREND TEMPO WIND 260 DEG, 15 KT, GUSTING TO 27 KT, CLD SCT CB 4000 FT. CAUTION. BIRD ACT. END OF EPWA DEP Y",
    "EFHK": "[Arrival ATIS] EFHK ARR ATIS R 1350Z EXPECT ILS APCH ARR RWY 15 RUNWAY 15 CONDITION REPORT AT 0807 UTC RUNWAY CONDITION CODES 6 , 6 , 6 CONTAMINANTS ALL PARTS DRY TRL 65 WIND 150 DEG 14 KT CAVOK T 25 DP 15 QNH 1004 TEMPO CLD FEW TCU 6000 FT. ACK INFO R\n[Departure ATIS] EFHK DEP ATIS B 1120Z DEP RWY 22R RUNWAY 22R CONDITION REPORT AT 0809 UTC RUNWAY CONDITION CODES 6 , 6 , 6 CONTAMINANTS ALL PARTS DRY WIND 150 DEG 14 KT VIS 10KM FEW TCU 6000 FT T 24 DP 16 QNH 1005 NOSIG ACK INFO B",
    "LTAC": "[Arrival ATIS] LTAC ARR ATIS Z 0920Z EXP ILS V APCH 03C DEP RWY 03L RWY 03C WIND 090 DEG 10 KT VRB BTN 060 DEG AND 120 DEG RWY 03L WIND 070 DEG 11 KT VRB BTN 030 DEG AND 120 DEG TRL 110 VIS 9999 SCT04000 FT T 26 DP 06 QNH 1015 NOSIG FOR DELIVERY CTC 121.9. FOR DELIVERY FIRST USE DIGITAL DEP CLR. CTN BIRD HAZARD OVR AERODROME. APCH FREQUENCY 129.050. END OF ATIS Z",
    "UBBB": "[Arrival ATIS] UBBB ARR ATIS T 0700Z ATIS T EXP ILS/ LDG 16 17 DEP 16 17 IN USE RWY 16 CLEAR DRY 70 RWY 17 CLEAR DRY 70 TLVL 110 WIND WIND RWY 16 140 10 KT SPD MAX 14 MIN 8 WIND RWY 17 180 12 KT SPD MAX 16 MIN 8 VIS CAVOK T 29 / DP 12 QNH 1015 HPA TREND TREND NOSIG MODERATE BIRDS ACT IN VICINITY OF AP END OF ATIS T\n[Departure ATIS] UBBB DEP ATIS N 0400Z ATIS N EXP ILS/ LDG 34 35 DEP 34 35 IN USE RWY 34 CLEAR DRY 70 RWY 35 CLEAR DRY 70 TLVL 110 WIND WIND RWY 34 350 16 KT SPD MAX 20 MIN 10 WIND RWY 35 340 16 KT SPD MAX 18 MIN 10 VIS CAVOK T 28 / DP 19 QNH 1009 HPA TREND TREND NOSIG MODERATE BIRDS ACT IN VICINITY OF AP END OF ATIS N",
    "ZWWW": "[Arrival ATIS] ZWWW ARR ATIS T 0700Z EXP ILSDME Z APCH LDG RWY 26R TA 3000 WIND 320/7MPS VRB BTN 290/ AND 350/ CAVOK T 32 /DP 04 QNH 1006 HPA ADZ YOU HAVE INFO T.\n[Departure ATIS] ZWWW DEP ATIS N 0530Z DEP RWY 26L TA 3000 WIND VRB/1MPS CAVOK T 39 /DP 06 QNH 1009 HPA ADZ YOU HAVE INFO N.",
    "ZLXY": "[Arrival ATIS] ZLXY ARR ATIS Z 0500Z EXP ILS APCH LDG RWY 05L & 06R WIND 040/3MPS VRB BTN 350/ AND 080/ VIS 9999M CLD FEW 1200M T 28 /DP 19 QNH 1007 HPA VISUAL APPROACH IN PROGRESS ADZ YOU HAVE INFO Z.\n[Departure ATIS] ZLXY DEP ATIS X 0300Z DEP RWY 05L & 06L WIND 060/4MPS VIS 9999M CLD FEW 2100M T 26 /DP 18 QNH 1007 HPA VISUAL APPROACH IN PROGRESS ADZ YOU HAVE INFO X.",
    "ZBAA": "[Arrival ATIS] ZBAA ARR ATIS H 0700Z EXP ILS APCH DEPENDENT PARL INSTR APCH LDG RWY 36L & 36R & 01 WIND VRB DEG 2 MPS VIS 9999 -TSRA CLD SCT CB 1200M T 25 /DP 17 QNH 1007 HPA ADZ YOU HAVE INFO H.\n[Departure ATIS] ZBAA DEP ATIS C 0530Z DEP RWY 36L & 36R & 01 WIND VRB DEG 2 MPS CAVOK T 27 /DP 15 QNH 1007 HPA RWY INDEPENDENT PARALLEL DEP ADZ YOU HAVE INFO C.",
    "ZBHH": "[Arrival ATIS] ZBHH ARR ATIS O 0500Z EXP ILSDME APCH LDG RWY 26 TA 3000 /TRL 3600 WIND 340/5MPS MAX10 VRB BTN 290/ AND 010/ CAVOK T 25 /DP 04 QNH 1010 HPA ADZ YOU HAVE INFO O.\n[Departure ATIS] ZBHH DEP ATIS Q 1500Z DEP RWY 08 TA 3000 /TRL 3600 WIND 140/2MPS VIS 5000M BR NSC T 19 /DP 19 QNH 1007 HPA ADZ YOU HAVE INFO Q.",
    "ZSQD": "[Arrival ATIS] ZSQD ARR ATIS B 0600Z EXP ILSDME APCH LDG RWY 17 TA 3000 /TRL 3600 WIND 180/6MPS VRB BTN 150/ AND 210/ VIS 9999M CLD SCT 990M T 27 /DP 17 QNH 1008 HPA SEGREGATED OPERATION VISUAL APPROACH OPERATION IN PROGRESS. RUNWAY 17,IF MISSED APPROACH,EXPECT FOLLOW THE STANDARD MISSED APPROACH PROCEDURE,CLIMB TO 900M ON QNH OR BY ATC CAUTION MAYBE THERE IS A FLOCK OF BIRDS IN THE VICINITY OF AIRPORT ADZ YOU HAVE INFO B.\n[Departure ATIS] ZSQD DEP ATIS V 0000Z DEP RWY 16 TA 3000 /TRL 3600 WIND 110/4MPS VRB BTN 080/ AND 140/ VIS 9999M CLD SCT 600M T 24 /DP 19 QNH 1008 HPA SEGREGATED OPERATION VISUAL APPROACH OPERATION IN PROGRESS. RUNWAY 17,IF MISSED APPROACH,EXPECT FOLLOW THE STANDARD MISSED APPROACH PROCEDURE,CLIMB TO 900M ON QNH OR BY ATC CAUTION MAYBE THERE IS A FLOCK OF BIRDS IN THE VICINITY OF AIRPORT ADZ YOU HAVE INFO V."
  },
  "windtemp_alaska": "\n000\nFBAK31 KWNO 181359\nFD1AK1\nDATA BASED ON 181200Z    \nVALID 181800Z   FOR USE 1400-2100Z. TEMPS NEG ABV 24000\n\nFT  3000    6000    9000   12000   18000   24000  30000  34000  39000\nADK 3318 3323+03 3329-02 3233-07 3350-18 3377-26 840936 841845 841349\nADQ 1725 1928+02 2128-03 2239-08 2148-15 2156-27 226741 227149 225254\nAKN 1633 1726+00 1727-05 1620-08 1923-19 2047-30 208244 218649 204146\nANC 1608 1519+00 1520-06 1717-10 2335-17 2353-27 236942 237350 234950\nANN 3213 3110+05 3014+03 2915-01 3018-15 3231-27 335442 334749 302249\nBET 1314 1011-02 0914-07 1113-11 1617-22 1824-34 193246 182643 181641\nBRW 0820 0921+02 0823-03 0818-09 0922-20 1126-31 083148 093148 102141\nBTI 0606 9900+04 2205-01 1909-06 1621-18 1533-29 165342 165750 163347\nBTT 9900 9900+02 9900-04 1705-10 1614-24 1813-35 201946 171843 161740\nCDB 1917 2015-02 2020-05 2025-09 2027-21 2041-32 205240 204040 212640\nCZF 0408 0309+00 0512-06 0516-12 0513-24 0505-36 990047 040542 050839\nEHM 1023 1219-02 1319-04 1421-10 1631-22 1743-34 184745 183341 181940\nFAI 1908 1509+02 1512-04 1411-10 1614-22 2320-31 233746 233546 202342\nFYU 2709 2305+03 9900-03 9900-08 1718-21 1637-34 154046 172944 172242\nGAL 1711 1713+00 1713-06 1713-13 1819-24 1925-34 202847 192044 171440\nGKN 1714 1818+01 1818-05 1916-09 2223-18 2441-26 256143 257050 243348\nHOM 1516 1717-01 1918-05 2122-08 2238-16 2352-27 226941 227050 225653\nJNU 2407 2806+01 2714+02 2616-02 2822-15 3139-27 315441 315551 291948\nLUR 0816 0714+02 0616-03 0621-09 0629-21 0539-32 045346 053948 052041\nMCG 1408 1508-01 1212-06 1314-12 1919-21 2236-33 213848 213445 202341\nMDO 2011 1910-01 2017-03 2326-05 2440-16 2438-26 244341 244850 244655\nOME 1210 1208+01 0705-05 0308-12 0515-24 0520-36 052145 051341 050939\nORT      2808+03 2308-03 2210-08 2217-18 2627-29 276043 285849 242546\nOTZ 1216 1216+00 1018-05 0819-10 0721-24 0627-36 063045 062342 071439\nSNP 3627 0126-03 0128-07 3630-12 3630-23 3529-34 353545 353641 353239\nTKA 9900 1512+00 1615-06 1816-11 1921-20 2240-28 237043 237749 223646\nUNK 1810 1916+00 1913-06 1709-12 1709-25 2019-36 212546 181142 150939\nYAK 2405 2506+01 2609-03 2614-04 2726-15 2939-26 284341 284750 283753\nIKO 3340 3336-02 3341-06 3341-11 3235-22 3229-34 323143 323638 323139\nAFM 1410 1414+00 1416-05 1418-11 1220-25 1220-36 121846 121442 121139\n5AB 2610 3119+09 3225+05 3336+01 3350-11 3356-18 336732 337842 338353\n5AC 3218 3121+07 3121+04 3124+00 3035-12 3037-24 312740 323750 323558\n5AD 2114 2420+05 2524+02 2528-02 2523-13 2428-24 243440 253049 232259\n5AE 1830 2037+04 2039-01 2044-06 2149-14 2155-25 216841 217349 216454\n5AF 3014 3015+05 2916+02 2918-03 3030-13 2929-25 292740 303050 303757\n5AG 2613 2711+02 2616-01 2722-04 2730-14 2736-26 263740 263949 263956\n",
  "vaac_tokyo": [
    {
      "id": "20260718_30027000_0268",
      "year": "2026",
      "volcano": "Sheveluch",
      "psn": "N5639 E16122",
      "issued": "20260718",
      "text": "FVFE01 RJTD 180000\nVA ADVISORY\nDTG: 20260718/0000Z\nVAAC: TOKYO\nVOLCANO: SHEVELUCH 300270\nPSN: N5639 E16122\nAREA: RUSSIA\nSOURCE ELEV: 3283M AMSL\nADVISORY NR: 2026/268\nINFO SOURCE: KVERT HIMAWARI-9\nERUPTION DETAILS: VA CONTINUOUSLY OBS IN SATELLITE IMAGERY\nOBS VA DTG: 17/2320Z\nOBS VA CLD: SFC/FL290 N5601 E16322 - N5605 E16357 - N5546 E16401 - \nN5544 E16326 MOV SE 25KT\nFCST VA CLD +6 HR: 18/0520Z SFC/FL300 N5529 E16617 - N5404 E16714 - \nN5357 E16639 - N5527 E16530\nFCST VA CLD +12 HR: 18/1120Z SFC/FL300 N5352 E17006 - N5152 E17037 - \nN5152 E16936 - N5344 E16817\nFCST VA CLD +18 HR: NO VA EXP\nRMK: SOME PART OF VA OBSCURED BY MET CLOUD.\nNXT ADVISORY: 20260718/0600Z=",
      "img_url": "https://ds.data.jma.go.jp/svd/vaac/data/VAGFN/2026/Images/20260718_30027000_0268_QH21_01.png",
      "sat_img_url": "https://ds.data.jma.go.jp/svd/vaac/data/Sat/2026/Images/30027000/09-ir/20260717_2320_202607180000_ir.png",
      "text_url": "https://ds.data.jma.go.jp/svd/vaac/data/TextData/2026/20260718_30027000_0268_Text.html"
    },
    {
      "id": "20260717_27303000_0761",
      "year": "2026",
      "volcano": "Mayon",
      "psn": "N1315 E12341",
      "issued": "20260717",
      "text": "FVFE01 RJTD 172222\nVA ADVISORY\nDTG: 20260717/2222Z\nVAAC: TOKYO\nVOLCANO: MAYON 273030\nPSN: N1315 E12341\nAREA: PHILIPPINES\nSOURCE ELEV: 2462M AMSL\nADVISORY NR: 2026/761\nINFO SOURCE: HIMAWARI-9 PHIVOLCS\nERUPTION DETAILS: ERUPTION AT 20260717/2208Z FL100 EXTD SSE REPORTED\nOBS VA DTG: 17/2210Z\nOBS VA CLD: VA NOT IDENTIFIABLE FM SATELLITE DATA WIND FL100 360/6KT\nFCST VA CLD +6 HR: NOT AVBL\nFCST VA CLD +12 HR: NOT AVBL\nFCST VA CLD +18 HR: NOT AVBL\nRMK: WE WILL ISSUE FURTHER ADVISORY IF VA IS DETECTED IN SATELLITE \nIMAGERY.\nNXT ADVISORY: NO FURTHER ADVISORIES=",
      "img_url": "https://ds.data.jma.go.jp/svd/vaac/data/VAGFN/2026/Images/20260717_27303000_0761_QH21_01.png",
      "sat_img_url": null,
      "text_url": "https://ds.data.jma.go.jp/svd/vaac/data/TextData/2026/20260717_27303000_0761_Text.html"
    },
    {
      "id": "20260717_27307000_0014",
      "year": "2026",
      "volcano": "Taal",
      "psn": "N1400 E12100",
      "issued": "20260717",
      "text": "FVFE01 RJTD 171113\nVA ADVISORY\nDTG: 20260717/1113Z\nVAAC: TOKYO\nVOLCANO: TAAL 273070\nPSN: N1400 E12100\nAREA: PHILIPPINES\nSOURCE ELEV: 311M AMSL\nADVISORY NR: 2026/14\nINFO SOURCE: HIMAWARI-9 PHIVOLCS\nERUPTION DETAILS: ERUPTION AT 20260717/1051Z FL040 EXTD E REPORTED\nOBS VA DTG: 17/1100Z\nOBS VA CLD: VA NOT IDENTIFIABLE FM SATELLITE DATA WIND FL040 270/8KT\nFCST VA CLD +6 HR: NOT AVBL\nFCST VA CLD +12 HR: NOT AVBL\nFCST VA CLD +18 HR: NOT AVBL\nRMK: WE WILL ISSUE FURTHER ADVISORY IF VA IS DETECTED IN SATELLITE \nIMAGERY.\nNXT ADVISORY: NO FURTHER ADVISORIES=",
      "img_url": "https://ds.data.jma.go.jp/svd/vaac/data/VAGFN/2026/Images/20260717_27307000_0014_QH21_01.png",
      "sat_img_url": null,
      "text_url": "https://ds.data.jma.go.jp/svd/vaac/data/TextData/2026/20260717_27307000_0014_Text.html"
    },
    {
      "id": "20260713_28208001_0083",
      "year": "2026",
      "volcano": null,
      "psn": "N3136 E13039",
      "issued": "20260713",
      "text": "FVFE01 RJTD 130254\nVA ADVISORY\nDTG: 20260713/0254Z\nVAAC: TOKYO\nVOLCANO: SAKURAJIMA (AIRA CALDERA) 282080\nPSN: N3136 E13039\nAREA: JAPAN\nSOURCE ELEV: 1117M AMSL\nADVISORY NR: 2026/83\nINFO SOURCE: JMA HIMAWARI-9\nERUPTION DETAILS: ERUPTED AT 20260713/0152Z FL100 EXTD N\nOBS VA DTG: 13/0230Z\nOBS VA CLD: SFC/FL100 N3136 E13039 - N3142 E13040 - N3141 E13044 - \nN3134 E13042 MOV NE 15KT\nFCST VA CLD +6 HR: 13/0830Z SFC/FL100 N3234 E13121 - N3145 E13155 - \nN3202 E13110 - N3227 E13051\nFCST VA CLD +12 HR: 13/1430Z SFC/FL100 N3318 E13206 - N3142 E13317 - \nN3134 E13226 - N3312 E13118\nFCST VA CLD +18 HR: NO VA EXP\nRMK: NIL\nNXT ADVISORY: 20260713/0600Z=",
      "img_url": "https://ds.data.jma.go.jp/svd/vaac/data/VAGFN/2026/Images/20260713_28208001_0083_QH21_01.png",
      "sat_img_url": "https://ds.data.jma.go.jp/svd/vaac/data/Sat/2026/Images/28208001/09-ir/20260713_0230_202607130254_ir.png",
      "text_url": "https://ds.data.jma.go.jp/svd/vaac/data/TextData/2026/20260713_28208001_0083_Text.html"
    }
  ],
  "vaac_alaska": [
    {
      "text": "\n000\nFVAK21 PAWU 180008\nVAAAK1\nVA ADVISORY\n\nDTG: 20260718/0000Z\n\nVAAC: ANCHORAGE\n\nVOLCANO: SHEVELUCH 300270\n\nPSN: N5639 E16122\n\nAREA: KAMCHATKA PENINSULA\n\nSOURCE ELEV: 10771 FT AMSL\n\nADVISORY NR: 2026/205\n\nRMK: PLEASE SEE FVFE01 RJTD ISSUED BY VAAC TOKYO WHICH DESCRIBES\nCONDITIONS NEAR THE VAAC ANCHORAGE AREA OF RESPONSIBILITY...BS\n\n\n\n",
      "issued": "2026-07-18T00:08:00+00:00",
      "volcano": "Sheveluch",
      "psn": "N5639 E16122"
    }
  ]
}