{
  "updated_utc": "2026-07-17T19:55Z",
  "metar": {
    "RJAA": "METAR RJAA 171800Z AUTO 13003KT 9999 FEW011 SCT070 OVC090 24/23 Q1006 NOSIG",
    "PANC": "METAR PANC 171853Z 03006KT 10SM -RA SCT007 OVC075 11/09 A2987 RMK AO2 SLP117 P0001 T01060089",
    "PAFA": "METAR PAFA 171853Z 15004KT 10SM FEW060 FEW090 SCT140 16/07 A2983 RMK AO2 SLP104 T01610067 $",
    "PAED": "METAR PAED 171855Z 03004KT 10SM -RA SCT008 SCT025 BKN045 OVC070 12/10 A2986 RMK AO2A SLP108 P0003 T01150096 $",
    "KSEA": "METAR KSEA 171853Z 24009KT 10SM FEW028 BKN043 19/08 A3006 RMK AO2 SLP185 T01890083 $",
    "ZSPD": "METAR ZSPD 171800Z 20003MPS CAVOK 31/26 Q0999 NOSIG",
    "ZSSS": "METAR ZSSS 171800Z 21003MPS CAVOK 32/27 Q0999 NOSIG",
    "RJFR": "METAR RJFR 171800Z AUTO 35003KT 9999 BKN011 27/26 Q1002",
    "VHHH": "METAR VHHH 171800Z 19011KT 9999 FEW010 SCT025 30/25 Q1005 NOSIG",
    "RCTP": "METAR RCTP 171800Z 23013KT 9999 FEW015 28/23 Q1005 NOSIG RMK A2968",
    "ZGSZ": "METAR ZGSZ 171800Z 16005MPS 9999 BKN050 28/27 Q1005 NOSIG",
    "WSSS": "METAR WSSS 171800Z 16004KT 110V230 9999 FEW016 BKN300 28/25 Q1011 NOSIG",
    "WMKK": "METAR WMKK 171800Z 01004KT 330V070 9000 FEW017CB SCT030 27/24 Q1011 NOSIG",
    "WIDD": "METAR WIDD 171800Z 00000KT 9999 FEW014 27/26 Q1011 NOSIG",
    "VTBS": "METAR VTBS 171800Z 21004KT 160V230 9999 FEW020 28/24 Q1010 NOSIG",
    "VTBU": "METAR VTBU 171800Z VRB01KT 9000 FEW020 SCT100 28/28 Q1010 NOSIG",
    "ROAH": "METAR ROAH 171800Z AUTO 21009KT 9000 FEW003 OVC005 27/27 Q1005",
    "VVDN": "METAR VVDN 171800Z VRB01KT 9999 FEW020 29/25 Q1006 NOSIG",
    "RCKH": "SPECI RCKH 171757Z VRB01KT 9999 SCT014 SCT040 BKN060 26/24 Q1007 NOSIG RMK A2975",
    "KLAX": "METAR KLAX 171853Z 14009G17KT 10SM FEW110 SCT170 27/17 A2994 RMK AO2 SLP137 ACSL DSNT NE T02720172 $",
    "KONT": "METAR KONT 171853Z 28005KT 10SM FEW110 FEW170 31/15 A2994 RMK AO2 SLP122 T03110150 $",
    "KSFO": "METAR KSFO 171756Z 26015G20KT 10SM FEW004 SCT014 17/11 A2997 RMK AO2 SLP148 T01720111 10172 20133 52010 $",
    "KOAK": "METAR KOAK 171853Z 21007KT 10SM FEW006 BKN014 17/12 A2999 RMK AO2 SLP154 T01670117",
    "KMHR": "METAR KMHR 171815Z AUTO VRB04KT 10SM CLR 25/11 A2988 RMK AO2 T02530106 $",
    "KDFW": "METAR KDFW 171853Z 18013G24KT 10SM SCT044 BKN180 BKN250 32/21 A3009 RMK AO2 SLP181 T03220211 $",
    "KIAH": "METAR KIAH 171853Z 21008KT 10SM SCT045 SCT250 34/23 A3013 RMK AO2 SLP201 T03390228",
    "KORD": "METAR KORD 171851Z 26009KT 8SM SCT045 SCT085 BKN110 32/21 A2999 RMK AO2 LTG DSNT W SLP148 T03220211",
    "KJFK": "METAR KJFK 171851Z 24011KT 10SM FEW180 BKN250 29/13 A3004 RMK AO2 SLP170 T02940133 $",
    "KRFD": "METAR KRFD 171854Z 23008KT 10SM SCT041 SCT250 33/22 A3001 RMK AO2 SLP155 CB DSNT SE DSNT TCU NE-SE T03280222 $",
    "KIND": "METAR KIND 171854Z 26010KT 10SM SCT034TCU SCT160 32/23 A3003 RMK AO2 SLP159 CB DSNT NE-S AND W TCU S AND W T03170233",
    "KDTW": "METAR KDTW 171853Z 20006KT 1 3/4SM FU OVC024 28/19 A3006 RMK AO2 TWR VIS 2 SLP176 FU OVC024 T02830189",
    "KMSP": "METAR KMSP 171853Z 22010G18KT 10SM FEW060 FEW250 34/19 A2991 RMK AO2 SLP120 T03390194",
    "CYEG": "METAR CYEG 171800Z 10006KT 060V140 15SM FEW250 28/20 A2999 RMK CI2 CONTRAILS SLP149 DENSITY ALT 4400FT",
    "EHAM": "METAR EHAM 171825Z 32012KT 9999 FEW022 20/14 Q1014 BECMG BKN018",
    "EBBR": "METAR EBBR 171820Z 34008KT 9999 FEW043 22/14 Q1015 NOSIG",
    "EDDF": "METAR EDDF 171820Z AUTO 19009KT CAVOK 21/18 Q1012 RESHRA TEMPO SHRA BKN040CB",
    "EDFH": "METAR EDFH 171820Z 25006KT 210V280 CAVOK 19/14 Q1015",
    "EDDL": "METAR EDDL 171820Z AUTO 29011KT CAVOK 25/14 Q1013 NOSIG",
    "EDDK": "METAR EDDK 171820Z AUTO 32011KT 300V360 CAVOK 25/13 Q1013 NOSIG",
    "EBLG": "METAR EBLG 171820Z 30010KT CAVOK 23/13 Q1015 NOSIG",
    "LSZH": "METAR LSZH 171820Z 30009KT 9999 FEW060 26/16 Q1015 NOSIG",
    "LIMC": "METAR LIMC 171820Z 25007KT 230V290 CAVOK 30/20 Q1011 NOSIG",
    "LIRF": "METAR LIRF 171820Z 20008KT 9999 FEW010 29/26 Q1012 NOSIG",
    "EINN": "METAR EINN 171800Z 35012KT CAVOK 24/14 Q1020 NOSIG",
    "EGLL": "METAR EGLL 171820Z AUTO 31006KT 280V350 9999 NCD 27/09 Q1015",
    "EGSS": "METAR EGSS 171820Z AUTO 02008KT 9999 NCD 24/11 Q1016",
    "EPWA": "METAR EPWA 171800Z 12008KT CAVOK 29/15 Q1010 NOSIG",
    "UHPP": "METAR UHPP 171800Z 33002MPS 9999 BKN094 16/15 Q1019 R34L/CLRD62 NOSIG RMK MT OBSC QFE760/1014",
    "EFHK": "METAR EFHK 171820Z 14008KT CAVOK 21/14 Q1012 NOSIG",
    "LBBG": "METAR LBBG 171800Z AUTO 09005KT 9999 NCD 24/22 Q1013 NOSIG",
    "LTAC": "METAR LTAC 171820Z 06010KT 9999 SCT040 25/10 Q1014 NOSIG RMK RWY21C 05010KT RWY03L 04010KT RWY21R 03009KT RWY03R 06007KT RWY21L 07011KT",
    "UBBB": "METAR UBBB 171800Z 33010KT CAVOK 26/21 Q1007 NOSIG",
    "UTAA": "METAR UTAA 171800Z 26008KT 9999 NSC 35/19 Q1005 R88/CLRD70 NOSIG",
    "UACC": "METAR UACC 171800Z VRB01MPS 9999 FEW046 22/14 Q1005 NOSIG RMK QFE723/0964",
    "UAAA": "METAR UAAA 171800Z 00000MPS 9999 NSC 27/08 Q1007 NOSIG",
    "UZTT": "METAR UZTT 171800Z 14006KT CAVOK 32/18 Q1001 NOSIG",
    "ZWWW": "METAR ZWWW 171800Z 17003MPS CAVOK 33/07 Q1007 NOSIG",
    "ZLXY": "METAR ZLXY 171800Z 04003MPS CAVOK 25/21 Q1004 NOSIG",
    "ZBAA": "METAR ZBAA 171800Z 18003MPS 130V260 CAVOK 26/21 Q1001 NOSIG",
    "ZBHH": "METAR ZBHH 171800Z VRB01MPS CAVOK 17/16 Q1007 NOSIG",
    "ZSQD": "METAR ZSQD 171800Z 35002MPS 7000 BKN056 22/22 Q1000 NOSIG",
    "ZMCK": "METAR ZMCK 171800Z 06003MPS 9999 FEW030CB FEW033 15/09 Q1008 NOSIG RMK QFE641.8 67 NT",
    "UUEE": "METAR UUEE 171800Z 31003G10MPS CAVOK 19/09 Q1016 R06R/CLRD62 R06C/CLRD62 NOSIG",
    "UUDD": "METAR UUDD 171800Z 35004MPS CAVOK 16/08 Q1016 R31L/CLRD65 NOSIG",
    "ULLI": "METAR ULLI 171800Z 19002MPS CAVOK 22/10 Q1015 R88/090065 NOSIG",
    "USSS": "METAR USSS 171800Z VRB01MPS 9999 SCT040 17/17 Q1001 R26L/CLRD60 NOSIG RMK QFE730/0973",
    "UNNT": "METAR UNNT 171800Z 00000MPS CAVOK 17/16 Q1000 R25/290150 R34/CLRD// NOSIG RMK QFE740/0987",
    "UNKL": "METAR UNKL 171800Z 30001MPS 9000 NSC 17/17 Q0999 R29/290055 NOSIG RMK QFE724",
    "UIBB": "METAR UIBB 171800Z AUTO 16003MPS 120V200 9999 // NSC 16/14 Q0999 RMK QFE707/0943",
    "UEEE": "METAR UEEE 171800Z 01001MPS CAVOK 16/14 Q0993 R23/09//65 NOSIG RMK QFE736",
    "UHHH": "METAR UHHH 171800Z VRB01MPS 8000 NSC 16/16 Q1003 R23L/090060 NOSIG RMK QFE746/0994",
    "UHSS": "METAR UHSS 171800Z 00000MPS 2000 R01/P2000U BR BKN001 19/19 Q1008 R01/CLRD70 NOSIG RMK QBB040 MT OBSC QFE755/1007"
  },
  "taf": {
    "RJAA": "TAF AMD RJAA 171927Z 1719/1900 14008KT 9999 FEW012 SCT020 TEMPO 1719/1800 FEW005 BKN008",
    "PANC": "TAF PANC 171731Z 1718/1824 36004KT P6SM -RA SCT007 BKN080 FM172100 20006KT 5SM -SHRA BR FEW015 BKN030 FM180600 16007KT P6SM VCSH SCT035 BKN060 FM181800 19004KT P6SM VCSH OVC050 FM182100 16008KT 6SM -RA OVC040",
    "PAFA": "TAF PAFA 171720Z 1718/1824 28006KT P6SM FEW050 BKN100 FM180000 24006KT P6SM VCTS SCT050CB FM180600 VRB04KT P6SM SCT050",
    "PAED": "TAF PAED 171300Z 1713/1819 33006KT 9999 -SHRA BKN060 OVC070 620604 QNH2984INS BECMG 1720/1721 33006KT 9000 -RA BKN025 OVC030 620604 QNH2985INS BECMG 1805/1806 21005KT 9999 VCSH BKN045 BKN060 620604 QNH2989INS BECMG 1813/1814 VRB04KT 9999 -SHRA BKN020 OVC040 620604 QNH2997INS TX14/1722Z TN09/1714Z",
    "KSEA": "TAF KSEA 171733Z 1718/1824 21007KT P6SM SCT020 BKN035 BKN050 FM172100 24007KT P6SM SCT050 FM180300 31006KT P6SM FEW050 FM180600 35004KT P6SM FEW050 FM181000 20005KT P6SM SCT025 BKN035 FM181700 24004KT P6SM SCT030 FM182100 29005KT P6SM FEW050",
    "ZSPD": "TAF ZSPD 171505Z 1718/1824 21004MPS 8000 SCT030 TX34/1806Z TN28/1721Z TN26/1821Z TEMPO 1804/1808 TSRA BKN008 FEW030CB BECMG 1809/1810 03004MPS",
    "ZSSS": "TAF ZSSS 171506Z 1718/1824 21004MPS 8000 SCT030 TX35/1806Z TN28/1721Z TN27/1821Z TEMPO 1804/1808 TSRA BKN011 FEW030CB BECMG 1811/1812 03004MPS",
    "RJFR": "TAF RJFR 171705Z 1718/1900 07010KT 9999 FEW020 SCT045 TEMPO 1720/1801 BKN005 BKN045 BECMG 1809/1812 32006KT BECMG 1818/1821 09006KT",
    "VHHH": "TAF AMD VHHH 171912Z 1719/1824 18010KT 9999 FEW010 SCT025 TX31/1806Z TN27/1722Z TN28/1822Z TEMPO 1719/1721 3000 SHRA FEW010CB SCT020 TEMPO 1721/1803 24015G25KT 2500 TSRA SHRA FEW008CB SCT015",
    "RCTP": "TAF RCTP 171700Z 1718/1824 23012KT 9999 FEW015 TEMPO 1718/1724 24007KT TEMPO 1803/1809 25017KT BECMG 1810/1812 22007KT TEMPO 1816/1822 17005KT",
    "ZGSZ": "TAF AMD ZGSZ 171949Z 1718/1824 18004MPS 8000 BKN030 TX31/1806Z TN28/1722Z TN28/1822Z TEMPO 1720/1724 2000 +SHRA SCT010 FEW025CB BKN033 TEMPO 1805/1808 TSRA SCT010 FEW020CB BKN030",
    "WSSS": "TAF WSSS 171700Z 1718/1900 13007KT 9999 FEW015 SCT020",
    "WMKK": "TAF WMKK 171700Z 1718/1900 03005KT 9999 FEW030 PROB40 TEMPO 1718/1722 5000 TSRA FEW017CB",
    "VTBS": "TAF VTBS 171700Z 1718/1824 21008KT 9999 FEW020 TEMPO 1810/1814 VRB15KT 3000 TSRA FEW018CB SCT030 BKN080",
    "VTBU": "TAF VTBU 171700Z 1718/1818 24008KT 9999 FEW020",
    "ROAH": "TAF ROAH 171705Z 1718/1900 23008KT 9999 FEW005 BKN012 TEMPO 1718/1721 FEW003 BKN005 TEMPO 1721/1802 FEW005 BKN008 TEMPO 1812/1900 FEW005 BKN008",
    "VVDN": "TAF VVDN 171700Z 1718/1818 24006KT 9999 FEW020 BECMG 1804/1805 36010KT BECMG 1809/1810 12007KT",
    "RCKH": "TAF RCKH 171700Z 1718/1824 26005KT 9999 FEW015 BKN032 TEMPO 1718/1724 04005KT 5000 SHRA FEW012 FEW015TCU BKN017 TEMPO 1800/1804 3500 SHRA SCT008 FEW010CB BKN014 TEMPO 1804/1810 25010KT FEW012 FEW015TCU BKN017 TEMPO 1812/1818 5000 SHRA FEW012 FEW015TCU BKN017 TEMPO 1818/1824 07005KT 4000 SHRA SCT010 FEW012CB BKN016",
    "KLAX": "TAF KLAX 171950Z 1720/1824 14010G15KT P6SM SCT020 FM172030 25011KT P6SM FEW025 SCT250 FM180300 25006KT P6SM OVC012 FM180600 12007KT P6SM OVC012 FM181600 16005KT P6SM OVC018 FM181900 25011KT P6SM FEW025",
    "KONT": "TAF KONT 171732Z 1718/1824 VRB04KT P6SM SCT180 FM172000 25012G20KT P6SM SCT180 FM180500 VRB05KT P6SM SCT200 FM181900 25010G19KT P6SM SCT200",
    "KSFO": "TAF KSFO 171738Z 1718/1824 27015G25KT P6SM FEW007 TEMPO 1720/1724 29021G30KT FM180600 26009KT P6SM OVC008 FM181700 25013G20KT P6SM FEW012",
    "KOAK": "TAF KOAK 171738Z 1718/1824 23010KT P6SM FEW005 BKN013 FM171900 26013KT P6SM FEW013 FM180600 24005KT P6SM OVC008 FM181800 28009KT P6SM FEW005 BKN010 FM182000 30012KT P6SM FEW012",
    "KMHR": "TAF KMHR 171720Z 1718/1818 22008KT P6SM SKC FM172300 22012KT P6SM SKC FM180700 17008KT P6SM SKC",
    "KDFW": "TAF KDFW 171720Z 1718/1824 19010G20KT P6SM SCT035 SCT250 FM180000 19007KT P6SM FEW250 FM181200 18007KT P6SM BKN020 FM181600 18009KT P6SM SCT030 SCT250",
    "KIAH": "TAF KIAH 171915Z 1719/1824 17009KT P6SM SCT030 SCT060 SCT250 FM172000 15010KT P6SM VCTS SCT050CB SCT250 TEMPO 1720/1722 VRB15G25KT 4SM -TSRA BKN040CB FM172300 12010KT P6SM FEW030 SCT250 FM180200 VRB05KT P6SM FEW025 BKN250 FM181500 19007KT P6SM SCT030 SCT250",
    "KORD": "TAF KORD 171724Z 1718/1824 25009KT P6SM VCTS SCT035CB PROB30 1718/1724 VRB15G25KT 2SM -TSRA BR BKN030CB FM180200 24007KT P6SM SCT060 FM181400 27013G22KT P6SM SCT050 BKN250 TEMPO 1819/1821 VRB20G30KT 1SM TSRA BR BKN030CB FM182100 06011KT P6SM SCT035",
    "KJFK": "TAF KJFK 171732Z 1718/1824 19011KT P6SM SCT250 FM172300 17008KT 6SM FU BKN250 FM180600 19006KT 6SM FU BKN250 FM181300 20010KT 6SM FU OVC150 FM181500 19012KT 6SM FU VCSH SCT015 OVC070 TEMPO 1815/1818 3SM SHRA BKN015 OVC070 FM181800 19014KT P6SM VCSH SCT015 OVC070 TEMPO 1819/1823 2SM TSRA BR BKN015 OVC050CB",
    "KRFD": "TAF KRFD 171724Z 1718/1818 24009KT P6SM VCSH SCT035 PROB30 1719/1801 VRB15G25KT 2SM -TSRA BR BKN030CB FM180100 24006KT P6SM SCT060 FM181400 27013G22KT P6SM SCT050 BKN250",
    "KIND": "TAF KIND 171929Z 1719/1824 26011KT P6SM SCT035 PROB30 1719/1721 4SM -TSRA BKN025CB FM172100 25010KT P6SM VCSH BKN035 TEMPO 1721/1801 VRB16G30KT 4SM -TSRA BKN025CB FM180100 23007KT P6SM FEW050 BKN250 FM181500 27012KT P6SM SCT050",
    "KDTW": "TAF KDTW 171727Z 1718/1824 18008KT 1 1/2SM FU BKN030 FM180200 19005KT 5SM HZ SCT060 BKN080 FM180700 23007KT P6SM SCT035 BKN120 FM181400 24014G23KT P6SM SCT030 BKN050 OVC120 PROB30 1817/1821 3SM TSRA OVC030CB FM182200 35012KT P6SM BKN050",
    "KMSP": "TAF KMSP 171731Z 1718/1824 23010G18KT P6SM FEW060 FM180200 25007KT P6SM SCT080 FM180500 33008KT 6SM FU SCT080 FM181500 35010KT 5SM FU SCT050",
    "CYEG": "TAF CYEG 171743Z 1718/1818 VRB03KT P6SM FEW250 FM172300 12010KT P6SM FEW040 TEMPO 1723/1802 VRB25G35KT P6SM VCTS BKN040CB FM180200 12008KT P6SM BKN080 PROB30 1802/1804 VRB25G35KT 3SM TSRA BKN080CB FM180400 13005KT P6SM FEW020 FM180600 12005KT P6SM SCT040 TEMPO 1806/1809 VRB20G30KT P6SM VCTS SCT020 BKN040CB FM180900 10005KT P6SM SCT008 PROB30 1809/1815 3/4SM BR SCT004 FM181500 13005KT P6SM SCT025 BECMG 1816/1818 27008KT RMK NXT FCST BY 172100Z",
    "EHAM": "TAF EHAM 171711Z 1718/1824 32010KT 9999 SCT025 TEMPO 1718/1808 BKN018",
    "EBBR": "TAF EBBR 171706Z 1718/1824 32007KT 9999 FEW045",
    "EDDF": "TAF EDDF 171700Z 1718/1824 24005KT 9999 FEW040 BECMG 1810/1812 27010KT BECMG 1819/1821 35005KT",
    "EDFH": "TAF EDFH 171700Z 1718/1818 28006KT 9999 FEW025",
    "EDDL": "TAF EDDL 171700Z 1718/1824 30011KT CAVOK BECMG 1719/1722 29004KT PROB30 TEMPO 1804/1807 BKN014 BECMG 1806/1809 28011KT BECMG 1820/1822 30005KT",
    "EDDK": "TAF EDDK 171700Z 1718/1824 30010KT CAVOK BECMG 1720/1723 31005KT PROB30 TEMPO 1804/1807 BKN014 BECMG 1807/1810 30011KT BECMG 1819/1822 31005KT",
    "EBLG": "TAF EBLG 171706Z 1718/1824 32007KT 9999 FEW045 PROB30 TEMPO 1803/1806 BKN012",
    "LSZH": "TAF LSZH 171725Z 1718/1824 30008KT 9999 FEW050 TX25/1814Z TN16/1804Z TEMPO 1718/1723 FEW050TCU PROB30 TEMPO 1718/1720 29017G30KT 4000 TSRA FEW050CB BECMG 1718/1721 17005KT BECMG 1721/1724 CAVOK PROB30 1803/1805 9999 MIFG NSC BECMG 1807/1810 26010KT 9999 FEW060TCU PROB40 TEMPO 1812/1818 30015G25KT TSRA FEW060CB BECMG 1818/1821 VRB02KT CAVOK",
    "LIMC": "TAF LIMC 171700Z 1718/1824 02005KT 9999 FEW040 BECMG 1812/1814 22010KT PROB30 TEMPO 1813/1817 TSRA",
    "LIRF": "TAF LIRF 171700Z 1718/1824 20010KT CAVOK BECMG 1718/1720 VRB05KT TEMPO 1802/1806 1000 BCFG BKN004 BECMG 1809/1811 28012KT",
    "EINN": "TAF EINN 171700Z 1718/1818 34010KT 9999 FEW025 BECMG 1720/1722 01009KT",
    "EGLL": "TAF EGLL 171659Z 1718/1824 34008KT 9999 FEW048 BECMG 1719/1722 05010KT PROB30 TEMPO 1801/1807 BKN012",
    "EGSS": "TAF EGSS 171654Z 1718/1824 03008KT 9999 FEW045 PROB30 TEMPO 1722/1809 7000 BKN011",
    "EPWA": "TAF EPWA 171730Z 1718/1818 15008KT CAVOK TEMPO 1722/1803 4000 SHRA SCT050CB PROB40 TEMPO 1723/1803 VRB15G25KT 2000 TSRA BKN040CB BECMG 1803/1806 25010KT PROB40 TEMPO 1803/1807 BKN012 TEMPO 1810/1818 27015G30KT 2000 TSRA SCT040CB",
    "UHPP": "TAF UHPP 171652Z 1718/1824 30003G10MPS 9999 SCT050 TX29/1803Z TN16/1718Z TEMPO 1800/1809 19005G12MPS",
    "EFHK": "TAF EFHK 171725Z 1718/1818 15006KT CAVOK PROB40 1808/1812 SCT050CB BECMG 1812/1814 SCT040CB TEMPO 1814/1818 5000 SHRA PROB30 TEMPO 1815/1818 21012G25KT 3500 TSRA",
    "LBBG": "TAF LBBG 171700Z 1718/1818 08012KT 9999 SCT045 BECMG 1718/1720 VRB03KT TEMPO 1800/1805 3000 BR BKN008 PROB30 1802/1804 0600 BCFG BKN003 BECMG 1807/1809 12012KT",
    "LTAC": "TAF LTAC 171640Z 1718/1818 05009KT 9999 SCT040 BECMG 1719/1721 CAVOK BECMG 1807/1809 SCT040",
    "UBBB": "TAF UBBB 171704Z 1718/1818 35014KT CAVOK TX32/1810Z TN23/1801Z TEMPO 1718/1802 33008KT SCT015 TEMPO 1804/1809 36014G24KT SCT025 TEMPO 1809/1815 02016G26KT",
    "UTAA": "TAF UTAA 171645Z 1718/1818 30016KT 6000 SCT050 TX41/1811Z TEMPO 1718/1803 24014KT TEMPO 1803/1810 32016G26KT 4000 DRDU",
    "UACC": "TAF UACC 171702Z 1718/1818 20004MPS 9999 SCT040CB BKN050 TX35/1809Z TN16/1723Z TEMPO 1718/1723 VRB01MPS 3100 -TSRA BKN020CB BECMG 1804/1806 23006MPS TEMPO 1804/1816 28012MPS -TSRA BKN030CB BECMG 1816/1818 08005MPS SCT030 BKN100",
    "UAAA": "TAF UAAA 171702Z 1718/1818 17003MPS 9999 FEW100 TX41/1810Z TN22/1800Z BECMG 1803/1804 04003G08MPS BECMG 1813/1814 18003MPS",
    "UZTT": "TAF UZTT 171700Z 1718/1818 07010KT CAVOK TX44/1811Z TN27/1800Z TEMPO 1718/1724 VRB04KT 4000 FU",
    "ZWWW": "TAF ZWWW 171503Z 1718/1824 18004MPS CAVOK TX41/1809Z TN29/1723Z TN29/1823Z BECMG 1802/1803 36004MPS BECMG 1813/1814 18004MPS",
    "ZLXY": "TAF ZLXY 171502Z 1718/1818 03003MPS 6000 NSC TX32/1808Z TN24/1721Z BECMG 1722/1723 28005MPS",
    "ZBAA": "TAF ZBAA 171500Z 1718/1824 18003MPS CAVOK TX31/1806Z TN23/1721Z TN22/1821Z TEMPO 1808/1812 -TSRA FEW040CB BKN040",
    "ZBHH": "TAF ZBHH 171503Z 1718/1818 04004MPS 9999 SCT040 TX29/1808Z TN16/1722Z",
    "ZSQD": "TAF ZSQD 171501Z 1718/1818 36004MPS 3500 BR BKN020 TX30/1806Z TN22/1720Z BECMG 1720/1721 2000 BKN010 BECMG 1722/1723 3500 SCT015",
    "ZMCK": "TAF ZMCK 171633Z 1718/1824 VRB02MPS 9999 FEW030CB SCT033 TN11/1721Z TX24/1807Z PROB40 TEMPO 1805/1816 VRB08G13MPS TSRA SCT027CB SCT030",
    "UUEE": "TAF UUEE 171650Z 1718/1818 33003MPS 9999 SCT040 TX25/1813Z TN12/1801Z",
    "UUDD": "TAF UUDD 171653Z 1718/1824 36003MPS 8000 SCT040 TX26/1812Z TN08/1801Z",
    "ULLI": "TAF ULLI 171653Z 1718/1818 19003MPS 9999 SCT020 BECMG 1807/1809 17006G12MPS",
    "USSS": "TAF USSS 171653Z 1718/1818 33003MPS 6000 SCT016 TEMPO 1718/1803 0300 FG VV002 FM180400 08003G14MPS 8000 -SHRA BKN016CB TEMPO 1804/1818 -TSRA",
    "UNNT": "TAF UNNT 171700Z 1718/1818 27003G08MPS 8000 BKN040 TX25/1809Z TN16/1722Z TEMPO 1718/1802 0300 -TSRA FG BKN002 BKN020CB TEMPO 1802/1818 -TSRA BKN020CB",
    "UNKL": "TAF UNKL 171643Z 1718/1818 27003MPS 6000 -SHRA BKN016CB TEMPO 1718/1721 1000 -TSRA BR BKN003 BKN016CB BECMG 1721/1723 1200 -TSRA BR BKN003 BKN016CB BECMG 1800/1802 6000 NSW BKN016CB TEMPO 1802/1806 1000 -TSRA BR BKN003 BKN016CB TEMPO 1806/1818 -TSRA",
    "UIBB": "TAF UIBB 171700Z 1718/1818 21003G08MPS 9999 -TSRA BKN006 BKN016CB TEMPO 1718/1803 VRB08MPS 0900 +TSRA VV001 BECMG 1803/1804 27005MPS BECMG 1804/1805 NSW BKN016CB",
    "UEEE": "TAF UEEE 171700Z 1718/1824 36003G08MPS 9999 SCT025CB OVC100 TEMPO 1718/1722 0500 TSRA FG VV003 TEMPO 1722/1812 VRB16MPS 4000 -TSRA SCT011 BKN020CB OVC070",
    "UHHH": "TAF AMD UHHH 171941Z 1719/1824 22003MPS 9999 SCT025CB TX29/1806Z TN19/1818Z TEMPO 1723/1809 24008MPS FEW010 SCT025CB",
    "UHSS": "TAF UHSS 171650Z 1718/1824 24003MPS 0550 FG BKN002 BKN016CB BECMG 1722/1724 9999 NSW SCT030"
  },
  "atis": {
    "RJAA": "[Arrival ATIS] RJAA ARR ATIS M 0152Z M0130 (APCH)ILS Z RWY34R LDG RWY 34R DEP RWY 34L DEP FREQ 124.2. TWY A1 CLSD. OBSERVE GEAR DOWN OPS PROC ON FNL. M 230130Z 04010KT 30KM BKN016CU 20/16 Q1010/A2985= Q/TWO NINE EIGHT FIVE STP\n[Departure ATIS] RJAA DEP ATIS J 0013Z M0000 (APCH)ILS Z RWY34R LDG RWY 34R DEP RWY 34L DEP FREQ 124.2. TWY A1 CLSD. OBSERVE GEAR DOWN OPS PROC ON FNL. M 230000Z 03013KT 30KM FEW012ST BKN015CU 20/16 Q1010/A2984= Q/TWO NINE EIGHT FOUR STP",
    "PANC": "[Arrival ATIS] PANC ARR ATIS G 0153Z ANC ATIS INFO G 0153Z. 13011G21KT 10SM FEW038 OVC050 16/08 A3004 (THREE ZERO ZERO FOUR) RMK AO2 PK WND 16026/0140 SLP173 T01560078. ILS RWY 15 APPROACHES IN USE. LANDING RWY 15, DEPARTING RWY 25L, 15. NOTICE TO AIRMEN. RWY 25R CLSD. CHECK NOTAMS FOR TAXIWAY CLOSURES. CAUTION FOR BIRD ACTIVITY IN THE ARPT AREA. ...ADVS YOU HAVE INFO G.\n[Departure ATIS] PANC DEP ATIS Z 1953Z ANC ATIS INFO Z 1953Z. 02003KT 10SM FEW010 BKN060 OVC090 13/12 A3007 (THREE ZERO ZERO SEVEN). 7R APPROACHES IN USE. LANDING RWY 7R, DEPARTING RWY 33. NOTICE TO AIRMEN. RWY 7L CLSD. CHECK NOTAMS FOR TAXIWAY CLOSURES. CAUTION FOR BIRD ACTIVITY IN THE ARPT AREA. ...ADVS YOU HAVE INFO Z.",
    "KSEA": "[Arrival ATIS] KSEA ARR ATIS G 1853Z - KSEA ATIS INFO G 1853Z. 22009KT 10SM FEW028 BKN043 19/08 A3006 (THREE ZERO ZERO SIX). ILS RY 16R, RNAV, Y, RY 16L , APCH IN USE. DEPG RWY 16L, DEPG ACFT PLAN AND BRIEF NUMBERS FOR BOTH RWYS 16L AND 16C. SIMUL APCHS IN USE, BFI & SEA. TRAFFIC BELOW YOU ON FINAL. SIMUL APCHS IN USE TO PARA RYS. NOTAMS... BIRD ACTIVITY VICINITY ARPT. ...ADVS YOU HAVE INFO G.\n[Departure ATIS] KSEA DEP ATIS G 1853Z SEA ATIS INFO G 1853Z. 22009KT 10SM FEW028 BKN043 19/08 A3006 (THREE ZERO ZERO SIX). ILS RY 16R, RNAV, Y, RY 16L , APCH IN USE. DEPG RWY 16L, DEPG ACFT PLAN AND BRIEF NUMBERS FOR BOTH RWYS 16L AND 16C. SIMUL APCHS IN USE, BFI & SEA. TRAFFIC BELOW YOU ON FINAL. SIMUL APCHS IN USE TO PARA RYS. NOTAMS... BIRD ACTIVITY VICINITY ARPT. ...ADVS YOU HAVE INFO G.",
    "ZSPD": "[Arrival ATIS] ZSPD ARR ATIS C 0130Z EXP ILS APCH INDEPENDENT PARL INSTR APCH LDG RWY 35L & 34R WIND RWY 35L TDZ 360/5MPS MID 030/5MPS END 020/4MPS RWY 34R TDZ 020/4MPS MID 020/4MPS END 030/5MPS VIS RWY 35L TDZ 10000M MID 10000M END 10000M VIS RWY 34R TDZ 10000M MID 10000M END 10000M CLD BKN 210M T 23 /DP 23 QNH 1004 HPA CAUTION THE BIRDS NEAR THE RUNWAY RWY 17L/17R/16L/16R RWYCC 5/5/5 ISSUED AT 0035 WET/WET/WET DPT NR/NR/NR COV 100PCT/100PCT/100PCT. ADZ YOU HAVE INFO C.\n[Departure ATIS] ZSPD DEP ATIS B 0100Z DEP RWY 35R & 34L WIND RWY 35R TDZ 010/5MPS MID 010/5MPS END 360/5MPS RWY 34L TDZ 020/5MPS MID 020/5MPS END 010/6MPS VIS RWY 35R TDZ 10000M MID 10000M END 10000M VIS RWY 34L TDZ 10000M MID 10000M END 10000M CLD BKN 210M T 23 /DP 23 QNH 1004 HPA CAUTION THE BIRDS NEAR THE RUNWAY RWY 17L/17R/16L/16R RWYCC 5/5/5 ISSUED AT 0035 WET/WET/WET DPT NR/NR/NR COV 100PCT/100PCT/100PCT. ADZ YOU HAVE INFO B.",
    "ZSSS": "[Arrival ATIS] ZSSS ARR ATIS G 0130Z EXP ILS APCH LDG RWY 36R WIND RWY 36R TDZ 090/2MPS MID 040/3MPS VRB BTN 340/ AND 080/ END 040/3MPS VRB BTN 010/ AND 080/ VIS RWY 36R TDZ 10000M MID 10000M END 10000M FBL RA CLD BKN 360M T 23 /DP 21 QNH 1004 HPA RWY36R RWYCC 5/5/5 ISSUED AT 1250 WET/WET/WET DPT NR/NR/NR COV 100PCT/100PCT/100PCT RWY36L RWYCC 5/5/5 ISSUED AT 1240 WET/WET/WET DPT NR/NR/NR COV 100PCT/100PCT/100PCT QNH OF SHANGHAI TERMINAL CONTROL AREA 1004 HPA ADZ YOU HAVE INFO G.\n[Departure ATIS] ZSSS DEP ATIS D 1200Z DEP RWY 36L WIND RWY 36L TDZ 040/3MPS MID 030/4MPS END 040/5MPS VIS RWY 36L TDZ 10000M MID 10000M END 10000M CLD BKN 210M T 22 /DP 21 QNH 1003 HPA RWY36L RWYCC 5/5/5 ISSUED AT 0640 WET/WET/WET DPT NR/NR/NR COV 100PCT/100PCT/100PCT RWY36R RWYCC 5/5/5 ISSUED AT 0640 WET/WET/WET DPT NR/NR/NR COV 100PCT/100PCT/100PCT QNH OF SHANGHAI TERMINAL CONTROL AREA 1002 HPA ADZ YOU HAVE INFO D.",
    "VHHH": "[Arrival ATIS] VHHH ARR ATIS E 0108Z ARRIVALS, RWY 25R/L. EXP RNAV TRANSITION TO ILS APCH, RWY 25R. EXP ILS APCH, RWY 25L. RNP APCH IS AVBL ON REQ, RWY 25R. CAUTION POSSIBLE GP FLUCTUATION RWY 25L. WIND RWY 25R 220/10KT RWY 25L 150/07KT. VIS RWY 25R 10KM RWY 25L 10KM. CLD FEW 1200FT. T31 DP25. QNH 1004HPA. ACK INFO E ON FIRST CTC WITH APP.\n[Departure ATIS] VHHH DEP ATIS T 0109Z DEPARTURES, RWY 25C/L. INDEPENDENT PARALLEL DEPARTURE IN PROGRESS. WIND RWY 25C 250/10KT RWY 25L 240/07KT. VIS RWY 25C 10KM RWY 25L 10KM. CLD FEW 1200FT. T31 DP25. QNH 1004HPA. ACK INFO T ON FIRST CTC WITH DELIVERY .",
    "RCTP": "[Arrival ATIS] RCTP ARR ATIS K 0130Z EXP ILS APCH RWY23R FOR ARR. RWY23R AND RWY23L FOR DEP. WIND 250/05KT VARYING BTN 210 AND 280 VIS 10 KM OR MORE CLD FEW 2000FT BKN 20000FT T 32 DP 24 QNH 1004HPA NOSIG CTN BIRD ACTIVITY IN THE VCY OF THE AD. DUE TO FLOW CONTROL BY FUKUOKA F-I-R, TRAFFIC CONCERNED MAY BE DELAYED. INFORM TAIPEI APCH OR TAIPEI TOWER ON INITIAL CONTACT YOU HAVE INFORMATION K\n[Departure ATIS] RCTP DEP ATIS L 1730Z EXP ILS APCH RWY23L ARR/DEP. RWY23R CLSD BTN 1700Z AND 2230Z FOR INSPECTION. WIND 230/15KT VIS 10 KM OR MORE CLD FEW 1500FT T 28 DP 23 QNH 1005HPA NOSIG DUE TO",
    "ZGSZ": "[Arrival ATIS] ZGSZ ARR ATIS G 0130Z EXP ILS APCH 15 EXP ILS OR VIS APCH 16R WIND 180/5MPS VIS 9999M CLD SCT 690M T 31 /DP 28 QNH 1004 HPA INDEPENDENT PARALLEL DEPARTURES DEPENDENT PARALLEL APPROACHES MISSED APPROACH ALTITUDE SETTING 1200METERS WHEN AIRBORNE CONTACT ZHUHAI APPROACH EXPECTED RNP ILS DME Z APPROACH ADZ YOU HAVE INFO G.\n[Departure ATIS] ZGSZ DEP ATIS B 2330Z DEP RWY 15 & 16L WIND 170/4MPS VIS 9999M CLD FEW 600M T 30 /DP 27 QNH 1004 HPA INDEPENDENT PARALLEL DEPARTURES DEPENDENT PARALLEL APPROACHES MISSED APPROACH ALTITUDE SETTING 1200METERS WHEN AIRBORNE CONTACT ZHUHAI APPROACH EXPECTED RNP ILS DME Z APPROACH ADZ YOU HAVE INFO B.",
    "WSSS": "[Arrival ATIS] WSSS ARR ATIS D 0130Z METREPORT 0130Z ILS APCHRWY 20R SIMUL INDEPENDENT ILS AND VISUAL APPROACHES ARE CONDUCTED ON RWY 20. TWY W 9 CLOSED, RWY 02C 20C RAPID EXIT TAXIWAY INDICATOR LIGHTS OFF WIND 190/ 05KT VRB BTN130 AND200 VIS 10KM CLD FEW 1400FT T28 DP25 QNH 1012HPA NOSIG ACK ATIS D\n[Departure ATIS] WSSS DEP ATIS F 0100Z METREPORT 0100Z RWY 20C SIMUL INDEPENDENT ILS AND VISUAL APPROACHES ARE CONDUCTED ON RWY 20. TWY W 9 CLOSED, RWY 02C 20C RAPID EXIT TAXIWAY INDICATOR LIGHTS OFF WIND 180/ 06KT VIS 10KM CLD SCT 1400FT T28 DP25 QNH 1012HPA NOSIG DEP,INITIAL CMB 3000FT ACK ATIS F",
    "WMKK": "[Arrival ATIS] WMKK ARR ATIS L 0133Z WMKK ARR INFO L. TIME 0130. INDEPENDENT PARALLEL APPROACHES FOR RWY 32 R AND 33 ARE IN PROGRESS. EXP ILS APCH FOR RWY 32 RIGHT. EXP RNAV / ILS APCH FOR RWY 33. WIND RWY 32R DIRECTION NOT AVBL SPEED NOT AVBL. WIND RWY 32L DIRECTION NOT AVBL SPEED NOT AVBL. WIND RWY 33 DIRECTION NOT AVBL SPEED NOT AVBL. VIS RWY 32R TDZ NOT AVBL. VIS RWY 33 TDZ NOT AVBL. CLD FEW CB 1700 FT. T 27. DP 24. QNH 1011. NOSIG. AT FIRST CONTACT WITH LUMPUR RADAR, NOTIFY RCPT OF L\n[Departure ATIS] WMKK DEP ATIS U 1503Z WMKK DEP INFO U. TIME 1500. INDEPENDENT PARALLEL DEPARTURES FOR RWY 32 L AND 33 ARE IN PROGRESS. RWY 32 LEFT. RWY 33. WIND RWY 32L DIRECTION NOT AVBL SPEED NOT AVBL. WIND RWY 33 DIRECTION NOT AVBL SPEED NOT AVBL. VIS RWY 32L TDZ NOT AVBL. VIS RWY 33 TDZ NOT AVBL. CLD FEW CB 1700 FT. T 28. DP 25. QNH 1011. NOSIG. ALL DEP ACFT TO CONTACT LUMPUR DEP AT 135 DECIMAL 25 MHZ WHEN ABN. AT FIRST CONTACT WITH LUMPUR GROUND, NOTIFY RCPT OF U",
    "VTBS": "[Arrival ATIS] VTBS ARR ATIS Y 0130Z VTBS ARR ATIS Y 0131Z EXP ILS Z APCH ARR RWY 19 OR RNP APCH RWY 20R , ,PILOT SHALL ADZ BKK APCH ON INITIAL CTC IF UNA TO CONDUCT RNP APCH DUE TO OPERATIONAL CONSTRAINT 0130Z WIND 260/8KT VRB BTN 220/ AND 300/ VIS 10KM CLD FEW 2000FT T30 DP21 QNH 1009HPA TREND NOSIG ADZ BKK APCH ON INITIAL CONTACT THAT YOU HAVE INFO Y\n[Departure ATIS] VTBS DEP ATIS G 0130Z VTBS DEP ATIS G 0131Z SIMULTANEOUS INDEPENDENT PARL DEP IN PROGRESS DEP RWY 20L OR DEP RWY 19 , ,AFT AIRBORNE ALL DEPARTING ACFT SHALL CTC 119.25 0130Z WIND 250/7KT VIS 10KM CLD FEW 2000FT T30 DP21 QNH 1009HPA TREND NOSIG ADZ GND WHEN INITIAL CONTACT YOU HAVE INFO G",
    "VTBU": "[Arrival ATIS] VTBU ARR ATIS U 0430Z VTBU ARR ATIS U 0430Z RNP RWY 18 TRL FL130 MOBILE ACFT ARST SYSTEM INSTL ATP SIX HUNDRED AND TEN METERS FM THR RWY 36 CABLE HGT 3 INCHES. 0430Z WIND 360/6KT VRB BTN 320/ AND 020/ VIS 10KM CLD FEW 2000FT T34 DP27 QNH 1010HPA TREND NOSIG ADZ CONTROLLER WHEN INITIAL CONTACT YOU HAVE INFO U\n[Departure ATIS] VTBU DEP ATIS D VTBU ARR/DEP DATIS RPT VTBU ARR ATIS D 0330Z ILS \"Z\" APCH RWY 18 TRL FL130 0330Z WIND 110/4KT VRB BTN 350/ AND 120/ VIS 6KM CLD FEW 2000FT T31 DP27 QNH 1014HPA TREND NOSIG ADZ CONTROLLER WHEN INITIAL CONTACT YOU HAVE INFO D",
    "ROAH": "[Arrival ATIS] ROAH ARR ATIS J 0004Z M0000 (APCH)RNP RWY18R LDG RWY 18R DEP RWY 18L DEP FREQ 126.5 258.3 M 230000Z 17018KT 25KM SCT012CU 31/27 Q1005/A2969= Q/TWO NINE SIX NINE STP\n[Departure ATIS] ROAH DEP ATIS X 0517Z M0500 (APCH)RNP RWY18R LDG RWY 18R DEP RWY 18L DEP FREQ 126.5 258.3 M 220500Z 23007KT 50KM FEW015CU 30/26 Q1007/A2975= Q/TWO NINE SEVEN FIVE STP",
    "VVDN": "[Arrival ATIS] VVDN ARR ATIS D 0132Z VVDN INFO D 0132Z. ILS VICTOR APPROACH 35L.. DPTG RWY 35R.. 0132Z. WIND VRB/01KT CAVOK T34 DP24 QNH 1005HPA TREND NOSIG. ADZ ON INITIAL CTC YOU HAVE INFO. D.\n[Departure ATIS] VVDN DEP ATIS N 0423Z VVDN INFO N 0423Z. ILS VICTOR APPROACH 35L.. DPTG RWY 35R.. 0423Z. WIND 010/02KT CAVOK T36 DP24 QNH 1008HPA TREND NOSIG. WS ALL RWY. ADZ ON INITIAL CTC YOU HAVE INFO. N.",
    "RCKH": "[Arrival ATIS] RCKH ARR ATIS E 0430Z EXPECT ILS APPROACH RWY 27 ARR/DEP RWY SFC RWY 27 SFC COND 5/5/5 ISSUED AT 0050Z. 100/100/100 NR/NR/NR WET/WET/WET TAXIWAY JULIETT, TAXIWAY BRAVO, TAXIWAY DELTA AND TAX\n[Departure ATIS] RCKH DEP ATIS N 0430Z EXPECT ILS APPROACH RWY 27 ARR/DEP TAXIWAY JULIETT, TAXIWAY BRAVO, TAXIWAY DELTA AND TAXIWAY ECHO CLOSED DUE MAINTENANCE. RUNWAY 2 7 ARRIVALS PLAN VACATE VIA CHARLIE OR",
    "KLAX": "[Arrival ATIS] KLAX ARR ATIS H 1853Z LAX ATIS INFO H 1853Z. 13009G17KT 10SM FEW110 SCT170 27/17 A2994 (TWO NINER NINER FOUR) RMK AO2 SLP137 ACSL DSNT NE T02720172. SIMUL INST APCHS AND RNAV RNP RWYS 24R AND 25L APCHS, SIMUL INSTR DEPARTURES IN PROG RWYS 24 AND 25. CTC L A GC ON 121.75 FOR PUSH OR TAXI ON A. TWY B CLSD BTN TWY, C10 AND TWY C7 , , TWY B6 CLSD, TWY B7 CLSD, TWY C CLSD BTN TWY, C1 AND TWY C3, TWY C1 CLSD, TWY C9 CLSD BTN TWY, B AND TWY C, TWY C8 CLSD BTN TWY, B AND TWY C. PAPI OTS 24R, SEAL BEACH VOR OTS. HAZD WX INFO FOR LAX AREA AVBL FM FSS. BIRD ACTIVITY VICINITY ARPT. INCLUDE YOUR CALL SIGN IN ALL READBACKS. USE CAUTION WHEN EXITING RY24R AT TWY V, W, AND Y, TO HOLD SHORT OF RY24L. MULTIPLE RUNWAY INCURSIONS HAVE OCCURRED. ...ADVS YOU HAVE INFO H.\n[Departure ATIS] KLAX DEP ATIS G 1753Z LAX ATIS INFO G 1753Z. 10009KT 10SM FEW020 FEW110 SCT170 26/17 A2994 (TWO NINER NINER FOUR) RMK AO2 SLP137 T02610172 10267 20206 53003. SIMUL INST APCHS AND RNAV RNP RWYS 24R AND 25L APCHS, SIMUL INSTR DEPARTURES IN PROG RWYS 24 AND 25. CTC L A GC ON 121.75 FOR PUSH OR TAXI ON A. TWY B CLSD BTN TWY, C10 AND TWY C7 , , TWY B6 CLSD, TWY B7 CLSD, TWY C CLSD BTN TWY, C1 AND TWY C3, TWY C1 CLSD, TWY C9 CLSD BTN TWY, B AND TWY C, TWY C8 CLSD BTN TWY, B AND TWY C. PAPI OTS 24R, SEAL BEACH VOR OTS. HAZD WX INFO FOR LAX AREA AVBL FM FSS. BIRD ACTIVITY VICINITY ARPT. INCLUDE YOUR CALL SIGN IN ALL READBACKS. USE CAUTION WHEN EXITING RY24R AT TWY V, W, AND Y, TO HOLD SHORT OF RY24L. MULTIPLE RUNWAY INCURSIONS HAVE OCCURRED. ...ADVS YOU HAVE INFO G.",
    "KONT": "[Arrival ATIS] KONT ARR ATIS J 1353Z - KONT ATIS INFO J 1353Z. 00000KT 10SM FEW020 FEW220 23/14 A2984 (TWO NINER EIGHT FOUR) RMK AO2 SLP083 FU FEW020 T02330144. ILS AND VIS APR IN USE, RY26L & RY26R. LNDG AND DEPG RY 26L AND RY 26R. NOTAMS... TAXIWAY SIERRA FIVE CLOSED. TAXIWAY SIERRA CLOSED BETWEEN TAXIWAY SIERRA 8 AND TAXIWAY WHISKEY. RY 26L IM OTS, RY 26R ALS OTS. USE CAUTION FOR NUMEROUS BIRDS OBSERVED IN VICINITY OF ONT. PILOTS READBACK RWY ASSIGNMENTS AND HOLD SHORT INSTRUCTIONS. ...ADVS YOU HAVE INFO J.\n[Departure ATIS] KONT DEP ATIS N 0553Z - KONT ATIS INFO N 0553Z. 24004KT 10SM BKN250 22/15 A2988 (TWO NINER EIGHT EIGHT) RMK AO2 SLP100. ILS AND VIS APR IN USE, RY26L & RY26R. LNDG AND DEPG RY 26L AND RY 26R. NOTAMS... TAXIWAY SIERRA CLSD BETWEEN SIERRA 8 AND W TAXIWAY Q SOUTH OF RWY 26L CLSD TAXIWAY T CLSD TAXIWAY SIERRA 5 CLSD. RY 26L IM OTS, RY 26R ALS OTS. USE CAUTION FOR NUMEROUS BIRDS OBSERVED IN VICINITY OF ONT. HAZD WX INFO FOR SOUTHERN CA AVBL ON FSS FREQUENCIES. PILOTS READBACK RWY ASSIGNMENTS AND HOLD SHORT INSTRUCTIONS. ...ADVS YOU HAVE INFO N.",
    "KSFO": "[Arrival ATIS] KSFO ARR ATIS B 1856Z SFO ATIS INFO B 1856Z. 23013KT 10SM FEW005 FEW014 18/11 A2998 (TWO NINER NINER EIGHT). SIMUL CLSLY SPCD DPNDNT ILS RY 28R AND ILS RY 28L APP IN USE. DEPG RWYS 28L, 28R. DEPG ACFT SHOULD BE PREPARED FOR A SHORT NOTICE RY CHANGE. RY 1L, 1R CLSD. NUMEROUS TWY CLOSURES FOR CONSTRUCTION ON THE FIELD, PILOTS CHECK NOTAMS. MULTIPLE CRANES VCY OF SFO CHECK NOTAMS. DEPG ACFT WAITING ON FINAL NUMBERS ADVISE GROUND PRIOR TO ENTERING TWY F. ...ADVS YOU HAVE INFO B.\n[Departure ATIS] KSFO DEP ATIS J 0556Z SFO ATIS INFO J 0556Z. 25014KT 10SM FEW007 14/11 A2990 (TWO NINER NINER ZERO). SIMUL CLSLY SPCD DPNDNT ILS RY 28R AND ILS RY 28L APP IN USE. DEPG RWYS 28L, 28R. DEPG ACFT SHOULD BE PREPARED FOR A SHORT NOTICE RY CHANGE. RY 1L, 1R CLSD. NUMEROUS TWY CLOSURES FOR CONSTRUCTION ON THE FIELD, PILOTS CHECK NOTAMS. DEPG ACFT WAITING ON FINAL NUMBERS ADVISE GROUND PRIOR TO ENTERING TWY F. ...ADVS YOU HAVE INFO J.",
    "KOAK": "[Arrival ATIS] KOAK ARR ATIS G 0053Z - KOAK ATIS INFO G 0053Z. 25014KT 10SM FEW005 FEW010 17/12 A2996 (TWO NINER NINER SIX). RNAV, AND VA, RWY 30. ILS, AND VA, RWY 28R, RNAV Z 30, ILS 28R. FLOW TO LAX, SAN, SLC, SEA. ILS RWY 30, OTS. UNN LIT CLOSE-IN OBSTACLES FOR RWY 30 DEPARTURES. RWY 30 DEPARTURES ARE ADVISED TO AVOID TURNING LEFT PRIOR TO DEPARTURE END OF RUNWAY. SIGNATURE UNI-COM OUT OF SERVICE. CTN, CRANE 1 POINT 6 NAUTICAL MILES, , AT 140 FEET AGL. CAUTION, BIRDS NEAR AIRPORT. ...ADVS YOU HAVE INFO G.\n[Departure ATIS] KOAK DEP ATIS O 1953Z OAK ATIS INFO O 1953Z. 28014KT 10SM FEW005 22/14 A2988 (TWO NINER EIGHT EIGHT). RNAV Z/VA RWY 30 ILS/VA RWY 28R. FLOW TO LAX, LAS, SAN. ILS RWY 30, OTS. UNN LIT CLOSE-IN OBSTACLES FOR RWY 30 DEPARTURES. RWY 30 DEPARTURES ARE ADVISED TO AVOID TURNING LEFT PRIOR TO DEPARTURE END OF RUNWAY. SIGNATURE UNI-COM OUT OF SERVICE. CAUTION, BIRDS NEAR AIRPORT. ...ADVS YOU HAVE INFO O.",
    "KDFW": "[Arrival ATIS] KDFW ARR ATIS W 1653Z - KDFW ARR INFO W 1653Z. 18010G22KT 10SM FEW033 SCT045 SCT130 BKN180 BKN250 31/22 A3012 (THREE ZERO ONE TWO) RMK AO2 SLP189 TCU DSNT E T03110222. SIMUL APCH IN USE. EXPECT ILS TO RWYS, 13R, 18R, 17C, 17L AND ILS RWY 13R. LDG RWY 17C EXP LAHSO TWY B 10460 FT AVAIL, LDG RWY 18R EXP LAHSO TWY B 10100 FT AVL. NOTICE TO AIRMEN. WARNING, RWY 18L HAS BEEN SHORTENED, 9273 FT AVAILABLE. BIRD ACTIVITY VCNTY ARPT. ...ADVS YOU HAVE INFO W.\n[Departure ATIS] KDFW DEP ATIS F 1453Z DFW DEP INFO F 1453Z. 11005KT 10SM SCT020 BKN030 BKN055 BKN250 27/22 A3008 (THREE ZERO ZERO EIGHT) RMK AO2 SLP178 T02720217 51013. SIMUL PARL TRAFFIC DEPG RWYS 17R, 18L. NOTICE TO AIRMEN. WARNING, RWY 18L HAS BEEN SHORTENED, 9273 FT AVAILABLE. HAZD WX FOR DFW AVBL ON FSS. BIRD ACTIVITY VCNTY ARPT. ...ADVS YOU HAVE INFO F.",
    "KIAH": "[Arrival ATIS] KIAH ARR ATIS D 1853Z IAH ATIS INFO D 1853Z. 21008KT 10SM SCT045 SCT250 34/23 A3013 (THREE ZERO ONE THREE). ARRIVALS EXPECT ILS OR RNAV Y RY 26R, ILS OR RNAV Y RY 26L, ILS OR RNAV Y RY 27. SIMUL APPROACHES IN USE. DEPG RY 15L, RY 15R. NOTICE TO AIRMEN. UNITED RAMP CONTROL IN EFFECT. BIRD ACTIVITY VICINITY ARPT. CRANES ARE DOWN. TWY SA CLSD BTN TWY, SF AND TWY SK , TWY SB CLSD BTN TWY, SF AND TWY SK , , TWY EA CLSD. NOTAM ATIS IN USE ON FREQUENCY 126.225. ...ADVS YOU HAVE INFO D.\n[Departure ATIS] KIAH DEP ATIS T 0353Z IAH ATIS INFO T 0353Z. 15007KT 10SM FEW035 FEW180 BKN250 27/23 A2996 (TWO NINER NINER SIX). ARRIVALS EXPECT ILS OR RNAV Y RY 8R, ILS OR RNAV Y RY 8L. DEPG RY 15R. NOTICE TO AIRMEN. UNITED RAMP CONTROL IN EFFECT. RY 15L, 33R CLSD. HAZD WX INFO FOR IAH AREA AVBL FM FSS. BIRD ACTIVITY VICINITY ARPT. CRANES ARE DOWN. TWY SA CLSD BTN TWY, SF AND TWY SK , TWY SB CLSD BTN TWY, SF AND TWY SK , , TWY WB CLSD BTN TWY, WG AND TWY WH . TWY EA CLSD. NOTAM ATIS IN USE ON FREQUENCY 126.225. ...ADVS YOU HAVE INFO T.",
    "KORD": "[Arrival ATIS] KORD ARR ATIS P 1851Z ORD ATIS INFO P 1851Z. 26009KT 8SM SCT045 SCT085 BKN110 32/21 A2999 (TWO NINER NINER NINER) RMK AO2 LTG DSNT W SLP148 T03220211. ARR EXP VECTORS ILS RWY 27C APCH, ILS RWY 27R APCH, ILS RWY 28C APCH. SIMUL APCHS IN USE. LAND AND HOLD SHORT OPERATIONS ARE IN EFFECT. RWY 27C ARR PLAN TO H/S OF TWY V V, 9 THSD 7 HND 25 FT AVBL, RWY 28C ARR PLAN TO H/S OF TWY Z, 9 THSD 6 HND TEN FT AVBL. DEPS EXP RWYS 22L 27L FROM T T 9960 FT AVL. RWY 4L, 22R CLSD. RWY 22R LOC OTS, RWY 28L GS OTS, RWY 9L IM OTS, RWY 9C IM OTS, RWY 10L IM OTS, RWY 10R IM OTS, RWY 27R IM OTS, RWY 28L IM OTS, RWY 28R IM OTS, RWY 9L PAPI OTS, RWY 27R PAPI OTS. PILOTS USE CTN FOR BIRD ACTIVITY IN THE VICINITY OF THE ARPT. HAZD WX INFO FOR ORD AREA AVBL ON FSS. USE CTN FOR PERSONNEL AND EQUIP AT NUMEROUS SITES ON THE FIELD. READBACK ALL RWY HOLD SHORT INSTRUCTIONS. WHEN READY TO TAXI CONTACT GND METERING ON FREQ 121.67. ...ADVS YOU HAVE INFO P.\n[Departure ATIS] KORD DEP ATIS K 0251Z - KORD ATIS INFO K 0251Z. VRB05KT 3/4SM R10L/P6000FT FU VV015 27/17 A3006 (THREE ZERO ZERO SIX) RMK AO2 SLP174 T02670167 53011. ARR EXP VECTORS ILS RWY 10C APCH. DEPS EXP",
    "KJFK": "[Arrival ATIS] KJFK ARR ATIS Q 2051Z - KJFK ATIS INFO Q 2051Z. 21008KT 6SM FU BKN036 OVC300 29/19 A2983 (TWO NINER EIGHT THREE) RMK AO2 SLP100 FU OVC300 T02890189 56016. APPROACH IN USE ILS RY 22L, ILS RY 22R. DEPG RY 22R, ACFT FILED OVER RBV OR DIXIE EXPECT RY 31L KE FOR DEP. RY 13L SFL OTS, RWY 22L/4R INNER MARKER OTS. SWAP IN EFFECT EXPECT REROUTES. NUM CRANES OPERATING AT JFK. BIRD ACTIVITY VICINITY ARPT. READBACK ALL RWY ASSIGNMENTS AND HOLD SHORT INSTRUCTIONS. ...ADVS YOU HAVE INFO Q.\n[Departure ATIS] KJFK DEP ATIS H 0851Z JFK ATIS INFO H 0851Z. 33008KT 6SM FU OVC040 24/13 A2998 (TWO NINER NINER EIGHT) RMK AO2 FU OVC040. APPROACH IN USE ILS RY 31R, ILS RY 31L. DEPG RY 31L. RY 13L SFL OTS, RWY 22L/4R INNER MARKER OTS. RWY 22L PAPI OTS. NUM CRANES OPERATING AT JFK. BIRD ACTIVITY VICINITY ARPT. READBACK ALL RWY ASSIGNMENTS AND HOLD SHORT INSTRUCTIONS. ...ADVS YOU HAVE INFO H.",
    "KIND": "[Arrival ATIS] KIND ARR ATIS O 1054Z IND ATIS INFO O 1054Z. 25003KT 10SM BKN100 BKN130 BKN240 26/23 A3008 (THREE ZERO ZERO EIGHT). PARL ILS RWY 23R AND 23L APPROACHES IN USE. CROSS RUNWAY OPERATIONS MAY BE IN EFFECT. NOTICE TO AIRMEN. TWY, P BTN TWY, H AND TWY B CLSD, TWY, P BTN TWY, H AND TWY J CLSD, TWY, H BTN TWY, R AND TWY N CLSD. P PAD CLSD. ILS RUNWAY 5R AND RUNWAY 5L INNER MARKER UNSERVICEABLE. ...ADVS YOU HAVE INFO O.\n[Departure ATIS] KIND DEP ATIS G 0254Z IND ATIS INFO G 0254Z. 03006KT 10SM SCT060 BKN110 BKN190 OVC250 28/22 A3007 (THREE ZERO ZERO SEVEN). PARL ILS RWY 5R AND 5L APPROACHES IN USE. CROSS RUNWAY OPERATIONS MAY BE IN EFFECT. NOTICE TO AIRMEN. TWY, P BTN TWY, H AND TWY B CLSD, TWY, P BTN TWY, H AND TWY J CLSD, TWY, H BTN TWY, R AND TWY N CLSD. P PAD CLSD. ILS RUNWAY 5R AND RUNWAY 5L INNER MARKER UNSERVICEABLE. HIWAS. ARPT ADZY FLOCK OF MEDIUM BIRDS IN THE VICINITY OF THE AIRPORT, ALT UNKN. ...ADVS YOU HAVE INFO G.",
    "KDTW": "[Arrival ATIS] KDTW ARR ATIS F 1053Z DTW ARR INFO F 1053Z. 00000KT 1 1/2SM FU OVC011 19/17 A3011 (THREE ZERO ONE ONE) RMK AO2 TWR VIS 3 SLP192 FU OVC011 T01890167. SIMUL ILS Z RY 22R AND RY 21L APCH IN USE. SIMULTANEOUS ARRIVAL AND, DEPARTURE OPERATIONS ARE IN USE, ON RY 22R AND RY 22L. NOTICE TO AIRMEN. RWY 21R, 3L CLSD, RWY 27L, 9R CLSD, RWY 27R, 9L CLSD. TWYS Y1 CLSD ;. RY 22L ALS OTS. PILOTS USE CTN FOR BIRD ACTIVITY. DEPARTURE ATIS 118.125. ...ADVS YOU HAVE INFO F.\n[Departure ATIS] KDTW DEP ATIS N 0953Z DTW DEP INFO N 0953Z. 35003KT 1SM R03R/P6000FT FU SCT000 OVC027 22/16 A3004 (THREE ZERO ZERO FOUR) RMK AO2 TWR VIS 2 SLP167 FU SCT000 T02170161. DEPG RWY 4R. . RWY 4R DEPARTURE POINT IS Y 2, DISTANCE REMAINING IS 11, THOUSAND, 450, FT, FULL LENGTH AVAIL UPON REQ ;. NOTICE TO AIRMEN. RWY 21R, 3L CLSD, RWY 27L, 9R CLSD, RWY 27R, 9L CLSD. TWYS Y1 CLSD ;. PILOTS USE CTN FOR BIRD ACTIVITY. TWR AND GC COMB ON FREQ 135.0. ...ADVS YOU HAVE INFO N.",
    "KMSP": "[Arrival ATIS] KMSP ARR ATIS D 1853Z MSP ARR INFO D 1853Z. 22010G18KT 10SM FEW060 FEW250 34/19 A2991 (TWO NINER NINER ONE) RMK AO2 SLP120 T03390194. SIMULTANEOUS DEPENDENT, VISUAL RWY 30L APCH IN USE, VISUAL RWY 30R APCH IN USE. NOTICE TO AIRMEN. RWYS 4, 22 CLSD. TWY R7. R8. R9. R10. CLOSED. TWY R BTWN R6 AND R10 CLSD, TWY A7 CLSD, TWY A CLSD BTN TWY, A7 AND TWY D. GS RWY 12L OTS, DME RWY 30L, 12R OTS, RWYS 12R, 12L, INNER MARKER OTS. CTN, BIRDS NEAR MSP. READ BACK HS AND ALT. ALL ACFT TAXI WITH TRANSPONDER AND ALTITUDE ENCODING ON. ...ADVS YOU HAVE INFO D.\n[Departure ATIS] KMSP DEP ATIS N 1553Z - KMSP DEP INFO N 1553Z. 22007KT 10SM FEW050 FEW250 31/20 A2995 (TWO NINER NINER FIVE) RMK AO2 SLP135 T03110200. DEPARTING RWY 30L, RWY 30R. NOTICE TO AIRMEN. RWYS 4, 22 CLSD. TWY R7. R8. R9. R10. CLOSED. TWY R BTWN R6 AND R10 CLSD, TWY A7 CLSD, TWY A CLSD BTN TWY, A7 AND TWY D. ALL ACFT CTC METERING ON ONE THREE THREE POINT FIVE SEVEN WHEN READY TO PUSHBACK OR TAXI. CTN, BIRDS NEAR MSP. READ BACK HS AND ALT. ALL ACFT TAXI WITH TRANSPONDER AND ALTITUDE ENCODING ON. ...ADVS YOU HAVE INFO N.",
    "CYEG": "[Arrival ATIS] CYEG ARR ATIS Z 1900Z 11007KT 070V150 15SM FEW045 FEW150 SCT250 29/18 A2999 APCH RNAV Z OR Y RWY 20, INFORM ARRL OF REQ APCH ON INITIAL CTC. LDG AND DEP RWY 20. SIMUL APPROACHES MAY BE IN EFCT. INFORM CYEG ATC INFO Z\n[Departure ATIS] CYEG DEP ATIS Z 1900Z CYEG ARR ATIS Z 1900Z 11007KT 070V150 15SM FEW045 FEW150 SCT250 29/18 A2999 APCH RNAV Z OR Y RWY 20, INFORM ARRL OF REQ APCH ON INITIAL CTC. LDG AND DEP RWY 20. SIMUL APPRO",
    "EHAM": "[Arrival ATIS] EHAM ARR ATIS E 1920Z EHAM ARRIVAL INFO E. DEMAND. MAIN LANDING RWY 36 R. TRANSITION LEVEL 040. WIND 340 DEG, 8 KT, VRB BTN 300 AND 010 DEG. VIS 10 KM OR MORE. CLD FEW 2000 FT. T 19. DP 15. QNH 1015 HPA. TREND BECMG CLD BKN 1800 FT. OPERATIONAL REPORT. CONTACT APCH WITH CALLSIGN ONLY. END OF INFO E\n[Departure ATIS] EHAM DEP ATIS X 1854Z EHAM DEPARTURE INFO X. DEMAND. MAIN DEPARTURE RWY 36 L. SECONDARY DEPARTURE RWY 36 C. MAIN LANDING RWY 36 R. WIND 320 DEG, 9 KT, VRB BTN 290 AND 010 DEG. WIND SECONDARY RUNWAY 350 DEG, 7 KT, VRB BTN 310 AND 010 DEG, 13 KT MAX, 5 KT MNM. VIS 10 KM OR MORE. CLD FEW 2200 FT. T 19. DP 15. QNH 1015 HPA. OPERATIONAL REPORT. INDEPENDENT PARALLEL DEPARTURES IN PROGRESS CHECK CORRECT SID IN FMS. INFORM SCHIPHOL DEL BY VOICE IF UNABLE TO COMPLY WITH NADP 2. END OF INFO X",
    "EBBR": "[Arrival ATIS] EBBR ARR ATIS E 0120Z EBBR NAT, EXP VECT FOR ILS APP ARR RWY01 RSCD AT 2111 RWY01 DRY. DEP RWY07L TRL 055 XNG RWY OPS INPR. TWY OUT 6 B3 CLSD 040/4KT CAVOK T20 DP18 QNH 1023HPA NOSIG CFM ARR E\n[Departure ATIS] EBBR DEP ATIS A 0850Z EBBR NAT, DEP RWY25R RSCD AT 0726 RWY25R DRY. ARR RWY25L TRL 055 B3 CLSD 290/5KT VRB BTN 260 AND 020 MNM2 MAX12 VIS ABV 10KM SCT2200FT T21 DP16 QNH 1015HPA NOSIG CFM DEP A",
    "EDDF": "[Arrival ATIS] EDDF ARR ATIS D 0120Z -ARR-ATIS EDDF D METAR 230120 -EXPECT RNP X APCH -RWY 07C -FROM 0250 EXPECT ILS OR GLS APCH , -TRL 60 - -02009KT -CAVOK - - -T24 DP20 -QNH1021 - -TREND NOSIG\n[Departure ATIS] EDDF DEP ATIS E 1720Z -DEP-ATIS EDDF E METAR 171720 - -RWY 25C 18 -RWY COND AT TIME 0930 : ALL RWYS DRY , RWYCC 6 , ALL DEPARTING ACFT VIA OBOKA , MARUN AND TOBAK EXPECT SID WITH DESIGNATOR F OR G , -TRL 70 - -19011KT RWY18 18008KT -9999 - --SHRA FEW///TCU -T23 DP17 -QNH1012 - -TREND NOSIG",
    "EDDL": "[Arrival ATIS] EDDL ARR ATIS N 1920Z ATIS EDDL N METAR 161920 EXPECT VECTORS ILS APPROACH RWY 05L RWY 05R 05L ATTENTION, RISK OF TWY INCURSION WHEN TAXIING TO RWY05R, CHECK HOT SPOTS T1 AND L9 ON TAXI CHART TRL 60 EXPECT INTENSE BIRD ACTIVITY IN THE VICINITY OF RWY SYSTEM 01007KT CAVOK T25 DP14 QNH1014 TREND NOSIG\n[Departure ATIS] EDDL DEP ATIS R EDDL ARR/DEP DATIS RPT -ATIS EDDL R METAR 020550 -EXPECT VECTORS ILS APPROACH -RWY 23L -TWY L8 CLOSED BETWEEN TWY M AND RWY 23L -TRL 60 - -23010KT -CAVOK - - -T19 DP13 -QNH1020 - -TREND NOSIG",
    "EDDK": "[Arrival ATIS] EDDK ARR ATIS N 1950Z ATIS EDDK N METAR 161950 EXPECT ILS OR RNP APCH RWY 13L 06 RWY COND RWY 13L AT TIME 1830 RWYCC 6 DEPOSIT TOTAL RWY DRY RWY 06 AT TIME 1830 RWYCC 6 DEPOSIT TOTAL RWY DRY TRL 60 RWY 13R AND RWY 31L CLOSED FOR DEPARTURE AND LANDING: TAXIING BTN THR RWY 13R AND INTERSECTION RWY 24 POSSIBLE : 09003KT CAVOK T24 DP14 QNH1014 TREND NOSIG\n[Departure ATIS] EDDK DEP ATIS E 2050Z -ATIS EDDK E METAR 142050 -EXPECT CDO FOR ILS APCH RWY 31R -RWY 31R 06 -RWY COND RWY 31R AT TIME 1837 RWYCC 6 DEPOSIT TOTAL RWY DRY RWY 06 AT TIME 1837 RWYCC 6 DEPOSIT TOTAL RWY DRY -TRL 60 -RWY 13R AND RWY 31L CLOSED FOR DEPARTURE AND LANDING: TAXIING BTN THR RWY 13R AND INTERSECTION RWY 24 POSSIBLE : -02006KT 350V050 -CAVOK - - -T23 DP14 -QNH1018 - -TREND NOSIG",
    "EBLG": "[Arrival ATIS] EBLG ATIS E 0150Z EBLG INFO, EXP RNAV TO ILS APP ARR RWY04R DEP RWY04R RWY 04R DRY, RWYCC 666. TRL 055 TWY A4 DISPLACED 060/5KT CAVOK T20 DP18 QNH 1023HPA NOSIG CFM ATIS E",
    "LSZH": "[Arrival ATIS] LSZH ARR ATIS H 1150Z ARRIVALS, EXP ILS APCH, RWY 14. RWY COND REPORT. RWY COND CODE 6, 6, 6. COVERAGE NR, NR, NR. DEPTH NR, NR, NR. DRY AND DRY AND DRY. RWY REPORT END. TRL 70. DEP RWY 28. WIND 220 DEG, 6 KT, GUSTING TO 21 KT, VRB BTN 180 AND 250 DEG. VIS 10 KM OR MORE, TDZ 10 KM OR MORE. CLD FEW 5000 FT. T 28. DP 15. QNH 1016. NOSIG.\n[Departure ATIS] LSZH DEP ATIS Q 1150Z DEP RWY 28. RWY COND REPORT. RWY 28. RWY COND CODE 6, 6, 6. COVERAGE NR, NR, NR. DEPTH NR, NR, NR. DRY AND DRY AND DRY. RWY 16. RWY COND CODE 6, 6, 6. COVERAGE NR, NR, NR. DEPTH NR, NR, NR. DRY AND DRY AND DRY. RWY REPORT END. TRL 70. ARRIVALS, EXP ILS APCH, RWY 14. TMA S 1 IS NOT ACT. TMA S 2 AND S 3 ARE NOT ACT. WIND 220 DEG, 9 KT, GUSTING TO 21 KT, VRB BTN 180 AND 250 DEG. VIS 10 KM OR MORE. CLD FEW 5000 FT. T 28. DP 15. QNH 1016. NOSIG.",
    "LIMC": "[Arrival ATIS] LIMC ARR ATIS H 0126Z LIMC ARR H 0126Z I.L.S. ZULU RWY IN USE 35R RCR AT 2314Z 5/5/5 WET WET WET TL 70 WIND TDZ 080/4KT VRB BTN 050/AND 110/ CAVOK T26 DP19 QNH 1021HPA QFE 0995HPA REPORTED 15 TAIL AT 500 FT . ON FINAL RWY 35L CLSD\n[Departure ATIS] LIMC DEP ATIS T 1950Z LIMC DEP T 1950Z RWY IN USE 35L TL 70 WIND END 360/4KT CAVOK T27 DP18 QNH 1016HPA QFE 0990HPA DATALINK CLEARANCE AVAILABLE.... CONTACT 1 3 1 8 8 0 TO BE RELEASED BY THE AIRPORT OPERATOR ...",
    "LIRF": "[Arrival ATIS] LIRF ARR ATIS C 0120Z LIRF ARR C 0120Z ILS WHISKEY RWY IN USE 16L TL 70 WIND TDZ 340/3KT CAVOK T21 DP18 QNH 1017HPA\n[Departure ATIS] LIRF DEP ATIS W 1650Z LIRF DEP W 1650Z RWY IN USE 25 TL 75 RWYS IN USE FOR ARR 16L AND 16R WIND END 190/8KT VRB BTN 170/AND 250/ CAVOK T30 DP26 QNH 1012HPA REA IS SENT AUTOMATICALLY ONCE RLSD BY RAMP WHEN READY CONTACT FIUME RAMP 121.725 RRSM",
    "EINN": "[Arrival ATIS] EINN ARR ATIS V 1130Z EXPECT I L S CATEGORY 1 LDG RWY06 TKOF RWY06 TRL FL060 34011KT 290V010 CAVOK 23/15 QNH Q1020 TREND NOSIG ADVISE AT FIRST CONTACT YOU HAVE ATIS INFO V",
    "EGLL": "[Arrival ATIS] EGLL ARR ATIS G 0150Z LANDING RWY 09R RWY09R SURFACE CONDITION CODES: 6/6/6 DRY/DRY/DRY DEPTH: NR/NR/NR COVERAGE: 100%/100%/100% TRANSITION-LEVEL: FL 70 IF STAND GUIDANCE IS OFF OR FAILS, REMAIN ON THE TAXIWAY CENTRELINE AND ADVISE ATC PILOTS ARE EXPECTED TO CHANGE TO RWY 09L AT AT 05:00 HOURS PILOTS SHOULD EXPECT 09R SINGLE RUNWAY OPERATIONS FROM AT 21:55 HOURS AUTO 02011KT 9999 VCTS //////CB 20/15 Q1023 ACKNOWLEDGE RECEIPT OF INFORMATION G\n[Departure ATIS] EGLL DEP ATIS R 1150Z DEPARTURE RWY 27L RUNWAY 27R REDUCED DECLARED DISTANCES WITH TAKE OFF RUN AVAILABLE 3362METRES AND LANDING DISTANCE AVAILABLE 3362METRES PILOTS THAT ARE IN RECEIPT OF DATALINK CLEARANCES ARE REMINDED THEY MUST CONTACT DELIVERY ON 121.980 WHEN READY FOR START AUTO 26011KT 220V280 9999 NCD 27/11 Q1016 ACKNOWLEDGE RECEIPT OF INFORMATION R AND REPORT AIRCRAFT TYPE AND CURRENT QNH ON FIRST CONTACT WITH HEATHROW",
    "EPWA": "[Arrival ATIS] EPWA ARR ATIS I 1931Z EPWA ARR I. TIME 1930. EXP N ARR ILS Z APCH FOR RWY 11. TRANSITION LEVEL 80. WIND 060 DEG, 6 KT. CAVOK. T 26. DP 13. QNH 1018. NOSIG. CAUTION. BIRD ACT. END OF EPWA ARR I\n[Departure ATIS] EPWA DEP ATIS Z 1456Z EPWA DEP Z. TIME 1454. DEP RWY 15. ARR RWY 11, EXP N ARR ILS Z. REPORT READY FOR STARTUP ON DELIVERY 121 DECIMAL 605. TRANSITION LEVEL 80. WIND 150 DEG, 12 KT. CAVOK. T 31. DP 16. QNH 1011. NOSIG. CAUTION. BIRD ACT. END OF EPWA DEP Z",
    "EFHK": "[Arrival ATIS] EFHK ARR ATIS N 0050Z EXPECT ILS APCH ARR RWY 22L RUNWAY 22L CONDITION REPORT AT 2114 UTC RUNWAY CONDITION CODES 6 , 6 , 6 CONTAMINANTS ALL PARTS DRY TRL 60 WIND 290 DEG 7 KT CAVOK T 10 DP 5 QNH 1020 NOSIG ACK INFO N\n[Departure ATIS] EFHK DEP ATIS F 2120Z DEP RWY 22R RUNWAY 22R CONDITION REPORT AT 2114 UTC RUNWAY CONDITION CODES 6 , 6 , 6 CONTAMINANTS ALL PARTS DRY WIND 300 DEG 5 KT CAVOK T 14 DP 4 QNH 1020 NOSIG ACK INFO F",
    "LTAC": "[Arrival ATIS] LTAC ARR ATIS T 0150Z EXP ILS X APCH 03L DEP RWY 03L RWY 03L WIND 030 DEG 03 KT RWY 03L WIND 030 DEG 03 KT TRL 110 CAVOK T 10 DP 07 QNH 1017 NOSIG FOR DELIVERY CTC 121.9. FOR DELIVERY FIRST USE DIGITAL DEP CLR. CTN BIRD HAZARD OVR AERODROME. APCH FREQUENCY 129.050. TAXIWAY ECHO 1 IS CLOSED. SINGLE RWY OPERATION INPR. END OF ATIS T",
    "UBBB": "[Arrival ATIS] UBBB ARR ATIS C 0030Z ATIS C EXP ILS/ LDG 34 35 DEP 34 35 IN USE RWY 34 CLEAR DRY 70 RWY 35 CLEAR DRY 70 TLVL 110 WIND WIND RWY 34 CALM WIND RWY 35 320 2 KT SPD MAX 4 MIN 2 VIS CAVOK T 22 / DP 15 QNH 1015 HPA TREND TREND NOSIG MODERATE BIRDS ACT IN VICINITY OF AP END OF ATIS C\n[Departure ATIS] UBBB DEP ATIS X 2100Z ATIS X EXP ILS/ LDG 34 35 DEP 34 35 IN USE RWY 34 CLEAR DRY 70 RWY 35 CLEAR DRY 70 TLVL 110 WIND WIND RWY 34 360 6 KT SPD MAX 8 MIN 6 WIND RWY 35 350 6 KT SPD MAX 8 MIN 4 VIS 10 KM FEW CB 6000 FT RWY 34 FEW CB 6000 FT RWY 35 T 23 / DP 15 QNH 1015 HPA TREND TREND NOSIG MODERATE BIRDS ACT IN VICINITY OF AP END OF ATIS X",
    "ZWWW": "[Arrival ATIS] ZWWW ARR ATIS I 0130Z EXP ILSDME Z APCH LDG RWY 26R TA 3000 WIND 210/3MPS VRB BTN 180/ AND 260/ CAVOK T 29 /DP 04 QNH 1008 HPA ADZ YOU HAVE INFO I.\n[Departure ATIS] ZWWW DEP ATIS N 0530Z DEP RWY 26L TA 3000 WIND VRB/1MPS CAVOK T 39 /DP 06 QNH 1009 HPA ADZ YOU HAVE INFO N.",
    "ZLXY": "[Arrival ATIS] ZLXY ARR ATIS V 0100Z EXP ILS APCH LDG RWY 05L & 06R WIND 070/5MPS VIS 9999M CLD BKN 1500M T 24 /DP 18 QNH 1008 HPA VISUAL APPROACH IN PROGRESS ADZ YOU HAVE INFO V.\n[Departure ATIS] ZLXY DEP ATIS Q 2200Z DEP RWY 06L WIND 040/2MPS VIS 8000M CLD FEW 1500M T 20 /DP 18 QNH 1007 HPA VISUAL APPROACH IN PROGRESS ADZ YOU HAVE INFO Q.",
    "ZBAA": "[Arrival ATIS] ZBAA ARR ATIS W 1900Z EXP ILS APCH LDG RWY 36L RWY 36R IS CLSD WIND 140 DEG 2 MPS CAVOK T 24 /DP 21 QNH 1001 HPA VISUAL APPROACH IS IN PROGRESS. ADZ YOU HAVE INFO W.\n[Departure ATIS] ZBAA DEP ATIS T 0130Z DEP RWY 36L & 36R & 01 WIND 120 DEG 3 MPS 080V140 DEG CAVOK T 21 /DP 18 QNH 1007 HPA RWY INDEPENDENT PARALLEL DEP VISUAL APPROACH IS IN PROGRESS. ADZ YOU HAVE INFO T.",
    "ZBHH": "[Arrival ATIS] ZBHH ARR ATIS H 2200Z EXP ILSDME APCH LDG RWY 26 TA 3000 /TRL 3600 WIND 010/3MPS VIS 9999M CLD FEW 1200M T 16 /DP 07 QNH 1009 HPA ADZ YOU HAVE INFO H.\n[Departure ATIS] ZBHH DEP ATIS Q 1500Z DEP RWY 08 TA 3000 /TRL 3600 WIND 140/2MPS VIS 5000M BR NSC T 19 /DP 19 QNH 1007 HPA ADZ YOU HAVE INFO Q.",
    "ZSQD": "[Arrival ATIS] ZSQD ARR ATIS W 0100Z EXP ILSDME APCH LDG RWY 17 TA 3000 /TRL 3600 WIND 170/3MPS VRB BTN 120/ AND 200/ VIS 9999M CLD BKN 780M T 26 /DP 17 QNH 1009 HPA SEGREGATED OPERATION VISUAL APPROACH OPERATION IN PROGRESS. RUNWAY 17,IF MISSED APPROACH,EXPECT FOLLOW THE STANDARD MISSED APPROACH PROCEDURE,CLIMB TO 900M ON QNH OR BY ATC CAUTION MAYBE THERE IS A FLOCK OF BIRDS IN THE VICINITY OF AIRPORT ADZ YOU HAVE INFO W.\n[Departure ATIS] ZSQD DEP ATIS V 0000Z DEP RWY 16 TA 3000 /TRL 3600 WIND 110/4MPS VRB BTN 080/ AND 140/ VIS 9999M CLD SCT 600M T 24 /DP 19 QNH 1008 HPA SEGREGATED OPERATION VISUAL APPROACH OPERATION IN PROGRESS. RUNWAY 17,IF MISSED APPROACH,EXPECT FOLLOW THE STANDARD MISSED APPROACH PROCEDURE,CLIMB TO 900M ON QNH OR BY ATC CAUTION MAYBE THERE IS A FLOCK OF BIRDS IN THE VICINITY OF AIRPORT ADZ YOU HAVE INFO V."
  },
  "windtemp_alaska": "\n000\nFBAK31 KWNO 171400\nFD1AK1\nDATA BASED ON 171200Z    \nVALID 171800Z   FOR USE 1400-2100Z. TEMPS NEG ABV 24000\n\nFT  3000    6000    9000   12000   18000   24000  30000  34000  39000\nADK 2850 2852+09 2847+05 2847+00 2946-12 3052-23 295739 295449 305055\nADQ 3017 2712-01 2614-06 2619-10 2727-21 2738-32 274046 253445 252542\nAKN 2612 2710-03 2609-07 2614-12 2624-22 2630-33 274347 273545 262441\nANC 1207 1419+00 1618-04 1719-10 1930-23 1839-35 195444 194442 203141\nANN 3307 2805+12 2507+08 2407+02 2108-12 2207-24 990039 990049 990058\nBET 2508 2606-02 9900-08 2806-13 2813-24 2822-34 272647 271944 271441\nBRW 0415 0414+03 0511-01 0612-07 0815-19 1219-31 141547 151753 131345\nBTI 9900 9900+02 0607-04 9900-07 0805-17 0911-30 100845 990049 161244\nBTT 1412 1413+02 1214-04 1115-09 1317-20 1131-31 104846 113850 152043\nCDB 2127 2127-02 2231-05 2433-09 2633-15 2661-25 277742 288850 285451\nCZF 9900 0506-02 0906-08 0806-13 0305-24 3506-34 301047 300743 320840\nEHM 2212 2108-04 2513-07 2411-12 2515-22 2627-31 265045 264947 272943\nFAI 2411 1912+01 1813-06 1818-11 1734-20 1738-34 185346 184144 172542\nFYU 1610 1511+03 1613-04 1615-09 1722-17 1727-30 183246 183650 172545\nGAL 2708 9900+00 1009-05 0813-11 0922-23 1025-36 113046 112042 131340\nGKN 1514 1814+01 1815-04 1826-09 1834-19 1956-30 198343 208750 194445\nHOM 9900 2505+00 9900-06 9900-12 2215-23 2218-35 222444 223141 222541\nJNU 9900 2409+08 2312+06 2212+01 2213-12 2217-24 222140 232549 222457\nLUR 0828 0728+03 0826-03 0822-08 0920-22 1120-33 142147 131850 091442\nMCG 1711 1710-02 1711-07 1715-13 1511-25 1414-39 170944 180941 181039\nMDO 1713 1615+02 1817-03 1921-07 2036-19 1955-30 198043 197948 204245\nOME 0112 3606-01 0306-06 0706-12 0814-24 0720-33 062648 061945 061040\nORT      9900+04 1711-01 1819-05 1932-17 2053-27 206743 217352 214550\nOTZ 0105 0708+00 0910-04 0813-10 0839-21 0831-33 094148 082848 081841\nSNP 0914 9900+00 2509-02 2409-07 2511-19 2519-31 244640 263840 282841\nTKA 9900 1909-01 1812-06 1920-11 1929-24 1835-35 184245 193742 192840\nUNK 1406 9900+00 0906-06 0710-12 0917-24 0614-36 051648 081141 130840\nYAK 9900 2511+05 2218+02 2121-03 2034-14 1942-25 204541 215050 214455\nIKO 2552 2546+04 2650+02 2553-02 2548-14 2743-23 275439 266249 266357\nAFM 9900 1206+01 1214-04 1020-09 0730-21 1026-32 105447 113849 101942\n5AB 3139 3141+10 3144+06 3145+01 3139-10 3254-22 336337 348144 358655\n5AC 3414 3313+11 3211+07 3209+02 3313-12 3317-24 331540 341450 340958\n5AD 2622 2630+05 2438+01 2449-03 2268-16 2269-27 217640 217749 226754\n5AE 2618 2721-01 2625-02 2630-07 2636-19 2748-28 297944 307651 285047\n5AF 2806 2811+09 2712+05 2515+00 2422-12 2421-23 232140 232350 212058\n5AG 2017 2121+05 2127+01 2032-04 2042-14 2146-25 205341 205650 205255\n",
  "vaac_tokyo": [
    {
      "id": "20260717_27307000_0014",
      "year": "2026",
      "volcano": "Taal",
      "psn": "N1400 E12100",
      "issued": "20260717",
      "text": "FVFE01 RJTD 171113\nVA ADVISORY\nDTG: 20260717/1113Z\nVAAC: TOKYO\nVOLCANO: TAAL 273070\nPSN: N1400 E12100\nAREA: PHILIPPINES\nSOURCE ELEV: 311M AMSL\nADVISORY NR: 2026/14\nINFO SOURCE: HIMAWARI-9 PHIVOLCS\nERUPTION DETAILS: ERUPTION AT 20260717/1051Z FL040 EXTD E REPORTED\nOBS VA DTG: 17/1100Z\nOBS VA CLD: VA NOT IDENTIFIABLE FM SATELLITE DATA WIND FL040 270/8KT\nFCST VA CLD +6 HR: NOT AVBL\nFCST VA CLD +12 HR: NOT AVBL\nFCST VA CLD +18 HR: NOT AVBL\nRMK: WE WILL ISSUE FURTHER ADVISORY IF VA IS DETECTED IN SATELLITE \nIMAGERY.\nNXT ADVISORY: NO FURTHER ADVISORIES=",
      "img_url": "https://ds.data.jma.go.jp/svd/vaac/data/VAGFN/2026/Images/20260717_27307000_0014_QH21_01.png",
      "sat_img_url": null,
      "text_url": "https://ds.data.jma.go.jp/svd/vaac/data/TextData/2026/20260717_27307000_0014_Text.html"
    },
    {
      "id": "20260717_27303000_0759",
      "year": "2026",
      "volcano": "Mayon",
      "psn": "N1315 E12341",
      "issued": "20260717",
      "text": "FVFE01 RJTD 171107\nVA ADVISORY\nDTG: 20260717/1107Z\nVAAC: TOKYO\nVOLCANO: MAYON 273030\nPSN: N1315 E12341\nAREA: PHILIPPINES\nSOURCE ELEV: 2462M AMSL\nADVISORY NR: 2026/759\nINFO SOURCE: HIMAWARI-9 PHIVOLCS\nERUPTION DETAILS: ERUPTION AT 20260717/0526Z FL140 EXTD SSW REPORTED\nOBS VA DTG: 17/1050Z\nOBS VA CLD: VA NOT IDENTIFIABLE FM SATELLITE DATA WIND FL140 360/5KT\nFCST VA CLD +6 HR: NOT AVBL\nFCST VA CLD +12 HR: NOT AVBL\nFCST VA CLD +18 HR: NOT AVBL\nRMK: WE WILL ISSUE FURTHER ADVISORY IF VA IS DETECTED IN SATELLITE \nIMAGERY.\nNXT ADVISORY: NO FURTHER ADVISORIES=",
      "img_url": "https://ds.data.jma.go.jp/svd/vaac/data/VAGFN/2026/Images/20260717_27303000_0759_QH21_01.png",
      "sat_img_url": null,
      "text_url": "https://ds.data.jma.go.jp/svd/vaac/data/TextData/2026/20260717_27303000_0759_Text.html"
    },
    {
      "id": "20260716_30027000_0266",
      "year": "2026",
      "volcano": "Sheveluch",
      "psn": "N5639 E16122",
      "issued": "20260716",
      "text": "FVFE01 RJTD 161200\nVA ADVISORY\nDTG: 20260716/1200Z\nVAAC: TOKYO\nVOLCANO: SHEVELUCH 300270\nPSN: N5639 E16122\nAREA: RUSSIA\nSOURCE ELEV: 3283M AMSL\nADVISORY NR: 2026/266\nINFO SOURCE: HIMAWARI-9\nERUPTION DETAILS: VA CONTINUOUSLY OBS IN SATELLITE IMAGERY\nOBS VA DTG: 16/1120Z\nOBS VA CLD: SFC/FL230 N5556 E16558 - N5544 E16655 - N5425 E16745 - \nN5359 E17000 - N5312 E16918 - N5403 E16711 MOV SE 35KT\nFCST VA CLD +6 HR: 16/1720Z SFC/FL240 N5329 E17049 - N5230 E17321 - \nN5147 E17227 - N5314 E16939 - N5525 E16945 - N5436 E17056\nFCST VA CLD +12 HR: 16/2320Z SFC/FL250 N5118 E17628 - N5008 E17537 - \nN5210 E17232 - N5303 E17348 - N5459 E17402\nFCST VA CLD +18 HR: NO VA EXP\nRMK: THE RESPONSIBILITY FOR THIS ASH EVENT IS BEING TRANSFERRED TO \nVAAC ANCHORAGE. THE NEXT ADVISORY WILL BE ISSUED BY VAAC ANCHORAGE \nBY 1800UTC UNDER HEADER FVAK21 PAWU. WESTERN PART OF VA OBSCURED BY \nMET CLOUD.\nNXT ADVISORY: NO FURTHER ADVISORIES=",
      "img_url": "https://ds.data.jma.go.jp/svd/vaac/data/VAGFN/2026/Images/20260716_30027000_0266_QH21_01.png",
      "sat_img_url": "https://ds.data.jma.go.jp/svd/vaac/data/Sat/2026/Images/30027000/09-ir/20260716_1120_202607161200_ir.png",
      "text_url": "https://ds.data.jma.go.jp/svd/vaac/data/TextData/2026/20260716_30027000_0266_Text.html"
    },
    {
      "id": "20260713_28208001_0083",
      "year": "2026",
      "volcano": null,
      "psn": "N3136 E13039",
      "issued": "20260713",
      "text": "FVFE01 RJTD 130254\nVA ADVISORY\nDTG: 20260713/0254Z\nVAAC: TOKYO\nVOLCANO: SAKURAJIMA (AIRA CALDERA) 282080\nPSN: N3136 E13039\nAREA: JAPAN\nSOURCE ELEV: 1117M AMSL\nADVISORY NR: 2026/83\nINFO SOURCE: JMA HIMAWARI-9\nERUPTION DETAILS: ERUPTED AT 20260713/0152Z FL100 EXTD N\nOBS VA DTG: 13/0230Z\nOBS VA CLD: SFC/FL100 N3136 E13039 - N3142 E13040 - N3141 E13044 - \nN3134 E13042 MOV NE 15KT\nFCST VA CLD +6 HR: 13/0830Z SFC/FL100 N3234 E13121 - N3145 E13155 - \nN3202 E13110 - N3227 E13051\nFCST VA CLD +12 HR: 13/1430Z SFC/FL100 N3318 E13206 - N3142 E13317 - \nN3134 E13226 - N3312 E13118\nFCST VA CLD +18 HR: NO VA EXP\nRMK: NIL\nNXT ADVISORY: 20260713/0600Z=",
      "img_url": "https://ds.data.jma.go.jp/svd/vaac/data/VAGFN/2026/Images/20260713_28208001_0083_QH21_01.png",
      "sat_img_url": "https://ds.data.jma.go.jp/svd/vaac/data/Sat/2026/Images/28208001/09-ir/20260713_0230_202607130254_ir.png",
      "text_url": "https://ds.data.jma.go.jp/svd/vaac/data/TextData/2026/20260713_28208001_0083_Text.html"
    }
  ],
  "vaac_alaska": [
    {
      "text": "\n000\nFVAK21 PAWU 162126\nVAAAK1\nVA ADVISORY\n\nDTG: 20260716/2122Z\n\nVAAC: ANCHORAGE\n\nVOLCANO: SHEVELUCH 300270\n\nPSN: N5639 E16122\n\nAREA: KAMCHATKA PENINSULA\n\nSOURCE ELEV: 10771 FT AMSL\n\nADVISORY NR: 2026/204\n\nINFO SOURCE: HIMAWARI\n\nERUPTION DETAILS: VA NOT IDENTIFIABLE FM SATELLITE DATA.\n\nOBS VA DTG: 16/2122Z\n\nOBS VA CLD: VA NOT IDENTIFIABLE FM SATELLITE DATA WIND FL100 280/20KT\n\nFCST VA CLD +6HR: NOT AVBL\n\nFCST VA CLD +12HR: NOT AVBL\n\nFCST VA CLD +18HR: NOT AVBL\n\nRMK: A NEW ADVISORY WILL BE ISSUED IF VA IS DETECTED IN SATELLITE IMAGERY....DK\n\nNXT ADVISORY: NO FURTHER ADVISORIES=\n\n",
      "issued": "2026-07-16T21:26:00+00:00",
      "volcano": "Sheveluch",
      "psn": "N5639 E16122"
    }
  ]
}