{
  "updated_utc": "2026-07-06T06:04Z",
  "metar": {
    "RJAA": "METAR RJAA 060430Z 14010KT 9999 SCT030 BKN130 25/17 Q1012 NOSIG",
    "PANC": "METAR PANC 060453Z 17008KT 10SM BKN110 16/07 A2994 RMK AO2 SLP138 T01560072 $",
    "PAFA": "METAR PAFA 060453Z 21007KT 10SM FEW050 FEW120 SCT200 22/09 A2988 RMK AO2 SLP120 T02170094 $",
    "PAED": "METAR PAED 060455Z 29004KT 10SM SCT043 SCT050 BKN110 BKN200 17/07 A2992 RMK AO2A SLP128 T01700073 $",
    "KSEA": "METAR KSEA 060453Z 35007KT 10SM FEW250 18/09 A3004 RMK AO2 SLP176 T01830094 $",
    "ZSPD": "METAR ZSPD 060430Z 25006MPS CAVOK 35/25 Q1005 NOSIG",
    "ZSSS": "METAR ZSSS 060430Z 28004MPS 180V340 CAVOK 34/24 Q1005 NOSIG",
    "RJFR": "METAR RJFR 060500Z VRB02KT 9999 FEW005 SCT015 BKN025 26/25 Q1007",
    "VHHH": "METAR VHHH 060430Z 19019KT 9999 FEW012 SCT025 31/25 Q1007 NOSIG",
    "RCTP": "METAR RCTP 060430Z 28016KT 9999 FEW020 SCT180 34/26 Q1009 NOSIG RMK A2982",
    "ZGSZ": "METAR ZGSZ 060500Z 17009G14MPS 9999 FEW030 30/27 Q1006 NOSIG",
    "WSSS": "METAR WSSS 060430Z 10007KT 9999 VCSH FEW018TCU FEW020CB BKN300 31/26 Q1011 NOSIG",
    "WMKK": "METAR WMKK 060430Z VRB03KT 9000 FEW018 32/25 Q1011 NOSIG",
    "WIDD": "METAR WIDD 060430Z 14008KT 9999 FEW014 30/25 Q1012 NOSIG",
    "VTBS": "METAR VTBS 060430Z 20010KT 9999 FEW020 SCT030 31/24 Q1009 NOSIG",
    "VTBU": "METAR VTBU 060430Z 18009KT 9000 FEW020 SCT100 31/28 Q1010 NOSIG",
    "ROAH": "METAR ROAH 060430Z 24006KT 9999 FEW015 31/27 Q1011",
    "VVDN": "METAR VVDN 060430Z 24010KT 9999 FEW020 SCT070 BKN100 33/22 Q1007 NOSIG",
    "RCKH": "METAR RCKH 060430Z 18012KT 150V220 9999 FEW025 SCT050 33/23 Q1010 NOSIG RMK A2984",
    "KLAX": "METAR KLAX 060453Z 25013KT 10SM CLR 19/15 A2994 RMK AO2 SLP135 T01890150",
    "KONT": "METAR KONT 060453Z 26008KT 10SM FEW250 23/12 A2994 RMK AO2 SLP123 T02330122 $",
    "KSFO": "METAR KSFO 060456Z 26012KT 10SM FEW005 SCT012 BKN180 14/12 A2998 RMK AO2 SLP153 T01440117 $",
    "KOAK": "METAR KOAK 060453Z 25009KT 10SM FEW005 BKN010 15/12 A2999 RMK AO2 SLP155 T01500122 $",
    "KMHR": "METAR KMHR 060415Z AUTO 20006KT 10SM CLR 23/09 A2988 RMK AO2 T02250092 $",
    "KDFW": "METAR KDFW 060453Z 17008KT 10SM BKN250 28/20 A2994 RMK AO2 SLP129 T02830200 $",
    "KIAH": "METAR KIAH 060453Z 00000KT 10SM FEW033 FEW180 BKN250 27/24 A2997 RMK AO2 SLP146 T02720239",
    "KORD": "METAR KORD 060451Z 01008KT 10SM FEW110 BKN250 20/17 A3000 RMK AO2 SLP157 T02000172 $",
    "KJFK": "SPECI KJFK 060411Z 08014KT 5SM -RA BR FEW008 BKN025 OVC110 22/21 A2999 RMK P0047 T02170211 $",
    "KRFD": "METAR KRFD 060454Z 00000KT 10SM CLR 19/18 A3005 RMK AO2 SLP170 T01890178 $",
    "KIND": "METAR KIND 060454Z 33005KT 10SM FEW040 SCT250 23/21 A2995 RMK AO2 SLP133 T02280206 402890206 $",
    "KDTW": "SPECI KDTW 060424Z 02008KT 5SM -RA BR SCT008 BKN035 OVC065 21/20 A2997 RMK AO2 RAB21 P0000 T02110200 $",
    "KMSP": "METAR KMSP 060453Z 12007KT 10SM CLR 26/19 A3004 RMK AO2 SLP167 T02560194",
    "CYEG": "METAR CYEG 060500Z 22003KT 20SM FEW100 11/10 A3010 RMK AC1 AC TR SLP205",
    "EHAM": "METAR EHAM 060425Z 25011KT 9999 FEW008 BKN010 19/17 Q1017 TEMPO SCT012",
    "EBBR": "METAR EBBR 060420Z 24008KT CAVOK 17/14 Q1020 NOSIG",
    "EDDF": "METAR EDDF 060420Z AUTO 21004KT CAVOK 17/14 Q1020 NOSIG",
    "EDFH": "METAR EDFH 060420Z 23003KT 180V280 CAVOK 15/13 Q1021",
    "EDDL": "METAR EDDL 060420Z AUTO 20007KT CAVOK 18/14 Q1019 NOSIG",
    "EDDK": "METAR EDDK 060420Z AUTO VRB02KT CAVOK 16/14 Q1020 NOSIG",
    "EBLG": "METAR EBLG 060420Z 19009KT CAVOK 16/13 Q1020 NOSIG",
    "LSZH": "METAR LSZH 060420Z VRB01KT CAVOK 15/13 Q1023 NOSIG",
    "LIMC": "METAR LIMC 060420Z 02006KT CAVOK 20/12 Q1017 NOSIG",
    "LIRF": "METAR LIRF 060420Z 01004KT 7000 MIFG NSC 20/20 Q1016 TEMPO 3000 BCFG",
    "EINN": "METAR EINN 060430Z 28002KT 8000 SCT003 BKN200 14/13 Q1020 NOSIG",
    "EGLL": "METAR EGLL 060420Z AUTO 23007KT 200V260 9999 NCD 17/14 Q1020",
    "EGSS": "METAR EGSS 060420Z AUTO 25006KT 9999 NCD 17/16 Q1019",
    "EPWA": "METAR EPWA 060430Z 27011KT CAVOK 14/10 Q1012 NOSIG",
    "UHPP": "METAR UHPP 060430Z 17008MPS 9999 FEW026 13/07 Q1017 R16R/CLRD62 NOSIG RMK MT OBSC QFE760/1013",
    "EFHK": "METAR EFHK 060420Z 27005KT 9999 -RADZ SCT004 14/14 Q0995 TEMPO 5000 BKN004 FEW020CB",
    "LBBG": "METAR LBBG 060430Z AUTO 23007KT 9999 NCD 18/14 Q1014 NOSIG",
    "LTAC": "METAR LTAC 060420Z 05009KT 9999 FEW040 SCT100 17/11 Q1015 NOSIG",
    "UBBB": "METAR UBBB 060430Z 34010KT 300V360 CAVOK 27/20 Q1010 NOSIG",
    "UTAA": "METAR UTAA 060500Z 31012KT 9999 NSC 33/12 Q1008 R88/CLRD70 NOSIG",
    "UACC": "METAR UACC 060430Z VRB01MPS 9999 SCT046 25/15 Q1011 NOSIG RMK QFE727/0969",
    "UAAA": "METAR UAAA 060430Z 02003MPS 340V070 9999 SCT200 28/11 Q1009 NOSIG",
    "UZTT": "METAR UZTT 060430Z 34006KT 280V050 CAVOK 31/11 Q1008 NOSIG",
    "ZWWW": "METAR ZWWW 060430Z VRB01MPS CAVOK 26/14 Q1012 NOSIG",
    "ZLXY": "METAR ZLXY 060500Z VRB01MPS CAVOK 36/20 Q0999 NOSIG",
    "ZBAA": "METAR ZBAA 060430Z 16002MPS 090V200 9999 FEW050CB 31/20 Q0998 NOSIG",
    "ZBHH": "METAR ZBHH 060500Z 21005MPS 9999 -TSRA SCT040 FEW040CB 25/14 Q1004 BECMG TL0600 NSW",
    "ZSQD": "METAR ZSQD 060500Z 25004MPS 190V290 9999 SCT040 32/21 Q1000 NOSIG",
    "ZMCK": "METAR ZMCK 060430Z 21003MPS 160V250 9999 FEW030CB SCT033 24/11 Q1011 NOSIG RMK QFE643.3 45 MOP",
    "UUEE": "METAR UUEE 060430Z 23005MPS 9999 BKN009 15/13 Q1001 R24L/CLRD62 R24C/CLRD62 NOSIG",
    "UUDD": "METAR UUDD 060430Z 23006MPS 9999 BKN010 15/14 Q1002 R13R/190053 NOSIG",
    "ULLI": "METAR ULLI 060430Z 05002MPS 010V090 9999 FEW006 SCT019CB BKN033 14/13 Q0994 R88/290050 NOSIG RMK OBST OBSC",
    "USSS": "METAR USSS 060430Z VRB01MPS CAVOK 27/19 Q1011 R26R/CLRD60 R26L/CLRD60 NOSIG RMK QFE738/0984",
    "UNNT": "METAR UNNT 060430Z 32003MPS 9999 FEW030 27/18 Q1009 R25/CLRD// R34/////// NOSIG RMK QFE747/0996",
    "UNKL": "METAR UNKL 060430Z 31003MPS 9999 -SHRA SCT007 BKN021CB 19/19 Q1002 R29/290250 NOSIG RMK QFE726",
    "UIBB": "METAR UIBB 060430Z 17003MPS 120V210 9999 NSC 27/18 Q1003 R12/CLRD62 NOSIG RMK QFE710/0946",
    "UEEE": "METAR UEEE 060430Z 15004MPS CAVOK 26/04 Q1011 R23/09//63 NOSIG RMK QFE750",
    "UHHH": "SPECI UHHH 060417Z 04005MPS 3400 -SHRA BR BKN003 BKN020CB 20/20 Q1010 R88/290045 NOSIG RMK QBB100 QFE751/1002",
    "UHSS": "METAR UHSS 060430Z 32003MPS 9999 NSC 23/16 Q1014 R01/CLRD70 NOSIG RMK QFE759/1013"
  },
  "taf": {
    "RJAA": "TAF RJAA 060505Z 0606/0712 08008KT 9999 -RA FEW012 BKN020 BECMG 0607/0609 02008KT TEMPO 0612/0618 4000 -RA BR FEW003 BKN005 TEMPO 0618/0621 FEW003 BKN005 TEMPO 0621/0700 FEW005 BKN008",
    "PANC": "TAF PANC 060540Z 0606/0712 17011KT P6SM BKN100 FM060900 17006KT P6SM BKN070 FM062000 26006KT P6SM FEW050 BKN100",
    "PAFA": "TAF PAFA 060530Z 0606/0712 04005KT P6SM FEW060 SCT120 SCT250 FM062300 06006KT P6SM VCSH BKN050 BKN100 PROB30 0700/0704 VRB10G20KT 6SM -TSRA OVC050CB FM070600 04005KT P6SM VCSH SCT060 SCT120 BKN200",
    "PAED": "TAF AMD PAED 060525Z 0605/0711 VRB06KT 9999 SCT045 BKN120 BKN200 QNH2990INS BECMG 0705/0706 25009KT 9999 -SHRA FEW040 SCT055 BKN080 OVC100 620802 QNH2981INS TX18/0701Z TN10/0613Z",
    "KSEA": "TAF KSEA 060520Z 0606/0712 36009KT P6SM FEW060 FM061200 03006KT P6SM SCT035 SCT060 FM061800 35009KT P6SM FEW250 FM070500 03005KT P6SM FEW250 FM070900 26003KT P6SM FEW050",
    "ZSPD": "TAF ZSPD 060301Z 0606/0712 17004MPS 6000 BKN020 TX34/0606Z TX33/0706Z TN26/0621Z",
    "ZSSS": "TAF ZSSS 060302Z 0606/0712 18004MPS 6000 BKN030 TX34/0606Z TX33/0706Z TN26/0621Z",
    "RJFR": "TAF RJFR 060505Z 0606/0712 12006KT 9000 -SHRA FEW008 SCT012 BKN015 TEMPO 0618/0712 BKN005 BKN007 BECMG 0709/0712 07004KT",
    "VHHH": "TAF AMD VHHH 060535Z 0606/0712 19015KT 9999 FEW010 SCT025 TX33/0606Z TX32/0706Z TN27/0622Z TEMPO 0606/0609 19022G35KT 3000 TSRA SHRA FEW008CB SCT020 TEMPO 0621/0703 19020G30KT 1500 TSRA +SHRA FEW008CB SCT020 TEMPO 0703/0706 19015G25KT 2000 TSRA SHRA FEW008CB SCT020",
    "RCTP": "TAF RCTP 060500Z 0606/0712 23007KT 9999 FEW015 BKN032 TEMPO 0606/0610 26013KT 5000 SHRA FEW012 FEW015TCU BKN025 TEMPO 0620/0624 18010KT",
    "ZGSZ": "TAF ZGSZ 060310Z 0606/0712 17007MPS 8000 BKN030 TX32/0606Z TX31/0706Z TN27/0622Z TEMPO 0606/0610 SHRA FEW020CB BKN030 TEMPO 0620/0624 SHRA FEW020CB BKN030 TEMPO 0703/0707 +TSRA SCT015 FEW020CB BKN030",
    "WSSS": "TAF WSSS 060500Z 0606/0712 12008KT 9999 FEW015 SCT020",
    "WMKK": "TAF WMKK 060500Z 0606/0712 VRB03KT 9999 FEW018 PROB30 TEMPO 0607/0611 5000 TSRA FEW017CB SCT018",
    "VTBS": "TAF VTBS 060500Z 0606/0712 20008KT 9999 FEW020 TEMPO 0610/0614 VRB15KT 4000 TSRA FEW018CB SCT030 BKN080 TEMPO 0708/0712 VRB15KT 4000 TSRA FEW018CB SCT030 BKN080",
    "VTBU": "TAF VTBU 060500Z 0606/0706 19010KT 9000 FEW020 SCT100",
    "ROAH": "TAF ROAH 060505Z 0606/0712 23006KT 9999 FEW015 BECMG 0700/0703 32010KT BECMG 0709/0712 05008KT",
    "VVDN": "TAF VVDN 060500Z 0606/0706 23013KT 9999 SCT020 SCT070 BECMG 0612/0613 23003KT",
    "RCKH": "TAF RCKH 060500Z 0606/0712 17007KT 9999 FEW015 TEMPO 0606/0610 20012KT BECMG 0700/0702 21010KT",
    "KLAX": "TAF KLAX 060542Z 0606/0712 26010KT P6SM FEW010 FM061100 VRB03KT P6SM BKN008 FM061700 26006KT P6SM SKC FM062100 26012KT P6SM SKC FM070900 VRB03KT P6SM FEW010",
    "KONT": "TAF KONT 060520Z 0606/0712 25012KT P6SM FEW250 FM060700 25006KT P6SM FEW250 FM061300 VRB03KT 4SM HZ BKN250 FM062000 25014KT P6SM FEW250 FM070400 25006KT P6SM SKC FM071000 VRB04KT P6SM FEW010",
    "KSFO": "TAF KSFO 060520Z 0606/0712 26010KT P6SM BKN012 FM060800 25005KT P6SM BKN008 FM061800 29015KT P6SM FEW012 FM070200 27016KT P6SM BKN015",
    "KOAK": "TAF KOAK 060520Z 0606/0712 28010KT P6SM BKN008 FM061600 28010KT P6SM BKN015 FM062100 29015KT P6SM SKC FM070300 28017KT P6SM BKN012",
    "KMHR": "TAF KMHR 060520Z 0606/0706 20007KT P6SM FEW250 FM061200 VRB05KT P6SM SKC FM062300 20007KT P6SM SKC",
    "KDFW": "TAF KDFW 060520Z 0606/0712 18008KT P6SM BKN250 FM062100 19007KT P6SM VCTS SCT060CB FM070000 15006KT P6SM FEW060",
    "KIAH": "TAF KIAH 060522Z 0606/0712 VRB03KT P6SM FEW030 FM061800 16008KT P6SM SCT030 BKN250",
    "KORD": "TAF KORD 060520Z 0606/0712 02007KT P6SM SCT025 SCT100 FM061400 03012KT P6SM SCT040 FM070300 35005KT P6SM FEW040 FEW250",
    "KJFK": "TAF KJFK 060538Z 0606/0712 09007KT 3SM SHRA BR SCT007 OVC015 TEMPO 0606/0608 2SM TSRA BKN006CB FM060800 08011KT 3SM SHRA BR OVC006 FM061400 06012G18KT 2SM SHRA BR OVC006 FM061800 05013G19KT 2SM SHRA BR OVC005 PROB30 0618/0624 1SM +TSRA BKN004CB FM070100 06014KT 2SM SHRA BR OVC004 FM070500 06010KT 3SM -SHRA BR OVC003",
    "KRFD": "TAF KRFD 060520Z 0606/0706 VRB05KT P6SM FEW025 FM061200 05010KT P6SM SCT040 FM070100 VRB05KT P6SM SKC",
    "KIND": "TAF KIND 060520Z 0606/0712 33006KT P6SM SCT035 SCT250 FM060900 35005KT P6SM BKN010 OVC035 TEMPO 0609/0613 5SM BR SCT004 OVC006 FM061400 36010KT P6SM SCT010 BKN020 FM062000 36009KT P6SM VCSH SCT025 BKN050 FM070200 02008KT P6SM FEW035 SCT080",
    "KDTW": "TAF KDTW 060520Z 0606/0712 03007KT 6SM BR BKN025 BKN100 PROB30 0606/0612 3SM -SHRA BR OVC020 FM061300 06009KT P6SM BKN030 BKN150 FM061700 05010KT P6SM SCT050 BKN150 FM070000 04005KT P6SM SKC",
    "KMSP": "TAF KMSP 060520Z 0606/0712 12006KT P6SM SKC FM061200 16005KT P6SM FEW250 FM061800 18008KT P6SM FEW050 SCT250 FM070300 17006KT P6SM SCT250",
    "CYEG": "TAF CYEG 060540Z 0606/0706 VRB03KT P6SM FEW100 FM061800 16010KT P6SM SCT040 FM070300 13006KT P6SM SKC RMK NXT FCST BY 060900Z",
    "EHAM": "TAF EHAM 060448Z 0606/0712 25008KT CAVOK BECMG 0607/0610 28012KT BECMG 0617/0620 25006KT BECMG 0704/0707 28012KT",
    "EBBR": "TAF EBBR 060500Z 0606/0712 25010KT CAVOK",
    "EDDF": "TAF EDDF 060500Z 0606/0712 22004KT 9999 FEW045 BECMG 0606/0609 24009KT PROB30 TEMPO 0607/0610 BKN045 TEMPO 0612/0618 25015G25KT BECMG 0622/0702 22004KT",
    "EDFH": "TAF EDFH 060500Z 0606/0706 27004KT 9999 FEW030 BECMG 0606/0608 27010KT TEMPO 0611/0618 27015G25KT",
    "EDDL": "TAF EDDL 060500Z 0606/0712 22007KT 9999 SCT040 BECMG 0606/0609 26012KT TEMPO 0611/0617 27015G25KT PROB30 TEMPO 0612/0616 26020G30KT BECMG 0618/0621 24007KT BECMG 0705/0708 26013KT",
    "EDDK": "TAF EDDK 060500Z 0606/0712 18004KT 9999 FEW040 BECMG 0607/0610 28012KT PROB30 TEMPO 0613/0617 28015G25KT BECMG 0618/0621 24006KT BECMG 0706/0710 27012KT",
    "EBLG": "TAF EBLG 060500Z 0606/0712 25010KT CAVOK",
    "LSZH": "TAF LSZH 060525Z 0606/0712 VRB02KT CAVOK TX30/0615Z TN18/0606Z TN16/0704Z BECMG 0610/0612 29010KT 9999 FEW070 BECMG 0615/0617 28005KT CAVOK BECMG 0709/0712 29010KT",
    "LIMC": "TAF LIMC 060500Z 0606/0712 VRB05KT CAVOK",
    "LIRF": "TAF LIRF 060500Z 0606/0712 VRB05KT CAVOK BECMG 0609/0611 26012KT BECMG 0618/0620 VRB05KT BECMG 0709/0711 25010KT",
    "EINN": "TAF EINN 060500Z 0606/0706 26006KT 9000 SCT005 PROB40 TEMPO 0606/0612 BKN010 PROB30 TEMPO 0606/0610 BKN005 PROB30 TEMPO 0700/0706 BKN012",
    "EGLL": "TAF EGLL 060453Z 0606/0712 24012KT CAVOK PROB30 TEMPO 0613/0618 25015G25KT PROB30 TEMPO 0704/0707 BKN006 BECMG 0709/0712 30008KT",
    "EGSS": "TAF EGSS 060454Z 0606/0712 24007KT CAVOK PROB30 TEMPO 0614/0617 25015G25KT",
    "EPWA": "TAF EPWA 060530Z 0606/0706 28010KT CAVOK TEMPO 0608/0706 29015G27KT PROB40 TEMPO 0622/0706 4000 RA BKN006 BKN020",
    "UHPP": "TAF UHPP 060434Z 0606/0712 18003G10MPS 9999 SCT030CB TEMPO 0606/0609 16008MPS TEMPO 0612/0621 0700 FG VV002",
    "EFHK": "TAF EFHK 060536Z 0606/0706 28010KT 9999 FEW006 BKN020 TEMPO 0606/0607 5000 -DZ BKN006 FEW020CB TEMPO 0607/0610 7000 SHRA BKN010 SCT020CB PROB30 0607/0610 4000 TSRA BKN008 SCT020CB BECMG 0610/0612 25015G25KT BECMG 0618/0620 22009KT TEMPO 0621/0703 SHRA SCT030CB",
    "LBBG": "TAF LBBG 060500Z 0606/0706 VRB04KT 9999 SCT045 BECMG 0608/0610 12012KT BECMG 0618/0620 VRB04KT",
    "LTAC": "TAF LTAC 060440Z 0606/0706 03009KT 9999 SCT040 SCT100 PROB30 TEMPO 0609/0613 -SHRA FEW025CB BKN030 BKN080 BECMG 0619/0622 CAVOK",
    "UBBB": "TAF UBBB 060454Z 0606/0706 32012KT 9999 SCT040 TX31/0609Z TN22/0701Z TEMPO 0606/0618 36016G26KT FEW040CB TEMPO 0618/0706 36016G26KT FEW012 FEW040CB",
    "UTAA": "TAF UTAA 060445Z 0606/0706 02016KT 6000 SCT050CB SCT050 TX40/0611Z TEMPO 0606/0612 32014G24KT 4000 DRDU BECMG 0616/0618 25012KT",
    "UACC": "TAF UACC 060500Z 0606/0706 36006MPS 9999 SCT030CB BKN100 TX27/0610Z TN15/0623Z TEMPO 0606/0616 VRB16MPS 3100 -TSRA SQ BKN030CB BECMG 0616/0618 VRB01MPS SCT030 TEMPO 0616/0702 SCT030CB TEMPO 0702/0706 02005MPS -TSRA BKN030CB",
    "UAAA": "TAF UAAA 060501Z 0606/0706 01003G08MPS 9999 FEW050CB SCT100 TX32/0610Z TN17/0700Z TEMPO 0606/0612 07005G10MPS BECMG 0612/0614 17003MPS TEMPO 0615/0703 23005MPS BECMG 0703/0704 34005MPS",
    "UZTT": "TAF UZTT 060500Z 0606/0706 08010KT CAVOK TX36/0610Z TN21/0700Z TEMPO 0606/0614 31015KT FEW060CB",
    "ZWWW": "TAF ZWWW 060303Z 0606/0712 02004MPS CAVOK TX31/0609Z TX34/0709Z TN26/0623Z BECMG 0615/0616 18004MPS BECMG 0700/0701 36004MPS TEMPO 0700/0703 9999 -SHRA BKN040",
    "ZLXY": "TAF ZLXY 060301Z 0606/0706 06003MPS 6000 NSC TX38/0608Z TN25/0621Z TEMPO 0609/0612 -TSRA FEW040CB BKN050",
    "ZBAA": "TAF ZBAA 060301Z 0606/0712 17004MPS CAVOK TX34/0606Z TX33/0706Z TN22/0621Z TEMPO 0609/0613 -TSRA FEW040CB BKN040 TEMPO 0709/0712 -TSRA FEW040CB BKN040",
    "ZBHH": "TAF AMD ZBHH 060446Z 0600/0624 23004MPS 9999 FEW040 TX29/0608Z TN14/0622Z TEMPO 0604/0608 VRB08G13MPS TSRA FEW040CB FEW040",
    "ZSQD": "TAF ZSQD 060304Z 0606/0706 18004MPS 5000 BR NSC TX32/0606Z TN24/0621Z TEMPO 0618/0622 TSRA BKN020 SCT030CB",
    "ZMCK": "TAF ZMCK 060448Z 0606/0712 34005MPS 9999 FEW030CB SCT033 TX25/0607Z TN13/0621Z BECMG 0609/0611 VRB02MPS BECMG 0614/0616 09005MPS BECMG 0700/0702 VRB02MPS",
    "UUEE": "TAF UUEE 060453Z 0606/0706 24006MPS 8000 FEW007 BKN016 TX22/0613Z TN13/0701Z TEMPO 0607/0618 21010G17MPS -TSRA BKN016CB BECMG 0618/0620 18003MPS TEMPO 0700/0705 BKN007 BECMG 0703/0705 24005MPS",
    "UUDD": "TAF UUDD 060454Z 0606/0712 22005MPS 9999 BKN010 TX23/0610Z TN13/0701Z BECMG 0607/0608 BKN016 TEMPO 0608/0618 22009G16MPS -TSRA BKN016CB TEMPO 0622/0705 BKN005 TEMPO 0708/0712 22008G15MPS",
    "ULLI": "TAF AMD ULLI 060501Z 0606/0706 09003MPS 6000 BKN010 TEMPO 0606/0609 23005G10MPS 3100 -TSRA BKN006 BKN016CB BECMG 0609/0610 26005G10MPS BKN016 TEMPO 0610/0613 3100 -TSRA BKN010 BKN017CB BECMG 0700/0703 23003G08MPS",
    "USSS": "TAF USSS 060440Z 0606/0706 17003G13MPS 9999 SCT040 FM061800 14003MPS 6000 SCT033 FM070400 16003G12MPS 9999 BKN030CB",
    "UNNT": "TAF UNNT 060500Z 0606/0706 28003G08MPS 9999 SCT040 TX29/0609Z TN18/0622Z TEMPO 0606/0618 33008G15MPS -TSRA BKN020CB TEMPO 0704/0706 36005G10MPS -TSRA BKN020CB",
    "UNKL": "TAF UNKL 060452Z 0606/0706 31003G08MPS 8000 -SHRA BKN008 BKN016CB TEMPO 0606/0609 36006G15MPS 2000 TSRA BKN004 BKN016CB BECMG 0609/0611 -TSRA BKN016CB BECMG 0612/0614 NSW TEMPO 0615/0624 -TSRA",
    "UIBB": "TAF UIBB 060500Z 0606/0706 16003G08MPS 9999 SCT050CB TEMPO 0606/0611 VRB08MPS BECMG 0611/0612 22005MPS TEMPO 0612/0706 VRB10MPS -TSRA",
    "UEEE": "TAF UEEE 060500Z 0606/0712 20003G08MPS 9999 SCT030CB TX28/0606Z TN13/0618Z TEMPO 0606/0609 VRB08MPS",
    "UHHH": "TAF UHHH 060446Z 0606/0712 04003MPS 5000 -SHRA BR BKN004 BKN020CB TX27/0706Z TN15/0618Z TEMPO 0606/0615 05008MPS 2500 -SHRA BR BKN002 BKN020CB BECMG 0621/0624 9999 NSW FEW010 BKN016CB",
    "UHSS": "TAF UHSS 060444Z 0606/0712 36003MPS 9999 SCT030CB BECMG 0607/0608 18003MPS BECMG 0610/0612 BKN004 BECMG 0617/0619 6000 -SHRA BKN016CB"
  },
  "atis": {
    "RJAA": "[Arrival ATIS] RJAA ARR ATIS B 0442Z M0430 (APCH)ILS Z RWY16R/ILS Z RWY16L LDG RWY 16R/16L DEP RWY 16R DEP FREQ 124.2. TWY A1 CLSD. SIMUL PARL APCHS INPR. M 190430Z 16011KT 25KM FEW020CU BKN/// 27/21 Q1010/A2984= Q/TWO NINE EIGHT FOUR STP\n[Departure ATIS] RJAA DEP ATIS B 0438Z M0430 (APCH)ILS Z RWY16R/ILS Z RWY16L LDG RWY 16R/16L DEP RWY 16R DEP FREQ 124.2. TWY A1 CLSD. SIMUL PARL APCHS INPR. M 190430Z 16011KT 25KM FEW020CU BKN/// 27/21 Q1010/A2984= Q/TWO NINE EIGHT FOUR STP",
    "PANC": "[Arrival ATIS] PANC ARR ATIS R 0453Z ANC ATIS INFO R 0453Z. 15008KT 10SM BKN110 16/07 A2994 (TWO NINER NINER FOUR). ILS RWY 15 APPROACHES IN USE. LANDING RWY 15, DEPARTING RWY 25L. NOTICE TO AIRMEN. TWY Q CLSD. TWY R CLSD BTWN TWY, S AND TWY U . TWY E CLSD BTWN TWY, L AND TWY M . RWY 15 PAPI OTS. TWY K BTWN A AND D RESTRICTED TO AIRCRAFT WITH WINGSPAN LESS THAN 118 FEET. HAZD WX INFO FOR ANC AREA AVBL FM FSS. CONTACT TOWER 118.3 FOR TAXI. ...ADVS YOU HAVE INFO R.\n[Departure ATIS] PANC DEP ATIS H 1953Z ANC ATIS INFO H 1953Z. VRB03KT 10SM FEW080 SCT110 14/07 A2994 (TWO NINER NINER FOUR). 7R, 7L APPROACHES IN USE. LANDING RWY 7R, 7L, DEPARTING RWY 33. NOTICE TO AIRMEN. TWY Q CLSD. TWY R CLSD BTWN TWY, S AND TWY U . TWY E CLSD BTWN TWY, L AND TWY M . RWY 15 PAPI OTS. TWY K BTWN A AND D RESTRICTED TO AIRCRAFT WITH WINGSPAN LESS THAN 118 FEET. HAZD WX INFO FOR ANC AREA AVBL FM FSS. CONTACT TOWER 118.3 FOR TAXI. ...ADVS YOU HAVE INFO H.",
    "KSEA": "[Arrival ATIS] KSEA ARR ATIS G 0453Z - KSEA ATIS INFO G 0453Z. 33007KT 10SM FEW250 18/09 A3004 (THREE ZERO ZERO FOUR). ILS AND CHARTED VISUAL APPROACH RWYS 34L AND 34R , APCH IN USE. DEPG RWY 34R, DEPG ACFT\n[Departure ATIS] KSEA DEP ATIS D 0153Z SEA ATIS INFO D 0153Z. 30010KT 10SM CLR 23/07 A3005 (THREE ZERO ZERO FIVE). ILS AND CHARTED VISUAL APPROACH RWYS 34L AND 34R , APCH IN USE. DEPG RWY 34R, DEPG ACFT PLAN AND BRIEF NUMBERS FOR BOTH RWYS 34R AND 34C. SIMUL ARRIVALS TO RWY 34L AND DEPARTURES TO RWY 34R ARE IN USE. SIMUL APCHS IN USE TO PARA RYS. NOTAMS... BIRD ACTIVITY VICINITY ARPT. ...ADVS YOU HAVE INFO D.",
    "ZSPD": "[Arrival ATIS] ZSPD ARR ATIS I 0430Z EXP ILS APCH INDEPENDENT PARL INSTR APCH LDG RWY 17R & 16L WIND RWY 17R TDZ 210/7MPS MID 200/6MPS END 180/8MPS RWY 16L TDZ 210/8MPS MID 210/6MPS END 190/8MPS CAVOK T 30 /DP 24 QNH 1002 HPA CAUTION THE BIRDS NEAR THE RUNWAY ADZ YOU HAVE INFO I.\n[Departure ATIS] ZSPD DEP ATIS I 0430Z DEP RWY 17L & 16R WIND RWY 17L TDZ 210/7MPS MID 190/7MPS END 190/7MPS RWY 16R TDZ 210/8MPS MID 210/9MPS VRB BTN 180/ AND 240/ END 190/8MPS CAVOK T 30 /DP 24 QNH 1002 HPA CAUTION THE BIRDS NEAR THE RUNWAY ADZ YOU HAVE INFO I.",
    "ZSSS": "[Arrival ATIS] ZSSS ARR ATIS R 0430Z EXP ILS APCH LDG RWY 18L WIND RWY 18L TDZ 200/8MPS MID 200/6MPS END 200/6MPS CAVOK T 31 /DP 24 QNH 1002 HPA RWY18L RWYCC 5/5/5 ISSUED AT 0320 WET/WET/WET DPT NR/NR/NR COV 50PCT/50PCT/50PCT RWY18R RWYCC 5/5/5 ISSUED AT 0320 WET/WET/WET DPT NR/NR/NR COV 50PCT/50PCT/50PCT QNH OF SHANGHAI TERMINAL CONTROL AREA 1002 HPA ADZ YOU HAVE INFO R.\n[Departure ATIS] ZSSS DEP ATIS K 0130Z DEP RWY 18R WIND RWY 18R TDZ 180/5MPS MID 190/4MPS END 190/5MPS VIS RWY 18R TDZ 5000M MID 6000M END 5000M FBL RA BR CLD BKN 300M T 27 /DP 24 QNH 1004 HPA RWY18L RWYCC 5/5/5 ISSUED AT 0520 WET/WET/WET DPT NR/NR/NR COV 100PCT/100PCT/100PCT RWY18R RWYCC 5/5/5 ISSUED AT 0520 WET/WET/WET DPT NR/NR/NR COV 50PCT/50PCT/50PCT QNH OF SHANGHAI TERMINAL CONTROL AREA 1004 HPA ADZ YOU HAVE INFO K.",
    "VHHH": "[Arrival ATIS] VHHH ARR ATIS D 0405Z ARRIVALS, RWY 25R/L. EXP RNAV TRANSITION TO ILS APCH, RWY 25R. RNP APCH IS AVBL ON REQ, RWY 25R. EXP ILS APCH RWY 25L CAUTION POSSIBLE GP FLUCTUATION RWY 25L. SIG WS FCST RWY 25R/L. MOD TURB FCST RWY 25R/L. WIND RWY 25R 200/15KT RWY 25L 230/12KT. VIS RWY 25R 10KM RWY 25L 10KM. CLD FEW 1000FT SCT 2500FT. T31 DP25. QNH 1009HPA. ACK INFO D ON FIRST CTC WITH APP.\n[Departure ATIS] VHHH DEP ATIS S 0307Z DEPARTURES, RWY 25C/L. INDEPENDENT PARALLEL DEPARTURE IN PROGRESS. SIG WS FCST RWY 25C/L. MOD TURB FCST RWY 25C/L. WIND RWY 25C 210/15KT RWY 25L 200/12KT. VIS RWY 25C 10KM RWY 25L 10KM. CLD FEW 1000FT SCT 2000FT. T30 DP25. QNH 1009HPA. ACK INFO S ON FIRST CTC WITH DELIVERY .",
    "RCTP": "[Arrival ATIS] RCTP ARR ATIS S 0430Z EXP ILS APCH RWY23R FOR ARR. RWY23L FOR DEP. WIND 250/15KT VIS 10 KM OR MORE CLD FEW 2000FT SCT 20000FT T 33 DP 24 QNH 1010HPA NOSIG CTN BIRD ACTIVITY IN THE VCY OF THE AD. LOW LVL WS ADVISORY IN EFFECT. INFORM TAIPEI APCH OR TAIPEI TOWER ON INITIAL CONTACT YOU HAVE INFORMATION S\n[Departure ATIS] RCTP DEP ATIS R 0400Z EXP ILS APCH RWY23R ARR/DEP. RWY23L CLSD BTN 0400Z AND 0430Z FOR INSPECTION. WIND 230/16KT VIS 10 KM OR MORE CLD FEW 2000FT SCT 20000FT T 33 DP 24 QNH 1010HPA NOSIG CTN BIRD ACTIVITY IN THE VCY OF THE AD. LOW LVL WS ADVISORY IN EFFECT. INFORM TAIPEI APCH OR TAIPEI TOWER ON INITIAL CONTACT YOU HAVE INFORMATION R",
    "ZGSZ": "[Arrival ATIS] ZGSZ ARR ATIS T 0433Z EXP ILS APCH 15 EXP ILS OR VIS APCH 16R WIND 170/7MPS VIS 9999M -SHRA CLD SCT 780M T 30 /DP 27 QNH 1008 HPA SUPPLEMENT INFO RESHRA INDEPENDENT PARALLEL DEPARTURES DEPENDENT PARALLEL APPROACHES V17,V18 AVAILABLE AFTER SULAS FLY HEADING 040 MISSED APPROACH ALTITUDE SETTING 1200METERS WHEN AIRBORNE CONTACT ZHUHAI APPROACH EXPECTED RNP ILS DME Z APPROACH ADZ YOU HAVE INFO T.\n[Departure ATIS] ZGSZ DEP ATIS R 0407Z DEP RWY 15 & 16L WIND 180/7MPS VIS 9999M SHRA CLD SCT 600M /FEW CB 990M /BKN 1500M T 29 /DP 27 QNH 1009 HPA INDEPENDENT PARALLEL DEPARTURES DEPENDENT PARALLEL APPROACHES V17,V18 AVAILABLE AFTER SULAS FLY HEADING 040 MISSED APPROACH ALTITUDE SETTING 1200METERS WHEN AIRBORNE CONTACT ZHUHAI APPROACH EXPECTED RNP ILS DME Z APPROACH RWY 15 16L 16R RWYCC 5/5/5 ISSUED AT 0130UTC WET/WET/WET DPT NR/NR/NR COV 100PCT/100PCT/100PCT ADZ YOU HAVE INFO R.",
    "WSSS": "[Arrival ATIS] WSSS ARR ATIS L 0430Z METREPORT 0430Z ILS APCHRWY 20R SIMUL INDEPENDENT ILS AND VISUAL APPROACHES ARE CONDUCTED ON RWY 20. TWY W 9 CLOSED, RWY 02C 20C RAPID EXIT TAXIWAY INDICATOR LIGHTS OFFTAXIING GUIDANCE LIGHTS ON ALL TAXIWAYS ARE ON, FOR LIGHTING INSPECTION, WIND 150/ 08KT VRB BTN100 AND180 VIS 10KM CLD FEW 1800FT FEW TCU 2000FT T30 DP25 QNH 1010HPA NOSIG ACK ATIS L\n[Departure ATIS] WSSS DEP ATIS A 2330Z METREPORT 2330Z RWY 20C SIMUL INDEPENDENT ILS AND VISUAL APPROACHES ARE CONDUCTED ON RWY 20. TWY W 9 CLOSED, RWY 02C 20C RAPID EXIT TAXIWAY INDICATOR LIGHTS OFFFOLLOW THE GREENS TRIAL IN PROGRESS. WHEN VACATING THE RWY, PILOTS TO ADHERE TO ATC VERBAL INSTRUCTIONS. WHEN ON TWY, PILOT TO ADHERE TO FOLLOW THE GREENS INSTRUCTIONS. WHEN APPROACHING [A] JUNCTION, KEEP [A] LOOKOUT FOR CONTINUOUS GREENS. [IF] [A] BREAK IN THE GREENS IS OBSERVED, STOP AND CLARIFY WITH ATC. WIND 140/ 02KT VIS 10KM CLD FEW TCU 1700FT T27 DP24 QNH 1011HPA NOSIG DEP,INITIAL CMB 3000FT ACK ATIS A",
    "WMKK": "[Arrival ATIS] WMKK ARR ATIS I 0434Z WMKK ARR INFO I. TIME 0430. INDEPENDENT PARALLEL APPROACHES FOR RWY 14 L AND 15 ARE IN PROGRESS. EXP RNAV / ILS APCH FOR RWY 14 LEFT. EXP RNAV / ILS APCH FOR RWY 15. WIND RWY 14L DIRECTION NOT AVBL SPEED NOT AVBL. WIND RWY 15 DIRECTION NOT AVBL SPEED NOT AVBL. VIS RWY 14L TDZ NOT AVBL. VIS RWY 15 TDZ NOT AVBL. CLD FEW CB 1700 FT, CLD SCT 1800 FT. T 31. DP 26. QNH 1010. NOSIG. AT FIRST CONTACT WITH LUMPUR RADAR, NOTIFY RCPT OF I\n[Departure ATIS] WMKK DEP ATIS O 0033Z WMKK DEP INFO O. TIME 0030. INDEPENDENT PARALLEL DEPARTURES FOR RWY 14 R AND 15 ARE IN PROGRESS. RWY 14 RIGHT. RWY 15. WIND RWY 14R DIRECTION NOT AVBL SPEED NOT AVBL. WIND RWY 15 DIRECTION NOT AVBL SPEED NOT AVBL. VIS RWY 14R TDZ NOT AVBL. VIS RWY 15 TDZ NOT AVBL. CLD FEW CB 1700 FT. T 28. DP 25. QNH 1010. NOSIG. ALL DEP ACFT TO CONTACT LUMPUR DEP AT 135 DECIMAL 25 MHZ WHEN ABN. AT FIRST CONTACT WITH LUMPUR GROUND, NOTIFY RCPT OF O",
    "VTBS": "[Arrival ATIS] VTBS ARR ATIS E 0430Z VTBS ARR ATIS E 0432Z SIMULTANEOUS INDEPENDENT PARL APCH IN PROGRESS EXP ILS Z APCH ARR RWY 19 OR RNP APCH RWY 20R 06181550 19 6/6/6 NR/NR/NR NR/NR/NR DRY/DRY/DRY 06181555 20R 6/6/6 NR/NR/NR NR/NR/NR DRY/DRY/DRY , , PILOT SHALL ADZ BKK APCH ON INITIAL CTC IF UNA TO CONDUCT RNP APCH DUE TO OPERATIONAL CONSTRAINT 0430Z WIND 270/9KT VRB BTN 260/ AND 340/ VIS 10KM RVR RWY 19 ABV 2000M CLD FEW 2000FT T32 DP22 QNH 1010HPA TREND NOSIG ADZ BKK APCH ON INITIAL CONTACT THAT YOU HAVE INFO E\n[Departure ATIS] VTBS DEP ATIS O 0400Z VTBS DEP ATIS O 0403Z DEP RWY 20L 06181555 20L 6/6/6 NR/NR/NR NR/NR/NR DRY/DRY/DRY , ,AFT AIRBORNE ALL DEPARTING ACFT SHALL CTC 119.25 0400Z WIND 330/8KT VRB BTN 240/ AND 360/ VIS 10KM RVR RWY 20L ABV 2000M CLD FEW 2000FT T32 DP22 QNH 1010HPA TREND NOSIG ADZ GND WHEN INITIAL CONTACT YOU HAVE INFO O",
    "VTBU": "[Arrival ATIS] VTBU ARR ATIS U 0430Z VTBU ARR ATIS U 0430Z RNP RWY 18 TRL FL130 MOBILE ACFT ARST SYSTEM INSTL ATP SIX HUNDRED AND TEN METERS FM THR RWY 36 CABLE HGT 3 INCHES. 0430Z WIND 360/6KT VRB BTN 320/ AND 020/ VIS 10KM CLD FEW 2000FT T34 DP27 QNH 1010HPA TREND NOSIG ADZ CONTROLLER WHEN INITIAL CONTACT YOU HAVE INFO U\n[Departure ATIS] VTBU DEP ATIS D VTBU ARR/DEP DATIS RPT VTBU ARR ATIS D 0330Z ILS \"Z\" APCH RWY 18 TRL FL130 0330Z WIND 110/4KT VRB BTN 350/ AND 120/ VIS 6KM CLD FEW 2000FT T31 DP27 QNH 1014HPA TREND NOSIG ADZ CONTROLLER WHEN INITIAL CONTACT YOU HAVE INFO D",
    "ROAH": "[Arrival ATIS] ROAH ARR ATIS I 0526Z M0500 (APCH)RNP RWY18R LDG RWY 18R DEP RWY 18L DEP FREQ 126.5 258.3 M 060500Z 24007KT 60KM FEW015CU 31/27 Q1011/A2987= Q/TWO NINE EIGHT SEVEN STP\n[Departure ATIS] ROAH DEP ATIS J 0338Z M0330 (APCH)RNP RWY18R LDG RWY 18R DEP RWY 18L DEP FREQ 126.5 258.3 M 190330Z 18011KT 40KM FEW010CU BKN/// 29/26 Q1012/A2989= Q/TWO NINE EIGHT NINE STP",
    "VVDN": "[Arrival ATIS] VVDN ARR ATIS N 0532Z VVDN INFO N 0532Z. ILS VICTOR APPROACH 35L.. DPTG RWY 35R.. 0532Z. WIND 230/12KT CAVOK T33 DP22 QNH 1006HPA TREND NOSIG. ADZ ON INITIAL CTC YOU HAVE INFO. N.\n[Departure ATIS] VVDN DEP ATIS Q 1502Z VVDN INFO Q 1502Z. ILS VICTOR APPROACH 35L.. DPTG RWY 35R.. 1502Z. WIND 260/02KT CAVOK T28 DP23 QNH 1008HPA TREND NOSIG. ADZ ON INITIAL CTC YOU HAVE INFO. Q.",
    "RCKH": "[Arrival ATIS] RCKH ARR ATIS D 0430Z EXPECT ILS APPROACH RWY 09 ARR/DEP TAXIWAY BRAVO, TAXIWAY DELTA AND TAXIWAY ECHO CLOSED DUE MAINTENANCE. RUNWAY 0 9 ARRIVALS PLAN VACATE VIA CHARLIE OR FOXTROT AND EXPEDITE VACATE. WIND 200/08KT VARYING BTN 150 AND 230 VIS 10 KM OR MORE CLD FEW 1500FT SCT 3000FT T 32 DP 25 QNH 1011HPA NOSIG CAUTION BIRD ACTIVITY IN VICINITY OF THE AERODROME. INFORM KAO-HSIUN APCH OR KAO-HSIUN TOWER ON INITIAL CONTACT YOU HAVE INFORMATION D\n[Departure ATIS] RCKH DEP ATIS U 0400Z EXPECT ILS APPROACH RWY 27 ARR/DEP TAXIWAY JULIETT, TAXIWAY BRAVO, TAXIWAY DELTA AND TAXIWAY ECHO CLOSED DUE MAINTENANCE. RUNWAY 27 ARRIVALS PLAN VACATE VIA CHARLIE OR",
    "KLAX": "[Arrival ATIS] KLAX ARR ATIS N 0553Z LAX ATIS INFO N 0553Z. 23008KT 10SM FEW011 18/16 A2994 (TWO NINER NINER FOUR) RMK AO2 SLP135 T01830161 10228 20183 51005. INST APCHS AND RNAV RNP APCHS RY 24R AND 25L, OR VCTR FOR VISUAL APCH WILL BE PROVIDED, SIMUL VISUAL APCHS TO ALL RWYS ARE IN PROG, SIMUL INSTR DEPARTURES IN PROG RWYS 24 AND 25. CTC L A GC ON 121.75 FOR PUSH OR TAXI ON A. TWY B CLSD BTN TWY, C10 AND TWY C7 , , TWY B6 CLSD, TWY B7 CLSD, TWY C CLSD BTN TWY, C1 AND TWY C3, TWY C1 CLSD, TWY C9 CLSD BTN TWY, B AND TWY C, TWY C8 CLSD BTN TWY, B AND TWY C. RY 25R SFL OTS, RY 24L ALSF-2 OTS. LAX VOR UNMONITORED. USE CAUTION FOR INCREASED DRONE ACTIVIY IN THE VICINITY OF SOFI STADIUM AT OR BELOW 200FT AGL DURING THE WORLD CUP FROM JUNE TWELFTH TWENTY TWENTY SIX THROUGH JULY TENTH TWENTY TWENTY SIX. HAZD WX INFO FOR LAX AREA AVBL FM FSS. BIRD ACTIVITY VICINITY ARPT. INCLUDE YOUR CALL SIGN IN ALL READBACKS. USE CAUTION WHEN EXITING RY24R AT TWY V, W, AND Y, TO HOLD SHORT OF RY24L. MULTIPLE RUNWAY INCURSIONS HAVE OCCURRED. ...ADVS YOU HAVE INFO N.\n[Departure ATIS] KLAX DEP ATIS X 0153Z LAX ATIS INFO X 0153Z. 25014KT 10SM FEW013 19/14 A2995 (TWO NINER NINER FIVE) RMK AO2 SLP139 T01890144. INST APCHS AND RNAV RNP APCHS RY 24R AND 25L, OR VCTR FOR VISUAL APCH WILL BE PROVIDED, SIMUL VISUAL APCHS TO ALL RWYS ARE IN PROG. CTC L A GC ON 121.75 FOR PUSH OR TAXI ON A. TWY C CLSD BTN TWY, C8 AND TWY C9 , , TWY B CLSD BTN TWY, F AND TWY B1, TWY B1 CLSD. ILS RY 25R OTS, RY 25R SFL OTS, RY 24L ALSF-2 OTS. LAX VOR UNMONITORED. IF ASSIGNED RUNWAY 25R FOR DEPARTURE, EXPECT DEPARTURE FROM INTERSECTION FOXTROT. TAXILANE CHARLIE EIGHT RESTRICTED TO AIRCRAFT WITH A WINGSPAN LESS THAN ONE HUNDRED EIGHTEEN FEET. USE CAUTION FOR INCREASED DRONE ACTIVIY IN THE VICINITY OF SOFI STADIUM AT OR BELOW 200FT AGL DURING THE WORLD CUP FROM 06/12/26 THROUGH 07/10/2026. HAZD WX INFO FOR LAX AREA AVBL FM FSS. BIRD ACTIVITY VICINITY ARPT. INCLUDE YOUR CALL SIGN IN ALL READBACKS. USE CAUTION WHEN EXITING RY24R AT TWY V, W, AND Y, TO HOLD SHORT OF RY24L. MULTIPLE RUNWAY INCURSIONS HAVE OCCURRED. ...ADVS YOU HAVE INFO X.",
    "KONT": "[Arrival ATIS] KONT ARR ATIS C 0453Z ONT ATIS INFO C 0453Z. 25008KT 10SM FEW250 23/12 A2994 (TWO NINER NINER FOUR) RMK AO2 SLP123 T02330122. ILS AND VIS APR IN USE, RY26L & RY26R. LNDG AND DEPG RY 26L AND RY 26R. NOTAMS... TAXIWAY SIERRA FIVE CLOSED. TAXIWAY SIERRA CLOSED BETWEEN TAXIWAY SIERRA 8 AND TAXIWAY WHISKEY. RY 26L IM OTS, RY 26R ALS OTS. USE CAUTION FOR NUMEROUS BIRDS OBSERVED IN VICINITY OF ONT. PILOTS READBACK RWY ASSIGNMENTS AND HOLD SHORT INSTRUCTIONS. ...ADVS YOU HAVE INFO C.\n[Departure ATIS] KONT DEP ATIS N 0553Z - KONT ATIS INFO N 0553Z. 24004KT 10SM BKN250 22/15 A2988 (TWO NINER EIGHT EIGHT) RMK AO2 SLP100. ILS AND VIS APR IN USE, RY26L & RY26R. LNDG AND DEPG RY 26L AND RY 26R. NOTAMS... TAXIWAY SIERRA CLSD BETWEEN SIERRA 8 AND W TAXIWAY Q SOUTH OF RWY 26L CLSD TAXIWAY T CLSD TAXIWAY SIERRA 5 CLSD. RY 26L IM OTS, RY 26R ALS OTS. USE CAUTION FOR NUMEROUS BIRDS OBSERVED IN VICINITY OF ONT. HAZD WX INFO FOR SOUTHERN CA AVBL ON FSS FREQUENCIES. PILOTS READBACK RWY ASSIGNMENTS AND HOLD SHORT INSTRUCTIONS. ...ADVS YOU HAVE INFO N.",
    "KSFO": "[Arrival ATIS] KSFO ARR ATIS J 0456Z SFO ATIS INFO J 0456Z. 25012KT 10SM FEW005 SCT012 BKN180 14/12 A2998 (TWO NINER NINER EIGHT). SIMUL CLSLY SPCD DPNDNT ILS RY 28R AND ILS RY 28L APP IN USE. DEPG RWYS 28L, 28R. DEPG ACFT SHOULD BE PREPARED FOR A SHORT NOTICE RY CHANGE. RY 1L, 1R CLSD. NUMEROUS TWY CLOSURES FOR CONSTRUCTION ON THE FIELD, PILOTS CHECK NOTAMS. DEPG ACFT WAITING ON FINAL NUMBERS ADVISE GROUND PRIOR TO ENTERING TWY F. ...ADVS YOU HAVE INFO J.\n[Departure ATIS] KSFO DEP ATIS R 1456Z SFO ATIS INFO R 1456Z. 30006KT 10SM FEW006 OVC011 14/11 A3002 (THREE ZERO ZERO TWO). SIMUL CLSLY SPCD DPNDNT ILS RY 28R AND ILS RY 28L APP IN USE. DEPG RWYS 28L, 28R. GATE",
    "KOAK": "[Arrival ATIS] KOAK ARR ATIS M 0353Z - KOAK ATIS INFO M 0353Z. 25012KT 10SM FEW005 BKN010 15/12 A2999 (TWO NINER NINER NINER). RNAV, RWY 30. ILS, RWY 28R. FLOW TO LAX, LAS, SAN, SEA. ILS RWY 30, OTS, RWY 28R RAIL, OTS. UNN LIT CLOSE-IN OBSTACLES FOR RWY 30 DEPARTURES. RWY 30 DEPARTURES ARE ADVISED TO AVOID TURNING LEFT PRIOR TO DEPARTURE END OF RUNWAY. CTN, CRANE 1 POINT 6 NAUTICAL MILES, , AT 140 FEET AGL. CAUTION, BIRDS NEAR AIRPORT. ...ADVS YOU HAVE INFO M.\n[Departure ATIS] KOAK DEP ATIS O 1953Z OAK ATIS INFO O 1953Z. 28014KT 10SM FEW005 22/14 A2988 (TWO NINER EIGHT EIGHT). RNAV Z/VA RWY 30 ILS/VA RWY 28R. FLOW TO LAX, LAS, SAN. ILS RWY 30, OTS. UNN LIT CLOSE-IN OBSTACLES FOR RWY 30 DEPARTURES. RWY 30 DEPARTURES ARE ADVISED TO AVOID TURNING LEFT PRIOR TO DEPARTURE END OF RUNWAY. SIGNATURE UNI-COM OUT OF SERVICE. CAUTION, BIRDS NEAR AIRPORT. ...ADVS YOU HAVE INFO O.",
    "KDFW": "[Arrival ATIS] KDFW ARR ATIS V 2353Z DFW ARR INFO V 2353Z. 14009KT 10SM FEW065 FEW150 BKN250 32/19 A2987 (TWO NINER EIGHT SEVEN). SIMUL VISUAL APCH TO RWYS, 13R, 18R, 17C, 17L. LDG RWY 17C EXP LAHSO TWY B 10460 FT AVAIL, LDG RWY 18R EXP LAHSO TWY B 10100 FT AVL. NOTICE TO AIRMEN. WARNING, RWY 18L HAS BEEN SHORTENED, 9273 FT AVAILABLE. RWY 18L ILS OTS, CL OTS. HAZD WX FOR DFW AVBL ON FSS. BIRD ACTIVITY VCNTY ARPT. ...ADVS YOU HAVE INFO V.\n[Departure ATIS] KDFW DEP ATIS W 1553Z - KDFW DEP INFO W 1553Z. 21022G32KT 10SM FEW025 FEW180 SCT250 31/21 A2994 (TWO NINER NINER FOUR) RMK AO2 PK WND 20032/1547 SLP128 T03110206. SIMUL PARL TRAFFIC DEPG RWYS 17R, 18L. NOTICE TO AIRMEN. WARNING, RWY 18L HAS BEEN SHORTENED, 9273 FT AVAILABLE. RWY 18L CL OTS. BIRD ACTIVITY VCNTY ARPT. ...ADVS YOU HAVE INFO W.",
    "KIAH": "[Arrival ATIS] KIAH ARR ATIS V 0553Z IAH ATIS INFO V 0553Z. 20004KT 10SM FEW180 SCT250 27/24 A2996 (TWO NINER NINER SIX). ARRIVALS EXPECT ILS OR RNAV Y RY 8R, ILS OR RNAV Y RY 8L. DEPG RY 15R. NOTICE TO AIRMEN. UAL RAMP PROCEDURES TERMINATED PUSH BACK AT PILOTS DISCRETION. RY 15L, 33R CLSD. HAZD WX INFO FOR IAH AREA AVBL FM FSS. BIRD ACTIVITY VICINITY ARPT. CRANES ARE DOWN. TWY SA CLSD BTN TWY, SF AND TWY SK , TWY SB CLSD BTN TWY, SF AND TWY SK , , TWY WB CLSD BTN TWY, WG AND TWY WH . TWY EA CLSD. NOTAM ATIS IN USE ON FREQUENCY 126.225. ...ADVS YOU HAVE INFO V.\n[Departure ATIS] KIAH DEP ATIS T 0353Z IAH ATIS INFO T 0353Z. 15007KT 10SM FEW035 FEW180 BKN250 27/23 A2996 (TWO NINER NINER SIX). ARRIVALS EXPECT ILS OR RNAV Y RY 8R, ILS OR RNAV Y RY 8L. DEPG RY 15R. NOTICE TO AIRMEN. UNITED RAMP CONTROL IN EFFECT. RY 15L, 33R CLSD. HAZD WX INFO FOR IAH AREA AVBL FM FSS. BIRD ACTIVITY VICINITY ARPT. CRANES ARE DOWN. TWY SA CLSD BTN TWY, SF AND TWY SK , TWY SB CLSD BTN TWY, SF AND TWY SK , , TWY WB CLSD BTN TWY, WG AND TWY WH . TWY EA CLSD. NOTAM ATIS IN USE ON FREQUENCY 126.225. ...ADVS YOU HAVE INFO T.",
    "KORD": "[Arrival ATIS] KORD ARR ATIS Z 0551Z ORD ATIS INFO Z 0551Z. 02009KT 10SM SCT110 BKN250 20/18 A3000 (THREE ZERO ZERO ZERO) RMK AO2 SLP156 T02000183 10228 20194 402440189 50003. ARR EXP VECTORS ILS RWY 9C APCH. LAND AND HOLD SHORT OPERATIONS ARE IN EFFECT. RWY 9C ARR PLAN TO H/S OF TWY T T, 8 THSD 8 HND THIRTY FT AVBL. DEPS EXP RWYS 9R FROM S S 9870 FT AVL. RWY 4L, 22R CLSD, RWY 4R, 22L CLSD, RWY 9L, 27R CLSD, RWY 10C, 28C CLSD, RWY 10R, 28L CLSD. RWY 22R LOC OTS, RWY 28L GS OTS, RWY 9L IM OTS, RWY 9C IM OTS, RWY 10L IM OTS, RWY 10R IM OTS, RWY 27R IM OTS, RWY 28L IM OTS, RWY 28R IM OTS, RWY 9L PAPI OTS, RWY 27R PAPI OTS. PILOTS USE CTN FOR BIRD ACTIVITY IN THE VICINITY OF THE ARPT. USE CTN FOR PERSONNEL AND EQUIP AT NUMEROUS SITES ON THE FIELD. READBACK ALL RWY HOLD SHORT INSTRUCTIONS. FOR CD GND METERING AND GC CONTACT ORD ON FREQ 121.9. ...ADVS YOU HAVE INFO Z.\n[Departure ATIS] KORD DEP ATIS S 0221Z ORD ATIS INFO S 0221Z SPECIAL. 03008KT 10SM SCT026 SCT250 21/17 A2999 (TWO NINER NINER NINER) RMK AO2 T02110172. ARR EXP VECTORS ILS RWY 10C APCH. DEPS EXP RWYS 9C FROM F F 9200 FT AVL, 10L FROM DD. 10,093 FT AVBL. ATTN PILOTS. SIMUL PARL DEPS IN USE. EXP TO INITIALLY FLY RWY. HDG ON DEP. PILOTS MUST READ BACK DRCTN OF TURNS BY ATC. RWY 4L, 22R CLSD. RWY 22L ILS OTS, RWY 22R LOC OTS, RWY 28L GS OTS, RWY 9L IM OTS, RWY 9C IM OTS, RWY 10L IM OTS, RWY 10R IM OTS, RWY 27R IM OTS, RWY 28L IM OTS, RWY 28R IM OTS, RWY 9L PAPI OTS, RWY 27R PAPI OTS. PILOTS USE CTN FOR BIRD ACTIVITY IN THE VICINITY OF THE ARPT. USE CTN FOR PERSONNEL AND EQUIP AT NUMEROUS SITES ON THE FIELD. READBACK ALL RWY HOLD SHORT INSTRUCTIONS. WHEN READY TO TAXI CONTACT GND METERING ON FREQ 121.67. ...ADVS YOU HAVE INFO S.",
    "KJFK": "[Arrival ATIS] KJFK ARR ATIS P 0451Z - KJFK ATIS INFO P 0451Z. 09006KT 10SM -RA SCT007 BKN100 OVC120 22/21 A3003 (THREE ZERO ZERO THREE) RMK AO2 PRESRR SLP168 P0054 T02170211 403000217. APPROACH IN USE ILS RY 22L, ILS RY 22R. DEPG RY 22R. CRI OTS. RWY 22L/4R INNER MARKER OTS. HAZD WX INFO FOR NY METRO AREA AVBL ON FSS. SWAP IN EFFECT EXPECT REROUTES. NUM CRANES OPERATING AT JFK. BIRD ACTIVITY VICINITY ARPT. READBACK ALL RWY ASSIGNMENTS AND HOLD SHORT INSTRUCTIONS. ...ADVS YOU HAVE INFO P.\n[Departure ATIS] KJFK DEP ATIS N 0411Z JFK ATIS INFO N 0411Z SPECIAL. 09014KT 5SM -RA BR FEW008 BKN025 OVC110 22/21 A2999 (TWO NINER NINER NINER). APPROACH IN USE ILS RY 22L, ILS RY 22R. DEPG RY 22R. CRI OTS. RWY 22L/4R INNER MARKER OTS. HAZD WX INFO FOR NY METRO AREA AVBL ON FSS. SWAP IN EFFECT EXPECT REROUTES. NUM CRANES OPERATING AT JFK. BIRD ACTIVITY VICINITY ARPT. READBACK ALL RWY ASSIGNMENTS AND HOLD SHORT INSTRUCTIONS. ...ADVS YOU HAVE INFO N.",
    "KIND": "[Arrival ATIS] KIND ARR ATIS O 2054Z IND ATIS INFO O 2054Z. 29008KT 270V330 10SM BKN032 BKN050 BKN250 29/21 A2992 (TWO NINER NINER TWO). PARL ILS RWY 23R AND 23L APPROACHES IN USE. CROSS RUNWAY OPERATIONS MAY BE IN EFFECT. NOTICE TO AIRMEN. RWY 32 GS OTS. TWY, P BTN TWY, H AND TWY B CLSD. P PAD CLSD. ILS RUNWAY 5R AND RUNWAY 5L INNER MARKER UNSERVICEABLE. RUNWAY 32 PAPI OTS. RUNWAY 32 TOUCHDOWN RVR OTS. RUNWAY 14 ROLLOUT RVR OTS. HIWAS. ...ADVS YOU HAVE INFO O.\n[Departure ATIS] KIND DEP ATIS H 1854Z IND ATIS INFO H 1854Z. 26009G19KT 10SM SCT036 BKN041 BKN170 23/16 A2981 (TWO NINER EIGHT ONE) RMK AO2 SLP088 T02280156. PARL ILS RWY 23R AND 23L APPROACHES IN USE. CROSS RU",
    "KDTW": "[Arrival ATIS] KDTW ARR ATIS E 1453Z DTW ARR INFO E 1453Z. 25020G29KT 10SM FEW030 SCT035 OVC060 20/13 A2951 (TWO NINER FIVE ONE) RMK AO2 PK WND 26029/1450 SLP989 T02000133 51023. SIMUL ILS Z RY 22R AND RY 21L APCH IN USE. NOTICE TO AIRMEN. RWY 22L, 4R CLSD, RWY 27R, 9L CLSD. PILOTS USE CTN FOR BIRD ACTIVITY. DEPARTURE ATIS 118.125. WARNING, RUNWAY TWO SEVEN LEFT HAS BEEN SHORTENED, SIX THOUSAND SEVEN HUNDRED EIGHTY-SEVEN FEET AVAILABLE. ...ADVS YOU HAVE INFO E.\n[Departure ATIS] KDTW DEP ATIS Q 2253Z - KDTW DEP INFO Q 2253Z. 21009KT 10SM FEW050 FEW250 33/24 A2991 (TWO NINER NINER ONE). DEPG RWY 21R, RWY 22L ;. NOTICE TO AIRMEN. RWY 27L, 9R CLSD, RWY 27R, 9L CLSD. PILOTS USE CTN FOR BIRD ACTIVITY. ...ADVS YOU HAVE INFO Q.",
    "KMSP": "[Arrival ATIS] KMSP ARR ATIS G 0353Z MSP ARR INFO G 0353Z. 09005KT 10SM FEW070 26/18 A3004 (THREE ZERO ZERO FOUR). VISUAL RWY 12R APCH IN USE, VISUAL RWY 12L APCH IN USE. FINAL APCH, OVER NOISE SENSITIVE AREA. NOTICE TO AIRMEN. RWYS 4, 22 CLSD. TWY R7. R8. R9. R10. CLOSED, TWY R BETWEEN R6 AND R10 CLOSED. GS RWY 12L OTS, RWYS 12R, 12L, INNER MARKER OTS.. HAZD WX INFO FOR MSP AREA AVBL FM FSS. CTN, BIRDS NEAR MSP. READ BACK HS AND ALT. ALL ACFT TAXI WITH TRANSPONDER AND ALTITUDE ENCODING ON. ...ADVS YOU HAVE INFO G.\n[Departure ATIS] KMSP DEP ATIS P 0053Z MSP DEP INFO P 0053Z. 34004KT 10SM FEW060 29/16 A3002 (THREE ZERO ZERO TWO) RMK AO2 SLP160 T02890161. DEPARTING RWY 12L, RWY 12R, RWY 17. NOTICE TO AIRMEN. RWYS 4, 22 CLSD. TWY R7. R8. R9. R10. CLOSED, TWY R BETWEEN R6 AND R10 CLOSED. ALL ACFT CTC METERING ON ONE THREE THREE POINT FIVE SEVEN WHEN READY TO PUSHBACK OR TAXI. HAZD WX INFO FOR MSP AREA AVBL FM FSS. CTN, BIRDS NEAR MSP. READ BACK HS AND ALT. ALL ACFT TAXI WITH TRANSPONDER AND ALTITUDE ENCODING ON. ...ADVS YOU HAVE INFO P.",
    "CYEG": "[Arrival ATIS] CYEG ARR ATIS Q 0600Z 19004KT 20SM FEW100 10/08 A3011 APCH RNAV Z OR Y RWY 02, INFORM ARRL OF REQ APCH ON INITIAL CTC. LDG AND DEP RWY 02. SIMUL APPROACHES MAY BE IN EFCT. INFORM CYEG ATC INFO Q\n[Departure ATIS] CYEG DEP ATIS M 0300Z CYEG ARR ATIS M 0300Z 31003KT 20SM FEW041TCU FEW100 FEW200 16/09 A3008 SIGMET Z7 IN EFFECT. APCH RNAV Z OR Y RWY 20, INFORM ARRL OF REQ APCH ON INITIAL CTC. LDG AND DEP RWY 20. SIMUL APPROACHES MAY BE IN EFCT. INFORM CYEG ATC INFO M",
    "EHAM": "[Arrival ATIS] EHAM ARR ATIS F 0520Z EHAM ARRIVAL INFO F. DEMAND. MAIN LANDING RWY 18 R. SECONDARY LANDING RWY 18 C. TRANSITION LEVEL 040. WIND 260 DEG, 7 KT, VRB BTN 210 AND 280 DEG, 12 KT MAX, 4 KT MNM. WIND SECONDARY RUNWAY 250 DEG, 9 KT, VRB BTN 220 AND 280 DEG. VIS 10 KM OR MORE. CLD FEW 800 FT. T 20. DP 17. QNH 1016 HPA. NOSIG. OPERATIONAL REPORT. INDEPENDENT PARALLEL APPROACHES IN PROGRESS. CONTACT APCH WITH CALLSIGN ONLY. END OF INFO F\n[Departure ATIS] EHAM DEP ATIS Y 1106Z EHAM DEPARTURE INFO Y. DEMAND. MAIN DEPARTURE RWY 36 L. MAIN LANDING RWY 36 R. WIND 280 DEG, 12 KT, VRB BTN 250 AND 330 DEG, 17 KT MAX, 7 KT MNM. VIS 10 KM OR MORE. WX -RA. CLD FEW 1200 FT BKN 1900 FT. T 19. DP 16. QNH 1022 HPA. OPERATIONAL REPORT. INFORM SCHIPHOL DEL BY VOICE IF UNABLE TO COMPLY WITH NADP 2. END OF INFO Y",
    "EBBR": "[Arrival ATIS] EBBR ARR ATIS G 0524Z EBBR NAT, EXP VECT FOR ILS APP ARR RWY25L RSCD AT 0319 RWY25L DRY. DEP RWY25R TRL 055 TWY C6 CLSD. ILS RWY 25R U/S. RNP RWY 25R AT ATC DISCRETION 230/8KT MNM5 MAX13 CAVOK T17 DP15 QNH 1020HPA NOSIG CFM ARR G\n[Departure ATIS] EBBR DEP ATIS T 0350Z EBBR NAT, DEP RWY25R RSCD AT 0329 RWY25R DRY. ARR RWY25L TRL 055 B3 CLSD 240/7KT CAVOK T17 DP14 QNH 1020HPA NOSIG CFM DEP T",
    "EDDF": "[Arrival ATIS] EDDF ARR ATIS D 0420Z -ARR-ATIS EDDF D METAR 060420 -EXPECT INDEPENDENT PARALLEL ILS Y APCH RWY 25R OR ILS APCH RWY 25L -RWY 25R 25L -GLS APCH ON REQUEST , DO NOT MISTAKE TWY M FOR RWY 25C WHEN PERFORMING VISUAL APPROACH , -TRL 60 - -21004KT -CAVOK - - -T17 DP14 -QNH1020 - -TREND NOSIG\n[Departure ATIS] EDDF DEP ATIS T 0520Z DEP-ATIS EDDF T METAR 060520 RWY 25C 18 TRL 60 21005KT RWY18 20003KT CAVOK T17 DP14 QNH1020 TREND NOSIG END OF ATIS T",
    "EDDL": "[Arrival ATIS] EDDL ARR ATIS F 0420Z -ATIS EDDL F METAR 190420 -EXPECT VECTORS ILS APPROACH -RWY 23L 23R - -TRL 60 -EXPECT INTENSE BIRD ACTIVITY IN THE VICINITY OF RWY SYSTEM -15007KT -CAVOK - - -T20 DP17 -QNH1015 - -TREND NOSIG\n[Departure ATIS] EDDL DEP ATIS R EDDL ARR/DEP DATIS RPT -ATIS EDDL R METAR 020550 -EXPECT VECTORS ILS APPROACH -RWY 23L -TWY L8 CLOSED BETWEEN TWY M AND RWY 23L -TRL 60 - -23010KT -CAVOK - - -T19 DP13 -QNH1020 - -TREND NOSIG",
    "EDDK": "[Arrival ATIS] EDDK ARR ATIS K 0550Z -ATIS EDDK K METAR 060550 -EXPECT CDO FOR ILS APCH -RWY 13L 24 -RWY COND RWY 13L AT TIME 0025 RWYCC 6 DEPOSIT TOTAL RWY DRY RWY 24 AT TIME 0025 RWYCC 6 DEPOSIT TOTAL RWY DRY -TRL 60 -RWY 13R AND RWY 31L CLOSED FOR DEPARTURE AND LANDING: TAXIING BTN THR RWY 13R AND INTERSECTION RWY 24 POSSIBLE : -15005KT -9999 - -BKN049 -T18 DP14 -QNH1019 - -TREND NOSIG\n[Departure ATIS] EDDK DEP ATIS Q EDDK ARR/DEP DATIS RPT -ATIS EDDK Q METAR 291920 -EXPECT ILS APCH -RWY 31R 06 -RWY COND RWY 31R AT TIME 1830 RWYCC 6 DEPOSIT TOTAL RWY DRY RWY 06 AT TIME 1830 RWYCC 6 DEPOSIT TOTAL RWY DRY -TRL 60 -RWY 13R AND RWY 31L CLOSED FOR DEPARTURE AND LANDING: TAXIING BTN THR RWY 13R AND INTERSECTION RWY 24 POSSIBLE : -04003KT -CAVOK - - -T24 DP13 -QNH1024 - -TREND NOSIG",
    "EBLG": "[Arrival ATIS] EBLG ATIS V 0550Z EBLG INFO, EXP RNAV TO ILS APP ARR RWY22L DEP RWY22L RWY 22L DRY, RWYCC 666. TRL 055 TWY A4 CLSD 220/11KT MNM8 MAX16 CAVOK T18 DP14 QNH 1020HPA NOSIG CFM ATIS V",
    "LSZH": "[Arrival ATIS] LSZH ARR ATIS E 0550Z ARRIVALS, EXP ILS APCH, RWY 14. TRL 70. DEP RWY 28. WIND VRB BTN 270 AND 340 DEG, 2 KT. CAVOK. T 19. DP 15. QNH 1023. NOSIG.\n[Departure ATIS] LSZH DEP ATIS Y 0550Z DEP RWY 28. TRL 70. ARRIVALS, EXP ILS APCH, RWY 14. TMA S 1 IS NOT ACT. TMA S 2 AND S 3 ARE NOT ACT. WIND VRB, 2 KT. CAVOK. T 19. DP 15. QNH 1023. NOSIG.",
    "LIMC": "[Arrival ATIS] LIMC ARR ATIS D 0550Z LIMC ARR D 0550Z I.L.S. ZULU RWY IN USE 35L TL 70 WIND TDZ 130/5KT CAVOK T25 DP16 QNH 1018HPA QFE 0992HPA\n[Departure ATIS] LIMC DEP ATIS M 2020Z LIMC DEP M 2020Z RWY IN USE 35R TL 70 WIND END 360/3KT CAVOK T25 DP16 QNH 1016HPA QFE 0991HPA DATALINK CLEARANCE AVAILABLE.... CONTACT 1 3 1 8 8 0 TO BE RELEASED BY THE AIRPORT OPERATOR ...",
    "LIRF": "[Arrival ATIS] LIRF ARR ATIS X 0531Z LIRF ARR X 0531Z RWY 16L ILS W RWY 16R ILS Z RWY IN USE 16L 16R TL 70 RWYS IN USE FOR ARR 16L AND 16R WIND RWY 16L TDZ 070/3KT VRB BTN 360/AND 130/ RWY 16R TDZ 060/3KT VRB BTN 030/AND 090/ CAVOK T24 DP19 QNH 1016HPA RRSM\n[Departure ATIS] LIRF DEP ATIS R 0502Z LIRF DEP R 0502Z RWY IN USE 25 TL 70 RWYS IN USE FOR ARR 16L AND 16R WIND END 030/4KT VRB BTN 360/AND 060/ CAVOK T20 DP20 QNH 1016HPA REA IS SENT AUTOMATICALLY ONCE RLSD BY RAMP WHEN READY CONTACT FIUME RAMP 121.725 RRSM",
    "EINN": "[Arrival ATIS] EINN ARR ATIS D 0430Z EXPECT I L S CATEGORY 1 LDG RWY24 TKOF RWY24 TRL FL065 23004KT 6000 -DZ FEW005 SCT008 BKN011 16/15 QNH Q1004 TREND NOSIG RUNWAY 2 4 SURFACE CONDITION CODE, 5 5 5. ISSUED AT 0 2 4 5. ALL PARTS. WET. 100 PERCENT ADVISE AT FIRST CONTACT YOU HAVE ATIS INFO D",
    "EGLL": "[Arrival ATIS] EGLL ARR ATIS R 0550Z LANDING RWY 27L TRANSITION-LEVEL: FL 70 RUNWAY 27R REDUCED DECLARED DISTANCES WITH TAKE OFF RUN AVAILABLE 3362METRES AND LANDING DISTANCE AVAILABLE 3362METRES IF STAND GUIDANCE IS OFF OR FAILS, REMAIN ON THE TAXIWAY CENTRELINE AND ADVISE ATC AUTO 23006KT 9999 NCD 17/13 Q1020 ACKNOWLEDGE RECEIPT OF INFORMATION R\n[Departure ATIS] EGLL DEP ATIS E 0550Z DEPARTURE RWY 27R RUNWAY 27R REDUCED DECLARED DISTANCES WITH TAKE OFF RUN AVAILABLE 3362METRES AND LANDING DISTANCE AVAILABLE 3362METRES PILOTS THAT ARE IN RECEIPT OF DATALINK CLEARANCES ARE REMINDED THEY MUST CONTACT DELIVERY ON 121.980 WHEN READY FOR START DET VOR OOS AUTO 23007KT 9999 NCD 17/13 Q1020 ACKNOWLEDGE RECEIPT OF INFORMATION E AND REPORT AIRCRAFT TYPE AND CURRENT QNH ON FIRST CONTACT WITH HEATHROW",
    "EPWA": "[Arrival ATIS] EPWA ARR ATIS D 0301Z EPWA ARR D. TIME 0300. EXP U ARR ILS Z APCH FOR RWY 33. RWY 33 RCC 5, 5, 5. 1ST PART, WET. 2ND PART, WET. 3RD PART, WET. RWY REPORT END. TRANSITION LEVEL 80. WIND 280 DEG, 7 KT, VRB BTN 240 AND 310 DEG. CAVOK. T 12. DP 10. QNH 1011. NOSIG. CAUTION. BIRD ACT. END OF EPWA ARR D\n[Departure ATIS] EPWA DEP ATIS O 0531Z EPWA DEP O. TIME 0530. DEP RWY 29. ARR RWY 33, EXP U ARR ILS Z. REPORT READY FOR STARTUP ON DELIVERY 121. 605. RWY 29 RCC 6, 5, 6. 2ND PART, WET. RWY REPORT END. TRANSITION LEVEL 80. WIND 280 DEG, 15 KT. CAVOK. T 15. DP 10. QNH 1012. NOSIG. CAUTION. BIRD ACT. END OF EPWA DEP O",
    "EFHK": "[Arrival ATIS] EFHK ARR ATIS W 0534Z EXPECT ILS APCH ARR RWY 22L RUNWAY 22L CONDITION REPORT AT 0534 UTC RUNWAY CONDITION CODES 5 , 5 , 5 CONTAMINANTS ALL PARTS 100 PERCENT WET TRL 70 WIND 280 DEG 8 KT VIS 10KM FBL RA SCT 600 FT T 15 DP 13 QNH 995 TEMPO CLD BKN 600 FT. FEW CB 2000 FT. ACK INFO W\n[Departure ATIS] EFHK DEP ATIS H 1620Z DEP RWYS 22R AND 22L RUNWAY 22R CONDITION REPORT AT 1329 UTC RUNWAY CONDITION CODES 6 , 6 , 6 CONTAMINANTS ALL PARTS DRY RUNWAY 22L CONDITION REPORT AT 1330 UTC RUNWAY CONDITION CODES 6 , 6 , 6 CONTAMINANTS ALL PARTS DRY WIND 110 DEG 6 KT VIS 10KM FEW 1400 FT. SCT 1600 FT. FEW TCU 2800 FT T 19 DP 15 QNH 1003 TEMPO CLD FEW CB 3000 FT. ACK INFO H",
    "LTAC": "[Arrival ATIS] LTAC ARR ATIS K 0450Z EXP ILS V APCH 03C DEP RWY 03L RWY 03C WIND 050 DEG 07 KT RWY 03L WIND 030 DEG 07 KT TRL 110 VIS 9999 FEW04000 FT SCT10000 FT T 18 DP 11 QNH 1015 NOSIG FOR DELIVERY CTC 121.9. FOR DELIVERY FIRST USE DIGITAL DEP CLR. CTN BIRD HAZARD OVR AERODROME. APCH FREQUENCY 129.050. TAXIWAY ECHO 1 IS CLOSED. END OF ATIS K",
    "UBBB": "[Arrival ATIS] UBBB ARR ATIS M 0530Z ATIS M EXP ILS/ LDG 34 35 DEP 34 35 IN USE RWY 34 CLEAR DRY 70 RWY 35 CLEAR DRY 70 TLVL 110 WIND WIND RWY 34 330 12 KT SPD MAX 16 MIN 8 WIND RWY 35 320 10 KT SPD MAX 16 MIN 8 VIS 10 KM SCT 1900 FT RWY 34 SCT 1900 FT RWY 35 T 27 / DP 21 QNH 1010 HPA TREND TREND NOSIG MODERATE BIRDS ACT IN VICINITY OF AP END OF ATIS M\n[Departure ATIS] UBBB DEP ATIS J 0400Z ATIS J EXP ILS/ LDG 34 35 DEP 34 35 IN USE RWY 34 CLEAR DRY 70 RWY 35 CLEAR DRY 70 TLVL 110 WIND WIND RWY 34 340 8 KT SPD MAX 10 MIN 6 WIND RWY 35 320 8 KT SPD MAX 12 MIN 8 VIS CAVOK T 27 / DP 21 QNH 1009 HPA TREND TREND NOSIG MODERATE BIRDS ACT IN VICINITY OF AP END OF ATIS J",
    "ZWWW": "[Arrival ATIS] ZWWW ARR ATIS P 0430Z EXP ILSDME Z APCH LDG RWY 26R TA 3000 WIND 030/3MPS VRB BTN 350/ AND 070/ VIS 9999M CLD FEW 1200M T 31 /DP 12 QNH 1011 HPA ADZ YOU HAVE INFO P.\n[Departure ATIS] ZWWW DEP ATIS N 0430Z DEP RWY 26L TA 3000 WIND 010/6MPS VIS 9999M CLD FEW 990M T 28 /DP 14 QNH 1013 HPA ADZ YOU HAVE INFO N.",
    "ZLXY": "[Arrival ATIS] ZLXY ARR ATIS D 0400Z EXP ILS APCH LDG RWY 23R WIND 240/2MPS VRB BTN 180/ AND 330/ VIS 9999M CLD SCT 1200M /SCT 1500M T 26 /DP 18 QNH 1006 HPA VISUAL APPROACH IN PROGRESS ADZ YOU HAVE INFO D.\n[Departure ATIS] ZLXY DEP ATIS U 0400Z DEP RWY 05L & 06L WIND VRB/1MPS VIS 9999M CLD FEW 450M /SCT 900M /OVC 1800M T 23 /DP 19 QNH 1008 HPA ADZ YOU HAVE INFO U.",
    "ZBAA": "[Arrival ATIS] ZBAA ARR ATIS Z 0430Z EXP ILS APCH INDEPENDENT PARL INSTR APCH LDG RWY 36L & 01 WIND 150 DEG 3 MPS 120V190 DEG VIS 4000 BR CLD FEW 480M T 28 /DP 24 QNH 1002 HPA ADZ YOU HAVE INFO Z.\n[Departure ATIS] ZBAA DEP ATIS W 0300Z DEP RWY 36L & 36R & 01 WIND VRB DEG 2 MPS VIS 4000 BR CLD FEW 480M T 27 /DP 23 QNH 1003 HPA RWY INDEPENDENT PARALLEL DEP ADZ YOU HAVE INFO W.",
    "ZBHH": "[Arrival ATIS] ZBHH ARR ATIS I 0400Z EXP ILSDME APCH LDG RWY 26 TA 3000 /TRL 3600 WIND 160/2MPS VRB BTN 100/ AND 260/ VIS 9999M CLD SCT 900M T 22 /DP 15 QNH 1007 HPA BEFORE 1300 UTC, TURBULENCE MAY OCCUR IN LOCAL FIELD. ADZ YOU HAVE INFO I.\n[Departure ATIS] ZBHH DEP ATIS K 2300Z DEP RWY 26 TA 3000 /TRL 3600 WIND 060/3MPS VRB BTN 010/ AND 080/ CAVOK T 21 /DP 15 QNH 1010 HPA ADZ YOU HAVE INFO K.",
    "ZSQD": "[Arrival ATIS] ZSQD ARR ATIS R 0400Z EXP ILSDME APCH LDG RWY 17 TA 3000 /TRL 3600 WIND 130/4MPS VIS 9999M CLD BKN 540M T 25 /DP 20 QNH 1004 HPA SEGREGATED OPERATION VISUAL APPROACH OPERATION IN PROGRESS. RUNWAY 17,IF MISSED APPROACH,EXPECT FOLLOW THE STANDARD MISSED APPROACH PROCEDURE,CLIMB TO 900M ON QNH OR BY ATC CAUTION MAYBE THERE IS A FLOCK OF BIRDS IN THE VICINITY OF AIRPORT ADZ YOU HAVE INFO R.\n[Departure ATIS] ZSQD DEP ATIS Q 0300Z DEP RWY 16 TA 3000 /TRL 3600 WIND 130/3MPS VRB BTN 100/ AND 160/ VIS 9999M CLD SCT 450M T 24 /DP 21 QNH 1005 HPA SEGREGATED OPERATION VISUAL APPROACH OPERATION IN PROGRESS. RUNWAY 17,IF MISSED APPROACH,EXPECT FOLLOW THE STANDARD MISSED APPROACH PROCEDURE,CLIMB TO 900M ON QNH OR BY ATC CAUTION MAYBE THERE IS A FLOCK OF BIRDS IN THE VICINITY OF AIRPORT ADZ YOU HAVE INFO Q."
  },
  "windtemp_alaska": "\n000\nFBAK31 KWNO 060200\nFD1AK1\nDATA BASED ON 060000Z    \nVALID 060600Z   FOR USE 0200-0900Z. TEMPS NEG ABV 24000\n\nFT  3000    6000    9000   12000   18000   24000  30000  34000  39000\nADK 1513 2110+09 2318+06 2426+00 2438-11 2453-23 236840 237850 237857\nADQ 0321 0224-02 0225-06 0323-11 0431-25 0646-37 042542 331940 321540\nAKN 3307 0216+01 0426-04 0423-09 0320-23 0117-35 361950 332045 311742\nANC 9900 0608+03 0614-04 0717-09 0822-23 0928-36 102949 102547 101242\nANN 1620 1721+02 1826-02 2226-05 2424-15 2424-27 232943 233653 243554\nBET 3208 9900+02 9900-02 9900-08 9900-22 0508-34 051350 030648 320843\nBRW 2313 2612+07 2613+02 2514-03 2509-15 2706-26 990044 080653 050957\nBTI 9900 2808+06 2809+01 3008-04 9900-16 0408-29 052345 062955 051852\nBTT 9900 0606+08 0711+00 0814-06 0819-17 0922-31 082246 091454 092149\nCDB 9900 9900+03 3505-01 3208-06 2931-18 2969-27 780040 780649 287653\nCZF 2908 2705+03 9900-02 0405-08 0809-21 0817-34 082249 082049 030544\nEHM 0209 0305+03 9900-03 0306-08 3206-22 2805-35 281247 283147 292845\nFAI 9900 0506+06 0908-01 0809-07 0611-21 0820-32 094847 095153 101846\nFYU 0806 0806+05 0808-01 0715-05 0815-18 0820-30 071746 071654 091949\nGAL 0205 0306+06 9900-01 9900-07 1310-21 1017-33 094248 094453 082346\nGKN 1508 3606+02 0415-03 0720-08 0820-21 0923-34 102348 112649 111643\nHOM 0310 0518+00 0625-04 0628-10 0627-23 0727-36 093250 081744 050540\nJNU 1208 1517+01 1426-04 1428-09 1719-18 2133-28 213044 213253 202251\nLUR 1915 2014+07 2014+03 2010-03 1710-16 1310-28 102244 102954 101755\nMCG 9900 0407+04 0609-02 0509-07 0715-21 0926-34 104050 093050 091344\nMDO 1024 0932-01 0936-04 0934-10 0833-22 1032-34 123648 122346 111140\nOME 9900 1407+05 1607-01 9900-06 0709-19 0725-30 072946 072954 071448\nORT      0911+07 0915-01 1015-08 0920-21 1027-32 103348 112650 121745\nOTZ 3008 2609+05 9900+00 1013-05 1017-17 0926-30 082946 083054 082251\nSNP 1008 1005+02 1405-03 1807-08 2418-20 2648-30 267844 266748 264248\nTKA 2408 9900+04 0510-02 0712-09 0922-22 0838-34 094450 102948 101443\nUNK 9900 0607+05 0909-01 1108-07 1009-21 0913-33 083848 074352 072046\nYAK 1207 0813+00 1018-04 1122-10 1216-20 1522-31 173246 173051 161744\nIKO 1321 1510+06 2310+03 2619+00 2634-12 2649-22 267338 268648 760458\nAFM 2707 9900+07 1110+00 1015-06 0920-17 0925-30 082746 082554 082450\n5AB 1006 1905+05 1910+02 1912-03 2118-17 2234-29 225644 225247 224146\n5AC 2125 2317+07 2622+03 2524-02 2427-15 2535-25 264341 254651 264357\n5AD 2920 2720+00 2625-04 2634-08 2551-22 2566-34 266440 265240 264242\n5AE 3424 3425+00 3432-06 3441-11 3259-23 3169-33 801940 309142 305644\n5AF 1634 1727+01 2019-01 1925-05 2239-16 2148-29 225144 225252 233449\n5AG 1230 1126-01 1229-05 1321-09 1330-21 1432-33 144147 162945 181541\n",
  "vaac_tokyo": [
    {
      "id": "20260706_30027000_0237",
      "year": "2026",
      "volcano": "Sheveluch",
      "psn": "N5639 E16122",
      "issued": "20260706",
      "text": "FVFE01 RJTD 060600\nVA ADVISORY\nDTG: 20260706/0600Z\nVAAC: TOKYO\nVOLCANO: SHEVELUCH 300270\nPSN: N5639 E16122\nAREA: RUSSIA\nSOURCE ELEV: 3283M AMSL\nADVISORY NR: 2026/237\nINFO SOURCE: HIMAWARI-9\nERUPTION DETAILS: VA CONTINUOUSLY OBS IN SATELLITE IMAGERY\nOBS VA DTG: 06/0520Z\nOBS VA CLD: SFC/FL230 N4953 E15613 - N5017 E15733 - N5004 E15854 - \nN4914 E15819 - N4857 E15636 MOV S 25KT\nFCST VA CLD +6 HR: 06/1120Z SFC/FL220 N4835 E15855 - N4701 E15913 - \nN4644 E15619 - N4901 E15619\nFCST VA CLD +12 HR: 06/1720Z SFC/FL210 N4818 E15844 - N4640 E16021 - \nN4506 E15939 - N4446 E15719 - N4831 E15658\nFCST VA CLD +18 HR: NO VA EXP\nRMK: VA HEIGHT UPDATED TO FL230 BASED ON SATELLITE DATA.\nNXT ADVISORY: 20260706/1200Z=",
      "img_url": "https://ds.data.jma.go.jp/svd/vaac/data/VAGFN/2026/Images/20260706_30027000_0237_QH21_01.png",
      "sat_img_url": null,
      "text_url": "https://ds.data.jma.go.jp/svd/vaac/data/TextData/2026/20260706_30027000_0237_Text.html"
    },
    {
      "id": "20260705_27303000_0717",
      "year": "2026",
      "volcano": "Mayon",
      "psn": "N1315 E12341",
      "issued": "20260705",
      "text": "FVFE01 RJTD 051936\nVA ADVISORY\nDTG: 20260705/1936Z\nVAAC: TOKYO\nVOLCANO: MAYON 273030\nPSN: N1315 E12341\nAREA: PHILIPPINES\nSOURCE ELEV: 2462M AMSL\nADVISORY NR: 2026/717\nINFO SOURCE: HIMAWARI-9 PHIVOLCS\nERUPTION DETAILS: ERUPTION AT 20260705/1914Z FL090 EXTD WSW REPORTED\nOBS VA DTG: 05/1920Z\nOBS VA CLD: VA NOT IDENTIFIABLE FM SATELLITE DATA WIND FL090 050/8KT\nFCST VA CLD +6 HR: NOT AVBL\nFCST VA CLD +12 HR: NOT AVBL\nFCST VA CLD +18 HR: NOT AVBL\nRMK: WE WILL ISSUE FURTHER ADVISORY IF VA IS DETECTED IN SATELLITE \nIMAGERY.\nNXT ADVISORY: NO FURTHER ADVISORIES=",
      "img_url": "https://ds.data.jma.go.jp/svd/vaac/data/VAGFN/2026/Images/20260705_27303000_0717_QH21_01.png",
      "sat_img_url": null,
      "text_url": "https://ds.data.jma.go.jp/svd/vaac/data/TextData/2026/20260705_27303000_0717_Text.html"
    },
    {
      "id": "20260704_27202000_0228",
      "year": "2026",
      "volcano": "Kanlaon",
      "psn": "N1025 E12308",
      "issued": "20260704",
      "text": "FVFE01 RJTD 040601\nVA ADVISORY\nDTG: 20260704/0601Z\nVAAC: TOKYO\nVOLCANO: KANLAON 272020\nPSN: N1025 E12308\nAREA: PHILIPPINES\nSOURCE ELEV: 2435M AMSL\nADVISORY NR: 2026/228\nINFO SOURCE: HIMAWARI-9 PHIVOLCS\nERUPTION DETAILS: ERUPTION AT 20260704/0539Z FL090 EXTD SW REPORTED\nOBS VA DTG: 04/0540Z\nOBS VA CLD: VA NOT IDENTIFIABLE FM SATELLITE DATA WIND FL090 070/7KT\nFCST VA CLD +6 HR: NOT AVBL\nFCST VA CLD +12 HR: NOT AVBL\nFCST VA CLD +18 HR: NOT AVBL\nRMK: WE WILL ISSUE FURTHER ADVISORY IF VA IS DETECTED IN SATELLITE \nIMAGERY.\nNXT ADVISORY: NO FURTHER ADVISORIES=",
      "img_url": "https://ds.data.jma.go.jp/svd/vaac/data/VAGFN/2026/Images/20260704_27202000_0228_QH21_01.png",
      "sat_img_url": null,
      "text_url": "https://ds.data.jma.go.jp/svd/vaac/data/TextData/2026/20260704_27202000_0228_Text.html"
    },
    {
      "id": "20260701_30006000_0001",
      "year": "2026",
      "volcano": "Mutnovsky",
      "psn": "N5227 E15812",
      "issued": "20260701",
      "text": "FVFE01 RJTD 012206\nVA ADVISORY\nDTG: 20260701/2206Z\nVAAC: TOKYO\nVOLCANO: MUTNOVSKY 300060\nPSN: N5227 E15812\nAREA: RUSSIA\nSOURCE ELEV: 2288M AMSL\nADVISORY NR: 2026/1\nINFO SOURCE: KVERT KBGS UHPP HIMAWARI-9\nERUPTION DETAILS: ERUPTION AT 20260701/2016Z FL170 EXTD W REPORTED\nOBS VA DTG: 01/2140Z\nOBS VA CLD: VA NOT IDENTIFIABLE FM SATELLITE DATA WIND FL170 120/8KT\nFCST VA CLD +6 HR: NOT AVBL\nFCST VA CLD +12 HR: NOT AVBL\nFCST VA CLD +18 HR: NOT AVBL\nRMK: WE WILL ISSUE FURTHER ADVISORY IF VA IS DETECTED IN SATELLITE \nIMAGERY.\nNXT ADVISORY: NO FURTHER ADVISORIES=",
      "img_url": "https://ds.data.jma.go.jp/svd/vaac/data/VAGFN/2026/Images/20260701_30006000_0001_QH21_01.png",
      "sat_img_url": null,
      "text_url": "https://ds.data.jma.go.jp/svd/vaac/data/TextData/2026/20260701_30006000_0001_Text.html"
    }
  ],
  "vaac_alaska": [
    {
      "text": "\n000\nFVAK21 PAWU 051146\nVAAAK1\nVA ADVISORY\n\nDTG: 20260705/1142Z\n\nVAAC: ANCHORAGE\n\nVOLCANO: SHEVELUCH 300270\n\nPSN: N5639 E16122\n\nAREA: KAMCHATKA PENINSULA\n\nSOURCE ELEV: 10771 FT AMSL\n\nADVISORY NR: 2026/177\n\nINFO SOURCE: HIMAWARI\n\nERUPTION DETAILS: VA NOT IDENTIFIABLE FM SATELLITE DATA.\n\nOBS VA DTG: 05/1142Z\n\nOBS VA CLD: VA NOT IDENTIFIABLE\n\nFCST VA CLD +6HR: NOT AVBL\n\nFCST VA CLD +12HR: NOT AVBL\n\nFCST VA CLD +18HR: NOT AVBL\n\nRMK: A NEW ADVISORY WILL BE ISSUED IF VA IS DETECTED IN SATELLITE IMAGERY....TS\n\nNXT ADVISORY: NO FURTHER ADVISORIES=\n\n",
      "issued": "2026-07-05T11:46:00+00:00",
      "volcano": "Sheveluch",
      "psn": "N5639 E16122"
    }
  ]
}