{
  "updated_utc": "2026-07-19T13:02Z",
  "metar": {
    "RJAA": "METAR RJAA 191130Z 17004KT 9999 FEW025 BKN/// 27/24 Q1008 NOSIG",
    "PANC": "METAR PANC 191153Z 34006KT 10SM -RA OVC070 10/09 A3009 RMK AO2 SLP189 P0006 60015 70021 T01000094 10133 20100 50001",
    "PAFA": "METAR PAFA 191153Z 02005KT 10SM FEW065 SCT110 SCT220 09/07 A3003 RMK AO2 SLP172 T00890067 10172 20089 51009 $",
    "PAED": "METAR PAED 191155Z 34008KT 08SM -RA OVC065 10/09 A3007 RMK AO2A SLP179 P0001 60006 T01030087 10141 20103 51002 $",
    "KSEA": "METAR KSEA 191153Z 01006KT 10SM CLR 14/11 A3013 RMK AO2 SLP208 T01390111 10183 20139 50001 $",
    "ZSPD": "METAR ZSPD 191130Z 35003MPS 320V050 CAVOK 28/25 Q1003 NOSIG",
    "ZSSS": "METAR ZSSS 191130Z VRB01MPS 9999 -SHRA NSC 27/25 Q1003 NOSIG",
    "RJFR": "METAR RJFR 191200Z 04009KT 9999 FEW005 SCT040 28/26 Q1006",
    "VHHH": "METAR VHHH 191130Z 20009KT 170V230 9999 FEW015 30/24 Q1005 NOSIG",
    "RCTP": "METAR RCTP 191130Z 11006KT 080V200 9999 FEW020 BKN200 29/25 Q1006 NOSIG RMK A2972",
    "ZGSZ": "METAR ZGSZ 191200Z 17006MPS 9999 SCT050 29/27 Q1005 NOSIG",
    "WSSS": "METAR WSSS 191130Z 14009KT 9999 FEW016 BKN300 30/24 Q1009 NOSIG",
    "WMKK": "METAR WMKK 191130Z 00000KT 9999 FEW030 29/25 Q1008 NOSIG",
    "WIDD": "METAR WIDD 191130Z 15005KT 9999 FEW014 29/25 Q1009 NOSIG",
    "VTBS": "METAR VTBS 191130Z 20009KT 9999 FEW020 32/22 Q1007 NOSIG",
    "VTBU": "METAR VTBU 191130Z 19007KT 9999 FEW020 29/27 Q1007 NOSIG",
    "ROAH": "METAR ROAH 191130Z 22004KT 9999 VCSH FEW030 29/27 Q1007",
    "VVDN": "METAR VVDN 191130Z 10004KT 050V130 9999 FEW020 32/25 Q1005 NOSIG",
    "RCKH": "METAR RCKH 191130Z 17003KT 050V210 9999 -RA FEW012 SCT020 BKN130 28/24 Q1008 NOSIG RMK A2977",
    "KLAX": "METAR KLAX 191153Z 00000KT 9SM SCT008 OVC012 21/18 A2997 RMK AO2 SLP146 T02060178 10206 20200 56005 $",
    "KONT": "METAR KONT 191153Z 19004KT 10SM CLR 21/17 A2998 RMK AO2 SLP135 T02060172 10244 20206 58004 $",
    "KSFO": "METAR KSFO 191156Z 29009KT 10SM FEW004 OVC008 13/12 A3000 RMK AO2 SLP160 T01330117 10139 20133 55002 $",
    "KOAK": "METAR KOAK 191153Z 23008KT 10SM FEW003 OVC007 14/12 A3001 RMK AO2 SLP161 T01390117 10144 20139 58001 $",
    "KMHR": "METAR KMHR 191115Z AUTO 13006KT 10SM CLR 15/11 A2992 RMK AO2 T01550115 $",
    "KDFW": "METAR KDFW 191153Z 20007KT 10SM FEW070 FEW250 27/22 A3000 RMK AO2 SLP147 T02670222 10294 20267 53007 $",
    "KIAH": "METAR KIAH 191153Z 00000KT 10SM FEW016 BKN250 24/24 A3003 RMK AO2 SLP168 T02440244 10278 20244 51007 $",
    "KORD": "METAR KORD 191151Z 04009KT 5SM FU FEW024 FEW160 BKN250 22/17 A3003 RMK AO2 SLP164 T02170167 10217 20206 51008 $",
    "KJFK": "METAR KJFK 191151Z 32015G21KT 10SM FEW033 FEW200 SCT250 BKN300 23/16 A2978 RMK AO2 SLP083 FU BKN300 70163 T02330161 10250 20233 51028 $",
    "KRFD": "METAR KRFD 191154Z VRB03KT 4SM FU FEW250 18/16 A3006 RMK AO2 SLP173 T01830161 10211 20183 50009 $",
    "KIND": "METAR KIND 191154Z 03008KT 5SM BR SCT055 21/18 A2999 RMK AO2 SLP149 70001 T02110178 10233 20206 53014 $",
    "KDTW": "METAR KDTW 191153Z 35005KT 6SM HZ FEW030 SCT180 BKN250 18/15 A3003 RMK AO2 SLP164 T01830150 10206 20167 53013 $",
    "KMSP": "METAR KMSP 191153Z 15005KT 6SM FU CLR 22/17 A3005 RMK AO2 SLP170 T02170167 10233 20217 56001",
    "CYEG": "SPECI CYEG 191106Z 27020G28KT 3SM SHRA BR FEW009 OVC041 14/13 A2981 RMK SF1SC8 SF TR CVCTV CLD EMBD SLP091 DENSITY ALT 2900FT",
    "EHAM": "METAR EHAM 191125Z 33015KT 300V010 9999 FEW038 19/08 Q1021 NOSIG",
    "EBBR": "METAR EBBR 191120Z 32010KT 290V360 9999 SCT045 19/08 Q1022 NOSIG",
    "EDDF": "METAR EDDF 191120Z AUTO 32013KT 260V350 CAVOK 20/07 Q1019 NOSIG",
    "EDFH": "METAR EDFH 191120Z 33011KT 290V360 9999 BKN044 17/07 Q1021",
    "EDDL": "METAR EDDL 191120Z AUTO 33009KT 290V360 9999 FEW037 SCT044 19/09 Q1020 NOSIG",
    "EDDK": "METAR EDDK 191120Z AUTO 31015G28KT 280V350 9999 SCT046 20/08 Q1020 TEMPO 31012KT",
    "EBLG": "METAR EBLG 191120Z 28005KT 200V360 9999 FEW035 19/09 Q1022 NOSIG",
    "LSZH": "METAR LSZH 191120Z VRB03KT 9999 FEW040 22/13 Q1019 NOSIG",
    "LIMC": "METAR LIMC 191120Z 20004KT 130V280 CAVOK 30/16 Q1013 NOSIG",
    "LIRF": "METAR LIRF 191120Z 19010KT 9999 FEW025 32/25 Q1012 NOSIG",
    "EINN": "METAR EINN 191130Z 36006KT 300V080 9999 FEW020 BKN200 20/10 Q1028 NOSIG",
    "EGLL": "METAR EGLL 191120Z AUTO 01008KT 300V080 9999 SCT044 20/08 Q1025",
    "EGSS": "METAR EGSS 191120Z AUTO 36013KT 320V040 9999 BKN049 20/06 Q1025",
    "EPWA": "METAR EPWA 191130Z VRB05KT CAVOK 25/14 Q1012 NOSIG",
    "UHPP": "METAR UHPP 191200Z VRB01MPS 9999 SCT130 21/16 Q1015 R16R/CLRD62 NOSIG RMK QFE758/1011",
    "EFHK": "METAR EFHK 191120Z 31013KT 9999 BKN023 BKN025 17/13 Q1008 NOSIG",
    "LBBG": "METAR LBBG 191130Z 12012KT 9999 FEW026 29/16 Q1014 NOSIG",
    "LTAC": "METAR LTAC 191120Z VRB04KT 9999 SCT040 31/09 Q1015 NOSIG RMK RWY21C VRB07KT RWY03L VRB04KT RWY21R VRB06KT RWY03R 22007KT 140V290 RWY21L VRB06KT",
    "UBBB": "METAR UBBB 191130Z 36018KT CAVOK 31/20 Q1008 NOSIG",
    "UTAA": "METAR UTAA 191200Z 29006KT 220V350 9999 FEW050 SCT100 39/17 Q1006 R88/CLRD70 NOSIG",
    "UACC": "METAR UACC 191130Z 25009MPS 9999 SCT043 32/09 Q1003 NOSIG RMK QFE721/0962",
    "UAAA": "METAR UAAA 191130Z 11003MPS 050V170 9999 FEW050 SCT100 41/02 Q1005 NOSIG",
    "UZTT": "METAR UZTT 191130Z 34004KT CAVOK 45/09 Q1001 NOSIG",
    "ZWWW": "METAR ZWWW 191130Z VRB02MPS CAVOK 36/11 Q1006 NOSIG",
    "ZLXY": "METAR ZLXY 191200Z 08004MPS CAVOK 33/14 Q1001 NOSIG",
    "ZBAA": "METAR ZBAA 191130Z 14002MPS 110V170 CAVOK 30/24 Q1001 NOSIG",
    "ZBHH": "METAR ZBHH 191200Z 03008MPS 9999 -RA BKN040 19/15 Q1006 RETS BECMG TL1300 06003MPS",
    "ZSQD": "METAR ZSQD 191200Z 15003MPS CAVOK 25/20 Q1004 NOSIG",
    "ZMCK": "METAR ZMCK 191130Z 32006MPS 9999 FEW030CB FEW033 21/11 Q1004 NOSIG RMK QFE639.3 53 MOP",
    "UUEE": "METAR UUEE 191130Z 22004MPS 170V270 CAVOK 26/11 Q1014 R24L/CLRD62 R24C/CLRD62 NOSIG",
    "UUDD": "METAR UUDD 191130Z VRB03MPS CAVOK 27/08 Q1015 R13R/CLRD65 NOSIG",
    "ULLI": "METAR ULLI 191130Z 25008MPS 9999 SCT021CB 25/17 Q1007 R88/290050 NOSIG",
    "USSS": "METAR USSS 191130Z 02006MPS 9000 -SHRA BKN033CB 19/19 Q1005 R08R/290350 TEMPO VRB21MPS -TSRA SQ RMK QFE734/0979",
    "UNNT": "METAR UNNT 191130Z 03003MPS 9999 FEW040CB 27/17 Q1005 R07/CLRD// R16/CLRD// NOSIG RMK QFE744/0992",
    "UNKL": "METAR UNKL 191130Z 15001MPS 9999 TS SCT039CB 21/15 Q1005 R29/290050 NOSIG RMK QFE728",
    "UIBB": "METAR UIBB 191130Z 29003MPS 9999 SCT043CB 19/14 Q1003 R30/210162 NOSIG RMK QFE710/0947",
    "UEEE": "METAR UEEE 191130Z 06001MPS 9999 SCT040CB 20/18 Q1001 R23/290160 NOSIG RMK QFE742",
    "UHHH": "METAR UHHH 191130Z 25001MPS CAVOK 23/20 Q1005 R23L/090060 NOSIG RMK QFE747/0996",
    "UHSS": "METAR UHSS 191130Z 35002MPS 9999 BKN009 19/19 Q1005 R19/290060 NOSIG RMK MT OBSC QFE752/1003"
  },
  "taf": {
    "RJAA": "TAF RJAA 191105Z 1912/2018 16006KT 9999 FEW020",
    "PANC": "TAF PANC 191130Z 1912/2018 33008KT P6SM -RA OVC060 WS020/12030KT FM200000 VRB05G20KT P6SM VCSH SCT050 OVC070 WS020/12030KT FM201100 VRB04KT 6SM -RA BR SCT015 OVC035",
    "PAFA": "TAF PAFA 191135Z 1912/2018 05003KT P6SM FEW070 FEW120 FM191500 11007KT P6SM SCT150",
    "PAED": "TAF PAED 190500Z 1905/2013 35009KT 9999 -SHRA BKN080 QNH3003INS BECMG 1909/1910 29007KT 9999 -RA BKN040 OVC060 QNH3000INS BECMG 2001/2002 25006KT 9999 -SHRA BKN060 OVC100 QNH3000INS TX15/1923Z TN11/1911Z",
    "KSEA": "TAF KSEA 191121Z 1912/2018 02009KT P6SM FEW040 FM191700 35007KT P6SM SCT040 FM192200 33010KT P6SM SCT050 FM200400 01008KT P6SM SKC",
    "ZSPD": "TAF AMD ZSPD 191219Z 1912/2018 16004MPS 6000 SCT030 TX27/1912Z TX33/2006Z TN25/1921Z TEMPO 2006/2010 33008G13MPS TSRA BKN015 FEW030CB",
    "ZSSS": "TAF AMD ZSSS 191219Z 1912/2018 18004MPS 6000 SCT030 TX29/1923Z TX33/2006Z TN24/1921Z TEMPO 2005/2009 33008G13MPS TSRA BKN015 FEW030CB",
    "RJFR": "TAF RJFR 191105Z 1912/2018 30004KT 9999 FEW010 SCT030 BKN040 BECMG 1922/2000 11008KT BECMG 2006/2009 35008KT TEMPO 2006/2009 4000 -TSRA BR FEW015 FEW015CB BKN020 TEMPO 2009/2012 4000 -SHRA BR BECMG 2012/2015 23004KT",
    "VHHH": "TAF VHHH 191100Z 1912/2018 20010KT 9999 FEW010 SCT025 TX31/2006Z TN27/1922Z TEMPO 1922/2004 24015G25KT 2500 TSRA SHRA FEW008CB SCT015 TEMPO 2004/2006 3000 SHRA FEW010CB SCT020",
    "RCTP": "TAF RCTP 191100Z 1912/2018 25012KT 9999 FEW020 BKN032 TEMPO 1920/1924 22007KT TEMPO 2006/2009 18005KT SHRA FEW010 FEW012CB BKN020 BECMG 2010/2012 20005KT",
    "ZGSZ": "TAF ZGSZ 190903Z 1912/2018 18004MPS 8000 BKN040 TX28/1912Z TX31/2006Z TN27/1922Z TEMPO 1921/1924 1200 +TSRA SCT012 FEW020CB BKN033 TEMPO 2004/2007 TSRA SCT012 FEW020CB BKN033",
    "WSSS": "TAF WSSS 191100Z 1912/2018 16007KT 9999 FEW015 SCT020",
    "WMKK": "TAF WMKK 191100Z 1912/2018 VRB03KT 9999 FEW018 PROB30 TEMPO 1921/2000 5000 TSRA FEW017CB",
    "VTBS": "TAF VTBS 191100Z 1912/2018 23008KT 9999 FEW020",
    "VTBU": "TAF VTBU 191100Z 1912/2012 21008KT 9999 FEW020",
    "ROAH": "TAF ROAH 191105Z 1912/2018 20005KT 9999 FEW008 BKN012 TEMPO 1914/1916 FEW005 BKN008 TEMPO 1916/1921 FEW003 BKN005 TEMPO 1921/2000 FEW005 BKN008 TEMPO 2012/2015 FEW005 BKN008 TEMPO 2015/2018 FEW003 BKN005",
    "VVDN": "TAF VVDN 191100Z 1912/2012 11010KT 9999 FEW020 SCT060 BECMG 1912/1913 22006KT BECMG 2005/2006 01010KT",
    "RCKH": "TAF RCKH 191100Z 1912/2018 18005KT 9999 FEW012 BKN032 TEMPO 1912/1918 09010KT 4000 SHRA FEW010 FEW012CB BKN020 TEMPO 1918/1924 11010KT 4000 SHRA FEW010 FEW012CB BKN020",
    "KLAX": "TAF KLAX 191259Z 1913/2018 VRB03KT P6SM BKN012 BKN020 FM191700 25006KT P6SM SCT020 FM191900 25012KT P6SM SCT015 FM200300 24006KT P6SM FEW012 SCT200 FM201000 VRB03KT P6SM OVC008 FM201500 VRB03KT P6SM OVC015 FM201700 25006KT P6SM SCT020",
    "KONT": "TAF KONT 191120Z 1912/2018 VRB04KT P6SM FEW120 TEMPO 1912/1916 6SM HZ FEW008 FM192000 25010G20KT P6SM FEW120 FM200500 VRB05KT P6SM FEW200",
    "KSFO": "TAF KSFO 191120Z 1912/2018 27005KT P6SM OVC007 FM191700 28011KT P6SM SKC FM200400 27006KT P6SM BKN010",
    "KOAK": "TAF KOAK 191253Z 1913/2018 27005KT P6SM OVC007 FM191800 28010KT P6SM SKC FM200300 27006KT P6SM OVC007",
    "KMHR": "TAF KMHR 191120Z 1912/2012 VRB05KT P6SM BKN250 FM192200 22009KT P6SM VCSH OVC200 FM200600 16007KT P6SM BKN250",
    "KDFW": "TAF KDFW 191120Z 1912/2018 18008KT P6SM FEW040 FM191500 19010KT P6SM FEW250",
    "KIAH": "TAF KIAH 191120Z 1912/2018 21003KT 6SM BR FEW010 SCT250 FM191300 20004KT P6SM SCT040 SCT250 FM200900 18004KT P6SM FEW020 SCT250",
    "KORD": "TAF KORD 191120Z 1912/2018 05012KT 6SM FU SCT025 FM200000 14006KT P6SM SKC FM200900 19004KT P6SM FEW300",
    "KJFK": "TAF KJFK 191126Z 1912/2018 32013KT P6SM SCT250 FM191500 32014G20KT P6SM SCT250 FM192000 32011KT P6SM SCT250 FM200100 33007KT P6SM FEW250 FM200900 VRB05KT P6SM FEW250",
    "KRFD": "TAF KRFD 191120Z 1912/2012 04009KT 4SM FU SCT030 FM191500 08009KT 6SM FU SCT025 FM192100 VRB04KT P6SM SKC FM200900 17004KT P6SM FEW300",
    "KIND": "TAF KIND 191120Z 1912/2018 03007KT P6SM SCT050 SCT250 FM200000 06005KT P6SM FEW250",
    "KDTW": "TAF KDTW 191120Z 1912/2018 36008KT 6SM HZ FEW250 TEMPO 1912/1915 5SM FU SCT045 FM191700 35007KT P6SM SCT060 FM200100 14003KT P6SM SCT250 FM201400 21008KT P6SM SCT250",
    "KMSP": "TAF KMSP 191122Z 1912/2018 19006KT 6SM FU FEW250 FM191700 20010KT P6SM FEW250 PROB30 2008/2011 4SM -TSRA BKN050CB FM201300 22010KT P6SM BKN250",
    "CYEG": "TAF CYEG 191140Z 1912/2012 26015G25KT 2SM SHRA BR BKN006 OVC030 TEMPO 1912/1914 26012KT P6SM -SHRA SCT006 BKN030 FM191400 28015G25KT P6SM SCT020 BKN040 TEMPO 1914/1918 BKN020 OVC040 BECMG 1916/1918 29020G30KT FM191800 29020G30KT 5SM -SHRA BR BKN020 OVC040 TEMPO 1918/1922 P6SM NSW SCT020 BKN040 FM192200 29020G35KT P6SM BKN020 BKN080 TEMPO 1922/2001 5SM -SHRA VCTS BR BKN020CB OVC080 FM200100 30015G25KT P6SM SCT012 BKN020 BECMG 2004/2006 30008KT FM200600 30008KT P6SM SCT008 BKN020 TEMPO 2006/2012 5SM -SHRA BR BKN008 OVC020 RMK NXT FCST BY 191500Z",
    "EHAM": "TAF EHAM 191112Z 1912/2018 32015KT 9999 SCT030 BECMG 1918/1921 32007KT BECMG 2006/2009 33012KT",
    "EBBR": "TAF EBBR 191100Z 1912/2018 33010KT 9999 SCT045",
    "EDDF": "TAF EDDF 191100Z 1912/2018 32011KT 9999 SCT045 BECMG 1919/1921 33006KT",
    "EDFH": "TAF EDFH 191100Z 1912/2012 32010KT 9999 SCT035 BECMG 1917/1919 34005KT",
    "EDDL": "TAF EDDL 191100Z 1912/2018 30012KT CAVOK PROB40 TEMPO 1912/1918 30015G25KT BECMG 1919/1922 30004KT BECMG 2010/2013 32009KT",
    "EDDK": "TAF EDDK 191100Z 1912/2018 30011KT CAVOK PROB30 TEMPO 1912/1917 30015G25KT BECMG 1918/1921 32004KT BECMG 2011/2013 33009KT",
    "EBLG": "TAF EBLG 191100Z 1912/2018 32009KT 9999 SCT045",
    "LSZH": "TAF LSZH 191125Z 1912/2018 29005KT 9999 FEW040 TX26/1915Z TN12/2004Z TX26/2015Z PROB30 TEMPO 1912/1916 SHRA FEW050TCU BECMG 1912/1914 30010KT BECMG 1917/1919 03006KT BECMG 1919/1922 VRB02KT CAVOK TEMPO 2006/2018 06006KT 9999 FEW040 PROB30 TEMPO 2016/2018 31008KT",
    "LIMC": "TAF LIMC 191100Z 1912/2018 VRB05KT 9999 FEW050 TEMPO 2000/2008 4000 TSRA BECMG 2008/2010 11010KT BECMG 2013/2015 VRB05KT",
    "LIRF": "TAF LIRF 191100Z 1912/2018 17010KT CAVOK BECMG 1912/1914 23012KT BECMG 1917/1919 VRB05KT TEMPO 2002/2006 3000 BR BECMG 2010/2012 21012KT",
    "EINN": "TAF EINN 191100Z 1912/2012 01008KT 9999 FEW020",
    "EGLL": "TAF EGLL 191053Z 1912/2018 01009KT 9999 SCT040",
    "EGSS": "TAF EGSS 191100Z 1912/2018 01008KT 9999 FEW045",
    "EPWA": "TAF EPWA 191130Z 1912/2012 VRB05KT CAVOK PROB30 TEMPO 1912/1915 VRB15G25KT 2500 TSRA SCT050CB TEMPO 1915/1920 27020G35KT 2000 TSRA BKN030CB BECMG 1918/1920 28010KT TEMPO 1920/2006 4900 BR BKN005 BKN010 ",
    "UHPP": "TAF UHPP 191045Z 1912/2018 36003G10MPS 9999 SCT040CB TX28/2003Z TN18/1917Z TEMPO 1922/2009 30005G12MPS TEMPO 2015/2018 2000 -SHRA BR BKN005 OVC020CB",
    "EFHK": "TAF EFHK 191125Z 1912/2012 31013KT 9999 BKN023 BKN025 BECMG 1914/1916 01010KT PROB30 1920/2002 FEW040TCU",
    "LBBG": "TAF LBBG 191100Z 1912/2012 12013KT 9999 SCT045 BECMG 1921/1923 VRB03KT BECMG 2008/2010 13015KT",
    "LTAC": "TAF LTAC 191040Z 1912/2012 VRB02KT 9999 SCT040 BECMG 1915/1917 CAVOK TEMPO 1916/1920 04012KT BECMG 2006/2009 SCT040",
    "UBBB": "TAF UBBB 191057Z 1912/2012 33022G32KT 9999 FEW015 TX30/1912Z TN23/2001Z TEMPO 1918/2009 34028G38KT SCT010 FEW050CB PROB40 TEMPO 1918/2009 -TSRA SCT040CB BECMG 2009/2011 36014KT",
    "UTAA": "TAF UTAA 191045Z 1912/2012 35016KT 6000 SCT050 TEMPO 1912/1918 29014G24KT 4000 DRDU BECMG 1918/1920 25014KT TEMPO 2004/2010 30016G26KT",
    "UACC": "TAF UACC 191102Z 1912/2012 24009MPS 9999 SCT040 BKN100 TX29/2009Z TN18/1923Z TEMPO 1912/1916 28013MPS BKN030CB BECMG 1916/1918 28004MPS SCT030 BECMG 2004/2006 24009MPS TEMPO 2004/2012 28013MPS BKN030CB PROB40 TEMPO 2008/2012 TS BKN030CB",
    "UAAA": "TAF UAAA 191103Z 1912/2012 05005MPS 9999 FEW050 SCT100 TX42/2010Z TN25/2000Z BECMG 1914/1915 19002MPS TEMPO 2002/2009 32005MPS TEMPO 2009/2012 04005MPS",
    "UZTT": "TAF UZTT 191100Z 1912/2012 09010KT 7000 NSC TX44/1911Z TN26/2000Z TEMPO 1912/1916 32010G20KT",
    "ZWWW": "TAF ZWWW 190902Z 1912/2018 36004MPS CAVOK TX40/2009Z TN28/1923Z TN31/2018Z BECMG 1913/1914 18004MPS BECMG 2002/2003 36004MPS BECMG 2013/2014 18004MPS",
    "ZLXY": "TAF ZLXY 190905Z 1912/2012 08003MPS 6000 NSC TX37/2008Z TN22/1922Z",
    "ZBAA": "TAF ZBAA 190901Z 1912/2018 16004MPS CAVOK TX30/2006Z TN23/1921Z TN24/2018Z TEMPO 1916/1919 -TSRA FEW040CB BKN040 TEMPO 2009/2012 TSRA FEW040CB BKN040",
    "ZBHH": "TAF AMD ZBHH 191159Z 1912/2012 06004G09MPS 9999 SCT040 TX32/2008Z TN15/1922Z TEMPO 1912/1914 36006MPS SCT040 SCT040CB TEMPO 1921/2001 2800 -SHRA FEW040 FEW040CB TEMPO 2006/2009 -TSRA SCT040 SCT040CB",
    "ZSQD": "TAF ZSQD 190902Z 1912/2012 16003MPS 3500 BR NSC TX30/2006Z TN20/1920Z",
    "ZMCK": "TAF ZMCK 191040Z 1912/2018 VRB02MPS 9999 FEW030CB SCT033 TN10/1921Z TX24/2007Z BECMG 2002/2004 32005MPS PROB40 TEMPO 2005/2013 VRB08G13MPS TSRA SCT027CB SCT030 BECMG 2010/2012 VRB02MPS",
    "UUEE": "TAF UUEE 191050Z 1912/2012 20003G08MPS CAVOK TX27/1912Z TN15/2001Z",
    "UUDD": "TAF UUDD 191053Z 1912/2018 20003MPS CAVOK TX28/2012Z TN13/2001Z",
    "ULLI": "TAF ULLI 191053Z 1912/2012 27006G13MPS 6000 BKN016 TEMPO 1912/1918 22008G16MPS -TSRA BKN017CB BECMG 1918/1919 33003MPS BECMG 2005/2006 03005G12MPS",
    "USSS": "TAF USSS 191051Z 1912/2012 04003G12MPS 6000 -SHRA BKN016CB TEMPO 1912/2012 VRB19MPS -TSRA SQ BKN011CB",
    "UNNT": "TAF UNNT 191100Z 1912/2012 03003G08MPS 9999 BKN040 TX26/2009Z TN16/1922Z TEMPO 1912/1918 33006G13MPS -TSRA BKN020CB",
    "UNKL": "TAF AMD UNKL 191129Z 1911/2012 29003G08MPS 6000 -TSRA SCT040CB TEMPO 1911/1912 32008G18MPS 1000 TSRA BECMG 1912/1913 32008G18MPS 4500 -TSRAGR BECMG 1914/1916 29003G08MPS 6000 NSW TEMPO 1916/1924 0250 -TSRA FG BKN002 BKN016CB TEMPO 2000/2012 34005MPS -TSRA BKN016CB",
    "UIBB": "TAF UIBB 191100Z 1912/2012 27003MPS 6000 -SHRA FEW001 BKN016CB TEMPO 1912/1915 0300 +TSRA FG VV001 BECMG 1915/1916 0300 FG BKN001 TEMPO 1916/1924 4000 BR FEW003 BKN011 BECMG 2000/2002 6000 -SHRA BKN011CB TEMPO 2002/2012 VRB08MPS -TSRA",
    "UEEE": "TAF UEEE 191100Z 1912/2018 30003G08MPS 9999 BKN023CB OVC070 TEMPO 1912/1923 VRB01MPS 0500 TSRA FG VV003",
    "UHHH": "TAF UHHH 191045Z 1912/2018 27003MPS CAVOK TX30/2003Z TN19/1917Z FM191800 VRB01MPS 5000 BR NSC TEMPO 1918/1921 0400 FG FEW005 FM192300 26003MPS 9999 SCT020 TEMPO 2000/2009 29008MPS",
    "UHSS": "TAF UHSS 191050Z 1912/2018 30003MPS 0550 FG BKN002 BKN016CB BECMG 1922/1924 9999 NSW BKN016CB"
  },
  "atis": {},
  "windtemp_alaska": "\n000\nFBAK31 KWNO 190800\nFD1AK1\nDATA BASED ON 190600Z    \nVALID 191200Z   FOR USE 0800-1500Z. TEMPS NEG ABV 24000\n\nFT  3000    6000    9000   12000   18000   24000  30000  34000  39000\nADK 2210 2612+02 3021+01 3230-02 3238-14 3360-23 337037 327745 327452\nADQ 1826 1833+04 1837-01 1846-04 1861-16 1971-27 197341 186951 186353\nAKN 1628 1532-01 1637-03 1742-08 1746-20 1862-31 188644 177444 184343\nANC 1222 1537+03 1939+01 2042-04 1955-16 2056-27 196142 196251 204953\nANN 3416 3418+07 3317+05 3313+01 3414-12 3513-25 351640 351949 342657\nBET 1211 1218-01 1226-06 1221-11 1419-22 1316-35 152744 162540 161839\nBRW 9900 9900+02 1805-04 1606-08 1313-21 1220-31 102746 102745 111842\nBTI 2415 2517+04 2512-02 2308-08 1808-21 1716-31 152346 162246 171741\nBTT 1506 1510+02 1410-04 1410-09 2124-19 2133-32 225446 224848 202844\nCDB 2713 2815-01 2820-07 2720-12 2325-24 2231-35 212542 211538 211039\nCZF 0610 0615-01 0613-06 0615-10 0809-22 1114-35 101847 110541 050539\nEHM 1211 1113-01 1015-07 1013-11 1314-22 1317-35 152044 151939 161939\nFAI 2024 1821+03 1824-03 1930-09 2136-16 2354-27 226942 217452 214550\nFYU 2306 2108+04 2008-03 1910-09 2322-18 2345-29 247642 237651 223848\nGAL 1311 1210+01 1113-05 1416-11 1523-19 1829-32 194848 194747 182842\nGKN 1625 1729+04 1931+01 2137-04 2235-16 2143-26 214442 214651 223655\nHOM 1331 1832+04 1842+00 1851-04 1961-16 1965-26 196742 196851 195853\nJNU 9900 3210+06 3214+05 3113+01 2905-13 3010-25 301240 291048 240759\nLUR 1208 1408+01 1310-05 1212-10 1017-24 0832-35 093145 082342 081640\nMCG 1119 1419+00 1519-05 1523-09 1733-19 1849-31 198145 198448 193744\nMDO 1830 1830+06 1826+01 2027-03 2128-16 2035-26 203742 204151 204056\nOME 1211 1211+00 1112-06 1011-11 1611-23 1826-35 182748 161142 120839\nORT      1911+05 2216+01 2427-03 2332-15 2235-25 224042 224251 233257\nOTZ 1511 1414+01 1417-05 1419-11 1616-24 1931-35 183347 161841 131239\nSNP 3318 3416-01 3417-04 3421-10 3535-22 3446-34 346443 345842 344141\nTKA 9900 1517+00 1722-04 1832-06 1959-17 2062-27 206742 206751 204751\nUNK 1522 1520+00 1320-06 1326-11 1221-21 1529-32 163150 163044 151440\nYAK 2805 2819+06 2824+02 2919-02 2215-13 2020-25 212840 203050 212758\nIKO 3220 3222-01 3328-04 3332-09 3342-22 3455-34 337143 336842 335142\nAFM 1508 1511+01 1512-04 1614-11 1922-21 1925-34 203548 182345 161841\n5AB 3112 3021+12 3027+07 3133+02 3135-10 3041-21 305036 305146 305053\n5AC 3319 3321+08 3223+06 3224+01 3121-13 3016-25 271540 251149 180758\n5AD 2229 2126+06 2123+02 2127-01 2131-14 2131-26 203541 194050 194058\n5AE 2022 1934+03 1939-01 1942-06 1959-17 1982-28 199343 198349 195947\n5AF 3016 3116+08 3118+04 3116+00 2712-13 2411-24 231440 211549 211859\n5AG 2116 2313+06 2117+02 2216-02 2321-14 2325-25 222840 212950 212858\n",
  "vaac_active": [
    {
      "volcano": "MAYON",
      "volcano_jp": "マヨン",
      "advisory_nr": "2026/768",
      "obs_time": "2026-07-19 11:52Z",
      "issued_time": "2026-07-19 12:08Z",
      "text_url": "https://www.data.jma.go.jp/vaac/data/TextData/2026/20260719_27303000_0768_Text.html",
      "lat": 13.25,
      "lon": 123.683,
      "text": "FVFE01 RJTD 191208\nVA ADVISORY\nDTG: 20260719/1208Z\nVAAC: TOKYO\nVOLCANO: MAYON 273030\nPSN: N1315 E12341\nAREA: PHILIPPINES\nSOURCE ELEV: 2462M AMSL\nADVISORY NR: 2026/768\nINFO SOURCE: HIMAWARI-9 PHIVOLCS\nERUPTION DETAILS: ERUPTION AT 20260719/1152Z VA CLD UNKNOWN REPORTED\nOBS VA DTG: 19/1150Z\nOBS VA CLD: VA NOT IDENTIFIABLE FM SATELLITE DATA WIND FL180 060/9KT\nFCST VA CLD +6 HR: NOT AVBL\nFCST VA CLD +12 HR: NOT AVBL\nFCST VA CLD +18 HR: NOT AVBL\nRMK: WE WILL ISSUE FURTHER ADVISORY IF VA IS DETECTED IN SATELLITE \nIMAGERY.\nNXT ADVISORY: NO FURTHER ADVISORIES="
    }
  ],
  "vaac_tokyo": [
    {
      "id": "20260719_27303000_0767",
      "year": "2026",
      "volcano": "Mayon",
      "psn": "N1315 E12341",
      "issued": "20260719",
      "text": "FVFE01 RJTD 190225\nVA ADVISORY\nDTG: 20260719/0225Z\nVAAC: TOKYO\nVOLCANO: MAYON 273030\nPSN: N1315 E12341\nAREA: PHILIPPINES\nSOURCE ELEV: 2462M AMSL\nADVISORY NR: 2026/767\nINFO SOURCE: HIMAWARI-9 PHIVOLCS\nERUPTION DETAILS: ERUPTION AT 20260719/0207Z FL090 REPORTED\nOBS VA DTG: 19/0210Z\nOBS VA CLD: VA NOT IDENTIFIABLE FM SATELLITE DATA WIND FL090 350/1KT\nFCST VA CLD +6 HR: NOT AVBL\nFCST VA CLD +12 HR: NOT AVBL\nFCST VA CLD +18 HR: NOT AVBL\nRMK: WE WILL ISSUE FURTHER ADVISORY IF VA IS DETECTED IN SATELLITE \nIMAGERY.\nNXT ADVISORY: NO FURTHER ADVISORIES=",
      "img_url": "https://ds.data.jma.go.jp/svd/vaac/data/VAGFN/2026/Images/20260719_27303000_0767_QH21_01.png",
      "sat_img_url": null,
      "text_url": "https://ds.data.jma.go.jp/svd/vaac/data/TextData/2026/20260719_27303000_0767_Text.html"
    },
    {
      "id": "20260718_30027000_0268",
      "year": "2026",
      "volcano": "Sheveluch",
      "psn": "N5639 E16122",
      "issued": "20260718",
      "text": "FVFE01 RJTD 180000\nVA ADVISORY\nDTG: 20260718/0000Z\nVAAC: TOKYO\nVOLCANO: SHEVELUCH 300270\nPSN: N5639 E16122\nAREA: RUSSIA\nSOURCE ELEV: 3283M AMSL\nADVISORY NR: 2026/268\nINFO SOURCE: KVERT HIMAWARI-9\nERUPTION DETAILS: VA CONTINUOUSLY OBS IN SATELLITE IMAGERY\nOBS VA DTG: 17/2320Z\nOBS VA CLD: SFC/FL290 N5601 E16322 - N5605 E16357 - N5546 E16401 - \nN5544 E16326 MOV SE 25KT\nFCST VA CLD +6 HR: 18/0520Z SFC/FL300 N5529 E16617 - N5404 E16714 - \nN5357 E16639 - N5527 E16530\nFCST VA CLD +12 HR: 18/1120Z SFC/FL300 N5352 E17006 - N5152 E17037 - \nN5152 E16936 - N5344 E16817\nFCST VA CLD +18 HR: NO VA EXP\nRMK: SOME PART OF VA OBSCURED BY MET CLOUD.\nNXT ADVISORY: 20260718/0600Z=",
      "img_url": "https://ds.data.jma.go.jp/svd/vaac/data/VAGFN/2026/Images/20260718_30027000_0268_QH21_01.png",
      "sat_img_url": "https://ds.data.jma.go.jp/svd/vaac/data/Sat/2026/Images/30027000/09-ir/20260717_2320_202607180000_ir.png",
      "text_url": "https://ds.data.jma.go.jp/svd/vaac/data/TextData/2026/20260718_30027000_0268_Text.html"
    },
    {
      "id": "20260717_27307000_0014",
      "year": "2026",
      "volcano": "Taal",
      "psn": "N1400 E12100",
      "issued": "20260717",
      "text": "FVFE01 RJTD 171113\nVA ADVISORY\nDTG: 20260717/1113Z\nVAAC: TOKYO\nVOLCANO: TAAL 273070\nPSN: N1400 E12100\nAREA: PHILIPPINES\nSOURCE ELEV: 311M AMSL\nADVISORY NR: 2026/14\nINFO SOURCE: HIMAWARI-9 PHIVOLCS\nERUPTION DETAILS: ERUPTION AT 20260717/1051Z FL040 EXTD E REPORTED\nOBS VA DTG: 17/1100Z\nOBS VA CLD: VA NOT IDENTIFIABLE FM SATELLITE DATA WIND FL040 270/8KT\nFCST VA CLD +6 HR: NOT AVBL\nFCST VA CLD +12 HR: NOT AVBL\nFCST VA CLD +18 HR: NOT AVBL\nRMK: WE WILL ISSUE FURTHER ADVISORY IF VA IS DETECTED IN SATELLITE \nIMAGERY.\nNXT ADVISORY: NO FURTHER ADVISORIES=",
      "img_url": "https://ds.data.jma.go.jp/svd/vaac/data/VAGFN/2026/Images/20260717_27307000_0014_QH21_01.png",
      "sat_img_url": null,
      "text_url": "https://ds.data.jma.go.jp/svd/vaac/data/TextData/2026/20260717_27307000_0014_Text.html"
    },
    {
      "id": "20260713_28208001_0083",
      "year": "2026",
      "volcano": null,
      "psn": "N3136 E13039",
      "issued": "20260713",
      "text": "FVFE01 RJTD 130254\nVA ADVISORY\nDTG: 20260713/0254Z\nVAAC: TOKYO\nVOLCANO: SAKURAJIMA (AIRA CALDERA) 282080\nPSN: N3136 E13039\nAREA: JAPAN\nSOURCE ELEV: 1117M AMSL\nADVISORY NR: 2026/83\nINFO SOURCE: JMA HIMAWARI-9\nERUPTION DETAILS: ERUPTED AT 20260713/0152Z FL100 EXTD N\nOBS VA DTG: 13/0230Z\nOBS VA CLD: SFC/FL100 N3136 E13039 - N3142 E13040 - N3141 E13044 - \nN3134 E13042 MOV NE 15KT\nFCST VA CLD +6 HR: 13/0830Z SFC/FL100 N3234 E13121 - N3145 E13155 - \nN3202 E13110 - N3227 E13051\nFCST VA CLD +12 HR: 13/1430Z SFC/FL100 N3318 E13206 - N3142 E13317 - \nN3134 E13226 - N3312 E13118\nFCST VA CLD +18 HR: NO VA EXP\nRMK: NIL\nNXT ADVISORY: 20260713/0600Z=",
      "img_url": "https://ds.data.jma.go.jp/svd/vaac/data/VAGFN/2026/Images/20260713_28208001_0083_QH21_01.png",
      "sat_img_url": "https://ds.data.jma.go.jp/svd/vaac/data/Sat/2026/Images/28208001/09-ir/20260713_0230_202607130254_ir.png",
      "text_url": "https://ds.data.jma.go.jp/svd/vaac/data/TextData/2026/20260713_28208001_0083_Text.html"
    }
  ],
  "vaac_alaska": [
    {
      "text": "\n000\nFVAK21 PAWU 180008\nVAAAK1\nVA ADVISORY\n\nDTG: 20260718/0000Z\n\nVAAC: ANCHORAGE\n\nVOLCANO: SHEVELUCH 300270\n\nPSN: N5639 E16122\n\nAREA: KAMCHATKA PENINSULA\n\nSOURCE ELEV: 10771 FT AMSL\n\nADVISORY NR: 2026/205\n\nRMK: PLEASE SEE FVFE01 RJTD ISSUED BY VAAC TOKYO WHICH DESCRIBES\nCONDITIONS NEAR THE VAAC ANCHORAGE AREA OF RESPONSIBILITY...BS\n\n\n\n",
      "issued": "2026-07-18T00:08:00+00:00",
      "volcano": "Sheveluch",
      "psn": "N5639 E16122"
    }
  ]
}