{
  "updated_utc": "2026-07-04T04:22Z",
  "metar": {
    "RJAA": "METAR RJAA 040230Z 13009KT 9999 -SHRA FEW015 SCT020 BKN035 24/20 Q1012 NOSIG",
    "PANC": "METAR PANC 040253Z 27006KT 10SM FEW045 BKN085 BKN130 14/08 A2989 RMK AO2 SLP121 T01440083 53004",
    "PAFA": "METAR PAFA 040253Z 01004KT 10SM SCT065CB BKN075 BKN090 16/10 A2975 RMK AO2 RAE40 SLP079 PRSNT WX VCSH NE SE SW CB NE SE SW MOV E P0000 60000 T01610100 51022 $",
    "PAED": "METAR PAED 040255Z 28010KT 10SM VCSH SCT050 BKN080 15/07 A2986 RMK AO2A SLP108 T01540072 53004 $",
    "KSEA": "METAR KSEA 040253Z 28004KT 10SM SCT040 BKN150 BKN230 20/12 A3008 RMK AO2 SLP189 T02000117 56003 $",
    "ZSPD": "METAR ZSPD 040230Z 20004MPS CAVOK 31/27 Q1008 NOSIG",
    "ZSSS": "METAR ZSSS 040230Z 20004MPS 170V240 CAVOK 33/26 Q1007 NOSIG",
    "RJFR": "METAR RJFR 040300Z VRB02KT 9999 FEW005 SCT008 BKN030 24/23 Q1008",
    "VHHH": "METAR VHHH 040230Z 15014KT 120V190 9999 FEW012 SCT025 31/25 Q1009 NOSIG",
    "RCTP": "METAR RCTP 040230Z 27010KT 240V300 9999 FEW012 SCT035 BKN200 34/24 Q1012 NOSIG RMK A2991",
    "ZGSZ": "METAR ZGSZ 040300Z 15009MPS 9999 SCT026 32/26 Q1009 NOSIG",
    "WSSS": "METAR WSSS 040230Z 12009KT 080V150 9999 FEW018 BKN300 31/25 Q1011 NOSIG",
    "WMKK": "METAR WMKK 040230Z 13008KT 060V190 9999 FEW017CB 32/25 Q1010 NOSIG",
    "WIDD": "METAR WIDD 040230Z 15009KT 120V180 9999 FEW014 30/25 Q1011 NOSIG",
    "VTBS": "METAR VTBS 040230Z 25007KT 9999 FEW020 27/23 Q1008 NOSIG",
    "VTBU": "METAR VTBU 040230Z 02005KT 350V050 6000 -RA FEW020 BKN080 26/26 Q1010 NOSIG",
    "ROAH": "METAR ROAH 040230Z 21007KT 9999 FEW012 30/27 Q1014",
    "VVDN": "METAR VVDN 040230Z 17005KT 9999 FEW015 SCT070 29/23 Q1006 NOSIG",
    "RCKH": "METAR RCKH 040230Z 18010KT 140V210 9999 FEW024 32/24 Q1013 NOSIG RMK A2992",
    "KLAX": "METAR KLAX 040253Z 26011KT 10SM FEW019 SCT100 BKN220 19/16 A2999 RMK AO2 SLP153 T01890156 53001 $",
    "KONT": "METAR KONT 040253Z 24009KT 10SM BKN250 27/11 A2997 RMK AO2 SLP135 T02720111 53003 $",
    "KSFO": "METAR KSFO 040256Z 30016KT 10SM FEW004 16/12 A2997 RMK AO2 PK WND 30026/0216 SLP147 T01560122 53004 $",
    "KOAK": "METAR KOAK 040253Z 29010KT 10SM FEW006 16/13 A2998 RMK AO2 SLP151 T01610128 53004 $",
    "KMHR": "METAR KMHR 040235Z AUTO 22012KT 10SM CLR 31/08 A2988 RMK AO2 T03130082",
    "KDFW": "METAR KDFW 040253Z 17011KT 10SM FEW070 FEW250 32/19 A2996 RMK AO2 SLP134 T03220189 53008 $",
    "KIAH": "METAR KIAH 040253Z 17006KT 10SM CLR 30/24 A3000 RMK AO2 SLP156 T03000239 53003",
    "KORD": "SPECI KORD 040232Z 21013G23KT 3SM -TSRA BR SCT023 BKN045CB OVC075 26/23 A2997 RMK AO2 RAB22 TSB09 CONS LTGICCG OHD TS OHD MOV NE P0000 T02610233",
    "KJFK": "METAR KJFK 040251Z 28008KT 10SM FEW070 FEW120 BKN160 BKN250 27/18 A2992 RMK RAE47 SLP132 P0000 60000 T02720183 51010 $",
    "KRFD": "METAR KRFD 040254Z 34003KT 9SM -TSRA FEW070CB BKN090 OVC110 21/21 A3001 RMK AO2 SLP156 OCNL LTGICCACG OHD TS OHD MOV E P0005 60026 T02110206 51012",
    "KIND": "METAR KIND 040254Z 15005KT 10SM SCT250 27/23 A3004 RMK AO2 SLP164 T02670228 53001",
    "KDTW": "METAR KDTW 040253Z 23007KT 10SM FEW100 FEW150 SCT230 22/19 A3002 RMK AO2 SLP159 60000 T02170194 50006 $",
    "KMSP": "SPECI KMSP 040249Z 25006KT 10SM VCTS FEW043 SCT065CB 27/20 A2996 RMK AO2 TSE43 VCTS E MOV SE",
    "CYEG": "METAR CYEG 040300Z 23004KT 20SM FEW025CB FEW087 FEW140 18/12 A2991 RMK CB1AC1AC1 CB TR CB DIST S MOV SE SLP133 DENSITY ALT 3300FT",
    "EHAM": "METAR EHAM 040225Z 18009KT CAVOK 16/12 Q1025 NOSIG",
    "EBBR": "METAR EBBR 040250Z 22005KT CAVOK 12/10 Q1027 NOSIG",
    "EDDF": "METAR EDDF 040250Z AUTO 30009KT CAVOK 16/09 Q1026 NOSIG",
    "EDFH": "METAR EDFH 040250Z 28004KT CAVOK 11/08 Q1027",
    "EDDL": "METAR EDDL 040250Z AUTO VRB02KT CAVOK 11/09 Q1027 NOSIG",
    "EDDK": "METAR EDDK 040250Z AUTO VRB01KT CAVOK 09/08 Q1027 NOSIG",
    "EBLG": "METAR EBLG 040250Z 20005KT CAVOK 14/09 Q1027 NOSIG",
    "LSZH": "METAR LSZH 040250Z AUTO 33004KT 9999 FEW072 13/10 Q1027 NOSIG",
    "LIMC": "METAR LIMC 040250Z 36005KT CAVOK 22/09 Q1020 NOSIG",
    "LIRF": "METAR LIRF 040250Z 04006KT CAVOK 22/13 Q1016 NOSIG",
    "EINN": "METAR EINN 040230Z 26012KT 9999 BKN008 BKN032 16/15 Q1027 NOSIG",
    "EGLL": "METAR EGLL 040250Z AUTO 27011KT 9999 NCD 15/13 Q1027",
    "EGSS": "METAR EGSS 040250Z AUTO 25008KT 9999 NCD 16/13 Q1026",
    "EPWA": "METAR EPWA 040230Z 28007KT CAVOK 15/09 Q1016 NOSIG",
    "UHPP": "METAR UHPP 040230Z 18005MPS 9999 -SHRA BKN036CB BKN067 12/12 Q1015 R16R/190062 NOSIG RMK MT OBSC QFE758/1011",
    "EFHK": "METAR EFHK 040250Z 04004KT 020V090 0150 R04L/0300N R15/0450U R22L/0550N R22R/0400N FG VV001 14/14 Q1003 BECMG 1000 BR BKN002",
    "LBBG": "METAR LBBG 040230Z AUTO 29006KT 230V020 9999 SCT028/// 24/18 Q1011 TEMPO 4000 TSRA FEW030CB BKN040",
    "LTAC": "METAR LTAC 040250Z 18003KT 130V200 CAVOK 14/09 Q1014 NOSIG RMK RWY21C VRB01KT RWY03L VRB01KT RWY21R 00000KT RWY03R VRB02KT RWY21L VRB01KT",
    "UBBB": "METAR UBBB 040230Z 12002KT CAVOK 23/20 Q1006 NOSIG",
    "UTAA": "METAR UTAA 040300Z VRB02KT 9999 NSC 27/09 Q1007 R88/CLRD70 NOSIG",
    "UACC": "METAR UACC 040230Z 23005MPS CAVOK 20/15 Q1005 NOSIG RMK QFE723/0964",
    "UAAA": "METAR UAAA 040230Z 32002MPS 230V010 2100 BR BKN002 OVC200 14/14 Q1008 NOSIG RMK QBB080",
    "UZTT": "METAR UZTT 040230Z 17006KT 100V200 9999 SCT066CB 21/14 Q1009 NOSIG",
    "ZWWW": "METAR ZWWW 040230Z 36003MPS 330V030 CAVOK 26/12 Q1010 NOSIG",
    "ZLXY": "METAR ZLXY 040300Z 20002MPS 130V250 CAVOK 32/18 Q1005 NOSIG",
    "ZBAA": "METAR ZBAA 040230Z 22002MPS 170V300 CAVOK 27/23 Q1000 NOSIG",
    "ZBHH": "METAR ZBHH 040300Z 16003MPS 120V200 9999 SCT040 21/17 Q1007 NOSIG",
    "ZSQD": "METAR ZSQD 040300Z 18005G10MPS 150V220 CAVOK 29/20 Q1004 NOSIG",
    "ZMCK": "METAR ZMCK 040230Z 34009MPS 9999 SCT030CB SCT033 18/13 Q1013 NOSIG RMK QFE644.7 75 MOP",
    "UUEE": "METAR UUEE 040230Z 06004MPS CAVOK 18/14 Q1006 R06R/CLRD62 NOSIG",
    "UUDD": "METAR UUDD 040230Z 04003MPS 9999 FEW005 16/16 Q1006 R13R/290045 NOSIG",
    "ULLI": "METAR ULLI 040230Z VRB01MPS 9999 OVC003 15/14 Q1004 R28R/090065 NOSIG RMK QBB090 OBST OBSC",
    "USSS": "METAR USSS 040230Z 31004MPS 290V350 CAVOK 19/17 Q1004 R26L/220060 R26R/290040 NOSIG RMK QFE732/0976",
    "UNNT": "METAR UNNT 040230Z 16004MPS CAVOK 21/19 Q1007 R25/290160 R34/////// NOSIG RMK QFE745/0994",
    "UNKL": "METAR UNKL 040230Z 11004MPS CAVOK 24/17 Q1008 R11/CLRD// NOSIG RMK QFE731",
    "UIBB": "METAR UIBB 040230Z 09003MPS 030V160 9999 NSC 24/16 Q1013 R12/CLRD62 NOSIG RMK QFE717/0956",
    "UEEE": "METAR UEEE 040230Z 16003MPS CAVOK 27/12 Q1005 R23/09//62 NOSIG RMK QFE745",
    "UHHH": "METAR UHHH 040230Z 24004MPS 200V270 9999 SCT032CB 26/18 Q1004 R23R/090060 NOSIG RMK QFE747/0996",
    "UHSS": "METAR UHSS 040230Z 18005MPS 9999 NSC 20/15 Q1011 R19/CLRD70 NOSIG RMK QFE757/1009"
  },
  "taf": {
    "RJAA": "TAF AMD RJAA 040053Z 0400/0506 14010KT 9999 FEW008 BKN015 TEMPO 0409/0412 FEW003 BKN008 TEMPO 0412/0500 FEW001 BKN003",
    "PANC": "TAF PANC 032320Z 0400/0506 29006KT P6SM FEW040 SCT060 BKN080 FM040200 28008G16KT P6SM VCSH SCT040 BKN060 FM040700 18010KT 6SM -SHRA BR SCT025 OVC040 FM041200 VRB04KT 5SM -RA BR OVC025 FM042000 30004KT P6SM VCSH SCT025 BKN040 FM050100 16015G25KT P6SM FEW040 BKN080",
    "PAFA": "TAF PAFA 032330Z 0400/0506 VRB05KT P6SM VCTS FEW070CB SCT100 TEMPO 0400/0404 VRB10G20KT 6SM -TSRA SCT050CB BKN100 FM040600 VRB03KT P6SM FEW070 BKN090 FM041500 21005KT P6SM -SHRA BKN070",
    "PAED": "TAF PAED 032100Z 0321/0503 24009KT 9999 SCT035 BKN060 620604 QNH2985INS BECMG 0406/0407 20007KT 9999 -SHRA BKN025 OVC040 620258 QNH2994INS BECMG 0410/0411 20006KT 9000 -RA BKN015 OVC020 620159 QNH2995INS TX17/0400Z TN10/0414Z",
    "KSEA": "TAF KSEA 040259Z 0403/0506 28005KT P6SM SCT040 BKN150 FM040500 30007KT P6SM BKN045 FM040800 31004KT P6SM OVC050 FM041200 21004KT P6SM BKN025 OVC030 FM041700 22008KT P6SM BKN050 FM042200 23007KT P6SM SCT250",
    "ZSPD": "TAF ZSPD 040308Z 0406/0512 20004MPS 6000 -SHRA BKN020 TX32/0406Z TX31/0506Z TN24/0421Z TEMPO 0406/0408 33008G13MPS 2800 TSRA BKN010 SCT030CB TEMPO 0408/0412 32008G13MPS 2500 TSRA BKN011 SCT030CB TEMPO 0416/0419 2800 TSRA BKN011 SCT030CB",
    "ZSSS": "TAF ZSSS 040308Z 0406/0512 20004MPS 6000 BKN030 TX34/0406Z TX32/0506Z TN24/0421Z TEMPO 0407/0411 33008G13MPS 2500 TSRA BKN010 SCT030CB TEMPO 0416/0419 2500 TSRA BKN010 SCT030CB",
    "RJFR": "TAF RJFR 032305Z 0400/0506 17008KT 9999 FEW010 SCT025 TEMPO 0400/0402 2000 +TSRA BR BKN005 BKN007 FEW012CB BECMG 0402/0404 31011KT TEMPO 0402/0404 4000 -TSRA BR BKN005 BKN008 FEW012CB BECMG 0500/0503 11006KT",
    "VHHH": "TAF VHHH 040200Z 0403/0509 14010KT 9999 FEW010 SCT025 TX31/0406Z TX31/0506Z TN28/0422Z TEMPO 0403/0406 14020G30KT 2000 TSRA +SHRA FEW008CB SCT015 TEMPO 0406/0412 16015G25KT 2500 SHRA FEW010CB SCT020 TEMPO 0412/0418 3000 SHRA FEW010CB SCT020 TEMPO 0421/0503 3000 SHRA FEW010CB SCT020",
    "RCTP": "TAF RCTP 032300Z 0400/0506 31005KT 9999 FEW010 BKN032 TEMPO 0400/0403 18005KT TEMPO 0403/0409 30015KT TEMPO 0409/0412 25005KT 4000 RA FEW010 BKN017 FEW020CB BECMG 0412/0413 21005KT TEMPO 0413/0418 15005KT TEMPO 0418/0424 14005KT",
    "ZGSZ": "TAF ZGSZ 040304Z 0406/0512 17006MPS 8000 SCT040 TX32/0406Z TX31/0506Z TN27/0422Z TEMPO 0406/0410 TSRA SCT012 FEW025CB BKN033 TEMPO 0410/0413 SHRA FEW025CB BKN033 TEMPO 0418/0422 SHRA FEW025CB BKN033 TEMPO 0503/0507 TSRA SCT012 FEW025CB BKN033",
    "WSSS": "TAF WSSS 032300Z 0400/0506 15008KT 9999 FEW015 SCT020",
    "WMKK": "TAF WMKK 032300Z 0400/0506 VRB03KT 9999 FEW030",
    "VTBS": "TAF VTBS 032300Z 0400/0506 22008KT 9999 FEW020 TEMPO 0400/0404 -TSRA FEW018CB SCT020 BKN080 TEMPO 0409/0413 VRB15KT 4000 TSRA FEW018CB SCT020 BKN080",
    "VTBU": "TAF VTBU 032300Z 0400/0424 24008KT 9000 FEW020 SCT100 TEMPO 0406/0412 VRB15KT 4000 TSRA FEW018CB SCT030 BKN090",
    "ROAH": "TAF ROAH 032305Z 0400/0506 21010KT 9999 FEW015",
    "VVDN": "TAF VVDN 032300Z 0400/0424 19008KT 9999 SCT017 BKN060 TEMPO 0400/0410 4000 RA",
    "RCKH": "TAF RCKH 032300Z 0400/0506 17010KT 9999 FEW010 BKN032 TEMPO 0400/0403 10005KT TEMPO 0403/0409 18018KT TEMPO 0418/0424 06005KT",
    "KLAX": "TAF KLAX 040256Z 0403/0506 26011KT P6SM FEW015 SCT100 FM041100 VRB03KT P6SM OVC007 FM041600 25004KT P6SM BKN010 FM041800 26007KT P6SM SKC FM042100 26011KT P6SM SCT250",
    "KONT": "TAF KONT 032320Z 0400/0506 25011KT P6SM SCT250 FM040500 VRB05KT P6SM BKN200 FM042100 25011KT P6SM SCT080 BKN120 FM050500 VRB05KT P6SM SCT150",
    "KSFO": "TAF KSFO 040300Z 0403/0506 31014KT P6SM FEW250 FM040700 28006KT P6SM OVC011 FM041800 02005KT P6SM FEW010 FM042100 29015KT P6SM SKC FM050300 29011KT P6SM FEW012",
    "KOAK": "TAF KOAK 032327Z 0400/0506 30014KT P6SM FEW250 FM040600 28007KT P6SM OVC007 FM041700 29007KT P6SM SKC FM042100 30013KT P6SM SKC FM050400 29011KT P6SM FEW006",
    "KMHR": "TAF KMHR 032320Z 0400/0424 21007KT P6SM SKC FM041000 16009KT P6SM SKC FM041400 VRB05KT P6SM SKC FM042200 23009KT P6SM SKC",
    "KDFW": "TAF KDFW 040245Z 0403/0506 16011KT P6SM SCT060",
    "KIAH": "TAF KIAH 040239Z 0403/0506 18005KT P6SM FEW040 FM040400 20004KT P6SM FEW040 TEMPO 0410/0413 24004KT 6SM BR FM041300 24006KT P6SM FEW025 FM041900 18007KT P6SM FEW040",
    "KORD": "TAF KORD 040300Z 0403/0506 18006KT 6SM -SHRA VCTS SCT040CB BKN080 TEMPO 0403/0404 32015G25KT 2SM TSRA BR BKN020 OVC040CB FM040600 18005KT P6SM FEW035 SCT120 FM041300 23008KT P6SM SCT025 SCT120 FM042000 09009KT P6SM SCT040 BKN150 PROB30 0420/0424 2SM TSRA BR SCT015 OVC040CB",
    "KJFK": "TAF KJFK 040230Z 0403/0506 25010KT P6SM SCT070 BKN150 FM040400 29008KT P6SM SKC FM041400 26010KT P6SM FEW060 SCT250 FM041700 25012G17KT P6SM SCT060 SCT250 PROB30 0420/0424 27020G35KT 3SM TSRA BKN040CB FM050000 VRB05KT P6SM VCSH BKN060 PROB30 0500/0506 5SM -TSRA BKN040CB",
    "KRFD": "TAF KRFD 040300Z 0403/0424 18005KT 6SM -SHRA VCTS SCT050CB BKN100 FM040500 VRB05KT P6SM FEW035 SCT120 FM041300 23007KT P6SM SCT025 SCT120 FM042000 13007KT P6SM SCT040 BKN150 PROB30 0421/0424 2SM TSRA BR SCT015 OVC040CB",
    "KIND": "TAF KIND 040232Z 0403/0506 20005KT P6SM FEW200 SCT250 FM040800 21005KT P6SM VCTS BKN050CB BKN100 FM041200 20007KT P6SM SCT050 SCT100 FM042100 23009KT P6SM VCTS BKN050CB BKN100 TEMPO 0422/0502 2SM -TSRA OVC035CB",
    "KDTW": "TAF KDTW 040259Z 0403/0506 22005KT P6SM SCT120 BKN250 PROB30 0407/0411 6SM -TSRA BKN060CB FM041600 27007KT P6SM BKN060 TEMPO 0419/0423 3SM -TSRA BKN050CB FM050000 06006KT 6SM -SHRA OVC080",
    "KMSP": "TAF KMSP 040247Z 0403/0506 24006KT P6SM VCSH BKN050 FM040400 07012G18KT P6SM VCSH BKN050 FM040500 VRB03KT P6SM FEW150 FM041400 VRB04KT P6SM SCT020 SCT120 FM041800 VRB05KT P6SM SCT040 PROB30 0420/0424 4SM -TSRA BR BKN030CB",
    "CYEG": "TAF CYEG 040242Z 0403/0424 VRB03KT P6SM FEW040 FEW120 FM040800 16006KT P6SM SKC BECMG 0412/0414 23012G22KT FM041500 23012G22KT P6SM FEW080 BKN120 TEMPO 0415/0418 P6SM -SHRA FM041800 24010KT P6SM FEW030 SCT050 FM042000 24010KT P6SM BKN030 PROB30 0422/0424 VRB20G30KT 2SM TSRA OVC020CB RMK NXT FCST BY 040600Z",
    "EHAM": "TAF EHAM 032316Z 0400/0506 20005KT CAVOK BECMG 0407/0409 27012KT",
    "EBBR": "TAF EBBR 032300Z 0400/0506 21005KT CAVOK BECMG 0409/0411 27011KT",
    "EDDF": "TAF AMD EDDF 040306Z 0403/0506 34008KT CAVOK BECMG 0409/0412 27011KT PROB30 TEMPO 0412/0417 29015G25KT",
    "EDFH": "TAF EDFH 032300Z 0400/0424 32004KT CAVOK BECMG 0409/0412 28011KT TEMPO 0412/0417 28015G25KT BECMG 0418/0420 28006KT",
    "EDDL": "TAF EDDL 032300Z 0400/0506 VRB03KT CAVOK BECMG 0405/0407 22008KT BECMG 0407/0409 26014KT TEMPO 0410/0417 29015G25KT BECMG 0418/0421 28007KT",
    "EDDK": "TAF EDDK 032300Z 0400/0506 VRB03KT CAVOK BECMG 0406/0408 25006KT BECMG 0408/0410 29012KT PROB40 TEMPO 0412/0417 29015G25KT BECMG 0419/0421 29007KT",
    "EBLG": "TAF EBLG 032300Z 0400/0506 21005KT CAVOK BECMG 0410/0412 27012KT",
    "LSZH": "TAF LSZH 040225Z 0403/0509 35005KT 9999 SCT070 TX29/0415Z TN12/0405Z TN13/0505Z BECMG 0403/0405 CAVOK PROB40 0413/0417 29008KT",
    "LIMC": "TAF LIMC 032300Z 0400/0506 VRB05KT 9999 FEW070",
    "LIRF": "TAF LIRF 032300Z 0400/0506 04010KT CAVOK BECMG 0410/0412 23010KT BECMG 0414/0416 30012KT BECMG 0421/0423 03008KT",
    "EINN": "TAF EINN 032300Z 0400/0424 25012KT 9999 BKN010 PROB40 TEMPO 0400/0408 4000 -DZ BKN005 BECMG 0408/0410 BKN025 PROB40 TEMPO 0410/0424 BKN012",
    "EGLL": "TAF EGLL 032257Z 0400/0506 25009KT 9999 FEW045 PROB30 TEMPO 0405/0408 BKN012",
    "EGSS": "TAF EGSS 032301Z 0400/0506 26008KT 9999 FEW040 PROB30 0405/0408 BKN014",
    "EPWA": "TAF EPWA 040230Z 0403/0503 28010KT CAVOK PROB40 TEMPO 0403/0406 28015G25KT SCT040TCU TEMPO 0406/0418 28020G33KT SCT040TCU PROB40 TEMPO 0413/0419 -SHRA SCT040CB",
    "UHPP": "TAF COR UHPP 040147Z 0403/0509 17003G10MPS 9999 -SHRA SCT012 BKN025CB TEMPO 0410/0420 1000 BR OVC002 TEMPO 0420/0509 2000 SHRA BR BKN005 OVC017CB",
    "EFHK": "TAF EFHK 040235Z 0403/0503 03003KT 0200 FG VV001 TEMPO 0403/0404 3500 -SHRA BR SCT003 FEW035CB BECMG 0404/0406 9999 -SHRA SCT015 SCT020CB TEMPO 0407/0419 7000 TSRA BECMG 0419/0421 SCT014 BECMG 0422/0424 0500 FG VV002",
    "LBBG": "TAF LBBG 032300Z 0400/0424 27012KT 9999 SCT040 TEMPO 0401/0405 33015G25KT 3000 TSRA SCT030CB BKN045 BECMG 0405/0406 34014KT TEMPO 0406/0409 VRB15G26KT 3000 SHRA FEW030CB BKN040 BECMG 0410/0412 05012KT PROB40 TEMPO 0415/0418 5000 SHRA FEW030CB BKN040",
    "LTAC": "TAF LTAC 032240Z 0400/0424 VRB02KT CAVOK BECMG 0408/0410 34012KT SCT040 BECMG 0416/0418 VRB02KT CAVOK",
    "UBBB": "TAF UBBB 032257Z 0400/0424 VRB04KT 9999 SCT040 TX31/0410Z TN21/0401Z TEMPO 0400/0404 15005KT FEW010 BECMG 0404/0406 16008KT TEMPO 0406/0416 18014KT FEW050CB BECMG 0416/0418 VRB04KT TEMPO 0419/0424 21005KT",
    "UTAA": "TAF UTAA 032245Z 0400/0424 09016KT 6000 SCT050 TEMPO 0400/0404 VRB04KT TEMPO 0405/0414 12016G26KT 4000 DRDU BECMG 0416/0418 18012KT",
    "UACC": "TAF UACC 032306Z 0400/0424 21004MPS 9999 SCT030 BKN050 TX26/0410Z TN13/0401Z BECMG 0402/0404 24009MPS TEMPO 0404/0416 VRB16MPS 3100 -TSRA SQ BKN020CB BECMG 0416/0418 VRB01MPS TEMPO 0416/0418 -TSRA BKN020CB TEMPO 0420/0424 3100 -SHRA BR BKN011 BKN020CB",
    "UAAA": "TAF UAAA 032301Z 0400/0424 28002MPS 3100 BR SCT011 BKN100 TX20/0410Z TN12/0401Z TEMPO 0400/0403 VRB01MPS 0300 FG VV002 FM040400 17003G08MPS 9999 SCT050CB BKN100 TEMPO 0409/0418 23006G15MPS 3100 -TSRA BR SCT015CB OVC030 BECMG 0418/0419 22005MPS TEMPO 0418/0424 17002MPS 3100 BR FU",
    "UZTT": "TAF UZTT 032300Z 0400/0424 24010KT 7000 SCT050CB BKN100 TEMPO 0400/0412 VRB15G25KT -TSRA BKN040CB",
    "ZWWW": "TAF ZWWW 040302Z 0406/0512 36004MPS CAVOK TX35/0409Z TX33/0509Z TN27/0423Z BECMG 0414/0415 18004MPS BECMG 0502/0503 34004G10MPS",
    "ZLXY": "TAF ZLXY 040301Z 0406/0506 15003MPS 6000 NSC TX37/0408Z TN22/0421Z",
    "ZBAA": "TAF ZBAA 040302Z 0406/0512 17004MPS 6000 NSC TX35/0406Z TX30/0506Z TN24/0421Z TEMPO 0407/0409 -TSRA FEW040CB BKN040 TEMPO 0415/0418 -TSRA FEW040CB BKN040 TEMPO 0510/0512 -TSRA FEW040CB BKN040",
    "ZBHH": "TAF ZBHH 040312Z 0406/0506 24004MPS 9999 SCT040 TX30/0408Z TN14/0422Z BECMG 0407/0408 -TSRA SCT040 FEW040CB TEMPO 0409/0411 VRB08G15MPS TSRA BECMG 0411/0412 NSW NSC",
    "ZSQD": "TAF ZSQD 040301Z 0406/0506 17005MPS 5000 BR NSC TX35/0506Z TN24/0420Z",
    "ZMCK": "TAF ZMCK 032247Z 0400/0506 34008MPS 9999 FEW017 FEW030CB BKN033 TX23/0407Z TN13/0421Z TEMPO 0400/0412 VRB10G15MPS SHRA SCT027CB BKN030 BECMG 0411/0413 VRB02MPS FEW030CB SCT033 BECMG 0501/0503 34007MPS",
    "UUEE": "TAF UUEE 040156Z 0403/0503 03003G08MPS 9999 BKN016 TX21/0412Z TN16/0501Z TEMPO 0403/0407 2100 -TSRA FEW005 BKN016CB TEMPO 0407/0418 28008G16MPS -TSRA BKN016CB TEMPO 0418/0503 BKN004",
    "UUDD": "TAF AMD UUDD 040303Z 0403/0509 30003MPS 3000 BR OVC003 TX22/0410Z TN16/0503Z TEMPO 0403/0405 08005MPS 0500 FG BECMG 0405/0406 8000 NSW FEW005 BKN016 TEMPO 0406/0418 30008MPS 2500 -TSRA BKN016CB TEMPO 0418/0506 BKN004",
    "ULLI": "TAF AMD ULLI 040236Z 0403/0503 12003MPS 6000 BKN010 TEMPO 0403/0405 1000 BR BKN003 BECMG 0405/0407 BKN016 TEMPO 0412/0418 3100 -TSRA BKN011 BKN020CB TEMPO 0421/0503 0700 FG SCT004",
    "USSS": "TAF USSS 040145Z 0403/0503 30003G08MPS 8000 SCT016 FM040400 34003G14MPS 9999 BKN033CB FM041700 30003G08MPS 6000 SCT016CB",
    "UNNT": "TAF UNNT 040200Z 0403/0503 22003G08MPS 8000 SCT040 TX31/0409Z TN17/0422Z TEMPO 0405/0415 19008G15MPS -TSRA BKN016CB TEMPO 0415/0503 16005MPS",
    "UNKL": "TAF UNKL 040155Z 0403/0503 11003G08MPS 9999 SCT040 TX30/0406Z TN16/0422Z TEMPO 0409/0415 30007G15MPS -TSRAGR BKN020CB TEMPO 0415/0424 28005G12MPS -TSRA BKN016CB",
    "UIBB": "TAF UIBB 040200Z 0403/0503 07003G08MPS 9999 SCT050CB TEMPO 0403/0413 VRB08MPS BECMG 0413/0415 14005MPS",
    "UEEE": "TAF UEEE 040200Z 0403/0509 15003MPS 9999 SCT040CB TX32/0406Z TN15/0420Z TEMPO 0403/0415 VRB08MPS",
    "UHHH": "TAF UHHH 040151Z 0403/0509 20003MPS 9999 SCT020CB TX29/0405Z TN16/0415Z TEMPO 0403/0406 24008MPS FM040700 16003MPS 5000 -SHRA SCT010 BKN018CB TEMPO 0407/0420 2000 TSRA BKN003 BKN016CB BECMG 0414/0417 05005MPS",
    "UHSS": "TAF UHSS 040138Z 0403/0509 20005MPS 9999 NSC BECMG 0406/0409 BKN004 BECMG 0410/0413 18003MPS 1400 BR BECMG 0422/0424 9999 NSW BKN025 FM050200 16003MPS 9999 -SHRA BKN017CB"
  },
  "atis": {
    "RJAA": "[Arrival ATIS] RJAA ARR ATIS V 0402Z M0400 (APCH)ILS Y RWY16L LDG RWY 16L DEP RWY 16R DEP FREQ 124.2. M 040400Z 12009KT 090V150 20KM FEW015CU BKN020CU BKN/// 25/21 Q1012/A2989= Q/TWO NINE EIGHT NINE STP\n[Departure ATIS] RJAA DEP ATIS Z 1224Z M1200 (APCH)ILS Z RWY34R LDG RWY 34R DEP RWY 34L DEP FREQ 124.2. TWY A1 CLSD. OBSERVE GEAR DOWN OPS PROC ON FNL. M 181200Z 04006KT 2400M -SHRA BR BKN002ST 20/19 Q1010/A2983= Q/TWO NINE EIGHT THREE STP",
    "PANC": "[Arrival ATIS] PANC ARR ATIS L 1153Z ANC ATIS INFO L 1153Z. 14004KT 10SM FEW200 08/06 A3038 (THREE ZERO THREE EIGHT). 7R APPROACHES IN USE. LANDING RWY 7R, DEPARTING RWY 33. NOTICE TO AIRMEN. RWY 7L CLSD. CHECK NOTAMS FOR TAXIWAY CLOSURES. CONTACT TOWER 118.3 FOR TAXI. ...ADVS YOU HAVE INFO L.\n[Departure ATIS] PANC DEP ATIS L 0253Z ANC ATIS INFO L 0253Z. 25006KT 10SM FEW045 BKN085 BKN130 14/08 A2989 (TWO NINER EIGHT NINER). 7R, 7L APPROACHES IN USE. LANDING RWY 7R, 7L, DEPARTING RWY 7L, 33. NOTICE TO",
    "KSEA": "[Arrival ATIS] KSEA ARR ATIS C 0353Z SEA ATIS INFO C 0353Z. 33006KT 10SM SCT040 BKN150 BKN230 18/12 A3008 (THREE ZERO ZERO EIGHT). ILS, RYS 16R AND 16L , APCH IN USE. DEPG RWY 16L, DEPG ACFT PLAN AND BRIEF NUM\n[Departure ATIS] KSEA DEP ATIS C 0353Z SEA ATIS INFO C 0353Z. 33006KT 10SM SCT040 BKN150 BKN230 18/12 A3008 (THREE ZERO ZERO EIGHT). ILS, RYS 16R AND 16L , APCH IN USE. DEPG RWY 16L, DEPG ACFT PLAN AND BRIEF NUMBERS FOR BOTH RWYS 16L AND 16C. SIMUL APCHS IN USE, BFI & SEA. TRAFFIC BELOW YOU ON FINAL. SIMUL APCHS IN USE TO PARA RYS. NOTAMS... BIRD ACTIVITY VICINITY ARPT. STADIUM TFR IN EFFECT CHECK FDC NOTAMS FOR MORE INFO. ...ADVS YOU HAVE INFO C.",
    "ZSPD": "[Arrival ATIS] ZSPD ARR ATIS D 0300Z EXP ILS APCH INDEPENDENT PARL INSTR APCH LDG RWY 17R & 16L WIND RWY 17R TDZ 210/4MPS VRB BTN 170/ AND 260/ MID 220/4MPS END 200/5MPS RWY 16L TDZ 250/3MPS MID 230/5MPS END 220/5MPS CAVOK T 32 /DP 26 QNH 1007 HPA CAUTION THE BIRDS NEAR THE RUNWAY ADZ YOU HAVE INFO D.\n[Departure ATIS] ZSPD DEP ATIS Q 1130Z DEP RWY 17L & 16R WIND RWY 17L TDZ 110/5MPS MID 100/4MPS END 110/5MPS RWY 16R TDZ 110/4MPS MID 110/5MPS END 110/4MPS VIS RWY 17L TDZ 10000M MID 10000M END 10000M VIS RWY 16R TDZ 10000M MID 10000M END 10000M CLD BKN 1290M T 25 /DP 22 QNH 1008 HPA CAUTION THE BIRDS NEAR THE RUNWAY ADZ YOU HAVE INFO Q.",
    "ZSSS": "[Arrival ATIS] ZSSS ARR ATIS I 1217Z EXP ILS APCH LDG RWY 18L WIND RWY 18L TDZ 100/4MPS MID 130/5MPS END 130/4MPS VIS RWY 18L TDZ 10000M MID 10000M END 10000M CLD FEW 450M T 26 /DP 22 QNH 1008 HPA RWY18L RWYCC 5/5/5 ISSUED AT 1148 WET/WET/WET DPT NR/NR/NR COV 100PCT/100PCT/100PCT RWY18R RWYCC 5/5/5 ISSUED AT 1210 WET/WET/WET DPT NR/NR/NR COV 100PCT/100PCT/100PCT QNH OF SHANGHAI TERMINAL CONTROL AREA 1008 HPA ADZ YOU HAVE INFO I.\n[Departure ATIS] ZSSS DEP ATIS G 1200Z DEP RWY 18R WIND RWY 18R TDZ 100/3MPS MID 130/5MPS END 120/5MPS VIS RWY 18R TDZ 9000M MID 10000M END 9000M CLD FEW 450M T 26 /DP 22 QNH 1008 HPA RWY18R RWYCC 5/5/5 ISSUED AT 1030 WET/WET/WET DPT NR/NR/NR COV 100PCT/100PCT/100PCT RWY18L RWYCC 5/5/5 ISSUED AT 1148 WET/WET/WET DPT NR/NR/NR COV 100PCT/100PCT/100PCT QNH OF SHANGHAI TERMINAL CONTROL AREA 1008 HPA ADZ YOU HAVE INFO G.",
    "VHHH": "[Arrival ATIS] VHHH ARR ATIS F 1204Z ARRIVALS, RWY 07L. EXP ILS APCH, RWY 07L. RWY 07 RUNWAY CONDITION REPORT AT 0548Z. RWY 07L RUNWAY CONDITION CODES 5 , 5 , 5 . RWY SFC ALL PARTS WET. WIND 060/09KT. VIS 10KM. FBL SHRA. CLD FEW 600FT SCT CB 1500FT SCT 2000FT. T26 DP25. QNH 1009HPA. ACK INFO F ON FIRST CTC WITH APP.\n[Departure ATIS] VHHH DEP ATIS N 1205Z DEPARTURES, RWY 07R. RWY 07 RUNWAY CONDITION REPORT AT 0548Z. RWY 07R RUNWAY CONDITION CODES 5 , 5 , 5 . RWY SFC ALL PARTS WET. WIND 080/06KT. VIS 10KM. FBL SHRA. CLD FEW 600FT SCT CB 1500FT SCT 2000FT. T26 DP25. QNH 1009HPA. ACK INFO N ON FIRST CTC WITH DELIVERY .",
    "RCTP": "[Arrival ATIS] RCTP ARR ATIS K 1230Z EXP ILS APCH RWY23R AND RWY23L ARR/DEP. WIND 240/11KT VIS 10 KM OR MORE CLD FEW 1500FT SCT 20000FT T 28 DP 25 QNH 1011HPA NOSIG DUE TO FLOW CONTROL BY HONGKONG F-I-R, TRAFFIC CONCERNED MAY BE DELAYED. INFORM TAIPEI APCH OR TAIPEI TOWER ON INITIAL CONTACT YOU HAVE INFORMATION K\n[Departure ATIS] RCTP DEP ATIS H 1100Z EXP ILS APCH RWY23R AND RWY23L ARR/DEP. WIND 240/07KT VARYING BTN 210 AND 270 VIS 10 KM OR MORE CLD FEW 1500FT BKN 3000FT BKN 12000FT T 29 DP 25 QNH 1011HPA NOSIG DUE TO FLOW CONTROL BY HONGKONG F-I-R, TRAFFIC CONCERNED MAY BE DELAYED. INFORM TAIPEI APCH OR TAIPEI TOWER ON INITIAL CONTACT YOU HAVE INFORMATION H",
    "ZGSZ": "[Arrival ATIS] ZGSZ ARR ATIS G 1200Z EXP ILS APCH 15 EXP ILS OR VIS APCH 16R WIND 120/5MPS VIS 9999M -SHRA CLD SCT 1500M T 26 /DP 25 QNH 1009 HPA INDEPENDENT PARALLEL DEPARTURES DEPENDENT PARALLEL APPROACHES MISSED APPROACH ALTITUDE SETTING 1200METERS WHEN AIRBORNE CONTACT ZHUHAI APPROACH EXPECTED RNP ILS DME Z APPROACH RWY 15 16L 16R RWYCC 5/5/5 ISSUED AT 0720UTC WET/WET/WET DPT NR/NR/NR COV 100PCT/100PCT/100PCT ADZ YOU HAVE INFO G.\n[Departure ATIS] ZGSZ DEP ATIS G 1200Z DEP RWY 15 & 16L WIND 120/5MPS VIS 9999M -SHRA CLD SCT 1500M T 26 /DP 25 QNH 1009 HPA INDEPENDENT PARALLEL DEPARTURES DEPENDENT PARALLEL APPROACHES MISSED APPROACH ALTITUDE SETTING 1200METERS WHEN AIRBORNE CONTACT ZHUHAI APPROACH EXPECTED RNP ILS DME Z APPROACH RWY 15 16L 16R RWYCC 5/5/5 ISSUED AT 0720UTC WET/WET/WET DPT NR/NR/NR COV 100PCT/100PCT/100PCT ADZ YOU HAVE INFO G.",
    "WSSS": "[Arrival ATIS] WSSS ARR ATIS L 0400Z METREPORT 0400Z ILS APCHRWY 20R TWY W 9 CLOSED, RWY 02C 20C RAPID EXIT TAXIWAY INDICATOR LIGHTS OFFTAXIING GUIDANCE LIGHTS ON ALL TAXIWAYS ARE ON, FOR LIGHTING INSPECTION, WIND 150/ 10KT VRB BTN110 AND170 VIS 10KM CLD SCT 2000FT T32 DP25 QNH 1011HPA NOSIG ACK ATIS L\n[Departure ATIS] WSSS DEP ATIS Y 1230Z METREPORT 1230Z RWY 20C SIMUL INDEPENDENT ILS AND VISUAL APPROACHES ARE CONDUCTED ON RWY 20. TWY W 9 CLOSED, RWY 02C 20C RAPID EXIT TAXIWAY INDICATOR LIGHTS OFFFOLLOW THE GREENS TRIAL IN PROGRESS. WHEN VACATING THE RWY, PILOTS TO ADHERE TO ATC VERBAL INSTRUCTIONS. WHEN ON TWY, PILOT TO ADHERE TO FOLLOW THE GREENS INSTRUCTIONS. WHEN APPROACHING [A] JUNCTION, KEEP [A] LOOKOUT FOR CONTINUOUS GREENS. [IF] [A] BREAK IN THE GREENS IS OBSERVED, STOP AND CLARIFY WITH ATC. WIND 160/ 06KT VRB BTN110 AND170 VIS 10KM CLD FEW 1600FT SCT 2500FT T29 DP24 QNH 1010HPA NOSIG DEP,INITIAL CMB 3000FT ACK ATIS Y",
    "WMKK": "[Arrival ATIS] WMKK ARR ATIS H 1204Z WMKK ARR INFO H. TIME 1200. INDEPENDENT PARALLEL APPROACHES FOR RWY 14 L AND 15 ARE IN PROGRESS. EXP RNAV / ILS APCH FOR RWY 14 LEFT. EXP RNAV / ILS APCH FOR RWY 15. WIND RWY 14L DIRECTION NOT AVBL SPEED NOT AVBL. WIND RWY 15 DIRECTION NOT AVBL SPEED NOT AVBL. VIS RWY 14L TDZ NOT AVBL. VIS RWY 15 TDZ NOT AVBL. CLD FEW CB 1700 FT. T 30. DP 24. QNH 1008. NOSIG. AT FIRST CONTACT WITH LUMPUR RADAR, NOTIFY RCPT OF H\n[Departure ATIS] WMKK DEP ATIS Y 0738Z WMKK DEP INFO Y. TIME 0730. INDEPENDENT PARALLEL DEPARTURES FOR RWY 14 R AND 15 ARE IN PROGRESS. RWY 14 RIGHT. RWY 15. WIND RWY 14R 170 DEG, 12 KT. WIND RWY 15 130 DEG, 9 KT. VIS RWY 14R 10 KM OR MORE. VIS RWY 15 10 KM OR MORE. CLD SCT 1800 FT. T 32. DP 26. QNH 1009. NOSIG. ALL DEP ACFT TO CONTACT LUMPUR DEP AT 135 DECIMAL 25 MHZ WHEN ABN. AT FIRST CONTACT WITH LUMPUR GROUND, NOTIFY RCPT OF Y",
    "VTBS": "[Arrival ATIS] VTBS ARR ATIS O 1100Z VTBS ARR ATIS O 1102Z SIMULTANEOUS INDEPENDENT PARL APCH IN PROGRESS EXP ILS Z APCH ARR RWY 19 OR RNP APCH RWY 20R 06180900 19 5/5/5 100/100/100 NR/NR/NR WET/WET/WET 06180900 20R 5/5/5 100/100/100 NR/NR/NR WET/WET/WET ,PILOT SHALL ADZ BKK APCH ON INITIAL CTC IF UNA TO CONDUCT RNP APCH DUE TO OPERATIONAL CONSTRAINT 1100Z WIND 310/6KT VIS 10KM FBL TSRA CLD FEW CB 2000FT SCT 4000FT T25 DP25 QNH 1009HPA TREND NOSIG ADZ BKK APCH ON INITIAL CONTACT THAT YOU HAVE INFO O\n[Departure ATIS] VTBS DEP ATIS T 1000Z VTBS DEP ATIS T 1001Z DEP RWY 20L MOD WS IN APCH OBS ATP 0950 06180900 20L 5/5/5 100/100/100 NR/NR/NR WET/WET/WET , ,AFT AIRBORNE ALL DEPARTING ACFT SHALL CTC 119.25 1000Z WIND 250/21KT VIS 700M RVR RWY 20L 900M HVY TSRA CLD FEW CB 1800FT SCT 3000FT T24 DP24 QNH 1009HPA WS IN APCH TREND BECMG TL1040 VIS 3000M MOD TSRA ADZ GND WHEN INITIAL CONTACT YOU HAVE INFO T",
    "VTBU": "[Arrival ATIS] VTBU ARR ATIS E 1000Z VTBU ARR ATIS E 1005Z RNP RWY 18 TRL FL130 1000Z WIND 170/9KT VIS 10KM CLD FEW CB 1800FT T30 DP28 QNH 1009HPA TS IN APCH TREND BECMG TL1045 NSW ADZ CONTROLLER WHEN INITIAL CONTACT YOU HAVE INFO E\n[Departure ATIS] VTBU DEP ATIS D VTBU ARR/DEP DATIS RPT VTBU ARR ATIS D 0330Z ILS \"Z\" APCH RWY 18 TRL FL130 0330Z WIND 110/4KT VRB BTN 350/ AND 120/ VIS 6KM CLD FEW 2000FT T31 DP27 QNH 1014HPA TREND NOSIG ADZ CONTROLLER WHEN INITIAL CONTACT YOU HAVE INFO D",
    "ROAH": "[Arrival ATIS] ROAH ARR ATIS E 2332Z M2330 (APCH)RNP RWY18R LDG RWY 18R DEP RWY 18L DEP FREQ 126.5 258.3 M 032330Z 27004KT 50KM SCT010CU 28/27 Q1015/A2997= Q/TWO NINE NINE SEVEN STP\n[Departure ATIS] ROAH DEP ATIS J 0657Z MS0630 (APCH)ILS RWY18R LDG RWY 18R DEP RWY 18L DEP FREQ 126.5 258.3 MS 180630Z 20008KT 25KM FEW002ST SCT005ST BKN/// 28/27 Q1012/A2989= Q/TWO NINE EIGHT NINE STP",
    "VVDN": "[Arrival ATIS] VVDN ARR ATIS L 1228Z VVDN INFO L 1228Z. ILS VICTOR APPROACH 35L.. DPTG RWY 35R.. 1201Z. WIND 350/01KT VIS 10KM CLD FEW 5700FT T29 DP22 QNH 1008HPA TREND NOSIG. ADZ ON INITIAL CTC YOU HAVE INFO. L.\n[Departure ATIS] VVDN DEP ATIS S 0604Z VVDN INFO S 0604Z. ILS VICTOR APPROACH 35L.. DPTG RWY 35R.. 0604Z. WIND VRB/09KT CAVOK T37 DP24 QNH 1006HPA TREND NOSIG. ADZ ON INITIAL CTC YOU HAVE INFO. S.",
    "RCKH": "[Arrival ATIS] RCKH ARR ATIS B 0400Z EXPECT ILS APPROACH RWY 09 ARR/DEP TAXIWAY JULIETT, TAXIWAY BRAVO, TAXIWAY DELTA AND TAXIWAY ECHO CLOSED DUE MAINTENANCE. RUNWAY 0 9 ARRIVALS PLAN VACATE VIA CHARLIE OR FO\n[Departure ATIS] RCKH DEP ATIS B 0400Z EXPECT ILS APPROACH RWY 09 ARR/DEP TAXIWAY JULIETT, TAXIWAY BRAVO, TAXIWAY DELTA AND TAXIWAY ECHO CLOSED DUE MAINTENANCE. RUNWAY 0 9 ARRIVALS PLAN VACATE VIA CHARLIE OR",
    "KLAX": "[Arrival ATIS] KLAX ARR ATIS W 1253Z LAX ATIS INFO W 1253Z. 15005KT 9SM FEW011 OVC024 18/13 A2994 (TWO NINER NINER FOUR) RMK AO2 SLP135 T01830128. SIMUL INST APCHS AND RNAV RNP RWYS 24R AND 25L APCHS, AND SIMUL APCHS IN PROG BTWN LAX AND HHR, SIMUL INSTR DEPARTURES IN PROG 24L, 25L. CTC L A GC ON 121.75 FOR PUSH OR TAXI ON A. RWY 2 5 RIGHT 7 LEFT CLSD. TWY B CLSD BTN TWY, J AND TWY C8 , , TWY C10 CLSD BTN TWY, B AND TWY C, TWY C CLSD BTN TWY, C1 AND TWY C3. RY 25R SFL OTS, RY 24L ALSF-2 OTS, PAPI OTS 24R. LAX VOR UNMONITORED. USE CAUTION FOR INCREASED DRONE ACTIVIY IN THE VICINITY OF SOFI STADIUM AT OR BELOW 200FT AGL DURING THE WORLD CUP FROM JUNE TWELFTH TWENTY TWENTY SIX THROUGH JULY TENTH TWENTY TWENTY SIX. TEMPORARY FLIGHT RESTRITIONS IN EFFECT FOR THE LOS ANGELES AREA, CHECK NOTAMS FOR DETAILS. HAZD WX INFO FOR LAX AREA AVBL FM FSS. BIRD ACTIVITY VICINITY ARPT. TWR FREQ FOR ALL RWYS IS 120.95. INCLUDE YOUR CALL SIGN IN ALL READBACKS. USE CAUTION WHEN EXITING RY24R AT TWY V, W, AND Y, TO HOLD SHORT OF RY24L. MULTIPLE RUNWAY INCURSIONS HAVE OCCURRED. ...ADVS YOU HAVE INFO W.\n[Departure ATIS] KLAX DEP ATIS V 2153Z LAX ATIS INFO V 2153Z. 24012KT 210V280 10SM FEW014 FEW180 SCT220 21/13 A2995 (TWO NINER NINER FIVE) RMK AO2 SLP141 T02110133. INST APCHS AND RNAV RNP APCHS RY 24R AND 25L, OR VCTR FOR VISUAL APCH WILL BE PROVIDED, SIMUL VISUAL APCHS TO ALL RWYS ARE IN PROG, SIMUL INSTR DEPARTURES IN PROG RWYS 24 AND 25. CTC L A GC ON 121.75 FOR PUSH OR TAXI ON A. TWY B CLSD BTN TWY, J AND TWY C8 , , TWY C10 CLSD BTN TWY, B AND TWY C, TWY C CLSD BTN TWY, C1 AND TWY C3. RY 25R SFL OTS, RY 24L ALSF-2 OTS, PAPI OTS 24R. LAX VOR UNMONITORED. USE CAUTION FOR INCREASED DRONE ACTIVIY IN THE VICINITY OF SOFI STADIUM AT OR BELOW 200FT AGL DURING THE WORLD CUP FROM JUNE TWELFTH TWENTY TWENTY SIX THROUGH JULY TENTH TWENTY TWENTY SIX. TEMPORARY FLIGHT RESTRITIONS IN EFFECT FOR THE LOS ANGELES AREA, CHECK NOTAMS FOR DETAILS. HAZD WX INFO FOR LAX AREA AVBL FM FSS. BIRD ACTIVITY VICINITY ARPT. INCLUDE YOUR CALL SIGN IN ALL READBACKS. USE CAUTION WHEN EXITING RY24R AT TWY V, W, AND Y, TO HOLD SHORT OF RY24L. MULTIPLE RUNWAY INCURSIONS HAVE OCCURRED. ...ADVS YOU HAVE INFO V.",
    "KONT": "[Arrival ATIS] KONT ARR ATIS D 1053Z ONT ATIS INFO D 1053Z. 23005KT 9SM OVC015 17/14 A2992 (TWO NINER NINER TWO). ILS APR IN USE. RY26L & RY26R. LNDG AND DEPG RY 26L AND RY 26R. NOTAMS... TAXIWAY SIERRA CLSD BETWEEN SIERRA 8 AND W TAXIWAY Q SOUTH OF RWY 26L CLSD TAXIWAY T CLSD TAXIWAY SIERRA 5 CLSD. RY 26L IM OTS, RY 26R ALS OTS. PILOTS READBACK RWY ASSIGNMENTS AND HOLD SHORT INSTRUCTIONS. ...ADVS YOU HAVE INFO D.\n[Departure ATIS] KONT DEP ATIS N 0553Z - KONT ATIS INFO N 0553Z. 24004KT 10SM BKN250 22/15 A2988 (TWO NINER EIGHT EIGHT) RMK AO2 SLP100. ILS AND VIS APR IN USE, RY26L & RY26R. LNDG AND DEPG RY 26L AND RY 26R. NOTAMS... TAXIWAY SIERRA CLSD BETWEEN SIERRA 8 AND W TAXIWAY Q SOUTH OF RWY 26L CLSD TAXIWAY T CLSD TAXIWAY SIERRA 5 CLSD. RY 26L IM OTS, RY 26R ALS OTS. USE CAUTION FOR NUMEROUS BIRDS OBSERVED IN VICINITY OF ONT. HAZD WX INFO FOR SOUTHERN CA AVBL ON FSS FREQUENCIES. PILOTS READBACK RWY ASSIGNMENTS AND HOLD SHORT INSTRUCTIONS. ...ADVS YOU HAVE INFO N.",
    "KSFO": "[Arrival ATIS] KSFO ARR ATIS E 0356Z SFO ATIS INFO E 0356Z. 29012KT 10SM FEW004 14/12 A2998 (TWO NINER NINER EIGHT). SIMUL CLSLY SPCD DPNDNT ILS RY 28R AND ILS RY 28L APP IN USE. DEPG RWYS 28L, 28R. DEPG ACFT S\n[Departure ATIS] KSFO DEP ATIS E 0356Z SFO ATIS INFO E 0356Z. 29012KT 10SM FEW004 14/12 A2998 (TWO NINER NINER EIGHT). SIMUL CLSLY SPCD DPNDNT ILS RY 28R AND ILS RY 28L APP IN USE. DEPG RWYS 28L, 28R. DEPG ACFT S",
    "KOAK": "[Arrival ATIS] KOAK ARR ATIS A 0353Z - KOAK ATIS INFO A 0353Z. 25010KT 10SM FEW003 BKN009 BKN013 16/14 A2988 (TWO NINER EIGHT EIGHT). RNAV Z 3 0, ILS RUNWAY 2 8 RIGHT IN USE. FLOW TO LAX, SAN, SEA, ORD. ILS RWY 30, OTS. UNN LIT CLOSE-IN OBSTACLES FOR RWY 30 DEPARTURES. RWY 30 DEPARTURES ARE ADVISED TO AVOID TURNING LEFT PRIOR TO DEPARTURE END OF RUNWAY. SIGNATURE UNI-COM OUT OF SERVICE. HAZD WX INFO FOR CA ON FLT SRVC FREQ. CAUTION, BIRDS NEAR AIRPORT. ...ADVS YOU HAVE INFO A.\n[Departure ATIS] KOAK DEP ATIS O 1953Z OAK ATIS INFO O 1953Z. 28014KT 10SM FEW005 22/14 A2988 (TWO NINER EIGHT EIGHT). RNAV Z/VA RWY 30 ILS/VA RWY 28R. FLOW TO LAX, LAS, SAN. ILS RWY 30, OTS. UNN LIT CLOSE-IN OBSTACLES FOR RWY 30 DEPARTURES. RWY 30 DEPARTURES ARE ADVISED TO AVOID TURNING LEFT PRIOR TO DEPARTURE END OF RUNWAY. SIGNATURE UNI-COM OUT OF SERVICE. CAUTION, BIRDS NEAR AIRPORT. ...ADVS YOU HAVE INFO O.",
    "KDFW": "[Arrival ATIS] KDFW ARR ATIS W 2353Z DFW ARR INFO W 2353Z. 18011G17KT 10SM FEW070 FEW200 FEW250 35/18 A2993 (TWO NINER NINER THREE) RMK AO2 SLP125 TCU DSNT E T03500183 10367 20339 56015. SIMUL VISUAL APCH TO RWYS, 13R, 18R, 17C, 17L. LDG RWY 17C EXP LAHSO TWY B 10460 FT AVAIL, LDG RWY 18R EXP LAHSO TWY B 10100 FT AVL. NOTICE TO AIRMEN. WARNING, RWY 18L HAS BEEN SHORTENED, 9273 FT AVAILABLE. BIRD ACTIVITY VCNTY ARPT. ...ADVS YOU HAVE INFO W.\n[Departure ATIS] KDFW DEP ATIS W 1553Z - KDFW DEP INFO W 1553Z. 21022G32KT 10SM FEW025 FEW180 SCT250 31/21 A2994 (TWO NINER NINER FOUR) RMK AO2 PK WND 20032/1547 SLP128 T03110206. SIMUL PARL TRAFFIC DEPG RWYS 17R, 18L. NOTICE TO AIRMEN. WARNING, RWY 18L HAS BEEN SHORTENED, 9273 FT AVAILABLE. RWY 18L CL OTS. BIRD ACTIVITY VCNTY ARPT. ...ADVS YOU HAVE INFO W.",
    "KIAH": "[Arrival ATIS] KIAH ATIS H 2153Z IAH ATIS INFO H 2153Z. 18006KT 10SM FEW055 SCT200 BKN250 31/23 A3000 (THREE ZERO ZERO ZERO) RMK AO2 SLP159 SHRA DSNT SW T03060233. ARRIVALS EXPECT ILS OR RNAV Y RY 26R, ILS OR RNAV Y RY 26L, ILS OR RNAV Y RY 27. SIMUL APPROACHES IN USE. DEPG RY 15L, RY 15R. NOTICE TO AIRMEN. UNITED RAMP CONTROL IN EFFECT. UNAUTHORIZED DRONE ACTIVITY 1700Z 5 MI S, 3000 BLACK. BIRD ACTIVITY VICINITY ARPT. LAHSO RY26L. CRANES ARE DOWN. TWY SA CLSD BTN TWY, SF AND TWY SK , TWY SB CLSD BTN TWY, SF AND TWY SK , , TWY WB CLSD BTN TWY , WG AND TWY WH . TWY EA CLSD. NOTAM ATIS IN USE ON FREQUENCY 126.225. ...ADVS YOU HAVE INFO H.\n[Departure ATIS] KIAH DEP ATIS D 0453Z IAH ATIS INFO D 0453Z. 19003KT 10SM CLR 25/24 A2963 (TWO NINER SIX THREE). ARRIVALS EXPECT ILS OR RNAV Y RY 26L. DEPG RY 15L. NOTICE TO AIRMEN. UAL RAMP PROCEDURES TERMINATED PUSH BACK AT PILOTS DISCRETION. RY 26R, 8L CLSD. BIRD ACTIVITY VICINITY ARPT. TWY SA CLSD BTN TWY, SG AND TWY SK , TWY SB CLSD BTN TWY, SG AND TWY SK , , TWY SF CLSD BTN TWY, NB AND TWY RB . TWY SG CLSD, TWY EA CLSD. NOTAM ATIS IN USE ON FREQUENCY 126.225. ...ADVS YOU HAVE INFO D.",
    "KORD": "[Arrival ATIS] KORD ARR ATIS H 1151Z ORD ATIS INFO H 1151Z. 28012G19KT 10SM OVC021 17/13 A2957 (TWO NINER FIVE SEVEN) RMK AO2 SLP009 70068 T01670133 10200 20167 53040. ARR EXP VECTORS ILS RWY 27C APCH, ILS RWY 27R APCH, ILS RWY 28C APCH. SIMUL APCHS IN USE. LAND AND HOLD SHORT OPERATIONS ARE IN EFFECT. RWY 27C ARR PLAN TO H/S OF TWY V V, 9 THSD 7 HND 25 FT AVBL, RWY 28C ARR PLAN TO H/S OF TWY Z, 9 THSD 6 HND TEN FT AVBL. DEPS EXP RWYS 22L 28R FROM NOVEMBER 5 9750 FT AVL. RWY 4L, 22R CLSD. RWY 22L ILS OTS, RWY 22R LOC OTS, RWY 9L IM OTS, RWY 9C IM OTS, RWY 10L IM OTS, RWY 10R IM OTS, RWY 27R IM OTS, RWY 28L IM OTS, RWY 28R IM OTS, RWY 9L PAPI OTS, RWY 27R PAPI OTS. PILOTS USE CTN FOR BIRD ACTIVITY IN THE VICINITY OF THE ARPT. USE CTN FOR PERSONNEL AND EQUIP AT NUMEROUS SITES ON THE FIELD. READBACK ALL RWY HOLD SHORT INSTRUCTIONS. WHEN READY TO TAXI CONTACT GND METERING ON FREQ 121.67. ...ADVS YOU HAVE INFO H.\n[Departure ATIS] KORD DEP ATIS K 0209Z ORD ATIS INFO K 0209Z SPECIAL. 00000KT 10SM TS SCT045CB BKN100 OVC250 27/23 A2995 (TWO NINER NINER FIVE) RMK AO2 TSB09 CONS LTGICCG S-W TS S-W MOV NE T02720233. ARR EXP VEC",
    "KJFK": "[Arrival ATIS] KJFK ARR ATIS X 0351Z JFK ATIS INFO X 0351Z. 33008KT 10SM FEW120 SCT160 BKN250 28/18 A2992 (TWO NINER NINER TWO). APPROACH IN USE ILS RY 22L, ILS RY 22R. DEPG RY 22R. CRI OTS. RWY 22L/4R INNER MARKER OTS. HAZD WX INFO FOR NY METRO AREA AVBL ON FSS. SWAP IN EFFECT EXPECT REROUTES. NUM CRANES OPERATING AT JFK. BIRD ACTIVITY VICINITY ARPT. READBACK ALL RWY ASSIGNMENTS AND HOLD SHORT INSTRUCTIONS. ...ADVS YOU HAVE INFO X.\n[Departure ATIS] KJFK DEP ATIS N 1951Z JFK ATIS INFO N 1951Z. 21014KT 10SM SCT070 34/22 A2992 (TWO NINER NINER TWO) RMK AO2 SLP131 T03440217. APPROACH IN USE ILS RY 22L, ILS RY 22R. DEPG RY 22R. CRI OTS. RWY 22L/4R INNER MARKER OTS. HAZD WX INFO FOR NY METRO AREA AVBL ON FSS. SWAP IN EFFECT EXPECT REROUTES. NUM CRANES OPERATING AT JFK. BIRD ACTIVITY VICINITY ARPT. READBACK ALL RWY ASSIGNMENTS AND HOLD SHORT INSTRUCTIONS. ...ADVS YOU HAVE INFO N.",
    "KIND": "[Arrival ATIS] KIND ARR ATIS X 2154Z - KIND ATIS INFO X 2154Z. 25005KT 10SM FEW046 SCT250 32/19 A3002 (THREE ZERO ZERO TWO). PARL ILS RWY 23R AND 23L APPROACHES IN USE. CROSS RUNWAY OPERATIONS MAY BE IN EFFECT. NOTICE TO AIRMEN. RWY 32 GS OTS. TWY, P BTN TWY, H AND TWY B CLSD. P PAD CLSD. ILS RUNWAY 5R AND RUNWAY 5L INNER MARKER UNSERVICEABLE. RUNWAY 32 PAPI OTS. RUNWAY 32 TOUCHDOWN RVR OTS. RUNWAY 14 ROLLOUT RVR OTS. HIWAS. ARPT ADZY FLOCK OF MEDIUM BIRDS IN THE VICINITY OF THE AIRPORT, ALT UNKN. ...ADVS YOU HAVE INFO X.\n[Departure ATIS] KIND DEP ATIS H 1854Z IND ATIS INFO H 1854Z. 26009G19KT 10SM SCT036 BKN041 BKN170 23/16 A2981 (TWO NINER EIGHT ONE) RMK AO2 SLP088 T02280156. PARL ILS RWY 23R AND 23L APPROACHES IN USE. CROSS RU",
    "KDTW": "[Arrival ATIS] KDTW ARR ATIS F 0153Z DTW ARR INFO F 0153Z. 00000KT 10SM FEW080 BKN140 OVC230 23/19 A3002 (THREE ZERO ZERO TWO) RMK AO2 SLP161 T02330194. SIMUL VISUAL RY 21L, RY 22R USE Z LOC FREQ 111.95 APCH IN USE. NOTICE TO AIRMEN. RWY 21R, 3L CLSD, RWY 27L, 9R CLSD, RWY 27R, 9L CLSD. RY 22L ALS OTS, RY 22R PAPI LGTS OTS. PILOTS USE CTN FOR BIRD ACTIVITY. UNAUTH LASER ILLUM EVNT AT 0153Z NINER MILES, EAST OF ARPT, FIVE, ONE ONE THSD FT, GRN LASER, FROM THE NORTHEAST, EAST. DEPARTURE ATIS 118.125. ...ADVS YOU HAVE INFO F.\n[Departure ATIS] KDTW DEP ATIS Q 2253Z - KDTW DEP INFO Q 2253Z. 21009KT 10SM FEW050 FEW250 33/24 A2991 (TWO NINER NINER ONE). DEPG RWY 21R, RWY 22L ;. NOTICE TO AIRMEN. RWY 27L, 9R CLSD, RWY 27R, 9L CLSD. PILOTS USE CTN FOR BIRD ACTIVITY. ...ADVS YOU HAVE INFO Q.",
    "KMSP": "[Arrival ATIS] KMSP ARR ATIS A 0315Z MSP ARR INFO A 0315Z SPECIAL. 24006KT 10SM BKN060 27/20 A2996 (TWO NINER NINER SIX). VISUAL RWY 30L APCH IN USE, VISUAL RWY 30R APCH IN USE. LAHSO, ACFT LNDG RWY 30L EXP TO HLDSHRT TWY A9 FOR CRSSGTFC, 8 THSD 1 HND FIFTY FT AVBL. NOTICE TO AIRMEN. RWYS 4, 22 CLSD. TWY R7. R8. R9. R10. CLOSED, TWY R BETWEEN R6 AND R10 CLOSED. GS RWY 12L OTS, RWYS 12R, 12L, INNER MARKER OTS.. HAZD WX INFO FOR MSP AREA AVBL FM FSS. CTN, BIRDS NEAR MSP. READ BACK HS AND ALT. ALL ACFT TAXI WITH TRANSPONDER AND ALTITUDE ENCODING ON. ...ADVS YOU HAVE INFO A.\n[Departure ATIS] KMSP DEP ATIS U 2353Z MSP DEP INFO U 2353Z. 25006KT 10SM FEW048 FEW065 SCT250 29/18 A2994 (TWO NINER NINER FOUR). DEPARTING RWY 30L, RWY 30R, RWY 17. NOTICE TO AIRMEN. TWY R7. R8. R9. R10. CLOSED, TWY R BETWEEN R6 AND R10 CLOSED. ALL ACFT CTC METERING ON ONE THREE THREE POINT FIVE SEVEN WHEN READY TO PUSHBACK OR TAXI. HAZD WX INFO FOR MSP AREA AVBL FM FSS. CTN, BIRDS NEAR MSP. READ BACK HS AND ALT. ALL ACFT TAXI WITH TRANSPONDER AND ALTITUDE ENCODING ON. ...ADVS YOU HAVE INFO U.",
    "CYEG": "[Arrival ATIS] CYEG ARR ATIS J 0400Z CYEG ARR ATIS J 0400Z 17003KT 20SM FEW025TCU FEW087 SCT220 16/12 A2991 APCH RNAV Z OR Y RWY 20, INFORM ARRL OF REQ APCH ON INITIAL CTC. LDG AND DEP RWY 20. TWY B1 CLSD. SIMUL APPROACHES MAY BE IN EFCT. INFORM CYEG ATC INFO J\n[Departure ATIS] CYEG DEP ATIS J 0400Z CYEG ARR ATIS J 0400Z 17003KT 20SM FEW025TCU FEW087 SCT220 16/12 A2991 APCH RNAV Z OR Y RWY 20, INFORM ARRL OF REQ APCH ON INITIAL CTC. LDG AND DEP RWY 20. TWY B1 CLSD. SIMUL APPROACHES MAY BE IN EFCT. INFORM CYEG ATC INFO J",
    "EHAM": "[Arrival ATIS] EHAM ARR ATIS A 0350Z EHAM ARRIVAL INFO A. DEMAND. MAIN LANDING RWY 18 R. TRANSITION LEVEL 040. WIND 210 DEG, 7 KT. CAVOK. T 17. DP 12. QNH 1024 HPA. NOSIG. OPERATIONAL REPORT. EXP RNP APCH. CONTACT APCH WITH CALLSIGN ONLY. END OF INFO A\n[Departure ATIS] EHAM DEP ATIS R 1550Z EHAM DEPARTURE INFO R. DEMAND. MAIN DEPARTURE RWY 36 L. MAIN LANDING RWY 36 R. WIND 310 DEG, 11 KT, VRB BTN 250 AND 350 DEG, 16 KT MAX, 6 KT MNM. VIS 10 KM OR MORE. CLD FEW 3000 FT. T 18. DP 10. QNH 1027 HPA. OPERATIONAL REPORT. INFORM SCHIPHOL DEL BY VOICE IF UNABLE TO COMPLY WITH NADP 2. END OF INFO R",
    "EBBR": "[Arrival ATIS] EBBR ARR ATIS R 0350Z EBBR NAT, EXP VECT FOR ILS APP ARR RWY19 RSCD AT 0306 RWY19 DRY. DEP RWY25R TRL 055 RWY 25R CLSD 240/6KT CAVOK T12 DP10 QNH 1027HPA NOSIG CFM ARR R\n[Departure ATIS] EBBR DEP ATIS L 0420Z EBBR NAT, DEP RWY25R RSCD AT 0311 RWY25R DRY. ARR RWY19 TRL 055 TWY B3 CLSD 230/10KT CAVOK T13 DP10 QNH 1027HPA NOSIG CFM DEP L",
    "EDDF": "[Arrival ATIS] EDDF ARR ATIS Y 1420Z ARR-ATIS EDDF Y METAR 271420 EXPECT INDEPENDENT PARALLEL ILS Z APCH RWY 25R OR ILS APCH RWY 25L RWY 25R 25L GLS APCH ON REQUEST , DO NOT MISTAKE TWY M FOR RWY 25C WHEN PERFORMING VISUAL APPROACH , TRL 60 12006KT 040V180 CAVOK T40 DP12 QNH1015 TREND NOSIG END OF ATIS Y\n[Departure ATIS] EDDF DEP ATIS Z 1650Z -DEP-ATIS EDDF Z METAR 031650 - -RWY 25C 18 - -TRL 60 - -VRB08KT RWY18 VRB05KT -CAVOK - - -T25 DP08 -QNH1024 - -TREND NOSIG",
    "EDDL": "[Arrival ATIS] EDDL ARR ATIS B 1320Z -ATIS EDDL B METAR 271320 -EXPECT VECTORS ILS APPROACH RWY 05R -RWY 05R 05L -K1 CLOSED, VACATE RWY05L VIA K2, OTHERWISE EXPECT BACKTRACK TWY L3 CLSD -TRL 60 -EXPECT INTENSE BIRD ACTIVITY IN THE VICINITY OF RWY SYSTEM -01008KT 320V030 -CAVOK - - -T38 DP21 -QNH1014 - -TREND NOSIG\n[Departure ATIS] EDDL DEP ATIS R EDDL ARR/DEP DATIS RPT -ATIS EDDL R METAR 020550 -EXPECT VECTORS ILS APPROACH -RWY 23L -TWY L8 CLOSED BETWEEN TWY M AND RWY 23L -TRL 60 - -23010KT -CAVOK - - -T19 DP13 -QNH1020 - -TREND NOSIG",
    "EDDK": "[Arrival ATIS] EDDK ATIS P 1217Z -ATIS EDDK P SPECI 181217 -EXPECT ILS APCH RWY 13L OR RNP APCH RWY 06 -RWY 13L 06 -RWY COND RWY 13L AT TIME 0635 RWYCC 6 DEPOSIT TOTAL RWY DRY RWY 06 AT TIME 0635 RWYCC 6 DEPOSIT TOTAL RWY DRY -TRL 60 -RWY 13R AND RWY 31L CLOSED FOR DEPARTURE AND LANDING: TAXIING BTN THR RWY 13R AND INTERSECTION RWY 24 POSSIBLE : -VRB03KT -CAVOK - - -T31 DP17 -QNH1019 - -\n[Departure ATIS] EDDK DEP ATIS Q EDDK ARR/DEP DATIS RPT -ATIS EDDK Q METAR 291920 -EXPECT ILS APCH -RWY 31R 06 -RWY COND RWY 31R AT TIME 1830 RWYCC 6 DEPOSIT TOTAL RWY DRY RWY 06 AT TIME 1830 RWYCC 6 DEPOSIT TOTAL RWY DRY -TRL 60 -RWY 13R AND RWY 31L CLOSED FOR DEPARTURE AND LANDING: TAXIING BTN THR RWY 13R AND INTERSECTION RWY 24 POSSIBLE : -04003KT -CAVOK - - -T24 DP13 -QNH1024 - -TREND NOSIG",
    "EBLG": "[Arrival ATIS] EBLG ATIS P 1120Z EBLG INFO, EXP RNAV TO ILS APP ARR RWY22L DEP RWY22L RWY 22L DRY, RWYCC 666. TRL 055 TWY A4 CLSD. ADZ ON GND FREQ IF UNABLE DEP FM S4 230/5KT VRB BTN 190 AND 300 MNM0 MAX11 CAVOK T29 DP18 QNH 1019HPA NOSIG CFM ATIS P",
    "LSZH": "[Arrival ATIS] LSZH ARR ATIS L 0420Z ARRIVALS, EXP ILS APCH, RWY 34. TRL 70. DEP RWY 32. DEPENDENT OPS ON CONVERGING RWY. WIND 320 DEG, 2 KT. VIS 10 KM OR MORE, TDZ 10 KM OR MORE. CLD FEW 6500 FT. T 13. DP 9. QNH 1027. NOSIG.\n[Departure ATIS] LSZH DEP ATIS N 0420Z DEP RWY 32. DEPENDENT OPS ON CONVERGING RWY. TRL 70. ARRIVALS, EXP ILS APCH, RWY 34. TMA S 1 IS ACT. TMA S 2 AND S 3 ARE ACT. WIND VRB, 1 KT. VIS 10 KM OR MORE. CLD FEW 6500 FT. T 13. DP 9. QNH 1027. NOSIG.",
    "LIMC": "[Arrival ATIS] LIMC ARR ATIS R 0350Z LIMC ARR R 0350Z I.L.S. ZULU RWY IN USE 35L TL 70 WIND TDZ 010/6KT CAVOK T22 DP09 QNH 1021HPA QFE 0995HPA\n[Departure ATIS] LIMC DEP ATIS D 0850Z LIMC DEP D 0850Z RWY IN USE 35L TL 70 INTERSECTION ECHO WHISKY CLOSED.. WIND END VRB1KT CAVOK T29 DP18 QNH 1021HPA QFE 0995HPA DATALINK CLEARANCE AVAILABLE.... CONTACT 1 3 1 8 8 0 TO BE RELEASED BY THE AIRPORT OPERATOR ...",
    "LIRF": "[Arrival ATIS] LIRF ARR ATIS T 0350Z LIRF ARR T 0350Z RWY 16L ILS W RWY 16R ILS Z RWY IN USE 16L 16R TL 70 DEPENDENT PARL ILS APCH INPR RWY IN USE 16R OR 16L ASSIGNED BY ROME RADAR WIND RWY 16L TDZ 020/8KT RWY 16R TDZ 040/6KT CAVOK T23 DP12 QNH 1017HPA\n[Departure ATIS] LIRF DEP ATIS M 0255Z LIRF DEP M 0255Z RWY IN USE 25 TL 70 WIND END 060/7KT CAVOK T23 DP13 QNH 1017HPA REA IS SENT AUTOMATICALLY ONCE RLSD BY RAMP WHEN READY CONTACT FIUME RAMP 121.725",
    "EINN": "[Arrival ATIS] EINN ARR ATIS Y 0330Z EXPECT I L S CATEGORY 1 LDG RWY24 TKOF RWY24 TRL FL060 25013KT 9999 BKN008 BKN025 16/14 QNH Q1027 TREND NOSIG ADVISE AT FIRST CONTACT YOU HAVE ATIS INFO Y",
    "EGLL": "[Arrival ATIS] EGLL ARR ATIS R 0420Z LANDING RWY 27L RWY27L SURFACE CONDITION CODES: 6/6/6 DRY/DRY/DRY DEPTH: NR/NR/NR COVERAGE: NR/NR/NR TRANSITION-LEVEL: FL 70 IF STAND GUIDANCE IS OFF OR FAILS, REMAIN ON THE TAXIWAY CENTRELINE AND ADVISE ATC RUNWAY 27R REDUCED DECLARED DISTANCES WITH TAKE OFF RUN AVAILABLE 3362METRES AND LANDING DISTANCE AVAILABLE 3362METRES DET VOR OOS AUTO 26010KT 9999 NCD 15/13 Q1027 ACKNOWLEDGE RECEIPT OF INFORMATION R\n[Departure ATIS] EGLL DEP ATIS P 1150Z DEPARTURE RWY 27L PILOTS THAT ARE IN RECEIPT OF DATALINK CLEARANCES ARE REMINDED THEY MUST CONTACT DELIVERY ON 121.980 WHEN READY FOR START DVR VOR DME OOS UNTIL 14:00 HOURS AUTO 22006KT 140V270 9999 SCT023 24/17 Q1017 ACKNOWLEDGE RECEIPT OF INFORMATION P AND REPORT AIRCRAFT TYPE AND CURRENT QNH ON FIRST CONTACT WITH HEATHROW",
    "EPWA": "[Arrival ATIS] EPWA ARR ATIS D 1431Z EPWA ARR D. TIME 1430. EXP N ARR ILS Z APCH FOR RWY 11. TRANSITION LEVEL 80. WIND VRB, 6 KT. CAVOK. T 35. DP 14. QNH 1020. NOSIG. CAUTION. BIRD ACT. END OF EPWA ARR D\n[Departure ATIS] EPWA DEP ATIS P 1931Z EPWA DEP P. TIME 1930. DEP RWY 29. ARR RWY 33, EXP U ARR ILS Z. REPORT READY FOR STARTUP ON DELIVERY 121 DECIMAL 605. TRANSITION LEVEL 80. WIND 290 DEG, 5 KT, VRB BTN 270 AND 330 DEG. CAVOK. T 18. DP 8. QNH 1016. NOSIG. CAUTION. BIRD ACT. END OF EPWA DEP P",
    "EFHK": "[Arrival ATIS] EFHK ARR ATIS H 0403Z EXPECT ILS APCH ARR RWY 15 RUNWAY 15 CONDITION REPORT AT 0103 UTC RUNWAY CONDITION CODES 6 , 6 , 6 CONTAMINANTS ALL PARTS DRY TRL 65 SPECIAL WIND VRB 3 KT VIS 8KM SCT 200 FT. BKN 400 FT. BKN 1100 FT T 15 DP 15 QNH 1003 BECMG CLD BKN 500 FT. SCT CB 2000 FT. ACK INFO H\n[Departure ATIS] EFHK DEP ATIS H 1620Z DEP RWYS 22R AND 22L RUNWAY 22R CONDITION REPORT AT 1329 UTC RUNWAY CONDITION CODES 6 , 6 , 6 CONTAMINANTS ALL PARTS DRY RUNWAY 22L CONDITION REPORT AT 1330 UTC RUNWAY CONDITION CODES 6 , 6 , 6 CONTAMINANTS ALL PARTS DRY WIND 110 DEG 6 KT VIS 10KM FEW 1400 FT. SCT 1600 FT. FEW TCU 2800 FT T 19 DP 15 QNH 1003 TEMPO CLD FEW CB 3000 FT. ACK INFO H",
    "LTAC": "[Arrival ATIS] LTAC ARR ATIS F 0250Z EXP ILS V APCH 03C DEP RWY 03L RWY 03C WIND 180 DEG 03 KT VRB BTN 140 DEG AND 200 DEG RWY 03L WIND VRB 01 KT TRL 110 CAVOK T 14 DP 09 QNH 1014 NOSIG FOR DELIVERY CTC 121.9. FOR DELIVERY FIRST USE DIGITAL DEP CLR. CTN BIRD HAZARD OVR AERODROME. APCH FREQUENCY 129.050. TAXIWAY ECHO 1 IS CLOSED. END OF ATIS F",
    "UBBB": "[Arrival ATIS] UBBB ARR ATIS H 0300Z ATIS H EXP ILS/ LDG 16 17 DEP 16 17 IN USE RWY 16 CLEAR DRY 70 RWY 17 CLEAR DRY 70 TLVL 110 WIND WIND RWY 16 140 8 KT SPD MAX 10 MIN 8 WIND RWY 17 140 10 KT SPD MAX 12 MIN 8 VIS CAVOK T 25 / DP 20 QNH 1006 HPA TREND TREND NOSIG MODERATE BIRDS ACT IN VICINITY OF AP END OF ATIS H\n[Departure ATIS] UBBB DEP ATIS F 0830Z ATIS F EXP ILS/ LDG 17 DEP 17 IN USE RWY 17 CLEAR DRY 70 TLVL 110 WIND WIND RWY 17 110 4 KT SPD MAX 10 MIN 2 VIS CAVOK T 30 / DP 14 QNH 1014 HPA TREND TREND NOSIG RWY 16 CLSD ONMAINT OBS BIRDS IN 2000 FT MODERATE BIRDS ACT IN VICINITY OF AP END OF ATIS F",
    "ZWWW": "[Arrival ATIS] ZWWW ARR ATIS I 0300Z EXP ILSDME Z APCH LDG RWY 26R TA 3000 WIND 360/3MPS VRB BTN 320/ AND 050/ CAVOK T 27 /DP 12 QNH 1010 HPA BIRDS ACTIVITY IN THE VICINITY OF THE AERODROME ADZ YOU HAVE INFO I.\n[Departure ATIS] ZWWW DEP ATIS N 0430Z DEP RWY 26L TA 3000 WIND 010/6MPS VIS 9999M CLD FEW 990M T 28 /DP 14 QNH 1013 HPA ADZ YOU HAVE INFO N.",
    "ZLXY": "[Arrival ATIS] ZLXY ARR ATIS E 1100Z EXP ILS APCH LDG RWY 05L & 06R WIND VRB/1MPS VIS 9999M CLD SCT 390M /SCT 900M /OVC 1800M T 21 /DP 19 QNH 1007 HPA RUNWAY 05L SURFACE CONDITION CODE 555 RUNWAY 06L SURFACE CONDITION CODE 555 RUNWAY 06R SURFACE CONDITION CODE 555 ADZ YOU HAVE INFO E.\n[Departure ATIS] ZLXY DEP ATIS U 0400Z DEP RWY 05L & 06L WIND VRB/1MPS VIS 9999M CLD FEW 450M /SCT 900M /OVC 1800M T 23 /DP 19 QNH 1008 HPA ADZ YOU HAVE INFO U.",
    "ZBAA": "[Arrival ATIS] ZBAA ARR ATIS Q 1200Z EXP ILS APCH INDEPENDENT PARL INSTR APCH LDG RWY 36L & 01 WIND 110 DEG 2 MPS 080V140 DEG VIS 7000 NSC T 27 /DP 23 QNH 1004 HPA ADZ YOU HAVE INFO Q.\n[Departure ATIS] ZBAA DEP ATIS Q 1200Z DEP RWY 36L & 36R & 01 WIND 110 DEG 2 MPS 080V140 DEG VIS 7000 NSC T 27 /DP 23 QNH 1004 HPA RWY INDEPENDENT PARALLEL DEP ADZ YOU HAVE INFO Q.",
    "ZBHH": "[Arrival ATIS] ZBHH ARR ATIS C 1131Z EXP ILSDME APCH LDG RWY 08 TA 3000 /TRL 3600 WIND 360/3MPS MAX9 VRB BTN 290/ AND 070/ VIS 9999M CLD FEW 1200M /FEW CB 1200M T 24 /DP 09 QNH 1008 HPA BETWEEN 0800 AND 1200 UTC, WINDSHEAR MAY OCCUR IN LOCAL FIELD. ADZ YOU HAVE INFO C.\n[Departure ATIS] ZBHH DEP ATIS K 2300Z DEP RWY 26 TA 3000 /TRL 3600 WIND 060/3MPS VRB BTN 010/ AND 080/ CAVOK T 21 /DP 15 QNH 1010 HPA ADZ YOU HAVE INFO K.",
    "ZSQD": "[Arrival ATIS] ZSQD ARR ATIS W 1200Z EXP ILSDME APCH LDG RWY 17 TA 3000 /TRL 3600 WIND 150/4MPS CAVOK T 23 /DP 19 QNH 1007 HPA SEGREGATED OPERATION VISUAL APPROACH OPERATION IN PROGRESS. WHEN READY CONTACT QINGDAO TOWER ON 118.7 RUNWAY 17,IF MISSED APPROACH,EXPECT FOLLOW THE STANDARD MISSED APPROACH PROCEDURE,CLIMB TO 900M ON QNH OR BY ATC CAUTION MAYBE THERE IS A FLOCK OF BIRDS IN THE VICINITY OF AIRPORT ADZ YOU HAVE INFO W.\n[Departure ATIS] ZSQD DEP ATIS F 2200Z DEP RWY 16 TA 3000 /TRL 3600 WIND 160/4MPS VIS 9999M CLD SCT 270M T 23 /DP 22 QNH 1009 HPA VISUAL APPROACH OPERATION IN PROGRESS. RUNWAY 16,IF MISSED APPROACH,EXPECT FOLLOW THE STANDARD MISSED APPROACH PROCEDURE,CLIMB TO 600M ON QNH OR BY ATC CAUTION MAYBE THERE IS A FLOCK OF BIRDS IN THE VICINITY OF AIRPORT ADZ YOU HAVE INFO F."
  },
  "windtemp_alaska": "\n000\nFBAK31 KWNO 040200\nFD1AK1\nDATA BASED ON 040000Z    \nVALID 040600Z   FOR USE 0200-0900Z. TEMPS NEG ABV 24000\n\nFT  3000    6000    9000   12000   18000   24000  30000  34000  39000\nADK 1012 1009+06 9900+03 2607-01 2615-13 2628-23 255138 257147 258758\nADQ 2511 2416+00 2423-05 2528-10 2641-20 2655-31 266246 275452 262845\nAKN 2318 2415-04 2309-06 2110-12 2326-23 2556-33 257245 254144 252242\nANC 2207 2305+01 1605-04 1509-09 1413-22 1413-35 190850 201149 241142\nANN 1615 1619+00 1616-04 1713-08 2012-22 2110-35 211548 241747 252242\nBET 3010 2106-03 1611-09 1210-14 0722-26 0737-36 072943 060839 320540\nBRW 2914 3114+03 3215-02 3419-07 3536-18 0141-30 016544 026552 013747\nBTI 2825 2921-01 2923-07 3019-10 2919-20 2722-32 253147 291748 341042\nBTT 9900 9900+05 9900-02 3105-09 2709-21 9900-35 990049 050550 030944\nCDB 2809 2522+00 2533-05 2543-10 2561-19 2577-29 268544 277949 275546\nCZF 0307 0625+01 0530-04 0530-10 0632-23 0528-34 053149 042845 031541\nEHM 2714 2507-07 2108-10 2009-15 2213-27 2422-37 252538 261838 271540\nFAI 9900 2706+06 2911-02 3113-09 3107-21 2409-34 171649 161153 990043\nFYU 9900 9900+03 3608-03 3110-09 3014-21 2612-32 201648 191055 990043\nGAL 0105 9900+04 9900-03 2305-09 9900-23 2010-35 211250 060948 061143\nGKN 1712 9900+03 9900-02 9900-08 0605-22 9900-34 131449 140852 250743\nHOM 2014 1818-01 1817-05 1617-11 1719-23 1920-34 242947 252947 251743\nJNU 1808 1910+00 2308-05 2509-09 9900-22 9900-35 990048 990049 250942\nLUR 0123 0119+02 0118-02 0218-05 0326-17 0336-29 046344 056654 044450\nMCG 2417 9900+02 0811-04 0915-09 1218-23 1223-35 121851 131049 990042\nMDO 2507 9900+01 9900-04 9900-08 0806-22 9900-34 292049 282150 271343\nOME 0508 9900+03 9900-04 0806-09 0507-22 0524-34 055347 054149 052745\nORT      3405+04 3515-03 3422-09 3422-22 3616-32 061148 120654 990043\nOTZ 0211 0307+03 9900-03 0407-09 0420-21 0431-32 055447 054950 053246\nSNP 3119 3321-03 3425-07 3530-11 0140-24 0248-34 333341 313541 303143\nTKA 1912 2106+02 9900-03 9900-09 1211-22 1216-35 141050 171050 220742\nUNK 0517 0614+03 0613-03 0713-09 0911-22 0811-35 051150 052148 041443\nYAK 2705 2806-01 2905-04 3305-08 0606-22 0713-34 990049 990050 300742\nIKO 3205 2809+03 2718-01 2730-04 2753-15 2765-26 278740 770247 780457\nAFM 0312 0305+04 9900-02 9900-09 9900-22 0428-33 055047 054349 052245\n5AB 1024 0920+06 1016+02 1014-02 1208-13 2107-24 232540 233750 234057\n5AC 3024 3023-01 2917-06 2817-08 2822-21 2828-34 273843 273942 273842\n5AD 3117 3217+03 3119+00 3123-06 3134-18 3038-30 314646 314854 293648\n5AE 2616 2725+03 2726-02 2632-06 2643-18 2646-30 275046 275353 274350\n5AF 1207 0806+00 0509-03 0405-08 9900-22 2905-34 331347 321548 291643\n5AG 0408 0505+00 0306-04 0107-09 3507-23 9900-35 302146 302048 301343\n",
  "vaac_tokyo": [
    {
      "id": "20260704_30027000_0227",
      "year": "2026",
      "volcano": "Sheveluch",
      "psn": "N5639 E16122",
      "issued": "20260704",
      "text": "FVFE01 RJTD 040300\nVA ADVISORY\nDTG: 20260704/0300Z\nVAAC: TOKYO\nVOLCANO: SHEVELUCH 300270\nPSN: N5639 E16122\nAREA: RUSSIA\nSOURCE ELEV: 3283M AMSL\nADVISORY NR: 2026/227\nINFO SOURCE: HIMAWARI-9\nERUPTION DETAILS: VA CONTINUOUSLY OBS IN SATELLITE IMAGERY\nOBS VA DTG: 04/0230Z\nOBS VA CLD: SFC/FL150 N5945 E15854 - N5944 E15944 - N5905 E15935 - \nN5830 E15843 - N5848 E15826 - N5914 E15905 MOV N 10KT SFC/FL350 \nN5821 E15958 - N5803 E16044 - N5733 E16019 - N5748 E15933 MOV NW \n20KT\nFCST VA CLD +6 HR: 04/0830Z SFC/FL150 N6132 E15956 - N5926 E15956 - \nN5926 E15820 - N6132 E15820 SFC/FL350 N6015 E15939 - N5849 E15939 - \nN5849 E15807 - N6015 E15807\nFCST VA CLD +12 HR: 04/1430Z SFC/FL150 N6154 E16023 - N6011 E16023 - \nN6023 E15850 - N6342 E15802 SFC/FL350 N6259 E15805 - N6049 E15811 - \nN6036 E15637 - N6307 E15657\nFCST VA CLD +18 HR: 04/2030Z SFC/FL350 N6627 E15723 - N6446 E15807 - \nN6259 E15737 - N6239 E15551 - N6446 E15551 - N6639 E15612\nRMK: VA (NORTH PART) HEIGHT UPDATED TO FL150 BASED ON SATELLITE DATA.\nNXT ADVISORY: 20260704/0600Z=",
      "img_url": "https://ds.data.jma.go.jp/svd/vaac/data/VAGFN/2026/Images/20260704_30027000_0227_QH21_01.png",
      "sat_img_url": "https://ds.data.jma.go.jp/svd/vaac/data/Sat/2026/Images/30027000/09-ir/20260704_0230_202607040300_ir.png",
      "text_url": "https://ds.data.jma.go.jp/svd/vaac/data/TextData/2026/20260704_30027000_0227_Text.html"
    },
    {
      "id": "20260703_27202000_0227",
      "year": "2026",
      "volcano": "Kanlaon",
      "psn": "N1025 E12308",
      "issued": "20260703",
      "text": "FVFE01 RJTD 032152\nVA ADVISORY\nDTG: 20260703/2152Z\nVAAC: TOKYO\nVOLCANO: KANLAON 272020\nPSN: N1025 E12308\nAREA: PHILIPPINES\nSOURCE ELEV: 2435M AMSL\nADVISORY NR: 2026/227\nINFO SOURCE: HIMAWARI-9 PHIVOLCS\nERUPTION DETAILS: ERUPTION AT 20260703/2102Z FL090 EXTD SW REPORTED\nOBS VA DTG: 03/2130Z\nOBS VA CLD: VA NOT IDENTIFIABLE FM SATELLITE DATA WIND FL090 080/9KT\nFCST VA CLD +6 HR: NOT AVBL\nFCST VA CLD +12 HR: NOT AVBL\nFCST VA CLD +18 HR: NOT AVBL\nRMK: WE WILL ISSUE FURTHER ADVISORY IF VA IS DETECTED IN SATELLITE \nIMAGERY.\nNXT ADVISORY: NO FURTHER ADVISORIES=",
      "img_url": "https://ds.data.jma.go.jp/svd/vaac/data/VAGFN/2026/Images/20260703_27202000_0227_QH21_01.png",
      "sat_img_url": null,
      "text_url": "https://ds.data.jma.go.jp/svd/vaac/data/TextData/2026/20260703_27202000_0227_Text.html"
    },
    {
      "id": "20260702_27303000_0714",
      "year": "2026",
      "volcano": "Mayon",
      "psn": "N1315 E12341",
      "issued": "20260702",
      "text": "FVFE01 RJTD 021550\nVA ADVISORY\nDTG: 20260702/1550Z\nVAAC: TOKYO\nVOLCANO: MAYON 273030\nPSN: N1315 E12341\nAREA: PHILIPPINES\nSOURCE ELEV: 2462M AMSL\nADVISORY NR: 2026/714\nINFO SOURCE: HIMAWARI-9 PHIVOLCS\nERUPTION DETAILS: ERUPTION AT 20260702/1535Z FL090 EXTD WSW REPORTED\nOBS VA DTG: 02/1530Z\nOBS VA CLD: VA NOT IDENTIFIABLE FM SATELLITE DATA WIND FL090 100/11KT\nFCST VA CLD +6 HR: NOT AVBL\nFCST VA CLD +12 HR: NOT AVBL\nFCST VA CLD +18 HR: NOT AVBL\nRMK: WE WILL ISSUE FURTHER ADVISORY IF VA IS DETECTED IN SATELLITE \nIMAGERY.\nNXT ADVISORY: NO FURTHER ADVISORIES=",
      "img_url": "https://ds.data.jma.go.jp/svd/vaac/data/VAGFN/2026/Images/20260702_27303000_0714_QH21_01.png",
      "sat_img_url": null,
      "text_url": "https://ds.data.jma.go.jp/svd/vaac/data/TextData/2026/20260702_27303000_0714_Text.html"
    },
    {
      "id": "20260701_30006000_0001",
      "year": "2026",
      "volcano": "Mutnovsky",
      "psn": "N5227 E15812",
      "issued": "20260701",
      "text": "FVFE01 RJTD 012206\nVA ADVISORY\nDTG: 20260701/2206Z\nVAAC: TOKYO\nVOLCANO: MUTNOVSKY 300060\nPSN: N5227 E15812\nAREA: RUSSIA\nSOURCE ELEV: 2288M AMSL\nADVISORY NR: 2026/1\nINFO SOURCE: KVERT KBGS UHPP HIMAWARI-9\nERUPTION DETAILS: ERUPTION AT 20260701/2016Z FL170 EXTD W REPORTED\nOBS VA DTG: 01/2140Z\nOBS VA CLD: VA NOT IDENTIFIABLE FM SATELLITE DATA WIND FL170 120/8KT\nFCST VA CLD +6 HR: NOT AVBL\nFCST VA CLD +12 HR: NOT AVBL\nFCST VA CLD +18 HR: NOT AVBL\nRMK: WE WILL ISSUE FURTHER ADVISORY IF VA IS DETECTED IN SATELLITE \nIMAGERY.\nNXT ADVISORY: NO FURTHER ADVISORIES=",
      "img_url": "https://ds.data.jma.go.jp/svd/vaac/data/VAGFN/2026/Images/20260701_30006000_0001_QH21_01.png",
      "sat_img_url": null,
      "text_url": "https://ds.data.jma.go.jp/svd/vaac/data/TextData/2026/20260701_30006000_0001_Text.html"
    }
  ],
  "vaac_alaska": [
    {
      "text": "\n000\nFVAK21 PAWU 040310\nVAAAK1\nVA ADVISORY\n\nDTG: 20260704/0307Z\n\nVAAC: ANCHORAGE\n\nVOLCANO: SHEVELUCH 300270\n\nPSN: N5639 E16122\n\nAREA: KAMCHATKA PENINSULA\n\nSOURCE ELEV: 10771 FT AMSL\n\nADVISORY NR: 2026/171\n\nRMK: PLEASE SEE FVFE01 RJTD ISSUED BY VAAC TOKYO WHICH DESCRIBES\nCONDITIONS NEAR THE VAAC ANCHORAGE AREA OF RESPONSIBILITY...CC\n\n\n\n",
      "issued": "2026-07-04T03:10:00+00:00",
      "volcano": "Sheveluch",
      "psn": "N5639 E16122"
    }
  ]
}