{
  "updated_utc": "2026-07-12T04:57Z",
  "metar": {
    "RJAA": "METAR RJAA 120300Z 23003KT 190V280 9999 FEW020 BKN160 BKN/// 29/24 Q1011 NOSIG",
    "PANC": "METAR PANC 120353Z 28007KT 10SM BKN016 BKN060 OVC075 12/10 A2985 RMK AO2 SLP108 T01220100",
    "PAFA": "METAR PAFA 120353Z 22007KT 10SM SCT070 SCT100 BKN130 23/06 A2955 RMK AO2 SLP009 T02280056 $",
    "PAED": "SPECI PAED 120344Z COR 27010KT 10SM BKN009 OVC017 13/10 A2983 RMK AO2A RAB0248E44 CIG 009V017 BKN V SCT SLP097 $ COR 0346",
    "KSEA": "METAR KSEA 120353Z 24011KT 10SM FEW040 SCT085 SCT140 19/12 A2999 RMK AO2 SLP161 T01940117 $",
    "ZSPD": "METAR ZSPD 120300Z 14017G23MPS 9999 BKN020 30/26 Q0994 NOSIG",
    "ZSSS": "METAR ZSSS 120300Z 15011G17MPS 9999 BKN026 29/25 Q0992 NOSIG",
    "RJFR": "METAR RJFR 120300Z 09010KT 070V160 9999 FEW003 BKN005 28/26 Q1013",
    "VHHH": "METAR VHHH 120300Z 23013KT 9999 FEW010 33/27 Q1000 NOSIG",
    "RCTP": "METAR RCTP 120300Z 16008KT 130V210 9999 FEW020 BKN180 30/26 Q1000 NOSIG RMK A2955",
    "ZGSZ": "METAR ZGSZ 120300Z 18005MPS 9999 FEW026 31/28 Q1000 NOSIG",
    "WSSS": "METAR WSSS 120300Z 14008KT 110V180 8000 -SHRA FEW014 FEW016TCU FEW017CB SCT025 30/25 Q1011 TEMPO FM0320 TL0400 4000 SHRA",
    "WMKK": "METAR WMKK 120300Z VRB04KT 9999 FEW017CB 31/24 Q1010 NOSIG",
    "WIDD": "METAR WIDD 120300Z 18004KT 8000 SCT014 27/26 Q1011 NOSIG",
    "VTBS": "METAR VTBS 120300Z 24012KT 9999 SCT020 BKN030 31/23 Q1006 NOSIG",
    "VTBU": "METAR VTBU 120300Z 26017KT 9000 -RA FEW020 BKN100 29/26 Q1006 NOSIG",
    "ROAH": "METAR ROAH 120300Z 16023KT 9999 FEW009 BKN011 29/26 Q1010",
    "VVDN": "METAR VVDN 120300Z VRB02KT 9999 FEW020 BKN080 31/23 Q1002 NOSIG",
    "RCKH": "METAR RCKH 120300Z 18010KT 160V220 9999 -RA FEW010TCU FEW016 SCT034 BKN080 29/24 Q1003 NOSIG RMK TCU SE A2964",
    "KLAX": "METAR KLAX 120353Z 28009KT 10SM FEW014 SCT150 BKN220 20/16 A2993 RMK AO2 SLP131 T02000161 $",
    "KONT": "METAR KONT 120353Z 19004KT 10SM FEW150 SCT250 25/12 A2993 RMK AO2 SLP119 T02500122 $",
    "KSFO": "METAR KSFO 120356Z 32014KT 10SM FEW002 BKN150 BKN200 14/12 A2991 RMK AO2 SLP128 T01390117 $",
    "KOAK": "METAR KOAK 120353Z 28010KT 10SM FEW007 SCT180 BKN250 14/12 A2992 RMK AO2 SLP131 VIRGA T01440122",
    "KMHR": "METAR KMHR 120315Z AUTO 22010KT 10SM CLR 28/11 A2981 RMK AO2 T02760109 $",
    "KDFW": "METAR KDFW 120353Z 17009KT 10SM CLR 29/20 A3000 RMK AO2 SLP149 T02940200 $",
    "KIAH": "METAR KIAH 120353Z 12005KT 10SM FEW200 26/25 A3003 RMK AO2 SLP170 T02610250",
    "KORD": "METAR KORD 120351Z 02008KT 10SM FEW250 23/16 A3013 RMK AO2 SLP199 T02280161 $",
    "KJFK": "METAR KJFK 120351Z 03004KT 10SM FEW120 SCT250 22/16 A3006 RMK AO2 SLP177 T02170156 $",
    "KRFD": "METAR KRFD 120354Z 00000KT 10SM CLR 19/14 A3015 RMK AO2 SLP207 T01890144",
    "KIND": "METAR KIND 120354Z 04006KT 10SM SCT110 BKN170 BKN250 24/21 A3006 RMK AO2 SLP171 T02390211",
    "KDTW": "METAR KDTW 120353Z 04006KT 10SM BKN250 23/13 A3014 RMK AO2 SLP202 T02330133 $",
    "KMSP": "METAR KMSP 120353Z 19007KT 10SM CLR 28/21 A3012 RMK AO2 SLP192 T02830211 $",
    "CYEG": "METAR CYEG 120300Z 36004KT 20SM FEW024 BKN140 BKN250 17/14 A2987 RMK CU1ACC5CI1 CU TR CI TR SLP121 DENSITY ALT 3200FT",
    "EHAM": "METAR EHAM 120325Z 03007KT 360V060 9000 FEW005 17/16 Q1023 NOSIG",
    "EBBR": "METAR EBBR 120320Z 05005KT CAVOK 18/16 Q1021 NOSIG",
    "EDDF": "METAR EDDF 120320Z AUTO 06007KT CAVOK 20/11 Q1021 NOSIG",
    "EDFH": "METAR EDFH 120320Z 10005KT 050V140 CAVOK 17/09 Q1022",
    "EDDL": "METAR EDDL 120320Z AUTO 02003KT CAVOK 17/13 Q1022 NOSIG",
    "EDDK": "METAR EDDK 120320Z AUTO VRB02KT CAVOK 15/12 Q1022 NOSIG",
    "EBLG": "METAR EBLG 120320Z 05008KT CAVOK 19/12 Q1021 NOSIG",
    "LSZH": "METAR LSZH 120320Z VRB03KT CAVOK 18/10 Q1020 NOSIG",
    "LIMC": "METAR LIMC 120320Z VRB01KT CAVOK 20/16 Q1016 NOSIG",
    "LIRF": "METAR LIRF 120320Z 12003KT 080V140 CAVOK 22/21 Q1014 NOSIG",
    "EINN": "METAR EINN 120300Z 36007KT CAVOK 16/15 Q1024 NOSIG",
    "EGLL": "METAR EGLL 120320Z AUTO 06010KT 9999 BKN017 17/13 Q1024",
    "EGSS": "METAR EGSS 120320Z AUTO 03010KT 9999 OVC012 16/14 Q1025",
    "EPWA": "METAR EPWA 120300Z 22005KT 9999 BKN030 14/13 Q1014 NOSIG",
    "UHPP": "METAR UHPP 120300Z VRB01MPS CAVOK 30/13 Q1008 R16R/CLRD62 NOSIG RMK QFE753/1004",
    "EFHK": "METAR EFHK 120320Z 29002KT 9999 FEW036 17/17 Q1017 TEMPO SHRA FEW036CB",
    "LBBG": "METAR LBBG 120300Z AUTO 00000KT 9999 NCD 16/12 Q1016 NOSIG",
    "LTAC": "METAR LTAC 120320Z 13004KT 060V180 CAVOK 15/10 Q1018 NOSIG RMK RWY21C 11004KT 080V140 RWY03L 12004KT RWY21R 03006KT RWY03R VRB01KT RWY21L 11003KT 070V130",
    "UBBB": "METAR UBBB 120300Z 33020KT CAVOK 27/20 Q1013 NOSIG",
    "UTAA": "METAR UTAA 120300Z 31008KT 9999 FEW050 BKN100 32/19 Q1009 R88/CLRD70 NOSIG",
    "UACC": "METAR UACC 120300Z 09003MPS 060V140 CAVOK 21/13 Q1013 NOSIG RMK QFE728/0971",
    "UAAA": "METAR UAAA 120300Z 25003MPS 9999 FEW200 29/12 Q1005 NOSIG",
    "UZTT": "METAR UZTT 120300Z 03006KT CAVOK 31/11 Q1002 NOSIG",
    "ZWWW": "METAR ZWWW 120300Z 21002MPS 160V250 CAVOK 32/07 Q1005 NOSIG",
    "ZLXY": "METAR ZLXY 120300Z 23003MPS 9999 BKN060 27/21 Q1009 NOSIG",
    "ZBAA": "METAR ZBAA 120300Z 23002MPS 170V270 9999 SCT010 SCT040 27/24 Q1005 NOSIG",
    "ZBHH": "METAR ZBHH 120300Z 19004MPS 160V220 8000 FEW026 23/18 Q1011 NOSIG",
    "ZSQD": "METAR ZSQD 120300Z 15009G14MPS 9999 BKN022 31/25 Q1004 NOSIG",
    "ZMCK": "METAR ZMCK 120300Z 32009MPS 9999 FEW020 FEW030CB BKN033 10/06 Q1010 NOSIG RMK QFE642.6 78 NE CM",
    "UUEE": "METAR UUEE 120300Z 22006MPS 7000 -TSRA BKN050CB 16/16 Q1008 RESHRA WS R24L WS R24C R24L/290345 R24C/290345 TEMPO 2100 -TSRA BR BKN016CB",
    "UUDD": "METAR UUDD 120300Z 25003MPS 8000 NSC 16/16 Q1008 R13R/290045 NOSIG",
    "ULLI": "METAR ULLI 120300Z VRB01MPS CAVOK 19/17 Q1015 R10R/290050 NOSIG",
    "USSS": "METAR USSS 120300Z 20003MPS 160V230 9999 FEW033 23/20 Q1008 R26R/CLRD60 R26L/CLRD60 NOSIG RMK QFE736/0981",
    "UNNT": "METAR UNNT 120300Z 02003MPS CAVOK 17/11 Q1015 R07/CLRD// R34/////// NOSIG RMK QFE751/1002",
    "UNKL": "METAR UNKL 120300Z 32003MPS 9999 SCT036 17/10 Q1012 R29/CLRD// NOSIG RMK QFE733",
    "UIBB": "METAR UIBB 120300Z 32003MPS 280V360 9999 SCT040CB 13/11 Q1008 R30/290151 NOSIG RMK QFE713/0951",
    "UEEE": "METAR UEEE 120300Z 30003MPS 270V360 CAVOK 19/10 Q1006 R23/09//66 NOSIG RMK QFE746",
    "UHHH": "METAR UHHH 120300Z 25003MPS 190V280 9999 -SHRA SCT022CB 27/24 Q1003 R88/290045 NOSIG RMK QFE746/0995",
    "UHSS": "METAR UHSS 120300Z 35003MPS 9999 BKN005 20/20 Q1006 R01/290060 NOSIG RMK MT OBSC QFE753/1004"
  },
  "taf": {
    "RJAA": "TAF RJAA 112305Z 1200/1306 21006KT 9999 FEW030 TEMPO 1210/1215 FEW001 BKN005 TEMPO 1215/1221 4000 -SHRA BR FEW001 BKN005 TEMPO 1221/1300 FEW003 BKN008 BECMG 1300/1303 26006KT",
    "PANC": "TAF PANC 120211Z 1202/1306 25009KT P6SM BKN015 BKN035 FM121300 15008KT P6SM -SHRA SCT030 OVC060",
    "PAFA": "TAF PAFA 112320Z 1200/1306 25006KT P6SM SCT070 BKN100 FM120600 23008KT P6SM OVC060 FM121200 VRB03KT P6SM OVC060",
    "PAED": "TAF AMD PAED 120300Z 1203/1303 25010G20KT 6000 -RA BR SCT010 BKN018 OVC060 620188 QNH2980INS BECMG 1204/1205 VRB06KT 9000 -SHRA BR SCT010 BKN020 OVC060 620208 QNH2980INS BECMG 1217/1218 34004KT 9000 -RA BKN040 OVC070 620406 QNH2980INS TX13/1203Z TN09/1213Z",
    "KSEA": "TAF KSEA 120257Z 1203/1306 23006KT P6SM SCT040 SCT080 FM120600 22012G21KT P6SM FEW035 BKN060 FM121100 20008KT P6SM SCT020 BKN060 FM122100 30007KT P6SM SCT250 FM130300 35006KT P6SM FEW250",
    "ZSPD": "TAF ZSPD 120308Z 1206/1312 14016G23MPS 6000 BKN020 TX31/1206Z TX32/1306Z TN26/1221Z BECMG 1219/1220 16010G16MPS BECMG 1303/1304 16009MPS",
    "ZSSS": "TAF ZSSS 120308Z 1206/1312 15012G17MPS 6000 BKN015 TX31/1206Z TX33/1306Z TN28/1221Z BECMG 1223/1224 17007MPS",
    "RJFR": "TAF AMD RJFR 120212Z 1202/1306 07010KT 9999 BKN012 TEMPO 1202/1215 BKN005 TEMPO 1215/1218 1500 BR BKN005 TEMPO 1218/1303 BKN005 BECMG 1221/1300 11006KT",
    "VHHH": "TAF VHHH 120200Z 1203/1309 22010KT 9999 FEW010 TX34/1206Z TX33/1306Z TN28/1222Z",
    "RCTP": "TAF RCTP 112300Z 1200/1306 22015G32KT 9999 FEW015 BKN032 TEMPO 1205/1211 23010G20KT BECMG 1211/1213 20005KT TEMPO 1219/1224 16005KT TEMPO 1302/1306 VRB05KT 4000 SHRA SCT008 BKN012 BKN030",
    "ZGSZ": "TAF ZGSZ 120304Z 1206/1312 18004MPS 8000 FEW040 TX34/1206Z TX33/1306Z TN29/1222Z TEMPO 1305/1309 TSRA FEW010 FEW020CB BKN040",
    "WSSS": "TAF WSSS 112300Z 1200/1306 15011KT 9999 FEW015 SCT020",
    "WMKK": "TAF WMKK 112300Z 1200/1306 VRB03KT 9999 FEW018",
    "VTBS": "TAF VTBS 112300Z 1200/1306 23008KT 9999 FEW020 TEMPO 1202/1206 -TSRA FEW018CB SCT020 BKN080 TEMPO 1210/1214 VRB15KT 4000 TSRA FEW018CB SCT020 BKN080",
    "VTBU": "TAF VTBU 112300Z 1200/1224 24010KT 9000 FEW020 SCT100",
    "ROAH": "TAF ROAH 112312Z 1200/1306 16024KT 9999 FEW015 BKN020 TEMPO 1200/1202 16025G35KT FEW006 BKN008 TEMPO 1202/1209 16025G35KT",
    "VVDN": "TAF VVDN 112300Z 1200/1224 22008KT 9999 FEW020 SCT070 BECMG 1203/1204 10010KT TEMPO 1209/1212 TS SCT013 FEW017CB BKN060 BECMG 1212/1213 22006KT",
    "RCKH": "TAF RCKH 112300Z 1200/1306 17007KT 9999 FEW015 BKN032 TEMPO 1200/1206 20010KT 5000 SHRA FEW010 FEW015TCU BKN020 BECMG 1212/1214 16012KT TEMPO 1212/1218 4000 SHRA FEW010 FEW015CB BKN018 TEMPO 1218/1224 5000 SHRA FEW010 FEW015TCU BKN020 TEMPO 1303/1306 17015G25KT",
    "KLAX": "TAF KLAX 120254Z 1203/1306 23008KT P6SM SCT015 BKN250 FM120500 25006KT P6SM BKN015 FM121200 25004KT 5SM HZ OVC015 FM121600 26005KT P6SM BKN020 FM122000 26010KT P6SM BKN150 FM130300 26008KT P6SM OVC100",
    "KONT": "TAF KONT 112332Z 1200/1306 23011G18KT P6SM SCT150 FM120200 25008KT P6SM SCT150 FM120700 VRB04KT P6SM FEW150 FM121900 25010G19KT P6SM SCT200 FM130200 24009KT P6SM BKN200",
    "KSFO": "TAF KSFO 120301Z 1203/1306 32019KT P6SM FEW008 BKN200 FM120800 29011KT P6SM SCT100 FM121500 33006KT P6SM SCT015 FM122000 30013KT P6SM SCT200 FM130400 29010KT P6SM SCT200",
    "KOAK": "TAF KOAK 112335Z 1200/1306 28011KT P6SM SCT200 FM121000 31007KT P6SM SCT010 SCT200 FM121800 30012KT P6SM SCT200 FM122100 29014KT P6SM SCT200 FM130400 29010KT P6SM SCT200",
    "KMHR": "TAF KMHR 112323Z 1200/1224 23010KT P6SM BKN250 FM120400 17008KT P6SM BKN250 FM120900 16006KT P6SM VCSH BKN200 FM121600 22008KT P6SM VCSH OVC150",
    "KDFW": "TAF KDFW 120307Z 1203/1306 18009KT P6SM FEW210 FM122100 12005KT P6SM -SHRA SCT090 TEMPO 1221/1301 4SM -TSRA BKN060 OVC250CB FM130300 06004KT P6SM SCT090 BKN200",
    "KIAH": "TAF KIAH 120342Z 1204/1306 12007KT P6SM FEW020 SCT150 PROB30 1208/1210 -RA SCT020 BKN120 FM121700 16006KT P6SM VCSH SCT035 BKN045 BKN120 TEMPO 1218/1222 VRB20KT 4SM TSRA SCT025 BKN035CB FM130200 16008KT P6SM FEW025 BKN120",
    "KORD": "TAF KORD 120232Z 1203/1306 01007KT P6SM SKC FM121500 06008KT P6SM SKC FM130300 VRB04KT P6SM SKC",
    "KJFK": "TAF KJFK 120234Z 1203/1306 VRB05KT P6SM FEW060 BKN250 FM120600 03005KT P6SM FEW070 SCT250 FM121500 10009KT P6SM FEW060 FM121800 17010KT P6SM SCT070 FM130200 18006KT P6SM SCT070",
    "KRFD": "TAF KRFD 112320Z 1200/1224 06007KT P6SM SCT250 FM120200 01004KT P6SM SKC FM121500 08008KT P6SM SKC",
    "KIND": "TAF KIND 120227Z 1202/1306 04007KT P6SM FEW060 BKN100 BKN250 FM121700 05011G20KT P6SM SCT050 FM122300 04011KT P6SM SCT050",
    "KDTW": "TAF KDTW 120306Z 1203/1306 03005KT P6SM SCT250 FM121400 07005KT P6SM SKC FM121800 08008KT P6SM SKC FM130000 09007KT P6SM SKC",
    "KMSP": "TAF KMSP 120313Z 1203/1306 19005KT P6SM SKC FM121400 22010KT P6SM SKC",
    "CYEG": "TAF CYEG 120242Z 1203/1224 35005KT P6SM FEW080 FEW250 BECMG 1206/1208 VRB02KT BECMG 1208/1210 10003KT FM121000 12005KT 5SM BR FEW002 TEMPO 1210/1213 1/2SM FG VV002 BECMG 1213/1214 P6SM NSW SKC FM121400 14008KT P6SM SKC BECMG 1215/1217 15010G20KT BECMG 1217/1219 30010G20KT FM121900 30010G20KT P6SM SCT030 TEMPO 1219/1221 BKN030 FM122300 30010G20KT P6SM SKC RMK NXT FCST BY 120600Z",
    "EHAM": "TAF EHAM 112306Z 1200/1306 04010KT CAVOK PROB30 1203/1206 BKN005 BECMG 1221/1224 BKN012",
    "EBBR": "TAF EBBR 112303Z 1200/1306 05005KT CAVOK",
    "EDDF": "TAF EDDF 112300Z 1200/1306 04008KT CAVOK",
    "EDFH": "TAF EDFH 112300Z 1200/1224 10007KT CAVOK",
    "EDDL": "TAF EDDL 112300Z 1200/1306 02004KT CAVOK BECMG 1207/1210 03009KT BECMG 1221/1224 01004KT",
    "EDDK": "TAF EDDK 112300Z 1200/1306 VRB03KT CAVOK BECMG 1208/1211 04007KT BECMG 1220/1223 VRB03KT",
    "EBLG": "TAF EBLG 112303Z 1200/1306 06005KT CAVOK",
    "LSZH": "TAF LSZH 120225Z 1203/1309 29007KT CAVOK TX32/1215Z TN16/1203Z TN14/1303Z BECMG 1207/1209 04005KT BECMG 1209/1211 07011KT BECMG 1218/1220 06007KT BECMG 1220/1223 32004KT",
    "LIMC": "TAF LIMC 112300Z 1200/1306 VRB04KT CAVOK",
    "LIRF": "TAF LIRF 112300Z 1200/1306 05006KT CAVOK BECMG 1209/1211 25010KT BECMG 1214/1216 31010KT BECMG 1222/1224 VRB05KT",
    "EINN": "TAF EINN 112300Z 1200/1224 36008KT CAVOK PROB30 TEMPO 1205/1207 BKN008 BECMG 1206/1208 04010KT BECMG 1208/1210 08011KT BECMG 1219/1221 04008KT",
    "EGLL": "TAF EGLL 112255Z 1200/1306 04010KT CAVOK PROB30 TEMPO 1200/1202 BKN012 TEMPO 1202/1208 BKN008 BECMG 1215/1218 10015KT PROB30 TEMPO 1304/1306 BKN011",
    "EGSS": "TAF EGSS 112248Z 1200/1306 05011KT 9999 BKN012 TEMPO 1200/1207 BKN008 PROB30 TEMPO 1202/1206 BKN004 BECMG 1206/1209 CAVOK PROB30 TEMPO 1211/1220 07015G25KT PROB40 TEMPO 1302/1306 BKN014",
    "EPWA": "TAF EPWA 120230Z 1203/1303 23005KT 9999 BKN025 BECMG 1203/1205 BKN008 BKN011 TEMPO 1205/1209 2000 -DZRA BR BKN003 PROB40 TEMPO 1205/1209 BKN002 BECMG 1212/1214 BKN017",
    "UHPP": "TAF UHPP 120134Z 1203/1309 19005G10MPS 9999 NSC TX28/1203Z TN11/1217Z TEMPO 1210/1222 34003G08MPS",
    "EFHK": "TAF EFHK 120229Z 1203/1303 03006KT 9999 FEW035 PROB30 TEMPO 1203/1208 SHRA FEW035CB BECMG 1208/1210 SCT035CB TEMPO 1208/1218 6000 SHRA PROB30 TEMPO 1212/1216 2500 +TSGR BECMG 1219/1221 SCT035",
    "LBBG": "TAF LBBG 112300Z 1200/1224 VRB04KT 9999 SCT045 BECMG 1208/1210 12014KT PROB40 TEMPO 1218/1224 5000 TSRA FEW030CB BKN040",
    "LTAC": "TAF LTAC 112240Z 1200/1224 VRB02KT CAVOK TEMPO 1212/1216 03012KT",
    "UBBB": "TAF UBBB 112250Z 1200/1224 33018G28KT 9999 FEW015 TX31/1210Z TN25/1201Z TEMPO 1202/1212 35024G34KT FEW060CB BECMG 1212/1214 35012KT TEMPO 1218/1224 33006KT",
    "UTAA": "TAF UTAA 112245Z 1200/1224 33018KT 6000 SCT050 TX40/1211Z TEMPO 1200/1206 30016G26KT 4000 DRDU TEMPO 1208/1216 30018G28KT 3000 DRDU BECMG 1216/1218 26016KT",
    "UACC": "TAF UACC 112300Z 1200/1224 04005MPS 9999 SCT040 BKN100 TX32/1209Z TN16/1200Z TEMPO 1200/1206 08006MPS TEMPO 1206/1218 08008MPS SCT030CB BECMG 1218/1220 11003MPS",
    "UAAA": "TAF UAAA 112300Z 1200/1224 32003G08MPS 9999 FEW050CB SCT100 TX35/1210Z TN19/1201Z TEMPO 1200/1205 20002MPS BECMG 1215/1216 21002MPS SCT050CB BKN100",
    "UZTT": "TAF UZTT 112300Z 1200/1224 07010KT 7000 NSC TX39/1211Z TN25/1200Z TEMPO 1206/1216 28010G20KT FEW060CB PROB40 TEMPO 1206/1216 TS SCT050CB",
    "ZWWW": "TAF ZWWW 120305Z 1206/1312 36004MPS CAVOK TX37/1209Z TX38/1309Z TN26/1223Z BECMG 1214/1215 18004MPS BECMG 1302/1303 36004MPS",
    "ZLXY": "TAF ZLXY 120302Z 1206/1306 23003MPS 5000 HZ NSC TX32/1208Z TN23/1221Z",
    "ZBAA": "TAF ZBAA 120301Z 1206/1312 10004MPS 5000 BR NSC TX31/1207Z TX32/1307Z TN23/1221Z TEMPO 1218/1224 2800 -SHRA BR",
    "ZBHH": "TAF ZBHH 120303Z 1206/1306 24004MPS 6000 FEW040 TX30/1208Z TN15/1222Z",
    "ZSQD": "TAF ZSQD 120302Z 1206/1306 13012G18MPS 6000 BKN020 TX31/1206Z TN26/1220Z BECMG 1208/1209 12007G14MPS BECMG 1301/1302 12012G18MPS",
    "ZMCK": "TAF ZMCK 120440Z 1206/1312 31009MPS 9999 FEW030CB SCT033 TX17/1207Z TN07/1221Z BECMG 1210/1212 VRB02MPS PROB40 TEMPO 1304/1312 VRB08MPS TSRA SCT027CB SCT030 BECMG 1305/1308 33005MPS",
    "UUEE": "TAF AMD UUEE 120250Z 1202/1303 34003G08MPS 9999 FEW004 BKN030 TX23/1213Z TN17/1301Z TEMPO 1202/1204 VRB20MPS 1000 TSRA BR BKN003 BKN016CB TEMPO 1204/1210 -TSRA BKN016CB TEMPO 1210/1218 VRB18MPS 1500 TSRA SQ BKN020CB BECMG 1218/1219 05005MPS TEMPO 1219/1224 4900 -SHRA OVC007 BKN016CB",
    "UUDD": "TAF UUDD 120155Z 1203/1309 03003MPS 6000 -RA FEW006 BKN016 TX23/1309Z TN17/1203Z TEMPO 1203/1221 VRB10MPS 1500 TSRA BKN016CB TEMPO 1221/1306 BKN003 PROB40 TEMPO 1221/1304 0300 FG TEMPO 1306/1309 03008G15MPS -TSRA BKN016CB",
    "ULLI": "TAF ULLI 120154Z 1203/1303 04003G08MPS 6000 SCT017 TEMPO 1203/1205 1000 BR MIFG FEW003 TEMPO 1209/1218 3100 -TSRA BKN016CB",
    "USSS": "TAF USSS 120156Z 1203/1303 29003G14MPS 9999 BKN040CB TEMPO 1203/1216 VRB22MPS -TSRAGR SQ FM121600 02003MPS 6000 SCT020",
    "UNNT": "TAF UNNT 120200Z 1203/1303 02003G08MPS CAVOK TX24/1210Z TN11/1222Z TEMPO 1206/1212 06008G13MPS",
    "UNKL": "TAF UNKL 120153Z 1203/1303 32003MPS 8000 SCT040 TEMPO 1203/1206 02005MPS BECMG 1206/1208 02005G10MPS BECMG 1210/1212 24003G08MPS BECMG 1300/1302 16005MPS",
    "UIBB": "TAF UIBB 120200Z 1203/1303 29003G08MPS 9999 -SHRA BKN014CB TEMPO 1203/1212 VRB08MPS",
    "UEEE": "TAF UEEE 120200Z 1203/1309 32003G08MPS 9999 SCT030 BKN100",
    "UHHH": "TAF UHHH 120151Z 1203/1309 20003MPS 9999 FEW010 SCT017CB TX30/1205Z TN23/1218Z TEMPO 1203/1215 VRB08MPS 5000 -TSRA",
    "UHSS": "TAF UHSS 120155Z 1203/1309 36003MPS 4000 BR BKN004 BKN016CB TEMPO 1203/1209 0600 -SHRA FG BKN002 BKN016CB BECMG 1209/1210 2100 -SHRA BR TEMPO 1210/1224 0550 -SHRA FG BKN002 BKN016CB"
  },
  "atis": {
    "RJAA": "[Arrival ATIS] RJAA ARR ATIS F 0505Z MS0500 (APCH)ILS RWY34L/ILS Z RWY34R LDG RWY 34L/34R DEP RWY 34L DEP FREQ 124.2. TWY A1 CLSD. SIMUL PARL APCHS INPR. OBSERVE GEAR DOWN OPS PROC ON FNL. MS 210500Z 02004KT 320V080 10KM -RA FEW007ST BKN012ST 24/22 Q0998/A2949= Q/TWO NINE FOUR NINE STP\n[Departure ATIS] RJAA DEP ATIS E 0501Z M0430 (APCH)ILS Z RWY34R LDG RWY 34R DEP RWY 34L DEP FREQ 124.2. TWY A1 CLSD. OBSERVE GEAR DOWN OPS PROC ON FNL. M 210430Z 35004KT 300V060 10KM FEW003ST BKN008ST BKN025SC 24/21 Q0998/A2950= Q/TWO NINE FIVE ZERO STP",
    "PANC": "[Arrival ATIS] PANC ARR ATIS I 0453Z ANC ATIS INFO I 0453Z. 24010KT 10SM FEW050 FEW100 SCT200 13/08 A3015 (THREE ZERO ONE FIVE) RMK AO2 SLP210 T01330078. 7R APPROACHES IN USE. LANDING RWY 7R, DEPARTING RWY 33. NOTICE TO AIRMEN. RWY 7L CLSD. CHECK NOTAMS FOR TAXIWAY CLOSURES. CAUTION FOR BIRD ACTIVITY IN THE ARPT AREA. CONTACT TOWER 118.3 FOR TAXI. ...ADVS YOU HAVE INFO I.\n[Departure ATIS] PANC DEP ATIS Y 2253Z ANC ATIS INFO Y 2253Z. 23009G25KT 10SM OVC100 14/08 A2984 (TWO NINER EIGHT FOUR) RMK AO2 PK WND 26031/2210 SLP104 T01390083. VISUAL APPROACHES IN USE. LANDING RWY 15, DEPAR",
    "KSEA": "[Arrival ATIS] KSEA ARR ATIS L 0453Z SEA ATIS INFO L 0453Z. 23015G22KT 10SM FEW040 SCT085 SCT140 17/11 A3003 (THREE ZERO ZERO THREE). ILS AND CHARTED VISUAL APPROACH RWYS 16R AND 16L , APCH IN USE. DEPG RWY 16L, DEPG ACFT PLAN AND BRIEF NUMBERS FOR BOTH RWYS 16L AND 16C. SIMUL APCHS IN USE, BFI & SEA. TRAFFIC BELOW YOU ON FINAL. SIMUL APCHS IN USE TO PARA RYS. NOTAMS... BIRD ACTIVITY VICINITY ARPT. ...ADVS YOU HAVE INFO L.\n[Departure ATIS] KSEA DEP ATIS K 0353Z SEA ATIS INFO K 0353Z. 22011KT 10SM FEW040 SCT085 SCT140 19/12 A2999 (TWO NINER NINER NINER). ILS AND CHARTED VISUAL APPROACH RWYS 16R AND 16L , APCH IN USE. DEPG RWY 16L,",
    "ZSPD": "[Arrival ATIS] ZSPD ARR ATIS F 0500Z EXP ILS APCH INDEPENDENT PARL INSTR APCH LDG RWY 17R & 16L WIND RWY 17R TDZ 090/4MPS MID 090/5MPS END 080/5MPS RWY 16L TDZ 100/4MPS MID 090/4MPS END 090/4MPS VIS RWY 17R TDZ 10000M MID 8000M END 10000M VIS RWY 16L TDZ 10000M MID 10000M END 9000M FBL SHRA CLD BKN 480M T 27 /DP 24 QNH 1009 HPA CAUTION THE BIRDS NEAR THE RUNWAY ADZ YOU HAVE INFO F.\n[Departure ATIS] ZSPD DEP ATIS E 0430Z DEP RWY 17L & 16R WIND RWY 17L TDZ 070/4MPS VRB BTN 040/ AND 120/ MID 080/4MPS END 100/5MPS RWY 16R TDZ 100/3MPS MID 110/4MPS END 100/5MPS VIS RWY 17L TDZ 10000M MID 10000M END 10000M VIS RWY 16R TDZ 10000M MID 10000M END 10000M CLD BKN 480M T 27 /DP 23 QNH 1010 HPA CAUTION THE BIRDS NEAR THE RUNWAY ADZ YOU HAVE INFO E.",
    "ZSSS": "[Arrival ATIS] ZSSS ARR ATIS X 0400Z EXP ILS APCH LDG RWY 18L WIND RWY 18L TDZ 150/2MPS MID 120/2MPS VRB BTN 100/ AND 160/ END 130/2MPS VIS RWY 18L TDZ 8000M MID 8000M END 9000M BR CLD FEW 450M T 28 /DP 24 QNH 1009 HPA RWY18L RWYCC 5/5/5 ISSUED AT 0030 WET/WET/WET DPT NR/NR/NR COV 100PCT/100PCT/100PCT RWY18R RWYCC 5/5/5 ISSUED AT 0240 WET/WET/WET DPT NR/NR/NR COV 50PCT/50PCT/50PCT QNH OF SHANGHAI TERMINAL CONTROL AREA 1010 HPA ADZ YOU HAVE INFO X.\n[Departure ATIS] ZSSS DEP ATIS Z 0500Z DEP RWY 18R WIND RWY 18R TDZ 050/4MPS MID 100/4MPS VRB BTN 060/ AND 120/ END 090/4MPS VRB BTN 070/ AND 130/ VIS RWY 18R TDZ 9000M MID 10000M END 10000M FBL SHRA CLD SCT 480M /FEW CB 900M T 28 /DP 24 QNH 1009 HPA RWY18L RWYCC 5/5/5 ISSUED AT 0030 WET/WET/WET DPT NR/NR/NR COV 100PCT/100PCT/100PCT RWY18R RWYCC 5/5/5 ISSUED AT 0240 WET/WET/WET DPT NR/NR/NR COV 50PCT/50PCT/50PCT QNH OF SHANGHAI TERMINAL CONTROL AREA 1009 HPA ADZ YOU HAVE INFO Z.",
    "VHHH": "[Arrival ATIS] VHHH ARR ATIS H 0504Z ARRIVALS, RWY 25R/L. EXP RNAV TRANSITION TO ILS APCH, RWY 25R. EXP ILS APCH, RWY 25L. RNP APCH IS AVBL ON REQ, RWY 25R. CAUTION POSSIBLE GP FLUCTUATION RWY 25L. WIND RWY 25R 240/10KT RWY 25L 180/08KT. VIS RWY 25R 10KM RWY 25L 10KM. CLD FEW 1200FT SCT 2500FT. T32 DP25. QNH 1010HPA. ACK INFO H ON FIRST CTC WITH APP.\n[Departure ATIS] VHHH DEP ATIS U 0407Z DEPARTURES, RWY 25C/L. INDEPENDENT PARALLEL DEPARTURE IN PROGRESS. WIND RWY 25C 220/09KT RWY 25L 230/08KT. VIS RWY 25C 10KM RWY 25L 10KM. CLD FEW 1200FT SCT 2500FT. T32 DP24. QNH 1010HPA. ACK INFO U ON FIRST CTC WITH DELIVERY .",
    "RCTP": "[Arrival ATIS] RCTP ARR ATIS W 0500Z EXP ILS APCH RWY23R FOR ARR. RWY23L FOR DEP. WIND 290/12KT VIS 10 KM OR MORE CLD FEW 2000FT T 35 DP 23 QNH 1009HPA NOSIG CTN BIRD ACTIVITY IN THE VCY OF THE AD. INFORM TAIPEI APCH OR TAIPEI TOWER ON INITIAL CONTACT YOU HAVE INFORMATION W\n[Departure ATIS] RCTP DEP ATIS V 0430Z EXP ILS APCH RWY23R FOR ARR. RWY23L FOR DEP. WIND 270/09KT VARYING BTN 220 AND 310 VIS 10 KM OR MORE CLD FEW 2000FT T 35 DP 24 QNH 1009HPA NOSIG DUE TO FLOW CONTROL BY FUKUOKA F-I-R, TRAFFIC CONCERNED MAY BE DELAYED. CTN BIRD ACTIVITY IN THE VCY OF THE AD. INFORM TAIPEI APCH OR TAIPEI TOWER ON INITIAL CONTACT YOU HAVE INFORMATION V",
    "ZGSZ": "[Arrival ATIS] ZGSZ ARR ATIS H 0500Z EXP ILS APCH 15 EXP ILS OR VIS APCH 16R WIND 160/8MPS VIS 9999M CLD FEW 600M T 31 /DP 27 QNH 1010 HPA INDEPENDENT PARALLEL DEPARTURES DEPENDENT PARALLEL APPROACHES V17,V18 AVAILABLE AFTER SULAS FLY HEADING 040 MISSED APPROACH ALTITUDE SETTING 1200METERS WHEN AIRBORNE CONTACT ZHUHAI APPROACH EXPECTED RNP ILS DME Z APPROACH ADZ YOU HAVE INFO H.\n[Departure ATIS] ZGSZ DEP ATIS E 0411Z DEP RWY 15 & 16L WIND 170/6MPS VIS 9999M CLD FEW 600M T 31 /DP 27 QNH 1010 HPA INDEPENDENT PARALLEL DEPARTURES DEPENDENT PARALLEL APPROACHES MISSED APPROACH ALTITUDE SETTING 1200METERS WHEN AIRBORNE CONTACT ZHUHAI APPROACH EXPECTED RNP ILS DME Z APPROACH ADZ YOU HAVE INFO E.",
    "WSSS": "[Arrival ATIS] WSSS ARR ATIS T 0500Z METREPORT 0500Z ILS APCHRWY 20R SIMUL INDEPENDENT ILS AND VISUAL APPROACHES ARE CONDUCTED ON RWY 20. TWY W 9 CLOSED, RWY 02C 20C RAPID EXIT TAXIWAY INDICATOR LIGHTS OFFTAXIING GUIDANCE LIGHTS ON ALL TAXIWAYS ARE ON, FOR LIGHTING INSPECTION, WIND 180/ 08KT VRB BTN120 AND220 VIS 10KM CLD FEW TCU 2000FT SCT 2200FT T31 DP25 QNH 1011HPA NOSIG ACK ATIS T\n[Departure ATIS] WSSS DEP ATIS U 0500Z METREPORT 0500Z RWY 20C SIMUL INDEPENDENT ILS AND VISUAL APPROACHES ARE CONDUCTED ON RWY 20. TWY W 9 CLOSED, RWY 02C 20C RAPID EXIT TAXIWAY INDICATOR LIGHTS OFFTAXIING GUIDANCE LIGHTS ON ALL TAXIWAYS ARE ON, FOR LIGHTING INSPECTION, WIND VRB/ 05KT VIS 10KM CLD FEW TCU 2000FT SCT 2200FT T31 DP25 QNH 1011HPA NOSIG DEP,INITIAL CMB 3000FT ACK ATIS U",
    "WMKK": "[Arrival ATIS] WMKK ARR ATIS E 0304Z WMKK ARR INFO E. TIME 0300. INDEPENDENT PARALLEL APPROACHES FOR RWY 14 L AND 15 ARE IN PROGRESS. EXP RNAV / ILS APCH FOR RWY 14 LEFT. EXP RNAV / ILS APCH FOR RWY 15. WIND RWY 14L 190 DEG, 9 KT. WIND RWY 15 160 DEG, 10 KT, VRB BTN 130 AND 200 DEG. VIS RWY 14L TDZ 10 KM OR MORE. VIS RWY 15 TDZ 10 KM OR MORE. CLD FEW CB 1700 FT. T 31. DP 24. QNH 1010. NOSIG. AT FIRST CONTACT WITH LUMPUR RADAR, NOTIFY RCPT OF E\n[Departure ATIS] WMKK DEP ATIS Q 0434Z WMKK DEP INFO Q. TIME 0430. INDEPENDENT PARALLEL DEPARTURES FOR RWY 14 R AND 15 ARE IN PROGRESS. RWY 14 RIGHT. RWY 15. WIND RWY 14R DIRECTION NOT AVBL SPEED NOT AVBL. WIND RWY 15 DIRECTION NOT AVBL SPEED NOT AVBL. VIS RWY 14R TDZ NOT AVBL. VIS RWY 15 TDZ NOT AVBL. CLD SCT 1800 FT. T 31. DP 25. QNH 1011. NOSIG. ALL DEP ACFT TO CONTACT LUMPUR DEP AT 135 DECIMAL 25 MHZ WHEN ABN. AT FIRST CONTACT WITH LUMPUR GROUND, NOTIFY RCPT OF Q",
    "VTBS": "[Arrival ATIS] VTBS ARR ATIS P 0430Z VTBS ARR ATIS P 0431Z SIMULTANEOUS INDEPENDENT PARL APCH IN PROGRESS EXP ILS Z APCH ARR RWY 19 OR RNP APCH RWY 20R , ,PILOT SHALL ADZ BKK APCH ON INITIAL CTC IF UNA TO CONDUCT RNP APCH DUE TO OPERATIONAL CONSTRAINT 0430Z WIND VRB2KT VIS 10KM CLD FEW 2000FT T34 DP23 QNH 1010HPA TREND NOSIG ADZ BKK APCH ON INITIAL CONTACT THAT YOU HAVE INFO P\n[Departure ATIS] VTBS DEP ATIS W 0400Z VTBS DEP ATIS W 0401Z SIMULTANEOUS INDEPENDENT PARL DEP IN PROGRESS DEP RWY 20L OR DEP RWY 19 , ,AFT AIRBORNE ALL DEPARTING ACFT SHALL CTC 119.25 0400Z WIND VRB6KT VIS 10KM CLD FEW 2000FT T33 DP22 QNH 1011HPA TREND NOSIG ADZ GND WHEN INITIAL CONTACT YOU HAVE INFO W",
    "VTBU": "[Arrival ATIS] VTBU ARR ATIS U 0430Z VTBU ARR ATIS U 0430Z RNP RWY 18 TRL FL130 MOBILE ACFT ARST SYSTEM INSTL ATP SIX HUNDRED AND TEN METERS FM THR RWY 36 CABLE HGT 3 INCHES. 0430Z WIND 360/6KT VRB BTN 320/ AND 020/ VIS 10KM CLD FEW 2000FT T34 DP27 QNH 1010HPA TREND NOSIG ADZ CONTROLLER WHEN INITIAL CONTACT YOU HAVE INFO U\n[Departure ATIS] VTBU DEP ATIS D VTBU ARR/DEP DATIS RPT VTBU ARR ATIS D 0330Z ILS \"Z\" APCH RWY 18 TRL FL130 0330Z WIND 110/4KT VRB BTN 350/ AND 120/ VIS 6KM CLD FEW 2000FT T31 DP27 QNH 1014HPA TREND NOSIG ADZ CONTROLLER WHEN INITIAL CONTACT YOU HAVE INFO D",
    "ROAH": "[Arrival ATIS] ROAH ARR ATIS B 0508Z M0500 (APCH)RNP RWY18R LDG RWY 18R DEP RWY 18L DEP FREQ 126.5 258.3 M 210500Z 22007KT 50KM FEW009CU 29/27 Q1010/A2984= Q/TWO NINE EIGHT FOUR STP\n[Departure ATIS] ROAH DEP ATIS F 1204Z M1200 (APCH)RNP RWY18R LDG RWY 18R DEP RWY 18L DEP FREQ 119.175 316.0 M 201200Z 18011KT 40KM FEW006ST 27/26 Q1012/A2989= Q/TWO NINE EIGHT NINE STP",
    "VVDN": "[Arrival ATIS] VVDN ARR ATIS P 0502Z VVDN INFO P 0502Z. ILS VICTOR APPROACH 35L.. DPTG RWY 35R.. 0502Z. WIND 100/05KT CAVOK T36 DP23 QNH 1008HPA TREND NOSIG. ADZ ON INITIAL CTC YOU HAVE INFO. P.\n[Departure ATIS] VVDN DEP ATIS N 0423Z VVDN INFO N 0423Z. ILS VICTOR APPROACH 35L.. DPTG RWY 35R.. 0423Z. WIND 010/02KT CAVOK T36 DP24 QNH 1008HPA TREND NOSIG. WS ALL RWY. ADZ ON INITIAL CTC YOU HAVE INFO. N.",
    "RCKH": "[Arrival ATIS] RCKH ARR ATIS L 0430Z EXPECT ILS APPROACH RWY 09 ARR/DEP TAXIWAY JULIETT, TAXIWAY BRAVO, TAXIWAY DELTA AND TAXIWAY ECHO CLOSED DUE MAINTENANCE. RUNWAY 0 9 ARRIVALS PLAN VACATE VIA CHARLIE OR\n[Departure ATIS] RCKH DEP ATIS J 0630Z EXPECT ILS APPROACH RWY 27 ARR/DEP TAXIWAY JULIETT, TAXIWAY BRAVO, TAXIWAY DELTA AND TAXIWAY ECHO CLOSED DUE MAINTENANCE.RUNWAY 2 7 ARRIVALS PLAN VACATE VIA CHARLIE OR A",
    "KLAX": "[Arrival ATIS] KLAX ARR ATIS V 0353Z LAX ATIS INFO V 0353Z. 27009KT 10SM FEW014 SCT150 BKN220 20/16 A2993 (TWO NINER NINER THREE) RMK AO2 SLP131 T02000161. INST APCHS AND RNAV RNP APCHS RY 24R AND 25L, OR VCTR FOR VISUAL APCH WILL BE PROVIDED, AND SIMUL APCHS IN PROG BTWN LAX AND HHR, SIMUL INSTR DEPARTURES IN PROG 24L, 25R. CTC L A GC ON 121.75 FOR PUSH OR TAXI ON A. TWY B CLSD BTN TWY, C10 AND TWY C7 , , TWY B6 CLSD, TWY B7 CLSD, TWY C CLSD BTN TWY, C1 AND TWY C3, TWY C1 CLSD, TWY C9 CLSD BTN TWY, B AND TWY C, TWY C8 CLSD BTN TWY, B AND TWY C. RY 25R SFL OTS, RY 24L ALSF-2 OTS. LAX VOR UNMONITORED. HAZD WX INFO FOR LAX AREA AVBL FM FSS. BIRD ACTIVITY VICINITY ARPT. INCLUDE YOUR CALL SIGN IN ALL READBACKS. USE CAUTION WHEN EXITING RY24R AT TWY V, W, AND Y, TO HOLD SHORT OF RY24L. MULTIPLE RUNWAY INCURSIONS HAVE OCCURRED. ...ADVS YOU HAVE INFO V.\n[Departure ATIS] KLAX DEP ATIS W 1853Z LAX ATIS INFO W 1853Z. 23010KT 10SM FEW016 SCT022 SCT027 20/13 A3000 (THREE ZERO ZERO ZERO) RMK AO2 SLP158 T02000128. INST APCHS AND RNAV RNP APCHS RY 24R AND 25L, OR VCTR FOR VISUAL APCH WILL BE PROVIDED, SIMUL VISUAL APCHS TO ALL RWYS ARE IN PROG, SIMUL INSTR DEPARTURES IN PROG RWYS 24 AND 25. CTC L A GC ON 121.75 FOR PUSH OR TAXI ON A. TWY C CLSD BTN TWY, C8 AND TWY C9 , , TWY B CLSD BTN TWY, F AND TWY B1, TWY B1 CLSD. ILS RY 25R OTS, RY 25R SFL OTS, RY 24L ALSF-2 OTS. LAX VOR UNMONITORED. IF ASSIGNED RUNWAY 25R FOR DEPARTURE, EXPECT DEPARTURE FROM INTERSECTION FOXTROT. TAXILANE CHARLIE EIGHT RESTRICTED TO AIRCRAFT WITH A WINGSPAN LESS THAN ONE HUNDRED EIGHTEEN FEET. USE CAUTION FOR INCREASED DRONE ACTIVIY IN THE VICINITY OF SOFI STADIUM AT OR BELOW 200FT AGL DURING THE WORLD CUP FROM 06/12/26 THROUGH 07/10/2026. HAZD WX INFO FOR LAX AREA AVBL FM FSS. USE CAUTION FOR HANG GLIDING 1 MILE SOUTH LOS ANGELES VOR. BIRD ACTIVITY VICINITY ARPT. INCLUDE YOUR CALL SIGN IN ALL READBACKS. USE CAUTION WHEN EXITING RY24R AT TWY V, W, AND Y, TO HOLD SHORT OF RY24L. MULTIPLE RUNWAY INCURSIONS HAVE OCCURRED. ...ADVS YOU HAVE INFO W.",
    "KONT": "[Arrival ATIS] KONT ARR ATIS R 2053Z - KONT ATIS INFO R 2053Z. 24008KT 10SM CLR 27/11 A2995 (TWO NINER NINER FIVE). ILS AND VIS APR IN USE, RY26L & RY26R. LNDG AND DEPG RY 26L AND RY 26R. NOTAMS... TAXIWAY SIERRA CLSD BETWEEN SIERRA 8 AND W TAXIWAY Q SOUTH OF RWY 26L CLSD TAXIWAY T CLSD TAXIWAY SIERRA 5 CLSD. RY 26L IM OTS. USE CAUTION FOR NUMEROUS BIRDS OBSERVED IN VICINITY OF ONT. PILOTS READBACK RWY ASSIGNMENTS AND HOLD SHORT INSTRUCTIONS. ...ADVS YOU HAVE INFO R.\n[Departure ATIS] KONT DEP ATIS N 0553Z - KONT ATIS INFO N 0553Z. 24004KT 10SM BKN250 22/15 A2988 (TWO NINER EIGHT EIGHT) RMK AO2 SLP100. ILS AND VIS APR IN USE, RY26L & RY26R. LNDG AND DEPG RY 26L AND RY 26R. NOTAMS... TAXIWAY SIERRA CLSD BETWEEN SIERRA 8 AND W TAXIWAY Q SOUTH OF RWY 26L CLSD TAXIWAY T CLSD TAXIWAY SIERRA 5 CLSD. RY 26L IM OTS, RY 26R ALS OTS. USE CAUTION FOR NUMEROUS BIRDS OBSERVED IN VICINITY OF ONT. HAZD WX INFO FOR SOUTHERN CA AVBL ON FSS FREQUENCIES. PILOTS READBACK RWY ASSIGNMENTS AND HOLD SHORT INSTRUCTIONS. ...ADVS YOU HAVE INFO N.",
    "KSFO": "[Arrival ATIS] KSFO ARR ATIS H 0156Z - KSFO ATIS INFO H 0156Z. 30016KT 10SM FEW004 BKN180 BKN200 16/12 A2990 (TWO NINER NINER ZERO). SIMUL CLSLY SPCD DPNDNT ILS RY 28R AND ILS RY 28L APP IN USE. DEPG RWYS 28L, 28R. RY 1L, 1R CLSD. NUMEROUS TWY CLOSURES FOR CONSTRUCTION ON THE FIELD, PILOTS CHECK NOTAMS. DEPG ACFT WAITING ON FINAL NUMBERS ADVISE GROUND PRIOR TO ENTERING TWY F. ...ADVS YOU HAVE INFO H.\n[Departure ATIS] KSFO DEP ATIS J 0356Z SFO ATIS INFO J 0356Z. 27015KT 10SM FEW005 SCT011 13/11 A2991 (TWO NINER NINER ONE) RMK PK WND 28026/0321. SIMUL CLSLY SPCD DPNDNT ILS RY 28R AND ILS RY 28L APP IN USE. DEPG RWYS 28L, 28R. DEPG ACFT SHOULD BE PREPARED FOR A SHORT NOTICE RY CHANGE. RY 1L, 1R CLSD. NUMEROUS TWY CLOSURES FOR CONSTRUCTION ON THE FIELD, PILOTS CHECK NOTAMS. DEPG ACFT WAITING ON FINAL NUMBERS ADVISE GROUND PRIOR TO ENTERING TWY F. ...ADVS YOU HAVE INFO J.",
    "KOAK": "[Arrival ATIS] KOAK ARR ATIS A 0353Z - KOAK ATIS INFO A 0353Z. 25010KT 10SM FEW003 OVC007 14/12 A3004 (THREE ZERO ZERO FOUR). RNAV, RWY 30. ILS, RWY 28R. FLOW TO LAX, LAS, SAN, SEA. ILS RWY 30, OTS, RWY 28R RAIL, OTS. UNN LIT CLOSE-IN OBSTACLES FOR RWY 30 DEPARTURES. RWY 30 DEPARTURES ARE ADVISED TO AVOID TURNING LEFT PRIOR TO DEPARTURE END OF RUNWAY. CTN, CRANE 1 POINT 6 NAUTICAL MILES, , AT 140 FEET AGL. CAUTION, BIRDS NEAR AIRPORT. ...ADVS YOU HAVE INFO A.\n[Departure ATIS] KOAK DEP ATIS O 1953Z OAK ATIS INFO O 1953Z. 28014KT 10SM FEW005 22/14 A2988 (TWO NINER EIGHT EIGHT). RNAV Z/VA RWY 30 ILS/VA RWY 28R. FLOW TO LAX, LAS, SAN. ILS RWY 30, OTS. UNN LIT CLOSE-IN OBSTACLES FOR RWY 30 DEPARTURES. RWY 30 DEPARTURES ARE ADVISED TO AVOID TURNING LEFT PRIOR TO DEPARTURE END OF RUNWAY. SIGNATURE UNI-COM OUT OF SERVICE. CAUTION, BIRDS NEAR AIRPORT. ...ADVS YOU HAVE INFO O.",
    "KDFW": "[Arrival ATIS] KDFW ARR ATIS Q 0353Z DFW ARR INFO Q 0353Z. 18009KT 10SM CLR 29/20 A3000 (THREE ZERO ZERO ZERO) RMK AO2 SLP149 T02940200. SIMUL VISUAL APCH TO RWYS, 18R, 17C. LDG RWY 17C EXP LAHSO TWY B 10460 FT AVAIL, LDG RWY 18R EXP LAHSO TWY B 10100 FT AVL. NOTICE TO AIRMEN. RWY 13L CLSD. RWY 13R CLSD. RWY 17L CLSD. RWY 17C PAPI OTS. WARNING, RWY 18L HAS BEEN SHORTENED, 9273 FT AVAILABLE. BIRD ACTIVITY VCNTY ARPT. ...ADVS YOU HAVE INFO Q.\n[Departure ATIS] KDFW DEP ATIS W 1553Z - KDFW DEP INFO W 1553Z. 21022G32KT 10SM FEW025 FEW180 SCT250 31/21 A2994 (TWO NINER NINER FOUR) RMK AO2 PK WND 20032/1547 SLP128 T03110206. SIMUL PARL TRAFFIC DEPG RWYS 17R, 18L. NOTICE TO AIRMEN. WARNING, RWY 18L HAS BEEN SHORTENED, 9273 FT AVAILABLE. RWY 18L CL OTS. BIRD ACTIVITY VCNTY ARPT. ...ADVS YOU HAVE INFO W.",
    "KIAH": "[Arrival ATIS] KIAH ARR ATIS F 1653Z IAH ATIS INFO F 1653Z. 22006KT 10SM SCT040 33/23 A3007 (THREE ZERO ZERO SEVEN). ARRIVALS EXPECT ILS OR RNAV Y RY 26R, ILS OR RNAV Y RY 26L, ILS OR RNAV Y RY 27. SIMUL APPROACHES IN USE. DEPG RY 15L, RY 15R. NOTICE TO AIRMEN. UNITED RAMP CONTROL IN EFFECT. BIRD ACTIVITY VICINITY ARPT. CRANES ARE DOWN. TWY SA CLSD BTN TWY, SF AND TWY SK , TWY SB CLSD BTN TWY, SF AND TWY SK , , TWY WB CLSD BTN TWY, WG AND TWY WH . TWY EA CLSD. NOTAM ATIS IN USE ON FREQUENCY 126.225. ...ADVS YOU HAVE INFO F.\n[Departure ATIS] KIAH DEP ATIS T 0353Z IAH ATIS INFO T 0353Z. 15007KT 10SM FEW035 FEW180 BKN250 27/23 A2996 (TWO NINER NINER SIX). ARRIVALS EXPECT ILS OR RNAV Y RY 8R, ILS OR RNAV Y RY 8L. DEPG RY 15R. NOTICE TO AIRMEN. UNITED RAMP CONTROL IN EFFECT. RY 15L, 33R CLSD. HAZD WX INFO FOR IAH AREA AVBL FM FSS. BIRD ACTIVITY VICINITY ARPT. CRANES ARE DOWN. TWY SA CLSD BTN TWY, SF AND TWY SK , TWY SB CLSD BTN TWY, SF AND TWY SK , , TWY WB CLSD BTN TWY, WG AND TWY WH . TWY EA CLSD. NOTAM ATIS IN USE ON FREQUENCY 126.225. ...ADVS YOU HAVE INFO T.",
    "KORD": "[Arrival ATIS] KORD ARR ATIS A 1751Z ORD ATIS INFO A 1751Z. 28007G15KT 10SM FEW033 SCT075 BKN090 BKN170 BKN250 28/21 A2989 (TWO NINER EIGHT NINER) RMK AO2 SLP116 T02830206 10283 20239 58001. ARR EXP VECTORS ILS RWY 27C APCH, VISUAL APCH RWY 27R, VISUAL APCH RWY 28C. SIMUL APCHS IN USE. LAND AND HOLD SHORT OPERATIONS ARE IN EFFECT. RWY 27C ARR PLAN TO H/S OF TWY V V, 9 THSD 7 HND 25 FT AVBL, RWY 28C ARR PLAN TO H/S OF TWY Z, 9 THSD 6 HND TEN FT AVBL. DEPS EXP RWYS 22L 27L FROM T T 9960 FT AVL. RWY 4L, 22R CLSD. RWY 22R LOC OTS, RWY 28L GS OTS, RWY 9L IM OTS, RWY 9C IM OTS, RWY 10L IM OTS, RWY 10R IM OTS, RWY 27R IM OTS, RWY 28L IM OTS, RWY 28R IM OTS, RWY 9L PAPI OTS, RWY 27R PAPI OTS. HELIPAD CLSD. PILOTS USE CTN FOR BIRD ACTIVITY IN THE VICINITY OF THE ARPT. HAZD WX INFO FOR ORD AREA AVBL ON FSS. USE CTN FOR PERSONNEL AND EQUIP AT NUMEROUS SITES ON THE FIELD. READBACK ALL RWY HOLD SHORT INSTRUCTIONS. WHEN READY TO TAXI CONTACT GND METERING ON FREQ 121.67. ...ADVS YOU HAVE INFO A.\n[Departure ATIS] KORD DEP ATIS V 2151Z ORD ATIS INFO V 2151Z. 02014G22KT 10SM FEW050 BKN250 28/17 A3007 (THREE ZERO ZERO SEVEN) RMK AO2 SLP178 T02780172. ARR EXP VECTORS ILS RWY 9L APCH, ILS RWY 10C APCH, VISUAL APCH RWY 10R. PILOTS EXP 2 INTCP THE ILS Y RY 10R FNA CRS. SIMUL APCHS IN USE. DEPS EXP RWYS 9C FROM F F 9200 FT AVL, 10L FROM DD. 10,093 FT AVBL. ATTN PILOTS. SIMUL PARL DEPS IN USE. EXP TO INITIALLY FLY RWY. HDG ON DEP. PILOTS MUST READ BACK DRCTN OF TURNS BY ATC. RWY 4L, 22R CLSD. RWY 22R LOC OTS, RWY 28L GS OTS, RWY 9L IM OTS, RWY 9C IM OTS, RWY 10L IM OTS, RWY 10R IM OTS, RWY 27R IM OTS, RWY 28L IM OTS, RWY 28R IM OTS, RWY 9L PAPI OTS, RWY 27R PAPI OTS. PILOTS USE CTN FOR BIRD ACTIVITY IN THE VICINITY OF THE ARPT. USE CTN FOR PERSONNEL AND EQUIP AT NUMEROUS SITES ON THE FIELD. READBACK ALL RWY HOLD SHORT INSTRUCTIONS. WHEN READY TO TAXI CONTACT GND METERING ON FREQ 121.67. ...ADVS YOU HAVE INFO V.",
    "KJFK": "[Arrival ATIS] KJFK ARR ATIS J 0251Z - KJFK ATIS INFO J 0251Z. 07003KT 10SM FEW120 SCT250 22/16 A3005 (THREE ZERO ZERO FIVE). APPROACH IN USE ILS RY 4R, ILS RY 4L. DEPG RY 4L. YES WE KNOW THERE IS AN AMBER FL\n[Departure ATIS] KJFK DEP ATIS G 2351Z - KJFK ATIS INFO G 2351Z. 12007KT 10SM FEW045 SCT150 BKN250 24/15 A3001 (THREE ZERO ZERO ONE). APPROACH IN USE ILS RY 4R, ILS RY 4L. DEPG RY 4L. YES WE KNOW THERE IS AN AMBER FLAS",
    "KIND": "[Arrival ATIS] KIND ARR ATIS G 1754Z IND ATIS INFO G 1754Z. 22007KT 10SM SCT034 SCT041TCU BKN250 29/22 A2995 (TWO NINER NINER FIVE) RMK AO2 SLP135 TCU SE AND W T02940222 10294 20211 58012. PARL ILS RWY 23R AND 23L APPROACHES IN USE. CROSS RUNWAY OPERATIONS MAY BE IN EFFECT. NOTICE TO AIRMEN. TWY, P BTN TWY, H AND TWY B CLSD, TWY, P BTN TWY, H AND TWY J CLSD, TWY, H BTN TWY, R AND TWY N CLSD. P PAD CLSD. ILS RUNWAY 5R AND RUNWAY 5L INNER MARKER UNSERVICEABLE. ARPT ADZY FLOCK OF LARGE BIRDS IN THE VICINITY OF THE AIRPORT, ALT UNKN. ...ADVS YOU HAVE INFO G.\n[Departure ATIS] KIND DEP ATIS H 1854Z IND ATIS INFO H 1854Z. 26009G19KT 10SM SCT036 BKN041 BKN170 23/16 A2981 (TWO NINER EIGHT ONE) RMK AO2 SLP088 T02280156. PARL ILS RWY 23R AND 23L APPROACHES IN USE. CROSS RU",
    "KDTW": "[Arrival ATIS] KDTW ARR ATIS C 1753Z DTW ARR INFO C 1753Z. 22012KT 10SM FEW045 BKN060 BKN220 30/19 A2988 (TWO NINER EIGHT EIGHT) RMK AO2 PK WND 26031/1707 SLP114 CB DSNT SE-S MOV SE T03000194 10306 20239 56008. SIMUL VISUAL RY 21L, RY 22R USE Z LOC FREQ 111.95 APCH IN USE. NOTICE TO AIRMEN. RWY 21R, 3L CLSD, RWY 27L, 9R CLSD, RWY 27R, 9L CLSD. TWYS Y1 CLSD ;. HAZD WX INFO . CNVTV SIG 97 E, FOR MI , AND, LH . CNVTV SIG 99 E, FOR MI , . CNVTV SIG 04 E, FOR MI , AND OH . CWSU ADZY, 402 FOR MI , AVBL ON FLIGHT SERVICE FREQS. PILOTS USE CTN FOR BIRD ACTIVITY. DEPARTURE ATIS 118.125. ...ADVS YOU HAVE INFO C.\n[Departure ATIS] KDTW DEP ATIS Q 2253Z - KDTW DEP INFO Q 2253Z. 21009KT 10SM FEW050 FEW250 33/24 A2991 (TWO NINER NINER ONE). DEPG RWY 21R, RWY 22L ;. NOTICE TO AIRMEN. RWY 27L, 9R CLSD, RWY 27R, 9L CLSD. PILOTS USE CTN FOR BIRD ACTIVITY. ...ADVS YOU HAVE INFO Q.",
    "KMSP": "[Arrival ATIS] KMSP ARR ATIS M 0353Z MSP ARR INFO M 0353Z. 19007KT 10SM CLR 28/21 A3012 (THREE ZERO ONE TWO) RMK AO2 SLP192 T02830211. VISUAL RWY 12R APCH IN USE, VISUAL RWY 12L APCH IN USE. FINAL APCH, OVER NOISE SENSITIVE AREA. NOTICE TO AIRMEN. RWYS 4, 22 CLSD. TWY R7. R8. R9. R10. CLOSED. TWY R BTWN R6 AND R10 CLSD, TWY A7 CLSD, TWY A CLSD BTN TWY, A7 AND TWY D. GS RWY 12L OTS, RWYS 12R, 12L, INNER MARKER OTS. CTN, BIRDS NEAR MSP. READ BACK HS AND ALT. ALL ACFT TAXI WITH TRANSPONDER AND ALTITUDE ENCODING ON. ...ADVS YOU HAVE INFO M.\n[Departure ATIS] KMSP DEP ATIS X 0153Z MSP DEP INFO X 0153Z. 20007KT 10SM CLR 30/21 A3008 (THREE ZERO ZERO EIGHT). DEPARTING RWY 12L, RWY 12R, RWY 17. NOTICE TO AIRMEN. RWYS 4, 22 CLSD. TWY R7. R8. R9. R10. CLOSED. TWY R BTWN R6 AND R10 CLSD, TWY A7 CLSD, TWY A CLSD BTN TWY, A7 AND TWY D. ALL ACFT CTC METERING ON ONE THREE THREE POINT FIVE SEVEN WHEN READY TO PUSHBACK OR TAXI. CTN, BIRDS NEAR MSP. READ BACK HS AND ALT. ALL ACFT TAXI WITH TRANSPONDER AND ALTITUDE ENCODING ON. ...ADVS YOU HAVE INFO X.",
    "CYEG": "[Arrival ATIS] CYEG ARR ATIS I 0400Z CYEG ARR ATIS I 0400Z 35003KT 20SM FEW120 FEW250 15/13 A2987 APCH RNAV Z OR Y RWY 02, INFORM ARRL OF REQ APCH ON INITIAL CTC. LDG AND DEP RWY 02. SIMUL APPROACHES MAY BE IN EFCT. INFORM CYEG ATC INFO I\n[Departure ATIS] CYEG DEP ATIS I 0400Z CYEG ARR ATIS I 0400Z 35003KT 20SM FEW120 FEW250 15/13 A2987 APCH RNAV Z OR Y RWY 02, INFORM ARRL OF REQ APCH ON INITIAL CTC. LDG AND DEP RWY 02. SIMUL APPROACHES MAY BE IN EFCT. INFORM CYEG ATC INFO I",
    "EHAM": "[Arrival ATIS] EHAM ARR ATIS B 0450Z EHAM ARRIVAL INFO B. DEMAND. MAIN LANDING RWY 06. SECONDARY LANDING RWY 36 R. TRANSITION LEVEL 040. WIND 040 DEG, 10 KT, VRB BTN 360 AND 060 DEG. WIND SECONDARY RUNWAY 040 DEG, 8 KT, VRB BTN 010 AND 070 DEG. VIS 10 KM OR MORE. CLD FEW 500 FT. T 18. DP 16. QNH 1023 HPA. NOSIG. OPERATIONAL REPORT. CONVERGING APPROACHES IN PROGRESS. CONTACT APCH WITH CALLSIGN ONLY. END OF INFO B\n[Departure ATIS] EHAM DEP ATIS O 0921Z EHAM DEPARTURE INFO O. DEMAND. MAIN DEPARTURE RWY 36 L. MAIN LANDING RWY 06. WIND 050 DEG, 5 KT, VRB BTN 270 AND 100 DEG, 13 KT MAX, 4 KT MNM. VIS 10 KM OR MORE. CLD FEW 1300 FT. T 20. DP 17. QNH 1021 HPA. OPERATIONAL REPORT. INFORM SCHIPHOL DEL BY VOICE IF UNABLE TO COMPLY WITH NADP 2. END OF INFO O",
    "EBBR": "[Arrival ATIS] EBBR ARR ATIS V 0420Z EBBR NAT, EXP VECT FOR ILS APP ARR RWY01 RSCD AT 0321 RWY01 DRY. DEP RWY07R TRL 055 XNG RWY OPS INPR 060/7KT CAVOK T18 DP16 QNH 1021HPA NOSIG CFM ARR V\n[Departure ATIS] EBBR DEP ATIS V 1820Z EBBR NAT, DEP RWY07R RSCD AT 1449 RWY07R DRY. ARR RWY01 TRL 055 XNG RWY OPS INPR. C6 CLSD 040/11KT MNM8 MAX16 CAVOK T28 DP16 QNH 1019HPA NOSIG CFM DEP V",
    "EDDF": "[Arrival ATIS] EDDF ARR ATIS J 0420Z -ARR-ATIS EDDF J METAR 120420 -EXPECT DEPENDENT PARALLEL ILS Y APCH RWY 07L OR ILS APCH RWY 07R -RWY 07L 07R -GLS APCH ON REQUEST , -TRL 60 - -03008KT -CAVOK - - -T21 DP11 -QNH1021 - -TREND NOSIG\n[Departure ATIS] EDDF DEP ATIS Z 0450Z DEP-ATIS EDDF Z METAR 120450 RWY 07C 18 ACFT DEPARTING RWY18 : EXPECT POSSIBLE DEPARTURE FROM INTERSECTION M , TORA 3454 METERS. IF UNABLE , ADVISE TWR ON INITIAL CONTACT , TRL 60 03011KT RWY18 04008KT CAVOK T21 DP11 QNH1021 TREND NOSIG",
    "EDDL": "[Arrival ATIS] EDDL ATIS N 1156Z -ATIS EDDL N SPECI 111156 -EXPECT VECTORS ILS APPROACH -RWY 05R -TWY L2 , L4 AND L5 BTN TWY M AND RWY05R CLOSED -TRL 60 - -08010KT 010V130 -CAVOK - - -T30 DP15 -QNH1019 - -\n[Departure ATIS] EDDL DEP ATIS R EDDL ARR/DEP DATIS RPT -ATIS EDDL R METAR 020550 -EXPECT VECTORS ILS APPROACH -RWY 23L -TWY L8 CLOSED BETWEEN TWY M AND RWY 23L -TRL 60 - -23010KT -CAVOK - - -T19 DP13 -QNH1020 - -TREND NOSIG",
    "EDDK": "[Arrival ATIS] EDDK ARR ATIS Z 1820Z -ATIS EDDK Z METAR 091820 -EXPECT ILS APCH RWY 31R -RWY 31R 06 -RWY COND RWY 31R AT TIME 1330 RWYCC 6 DEPOSIT TOTAL RWY DRY RWY 06 AT TIME 1330 RWYCC 6 DEPOSIT TOTAL RWY DRY RWY 06/24 ONLY AVAILABLE FOR DEPARTURES -TRL 60 -RWY 13R AND RWY 31L CLOSED FOR DEPARTURE AND LANDING: TAXIING BTN THR RWY 13R AND INTERSECTION RWY 24 POSSIBLE : -01008KT -CAVOK - - -T23 DP13 -QNH1017 - -TREND NOSIG\n[Departure ATIS] EDDK DEP ATIS Q EDDK ARR/DEP DATIS RPT -ATIS EDDK Q METAR 291920 -EXPECT ILS APCH -RWY 31R 06 -RWY COND RWY 31R AT TIME 1830 RWYCC 6 DEPOSIT TOTAL RWY DRY RWY 06 AT TIME 1830 RWYCC 6 DEPOSIT TOTAL RWY DRY -TRL 60 -RWY 13R AND RWY 31L CLOSED FOR DEPARTURE AND LANDING: TAXIING BTN THR RWY 13R AND INTERSECTION RWY 24 POSSIBLE : -04003KT -CAVOK - - -T24 DP13 -QNH1024 - -TREND NOSIG",
    "EBLG": "[Arrival ATIS] EBLG ATIS N 0450Z EBLG INFO, EXP RNAV TO ILS APP ARR RWY04R DEP RWY04R RWY 04R WET, RWYCC 555. TRL 055 TWY A4 DISPLACED. TAIL WIND REP ON FINAL 140/6KT VRB BTN 350 AND 150 MNM3 MAX14 VIS ABV 10KM FEW4000FT T20 DP18 QNH 1024HPA TEMPO VIS3500M MODSHRA CFM ATIS N",
    "LSZH": "[Arrival ATIS] LSZH ARR ATIS C 0450Z ARRIVALS, EXP ILS APCH, RWY 34. TRL 70. DEP RWY 32. WIND 350 DEG, 5 KT. CAVOK. T 18. DP 11. QNH 1020. NOSIG.\n[Departure ATIS] LSZH DEP ATIS Q 0450Z DEP RWY 32. TRL 70. ARRIVALS, EXP ILS APCH, RWY 34. TMA S 1 IS ACT. TMA S 2 AND S 3 ARE ACT. WIND VRB, 2 KT. CAVOK. T 18. DP 11. QNH 1020. NOSIG.",
    "LIMC": "[Arrival ATIS] LIMC ARR ATIS P 0420Z LIMC ARR P 0420Z I.L.S. ZULU RWY IN USE 35L TL 70 WIND TDZ 040/1KT CAVOK T20 DP17 QNH 1017HPA QFE 0991HPA\n[Departure ATIS] LIMC DEP ATIS P 2350Z LIMC DEP P 2350Z RWY IN USE 17R TL 70 WIND END 020/4KT CAVOK T23 DP19 QNH 1023HPA QFE 0995HPA DATALINK CLEARANCE AVAILABLE.... CONTACT 1 3 1 8 8 0 TO BE RELEASED BY THE AIRPORT OPERATOR ...",
    "LIRF": "[Arrival ATIS] LIRF ARR ATIS L 0420Z LIRF ARR L 0420Z RWY 16L ILS W RWY 16R ILS Z RWY IN USE 16L 16R TL 70 DEPENDENT PARL ILS APCH INPR RWY IN USE 16R OR 16L ASSIGNED BY ROME RADAR WIND RWY 16L TDZ 010/4KT RWY 16R TDZ 030/4KT VRB BTN 020/AND 090/ CAVOK T21 DP20 QNH 1014HPA\n[Departure ATIS] LIRF DEP ATIS H 1954Z LIRF DEP H 1954Z RWY IN USE 25 TL 70 RWYS IN USE FOR ARR 16L AND 16R WIND END 230/2KT CAVOK T26 DP22 QNH 1016HPA REA IS SENT AUTOMATICALLY ONCE RLSD BY RAMP WHEN READY CONTACT FIUME RAMP 121.725",
    "EINN": "[Arrival ATIS] EINN ARR ATIS A 0430Z EXPECT I L S CATEGORY 1 LDG RWY06 TKOF RWY06 TRL FL060 34004KT 9999 FEW030 15/14 QNH Q1024 TREND NOSIG ADVISE AT FIRST CONTACT YOU HAVE ATIS INFO A",
    "EGLL": "[Arrival ATIS] EGLL ARR ATIS O 0450Z LANDING RWY 09R TRANSITION-LEVEL: FL 70 RUNWAY 09L REDUCED DECLARED DISTANCES IF STAND GUIDANCE IS OFF OR FAILS, REMAIN ON THE TAXIWAY CENTRELINE AND ADVISE ATC AUTO 05012KT 9999 OVC017 17/13 Q1024 ACKNOWLEDGE RECEIPT OF INFORMATION O\n[Departure ATIS] EGLL DEP ATIS B 0450Z DEPARTURE RWY 09R PILOTS THAT ARE IN RECEIPT OF DATALINK CLEARANCES ARE REMINDED THEY MUST CONTACT DELIVERY ON 121.980 WHEN READY FOR START DATALINK CLEARANCES NOT AVAILABLE FOR CPT DEPARTURES RUNWAY 09L REDUCED DECLARED DISTANCES RUNWAY ENTRY POINT AB13 UNAVAILABLE FOR 09L AUTO 05012KT 9999 OVC017 17/13 Q1024 ACKNOWLEDGE RECEIPT OF INFORMATION B AND REPORT AIRCRAFT TYPE AND CURRENT QNH ON FIRST CONTACT WITH HEATHROW",
    "EPWA": "[Arrival ATIS] EPWA ARR ATIS M 0452Z EPWA ARR M. TIME 0452. EXP U ARR ILS Z APCH FOR RWY 33. RWY 33 RCC 5, 5, 5. 1ST PART, WET. 2ND PART, WET. 3RD PART, WET. RWY REPORT END. TRANSITION LEVEL 80. WIND 250 DEG, 4 KT, VRB BTN 190 AND 280 DEG. VIS TDZ 10 KM OR MORE. CLD SCT 800 FT, CLD BKN 3000 FT. T 15. DP 14. QNH 1014. TREND BECMG CLD BKN 800 FT. CAUTION. BIRD ACT. END OF EPWA ARR M\n[Departure ATIS] EPWA DEP ATIS Y 0452Z EPWA DEP Y. TIME 0452. DEP RWY 29. ARR RWY 33, EXP U ARR ILS Z. REPORT READY FOR STARTUP ON DELIVERY 121 DECIMAL 605. RWY 29 RCC 5, 5, 5. 1ST PART, WET. 2ND PART, WET. 3RD PART, WET. RWY REPORT END. TRANSITION LEVEL 80. WIND 240 DEG, 7 KT. VIS MID 10 KM OR MORE. CLD SCT 800 FT, CLD BKN 3000 FT. T 15. DP 14. QNH 1014. TREND BECMG CLD BKN 800 FT. CAUTION. BIRD ACT. END OF EPWA DEP Y",
    "EFHK": "[Arrival ATIS] EFHK ARR ATIS Z 0420Z EXPECT ILS APCH ARR RWY 04L RUNWAY 04L CONDITION REPORT AT 0211 UTC RUNWAY CONDITION CODES 6 , 6 , 6 CONTAMINANTS ALL PARTS DRY TRL 60 WIND VRB 2 KT VIS 10KM FEW TCU 3500 FT T 19 DP 16 QNH 1017 TEMPO CLD FEW CB 3500 FT. ACK INFO Z\n[Departure ATIS] EFHK DEP ATIS W 1920Z DEP RWY 04R RUNWAY 04R CONDITION REPORT AT 1839 UTC RUNWAY CONDITION CODES 4 DOWNGRADED , 4 DOWNGRADED , 4 DOWNGRADED CONTAMINANTS ALL PARTS 100 PERCENT WET WIND 330 DEG 4 KT VRB BTN 310 AND 100 DEG VIS 10KM FEW 2000 FT. FEW CB 4000 FT T 18 DP 18 QNH 1017 RETSRA NOSIG ACK INFO W",
    "LTAC": "[Arrival ATIS] LTAC ARR ATIS J 1820Z EXP ILS V APCH 03C DEP RWY 03L RWY 03C WIND 350 DEG 09 KT VRB BTN 320 DEG AND 020 DEG RWY 03L WIND VRB 04 KT TRL 115 VIS 9999 SCT04000 FT BKN08000 FT T 25 DP 09 QNH 1009 NOSIG FOR DELIVERY CTC 121.9. FOR DELIVERY FIRST USE DIGITAL DEP CLR. CTN BIRD HAZARD OVR AERODROME. APCH FREQUENCY 129.050. END OF ATIS J",
    "UBBB": "[Arrival ATIS] UBBB ARR ATIS X 0500Z ATIS X EXP ILS/ LDG 34 35 DEP 34 35 IN USE RWY 35 CLEAR DRY 70 RWY 34 CLEAR DRY 70 MOD TURB INAPCH BTN 4000 AND 2000 FT TLVL 110 WIND WIND RWY 34 320 24 KT SPD MAX 32 MIN 20 WIND RWY 35 320 24 KT SPD MAX 34 MIN 14 VIS CAVOK T 26 / DP 18 QNH 1014 HPA TREND TREND NOSIG MODERATE BIRDS ACT IN VICINITY OF AP END OF ATIS X\n[Departure ATIS] UBBB DEP ATIS U 0420Z ATIS U EXP ILS/ LDG 34 35 DEP 34 35 IN USE RWY 34 CLEAR DRY 70 RWY 35 CLEAR DRY 70 TLVL 110 WIND WIND RWY 34 340 20 KT SPD MAX 28 MIN 16 WIND RWY 35 330 20 KT SPD MAX 28 MIN 16 VIS CAVOK T 28 / DP 20 QNH 1013 HPA TREND TREND NOSIG MODERATE BIRDS ACT IN VICINITY OF AP END OF ATIS U",
    "ZWWW": "[Arrival ATIS] ZWWW ARR ATIS N 0430Z EXP ILSDME Z APCH LDG RWY 26R TA 3000 WIND 290/3MPS CAVOK T 32 /DP 09 QNH 1009 HPA ADZ YOU HAVE INFO N.\n[Departure ATIS] ZWWW DEP ATIS S 1830Z DEP RWY 26R TA 3000 WIND 170/3MPS CAVOK T 28 /DP 08 QNH 1005 HPA ADZ YOU HAVE INFO S.",
    "ZLXY": "[Arrival ATIS] ZLXY ARR ATIS R 0400Z EXP ILS APCH LDG RWY 05L & 06R WIND 040/2MPS VIS 6000M -RA CLD FEW 360M /SCT 600M /OVC 1200M T 20 /DP 19 QNH 1012 HPA RUNWAY 05L SURFACE CONDITION CODE 555 RUNWAY 06L SURFACE CONDITION CODE 555 ADZ YOU HAVE INFO R.\n[Departure ATIS] ZLXY DEP ATIS Q 0300Z DEP RWY 05L & 06L WIND 020/3MPS VIS 8000M -RA CLD FEW 360M /SCT 600M /OVC 1200M T 20 /DP 18 QNH 1012 HPA RUNWAY 05L SURFACE CONDITION CODE 555 RUNWAY 06L SURFACE CONDITION CODE 555 ADZ YOU HAVE INFO Q.",
    "ZBAA": "[Arrival ATIS] ZBAA ARR ATIS N 0500Z EXP ILS APCH DEPENDENT PARL INSTR APCH LDG RWY 18R & 18L & 19 WIND 180 DEG 4G9 MPS 140V210 DEG CAVOK T 29 /DP 09 QNH 1010 HPA VISUAL APPROACH IS IN PROGRESS. ADZ YOU HAVE INFO N.\n[Departure ATIS] ZBAA DEP ATIS E 0100Z DEP RWY 36L & 36R & 01 WIND VRB DEG 2 MPS CAVOK T 25 /DP 11 QNH 1012 HPA RWY INDEPENDENT PARALLEL DEP VISUAL APPROACH IS IN PROGRESS. ADZ YOU HAVE INFO E.",
    "ZBHH": "[Arrival ATIS] ZBHH ARR ATIS X 0300Z EXP ILSDME APCH LDG RWY 26 TA 3000 /TRL 3600 WIND 240/4MPS VRB BTN 200/ AND 270/ CAVOK T 20 /DP 02 QNH 1014 HPA ADZ YOU HAVE INFO X.\n[Departure ATIS] ZBHH DEP ATIS Q 1500Z DEP RWY 08 TA 3000 /TRL 3600 WIND 140/2MPS VIS 5000M BR NSC T 19 /DP 19 QNH 1007 HPA ADZ YOU HAVE INFO Q.",
    "ZSQD": "[Arrival ATIS] ZSQD ARR ATIS E 0400Z EXP ILSDME APCH LDG RWY 35 TA 3000 /TRL 3600 WIND 360/5MPS CAVOK T 29 /DP 16 QNH 1010 HPA SEGREGATED OPERATION VISUAL APPROACH OPERATION IN PROGRESS. RUNWAY 35,IF MISSED APPROACH,EXPECT FOLLOW THE STANDARD MISSED APPROACH PROCEDURE,CLIMB TO 1200M ON QNH OR BY ATC CAUTION MAYBE THERE IS A FLOCK OF BIRDS IN THE VICINITY OF AIRPORT ADZ YOU HAVE INFO E.\n[Departure ATIS] ZSQD DEP ATIS A 0000Z DEP RWY 34 TA 3000 /TRL 3600 WIND 020/4MPS CAVOK T 25 /DP 17 QNH 1010 HPA SEGREGATED OPERATION VISUAL APPROACH OPERATION IN PROGRESS. RUNWAY 35,IF MISSED APPROACH,EXPECT FOLLOW THE STANDARD MISSED APPROACH PROCEDURE,CLIMB TO 1200M ON QNH OR BY ATC CAUTION MAYBE THERE IS A FLOCK OF BIRDS IN THE VICINITY OF AIRPORT ADZ YOU HAVE INFO A."
  },
  "windtemp_alaska": "\n000\nFBAK31 KWNO 120159\nFD1AK1\nDATA BASED ON 120000Z    \nVALID 120600Z   FOR USE 0200-0900Z. TEMPS NEG ABV 24000\n\nFT  3000    6000    9000   12000   18000   24000  30000  34000  39000\nADK 2722 2627+07 2630+05 2730+02 2831-09 2730-20 262837 264447 256958\nADQ 2407 2613+05 2413+00 2217-04 2227-16 2238-26 244544 245251 244451\nAKN 2110 2213+02 2216-03 2220-08 2231-18 2134-30 213246 223547 242943\nANC 1513 1723+03 1920-01 1826-05 1929-16 1929-27 183844 184154 212349\nANN 9900 9900+02 9900-04 1009-10 0812-22 0615-35 051347 060743 060542\nBET 1928 2023+00 1921-05 1914-08 2026-21 1920-31 192446 212043 241741\nBRW 1012 9900+04 2308-01 2514-06 2519-17 2324-28 243143 243752 251952\nBTI 1209 1906+08 2412+01 2618-04 2525-16 2624-27 272643 282553 282054\nBTT 1917 1519+08 1522+01 1520-04 1529-16 1533-28 153643 153452 142753\nCDB 2625 2532+02 2540-02 2642-05 2751-17 2766-29 277043 276943 275743\nCZF 1813 1813+00 1610-04 1811-09 1408-21 1420-32 122444 150741 240840\nEHM 2131 2129-01 2230-03 2031-09 2229-19 2227-31 222945 243242 263141\nFAI 2519 2125+07 1825+01 1726-05 1830-15 1926-27 183044 174653 173353\nFYU 2108 2108+10 2311+03 2211-03 2013-14 2116-27 171743 181653 161557\nGAL 1925 1918+00 1723-03 1526-07 1430-19 1139-32 123345 152642 172344\nGKN 1923 1824+06 1918+02 2017-03 1919-15 1823-27 181743 182152 182056\nHOM 1513 1615+03 1814+00 2019-05 2027-16 2130-28 223044 223052 232849\nJNU 9900 9900+03 0607+00 0612-05 0524-18 0535-30 054545 064654 061848\nLUR 0720 1115+05 1315+00 1418-05 1526-17 1621-28 172444 182853 181449\nMCG 2225 2026+00 2125-05 2030-08 1929-18 2035-29 184846 183949 192343\nMDO 1509 1812+05 1922+01 1923-03 1915-15 2011-26 201443 192052 241353\nOME 1514 1811+00 1613-02 1615-07 1315-18 0922-29 082644 103049 140643\nORT      2706+10 1806+03 2111-03 1813-14 1912-27 201943 191853 211158\nOTZ 1717 1421+04 1528+00 1428-06 1337-17 1234-28 103443 103252 111747\nSNP 3130 3035+01 2942-02 2946-07 2950-17 2977-27 800041 308546 295844\nTKA 1821 1926+02 1922-02 2030-06 1930-17 1830-27 183744 194454 192649\nUNK 2325 2013+00 1713-03 1713-08 1414-19 1220-32 130944 150845 191241\nYAK 9900 2910+07 2913+03 3207-03 0508-15 0311-28 071643 082353 061456\nIKO 2929 2833+07 2839+03 2744-01 2861-11 2868-22 296839 296550 288854\nAFM 2011 9900+05 1216+00 1019-05 1231-17 1337-29 114343 114051 132449\n5AB 2621 2619+09 2717+05 2614+00 2509-09 2409-20 220537 990048 181058\n5AC 3506 9900+01 9900-04 3608-09 3524-21 3537-33 345445 344446 322244\n5AD 1719 1511+06 9900+02 3406-01 3327-13 3231-26 327040 319849 319255\n5AE 2319 2417+04 2428+02 2431-03 2440-15 2572-25 248641 258348 258455\n5AF 9900 0606+05 0312-01 0316-06 0224-19 0338-30 034246 033453 012147\n5AG 1706 9900+08 9900+02 9900-04 9900-15 0908-28 070944 071053 341554\n",
  "vaac_tokyo": [
    {
      "id": "20260712_27303000_0724",
      "year": "2026",
      "volcano": "Mayon",
      "psn": "N1315 E12341",
      "issued": "20260712",
      "text": "FVFE01 RJTD 120346\nVA ADVISORY\nDTG: 20260712/0346Z\nVAAC: TOKYO\nVOLCANO: MAYON 273030\nPSN: N1315 E12341\nAREA: PHILIPPINES\nSOURCE ELEV: 2462M AMSL\nADVISORY NR: 2026/724\nINFO SOURCE: HIMAWARI-9 PHIVOLCS\nERUPTION DETAILS: ERUPTION AT 20260712/0228Z FL100 EXTD NE REPORTED\nOBS VA DTG: 12/0330Z\nOBS VA CLD: VA NOT IDENTIFIABLE FM SATELLITE DATA WIND FL100 230/18KT\nFCST VA CLD +6 HR: NOT AVBL\nFCST VA CLD +12 HR: NOT AVBL\nFCST VA CLD +18 HR: NOT AVBL\nRMK: WE WILL ISSUE FURTHER ADVISORY IF VA IS DETECTED IN SATELLITE \nIMAGERY.\nNXT ADVISORY: NO FURTHER ADVISORIES=",
      "img_url": "https://ds.data.jma.go.jp/svd/vaac/data/VAGFN/2026/Images/20260712_27303000_0724_QH21_01.png",
      "sat_img_url": null,
      "text_url": "https://ds.data.jma.go.jp/svd/vaac/data/TextData/2026/20260712_27303000_0724_Text.html"
    },
    {
      "id": "20260712_30019000_0003",
      "year": "2026",
      "volcano": "Krasheninnikov",
      "psn": "N5436 E16016",
      "issued": "20260712",
      "text": "FVFE01 RJTD 120130\nVA ADVISORY\nDTG: 20260712/0130Z\nVAAC: TOKYO\nVOLCANO: KRASHENINNIKOV 300190\nPSN: N5436 E16016\nAREA: RUSSIA\nSOURCE ELEV: 1816M AMSL\nADVISORY NR: 2026/3\nINFO SOURCE: HIMAWARI-9\nERUPTION DETAILS: VA AT 20260712/0100Z FL080 EXTD SE\nOBS VA DTG: 12/0100Z\nOBS VA CLD: SFC/FL080 N5440 E16023 - N5412 E16045 - N5402 E16033 - \nN5434 E16013 MOV SE 20KT\nFCST VA CLD +6 HR: 12/0700Z SFC/FL080 N5310 E16258 - N5251 E16229 - \nN5302 E16111 - N5436 E16016\nFCST VA CLD +12 HR: 12/1300Z SFC/FL090 N5233 E16425 - N5158 E16444 - \nN5210 E16103 - N5446 E16008 - N5251 E16216\nFCST VA CLD +18 HR: 12/1900Z SFC/FL090 N5142 E16614 - N5044 E16548 - \nN5213 E15943 - N5432 E15924 - N5448 E16118 - N5223 E16227\nRMK: NIL\nNXT ADVISORY: 20260712/0600Z=",
      "img_url": "https://ds.data.jma.go.jp/svd/vaac/data/VAGFN/2026/Images/20260712_30019000_0003_QH21_01.png",
      "sat_img_url": "https://ds.data.jma.go.jp/svd/vaac/data/Sat/2026/Images/30019000/09-ir/20260712_0100_202607120130_ir.png",
      "text_url": "https://ds.data.jma.go.jp/svd/vaac/data/TextData/2026/20260712_30019000_0003_Text.html"
    },
    {
      "id": "20260711_30025000_0049",
      "year": "2026",
      "volcano": "Bezymianny",
      "psn": "N5558 E16036",
      "issued": "20260711",
      "text": "FVFE01 RJTD 111800\nVA ADVISORY\nDTG: 20260711/1800Z\nVAAC: TOKYO\nVOLCANO: BEZYMIANNY 300250\nPSN: N5558 E16036\nAREA: RUSSIA\nSOURCE ELEV: 2882M AMSL\nADVISORY NR: 2026/49\nINFO SOURCE: HIMAWARI-9\nERUPTION DETAILS: NO ERUPTION. RE-SUSPENDED VA\nOBS VA DTG: 11/1720Z\nOBS VA CLD: SFC/FL100 N5600 E16036 - N5611 E16048 - N5550 E16122 - \nN5542 E16205 - N5538 E16115 MOV E 20KT\nFCST VA CLD +6 HR: 11/2320Z SFC/FL110 N5452 E16402 - N5457 E16227 - \nN5557 E16037 - N5548 E16151\nFCST VA CLD +12 HR: 12/0520Z SFC/FL110 N5409 E16553 - N5356 E16453 - \nN5424 E16245 - N5558 E16036 - N5519 E16239 - N5434 E16317\nFCST VA CLD +18 HR: NO VA EXP\nRMK: RE-SUSPENDED VA. \nNXT ADVISORY: 20260712/0000Z=",
      "img_url": "https://ds.data.jma.go.jp/svd/vaac/data/VAGFN/2026/Images/20260711_30025000_0049_QH21_01.png",
      "sat_img_url": "https://ds.data.jma.go.jp/svd/vaac/data/Sat/2026/Images/30025000/09-ir/20260711_1720_202607111800_ir.png",
      "text_url": "https://ds.data.jma.go.jp/svd/vaac/data/TextData/2026/20260711_30025000_0049_Text.html"
    },
    {
      "id": "20260711_30027000_0260",
      "year": "2026",
      "volcano": "Sheveluch",
      "psn": "N5639 E16122",
      "issued": "20260711",
      "text": "FVFE01 RJTD 110000\nVA ADVISORY\nDTG: 20260711/0000Z\nVAAC: TOKYO\nVOLCANO: SHEVELUCH 300270\nPSN: N5639 E16122\nAREA: RUSSIA\nSOURCE ELEV: 3283M AMSL\nADVISORY NR: 2026/260\nINFO SOURCE: HIMAWARI-9\nERUPTION DETAILS: VA CONTINUOUSLY OBS IN SATELLITE IMAGERY\nOBS VA DTG: 10/2320Z\nOBS VA CLD: SFC/FL280 N3856 E16034 - N3914 E16113 - N3732 E16657 - \nN3911 E17113 - N3852 E17223 - N3641 E16925 - N3652 E16532 MOV E 70KT\nFCST VA CLD +6 HR: 11/0520Z SFC/FL290 N4547 E17734 - N3905 E17405 - \nN3624 E16722 - N3636 E16203 - N4037 E17140 - N4547 E17454\nFCST VA CLD +12 HR: 11/1120Z SFC/FL290 N5003 W17906 - N4523 E17948 - \nN3452 E16722 - N3458 E16449 - N4713 E17654 - N4918 E17614\nFCST VA CLD +18 HR: NO VA EXP\nRMK: THE RESPONSIBILITY FOR THIS ASH EVENT IS BEING TRANSFERRED TO \nVAAC WASHINGTON. THE NEXT ADVISORY WILL BE ISSUED BY VAAC WASHINGTON \nBY 0600UTC UNDER HEADER FVXX22 KNES. SOME PART OF VA OBSCURED BY MET \nCLOUD.\nNXT ADVISORY: NO FURTHER ADVISORIES=",
      "img_url": "https://ds.data.jma.go.jp/svd/vaac/data/VAGFN/2026/Images/20260711_30027000_0260_QH21_01.png",
      "sat_img_url": "https://ds.data.jma.go.jp/svd/vaac/data/Sat/2026/Images/30027000/09-ir/20260710_2320_202607110000_ir.png",
      "text_url": "https://ds.data.jma.go.jp/svd/vaac/data/TextData/2026/20260711_30027000_0260_Text.html"
    }
  ],
  "vaac_alaska": [
    {
      "text": "\n000\nFVAK21 PAWU 111230\nVAAAK1\nVA ADVISORY\n\nDTG: 20260711/1224Z\n\nVAAC: ANCHORAGE\n\nVOLCANO: SHEVELUCH 300270\n\nPSN: N5639 E16122\n\nAREA: KAMCHATKA PENINSULA\n\nSOURCE ELEV: 10771 FT AMSL\n\nADVISORY NR: 2026/193\n\nRMK: PLEASE SEE FVXX2 KNES ISSUED BY VAAC WASHINGTON WHICH DESCRIBES\nCONDITIONS NEAR THE VAAC ANCHORAGE AREA OF RESPONSIBILITY...CC\n\n\n\n",
      "issued": "2026-07-11T12:30:00+00:00",
      "volcano": "Sheveluch",
      "psn": "N5639 E16122"
    }
  ]
}