{
  "updated_utc": "2026-07-18T23:23Z",
  "metar": {
    "RJAA": "METAR RJAA 182130Z 14004KT 9999 FEW015 26/24 Q1008 NOSIG",
    "PANC": "SPECI PANC 182134Z 34003KT 10SM -RA SCT007 BKN012 OVC018 11/09 A3008 RMK AO2 P0000 T01060089",
    "PAFA": "METAR PAFA 182153Z 16003KT 10SM FEW050 SCT120 OVC190 17/06 A2995 RMK AO2 SLP144 CB DSNT S MOV N TCU DSNT S T01720061 $",
    "PAED": "METAR PAED 182155Z 00000KT 10SM -RA SCT009 BKN012 12/09 A3006 RMK AO2A SLP176 PCPN VRY LGT P0000 T01220092 $",
    "KSEA": "METAR KSEA 182153Z 24008G15KT 200V270 10SM SCT041 22/11 A3017 RMK AO2 SLP221 T02170106 $",
    "ZSPD": "METAR ZSPD 182130Z VRB01MPS CAVOK 27/27 Q1003 NOSIG",
    "ZSSS": "METAR ZSSS 182130Z 18001MPS CAVOK 28/25 Q1002 NOSIG",
    "RJFR": "METAR RJFR 182200Z 08006KT 8000 FEW010 SCT030 28/26 Q1005",
    "VHHH": "METAR VHHH 182130Z 21006KT 9999 FEW010 SCT025 29/25 Q1005 NOSIG",
    "RCTP": "METAR RCTP 182130Z 22011KT 9999 FEW020 SCT180 28/23 Q1005 NOSIG RMK A2970",
    "ZGSZ": "METAR ZGSZ 182200Z 16003MPS 9999 FEW015 28/27 Q1005 NOSIG",
    "WSSS": "METAR WSSS 182130Z VRB01KT 9999 FEW018 BKN300 26/25 Q1010 NOSIG",
    "WMKK": "METAR WMKK 182130Z 00000KT 9000 FEW017CB 25/24 Q1010 NOSIG",
    "WIDD": "METAR WIDD 182130Z AUTO VRB02KT 9000 FEW019 25/25 Q1011 NOSIG",
    "VTBS": "METAR VTBS 182130Z 26005KT 9999 FEW020 28/23 Q1009 NOSIG",
    "VTBU": "METAR VTBU 182130Z 25004KT 8000 FEW020 28/27 Q1009 NOSIG",
    "ROAH": "METAR ROAH 182130Z 20006KT 9999 SCT003 BKN006 28/27 Q1007",
    "VVDN": "METAR VVDN 182130Z VRB01KT CAVOK 29/21 Q1005 NOSIG",
    "RCKH": "METAR RCKH 182200Z VRB02KT 5000 -SHRA FEW015 BKN022 BKN060 26/25 Q1007 RESHRA NOSIG RMK A2976 RA AMT 1.6MM",
    "KLAX": "METAR KLAX 182153Z 26012KT 10SM FEW120 FEW180 SCT220 25/19 A2996 RMK AO2 SLP142 ACSL DSNT NE T02500189 $",
    "KONT": "METAR KONT 182153Z 24013G20KT 10SM FEW120 34/14 A2993 RMK AO2 SLP116 T03440139 $",
    "KSFO": "METAR KSFO 182156Z 31017KT 10SM FEW008 FEW150 22/12 A3000 RMK AO2 SLP158 T02170122 $",
    "KOAK": "METAR KOAK 182153Z 29013KT 10SM FEW007 20/13 A3001 RMK AO2 SLP161 T02000128",
    "KMHR": "METAR KMHR 182135Z AUTO 30004KT 10SM CLR 32/10 A2994 RMK AO2 T03170098 $",
    "KDFW": "METAR KDFW 182153Z 17014G21KT 10SM FEW060 BKN250 35/19 A2996 RMK AO2 SLP134 T03500189 $",
    "KIAH": "METAR KIAH 182153Z 18004KT 10SM SCT050 BKN250 34/24 A3001 RMK AO2 SLP162 T03390239 $",
    "KORD": "METAR KORD 182151Z 06014KT 10SM FEW042 FEW060 SCT250 29/22 A2986 RMK AO2 WSHFT 2057 SLP106 T02890217 $",
    "KJFK": "METAR KJFK 182151Z 15011G20KT 4SM FU FEW006 SCT037 BKN060 24/23 A2975 RMK AO2 SLP075 FU BKN060 T02390228 $",
    "KRFD": "METAR KRFD 182154Z 34013G19KT 10SM FEW050 FEW250 31/18 A2990 RMK AO2 SLP117 T03110178 $",
    "KIND": "METAR KIND 182154Z 26016G24KT 10SM FEW045 SCT060 BKN250 32/23 A2988 RMK AO2 PK WND 25026/2112 SLP111 T03220228 $",
    "KDTW": "METAR KDTW 182153Z 33014G23KT 8SM SCT050 BKN220 31/21 A2973 RMK AO2 PK WND 31030/2059 RAB01E10 SLP062 P0000 T03060206 $",
    "KMSP": "METAR KMSP 182153Z 03010G16KT 10SM FEW070 FEW250 31/13 A2998 RMK AO2 SLP146 T03110133",
    "CYEG": "METAR CYEG 182200Z 35003KT 300V030 15SM FEW035 FEW250 28/20 A2976 RMK CU1CI1 CU TR CI TR SLP071 DENSITY ALT 4600FT",
    "EHAM": "METAR EHAM 182125Z 33008KT 300V360 9999 -SHRA FEW020 FEW025CB SCT045 14/12 Q1018 TEMPO 7000",
    "EBBR": "METAR EBBR 182150Z 32005KT 9999 FEW027 BKN047 15/11 Q1019 NOSIG",
    "EDDF": "METAR EDDF 182150Z AUTO 20005KT 130V260 9999 SHRA FEW038 FEW///CB 18/16 Q1015 BECMG NSW",
    "EDFH": "METAR EDFH 182150Z 33005KT 9999 BKN028 15/13 Q1017",
    "EDDL": "METAR EDDL 182150Z AUTO 33005KT 300V360 9999 FEW028 SCT035 17/12 Q1017 NOSIG",
    "EDDK": "METAR EDDK 182150Z AUTO 33009KT 9999 FEW048 17/11 Q1017 NOSIG",
    "EBLG": "METAR EBLG 182150Z 35007KT 320V020 9999 FEW023 BKN048 16/10 Q1018 NOSIG",
    "LSZH": "METAR LSZH 182150Z AUTO VRB01KT 9999 4700NW NCD 17/17 Q1017 NOSIG",
    "LIMC": "METAR LIMC 182150Z 08006KT CAVOK 24/20 Q1011 NOSIG",
    "LIRF": "METAR LIRF 182150Z 27003KT CAVOK 26/25 Q1011 NOSIG",
    "EINN": "METAR EINN 182130Z 35008KT CAVOK 15/10 Q1025 NOSIG",
    "EGLL": "METAR EGLL 182150Z AUTO 06009KT 020V080 9999 NCD 18/10 Q1022",
    "EGSS": "METAR EGSS 182150Z 36004KT 9999 SCT036 14/09 Q1022",
    "EPWA": "METAR EPWA 182130Z 21004KT CAVOK 20/17 Q1011 NOSIG",
    "UHPP": "METAR UHPP 182130Z 32005MPS 9999 FEW040CB BKN100 22/15 Q1018 R34L/CLRD62 NOSIG RMK MT OBSC QFE760/1013",
    "EFHK": "METAR EFHK 182150Z 17011KT 9999 FEW006 BKN009 20/18 Q1000 TEMPO 6000 SHRA BKN010 FEW030CB",
    "LBBG": "METAR LBBG 182130Z AUTO 14006KT 9999 NCD 22/20 Q1012 NOSIG",
    "LTAC": "METAR LTAC 182150Z 03010KT CAVOK 21/12 Q1015 NOSIG RMK RWY21C 02010KT RWY03L 03011KT RWY21R 01009KT RWY03R 02009KT RWY21L 02007KT",
    "UBBB": "METAR UBBB 182130Z 33012KT 9999 FEW060CB 26/23 Q1009 NOSIG",
    "UTAA": "METAR UTAA 182200Z 29012KT 9999 NSC 32/18 Q1007 R88/CLRD70 NOSIG",
    "UACC": "METAR UACC 182130Z 25010MPS 9999 -SHRA SCT043CB 24/14 Q1007 NOSIG RMK QFE724/0966",
    "UAAA": "METAR UAAA 182130Z 15002MPS 9999 SCT100 25/11 Q1006 NOSIG",
    "UZTT": "METAR UZTT 182130Z 14004KT CAVOK 30/15 Q1001 NOSIG",
    "ZWWW": "METAR ZWWW 182130Z 28002MPS CAVOK 27/13 Q1007 NOSIG",
    "ZLXY": "METAR ZLXY 182200Z VRB01MPS CAVOK 20/18 Q1007 NOSIG",
    "ZBAA": "METAR ZBAA 182130Z VRB01MPS 9999 FEW023 22/22 Q1003 NOSIG",
    "ZBHH": "METAR ZBHH 182200Z 05002MPS 9999 FEW040 15/13 Q1008 NOSIG",
    "ZSQD": "METAR ZSQD 182200Z 17001MPS CAVOK 23/21 Q1004 NOSIG",
    "ZMCK": "METAR ZMCK 182130Z VRB01MPS 9999 FEW033 10/10 Q1004 NOSIG RMK QFE639.4 100 MOP",
    "UUEE": "METAR UUEE 182130Z 25002MPS CAVOK 18/13 Q1015 R06R/CLRD62 R06C/CLRD62 NOSIG",
    "UUDD": "METAR UUDD 182130Z 27002MPS 260V340 CAVOK 14/13 Q1015 R31L/CLRD65 NOSIG",
    "ULLI": "METAR ULLI 182130Z 16004MPS 120V180 CAVOK 18/10 Q1007 R88/090065 NOSIG",
    "USSS": "METAR USSS 182130Z 06004MPS 9999 -SHRA SCT025CB 18/18 Q1004 R08R/220050 NOSIG RMK QFE733/0977",
    "UNNT": "METAR UNNT 182130Z 00000MPS 5000 1500SE R25/1500U BR NSC 18/18 Q1004 R25/CLRD// R16/CLRD// NOSIG RMK QFE743/0991",
    "UNKL": "METAR UNKL 182130Z 00000MPS 9000 4400S BR NSC 15/15 Q1002 R29/CLRD// NOSIG RMK QFE727",
    "UIBB": "METAR UIBB 182130Z VRB01MPS 8000 NSC 12/11 Q1001 R12/CLRD62 NOSIG RMK QFE708/0945",
    "UEEE": "METAR UEEE 182130Z 01001MPS 3200 -SHRA SCT010 OVC025CB 17/16 Q0997 R23/290150 NOSIG RMK QFE739",
    "UHHH": "METAR UHHH 182130Z VRB01MPS 8000 0300NE PRFG FEW001 20/20 Q1005 R88/090060 NOSIG RMK QBB040 QFE748/0997",
    "UHSS": "METAR UHSS 182130Z 13002MPS 090V160 7000 -SHRA BKN039CB 20/19 Q1008 R19/220360 NOSIG RMK QFE755/1006"
  },
  "taf": {
    "RJAA": "TAF RJAA 181705Z 1818/2000 17006KT 9999 FEW015 SCT020",
    "PANC": "TAF PANC 182111Z 1821/1924 24007KT 6SM -RA FEW009 SCT015 OVC040 TEMPO 1821/1823 -RA BKN015 FM182300 14012G24KT P6SM VCSH SCT040 OVC070 FM190800 34005KT 6SM -RA OVC060 WS008/12030KT",
    "PAFA": "TAF PAFA 182320Z 1900/2006 VRB03KT P6SM SCT050 BKN100",
    "PAED": "TAF PAED 182100Z 1821/2003 24009KT 9999 -RA SCT009 OVC015 620604 QNH3002INS BECMG 1821/1822 25005KT 9999 -SHRA SCT015 BKN035 OVC055 620604 QNH3001INS BECMG 1900/1901 VRB06KT 9999 VCSH SCT050 OVC070 640703 560208 QNH3000INS BECMG 1907/1908 01009KT 9000 -RA SCT035 OVC060 640604 QNH2998INS TX14/1900Z TN10/1913Z",
    "KSEA": "TAF KSEA 182320Z 1900/2006 28009KT P6SM FEW020 SCT050 FM190200 01008KT P6SM FEW050 FEW250 FM191100 02004KT P6SM SCT250 FM191300 01004KT P6SM BKN008 FM191700 35006KT P6SM SCT010 BKN040 FM192200 33010KT P6SM SCT050",
    "ZSPD": "TAF ZSPD 182104Z 1900/2006 06004MPS 8000 SCT030 TX33/1906Z TX33/2006Z TN27/1921Z TEMPO 1905/1909 TSRA BKN011 FEW030CB",
    "ZSSS": "TAF ZSSS 182104Z 1900/2006 07004MPS 8000 SCT030 TX33/1906Z TX34/2006Z TN27/1921Z TEMPO 1904/1908 TSRA BKN011 FEW030CB",
    "RJFR": "TAF RJFR 181705Z 1818/2000 06004KT 9999 FEW020 SCT040 BECMG 1822/1900 09008KT BECMG 1901/1903 06010KT TEMPO 1906/1912 -TSRA FEW015 BKN030 FEW030CB BECMG 1912/1915 16004KT TEMPO 1921/2000 BKN005",
    "VHHH": "TAF VHHH 182300Z 1900/2006 20010KT 9999 FEW010 SCT025 TX31/1906Z TX31/2006Z TN27/1922Z TEMPO 1900/1906 24015G25KT 2500 TSRA SHRA FEW008CB SCT015 TEMPO 1906/1909 3000 SHRA FEW010CB SCT020 PROB30 TEMPO 1922/2004 24015G25KT 2500 TSRA SHRA FEW008CB SCT015",
    "RCTP": "TAF RCTP 182300Z 1900/2006 23012KT 9999 FEW010 BKN032 TEMPO 1900/1906 23017KT TEMPO 1906/1912 23019KT TEMPO 1912/1918 22006KT TEMPO 1918/1924 23005KT",
    "ZGSZ": "TAF AMD ZGSZ 182140Z 1900/2006 18004MPS 8000 BKN040 TX30/1906Z TX30/2006Z TN26/1922Z TEMPO 1902/1906 +TSRA SCT010 FEW020CB BKN030 TEMPO 1906/1909 TSRA FEW020CB BKN030 TEMPO 1921/1924 1500 +TSRA FEW015 FEW020CB BKN030",
    "WSSS": "TAF WSSS 181700Z 1818/2000 14006KT 9999 FEW015 SCT020",
    "WMKK": "TAF WMKK 181700Z 1818/2000 VRB03KT 9999 FEW018 PROB30 TEMPO 1820/1823 6000 RA FEW017CB",
    "VTBS": "TAF VTBS 181700Z 1818/1924 22008KT 9999 FEW020",
    "VTBU": "TAF VTBU 181700Z 1818/1918 21006KT 9000 FEW020 BECMG 1819/1821 36004KT BECMG 1900/1902 24008KT",
    "ROAH": "TAF ROAH 181705Z 1818/2000 22006KT 9999 FEW005 BKN010 TEMPO 1818/1821 FEW003 BKN005 TEMPO 1821/1900 FEW005 BKN008 TEMPO 1915/1921 FEW005 BKN008",
    "VVDN": "TAF VVDN 181700Z 1818/1918 24006KT 9999 FEW020 BECMG 1905/1906 01010KT BECMG 1912/1913 24006KT",
    "RCKH": "TAF RCKH 182300Z 1900/2006 21005KT 9999 FEW010 BKN032 TEMPO 1900/1906 24010KT 4000 SHRA FEW010 BKN017 TEMPO 1906/1912 23010KT 4000 SHRA FEW010 BKN017 TEMPO 1912/1918 09005KT 5000 RA FEW010 BKN020 TEMPO 1918/1924 14005KT 4000 SHRA FEW010 BKN017",
    "KLAX": "TAF KLAX 182129Z 1821/1924 26012KT P6SM FEW020 FM190300 25006KT P6SM FEW015 SCT150 FM190900 VRB03KT P6SM OVC012 FM191700 25006KT P6SM SCT020 FM191900 25012KT P6SM FEW025",
    "KONT": "TAF KONT 181728Z 1818/1924 VRB04KT P6SM FEW200 FM182000 25010G21KT P6SM SCT150 FM190200 25010KT P6SM FEW200 FM190900 VRB04KT P6SM SKC FM192000 25010G20KT P6SM FEW150",
    "KSFO": "TAF KSFO 182320Z 1900/2006 30015G25KT P6SM SKC FM190400 28013KT P6SM BKN015 FM190600 26005KT P6SM SCT009 OVC012 FM191700 31006KT P6SM SCT012 FM192000 31015KT P6SM SKC",
    "KOAK": "TAF KOAK 182320Z 1900/2006 27015KT P6SM FEW008 FM190300 28012KT P6SM SCT009 BKN012 FM190600 29006KT P6SM BKN009 FM191800 28005KT P6SM SCT009 FM192000 30015KT P6SM SKC",
    "KMHR": "TAF KMHR 181720Z 1818/1918 21007KT P6SM FEW250 FM182200 20012KT P6SM SKC FM190600 19010KT P6SM SKC FM191100 16007KT P6SM SCT250",
    "KDFW": "TAF KDFW 182100Z 1821/1924 18016KT P6SM SCT060 FM190200 18007KT P6SM FEW250 FM191000 19008KT P6SM BKN040 FM191500 19009KT P6SM FEW250",
    "KIAH": "TAF KIAH 182320Z 1900/2006 16009KT P6SM SCT050 SCT250 FM190300 20005KT P6SM FEW020 SCT250 FM190900 21003KT P6SM FEW010 SCT250 FM191300 21004KT P6SM SCT040 SCT250",
    "KORD": "TAF KORD 182321Z 1900/2006 06011KT 5SM FU SCT050 FM190600 04007KT 2SM FU SCT025 FM191400 05009KT 4SM FU SCT025",
    "KJFK": "TAF KJFK 182320Z 1900/2006 18014KT 5SM -SHRA FU SCT015 OVC050 TEMPO 1900/1904 2SM TSRA BR BKN009 OVC050CB FM190400 24012KT 4SM SHRA BKN025 OVC050 FM190700 28012KT P6SM SCT040 BKN100 FM191200 33013KT P6SM SCT250",
    "KRFD": "TAF KRFD 182321Z 1900/1924 35010KT P6SM SCT050 FM190100 07008KT 6SM FU SCT050 FM190600 04005KT 3SM FU SCT025 FM191400 07007KT 6SM FU FEW025",
    "KIND": "TAF KIND 182320Z 1900/2006 32012KT P6SM VCTS BKN050CB TEMPO 1900/1903 VRB20G35KT 2SM TSRA BKN035CB FM190300 34007KT P6SM SCT040 BKN250 FM191200 03007KT P6SM SCT050 BKN250",
    "KDTW": "TAF KDTW 182320Z 1900/2006 35011G22KT 6SM FU SCT045 SCT060 FM190200 01006KT 3SM FU BKN200 FM191400 02008KT 6SM HZ SCT045 FM191700 35007KT P6SM SCT060 FM200000 10003KT P6SM SCT250",
    "KMSP": "TAF KMSP 182320Z 1900/2006 01008KT P6SM FEW070 FEW250 FM190200 VRB03KT P6SM SKC FM191300 21005KT P6SM FEW250 FM191700 20010KT P6SM FEW070 FEW250",
    "CYEG": "TAF CYEG 182040Z 1821/1918 16005KT P6SM FEW020 FM190000 27006KT P6SM FEW050 TEMPO 1900/1904 VRB25G40KT P6SM -SHRA VCTS BKN050CB FM190400 25008KT P6SM FEW012 SCT100 FM191000 27008KT P6SM FEW040 SCT100 TEMPO 1910/1914 VRB25G35KT P6SM VCTS BKN040CB OVC100 FM191400 28015G25KT P6SM BKN040 RMK NXT FCST BY 190000Z",
    "EHAM": "TAF EHAM 181720Z 1818/1924 32013KT 9999 SCT025 BKN030 PROB30 TEMPO 1818/1901 7000 -SHRA -DZRA SCT018 FEW020TCU BECMG 1819/1822 31008KT BECMG 1907/1910 32015KT BECMG 1918/1921 32008KT",
    "EBBR": "TAF EBBR 181703Z 1818/1924 32010KT 9999 SCT030 SCT045",
    "EDDF": "TAF EDDF 181700Z 1818/1924 31009KT 9999 SCT040 PROB30 TEMPO 1818/1821 32015KT SHRA BKN030CB PROB30 TEMPO 1821/1908 BKN040 PROB30 TEMPO 1912/1915 32015G25KT",
    "EDFH": "TAF COR EDFH 181752Z 1818/1918 34007KT 9999 SCT040 TEMPO 1818/1820 34020G30KT TSRA BKN030CB PROB30 TEMPO 1912/1915 32015G25KT",
    "EDDL": "TAF EDDL 181700Z 1818/1924 32011KT 9999 FEW045 BECMG 1819/1822 30006KT BECMG 1907/1910 30012KT PROB40 TEMPO 1913/1917 31015G25KT BECMG 1919/1922 30005KT",
    "EDDK": "TAF EDDK 181700Z 1818/1924 32011KT 9999 FEW045 BECMG 1819/1822 31006KT BECMG 1907/1910 31012KT PROB30 TEMPO 1913/1918 31015G25KT BECMG 1918/1921 33005KT",
    "EBLG": "TAF EBLG 181703Z 1818/1924 31010KT 9999 SCT030 SCT045",
    "LSZH": "TAF LSZH 182025Z 1821/2003 VRB02KT 9999 FEW060 TX24/1915Z TN15/1904Z PROB30 TEMPO 1821/1823 SHRA FEW060TCU PROB40 1823/1905 2000 BCFG PROB40 TEMPO 1907/1915 SHRA SCT050TCU BECMG 1910/1913 30010KT PROB30 TEMPO 1912/1915 32015G25KT TSRA FEW050CB BECMG 1916/1919 03004KT BECMG 1920/1922 CAVOK",
    "LIMC": "TAF LIMC 182300Z 1900/2006 VRB05KT 9999 SCT040 TEMPO 2000/2006 4000 SHRA",
    "LIRF": "TAF LIRF 182300Z 1900/2006 VRB05KT 7000 FEW006 BECMG 1907/1909 17010KT BECMG 1912/1914 23010KT BECMG 1917/1919 VRB05KT",
    "EINN": "TAF EINN 182300Z 1900/1924 36011KT 9999 FEW025 BECMG 1912/1914 03010KT BECMG 1917/1919 36009KT",
    "EGLL": "TAF EGLL 182252Z 1900/2006 01008KT 9999 FEW045",
    "EGSS": "TAF EGSS 182257Z 1900/2006 36009KT 9999 SCT035",
    "EPWA": "TAF EPWA 182030Z 1821/1921 VRB02KT 9999 SCT040 TEMPO 1909/1921 -SHRA SCT040CB PROB40 TEMPO 1916/1920 VRB15G30KT 2000 TSRA BKN020CB",
    "UHPP": "TAF UHPP 182235Z 1900/2006 30003G10MPS 9999 SCT050 TX29/1904Z TN18/1916Z TEMPO 1900/1924 36005G12MPS",
    "EFHK": "TAF AMD EFHK 182156Z 1821/1921 18009KT 9999 BKN009 FEW040CB TEMPO 1821/1823 6000 SHRA BKN010 FEW030CB TEMPO 1902/1907 4000 -DZRA BKN004 FEW040CB BECMG 1907/1909 28012KT BKN012 BECMG 1909/1911 BKN015 BECMG 1911/1913 34010KT",
    "LBBG": "TAF LBBG 182300Z 1900/1924 VRB03KT CAVOK TEMPO 1901/1905 3000 BR BKN008 PROB30 1902/1904 0600 BCFG BKN003 BECMG 1906/1908 12014KT BECMG 1921/1923 VRB03KT",
    "LTAC": "TAF LTAC 182240Z 1900/1924 05012KT CAVOK BECMG 1906/1909 VRB02KT FEW040 BECMG 1915/1918 CAVOK",
    "UBBB": "TAF UBBB 182304Z 1900/1924 33014KT CAVOK TX30/1910Z TN24/1901Z TEMPO 1900/1903 35008KT FEW050CB PROB40 TEMPO 1900/1902 TS FEW012 SCT040CB BECMG 1903/1905 34020G30KT TEMPO 1906/1918 34026G36KT SCT016 FEW040",
    "UTAA": "TAF UTAA 182245Z 1900/1924 33016KT 6000 SCT050 TX40/1910Z TEMPO 1902/1910 30014G24KT 4000 DRDU BECMG 1916/1918 02014KT 6000 SCT100",
    "UACC": "TAF UACC 182301Z 1900/1924 24006MPS 9999 SCT040CB BKN100 TX33/1909Z TN16/1923Z TEMPO 1900/1904 20008MPS -TSRA BKN030CB TEMPO 1904/1916 28010MPS -TSRA BKN030CB BECMG 1916/1918 32005MPS SCT030",
    "UAAA": "TAF UAAA 182303Z 1900/1924 35003MPS 9999 FEW050 SCT100 TX42/1910Z TN23/1900Z TEMPO 1900/1903 20005MPS TEMPO 1905/1914 04005G10MPS BECMG 1914/1915 20005MPS",
    "UZTT": "TAF UZTT 182300Z 1900/1924 07010KT CAVOK TX44/1911Z TN27/1900Z TEMPO 1906/1916 30015KT",
    "ZWWW": "TAF ZWWW 182105Z 1900/2006 18004MPS CAVOK TX39/1909Z TX38/2006Z TN29/1923Z BECMG 1902/1903 36004MPS BECMG 1913/1914 18004MPS BECMG 2002/2003 36004MPS",
    "ZLXY": "TAF ZLXY 182102Z 1900/1924 24003MPS 6000 NSC TX36/1907Z TN22/1921Z",
    "ZBAA": "TAF ZBAA 182106Z 1900/2006 15004MPS CAVOK TX32/1906Z TX33/2006Z TN22/1921Z",
    "ZBHH": "TAF ZBHH 182101Z 1900/1924 06004MPS 9999 FEW040 TX30/1908Z TN15/1922Z TEMPO 1909/1912 VRB08G13MPS -TSRA FEW040CB FEW040",
    "ZSQD": "TAF ZSQD 182103Z 1900/1924 16004MPS 3500 BR NSC TX30/1906Z TN21/1920Z",
    "ZMCK": "TAF ZMCK 182240Z 1900/2006 32006MPS 9999 FEW030CB SCT033 TX24/1907Z TN09/1921Z PROB40 TEMPO 1905/1912 VRB09G14MPS TSRA SCT027CB SCT030 BECMG 1911/1913 VRB02MPS BECMG 2001/2003 32005MPS",
    "UUEE": "TAF UUEE 182250Z 1900/1924 20003MPS 9000 NSC TX27/1912Z TN15/1901Z PROB40 TEMPO 1900/1904 0500 PRFG",
    "UUDD": "TAF UUDD 182252Z 1900/2006 20003MPS 8000 NSC TX27/1912Z TN12/1901Z PROB40 TEMPO 1900/1903 0500 FG",
    "ULLI": "TAF ULLI 182257Z 1900/1924 16006G12MPS 6000 SCT016 PROB40 1902/1906 4000 -TSRA BKN010 BKN017CB TEMPO 1909/1918 3100 -TSRA BKN017CB BECMG 1910/1912 25007G14MPS BECMG 1920/1922 30003MPS",
    "USSS": "TAF USSS 182253Z 1900/1924 08003G14MPS 6000 -SHRA BKN013CB TEMPO 1900/1904 0800 +TSRA BKN003 BKN016CB FM190400 05003G14MPS 8000 -SHRA BKN016CB TEMPO 1904/1919 -TSRAGR",
    "UNNT": "TAF UNNT 182300Z 1900/1924 32003G08MPS 8000 SCT040 TX26/1912Z TN16/1922Z TEMPO 1902/1918 02006G13MPS -TSRA BKN020CB",
    "UNKL": "TAF UNKL 182244Z 1900/1924 27003G08MPS 9999 SCT040CB TEMPO 1900/1903 -TSRA BECMG 1903/1905 32007G15MPS -TSRA BECMG 1906/1908 27003G08MPS NSW TEMPO 1908/1915 -TSRA",
    "UIBB": "TAF UIBB 182300Z 1900/1924 26005G10MPS 9999 -SHRA BKN017CB TEMPO 1903/1915 VRB10MPS -TSRA",
    "UEEE": "TAF UEEE 182300Z 1900/2006 03003G08MPS 5000 -SHRA SCT006 BKN020CB OVC070 TEMPO 1900/1915 VRB08MPS 1000 TSRA BR VV003",
    "UHHH": "TAF UHHH 182249Z 1900/2006 27003MPS 9999 SCT025CB TX30/1904Z TN19/1917Z",
    "UHSS": "TAF COR UHSS 182255Z 1900/2006 13003MPS 9999 -SHRA BKN016CB TEMPO 1900/1922 13003G08MPS 2100 -SHRA BR BKN005 BKN016CB FM200000 27003MPS 9999 SCT030CB"
  },
  "atis": {},
  "windtemp_alaska": "\n000\nFBAK31 KWNO 182000\nFD1AK1\nDATA BASED ON 181800Z    \nVALID 190000Z   FOR USE 2000-0300Z. TEMPS NEG ABV 24000\n\nFT  3000    6000    9000   12000   18000   24000  30000  34000  39000\nADK 3212 3315+03 3223-02 3230-07 3359-16 3383-23 830236 831544 840649\nADQ 1533 1733+04 1835-01 1939-07 2052-14 2057-26 206742 217650 216555\nAKN 1328 1538+01 1638-04 1725-07 1839-19 1967-29 209743 199250 194646\nANC 1510 1620+00 1719-06 2020-08 2240-17 2257-26 227242 227750 226053\nANN 3214 3314+05 3217+04 3217-01 3334-11 3438-24 333441 324250 323853\nBET 1013 1319-02 1218-06 1215-09 1631-21 1636-34 174047 173143 172140\nBRW 0714 0614+01 0612-05 0811-08 0916-20 0922-31 103547 123347 122042\nBTI 9900 1908+05 1809+00 1812-06 1624-18 1536-30 146343 146148 142945\nBTT 9900 9900+03 1605-04 1412-10 1722-24 1728-33 173248 172644 182340\nCDB 2112 2312-01 2412-07 2217-10 2222-21 2127-34 203440 213138 212239\nCZF 0607 0509+00 0609-06 0612-11 0610-24 1207-35 160647 990042 070640\nEHM 1128 1125-01 1421-04 1424-10 1325-22 1430-35 163443 172640 181940\nFAI 1508 2017+03 2013-04 1912-10 2019-21 2230-31 224845 225347 213743\nFYU 9900 2306+03 2411-02 2009-08 1818-21 1824-31 203445 213646 192843\nGAL 1407 1612+00 1612-05 1615-11 1821-24 2026-34 202347 202644 181840\nGKN 1720 1923+01 2022-05 2124-09 2342-15 2350-26 235941 236250 235454\nHOM 1421 1723+00 1924-04 2036-08 2144-15 2155-26 216842 217550 216354\nJNU 2607 3007+02 2910+03 2811+00 3021-12 2920-25 292241 302750 302955\nLUR 1108 1211+01 1111-04 0914-10 0728-21 0638-33 064447 062844 071840\nMCG 9900 1914+00 1716-06 1519-11 2129-20 2133-33 215246 215046 202843\nMDO 1912 2011+00 2321-02 2428-04 2337-14 2236-25 234241 245449 235556\nOME 1612 1808+01 1706-05 9900-11 0409-24 0412-36 041145 060741 070739\nORT      2406+04 2209-03 2218-08 2436-16 2442-26 255341 255451 244152\nOTZ 1218 1314+00 1314-05 1312-11 0909-24 0713-37 071544 091441 101339\nSNP 0122 0124-03 0125-07 0128-12 0132-23 3631-34 353744 354140 343739\nTKA 2008 1825+00 1827-05 1720-11 2225-18 2250-29 238342 228550 225249\nUNK 1410 1614+00 1416-06 1316-12 1615-24 1926-34 192647 192143 181340\nYAK 2808 2610+01 2716+00 2718-02 2527-14 2529-25 262940 273349 273656\nIKO 3332 3333-03 3334-06 3236-10 3233-22 3231-33 323644 324039 323539\nAFM 1409 1616+01 1516-05 1517-11 1619-25 1730-35 173146 152042 141439\n5AB 2510 2813+10 3015+06 3224+02 3243-08 3244-19 326132 327042 328052\n5AC 3219 3222+07 3123+05 3123+01 2924-11 3023-24 312640 312849 302158\n5AD 2221 2120+06 2219+03 2322-01 2429-14 2226-25 212740 213349 213358\n5AE 1935 2037+04 2038+00 2045-04 2067-14 2065-26 207541 207950 206654\n5AF 3115 3017+06 3016+03 3119+00 2820-13 2922-25 302739 303349 302957\n5AG 2411 2514+03 2421+00 2322-02 2428-13 2533-25 263640 264148 253857\n",
  "vaac_active": [
    {
      "volcano": "MAYON",
      "volcano_jp": "マヨン",
      "advisory_nr": "2026/766",
      "obs_time": "2026-07-18 21:55Z",
      "issued_time": "2026-07-18 22:12Z",
      "text_url": "https://www.data.jma.go.jp/vaac/data/TextData/2026/20260718_27303000_0766_Text.html",
      "lat": 13.25,
      "lon": 123.683,
      "text": "FVFE01 RJTD 182212\nVA ADVISORY\nDTG: 20260718/2212Z\nVAAC: TOKYO\nVOLCANO: MAYON 273030\nPSN: N1315 E12341\nAREA: PHILIPPINES\nSOURCE ELEV: 2462M AMSL\nADVISORY NR: 2026/766\nINFO SOURCE: HIMAWARI-9 PHIVOLCS\nERUPTION DETAILS: ERUPTION AT 20260718/2155Z FL090 EXTD SSW REPORTED\nOBS VA DTG: 18/2150Z\nOBS VA CLD: VA NOT IDENTIFIABLE FM SATELLITE DATA WIND FL090 360/2KT\nFCST VA CLD +6 HR: NOT AVBL\nFCST VA CLD +12 HR: NOT AVBL\nFCST VA CLD +18 HR: NOT AVBL\nRMK: WE WILL ISSUE FURTHER ADVISORY IF VA IS DETECTED IN SATELLITE \nIMAGERY.\nNXT ADVISORY: NO FURTHER ADVISORIES="
    },
    {
      "volcano": "MAYON",
      "volcano_jp": "マヨン",
      "advisory_nr": "2026/765",
      "obs_time": "2026-07-18 18:16Z",
      "issued_time": "2026-07-18 18:31Z",
      "text_url": "https://www.data.jma.go.jp/vaac/data/TextData/2026/20260718_27303000_0765_Text.html",
      "lat": 13.25,
      "lon": 123.683,
      "text": "FVFE01 RJTD 181831\nVA ADVISORY\nDTG: 20260718/1831Z\nVAAC: TOKYO\nVOLCANO: MAYON 273030\nPSN: N1315 E12341\nAREA: PHILIPPINES\nSOURCE ELEV: 2462M AMSL\nADVISORY NR: 2026/765\nINFO SOURCE: HIMAWARI-9 PHIVOLCS\nERUPTION DETAILS: ERUPTION AT 20260718/1816Z VA CLD UNKNOWN REPORTED\nOBS VA DTG: 18/1810Z\nOBS VA CLD: VA NOT IDENTIFIABLE FM SATELLITE DATA WIND FL180 030/2KT\nFCST VA CLD +6 HR: NOT AVBL\nFCST VA CLD +12 HR: NOT AVBL\nFCST VA CLD +18 HR: NOT AVBL\nRMK: WE WILL ISSUE FURTHER ADVISORY IF VA IS DETECTED IN SATELLITE \nIMAGERY.\nNXT ADVISORY: NO FURTHER ADVISORIES="
    }
  ],
  "vaac_tokyo": [
    {
      "id": "20260718_27303000_0766",
      "year": "2026",
      "volcano": "Mayon",
      "psn": "N1315 E12341",
      "issued": "20260718",
      "text": "FVFE01 RJTD 182212\nVA ADVISORY\nDTG: 20260718/2212Z\nVAAC: TOKYO\nVOLCANO: MAYON 273030\nPSN: N1315 E12341\nAREA: PHILIPPINES\nSOURCE ELEV: 2462M AMSL\nADVISORY NR: 2026/766\nINFO SOURCE: HIMAWARI-9 PHIVOLCS\nERUPTION DETAILS: ERUPTION AT 20260718/2155Z FL090 EXTD SSW REPORTED\nOBS VA DTG: 18/2150Z\nOBS VA CLD: VA NOT IDENTIFIABLE FM SATELLITE DATA WIND FL090 360/2KT\nFCST VA CLD +6 HR: NOT AVBL\nFCST VA CLD +12 HR: NOT AVBL\nFCST VA CLD +18 HR: NOT AVBL\nRMK: WE WILL ISSUE FURTHER ADVISORY IF VA IS DETECTED IN SATELLITE \nIMAGERY.\nNXT ADVISORY: NO FURTHER ADVISORIES=",
      "img_url": "https://ds.data.jma.go.jp/svd/vaac/data/VAGFN/2026/Images/20260718_27303000_0766_QH21_01.png",
      "sat_img_url": null,
      "text_url": "https://ds.data.jma.go.jp/svd/vaac/data/TextData/2026/20260718_27303000_0766_Text.html"
    },
    {
      "id": "20260718_30027000_0268",
      "year": "2026",
      "volcano": "Sheveluch",
      "psn": "N5639 E16122",
      "issued": "20260718",
      "text": "FVFE01 RJTD 180000\nVA ADVISORY\nDTG: 20260718/0000Z\nVAAC: TOKYO\nVOLCANO: SHEVELUCH 300270\nPSN: N5639 E16122\nAREA: RUSSIA\nSOURCE ELEV: 3283M AMSL\nADVISORY NR: 2026/268\nINFO SOURCE: KVERT HIMAWARI-9\nERUPTION DETAILS: VA CONTINUOUSLY OBS IN SATELLITE IMAGERY\nOBS VA DTG: 17/2320Z\nOBS VA CLD: SFC/FL290 N5601 E16322 - N5605 E16357 - N5546 E16401 - \nN5544 E16326 MOV SE 25KT\nFCST VA CLD +6 HR: 18/0520Z SFC/FL300 N5529 E16617 - N5404 E16714 - \nN5357 E16639 - N5527 E16530\nFCST VA CLD +12 HR: 18/1120Z SFC/FL300 N5352 E17006 - N5152 E17037 - \nN5152 E16936 - N5344 E16817\nFCST VA CLD +18 HR: NO VA EXP\nRMK: SOME PART OF VA OBSCURED BY MET CLOUD.\nNXT ADVISORY: 20260718/0600Z=",
      "img_url": "https://ds.data.jma.go.jp/svd/vaac/data/VAGFN/2026/Images/20260718_30027000_0268_QH21_01.png",
      "sat_img_url": "https://ds.data.jma.go.jp/svd/vaac/data/Sat/2026/Images/30027000/09-ir/20260717_2320_202607180000_ir.png",
      "text_url": "https://ds.data.jma.go.jp/svd/vaac/data/TextData/2026/20260718_30027000_0268_Text.html"
    },
    {
      "id": "20260717_27307000_0014",
      "year": "2026",
      "volcano": "Taal",
      "psn": "N1400 E12100",
      "issued": "20260717",
      "text": "FVFE01 RJTD 171113\nVA ADVISORY\nDTG: 20260717/1113Z\nVAAC: TOKYO\nVOLCANO: TAAL 273070\nPSN: N1400 E12100\nAREA: PHILIPPINES\nSOURCE ELEV: 311M AMSL\nADVISORY NR: 2026/14\nINFO SOURCE: HIMAWARI-9 PHIVOLCS\nERUPTION DETAILS: ERUPTION AT 20260717/1051Z FL040 EXTD E REPORTED\nOBS VA DTG: 17/1100Z\nOBS VA CLD: VA NOT IDENTIFIABLE FM SATELLITE DATA WIND FL040 270/8KT\nFCST VA CLD +6 HR: NOT AVBL\nFCST VA CLD +12 HR: NOT AVBL\nFCST VA CLD +18 HR: NOT AVBL\nRMK: WE WILL ISSUE FURTHER ADVISORY IF VA IS DETECTED IN SATELLITE \nIMAGERY.\nNXT ADVISORY: NO FURTHER ADVISORIES=",
      "img_url": "https://ds.data.jma.go.jp/svd/vaac/data/VAGFN/2026/Images/20260717_27307000_0014_QH21_01.png",
      "sat_img_url": null,
      "text_url": "https://ds.data.jma.go.jp/svd/vaac/data/TextData/2026/20260717_27307000_0014_Text.html"
    },
    {
      "id": "20260713_28208001_0083",
      "year": "2026",
      "volcano": null,
      "psn": "N3136 E13039",
      "issued": "20260713",
      "text": "FVFE01 RJTD 130254\nVA ADVISORY\nDTG: 20260713/0254Z\nVAAC: TOKYO\nVOLCANO: SAKURAJIMA (AIRA CALDERA) 282080\nPSN: N3136 E13039\nAREA: JAPAN\nSOURCE ELEV: 1117M AMSL\nADVISORY NR: 2026/83\nINFO SOURCE: JMA HIMAWARI-9\nERUPTION DETAILS: ERUPTED AT 20260713/0152Z FL100 EXTD N\nOBS VA DTG: 13/0230Z\nOBS VA CLD: SFC/FL100 N3136 E13039 - N3142 E13040 - N3141 E13044 - \nN3134 E13042 MOV NE 15KT\nFCST VA CLD +6 HR: 13/0830Z SFC/FL100 N3234 E13121 - N3145 E13155 - \nN3202 E13110 - N3227 E13051\nFCST VA CLD +12 HR: 13/1430Z SFC/FL100 N3318 E13206 - N3142 E13317 - \nN3134 E13226 - N3312 E13118\nFCST VA CLD +18 HR: NO VA EXP\nRMK: NIL\nNXT ADVISORY: 20260713/0600Z=",
      "img_url": "https://ds.data.jma.go.jp/svd/vaac/data/VAGFN/2026/Images/20260713_28208001_0083_QH21_01.png",
      "sat_img_url": "https://ds.data.jma.go.jp/svd/vaac/data/Sat/2026/Images/28208001/09-ir/20260713_0230_202607130254_ir.png",
      "text_url": "https://ds.data.jma.go.jp/svd/vaac/data/TextData/2026/20260713_28208001_0083_Text.html"
    }
  ],
  "vaac_alaska": [
    {
      "text": "\n000\nFVAK21 PAWU 180008\nVAAAK1\nVA ADVISORY\n\nDTG: 20260718/0000Z\n\nVAAC: ANCHORAGE\n\nVOLCANO: SHEVELUCH 300270\n\nPSN: N5639 E16122\n\nAREA: KAMCHATKA PENINSULA\n\nSOURCE ELEV: 10771 FT AMSL\n\nADVISORY NR: 2026/205\n\nRMK: PLEASE SEE FVFE01 RJTD ISSUED BY VAAC TOKYO WHICH DESCRIBES\nCONDITIONS NEAR THE VAAC ANCHORAGE AREA OF RESPONSIBILITY...BS\n\n\n\n",
      "issued": "2026-07-18T00:08:00+00:00",
      "volcano": "Sheveluch",
      "psn": "N5639 E16122"
    }
  ]
}