{
  "updated_utc": "2026-07-21T16:18Z",
  "metar": {
    "RJAA": "METAR RJAA 211430Z AUTO 17003KT 9999 FEW015 27/25 Q1008 NOSIG",
    "PANC": "METAR PANC 211453Z 14004KT 10SM FEW036 SCT046 BKN055 11/09 A3011 RMK AO2 SLP198 T01060094 56007",
    "PAFA": "METAR PAFA 211453Z 31003KT 10SM FEW008 SCT070 BKN110 14/12 A2997 RMK AO2 SLP150 60000 T01390117 50003 $",
    "PAED": "METAR PAED 211455Z 13003KT 10SM BKN035 11/09 A3010 RMK AO2A SLP189 T01090093 57008 $",
    "KSEA": "METAR KSEA 211453Z 34004KT 10SM FEW210 SCT250 21/14 A2998 RMK AO2 SLP156 T02110139 53006 $",
    "ZSPD": "METAR ZSPD 211430Z 24004MPS 9999 SCT016 26/26 Q1007 NOSIG",
    "ZSSS": "METAR ZSSS 211430Z 18003MPS 9999 -RA NSC 26/24 Q1007 NOSIG",
    "RJFR": "METAR RJFR 211500Z AUTO 28003KT 260V320 9999 FEW050 29/25 Q1009",
    "VHHH": "METAR VHHH 211430Z 09007KT 9999 FEW015 29/25 Q1008 NOSIG",
    "RCTP": "METAR RCTP 211430Z 18005KT 9999 FEW015 BKN150 28/25 Q1010 NOSIG RMK A2984",
    "ZGSZ": "METAR ZGSZ 211500Z 16004MPS CAVOK 29/25 Q1008 NOSIG",
    "WSSS": "METAR WSSS 211430Z 14006KT 9999 FEW018 FEW020TCU BKN300 29/25 Q1012 NOSIG",
    "WMKK": "METAR WMKK 211430Z 00000KT 9999 FEW030 29/26 Q1011 NOSIG",
    "WIDD": "METAR WIDD 211430Z VRB02KT 9999 NCD 27/25 Q1012 NOSIG",
    "VTBS": "METAR VTBS 211430Z 22007KT 9999 FEW020 31/24 Q1009 NOSIG",
    "VTBU": "METAR VTBU 211430Z 20006KT 9000 FEW020 29/28 Q1010 NOSIG",
    "ROAH": "METAR ROAH 211430Z AUTO 25004KT 9999 NCD 29/27 Q1011",
    "VVDN": "METAR VVDN 211430Z VRB02KT 9999 FEW020 31/23 Q1008 NOSIG",
    "RCKH": "METAR RCKH 211430Z VRB03KT 9999 FEW010 SCT020 29/25 Q1010 NOSIG RMK A2984",
    "KLAX": "METAR KLAX 211453Z 00000KT 7SM FEW008 FEW014 SCT140 BKN180 23/19 A2999 RMK AO2 SLP152 T02280194 51017 $",
    "KONT": "METAR KONT 211453Z 22004KT 10SM SCT120 BKN140 BKN170 23/15 A3000 RMK AO2 SLP143 T02280150 53014 $",
    "KSFO": "METAR KSFO 211456Z 00000KT 10SM FEW060 BKN100 20/14 A2991 RMK AO2 SLP129 T02000144 53010 $",
    "KOAK": "METAR KOAK 211453Z 00000KT 10SM FEW013 FEW075 BKN160 BKN180 20/14 A2992 RMK AO2 SLP131 FU FEW013 T02000144 53012",
    "KMHR": "METAR KMHR 211435Z AUTO 00000KT 10SM CLR 23/11 A2987 RMK AO2 T02260107 $",
    "KDFW": "METAR KDFW 211453Z 25009KT 10SM CLR 33/19 A2992 RMK AO2 SLP119 T03280194 50005 $",
    "KIAH": "METAR KIAH 211453Z 26008KT 10SM FEW018 29/24 A2996 RMK AO2 SLP143 T02940239 51008",
    "KORD": "METAR KORD 211451Z 29009KT 10SM FEW032 27/19 A2969 RMK AO2 SLP047 T02720194 50002",
    "KJFK": "METAR KJFK 211451Z COR 15014G24KT 10SM BKN018 BKN041 BKN065 OVC140 24/22 A2986 RMK AO2 PK WND 17026/1356 SLP111 BKN018 V SCT CB DSNT NW-N MOV NE T02440217 55012 $",
    "KRFD": "METAR KRFD 211454Z 29012KT 10SM FEW030 26/19 A2974 RMK AO2 SLP066 T02610194 51011",
    "KIND": "METAR KIND 211454Z 25013KT 10SM FEW023 SCT070 SCT095 BKN170 28/24 A2975 RMK AO2 RAB18E50 SLP066 ACC W-NW P0000 60000 T02780239 58004",
    "KDTW": "METAR KDTW 211453Z 23016KT 6SM HZ SCT015 SCT050 BKN120 26/21 A2962 RMK AO2 SLP026 60000 T02610211 50009",
    "KMSP": "METAR KMSP 211453Z 33013G27KT 10SM FEW039 FEW250 23/13 A2989 RMK AO2 PK WND 33027/1427 SLP115 T02330128 51024",
    "CYEG": "METAR CYEG 211500Z 16005KT 4SM FU BKN046 BKN100 17/15 A3019 RMK SC5AC2 SLP228 DENSITY ALT 2900FT",
    "EHAM": "METAR EHAM 211425Z 31010KT 270V350 9999 FEW038 20/11 Q1026 NOSIG",
    "EBBR": "METAR EBBR 211420Z 04006KT 360V080 CAVOK 23/10 Q1026 NOSIG",
    "EDDF": "METAR EDDF 211420Z AUTO VRB05KT CAVOK 25/06 Q1022 NOSIG",
    "EDFH": "METAR EDFH 211420Z 36009KT 310V060 CAVOK 21/06 Q1024",
    "EDDL": "METAR EDDL 211420Z AUTO VRB07KT CAVOK 24/08 Q1024 NOSIG",
    "EDDK": "METAR EDDK 211420Z AUTO 32006KT CAVOK 24/08 Q1024 NOSIG",
    "EBLG": "METAR EBLG 211420Z 35008KT 290V030 9999 FEW045 22/06 Q1025 NOSIG",
    "LSZH": "METAR LSZH 211420Z VRB02KT 9999 SCT070 24/07 Q1021 NOSIG",
    "LIMC": "METAR LIMC 211420Z 18007KT 120V250 9999 SCT050 30/16 Q1013 NOSIG",
    "LIRF": "METAR LIRF 211420Z 20011KT CAVOK 33/26 Q1012 NOSIG",
    "EINN": "METAR EINN 211430Z 36008KT 9999 BKN025 20/13 Q1032 NOSIG",
    "EGLL": "METAR EGLL 211420Z AUTO 06006KT 010V090 9999 OVC044 23/12 Q1028",
    "EGSS": "METAR EGSS 211420Z AUTO 01007KT 330V040 9999 BKN027 OVC039 20/13 Q1029",
    "EPWA": "METAR EPWA 211430Z 30015KT 9999 -SHRA SCT014CB BKN048 16/15 Q1014 NOSIG",
    "UHPP": "METAR UHPP 211500Z 18002MPS 4500 -SHRA BR BKN003 OVC018CB 15/15 Q0998 R16R/290252 NOSIG RMK QFE745/0994",
    "EFHK": "METAR EFHK 211420Z 01004KT 340V050 9999 FEW011 SCT038 13/11 Q1013 NOSIG",
    "LBBG": "METAR LBBG 211430Z 11013KT 9999 FEW040 28/21 Q1014 NOSIG",
    "LTAC": "METAR LTAC 211420Z 02014KT 340V050 CAVOK 32/03 Q1013 NOSIG RMK RWY21C 03015KT RWY03L 03012KT RWY21R 02015KT RWY03R 02014KT RWY21L 02015KT",
    "UBBB": "METAR UBBB 211430Z 16008KT CAVOK 30/14 Q1011 NOSIG",
    "UTAA": "METAR UTAA 211500Z 26008KT 9999 FEW050CB BKN050 OVC100 30/18 Q1009 R88/CLRD70 NOSIG",
    "UACC": "METAR UACC 211430Z 24003MPS 220V280 8000 -SHRA BKN036CB BKN046 18/16 Q0996 NOSIG RMK QFE717/0956",
    "UAAA": "METAR UAAA 211430Z 16004MPS 9999 -SHRA BKN050CB OVC100 22/18 Q1007 NOSIG",
    "UZTT": "METAR UZTT 211430Z 32004KT 280V010 9999 FEW066CB 32/09 Q1006 NOSIG",
    "ZWWW": "METAR ZWWW 211430Z 29003MPS CAVOK 36/10 Q0996 NOSIG",
    "ZLXY": "METAR ZLXY 211500Z 03003MPS CAVOK 25/21 Q1005 NOSIG",
    "ZBAA": "METAR ZBAA 211430Z 08002MPS CAVOK 28/24 Q1004 NOSIG",
    "ZBHH": "METAR ZBHH 211500Z 12003MPS CAVOK 16/14 Q1010 NOSIG",
    "ZSQD": "METAR ZSQD 211500Z 15003MPS CAVOK 24/23 Q1006 NOSIG",
    "ZMCK": "METAR ZMCK 211430Z 08004MPS 9999 FEW030CB SCT033 17/13 Q1006 NOSIG RMK QFE640.5 79 NT",
    "UUEE": "METAR UUEE 211430Z 25005MPS 220V290 9999 SCT029 23/17 Q1010 R24L/CLRD62 R24C/CLRD62 NOSIG",
    "UUDD": "METAR UUDD 211430Z 23003MPS 9999 SCT033 25/17 Q1010 R13R/CLRD65 NOSIG",
    "ULLI": "SPECI ULLI 211419Z 03003MPS 350V050 4800 -DZ OVC004 14/13 Q1009 R88/290050 NOSIG RMK QBB120 OBST OBSC",
    "USSS": "METAR USSS 211430Z 03004MPS CAVOK 27/15 Q1008 R08R/CLRD60 R08L/CLRD60 NOSIG RMK QFE736/0982",
    "UNNT": "METAR UNNT 211430Z 01002MPS CAVOK 22/16 Q0997 R07/CLRD// R16/CLRD// NOSIG RMK QFE738/0984",
    "UNKL": "METAR UNKL 211430Z 00000MPS CAVOK 19/16 Q0999 R11/CLRD// NOSIG RMK QFE724",
    "UIBB": "METAR UIBB 211430Z AUTO 11001MPS 9999 // NCD 16/14 Q1003 RMK QFE709/0946",
    "UEEE": "METAR UEEE 211430Z 35003MPS CAVOK 16/13 Q1008 R23/09//66 NOSIG RMK QFE747",
    "UHHH": "METAR UHHH 211430Z 08001MPS CAVOK 21/21 Q1005 R23L/090060 NOSIG RMK QFE748/0997",
    "UHSS": "METAR UHSS 211500Z 07002MPS 9999 NSC 17/17 Q1006 RMK QFE753/1005"
  },
  "taf": {
    "RJAA": "TAF RJAA 211105Z 2112/2218 15004KT 9999 FEW030 TEMPO 2118/2121 FEW003 BKN008 BECMG 2122/2200 31005KT BECMG 2203/2206 13010KT TEMPO 2203/2209 4000 -TSRA BR FEW005 BKN008 FEW020CB",
    "PANC": "TAF PANC 211130Z 2112/2218 16006KT P6SM VCSH FEW005 SCT010 OVC035 FM211600 16006KT P6SM SCT010 OVC040 FM212000 15012G24KT P6SM VCSH SCT040 BKN070 FM220200 15018G32KT 6SM -RA SCT015 OVC030 FM220700 15015G28KT P6SM -SHRA SCT020 OVC040 FM221200 15012G22KT P6SM VCSH BKN040 OVC050",
    "PAFA": "TAF PAFA 211132Z 2112/2218 20005KT P6SM -SHRA SCT060 BKN080 FM212100 15004KT P6SM SCT050 FM221200 20004KT P6SM VCSH BKN050",
    "PAED": "TAF PAED 211300Z 2113/2219 21003KT 9999 BKN035 QNH3004INS BECMG 2123/2124 21010G20KT 9999 SCT030 BKN050 BKN060 650505 QNH2997INS BECMG 2205/2206 26010G15KT 9000 -SHRA FEW030 BKN045 620703 QNH2991INS TX15/2122Z TN09/2212Z",
    "KSEA": "TAF KSEA 211502Z 2115/2218 34005KT P6SM BKN250 FM212000 32007KT P6SM SCT250 FM220600 01006KT P6SM FEW250",
    "ZSPD": "TAF ZSPD 211501Z 2118/2224 19004MPS 6000 SCT030 TX32/2206Z TN26/2121Z TN27/2221Z",
    "ZSSS": "TAF ZSSS 211502Z 2118/2224 21004MPS 6000 SCT030 TX33/2206Z TN26/2121Z TN27/2221Z TEMPO 2206/2210 33007G12MPS TSRA BKN011 FEW030CB",
    "RJFR": "TAF RJFR 211105Z 2112/2218 28006KT 9999 FEW040 SCT050 BECMG 2118/2120 24004KT BECMG 2200/2203 04008KT BECMG 2203/2206 30010KT",
    "VHHH": "TAF VHHH 211400Z 2115/2221 18010KT 9999 FEW010 SCT025 TX32/2206Z TN28/2122Z TEMPO 2115/2120 10010KT TEMPO 2122/2204 4000 SHRA FEW010CB SCT020",
    "RCTP": "TAF RCTP 211100Z 2112/2218 23010KT 9999 FEW010 BKN032 TEMPO 2112/2118 16005KT TEMPO 2118/2124 24005KT TEMPO 2200/2206 31011KT TEMPO 2206/2212 30011KT",
    "ZGSZ": "TAF ZGSZ 211501Z 2118/2224 18004MPS 8000 SCT030 TX31/2206Z TN27/2122Z TN28/2222Z TEMPO 2200/2203 SHRA FEW020CB BKN030 TEMPO 2204/2207 -TSRA FEW020CB BKN030",
    "WSSS": "TAF WSSS 211100Z 2112/2218 17008KT 9999 FEW015 SCT020 TEMPO 2206/2209 3000 TSRA FEW012CB BKN015",
    "WMKK": "TAF WMKK 211100Z 2112/2218 VRB03KT 9999 FEW030",
    "VTBS": "TAF VTBS 211100Z 2112/2218 23008KT 9999 FEW020 TEMPO 2114/2118 VRB15KT 4000 TSRA FEW018CB SCT030 BKN100 TEMPO 2210/2214 VRB15KT 4000 TSRA FEW018CB SCT030 BKN100",
    "VTBU": "TAF VTBU 211100Z 2112/2212 23008KT 9999 FEW020",
    "ROAH": "TAF ROAH 211105Z 2112/2218 25006KT 9999 FEW008 SCT015 BECMG 2200/2203 29006KT TEMPO 2203/2209 4000 SHRA BR FEW005 BKN008 FEW015CB BECMG 2215/2218 11004KT",
    "VVDN": "TAF VVDN 211100Z 2112/2212 11010KT 9999 FEW020 BECMG 2112/2113 22006KT BECMG 2206/2207 10010KT TEMPO 2208/2212 TS SCT015 FEW017CB",
    "RCKH": "TAF RCKH 211100Z 2112/2218 22005KT 9999 FEW010 BKN032 TEMPO 2112/2118 15005KT TEMPO 2118/2124 09005KT TEMPO 2200/2206 26010KT TEMPO 2206/2212 25010KT",
    "KLAX": "TAF KLAX 211456Z 2115/2218 VRB03KT P6SM BKN150 FM211700 26006KT P6SM SCT250 FM212100 26012KT P6SM SCT250 FM220300 26008KT P6SM SCT250 FM220800 VRB03KT P6SM SCT250 FM221100 VRB03KT P6SM BKN008 FM221600 26006KT P6SM SCT250",
    "KONT": "TAF KONT 211120Z 2112/2218 VRB05KT P6SM FEW150 FM212200 25011G18KT P6SM FEW150 FM220400 25007KT P6SM SKC FM220800 VRB04KT P6SM SKC",
    "KSFO": "TAF KSFO 211503Z 2115/2218 03004KT P6SM FEW060 BKN100 FM211900 32009KT P6SM BKN150 FM212100 28014KT P6SM BKN150 FM220600 25006KT P6SM SCT010 BKN150",
    "KOAK": "TAF KOAK 211120Z 2112/2218 28003KT P6SM BKN150 FM212100 28010KT P6SM BKN150 FM220600 28006KT P6SM SCT010 BKN150",
    "KMHR": "TAF KMHR 211123Z 2112/2212 VRB05KT P6SM BKN250 FM212200 23009KT P6SM BKN250 FM220500 19008KT P6SM FEW250 FM220700 16005KT P6SM SKC",
    "KDFW": "TAF KDFW 211458Z 2115/2218 25006KT P6SM FEW250 FM211700 VRB05KT P6SM SCT080 FM220000 18005KT P6SM FEW080 FM221200 03007KT P6SM FEW250",
    "KIAH": "TAF KIAH 211458Z 2115/2218 25008KT P6SM FEW015 FEW250 FM212100 28003KT P6SM FEW060 FM220000 VRB05KT P6SM FEW050 SCT070",
    "KORD": "TAF KORD 211501Z 2115/2218 28011G19KT P6SM SCT040 SCT250 FM211700 30015G23KT P6SM BKN050 FM220200 02012G19KT P6SM SCT025 SCT150 FM220900 35011KT P6SM SCT040",
    "KJFK": "TAF KJFK 211434Z 2115/2218 15015G23KT P6SM VCSH SCT025 BKN050 PROB30 2115/2119 2SM TSRA BKN020CB FM211900 17015G24KT P6SM VCSH SCT025 BKN050 PROB30 2119/2122 3SM -TSRA BKN020CB FM212200 18015G24KT 5SM -SHRA BKN020 OVC050 TEMPO 2122/2202 26020G40KT 2SM TSRA BKN020CB FM220300 20014G23KT P6SM VCSH BKN025 BKN100 FM220600 22011KT 4SM BR VCSH BKN015 FM221200 24014KT P6SM BKN025 OVC040",
    "KRFD": "TAF KRFD 211501Z 2115/2212 29011G19KT P6SM SCT040 SCT250 FM211700 32015G23KT P6SM BKN050 FM220200 36012G19KT P6SM FEW025 SCT150",
    "KIND": "TAF KIND 211120Z 2112/2218 23009KT P6SM SCT035 OVC200 FM211300 25012G20KT P6SM SCT035 OVC200 PROB30 2114/2118 VRB18G28KT 3SM TSRA OVC020CB FM211800 29013G21KT P6SM SCT040 FM220000 33011KT P6SM FEW050 FM220300 35006KT P6SM FEW050 FM221200 01011KT P6SM FEW050",
    "KDTW": "TAF KDTW 211444Z 2115/2218 23013G23KT 6SM HZ SCT025 BKN050 BKN150 FM211700 28016G26KT P6SM BKN050 PROB30 2119/2123 5SM -TSRA SCT028 OVC040CB FM220000 33012G22KT P6SM SCT030 BKN045 FM220600 31011KT P6SM BKN040 FM221400 32012G20KT P6SM SCT050",
    "KMSP": "TAF KMSP 211448Z 2115/2218 33014G26KT P6SM FEW040 FM220400 02011KT P6SM FEW250 FM220500 01006KT P6SM FEW250",
    "CYEG": "TAF CYEG 211443Z 2115/2212 15004KT 4SM FU BR BKN050 TEMPO 2115/2117 2 1/2SM -SHRA FU BR FM211700 15007KT 5SM FU BKN015 TEMPO 2117/2120 6SM FU SCT015 BKN025 FM212000 14008KT 6SM FU SCT020 TEMPO 2120/2122 5SM FU BKN020 FM212200 13008KT P6SM SCT030 TEMPO 2122/2205 6SM VCSH FU BKN030 FM220500 16005KT P6SM VCFG FEW003 SCT012 FM220900 17005KT 1/2SM FG FU VV002 RMK NXT FCST BY 211800Z",
    "EHAM": "TAF EHAM 211116Z 2112/2218 32012KT 9999 FEW030 PROB30 TEMPO 2120/2203 BKN018 PROB30 TEMPO 2207/2211 5000 DZ -SHRA BKN016 SCT018TCU",
    "EBBR": "TAF EBBR 211116Z 2112/2218 33008KT 9999 SCT040",
    "EDDF": "TAF EDDF 211100Z 2112/2218 01008KT CAVOK BECMG 2119/2121 VRB03KT BECMG 2206/2208 30008KT",
    "EDFH": "TAF EDFH 211100Z 2112/2212 36008KT CAVOK BECMG 2119/2121 30004KT BECMG 2210/2212 31009KT",
    "EDDL": "TAF EDDL 211100Z 2112/2218 34008KT CAVOK BECMG 2119/2122 28004KT BECMG 2206/2209 30010KT",
    "EDDK": "TAF EDDK 211100Z 2112/2218 33009KT CAVOK BECMG 2118/2121 33004KT BECMG 2206/2209 31010KT",
    "EBLG": "TAF EBLG 211116Z 2112/2218 34007KT 9999 SCT035",
    "LSZH": "TAF LSZH 211425Z 2115/2221 06008KT 9999 FEW060 TX24/2115Z TN11/2204Z TX26/2215Z BECMG 2119/2122 35004KT CAVOK PROB30 TEMPO 2216/2218 30008KT",
    "LIMC": "TAF LIMC 211100Z 2112/2218 VRB05KT 9999 FEW050 PROB40 TEMPO 2112/2121 4000 SHRA",
    "LIRF": "TAF LIRF 211100Z 2112/2218 16010KT CAVOK BECMG 2114/2116 22012KT BECMG 2121/2123 34008KT BECMG 2203/2205 03012KT BECMG 2209/2211 30012KT",
    "EINN": "TAF EINN 211100Z 2112/2212 36010KT 9999 BKN020",
    "EGLL": "TAF AMD EGLL 211339Z 2113/2218 04008KT CAVOK TEMPO 2113/2117 BKN040 BECMG 2118/2121 12010KT BECMG 2203/2206 18003KT BECMG 2211/2214 05010KT",
    "EGSS": "TAF EGSS 211056Z 2112/2218 02010KT 9999 SCT030 BECMG 2118/2121 09005KT PROB30 2202/2206 7000",
    "EPWA": "TAF EPWA 211430Z 2115/2215 29016KT 9999 BKN018 TEMPO 2115/2118 28018G30KT -SHRA BKN012TCU BECMG 2118/2121 27006KT BECMG 2205/2208 28016KT TEMPO 2208/2212 29018G28KT TEMPO 2212/2215 30018G28KT -SHRA BKN040CB",
    "UHPP": "TAF UHPP 211342Z 2115/2221 18003G10MPS 6000 -SHRA BKN005 OVC017CB TEMPO 2115/2123 0700 FG VV002 BECMG 2123/2202 BKN020CB TEMPO 2206/2209 1000 BR VV003 TEMPO 2209/2221 0700 FG VV002",
    "EFHK": "TAF EFHK 211425Z 2115/2215 01004KT 9999 FEW011 SCT038 PROB30 TEMPO 2200/2208 BKN013",
    "LBBG": "TAF LBBG 211100Z 2112/2212 12012KT 9999 SCT045 PROB30 TEMPO 2112/2116 VRB16G26KT 4000 TSRA FEW030CB BKN040 BECMG 2119/2121 VRB03KT TEMPO 2202/2207 3000 SHRA BKN005 SCT020CB OVC040 BECMG 2207/2208 12012KT TEMPO 2208/2212 VRB18G30KT 5000 TSRA SCT030CB BKN040",
    "LTAC": "TAF LTAC 211040Z 2112/2212 35012KT 9999 FEW040 BECMG 2113/2115 CAVOK BECMG 2116/2118 VRB02KT",
    "UBBB": "TAF UBBB 211052Z 2112/2212 12006KT CAVOK TX32/2112Z TN21/2201Z TEMPO 2112/2116 09010KT SCT030 TEMPO 2120/2204 VRB04KT BECMG 2207/2209 15008KT TEMPO 2209/2212 18014KT SCT020",
    "UTAA": "TAF AMD UTAA 211300Z 2113/2212 31014G24KT 4000 DRDU SHRA SCT030 SCT030CB PROB30 TEMPO 2113/2118 VRB22G32KT 2000 BLDU -TSRA BKN020 SCT020CB BECMG 2121/2123 33012KT 6000 SCT030CB SCT100",
    "UACC": "TAF AMD UACC 211517Z 2115/2212 VRB01MPS 9999 SCT030CB BKN050 TX23/2210Z TN15/2123Z TEMPO 2115/2202 29005MPS 3100 -TSRA BKN011 BKN020CB BECMG 2202/2204 32005MPS TEMPO 2204/2212 36013MPS 3100 -TSRA BKN020CB",
    "UAAA": "TAF UAAA 211102Z 2112/2212 22003G08MPS 9999 BKN050CB OVC100 TX27/2210Z TN19/2200Z TEMPO 2112/2122 28010G16MPS 2500 TSRA BLDU SCT015CB TEMPO 2122/2124 15003MPS BECMG 2203/2205 04003MPS SCT050CB BKN100 TEMPO 2205/2212 14005G10MPS",
    "UZTT": "TAF UZTT 211100Z 2112/2212 34012KT 7000 FEW060CB BKN100 TEMPO 212/2118 27018G28KT 4000 -DS SCT060CB TEMPO 2118/2203 -TSRA BKN050CB",
    "ZWWW": "TAF ZWWW 211507Z 2118/2224 30008G16MPS CAVOK TX32/2209Z TN30/2123Z TN24/2223Z TEMPO 2119/2122 2500 SA BECMG 2203/2204 30004G09MPS BECMG 2213/2214 16004MPS",
    "ZLXY": "TAF ZLXY 211505Z 2118/2218 06003MPS 6000 NSC TX37/2208Z TN23/2122Z",
    "ZBAA": "TAF ZBAA 211501Z 2118/2224 18004MPS 6000 NSC TX29/2206Z TN24/2121Z TN22/2221Z TEMPO 2120/2123 -TSRA FEW030CB BKN040 TEMPO 2207/2211 -TSRA FEW030CB BKN040",
    "ZBHH": "TAF ZBHH 211516Z 2118/2218 36004MPS 9999 FEW040 TX29/2207Z TN14/2122Z BECMG 2208/2209 -TSRA SCT040CB SCT040 TEMPO 2209/2211 VRB10G18MPS 2800 +TSRAGR BECMG 2211/2212 NSW NSC",
    "ZSQD": "TAF ZSQD 211501Z 2118/2218 16004MPS 3500 BR NSC TX30/2206Z TN22/2120Z",
    "ZMCK": "TAF COR ZMCK 211046Z 2112/2218 VRB02MPS 9999 FEW030CB SCT033 TN13/2121Z TX26/2207Z PROB40 TEMPO 2112/2115 VRB08G13MPS TSRA SCT027CB SCT030 PROB40 TEMPO 2205/2212 VRB08G13MPS TSRA SCT027CB SCT030",
    "UUEE": "TAF UUEE 211351Z 2115/2215 23003MPS 9999 FEW007 BKN016 TX25/2212Z TN15/2202Z TEMPO 2115/2118 27008G13MPS -TSRA BKN016CB PROB40 TEMPO 2121/2204 0300 FG BKN002",
    "UUDD": "TAF UUDD 211353Z 2115/2221 26003MPS 9999 BKN020 TX25/2212Z TN15/2202Z TEMPO 2115/2119 26008G13MPS -TSRA BKN016CB PROB40 TEMPO 2122/2204 0300 FG BKN002 BECMG 2204/2206 20005MPS",
    "ULLI": "TAF ULLI 211357Z 2115/2215 03003MPS 6000 BKN010 OVC016 TEMPO 2115/2118 2500 -SHRA BR BKN004 BKN017CB TEMPO 2118/2206 0300 FG BKN002 OVC010 BECMG 2207/2209 BKN016 TEMPO 2210/2215 3100 -TSRA BKN016CB",
    "USSS": "TAF USSS 211352Z 2115/2215 03003G14MPS 9999 SCT040 FM211900 27003G08MPS 6000 SCT016 FM220500 33003G13MPS 9999 -SHRA SCT030CB",
    "UNNT": "TAF UNNT 211400Z 2115/2215 03003G08MPS 8000 BKN040 TX25/2210Z TN17/2122Z TEMPO 2115/2215 -TSRA BKN020CB",
    "UNKL": "TAF UNKL 211351Z 2115/2215 16003MPS 6000 SCT040 TEMPO 2118/2123 0250 FG VV002 TEMPO 2200/2215 -TSRA BKN020CB BECMG 2209/2211 27008G16MPS BECMG 2212/2214 24003G08MPS",
    "UIBB": "TAF UIBB 211400Z 2115/2215 11002MPS 9999 FEW001 SCT050CB TEMPO 2116/2201 0300 FG",
    "UEEE": "TAF UEEE 211400Z 2115/2221 32003MPS 9999 SCT040CB TX26/2206Z TN14/2119Z",
    "UHHH": "TAF UHHH 211351Z 2115/2221 02003MPS 6000 FEW003 TX30/2204Z TN18/2118Z TEMPO 2118/2123 0500 FG FM220000 06003G08MPS 9999 SCT020",
    "UHSS": "TAF UHSS 211358Z 2115/2221 VRB01MPS 0550 FG BKN002 BKN016CB BECMG 2121/2123 6000 NSW BKN020CB FM220000 33003MPS 9999 SCT030CB"
  },
  "atis": {},
  "windtemp_alaska": "\n000\nFBAK31 KWNO 211400\nFD1AK1\nDATA BASED ON 211200Z    \nVALID 211800Z   FOR USE 1400-2100Z. TEMPS NEG ABV 24000\n\nFT  3000    6000    9000   12000   18000   24000  30000  34000  39000\nADK 2724 2626+11 2630+07 2635+01 2740-08 2836-18 304733 305343 316154\nADQ 2139 2235+05 2341+01 2340-03 2432-15 2541-26 264943 276054 263050\nAKN 1926 2231+05 2227+02 2334-03 2445-15 2448-26 245343 245552 263548\nANC 1511 1617+00 1819-05 1824-09 2224-18 2528-29 255247 253348 211643\nANN 3208 2307+14 2108+08 2110+01 2227-13 2435-26 213942 214249 223754\nBET 1532 1625+01 1619-02 1623-07 2130-17 2237-29 234844 243843 252541\nBRW 0928 1018+10 1215+02 1118-04 1321-16 1323-28 132344 143153 142450\nBTI 1126 1312+12 1312+05 1216-01 1415-15 1424-27 143343 133652 142253\nBTT 2105 1309+07 1420+01 1423-04 1233-17 1142-29 125244 135551 143546\nCDB 2540 2547+10 2549+05 2548-01 2540-12 2838-25 304839 316050 304754\nCZF 0722 0624-02 0622-07 0821-11 1511-21 1612-34 221143 251838 261739\nEHM 2219 2319+04 2435+05 2441-01 2450-15 2456-28 266342 265946 274144\nFAI 2314 2114+03 1818-01 1631-05 1442-19 1345-31 135945 144945 153344\nFYU 2629 1313+11 1324+04 1330-03 1431-16 1433-28 153242 163950 163049\nGAL 1709 1408+00 1111-05 1319-10 1237-22 1244-33 133645 132443 142241\nGKN 1811 1816+02 1727-02 1728-08 1628-20 1633-33 182544 182344 172044\nHOM 1627 1728-01 2028-04 2227-07 2533-16 2653-27 266445 266252 252746\nJNU 9900 2305+09 1812+04 1719-02 1732-19 1745-30 166642 176448 193745\nLUR 1109 1117+02 1322-04 1231-09 1450-20 1471-31 138545 137450 123542\nMCG 1312 1416-01 1416-06 1521-10 1917-20 2126-31 212246 212243 181741\nMDO 2312 2311+00 2214-04 2116-08 2623-18 2734-28 285345 283951 241645\nOME 1119 1117-01 1118-07 1118-12 1319-23 1325-33 133446 141943 151538\nORT      2914+07 2008+01 1516-04 1430-18 1542-29 156243 156348 163346\nOTZ 1212 1416+01 1321-05 1225-11 1450-21 1366-32 137547 134746 142741\nSNP 3411 3014+06 2721+03 2731-02 2744-13 2758-23 790137 801747 307352\nTKA 1907 1616-01 1722-06 1824-10 1925-19 2530-30 253647 222045 181942\nUNK 1425 1326-01 1228-07 1321-12 1421-21 1719-32 152546 161943 161539\nYAK 2705 2605+03 1912-01 1914-06 1724-20 1631-33 155644 154044 181842\nIKO 2826 2625+10 2432+05 2537-01 2739-11 3046-20 315935 327046 338058\nAFM 0108 9900+03 1112-01 1116-07 1347-19 1263-30 127146 126350 133744\n5AB 2252 2252+09 2353+07 2547+05 2454-06 2550-16 264831 274942 275554\n5AC 3317 3015+10 2613+06 2413+01 3011-12 2717-26 242442 242950 233356\n5AD 2714 2714+03 2719+00 2923-03 2832-14 2829-27 283144 283454 272752\n5AE 2348 2446+07 2545+04 2442-01 2533-14 2733-26 273742 273853 272954\n5AF 3220 2812+05 2715+01 2518-05 2526-21 2744-31 265141 254344 233744\n5AG 2918 2916+02 2715-02 2715-07 2821-20 3151-29 317045 303947 251544\n",
  "vaac_active": [
    {
      "volcano": "TAAL",
      "volcano_jp": "タール",
      "advisory_nr": "2026/19",
      "obs_time": "2026-07-21 12:09Z",
      "issued_time": "2026-07-21 13:19Z",
      "text_url": "https://www.data.jma.go.jp/vaac/data/TextData/2026/20260721_27307000_0019_Text.html",
      "lat": 14.0,
      "lon": 121.0,
      "text": "FVFE01 RJTD 211319\nVA ADVISORY\nDTG: 20260721/1319Z\nVAAC: TOKYO\nVOLCANO: TAAL 273070\nPSN: N1400 E12100\nAREA: PHILIPPINES\nSOURCE ELEV: 311M AMSL\nADVISORY NR: 2026/19\nINFO SOURCE: HIMAWARI-9 PHIVOLCS\nERUPTION DETAILS: ERUPTION AT 20260721/1209Z FL110 REPORTED\nOBS VA DTG: 21/1250Z\nOBS VA CLD: SFC/FL110 N1404 E12056 - N1359 E12050 - N1354 E12057 - \nN1358 E12100 MOV W 15KT\nFCST VA CLD +6 HR: 21/1850Z SFC/FL130 N1329 E12051 - N1306 E12036 - \nN1322 E11953 - N1339 E12003\nFCST VA CLD +12 HR: 22/0050Z SFC/FL140 N1259 E12029 - N1227 E12001 - \nN1251 E11858 - N1320 E11911\nFCST VA CLD +18 HR: NO VA EXP\nRMK: NIL\nNXT ADVISORY: 20260721/1800Z="
    },
    {
      "volcano": "TAAL",
      "volcano_jp": "タール",
      "advisory_nr": "2026/18",
      "obs_time": "2026-07-21 12:09Z",
      "issued_time": "2026-07-21 12:40Z",
      "text_url": "https://www.data.jma.go.jp/vaac/data/TextData/2026/20260721_27307000_0018_Text.html",
      "lat": 14.0,
      "lon": 121.0,
      "text": "FVFE01 RJTD 211240\nVA ADVISORY\nDTG: 20260721/1240Z\nVAAC: TOKYO\nVOLCANO: TAAL 273070\nPSN: N1400 E12100\nAREA: PHILIPPINES\nSOURCE ELEV: 311M AMSL\nADVISORY NR: 2026/18\nINFO SOURCE: HIMAWARI-9 PHIVOLCS\nERUPTION DETAILS: ERUPTION AT 20260721/1209Z FL110 REPORTED\nOBS VA DTG: 21/1220Z\nOBS VA CLD: VA NOT IDENTIFIABLE FM SATELLITE DATA WIND FL110 050/8KT\nFCST VA CLD +6 HR: NOT AVBL\nFCST VA CLD +12 HR: NOT AVBL\nFCST VA CLD +18 HR: NOT AVBL\nRMK: WE WILL ISSUE FURTHER ADVISORY IF VA IS DETECTED IN SATELLITE \nIMAGERY.\nNXT ADVISORY: NO FURTHER ADVISORIES="
    },
    {
      "volcano": "TAAL",
      "volcano_jp": "タール",
      "advisory_nr": "2026/17",
      "obs_time": "2026-07-21 12:09Z",
      "issued_time": "2026-07-21 12:25Z",
      "text_url": "https://www.data.jma.go.jp/vaac/data/TextData/2026/20260721_27307000_0017_Text.html",
      "lat": 14.0,
      "lon": 121.0,
      "text": "FVFE01 RJTD 211225\nVA ADVISORY\nDTG: 20260721/1225Z\nVAAC: TOKYO\nVOLCANO: TAAL 273070\nPSN: N1400 E12100\nAREA: PHILIPPINES\nSOURCE ELEV: 311M AMSL\nADVISORY NR: 2026/17\nINFO SOURCE: HIMAWARI-9 PHIVOLCS\nERUPTION DETAILS: ERUPTION AT 20260721/1209Z FL040 REPORTED\nOBS VA DTG: 21/1210Z\nOBS VA CLD: VA NOT IDENTIFIABLE FM SATELLITE DATA WIND FL040 030/5KT\nFCST VA CLD +6 HR: NOT AVBL\nFCST VA CLD +12 HR: NOT AVBL\nFCST VA CLD +18 HR: NOT AVBL\nRMK: WE WILL ISSUE FURTHER ADVISORY IF VA IS DETECTED IN SATELLITE \nIMAGERY.\nNXT ADVISORY: NO FURTHER ADVISORIES="
    },
    {
      "volcano": "桜島",
      "volcano_jp": "桜島",
      "advisory_nr": "2026/87",
      "obs_time": "2026-07-21 11:20Z",
      "issued_time": "2026-07-21 11:50Z",
      "text_url": "https://www.data.jma.go.jp/vaac/data/TextData/2026/20260721_28208001_0087_Text.html",
      "lat": 31.6,
      "lon": 130.65,
      "text": "FVFE01 RJTD 211150\nVA ADVISORY\nDTG: 20260721/1150Z\nVAAC: TOKYO\nVOLCANO: SAKURAJIMA (AIRA CALDERA) 282080\nPSN: N3136 E13039\nAREA: JAPAN\nSOURCE ELEV: 1117M AMSL\nADVISORY NR: 2026/87\nINFO SOURCE: HIMAWARI-9\nERUPTION DETAILS: VA IS NOT IDENTIFIABLE IN SATELLITE IMAGERY.\nOBS VA DTG: 21/1120Z\nOBS VA CLD: VA NOT IDENTIFIABLE FM SATELLITE DATA WIND FL180 200/3KT\nFCST VA CLD +6 HR: NOT AVBL\nFCST VA CLD +12 HR: NOT AVBL\nFCST VA CLD +18 HR: NOT AVBL\nRMK: VA IS NOT IDENTIFIABLE DUE TO MET CLOUD OR HAS DISSIPATED. WE \nWILL ISSUE FURTHER ADVISORY IF VA DETECTED IN SATELLITE IMAGERY.\nNXT ADVISORY: NO FURTHER ADVISORIES="
    },
    {
      "volcano": "SHEVELUCH",
      "volcano_jp": "シベルチ",
      "advisory_nr": "2026/209",
      "obs_time": "2026-07-20 18:00Z",
      "issued_time": "2026-07-20 18:00Z",
      "text_url": "https://www.data.jma.go.jp/vaac/data/TextData/2026/20260720_30027000_0209_AN_Text.html",
      "lat": 56.65,
      "lon": 161.367,
      "text": "FVFE01 RJTD 201800\nVAAAK1\nVA ADVISORY\n\nDTG: 20260720/1800Z\n\nVAAC: ANCHORAGE\n\nVOLCANO: SHEVELUCH 300270\n\nPSN: N5639 E16122\n\nAREA: KAMCHATKA PENINSULA\n\nSOURCE ELEV: 10771 FT AMSL\n\nADVISORY NR: 2026/209\n\nINFO SOURCE: HIMAWARI\n\nERUPTION DETAILS: SOME PART OF VA OBSCURED BY MET CLOUDS.\n\nOBS VA DTG: 20/1800Z\n\nOBS VA CLD: SFC/FL400 N5214 E17533 - N4903 E17910 - N4837 E17630\n- N5202 E17358 - N5214 E17533 MOV SE 80KT\n\nFCST VA CLD +6HR: 21/0000Z SFC/FL400 N4926 E17911 - N4929 E17942\n- N4622 E17958 - N4624 E17905 - N4926 E17911 - N4926 E17911\n\nFCST VA CLD +12HR: 21/0600Z NO VA EXP\n\nFCST VA CLD +18HR: 21/1200Z NO VA EXP\n\nRMK: VAAC TOKYO HAS TRANSFERRED RESPONSIBILITY OF THIS EVENT\nTO VAAC ANCHORAGE. THIS ADVISORY UPDATES MESSAGE FVFE01 RJTD....TS\n\nNXT ADVISORY: WILL BE ISSUED BY 20260721/2100Z="
    }
  ],
  "vaac_tokyo": [
    {
      "id": "20260721_27307000_0019",
      "year": "2026",
      "volcano": "Taal",
      "psn": "N1400 E12100",
      "issued": "20260721",
      "text": "FVFE01 RJTD 211319\nVA ADVISORY\nDTG: 20260721/1319Z\nVAAC: TOKYO\nVOLCANO: TAAL 273070\nPSN: N1400 E12100\nAREA: PHILIPPINES\nSOURCE ELEV: 311M AMSL\nADVISORY NR: 2026/19\nINFO SOURCE: HIMAWARI-9 PHIVOLCS\nERUPTION DETAILS: ERUPTION AT 20260721/1209Z FL110 REPORTED\nOBS VA DTG: 21/1250Z\nOBS VA CLD: SFC/FL110 N1404 E12056 - N1359 E12050 - N1354 E12057 - \nN1358 E12100 MOV W 15KT\nFCST VA CLD +6 HR: 21/1850Z SFC/FL130 N1329 E12051 - N1306 E12036 - \nN1322 E11953 - N1339 E12003\nFCST VA CLD +12 HR: 22/0050Z SFC/FL140 N1259 E12029 - N1227 E12001 - \nN1251 E11858 - N1320 E11911\nFCST VA CLD +18 HR: NO VA EXP\nRMK: NIL\nNXT ADVISORY: 20260721/1800Z=",
      "img_url": "https://ds.data.jma.go.jp/svd/vaac/data/VAGFN/2026/Images/20260721_27307000_0019_QH21_01.png",
      "sat_img_url": "https://ds.data.jma.go.jp/svd/vaac/data/Sat/2026/Images/27307000/09-ir/20260721_1250_202607211319_ir.png",
      "text_url": "https://ds.data.jma.go.jp/svd/vaac/data/TextData/2026/20260721_27307000_0019_Text.html"
    },
    {
      "id": "20260721_28208001_0086",
      "year": "2026",
      "volcano": null,
      "psn": "N3136 E13039",
      "issued": "20260721",
      "text": "FVFE01 RJTD 210627\nVA ADVISORY\nDTG: 20260721/0627Z\nVAAC: TOKYO\nVOLCANO: SAKURAJIMA (AIRA CALDERA) 282080\nPSN: N3136 E13039\nAREA: JAPAN\nSOURCE ELEV: 1117M AMSL\nADVISORY NR: 2026/86\nINFO SOURCE: JMA HIMAWARI-9\nERUPTION DETAILS: ERUPTED AT 20260721/0514Z FL140 STNR\nOBS VA DTG: 21/0610Z\nOBS VA CLD: SFC/FL140 N3140 E13037 - N3139 E13043 - N3131 E13043 - \nN3131 E13036 MOV S 5KT\nFCST VA CLD +6 HR: 21/1210Z SFC/FL140 N3207 E13054 - N3118 E13054 - \nN3119 E13021 - N3159 E13012\nFCST VA CLD +12 HR: 21/1810Z SFC/FL140 N3224 E13103 - N3138 E13035 - \nN3138 E12953 - N3315 E13009\nFCST VA CLD +18 HR: NO VA EXP\nRMK: NIL\nNXT ADVISORY: 20260721/1200Z=",
      "img_url": "https://ds.data.jma.go.jp/svd/vaac/data/VAGFN/2026/Images/20260721_28208001_0086_QH21_01.png",
      "sat_img_url": "https://ds.data.jma.go.jp/svd/vaac/data/Sat/2026/Images/28208001/09-ir/20260721_0610_202607210627_ir.png",
      "text_url": "https://ds.data.jma.go.jp/svd/vaac/data/TextData/2026/20260721_28208001_0086_Text.html"
    },
    {
      "id": "20260720_30027000_0272",
      "year": "2026",
      "volcano": "Sheveluch",
      "psn": "N5639 E16122",
      "issued": "20260720",
      "text": "FVFE01 RJTD 201500\nVA ADVISORY\nDTG: 20260720/1500Z\nVAAC: TOKYO\nVOLCANO: SHEVELUCH 300270\nPSN: N5639 E16122\nAREA: RUSSIA\nSOURCE ELEV: 3283M AMSL\nADVISORY NR: 2026/272\nINFO SOURCE: HIMAWARI-9\nERUPTION DETAILS: VA CONTINUOUSLY OBS IN SATELLITE IMAGERY\nOBS VA DTG: 20/1420Z\nOBS VA CLD: SFC/FL390 N5626 E16711 - N5644 E16801 - N5334 E17100 - \nN5320 E17046 - N5455 E16741 MOV SE 80KT\nFCST VA CLD +6 HR: 20/2020Z SFC/FL400 N5451 E17745 - N5237 E17715 - \nN5013 E17845 - N5030 E17644 - N5236 E17455 - N5459 E17606\nFCST VA CLD +12 HR: 21/0220Z SFC/FL400 N5255 W17530 - N4753 W17642 - \nN4554 W17523 - N4517 W17545 - N4651 W17824 - N5004 W17948\nFCST VA CLD +18 HR: 21/0820Z SFC/FL400 N5101 W17024 - N4432 W17322 - \nN4036 W16942 - N4024 W17143 - N4405 W17542 - N4722 W17530\nRMK: SOME PART OF VA OBSCURED BY MET CLOUD. THE RESPONSIBILITY FOR \nTHIS ASH EVENT IS BEING TRANSFERRED TO VAAC ANCHORAGE. THE NEXT \nADVISORY WILL BE ISSUED BY VAAC ANCHORAGE BY 1800UTC UNDER HEADER \nFVAK21 PAWU.\nNXT ADVISORY: NO FURTHER ADVISORIES=",
      "img_url": "https://ds.data.jma.go.jp/svd/vaac/data/VAGFN/2026/Images/20260720_30027000_0272_QH21_01.png",
      "sat_img_url": "https://ds.data.jma.go.jp/svd/vaac/data/Sat/2026/Images/30027000/09-ir/20260720_1420_202607201500_ir.png",
      "text_url": "https://ds.data.jma.go.jp/svd/vaac/data/TextData/2026/20260720_30027000_0272_Text.html"
    },
    {
      "id": "20260719_27303000_0769",
      "year": "2026",
      "volcano": "Mayon",
      "psn": "N1315 E12341",
      "issued": "20260719",
      "text": "FVFE01 RJTD 192213\nVA ADVISORY\nDTG: 20260719/2213Z\nVAAC: TOKYO\nVOLCANO: MAYON 273030\nPSN: N1315 E12341\nAREA: PHILIPPINES\nSOURCE ELEV: 2462M AMSL\nADVISORY NR: 2026/769\nINFO SOURCE: HIMAWARI-9 PHIVOLCS\nERUPTION DETAILS: ERUPTION AT 20260719/2148Z FL080 EXTD W REPORTED\nOBS VA DTG: 19/2200Z\nOBS VA CLD: VA NOT IDENTIFIABLE FM SATELLITE DATA WIND FL080 010/2KT\nFCST VA CLD +6 HR: NOT AVBL\nFCST VA CLD +12 HR: NOT AVBL\nFCST VA CLD +18 HR: NOT AVBL\nRMK: WE WILL ISSUE FURTHER ADVISORY IF VA IS DETECTED IN SATELLITE \nIMAGERY.\nNXT ADVISORY: NO FURTHER ADVISORIES=",
      "img_url": "https://ds.data.jma.go.jp/svd/vaac/data/VAGFN/2026/Images/20260719_27303000_0769_QH21_01.png",
      "sat_img_url": null,
      "text_url": "https://ds.data.jma.go.jp/svd/vaac/data/TextData/2026/20260719_27303000_0769_Text.html"
    }
  ],
  "vaac_alaska": [
    {
      "text": "\n000\nFVAK21 PAWU 210244\nVAAAK1\nVA ADVISORY\n\nDTG: 20260721/0242Z\n\nVAAC: ANCHORAGE\n\nVOLCANO: SHEVELUCH 300270\n\nPSN: N5639 E16122\n\nAREA: KAMCHATKA PENINSULA\n\nSOURCE ELEV: 10771 FT AMSL\n\nADVISORY NR: 2026/212\n\nINFO SOURCE: HIMAWARI\n\nERUPTION DETAILS: NIL\n\nOBS VA DTG: 21/0242Z\n\nOBS VA CLD: VA NOT IDENTIFIABLE FROM SATELLITE DATA\n\nFCST VA CLD +6HR: NO VA EXP\n\nFCST VA CLD +12HR: NO VA EXP\n\nFCST VA CLD +18HR: NO VA EXP\n\nRMK: NIL...BH\n\nNXT ADVISORY: NO FURTHER ADVISORIES=\n\n",
      "issued": "2026-07-21T02:44:00+00:00",
      "volcano": "Sheveluch",
      "psn": "N5639 E16122"
    }
  ]
}