{
  "updated_utc": "2026-07-05T15:49Z",
  "metar": {
    "RJAA": "METAR RJAA 051400Z AUTO 13007KT 9999 FEW007 SCT110 BKN140 22/19 Q1012 NOSIG",
    "PANC": "METAR PANC 051353Z 00000KT 10SM FEW030 SCT075 BKN130 11/08 A2993 RMK AO2 SLP136 T01110083 $",
    "PAFA": "METAR PAFA 051353Z 04003KT 10SM FEW070 BKN110 11/09 A2993 RMK AO2 SLP138 T01060089 $",
    "PAED": "METAR PAED 051355Z 00000KT 10SM SCT080 BKN120 11/08 A2991 RMK AO2A SLP125 T01050083 $",
    "KSEA": "METAR KSEA 051353Z 01010KT 10SM FEW012 SCT040 SCT220 13/10 A3015 RMK AO2 SLP215 T01330100 $",
    "ZSPD": "METAR ZSPD 051400Z 21002MPS CAVOK 27/25 Q1005 NOSIG",
    "ZSSS": "METAR ZSSS 051400Z 20004MPS 160V230 CAVOK 27/25 Q1005 NOSIG",
    "RJFR": "METAR RJFR 051400Z 09006KT 8000 FEW001 SCT006 BKN010 24/24 Q1008",
    "VHHH": "METAR VHHH 051400Z 15013KT 120V180 9999 FEW010 SCT025 30/26 Q1008 NOSIG",
    "RCTP": "METAR RCTP 051400Z 19006KT 160V220 9999 FEW015 BKN070 29/26 Q1011 NOSIG RMK A2987",
    "ZGSZ": "METAR ZGSZ 051400Z 16007MPS 9999 SCT033 BKN050 29/26 Q1008 NOSIG",
    "WSSS": "METAR WSSS 051400Z VRB02KT 9999 FEW018 SCT160 27/26 Q1012 NOSIG",
    "WMKK": "METAR WMKK 051400Z 00000KT 9000 FEW017CB 27/26 Q1011 NOSIG",
    "WIDD": "METAR WIDD 051400Z VRB01KT 9999 FEW014 27/25 Q1012 NOSIG",
    "VTBS": "METAR VTBS 051400Z 20012KT 9999 FEW020 30/25 Q1009 NOSIG",
    "VTBU": "METAR VTBU 051400Z 20010KT 9999 FEW020 29/28 Q1010 NOSIG",
    "ROAH": "METAR ROAH 051400Z AUTO 19003KT 9999 NCD 28/26 Q1013",
    "VVDN": "METAR VVDN 051400Z 22005KT 190V260 9999 FEW017 29/23 Q1007 NOSIG",
    "RCKH": "METAR RCKH 051400Z 18006KT 140V210 9999 FEW014 SCT026 30/24 Q1012 NOSIG RMK A2989",
    "KLAX": "METAR KLAX 051353Z 27005KT 10SM SCT010 BKN160 BKN210 BKN250 19/16 A2999 RMK AO2 SLP154 T01890161",
    "KONT": "METAR KONT 051353Z 19004KT 1 1/2SM FU BKN240 20/14 A3000 RMK AO2 SLP140 T02000139 $",
    "KSFO": "METAR KSFO 051356Z 25007KT 10SM FEW006 BKN014 14/11 A3001 RMK AO2 SLP161 T01390111 $",
    "KOAK": "METAR KOAK 051353Z 26007KT 10SM OVC009 14/12 A3001 RMK AO2 SLP162 T01440122 $",
    "KMHR": "METAR KMHR 051355Z AUTO 15006KT 10SM CLR 15/12 A2994 RMK AO2 T01450115",
    "KDFW": "METAR KDFW 051353Z 19012KT 10SM FEW050 FEW200 BKN250 29/21 A2999 RMK AO2 SLP143 T02940211 $",
    "KIAH": "METAR KIAH 051353Z 27006KT 10SM FEW015 FEW070 BKN250 29/25 A3003 RMK AO2 SLP168 T02890250",
    "KORD": "METAR KORD 051351Z 34006KT 5SM BR OVC006 21/19 A2996 RMK AO2 SLP141 T02060194 $",
    "KJFK": "METAR KJFK 051351Z VRB04KT 10SM SCT022 SCT090 BKN150 BKN250 26/21 A2999 RMK SLP154 T02610211 $",
    "KRFD": "METAR KRFD 051354Z 34007KT 10SM FEW016 SCT180 OVC250 22/18 A3001 RMK AO2 SLP157 T02170183 $",
    "KIND": "METAR KIND 051354Z 27004KT 10SM OVC009 23/21 A2995 RMK AO2 SLP135 T02330211 $",
    "KDTW": "METAR KDTW 051353Z 04005KT 1 1/4SM RA BR OVC005 22/21 A2996 RMK AO2 TWR VIS 4 TSE50 SLP142 OCNL LTGICCC DSNT SE-SW CB DSNT SE-SW TS MOV NE P0010 T02170211 $",
    "KMSP": "METAR KMSP 051353Z 10003KT 7SM BKN005 21/18 A3007 RMK AO2 SLP181 T02060183 $",
    "CYEG": "METAR CYEG 051400Z 26008KT 20SM BKN100 12/10 A3001 RMK AC6 SH DIST NE ACC ASOCTD SLP172",
    "EHAM": "METAR EHAM 051355Z 29015KT 260V320 9999 FEW014 BKN016 BKN024 19/15 Q1022 TEMPO SCT016",
    "EBBR": "METAR EBBR 051350Z 29011KT 250V310 9999 FEW033 23/15 Q1023 NOSIG",
    "EDDF": "METAR EDDF 051350Z AUTO 30008KT 240V350 9999 FEW049 26/13 Q1020 TEMPO SHRA BKN040TCU",
    "EDFH": "METAR EDFH 051350Z 29011KT 240V330 9999 FEW036 21/12 Q1023",
    "EDDL": "METAR EDDL 051350Z AUTO 29013KT 250V330 9999 FEW035 SCT047 24/14 Q1021 NOSIG",
    "EDDK": "METAR EDDK 051350Z AUTO 28013KT 250V320 9999 VCSH FEW035 FEW///TCU 22/14 Q1021 RESHRA NOSIG",
    "EBLG": "METAR EBLG 051350Z 29010KT 9999 SCT035 SCT040 21/14 Q1023 NOSIG",
    "LSZH": "METAR LSZH 051350Z 30013KT 9999 SCT075 28/09 Q1022 NOSIG",
    "LIMC": "METAR LIMC 051350Z 25009KT 220V290 CAVOK 33/10 Q1017 NOSIG",
    "LIRF": "METAR LIRF 051350Z 24014KT CAVOK 30/21 Q1017 NOSIG",
    "EINN": "METAR EINN 051400Z 29008KT 260V330 9999 BKN016 BKN200 21/17 Q1025 NOSIG",
    "EGLL": "METAR EGLL 051350Z AUTO 31010KT 280V340 9999 NCD 27/14 Q1023",
    "EGSS": "METAR EGSS 051350Z 29007KT 250V360 9999 BKN036 24/14 Q1024",
    "EPWA": "METAR EPWA 051400Z 25012KT 9999 SCT033 20/13 Q1009 TEMPO 4000 SHRA",
    "UHPP": "METAR UHPP 051400Z 00000MPS 9999 BKN010 07/07 Q1018 R16R/CLRD62 NOSIG RMK QFE761/1014",
    "EFHK": "METAR EFHK 051350Z 31007KT 9999 -SHRA FEW010 FEW020CB 16/15 Q0999 TEMPO SHRA",
    "LBBG": "METAR LBBG 051400Z 12009KT 9999 FEW036TCU 25/15 Q1014 NOSIG",
    "LTAC": "METAR LTAC 051350Z 06013KT 9999 SCT040 BKN080 24/10 Q1013 NOSIG",
    "UBBB": "METAR UBBB 051400Z 02010KT CAVOK 29/18 Q1006 NOSIG",
    "UTAA": "METAR UTAA 051400Z 30006KT 270V350 9999 FEW050 SCT100 39/05 Q1003 R88/CLRD70 NOSIG",
    "UACC": "METAR UACC 051400Z 09002MPS 020V110 9999 VCTS SCT040CB 24/15 Q1007 NOSIG RMK QFE724/0966",
    "UAAA": "METAR UAAA 051400Z 09003MPS 9999 SCT050CB 27/14 Q1009 NOSIG",
    "UZTT": "METAR UZTT 051400Z 03006KT 360V080 CAVOK 33/07 Q1005 NOSIG",
    "ZWWW": "METAR ZWWW 051400Z 29003MPS 260V320 9999 BKN046 27/14 Q1010 NOSIG",
    "ZLXY": "METAR ZLXY 051400Z VRB01MPS CAVOK 28/19 Q0997 NOSIG",
    "ZBAA": "METAR ZBAA 051400Z 03002MPS 350V090 9999 FEW050CB 23/17 Q0999 NOSIG",
    "ZBHH": "METAR ZBHH 051400Z 07002MPS 030V130 CAVOK 20/13 Q1005 NOSIG",
    "ZSQD": "METAR ZSQD 051400Z 13004MPS CAVOK 26/24 Q0999 BECMG TL1510 35005MPS",
    "ZMCK": "METAR ZMCK 051400Z 01005MPS 9999 FEW030CB FEW033 20/11 Q1011 NOSIG RMK QFE643.7 58 NT",
    "UUEE": "METAR UUEE 051400Z 20004MPS 170V240 9999 SCT041TCU 22/12 Q0999 R24L/CLRD62 R24C/CLRD62 NOSIG",
    "UUDD": "METAR UUDD 051400Z 23004MPS 190V280 9999 SCT043 21/13 Q1000 R13R/CLRD65 NOSIG",
    "ULLI": "METAR ULLI 051400Z 04003MPS 360V090 6000 2500SW -SHRA BKN017CB BKN036 17/15 Q0997 R88/290050 NOSIG",
    "USSS": "METAR USSS 051400Z 16001MPS 9999 SCT050CB 27/19 Q1008 R26R/CLRD60 R26L/CLRD60 NOSIG RMK QFE735/0980",
    "UNNT": "METAR UNNT 051400Z 31001MPS 9999 SCT043CB 26/20 Q1004 R25/CLRD// R34/////// NOSIG RMK QFE743/0991",
    "UNKL": "METAR UNKL 051400Z 00000MPS 9999 SCT040 24/21 Q1003 R11/CLRD// NOSIG RMK QFE727",
    "UIBB": "METAR UIBB 051400Z VRB01MPS 9999 NSC 21/18 Q1008 R12/CLRD62 NOSIG RMK QFE713/0951",
    "UEEE": "METAR UEEE 051400Z 31003MPS CAVOK 18/06 Q1012 R23/09//63 NOSIG RMK QFE750",
    "UHHH": "METAR UHHH 051400Z 02004MPS 350V050 6000 -SHRA FEW006 SCT018CB 17/17 Q1008 R05L/290045 NOSIG RMK QBB180 QFE750/1000",
    "UHSS": "METAR UHSS 051400Z 36005MPS 9999 NSC 12/11 Q1015 RMK QFE760/1013"
  },
  "taf": {
    "RJAA": "TAF RJAA 051105Z 0512/0618 11006KT 9999 FEW020 SCT040 TEMPO 0516/0518 FEW005 BKN008 TEMPO 0518/0521 FEW003 BKN005 BECMG 0609/0612 02006KT",
    "PANC": "TAF PANC 051128Z 0512/0618 03005KT P6SM VCSH SCT070 OVC100 FM060000 16012G22KT P6SM SCT060 BKN090 FM060900 14006KT P6SM BKN070",
    "PAFA": "TAF PAFA 051121Z 0512/0618 VRB04KT P6SM SCT050 BKN100 FM052200 05004KT P6SM VCTS BKN050CB FM060600 01003KT P6SM BKN070",
    "PAED": "TAF PAED 051300Z 0513/0619 VRB05KT 9999 SCT060 BKN100 QNH2990INS BECMG 0521/0522 24009KT 9999 -SHRA BKN060 OVC090 QNH2989INS BECMG 0601/0602 VRB05KT 9999 NSW SCT070 BKN090 QNH2987INS TX16/0522Z TN10/0515Z",
    "KSEA": "TAF KSEA 051503Z 0515/0618 03010KT P6SM BKN011 OVC015 FM051800 35009KT P6SM SCT040 FM052300 36010G18KT P6SM FEW250 FM060900 01006KT P6SM SCT035 BKN060 FM061100 36005KT P6SM FEW040",
    "ZSPD": "TAF ZSPD 050905Z 0512/0618 20004MPS 6000 -SHRA BKN020 TX27/0512Z TX31/0606Z TN25/0521Z BECMG 0523/0524 NSW",
    "ZSSS": "TAF ZSSS 050903Z 0512/0618 20004MPS 6000 -SHRA BKN030 TX27/0512Z TX31/0606Z TN25/0521Z BECMG 0523/0524 NSW",
    "RJFR": "TAF RJFR 051105Z 0512/0618 09008KT 8000 -SHRA FEW005 SCT007 BKN012 BECMG 0513/0515 07006KT TEMPO 0513/0519 4000 -TSRA BR BKN005 BKN009 FEW020CB BECMG 0520/0522 24004KT",
    "VHHH": "TAF VHHH 051400Z 0515/0621 16015KT 9999 FEW010 SCT025 TX32/0606Z TN28/0522Z TEMPO 0515/0518 3500 SHRA FEW010CB SCT020 TEMPO 0600/0606 3500 SHRA FEW010CB SCT020 TEMPO 0603/0609 16015G25KT",
    "RCTP": "TAF RCTP 051100Z 0512/0618 21005KT 9999 FEW015 TEMPO 0518/0524 15005KT BECMG 0600/0602 31010KT BECMG 0610/0612 20005KT",
    "ZGSZ": "TAF AMD ZGSZ 051431Z 0512/0618 18005MPS 8000 BKN040 TX29/0512Z TX32/0606Z TN28/0522Z TEMPO 0515/0519 SHRA FEW020 FEW025CB BKN030 TEMPO 0523/0602 SHRA FEW020 FEW025CB BKN030 TEMPO 0604/0607 TSRA SCT020 FEW025CB BKN030 TEMPO 0609/0612 SHRA SCT020 FEW025CB BKN030",
    "WSSS": "TAF WSSS 051100Z 0512/0618 15007KT 9999 FEW015 SCT020",
    "WMKK": "TAF WMKK 051100Z 0512/0618 VRB03KT 9000 FEW030 PROB30 TEMPO 0516/0520 5000 TSRA FEW016CB SCT028",
    "VTBS": "TAF VTBS 051100Z 0512/0618 21008KT 9999 FEW020 TEMPO 0512/0516 VRB15KT 4000 TSRA FEW018CB SCT030 BKN100 TEMPO 0608/0612 VRB15KT 4000 TSRA FEW018CB SCT030 BKN100",
    "VTBU": "TAF VTBU 051100Z 0512/0612 20008KT 9000 FEW020",
    "ROAH": "TAF ROAH 051105Z 0512/0618 21005KT 9999 FEW015",
    "VVDN": "TAF VVDN 051100Z 0512/0612 22008KT 9999 FEW020 BKN070",
    "RCKH": "TAF RCKH 051100Z 0512/0618 15005KT 9999 FEW015 TEMPO 0517/0523 09005KT BECMG 0523/0601 20010KT BECMG 0610/0612 18005KT",
    "KLAX": "TAF KLAX 051450Z 0515/0618 26006KT P6SM SCT010 FM051800 26006KT P6SM FEW250 FM052100 26012KT P6SM SCT250 FM060700 26008KT P6SM SCT008 FM061000 VRB03KT P6SM BKN008",
    "KONT": "TAF KONT 051456Z 0515/0618 VRB05KT 3SM HZ FU SCT250 TEMPO 0515/0517 1 1/2SM FU FM052000 26012KT P6SM FEW250 FM060500 25006KT P6SM SKC",
    "KSFO": "TAF KSFO 051440Z 0515/0618 26007KT P6SM BKN014 FM051700 32010KT P6SM SCT015 FM052100 29016KT P6SM SCT250 FM060700 27009KT P6SM OVC015",
    "KOAK": "TAF KOAK 051125Z 0512/0618 28008KT P6SM OVC008 FM051800 29010KT P6SM SCT250 FM052100 29016KT P6SM SCT250 FM060400 28012KT P6SM OVC012 FM060600 27009KT P6SM OVC008",
    "KMHR": "TAF KMHR 051120Z 0512/0612 15007KT P6SM SCT250 FM051700 22010KT P6SM VCSH BKN150 FM060000 22012KT P6SM SCT250 FM060500 15008KT P6SM FEW250",
    "KDFW": "TAF KDFW 051443Z 0515/0618 17008KT P6SM SCT250 FM052000 18008KT P6SM VCTS SCT050CB TEMPO 0520/0524 36015G35KT 5SM -TSRA BKN050CB FM060000 01010KT P6SM SCT100 FM060500 10005KT P6SM FEW250",
    "KIAH": "TAF KIAH 051456Z 0515/0618 26004KT P6SM SCT020 BKN250 FM052000 20007KT P6SM FEW050 SCT250 PROB30 0601/0606 6SM -TSRA BR BKN035CB",
    "KORD": "TAF KORD 051504Z 0515/0618 36010KT 5SM BR VCSH OVC007 FM051700 02012KT 6SM BR VCSH BKN009 OVC015 PROB30 0517/0522 4SM -SHRA SCT009 OVC012 FM052200 03012KT P6SM BKN015 FM060300 01006KT P6SM FEW035 SCT250",
    "KJFK": "TAF KJFK 051439Z 0515/0618 18006KT P6SM SCT015 SCT040 SCT150 FM052000 14008KT P6SM FEW030 OVC100 TEMPO 0520/0524 2SM TSRA BKN030CB FM060000 11007KT 5SM -SHRA SCT030 BKN050 FM060600 08007KT 3SM -RA BR BKN007 OVC015 FM061300 08012G18KT 2SM RA BR BKN007 OVC012",
    "KRFD": "TAF KRFD 051504Z 0515/0612 35009KT P6SM SCT015 BKN250 FM051600 01009KT P6SM BKN020 FM051800 04012KT P6SM SCT025 BKN035 FM060100 02006KT P6SM FEW035 SCT250",
    "KIND": "TAF KIND 051506Z 0515/0618 00000KT P6SM OVC011 FM051800 27004KT P6SM SCT015 BKN035 FM052100 29009KT P6SM VCTS BKN035CB BKN080 FM060200 32008KT P6SM BKN050 BKN080 FM060800 33007KT P6SM BKN010 OVC035 TEMPO 0609/0612 5SM BR OVC005",
    "KDTW": "TAF KDTW 051407Z 0514/0618 04007KT 1 1/2SM TSRA BR BKN005 OVC017CB TEMPO 0514/0516 4SM -SHRA BR SCT005 OVC020 FM051600 06008KT P6SM -SHRA BKN035 OVC090 PROB30 0518/0522 2SM +TSRA BKN025CB OVC040 FM060300 06007KT P6SM BKN030 BKN100 FM061200 05009KT P6SM SCT050 BKN100",
    "KMSP": "TAF KMSP 051453Z 0515/0618 08003KT P6SM FEW050 SCT100 FM060200 10004KT P6SM SKC FM061000 13004KT P6SM SCT150",
    "CYEG": "TAF CYEG 051440Z 0515/0612 25006KT P6SM SCT050 BKN100 TEMPO 0515/0521 P6SM -SHRA BKN050 FM052100 31010KT P6SM SCT050 TEMPO 0521/0601 VRB15G25KT P6SM -SHRA VCTS BKN050CB FM060100 31010KT P6SM SCT040 TEMPO 0601/0603 P6SM -SHRA BKN040 FM060300 30008KT P6SM FEW040 BECMG 0604/0606 23005KT RMK NXT FCST BY 051800Z",
    "EHAM": "TAF EHAM 051109Z 0512/0618 29013KT 9999 SCT016 BKN030 TEMPO 0512/0515 BKN016 PROB30 TEMPO 0512/0514 7000 -RADZ BKN014 BECMG 0519/0522 21006KT BECMG 0605/0608 28013KT BECMG 0615/0618 28004KT",
    "EBBR": "TAF EBBR 051106Z 0512/0618 32010KT 9999 SCT040 BECMG 0518/0520 26004KT BECMG 0603/0606 20010KT BECMG 0606/0609 27012KT",
    "EDDF": "TAF EDDF 051100Z 0512/0618 28011KT 9999 SCT020 BKN035 TEMPO 0512/0518 30015G25KT SHRA BKN030CB BECMG 0519/0521 28006KT BECMG 0605/0607 22006KT BECMG 0609/0611 25011KT PROB30 TEMPO 0612/0618 26015G25KT",
    "EDFH": "TAF EDFH 051100Z 0512/0612 30010KT 9999 SCT030 TEMPO 0512/0518 30015G25KT SHRA BKN025CB BECMG 0518/0521 28004KT BECMG 0607/0609 27010KT",
    "EDDL": "TAF EDDL 051100Z 0512/0618 30011KT 9999 BKN040 PROB30 TEMPO 0512/0516 30015G25KT SHRA BKN030TCU BECMG 0518/0521 30006KT BECMG 0522/0601 21004KT BECMG 0604/0606 22009KT BECMG 0608/0611 27014KT PROB30 TEMPO 0611/0618 29015G25KT",
    "EDDK": "TAF AMD EDDK 051302Z 0513/0618 30011KT 9999 BKN030 PROB40 TEMPO 0513/0516 30015G25KT SHRA BKN030TCU BECMG 0520/0522 28006KT BECMG 0600/0603 17004KT BECMG 0606/0608 24007KT BECMG 0609/0612 28012KT PROB30 TEMPO 0612/0618 30015G25KT",
    "EBLG": "TAF EBLG 051106Z 0512/0618 32010KT 9999 SCT030 BECMG 0518/0520 26004KT BECMG 0603/0606 20010KT BECMG 0606/0609 27012KT",
    "LSZH": "TAF LSZH 051425Z 0515/0621 30012KT 9999 FEW060 TX30/0515Z TN15/0604Z TX30/0615Z PROB40 TEMPO 0515/0516 32015G25KT PROB30 TEMPO 0515/0517 FEW060TCU BECMG 0517/0520 33004KT CAVOK PROB40 TEMPO 0612/0616 29008KT",
    "LIMC": "TAF LIMC 051100Z 0512/0618 VRB05KT CAVOK BECMG 0521/0523 01010KT BECMG 0604/0606 VRB05KT",
    "LIRF": "TAF LIRF 051100Z 0512/0618 26010KT CAVOK BECMG 0518/0520 VRB05KT BECMG 0600/0602 2000 BCFG TEMPO 0602/0604 0500 FG BECMG 0604/0606 9999 BECMG 0609/0611 26010KT",
    "EINN": "TAF AMD EINN 051434Z 0514/0612 30010KT 9999 BKN020 BECMG 0514/0516 26008KT BECMG 0521/0523 BKN010 PROB30 TEMPO 0606/0609 -DZ BKN007 BECMG 0609/0611 SCT025",
    "EGLL": "TAF EGLL 051053Z 0512/0618 27009KT 9999 SCT035 PROB30 TEMPO 0604/0608 BKN006 PROB30 TEMPO 0613/0618 27015G25KT",
    "EGSS": "TAF EGSS 051055Z 0512/0618 28008KT 9999 SCT030 PROB30 TEMPO 0614/0617 27015G25KT",
    "EPWA": "TAF EPWA 051430Z 0515/0615 27012KT 9999 SCT030 TEMPO 0515/0518 28015G25KT 4000 SHRA SCT025CB PROB40 TEMPO 0515/0517 30020G35KT 2500 TSRA BKN014 BKN020CB TEMPO 0608/0615 30017G27KT ",
    "UHPP": "TAF UHPP 051334Z 0515/0621 18003G10MPS 9999 BKN030 TEMPO 0515/0522 0700 FG VV002",
    "EFHK": "TAF EFHK 051436Z 0515/0615 31004KT 9999 FEW010 TEMPO 0515/0521 5000 TSRA SCT020CB TEMPO 0521/0607 5000 SHRA BKN007 SCT020CB PROB30 TEMPO 0521/0605 3000 -TSRA BR BKN003 SCT020CB BECMG 0607/0609 BKN012 BECMG 0609/0611 29014G24KT BKN015",
    "LBBG": "TAF LBBG 051100Z 0512/0612 12012KT 9999 SCT045 PROB40 TEMPO 0512/0515 5000 SHRA FEW030CB SCT040 BECMG 0518/0520 VRB04KT BECMG 0608/0610 12012KT",
    "LTAC": "TAF LTAC 051040Z 0512/0612 04012KT 9999 SCT040 SCT100 TEMPO 0512/0516 -TSRA FEW025CB BKN030 BECMG 0522/0524 VRB02KT CAVOK BECMG 0606/0608 SCT040",
    "UBBB": "TAF UBBB 051055Z 0512/0612 33006KT 9999 FEW060CB TX30/0512Z TN22/0601Z TEMPO 0512/0514 36010KT SCT050CB PROB40 TEMPO 0512/0514 -TSRA SCT040CB BECMG 0606/0608 35012KT",
    "UTAA": "TAF COR UTAA 051045Z 0511/0612 02016KT 6000 SCT050CB SCT050 TX40/0609Z TEMPO 0511/0516 08014G24KT 4000 DRDU BECMG 0516/0518 27014KT TEMPO 0518/0603 21010KT BECMG 0603/0605 34016KT TEMPO 0606/0612 29016G26KT",
    "UACC": "TAF UACC 051103Z 0512/0612 27005MPS 9999 SCT030CB BKN050 TX25/0610Z TN15/0524Z TEMPO 0512/0518 VRB16MPS 3100 -TSRA SQ BKN020CB BECMG 0518/0520 VRB01MPS SCT030 BKN100 TEMPO 0518/0602 3100 BR SCT011 BKN020 TEMPO 0602/0606 04005MPS 3100 -SHRA BKN020CB TEMPO 0606/0612 VRB16MPS 3100 -TSRA SQ BKN030CB",
    "UAAA": "TAF UAAA 051102Z 0512/0612 17003MPS 9999 FEW050CB SCT100 TX30/0610Z TN15/0523Z TEMPO 0512/0515 06005MPS TEMPO 0603/0606 34005MPS TEMPO 0606/0612 04005MPS",
    "UZTT": "TAF UZTT 051100Z 0512/0612 08010KT 7000 NSC TX36/0610Z TN20/0600Z TEMPO 0512/0518 35010G20KT",
    "ZWWW": "TAF ZWWW 050903Z 0512/0618 32004G11MPS 9999 BKN040 TX32/0609Z TN25/0523Z TN26/0618Z TEMPO 0516/0519 -TSRA FEW040CB BKN040 TEMPO 0600/0604 -SHRA BECMG 0603/0604 01004MPS BECMG 0613/0614 18004MPS",
    "ZLXY": "TAF ZLXY 050907Z 0512/0612 03003MPS 6000 NSC TX39/0607Z TN26/0521Z TEMPO 0609/0612 -TSRA FEW040CB BKN050",
    "ZBAA": "TAF AMD ZBAA 051409Z 0512/0618 19004MPS CAVOK TX34/0606Z TN21/0521Z TN24/0618Z TEMPO 0610/0614 -TSRA FEW040CB BKN040",
    "ZBHH": "TAF ZBHH 050912Z 0512/0612 36004MPS 9999 FEW040 TX29/0608Z TN14/0522Z BECMG 0605/0606 -TSRA FEW040CB SCT040 TEMPO 0606/0609 VRB08G13MPS TSRA BECMG 0609/0610 NSW NSC",
    "ZSQD": "TAF AMD ZSQD 051524Z 0512/0612 16004MPS 5000 BR NSC TX33/0606Z TN24/0521Z TEMPO 0516/0518 -TSRA BKN020 FEW030CB TEMPO 0518/0521 03009G15MPS 2800 +TSRA BKN020 SCT030CB",
    "ZMCK": "TAF ZMCK 051042Z 0512/0618 34007MPS 9999 FEW030CB SCT033 TN10/0521Z TX25/0607Z BECMG 0513/0515 VRB02MPS BECMG 0601/0603 32005MPS BECMG 0609/0611 VRB02MPS",
    "UUEE": "TAF UUEE 051356Z 0515/0615 24005MPS 9999 BKN020 TX21/0612Z TN14/0601Z TEMPO 0515/0518 27008G14MPS PROB40 TEMPO 0515/0521 -TSRA BKN016CB TEMPO 0521/0604 BKN004 TEMPO 0608/0615 22010G17MPS -TSRA BKN016CB",
    "UUDD": "TAF UUDD 051354Z 0515/0621 22005MPS 9999 BKN020 TX23/0610Z TN15/0601Z PROB40 TEMPO 0515/0520 -TSRA BKN016CB TEMPO 0608/0617 22008G15MPS -TSRA BKN020CB",
    "ULLI": "TAF ULLI 051353Z 0515/0615 10003MPS 6000 BKN016 TEMPO 0515/0521 2100 -TSRA BKN010 BKN016CB TEMPO 0600/0604 0500 FG BKN003 BECMG 0608/0610 26005G10MPS TEMPO 0609/0615 3100 -TSRA BKN010 BKN016CB",
    "USSS": "TAF USSS 051347Z 0515/0615 24003G10MPS 9999 SCT040 FM051800 19003MPS 6000 SCT020 TEMPO 0518/0602 0300 FG FM060300 16003G08MPS CAVOK FM060600 20003G13MPS 9999 SCT033CB TEMPO 0607/0615 -TSRA",
    "UNNT": "TAF UNNT 051400Z 0515/0615 28003G08MPS 8000 SCT040 TX28/0609Z TN19/0522Z TEMPO 0515/0615 29008G15MPS -TSRA BKN020CB",
    "UNKL": "TAF UNKL 051358Z 0515/0615 29003G08MPS 9999 SCT040 TEMPO 0515/0522 -TSRA BKN016CB FM052200 04003MPS 6000 -SHRA BKN016CB TEMPO 0522/0605 1000 -TSRA BR BKN003 BKN016CB TEMPO 0605/0612 35008G16MPS -TSRA BECMG 0612/0614 30005MPS -TSRA",
    "UIBB": "TAF UIBB 051400Z 0515/0615 05002MPS 9999 SCT050CB TEMPO 0603/0612 VRB07MPS",
    "UEEE": "TAF UEEE 051400Z 0515/0621 28003G10MPS CAVOK TX29/0606Z TN13/0518Z",
    "UHHH": "TAF UHHH 051356Z 0515/0621 02003G08MPS 5000 -SHRA SCT005 BKN017CB TX22/0605Z TN14/0517Z TEMPO 0515/0603 2000 SHRA BKN003 BKN016CB BECMG 0603/0604 FEW007 BKN016CB",
    "UHSS": "TAF UHSS 051356Z 0515/0621 01005MPS 9999 NSC BECMG 0516/0518 1400 BR BKN004 BECMG 0519/0522 6000 NSW BKN016 FM052300 18003MPS 9999 SCT030"
  },
  "atis": {
    "RJAA": "[Arrival ATIS] RJAA ARR ATIS R 0125Z M0100 (APCH)ILS Y RWY16L LDG RWY 16L DEP RWY 16R DEP FREQ 124.2. TWY A1 CLSD. M 190100Z 13004KT 080V200 25KM BKN020CU 25/21 Q1011/A2986= Q/TWO NINE EIGHT SIX STP\n[Departure ATIS] RJAA DEP ATIS R 0104Z M0100 (APCH)ILS Y RWY16L LDG RWY 16L DEP RWY 16R DEP FREQ 124.2. TWY A1 CLSD. M 190100Z 13004KT 080V200 25KM BKN020CU 25/21 Q1011/A2986= Q/TWO NINE EIGHT SIX STP",
    "PANC": "[Arrival ATIS] PANC ARR ATIS Z 0053Z ANC ATIS INFO Z 0053Z. 22008KT 10SM FEW060 SCT200 20/09 A3031 (THREE ZERO THREE ONE). 7R APPROACHES IN USE. LANDING RWY 7R, DEPARTING RWY 33. NOTICE TO AIRMEN. RWY 7L CLSD. CHECK NOTAMS FOR TAXIWAY CLOSURES. ...ADVS YOU HAVE INFO Z.\n[Departure ATIS] PANC DEP ATIS Y 2353Z ANC ATIS INFO Y 2353Z. 22006KT 10SM FEW050 BKN200 20/09 A3032 (THREE ZERO THREE TWO). 7R APPROACHES IN USE. LANDING RWY 7R, DEPARTING RWY 33. NOTICE TO AIRMEN. RWY 7L CLSD. CHECK NOTAMS FOR TAXIWAY CLOSURES. ...ADVS YOU HAVE INFO Y.",
    "KSEA": "[Arrival ATIS] KSEA ARR ATIS C 1353Z SEA ATIS INFO C 1353Z. 35010KT 10SM FEW012 SCT040 SCT220 13/10 A3015 (THREE ZERO ONE FIVE). ILS AND CHARTED VISUAL APPROACH RWYS 34L AND 34R , APCH IN USE. DEPG RWY 34R. SIMUL ARRIVALS TO RWY 34L AND DEPARTURES TO RWY 34R ARE IN USE. SIMUL APCHS IN USE TO PARA RYS. NOTAMS... BIRD ACTIVITY VICINITY ARPT. ...ADVS YOU HAVE INFO C.\n[Departure ATIS] KSEA DEP ATIS B 1553Z SEA ATIS INFO B 1553Z. 35009KT 10SM FEW250 18/09 A3007 (THREE ZERO ZERO SEVEN). ILS AND CHARTED VISUAL APPROACH RWYS 34L AND 34R , APCH IN USE. DEPG RWY 34R. SIMUL ARRIVALS TO RWY 34L AND DEPARTURES TO RWY 34R ARE IN USE. SIMUL APCHS IN USE TO PARA RYS. NOTAMS... ILS RWY 34C OTS. BIRD ACTIVITY VICINITY ARPT. ...ADVS YOU HAVE INFO B.",
    "ZSPD": "[Arrival ATIS] ZSPD ARR ATIS O 1530Z EXP ILS APCH INDEPENDENT PARL INSTR APCH LDG RWY 17R & 16L WIND RWY 17R TDZ 190/4MPS MID 170/4MPS END 170/4MPS RWY 16L TDZ 190/5MPS MID 190/4MPS END 180/4MPS VIS RWY 17R TDZ 10000M MID 4900M END 9000M VIS RWY 16L TDZ 10000M MID 10000M END 10000M NSC T 26 /DP 26 QNH 1005 HPA CAUTION THE BIRDS NEAR THE RUNWAY RWY 17L/17R/16L/16R RWYCC 5/5/5 ISSUED AT 1001 WET/WET/WET DPT NR/NR/NR COV 100PCT/100PCT/100PCT. ADZ YOU HAVE INFO O.\n[Departure ATIS] ZSPD DEP ATIS A 0100Z DEP RWY 17L & 16R WIND RWY 17L TDZ 190/4MPS MID 180/3MPS END 180/3MPS RWY 16R TDZ 200/4MPS MID 210/4MPS VRB BTN 180/ AND 240/ END 200/4MPS VIS RWY 17L TDZ 6000M MID 5000M END 5000M VIS RWY 16R TDZ 5000M MID 5000M END 6000M BR CLD BKN 180M T 26 /DP 26 QNH 1004 HPA CAUTION THE BIRDS NEAR THE RUNWAY RWY 17L/17R/16L/16R RWYCC 5/5/5 ISSUED AT 2100 WET/WET/WET DPT NR/NR/NR COV 100PCT/100PCT/100PCT. ADZ YOU HAVE INFO A.",
    "ZSSS": "[Arrival ATIS] ZSSS ARR ATIS J 0100Z EXP ILS APCH LDG RWY 18L WIND RWY 18L TDZ 170/4MPS MID 160/4MPS END 170/4MPS VIS RWY 18L TDZ 7000M MID 6000M END 7000M BR CLD BKN 240M T 26 /DP 24 QNH 1004 HPA RWY18L RWYCC 5/5/5 ISSUED AT 0520 WET/WET/WET DPT NR/NR/NR COV 100PCT/100PCT/100PCT RWY18R RWYCC 5/5/5 ISSUED AT 0520 WET/WET/WET DPT NR/NR/NR COV 50PCT/50PCT/50PCT QNH OF SHANGHAI TERMINAL CONTROL AREA 1004 HPA ADZ YOU HAVE INFO J.\n[Departure ATIS] ZSSS DEP ATIS J 0100Z DEP RWY 18R WIND RWY 18R TDZ 160/4MPS MID 160/3MPS END 170/4MPS VIS RWY 18R TDZ 5000M MID 5000M END 5000M BR CLD BKN 240M T 26 /DP 24 QNH 1004 HPA RWY18L RWYCC 5/5/5 ISSUED AT 0520 WET/WET/WET DPT NR/NR/NR COV 100PCT/100PCT/100PCT RWY18R RWYCC 5/5/5 ISSUED AT 0520 WET/WET/WET DPT NR/NR/NR COV 50PCT/50PCT/50PCT QNH OF SHANGHAI TERMINAL CONTROL AREA 1004 HPA ADZ YOU HAVE INFO J.",
    "VHHH": "[Arrival ATIS] VHHH ARR ATIS A 0109Z ARRIVALS, RWY 25R/L. EXP RNAV TRANSITION TO ILS APCH, RWY 25R. RNP APCH IS AVBL ON REQ, RWY 25R. EXP ILS APCH RWY 25L CAUTION POSSIBLE GP FLUCTUATION RWY 25L. SIG WS REP RWY 25R. SIG WS FCST RWY 25L. WIND RWY 25R 190/13KT RWY 25L 210/13KT. VIS RWY 25R 10KM RWY 25L 10KM. CLD FEW 1000FT SCT 2000FT. T30 DP25. QNH 1009HPA. ACK INFO A ON FIRST CTC WITH APP.\n[Departure ATIS] VHHH DEP ATIS Q 0111Z DEPARTURES, RWY 25C/L. INDEPENDENT PARALLEL DEPARTURE IN PROGRESS. SIG WS FCST RWY 25C/L. MOD TURB REP RWY 25L. WIND RWY 25C 200/13KT RWY 25L 200/11KT. VIS RWY 25C 10KM RWY 25L 10KM. CLD FEW 1000FT SCT 2000FT. T30 DP25. QNH 1009HPA. ACK INFO Q ON FIRST CTC WITH DELIVERY .",
    "RCTP": "[Arrival ATIS] RCTP ARR ATIS K 0100Z EXP ILS APCH RWY23R AND RWY23L ARR/DEP. WIND 310/08KT VIS 10 KM OR MORE CLD FEW 2000FT SCT 20000FT T 32 DP 24 QNH 1010HPA NOSIG CTN BIRD ACTIVITY IN THE VCY OF THE AD. INFORM TAIPEI APCH OR TAIPEI TOWER ON INITIAL CONTACT YOU HAVE INFORMATION K\n[Departure ATIS] RCTP DEP ATIS H 2330Z EXP ILS APCH RWY23R AND RWY23L ARR/DEP. WIND 180/04KT VARYING BTN 160 AND 220 VIS 10 KM OR MORE CLD FEW 2000FT T 31 DP 25 QNH 1010HPA NOSIG CTN BIRD ACTIVITY IN THE VCY OF THE AD. INFORM TAIPEI APCH OR TAIPEI TOWER ON INITIAL CONTACT YOU HAVE INFORMATION H",
    "ZGSZ": "[Arrival ATIS] ZGSZ ARR ATIS C 0106Z EXP ILS APCH 15 EXP ILS OR VIS APCH 16L WIND 190/4MPS VIS 4000M +TSRA CLD SCT 330M /FEW CB 900M /BKN 1200M T 27 /DP 26 QNH 1009 HPA INDEPENDENT PARALLEL DEPARTURES DEPENDENT PARALLEL APPROACHES V17,V18 AVAILABLE AFTER SULAS FLY HEADING 040 MISSED APPROACH ALTITUDE SETTING 1200METERS WHEN AIRBORNE CONTACT ZHUHAI APPROACH EXPECTED RNP ILS DME Z APPROACH RWY 15 16L 16R RWYCC 5/5/5 ISSUED AT 2200UTC WET/WET/WET DPT NR/NR/NR COV 100PCT/100PCT/100PCT ADZ YOU HAVE INFO C.\n[Departure ATIS] ZGSZ DEP ATIS N 2211Z DEP RWY 15 & 16L WIND 170/8MPS VIS 9999M -SHRA CLD SCT 990M T 28 /DP 26 QNH 1008 HPA DELIVERY FREQ 121.65 INDEPENDENT PARALLEL DEPARTURES DEPENDENT PARALLEL APPROACHES V17,V18 AVAILABLE AFTER SULAS FLY HEADING 040 MISSED APPROACH ALTITUDE SETTING 1200METERS WHEN AIRBORNE CONTACT ZHUHAI APPROACH EXPECTED RNP ILS DME Z APPROACH RWY 15 16L 16R RWYCC 5/5/5 ISSUED AT 2200UTC WET/WET/WET DPT NR/NR/NR COV 100PCT/100PCT/100PCT ADZ YOU HAVE INFO N.",
    "WSSS": "[Arrival ATIS] WSSS ARR ATIS Z 1530Z METREPORT 1530Z ILS APCHRWY 20R SIMUL INDEPENDENT ILS AND VISUAL APPROACHES ARE CONDUCTED ON RWY 20. TWY W 9 CLOSED, RWY 02C 20C RAPID EXIT TAXIWAY INDICATOR LIGHTS OFFFOLLOW THE GREENS TRIAL IN PROGRESS. WHEN VACATING THE RWY, PILOTS TO ADHERE TO ATC VERBAL INSTRUCTIONS. WHEN ON TWY, PILOT TO ADHERE TO FOLLOW THE GREENS INSTRUCTIONS. WHEN APPROACHING [A] JUNCTION, KEEP [A] LOOKOUT FOR CONTINUOUS GREENS. [IF] [A] BREAK IN THE GREENS IS OBSERVED, STOP AND CLARIFY WITH ATC. WIND 310/ 04KT VRB BTN290 AND020 VIS 07KM CLD FEW 1800FT T27 DP25 QNH 1012HPA NOSIG ACK ATIS Z\n[Departure ATIS] WSSS DEP ATIS A 2330Z METREPORT 2330Z RWY 20C SIMUL INDEPENDENT ILS AND VISUAL APPROACHES ARE CONDUCTED ON RWY 20. TWY W 9 CLOSED, RWY 02C 20C RAPID EXIT TAXIWAY INDICATOR LIGHTS OFFFOLLOW THE GREENS TRIAL IN PROGRESS. WHEN VACATING THE RWY, PILOTS TO ADHERE TO ATC VERBAL INSTRUCTIONS. WHEN ON TWY, PILOT TO ADHERE TO FOLLOW THE GREENS INSTRUCTIONS. WHEN APPROACHING [A] JUNCTION, KEEP [A] LOOKOUT FOR CONTINUOUS GREENS. [IF] [A] BREAK IN THE GREENS IS OBSERVED, STOP AND CLARIFY WITH ATC. WIND 140/ 02KT VIS 10KM CLD FEW TCU 1700FT T27 DP24 QNH 1011HPA NOSIG DEP,INITIAL CMB 3000FT ACK ATIS A",
    "WMKK": "[Arrival ATIS] WMKK ARR ATIS L 0110Z WMKK ARR INFO L. TIME 0100. INDEPENDENT PARALLEL APPROACHES FOR RWY 14 L AND 15 ARE IN PROGRESS. EXP RNAV / ILS APCH FOR RWY 14 LEFT. EXP RNAV / ILS APCH FOR RWY 15. WIND RWY 14L 080 DEG, 2 KT. WIND RWY 15 100 DEG, 5 KT. VIS RWY 14L TDZ 10 KM OR MORE. VIS RWY 15 TDZ 10 KM OR MORE. CLD FEW CB 1700 FT. T 29. DP 25. QNH 1010. NOSIG. AT FIRST CONTACT WITH LUMPUR RADAR, NOTIFY RCPT OF L\n[Departure ATIS] WMKK DEP ATIS O 0033Z WMKK DEP INFO O. TIME 0030. INDEPENDENT PARALLEL DEPARTURES FOR RWY 14 R AND 15 ARE IN PROGRESS. RWY 14 RIGHT. RWY 15. WIND RWY 14R DIRECTION NOT AVBL SPEED NOT AVBL. WIND RWY 15 DIRECTION NOT AVBL SPEED NOT AVBL. VIS RWY 14R TDZ NOT AVBL. VIS RWY 15 TDZ NOT AVBL. CLD FEW CB 1700 FT. T 28. DP 25. QNH 1010. NOSIG. ALL DEP ACFT TO CONTACT LUMPUR DEP AT 135 DECIMAL 25 MHZ WHEN ABN. AT FIRST CONTACT WITH LUMPUR GROUND, NOTIFY RCPT OF O",
    "VTBS": "[Arrival ATIS] VTBS ARR ATIS V 0102Z EXP ILS Z APCH ARR RWY 19 OR RNP APCH RWY 20R 06181550 19 6/6/6 NR/NR/NR NR/NR/NR DRY/DRY/DRY 06181555 20R 6/6/6 NR/NR/NR NR/NR/NR DRY/DRY/DRY , , 0100Z WIND 050/4KT VIS 10KM RVR RWY 19 ABV 2000M CLD FEW 2000FT T28 DP27 QNH 1010HPA TREND NOSIG ADZ BKK APCH ON INITIAL CONTACT THAT YOU HAVE INFO V\n[Departure ATIS] VTBS DEP ATIS H 0100Z VTBS DEP ATIS H 0103Z SIMULTANEOUS INDEPENDENT PARL DEP IN PROGRESS DEP RWY 20L OR DEP RWY 19 06181550 19 6/6/6 NR/NR/NR NR/NR/NR DRY/DRY/DRY 06181555 20L 6/6/6 NR/NR/NR NR/NR/NR DRY/DRY/DRY , ,AFT AIRBORNE ALL DEPARTING ACFT SHALL CTC 119.25 0100Z WIND 040/3KT VRB BTN 330/ AND 080/ VIS 10KM RVR RWY 20L ABV 2000M CLD FEW 2000FT T28 DP27 QNH 1010HPA TREND NOSIG ADZ GND WHEN INITIAL CONTACT YOU HAVE INFO H",
    "VTBU": "[Arrival ATIS] VTBU ARR ATIS E 1000Z VTBU ARR ATIS E 1005Z RNP RWY 18 TRL FL130 1000Z WIND 170/9KT VIS 10KM CLD FEW CB 1800FT T30 DP28 QNH 1009HPA TS IN APCH TREND BECMG TL1045 NSW ADZ CONTROLLER WHEN INITIAL CONTACT YOU HAVE INFO E\n[Departure ATIS] VTBU DEP ATIS D VTBU ARR/DEP DATIS RPT VTBU ARR ATIS D 0330Z ILS \"Z\" APCH RWY 18 TRL FL130 0330Z WIND 110/4KT VRB BTN 350/ AND 120/ VIS 6KM CLD FEW 2000FT T31 DP27 QNH 1014HPA TREND NOSIG ADZ CONTROLLER WHEN INITIAL CONTACT YOU HAVE INFO D",
    "ROAH": "[Arrival ATIS] ROAH ARR ATIS D 0054Z M0030 (APCH)RNP RWY18R LDG RWY 18R DEP RWY 18L DEP FREQ 126.5 258.3 M 190030Z 18011KT 40KM FEW009CU SCT012CU BKN/// 28/26 Q1012/A2991= Q/TWO NINE NINE ONE STP\n[Departure ATIS] ROAH DEP ATIS X 1056Z M1030 (APCH)RNP RWY18R LDG RWY 18R DEP RWY 18L DEP FREQ 126.5 258.3 M 051030Z 26003KT 60KM FEW014CU 28/26 Q1011/A2988= Q/TWO NINE EIGHT EIGHT STP",
    "VVDN": "[Arrival ATIS] VVDN ARR ATIS G 1302Z VVDN INFO G 1302Z. ILS VICTOR APPROACH 35L.. DPTG RWY 35R.. 1302Z. WIND 220/03KT CAVOK T29 DP23 QNH 1006HPA TREND NOSIG. ADZ ON INITIAL CTC YOU HAVE INFO. G.\n[Departure ATIS] VVDN DEP ATIS Q 1502Z VVDN INFO Q 1502Z. ILS VICTOR APPROACH 35L.. DPTG RWY 35R.. 1502Z. WIND 260/02KT CAVOK T28 DP23 QNH 1008HPA TREND NOSIG. ADZ ON INITIAL CTC YOU HAVE INFO. Q.",
    "RCKH": "[Arrival ATIS] RCKH ARR ATIS P 1400Z EXPECT ILS APPROACH RWY 09 ARR/DEP TAXIWAY JULIETT, TAXIWAY BRAVO, TAXIWAY DELTA AND TAXIWAY ECHO CLOSED DUE MAINTENANCE. RUNWAY 0 9 ARRIVALS PLAN VACATE VIA CHARLIE OR\n[Departure ATIS] RCKH DEP ATIS U 0400Z EXPECT ILS APPROACH RWY 27 ARR/DEP TAXIWAY JULIETT, TAXIWAY BRAVO, TAXIWAY DELTA AND TAXIWAY ECHO CLOSED DUE MAINTENANCE. RUNWAY 27 ARRIVALS PLAN VACATE VIA CHARLIE OR",
    "KLAX": "[Arrival ATIS] KLAX ARR ATIS M 1553Z - KLAX ATIS INFO M 1553Z. 13006KT 10SM FEW020 SCT025 BKN037 19/13 A2993 (TWO NINER NINER THREE) RMK AO2 SLP135 T01940128. SIMUL INST APCHS AND RNAV RNP RWYS 24R AND 25L APCHS, OR VCTR FOR VISUAL APCH WILL BE PROVIDED, SIMUL VISUAL APCHS TO ALL RWYS ARE IN PROG, SIMUL INSTR DEPARTURES IN PROG RWYS 24 AND 25. CTC L A GC ON 121.75 FOR PUSH OR TAXI ON A. TWY B CLSD BTN TWY, J AND TWY C8 , , TWY C10 CLSD BTN TWY, B AND TWY C, TWY C CLSD BTN TWY, C1 AND TWY C3. RY 25R SFL OTS, RY 24L ALSF-2 OTS, PAPI OTS 24R. LAX VOR UNMONITORED. USE CAUTION FOR INCREASED DRONE ACTIVIY IN THE VICINITY OF SOFI STADIUM AT OR BELOW 200FT AGL DURING THE WORLD CUP FROM JUNE TWELFTH TWENTY TWENTY SIX THROUGH JULY TENTH TWENTY TWENTY SIX. TEMPORARY FLIGHT RESTRITIONS IN EFFECT FOR THE LOS ANGELES AREA, CHECK NOTAMS FOR DETAILS. HAZD WX INFO FOR LAX AREA AVBL FM FSS. BIRD ACTIVITY VICINITY ARPT. INCLUDE YOUR CALL SIGN IN ALL READBACKS. USE CAUTION WHEN EXITING RY24R AT TWY V, W, AND Y, TO HOLD SHORT OF RY24L. MULTIPLE RUNWAY INCURSIONS HAVE OCCURRED. ...ADVS YOU HAVE INFO M.\n[Departure ATIS] KLAX DEP ATIS X 2053Z - KLAX ATIS INFO X 2053Z. 25008KT 10SM FEW140 SCT190 BKN240 23/16 A3001 (THREE ZERO ZERO ONE) RMK AO2 SLP162 T02330156 58007. INST APCHS AND RNAV RNP APCHS RY 24R AND 25L, OR VCTR FOR VISUAL APCH WILL BE PROVIDED, SIMUL VISUAL APCHS TO ALL RWYS ARE IN PROG, SIMUL INSTR DEPARTURES IN PROG RWYS 24 AND 25. CTC L A GC ON 121.75 FOR PUSH OR TAXI ON A. TWY B CLSD BTN TWY, C10 AND TWY C7 , , TWY B6 CLSD, TWY B7 CLSD, TWY C CLSD BTN TWY, C1 AND TWY C3, TWY C1 CLSD, TWY C9 CLSD BTN TWY, B AND TWY C, TWY C8 CLSD BTN TWY, B AND TWY C. RY 25R SFL OTS, RY 24L ALSF-2 OTS. LAX VOR UNMONITORED. USE CAUTION FOR INCREASED DRONE ACTIVIY IN THE VICINITY OF SOFI STADIUM AT OR BELOW 200FT AGL DURING THE WORLD CUP FROM JUNE TWELFTH TWENTY TWENTY SIX THROUGH JULY TENTH TWENTY TWENTY SIX. HAZD WX INFO FOR LAX AREA AVBL FM FSS. USE CAUTION FOR HANG GLIDING 1 MILE SOUTH LOS ANGELES VOR. BIRD ACTIVITY VICINITY ARPT. INCLUDE YOUR CALL SIGN IN ALL READBACKS. USE CAUTION WHEN EXITING RY24R AT TWY V, W, AND Y, TO HOLD SHORT OF RY24L. MULTIPLE RUNWAY INCURSIONS HAVE OCCURRED. ...ADVS YOU HAVE INFO X.",
    "KONT": "[Arrival ATIS] KONT ARR ATIS N 1453Z ONT ATIS INFO N 1453Z. 22003KT 1 1/2SM FU BKN240 21/14 A3000 (THREE ZERO ZERO ZERO). ILS APR IN USE. RY26L & RY26R. LNDG AND DEPG RY 26L AND RY 26R. NOTAMS... TAXIWAY SIERRA FIVE CLOSED. TAXIWAY SIERRA CLOSED BETWEEN TAXIWAY SIERRA 8 AND TAXIWAY WHISKEY. RY 26L IM OTS, RY 26R ALS OTS. USE CAUTION FOR NUMEROUS BIRDS OBSERVED IN VICINITY OF ONT. HAZD WX INFO FOR SOUTHERN CA AVBL ON FSS FREQUENCIES. ILS CRITICAL AREAS ARE IN EFFECT. PILOTS READBACK RWY ASSIGNMENTS AND HOLD SHORT INSTRUCTIONS. ...ADVS YOU HAVE INFO N.\n[Departure ATIS] KONT DEP ATIS N 0553Z - KONT ATIS INFO N 0553Z. 24004KT 10SM BKN250 22/15 A2988 (TWO NINER EIGHT EIGHT) RMK AO2 SLP100. ILS AND VIS APR IN USE, RY26L & RY26R. LNDG AND DEPG RY 26L AND RY 26R. NOTAMS... TAXIWAY SIERRA CLSD BETWEEN SIERRA 8 AND W TAXIWAY Q SOUTH OF RWY 26L CLSD TAXIWAY T CLSD TAXIWAY SIERRA 5 CLSD. RY 26L IM OTS, RY 26R ALS OTS. USE CAUTION FOR NUMEROUS BIRDS OBSERVED IN VICINITY OF ONT. HAZD WX INFO FOR SOUTHERN CA AVBL ON FSS FREQUENCIES. PILOTS READBACK RWY ASSIGNMENTS AND HOLD SHORT INSTRUCTIONS. ...ADVS YOU HAVE INFO N.",
    "KSFO": "[Arrival ATIS] KSFO ARR ATIS Y 1556Z SFO ATIS INFO Y 1556Z. 08005KT 10SM FEW026 16/11 A2997 (TWO NINER NINER SEVEN). SIMUL CLSLY SPCD DPNDNT ILS RY 28R AND ILS RY 28L APP IN USE. DEPG RWYS 28L, 28R. DEPG ACFT SHOULD BE PREPARED FOR A SHORT NOTICE RY CHANGE. RY 1L, 1R CLSD. NUMEROUS TWY CLOSURES FOR CONSTRUCTION ON THE FIELD, PILOTS CHECK NOTAMS. DEPG ACFT WAITING ON FINAL NUMBERS ADVISE GROUND PRIOR TO ENTERING TWY F. ...ADVS YOU HAVE INFO Y.\n[Departure ATIS] KSFO DEP ATIS R 1456Z SFO ATIS INFO R 1456Z. 30006KT 10SM FEW006 OVC011 14/11 A3002 (THREE ZERO ZERO TWO). SIMUL CLSLY SPCD DPNDNT ILS RY 28R AND ILS RY 28L APP IN USE. DEPG RWYS 28L, 28R. GATE",
    "KOAK": "[Arrival ATIS] KOAK ARR ATIS X 2253Z - KOAK ATIS INFO X 2253Z. 25012KT 10SM FEW006 SCT024 21/14 A2991 (TWO NINER NINER ONE). RNAV Z/VA 30, ILS/VA 28R. FLOW TO LAX, LAS, SEA, SFO. ILS RWY 30, OTS. UNN LIT CLOSE-IN OBSTACLES FOR RWY 30 DEPARTURES. RWY 30 DEPARTURES ARE ADVISED TO AVOID TURNING LEFT PRIOR TO DEPARTURE END OF RUNWAY. SIGNATURE UNI-COM OUT OF SERVICE. CAUTION, BIRDS NEAR AIRPORT. ...ADVS YOU HAVE INFO X.\n[Departure ATIS] KOAK DEP ATIS O 1953Z OAK ATIS INFO O 1953Z. 28014KT 10SM FEW005 22/14 A2988 (TWO NINER EIGHT EIGHT). RNAV Z/VA RWY 30 ILS/VA RWY 28R. FLOW TO LAX, LAS, SAN. ILS RWY 30, OTS. UNN LIT CLOSE-IN OBSTACLES FOR RWY 30 DEPARTURES. RWY 30 DEPARTURES ARE ADVISED TO AVOID TURNING LEFT PRIOR TO DEPARTURE END OF RUNWAY. SIGNATURE UNI-COM OUT OF SERVICE. CAUTION, BIRDS NEAR AIRPORT. ...ADVS YOU HAVE INFO O.",
    "KDFW": "[Arrival ATIS] KDFW ARR ATIS J 1353Z DFW ARR INFO J 1353Z. 20012KT 10SM FEW050 FEW200 BKN250 29/21 A2999 (TWO NINER NINER NINER) RMK AO2 SLP143 T02940211. SIMUL VISUAL APCH TO RWYS, 13R, 18R, 17C, 17L. LDG RWY 17C EXP LAHSO TWY B 10460 FT AVAIL, LDG RWY 18R EXP LAHSO TWY B 10100 FT AVL. NOTICE TO AIRMEN. WARNING, RWY 18L HAS BEEN SHORTENED, 9273 FT AVAILABLE. RWY 18L ILS OTS, CL OTS. BIRD ACTIVITY VCNTY ARPT. ...ADVS YOU HAVE INFO J.\n[Departure ATIS] KDFW DEP ATIS W 1553Z - KDFW DEP INFO W 1553Z. 21022G32KT 10SM FEW025 FEW180 SCT250 31/21 A2994 (TWO NINER NINER FOUR) RMK AO2 PK WND 20032/1547 SLP128 T03110206. SIMUL PARL TRAFFIC DEPG RWYS 17R, 18L. NOTICE TO AIRMEN. WARNING, RWY 18L HAS BEEN SHORTENED, 9273 FT AVAILABLE. RWY 18L CL OTS. BIRD ACTIVITY VCNTY ARPT. ...ADVS YOU HAVE INFO W.",
    "KIAH": "[Arrival ATIS] KIAH ARR ATIS E 2353Z IAH ATIS INFO E 2353Z. 16013G18KT 7SM FEW035 33/26 A2972 (TWO NINER SEVEN TWO). ARRIVALS EXPECT ILS OR RNAV Y RY 26R, ILS OR RNAV Y RY 26L, ILS OR RNAV Y RY 27. SIMUL APPROACHES IN USE. DEPG RY 15L, RY 15R. NOTICE TO AIRMEN. UNITED RAMP CONTROL IN EFFECT. BIRD ACTIVITY VICINITY ARPT. TWY SA CLSD BTN TWY, SG AND TWY SK , TWY SB CLSD BTN TWY, SG AND TWY SK , , TWY NR CLSD BTN TWY, NB AND TWY WW . TWY NC CLSD BTN TWY, NE AND TWY NR . TWY SG CLSD, TWY EA CLSD, USE CAUTION FOR STEEL PLATE ON TWY SF. NOTAM ATIS IN USE ON FREQUENCY 126.225. ...ADVS YOU HAVE INFO E.\n[Departure ATIS] KIAH DEP ATIS D 0453Z IAH ATIS INFO D 0453Z. 19003KT 10SM CLR 25/24 A2963 (TWO NINER SIX THREE). ARRIVALS EXPECT ILS OR RNAV Y RY 26L. DEPG RY 15L. NOTICE TO AIRMEN. UAL RAMP PROCEDURES TERMINATED PUSH BACK AT PILOTS DISCRETION. RY 26R, 8L CLSD. BIRD ACTIVITY VICINITY ARPT. TWY SA CLSD BTN TWY, SG AND TWY SK , TWY SB CLSD BTN TWY, SG AND TWY SK , , TWY SF CLSD BTN TWY, NB AND TWY RB . TWY SG CLSD, TWY EA CLSD. NOTAM ATIS IN USE ON FREQUENCY 126.225. ...ADVS YOU HAVE INFO D.",
    "KORD": "[Arrival ATIS] KORD ARR ATIS V 1532Z ORD ATIS INFO V 1532Z SPECIAL. 01005KT 4SM BR OVC007 21/19 A2999 (TWO NINER NINER NINER) RMK AO2 T02110194. ARR EXP VECTORS ILS RWY 9L APCH, ILS RWY 10C APCH. SIMUL APCHS IN USE. DEPS EXP RWYS 9C FROM F F 9200 FT AVL, 10L FROM DD. 10,093 FT AVBL. ATTN PILOTS. SIMUL PARL DEPS IN USE. EXP TO INITIALLY FLY RWY. RWY 4L, 22R CLSD. RWY 22L ILS OTS, RWY 22R LOC OTS, RWY 28L GS OTS, RWY 9L IM OTS, RWY 9C IM OTS, RWY 10L IM OTS, RWY 10R IM OTS, RWY 27R IM OTS, RWY 28L IM OTS, RWY 28R IM OTS, RWY 9L PAPI OTS, RWY 27R PAPI OTS. USE CTN FOR PERSONNEL AND EQUIP AT NUMEROUS SITES ON THE FIELD. READBACK ALL RWY HOLD SHORT INSTRUCTIONS. WHEN READY TO TAXI CONTACT GND METERING ON FREQ 121.67. ...ADVS YOU HAVE INFO V.\n[Departure ATIS] KORD DEP ATIS U 1451Z ORD ATIS INFO U 1451Z. 01010KT 5SM BR OVC006 21/19 A2998 (TWO NINER NINER EIGHT) RMK AO2 SLP148 T02110194 53016. ARR EXP VECTORS ILS RWY 9L APCH, ILS RWY 10C APCH. SIMUL APCHS IN USE. DEPS EXP RWYS 9C FROM F F 9200 FT AVL, 10L FROM DD. 10,093 FT AVBL. ATTN PILOTS. SIMUL PARL DEPS IN USE. EXP TO INITIALLY FLY RWY. RWY 4L, 22R CLSD. RWY 22L ILS OTS, RWY 22R LOC OTS, RWY 28L GS OTS, RWY 9L IM OTS, RWY 9C IM OTS, RWY 10L IM OTS, RWY 10R IM OTS, RWY 27R IM OTS, RWY 28L IM OTS, RWY 28R IM OTS, RWY 9L PAPI OTS, RWY 27R PAPI OTS. USE CTN FOR PERSONNEL AND EQUIP AT NUMEROUS SITES ON THE FIELD. READBACK ALL RWY HOLD SHORT INSTRUCTIONS. WHEN READY TO TAXI CONTACT GND METERING ON FREQ 121.67. ...ADVS YOU HAVE INFO U.",
    "KJFK": "[Arrival ATIS] KJFK ARR ATIS Z 0051Z JFK ATIS INFO Z 0051Z. 25020G25KT 10SM FEW065 SCT250 26/16 A2956 (TWO NINER FIVE SIX) RMK PK WND 25029/0010. APPROACH IN USE ILS RY 22L, ILS RY 22R. DEPG RY 22R, ACFT FILED OVER RBV OR DIXIE EXPECT RY 31L KE FOR DEP. RWY 22L/4R INNER MARKER OTS. NUM CRANES OPERATING AT JFK. BIRD ACTIVITY VICINITY ARPT. READBACK ALL RWY ASSIGNMENTS AND HOLD SHORT INSTRUCTIONS. ...ADVS YOU HAVE INFO Z.\n[Departure ATIS] KJFK DEP ATIS N 1951Z JFK ATIS INFO N 1951Z. 21014KT 10SM SCT070 34/22 A2992 (TWO NINER NINER TWO) RMK AO2 SLP131 T03440217. APPROACH IN USE ILS RY 22L, ILS RY 22R. DEPG RY 22R. CRI OTS. RWY 22L/4R INNER MARKER OTS. HAZD WX INFO FOR NY METRO AREA AVBL ON FSS. SWAP IN EFFECT EXPECT REROUTES. NUM CRANES OPERATING AT JFK. BIRD ACTIVITY VICINITY ARPT. READBACK ALL RWY ASSIGNMENTS AND HOLD SHORT INSTRUCTIONS. ...ADVS YOU HAVE INFO N.",
    "KIND": "[Arrival ATIS] KIND ARR ATIS M 2354Z - KIND ATIS INFO M 2354Z. 31009KT 10SM SCT045 BKN060 BKN200 23/15 A2981 (TWO NINER EIGHT ONE). PARL ILS RWY 23R AND 23L APPROACHES IN USE. CROSS RUNWAY OPERATIONS MAY BE IN EFFECT. NOTICE TO AIRMEN. RWY 32 GS OTS. TWY, P BTN TWY, H AND TWY B CLSD. P PAD CLSD. ILS RUNWAY 5R AND RUNWAY 5L INNER MARKER UNSERVICEABLE. RUNWAY 32 PAPI OTS. RUNWAY 32 TOUCHDOWN RVR OTS. RUNWAY 14 ROLLOUT RVR OTS. ...ADVS YOU HAVE INFO M.\n[Departure ATIS] KIND DEP ATIS H 1854Z IND ATIS INFO H 1854Z. 26009G19KT 10SM SCT036 BKN041 BKN170 23/16 A2981 (TWO NINER EIGHT ONE) RMK AO2 SLP088 T02280156. PARL ILS RWY 23R AND 23L APPROACHES IN USE. CROSS RU",
    "KDTW": "[Arrival ATIS] KDTW ARR ATIS E 1453Z DTW ARR INFO E 1453Z. 25020G29KT 10SM FEW030 SCT035 OVC060 20/13 A2951 (TWO NINER FIVE ONE) RMK AO2 PK WND 26029/1450 SLP989 T02000133 51023. SIMUL ILS Z RY 22R AND RY 21L APCH IN USE. NOTICE TO AIRMEN. RWY 22L, 4R CLSD, RWY 27R, 9L CLSD. PILOTS USE CTN FOR BIRD ACTIVITY. DEPARTURE ATIS 118.125. WARNING, RUNWAY TWO SEVEN LEFT HAS BEEN SHORTENED, SIX THOUSAND SEVEN HUNDRED EIGHTY-SEVEN FEET AVAILABLE. ...ADVS YOU HAVE INFO E.\n[Departure ATIS] KDTW DEP ATIS Q 2253Z - KDTW DEP INFO Q 2253Z. 21009KT 10SM FEW050 FEW250 33/24 A2991 (TWO NINER NINER ONE). DEPG RWY 21R, RWY 22L ;. NOTICE TO AIRMEN. RWY 27L, 9R CLSD, RWY 27R, 9L CLSD. PILOTS USE CTN FOR BIRD ACTIVITY. ...ADVS YOU HAVE INFO Q.",
    "KMSP": "[Arrival ATIS] KMSP ARR ATIS E 1405Z MSP ARR INFO E 1405Z SPECIAL. 00000KT 9SM SCT005 21/18 A3007 (THREE ZERO ZERO SEVEN) RMK AO2 T02110183. SIMULTANEOUS DEPENDENT, ILS RWY 12R APCH IN USE, LOCALIZER RWY 12L APCH IN USE. FINAL APCH, OVER NOISE SENSITIVE AREA. NOTICE TO AIRMEN. RWYS 4, 22 CLSD. TWY R7. R8. R9. R10. CLOSED, TWY R BETWEEN R6 AND R10 CLOSED. GS RWY 12L OTS, RWYS 12R, 12L, INNER MARKER OTS.. HAZD WX INFO FOR MSP AREA AVBL FM FSS. CTN, BIRDS NEAR MSP. READ BACK HS AND ALT. ALL ACFT TAXI WITH TRANSPONDER AND ALTITUDE ENCODING ON. ...ADVS YOU HAVE INFO E.\n[Departure ATIS] KMSP DEP ATIS O 0143Z MSP DEP INFO O 0143Z SPECIAL. 09016G21KT 2 1/2SM TSRA BR BKN015 BKN025 OVC044CB 21/18 A3000 (THREE ZERO ZERO ZERO) RMK AO2 PK WND 33036/0054 LTG DSNT SE-SW TS SE-SW MOV SE CB SE-SW MOV SE. DEPARTING RWY 12L, RWY 12R. NOTICE TO AIRMEN. RWYS 4, 22 CLSD. TWY R7. R8. R9. R10. CLOSED, TWY R BETWEEN R6 AND R10 CLOSED. SWAP IN EFCT, INCLUDING CDR. ALL ACFT CTC METERING ON ONE THREE THREE POINT FIVE SEVEN WHEN READY TO PUSHBACK OR TAXI. HAZD WX INFO FOR MSP AREA AVBL FM FSS. CTN, BIRDS NEAR MSP. READ BACK HS AND ALT. ALL ACFT TAXI WITH TRANSPONDER AND ALTITUDE ENCODING ON. ...ADVS YOU HAVE INFO O.",
    "CYEG": "[Arrival ATIS] CYEG ARR ATIS K 1506Z CYEG ARR ATIS K 1506Z 29007KT 20SM -SHRA FEW017 SCT060 CIG BKN085 13/11 A3004 APCH RNAV Z OR Y RWY 20, INFORM ARRL OF REQ APCH ON INITIAL CTC. LDG AND DEP RWY 20. SIMUL APPR\n[Departure ATIS] CYEG DEP ATIS K 1506Z CYEG ARR ATIS K 1506Z 29007KT 20SM -SHRA FEW017 SCT060 CIG BKN085 13/11 A3004 APCH RNAV Z OR Y RWY 20, INFORM ARRL OF REQ APCH ON INITIAL CTC. LDG AND DEP RWY 20. SIMUL APPROACHES MAY BE IN EFCT. INFORM CYEG ATC INFO K",
    "EHAM": "[Arrival ATIS] EHAM ARR ATIS B 1353Z EHAM ARRIVAL INFO B. DEMAND. MAIN LANDING RWY 36 R. SECONDARY LANDING RWY 36 C. TRANSITION LEVEL 040. WIND 290 DEG, 15 KT, VRB BTN 250 AND 320 DEG, 20 KT MAX, 8 KT MNM. WIND SECONDARY RUNWAY 300 DEG, 14 KT, VRB BTN 260 AND 320 DEG, 20 KT MAX, 9 KT MNM. VIS 10 KM OR MORE. CLD FEW 1400 FT BKN 1600 FT BKN 2400 FT. T 19. DP 15. QNH 1022 HPA. TREND TEMPO CLD SCT 1600 FT. OPERATIONAL REPORT. INDEPENDENT PARALLEL APPROACHES IN PROGRESS. ILS RWY 36 C DOWNGRADED CLASSIFICATION I/C/ 1 SUPPORTS CAT 1. CONTACT APCH WITH CALLSIGN ONLY. END OF INFO B\n[Departure ATIS] EHAM DEP ATIS Y 1106Z EHAM DEPARTURE INFO Y. DEMAND. MAIN DEPARTURE RWY 36 L. MAIN LANDING RWY 36 R. WIND 280 DEG, 12 KT, VRB BTN 250 AND 330 DEG, 17 KT MAX, 7 KT MNM. VIS 10 KM OR MORE. WX -RA. CLD FEW 1200 FT BKN 1900 FT. T 19. DP 16. QNH 1022 HPA. OPERATIONAL REPORT. INFORM SCHIPHOL DEL BY VOICE IF UNABLE TO COMPLY WITH NADP 2. END OF INFO Y",
    "EBBR": "[Arrival ATIS] EBBR ARR ATIS S 0107Z EBBR NAT, EXP VECT FOR RNP APP ARR RWY25R RSCD AT 0010 RWY25R WET, RWYCC 555. DEP RWY19 RWY25R TRL 055 XNG RWY OPS INPR RWY25L FOR LDG ON ATC DISCRETION ONLY TAIL REP AT 0106, ALT 1000FT, 120 DEG/17 KT 100/6KT CAVOK T20 DP19 QNH 1015HPA NOSIG CFM ARR S\n[Departure ATIS] EBBR DEP ATIS O 0750Z EBBR NAT, DEP RWY01 RSCD AT 0602 RWY01 DRY. ARR RWY01 TRL 055 RWY 25R CLSD 290/6KT VRB BTN 260 AND 320 MNM4 MAX12 VIS ABV 10KM BKN2000FT BKN3700FT T20 DP16 QNH 1024HPA NOSIG CFM DEP O",
    "EDDF": "[Arrival ATIS] EDDF ARR ATIS U 1520Z ARR-ATIS EDDF U METAR 051520 EXPECT INDEPENDENT PARALLEL ILS Y APCH RWY 25R OR ILS APCH RWY 25L RWY 25R 25L GLS APCH ON REQUEST , DO NOT MISTAKE TWY M FOR RWY 25C WHEN PERFORMING VISUAL APPROACH , RWY COND AT TIME 1145 : ALL RWYS DRY , RWYCC 6 , TRL 60 BIRDS OBSERVED AROUND THE AERODROME 31012KT CAVOK T25 DP13 QNH1020 TREND TEMPO SHRA BKN040TCU END OF ATIS U\n[Departure ATIS] EDDF DEP ATIS H 1250Z DEP-ATIS EDDF H METAR 051250 RWY 25C 18 RWY COND AT TIME 1145 : ALL RWYS DRY , RWYCC 6 , ALL DEPARTING ACFT VIA OBOKA , MARUN AND TOBAK EXPECT SID WITH DESIGNATOR F OR G , TRL 60 BIRDS OBSERVED AROUND THE AERODROME VRB08KT RWY18 34006KT 9999 -SHRA FEW///CB T24 DP14 QNH1021 RESHRA TREND TEMPO SHRA BKN040TCU END OF ATIS H",
    "EDDL": "[Arrival ATIS] EDDL ARR ATIS S 1350Z ATIS EDDL S METAR 051350 EXPECT VECTORS ILS APPROACH RWY 23L TWY L8 CLOSED BETWEEN TWY M AND RWY 23L TRL 60 29013KT 250V330 9999 FEW035 SCT047 T24 DP14 QNH1021 TREND NOSIG CONTRACT ACTIVE UNTIL 1433Z OR T/D\n[Departure ATIS] EDDL DEP ATIS R EDDL ARR/DEP DATIS RPT -ATIS EDDL R METAR 020550 -EXPECT VECTORS ILS APPROACH -RWY 23L -TWY L8 CLOSED BETWEEN TWY M AND RWY 23L -TRL 60 - -23010KT -CAVOK - - -T19 DP13 -QNH1020 - -TREND NOSIG",
    "EDDK": "[Arrival ATIS] EDDK ARR ATIS P 1550Z ATIS EDDK P METAR 281550 EXPECT ILS APCH RWY 31R 24 RWY COND RWY 31R AT TIME 1325 RWYCC 6 DEPOSIT TOTAL RWY DRY RWY 24 AT TIME 1325 RWYCC 6 DEPOSIT TOTAL RWY DRY TRL 60 RWY 13R AND RWY 31L CLOSED FOR DEPARTURE AND LANDING: TAXIING BTN THR RWY 13R AND INTERSECTION RWY 24 POSSIBLE : 32008KT CAVOK T30 DP17 QNH1018 TREND NOSIG\n[Departure ATIS] EDDK DEP ATIS Q EDDK ARR/DEP DATIS RPT -ATIS EDDK Q METAR 291920 -EXPECT ILS APCH -RWY 31R 06 -RWY COND RWY 31R AT TIME 1830 RWYCC 6 DEPOSIT TOTAL RWY DRY RWY 06 AT TIME 1830 RWYCC 6 DEPOSIT TOTAL RWY DRY -TRL 60 -RWY 13R AND RWY 31L CLOSED FOR DEPARTURE AND LANDING: TAXIING BTN THR RWY 13R AND INTERSECTION RWY 24 POSSIBLE : -04003KT -CAVOK - - -T24 DP13 -QNH1024 - -TREND NOSIG",
    "EBLG": "[Arrival ATIS] EBLG ATIS Z 1520Z EBLG INFO, EXP RNAV TO ILS APP ARR RWY22L DEP RWY22L RWY 22L DRY, RWYCC 666. TRL 055 TWY A4 DISPLACED 310/12KT MNM7 MAX17 VIS ABV 10KM SCT3700FT T22 DP15 QNH 1023HPA NOSIG CFM ATIS Z",
    "LSZH": "[Arrival ATIS] LSZH ARR ATIS E 1350Z ARRIVALS, EXP RNP APCH, RWY 28. TRL 70. DEP RWY 32. WIND 280 DEG, 12 KT. VIS 10 KM OR MORE, TDZ 10 KM OR MORE. CLD SCT 7500 FT. T 28. DP 9. QNH 1022. NOSIG.\n[Departure ATIS] LSZH DEP ATIS X 1350Z DEP RWY 32. TRL 70. ARRIVALS, EXP RNP APCH, RWY 28. TMA S 1 IS ACT. TMA S 2 AND S 3 ARE ACT. WIND 300 DEG, 13 KT. VIS 10 KM OR MORE. CLD SCT 7500 FT. T 28. DP 9. QNH 1022. NOSIG.",
    "LIMC": "[Arrival ATIS] LIMC ARR ATIS J 1520Z LIMC ARR J 1520Z I.L.S. ZULU RWY IN USE 35L TL 70 WIND TDZ 270/7KT VRB BTN 220/AND 290/ CAVOK T33 DP10 QNH 1016HPA QFE 0991HPA\n[Departure ATIS] LIMC DEP ATIS L 0920Z LIMC DEP L 0920Z RWY IN USE 35L TL 70 WIND END 230/4KT VRB BTN 200/AND 320/ CAVOK T30 DP12 QNH 1020HPA QFE 0994HPA DATALINK CLEARANCE AVAILABLE.... CONTACT 1 3 1 8 8 0 TO BE RELEASED BY THE AIRPORT OPERATOR ...",
    "LIRF": "[Arrival ATIS] LIRF ARR ATIS H 0052Z LIRF ARR H 0052Z 1 6 RIGHT ILS ZULU RWY IN USE 16R TL 70 WIND TDZ VRB1KT VRB BTN 260/AND 330/ CAVOK T21 DP20 QNH 1017HPA\n[Departure ATIS] LIRF DEP ATIS Y 2020Z LIRF DEP Y 2020Z RWY IN USE 25 TL 70 RWYS IN USE FOR ARR 34R AND 34L WIND END 310/7KT CAVOK T25 DP20 QNH 1017HPA REA IS SENT AUTOMATICALLY ONCE RLSD BY RAMP WHEN READY CONTACT FIUME RAMP 121.725",
    "EINN": "[Arrival ATIS] EINN ARR ATIS G 1330Z EXPECT I L S CATEGORY 1 LDG RWY24 TKOF RWY24 TRL FL060 27009KT 230V300 9999 SCT016 BKN200 21/16 QNH Q1025 TREND NOSIG RUNWAY 2 4 SURFACE CONDITION CODE. 5 5 5. ISSUED AT 0 4 5 9. ALL PARTS. WET. 100 PERCENT ADVISE AT FIRST CONTACT YOU HAVE ATIS INFO G",
    "EGLL": "[Arrival ATIS] EGLL ARR ATIS I 0120Z LANDING RWY 27L TRANSITION-LEVEL: FL 70 IF STAND GUIDANCE IS OFF OR FAILS, REMAIN ON THE TAXIWAY CENTRELINE AND ADVISE ATC PILOTS ARE EXPECTED TO CHANGE TO RWY 27L AT AT 21:50 HOURS AUTO 28004KT 9999 NCD 17/15 Q1013 ACKNOWLEDGE RECEIPT OF INFORMATION I\n[Departure ATIS] EGLL DEP ATIS X 1550Z DEPARTURE RWY 27R RUNWAY 27R REDUCED DECLARED DISTANCES WITH TAKE OFF RUN AVAILABLE 3362METRES AND LANDING DISTANCE AVAILABLE 3362METRES PILOTS THAT ARE IN RECEIPT OF DATALINK CLEARANCES ARE REMINDED THEY MUST CONTACT DELIVERY ON 121.980 WHEN READY FOR START DET VOR OOS AUTO 30009KT 260V330 9999 NCD 28/14 Q1022 ACKNOWLEDGE RECEIPT OF INFORMATION X AND REPORT AIRCRAFT TYPE AND CURRENT QNH ON FIRST CONTACT WITH HEATHROW",
    "EPWA": "[Arrival ATIS] EPWA ARR ATIS L 1340Z EPWA ARR L. TIME 1338. EXP U ARR ILS Z APCH FOR RWY 33. RWY 33 RCC 6, 5, 6. 1ST PART, DRY. 2ND PART, WET. 3RD PART, DRY. RWY REPORT END. TRANSITION LEVEL 80. WIND 250 DEG, 6 KT, VRB BTN 190 AND 290 DEG. VIS TDZ 10 KM OR MORE. CLD SCT 3000 FT. T 20. DP 13. QNH 1009. TREND TEMPO VIS 4000 M, MOD SHRA, CLD BKN CB 2000 FT. CAUTION. BIRD ACT. END OF EPWA ARR L\n[Departure ATIS] EPWA DEP ATIS Q 1504Z EPWA DEP Q. TIME 1504. DEP RWY 29. ARR RWY 33, EXP U ARR ILS Z. REPORT READY FOR STARTUP ON DELIVERY 121. 605. RWY 29 RCC 5, 5, 5. 1ST PART, WET. 2ND PART, WET. 3RD PART, WET. RWY REPORT END. TRANSITION LEVEL 80. WIND 260 DEG, 10 KT. VIS MID 10 KM OR MORE. CLD FEW CB 3000 FT. T 18. DP 16. QNH 1009. RESHRA. TREND TEMPO WIND 270 DEG, 20 KT, GUSTING TO 30 KT, VIS 2000 M, MOD TSRA. CAUTION. BIRD ACT. END OF EPWA DEP Q",
    "EFHK": "[Arrival ATIS] EFHK ARR ATIS H 1450Z EXPECT ILS APCH ARR RWY 04L RUNWAY 04L CONDITION REPORT AT 1115 UTC RUNWAY CONDITION CODES 5 , 5 , 5 CONTAMINANTS ALL PARTS 100 PERCENT WET TRL 65 WIND 340 DEG 4 KT VRB BTN 290 AND 360 DEG VIS 10KM SCT 600 FT. FEW CB 2000 FT T 16 DP 15 QNH 999 TEMPO MOD TSRA ACK INFO H\n[Departure ATIS] EFHK DEP ATIS H 1620Z DEP RWYS 22R AND 22L RUNWAY 22R CONDITION REPORT AT 1329 UTC RUNWAY CONDITION CODES 6 , 6 , 6 CONTAMINANTS ALL PARTS DRY RUNWAY 22L CONDITION REPORT AT 1330 UTC RUNWAY CONDITION CODES 6 , 6 , 6 CONTAMINANTS ALL PARTS DRY WIND 110 DEG 6 KT VIS 10KM FEW 1400 FT. SCT 1600 FT. FEW TCU 2800 FT T 19 DP 15 QNH 1003 TEMPO CLD FEW CB 3000 FT. ACK INFO H",
    "LTAC": "[Arrival ATIS] LTAC ARR ATIS C 1620Z EXP ILS V APCH 03C DEP RWY 03L RWY 03C WIND 110 DEG 11 KT RWY 03L WIND 090 DEG 11 KT TRL 110 VIS 9999 VIS 4600 M FEW04000 FT T 25 DP 07 QNH 1020 NOSIG FOR DELIVERY CTC 121.9. FOR DELIVERY FIRST USE DIGITAL DEP CLR. CTN BIRD HAZARD OVR AERODROME. APCH FREQUENCY 129.050. TAXIWAY ECHO 1 IS CLOSED. END OF ATIS C",
    "UBBB": "[Arrival ATIS] UBBB ARR ATIS T 1530Z ATIS T EXP ILS/ LDG 34 35 DEP 34 35 IN USE RWY 34 CLEAR DRY 70 RWY 35 CLEAR DRY 70 TLVL 110 WIND WIND RWY 34 010 4 KT SPD MAX 6 MIN 4 WIND RWY 35 360 4 KT SPD MAX 6 MIN 4 VIS 10 KM FEW CB 6000 FT RWY 34 FEW CB 6000 FT RWY 35 T 26 / DP 20 QNH 1006 HPA TREND TREND NOSIG MODERATE BIRDS ACT IN VICINITY OF AP END OF ATIS T\n[Departure ATIS] UBBB DEP ATIS S 1500Z ATIS S EXP ILS/ LDG 34 35 DEP 34 35 IN USE RWY 34 CLEAR DRY 70 RWY 35 CLEAR DRY 70 TLVL 110 WIND WIND RWY 34 030 6 KT SPD MAX 10 MIN 6 WIND RWY 35 010 6 KT SPD MAX 8 MIN 4 VIS 10 KM FEW CB 6000 FT RWY 34 FEW CB 6000 FT RWY 35 T 27 / DP 19 QNH 1006 HPA TREND TREND NOSIG MODERATE BIRDS ACT IN VICINITY OF AP END OF ATIS S",
    "ZWWW": "[Arrival ATIS] ZWWW ARR ATIS H 1530Z EXP ILSDME Z APCH LDG RWY 26R TA 3000 WIND 280/2MPS VIS 9999M CLD BKN 1380M T 27 /DP 14 QNH 1011 HPA BIRDS ACTIVITY IN THE VICINITY OF THE AERODROME ADZ YOU HAVE INFO H.\n[Departure ATIS] ZWWW DEP ATIS N 0430Z DEP RWY 26L TA 3000 WIND 010/6MPS VIS 9999M CLD FEW 990M T 28 /DP 14 QNH 1013 HPA ADZ YOU HAVE INFO N.",
    "ZLXY": "[Arrival ATIS] ZLXY ARR ATIS Z 0100Z EXP ILS APCH LDG RWY 23R WIND 240/3MPS VRB BTN 220/ AND 290/ VIS 9999M CLD FEW 2100M T 23 /DP 20 QNH 1007 HPA VISUAL APPROACH IN PROGRESS ADZ YOU HAVE INFO Z.\n[Departure ATIS] ZLXY DEP ATIS U 0400Z DEP RWY 05L & 06L WIND VRB/1MPS VIS 9999M CLD FEW 450M /SCT 900M /OVC 1800M T 23 /DP 19 QNH 1008 HPA ADZ YOU HAVE INFO U.",
    "ZBAA": "[Arrival ATIS] ZBAA ARR ATIS J 1532Z EXP ILS APCH DEPENDENT PARL INSTR APCH LDG RWY 36L & 36R WIND 130 DEG 4 MPS CAVOK T 22 /DP 18 QNH 1000 HPA VISUAL APPROACH IS IN PROGRESS. ADZ YOU HAVE INFO J.\n[Departure ATIS] ZBAA DEP ATIS Q 0030Z DEP RWY 36L & 36R & 01 WIND 120 DEG 2 MPS 050V160 DEG VIS 4000 BR NSC T 27 /DP 23 QNH 1003 HPA RWY INDEPENDENT PARALLEL DEP ADZ YOU HAVE INFO Q.",
    "ZBHH": "[Arrival ATIS] ZBHH ARR ATIS D 0000Z EXP ILSDME APCH LDG RWY 26 TA 3000 /TRL 3600 WIND VRB/1MPS VIS 9999M CLD FEW 1200M T 18 /DP 15 QNH 1009 HPA ADZ YOU HAVE INFO D.\n[Departure ATIS] ZBHH DEP ATIS K 2300Z DEP RWY 26 TA 3000 /TRL 3600 WIND 060/3MPS VRB BTN 010/ AND 080/ CAVOK T 21 /DP 15 QNH 1010 HPA ADZ YOU HAVE INFO K.",
    "ZSQD": "[Arrival ATIS] ZSQD ARR ATIS O 0100Z EXP ILSDME APCH LDG RWY 17 TA 3000 /TRL 3600 WIND 160/5MPS VIS 9999M -RA CLD BKN 540M T 24 /DP 21 QNH 1006 HPA SEGREGATED OPERATION VISUAL APPROACH OPERATION IN PROGRESS. RUNWAY 17,IF MISSED APPROACH,EXPECT FOLLOW THE STANDARD MISSED APPROACH PROCEDURE,CLIMB TO 900M ON QNH OR BY ATC CAUTION MAYBE THERE IS A FLOCK OF BIRDS IN THE VICINITY OF AIRPORT ADZ YOU HAVE INFO O.\n[Departure ATIS] ZSQD DEP ATIS N 0000Z DEP RWY 16 TA 3000 /TRL 3600 WIND 140/4MPS VIS 9999M CLD BKN 510M T 23 /DP 21 QNH 1006 HPA SEGREGATED OPERATION VISUAL APPROACH OPERATION IN PROGRESS. RUNWAY 17,IF MISSED APPROACH,EXPECT FOLLOW THE STANDARD MISSED APPROACH PROCEDURE,CLIMB TO 900M ON QNH OR BY ATC CAUTION MAYBE THERE IS A FLOCK OF BIRDS IN THE VICINITY OF AIRPORT ADZ YOU HAVE INFO N."
  },
  "windtemp_alaska": "\n000\nFBAK31 KWNO 051400\nFD1AK1\nDATA BASED ON 051200Z    \nVALID 051800Z   FOR USE 1400-2100Z. TEMPS NEG ABV 24000\n\nFT  3000    6000    9000   12000   18000   24000  30000  34000  39000\nADK 1613 1813+09 2219+06 2425+02 2431-11 2538-23 257338 258248 257958\nADQ 0211 0210-03 0110-08 0110-14 3616-29 0417-37 360937 300937 261039\nAKN 0117 0318-02 0323-07 0425-12 0432-24 0636-38 053345 361441 341041\nANC 1009 1119+00 1018-05 1019-11 0923-23 0930-36 092749 112245 121141\nANN 1910 1912+00 2110-02 2410-06 2723-17 2739-27 285242 285652 284055\nBET 3606 9900+01 0906-04 0611-09 0516-23 0417-36 071750 061746 041243\nBRW 2908 2909+05 2911+02 2912-03 3012-15 3614-27 022944 023653 022355\nBTI 2820 2913+04 3110+00 3312-05 3514-17 3618-30 012147 012154 021749\nBTT 9900 9900+04 0405-02 0510-07 0724-18 0728-30 073146 073054 072350\nCDB 9900 3209+01 3217-02 3122-07 3028-21 2961-31 790143 299949 296146\nCZF 3505 3606+03 0209-04 0610-09 0810-22 1016-36 083949 073147 061644\nEHM 0110 0110+00 0606-05 0211-10 0218-22 0420-37 351749 322044 321642\nFAI 9900 0707+04 0807-03 0707-08 0408-21 0515-34 074048 084051 091845\nFYU 1205 9900+04 3605-04 0106-08 0726-18 0730-30 083046 073254 072148\nGAL 0407 0610+04 0710-02 0909-08 0716-21 0732-33 086346 075853 073146\nGKN 1306 1107+01 1009-04 1112-10 1023-23 1129-35 113249 132246 141244\nHOM 0818 0931-02 1032-06 1037-12 0944-25 0849-38 084346 101540 140740\nJNU 1610 1715+01 1711-05 1911-09 2213-21 2622-31 273346 274250 252147\nLUR 9900 9900+06 2106+02 9900-03 0806-15 0615-27 062943 063653 062757\nMCG 0611 0511+03 0610-04 0609-09 0821-22 0831-34 083250 083148 081943\nMDO 1230 1231-01 1232-05 1231-10 1527-23 1525-36 182747 182244 181441\nOME 9900 2105+03 9900-01 9900-06 0815-20 0738-30 075046 075153 072949\nORT      0809+05 0909-03 1010-09 1015-22 1014-33 121849 131750 151045\nOTZ 2306 9900+04 0905+00 0712-05 0720-18 0727-29 063545 063753 062752\nSNP 0205 9900+02 9900-04 9900-09 2814-21 2841-32 288143 286848 284146\nTKA 0506 0708+01 0913-04 1018-10 0924-23 0934-35 084350 092847 101643\nUNK 0406 0611+03 0713-03 0716-08 0723-21 0829-34 086147 075851 072745\nYAK 1308 1613-01 1712-05 1611-10 1911-21 2115-32 242646 232749 201446\nIKO 1110 1305+06 2405+02 2612-03 2845-12 2854-25 277738 279647 289158\nAFM 3005 9900+05 9900-01 0711-06 0722-18 0727-30 073246 063453 062651\n5AB 0925 1014+03 1309+03 1911+00 2022-15 2137-28 228341 229648 225252\n5AC 2017 2114+04 2219+00 2325-05 2728-14 2531-25 263941 264250 264259\n5AD 2710 2613+03 2520+01 2424-04 2534-17 2547-27 254642 254651 264550\n5AE 3220 3219-02 3022-06 3030-11 2945-23 2971-34 298142 296741 284542\n5AF 1717 1717+01 1817-03 1720-08 2621-17 2440-28 265342 265652 263253\n5AG 1525 1520+00 1420-04 1518-09 1918-20 2228-32 236144 236150 222446\n",
  "vaac_tokyo": [
    {
      "id": "20260705_30027000_0233",
      "year": "2026",
      "volcano": "Sheveluch",
      "psn": "N5639 E16122",
      "issued": "20260705",
      "text": "FVFE01 RJTD 051500\nVA ADVISORY\nDTG: 20260705/1500Z\nVAAC: TOKYO\nVOLCANO: SHEVELUCH 300270\nPSN: N5639 E16122\nAREA: RUSSIA\nSOURCE ELEV: 3283M AMSL\nADVISORY NR: 2026/233\nINFO SOURCE: HIMAWARI-9\nERUPTION DETAILS: VA EMISSIONS CONTINUING\nOBS VA DTG: 05/1420Z\nOBS VA CLD: SFC/FL400 N5620 E15857 - N5726 E15939 - N5638 E16124 - \nN5500 E15947 MOV SW 20KT\nFCST VA CLD +6 HR: 05/2020Z SFC/FL400 N5638 E16125 - N5304 E15927 - \nN5318 E15754 - N5643 E15951\nFCST VA CLD +12 HR: 06/0220Z SFC/FL400 N5635 E16119 - N5106 E16013 - \nN5016 E15850 - N5118 E15727 - N5336 E15802\nFCST VA CLD +18 HR: 06/0820Z SFC/FL400 N5635 E16119 - N4900 E16231 - \nN4721 E15935 - N4823 E15818 - N5122 E15815\nRMK: SOME PART OF VA OBSCURED BY MET CLOUD.\nNXT ADVISORY: 20260705/1800Z=",
      "img_url": "https://ds.data.jma.go.jp/svd/vaac/data/VAGFN/2026/Images/20260705_30027000_0233_QH21_01.png",
      "sat_img_url": "https://ds.data.jma.go.jp/svd/vaac/data/Sat/2026/Images/30027000/09-ir/20260705_1420_202607051500_ir.png",
      "text_url": "https://ds.data.jma.go.jp/svd/vaac/data/TextData/2026/20260705_30027000_0233_Text.html"
    },
    {
      "id": "20260705_27303000_0716",
      "year": "2026",
      "volcano": "Mayon",
      "psn": "N1315 E12341",
      "issued": "20260705",
      "text": "FVFE01 RJTD 051326\nVA ADVISORY\nDTG: 20260705/1326Z\nVAAC: TOKYO\nVOLCANO: MAYON 273030\nPSN: N1315 E12341\nAREA: PHILIPPINES\nSOURCE ELEV: 2462M AMSL\nADVISORY NR: 2026/716\nINFO SOURCE: HIMAWARI-9 PHIVOLCS\nERUPTION DETAILS: ERUPTION AT 20260705/1305Z FL090 EXTD WSW REPORTED\nOBS VA DTG: 05/1310Z\nOBS VA CLD: VA NOT IDENTIFIABLE FM SATELLITE DATA WIND FL090 050/6KT\nFCST VA CLD +6 HR: NOT AVBL\nFCST VA CLD +12 HR: NOT AVBL\nFCST VA CLD +18 HR: NOT AVBL\nRMK: WE WILL ISSUE FURTHER ADVISORY IF VA IS DETECTED IN SATELLITE \nIMAGERY.\nNXT ADVISORY: NO FURTHER ADVISORIES=",
      "img_url": "https://ds.data.jma.go.jp/svd/vaac/data/VAGFN/2026/Images/20260705_27303000_0716_QH21_01.png",
      "sat_img_url": null,
      "text_url": "https://ds.data.jma.go.jp/svd/vaac/data/TextData/2026/20260705_27303000_0716_Text.html"
    },
    {
      "id": "20260704_27202000_0228",
      "year": "2026",
      "volcano": "Kanlaon",
      "psn": "N1025 E12308",
      "issued": "20260704",
      "text": "FVFE01 RJTD 040601\nVA ADVISORY\nDTG: 20260704/0601Z\nVAAC: TOKYO\nVOLCANO: KANLAON 272020\nPSN: N1025 E12308\nAREA: PHILIPPINES\nSOURCE ELEV: 2435M AMSL\nADVISORY NR: 2026/228\nINFO SOURCE: HIMAWARI-9 PHIVOLCS\nERUPTION DETAILS: ERUPTION AT 20260704/0539Z FL090 EXTD SW REPORTED\nOBS VA DTG: 04/0540Z\nOBS VA CLD: VA NOT IDENTIFIABLE FM SATELLITE DATA WIND FL090 070/7KT\nFCST VA CLD +6 HR: NOT AVBL\nFCST VA CLD +12 HR: NOT AVBL\nFCST VA CLD +18 HR: NOT AVBL\nRMK: WE WILL ISSUE FURTHER ADVISORY IF VA IS DETECTED IN SATELLITE \nIMAGERY.\nNXT ADVISORY: NO FURTHER ADVISORIES=",
      "img_url": "https://ds.data.jma.go.jp/svd/vaac/data/VAGFN/2026/Images/20260704_27202000_0228_QH21_01.png",
      "sat_img_url": null,
      "text_url": "https://ds.data.jma.go.jp/svd/vaac/data/TextData/2026/20260704_27202000_0228_Text.html"
    },
    {
      "id": "20260701_30006000_0001",
      "year": "2026",
      "volcano": "Mutnovsky",
      "psn": "N5227 E15812",
      "issued": "20260701",
      "text": "FVFE01 RJTD 012206\nVA ADVISORY\nDTG: 20260701/2206Z\nVAAC: TOKYO\nVOLCANO: MUTNOVSKY 300060\nPSN: N5227 E15812\nAREA: RUSSIA\nSOURCE ELEV: 2288M AMSL\nADVISORY NR: 2026/1\nINFO SOURCE: KVERT KBGS UHPP HIMAWARI-9\nERUPTION DETAILS: ERUPTION AT 20260701/2016Z FL170 EXTD W REPORTED\nOBS VA DTG: 01/2140Z\nOBS VA CLD: VA NOT IDENTIFIABLE FM SATELLITE DATA WIND FL170 120/8KT\nFCST VA CLD +6 HR: NOT AVBL\nFCST VA CLD +12 HR: NOT AVBL\nFCST VA CLD +18 HR: NOT AVBL\nRMK: WE WILL ISSUE FURTHER ADVISORY IF VA IS DETECTED IN SATELLITE \nIMAGERY.\nNXT ADVISORY: NO FURTHER ADVISORIES=",
      "img_url": "https://ds.data.jma.go.jp/svd/vaac/data/VAGFN/2026/Images/20260701_30006000_0001_QH21_01.png",
      "sat_img_url": null,
      "text_url": "https://ds.data.jma.go.jp/svd/vaac/data/TextData/2026/20260701_30006000_0001_Text.html"
    }
  ],
  "vaac_alaska": [
    {
      "text": "\n000\nFVAK21 PAWU 051146\nVAAAK1\nVA ADVISORY\n\nDTG: 20260705/1142Z\n\nVAAC: ANCHORAGE\n\nVOLCANO: SHEVELUCH 300270\n\nPSN: N5639 E16122\n\nAREA: KAMCHATKA PENINSULA\n\nSOURCE ELEV: 10771 FT AMSL\n\nADVISORY NR: 2026/177\n\nINFO SOURCE: HIMAWARI\n\nERUPTION DETAILS: VA NOT IDENTIFIABLE FM SATELLITE DATA.\n\nOBS VA DTG: 05/1142Z\n\nOBS VA CLD: VA NOT IDENTIFIABLE\n\nFCST VA CLD +6HR: NOT AVBL\n\nFCST VA CLD +12HR: NOT AVBL\n\nFCST VA CLD +18HR: NOT AVBL\n\nRMK: A NEW ADVISORY WILL BE ISSUED IF VA IS DETECTED IN SATELLITE IMAGERY....TS\n\nNXT ADVISORY: NO FURTHER ADVISORIES=\n\n",
      "issued": "2026-07-05T11:46:00+00:00",
      "volcano": "Sheveluch",
      "psn": "N5639 E16122"
    }
  ]
}