{
  "updated_utc": "2026-07-18T03:48Z",
  "metar": {
    "RJAA": "METAR RJAA 180200Z 13012KT 100V160 9999 FEW020 29/24 Q1007 NOSIG",
    "PANC": "METAR PANC 180153Z 03005KT 10SM FEW028 BKN060 BKN100 13/09 A2989 RMK AO2 RAE51 SLP123 P0000 T01280094",
    "PAFA": "METAR PAFA 180153Z 00000KT 10SM -RA BKN060 BKN075 BKN090 18/05 A2979 RMK AO2 RAB38 SLP091 P0000 T01830050 $",
    "PAED": "METAR PAED 180155Z 03003KT 10SM FEW012 SCT055 BKN070 BKN095 14/10 A2987 RMK AO2A RAE53 SLP111 P0003 T01350101 $",
    "KSEA": "METAR KSEA 180153Z 21007KT 10SM BKN050 21/09 A3003 RMK AO2 SLP173 T02110089",
    "ZSPD": "METAR ZSPD 180200Z 29006MPS 270V330 CAVOK 36/25 Q1001 NOSIG",
    "ZSSS": "METAR ZSSS 180200Z 28004MPS 230V320 9999 SCT040 35/26 Q1001 NOSIG",
    "RJFR": "METAR RJFR 180200Z 06005KT 040V100 9999 FEW006 SCT030 29/27 Q1003",
    "VHHH": "METAR VHHH 180200Z 21015KT 9999 2400E SHRA FEW010CB SCT020 27/25 Q1006 TEMPO 24015G25KT 2500 TSRA SHRA FEW008CB SCT015",
    "RCTP": "METAR RCTP 180200Z 24020KT 9999 FEW020 SCT200 33/24 Q1005 WS R23R NOSIG RMK A2970",
    "ZGSZ": "METAR ZGSZ 180200Z 16003MPS 8000 -SHRA FEW020 BKN050 29/27 Q1006 NOSIG",
    "WSSS": "METAR WSSS 180200Z 10007KT 9999 FEW018 FEW020TCU BKN300 30/24 Q1012 NOSIG",
    "WMKK": "METAR WMKK 180200Z VRB02KT 9000 FEW017CB 29/24 Q1012 NOSIG",
    "WIDD": "METAR WIDD 180200Z 12004KT 060V180 9999 FEW015 30/26 Q1012 NOSIG",
    "VTBS": "METAR VTBS 180200Z 25006KT 9999 FEW020 30/22 Q1010 NOSIG",
    "VTBU": "METAR VTBU 180200Z 28006KT 9000 FEW020 30/27 Q1010 NOSIG",
    "ROAH": "METAR ROAH 180200Z 20007KT 9999 FEW008 BKN019 30/28 Q1006",
    "VVDN": "METAR VVDN 180200Z 24011KT CAVOK 33/22 Q1006 NOSIG",
    "RCKH": "METAR RCKH 180200Z 22006KT 190V290 9999 FEW012 SCT024 BKN040 31/25 Q1007 NOSIG RMK A2976",
    "KLAX": "METAR KLAX 180153Z 25008KT 10SM FEW012 FEW070 SCT150 23/18 A2992 RMK AO2 SLP131 T02280183 $",
    "KONT": "METAR KONT 180153Z 24010KT 10SM FEW200 30/11 A2992 RMK AO2 SLP114 T03000111 $",
    "KSFO": "METAR KSFO 180156Z 26019G26KT 10SM FEW008 17/12 A2995 RMK AO2 PK WND 27027/0112 SLP142 T01670117 $",
    "KOAK": "METAR KOAK 180153Z 25013KT 10SM FEW007 SCT011 17/12 A2995 RMK AO2 SLP143 T01720122",
    "KMHR": "METAR KMHR 180155Z AUTO 23010KT 9SM CLR 31/04 A2983 RMK AO2 T03140043 $",
    "KDFW": "METAR KDFW 180153Z 17011KT 10SM FEW065 BKN250 31/19 A3002 RMK AO2 SLP157 T03110194 $",
    "KIAH": "METAR KIAH 180153Z 16008KT 10SM FEW030 SCT250 30/24 A3007 RMK AO2 SLP183 T03000244",
    "KORD": "METAR KORD 180151Z 26007KT 10SM FEW045 BKN250 30/22 A2993 RMK AO2 SLP127 T03000217 $",
    "KJFK": "METAR KJFK 180151Z 14004KT 10SM BKN250 23/20 A3003 RMK AO2 SLP169 T02280200 $",
    "KRFD": "METAR KRFD 180154Z 19005KT 10SM FEW110 FEW250 26/23 A2995 RMK AO2 SLP135 T02610228 $",
    "KIND": "METAR KIND 180154Z 17006KT 10SM SCT024 SCT050 BKN100 BKN250 27/24 A3000 RMK AO2 SLP152 OCNL LTGICCCCG DSNT SW CB DSNT SW MOV E T02720239",
    "KDTW": "METAR KDTW 180153Z 20005KT 2SM FU OVC035 26/21 A2997 RMK AO2 SFC VIS 2 1/2 SLP143 FU OVC035 T02560206",
    "KMSP": "METAR KMSP 180153Z 23009KT 10SM FEW060 FEW250 32/22 A2983 RMK AO2 SLP092 TCU DSNT NW-NE T03220217",
    "CYEG": "METAR CYEG 180200Z 11012KT 20SM BKN210 25/16 A2991 RMK CI5 SLP124 DENSITY ALT 4100FT",
    "EHAM": "METAR EHAM 180155Z 30009KT 9999 FEW016 SCT020 BKN022 18/14 Q1016 NOSIG",
    "EBBR": "METAR EBBR 180150Z 30006KT 9999 BKN019 16/14 Q1017 NOSIG",
    "EDDF": "METAR EDDF 180150Z AUTO 19004KT CAVOK 16/16 Q1014 NOSIG",
    "EDFH": "METAR EDFH 180150Z 25004KT CAVOK 14/13 Q1016",
    "EDDL": "METAR EDDL 180150Z AUTO 30005KT 9999 FEW023 BKN046 18/15 Q1015 NOSIG",
    "EDDK": "METAR EDDK 180150Z AUTO 31006KT 9999 SCT023 17/14 Q1015 NOSIG",
    "EBLG": "METAR EBLG 180150Z 28004KT 9999 FEW018 15/14 Q1017 NOSIG",
    "LSZH": "METAR LSZH 180150Z AUTO 18002KT 9999 FEW051 SCT077 FEW///TCU 18/15 Q1017 NOSIG",
    "LIMC": "METAR LIMC 180150Z 02004KT CAVOK 22/19 Q1012 NOSIG",
    "LIRF": "METAR LIRF 180150Z 04002KT 9999 SCT010 25/24 Q1012 NOSIG",
    "EINN": "METAR EINN 180200Z 36009KT CAVOK 12/11 Q1023 NOSIG",
    "EGLL": "METAR EGLL 180150Z AUTO 05006KT 9999 OVC015 18/14 Q1018",
    "EGSS": "METAR EGSS 180150Z AUTO 36002KT 9999 NCD 14/12 Q1019",
    "EPWA": "METAR EPWA 180200Z VRB02KT 9999 -SHRA BKN050CB 19/18 Q1009 NOSIG",
    "UHPP": "METAR UHPP 180200Z 34005MPS 290V020 9999 SCT041 BKN077 29/16 Q1017 R34L/CLRD62 NOSIG RMK QFE759/1013",
    "EFHK": "METAR EFHK 180150Z 15007KT CAVOK 18/17 Q1009 NOSIG",
    "LBBG": "METAR LBBG 180200Z AUTO 21005KT 9999 FEW005/// 21/19 Q1013 TEMPO 4000 BR",
    "LTAC": "METAR LTAC 180150Z 05007KT CAVOK 17/10 Q1015 NOSIG RMK RWY21C 03006KT RWY03L 04006KT RWY21R 01006KT RWY03R 03006KT RWY21L 03007KT",
    "UBBB": "METAR UBBB 180200Z 33006KT 9999 FEW060CB 25/22 Q1009 NOSIG RMK OBS TS SW 50KM MOV NE 30KMH WKN",
    "UTAA": "METAR UTAA 180200Z 33004KT 310V020 9999 NSC 30/19 Q1007 R88/CLRD70 NOSIG",
    "UACC": "METAR UACC 180200Z 22004MPS CAVOK 25/13 Q1006 NOSIG RMK QFE724/0965",
    "UAAA": "METAR UAAA 180200Z VRB01MPS 9999 NSC 31/12 Q1008 NOSIG",
    "UZTT": "METAR UZTT 180200Z 09004KT CAVOK 32/13 Q1003 NOSIG",
    "ZWWW": "METAR ZWWW 180200Z 18002MPS 130V230 CAVOK 31/09 Q1009 NOSIG",
    "ZLXY": "METAR ZLXY 180200Z 30005MPS 7000 NSC 30/17 Q1009 NOSIG",
    "ZBAA": "METAR ZBAA 180200Z 15003MPS 100V180 CAVOK 29/23 Q1002 NOSIG",
    "ZBHH": "METAR ZBHH 180200Z 01003MPS 290V060 9999 FEW040 22/14 Q1010 NOSIG",
    "ZSQD": "METAR ZSQD 180200Z 05004MPS 030V090 9999 FEW030 27/20 Q1002 NOSIG",
    "ZMCK": "METAR ZMCK 180200Z 20005MPS 170V240 9999 FEW033 BKN250 23/10 Q1006 NOSIG RMK QFE640.1 42 MOP",
    "UUEE": "METAR UUEE 180200Z 25001MPS CAVOK 13/09 Q1018 R06R/CLRD62 NOSIG",
    "UUDD": "METAR UUDD 180200Z 31002MPS CAVOK 11/09 Q1017 R31L/CLRD65 NOSIG",
    "ULLI": "METAR ULLI 180200Z 17001MPS CAVOK 13/10 Q1014 R28L/090065 NOSIG",
    "USSS": "METAR USSS 180200Z 04003MPS 010V080 1700 1100W R26L/1700D BR BKN002 OVC007 16/16 Q1002 R26L/CLRD60 NOSIG RMK QFE731/0975",
    "UNNT": "METAR UNNT 180200Z 28003MPS CAVOK 21/17 Q1002 R25/CLRD// R16/CLRD// NOSIG RMK QFE741/0989",
    "UNKL": "METAR UNKL 180200Z 00000MPS 9000 -SHRA SCT033CB 18/18 Q1001 R29/290055 NOSIG RMK QFE725",
    "UIBB": "METAR UIBB 180200Z 15002MPS 100V190 9999 SCT013 17/15 Q0999 R12/210162 NOSIG RMK QFE707/0943",
    "UEEE": "METAR UEEE 180200Z 13001MPS 9999 SCT025CB 25/15 Q0995 R23/09//52 NOSIG RMK QFE737",
    "UHHH": "METAR UHHH 180200Z 14003MPS 080V170 9999 FEW040 27/19 Q1004 R88/090060 NOSIG RMK QFE747/0996",
    "UHSS": "METAR UHSS 180200Z 22004MPS 180V260 9999 NSC 31/23 Q1008 R19/CLRD70 NOSIG RMK QFE755/1006"
  },
  "taf": {
    "RJAA": "TAF RJAA 172305Z 1800/1906 13010KT 9999 FEW020 SCT030",
    "PANC": "TAF PANC 172335Z 1800/1906 03007KT P6SM -SHRA SCT007 OVC060 FM180500 16007KT P6SM VCSH SCT035 BKN060 FM181800 19004KT P6SM VCSH OVC050 FM182000 16008KT 6SM -RA OVC040 FM190000 14012G24KT P6SM VCSH SCT040 OVC070 FM190500 34005KT 6SM -RA OVC060 WS008/12025KT",
    "PAFA": "TAF PAFA 180243Z 1803/1906 24006KT P6SM VCSH BKN060 FM180600 00000KT P6SM SCT070 FM190000 18009KT P6SM SCT100",
    "PAED": "TAF PAED 172100Z 1721/1903 27006KT 9000 -RA SCT007 BKN025 OVC040 620604 QNH2982INS TEMPO 1723/1802 BKN015 OVC020 BECMG 1808/1809 20007KT 9999 VCSH SCT010 BKN040 OVC055 620604 QNH2991INS BECMG 1816/1817 VRB06KT 9000 -RA SCT009 BKN020 OVC040 620604 QNH2999INS BECMG 1821/1822 VRB06KT 9999 VCSH BKN050 OVC065 620604 QNH3000INS TX13/1800Z TN10/1811Z",
    "KSEA": "TAF KSEA 180256Z 1803/1906 23007KT P6SM BKN050 FM180600 32005KT P6SM BKN050 FM181100 20004KT P6SM SCT020 BKN035 FM181700 23004KT P6SM BKN045 FM182100 29005KT P6SM FEW050 FM190200 35008KT P6SM FEW250",
    "ZSPD": "TAF ZSPD 172102Z 1800/1906 21004MPS 8000 SCT030 TX34/1806Z TX31/1906Z TN28/1821Z TEMPO 1804/1808 TSRA BKN008 FEW030CB BECMG 1809/1810 03004MPS",
    "ZSSS": "TAF ZSSS 172104Z 1800/1906 21004MPS 8000 SCT030 TX35/1806Z TX32/1906Z TN27/1821Z TEMPO 1804/1808 TSRA BKN011 FEW030CB BECMG 1811/1812 03004MPS",
    "RJFR": "TAF RJFR 172305Z 1800/1906 06004KT 9999 FEW015 BKN040 BECMG 1801/1803 09010KT BECMG 1805/1807 07006KT TEMPO 1806/1809 -TSRA FEW025 FEW025CB BKN030 BECMG 1815/1818 09004KT BECMG 1903/1906 07010KT",
    "VHHH": "TAF VHHH 180200Z 1803/1909 20010KT 9999 FEW010 SCT025 TX30/1806Z TX30/1906Z TN27/1822Z TEMPO 1803/1805 24020G30KT 2000 TSRA +SHRA FEW008CB SCT015 TEMPO 1805/1808 3000 SHRA FEW010CB SCT020 TEMPO 1821/1903 24015G25KT 2500 TSRA SHRA FEW008CB SCT015",
    "RCTP": "TAF RCTP 172300Z 1800/1906 23013KT 9999 FEW015 TEMPO 1802/1808 25018KT BECMG 1810/1812 22008KT TEMPO 1816/1822 18005KT TEMPO 1902/1906 24013KT",
    "ZGSZ": "TAF ZGSZ 172109Z 1800/1906 18004MPS 8000 BKN030 TX31/1806Z TX32/1906Z TN28/1822Z TEMPO 1800/1802 SHRA FEW025CB BKN030 TEMPO 1805/1808 TSRA SCT010 FEW025CB BKN030 TEMPO 1823/1902 TSRA SCT010 FEW025CB BKN030",
    "WSSS": "TAF AMD WSSS 180115Z 1801/1906 14008KT 9999 FEW015 SCT020",
    "WMKK": "TAF WMKK 172300Z 1800/1906 04005KT 9999 FEW018 PROB40 TEMPO 1806/1810 5000 TSRA FEW017CB",
    "VTBS": "TAF VTBS 172300Z 1800/1906 23008KT 9999 FEW020 TEMPO 1809/1813 VRB15KT 4000 TSRA FEW018CB SCT030 BKN080",
    "VTBU": "TAF VTBU 172300Z 1800/1824 24008KT 9000 FEW020 BECMG 1816/1818 01004KT",
    "ROAH": "TAF ROAH 172305Z 1800/1906 22008KT 9999 FEW008 SCT012 TEMPO 1800/1802 FEW005 BKN008 TEMPO 1812/1815 FEW005 BKN008 TEMPO 1815/1821 FEW003 BKN005 TEMPO 1821/1903 FEW005 BKN008",
    "VVDN": "TAF VVDN 172300Z 1800/1824 22008KT 9999 FEW020 BECMG 1804/1805 36010KT BECMG 1809/1810 12008KT",
    "RCKH": "TAF RCKH 172300Z 1800/1906 26005KT 9999 FEW015 BKN032 TEMPO 1800/1804 21005KT 4000 SHRA SCT008 FEW012CB BKN016 TEMPO 1804/1810 25010KT FEW010 FEW015CB BKN017 BECMG 1810/1812 07005KT TEMPO 1810/1814 5000 SHRA FEW008 FEW015TCU BKN017 TEMPO 1818/1822 3500 SHRA SCT006 FEW010CB BKN014 TEMPO 1900/1904 24010KT 2500 SHRA SCT005 SCT008CB BKN011",
    "KLAX": "TAF KLAX 180259Z 1803/1906 25006KT P6SM FEW012 FM180700 11007KT P6SM OVC012 FM181600 16005KT P6SM SCT015 FM181900 26012KT P6SM FEW025 FM190300 24006KT P6SM FEW015 SCT150",
    "KONT": "TAF KONT 180231Z 1803/1906 25011KT P6SM FEW200 FM180800 VRB04KT P6SM SCT200 FM182000 26010G21KT P6SM SCT200",
    "KSFO": "TAF KSFO 180244Z 1803/1906 27015G25KT P6SM FEW008 BKN012 FM180600 28010KT P6SM FEW005 OVC008 FM181900 28015G20KT P6SM SKC FM190300 29015KT P6SM SCT015",
    "KOAK": "TAF KOAK 180244Z 1803/1906 26015KT P6SM FEW007 BKN012 FM180400 27010KT P6SM FEW005 OVC008 FM181800 28010KT P6SM FEW005 SCT010 FM182000 30015KT P6SM SKC FM190300 29012KT P6SM SCT015",
    "KMHR": "TAF KMHR 172331Z 1800/1824 22012KT P6SM SKC FM180600 17008KT P6SM SKC FM181500 VRB05KT P6SM SKC",
    "KDFW": "TAF KDFW 180257Z 1803/1906 18011KT P6SM SCT050 TEMPO 1812/1815 BKN022 FM181700 18017KT P6SM SCT060 FM190200 18007KT P6SM FEW250",
    "KIAH": "TAF KIAH 180339Z 1804/1906 17008KT P6SM FEW250 FM181500 20007KT P6SM SCT020 BKN035 FM181900 18008KT P6SM SCT045 SCT250",
    "KORD": "TAF KORD 180300Z 1803/1906 24006KT P6SM FEW050 FM181400 27013G22KT P6SM SCT050 BKN250 TEMPO 1818/1820 01020G30KT 1SM TSRA BR BKN020 OVC050CB FM182000 06011G17KT P6SM FEW015 SCT035 FM190100 03012G18KT 5SM FU SCT015",
    "KJFK": "TAF KJFK 180237Z 1803/1906 17004KT 6SM FU BKN250 FM181300 20010KT 6SM FU OVC150 FM181500 19012KT 6SM FU VCSH SCT015 OVC070 TEMPO 1815/1818 3SM SHRA BKN015 OVC070 FM181800 19014KT P6SM VCSH SCT015 OVC070 TEMPO 1819/1823 2SM TSRA BR BKN015 OVC050CB FM182300 20014G22KT 5SM -SHRA BKN015 OVC050 TEMPO 1823/1903 2SM TSRA BR BKN009 OVC050CB FM190300 24012KT 4SM SHRA BKN025 OVC050",
    "KRFD": "TAF KRFD 180300Z 1803/1824 20006KT P6SM FEW050 FM181400 28013G22KT P6SM SCT050 BKN250 PROB30 1817/1819 2SM TSRA BR SCT020 BKN050CB FM181900 33011KT P6SM SCT035 FM182200 01011KT P6SM SCT040",
    "KIND": "TAF KIND 180239Z 1803/1906 24007KT P6SM FEW020 BKN100 FM181500 27013KT P6SM SCT050 PROB30 1822/1903 VRB15G25KT 5SM -TSRA BKN030CB FM190300 32008KT P6SM VCSH BKN100",
    "KDTW": "TAF KDTW 180228Z 1802/1906 23008KT 6SM HZ SCT035 BKN120 FM181500 26016G23KT P6SM SCT030 BKN050 OVC120 TEMPO 1817/1820 2SM TSRA OVC030CB FM182100 32014G22KT P6SM SCT045 BKN060 FM190200 02012KT P6SM BKN200",
    "KMSP": "TAF KMSP 180238Z 1803/1906 24010KT 6SM -TSRA SCT060CB TEMPO 1803/1804 30015G25KT 2SM -TSRA BKN050CB FM180400 33008KT 4SM FU SCT080 FM181500 35010KT 6SM FU FEW200",
    "CYEG": "TAF CYEG 180240Z 1803/1824 10012KT P6SM SCT240 FM180500 12008KT P6SM BKN080 TEMPO 1805/1808 VRB25G35KT P6SM VCTS BKN080CB FM180800 12005KT P6SM SCT040 FM181000 10005KT P6SM SCT012 TEMPO 1810/1815 BKN012 PROB30 1810/1815 3/4SM BR BKN004 FM181500 13005KT P6SM SCT025 BECMG 1816/1818 27008KT FM181800 27008KT P6SM SCT080 FM182200 27006KT P6SM FEW050 TEMPO 1822/1824 VRB25G35KT P6SM VCTS BKN050CB RMK NXT FCST BY 180600Z",
    "EHAM": "TAF EHAM 172305Z 1800/1906 31010KT 9999 SCT020 TEMPO 1800/1808 BKN018",
    "EBBR": "TAF EBBR 172301Z 1800/1906 32006KT 9999 FEW035",
    "EDDF": "TAF EDDF 172300Z 1800/1906 26005KT CAVOK BECMG 1810/1812 28010KT BECMG 1819/1821 35005KT PROB30 TEMPO 1900/1904 SHRA BKN045CB",
    "EDFH": "TAF EDFH 172300Z 1800/1824 28006KT CAVOK PROB30 TEMPO 1814/1818 30015G25KT 4500 TSRA BKN050CB",
    "EDDL": "TAF EDDL 172300Z 1800/1906 30005KT 9999 BKN040 PROB30 TEMPO 1803/1807 BKN014 BECMG 1809/1811 28011KT BECMG 1820/1822 31005KT",
    "EDDK": "TAF EDDK 172300Z 1800/1906 30006KT CAVOK PROB30 TEMPO 1804/1807 BKN014 BECMG 1810/1812 30011KT BECMG 1820/1822 32006KT",
    "EBLG": "TAF EBLG 172301Z 1800/1906 32008KT 9999 FEW030 PROB30 TEMPO 1803/1806 BKN014",
    "LSZH": "TAF LSZH 180225Z 1803/1909 VRB02KT 9999 SCT050 TX25/1814Z TN16/1804Z TN15/1904Z BECMG 1808/1811 26010KT SCT060TCU PROB40 TEMPO 1812/1817 30015G25KT TSRA FEW060CB BECMG 1818/1820 VRB02KT SCT060 BECMG 1820/1822 CAVOK BECMG 1905/1908 9999 SCT040",
    "LIMC": "TAF LIMC 172300Z 1800/1906 VRB05KT 9999 FEW040 BECMG 1812/1814 22010KT PROB30 TEMPO 1812/1817 4000 TSRA BECMG 1817/1819 VRB05KT",
    "LIRF": "TAF LIRF 172300Z 1800/1906 VRB05KT 8000 FEW010 TEMPO 1802/1806 1000 BCFG BKN004 BECMG 1809/1811 28012KT BECMG 1818/1820 VRB05KT",
    "EINN": "TAF EINN 172300Z 1800/1824 36010KT 9999 FEW040 PROB30 TEMPO 1804/1806 3000 BR",
    "EGLL": "TAF EGLL 172254Z 1800/1906 06010KT 9999 FEW048 PROB30 TEMPO 1801/1807 BKN012 PROB40 TEMPO 1900/1906 34006KT",
    "EGSS": "TAF AMD EGSS 180320Z 1803/1906 35006KT 9999 FEW045 PROB30 TEMPO 1803/1808 7000 BKN011",
    "EPWA": "TAF EPWA 180230Z 1803/1903 VRB04KT CAVOK TEMPO 1803/1805 -SHRA SCT040CB BECMG 1803/1806 25010KT TEMPO 1810/1819 SHRA SCT040CB PROB40 TEMPO 1815/1819 3000 TSRA BKN030CB",
    "UHPP": "TAF UHPP 180137Z 1803/1909 30003G12MPS 9999 SCT040CB TX29/1803Z TN18/1816Z TEMPO 1803/1809 36005G12MPS",
    "EFHK": "TAF EFHK 180229Z 1803/1903 13006KT CAVOK TEMPO 1804/1812 SCT050CB TEMPO 1812/1817 5000 SHRA SCT040CB PROB30 TEMPO 1815/1817 21012G25KT 4000 TSRA BKN009 TEMPO 1817/1824 21012G25KT 3000 TSRA BKN006 BKN030CB BECMG 1900/1903 BKN005",
    "LBBG": "TAF LBBG 172300Z 1800/1824 VRB03KT 9999 SCT045 TEMPO 1800/1805 3000 BR BKN008 PROB40 1801/1804 0600 BCFG BKN003 BECMG 1807/1809 12012KT BECMG 1818/1820 VRB03KT",
    "LTAC": "TAF LTAC 172240Z 1800/1824 04009KT CAVOK BECMG 1806/1809 SCT040 BECMG 1818/1820 CAVOK",
    "UBBB": "TAF UBBB 172303Z 1800/1824 32010KT CAVOK TX32/1810Z TN23/1801Z TEMPO 1800/1804 35008KT SCT015 FEW050CB TEMPO 1804/1814 36014G24KT SCT025 TEMPO 1814/1824 34016KT",
    "UTAA": "TAF UTAA 172245Z 1800/1824 34018KT 6000 SCT050 TX41/1811Z TEMPO 1800/1808 30016G26KT 4000 DRDU BECMG 1818/1820 24014KT",
    "UACC": "TAF UACC 172302Z 1800/1824 20004MPS 9999 SCT030 BKN100 TX35/1809Z TN16/1800Z BECMG 1804/1806 24006MPS SCT040CB BKN100 TEMPO 1804/1816 28008G13MPS -TSRA BKN030CB BECMG 1816/1818 08005MPS TEMPO 1816/1824 12006MPS -TSRA BKN020CB",
    "UAAA": "TAF UAAA 172301Z 1800/1824 04003G08MPS 9999 FEW100 TX41/1810Z TN21/1800Z TEMPO 1800/1803 17003MPS BECMG 1813/1814 18003MPS",
    "UZTT": "TAF UZTT 172300Z 1800/1824 07010KT CAVOK TX44/1811Z TN26/1800Z TEMPO 1806/1818 32015KT",
    "ZWWW": "TAF ZWWW 172104Z 1800/1906 18004MPS CAVOK TX41/1809Z TX38/1906Z TN29/1823Z BECMG 1802/1803 36004MPS BECMG 1813/1814 18004MPS BECMG 1902/1903 36004MPS",
    "ZLXY": "TAF ZLXY 172109Z 1800/1824 28004MPS 6000 NSC TX33/1808Z TN21/1821Z",
    "ZBAA": "TAF ZBAA 172113Z 1800/1906 18004MPS CAVOK TX31/1806Z TX33/1906Z TN21/1821Z TEMPO 1808/1812 -TSRA FEW040CB BKN040",
    "ZBHH": "TAF AMD ZBHH 172221Z 1718/1818 04004MPS 9999 SCT040 TX29/1808Z TN16/1722Z BECMG 1721/1722 33007G12MPS BECMG 1812/1813 03003MPS",
    "ZSQD": "TAF ZSQD 172104Z 1800/1824 36004MPS 5000 BR NSC TX30/1806Z TN21/1820Z",
    "ZMCK": "TAF ZMCK 172241Z 1800/1906 VRB02MPS 9999 FEW030CB SCT033 TX24/1807Z TN12/1821Z PROB40 TEMPO 1805/1816 VRB08G13MPS TSRA SCT027CB SCT030 BECMG 1902/1904 32005MPS",
    "UUEE": "TAF UUEE 180150Z 1803/1903 36003MPS 9999 SCT040 TX25/1813Z TN12/1803Z",
    "UUDD": "TAF UUDD 180154Z 1803/1909 36003MPS 9999 SCT040 TX28/1909Z TN10/1803Z",
    "ULLI": "TAF ULLI 180151Z 1803/1903 16003MPS 9999 SCT020 BECMG 1804/1806 18006G12MPS",
    "USSS": "TAF AMD USSS 180238Z 1803/1903 08003G14MPS 6000 -SHRA BKN016CB TEMPO 1803/1806 -TSRA BKN002 BKN011CB TEMPO 1806/1903 -TSRA",
    "UNNT": "TAF UNNT 180200Z 1803/1903 27003G08MPS 8000 SCT040 TX27/1809Z TN16/1822Z TEMPO 1803/1819 22008G18MPS -TSRA BKN020CB TEMPO 1819/1901 0300 FG BKN001",
    "UNKL": "TAF UNKL 180151Z 1803/1903 27003MPS 6000 -SHRA BKN016CB TEMPO 1803/1806 2000 -TSRA BR BKN005 BKN016CB BECMG 1806/1808 27008G16MPS -TSRA BECMG 1809/1811 27003MPS NSW TEMPO 1811/1815 -TSRA",
    "UIBB": "TAF UIBB 180200Z 1803/1903 15003G08MPS 9999 BKN020CB TEMPO 1803/1812 1900 TSRA BKN009CB BECMG 1812/1814 28005MPS",
    "UEEE": "TAF UEEE 180200Z 1803/1909 16003G08MPS 9999 SCT020CB OVC070 TEMPO 1803/1815 VRB16MPS 4000 -TSRA SCT007 BKN020CB OVC070",
    "UHHH": "TAF UHHH 180145Z 1803/1909 20003MPS 9999 SCT025CB TX29/1804Z TN19/1818Z",
    "UHSS": "TAF UHSS 180150Z 1803/1909 18003MPS 9999 BKN030CB TX31/1803Z TN17/1821Z"
  },
  "atis": {
    "RJAA": "[Arrival ATIS] RJAA ARR ATIS R 0416Z M0400 (APCH)ILS Z RWY34R LDG RWY 34R DEP RWY 34L DEP FREQ 124.2. TWY A1 CLSD. OBSERVE GEAR DOWN OPS PROC ON FNL. M 230400Z 04009KT 010V070 30KM BKN020CU BKN/// 22/16 Q1010/A2985= Q/TWO NINE EIGHT FIVE STP\n[Departure ATIS] RJAA DEP ATIS R 0403Z M0400 (APCH)ILS Z RWY34R LDG RWY 34R DEP RWY 34L DEP FREQ 124.2. TWY A1 CLSD. OBSERVE GEAR DOWN OPS PROC ON FNL. M 230400Z 04009KT 010V070 30KM BKN020CU BKN/// 22/16 Q1010/A2985= Q/TWO NINE EIGHT FIVE STP",
    "PANC": "[Arrival ATIS] PANC ARR ATIS I 0353Z ANC ATIS INFO I 0353Z. 14015G22KT 10SM FEW060 BKN095 15/08 A3003 (THREE ZERO ZERO THREE). ILS RWY 15 APPROACHES IN USE. LANDING RWY 15, DEPARTING RWY 25L, 15. NOTICE TO AIRMEN. RWY 25R CLSD. CHECK NOTAMS FOR TAXIWAY CLOSURES. CAUTION FOR BIRD ACTIVITY IN THE ARPT AREA. ...ADVS YOU HAVE INFO I.\n[Departure ATIS] PANC DEP ATIS H 0253Z ANC ATIS INFO H 0253Z. 14015G28KT 10SM OVC100 15/07 A3004 (THREE ZERO ZERO FOUR) RMK AO2 PK WND 16029/0229 SLP172 T01500072 58002. ILS RWY 15 APPROACHES IN USE. LANDING RWY 15, DEPARTING RWY 25L, 15. NOTICE TO AIRMEN. RWY 25R CLSD. CHECK NOTAMS FOR TAXIWAY CLOSURES. CAUTION FOR BIRD ACTIVITY IN THE ARPT AREA. ...ADVS YOU HAVE INFO H.",
    "KSEA": "[Arrival ATIS] KSEA ARR ATIS E 0253Z SEA ATIS INFO E 0253Z. 18007KT 10SM BKN050 20/09 A3004 (THREE ZERO ZERO FOUR). ILS AND CHARTED VISUAL APPROACH RWYS 16R AND 16L , APCH IN USE. DEPG RWY 16L, DEPG ACFT PLAN AND BRIEF NUMBERS FOR BOTH RWYS 16L AND 16C. SIMUL APCHS IN USE, BFI & SEA. TRAFFIC BELOW YOU ON FINAL. SIMUL APCHS IN USE TO PARA RYS. NOTAMS... BIRD ACTIVITY VICINITY ARPT. STADIUM TFR IN EFFECT CHECK FDC NOTAMS FOR MORE INFO. ...ADVS YOU HAVE INFO E.\n[Departure ATIS] KSEA DEP ATIS E 0253Z SEA ATIS INFO E 0253Z. 18007KT 10SM BKN050 20/09 A3004 (THREE ZERO ZERO FOUR). ILS AND CHARTED VISUAL APPROACH RWYS 16R AND 16L , APCH IN USE. DEPG RWY 16L, DEPG ACFT PLAN AND BRIEF NUMBERS FOR BOTH RWYS 16L AND 16C. SIMUL APCHS IN USE, BFI & SEA. TRAFFIC BELOW YOU ON FINAL. SIMUL APCHS IN USE TO PARA RYS. NOTAMS... BIRD ACTIVITY VICINITY ARPT. STADIUM TFR IN EFFECT CHECK FDC NOTAMS FOR MORE INFO. ...ADVS YOU HAVE INFO E.",
    "ZSPD": "[Arrival ATIS] ZSPD ARR ATIS J 0400Z EXP ILS APCH INDEPENDENT PARL INSTR APCH LDG RWY 35L & 34R WIND RWY 35L TDZ 360/3MPS MID 020/3MPS END 020/2MPS RWY 34R TDZ 350/3MPS MID 010/3MPS END 010/3MPS VIS RWY 35L TDZ 10000M MID 3700M END 9000M VIS RWY 34R TDZ 10000M MID 9000M END 10000M FBL SHRA CLD BKN 210M T 23 /DP 23 QNH 1003 HPA SUPPLEMENT INFO RESHRA CAUTION THE BIRDS NEAR THE RUNWAY RWY 35R/35L/34R/34L RWYCC 5/5/5 ISSUED AT 0045 WET/WET/WET DPT NR/NR/NR COV 100PCT/100PCT/100PCT. ADZ YOU HAVE INFO J.\n[Departure ATIS] ZSPD DEP ATIS F 0300Z DEP RWY 35R & 34L WIND RWY 35R TDZ 340/4MPS MID 360/4MPS END 360/4MPS RWY 34L TDZ 360/4MPS MID 360/4MPS END 350/4MPS VIS RWY 35R TDZ 10000M MID 10000M END 10000M VIS RWY 34L TDZ 10000M MID 10000M END 10000M FBL SHRA CLD BKN 210M T 23 /DP 23 QNH 1004 HPA CAUTION THE BIRDS NEAR THE RUNWAY RWY 17L/17R/16L/16R RWYCC 5/5/5 ISSUED AT 0035 WET/WET/WET DPT NR/NR/NR COV 100PCT/100PCT/100PCT. ADZ YOU HAVE INFO F.",
    "ZSSS": "[Arrival ATIS] ZSSS ARR ATIS N 0400Z EXP ILS APCH LDG RWY 36R WIND RWY 36R TDZ 010/4MPS MID 010/3MPS END 020/4MPS VIS RWY 36R TDZ 10000M MID 10000M END 10000M CLD BKN 300M T 24 /DP 22 QNH 1004 HPA RWY36L RWYCC 5/5/5 ISSUED AT 0300 WET/WET/WET DPT NR/NR/NR COV 100PCT/100PCT/100PCT RWY36R RWYCC 5/5/5 ISSUED AT 0300 WET/WET/WET DPT NR/NR/NR COV 100PCT/100PCT/100PCT QNH OF SHANGHAI TERMINAL CONTROL AREA 1003 HPA ADZ YOU HAVE INFO N.\n[Departure ATIS] ZSSS DEP ATIS D 1200Z DEP RWY 36L WIND RWY 36L TDZ 040/3MPS MID 030/4MPS END 040/5MPS VIS RWY 36L TDZ 10000M MID 10000M END 10000M CLD BKN 210M T 22 /DP 21 QNH 1003 HPA RWY36L RWYCC 5/5/5 ISSUED AT 0640 WET/WET/WET DPT NR/NR/NR COV 100PCT/100PCT/100PCT RWY36R RWYCC 5/5/5 ISSUED AT 0640 WET/WET/WET DPT NR/NR/NR COV 100PCT/100PCT/100PCT QNH OF SHANGHAI TERMINAL CONTROL AREA 1002 HPA ADZ YOU HAVE INFO D.",
    "VHHH": "[Arrival ATIS] VHHH ARR ATIS H 0405Z ARRIVALS, RWY 25R/L. EXP RNAV TRANSITION TO ILS APCH, RWY 25R. EXP ILS APCH, RWY 25L. RNP APCH IS AVBL ON REQ, RWY 25R. CAUTION POSSIBLE GP FLUCTUATION RWY 25L. WIND RWY 25R 230/12KT RWY 25L 250/12KT. VIS RWY 25R 10KM RWY 25L 10KM. CLD FEW 1200FT SCT 2500FT. T32 DP25. QNH 1004HPA. ACK INFO H ON FIRST CTC WITH APP.\n[Departure ATIS] VHHH DEP ATIS W 0407Z DEPARTURES, RWY 25C/L. INDEPENDENT PARALLEL DEPARTURE IN PROGRESS. WIND RWY 25C 240/14KT RWY 25L 240/11KT. VIS RWY 25C 10KM RWY 25L 10KM. CLD FEW 1200FT SCT 2500FT. T32 DP25. QNH 1004HPA. ACK INFO W ON FIRST CTC WITH DELIVERY .",
    "RCTP": "[Arrival ATIS] RCTP ARR ATIS P 0400Z EXP ILS APCH RWY23R ARR/DEP. RWY23L CLSD BTN 0400Z AND 0430Z FOR INSPECTION. WIND 280/13KT VIS 10 KM OR MORE CLD FEW 2000FT BKN 20000FT T 34 DP 27 QNH 1003HPA NOSIG CTN BIRD ACTIVITY IN THE VCY OF THE AD. INFORM TAIPEI APCH OR TAIPEI TOWER ON INITIAL CONTACT YOU HAVE INFORMATION P\n[Departure ATIS] RCTP DEP ATIS L 0200Z EXP ILS APCH RWY23R FOR ARR. RWY23R AND RWY23L FOR DEP. WIND 250/06KT VARYING BTN 210 AND 280 VIS 10 KM OR MORE CLD FEW 2000FT BKN 20000FT T 33 DP 24 QNH 1004HPA NOSIG CTN BIRD ACTIVITY IN THE VCY OF THE AD. DUE TO FLOW CONTROL BY HONGKONG AND FUKUOKA F-I-R, TRAFFIC CONCERNED MAY BE DELAYED. INFORM TAIPEI APCH OR TAIPEI TOWER ON INITIAL CONTACT YOU HAVE INFORMATION L",
    "ZGSZ": "[Arrival ATIS] ZGSZ ARR ATIS L 0400Z EXP ILS APCH 15 EXP ILS OR VIS APCH 16R WIND 180/7MPS VIS 9999M CLD SCT 1290M T 32 /DP 28 QNH 1004 HPA INDEPENDENT PARALLEL DEPARTURES DEPENDENT PARALLEL APPROACHES MISSED APPROACH ALTITUDE SETTING 1200METERS WHEN AIRBORNE CONTACT ZHUHAI APPROACH EXPECTED RNP ILS DME Z APPROACH ADZ YOU HAVE INFO L.\n[Departure ATIS] ZGSZ DEP ATIS K 0330Z DEP RWY 15 & 16L WIND 170/6MPS VRB BTN 140/ AND 200/ VIS 9999M CLD SCT 600M T 31 /DP 27 QNH 1004 HPA INDEPENDENT PARALLEL DEPARTURES DEPENDENT PARALLEL APPROACHES MISSED APPROACH ALTITUDE SETTING 1200METERS WHEN AIRBORNE CONTACT ZHUHAI APPROACH EXPECTED RNP ILS DME Z APPROACH ADZ YOU HAVE INFO K.",
    "WSSS": "[Arrival ATIS] WSSS ARR ATIS J 0400Z METREPORT 0400Z ILS APCHRWY 20R SIMUL INDEPENDENT ILS AND VISUAL APPROACHES ARE CONDUCTED ON RWY 20. TWY W 9 CLOSED, RWY 02C 20C RAPID EXIT TAXIWAY INDICATOR LIGHTS OFFTAXIING GUIDANCE LIGHTS ON ALL TAXIWAYS ARE ON, FOR LIGHTING INSPECTION, WIND VRB/ 03KT VIS 10KM CLD FEW 1800FT T31 DP25 QNH 1011HPA NOSIG ACK ATIS J\n[Departure ATIS] WSSS DEP ATIS M 0400Z METREPORT 0400Z RWY 20C SIMUL INDEPENDENT ILS AND VISUAL APPROACHES ARE CONDUCTED ON RWY 20. TWY W 9 CLOSED, RWY 02C 20C RAPID EXIT TAXIWAY INDICATOR LIGHTS OFFTAXIING GUIDANCE LIGHTS ON ALL TAXIWAYS ARE ON, FOR LIGHTING INSPECTION, WIND 140/ 04KT VRB BTN120 AND270 VIS 10KM CLD FEW 1800FT T31 DP25 QNH 1011HPA NOSIG DEP,INITIAL CMB 3000FT ACK ATIS M",
    "WMKK": "[Arrival ATIS] WMKK ARR ATIS D 0333Z WMKK ARR INFO D. TIME 0330. INDEPENDENT PARALLEL APPROACHES FOR RWY 32 L AND 33 ARE IN PROGRESS. EXP RNAV APCH FOR RWY 32 LEFT. EXP RNAV / ILS APCH FOR RWY 33. WIND RWY 32L DIRECTION NOT AVBL SPEED NOT AVBL. WIND RWY 33 DIRECTION NOT AVBL SPEED NOT AVBL. VIS RWY 32L TDZ NOT AVBL. VIS RWY 33 TDZ NOT AVBL. CLD FEW 1800 FT. T 31. DP 25. QNH 1011. NOSIG. AT FIRST CONTACT WITH LUMPUR RADAR, NOTIFY RCPT OF D\n[Departure ATIS] WMKK DEP ATIS U 1503Z WMKK DEP INFO U. TIME 1500. INDEPENDENT PARALLEL DEPARTURES FOR RWY 32 L AND 33 ARE IN PROGRESS. RWY 32 LEFT. RWY 33. WIND RWY 32L DIRECTION NOT AVBL SPEED NOT AVBL. WIND RWY 33 DIRECTION NOT AVBL SPEED NOT AVBL. VIS RWY 32L TDZ NOT AVBL. VIS RWY 33 TDZ NOT AVBL. CLD FEW CB 1700 FT. T 28. DP 25. QNH 1011. NOSIG. ALL DEP ACFT TO CONTACT LUMPUR DEP AT 135 DECIMAL 25 MHZ WHEN ABN. AT FIRST CONTACT WITH LUMPUR GROUND, NOTIFY RCPT OF U",
    "VTBS": "[Arrival ATIS] VTBS ARR ATIS F 0400Z VTBS ARR ATIS F 0401Z SIMULTANEOUS INDEPENDENT PARL APCH IN PROGRESS EXP ILS Z APCH ARR RWY 19 OR RNP APCH RWY 20R , ,PILOT SHALL ADZ BKK APCH ON INITIAL CTC IF UNA TO CONDUCT RNP APCH DUE TO OPERATIONAL CONSTRAINT 0400Z WIND 300/7KT VRB BTN 220/ AND 340/ VIS 10KM CLD FEW 2000FT T33 DP21 QNH 1009HPA TREND NOSIG ADZ BKK APCH ON INITIAL CONTACT THAT YOU HAVE INFO F\n[Departure ATIS] VTBS DEP ATIS K 0330Z VTBS DEP ATIS K 0330Z SIMULTANEOUS INDEPENDENT PARL DEP IN PROGRESS DEP RWY 20L OR DEP RWY 19 , ,AFT AIRBORNE ALL DEPARTING ACFT SHALL CTC 119.25 0330Z WIND 280/9KT VRB BTN 230/ AND 310/ VIS 10KM CLD FEW 2000FT T33 DP21 QNH 1010HPA TREND NOSIG ADZ GND WHEN INITIAL CONTACT YOU HAVE INFO K",
    "VTBU": "[Arrival ATIS] VTBU ARR ATIS U 0430Z VTBU ARR ATIS U 0430Z RNP RWY 18 TRL FL130 MOBILE ACFT ARST SYSTEM INSTL ATP SIX HUNDRED AND TEN METERS FM THR RWY 36 CABLE HGT 3 INCHES. 0430Z WIND 360/6KT VRB BTN 320/ AND 020/ VIS 10KM CLD FEW 2000FT T34 DP27 QNH 1010HPA TREND NOSIG ADZ CONTROLLER WHEN INITIAL CONTACT YOU HAVE INFO U\n[Departure ATIS] VTBU DEP ATIS D VTBU ARR/DEP DATIS RPT VTBU ARR ATIS D 0330Z ILS \"Z\" APCH RWY 18 TRL FL130 0330Z WIND 110/4KT VRB BTN 350/ AND 120/ VIS 6KM CLD FEW 2000FT T31 DP27 QNH 1014HPA TREND NOSIG ADZ CONTROLLER WHEN INITIAL CONTACT YOU HAVE INFO D",
    "ROAH": "[Arrival ATIS] ROAH ARR ATIS X 0240Z M0230 (APCH)RNP RWY18L USING RWY 18L DEP FREQ 126.5 258.3 M 180230Z 22007KT 15KM FEW006ST SCT020CU BKN/// 30/28 Q1006/A2973= Q/TWO NINE SEVEN THREE STP\n[Departure ATIS] ROAH DEP ATIS R 0411Z M0400 (APCH)RNP RWY18R LDG RWY 18R DEP RWY 18L DEP FREQ 126.5 258.3 M 230400Z 18016KT 25KM FEW015CU SCT020CU BKN/// 31/26 Q1005/A2970= Q/TWO NINE SEVEN ZERO STP",
    "VVDN": "[Arrival ATIS] VVDN ARR ATIS I 0402Z VVDN INFO I 0402Z. ILS VICTOR APPROACH 35L.. DPTG RWY 35R.. 0402Z. WIND VRB/02KT CAVOK T37 DP22 QNH 1004HPA TREND NOSIG. ADZ ON INITIAL CTC YOU HAVE INFO. I.\n[Departure ATIS] VVDN DEP ATIS N 0423Z VVDN INFO N 0423Z. ILS VICTOR APPROACH 35L.. DPTG RWY 35R.. 0423Z. WIND 010/02KT CAVOK T36 DP24 QNH 1008HPA TREND NOSIG. WS ALL RWY. ADZ ON INITIAL CTC YOU HAVE INFO. N.",
    "RCKH": "[Arrival ATIS] RCKH ARR ATIS U 0330Z EXPECT ILS APPROACH RWY 27 ARR/DEP TAXIWAY JULIETT, TAXIWAY BRAVO, TAXIWAY DELTA AND TAXIWAY ECHO CLOSED DUE MAINTENANCE. RUNWAY 27 ARRIVALS PLAN VACATE VIA CHARLIE OR\n[Departure ATIS] RCKH DEP ATIS N 0430Z EXPECT ILS APPROACH RWY 27 ARR/DEP TAXIWAY JULIETT, TAXIWAY BRAVO, TAXIWAY DELTA AND TAXIWAY ECHO CLOSED DUE MAINTENANCE. RUNWAY 2 7 ARRIVALS PLAN VACATE VIA CHARLIE OR",
    "KLAX": "[Arrival ATIS] KLAX ARR ATIS Q 0253Z LAX ATIS INFO Q 0253Z. 24007KT 10SM FEW012 FEW070 SCT140 22/18 A2994 (TWO NINER NINER FOUR) RMK AO2 SLP136 T02220183 53005. SIMUL INST APCHS AND RNAV RNP RWYS 24R AND 25L APCHS, SIMUL INSTR DEPARTURES IN PROG RWYS 24 AND 25. CTC L A GC ON 121.75 FOR PUSH OR TAXI ON A. TWY B CLSD BTN TWY, C10 AND TWY C7 , , TWY B6 CLSD, TWY B7 CLSD, TWY C CLSD BTN TWY, C1 AND TWY C3, TWY C1 CLSD, TWY C9 CLSD BTN TWY, B AND TWY C, TWY C8 CLSD BTN TWY, B AND TWY C. PAPI OTS 24R, SEAL BEACH VOR OTS. WIND SHEAR ADZYS IN EFCT. HAZD WX INFO FOR LAX AREA AVBL FM FSS. BIRD ACTIVITY VICINITY ARPT. INCLUDE YOUR CALL SIGN IN ALL READBACKS. USE CAUTION WHEN EXITING RY24R AT TWY V, W, AND Y, TO HOLD SHORT OF RY24L. MULTIPLE RUNWAY INCURSIONS HAVE OCCURRED. ...ADVS YOU HAVE INFO Q.\n[Departure ATIS] KLAX DEP ATIS Q 0253Z LAX ATIS INFO Q 0253Z. 24007KT 10SM FEW012 FEW070 SCT140 22/18 A2994 (TWO NINER NINER FOUR) RMK AO2 SLP136 T02220183 53005. SIMUL INST APCHS AND RNAV RNP RWYS 24R AND 25L APCHS, SIMUL INSTR DEPARTURES IN PROG RWYS 24 AND 25. CTC L A GC ON 121.75 FOR PUSH OR TAXI ON A. TWY B CLSD BTN TWY, C10 AND TWY C7 , , TWY B6 CLSD, TWY B7 CLSD, TWY C CLSD BTN TWY, C1 AND TWY C3, TWY C1 CLSD, TWY C9 CLSD BTN TWY, B AND TWY C, TWY C8 CLSD BTN TWY, B AND TWY C. PAPI OTS 24R, SEAL BEACH VOR OTS. WIND SHEAR ADZYS IN EFCT. HAZD WX INFO FOR LAX AREA AVBL FM FSS. BIRD ACTIVITY VICINITY ARPT. INCLUDE YOUR CALL SIGN IN ALL READBACKS. USE CAUTION WHEN EXITING RY24R AT TWY V, W, AND Y, TO HOLD SHORT OF RY24L. MULTIPLE RUNWAY INCURSIONS HAVE OCCURRED. ...ADVS YOU HAVE INFO Q.",
    "KONT": "[Arrival ATIS] KONT ARR ATIS T 2353Z - KONT ATIS INFO T 2353Z. 23012G19KT 10SM FEW110 FEW200 36/15 A2978 (TWO NINER SEVEN EIGHT) RMK AO2 SLP061 CB DSNT SE T03560150 10372 20322 56014. ILS AND VIS APR IN USE, RY26L & RY26R. LNDG AND DEPG RY 26L AND RY 26R. NOTAMS... TAXIWAY SIERRA FIVE CLOSED. TAXIWAY SIERRA CLOSED BETWEEN TAXIWAY SIERRA 8 AND TAXIWAY WHISKEY. RY 26L IM OTS, RY 26R ALS OTS. USE CAUTION FOR NUMEROUS BIRDS OBSERVED IN VICINITY OF ONT. HAZD WX INFO FOR SOUTHERN CA AVBL ON FSS FREQUENCIES. PILOTS READBACK RWY ASSIGNMENTS AND HOLD SHORT INSTRUCTIONS. ...ADVS YOU HAVE INFO T.\n[Departure ATIS] KONT DEP ATIS N 0553Z - KONT ATIS INFO N 0553Z. 24004KT 10SM BKN250 22/15 A2988 (TWO NINER EIGHT EIGHT) RMK AO2 SLP100. ILS AND VIS APR IN USE, RY26L & RY26R. LNDG AND DEPG RY 26L AND RY 26R. NOTAMS... TAXIWAY SIERRA CLSD BETWEEN SIERRA 8 AND W TAXIWAY Q SOUTH OF RWY 26L CLSD TAXIWAY T CLSD TAXIWAY SIERRA 5 CLSD. RY 26L IM OTS, RY 26R ALS OTS. USE CAUTION FOR NUMEROUS BIRDS OBSERVED IN VICINITY OF ONT. HAZD WX INFO FOR SOUTHERN CA AVBL ON FSS FREQUENCIES. PILOTS READBACK RWY ASSIGNMENTS AND HOLD SHORT INSTRUCTIONS. ...ADVS YOU HAVE INFO N.",
    "KSFO": "[Arrival ATIS] KSFO ARR ATIS H 0056Z SFO ATIS INFO H 0056Z. 25018G26KT 10SM FEW009 18/12 A2995 (TWO NINER NINER FIVE) RMK PK WND 29026/0020. SIMUL CLSLY SPCD DPNDNT ILS RY 28R AND ILS RY 28L APP IN USE. DEPG RWYS 28L, 28R. DEPG ACFT SHOULD BE PREPARED FOR A SHORT NOTICE RY CHANGE. RY 1L, 1R CLSD. NUMEROUS TWY CLOSURES FOR CONSTRUCTION ON THE FIELD, PILOTS CHECK NOTAMS. LLWS ADZYS IN EFCT. DEPG ACFT WAITING ON FINAL NUMBERS ADVISE GROUND PRIOR TO ENTERING TWY F. ...ADVS YOU HAVE INFO H.\n[Departure ATIS] KSFO DEP ATIS O 0156Z SFO ATIS INFO O 0156Z. 25015KT 10SM FEW007 SCT012 16/12 A2996 (TWO NINER NINER SIX). SIMUL CLSLY SPCD DPNDNT ILS RY 28R AND ILS RY 28L APP IN USE. DEPG RWYS 28L, 28R. DEPG ACFT SHOULD BE PREPARED FOR A SHORT NOTICE RY CHANGE. RY 1L, 1R CLSD. NUMEROUS TWY CLOSURES FOR CONSTRUCTION ON THE FIELD, PILOTS CHECK NOTAMS. MULTIPLE CRANES VCY OF SFO CHECK NOTAMS. DEPG ACFT WAITING ON FINAL NUMBERS ADVISE GROUND PRIOR TO ENTERING TWY F. ...ADVS YOU HAVE INFO O.",
    "KOAK": "[Arrival ATIS] KOAK ARR ATIS D 0353Z - KOAK ATIS INFO D 0353Z. 21008KT 10SM FEW008 FEW011 16/12 A2987 (TWO NINER EIGHT SEVEN). RNAV, AND VA, RWY 30. ILS, AND VA, RWY 28R. FLOW TO LAX, LAS, SAN, SEA. RWY 28L CLSD. TAXIWAYS G,H,P, CLSD BETWEEN RWYS 28R AND 28L. ILS RWY 30, OTS, RWY 28R RAIL, OTS. UNN LIT CLOSE-IN OBSTACLES FOR RWY 30 DEPARTURES. RWY 30 DEPARTURES ARE ADVISED TO AVOID TURNING LEFT PRIOR TO DEPARTURE END OF RUNWAY. CTN, CRANE 1 POINT 6 NAUTICAL MILES, , AT 140 FEET AGL. CAUTION, BIRDS NEAR AIRPORT. ...ADVS YOU HAVE INFO D.\n[Departure ATIS] KOAK DEP ATIS O 1953Z OAK ATIS INFO O 1953Z. 28014KT 10SM FEW005 22/14 A2988 (TWO NINER EIGHT EIGHT). RNAV Z/VA RWY 30 ILS/VA RWY 28R. FLOW TO LAX, LAS, SAN. ILS RWY 30, OTS. UNN LIT CLOSE-IN OBSTACLES FOR RWY 30 DEPARTURES. RWY 30 DEPARTURES ARE ADVISED TO AVOID TURNING LEFT PRIOR TO DEPARTURE END OF RUNWAY. SIGNATURE UNI-COM OUT OF SERVICE. CAUTION, BIRDS NEAR AIRPORT. ...ADVS YOU HAVE INFO O.",
    "KDFW": "[Arrival ATIS] KDFW ARR ATIS D 2153Z DFW ARR INFO D 2153Z. 19014G24KT 10SM SCT060 SCT180 BKN250 34/19 A3005 (THREE ZERO ZERO FIVE) RMK AO2 SLP166 T03390194. SIMUL APCH IN USE. EXPECT ILS TO RWYS, 13R, 17C, 17L AND ILS RWY 13R, RNAV RWY 18R. LDG RWY 17C EXP LAHSO TWY B 10460 FT AVAIL, LDG RWY 18R EXP LAHSO TWY B 10100 FT AVL. NOTICE TO AIRMEN. WARNING, RWY 18L HAS BEEN SHORTENED, 9273 FT AVAILABLE. RWY 18R ILS OTS. BIRD ACTIVITY VCNTY ARPT. ...ADVS YOU HAVE INFO D.\n[Departure ATIS] KDFW DEP ATIS Q 1153Z DFW DEP INFO Q 1153Z. 18009KT 10SM BKN014 BKN150 BKN250 26/23 A3009 (THREE ZERO ZERO NINER) RMK AO2 SLP180 T02610233 10261 20250 53004. SIMUL PARL TRAFFIC DEPG RWYS 17R, 18L. NOTICE TO AIRMEN. WARNING, RWY 18L HAS BEEN SHORTENED, 9273 FT AVAILABLE. BIRD ACTIVITY VCNTY ARPT. ...ADVS YOU HAVE INFO Q.",
    "KIAH": "[Arrival ATIS] KIAH ARR ATIS Q 0253Z IAH ATIS INFO Q 0253Z. 17008KT 10SM FEW250 29/24 A3009 (THREE ZERO ZERO NINER). ARRIVALS EXPECT ILS OR RNAV Y RY 26R, ILS OR RNAV Y RY 26L. SIMUL APPROACHES IN USE. DEPG RY 15L. NOTICE TO AIRMEN. UNITED RAMP CONTROL IN EFFECT. BIRD ACTIVITY VICINITY ARPT. LAHSO RY26L. CRANES ARE DOWN. TWY SA CLSD BTN TWY, SF AND TWY SK , TWY SB CLSD BTN TWY, SF AND TWY SK , , TWY EA CLSD. ILS RWY 26L OTS. NOTAM ATIS IN USE ON FREQUENCY 126.225. ...ADVS YOU HAVE INFO Q.\n[Departure ATIS] KIAH DEP ATIS T 0353Z IAH ATIS INFO T 0353Z. 15007KT 10SM FEW035 FEW180 BKN250 27/23 A2996 (TWO NINER NINER SIX). ARRIVALS EXPECT ILS OR RNAV Y RY 8R, ILS OR RNAV Y RY 8L. DEPG RY 15R. NOTICE TO AIRMEN. UNITED RAMP CONTROL IN EFFECT. RY 15L, 33R CLSD. HAZD WX INFO FOR IAH AREA AVBL FM FSS. BIRD ACTIVITY VICINITY ARPT. CRANES ARE DOWN. TWY SA CLSD BTN TWY, SF AND TWY SK , TWY SB CLSD BTN TWY, SF AND TWY SK , , TWY WB CLSD BTN TWY, WG AND TWY WH . TWY EA CLSD. NOTAM ATIS IN USE ON FREQUENCY 126.225. ...ADVS YOU HAVE INFO T.",
    "KORD": "[Arrival ATIS] KORD ARR ATIS F 0351Z - KORD ATIS INFO F 0351Z. 01006KT 10SM FEW060 16/08 A3012 (THREE ZERO ONE TWO) RMK AO2 SLP197 T01610083. ARR EXP VECTORS ILS RWY 10C APCH. DEPS EXP RWYS 9C FROM F F 9200 FT AVL. RWY 4L, 22R CLSD, RWY 4R, 22L CLSD, RWY 9L, 27R CLSD, RWY 9R, 27L CLSD, RWY 10R, 28L CLSD. RWY 22L ILS OTS, 28L RWY 28L ILS OTS, RWY 22R LOC OTS, RWY 9L IM OTS, RWY 9C IM OTS, RWY 10L IM OTS, RWY 10R IM OTS, RWY 27R IM OTS, RWY 28L IM OTS, RWY 28R IM OTS, RWY 9L PAPI OTS, RWY 27R PAPI OTS. PILOTS USE CTN FOR BIRD ACTIVITY IN THE VICINITY OF THE ARPT. NOISE ABATEMENT PROCEDURES ARE IN EFFECT. USE CTN FOR PERSONNEL AND EQUIP AT NUMEROUS SITES ON THE FIELD. READBACK ALL RWY HOLD SHORT INSTRUCTIONS. FOR CD GND METERING AND GC CONTACT ORD ON FREQ 121.9. ...ADVS YOU HAVE INFO F.\n[Departure ATIS] KORD DEP ATIS W 0151Z ORD ATIS INFO W 0151Z. 26007KT 10SM FEW045 BKN250 30/22 A2993 (TWO NINER NINER THREE) RMK AO2 SLP127 T03000217. ARR EXP VECTORS ILS RWY 27C APCH, ILS RWY 27R APCH, ILS RWY 28C",
    "KJFK": "[Arrival ATIS] KJFK ARR ATIS F 0251Z JFK ATIS INFO F 0251Z. 20004KT 10SM BKN250 23/20 A3005 (THREE ZERO ZERO FIVE). APPROACH IN USE ILS RY 22L, ILS RY 22R. DEPG RY 22R. RY 13L SFL OTS, RWY 22L/4R INNER MARKER OTS. NUM CRANES OPERATING AT JFK. BIRD ACTIVITY VICINITY ARPT. READBACK ALL RWY ASSIGNMENTS AND HOLD SHORT INSTRUCTIONS. ...ADVS YOU HAVE INFO F.\n[Departure ATIS] KJFK DEP ATIS H 0851Z JFK ATIS INFO H 0851Z. 33008KT 6SM FU OVC040 24/13 A2998 (TWO NINER NINER EIGHT) RMK AO2 FU OVC040. APPROACH IN USE ILS RY 31R, ILS RY 31L. DEPG RY 31L. RY 13L SFL OTS, RWY 22L/4R INNER MARKER OTS. RWY 22L PAPI OTS. NUM CRANES OPERATING AT JFK. BIRD ACTIVITY VICINITY ARPT. READBACK ALL RWY ASSIGNMENTS AND HOLD SHORT INSTRUCTIONS. ...ADVS YOU HAVE INFO H.",
    "KIND": "[Arrival ATIS] KIND ARR ATIS G 0254Z - KIND ATIS INFO G 0254Z. 03006KT 10SM SCT060 BKN110 BKN190 OVC250 28/22 A3007 (THREE ZERO ZERO SEVEN). PARL ILS RWY 5R AND 5L APPROACHES IN USE. CROSS RUNWAY OPERATIONS MAY BE IN EFFECT. NOTICE TO AIRMEN. TWY, P BTN TWY, H AND TWY B CLSD, TWY, P BTN TWY, H AND TWY J CLSD, TWY, H BTN TWY, R AND TWY N CLSD. P PAD CLSD. ILS RUNWAY 5R AND RUNWAY 5L INNER MARKER UNSERVICEABLE. HIWAS. ARPT ADZY FLOCK OF MEDIUM BIRDS IN THE VICINITY OF THE AIRPORT, ALT UNKN. ...ADVS YOU HAVE INFO G.\n[Departure ATIS] KIND DEP ATIS G 0254Z IND ATIS INFO G 0254Z. 03006KT 10SM SCT060 BKN110 BKN190 OVC250 28/22 A3007 (THREE ZERO ZERO SEVEN). PARL ILS RWY 5R AND 5L APPROACHES IN USE. CROSS RUNWAY OPERATIONS MAY BE IN EFFECT. NOTICE TO AIRMEN. TWY, P BTN TWY, H AND TWY B CLSD, TWY, P BTN TWY, H AND TWY J CLSD, TWY, H BTN TWY, R AND TWY N CLSD. P PAD CLSD. ILS RUNWAY 5R AND RUNWAY 5L INNER MARKER UNSERVICEABLE. HIWAS. ARPT ADZY FLOCK OF MEDIUM BIRDS IN THE VICINITY OF THE AIRPORT, ALT UNKN. ...ADVS YOU HAVE INFO G.",
    "KDTW": "[Arrival ATIS] KDTW ARR ATIS C 0053Z DTW ARR INFO C 0053Z. 14004KT 1 3/4SM FU OVC030 26/19 A2998 (TWO NINER NINER EIGHT) RMK AO2 TWR VIS 2 SLP148 FU OVC030 T02560189. SIMUL ILS Z RY 22R AND RY 21L APCH IN USE. SIMULTANEOUS ARRIVAL AND, DEPARTURE OPERATIONS ARE IN USE, ON RY 22R AND RY 22L. NOTICE TO AIRMEN. RWY 21R, 3L CLSD, RWY 27L, 9R CLSD, RWY 27R, 9L CLSD. TWYS Y1 CLSD ;. RY 22L ALS OTS. PILOTS USE CTN FOR BIRD ACTIVITY. DEPARTURE ATIS 118.125. ...ADVS YOU HAVE INFO C.\n[Departure ATIS] KDTW DEP ATIS N 0953Z DTW DEP INFO N 0953Z. 35003KT 1SM R03R/P6000FT FU SCT000 OVC027 22/16 A3004 (THREE ZERO ZERO FOUR) RMK AO2 TWR VIS 2 SLP167 FU SCT000 T02170161. DEPG RWY 4R. . RWY 4R DEPARTURE POINT IS Y 2, DISTANCE REMAINING IS 11, THOUSAND, 450, FT, FULL LENGTH AVAIL UPON REQ ;. NOTICE TO AIRMEN. RWY 21R, 3L CLSD, RWY 27L, 9R CLSD, RWY 27R, 9L CLSD. TWYS Y1 CLSD ;. PILOTS USE CTN FOR BIRD ACTIVITY. TWR AND GC COMB ON FREQ 135.0. ...ADVS YOU HAVE INFO N.",
    "KMSP": "[Arrival ATIS] KMSP ARR ATIS B 0253Z MSP ARR INFO B 0253Z. 24010KT 10SM SCT060 32/22 A2982 (TWO NINER EIGHT TWO) RMK AO2 LTG DSNT NW-NE SLP091 T03170217 56004. SIMULTANEOUS DEPENDENT, ILS RWY 30L APCH IN USE, ILS RWY 30R APCH IN USE. NOTICE TO AIRMEN. TWY R7. R8. R9. R10. CLOSED. TWY R BTWN R6 AND R10 CLSD, TWY A7 CLSD, TWY A CLSD BTN TWY, A7 AND TWY D. GS RWY 12L OTS, DME RWY 30L, 12R OTS, RWYS 12R, 12L, INNER MARKER OTS. RWY 30L CONDITION CODES, 5 5 5 AT 0315Z, RWY 30R CONDITION CODES, 5 5 5 AT 0315Z, RWY 17 CONDITION CODES, 5 5 5 AT 0310Z, RWY 22 CONDITION CODES, 5 5 5 AT 0310Z. CTN, BIRDS NEAR MSP. UNAUTH LASER ILLUMINATION EVENT AT 0240Z , 7 SOUTHWEST OF MSP, GREEN LASER, FROM THE NORTH. READ BACK HS AND ALT. ALL ACFT TAXI WITH TRANSPONDER AND ALTITUDE ENCODING ON. ...ADVS YOU HAVE INFO B.\n[Departure ATIS] KMSP DEP ATIS N 0153Z MSP DEP INFO N 0153Z. 23009KT 10SM FEW060 FEW250 32/22 A2983 (TWO NINER EIGHT THREE) RMK AO2 SLP092 TCU DSNT NW-NE T03220217. DEPARTING RWY 30L, RWY 30R, RWY 17. NOTICE TO AIRMEN. TWY R7. R8. R9. R10. CLOSED. TWY R BTWN R6 AND R10 CLSD, TWY A7 CLSD, TWY A CLSD BTN TWY, A7 AND TWY D. ALL ACFT CTC METERING ON ONE THREE THREE POINT FIVE SEVEN WHEN READY TO PUSHBACK OR TAXI. CTN, BIRDS NEAR MSP. UNAUTH LASER ILLUMINATION EVENT AT 0240Z , 7 SOUTHWEST OF MSP, GREEN LASER, FROM THE NORTH. READ BACK HS AND ALT. ALL ACFT TAXI WITH TRANSPONDER AND ALTITUDE ENCODING ON. ...ADVS YOU HAVE INFO N.",
    "CYEG": "[Arrival ATIS] CYEG ARR ATIS J 0300Z CYEG ARR ATIS J 0300Z 09011KT 15SM FEW100 CIG BKN210 24/16 A2991 APCH RNAV Z OR Y RWY 02, INFORM ARRL OF REQ APCH ON INITIAL CTC. LDG AND DEP RWY 02. SIMUL APPROACHES MAY BE IN EFCT. CYYC GDP IN EFCT CTC CYEG FIC ON FREQ 122.375 OR TEL 1-780-890-8386. INFORM CYEG ATC INFO J\n[Departure ATIS] CYEG DEP ATIS J 0300Z CYEG ARR ATIS J 0300Z 09011KT 15SM FEW100 CIG BKN210 24/16 A2991 APCH RNAV Z OR Y RWY 02, INFORM ARRL OF REQ APCH ON INITIAL CTC. LDG AND DEP RWY 02. SIMUL APPROACHES MAY BE IN EFCT. CYYC GDP IN EFCT CTC CYEG FIC ON FREQ 122.375 OR TEL 1-780-890-8386. INFORM CYEG ATC INFO J",
    "EHAM": "[Arrival ATIS] EHAM ARR ATIS K 0325Z EHAM ARRIVAL INFO K. DEMAND. MAIN LANDING RWY 06. TRANSITION LEVEL 040. WIND 280 DEG, 8 KT, VRB BTN 210 AND 330 DEG, 12 KT MAX, 3 KT MNM. VIS 10 KM OR MORE. CLD FEW 1600 FT SCT 1900 FT BKN 2100 FT. T 18. DP 14. QNH 1015 HPA. TREND TEMPO CLD BKN 2000 FT. OPERATIONAL REPORT. CONTACT APCH WITH CALLSIGN ONLY. END OF INFO K\n[Departure ATIS] EHAM DEP ATIS T 0325Z EHAM DEPARTURE INFO T. DEMAND. MAIN DEPARTURE RWY 36 L. MAIN LANDING RWY 06. WIND 290 DEG, 10 KT, VRB BTN 250 AND 320 DEG, 12 KT MAX, 4 KT MNM. VIS 10 KM OR MORE. CLD FEW 1600 FT SCT 1900 FT BKN 2100 FT. T 18. DP 14. QNH 1015 HPA. OPERATIONAL REPORT. INFORM SCHIPHOL DEL BY VOICE IF UNABLE TO COMPLY WITH NADP 2. END OF INFO T",
    "EBBR": "[Arrival ATIS] EBBR ARR ATIS O 0358Z EBBR NAT, EXP VECT FOR RNP APP ARR RWY07L RSCD AT 0320 RWY07L DRY. DEP RWY07R TRL 055 TWY OUT 6 B3 CLSD 100/7KT CAVOK T20 DP18 QNH 1021HPA NOSIG CFM ARR O\n[Departure ATIS] EBBR DEP ATIS A 0850Z EBBR NAT, DEP RWY25R RSCD AT 0726 RWY25R DRY. ARR RWY25L TRL 055 B3 CLSD 290/5KT VRB BTN 260 AND 020 MNM2 MAX12 VIS ABV 10KM SCT2200FT T21 DP16 QNH 1015HPA NOSIG CFM DEP A",
    "EDDF": "[Arrival ATIS] EDDF ARR ATIS L 0350Z ARR-ATIS EDDF L METAR 230350 EXPECT DEPENDENT PARALLEL ILS Z APCH RWY 07L OR ILS APCH RWY 07R RWY 07L 07R GLS APCH ON REQUEST , TRL 60 02007KT CAVOK T23 DP19 QNH1021 TREND NOSIG\n[Departure ATIS] EDDF DEP ATIS E 1720Z -DEP-ATIS EDDF E METAR 171720 - -RWY 25C 18 -RWY COND AT TIME 0930 : ALL RWYS DRY , RWYCC 6 , ALL DEPARTING ACFT VIA OBOKA , MARUN AND TOBAK EXPECT SID WITH DESIGNATOR F OR G , -TRL 70 - -19011KT RWY18 18008KT -9999 - --SHRA FEW///TCU -T23 DP17 -QNH1012 - -TREND NOSIG",
    "EDDL": "[Arrival ATIS] EDDL ARR ATIS J 0420Z -ATIS EDDL J METAR 170420 -EXPECT VECTORS ILS APPROACH RWY05L -RWY 05R 05L -ATTENTION, RISK OF TWY INCURSION WHEN TAXIING TO RWY05R, CHECK HOT SPOTS T1 AND L9 ON TAXI CHART -TRL 70 -EXPECT INTENSE BIRD ACTIVITY IN THE VICINITY OF RWY SYSTEM -03003KT -CAVOK - - -T17 DP14 -QNH1012 - -TREND NOSIG\n[Departure ATIS] EDDL DEP ATIS R EDDL ARR/DEP DATIS RPT -ATIS EDDL R METAR 020550 -EXPECT VECTORS ILS APPROACH -RWY 23L -TWY L8 CLOSED BETWEEN TWY M AND RWY 23L -TRL 60 - -23010KT -CAVOK - - -T19 DP13 -QNH1020 - -TREND NOSIG",
    "EDDK": "[Arrival ATIS] EDDK ATIS T 0020Z -ATIS EDDK T METAR 180020 -EXPECT CDO FOR ILS APCH -RWY 31R 24 -RWY COND RWY 31R AT TIME 0010 RWYCC 6 DEPOSIT TOTAL RWY DRY RWY 24 AT TIME 0010 RWYCC 6 DEPOSIT TOTAL RWY DRY -TRL 60 -RWY 13R AND RWY 31L CLOSED FOR DEPARTURE AND LANDING: TAXIING BTN THR RWY 13R AND INTERSECTION RWY 24 POSSIBLE : -31006KT 260V350 -9999 - -SCT035 -T18 DP14 -QNH1015 - -TREND NOSIG\n[Departure ATIS] EDDK DEP ATIS E 2050Z -ATIS EDDK E METAR 142050 -EXPECT CDO FOR ILS APCH RWY 31R -RWY 31R 06 -RWY COND RWY 31R AT TIME 1837 RWYCC 6 DEPOSIT TOTAL RWY DRY RWY 06 AT TIME 1837 RWYCC 6 DEPOSIT TOTAL RWY DRY -TRL 60 -RWY 13R AND RWY 31L CLOSED FOR DEPARTURE AND LANDING: TAXIING BTN THR RWY 13R AND INTERSECTION RWY 24 POSSIBLE : -02006KT 350V050 -CAVOK - - -T23 DP14 -QNH1018 - -TREND NOSIG",
    "EBLG": "[Arrival ATIS] EBLG ATIS E 0150Z EBLG INFO, EXP RNAV TO ILS APP ARR RWY04R DEP RWY04R RWY 04R DRY, RWYCC 666. TRL 055 TWY A4 DISPLACED 060/5KT CAVOK T20 DP18 QNH 1023HPA NOSIG CFM ATIS E",
    "LSZH": "[Arrival ATIS] LSZH ARR ATIS D 1450Z ARRIVALS, EXP RNP APCH, RWY 28. TRL 70. DEP RWY 32. WIND 300 DEG, 7 KT, VRB BTN 290 AND 350 DEG. VIS 10 KM OR MORE, TDZ 10 KM OR MORE. VCSH. CLD FEW 5500 FT. T 27. DP 16. QNH 1014. TREND TEMPO MOD TSRA.\n[Departure ATIS] LSZH DEP ATIS N 1450Z DEP RWY 32. TRL 70. ARRIVALS, EXP RNP APCH, RWY 28. TMA S 1 IS ACT. TMA S 2 AND S 3 ARE ACT. WIND 340 DEG, 7 KT. VIS 10 KM OR MORE. VCSH. CLD FEW CB 5500 FT. T 27. DP 16. QNH 1014. TREND TEMPO MOD TSRA.",
    "LIMC": "[Arrival ATIS] LIMC ARR ATIS N 1450Z LIMC ARR N 1450Z I.L.S. ZULU RWY IN USE 35L TL 75 WIND TDZ 080/6KT VRB BTN 070/AND 140/ CAVOK T32 DP15 QNH 1012HPA QFE 0987HPA BIRDS CONCENTRATION ON FINAL AND ON RWY STRIP\n[Departure ATIS] LIMC DEP ATIS T 1950Z LIMC DEP T 1950Z RWY IN USE 35L TL 70 WIND END 360/4KT CAVOK T27 DP18 QNH 1016HPA QFE 0990HPA DATALINK CLEARANCE AVAILABLE.... CONTACT 1 3 1 8 8 0 TO BE RELEASED BY THE AIRPORT OPERATOR ...",
    "LIRF": "[Arrival ATIS] LIRF ARR ATIS H 0320Z LIRF ARR H 0320Z RWY 16L W RWY IN USE 16L TL 75 WIND TDZ 030/4KT VIS 7KM CLD SCT 1000FT T24 DP24 QNH 1012HPA\n[Departure ATIS] LIRF DEP ATIS G 0220Z LIRF DEP G 0220Z RWY IN USE 25 TL 75 RWY IN USE FOR ARR 16L WIND END 340/3KT VRB BTN 300/AND 360/ VIS 8KM CLD SCT 800FT T24 DP24 QNH 1012HPA REA IS SENT AUTOMATICALLY ONCE RLSD BY RAMP WHEN READY CONTACT FIUME RAMP 121.725",
    "EINN": "[Arrival ATIS] EINN ARR ATIS W 0330Z EXPECT I L S CATEGORY 1 LDG RWY06 TKOF RWY06 TRL FL060 35005KT 9999 FEW030 12/10 QNH Q1024 TREND NOSIG ADVISE AT FIRST CONTACT YOU HAVE ATIS INFO W",
    "EGLL": "[Arrival ATIS] EGLL ARR ATIS V 0320Z LANDING RWY 09L TRANSITION-LEVEL: FL 70 RUNWAY 09L REDUCED DECLARED DISTANCES IF STAND GUIDANCE IS OFF OR FAILS, REMAIN ON THE TAXIWAY CENTRELINE AND ADVISE ATC AUTO 02005KT 9999 OVC020 17/12 Q1018 ACKNOWLEDGE RECEIPT OF INFORMATION V\n[Departure ATIS] EGLL DEP ATIS T 1250Z DEPARTURE RWY 27L RUNWAY 27R REDUCED DECLARED DISTANCES WITH TAKE OFF RUN AVAILABLE 3362METRES AND LANDING DISTANCE AVAILABLE 3362METRES PILOTS THAT ARE IN RECEIPT OF DATALINK CLEARANCES ARE REMINDED THEY MUST CONTACT DELIVERY ON 121.980 WHEN READY FOR START AUTO 30013KT 290V350 9999 NCD 28/11 Q1016 ACKNOWLEDGE RECEIPT OF INFORMATION T AND REPORT AIRCRAFT TYPE AND CURRENT QNH ON FIRST CONTACT WITH HEATHROW",
    "EPWA": "[Arrival ATIS] EPWA ARR ATIS H 0235Z EPWA ARR H. TIME 0235. EXP N ARR ILS Z APCH FOR RWY 11. RWY 11 RCC 5, 5, 5. 1ST PART, WET. 2ND PART, WET. 3RD PART, WET. RWY REPORT END. TRANSITION LEVEL 80. WIND VRB, 2 KT, VRB BTN 100 AND 160 DEG. VIS TDZ 10 KM OR MORE. WX FBL SHRA. CLD BKN CB 5000 FT. T 19. DP 19. QNH 1008. RESHRA. NOSIG. CAUTION. BIRD ACT. END OF EPWA ARR H\n[Departure ATIS] EPWA DEP ATIS Z 1456Z EPWA DEP Z. TIME 1454. DEP RWY 15. ARR RWY 11, EXP N ARR ILS Z. REPORT READY FOR STARTUP ON DELIVERY 121 DECIMAL 605. TRANSITION LEVEL 80. WIND 150 DEG, 12 KT. CAVOK. T 31. DP 16. QNH 1011. NOSIG. CAUTION. BIRD ACT. END OF EPWA DEP Z",
    "EFHK": "[Arrival ATIS] EFHK ARR ATIS K 0050Z EXPECT ILS APCH ARR RWY 15 RUNWAY 15 CONDITION REPORT AT 2210 UTC RUNWAY CONDITION CODES 6 , 6 , 6 CONTAMINANTS ALL PARTS DRY TRL 65 WIND 140 DEG 6 KT CAVOK T 17 DP 16 QNH 1010 NOSIG ACK INFO K\n[Departure ATIS] EFHK DEP ATIS S 0251Z DEP RWYS 22R AND 22L RUNWAY 22R CONDITION REPORT AT 0250 UTC RUNWAY CONDITION CODES 6 , 6 , 6 CONTAMINANTS ALL PARTS DRY RUNWAY 22L CONDITION REPORT AT 0249 UTC RUNWAY CONDITION CODES 6 , 6 , 6 CONTAMINANTS ALL PARTS DRY WIND 290 DEG 5 KT CAVOK T 11 DP 6 QNH 1020 NOSIG ACK INFO S",
    "LTAC": "[Arrival ATIS] LTAC ARR ATIS K 0120Z EXP ILS V APCH 03C DEP RWY 03L RWY 03C WIND 050 DEG 07 KT RWY 03L WIND 040 DEG 06 KT TRL 110 CAVOK T 17 DP 10 QNH 1015 NOSIG FOR DELIVERY CTC 121.9. FOR DELIVERY FIRST USE DIGITAL DEP CLR. CTN BIRD HAZARD OVR AERODROME. APCH FREQUENCY 129.050. END OF ATIS K",
    "UBBB": "[Arrival ATIS] UBBB ARR ATIS K 0230Z ATIS K EXP ILS/ LDG 34 35 DEP 34 35 IN USE RWY 34 CLEAR DRY 70 RWY 35 CLEAR DRY 70 TLVL 110 WIND WIND RWY 34 330 8 KT SPD MAX 10 MIN 6 WIND RWY 35 340 8 KT SPD MAX 10 MIN 6 VIS CAVOK T 26 / DP 22 QNH 1009 HPA TREND TREND NOSIG MODERATE BIRDS ACT IN VICINITY OF AP END OF ATIS K\n[Departure ATIS] UBBB DEP ATIS E 0030Z ATIS E EXP ILS/ LDG 34 35 DEP 34 35 IN USE RWY 34 CLEAR DRY 70 RWY 35 CLEAR DRY 70 TLVL 110 WIND WIND RWY 34 320 8 KT SPD MAX 10 MIN 4 WIND RWY 35 310 8 KT SPD MAX 14 MIN 6 VIS 10 KM FEW CB 6000 FT RWY 34 FEW CB 6000 FT RWY 35 T 25 / DP 23 QNH 1008 HPA TREND TREND NOSIG MODERATE BIRDS ACT IN VICINITY OF AP THUNDERSTORM CELLS OBSERVED IN THE SW MOV NE AT A DIST 50 KM END OF ATIS E",
    "ZWWW": "[Arrival ATIS] ZWWW ARR ATIS L 0330Z EXP ILSDME Z APCH LDG RWY 26R TA 3000 WIND VRB/1MPS CAVOK T 35 /DP 09 QNH 1008 HPA ADZ YOU HAVE INFO L.\n[Departure ATIS] ZWWW DEP ATIS N 0530Z DEP RWY 26L TA 3000 WIND VRB/1MPS CAVOK T 39 /DP 06 QNH 1009 HPA ADZ YOU HAVE INFO N.",
    "ZLXY": "[Arrival ATIS] ZLXY ARR ATIS X 0300Z EXP ILS APCH LDG RWY 05L & 06R WIND 060/4MPS VIS 9999M CLD FEW 2100M T 26 /DP 18 QNH 1007 HPA VISUAL APPROACH IN PROGRESS ADZ YOU HAVE INFO X.\n[Departure ATIS] ZLXY DEP ATIS X 0300Z DEP RWY 05L & 06L WIND 060/4MPS VIS 9999M CLD FEW 2100M T 26 /DP 18 QNH 1007 HPA VISUAL APPROACH IN PROGRESS ADZ YOU HAVE INFO X.",
    "ZBAA": "[Arrival ATIS] ZBAA ARR ATIS Z 0400Z EXP ILS APCH INDEPENDENT PARL INSTR APCH LDG RWY 36L & 01 WIND VRB DEG 1 MPS CAVOK T 25 /DP 15 QNH 1008 HPA ADZ YOU HAVE INFO Z.\n[Departure ATIS] ZBAA DEP ATIS Z 0400Z DEP RWY 36L & 36R & 01 WIND VRB DEG 1 MPS CAVOK T 25 /DP 15 QNH 1008 HPA RWY INDEPENDENT PARALLEL DEP ADZ YOU HAVE INFO Z.",
    "ZBHH": "[Arrival ATIS] ZBHH ARR ATIS M 0300Z EXP ILSDME APCH LDG RWY 26 TA 3000 /TRL 3600 WIND 330/6MPS VRB BTN 270/ AND 340/ CAVOK T 24 /DP 05 QNH 1010 HPA ADZ YOU HAVE INFO M.\n[Departure ATIS] ZBHH DEP ATIS Q 1500Z DEP RWY 08 TA 3000 /TRL 3600 WIND 140/2MPS VIS 5000M BR NSC T 19 /DP 19 QNH 1007 HPA ADZ YOU HAVE INFO Q.",
    "ZSQD": "[Arrival ATIS] ZSQD ARR ATIS Z 0400Z EXP ILSDME APCH LDG RWY 17 TA 3000 /TRL 3600 WIND 170/6MPS VRB BTN 140/ AND 200/ VIS 9999M CLD SCT 990M T 27 /DP 17 QNH 1009 HPA SEGREGATED OPERATION VISUAL APPROACH OPERATION IN PROGRESS. RUNWAY 17,IF MISSED APPROACH,EXPECT FOLLOW THE STANDARD MISSED APPROACH PROCEDURE,CLIMB TO 900M ON QNH OR BY ATC CAUTION MAYBE THERE IS A FLOCK OF BIRDS IN THE VICINITY OF AIRPORT ADZ YOU HAVE INFO Z.\n[Departure ATIS] ZSQD DEP ATIS V 0000Z DEP RWY 16 TA 3000 /TRL 3600 WIND 110/4MPS VRB BTN 080/ AND 140/ VIS 9999M CLD SCT 600M T 24 /DP 19 QNH 1008 HPA SEGREGATED OPERATION VISUAL APPROACH OPERATION IN PROGRESS. RUNWAY 17,IF MISSED APPROACH,EXPECT FOLLOW THE STANDARD MISSED APPROACH PROCEDURE,CLIMB TO 900M ON QNH OR BY ATC CAUTION MAYBE THERE IS A FLOCK OF BIRDS IN THE VICINITY OF AIRPORT ADZ YOU HAVE INFO V."
  },
  "windtemp_alaska": "\n000\nFBAK31 KWNO 180159\nFD1AK1\nDATA BASED ON 180000Z    \nVALID 180600Z   FOR USE 0200-0900Z. TEMPS NEG ABV 24000\n\nFT  3000    6000    9000   12000   18000   24000  30000  34000  39000\nADK 3524 3329+04 3334+01 3241-03 3253-16 3272-26 339638 840245 337848\nADQ 2105 1810+00 2217-04 2221-08 2441-15 2658-25 266441 267250 255753\nAKN 1615 1716-02 1816-06 1818-10 2225-18 2449-27 247742 248351 234147\nANC 9900 1608+01 1608-05 9900-11 2218-21 2532-32 276444 264946 242843\nANN 3005 2809+10 2711+06 2712+01 2415-13 2116-25 211840 211749 221755\nBET 9900 1413-02 1217-07 1212-11 1408-22 2318-32 233347 222945 241241\nBRW 0923 0718+04 0617-01 0619-07 0624-18 0629-30 063046 072353 091744\nBTI 0910 1305+04 2405-01 2006-06 1415-18 1718-29 213046 192250 171743\nBTT 2406 2407+02 2307-03 1606-09 1313-22 1123-35 143047 132243 141940\nCDB 2037 2041+02 2143+00 2143-05 2253-17 2270-27 219441 229149 234545\nCZF 0510 0708-01 0709-07 0713-12 0616-24 0106-34 290547 320542 320539\nEHM 1324 1327-02 1326-07 1421-10 2018-19 1927-32 216043 224845 222342\nFAI 9900 9900+03 2310-04 2210-10 1709-24 1521-36 153446 172642 182140\nFYU 9900 9900+04 9900-02 1609-08 1633-20 1639-31 165846 175147 162643\nGAL 1611 1714+00 1714-06 1516-12 1218-24 1115-36 151046 160541 140739\nGKN 1714 1914+03 1713-04 1615-10 1929-21 2139-32 223746 213144 212642\nHOM 2105 2206+00 1909-05 2011-09 2322-18 2540-28 267242 277550 253745\nJNU 2305 2313+06 2219+02 2125-03 1942-16 1849-27 175540 175248 194051\nLUR 0521 0517+04 0518-01 0520-07 0624-20 0729-31 073246 073253 072243\nMCG 2012 2110+00 2111-06 2012-12 1914-25 2211-35 252545 242342 221340\nMDO 9900 9900+00 2208-03 2314-07 2419-18 2730-30 298242 296048 262745\nOME 9900 9900+01 0307-04 0209-10 0315-24 0422-35 052647 061942 050840\nORT      3506+05 3308-02 2207-08 1826-20 1939-31 186844 186647 193443\nOTZ 1011 0812+02 0714-03 0715-09 0725-22 0737-35 075947 073445 071440\nSNP 0335 0334-03 0241-07 0335-11 0319-21 0121-33 362042 342337 342438\nTKA 9900 1913+00 1914-05 1714-11 1816-24 2223-35 253945 243143 232441\nUNK 9900 0907-01 1109-05 1109-11 0705-24 9900-38 990045 090539 990039\nYAK 1508 1705+01 2111-02 2018-06 1716-20 1629-31 156042 165044 192744\nIKO 3034 2933+01 2841-01 2848-06 2657-19 2663-31 255739 264739 273640\nAFM 1506 1506+02 1306-03 1210-09 0928-22 0734-35 075448 082743 101740\n5AB 3310 3316+09 3230+05 3235+00 3247-10 3354-20 356834 358442 359353\n5AC 3122 3125+10 2923+06 2925+01 2725-14 2626-26 243640 243748 262855\n5AD 2714 2719+04 2725+01 2732-03 2844-12 2844-24 284940 295850 305156\n5AE 2124 2323+01 2430-02 2541-04 2446-14 2447-25 244940 245249 245456\n5AF 2917 2619+05 2423+01 2428-02 2337-16 2341-29 244143 223946 233546\n5AG 2613 2713+02 2615-01 2717-06 2723-18 2725-31 294244 273343 252543\n",
  "vaac_tokyo": [
    {
      "id": "20260718_30027000_0268",
      "year": "2026",
      "volcano": "Sheveluch",
      "psn": "N5639 E16122",
      "issued": "20260718",
      "text": "FVFE01 RJTD 180000\nVA ADVISORY\nDTG: 20260718/0000Z\nVAAC: TOKYO\nVOLCANO: SHEVELUCH 300270\nPSN: N5639 E16122\nAREA: RUSSIA\nSOURCE ELEV: 3283M AMSL\nADVISORY NR: 2026/268\nINFO SOURCE: KVERT HIMAWARI-9\nERUPTION DETAILS: VA CONTINUOUSLY OBS IN SATELLITE IMAGERY\nOBS VA DTG: 17/2320Z\nOBS VA CLD: SFC/FL290 N5601 E16322 - N5605 E16357 - N5546 E16401 - \nN5544 E16326 MOV SE 25KT\nFCST VA CLD +6 HR: 18/0520Z SFC/FL300 N5529 E16617 - N5404 E16714 - \nN5357 E16639 - N5527 E16530\nFCST VA CLD +12 HR: 18/1120Z SFC/FL300 N5352 E17006 - N5152 E17037 - \nN5152 E16936 - N5344 E16817\nFCST VA CLD +18 HR: NO VA EXP\nRMK: SOME PART OF VA OBSCURED BY MET CLOUD.\nNXT ADVISORY: 20260718/0600Z=",
      "img_url": "https://ds.data.jma.go.jp/svd/vaac/data/VAGFN/2026/Images/20260718_30027000_0268_QH21_01.png",
      "sat_img_url": "https://ds.data.jma.go.jp/svd/vaac/data/Sat/2026/Images/30027000/09-ir/20260717_2320_202607180000_ir.png",
      "text_url": "https://ds.data.jma.go.jp/svd/vaac/data/TextData/2026/20260718_30027000_0268_Text.html"
    },
    {
      "id": "20260717_27303000_0761",
      "year": "2026",
      "volcano": "Mayon",
      "psn": "N1315 E12341",
      "issued": "20260717",
      "text": "FVFE01 RJTD 172222\nVA ADVISORY\nDTG: 20260717/2222Z\nVAAC: TOKYO\nVOLCANO: MAYON 273030\nPSN: N1315 E12341\nAREA: PHILIPPINES\nSOURCE ELEV: 2462M AMSL\nADVISORY NR: 2026/761\nINFO SOURCE: HIMAWARI-9 PHIVOLCS\nERUPTION DETAILS: ERUPTION AT 20260717/2208Z FL100 EXTD SSE REPORTED\nOBS VA DTG: 17/2210Z\nOBS VA CLD: VA NOT IDENTIFIABLE FM SATELLITE DATA WIND FL100 360/6KT\nFCST VA CLD +6 HR: NOT AVBL\nFCST VA CLD +12 HR: NOT AVBL\nFCST VA CLD +18 HR: NOT AVBL\nRMK: WE WILL ISSUE FURTHER ADVISORY IF VA IS DETECTED IN SATELLITE \nIMAGERY.\nNXT ADVISORY: NO FURTHER ADVISORIES=",
      "img_url": "https://ds.data.jma.go.jp/svd/vaac/data/VAGFN/2026/Images/20260717_27303000_0761_QH21_01.png",
      "sat_img_url": null,
      "text_url": "https://ds.data.jma.go.jp/svd/vaac/data/TextData/2026/20260717_27303000_0761_Text.html"
    },
    {
      "id": "20260717_27307000_0014",
      "year": "2026",
      "volcano": "Taal",
      "psn": "N1400 E12100",
      "issued": "20260717",
      "text": "FVFE01 RJTD 171113\nVA ADVISORY\nDTG: 20260717/1113Z\nVAAC: TOKYO\nVOLCANO: TAAL 273070\nPSN: N1400 E12100\nAREA: PHILIPPINES\nSOURCE ELEV: 311M AMSL\nADVISORY NR: 2026/14\nINFO SOURCE: HIMAWARI-9 PHIVOLCS\nERUPTION DETAILS: ERUPTION AT 20260717/1051Z FL040 EXTD E REPORTED\nOBS VA DTG: 17/1100Z\nOBS VA CLD: VA NOT IDENTIFIABLE FM SATELLITE DATA WIND FL040 270/8KT\nFCST VA CLD +6 HR: NOT AVBL\nFCST VA CLD +12 HR: NOT AVBL\nFCST VA CLD +18 HR: NOT AVBL\nRMK: WE WILL ISSUE FURTHER ADVISORY IF VA IS DETECTED IN SATELLITE \nIMAGERY.\nNXT ADVISORY: NO FURTHER ADVISORIES=",
      "img_url": "https://ds.data.jma.go.jp/svd/vaac/data/VAGFN/2026/Images/20260717_27307000_0014_QH21_01.png",
      "sat_img_url": null,
      "text_url": "https://ds.data.jma.go.jp/svd/vaac/data/TextData/2026/20260717_27307000_0014_Text.html"
    },
    {
      "id": "20260713_28208001_0083",
      "year": "2026",
      "volcano": null,
      "psn": "N3136 E13039",
      "issued": "20260713",
      "text": "FVFE01 RJTD 130254\nVA ADVISORY\nDTG: 20260713/0254Z\nVAAC: TOKYO\nVOLCANO: SAKURAJIMA (AIRA CALDERA) 282080\nPSN: N3136 E13039\nAREA: JAPAN\nSOURCE ELEV: 1117M AMSL\nADVISORY NR: 2026/83\nINFO SOURCE: JMA HIMAWARI-9\nERUPTION DETAILS: ERUPTED AT 20260713/0152Z FL100 EXTD N\nOBS VA DTG: 13/0230Z\nOBS VA CLD: SFC/FL100 N3136 E13039 - N3142 E13040 - N3141 E13044 - \nN3134 E13042 MOV NE 15KT\nFCST VA CLD +6 HR: 13/0830Z SFC/FL100 N3234 E13121 - N3145 E13155 - \nN3202 E13110 - N3227 E13051\nFCST VA CLD +12 HR: 13/1430Z SFC/FL100 N3318 E13206 - N3142 E13317 - \nN3134 E13226 - N3312 E13118\nFCST VA CLD +18 HR: NO VA EXP\nRMK: NIL\nNXT ADVISORY: 20260713/0600Z=",
      "img_url": "https://ds.data.jma.go.jp/svd/vaac/data/VAGFN/2026/Images/20260713_28208001_0083_QH21_01.png",
      "sat_img_url": "https://ds.data.jma.go.jp/svd/vaac/data/Sat/2026/Images/28208001/09-ir/20260713_0230_202607130254_ir.png",
      "text_url": "https://ds.data.jma.go.jp/svd/vaac/data/TextData/2026/20260713_28208001_0083_Text.html"
    }
  ],
  "vaac_alaska": [
    {
      "text": "\n000\nFVAK21 PAWU 180008\nVAAAK1\nVA ADVISORY\n\nDTG: 20260718/0000Z\n\nVAAC: ANCHORAGE\n\nVOLCANO: SHEVELUCH 300270\n\nPSN: N5639 E16122\n\nAREA: KAMCHATKA PENINSULA\n\nSOURCE ELEV: 10771 FT AMSL\n\nADVISORY NR: 2026/205\n\nRMK: PLEASE SEE FVFE01 RJTD ISSUED BY VAAC TOKYO WHICH DESCRIBES\nCONDITIONS NEAR THE VAAC ANCHORAGE AREA OF RESPONSIBILITY...BS\n\n\n\n",
      "issued": "2026-07-18T00:08:00+00:00",
      "volcano": "Sheveluch",
      "psn": "N5639 E16122"
    }
  ]
}