{
  "updated_utc": "2026-07-18T08:03Z",
  "metar": {
    "RJAA": "METAR RJAA 180630Z 15010KT 9999 FEW020 SCT025 BKN050 27/23 Q1007 NOSIG",
    "PANC": "SPECI PANC 180640Z 18007KT 10SM FEW009 BKN049 BKN065 12/10 A2992 RMK AO2 T01170100",
    "PAFA": "METAR PAFA 180653Z 00000KT 10SM FEW060 SCT085 BKN100 BKN200 15/10 A2981 RMK AO2 SLP098 T01500100 $",
    "PAED": "METAR PAED 180655Z 19004KT 10SM FEW005 SCT010 BKN055 12/10 A2991 RMK AO2A RAE34 SLP125 P0002 T01220099 $",
    "KSEA": "METAR KSEA 180653Z 26003KT 10SM BKN047 BKN055 17/12 A3008 RMK AO2 SLP189 T01670117",
    "ZSPD": "METAR ZSPD 180630Z 04004MPS 340V080 9999 FEW030CB 34/27 Q1000 NOSIG",
    "ZSSS": "METAR ZSSS 180630Z 34005MPS 290V010 9999 -SHRA FEW030CB 32/29 Q1000 NOSIG",
    "RJFR": "METAR RJFR 180700Z 11008KT 9999 FEW025 BKN/// 32/27 Q1002",
    "VHHH": "METAR VHHH 180630Z 21008KT 9999 FEW012 FEW015CB SCT025 31/26 Q1004 NOSIG",
    "RCTP": "METAR RCTP 180630Z 25018KT 9999 FEW020 SCT200 34/25 Q1004 WS R23R NOSIG RMK A2967",
    "ZGSZ": "METAR ZGSZ 180700Z 15005MPS 9999 SCT033 30/26 Q1004 NOSIG",
    "WSSS": "METAR WSSS 180630Z 13009KT 100V160 9999 FEW020TCU BKN300 32/24 Q1009 NOSIG",
    "WMKK": "METAR WMKK 180630Z 25005KT 170V330 9000 FEW017CB SCT018 32/25 Q1009 NOSIG",
    "WIDD": "METAR WIDD 180630Z 13007KT 090V190 9999 SCT014 32/25 Q1010 NOSIG",
    "VTBS": "METAR VTBS 180630Z 26010KT 230V300 9999 FEW020 35/20 Q1008 NOSIG",
    "VTBU": "METAR VTBU 180630Z 29008KT 9000 FEW020 34/25 Q1009 NOSIG",
    "ROAH": "METAR ROAH 180630Z 20009KT 9999 FEW007 BKN010 30/28 Q1005",
    "VVDN": "METAR VVDN 180630Z VRB05KT 9999 FEW017 SCT070 35/23 Q1004 WS ALL RWY BECMG TL0700 01010KT",
    "RCKH": "SPECI RCKH 180609Z VRB02KT 9999 -RA FEW016 SCT038 BKN080 29/25 Q1007 NOSIG RMK A2975",
    "KLAX": "METAR KLAX 180653Z 24005KT 10SM FEW014 SCT110 BKN150 22/18 A2998 RMK AO2 SLP148 T02170183 $",
    "KONT": "METAR KONT 180653Z 26007KT 10SM FEW180 BKN200 23/16 A2999 RMK AO2 SLP136 T02330161 $",
    "KSFO": "METAR KSFO 180656Z 24010KT 10SM FEW004 OVC011 14/12 A3000 RMK AO2 SLP160 T01440117 $",
    "KOAK": "METAR KOAK 180653Z 23009KT 10SM FEW005 BKN010 15/12 A3001 RMK AO2 SLP161 T01500122",
    "KMHR": "METAR KMHR 180615Z AUTO 18007KT 9SM CLR 18/11 A2990 RMK AO2 T01820108 $",
    "KDFW": "METAR KDFW 180653Z 18010KT 10SM CLR 28/21 A3005 RMK AO2 SLP168 T02780206 $",
    "KIAH": "METAR KIAH 180653Z 17003KT 10SM FEW120 SCT250 28/25 A3010 RMK AO2 SLP192 T02780250 $",
    "KORD": "METAR KORD 180651Z 23008KT 10SM CLR 27/22 A2989 RMK AO2 SLP115 T02720222 $",
    "KJFK": "METAR KJFK 180651Z 20006KT 4SM FU BKN250 OVC300 22/21 A3002 RMK AO2 SLP164 FU OVC300 T02220211 $",
    "KRFD": "METAR KRFD 180654Z 18005KT 9SM FEW250 24/22 A2991 RMK AO2 SLP122 T02390222 $",
    "KIND": "METAR KIND 180654Z 25008KT 10SM FEW220 24/22 A2998 RMK AO2 SLP143 T02390217",
    "KDTW": "SPECI KDTW 180639Z 21008KT 6SM FU FEW030 SCT050 SCT250 23/21 A2989 RMK AO2 FU FEW030 T02280211 $",
    "KMSP": "METAR KMSP 180653Z 36010G19KT 8SM BKN035 25/19 A2990 RMK AO2 SLP118 T02500189",
    "CYEG": "METAR CYEG 180700Z 12010KT 20SM FEW250 21/16 A2989 RMK CI1 SLP112 DENSITY ALT 3700FT",
    "EHAM": "METAR EHAM 180625Z 31009KT 280V340 9999 FEW022 BKN030 18/12 Q1015 NOSIG",
    "EBBR": "METAR EBBR 180620Z 31004KT 270V360 9999 BKN021 18/13 Q1017 NOSIG",
    "EDDF": "METAR EDDF 180620Z AUTO 27007KT 250V310 9999 FEW018 20/15 Q1016 NOSIG",
    "EDFH": "METAR EDFH 180620Z 27004KT 240V300 9999 FEW001 SCT011 16/14 Q1017",
    "EDDL": "METAR EDDL 180620Z AUTO 28007KT 250V310 9999 FEW016 OVC024 18/14 Q1016 TEMPO BKN014",
    "EDDK": "METAR EDDK 180620Z AUTO 31008KT 9999 SCT016 BKN020 BKN025 19/14 Q1016 TEMPO BKN014",
    "EBLG": "METAR EBLG 180620Z 28004KT 9999 BKN019 17/14 Q1017 NOSIG",
    "LSZH": "METAR LSZH 180620Z VRB01KT CAVOK 21/16 Q1018 NOSIG",
    "LIMC": "METAR LIMC 180620Z 01005KT CAVOK 26/19 Q1012 NOSIG",
    "LIRF": "METAR LIRF 180620Z 07005KT 9000 NSC 28/25 Q1012 NOSIG",
    "EINN": "METAR EINN 180630Z 01009KT 9999 FEW015 13/11 Q1024 NOSIG",
    "EGLL": "METAR EGLL 180620Z AUTO 04007KT 010V080 9999 SCT015 17/12 Q1019",
    "EGSS": "METAR EGSS 180620Z AUTO 34007KT 320V020 9999 FEW026 15/10 Q1019",
    "EPWA": "METAR EPWA 180630Z 18004KT 150V230 9999 SCT008 21/20 Q1008 NOSIG",
    "UHPP": "METAR UHPP 180630Z 33008MPS 9999 BKN043 26/16 Q1017 R34L/CLRD62 NOSIG RMK MT OBSC QFE759/1013",
    "EFHK": "METAR EFHK 180620Z 15010KT CAVOK 21/17 Q1008 TEMPO FEW050TCU",
    "LBBG": "METAR LBBG 180630Z AUTO VRB03KT 6000 BKN004/// 22/22 Q1014 TEMPO 5000 BR",
    "LTAC": "METAR LTAC 180620Z 05010KT 9999 FEW040 23/12 Q1015 NOSIG RMK RWY21C 05010KT RWY03L 04010KT 360V070 RWY21R 04009KT 360V060 RWY03R 08008KT 040V100 RWY21L 05009KT 350V080",
    "UBBB": "METAR UBBB 180630Z 35014KT CAVOK 30/18 Q1009 NOSIG",
    "UTAA": "METAR UTAA 180700Z 31008KT 270V340 9999 NSC 36/19 Q1007 R88/CLRD70 NOSIG",
    "UACC": "METAR UACC 180630Z 26009MPS 230V290 9999 SCT046CB 34/10 Q1006 NOSIG RMK QFE723/0965",
    "UAAA": "METAR UAAA 180630Z 08004MPS 010V100 9999 FEW050 38/13 Q1007 NOSIG",
    "UZTT": "METAR UZTT 180630Z 17004KT 120V250 CAVOK 40/13 Q1003 NOSIG",
    "ZWWW": "METAR ZWWW 180630Z 02005MPS 350V060 CAVOK 39/08 Q1007 NOSIG",
    "ZLXY": "METAR ZLXY 180700Z 28005MPS CAVOK 30/18 Q1008 NOSIG",
    "ZBAA": "METAR ZBAA 180630Z 18005MPS 9999 FEW016 30/21 Q1001 NOSIG",
    "ZBHH": "METAR ZBHH 180700Z 30003MPS 240V030 9999 SCT040 27/13 Q1008 NOSIG",
    "ZSQD": "METAR ZSQD 180700Z 02003MPS 340V050 9999 SCT050 31/19 Q1001 NOSIG",
    "ZMCK": "METAR ZMCK 180630Z 22004MPS 160V250 9999 FEW030CB SCT033 27/10 Q1003 NOSIG RMK QFE638.5 33 MOP",
    "UUEE": "METAR UUEE 180630Z 04003MPS 360V080 CAVOK 20/09 Q1017 R06R/CLRD62 R06C/CLRD62 NOSIG",
    "UUDD": "METAR UUDD 180630Z VRB01MPS 9999 SCT048 18/12 Q1017 R13R/CLRD65 NOSIG",
    "ULLI": "SPECI ULLI 180628Z 18004MPS 130V210 CAVOK 23/12 Q1013 R88/090065 NOSIG",
    "USSS": "METAR USSS 180630Z 04005MPS 020V080 9999 SCT009 BKN025CB 20/20 Q1002 R08R/210060 TEMPO -TSRA RMK QFE732/0976",
    "UNNT": "METAR UNNT 180630Z 30005MPS 9999 BKN039CB 27/16 Q1001 R25/CLRD// R16/CLRD// NOSIG RMK QFE741/0988",
    "UNKL": "METAR UNKL 180630Z 17002MPS 9999 SCT023CB 19/19 Q1000 R29/290250 NOSIG RMK QFE725",
    "UIBB": "METAR UIBB 180630Z 15004MPS 070V200 9999 TS SCT033CB 21/14 Q0999 R12/210162 NOSIG RMK QFE707/0943",
    "UEEE": "METAR UEEE 180630Z 06003MPS 9999 TS BKN030CB 20/17 Q0995 R23/290163 NOSIG RMK QFE738",
    "UHHH": "METAR UHHH 180630Z 27004MPS 9999 FEW046 29/16 Q1004 R88/090060 NOSIG RMK QFE747/0996",
    "UHSS": "METAR UHSS 180630Z 20005MPS 9999 NSC 23/20 Q1009 R19/CLRD70 NOSIG RMK QFE755/1007"
  },
  "taf": {
    "RJAA": "TAF RJAA 180505Z 1806/1912 14008KT 9999 FEW020 SCT040",
    "PANC": "TAF PANC 180532Z 1806/1912 18006KT P6SM VCSH FEW015 SCT045 BKN070 TEMPO 1806/1807 -SHRA BKN035 FM181800 19004KT P6SM VCSH OVC050 FM182000 16008KT 6SM -RA OVC040 FM182300 14012G24KT P6SM VCSH SCT040 OVC070 FM190800 34005KT 6SM -RA OVC060 WS008/12030KT",
    "PAFA": "TAF PAFA 180530Z 1806/1912 22002KT P6SM SCT070 FM190000 18009KT P6SM SCT050 SCT100",
    "PAED": "TAF PAED 180500Z 1805/1911 VRB06KT 9999 BKN020 BKN035 620604 QNH2986INS TEMPO 1805/1810 -RA BKN015 BECMG 1810/1811 VRB06KT 9999 NSW BKN040 620604 QNH2993INS BECMG 1819/1820 32010KT 9000 -RA FEW007 SCT015 OVC050 640703 QNH3002INS BECMG 1902/1903 34012KT 9999 VCSH BKN045 OVC060 QNH3002INS BECMG 1907/1908 36010KT 9000 -RA FEW006 SCT030 BKN045 OVC060 QNH3002INS TX14/1902Z TN10/1812",
    "KSEA": "TAF KSEA 180520Z 1806/1912 24006KT P6SM BKN050 FM181100 20004KT P6SM SCT020 BKN035 FM181700 24006KT P6SM BKN045 FM182100 29007KT P6SM SCT050 FM190200 01008KT P6SM FEW250 FM191100 36006KT P6SM FEW025",
    "ZSPD": "TAF ZSPD 180308Z 1806/1912 28004MPS 8000 SCT030 TX37/1806Z TX33/1906Z TN28/1821Z TEMPO 1806/1810 TSRA BKN011 FEW030CB",
    "ZSSS": "TAF ZSSS 180307Z 1806/1912 28004MPS 8000 SCT030 TX37/1806Z TX33/1906Z TN28/1821Z TEMPO 1806/1810 TSRA BKN011 FEW030CB",
    "RJFR": "TAF RJFR 180505Z 1806/1912 07005KT 9999 FEW025 BECMG 1815/1817 10004KT BECMG 1900/1903 07010KT TEMPO 1909/1912 -TSRA FEW010 FEW020CB BKN030",
    "VHHH": "TAF VHHH 180800Z 1809/1915 20010KT 9999 FEW010 SCT025 TX31/1906Z TN27/1822Z TEMPO 1809/1811 3000 SHRA FEW010CB SCT020 TEMPO 1821/1903 24015G25KT 2500 TSRA SHRA FEW008CB SCT015 TEMPO 1903/1906 3000 SHRA FEW010CB SCT020",
    "RCTP": "TAF RCTP 180500Z 1806/1912 24014KT 9999 FEW010 BKN032 TEMPO 1806/1812 24020KT TEMPO 1812/1818 24009KT TEMPO 1818/1824 24005KT TEMPO 1900/1906 25005KT",
    "ZGSZ": "TAF ZGSZ 180311Z 1806/1912 18004MPS 8000 BKN040 TX30/1806Z TX30/1906Z TN27/1822Z TEMPO 1821/1901 TSRA FEW020 FEW025CB BKN040 TEMPO 1904/1908 TSRA FEW020 FEW025CB BKN040",
    "WSSS": "TAF WSSS 180500Z 1806/1912 14009KT 9999 FEW015 SCT020",
    "WMKK": "TAF WMKK 180500Z 1806/1912 VRB03KT 9999 FEW018 PROB40 TEMPO 1806/1810 5000 TSRA FEW017CB SCT018",
    "VTBS": "TAF VTBS 180500Z 1806/1912 24008KT 9999 FEW020",
    "VTBU": "TAF VTBU 180500Z 1806/1906 24008KT 9999 FEW020 BECMG 1816/1818 36004KT BECMG 1900/1902 24008KT",
    "ROAH": "TAF ROAH 180505Z 1806/1912 20008KT 9999 FEW008 SCT015 TEMPO 1812/1814 FEW005 BKN008 TEMPO 1814/1821 FEW003 BKN005 TEMPO 1821/1900 FEW005 BKN008",
    "VVDN": "TAF VVDN 180500Z 1806/1906 23010KT 9999 FEW020 BECMG 1806/1807 01010KT BECMG 1808/1809 12010KT BECMG 1812/1813 22008KT",
    "RCKH": "TAF RCKH 180500Z 1806/1912 25005KT 9999 FEW010 BKN032 TEMPO 1806/1812 24010KT 4000 SHRA FEW010 BKN017 FEW020CB BECMG 1812/1813 07005KT TEMPO 1813/1818 13005KT 5000 RA FEW010 BKN017 TEMPO 1818/1824 4000 RA FEW010 BKN017 BECMG 1900/1901 24005KT TEMPO 1901/1906 25011KT 3000 SHRA FEW010 BKN014 FEW020CB",
    "KLAX": "TAF KLAX 180520Z 1806/1912 VRB03KT P6SM FEW012 FM180800 11007KT P6SM OVC012 FM181600 16005KT P6SM SCT015 FM181900 26012KT P6SM FEW025 FM190300 24006KT P6SM FEW015 SCT150 FM190600 VRB03KT P6SM FEW015 SCT150 FM190900 VRB03KT P6SM BKN015",
    "KONT": "TAF KONT 180520Z 1806/1912 25007KT P6SM BKN180 FM180800 VRB04KT P6SM SCT200 FM182000 26010G21KT P6SM SCT150 FM190200 25010KT P6SM FEW200 FM190900 VRB04KT P6SM SKC",
    "KSFO": "TAF KSFO 180520Z 1806/1912 27010KT 6SM BR FEW005 OVC008 FM181800 28015G25KT P6SM SKC FM190300 29015KT P6SM SCT015 FM190600 28012KT P6SM OVC015",
    "KOAK": "TAF KOAK 180520Z 1806/1912 26010KT P6SM SCT008 OVC010 FM180800 26010KT 6SM BR OVC008 FM181800 28010KT P6SM FEW005 SCT010 FM182000 30015KT P6SM SKC FM190300 29012KT P6SM SCT015 FM190600 29006KT P6SM OVC010",
    "KMHR": "TAF KMHR 180520Z 1806/1906 17008KT P6SM SKC FM181800 22006KT P6SM SKC",
    "KDFW": "TAF KDFW 180520Z 1806/1912 18011KT P6SM FEW060 FM181300 18012KT P6SM SCT025 FM181600 18016KT P6SM SCT060 FM190200 18007KT P6SM FEW250",
    "KIAH": "TAF KIAH 180521Z 1806/1912 17006KT P6SM FEW020 SCT250 FM181500 20007KT P6SM SCT020 BKN035 FM181900 17008KT P6SM SCT045 SCT250 FM190400 19004KT P6SM FEW020 SCT250",
    "KORD": "TAF KORD 180520Z 1806/1912 24006KT P6SM FEW050 FM181300 27013G22KT P6SM SCT050 BKN250 FM181800 33012KT P6SM VCTS BKN050CB TEMPO 1818/1820 01020G30KT 1SM TSRA BR BKN020 OVC050CB FM182000 06011G17KT P6SM FEW015 SCT035 FM190100 03012G18KT 5SM FU SCT015",
    "KJFK": "TAF KJFK 180530Z 1806/1912 17004KT 6SM FU BKN250 FM181300 20010KT 6SM FU OVC150 FM181500 19012KT 6SM FU VCSH SCT015 OVC070 TEMPO 1815/1818 3SM SHRA BKN015 OVC070 FM181800 19014KT P6SM VCSH SCT015 OVC070 TEMPO 1819/1823 2SM TSRA BR BKN015 OVC050CB FM182300 20014G22KT 5SM -SHRA BKN015 OVC050 TEMPO 1823/1903 2SM TSRA BR BKN009 OVC050CB FM190300 24012KT 4SM SHRA BKN025 OVC050 FM190700 28012KT P6SM SCT040 BKN100",
    "KRFD": "TAF KRFD 180520Z 1806/1906 20006KT P6SM FEW050 PROB30 1810/1813 35012KT 2SM TSRA BR SCT020 BKN050CB FM181300 28013G22KT P6SM SCT050 BKN250 FM181900 33011KT P6SM SCT035 FM182200 01011KT P6SM SCT040 FM190400 01010KT 5SM FU SCT035",
    "KIND": "TAF KIND 180520Z 1806/1912 23007KT P6SM FEW040 SCT180 FM181500 27013KT P6SM VCSH SCT050 PROB30 1821/1903 VRB15G25KT 5SM -TSRA BKN030CB FM190300 34007KT P6SM VCSH BKN150",
    "KDTW": "TAF KDTW 180538Z 1806/1912 21008KT 3SM HZ SCT045 FM180700 22008KT 6SM HZ SCT045 BKN200 FM181500 26016G23KT P6SM SCT030 BKN050 OVC120 TEMPO 1817/1820 2SM TSRA OVC030CB FM182100 32014G22KT P6SM SCT045 BKN060 FM190100 02010KT P6SM BKN200",
    "KMSP": "TAF KMSP 180531Z 1806/1912 35010KT P6SM BKN050 FM181300 36007KT P6SM SKC",
    "CYEG": "TAF CYEG 180540Z 1806/1906 12010KT P6SM FEW100 FM181000 10005KT P6SM SCT012 TEMPO 1810/1815 BKN012 PROB30 1810/1815 3/4SM BR BKN004 FM181500 13005KT P6SM FEW020 FM181800 27006KT P6SM FEW050 TEMPO 1823/1901 VRB25G40KT P6SM VCTS BKN050CB FM190100 25008KT P6SM SCT050 PROB30 1901/1904 VRB25G40KT 2SM +TSRA BR FEW020 BKN040CB FM190400 25008KT P6SM FEW100 RMK NXT FCST BY 180900Z",
    "EHAM": "TAF EHAM 180458Z 1806/1912 31010KT 9999 SCT025 PROB30 TEMPO 1819/1824 7000 -SHRA FEW020TCU",
    "EBBR": "TAF EBBR 180507Z 1806/1912 32006KT 9999 SCT020 SCT040",
    "EDDF": "TAF AMD EDDF 180633Z 1806/1912 29009KT 9999 SCT025 PROB30 TEMPO 1815/1820 30015G25KT TSRA BKN045CB BECMG 1819/1822 35004KT PROB30 TEMPO 1901/1904 SHRA BKN035CB BECMG 1906/1908 30009KT",
    "EDFH": "TAF EDFH 180500Z 1806/1906 30006KT CAVOK PROB30 TEMPO 1814/1818 30015G25KT TSRA BKN050CB PROB30 TEMPO 1900/1902 35015G25KT TSRA BKN030CB",
    "EDDL": "TAF EDDL 180500Z 1806/1912 28007KT 9999 SCT040 PROB30 TEMPO 1806/1808 BKN014 BECMG 1809/1812 30012KT BECMG 1818/1821 29006KT BECMG 1906/1909 30011KT",
    "EDDK": "TAF EDDK 180500Z 1806/1912 30007KT 9999 FEW025 BECMG 1810/1813 31012KT BECMG 1818/1821 31006KT BECMG 1906/1909 31011KT",
    "EBLG": "TAF EBLG 180507Z 1806/1912 32008KT 9999 SCT020 SCT040",
    "LSZH": "TAF LSZH 180525Z 1806/1912 VRB02KT CAVOK TX25/1814Z TN19/1806Z TN15/1904Z BECMG 1808/1811 27010KT SCT060TCU PROB40 TEMPO 1812/1817 30015G25KT TSRA FEW060CB BECMG 1818/1820 VRB02KT SCT060 BECMG 1820/1822 CAVOK BECMG 1905/1908 9999 SCT040 PROB40 TEMPO 1907/1912 SHRA SCT050TCU BECMG 1908/1911 29010KT",
    "LIMC": "TAF LIMC 180500Z 1806/1912 02005KT 9999 FEW040 BECMG 1812/1814 22010KT PROB30 TEMPO 1812/1817 4000 TSRA BECMG 1817/1819 VRB05KT",
    "LIRF": "TAF LIRF 180500Z 1806/1912 VRB05KT CAVOK BECMG 1809/1811 27012KT BECMG 1818/1820 VRB05KT BECMG 1910/1912 24010KT",
    "EINN": "TAF EINN 180500Z 1806/1906 36010KT 9999 FEW030",
    "EGLL": "TAF EGLL 180500Z 1806/1912 04010KT 9999 FEW030 PROB40 TEMPO 1900/1908 34006KT",
    "EGSS": "TAF EGSS 180500Z 1806/1912 03006KT 9999 SCT035 BECMG 1823/1902 33010KT BECMG 1906/1909 03010KT",
    "EPWA": "TAF AMD EPWA 180609Z 1806/1906 20005KT 9999 BKN008 BECMG 1806/1809 SCT040 BECMG 1809/1812 27012KT TEMPO 1810/1818 -SHRA SCT040CB PROB40 TEMPO 1811/1815 27015G25KT 2000 TSRA BKN030CB BECMG 1817/1819 VRB02KT",
    "UHPP": "TAF UHPP 180445Z 1806/1912 30003G12MPS 9999 SCT040CB TX26/1806Z TN18/1816Z TEMPO 1806/1809 36005G12MPS",
    "EFHK": "TAF EFHK 180535Z 1806/1906 16009KT CAVOK PROB40 TEMPO 1806/1813 FEW050CB TEMPO 1813/1817 5000 SHRA SCT040CB TEMPO 1817/1824 21015G25KT 4000 TSRA BKN012 BKN030CB BECMG 1900/1902 22010KT 7000 -DZ BKN007 BECMG 1904/1906 28008KT 9999 BKN011",
    "LBBG": "TAF LBBG 180500Z 1806/1906 VRB03KT 9999 SCT045 BECMG 1807/1809 12012KT BECMG 1818/1820 VRB03KT",
    "LTAC": "TAF LTAC 180440Z 1806/1906 04009KT CAVOK BECMG 1806/1809 SCT040 SCT100 BECMG 1818/1820 CAVOK",
    "UBBB": "TAF UBBB 180459Z 1806/1906 34014KT CAVOK TX32/1810Z TN25/1901Z TEMPO 1806/1814 36018G28KT SCT025 TEMPO 1818/1824 34018G28KT FEW050CB TEMPO 1900/1906 SCT012 FEW050CB",
    "UTAA": "TAF UTAA 180445Z 1806/1906 01016KT 6000 SCT050 TX42/1812Z TEMPO 1806/1812 31014G24KT 4000 DRDU BECMG 1816/1818 27014KT",
    "UACC": "TAF UACC 180500Z 1806/1906 24006MPS 9999 SCT040CB BKN100 TX35/1809Z TN20/1900Z TEMPO 1806/1814 28008G13MPS -TSRA BKN030CB BECMG 1814/1816 VRB01MPS TEMPO 1814/1818 10006MPS -TSRA BKN020CB TEMPO 1821/1904 14003MPS -TSRA BKN030CB BECMG 1904/1906 24006MPS",
    "UAAA": "TAF UAAA 180505Z 1806/1906 02005MPS 9999 FEW050 SCT100 TX41/1810Z TN22/1900Z TEMPO 1806/1815 07006G11MPS 5000 BLDU BECMG 1815/1816 17002MPS TEMPO 1902/1906 32005MPS",
    "UZTT": "TAF UZTT 180500Z 1806/1906 22010KT 7000 NSC TX45/1811Z TN27/1900Z TEMPO 1806/1816 32015KT",
    "ZWWW": "TAF ZWWW 180303Z 1806/1912 36004G09MPS CAVOK TX41/1809Z TX38/1909Z TN28/1823Z BECMG 1815/1816 18004MPS BECMG 1902/1903 36004MPS",
    "ZLXY": "TAF ZLXY 180302Z 1806/1906 30004MPS 6000 NSC TX36/1906Z TN21/1821Z",
    "ZBAA": "TAF AMD ZBAA 180638Z 1806/1912 18004MPS CAVOK TX31/1806Z TX33/1906Z TN21/1821Z TEMPO 1808/1812 2800 -SHRA BR",
    "ZBHH": "TAF ZBHH 180303Z 1806/1906 36004MPS 9999 FEW040 TX28/1807Z TN16/1822Z",
    "ZSQD": "TAF ZSQD 180301Z 1806/1906 03005MPS 3500 BR NSC TX31/1806Z TN21/1820Z BECMG 1810/1811 16002MPS",
    "ZMCK": "TAF ZMCK 180450Z 1806/1912 VRB02MPS 9999 FEW030CB SCT033 TX24/1807Z TN12/1821Z TEMPO 1806/1816 VRB09G14MPS TSRA SCT027CB SCT030 BECMG 1900/1902 32005MPS PROB40 TEMPO 1905/1912 VRB09G14MPS TSRA SCT027CB SCT033",
    "UUEE": "TAF UUEE 180450Z 1806/1906 02003MPS 9999 SCT040 TX25/1813Z TN13/1902Z PROB40 TEMPO 1900/1904 0300 FG BKN002",
    "UUDD": "TAF UUDD 180454Z 1806/1912 36003MPS 9999 SCT016 TX28/1909Z TN10/1901Z PROB40 TEMPO 1823/1904 0300 FG BECMG 1906/1908 20005MPS",
    "ULLI": "TAF ULLI 180450Z 1806/1906 18006G12MPS 9999 SCT020",
    "USSS": "TAF USSS 180450Z 1806/1906 06003G14MPS 6000 -SHRA BKN011CB TEMPO 1806/1906 VRB20MPS -TSRAGR SQ BKN005 BKN011CB",
    "UNNT": "TAF UNNT 180500Z 1806/1906 27003G08MPS 8000 SCT040 TX27/1809Z TN16/1822Z TEMPO 1806/1819 22008G18MPS -TSRA BKN020CB TEMPO 1819/1902 0300 FG BKN001 TEMPO 1902/1906 -TSRA BKN020CB",
    "UNKL": "TAF UNKL 180449Z 1806/1906 27003MPS 6000 -SHRA BKN016CB TEMPO 1806/1812 27008G16MPS -TSRA BKN010 BKN016CB TEMPO 1812/1815 -TSRA",
    "UIBB": "TAF AMD UIBB 180635Z 1806/1906 15002G08MPS 9999 -TSRA BKN020CB TEMPO 1806/1808 VRB07MPS BECMG 1808/1809 NSW TEMPO 1809/1815 VRB07MPS -TSRA BECMG 1815/1816 28005MPS",
    "UEEE": "TAF AMD UEEE 180706Z 1807/1912 15005G10MPS 9999 BKN017CB OVC070 TEMPO 1807/1815 VRB16MPS 1000 TSRA SCT005 BKN020CB OVC070",
    "UHHH": "TAF UHHH 180446Z 1806/1912 24003MPS CAVOK TX30/1904Z TN18/1818Z FM190000 28003MPS 9999 SCT020CB",
    "UHSS": "TAF UHSS 180450Z 1806/1912 18003MPS 9999 BKN030CB"
  },
  "atis": {},
  "windtemp_alaska": "\n000\nFBAK31 KWNO 180159\nFD1AK1\nDATA BASED ON 180000Z    \nVALID 180600Z   FOR USE 0200-0900Z. TEMPS NEG ABV 24000\n\nFT  3000    6000    9000   12000   18000   24000  30000  34000  39000\nADK 3524 3329+04 3334+01 3241-03 3253-16 3272-26 339638 840245 337848\nADQ 2105 1810+00 2217-04 2221-08 2441-15 2658-25 266441 267250 255753\nAKN 1615 1716-02 1816-06 1818-10 2225-18 2449-27 247742 248351 234147\nANC 9900 1608+01 1608-05 9900-11 2218-21 2532-32 276444 264946 242843\nANN 3005 2809+10 2711+06 2712+01 2415-13 2116-25 211840 211749 221755\nBET 9900 1413-02 1217-07 1212-11 1408-22 2318-32 233347 222945 241241\nBRW 0923 0718+04 0617-01 0619-07 0624-18 0629-30 063046 072353 091744\nBTI 0910 1305+04 2405-01 2006-06 1415-18 1718-29 213046 192250 171743\nBTT 2406 2407+02 2307-03 1606-09 1313-22 1123-35 143047 132243 141940\nCDB 2037 2041+02 2143+00 2143-05 2253-17 2270-27 219441 229149 234545\nCZF 0510 0708-01 0709-07 0713-12 0616-24 0106-34 290547 320542 320539\nEHM 1324 1327-02 1326-07 1421-10 2018-19 1927-32 216043 224845 222342\nFAI 9900 9900+03 2310-04 2210-10 1709-24 1521-36 153446 172642 182140\nFYU 9900 9900+04 9900-02 1609-08 1633-20 1639-31 165846 175147 162643\nGAL 1611 1714+00 1714-06 1516-12 1218-24 1115-36 151046 160541 140739\nGKN 1714 1914+03 1713-04 1615-10 1929-21 2139-32 223746 213144 212642\nHOM 2105 2206+00 1909-05 2011-09 2322-18 2540-28 267242 277550 253745\nJNU 2305 2313+06 2219+02 2125-03 1942-16 1849-27 175540 175248 194051\nLUR 0521 0517+04 0518-01 0520-07 0624-20 0729-31 073246 073253 072243\nMCG 2012 2110+00 2111-06 2012-12 1914-25 2211-35 252545 242342 221340\nMDO 9900 9900+00 2208-03 2314-07 2419-18 2730-30 298242 296048 262745\nOME 9900 9900+01 0307-04 0209-10 0315-24 0422-35 052647 061942 050840\nORT      3506+05 3308-02 2207-08 1826-20 1939-31 186844 186647 193443\nOTZ 1011 0812+02 0714-03 0715-09 0725-22 0737-35 075947 073445 071440\nSNP 0335 0334-03 0241-07 0335-11 0319-21 0121-33 362042 342337 342438\nTKA 9900 1913+00 1914-05 1714-11 1816-24 2223-35 253945 243143 232441\nUNK 9900 0907-01 1109-05 1109-11 0705-24 9900-38 990045 090539 990039\nYAK 1508 1705+01 2111-02 2018-06 1716-20 1629-31 156042 165044 192744\nIKO 3034 2933+01 2841-01 2848-06 2657-19 2663-31 255739 264739 273640\nAFM 1506 1506+02 1306-03 1210-09 0928-22 0734-35 075448 082743 101740\n5AB 3310 3316+09 3230+05 3235+00 3247-10 3354-20 356834 358442 359353\n5AC 3122 3125+10 2923+06 2925+01 2725-14 2626-26 243640 243748 262855\n5AD 2714 2719+04 2725+01 2732-03 2844-12 2844-24 284940 295850 305156\n5AE 2124 2323+01 2430-02 2541-04 2446-14 2447-25 244940 245249 245456\n5AF 2917 2619+05 2423+01 2428-02 2337-16 2341-29 244143 223946 233546\n5AG 2613 2713+02 2615-01 2717-06 2723-18 2725-31 294244 273343 252543\n",
  "vaac_active": [
    {
      "volcano": "MAYON",
      "volcano_jp": "マヨン",
      "advisory_nr": "2026/763",
      "obs_time": "2026-07-18 05:47Z",
      "issued_time": "2026-07-18 06:07Z",
      "text_url": "https://www.data.jma.go.jp/vaac/data/TextData/2026/20260718_27303000_0763_Text.html",
      "lat": 13.25,
      "lon": 123.683,
      "text": "FVFE01 RJTD 180607\nVA ADVISORY\nDTG: 20260718/0607Z\nVAAC: TOKYO\nVOLCANO: MAYON 273030\nPSN: N1315 E12341\nAREA: PHILIPPINES\nSOURCE ELEV: 2462M AMSL\nADVISORY NR: 2026/763\nINFO SOURCE: HIMAWARI-9 PHIVOLCS\nERUPTION DETAILS: ERUPTION AT 20260718/0547Z VA CLD UNKNOWN REPORTED\nOBS VA DTG: 18/0550Z\nOBS VA CLD: VA NOT IDENTIFIABLE FM SATELLITE DATA WIND FL180 010/6KT\nFCST VA CLD +6 HR: NOT AVBL\nFCST VA CLD +12 HR: NOT AVBL\nFCST VA CLD +18 HR: NOT AVBL\nRMK: WE WILL ISSUE FURTHER ADVISORY IF VA IS DETECTED IN SATELLITE \nIMAGERY.\nNXT ADVISORY: NO FURTHER ADVISORIES="
    },
    {
      "volcano": "SHEVELUCH",
      "volcano_jp": "シベルチ",
      "advisory_nr": "2026/269",
      "obs_time": "2026-07-18 05:20Z",
      "issued_time": "2026-07-18 05:50Z",
      "text_url": "https://www.data.jma.go.jp/vaac/data/TextData/2026/20260718_30027000_0269_Text.html",
      "lat": 56.65,
      "lon": 161.367,
      "text": "FVFE01 RJTD 180550\nVA ADVISORY\nDTG: 20260718/0550Z\nVAAC: TOKYO\nVOLCANO: SHEVELUCH 300270\nPSN: N5639 E16122\nAREA: RUSSIA\nSOURCE ELEV: 3283M AMSL\nADVISORY NR: 2026/269\nINFO SOURCE: HIMAWARI-9\nERUPTION DETAILS: VA IS NOT IDENTIFIABLE IN SATELLITE IMAGERY.\nOBS VA DTG: 18/0520Z\nOBS VA CLD: VA NOT IDENTIFIABLE FM SATELLITE DATA WIND FL180 270/19KT\nFCST VA CLD +6 HR: NOT AVBL\nFCST VA CLD +12 HR: NOT AVBL\nFCST VA CLD +18 HR: NOT AVBL\nRMK: VA IS NOT IDENTIFIABLE DUE TO MET CLOUD OR HAS DISSIPATED. WE \nWILL ISSUE FURTHER ADVISORY IF VA DETECTED IN SATELLITE IMAGERY.\nNXT ADVISORY: NO FURTHER ADVISORIES="
    },
    {
      "volcano": "MAYON",
      "volcano_jp": "マヨン",
      "advisory_nr": "2026/762",
      "obs_time": "2026-07-18 01:27Z",
      "issued_time": "2026-07-18 02:01Z",
      "text_url": "https://www.data.jma.go.jp/vaac/data/TextData/2026/20260718_27303000_0762_Text.html",
      "lat": 13.25,
      "lon": 123.683,
      "text": "FVFE01 RJTD 180201\nVA ADVISORY\nDTG: 20260718/0201Z\nVAAC: TOKYO\nVOLCANO: MAYON 273030\nPSN: N1315 E12341\nAREA: PHILIPPINES\nSOURCE ELEV: 2462M AMSL\nADVISORY NR: 2026/762\nINFO SOURCE: HIMAWARI-9 PHIVOLCS\nERUPTION DETAILS: ERUPTION AT 20260718/0127Z VA CLD UNKNOWN REPORTED\nOBS VA DTG: 18/0140Z\nOBS VA CLD: VA NOT IDENTIFIABLE FM SATELLITE DATA WIND FL180 360/6KT\nFCST VA CLD +6 HR: NOT AVBL\nFCST VA CLD +12 HR: NOT AVBL\nFCST VA CLD +18 HR: NOT AVBL\nRMK: WE WILL ISSUE FURTHER ADVISORY IF VA IS DETECTED IN SATELLITE \nIMAGERY.\nNXT ADVISORY: NO FURTHER ADVISORIES="
    }
  ],
  "vaac_tokyo": [
    {
      "id": "20260718_30027000_0268",
      "year": "2026",
      "volcano": "Sheveluch",
      "psn": "N5639 E16122",
      "issued": "20260718",
      "text": "FVFE01 RJTD 180000\nVA ADVISORY\nDTG: 20260718/0000Z\nVAAC: TOKYO\nVOLCANO: SHEVELUCH 300270\nPSN: N5639 E16122\nAREA: RUSSIA\nSOURCE ELEV: 3283M AMSL\nADVISORY NR: 2026/268\nINFO SOURCE: KVERT HIMAWARI-9\nERUPTION DETAILS: VA CONTINUOUSLY OBS IN SATELLITE IMAGERY\nOBS VA DTG: 17/2320Z\nOBS VA CLD: SFC/FL290 N5601 E16322 - N5605 E16357 - N5546 E16401 - \nN5544 E16326 MOV SE 25KT\nFCST VA CLD +6 HR: 18/0520Z SFC/FL300 N5529 E16617 - N5404 E16714 - \nN5357 E16639 - N5527 E16530\nFCST VA CLD +12 HR: 18/1120Z SFC/FL300 N5352 E17006 - N5152 E17037 - \nN5152 E16936 - N5344 E16817\nFCST VA CLD +18 HR: NO VA EXP\nRMK: SOME PART OF VA OBSCURED BY MET CLOUD.\nNXT ADVISORY: 20260718/0600Z=",
      "img_url": "https://ds.data.jma.go.jp/svd/vaac/data/VAGFN/2026/Images/20260718_30027000_0268_QH21_01.png",
      "sat_img_url": "https://ds.data.jma.go.jp/svd/vaac/data/Sat/2026/Images/30027000/09-ir/20260717_2320_202607180000_ir.png",
      "text_url": "https://ds.data.jma.go.jp/svd/vaac/data/TextData/2026/20260718_30027000_0268_Text.html"
    },
    {
      "id": "20260717_27303000_0761",
      "year": "2026",
      "volcano": "Mayon",
      "psn": "N1315 E12341",
      "issued": "20260717",
      "text": "FVFE01 RJTD 172222\nVA ADVISORY\nDTG: 20260717/2222Z\nVAAC: TOKYO\nVOLCANO: MAYON 273030\nPSN: N1315 E12341\nAREA: PHILIPPINES\nSOURCE ELEV: 2462M AMSL\nADVISORY NR: 2026/761\nINFO SOURCE: HIMAWARI-9 PHIVOLCS\nERUPTION DETAILS: ERUPTION AT 20260717/2208Z FL100 EXTD SSE REPORTED\nOBS VA DTG: 17/2210Z\nOBS VA CLD: VA NOT IDENTIFIABLE FM SATELLITE DATA WIND FL100 360/6KT\nFCST VA CLD +6 HR: NOT AVBL\nFCST VA CLD +12 HR: NOT AVBL\nFCST VA CLD +18 HR: NOT AVBL\nRMK: WE WILL ISSUE FURTHER ADVISORY IF VA IS DETECTED IN SATELLITE \nIMAGERY.\nNXT ADVISORY: NO FURTHER ADVISORIES=",
      "img_url": "https://ds.data.jma.go.jp/svd/vaac/data/VAGFN/2026/Images/20260717_27303000_0761_QH21_01.png",
      "sat_img_url": null,
      "text_url": "https://ds.data.jma.go.jp/svd/vaac/data/TextData/2026/20260717_27303000_0761_Text.html"
    },
    {
      "id": "20260717_27307000_0014",
      "year": "2026",
      "volcano": "Taal",
      "psn": "N1400 E12100",
      "issued": "20260717",
      "text": "FVFE01 RJTD 171113\nVA ADVISORY\nDTG: 20260717/1113Z\nVAAC: TOKYO\nVOLCANO: TAAL 273070\nPSN: N1400 E12100\nAREA: PHILIPPINES\nSOURCE ELEV: 311M AMSL\nADVISORY NR: 2026/14\nINFO SOURCE: HIMAWARI-9 PHIVOLCS\nERUPTION DETAILS: ERUPTION AT 20260717/1051Z FL040 EXTD E REPORTED\nOBS VA DTG: 17/1100Z\nOBS VA CLD: VA NOT IDENTIFIABLE FM SATELLITE DATA WIND FL040 270/8KT\nFCST VA CLD +6 HR: NOT AVBL\nFCST VA CLD +12 HR: NOT AVBL\nFCST VA CLD +18 HR: NOT AVBL\nRMK: WE WILL ISSUE FURTHER ADVISORY IF VA IS DETECTED IN SATELLITE \nIMAGERY.\nNXT ADVISORY: NO FURTHER ADVISORIES=",
      "img_url": "https://ds.data.jma.go.jp/svd/vaac/data/VAGFN/2026/Images/20260717_27307000_0014_QH21_01.png",
      "sat_img_url": null,
      "text_url": "https://ds.data.jma.go.jp/svd/vaac/data/TextData/2026/20260717_27307000_0014_Text.html"
    },
    {
      "id": "20260713_28208001_0083",
      "year": "2026",
      "volcano": null,
      "psn": "N3136 E13039",
      "issued": "20260713",
      "text": "FVFE01 RJTD 130254\nVA ADVISORY\nDTG: 20260713/0254Z\nVAAC: TOKYO\nVOLCANO: SAKURAJIMA (AIRA CALDERA) 282080\nPSN: N3136 E13039\nAREA: JAPAN\nSOURCE ELEV: 1117M AMSL\nADVISORY NR: 2026/83\nINFO SOURCE: JMA HIMAWARI-9\nERUPTION DETAILS: ERUPTED AT 20260713/0152Z FL100 EXTD N\nOBS VA DTG: 13/0230Z\nOBS VA CLD: SFC/FL100 N3136 E13039 - N3142 E13040 - N3141 E13044 - \nN3134 E13042 MOV NE 15KT\nFCST VA CLD +6 HR: 13/0830Z SFC/FL100 N3234 E13121 - N3145 E13155 - \nN3202 E13110 - N3227 E13051\nFCST VA CLD +12 HR: 13/1430Z SFC/FL100 N3318 E13206 - N3142 E13317 - \nN3134 E13226 - N3312 E13118\nFCST VA CLD +18 HR: NO VA EXP\nRMK: NIL\nNXT ADVISORY: 20260713/0600Z=",
      "img_url": "https://ds.data.jma.go.jp/svd/vaac/data/VAGFN/2026/Images/20260713_28208001_0083_QH21_01.png",
      "sat_img_url": "https://ds.data.jma.go.jp/svd/vaac/data/Sat/2026/Images/28208001/09-ir/20260713_0230_202607130254_ir.png",
      "text_url": "https://ds.data.jma.go.jp/svd/vaac/data/TextData/2026/20260713_28208001_0083_Text.html"
    }
  ],
  "vaac_alaska": [
    {
      "text": "\n000\nFVAK21 PAWU 180008\nVAAAK1\nVA ADVISORY\n\nDTG: 20260718/0000Z\n\nVAAC: ANCHORAGE\n\nVOLCANO: SHEVELUCH 300270\n\nPSN: N5639 E16122\n\nAREA: KAMCHATKA PENINSULA\n\nSOURCE ELEV: 10771 FT AMSL\n\nADVISORY NR: 2026/205\n\nRMK: PLEASE SEE FVFE01 RJTD ISSUED BY VAAC TOKYO WHICH DESCRIBES\nCONDITIONS NEAR THE VAAC ANCHORAGE AREA OF RESPONSIBILITY...BS\n\n\n\n",
      "issued": "2026-07-18T00:08:00+00:00",
      "volcano": "Sheveluch",
      "psn": "N5639 E16122"
    }
  ]
}