{
  "updated_utc": "2026-07-07T20:27Z",
  "metar": {
    "RJAA": "METAR RJAA 071830Z AUTO 33002KT 9999 NCD 19/18 Q1014 NOSIG",
    "PANC": "METAR PANC 071853Z VRB05KT 10SM FEW040 SCT080 SCT250 18/09 A2970 RMK AO2 SLP059 T01780094",
    "PAFA": "METAR PAFA 071853Z 08003KT 10SM FEW100 BKN160 19/11 A2968 RMK AO2 SLP053 T01940111 $",
    "PAED": "METAR PAED 071955Z 27009KT 10SM FEW060 FEW085 SCT200 19/09 A2968 RMK AO2A SLP046 T01920085 $",
    "KSEA": "METAR KSEA 071853Z 25008KT 10SM FEW015 FEW250 18/10 A3007 RMK AO2 SLP188 T01780100 $",
    "ZSPD": "METAR ZSPD 071830Z 19003MPS CAVOK 28/26 Q1003 NOSIG",
    "ZSSS": "METAR ZSSS 071830Z 19003MPS CAVOK 30/26 Q1003 NOSIG",
    "RJFR": "METAR RJFR 071900Z AUTO 12005KT 9999 FEW036 SCT060 26/24 Q1010",
    "VHHH": "METAR VHHH 071830Z 18012KT 9999 FEW015 SCT022 28/25 Q1005 NOSIG",
    "RCTP": "METAR RCTP 071830Z 23007KT 9999 FEW020 27/24 Q1008 NOSIG RMK A2979",
    "ZGSZ": "METAR ZGSZ 071900Z 10004MPS 080V140 9999 BKN030 27/25 Q1005 BECMG AT2010 SHRA",
    "WSSS": "METAR WSSS 071830Z 16005KT 090V230 9999 FEW018 BKN150 29/24 Q1012 NOSIG",
    "WMKK": "METAR WMKK 071830Z 14003KT 090V200 9999 FEW030 27/25 Q1011 NOSIG",
    "WIDD": "METAR WIDD 071830Z AUTO 21002KT 9999 BKN021 OVC090 26/25 Q1012 NOSIG",
    "VTBS": "METAR VTBS 071830Z 27006KT 9999 FEW020 30/22 Q1009 NOSIG",
    "VTBU": "METAR VTBU 071830Z 25007KT 9000 FEW020 30/27 Q1009 NOSIG",
    "ROAH": "METAR ROAH 071830Z AUTO 01008KT 9999 NCD 27/25 Q1009",
    "VVDN": "METAR VVDN 071830Z 25004KT 220V290 9999 FEW017 SCT070 28/22 Q1004 NOSIG",
    "RCKH": "METAR RCKH 071900Z 06002KT 9999 FEW020 SCT040 29/24 Q1008 NOSIG RMK A2978",
    "KLAX": "METAR KLAX 071853Z 27010KT 10SM FEW025 22/16 A2997 RMK AO2 SLP145 T02220156",
    "KONT": "METAR KONT 071853Z 20005KT 10SM CLR 31/11 A2995 RMK AO2 SLP124 T03110106 $",
    "KSFO": "METAR KSFO 071856Z 28014G21KT 10SM FEW005 OVC013 16/11 A3008 RMK AO2 SLP186 T01560106",
    "KOAK": "METAR KOAK 071853Z 24008KT 10SM BKN008 OVC011 15/11 A3008 RMK AO2 SLP187 T01500111",
    "KMHR": "METAR KMHR 071835Z AUTO 25006KT 10SM CLR 22/12 A2998 RMK AO2 T02240119 $",
    "KDFW": "METAR KDFW 071853Z VRB03KT 10SM SCT065 BKN080 BKN250 36/19 A3002 RMK AO2 SLP155 T03560189",
    "KIAH": "METAR KIAH 071853Z 20006KT 10SM SCT050 BKN250 34/20 A3005 RMK AO2 LTG DSNT SE SLP174 CB AND SHRA DSNT SE MOVG NE T03440200",
    "KORD": "METAR KORD 071851Z 01004KT 10SM FEW055 FEW250 29/16 A3008 RMK AO2 SLP181 T02890156 $",
    "KJFK": "METAR KJFK 071851Z 34014KT 10SM OVC017 22/18 A3002 RMK SLP164 T02220178 $",
    "KRFD": "METAR KRFD 071854Z VRB03KT 10SM SCT250 28/16 A3010 RMK AO2 SLP187 T02830156",
    "KIND": "METAR KIND 071854Z 04009KT 10SM SCT045 BKN250 29/19 A3006 RMK AO2 SLP172 T02890189",
    "KDTW": "METAR KDTW 071853Z VRB04KT 10SM SCT045 BKN070 BKN250 29/18 A3005 RMK AO2 SLP171 T02940178",
    "KMSP": "METAR KMSP 071853Z 14004KT 10SM FEW030 OVC055 27/20 A3010 RMK AO2 SLP187 T02670200",
    "CYEG": "METAR CYEG 071900Z 15013G22KT 20SM FEW040 FEW250 24/15 A2999 RMK CU1CI1 CU TR CONTRAILS SLP159 DENSITY ALT 3900FT",
    "EHAM": "METAR EHAM 071855Z 31010KT 9999 FEW020 19/15 Q1015 NOSIG",
    "EBBR": "METAR EBBR 071850Z 32006KT CAVOK 24/13 Q1016 NOSIG",
    "EDDF": "METAR EDDF 071850Z AUTO 30013KT CAVOK 29/08 Q1013 NOSIG",
    "EDFH": "METAR EDFH 071850Z 29011KT 260V330 CAVOK 25/06 Q1016",
    "EDDL": "METAR EDDL 071850Z AUTO 32011KT CAVOK 23/14 Q1014 NOSIG",
    "EDDK": "METAR EDDK 071850Z AUTO 31016KT CAVOK 26/12 Q1014 BECMG 30011KT",
    "EBLG": "METAR EBLG 071850Z 31010KT CAVOK 24/11 Q1016 NOSIG",
    "LSZH": "METAR LSZH 071850Z 22004KT CAVOK 27/11 Q1017 NOSIG",
    "LIMC": "METAR LIMC 071850Z 30005KT 270V330 CAVOK 31/15 Q1015 NOSIG",
    "LIRF": "METAR LIRF 071850Z 26006KT 230V290 9999 FEW012 26/24 Q1016 NOSIG",
    "EINN": "METAR EINN 071830Z 27007KT 9999 FEW018 21/15 Q1019 NOSIG",
    "EGLL": "METAR EGLL 071850Z AUTO 33007KT 300V020 9999 NCD 30/12 Q1016",
    "EGSS": "METAR EGSS 071850Z AUTO 33007KT 9999 NCD 28/15 Q1016",
    "EPWA": "METAR EPWA 071830Z 20003KT CAVOK 18/16 Q1004 NOSIG",
    "UHPP": "METAR UHPP 071830Z 04003MPS 9999 FEW002 07/07 Q1015 R16R/CLRD62 NOSIG RMK QFE758/1011",
    "EFHK": "METAR EFHK 071850Z 13003KT CAVOK 13/12 Q0995 TEMPO FEW030CB",
    "LBBG": "METAR LBBG 071830Z AUTO 10006KT 9999 NCD 23/19 Q1013 NOSIG",
    "LTAC": "METAR LTAC 071850Z 08008KT CAVOK 20/09 Q1015 NOSIG RMK RWY21C 09006KT 040V110 RWY03L 08006KT RWY21R 04006KT 010V080 RWY03R 03009KT RWY21L 04006KT",
    "UBBB": "METAR UBBB 071830Z 32016KT CAVOK 24/18 Q1010 NOSIG",
    "UTAA": "METAR UTAA 071900Z VRB02KT 9999 NSC 33/08 Q1007 R88/CLRD70 NOSIG",
    "UACC": "METAR UACC 071830Z 09002MPS 060V120 CAVOK 20/16 Q1011 NOSIG RMK QFE727/0970",
    "UAAA": "METAR UAAA 071830Z 31004MPS 280V360 9999 SCT050CB BKN100 22/14 Q1008 NOSIG",
    "UZTT": "METAR UZTT 071830Z 11006KT CAVOK 28/14 Q1005 NOSIG",
    "ZWWW": "METAR ZWWW 071830Z VRB01MPS CAVOK 29/11 Q1005 NOSIG",
    "ZLXY": "METAR ZLXY 071900Z 06002MPS CAVOK 25/21 Q0999 NOSIG",
    "ZBAA": "METAR ZBAA 071830Z 03001MPS CAVOK 21/21 Q0999 NOSIG",
    "ZBHH": "METAR ZBHH 071900Z 04002MPS CAVOK 16/12 Q1005 NOSIG",
    "ZSQD": "METAR ZSQD 071900Z 17002MPS CAVOK 21/21 Q0999 NOSIG",
    "ZMCK": "METAR ZMCK 071830Z 29006MPS 9999 SCT030CB SCT033 17/15 Q1005 NOSIG RMK QFE639.8 84 NT",
    "UUEE": "METAR UUEE 071830Z 14005MPS 9999 OVC042 16/11 Q1006 R24L/290151 R24C/290151 NOSIG",
    "UUDD": "METAR UUDD 071830Z 16005MPS 9999 -RA NSC 16/13 Q1007 R13R/290045 NOSIG",
    "ULLI": "METAR ULLI 071830Z 18002MPS 150V210 CAVOK 14/11 Q0998 R88/190055 NOSIG",
    "USSS": "METAR USSS 071830Z 17002MPS 9999 SCT050CB 20/20 Q1012 R08R/210060 R08L/210060 TEMPO -TSRA RMK QFE739/0986",
    "UNNT": "METAR UNNT 071830Z 02002MPS CAVOK 21/17 Q1011 R07/CLRD// R34/////// NOSIG RMK QFE748/0997",
    "UNKL": "METAR UNKL 071830Z 30001MPS CAVOK 15/15 Q1009 R29/CLRD// NOSIG RMK QFE731",
    "UIBB": "METAR UIBB 071830Z AUTO 31002MPS 280V340 7000 // ///009/// 18/18 Q1005 RMK QBB280 QFE711/0948",
    "UEEE": "METAR UEEE 071830Z 00000MPS CAVOK 17/13 Q1001 R23/09//75 NOSIG RMK QFE742",
    "UHHH": "METAR UHHH 071830Z 02002MPS CAVOK 19/19 Q1010 R88/090060 NOSIG RMK QFE751/1002",
    "UHSS": "METAR UHSS 071830Z 00000MPS 6000 BKN008 16/15 Q1014 R19/CLRD70 NOSIG RMK MT OBSC QFE759/1013"
  },
  "taf": {
    "RJAA": "TAF RJAA 071705Z 0718/0900 03004KT 9999 FEW020 BECMG 0722/0800 13010KT",
    "PANC": "TAF PANC 071801Z 0718/0824 17009G15KT P6SM FEW040 SCT080 BKN200 FM072300 15016G26KT P6SM FEW050 BKN090 FM080400 15018G30KT P6SM -SHRA SCT050 BKN070 FM081400 16010G18KT P6SM -SHRA BKN050",
    "PAFA": "TAF PAFA 071720Z 0718/0824 VRB03KT P6SM SCT100 BKN150 FM072100 10008KT P6SM VCSH SCT080 SCT150 FM080500 10005KT P6SM BKN070 FM082000 12005KT P6SM VCSH BKN070",
    "PAED": "TAF PAED 071300Z 0713/0819 VRB06KT 9999 FEW080 BKN130 QNH2967INS BECMG 0722/0723 15010G20KT 9999 VCSH BKN060 BKN120 QNH2965INS BECMG 0806/0807 12010KT 9999 -SHRA BKN050 QNH2970INS TX20/0723Z TN10/0714Z",
    "KSEA": "TAF KSEA 071720Z 0718/0824 22008KT P6SM SCT250 FM072300 28007KT P6SM SCT250 FM080100 34006KT P6SM SCT250 FM080400 05005KT P6SM BKN060 FM080900 17005KT P6SM OVC050 FM081100 19005KT P6SM SCT015 OVC027 FM081300 22004KT P6SM SCT008 OVC015",
    "ZSPD": "TAF ZSPD 071507Z 0718/0824 18004MPS 8000 SCT020 TX34/0806Z TN27/0721Z TN26/0821Z",
    "ZSSS": "TAF ZSSS 071507Z 0718/0824 18004MPS 8000 SCT030 TX36/0806Z TN27/0721Z TN27/0821Z",
    "RJFR": "TAF RJFR 071705Z 0718/0900 07008KT 9999 FEW005 SCT011 BKN015 BECMG 0812/0815 10012KT",
    "VHHH": "TAF VHHH 072000Z 0721/0903 16010KT 9999 FEW010 SCT025 TX31/0806Z TN27/0722Z TN28/0822Z TEMPO 0721/0803 20020G30KT 1500 TSRA +SHRA FEW008CB SCT015 TEMPO 0803/0809 3000 SHRA FEW008CB SCT020 TEMPO 0818/0824 3000 SHRA FEW008CB SCT020",
    "RCTP": "TAF RCTP 071700Z 0718/0824 27005KT 9999 FEW010 BKN032 TEMPO 0718/0724 20005KT BECMG 0800/0801 30005KT TEMPO 0803/0809 30012KT TEMPO 0809/0815 06005KT BECMG 0815/0816 24005KT TEMPO 0818/0824 17005KT",
    "ZGSZ": "TAF ZGSZ 071519Z 0718/0824 16004MPS 8000 SCT033 TX31/0807Z TN26/0722Z TN26/0822Z TEMPO 0718/0722 SHRA SCT010 FEW023CB BKN030 TEMPO 0722/0802 2500 TSRA SCT010 FEW023CB BKN030 TEMPO 0805/0808 TSRA SCT012 FEW025CB BKN033",
    "WSSS": "TAF WSSS 071700Z 0718/0900 18008KT 9999 FEW015 SCT020 TEMPO 0803/0806 3000 TSRA FEW012CB BKN015",
    "WMKK": "TAF WMKK 071700Z 0718/0900 VRB03KT 9999 FEW030 TEMPO 0719/0723 5000 TSRA FEW010 FEW017CB",
    "VTBS": "TAF VTBS 071700Z 0718/0824 21008KT 9999 FEW020 TEMPO 0722/0802 -TSRA FEW018CB SCT020 BKN080 TEMPO 0810/0814 VRB15KT 4000 TSRA FEW018CB SCT020 BKN080",
    "VTBU": "TAF VTBU 071700Z 0718/0818 23006KT 9000 FEW020",
    "ROAH": "TAF ROAH 071705Z 0718/0900 04010KT 9999 FEW020",
    "VVDN": "TAF VVDN 071100Z 0712/0812 22010KT 9999 SCT015 BKN060 TEMPO 0712/0715 4000 RA",
    "RCKH": "TAF RCKH 071700Z 0718/0824 24005KT 9999 FEW010 BKN032 TEMPO 0800/0802 33005KT BECMG 0802/0803 30010KT TEMPO 0812/0818 36005KT BECMG 0818/0819 35011KT",
    "KLAX": "TAF KLAX 072024Z 0720/0824 26012KT P6SM FEW010 SCT030 TEMPO 0720/0724 26010G20KT FM080300 25006KT P6SM SKC FM080900 VRB03KT P6SM SCT008 FM081700 25012KT P6SM SKC",
    "KONT": "TAF KONT 071732Z 0718/0824 VRB05KT P6SM SKC FM072000 25013G21KT P6SM SKC FM080400 VRB05KT P6SM SKC FM082000 25010KT P6SM SKC",
    "KSFO": "TAF KSFO 071736Z 0718/0824 25010KT P6SM FEW005 BKN015 FM072100 28018G28KT P6SM SCT015 FM080100 28015G25KT P6SM BKN015 FM080800 28015KT P6SM BKN009 FM081500 27007KT P6SM OVC015 FM082100 29015KT P6SM SCT015",
    "KOAK": "TAF KOAK 071736Z 0718/0824 27008KT P6SM BKN009 FM072100 28015G25KT P6SM SCT009 FM080200 28014G24KT P6SM SCT009 BKN015 FM080600 25014KT P6SM BKN015 FM080900 26010KT P6SM OVC008 FM081500 28010KT P6SM BKN015 FM082100 28010KT P6SM SCT015",
    "KMHR": "TAF KMHR 071720Z 0718/0818 20008KT P6SM SKC FM080100 21010G15KT P6SM SKC FM081200 16008KT P6SM SKC",
    "KDFW": "TAF KDFW 071720Z 0718/0824 23005KT P6SM FEW070 SCT100 FM072200 20007KT P6SM VCTS SCT060CB FM080200 16008KT P6SM FEW060 FM081200 20008KT P6SM FEW250",
    "KIAH": "TAF KIAH 071957Z 0720/0824 19007KT P6SM VCSH SCT040 SCT050 SCT250 TEMPO 0720/0722 VRB10G20KT 5SM -TSRA BKN035CB BKN050 FM080000 16004KT P6SM FEW020 FEW250 FM081400 24006KT P6SM SCT025 SCT035 FM081800 18007KT P6SM SCT050 SCT250",
    "KORD": "TAF KORD 071720Z 0718/0824 VRB05KT P6SM FEW050 FM071830 10008KT P6SM FEW060 FEW250 FM080500 21004KT P6SM SKC FM081500 24011KT P6SM SCT050",
    "KJFK": "TAF KJFK 071955Z 0720/0824 01012KT P6SM OVC015 FM080500 02008KT P6SM BKN027 FM080900 02009KT P6SM BKN035 FM081200 03006KT P6SM FEW040 FM081800 19007KT P6SM FEW040",
    "KRFD": "TAF KRFD 071720Z 0718/0818 27004KT P6SM FEW050 FEW250 FM080200 20003KT P6SM SKC FM081500 24009KT P6SM SCT050",
    "KIND": "TAF KIND 072021Z 0720/0824 03009KT P6SM SCT050 BKN250 FM080000 04006KT P6SM SCT250 FM081400 VRB05KT P6SM FEW050 BKN200",
    "KDTW": "TAF KDTW 071720Z 0718/0824 03006KT P6SM BKN045 FM072200 14007KT P6SM SCT060 FM080200 20003KT P6SM SKC FM080900 VRB02KT 3SM BR SKC FM081200 24007KT P6SM SCT250",
    "KMSP": "TAF KMSP 071721Z 0718/0824 20006KT P6SM BKN050 FM080300 12005KT P6SM SCT050 BKN150 FM081400 23008KT P6SM BKN050 PROB30 0815/0820 VRB20G35KT 3SM TSRA BKN015CB FM082000 33010KT P6SM BKN050",
    "CYEG": "TAF CYEG 071740Z 0718/0818 13010G20KT P6SM SCT250 BECMG 0802/0804 14010KT FM081400 18010KT P6SM SCT140 BKN200 FM081700 25008KT P6SM BKN100 OVC200 RMK NXT FCST BY 072100Z",
    "EHAM": "TAF EHAM 071644Z 0718/0824 31009KT 9999 FEW030 PROB40 TEMPO 0802/0810 BKN016",
    "EBBR": "TAF EBBR 071700Z 0718/0824 31008KT CAVOK ",
    "EDDF": "TAF EDDF 071700Z 0718/0824 27015G25KT CAVOK BECMG 0718/0720 30010KT TEMPO 0806/0814 BKN030",
    "EDFH": "TAF EDFH 071700Z 0718/0818 29015G25KT CAVOK BECMG 0718/0720 30010KT BECMG 0721/0723 31005KT",
    "EDDL": "TAF EDDL 071700Z 0718/0824 30011KT CAVOK BECMG 0723/0802 29004KT PROB30 TEMPO 0805/0808 BKN014 BECMG 0806/0809 31009KT BECMG 0818/0821 36004KT",
    "EDDK": "TAF EDDK 071700Z 0718/0824 30013KT CAVOK PROB30 TEMPO 0718/0720 29015G25KT BECMG 0722/0801 31008KT PROB30 TEMPO 0804/0807 BKN014 BECMG 0818/0821 01004KT",
    "EBLG": "TAF EBLG 071700Z 0718/0824 31009KT CAVOK ",
    "LSZH": "TAF LSZH 071725Z 0718/0824 27008KT CAVOK TX31/0815Z TN16/0804Z BECMG 0719/0721 VRB02KT BECMG 0811/0814 34009KT BECMG 0817/0819 01005KT 9999 SCT075",
    "LIMC": "TAF LIMC 071700Z 0718/0824 VRB06KT CAVOK TEMPO 0812/0816 25010KT TEMPO 0822/0824 01010KT",
    "LIRF": "TAF LIRF 071700Z 0718/0824 25010KT 9999 FEW030 BECMG 0718/0720 VRB05KT BECMG 0722/0724 3000 BCFG TEMPO 0801/0806 0800 FG BKN006 BECMG 0807/0809 25012KT 9999 BECMG 0818/0820 VRB05KT",
    "EINN": "TAF EINN 071700Z 0718/0818 27010KT 9999 FEW018 BECMG 0720/0722 BKN012 PROB30 TEMPO 0805/0807 BKN008 BECMG 0807/0809 VRB03KT BKN020 PROB30 TEMPO 0807/0811 BKN012",
    "EGLL": "TAF EGLL 071653Z 0718/0824 33010KT CAVOK BECMG 0804/0807 VRB02KT BECMG 0817/0820 23010KT",
    "EGSS": "TAF EGSS 071659Z 0718/0824 33010KT CAVOK BECMG 0815/0818 03005KT BECMG 0818/0821 10010KT",
    "EPWA": "TAF EPWA 071730Z 0718/0818 25012KT CAVOK TEMPO 0720/0801 27020G30KT 2500 SHRA BKN010 BKN020CB BECMG 0803/0805 27015G25KT TEMPO 0803/0818 27025G37KT PROB40 TEMPO 0812/0818 3000 SHRA SCT030CB",
    "UHPP": "TAF UHPP 071938Z 0721/0903 36003G10MPS 9999 SCT040CB BECMG 0723/0802 17005G12MPS BECMG 0808/0810 36003G10MPS TEMPO 0810/0821 0700 FG VV002",
    "EFHK": "TAF EFHK 071734Z 0718/0818 22006KT 9999 SCT025 FEW030CB BECMG 0718/0720 FEW030 PROB30 0722/0802 2500 BCFG BECMG 0802/0804 1200 BR BKN002 BECMG 0804/0806 9999 NSW FEW005 TEMPO 0810/0818 FEW030CB",
    "LBBG": "TAF LBBG 071700Z 0718/0818 13010KT 9999 SCT040 BECMG 0718/0720 VRB04KT BECMG 0806/0808 24010KT BECMG 0810/0812 13012KT PROB40 TEMPO 0812/0817 VRB16G26KT 3000 TSRA FEW030CB BKN040",
    "LTAC": "TAF LTAC 071640Z 0718/0818 01012KT 9999 SCT040 SCT100 BECMG 0718/0720 VRB02KT CAVOK BECMG 0806/0808 SCT040 SCT100 TEMPO 0813/0817 30012KT",
    "UBBB": "TAF UBBB 071659Z 0718/0818 33018G28KT 9999 FEW015 FEW060CB TX27/0810Z TN22/0801Z TEMPO 0722/0805 32014KT -SHRA SCT012 SCT040CB TEMPO 0805/0814 33024G34KT SCT020",
    "UTAA": "TAF UTAA 071645Z 0718/0818 30016KT 6000 SCT050 TX41/0811Z TEMPO 0718/0724 24014KT TEMPO 0800/0808 32014G24KT 4000 DRDU TEMPO 0808/0814 02016KT",
    "UACC": "TAF UACC 071700Z 0718/0818 05005MPS 9999 SCT030 BKN100 TX30/0810Z TN17/0723Z TEMPO 0718/0721 09008MPS -TSRA BKN030CB TEMPO 0805/0816 09008MPS -TSRA BKN030CB",
    "UAAA": "TAF UAAA 071700Z 0718/0818 14003MPS 9999 SCT050CB BKN100 TX31/0810Z TN19/0800Z TEMPO 0718/0803 20005G10MPS TS BECMG 0803/0804 29003G08MPS TEMPO 0804/0816 23007G15MPS 5000 -TSRA BLDU",
    "UZTT": "TAF UZTT 071700Z 0718/0818 07010KT 7000 NSC TX38/0810Z TN23/0800Z TEMPO 0800/0806 35010G20KT",
    "ZWWW": "TAF ZWWW 071504Z 0718/0824 18004MPS CAVOK TX32/0809Z TN25/0723Z TN25/0823Z BECMG 0802/0803 36004MPS BECMG 0813/0814 20004MPS TEMPO 0820/0824 9999 -SHRA BKN040",
    "ZLXY": "TAF ZLXY 071503Z 0718/0818 06003MPS 6000 NSC TX39/0808Z TN24/0722Z",
    "ZBAA": "TAF ZBAA 071501Z 0718/0824 15003MPS CAVOK TX33/0807Z TN22/0721Z TN22/0821Z TEMPO 0806/0810 -TSRA FEW040CB BKN040",
    "ZBHH": "TAF ZBHH 071503Z 0718/0818 06004MPS 9999 FEW040 TX31/0808Z TN15/0722Z TEMPO 0805/0809 SCT040 FEW040CB",
    "ZSQD": "TAF ZSQD 071501Z 0718/0818 18004MPS 3000 BR NSC TX33/0806Z TN20/0720Z",
    "ZMCK": "TAF ZMCK 071643Z 0718/0824 VRB02MPS 9999 FEW030CB SCT033 TN14/0721Z TX22/0807Z TEMPO 0718/0808 VRB08G13MPS 8000 TSRA SCT027CB BKN030 BECMG 0723/0802 30007MPS PROB40 TEMPO 0808/0814 VRB08MPS TSRA SCT027CB SCT030 BECMG 0814/0816 VRB02MPS",
    "UUEE": "TAF UUEE 071950Z 0721/0821 15005MPS 9999 BKN016 TX23/0813Z TN13/0801Z TEMPO 0721/0807 3000 -RA BKN006 TEMPO 0809/0813 16009G14MPS PROB40 TEMPO 0809/0813 -TSRA BKN020CB TEMPO 0813/0821 16011G19MPS 3000 -TSRA BKN020CB PROB40 TEMPO 0813/0818 -SHGR BKN020CB",
    "UUDD": "TAF UUDD 071953Z 0721/0903 16006MPS 8000 BKN016 TX23/0812Z TN14/0801Z TEMPO 0721/0806 4000 -RA BKN010 TEMPO 0806/0811 18008G13MPS TEMPO 0811/0821 18009G16MPS -TSRA BKN020CB",
    "ULLI": "TAF ULLI 071955Z 0721/0821 17003MPS 6000 BKN016 PROB40 TEMPO 0721/0803 1000 BR BECMG 0804/0806 09005G10MPS TEMPO 0818/0821 3000 -SHRA BKN010 BKN017CB",
    "USSS": "TAF USSS 071953Z 0721/0821 13003G08MPS 6000 SCT016CB TEMPO 0721/0803 0300 -TSRA FG VV002 FM080300 24003G14MPS 9999 -SHRA BKN033CB TEMPO 0803/0821 VRB25MPS -TSRAGR SQ",
    "UNNT": "TAF UNNT 072000Z 0721/0821 02003G08MPS 8000 SCT040 TX27/0809Z TN16/0821Z",
    "UNKL": "TAF UNKL 071949Z 0721/0821 29003MPS 8000 SCT040 TEMPO 0721/0724 1000 BR BECMG 0803/0805 01005MPS BECMG 0806/0808 32003G08MPS",
    "UIBB": "TAF UIBB 072000Z 0721/0821 32003G08MPS 1900 SHRA BR BKN001 BKN011CB TEMPO 0721/0801 0300 FG BECMG 0801/0803 9999 NSW BKN016CB TEMPO 0803/0815 VRB08MPS",
    "UEEE": "TAF UEEE 072000Z 0721/0903 19005G10MPS 9999 SCT030CB BKN100 TX33/0807Z TN16/0818Z TEMPO 0800/0812 VRB08MPS",
    "UHHH": "TAF UHHH 071958Z 0721/0903 05003MPS 9999 SCT020CB TX26/0806Z TN19/0818Z FM080100 13003MPS 6000 -SHRA FEW006 BKN016CB TEMPO 0802/0810 16008MPS",
    "UHSS": "TAF UHSS 071945Z 0721/0903 18003MPS 9999 BKN005 TEMPO 0721/0723 0600 FG BKN002 BECMG 0800/0802 BKN025CB"
  },
  "atis": {
    "RJAA": "[Arrival ATIS] RJAA ARR ATIS L 1257Z M1230 (APCH)ILS Y RWY16L LDG RWY 16L DEP RWY 16R DEP FREQ 124.2. M 071230Z 07006KT 20KM FEW030CU BKN060SC 22/19 Q1015/A2997= Q/TWO NINE NINE SEVEN STP\n[Departure ATIS] RJAA DEP ATIS V 1353Z MS1330 (APCH)ILS Y RWY16R/ILS Y RWY16L USING RWY 16R/16L DEP FREQ 124.2. TWY A1 CLSD. PARL APCHS INPR. RWY 16L/34R WILL BE CLSD FM 1410. MS 191330Z 09006KT 10KM FEW003ST BKN004ST 21/19 Q1013/A2992= Q/TWO NINE NINE TWO STP",
    "PANC": "[Arrival ATIS] PANC ARR ATIS S 1653Z ANC ATIS INFO S 1653Z. 16006KT 10SM FEW120 BKN200 16/09 A3027 (THREE ZERO TWO SEVEN). 7R APPROACHES IN USE. LANDING RWY 7R, DEPARTING RWY 33. NOTICE TO AIRMEN. RWY 7L CLSD. CHECK NOTAMS FOR TAXIWAY CLOSURES. NO VFR CLASS C TRANSITIONS DUE TO STAFFING. CONTACT TOWER 118.3 FOR TAXI. ...ADVS YOU HAVE INFO S.\n[Departure ATIS] PANC DEP ATIS H 1953Z ANC ATIS INFO H 1953Z. VRB03KT 10SM FEW080 SCT110 14/07 A2994 (TWO NINER NINER FOUR). 7R, 7L APPROACHES IN USE. LANDING RWY 7R, 7L, DEPARTING RWY 33. NOTICE TO AIRMEN. TWY Q CLSD. TWY R CLSD BTWN TWY, S AND TWY U . TWY E CLSD BTWN TWY, L AND TWY M . RWY 15 PAPI OTS. TWY K BTWN A AND D RESTRICTED TO AIRCRAFT WITH WINGSPAN LESS THAN 118 FEET. HAZD WX INFO FOR ANC AREA AVBL FM FSS. CONTACT TOWER 118.3 FOR TAXI. ...ADVS YOU HAVE INFO H.",
    "KSEA": "[Arrival ATIS] KSEA ARR ATIS E 1653Z SEA ATIS INFO E 1653Z. 26005KT 10SM SCT170 SCT230 22/11 A2990 (TWO NINER NINER ZERO). ILS AND CHARTED VISUAL APPROACH RWYS 34L AND 34R , APCH IN USE. DEPG RWY 34R, DEPG ACFT PLAN AND BRIEF NUMBERS FOR BOTH RWYS 34R AND 34C. SIMUL ARRIVALS TO RWY 34L AND DEPARTURES TO RWY 34R ARE IN USE. SIMUL APCHS IN USE TO PARA RYS. NOTAMS... BIRD ACTIVITY VICINITY ARPT. STADIUM TFR IN EFFECT CHECK FDC NOTAMS FOR MORE INFO. ...ADVS YOU HAVE INFO E.\n[Departure ATIS] KSEA DEP ATIS B 1953Z SEA ATIS INFO B 1953Z. 25005KT 10SM FEW015 SCT250 19/11 A3007 (THREE ZERO ZERO SEVEN). ILS AND CHARTED VISUAL APPROACH RWYS 16R AND 16L , APCH IN USE. DEPG RWY 16L, DEPG ACFT PLAN AND BRIEF NUMBERS FOR BOTH RWYS 16L AND 16C. SIMUL APCHS IN USE, BFI & SEA. TRAFFIC BELOW YOU ON FINAL. SIMUL APCHS IN USE TO PARA RYS. NOTAMS... BIRD ACTIVITY VICINITY ARPT. ...ADVS YOU HAVE INFO B.",
    "ZSPD": "[Arrival ATIS] ZSPD ARR ATIS M 2000Z EXP ILS APCH LDG RWY 17R RWY 17L IS CLSD RWY 16L IS CLSD WIND RWY 17R TDZ 210/4MPS MID 200/4MPS END 190/3MPS VIS RWY 17R TDZ 9000M MID 9000M END 10000M NSC T 28 /DP 26 QNH 1003 HPA CAUTION THE BIRDS NEAR THE RUNWAY ADZ YOU HAVE INFO M.\n[Departure ATIS] ZSPD DEP ATIS K 1600Z DEP RWY 16R WIND RWY 16R TDZ 230/6MPS MID 240/5MPS END 240/5MPS CAVOK T 27 /DP 24 QNH 1002 HPA W TOWER DELIVERY FREQ 118.8 CAUTION THE BIRDS NEAR THE RUNWAY RWY 17L/17R/16L/16R RWYCC 5/5/5 ISSUED AT 1305 WET/WET/WET DPT NR/NR/NR COV 100PCT/100PCT/100PCT ADZ YOU HAVE INFO K.",
    "ZSSS": "[Arrival ATIS] ZSSS ARR ATIS P 1400Z EXP ILS APCH LDG RWY 18L WIND RWY 18L TDZ 230/5MPS MID 220/3MPS VRB BTN 200/ AND 260/ END 230/5MPS CAVOK T 27 /DP 24 QNH 1002 HPA RWY18R RWYCC 5/5/5 ISSUED AT 1050 WET/WET/WET DPT NR/NR/NR COV 100PCT/100PCT/100PCT RWY18L RWYCC 5/5/5 ISSUED AT 1050 WET/WET/WET DPT NR/NR/NR COV 100PCT/100PCT/100PCT QNH OF SHANGHAI TERMINAL CONTROL AREA 1002 HPA ADZ YOU HAVE INFO P.\n[Departure ATIS] ZSSS DEP ATIS J 1100Z DEP RWY 18R WIND RWY 18R TDZ 210/5MPS MID 210/5MPS END 220/4MPS VIS RWY 18R TDZ 10000M MID 10000M END 10000M FBL SHRA NSC T 27 /DP 24 QNH 1000 HPA RWY18R RWYCC 5/5/5 ISSUED AT 1050 WET/WET/WET DPT NR/NR/NR COV 100PCT/100PCT/100PCT RWY18L RWYCC 5/5/5 ISSUED AT 1050 WET/WET/WET DPT NR/NR/NR COV 100PCT/100PCT/100PCT QNH OF SHANGHAI TERMINAL CONTROL AREA 1000 HPA ADZ YOU HAVE INFO J.",
    "VHHH": "[Arrival ATIS] VHHH ARR ATIS G 1643Z ARRIVALS, RWY 25C. EXP ILS APCH, RWY 25C. RWY 25L MAY BE AVAILABLE FOR RNP AR APPROVED CARGO FLIGHTS UPON REQUEST. SIG WS FCST. WIND 190/13KT. VIS 10KM. CLD FEW 1000FT SCT 2500FT. T30 DP24. QNH 1009HPA. ACK INFO G ON FIRST CTC WITH APP.\n[Departure ATIS] VHHH DEP ATIS W 1643Z DEPARTURES, RWY 25L. SIG WS FCST. WIND 190/12KT. VIS 10KM. CLD FEW 1000FT SCT 2500FT. T30 DP24. QNH 1009HPA. ACK INFO W ON FIRST CTC WITH DELIVERY .",
    "RCTP": "[Arrival ATIS] RCTP ARR ATIS V 1600Z EXP ILS APCH RWY23R AND RWY23L ARR/DEP. WIND 240/05KT VIS 10 KM OR MORE CLD FEW 2000FT T 27 DP 24 QNH 1010HPA NOSIG INFORM TAIPEI APCH OR TAIPEI TOWER ON INITIAL CONTACT YOU HAVE INFORMATION V\n[Departure ATIS] RCTP DEP ATIS L 1100Z EXP ILS APCH RWY23R AND RWY23L ARR/DEP. WIND 230/12KT VIS 10 KM OR MORE CLD FEW 2000FT SCT 5000FT T 28 DP 25 QNH 1010HPA NOSIG INFORM TAIPEI APCH OR TAIPEI TOWER ON INITIAL CONTACT YOU HAVE INFORMATION L",
    "ZGSZ": "[Arrival ATIS] ZGSZ ARR ATIS E 1630Z EXP ILS APCH 15 EXP ILS OR VIS APCH 16R WIND 160/7MPS VIS 9999M CLD FEW 900M T 28 /DP 26 QNH 1009 HPA DEPENDENT PARALLEL APPROACHES V17,V18 AVAILABLE AFTER SULAS FLY HEADING 040 MISSED APPROACH ALTITUDE SETTING 1200METERS WHEN AIRBORNE CONTACT ZHUHAI APPROACH EXPECTED RNP ILS DME Z APPROACH ADZ YOU HAVE INFO E.\n[Departure ATIS] ZGSZ DEP ATIS M 1100Z DEP RWY 15 & 16L WIND 160/6MPS VIS 9999M CLD FEW 450M /SCT 900M T 29 /DP 27 QNH 1008 HPA INDEPENDENT PARALLEL DEPARTURES INDEPENDENT PARALLEL APPROACHES V17,V18 AVAILABLE AFTER SULAS FLY HEADING 040 MISSED APPROACH ALTITUDE SETTING 1200METERS WHEN AIRBORNE CONTACT ZHUHAI APPROACH EXPECTED RNP ILS DME Z APPROACH ADZ YOU HAVE INFO M.",
    "WSSS": "[Arrival ATIS] WSSS ARR ATIS N 1630Z METREPORT 1630Z ILS APCHRWY 02L TWY W 9 CLOSED, RWY 02C 20C RAPID EXIT TAXIWAY INDICATOR LIGHTS OFFFOLLOW THE GREENS TRIAL IN PROGRESS. WHEN VACATING THE RWY, PILOTS TO ADHERE TO ATC VERBAL INSTRUCTIONS. WHEN ON TWY, PILOT TO ADHERE TO FOLLOW THE GREENS INSTRUCTIONS. WHEN APPROACHING [A] JUNCTION, KEEP [A] LOOKOUT FOR CONTINUOUS GREENS. [IF] [A] BREAK IN THE GREENS IS OBSERVED, STOP AND CLARIFY WITH ATC. WIND 320/ 03KT VIS 10KM CLD FEW 1800FT FEW CB 2000FT T27 DP24 QNH 1012HPA NOSIG ACK ATIS N\n[Departure ATIS] WSSS DEP ATIS N 1600Z METREPORT 1600Z RWY 02C TWY W 9 CLOSED, RWY 02C 20C RAPID EXIT TAXIWAY INDICATOR LIGHTS OFFFOLLOW THE GREENS TRIAL IN PROGRESS. WHEN VACATING THE RWY, PILOTS TO ADHERE TO ATC VERBAL INSTRUCTIONS. WHEN ON TWY, PILOT TO ADHERE TO FOLLOW THE GREENS INSTRUCTIONS. WHEN APPROACHING [A] JUNCTION, KEEP [A] LOOKOUT FOR CONTINUOUS GREENS. [IF] [A] BREAK IN THE GREENS IS OBSERVED, STOP AND CLARIFY WITH ATC. WIND VRB BTN330 AND080 02KT VIS 10KM CLD FEW 1800FT FEW CB 2000FT T28 DP23 QNH 1012HPA NOSIG DEP,INITIAL CMB 3000FT ACK ATIS N",
    "WMKK": "[Arrival ATIS] WMKK ARR ATIS E 1636Z WMKK ARR INFO E. TIME 1630. INDEPENDENT PARALLEL APPROACHES FOR RWY 14 L AND 15 ARE IN PROGRESS. EXP RNAV / ILS APCH FOR RWY 14 LEFT. EXP RNAV / ILS APCH FOR RWY 15. WIND RWY 14L 340 DEG, 4 KT. WIND RWY 15 300 DEG, 4 KT. VIS RWY 14L 10 KM OR MORE. VIS RWY 15 10 KM OR MORE. CLD FEW CB 1700 FT. T 27. DP 24. QNH 1011. NOSIG. AT FIRST CONTACT WITH LUMPUR RADAR, NOTIFY RCPT OF E\n[Departure ATIS] WMKK DEP ATIS U 0717Z WMKK DEP INFO U. TIME 0700. INDEPENDENT PARALLEL DEPARTURES FOR RWY 14 R AND 15 ARE IN PROGRESS. RWY 14 RIGHT. RWY 15. WIND RWY 14R 150 DEG, 8 KT. WIND RWY 15 140 DEG, 8 KT. VIS RWY 14R TDZ 10 KM OR MORE. VIS RWY 15 TDZ 10 KM OR MORE. WX TS, VCSH. CLD FEW CB 1700 FT, CLD SCT 1800 FT. T 30. DP 24. QNH 1008. NOSIG. ALL DEP ACFT TO CONTACT LUMPUR DEP AT 135 DECIMAL 25 MHZ WHEN ABN. AT FIRST CONTACT WITH LUMPUR GROUND, NOTIFY RCPT OF U",
    "VTBS": "[Arrival ATIS] VTBS ARR ATIS G 1800Z VTBS ARR ATIS G 1800Z EXP ILS Z APCH ARR RWY 19 RWY 20R CLSD DUE TO WIP ,RETIL RWY 19 U/S , 1800Z WIND 250/8KT VRB BTN 220/ AND 280/ VIS 10KM CLD FEW 2000FT T30 DP22 QNH 1009HPA TREND NOSIG ADZ BKK APCH ON INITIAL CONTACT THAT YOU HAVE INFO G\n[Departure ATIS] VTBS DEP ATIS V 1106Z VTBS DEP ATIS V 1108Z DEP RWY 20L MOD WS IN APCH OBS ATP 1100 06191029 20L 5/5/5 100/100/100 NR/NR/NR WET/WET/WET ,LGT WRNG PROC IN OPERATION ,AFT AIRBORNE ALL DEPARTING ACFT SHALL CTC 119.25 1106Z WIND 260/8KT VIS 1500M HVY RA CLD FEW 600FT FEW CB 1800FT SCT 3000FT T24 DP24 QNH 1009HPA TREND BECMG TL1130 VIS 3000M MOD TSRA ADZ GND WHEN INITIAL CONTACT YOU HAVE INFO V",
    "VTBU": "[Arrival ATIS] VTBU ARR ATIS U 0430Z VTBU ARR ATIS U 0430Z RNP RWY 18 TRL FL130 MOBILE ACFT ARST SYSTEM INSTL ATP SIX HUNDRED AND TEN METERS FM THR RWY 36 CABLE HGT 3 INCHES. 0430Z WIND 360/6KT VRB BTN 320/ AND 020/ VIS 10KM CLD FEW 2000FT T34 DP27 QNH 1010HPA TREND NOSIG ADZ CONTROLLER WHEN INITIAL CONTACT YOU HAVE INFO U\n[Departure ATIS] VTBU DEP ATIS D VTBU ARR/DEP DATIS RPT VTBU ARR ATIS D 0330Z ILS \"Z\" APCH RWY 18 TRL FL130 0330Z WIND 110/4KT VRB BTN 350/ AND 120/ VIS 6KM CLD FEW 2000FT T31 DP27 QNH 1014HPA TREND NOSIG ADZ CONTROLLER WHEN INITIAL CONTACT YOU HAVE INFO D",
    "ROAH": "[Arrival ATIS] ROAH ARR ATIS G 1818Z M1800 (APCH)ILS Z RWY36L USING RWY 36L DEP FREQ 119.1 335.8 RWY 18L/36R CLSD M 071800Z AUTO 02007KT 9999 NCD 27/25 Q1009/A2980= Q/TWO NINE EIGHT ZERO STP\n[Departure ATIS] ROAH DEP ATIS Q 1044Z M1030 (APCH)ILS Z RWY36L LDG RWY 36L DEP RWY 36R DEP FREQ 119.1 335.8 M 071030Z 15008KT 60KM FEW025CU 30/25 Q1009/A2980= Q/TWO NINE EIGHT ZERO STP",
    "VVDN": "[Arrival ATIS] VVDN ARR ATIS M 1331Z VVDN INFO M 1331Z. ILS VICTOR APPROACH 35L.. DPTG RWY 35R.. 1331Z. WIND 340/01KT VIS 10KM CLD BKN 5300FT T30 DP26 QNH 1008HPA TREND NOSIG. ADZ ON INITIAL CTC YOU HAVE INFO. M.\n[Departure ATIS] VVDN DEP ATIS X 0632Z VVDN INFO X 0632Z. ILS VICTOR APPROACH 35L.. DPTG RWY 35R.. 0632Z. WIND 130/0KT CAVOK T34 DP26 QNH 1006HPA TREND NOSIG. ADZ ON INITIAL CTC YOU HAVE INFO. X.",
    "RCKH": "[Arrival ATIS] RCKH ARR ATIS X 1400Z EXPECT ILS APPROACH RWY 09 ARR TAXIWAY JULIETT, TAXIWAY BRAVO, TAXIWAY DELTA AND TAXIWAY ECHO CLOSED DUE MAINTENANCE. RUNWAY 0 9 ARRIVALS PLAN VACATE VIA CHARLIE OR FOX\n[Departure ATIS] RCKH DEP ATIS I 0700Z EXPECT ILS APPROACH RWY 27 ARR/DEP TAXIWAY JULIETT, TAXIWAY BRAVO, TAXIWAY DELTA AND TAXIWAY ECHO CLOSED DUE MAINTENANCE. RUNWAY 2 7 ARRIVALS PLAN VACATE VIA CHARLIE OR",
    "KLAX": "[Arrival ATIS] KLAX ARR ATIS R 1653Z LAX ATIS INFO R 1653Z. 23006KT 10SM FEW009 SCT019 OVC028 18/13 A3002 (THREE ZERO ZERO TWO) RMK AO2 SLP164 T01830133. INST APCHS AND RNAV RNP APCHS RY 24R AND 25L, OR VCTR FOR VISUAL APCH WILL BE PROVIDED, SIMUL VISUAL APCHS TO ALL RWYS ARE IN PROG, SIMUL INSTR DEPARTURES IN PROG RWYS 24 AND 25. CTC L A GC ON 121.75 FOR PUSH OR TAXI ON A. TWY C CLSD BTN TWY, C8 AND TWY C9 , , TWY B CLSD BTN TWY, F AND TWY B1, TWY B1 CLSD. ILS RY 25R OTS, RY 25R SFL OTS, RY 24L ALSF-2 OTS. LAX VOR UNMONITORED. IF ASSIGNED RUNWAY 25R FOR DEPARTURE, EXPECT DEPARTURE FROM INTERSECTION FOXTROT. TAXILANE CHARLIE EIGHT RESTRICTED TO AIRCRAFT WITH A WINGSPAN LESS THAN ONE HUNDRED EIGHTEEN FEET. USE CAUTION FOR INCREASED DRONE ACTIVIY IN THE VICINITY OF SOFI STADIUM AT OR BELOW 200FT AGL DURING THE WORLD CUP FROM 06/12/26 THROUGH 07/10/2026. HAZD WX INFO FOR LAX AREA AVBL FM FSS. BIRD ACTIVITY VICINITY ARPT. INCLUDE YOUR CALL SIGN IN ALL READBACKS. USE CAUTION WHEN EXITING RY24R AT TWY V, W, AND Y, TO HOLD SHORT OF RY24L. MULTIPLE RUNWAY INCURSIONS HAVE OCCURRED. ...ADVS YOU HAVE INFO R.\n[Departure ATIS] KLAX DEP ATIS D 0653Z LAX ATIS INFO D 0653Z. 28011KT 10SM FEW012 BKN018 17/14 A2998 (TWO NINER NINER EIGHT) RMK AO2 SLP151 T01720144. INST APCHS AND RNAV RNP APCHS RY 24R AND 25L, OR VCTR FOR VISUAL APCH WILL BE PROVIDED, SIMUL VISUAL APCHS TO ALL RWYS ARE IN PROG. CTC L A GC ON 121.75 FOR PUSH OR TAXI ON A. TWY C CLSD BTN TWY, C8 AND TWY C9 , , TWY B CLSD BTN TWY, F AND TWY B1, TWY B1 CLSD. ILS RY 25R OTS, RY 25R SFL OTS, RY 24L ALSF-2 OTS. LAX VOR UNMONITORED. IF ASSIGNED RUNWAY 25R FOR DEPARTURE, EXPECT DEPARTURE FROM INTERSECTION FOXTROT. TAXILANE CHARLIE EIGHT RESTRICTED TO AIRCRAFT WITH A WINGSPAN LESS THAN ONE HUNDRED EIGHTEEN FEET. USE CAUTION FOR INCREASED DRONE ACTIVIY IN THE VICINITY OF SOFI STADIUM AT OR BELOW 200FT AGL DURING THE WORLD CUP FROM 06/12/26 THROUGH 07/10/2026. HAZD WX INFO FOR LAX AREA AVBL FM FSS. BIRD ACTIVITY VICINITY ARPT. TWR FREQ FOR ALL RWYS IS 120.95. INCLUDE YOUR CALL SIGN IN ALL READBACKS. USE CAUTION WHEN EXITING RY24R AT TWY V, W, AND Y, TO HOLD SHORT OF RY24L. MULTIPLE RUNWAY INCURSIONS HAVE OCCURRED. ...ADVS YOU HAVE INFO D.",
    "KONT": "[Arrival ATIS] KONT ARR ATIS K 1453Z ONT ATIS INFO K 1453Z. 00000KT 10SM CLR 21/13 A2996 (TWO NINER NINER SIX) RMK AO2 SLP131 T02060128 51014. ILS RUNWAY 2 6 LEFT APPROACH IN USE. VISUAL APCH RY 26L, RY 26R IN USE. LNDG AND DEPG RY 26L AND RY 26R. NOTAMS... TAXIWAY SIERRA FIVE CLOSED. TAXIWAY SIERRA CLOSED BETWEEN TAXIWAY SIERRA 8 AND TAXIWAY WHISKEY. ILS RY 26R OTS, RY 26L IM OTS, RY 26R ALS OTS. USE CAUTION FOR NUMEROUS BIRDS OBSERVED IN VICINITY OF ONT. PILOTS READBACK RWY ASSIGNMENTS AND HOLD SHORT INSTRUCTIONS. ...ADVS YOU HAVE INFO K.\n[Departure ATIS] KONT DEP ATIS N 0553Z - KONT ATIS INFO N 0553Z. 24004KT 10SM BKN250 22/15 A2988 (TWO NINER EIGHT EIGHT) RMK AO2 SLP100. ILS AND VIS APR IN USE, RY26L & RY26R. LNDG AND DEPG RY 26L AND RY 26R. NOTAMS... TAXIWAY SIERRA CLSD BETWEEN SIERRA 8 AND W TAXIWAY Q SOUTH OF RWY 26L CLSD TAXIWAY T CLSD TAXIWAY SIERRA 5 CLSD. RY 26L IM OTS, RY 26R ALS OTS. USE CAUTION FOR NUMEROUS BIRDS OBSERVED IN VICINITY OF ONT. HAZD WX INFO FOR SOUTHERN CA AVBL ON FSS FREQUENCIES. PILOTS READBACK RWY ASSIGNMENTS AND HOLD SHORT INSTRUCTIONS. ...ADVS YOU HAVE INFO N.",
    "KSFO": "[Arrival ATIS] KSFO ARR ATIS P 1656Z SFO ATIS INFO P 1656Z. 18013KT 10SM FEW007 BKN022 17/11 A2998 (TWO NINER NINER EIGHT). SIMUL CLSLY SPCD DPNDNT ILS RY 28R AND ILS RY 28L APP IN USE. DEPG RWYS 28L, 28R. RY 1L, 1R CLSD. NUMEROUS TWY CLOSURES FOR CONSTRUCTION ON THE FIELD, PILOTS CHECK NOTAMS. HAZWX INFO FOR SFO AREA AVBL FM FSS FREQ. MULTIPLE CRANES VCY OF SFO CHECK NOTAMS. DEPG ACFT WAITING ON FINAL NUMBERS ADVISE GROUND PRIOR TO ENTERING TWY F. ...ADVS YOU HAVE INFO P.\n[Departure ATIS] KSFO DEP ATIS R 1456Z SFO ATIS INFO R 1456Z. 30006KT 10SM FEW006 OVC011 14/11 A3002 (THREE ZERO ZERO TWO). SIMUL CLSLY SPCD DPNDNT ILS RY 28R AND ILS RY 28L APP IN USE. DEPG RWYS 28L, 28R. GATE",
    "KOAK": "[Arrival ATIS] KOAK ARR ATIS W KOAK ARR/DEP DATIS RPT OAK ATIS INFO W 0553Z. 24015KT 10SM FEW003 BKN007 OVC011 14/12 A3002 (THREE ZERO ZERO TWO). RNAV, RWY 30. ILS, RWY 28R. TWY S CLSD BETWEEN B AND GATE 1. ILS RWY 30, OTS, RWY 28R RAIL, OTS. UNN LIT CLOSE-IN OBSTACLES FOR RWY 30 DEPARTURES. RWY 30 DEPARTURES ARE ADVISED TO AVOID TURNING LEFT PRIOR TO DEPARTURE END OF RUNWAY. CTN, CRANE 1 POINT 6 NAUTICAL MILES, , AT 140 FEET AGL. CAUTION, BIRDS NEAR AIRPORT. ...ADVS YOU HAVE INFO W.\n[Departure ATIS] KOAK DEP ATIS O 1953Z OAK ATIS INFO O 1953Z. 28014KT 10SM FEW005 22/14 A2988 (TWO NINER EIGHT EIGHT). RNAV Z/VA RWY 30 ILS/VA RWY 28R. FLOW TO LAX, LAS, SAN. ILS RWY 30, OTS. UNN LIT CLOSE-IN OBSTACLES FOR RWY 30 DEPARTURES. RWY 30 DEPARTURES ARE ADVISED TO AVOID TURNING LEFT PRIOR TO DEPARTURE END OF RUNWAY. SIGNATURE UNI-COM OUT OF SERVICE. CAUTION, BIRDS NEAR AIRPORT. ...ADVS YOU HAVE INFO O.",
    "KDFW": "[Arrival ATIS] KDFW ARR ATIS R 1553Z DFW ARR INFO R 1553Z. 00000KT 10SM FEW024 SCT085 BKN110 OVC250 24/20 A2996 (TWO NINER NINER SIX) RMK AO2 RAE1455B20E48 SLP135 P0000 T02440200. SIMUL APCH IN USE. EXPECT ILS TO RWYS, 36L, 35C, 35R, 31R. LDG RWY 35C EXP LAHSO TWY EJ 9050 FT AVL, LDG RWY 36L EXP LAHSO TWY Z 10650 FT AVL. NOTICE TO AIRMEN. RWY 18L ILS OTS, CL OTS. HAZD WX FOR DFW AVBL ON FSS. BIRD ACTIVITY VCNTY ARPT. ...ADVS YOU HAVE INFO R.\n[Departure ATIS] KDFW DEP ATIS W 1553Z - KDFW DEP INFO W 1553Z. 21022G32KT 10SM FEW025 FEW180 SCT250 31/21 A2994 (TWO NINER NINER FOUR) RMK AO2 PK WND 20032/1547 SLP128 T03110206. SIMUL PARL TRAFFIC DEPG RWYS 17R, 18L. NOTICE TO AIRMEN. WARNING, RWY 18L HAS BEEN SHORTENED, 9273 FT AVAILABLE. RWY 18L CL OTS. BIRD ACTIVITY VCNTY ARPT. ...ADVS YOU HAVE INFO W.",
    "KIAH": "[Arrival ATIS] KIAH ARR ATIS X 1853Z IAH ATIS INFO X 1853Z. 20006KT 10SM SCT050 BKN250 34/20 A3005 (THREE ZERO ZERO FIVE). ARRIVALS EXPECT ILS OR RNAV Y RY 8R, ILS OR RNAV Y RY 8L. SIMUL APPROACHES IN USE. DEPG RY 15L, RY 15R. NOTICE TO AIRMEN. UNITED RAMP CONTROL IN EFFECT. CODED DEPARTURE ROUTES IN EFFECT. HAZD WX INFO FOR IAH AREA AVBL FM FSS. BIRD ACTIVITY VICINITY ARPT. LAHSO RY8R. CRANES ARE DOWN. TWY SA CLSD BTN TWY, SF AND TWY SK , TWY SB CLSD BTN TWY, SF AND TWY SK , , TWY WB CLSD BTN TWY, WG AND TWY WH . TWY EA CLSD. NOTAM ATIS IN USE ON FREQUENCY 126.225. ...ADVS YOU HAVE INFO X.\n[Departure ATIS] KIAH DEP ATIS T 0353Z IAH ATIS INFO T 0353Z. 15007KT 10SM FEW035 FEW180 BKN250 27/23 A2996 (TWO NINER NINER SIX). ARRIVALS EXPECT ILS OR RNAV Y RY 8R, ILS OR RNAV Y RY 8L. DEPG RY 15R. NOTICE TO AIRMEN. UNITED RAMP CONTROL IN EFFECT. RY 15L, 33R CLSD. HAZD WX INFO FOR IAH AREA AVBL FM FSS. BIRD ACTIVITY VICINITY ARPT. CRANES ARE DOWN. TWY SA CLSD BTN TWY, SF AND TWY SK , TWY SB CLSD BTN TWY, SF AND TWY SK , , TWY WB CLSD BTN TWY, WG AND TWY WH . TWY EA CLSD. NOTAM ATIS IN USE ON FREQUENCY 126.225. ...ADVS YOU HAVE INFO T.",
    "KORD": "[Arrival ATIS] KORD ARR ATIS W 0951Z ORD ATIS INFO W 0951Z. 01004KT 10SM FEW250 19/14 A3007 (THREE ZERO ZERO SEVEN) RMK AO2 SLP179 T01890144. ARR EXP VECTORS ILS RWY 10C APCH, VISUAL APCH RWY 9C. SIMUL APCHS IN USE. LAND AND HOLD SHORT OPERATIONS ARE IN EFFECT. RWY 9C ARR PLAN TO H/S OF TWY T T, 8 THSD 8 HND THIRTY FT AVBL. DEPS EXP RWYS 10L FROM DD. 10,093 FT AVBL. RWY 4L, 22R CLSD, RWY 9L, 27R CLSD. RWY 22L ILS OTS, RWY 22R LOC OTS, RWY 28L GS OTS, RWY 9L IM OTS, RWY 9C IM OTS, RWY 10L IM OTS, RWY 10R IM OTS, RWY 27R IM OTS, RWY 28L IM OTS, RWY 28R IM OTS, RWY 9L PAPI OTS, RWY 27R PAPI OTS. PILOTS USE CTN FOR BIRD ACTIVITY IN THE VICINITY OF THE ARPT. USE CTN FOR PERSONNEL AND EQUIP AT NUMEROUS SITES ON THE FIELD. READBACK ALL RWY HOLD SHORT INSTRUCTIONS. WHEN READY TO TAXI CONTACT GND METERING ON FREQ 121.67. ...ADVS YOU HAVE INFO W.\n[Departure ATIS] KORD DEP ATIS L 1651Z ORD ATIS INFO L 1651Z. 31003KT 10SM FEW060 FEW250 28/13 A3010 (THREE ZERO ONE ZERO) RMK AO2 SLP188 T02830128. ARR EXP VECTORS ILS RWY 10C APCH, VISUAL APCH RWY 9L, VISUAL",
    "KJFK": "[Arrival ATIS] KJFK ARR ATIS G 1751Z JFK ATIS INFO G 1751Z. 01013KT 10SM OVC015 22/17 A3002 (THREE ZERO ZERO TWO). APPROACH IN USE ILS RY 4R, ILS RY 4L. DEPG RY 4L. CRI OTS. RWY 22L/4R INNER MARKER OTS. HAZD WX INFO FOR NY METRO AREA AVBL ON FSS. NUM CRANES OPERATING AT JFK. BIRD ACTIVITY VICINITY ARPT. READBACK ALL RWY ASSIGNMENTS AND HOLD SHORT INSTRUCTIONS. ...ADVS YOU HAVE INFO G.\n[Departure ATIS] KJFK DEP ATIS R 1551Z JFK ATIS INFO R 1551Z. 27014KT 10SM FEW060 FEW110 BKN250 25/11 A2970 (TWO NINER SEVEN ZERO). APPROACH IN USE ILS RY 31R, VISUAL APCH RY 31L. DEPG RY 31L. RWY 22L/4R INNER MARKER OTS. NUM CRANES OPERATING AT JFK. BIRD ACTIVITY VICINITY ARPT. READBACK ALL RWY ASSIGNMENTS AND HOLD SHORT INSTRUCTIONS. ...ADVS YOU HAVE INFO R.",
    "KIND": "[Arrival ATIS] KIND ARR ATIS O 1254Z - KIND ATIS INFO O 1254Z. 04007KT 10SM FEW015 BKN300 24/20 A3008 (THREE ZERO ZERO EIGHT). PARL ILS RWY 5R AND 5L APPROACHES IN USE. CROSS RUNWAY OPERATIONS MAY BE IN EFFECT. NOTICE TO AIRMEN. RWY 32 GS OTS. TWY, P BTN TWY, H AND TWY B CLSD, TWY, P BTN TWY, B AND TWY J CLSD, TWY, H BTN TWY, R AND TWY N CLSD. P PAD CLSD. ILS RUNWAY 5R AND RUNWAY 5L INNER MARKER UNSERVICEABLE. RUNWAY 32 TOUCHDOWN RVR OTS. RUNWAY 14 ROLLOUT RVR OTS. ...ADVS YOU HAVE INFO O.\n[Departure ATIS] KIND DEP ATIS H 1854Z IND ATIS INFO H 1854Z. 26009G19KT 10SM SCT036 BKN041 BKN170 23/16 A2981 (TWO NINER EIGHT ONE) RMK AO2 SLP088 T02280156. PARL ILS RWY 23R AND 23L APPROACHES IN USE. CROSS RU",
    "KDTW": "[Arrival ATIS] KDTW ARR ATIS A 0953Z DTW ARR INFO A 0953Z. 35005KT 9SM FEW075 SCT250 18/13 A3005 (THREE ZERO ZERO FIVE). SIMUL VISUAL RY 3R, RY 4L USE Z LOC FREQ 111.95 APCH IN USE. NOTICE TO AIRMEN. RWY 21R, 3L CLSD, RWY 27L, 9R CLSD, RWY 27R, 9L CLSD. TWYS Y1 CLSD ;. PILOTS USE CTN FOR BIRD ACTIVITY. DEPARTURE ATIS 118.125. ...ADVS YOU HAVE INFO A.\n[Departure ATIS] KDTW DEP ATIS Q 2253Z - KDTW DEP INFO Q 2253Z. 21009KT 10SM FEW050 FEW250 33/24 A2991 (TWO NINER NINER ONE). DEPG RWY 21R, RWY 22L ;. NOTICE TO AIRMEN. RWY 27L, 9R CLSD, RWY 27R, 9L CLSD. PILOTS USE CTN FOR BIRD ACTIVITY. ...ADVS YOU HAVE INFO Q.",
    "KMSP": "[Arrival ATIS] KMSP ARR ATIS A 1953Z MSP ARR INFO A 1953Z. 15005KT 10SM BKN039 OVC055 27/21 A3009 (THREE ZERO ZERO NINER). SIMULTANEOUS DEPENDENT, ILS RWY 12R APCH IN USE, LOCALIZER RWY 12L APCH IN USE. FINAL APCH, OVER NOISE SENSITIVE AREA. NOTICE TO AIRMEN. RWYS 4, 22 CLSD. TWY R7. R8. R9. R10. CLOSED, TWY R BETWEEN R6 AND R10 CLOSED, TWY A7 CLSD. GS RWY 12L OTS, RWYS 12R, 12L, INNER MARKER OTS.. HAZD WX INFO FOR MSP AREA AVBL FM FSS. CTN, BIRDS NEAR MSP. READ BACK HS AND ALT. ALL ACFT TAXI WITH TRANSPONDER AND ALTITUDE ENCODING ON. ...ADVS YOU HAVE INFO A.\n[Departure ATIS] KMSP DEP ATIS R 1353Z MSP DEP INFO R 1353Z. 01003KT 10SM FEW015 BKN055 BKN070 BKN250 22/18 A3012 (THREE ZERO ONE TWO). DEPARTING RWY 30L, RWY 30R, RWY 17. NOTICE TO AIRMEN. RWYS 4, 22 CLSD. TWY R7. R8. R9. R10. CLOSED, TWY R BETWEEN R6 AND R10 CLOSED, TWY A7 CLSD. ALL ACFT CTC METERING ON ONE THREE THREE POINT FIVE SEVEN WHEN READY TO PUSHBACK OR TAXI. HAZD WX INFO FOR MSP AREA AVBL FM FSS. CTN, BIRDS NEAR MSP. READ BACK HS AND ALT. ALL ACFT TAXI WITH TRANSPONDER AND ALTITUDE ENCODING ON. ...ADVS YOU HAVE INFO R.",
    "CYEG": "[Arrival ATIS] CYEG ARR ATIS H 2000Z CYEG ARR ATIS H 2000Z 14016G22KT 20SM FEW050 SCT250 25/13 A2998 APCH RNAV Z OR Y RWY 20, INFORM ARRL OF REQ APCH ON INITIAL CTC. LDG AND DEP RWY 20. SIMUL APPROACHES MAY BE IN EFCT. INFORM CYEG ATC INFO H\n[Departure ATIS] CYEG DEP ATIS H 2000Z CYEG ARR ATIS H 2000Z 14016G22KT 20SM FEW050 SCT250 25/13 A2998 APCH RNAV Z OR Y RWY 20, INFORM ARRL OF REQ APCH ON INITIAL CTC. LDG AND DEP RWY 20. SIMUL APPROACHES MAY BE IN EFCT. INFORM CYEG ATC INFO H",
    "EHAM": "[Arrival ATIS] EHAM ARR ATIS D 1450Z EHAM ARRIVAL INFO D. DEMAND. MAIN LANDING RWY 36 R. TRANSITION LEVEL 045. WIND 330 DEG, 15 KT, VRB BTN 270 AND 350 DEG, 19 KT MAX, 6 KT MNM. VIS 10 KM OR MORE. CLD FEW 2200 FT SCT 4200 FT. T 21. DP 15. QNH 1014 HPA. NOSIG. OPERATIONAL REPORT. CONTACT APCH WITH CALLSIGN ONLY. END OF INFO D\n[Departure ATIS] EHAM DEP ATIS R 1521Z EHAM DEPARTURE INFO R. DEMAND. MAIN DEPARTURE RWY 24. SECONDARY DEPARTURE RWY 18 L. MAIN LANDING RWY 18 R. WIND 230 DEG, 11 KT, VRB BTN 190 AND 250 DEG. WIND SECONDARY RUNWAY 160 DEG, 11 KT, VRB BTN 130 AND 240 DEG, 13 KT MAX, 5 KT MNM. CAVOK. T 33. DP 18. QNH 1012 HPA. OPERATIONAL REPORT. INFORM SCHIPHOL DEL BY VOICE IF UNABLE TO COMPLY WITH NADP 2. END OF INFO R",
    "EBBR": "[Arrival ATIS] EBBR ARR ATIS H 1850Z EBBR NAT, EXP VECT FOR ILS APP ARR RWY25L RSCD AT 1455 RWY25L DRY. DEP RWY25R TRL 055 TWY C6 CLSD. ILS RWY 25R U/S. RNP RWY 25R AT ATC DISCRETION 320/7KT CAVOK T24 DP13 QNH 1016HPA NOSIG CFM ARR H\n[Departure ATIS] EBBR DEP ATIS F 1150Z EBBR NAT, DEP RWY25R RSCD AT 1022 RWY25R DRY . ARR RWY25L TRL 055 B3 CLSD 270/12KT MNM4 MAX17 CAVOK T27 DP13 QNH 1015HPA NOSIG CFM DEP F",
    "EDDF": "[Arrival ATIS] EDDF ARR ATIS V 1450Z ARR-ATIS EDDF V METAR 071450 EXPECT INDEPENDENT PARALLEL ILS Y APCH RWY 25R OR ILS APCH RWY 25L RWY 25R 25L GLS APCH ON REQUEST , DO NOT MISTAKE TWY M FOR RWY 25C WHEN PERFORMING VISUAL APPROACH , TRL 70 ATTN : BIRDS IN THE VICINITY OF THE RWYS , AD WRNG VALID TIL 1800 , SFC WIND 27015KT MAX 30 KTS , FCST WKN , MOD TURB REPORTED AT 1335 BY AIRBUS A 321 IN EASTERN TMA BTN F090 AND A050 27015KT CAVOK T31 DP06 QNH1012 TREND NOSIG END OF ATIS V\n[Departure ATIS] EDDF DEP ATIS V 1650Z -DEP-ATIS EDDF V METAR 191650 - -RWY 25C 18 -ALL DEPARTING ACFT VIA OBOKA , MARUN AND TOBAK EXPECT SID WITH DESIGNATOR F OR G , -TRL 60 -ATTN : BIRDS IN THE VCY OF THE AD , -25004KT 210V280 RWY18 VRB02KT -CAVOK - - -T34 DP18 -QNH1014 - -TREND NOSIG",
    "EDDL": "[Arrival ATIS] EDDL ARR ATIS H 1220Z ATIS EDDL H METAR 071220 EXPECT VECTORS ILS APPROACH RWY 23L TWY L2 , L4 AND L5 BTN TWY M AND RWY 23L CLOSED TRL 70 28019KT CAVOK T28 DP11 QNH1013 TREND TEMPO 28020G30KT\n[Departure ATIS] EDDL DEP ATIS R EDDL ARR/DEP DATIS RPT -ATIS EDDL R METAR 020550 -EXPECT VECTORS ILS APPROACH -RWY 23L -TWY L8 CLOSED BETWEEN TWY M AND RWY 23L -TRL 60 - -23010KT -CAVOK - - -T19 DP13 -QNH1020 - -TREND NOSIG",
    "EDDK": "[Arrival ATIS] EDDK ARR ATIS Z 0620Z ATIS EDDK Z METAR 070620 EXPECT ILS APCH RWY 31R RWY 31R RWY COND RWY 31R AT TIME 2345 RWYCC 6 DEPOSIT TOTAL RWY DRY TRL 60 RWY 13R AND RWY 31L CLOSED FOR DEPARTURE AND LANDING: TAXIING BTN THR RWY 13R AND INTERSECTION RWY 24 POSSIBLE : VRB01KT CAVOK T20 DP14 QNH1014 TREND BECMG 27008KT\n[Departure ATIS] EDDK DEP ATIS Q EDDK ARR/DEP DATIS RPT -ATIS EDDK Q METAR 291920 -EXPECT ILS APCH -RWY 31R 06 -RWY COND RWY 31R AT TIME 1830 RWYCC 6 DEPOSIT TOTAL RWY DRY RWY 06 AT TIME 1830 RWYCC 6 DEPOSIT TOTAL RWY DRY -TRL 60 -RWY 13R AND RWY 31L CLOSED FOR DEPARTURE AND LANDING: TAXIING BTN THR RWY 13R AND INTERSECTION RWY 24 POSSIBLE : -04003KT -CAVOK - - -T24 DP13 -QNH1024 - -TREND NOSIG",
    "EBLG": "[Arrival ATIS] EBLG ATIS Q 1920Z EBLG INFO, EXP RNAV TO ILS APP ARR RWY22L DEP RWY22L RWY 22L DRY, RWYCC 666. TRL 055 TWY A4 DISPLACED 310/7KT CAVOK T23 DP11 QNH 1016HPA NOSIG CFM ATIS Q",
    "LSZH": "[Arrival ATIS] LSZH ARR ATIS E 1020Z ARRIVALS, EXP ILS APCH, RWY 14. TRL 70. DEP RWY 28. WIND 220 DEG, 8 KT. CAVOK. T 30. DP 12. QNH 1020. NOSIG.\n[Departure ATIS] LSZH DEP ATIS N 1520Z DEP RWY 32. TRL 70. ARRIVALS, EXP RNP APCH, RWY 28. TMA S 1 IS ACT. TMA S 2 AND S 3 ARE ACT. WIND 310 DEG, 10 KT. CAVOK. T 31. DP 9. QNH 1018. NOSIG.",
    "LIMC": "[Arrival ATIS] LIMC ARR ATIS P 1450Z LIMC ARR P 1450Z I.L.S. ZULU RWY IN USE 35L TL 70 WIND TDZ 260/7KT VRB BTN 230/AND 290/ CAVOK T33 DP09 QNH 1016HPA QFE 0990HPA\n[Departure ATIS] LIMC DEP ATIS P 1550Z LIMC DEP P 1550Z RWY IN USE 35R TL 70 WIND END 220/10KT CAVOK T32 DP09 QNH 1015HPA QFE 0990HPA DATALINK CLEARANCE AVAILABLE.... CONTACT 1 3 1 8 8 0 TO BE RELEASED BY THE AIRPORT OPERATOR ...",
    "LIRF": "[Arrival ATIS] LIRF ARR ATIS J 1030Z LIRF ARR J 1030Z RWY 16L ILS W RWY 16R ILS Z RWY IN USE 16L 16R TL 70 RWYS IN USE FOR ARR 16L AND 16R WIND RWY 16L TDZ 210/9KT VRB BTN 180/AND 240/ RWY 16R TDZ 220/8KT VRB BTN 200/AND 260/ CAVOK T30 DP22 QNH 1017HPA RRSM\n[Departure ATIS] LIRF DEP ATIS H 1520Z LIRF DEP H 1520Z RWY IN USE 25 TL 70 RWYS IN USE FOR ARR 16L AND 16R WIND END 280/9KT VRB BTN 240/AND 300/ CAVOK T29 DP19 QNH 1017HPA REA IS SENT AUTOMATICALLY ONCE RLSD BY RAMP WHEN READY CONTACT FIUME RAMP 121. 725 RRSM",
    "EINN": "[Arrival ATIS] EINN ARR ATIS E 2000Z EXPECT I L S CATEGORY 1 LDG RWY24 TKOF RWY24 TRL FL060 26007KT 9999 FEW018 19/15 QNH Q1020 TREND NOSIG ADVISE AT FIRST CONTACT YOU HAVE ATIS INFO E",
    "EGLL": "[Arrival ATIS] EGLL ARR ATIS H 1450Z LANDING RWY 27R TRANSITION-LEVEL: FL 70 RUNWAY 27R REDUCED DECLARED DISTANCES WITH TAKE OFF RUN AVAILABLE 3362METRES AND LANDING DISTANCE AVAILABLE 3362METRES IF STAND GUIDANCE IS OFF OR FAILS, REMAIN ON THE TAXIWAY CENTRELINE AND ADVISE ATC AUTO 28010KT 230V310 9999 NCD 30/11 Q1016 ACKNOWLEDGE RECEIPT OF INFORMATION H\n[Departure ATIS] EGLL DEP ATIS F 1950Z DEPARTURE RWY 27L RUNWAY 27R REDUCED DECLARED DISTANCES WITH TAKE OFF RUN AVAILABLE 3362METRES AND LANDING DISTANCE AVAILABLE 3362METRES PILOTS THAT ARE IN RECEIPT OF DATALINK CLEARANCES ARE REMINDED THEY MUST CONTACT DELIVERY ON 121.980 WHEN READY FOR START AUTO 31011KT 9999 NCD 29/13 Q1016 ACKNOWLEDGE RECEIPT OF INFORMATION F AND REPORT AIRCRAFT TYPE AND CURRENT QNH ON FIRST CONTACT WITH HEATHROW",
    "EPWA": "[Arrival ATIS] EPWA ARR ATIS M 0957Z EPWA ARR M. TIME 0957. EXP U ARR ILS Z APCH FOR RWY 33. RWY 33 RCC 5, 5, 5. 1ST PART, WET. 2ND PART, WET. 3RD PART, WET. RWY REPORT END. TRANSITION LEVEL 80. WIND 240 DEG, 6 KT, VRB BTN 200 AND 300 DEG. VIS TDZ 10 KM OR MORE. WX FBL SHRA. CLD SCT 1300 FT, CLD BKN CB 2200 FT. T 19. DP 17. QNH 1007. NOSIG. CAUTION. BIRD ACT. END OF EPWA ARR M\n[Departure ATIS] EPWA DEP ATIS N 1731Z EPWA DEP N. TIME 1730. DEP RWY 29. ARR RWY 33, EXP U ARR ILS Z. REPORT READY FOR STARTUP ON DELIVERY 121. 605. RWY 29 RCC 5, 5, 5. 1ST PART, WET. 2ND PART, WET. 3RD PART, WET. RWY REPORT END. TRANSITION LEVEL 80. WIND 250 DEG, 6 KT. VIS MID 10 KM OR MORE. CLD FEW 4500 FT. T 18. DP 15. QNH 1004. NOSIG. CAUTION. BIRD ACT. END OF EPWA DEP N",
    "EFHK": "[Arrival ATIS] EFHK ARR ATIS I 2020Z EXPECT ILS APCH ARR RWY 22L RUNWAY 22L CONDITION REPORT AT 1642 UTC RUNWAY CONDITION CODES 4 DOWNGRADED , 4 DOWNGRADED , 4 DOWNGRADED CONTAMINANTS ALL PARTS 100 PERCENT WET TRL 70 WIND VRB BTN 090 AND 160 DEG 2 KT CAVOK T 12 DP 11 QNH 995 NOSIG ACK INFO I\n[Departure ATIS] EFHK DEP ATIS H 1620Z DEP RWYS 22R AND 22L RUNWAY 22R CONDITION REPORT AT 1329 UTC RUNWAY CONDITION CODES 6 , 6 , 6 CONTAMINANTS ALL PARTS DRY RUNWAY 22L CONDITION REPORT AT 1330 UTC RUNWAY CONDITION CODES 6 , 6 , 6 CONTAMINANTS ALL PARTS DRY WIND 110 DEG 6 KT VIS 10KM FEW 1400 FT. SCT 1600 FT. FEW TCU 2800 FT T 19 DP 15 QNH 1003 TEMPO CLD FEW CB 3000 FT. ACK INFO H",
    "LTAC": "[Arrival ATIS] LTAC ARR ATIS T 0950Z EXP ILS V APCH 03C DEP RWY 03L RWY 03C WIND VRB 06 KT RWY 03L WIND VRB 05 KT TRL 110 VIS 9999 SCT04000 FT T 26 DP 09 QNH 1016 NOSIG FOR DELIVERY CTC 121.9. FOR DELIVERY FIRST USE DIGITAL DEP CLR. CTN BIRD HAZARD OVR AERODROME. APCH FREQUENCY 129.050. TAXIWAY ECHO 1 IS CLOSED. END OF ATIS T",
    "UBBB": "[Arrival ATIS] UBBB ARR ATIS R 1932Z ATIS R EXP ILS/ LDG 34 35 DEP 34 35 IN USE RWY 34 CLEAR DRY 70 RWY 35 CLEAR DRY 70 TLVL 110 WIND WIND RWY 34 330 16 KT SPD MAX 20 MIN 14 WIND RWY 35 330 16 KT SPD MAX 22 MIN 12 VIS CAVOK T 24 / DP 18 QNH 1010 HPA TREND TREND NOSIG MODERATE BIRDS ACT IN VICINITY OF AP END OF ATIS R\n[Departure ATIS] UBBB DEP ATIS N 1800Z ATIS N EXP ILS/ LDG 34 35 DEP 34 35 IN USE RWY 34 CLEAR DRY 70 RWY 35 CLEAR DRY 70 TLVL 110 WIND WIND RWY 34 330 16 KT SPD MAX 24 MIN 12 WIND RWY 35 330 18 KT SPD MAX 24 MIN 14 VIS CAVOK T 24 / DP 19 QNH 1010 HPA TREND TREND NOSIG MODERATE BIRDS ACT IN VICINITY OF AP END OF ATIS N",
    "ZWWW": "[Arrival ATIS] ZWWW ARR ATIS O 1930Z EXP ILSDME Z APCH LDG RWY 26R TA 3000 WIND 230/2MPS CAVOK T 28 /DP 13 QNH 1006 HPA ADZ YOU HAVE INFO O.\n[Departure ATIS] ZWWW DEP ATIS C 1230Z DEP RWY 26L TA 3000 WIND 320/3MPS CAVOK T 34 /DP 07 QNH 1009 HPA ADZ YOU HAVE INFO C.",
    "ZLXY": "[Arrival ATIS] ZLXY ARR ATIS O 1300Z EXP ILS APCH LDG RWY 05L & 06R WIND 080/3MPS CAVOK T 28 /DP 17 QNH 1004 HPA VISUAL APPROACH IN PROGRESS ADZ YOU HAVE INFO O.\n[Departure ATIS] ZLXY DEP ATIS G 0600Z DEP RWY 05L & 06L WIND VRB/1MPS VIS 9999M CLD SCT 1500M T 29 /DP 19 QNH 1005 HPA VISUAL APPROACH IN PROGRESS ADZ YOU HAVE INFO G.",
    "ZBAA": "[Arrival ATIS] ZBAA ARR ATIS J 1630Z EXP ILS APCH DEPENDENT PARL INSTR APCH LDG RWY 36L & 36R WIND 080 DEG 1 MPS VIS 6000 NSC T 21 /DP 21 QNH 1002 HPA RWY 36L RWYCC 5/5/5 ISSUED AT 1411 ALL PARTS WET NR 100PCT RWY 36R RWYCC 5/5/5 ISSUED AT 1411 ALL PARTS WET NR 100PCT VISUAL APPROACH IS IN PROGRESS. ADZ YOU HAVE INFO J.\n[Departure ATIS] ZBAA DEP ATIS I 1600Z DEP RWY 36L & 36R WIND 000 DEG 0 MPS VIS 6000 NSC T 21 /DP 21 QNH 1003 HPA RWY INDEPENDENT PARALLEL DEP RWY 36L RWYCC 5/5/5 ISSUED AT 1411 ALL PARTS WET NR 100PCT RWY 36R RWYCC 5/5/5 ISSUED AT 1411 ALL PARTS WET NR 100PCT VISUAL APPROACH IS IN PROGRESS. ADZ YOU HAVE INFO I.",
    "ZBHH": "[Arrival ATIS] ZBHH ARR ATIS L 1600Z EXP ILSDME APCH LDG RWY 26 SFC COND & BA NOTICE: RWYCC 26 6/6/6 ISSUED AT 1450Z ALL PARTS DRY NR NR TA 3000 /TRL 3600 WIND 360/3MPS VRB BTN 290/ AND 040/ VIS 9999M CLD SCT 1200M T 17 /DP 08 QNH 1010 HPA ADZ YOU HAVE INFO L.\n[Departure ATIS] ZBHH DEP ATIS K 0600Z DEP RWY 26 TA 3000 /TRL 3600 WIND 240/4MPS VIS 9999M CLD SCT 900M /FEW TCU 900M T 23 /DP 16 QNH 1006 HPA BEFORE 1300 UTC, TURBULENCE MAY OCCUR IN LOCAL FIELD. ADZ YOU HAVE INFO K.",
    "ZSQD": "[Arrival ATIS] ZSQD ARR ATIS K 1700Z EXP ILSDME APCH LDG RWY 17 TA 3000 /TRL 3600 WIND 310/2MPS CAVOK T 22 /DP 20 QNH 1001 HPA VISUAL APPROACH OPERATION IN PROGRESS. WHEN READY CONTACT QINGDAO TOWER ON 118.275 RUNWAY 17,IF MISSED APPROACH,EXPECT FOLLOW THE STANDARD MISSED APPROACH PROCEDURE,CLIMB TO 900M ON QNH OR BY ATC CAUTION MAYBE THERE IS A FLOCK OF BIRDS IN THE VICINITY OF AIRPORT ADZ YOU HAVE INFO K.\n[Departure ATIS] ZSQD DEP ATIS W 0900Z DEP RWY 16 TA 3000 /TRL 3600 WIND 140/2MPS VRB BTN 100/ AND 170/ VIS 9999M CLD BKN 900M T 25 /DP 19 QNH 1002 HPA SEGREGATED OPERATION VISUAL APPROACH OPERATION IN PROGRESS. RUNWAY 17,IF MISSED APPROACH,EXPECT FOLLOW THE STANDARD MISSED APPROACH PROCEDURE,CLIMB TO 900M ON QNH OR BY ATC CAUTION MAYBE THERE IS A FLOCK OF BIRDS IN THE VICINITY OF AIRPORT ADZ YOU HAVE INFO W."
  },
  "windtemp_alaska": "\n000\nFBAK31 KWNO 072000\nFD1AK1\nDATA BASED ON 071800Z    \nVALID 080000Z   FOR USE 2000-0300Z. TEMPS NEG ABV 24000\n\nFT  3000    6000    9000   12000   18000   24000  30000  34000  39000\nADK 3411 3313+02 3017+00 2823-04 2827-17 2826-30 302144 273750 255348\nADQ 1706 1913+05 1913+01 2011-05 2517-16 2730-27 264242 264751 264350\nAKN 1613 1519+04 1717+00 1818-05 2119-17 2224-28 223045 233251 233147\nANC 1609 1909+05 9900-01 9900-06 9900-16 1015-29 102746 990052 270747\nANN 1815 2113-01 2018-06 1925-11 1834-24 1746-36 193641 202740 212440\nBET 1710 1423+03 1428-04 1520-06 1619-20 1717-31 193246 203150 201942\nBRW 1608 1809+07 1712+00 1715-07 1715-19 1818-31 202346 192052 191747\nBTI 1305 1308+10 1608+03 1910-04 1922-17 2120-29 252346 242154 201749\nBTT 1206 1207+09 1408+01 1509-06 1617-18 1625-28 173246 183655 172149\nCDB 2616 2320+01 2332+00 2437-04 2447-17 2457-30 248342 257545 246444\nCZF 0809 0813+02 1018-03 1020-10 1417-21 1523-33 152748 172047 191342\nEHM 1418 1817+03 1722-02 1624-07 1825-18 1926-31 183446 213347 222643\nFAI 1006 1111+10 1116+02 1218-05 1314-17 1313-28 132045 142655 141449\nFYU 0805 1305+09 1607+01 1410-05 1417-16 1213-28 060845 990055 151451\nGAL 0607 0811+07 1216-01 1414-07 1619-19 1633-31 165248 163951 172045\nGKN 1622 1619+03 1507-01 9900-07 0719-18 0627-29 073947 073853 071045\nHOM 1914 2010+05 2007+00 9900-06 9900-18 2907-29 303243 283851 272748\nJNU 1405 1514+00 1516-06 1524-11 1334-24 1540-36 154343 162140 161440\nLUR 1922 1919+05 1915+00 1912-07 1911-20 1913-33 161848 151851 161545\nMCG 9900 1311+06 1315+00 1413-06 1513-19 1626-31 163447 172451 201745\nMDO 1518 9900+03 3011-02 3110-08 3511-20 3618-32 331645 332747 312344\nOME 9900 1411+04 1412-03 1415-08 1418-21 1615-33 171649 171649 171444\nORT      1111+05 1313+00 1415-06 1224-19 0934-30 084346 084552 101545\nOTZ 1406 1410+05 1609-02 1611-07 1415-20 1417-33 142248 152250 171844\nSNP 3523 3422-01 3418-03 3313-08 3316-21 3321-34 311745 281740 251840\nTKA 2009 0906+06 1016+00 1018-05 1212-17 1313-29 133046 132353 190948\nUNK 0907 1011+05 1214-01 1315-08 1516-20 1618-33 191648 171649 181644\nYAK 2805 9900+00 1009-05 1113-10 1132-25 1241-38 111541 100941 180541\nIKO 2734 2738+03 2643+01 2646-05 2658-17 2561-30 259242 259346 257045\nAFM 9900 1307+07 1511+00 1412-07 1617-20 1630-31 174748 174352 172145\n5AB 3308 3006+03 3009+00 3012-04 2914-16 2914-29 261346 262253 263151\n5AC 2622 2823+02 2829-02 2737-07 2743-21 2953-34 307744 296343 294443\n5AD 2517 2518+04 2717-01 2922-05 3041-17 3067-25 298840 309249 307752\n5AE 2221 2422+07 2427+03 2430-02 2543-13 2654-25 269738 760748 258954\n5AF 2309 2209-01 2407-07 2608-13 2810-28 2913-34 301636 291838 291540\n5AG 1607 9900+01 0306-05 0210-10 3431-24 3351-35 324344 322341 321841\n",
  "vaac_tokyo": [
    {
      "id": "20260707_30027000_0246",
      "year": "2026",
      "volcano": "Sheveluch",
      "psn": "N5639 E16122",
      "issued": "20260707",
      "text": "FVFE01 RJTD 071800\nVA ADVISORY\nDTG: 20260707/1800Z\nVAAC: TOKYO\nVOLCANO: SHEVELUCH 300270\nPSN: N5639 E16122\nAREA: RUSSIA\nSOURCE ELEV: 3283M AMSL\nADVISORY NR: 2026/246\nINFO SOURCE: HIMAWARI-9\nERUPTION DETAILS: VA CONTINUOUSLY OBS IN SATELLITE IMAGERY\nOBS VA DTG: 07/1720Z\nOBS VA CLD: SFC/FL280 N5439 E16249 - N5507 E16516 - N5444 E16545 - \nN5405 E16252 MOV SE 15KT\nFCST VA CLD +6 HR: 07/2320Z SFC/FL280 N5521 E16741 - N5456 E16814 - \nN5347 E16313 - N5446 E16411\nFCST VA CLD +12 HR: 08/0520Z SFC/FL270 N5549 E17156 - N5518 E17146 - \nN5418 E16709 - N5303 E16253 - N5516 E16650\nFCST VA CLD +18 HR: 08/1120Z SFC/FL270 N5625 E17511 - N5547 E17626 - \nN5419 E16751 - N5143 E16208 - N5501 E16723\nRMK: VA HEIGHT UPDATED TO FL280 BASED ON SATELLITE DATA.\nNXT ADVISORY: 20260708/0000Z=",
      "img_url": "https://ds.data.jma.go.jp/svd/vaac/data/VAGFN/2026/Images/20260707_30027000_0246_QH21_01.png",
      "sat_img_url": "https://ds.data.jma.go.jp/svd/vaac/data/Sat/2026/Images/30027000/09-ir/20260707_1720_202607071800_ir.png",
      "text_url": "https://ds.data.jma.go.jp/svd/vaac/data/TextData/2026/20260707_30027000_0246_Text.html"
    },
    {
      "id": "20260706_27202000_0232",
      "year": "2026",
      "volcano": "Kanlaon",
      "psn": "N1025 E12308",
      "issued": "20260706",
      "text": "FVFE01 RJTD 061545\nVA ADVISORY\nDTG: 20260706/1545Z\nVAAC: TOKYO\nVOLCANO: KANLAON 272020\nPSN: N1025 E12308\nAREA: PHILIPPINES\nSOURCE ELEV: 2435M AMSL\nADVISORY NR: 2026/232\nINFO SOURCE: HIMAWARI-9 PHIVOLCS\nERUPTION DETAILS: ERUPTION AT 20260706/1520Z FL100 EXTD SW REPORTED\nOBS VA DTG: 06/1530Z\nOBS VA CLD: VA NOT IDENTIFIABLE FM SATELLITE DATA WIND FL100 350/5KT\nFCST VA CLD +6 HR: NOT AVBL\nFCST VA CLD +12 HR: NOT AVBL\nFCST VA CLD +18 HR: NOT AVBL\nRMK: WE WILL ISSUE FURTHER ADVISORY IF VA IS DETECTED IN SATELLITE \nIMAGERY.\nNXT ADVISORY: NO FURTHER ADVISORIES=",
      "img_url": "https://ds.data.jma.go.jp/svd/vaac/data/VAGFN/2026/Images/20260706_27202000_0232_QH21_01.png",
      "sat_img_url": null,
      "text_url": "https://ds.data.jma.go.jp/svd/vaac/data/TextData/2026/20260706_27202000_0232_Text.html"
    },
    {
      "id": "20260705_27303000_0717",
      "year": "2026",
      "volcano": "Mayon",
      "psn": "N1315 E12341",
      "issued": "20260705",
      "text": "FVFE01 RJTD 051936\nVA ADVISORY\nDTG: 20260705/1936Z\nVAAC: TOKYO\nVOLCANO: MAYON 273030\nPSN: N1315 E12341\nAREA: PHILIPPINES\nSOURCE ELEV: 2462M AMSL\nADVISORY NR: 2026/717\nINFO SOURCE: HIMAWARI-9 PHIVOLCS\nERUPTION DETAILS: ERUPTION AT 20260705/1914Z FL090 EXTD WSW REPORTED\nOBS VA DTG: 05/1920Z\nOBS VA CLD: VA NOT IDENTIFIABLE FM SATELLITE DATA WIND FL090 050/8KT\nFCST VA CLD +6 HR: NOT AVBL\nFCST VA CLD +12 HR: NOT AVBL\nFCST VA CLD +18 HR: NOT AVBL\nRMK: WE WILL ISSUE FURTHER ADVISORY IF VA IS DETECTED IN SATELLITE \nIMAGERY.\nNXT ADVISORY: NO FURTHER ADVISORIES=",
      "img_url": "https://ds.data.jma.go.jp/svd/vaac/data/VAGFN/2026/Images/20260705_27303000_0717_QH21_01.png",
      "sat_img_url": null,
      "text_url": "https://ds.data.jma.go.jp/svd/vaac/data/TextData/2026/20260705_27303000_0717_Text.html"
    },
    {
      "id": "20260701_30006000_0001",
      "year": "2026",
      "volcano": "Mutnovsky",
      "psn": "N5227 E15812",
      "issued": "20260701",
      "text": "FVFE01 RJTD 012206\nVA ADVISORY\nDTG: 20260701/2206Z\nVAAC: TOKYO\nVOLCANO: MUTNOVSKY 300060\nPSN: N5227 E15812\nAREA: RUSSIA\nSOURCE ELEV: 2288M AMSL\nADVISORY NR: 2026/1\nINFO SOURCE: KVERT KBGS UHPP HIMAWARI-9\nERUPTION DETAILS: ERUPTION AT 20260701/2016Z FL170 EXTD W REPORTED\nOBS VA DTG: 01/2140Z\nOBS VA CLD: VA NOT IDENTIFIABLE FM SATELLITE DATA WIND FL170 120/8KT\nFCST VA CLD +6 HR: NOT AVBL\nFCST VA CLD +12 HR: NOT AVBL\nFCST VA CLD +18 HR: NOT AVBL\nRMK: WE WILL ISSUE FURTHER ADVISORY IF VA IS DETECTED IN SATELLITE \nIMAGERY.\nNXT ADVISORY: NO FURTHER ADVISORIES=",
      "img_url": "https://ds.data.jma.go.jp/svd/vaac/data/VAGFN/2026/Images/20260701_30006000_0001_QH21_01.png",
      "sat_img_url": null,
      "text_url": "https://ds.data.jma.go.jp/svd/vaac/data/TextData/2026/20260701_30006000_0001_Text.html"
    }
  ],
  "vaac_alaska": [
    {
      "text": "\n000\nFVAK21 PAWU 071808\nVAAAK1\nVA ADVISORY\n\nDTG: 20260707/1807Z\n\nVAAC: ANCHORAGE\n\nVOLCANO: SHEVELUCH 300270\n\nPSN: N5639 E16122\n\nAREA: KAMCHATKA PENINSULA\n\nSOURCE ELEV: 10771 FT AMSL\n\nADVISORY NR: 2026/181\n\nRMK: PLEASE SEE FVFE01 RJTD ISSUED BY VAAC TOKYO WHICH DESCRIBES\nCONDITIONS NEAR THE VAAC ANCHORAGE AREA OF RESPONSIBILITY...PD\n\n\n\n",
      "issued": "2026-07-07T18:08:00+00:00",
      "volcano": "Sheveluch",
      "psn": "N5639 E16122"
    }
  ]
}