{
  "updated_utc": "2026-07-14T12:07Z",
  "metar": {
    "RJAA": "METAR RJAA 141030Z 13005KT 9999 FEW030 SCT/// 27/24 Q1006 NOSIG",
    "PANC": "METAR PANC 141053Z 02006KT 10SM -RA BKN060 OVC080 11/09 A3002 RMK AO2 RAE0955B15 SLP167 P0000 T01060094",
    "PAFA": "METAR PAFA 141053Z 00000KT 10SM BKN080 BKN120 BKN180 13/11 A2991 RMK AO2 SLP133 T01330106 $",
    "PAED": "METAR PAED 141055Z 36007KT 10SM -RA OVC065 11/09 A3000 RMK AO2A SLP155 P0000 T01080094 $",
    "KSEA": "METAR KSEA 141053Z 35003KT 10SM SCT250 14/08 A3008 RMK AO2 SLP189 T01390078 $",
    "ZSPD": "METAR ZSPD 141030Z 17003MPS CAVOK 32/27 Q1003 NOSIG",
    "ZSSS": "METAR ZSSS 141030Z 18005MPS CAVOK 35/25 Q1002 NOSIG",
    "RJFR": "METAR RJFR 141100Z 24005KT 9999 FEW030 BKN/// 31/24 Q1007",
    "VHHH": "METAR VHHH 141030Z 21014KT 9999 FEW010 SCT018 27/23 Q1003 NOSIG",
    "RCTP": "METAR RCTP 141030Z 05004KT 320V130 9999 FEW015 BKN035 BKN090 30/26 Q1008 NOSIG RMK A2979",
    "ZGSZ": "METAR ZGSZ 141100Z 17009MPS 9999 BKN013 BKN033 27/25 Q1002 BECMG AT1140 SCT015 BKN030",
    "WSSS": "METAR WSSS 141030Z 13012KT 9999 FEW018 BKN270 30/24 Q1009 NOSIG",
    "WMKK": "METAR WMKK 141030Z VRB04KT 9000 FEW018 30/26 Q1007 NOSIG",
    "WIDD": "METAR WIDD 141030Z 14011KT 9999 SCT014 29/24 Q1010 NOSIG",
    "VTBS": "METAR VTBS 141030Z 21011KT 9999 FEW020 31/23 Q1006 NOSIG",
    "VTBU": "METAR VTBU 141030Z 23010KT 9999 FEW020 30/28 Q1007 NOSIG",
    "ROAH": "METAR ROAH 141030Z 19009KT 9999 FEW009 SCT/// 27/25 Q1011",
    "VVDN": "METAR VVDN 141030Z 10005KT 9999 FEW017 31/26 Q1004 NOSIG",
    "RCKH": "METAR RCKH 141030Z 16011G21KT 120V200 9999 FEW014 SCT024 30/25 Q1008 NOSIG RMK A2979",
    "KLAX": "SPECI KLAX 141036Z 00000KT 10SM SCT009 19/17 A2997 RMK AO2 T01940172 $",
    "KONT": "METAR KONT 141053Z 24005KT 10SM CLR 21/15 A2997 RMK AO2 SLP133 T02110150 $",
    "KSFO": "METAR KSFO 141056Z 32004KT 10SM FEW200 16/12 A2995 RMK AO2 SLP142 T01560122",
    "KOAK": "METAR KOAK 141053Z 00000KT 10SM FEW007 16/14 A2996 RMK AO2 SLP143 T01610139",
    "KMHR": "METAR KMHR 141015Z AUTO 14006KT 10SM CLR 20/12 A2990 RMK AO2 T02010117 $",
    "KDFW": "METAR KDFW 141053Z 12005KT 10SM FEW018 FEW120 24/22 A3005 RMK AO2 SLP166 T02440222 $",
    "KIAH": "SPECI KIAH 141009Z 10006KT 6SM BR SCT004 BKN013 BKN020 25/24 A3001 RMK AO2 CB DSNT E NW SCT V BKN T02500244 $",
    "KORD": "METAR KORD 141051Z 00000KT 10SM FEW250 24/20 A3017 RMK AO2 SLP211 T02390200 $",
    "KJFK": "METAR KJFK 141051Z 24011KT 10SM FEW250 22/17 A3010 RMK AO2 SLP193 T02220167 $",
    "KRFD": "METAR KRFD 141054Z 00000KT 4SM BR FEW250 20/19 A3021 RMK AO2 SLP223 T02000194",
    "KIND": "METAR KIND 141054Z 01007KT 10SM FEW250 21/17 A3019 RMK AO2 SLP217 T02110172 $",
    "KDTW": "METAR KDTW 141053Z 24004KT 8SM SCT065 BKN130 OVC230 22/20 A3016 RMK AO2 SLP209 T02220200 $",
    "KMSP": "METAR KMSP 141053Z 23006KT 10SM CLR 23/20 A3017 RMK AO2 SLP211 T02330200",
    "CYEG": "METAR CYEG 141100Z 23003KT 20SM FEW066TCU FEW083 10/10 A3020 RMK TCU1ACC1 TCU TR SH DIST N SLP233",
    "EHAM": "METAR EHAM 141025Z 06012KT 020V090 CAVOK 25/16 Q1020 NOSIG",
    "EBBR": "METAR EBBR 141020Z 03009KT 360V060 CAVOK 28/17 Q1018 NOSIG",
    "EDDF": "METAR EDDF 141020Z AUTO 02007KT 320V110 CAVOK 29/15 Q1016 NOSIG",
    "EDFH": "METAR EDFH 141020Z VRB04KT CAVOK 27/14 Q1018",
    "EDDL": "METAR EDDL 141020Z AUTO 03012KT 360V070 CAVOK 29/13 Q1018 NOSIG",
    "EDDK": "METAR EDDK 141020Z AUTO 07006KT 030V150 CAVOK 30/12 Q1017 NOSIG",
    "EBLG": "METAR EBLG 141020Z 02009KT 350V050 9999 FEW048 29/16 Q1018 NOSIG",
    "LSZH": "METAR LSZH 141020Z VRB02KT CAVOK 27/15 Q1018 NOSIG",
    "LIMC": "METAR LIMC 141020Z 24005KT 180V280 CAVOK 31/18 Q1017 NOSIG",
    "LIRF": "METAR LIRF 141020Z 20009KT 180V240 CAVOK 34/15 Q1018 NOSIG",
    "EINN": "METAR EINN 141030Z 07009KT 030V100 CAVOK 24/13 Q1022 NOSIG",
    "EGLL": "METAR EGLL 141020Z AUTO 03009KT 340V060 9999 OVC025 22/15 Q1022",
    "EGSS": "METAR EGSS 141020Z AUTO 36012KT 330V040 9999 BKN014 OVC020 21/16 Q1023",
    "EPWA": "METAR EPWA 141030Z 31005KT 270V340 CAVOK 24/16 Q1019 NOSIG",
    "UHPP": "METAR UHPP 141030Z 35006MPS 9999 FEW040CB SCT050 BKN120 21/14 Q1010 R34L/CLRD62 NOSIG RMK MT OBSC QFE754/1005",
    "EFHK": "METAR EFHK 141020Z 35006KT 300V050 9999 SCT030 20/13 Q1020 NOSIG",
    "LBBG": "METAR LBBG 141030Z VRB07KT 9999 SCT049 28/13 Q1015 NOSIG",
    "LTAC": "METAR LTAC 141020Z 29009KT 250V360 9999 SCT040 SCT100 28/11 Q1013 NOSIG RMK RWY21C 29010KT 240V320 RWY03L 30009KT 230V340 RWY21R 28009KT 200V340 RWY03R 31009KT 270V340 RWY21L 26010KT 220V280",
    "UBBB": "METAR UBBB 141030Z 04010KT CAVOK 32/17 Q1006 NOSIG",
    "UTAA": "METAR UTAA 141100Z 10004KT 9999 FEW050 43/06 Q1006 R88/CLRD70 NOSIG",
    "UACC": "METAR UACC 141030Z 15003MPS CAVOK 37/09 Q1006 NOSIG RMK QFE724/0965",
    "UAAA": "METAR UAAA 141030Z 05003MPS 020V080 9999 FEW050CB BKN100 33/11 Q1009 NOSIG",
    "UZTT": "METAR UZTT 141030Z 25006KT 210V330 CAVOK 39/04 Q1005 NOSIG",
    "ZWWW": "METAR ZWWW 141030Z 34005MPS CAVOK 37/08 Q1005 NOSIG",
    "ZLXY": "METAR ZLXY 141100Z 23005MPS 9999 BKN060 28/24 Q1001 RETSRA NOSIG",
    "ZBAA": "METAR ZBAA 141030Z VRB01MPS CAVOK 28/23 Q0999 NOSIG",
    "ZBHH": "METAR ZBHH 141100Z 19003MPS 150V210 9999 SCT040 24/15 Q1008 NOSIG",
    "ZSQD": "METAR ZSQD 141100Z 31007MPS 9999 FEW026 BKN053 28/24 Q1000 NOSIG",
    "ZMCK": "METAR ZMCK 141030Z 31009MPS 290V350 9999 FEW033 21/09 Q1009 NOSIG RMK QFE642.2 45 MOP",
    "UUEE": "METAR UUEE 141030Z 33004MPS 300V360 9999 BKN032TCU 23/15 Q1011 R24L/CLRD62 R24C/CLRD62 NOSIG",
    "UUDD": "METAR UUDD 141030Z 35005MPS 310V040 9999 SCT032 23/16 Q1011 R31L/CLRD65 NOSIG",
    "ULLI": "METAR ULLI 141030Z 35003MPS 320V050 9999 OVC030 19/12 Q1018 R88/090065 NOSIG",
    "USSS": "METAR USSS 141030Z 11004MPS 080V140 9999 SCT010 BKN015CB 21/19 Q1012 R08R/290350 R08L/290335 TEMPO VRB20MPS -TSRAGR SQ RMK QFE739/0985",
    "UNNT": "METAR UNNT 141030Z 34004MPS CAVOK 25/12 Q1010 R25/CLRD// R34/CLRD// NOSIG RMK QFE748/0997",
    "UNKL": "METAR UNKL 141030Z 29007MPS CAVOK 19/14 Q1008 R29/CLRD// NOSIG RMK QFE730",
    "UIBB": "METAR UIBB 141030Z 14002MPS 090V180 9999 FEW043 22/11 Q1005 R30/CLRD62 NOSIG RMK QFE711/0948",
    "UEEE": "METAR UEEE 141030Z 13003MPS 9999 SCT050CB 27/18 Q0992 R23/09//55 NOSIG RMK QFE736",
    "UHHH": "METAR UHHH 141030Z 25003MPS CAVOK 25/20 Q0999 R23L/090060 NOSIG RMK QFE742/0990",
    "UHSS": "METAR UHSS 141030Z 18003MPS 9999 BKN006 20/19 Q1003 R19/CLRD70 NOSIG RMK MT OBSC QFE750/1001"
  },
  "taf": {
    "RJAA": "TAF RJAA 141105Z 1412/1518 16004KT 9999 FEW030",
    "PANC": "TAF PANC 141137Z 1412/1518 12011G25KT P6SM -RA SCT030 OVC050 TEMPO 1412/1414 01006KT FM142000 13020G35KT P6SM -SHRA SCT030 OVC045 FM142200 13015G30KT P6SM VCSH OVC050 FM150200 10011KT 6SM -RA SCT025 BKN035 FM150400 16015G25KT 6SM -SHRA BKN025",
    "PAFA": "TAF PAFA 141144Z 1412/1518 VRB03KT P6SM BKN060 OVC100 FM141600 11006KT P6SM VCSH OVC060",
    "PAED": "TAF PAED 140500Z 1405/1511 33009KT 9999 FEW013 FEW050 OVC060 620802 540109 QNH3004INS BECMG 1406/1407 33009KT 9999 -SHRA SCT015 BKN030 OVC045 640604 QNH3003INS BECMG 1410/1411 17010G15KT 9000 -RA SCT010 BKN020 OVC040 640604 550109 QNH2986INS BECMG 1421/1422 36009KT 9999 NSW FEW060 BKN080 OVC120 WS013/14035KT 610802 QNH2976INS BECMG 1502/1503 32012KT 9999 -SHRA FEW035 SCT050 OVC070 640703 550357 QNH2976INS BECMG 1506/1507 02008KT 8000 -RA BKN010 OVC020 640604 540109 QNH2979INS TX17/1501Z TN10/1414Z",
    "KSEA": "TAF KSEA 141120Z 1412/1518 01005KT P6SM SKC FM141900 31008KT P6SM SKC FM150700 36004KT P6SM BKN120",
    "ZSPD": "TAF ZSPD 140905Z 1412/1518 18004MPS 8000 SCT030 TX32/1412Z TX35/1506Z TN28/1421Z TEMPO 1505/1509 TSRA BKN008 SCT030CB",
    "ZSSS": "TAF ZSSS 140904Z 1412/1518 18004MPS 8000 SCT030 TX34/1412Z TX37/1506Z TN29/1421Z TEMPO 1506/1509 TSRA BKN008 SCT030CB",
    "RJFR": "TAF RJFR 141105Z 1412/1518 21006KT 9999 FEW015 SCT020 BKN050 BECMG 1515/1518 27008KT",
    "VHHH": "TAF VHHH 141100Z 1412/1518 20015KT 9999 FEW015 SCT025 TX30/1506Z TN26/1422Z TEMPO 1416/1421 20020G30KT 2000 +SHRA FEW010CB SCT020 TEMPO 1421/1503 20020G30KT 1500 TSRA +SHRA FEW008CB SCT015 TEMPO 1503/1506 3000 SHRA FEW010CB SCT020",
    "RCTP": "TAF RCTP 141100Z 1412/1518 14005KT 9999 FEW010 BKN032 TEMPO 1412/1418 20005KT TEMPO 1418/1424 21005KT TEMPO 1500/1503 24005KT BECMG 1503/1504 36005KT TEMPO 1506/1512 13005KT",
    "ZGSZ": "TAF ZGSZ 140907Z 1412/1518 16004MPS 8000 SCT013 SCT040 TX27/1412Z TX31/1506Z TN26/1422Z TEMPO 1421/1423 SHRA FEW020 FEW025CB BKN030 TEMPO 1500/1503 2000 +SHRA FEW012 FEW020CB BKN030 TEMPO 1505/1508 TSRA FEW012 FEW020CB BKN030",
    "WSSS": "TAF WSSS 141100Z 1412/1518 15009KT 9999 FEW015 SCT020",
    "WMKK": "TAF WMKK 141100Z 1412/1518 12006KT 9999 FEW030",
    "VTBS": "TAF VTBS 141100Z 1412/1518 21008KT 9999 FEW020 TEMPO 1412/1416 VRB15G25KT 4000 TSRA FEW018CB SCT030 BKN100 TEMPO 1508/1514 VRB15G25KT 4000 TSRA FEW018CB SCT030 BKN100",
    "VTBU": "TAF VTBU 141100Z 1412/1512 22010KT 9999 FEW020",
    "ROAH": "TAF ROAH 141105Z 1412/1518 20010KT 9999 FEW008 BKN012 TEMPO 1415/1421 FEW005 BKN008 TEMPO 1515/1518 FEW005 BKN008",
    "VVDN": "TAF VVDN 141100Z 1412/1512 22008KT 9999 FEW020 SCT060 TEMPO 1412/1414 TS SCT013 FEW015CB SCT060 BECMG 1504/1505 02010KT TEMPO 1508/1512 TS SCT013 FEW015CB SCT060",
    "RCKH": "TAF RCKH 141100Z 1412/1518 16005KT 6000 FEW010 BKN032 TEMPO 1418/1424 10005KT 4000 SHRA FEW010 BKN017 TEMPO 1500/1506 23005KT 4000 SHRA FEW010 BKN017 TEMPO 1506/1512 22005KT 3500 SHRA FEW010 BKN017",
    "KLAX": "TAF KLAX 141120Z 1412/1518 VRB03KT P6SM OVC006 FM141700 26006KT P6SM SCT008 FM141900 26012KT P6SM SCT250 FM150300 26006KT P6SM SCT250 FM150700 24005KT P6SM BKN008 FM151000 VRB03KT P6SM OVC006",
    "KONT": "TAF KONT 140520Z 1406/1512 VRB04KT P6SM FEW150 FM142000 25012G20KT P6SM FEW200 FM150300 25007KT P6SM SKC FM150700 VRB04KT P6SM SKC",
    "KSFO": "TAF KSFO 141120Z 1412/1518 28007KT P6SM FEW150 FM141900 28015G25KT P6SM SKC FM150800 26009KT P6SM FEW007",
    "KOAK": "TAF KOAK 141120Z 1412/1518 28004KT P6SM FEW150 FM142000 27010KT P6SM SKC FM150300 24007KT P6SM FEW007",
    "KMHR": "TAF KMHR 141120Z 1412/1512 VRB05KT P6SM BKN250 FM142100 24010G17KT P6SM SCT250 FM150700 16003KT P6SM SKC",
    "KDFW": "TAF KDFW 141120Z 1412/1518 11005KT P6SM FEW020 SCT060 TEMPO 1412/1414 BKN015 FM141900 12006KT P6SM VCSH SCT070 TEMPO 1421/1424 4SM -TSRA OVC050CB FM150200 20003KT P6SM FEW210",
    "KIAH": "TAF KIAH 141120Z 1412/1518 13005KT 5SM SHRA VCTS SCT015 BKN020CB TEMPO 1412/1416 3SM TSRA OVC015CB FM141700 18007KT 6SM SHRA BR SCT020 BKN025 FM142000 15007KT P6SM SCT030 OVC100 FM150300 VRB03KT P6SM SCT030 BKN070 FM151500 13005KT P6SM SCT030 BKN060 PROB30 1515/1518 4SM TSRA BKN035CB",
    "KORD": "TAF KORD 141126Z 1412/1518 31005KT P6SM SKC FM141900 08006KT P6SM SKC FM142300 26005KT P6SM SKC",
    "KJFK": "TAF KJFK 141120Z 1412/1518 24013KT P6SM FEW250 FM141500 24013G20KT P6SM FEW250 FM141800 21018G25KT P6SM FEW250 FM150200 24014KT P6SM FEW250 FM150700 25011KT P6SM FEW250 FM151300 27014KT P6SM FEW250 FM151600 27017G27KT P6SM FEW250",
    "KRFD": "TAF KRFD 141126Z 1412/1512 32005KT P6SM SKC FM142000 27004KT P6SM SKC",
    "KIND": "TAF KIND 141120Z 1412/1518 03005KT P6SM FEW250 FM141600 09006KT P6SM FEW050 FM142100 12005KT P6SM FEW250",
    "KDTW": "TAF KDTW 141120Z 1412/1518 24006KT P6SM SCT250 FM141500 26010KT P6SM SCT250 FM150100 27005KT P6SM SCT250 FM151500 29005KT P6SM SCT250",
    "KMSP": "TAF KMSP 141120Z 1412/1518 23008KT P6SM SKC FM151300 27004KT P6SM SKC",
    "CYEG": "TAF CYEG 141142Z 1412/1512 VRB03KT P6SM FEW090 FM141400 10005KT P6SM SKC FM142200 13012KT P6SM SCT050 FM150300 12015G25KT P6SM VCTS BKN050CB FM150500 14010KT P6SM FEW040 FM151000 16005KT P6SM SCT120 RMK NXT FCST BY 141500Z",
    "EHAM": "TAF EHAM 141036Z 1412/1518 05016KT CAVOK BECMG 1419/1422 04008KT BECMG 1508/1511 05016KT",
    "EBBR": "TAF EBBR 141100Z 1412/1518 04010KT CAVOK",
    "EDDF": "TAF EDDF 141100Z 1412/1518 04011KT 9999 FEW040 TEMPO 1413/1419 30020G30KT TSRA SCT040 BKN070CB PROB30 TEMPO 1414/1418 30025G45KT 2000 +TSRAGR BECMG 1500/1502 04006KT PROB30 TEMPO 1504/1509 35015G25KT TSRA BKN015 BKN030CB BECMG 1509/1511 04011KT PROB30 TEMPO 1513/1517 04015G25KT",
    "EDFH": "TAF EDFH 141100Z 1412/1512 05010KT CAVOK TEMPO 1412/1418 04020G30KT TSRA BKN060CB PROB30 TEMPO 1414/1418 31025G45KT 2000 +TSRAGR PROB30 TEMPO 1506/1509 BKN010",
    "EDDL": "TAF EDDL 141100Z 1412/1518 03013KT CAVOK PROB30 TEMPO 1413/1417 04015G25KT BECMG 1419/1422 02005KT BECMG 1508/1510 04010KT",
    "EDDK": "TAF EDDK 141100Z 1412/1518 04008KT CAVOK BECMG 1420/1423 VRB03KT BECMG 1508/1511 04008KT",
    "EBLG": "TAF EBLG 141100Z 1412/1518 04010KT CAVOK",
    "LSZH": "TAF LSZH 141125Z 1412/1518 32005KT CAVOK TX30/1413Z TN19/1504Z TX29/1513Z BECMG 1412/1413 9999 FEW080TCU TEMPO 1413/1420 22012KT FEW070CB PROB40 TEMPO 1413/1419 22015G30KT TSRA SCT060CB PROB30 TEMPO 1414/1420 32015G25KT TSRA SCT060CB BECMG 1420/1423 CAVOK PROB40 1509/1513 08005KT BECMG 1511/1513 9999 FEW080TCU PROB40 TEMPO 1513/1518 21018G30KT TSRA SCT060CB",
    "LIMC": "TAF LIMC 141100Z 1412/1518 VRB05KT 9999 FEW060 PROB30 TEMPO 1416/1422 SHRA TEMPO 1512/1518 4000 TSRA",
    "LIRF": "TAF LIRF 141100Z 1412/1518 19012KT CAVOK BECMG 1417/1419 13007KT BECMG 1509/1511 21010KT",
    "EINN": "TAF EINN 141100Z 1412/1512 08010KT CAVOK BECMG 1419/1421 05007KT BECMG 1510/1512 08010KT",
    "EGLL": "TAF EGLL 141054Z 1412/1518 03010KT 9999 FEW040 BECMG 1412/1414 09014KT BECMG 1418/1421 03010KT PROB30 1503/1508 BKN010 BECMG 1510/1513 09012KT",
    "EGSS": "TAF EGSS 141102Z 1412/1518 04012KT 9999 BKN012 BECMG 1412/1414 FEW025 PROB40 TEMPO 1412/1419 05015G25KT BECMG 1422/1501 BKN008 PROB30 1502/1506 8000 -DZ BKN004 BECMG 1506/1509 FEW020",
    "EPWA": "TAF EPWA 141130Z 1412/1512 VRB06KT CAVOK TEMPO 1412/1416 33010KT PROB40 1418/1424 03010KT PROB40 1500/1507 BKN005",
    "UHPP": "TAF UHPP 141040Z 1412/1518 32003G08MPS 9999 BKN030CB TEMPO 1415/1421 1000 -SHRA BR BKN004 BKN013CB",
    "EFHK": "TAF EFHK 141125Z 1412/1512 33009KT 9999 FEW035",
    "LBBG": "TAF LBBG 141100Z 1412/1512 15010KT 9999 SCT050 BECMG 1417/1419 VRB04KT",
    "LTAC": "TAF LTAC 141040Z 1412/1512 VRB02KT 9999 SCT040 SCT100 TEMPO 1412/1416 33012KT BECMG 1416/1418 CAVOK BECMG 1504/1507 SCT040 SCT100 PROB40 TEMPO 1508/1512 -SHRA BKN030 BKN080",
    "UBBB": "TAF UBBB 141048Z 1412/1512 02008KT CAVOK TX32/1412Z TN24/1501Z TEMPO 1412/1416 05010KT BECMG 1416/1418 33010KT SCT015 BECMG 1422/1424 34024G34KT SCT012 FEW030CB TEMPO 1502/1512 33028G38KT",
    "UTAA": "TAF UTAA 141045Z 1412/1512 02016KT 6000 SCT050 TX42/1508 BECMG 1416/1418 26014KT TEMPO 1420/1503 18010G20KT BECMG 1506/1508 06016KT 4000 DRDU",
    "UACC": "TAF UACC 141100Z 1412/1512 15005MPS 9999 SCT040 BKN100 TX33/1509Z TN22/1423Z TEMPO 1412/1418 -TSRA BKN030CB TEMPO 1418/1504 18005MPS -TSRA BKN030CB BECMG 1504/1506 26005MPS SCT040CB TEMPO 1504/1512 VRB16MPS 3100 -TSRA BKN030CB",
    "UAAA": "TAF UAAA 141102Z 1412/1512 15003MPS 9999 FEW050CB SCT100 TX35/1510Z TN20/1501Z TEMPO 1412/1415 06005MPS TEMPO 1415/1424 21005MPS BECMG 1503/1504 35005MPS TEMPO 1506/1512 05005G10MPS",
    "UZTT": "TAF UZTT 141100Z 1412/1512 07010KT 7000 NSC TX40/1511Z TN26/1500Z TEMPO 1412/1416 32010G20KT",
    "ZWWW": "TAF ZWWW 140904Z 1412/1518 20004G09MPS CAVOK TX35/1509Z TN28/1423Z TN28/1518Z BECMG 1500/1501 34004G11MPS BECMG 1507/1508 9999 FEW040CB BECMG 1514/1515 20004MPS CAVOK",
    "ZLXY": "TAF ZLXY 140905Z 1412/1512 26010G15MPS 3000 TSRA BR FEW040CB OVC050 TX34/1507Z TN25/1421Z BECMG 1413/1414 26004MPS -SHRA BECMG 1415/1416 BR NSC",
    "ZBAA": "TAF ZBAA 140901Z 1412/1518 17004MPS CAVOK TX36/1506Z TN23/1421Z TN25/1518Z",
    "ZBHH": "TAF ZBHH 140902Z 1412/1512 06004MPS 9999 FEW040 TX31/1508Z TN14/1422Z TEMPO 1412/1414 FEW040CB FEW040",
    "ZSQD": "TAF ZSQD 140902Z 1412/1512 34005MPS 3500 BR NSC TX28/1506Z TN22/1420Z BECMG 1414/1415 22003MPS BECMG 1420/1421 1200 BECMG 1423/1424 3000",
    "ZMCK": "TAF ZMCK 141039Z 1412/1518 VRB02MPS 9999 FEW030CB SCT033 TN08/1421Z TX27/1507Z BECMG 1503/1505 28005MPS BECMG 1510/1512 VRB02MPS",
    "UUEE": "TAF UUEE 141055Z 1412/1512 33005MPS 9999 BKN020 TX25/1412Z TN17/1501Z TEMPO 1412/1418 31009G16MPS PROB40 TEMPO 1412/1418 -TSRA BKN016CB TEMPO 1421/1506 BKN007 TEMPO 1507/1512 35008G15MPS",
    "UUDD": "TAF UUDD 141055Z 1412/1518 34003G08MPS 9999 BKN020 TX25/1412Z TN16/1501Z TEMPO 1412/1417 36008G13MPS PROB40 TEMPO 1412/1417 -TSRA BKN016CB TEMPO 1421/1506 BKN007 TEMPO 1509/1517 36008G14MPS",
    "ULLI": "TAF ULLI 141053Z 1412/1512 36005G10MPS 9999 BKN020 BECMG 1416/1418 32003MPS BECMG 1506/1508 30005G10MPS",
    "USSS": "TAF USSS 141052Z 1412/1512 12003G13MPS 8000 -SHRA BKN016CB TEMPO 1412/1512 VRB20MPS -TSRAGR SQ",
    "UNNT": "TAF UNNT 141100Z 1412/1512 34003G08MPS 9999 SCT030 TX25/1508Z TN13/1422Z TEMPO 1420/1424 0300 FG BKN002",
    "UNKL": "TAF UNKL 141048Z 1412/1512 27003G08MPS 9999 SCT040 TEMPO 1412/1415 30008G16MPS -TSRA BKN016CB TEMPO 1503/1510 29008G16MPS",
    "UIBB": "TAF UIBB 141100Z 1412/1512 17003G08MPS 9999 SCT050CB TEMPO 1412/1413 VRB08MPS BECMG 1413/1415 30005G10MPS TEMPO 1503/1512 VRB10MPS -TSRA",
    "UEEE": "TAF UEEE 141100Z 1412/1518 13005G10MPS 9999 SCT030CB BKN100 TX26/1506Z TN18/1418Z TEMPO 1412/1421 VRB15MPS 3200 -TSRA SQ SCT010 BKN025CB OVC100",
    "UHHH": "TAF UHHH 141052Z 1412/1518 18003MPS 9999 SCT020CB TX26/1508Z TN21/1420Z FM141600 14003MPS 5000 -SHRA FEW005 BKN016CB TEMPO 1416/1506 1000 SHRA BKN003 BKN016CB BECMG 1422/1424 36005MPS BECMG 1509/1512 20003MPS",
    "UHSS": "TAF UHSS 141045Z 1412/1518 19003MPS 3000 BR BKN004 OVC025 TEMPO 1412/1423 0600 FG BKN002 BECMG 1423/1501 9999 NSW BKN016CB BECMG 1504/1506 6000 -SHRA"
  },
  "atis": {},
  "windtemp_alaska": "\n000\nFBAK31 KWNO 140800\nFD1AK1\nDATA BASED ON 140600Z    \nVALID 141200Z   FOR USE 0800-1500Z. TEMPS NEG ABV 24000\n\nFT  3000    6000    9000   12000   18000   24000  30000  34000  39000\nADK 2912 2917+04 2728+01 2748-01 2859-12 2856-24 286639 286949 286060\nADQ 2242 2249+10 2347+05 2352-01 2242-13 2243-23 236139 227149 237658\nAKN 1925 2028+07 2139+02 2143-03 2057-15 2068-26 209639 700249 218152\nANC 1520 1632+02 1928-01 2130-04 2341-14 2453-25 247441 258551 258256\nANN 3509 3308+05 3309+02 3206-03 3209-16 3418-29 353145 353951 342347\nBET 1419 1619+03 1825+00 1926-06 2028-17 1924-29 203445 204048 213844\nBRW 2115 1916+00 1820-05 1818-11 1612-22 1609-34 121149 141245 141041\nBTI 2814 2818+03 2519-03 2219-08 1821-22 1538-33 155047 163548 191844\nBTT 1812 1819+00 1825-04 1729-10 1730-23 2229-34 254646 254345 232342\nCDB 2332 2340+06 2343+02 2345-04 2348-16 2254-27 226642 226647 225545\nCZF 0609 1010-01 1113-05 1011-10 1723-19 1933-30 193546 203350 202243\nEHM 1828 1831+05 1929+00 1930-05 2029-18 2130-30 213144 223646 224143\nFAI 2026 2125+03 2223-03 2125-08 2438-19 2553-28 256144 256052 254247\nFYU 2312 2115+03 2115-03 2118-08 2121-22 2127-34 266345 265848 243044\nGAL 1707 1812-01 2020-04 2018-08 2122-20 2337-29 224745 224752 223044\nGKN 1630 1835+02 2127-02 2220-05 2532-16 2645-25 266841 278151 266555\nHOM 1436 1834+05 2230+04 2333-01 2251-13 2359-24 237140 238249 248157\nJNU 2706 3007+00 2709+00 2407-04 3012-15 3230-27 345942 336452 345252\nLUR 2015 1910-01 1709-06 9900-11 0313-24 0317-37 071643 110742 140641\nMCG 1511 1716+00 1623-03 1921-07 2236-16 2142-28 225544 227751 225648\nMDO 1719 1816+04 2117+02 2523-02 2537-13 2644-23 265439 266649 277459\nOME 2110 1916-03 1815-05 2015-09 2014-21 2129-32 224947 213447 211843\nORT      2314+04 2115-02 2318-07 2531-17 2639-27 275842 276452 275553\nOTZ 1811 1714-02 1818-05 1817-11 1916-21 2123-33 223248 222246 211942\nSNP 3220 3121-01 3119-06 2921-10 2626-21 2527-32 242745 252842 252640\nTKA 1719 1830+00 1929-03 2035-05 2339-14 2355-26 247342 249251 256853\nUNK 1308 1615-01 1719-05 1818-08 2125-19 2229-29 204146 204052 212544\nYAK 9900 2709+02 2610-02 2910-03 2929-14 3038-24 304941 316750 306358\nIKO 2825 2826+02 2731+02 2737-04 2751-16 2769-27 299241 298850 275947\nAFM 1909 1813+00 1712-07 1915-11 2215-22 2321-33 243348 232846 222342\n5AB 2214 2729+06 2834+03 2837-01 2942-11 2947-22 285239 285349 285360\n5AC 3415 3310+05 3410+01 3411-02 3615-16 3632-27 366342 367849 365752\n5AD 2419 3034+11 2932+06 3030+01 3124-10 3019-22 292038 292248 302958\n5AE 2257 2247+10 2247+06 2252+00 2254-13 2359-24 226238 226647 227257\n5AF 2909 3110+03 2907-01 2810-03 3219-13 3435-24 345940 347450 337457\n5AG 1808 1912+03 2409+02 2612-01 2925-12 2933-24 304539 305149 306159\n",
  "vaac_active": [
    {
      "volcano": "SHEVELUCH",
      "volcano_jp": "シベルチ",
      "advisory_nr": "2026/263",
      "obs_time": "2026-07-14 11:20Z",
      "issued_time": "2026-07-14 12:00Z",
      "text_url": "https://www.data.jma.go.jp/vaac/data/TextData/2026/20260714_30027000_0263_Text.html",
      "lat": 56.65,
      "lon": 161.367,
      "text": "FVFE01 RJTD 141200\nVA ADVISORY\nDTG: 20260714/1200Z\nVAAC: TOKYO\nVOLCANO: SHEVELUCH 300270\nPSN: N5639 E16122\nAREA: RUSSIA\nSOURCE ELEV: 3283M AMSL\nADVISORY NR: 2026/263\nINFO SOURCE: HIMAWARI-9\nERUPTION DETAILS: VA CONTINUOUSLY OBS IN SATELLITE IMAGERY\nOBS VA DTG: 14/1120Z\nOBS VA CLD: SFC/FL390 N5359 E16539 - N5422 E16550 - N5414 E16656 - \nN5349 E16654 MOV SE 40KT\nFCST VA CLD +6 HR: 14/1720Z SFC/FL400 N5233 E17412 - N5141 E17210 - \nN5144 E17002 - N5224 E17116\nFCST VA CLD +12 HR: 14/2320Z SFC/FL400 N5147 W17910 - N5115 W17906 - \nN5025 E17725 - N5008 E17317 - N5113 E17652\nFCST VA CLD +18 HR: 15/0520Z SFC/FL400 N5217 W17056 - N5119 W17200 - \nN4942 W17651 - N4907 E17606 - N5056 W17716\nRMK: THE RESPONSIBILITY FOR THIS ASH EVENT IS BEING TRANSFERRED TO \nVAAC ANCHORAGE. THE NEXT ADVISORY WILL BE ISSUED BY VAAC ANCHORAGE \nBY 1800UTC UNDER HEADER FVAK21 PAWU. SOME PART OF VA OBSCURED BY MET \nCLOUD.\nNXT ADVISORY: NO FURTHER ADVISORIES="
    },
    {
      "volcano": "MAYON",
      "volcano_jp": "マヨン",
      "advisory_nr": "2026/741",
      "obs_time": "2026-07-14 06:29Z",
      "issued_time": "2026-07-14 10:42Z",
      "text_url": "https://www.data.jma.go.jp/vaac/data/TextData/2026/20260714_27303000_0741_Text.html",
      "lat": 13.25,
      "lon": 123.683,
      "text": "FVFE01 RJTD 141042\nVA ADVISORY\nDTG: 20260714/1042Z\nVAAC: TOKYO\nVOLCANO: MAYON 273030\nPSN: N1315 E12341\nAREA: PHILIPPINES\nSOURCE ELEV: 2462M AMSL\nADVISORY NR: 2026/741\nINFO SOURCE: HIMAWARI-9 PHIVOLCS\nERUPTION DETAILS: ERUPTION AT 20260714/0629Z FL130 EXTD SW-SE \nREPORTED\nOBS VA DTG: 14/1020Z\nOBS VA CLD: VA NOT IDENTIFIABLE FM SATELLITE DATA WIND FL130 050/4KT\nFCST VA CLD +6 HR: NOT AVBL\nFCST VA CLD +12 HR: NOT AVBL\nFCST VA CLD +18 HR: NOT AVBL\nRMK: WE WILL ISSUE FURTHER ADVISORY IF VA IS DETECTED IN SATELLITE \nIMAGERY.\nNXT ADVISORY: NO FURTHER ADVISORIES="
    },
    {
      "volcano": "SHEVELUCH",
      "volcano_jp": "シベルチ",
      "advisory_nr": "2026/262",
      "obs_time": "2026-07-14 08:20Z",
      "issued_time": "2026-07-14 09:00Z",
      "text_url": "https://www.data.jma.go.jp/vaac/data/TextData/2026/20260714_30027000_0262_Text.html",
      "lat": 56.65,
      "lon": 161.367,
      "text": "FVFE01 RJTD 140900\nVA ADVISORY\nDTG: 20260714/0900Z\nVAAC: TOKYO\nVOLCANO: SHEVELUCH 300270\nPSN: N5639 E16122\nAREA: RUSSIA\nSOURCE ELEV: 3283M AMSL\nADVISORY NR: 2026/262\nINFO SOURCE: KVERT HIMAWARI-9\nERUPTION DETAILS: VA CONTINUOUSLY OBS IN SATELLITE IMAGERY\nOBS VA DTG: 14/0820Z\nOBS VA CLD: SFC/FL390 N5512 E16343 - N5540 E16346 - N5540 E16429 - \nN5509 E16417 MOV SE 40KT\nFCST VA CLD +6 HR: 14/1420Z SFC/FL400 N5314 E17206 - N5244 E16756 - \nN5344 E16936 - N5353 E17105\nFCST VA CLD +12 HR: 14/2020Z SFC/FL400 N5256 E17936 - N5208 W17958 - \nN5103 E17602 - N5054 E17122\nFCST VA CLD +18 HR: 15/0220Z SFC/FL400 N5318 W17011 - N5241 W16952 - \nN5008 W17741 - N4939 E17352\nRMK: SOME PART OF VA OBSCURED BY MET CLOUD.\nNXT ADVISORY: 20260714/1200Z="
    },
    {
      "volcano": "SHEVELUCH",
      "volcano_jp": "シベルチ",
      "advisory_nr": "2026/261",
      "obs_time": "2026-07-14 05:40Z",
      "issued_time": "2026-07-14 07:10Z",
      "text_url": "https://www.data.jma.go.jp/vaac/data/TextData/2026/20260714_30027000_0261_Text.html",
      "lat": 56.65,
      "lon": 161.367,
      "text": "FVFE01 RJTD 140710\nVA ADVISORY\nDTG: 20260714/0710Z\nVAAC: TOKYO\nVOLCANO: SHEVELUCH 300270\nPSN: N5639 E16122\nAREA: RUSSIA\nSOURCE ELEV: 3283M AMSL\nADVISORY NR: 2026/261\nINFO SOURCE: HIMAWARI-9\nERUPTION DETAILS: POSS ERUPTION OBS AT 20260714/0540Z FL390 EXTD SE\nOBS VA DTG: 14/0630Z\nOBS VA CLD: SFC/FL390 N5622 E16211 - N5626 E16242 - N5616 E16247 - \nN5608 E16216 MOV SE 40KT\nFCST VA CLD +6 HR: 14/1230Z SFC/FL400 N5454 E17052 - N5332 E16940 - \nN5326 E16622 - N5424 E16710 - N5438 E16254 - N5628 E16110 - N5507 \nE16430\nFCST VA CLD +12 HR: 14/1830Z SFC/FL400 N5348 W17809 - N5134 E17749 - \nN5121 E17011 - N5306 E17326 - N5324 E16311 - N5639 E16125 - N5406 \nE16538\nFCST VA CLD +18 HR: 15/0030Z SFC/FL400 N5440 W16554 - N5330 W16532 - \nN4902 E17336 - N5202 E17316 - N5255 E16335 - N5630 E16139 - N5308 \nE16755\nRMK: SOME PART OF VA OBSCURED BY MET CLOUD.\nNXT ADVISORY: 20260714/0900Z="
    },
    {
      "volcano": "MAYON",
      "volcano_jp": "マヨン",
      "advisory_nr": "2026/740",
      "obs_time": "2026-07-14 06:29Z",
      "issued_time": "2026-07-14 06:51Z",
      "text_url": "https://www.data.jma.go.jp/vaac/data/TextData/2026/20260714_27303000_0740_Text.html",
      "lat": 13.25,
      "lon": 123.683,
      "text": "FVFE01 RJTD 140651\nVA ADVISORY\nDTG: 20260714/0651Z\nVAAC: TOKYO\nVOLCANO: MAYON 273030\nPSN: N1315 E12341\nAREA: PHILIPPINES\nSOURCE ELEV: 2462M AMSL\nADVISORY NR: 2026/740\nINFO SOURCE: HIMAWARI-9 PHIVOLCS\nERUPTION DETAILS: ERUPTION AT 20260714/0629Z VA CLD UNKNOWN REPORTED\nOBS VA DTG: 14/0640Z\nOBS VA CLD: VA NOT IDENTIFIABLE FM SATELLITE DATA WIND FL180 050/6KT\nFCST VA CLD +6 HR: NOT AVBL\nFCST VA CLD +12 HR: NOT AVBL\nFCST VA CLD +18 HR: NOT AVBL\nRMK: WE WILL ISSUE FURTHER ADVISORY IF VA IS DETECTED IN SATELLITE \nIMAGERY.\nNXT ADVISORY: NO FURTHER ADVISORIES="
    }
  ],
  "vaac_tokyo": [
    {
      "id": "20260714_30027000_0263",
      "year": "2026",
      "volcano": "Sheveluch",
      "psn": "N5639 E16122",
      "issued": "20260714",
      "text": "FVFE01 RJTD 141200\nVA ADVISORY\nDTG: 20260714/1200Z\nVAAC: TOKYO\nVOLCANO: SHEVELUCH 300270\nPSN: N5639 E16122\nAREA: RUSSIA\nSOURCE ELEV: 3283M AMSL\nADVISORY NR: 2026/263\nINFO SOURCE: HIMAWARI-9\nERUPTION DETAILS: VA CONTINUOUSLY OBS IN SATELLITE IMAGERY\nOBS VA DTG: 14/1120Z\nOBS VA CLD: SFC/FL390 N5359 E16539 - N5422 E16550 - N5414 E16656 - \nN5349 E16654 MOV SE 40KT\nFCST VA CLD +6 HR: 14/1720Z SFC/FL400 N5233 E17412 - N5141 E17210 - \nN5144 E17002 - N5224 E17116\nFCST VA CLD +12 HR: 14/2320Z SFC/FL400 N5147 W17910 - N5115 W17906 - \nN5025 E17725 - N5008 E17317 - N5113 E17652\nFCST VA CLD +18 HR: 15/0520Z SFC/FL400 N5217 W17056 - N5119 W17200 - \nN4942 W17651 - N4907 E17606 - N5056 W17716\nRMK: THE RESPONSIBILITY FOR THIS ASH EVENT IS BEING TRANSFERRED TO \nVAAC ANCHORAGE. THE NEXT ADVISORY WILL BE ISSUED BY VAAC ANCHORAGE \nBY 1800UTC UNDER HEADER FVAK21 PAWU. SOME PART OF VA OBSCURED BY MET \nCLOUD.\nNXT ADVISORY: NO FURTHER ADVISORIES=",
      "img_url": "https://ds.data.jma.go.jp/svd/vaac/data/VAGFN/2026/Images/20260714_30027000_0263_QH21_01.png",
      "sat_img_url": null,
      "text_url": "https://ds.data.jma.go.jp/svd/vaac/data/TextData/2026/20260714_30027000_0263_Text.html"
    },
    {
      "id": "20260714_27303000_0741",
      "year": "2026",
      "volcano": "Mayon",
      "psn": "N1315 E12341",
      "issued": "20260714",
      "text": "FVFE01 RJTD 141042\nVA ADVISORY\nDTG: 20260714/1042Z\nVAAC: TOKYO\nVOLCANO: MAYON 273030\nPSN: N1315 E12341\nAREA: PHILIPPINES\nSOURCE ELEV: 2462M AMSL\nADVISORY NR: 2026/741\nINFO SOURCE: HIMAWARI-9 PHIVOLCS\nERUPTION DETAILS: ERUPTION AT 20260714/0629Z FL130 EXTD SW-SE \nREPORTED\nOBS VA DTG: 14/1020Z\nOBS VA CLD: VA NOT IDENTIFIABLE FM SATELLITE DATA WIND FL130 050/4KT\nFCST VA CLD +6 HR: NOT AVBL\nFCST VA CLD +12 HR: NOT AVBL\nFCST VA CLD +18 HR: NOT AVBL\nRMK: WE WILL ISSUE FURTHER ADVISORY IF VA IS DETECTED IN SATELLITE \nIMAGERY.\nNXT ADVISORY: NO FURTHER ADVISORIES=",
      "img_url": "https://ds.data.jma.go.jp/svd/vaac/data/VAGFN/2026/Images/20260714_27303000_0741_QH21_01.png",
      "sat_img_url": null,
      "text_url": "https://ds.data.jma.go.jp/svd/vaac/data/TextData/2026/20260714_27303000_0741_Text.html"
    },
    {
      "id": "20260713_28208001_0083",
      "year": "2026",
      "volcano": null,
      "psn": "N3136 E13039",
      "issued": "20260713",
      "text": "FVFE01 RJTD 130254\nVA ADVISORY\nDTG: 20260713/0254Z\nVAAC: TOKYO\nVOLCANO: SAKURAJIMA (AIRA CALDERA) 282080\nPSN: N3136 E13039\nAREA: JAPAN\nSOURCE ELEV: 1117M AMSL\nADVISORY NR: 2026/83\nINFO SOURCE: JMA HIMAWARI-9\nERUPTION DETAILS: ERUPTED AT 20260713/0152Z FL100 EXTD N\nOBS VA DTG: 13/0230Z\nOBS VA CLD: SFC/FL100 N3136 E13039 - N3142 E13040 - N3141 E13044 - \nN3134 E13042 MOV NE 15KT\nFCST VA CLD +6 HR: 13/0830Z SFC/FL100 N3234 E13121 - N3145 E13155 - \nN3202 E13110 - N3227 E13051\nFCST VA CLD +12 HR: 13/1430Z SFC/FL100 N3318 E13206 - N3142 E13317 - \nN3134 E13226 - N3312 E13118\nFCST VA CLD +18 HR: NO VA EXP\nRMK: NIL\nNXT ADVISORY: 20260713/0600Z=",
      "img_url": "https://ds.data.jma.go.jp/svd/vaac/data/VAGFN/2026/Images/20260713_28208001_0083_QH21_01.png",
      "sat_img_url": "https://ds.data.jma.go.jp/svd/vaac/data/Sat/2026/Images/28208001/09-ir/20260713_0230_202607130254_ir.png",
      "text_url": "https://ds.data.jma.go.jp/svd/vaac/data/TextData/2026/20260713_28208001_0083_Text.html"
    },
    {
      "id": "20260712_27307000_0012",
      "year": "2026",
      "volcano": "Taal",
      "psn": "N1400 E12100",
      "issued": "20260712",
      "text": "FVFE01 RJTD 121243\nVA ADVISORY\nDTG: 20260712/1243Z\nVAAC: TOKYO\nVOLCANO: TAAL 273070\nPSN: N1400 E12100\nAREA: PHILIPPINES\nSOURCE ELEV: 311M AMSL\nADVISORY NR: 2026/12\nINFO SOURCE: HIMAWARI-9 PHIVOLCS\nERUPTION DETAILS: ERUPTION AT 20260712/1227Z FL050 EXTD NE REPORTED\nOBS VA DTG: 12/1230Z\nOBS VA CLD: VA NOT IDENTIFIABLE FM SATELLITE DATA WIND FL050 230/19KT\nFCST VA CLD +6 HR: NOT AVBL\nFCST VA CLD +12 HR: NOT AVBL\nFCST VA CLD +18 HR: NOT AVBL\nRMK: WE WILL ISSUE FURTHER ADVISORY IF VA IS DETECTED IN SATELLITE \nIMAGERY.\nNXT ADVISORY: NO FURTHER ADVISORIES=",
      "img_url": "https://ds.data.jma.go.jp/svd/vaac/data/VAGFN/2026/Images/20260712_27307000_0012_QH21_01.png",
      "sat_img_url": null,
      "text_url": "https://ds.data.jma.go.jp/svd/vaac/data/TextData/2026/20260712_27307000_0012_Text.html"
    }
  ],
  "vaac_alaska": [
    {
      "text": "\n000\nFVAK21 PAWU 140922\nVAAAK1\nVA ADVISORY\n\nDTG: 20260714/0920Z\n\nVAAC: ANCHORAGE\n\nVOLCANO: SHEVELUCH 300270\n\nPSN: N5639 E16122\n\nAREA: KAMCHATKA PENINSULA\n\nSOURCE ELEV: 10771 FT AMSL\n\nADVISORY NR: 2026/195\n\nRMK: PLEASE SEE FVFE01 RJTD ISSUED BY VAAC TOKYO WHICH DESCRIBES\nCONDITIONS NEAR THE VAAC ANCHORAGE AREA OF RESPONSIBILITY...CC\n\n\n\n",
      "issued": "2026-07-14T09:22:00+00:00",
      "volcano": "Sheveluch",
      "psn": "N5639 E16122"
    }
  ]
}