{
  "updated_utc": "2026-07-05T08:06Z",
  "metar": {
    "RJAA": "METAR RJAA 050630Z 13011KT 9999 FEW025 BKN/// 25/19 Q1012 NOSIG",
    "PANC": "METAR PANC 050653Z 16010G24KT 10SM FEW040 BKN065 OVC080 12/07 A2992 RMK AO2 PK WND 18029/0632 RAB11E50 SLP132 P0000 T01220072 $",
    "PAFA": "METAR PAFA 050653Z 14003KT 10SM FEW050 SCT100 BKN170 16/11 A2987 RMK AO2 SLP119 T01560106 $",
    "PAED": "METAR PAED 050655Z 00000KT 10SM FEW060 OVC075 13/09 A2991 RMK AO2A RAE50 SLP125 P0000 T01310088 $",
    "KSEA": "METAR KSEA 050653Z 03012KT 10SM BKN034 OVC055 16/09 A3013 RMK AO2 SLP210 T01560094 $",
    "ZSPD": "METAR ZSPD 050630Z 22005MPS 170V240 9999 -SHRA BKN033 30/26 Q1005 NOSIG",
    "ZSSS": "METAR ZSSS 050630Z 23005MPS 190V260 9999 -SHRA FEW033 29/25 Q1005 NOSIG",
    "RJFR": "METAR RJFR 050700Z 25007KT 9999 -RA FEW020 SCT050 BKN120 27/23 Q1007",
    "VHHH": "METAR VHHH 050630Z 15013KT 110V170 9999 FEW012 SCT025 31/25 Q1008 WS R25L NOSIG",
    "RCTP": "METAR RCTP 050630Z 29015KT 9999 FEW020 SCT200 34/27 Q1010 NOSIG RMK A2983",
    "ZGSZ": "METAR ZGSZ 050700Z 18007MPS 9999 SCT026 32/26 Q1007 NOSIG",
    "WSSS": "METAR WSSS 050630Z 09009KT 070V130 9999 FEW017CB FEW018TCU BKN300 33/24 Q1010 NOSIG",
    "WMKK": "METAR WMKK 050630Z 27005KT 200V340 9000 VCSH FEW017CB SCT018 32/25 Q1009 TEMPO 27010G25KT 7000 -TSRA",
    "WIDD": "METAR WIDD 050630Z 07005KT 9999 SCT014 30/26 Q1011 NOSIG",
    "VTBS": "METAR VTBS 050630Z 20012KT 9999 FEW020 SCT035 33/23 Q1008 NOSIG",
    "VTBU": "METAR VTBU 050630Z 19010KT 160V220 9000 FEW020 SCT100 31/28 Q1009 NOSIG",
    "ROAH": "METAR ROAH 050630Z 23007KT 9999 FEW014 31/28 Q1011",
    "VVDN": "METAR VVDN 050630Z 22009KT 9999 FEW017 SCT060 BKN100 33/22 Q1006 NOSIG",
    "RCKH": "METAR RCKH 050630Z 21011KT 170V250 9999 FEW025 SCT032 32/24 Q1010 NOSIG RMK 20011KT/R09 A2984",
    "KLAX": "METAR KLAX 050653Z 24008KT 10SM FEW015 BKN250 18/16 A2999 RMK AO2 SLP152 T01830156",
    "KONT": "METAR KONT 050653Z 27007KT 5SM HZ FEW150 SCT250 22/14 A2999 RMK AO2 SLP137 T02220139 $",
    "KSFO": "METAR KSFO 050656Z 30007KT 10SM FEW004 BKN150 13/11 A3001 RMK AO2 SLP162 T01330111 $",
    "KOAK": "SPECI KOAK 050619Z 31007KT 10SM SCT009 BKN150 13/12 A3002 RMK AO2 T01330117 $",
    "KMHR": "METAR KMHR 050615Z AUTO 13007KT 10SM CLR 19/12 A2992 RMK AO2 T01940124",
    "KDFW": "METAR KDFW 050653Z 05013G20KT 10SM FEW085 SCT110 OVC250 29/21 A3002 RMK AO2 PRESRR SLP153 OCNL LTGIC DSNT NE CB DSNT NE MOV SE T02890206 $",
    "KIAH": "METAR KIAH 050653Z 19003KT 10SM FEW050 BKN250 28/24 A2999 RMK AO2 SLP155 T02780244",
    "KORD": "METAR KORD 050651Z 34003KT 8SM FEW005 BKN065 BKN100 BKN250 19/18 A2994 RMK AO2 SLP134 T01940183 $",
    "KJFK": "METAR KJFK 050651Z 35007KT 10SM FEW070 BKN130 BKN190 OVC250 24/22 A2990 RMK SLP124 T02440217 $",
    "KRFD": "SPECI KRFD 050627Z 31004KT 5SM BR FEW007 OVC034 21/19 A2999 RMK AO2 T02060194 $",
    "KIND": "METAR KIND 050654Z 23004KT 6SM BR CLR 21/21 A2992 RMK AO2 SLP123 T02110206 $",
    "KDTW": "METAR KDTW 050653Z 03005KT 5SM FU SCT007 BKN035 OVC200 23/21 A2992 RMK AO2 SLP128 FU FEW007 T02330206 $",
    "KMSP": "METAR KMSP 050653Z 18003KT 8SM SCT250 21/17 A3002 RMK AO2 SLP161 T02060172",
    "CYEG": "METAR CYEG 050700Z 27004KT 20SM SCT093 BKN120 12/10 A2993 RMK AC3AC4 SLP141 DENSITY ALT 2700FT",
    "EHAM": "METAR EHAM 050625Z 30011KT 9999 FEW012 BKN017 19/16 Q1021 TEMPO SCT017",
    "EBBR": "METAR EBBR 050620Z 25006KT 9999 SCT049 18/15 Q1023 NOSIG",
    "EDDF": "METAR EDDF 050620Z AUTO 24005KT 210V270 9999 FEW043 21/14 Q1022 NOSIG",
    "EDFH": "METAR EDFH 050620Z 25007KT 9999 -RA FEW015 BKN030 17/14 Q1024",
    "EDDL": "METAR EDDL 050620Z AUTO 27006KT 240V300 9999 FEW021 21/16 Q1022 NOSIG",
    "EDDK": "METAR EDDK 050620Z AUTO 29008KT 9999 FEW017 SCT028 20/16 Q1022 NOSIG",
    "EBLG": "METAR EBLG 050620Z 26007KT 9999 SCT009 BKN012 18/16 Q1024 TEMPO BKN009",
    "LSZH": "METAR LSZH 050620Z VRB02KT CAVOK 20/11 Q1025 NOSIG",
    "LIMC": "METAR LIMC 050620Z 01004KT CAVOK 25/11 Q1021 NOSIG",
    "LIRF": "METAR LIRF 050620Z 08006KT CAVOK 27/12 Q1018 NOSIG",
    "EINN": "METAR EINN 050630Z 24010KT 8000 -DZ BKN005 14/13 Q1027 BECMG BKN007",
    "EGLL": "METAR EGLL 050620Z AUTO 27010KT 9999 OVC024 18/15 Q1025",
    "EGSS": "METAR EGSS 050620Z AUTO 27007KT 240V300 9999 BKN022 18/15 Q1025",
    "EPWA": "METAR EPWA 050630Z 25006KT 210V280 CAVOK 17/12 Q1013 NOSIG",
    "UHPP": "METAR UHPP 050630Z 17003MPS 130V200 9999 FEW024 BKN130 15/08 Q1017 R16R/CLRD62 NOSIG RMK MT OBSC QFE759/1013",
    "EFHK": "METAR EFHK 050620Z 35005KT 9999 -RA FEW015 FEW025CB 14/14 Q1001 TEMPO 7000 SHRA",
    "LBBG": "METAR LBBG 050630Z 14005KT 110V220 CAVOK 25/12 Q1015 NOSIG",
    "LTAC": "METAR LTAC 050620Z 03011KT 9999 SCT040 SCT100 21/11 Q1015 NOSIG",
    "UBBB": "METAR UBBB 050630Z 28004KT 230V330 CAVOK 30/17 Q1005 NOSIG",
    "UTAA": "METAR UTAA 050700Z 32006KT 290V040 9999 NSC 36/08 Q1004 R88/CLRD70 NOSIG",
    "UACC": "METAR UACC 050630Z 34004MPS 300V030 9999 FEW033CB BKN040 25/13 Q1006 NOSIG RMK QFE724/0965",
    "UAAA": "METAR UAAA 050630Z 01003MPS 330V060 9999 FEW050 27/14 Q1010 NOSIG",
    "UZTT": "METAR UZTT 050630Z 35006KT 270V050 CAVOK 32/08 Q1007 NOSIG",
    "ZWWW": "METAR ZWWW 050630Z 30004MPS 260V340 CAVOK 30/15 Q1009 NOSIG",
    "ZLXY": "METAR ZLXY 050700Z 34002MPS 290V050 9999 FEW050 37/19 Q0998 NOSIG",
    "ZBAA": "METAR ZBAA 050630Z 12003MPS 070V180 CAVOK 32/18 Q0997 NOSIG",
    "ZBHH": "METAR ZBHH 050700Z 13003MPS 080V200 9999 SCT040 FEW040CB 26/13 Q1004 NOSIG",
    "ZSQD": "METAR ZSQD 050700Z 14008MPS 9999 FEW043 33/22 Q0998 NOSIG",
    "ZMCK": "METAR ZMCK 050630Z 33008MPS 290V350 9999 FEW030CB SCT033 23/11 Q1010 NOSIG RMK QFE643.1 47 MOP",
    "UUEE": "METAR UUEE 050630Z 28002G07MPS 250V320 9999 FEW020 19/13 Q1001 R24L/CLRD62 R24C/CLRD62 NOSIG",
    "UUDD": "METAR UUDD 050630Z 28004MPS 260V040 9999 -RA NSC 18/14 Q1001 R31L/CLRD65 NOSIG",
    "ULLI": "METAR ULLI 050630Z 08004MPS 9999 BKN009 OVC040 17/14 Q0999 R88/090065 NOSIG",
    "USSS": "METAR USSS 050630Z 29002MPS 260V340 9999 FEW040 26/17 Q1007 R26R/CLRD60 R26L/CLRD60 NOSIG RMK QFE734/0979",
    "UNNT": "METAR UNNT 050630Z 20004MPS 150V230 CAVOK 30/16 Q1004 R25/CLRD// R34/////// NOSIG RMK QFE743/0991",
    "UNKL": "METAR UNKL 050630Z 11002MPS 070V140 CAVOK 27/18 Q1006 R11/CLRD// NOSIG RMK QFE729",
    "UIBB": "METAR UIBB 050630Z VRB01MPS 9999 FEW040 26/14 Q1010 R12/CLRD62 NOSIG RMK QFE714/0953",
    "UEEE": "METAR UEEE 050630Z 07003MPS 330V110 CAVOK 26/11 Q1010 R23/09//61 NOSIG RMK QFE749",
    "UHHH": "METAR UHHH 050630Z 01005MPS 9999 SCT014CB 23/19 Q1006 R05L/090060 NOSIG RMK QFE748/0998",
    "UHSS": "METAR UHSS 050630Z 22004MPS 9999 NSC 23/11 Q1013 R19/CLRD70 NOSIG RMK QFE758/1011"
  },
  "taf": {
    "RJAA": "TAF RJAA 050505Z 0506/0612 13008KT 9999 FEW020 SCT040 BECMG 0513/0515 05004KT TEMPO 0515/0518 FEW005 BKN008 TEMPO 0518/0521 FEW003 BKN005 BECMG 0521/0600 09008KT BECMG 0606/0609 02006KT",
    "PANC": "TAF PANC 050539Z 0506/0612 16009G17KT P6SM VCSH FEW040 BKN080 TEMPO 0506/0508 P6SM -RA FM051000 03006KT P6SM VCSH OVC060 FM052300 16012KT P6SM SCT060 BKN090",
    "PAFA": "TAF PAFA 050538Z 0506/0612 VRB04KT P6SM SCT050 BKN100 FM052200 05004KT P6SM VCTS BKN050CB",
    "PAED": "TAF PAED 050500Z 0505/0611 35006KT 9999 VCSH FEW040 BKN080 620802 QNH2988INS BECMG 0509/0510 01006KT 9000 BR VCSH SCT030 BKN050 OVC080 620505 QNH2989INS BECMG 0516/0517 VRB06KT 9999 NSW SCT070 BKN120 QNH2990INS TX15/0600Z TN10/0512Z",
    "KSEA": "TAF KSEA 050750Z 0508/0612 03012KT P6SM FEW060 FM051200 02005KT P6SM SCT027 BKN035 FM051900 35008KT P6SM SCT040 FM052300 36010G18KT P6SM FEW250 FM060500 03006KT P6SM FEW250 FM061100 04005KT P6SM FEW040",
    "ZSPD": "TAF ZSPD 050308Z 0506/0612 20004MPS 6000 -SHRA BKN020 TX31/0506Z TX32/0606Z TN25/0521Z TEMPO 0507/0512 33008G14MPS 2500 TSRA BKN011 SCT030CB TEMPO 0606/0610 33008G14MPS 2500 TSRA BKN013 SCT030CB",
    "ZSSS": "TAF ZSSS 050308Z 0506/0612 20004MPS 6000 -SHRA BKN030 TX30/0506Z TX32/0606Z TN26/0521Z TEMPO 0507/0512 33008G13MPS 2500 TSRA BKN013 SCT030CB TEMPO 0606/0610 33008G13MPS 2800 TSRA BKN013 SCT030CB",
    "RJFR": "TAF RJFR 050505Z 0506/0612 34006KT 8000 -SHRA FEW007 SCT009 BKN015 TEMPO 0509/0515 4000 -SHRA BR BKN005 BKN035 BECMG 0510/0512 09006KT BECMG 0515/0517 06004KT TEMPO 0515/0521 3000 TSRA BR BKN005 BKN007 FEW012CB TEMPO 0521/0600 4000 -SHRA BR BKN005 BKN020 BECMG 0603/0606 13006KT",
    "VHHH": "TAF VHHH 050800Z 0509/0615 16015KT 9999 FEW010 SCT025 TX32/0606Z TN28/0522Z TEMPO 0509/0512 16015G25KT TEMPO 0600/0606 3500 SHRA FEW010CB SCT020",
    "RCTP": "TAF RCTP 050500Z 0506/0612 26010KT 9999 FEW015 BECMG 0512/0514 22005KT TEMPO 0518/0524 15005KT BECMG 0600/0602 31010KT BECMG 0610/0612 21005KT",
    "ZGSZ": "TAF ZGSZ 050310Z 0506/0612 17006MPS 8000 BKN040 TX33/0506Z TX31/0606Z TN27/0522Z TEMPO 0506/0508 TSRA FEW015 FEW020CB BKN030 TEMPO 0516/0519 SHRA FEW015 FEW020CB BKN040 TEMPO 0522/0601 SHRA FEW015 FEW020CB BKN040 TEMPO 0605/0608 TSRA FEW015 FEW020CB BKN030",
    "WSSS": "TAF AMD WSSS 050750Z 0507/0612 13008KT 9999 FEW015 SCT020",
    "WMKK": "TAF AMD WMKK 050629Z 0506/0612 13005KT 9999 FEW018 TEMPO 0506/0510 28010G25KT 4000 TSRA FEW016CB SCT018 BECMG 0511/0513 VRB03KT FEW030",
    "VTBS": "TAF VTBS 050500Z 0506/0612 21008KT 9999 FEW020 TEMPO 0512/0516 VRB15KT 4000 TSRA FEW018CB SCT030 BKN100 TEMPO 0608/0612 VRB15KT 4000 TSRA FEW018CB SCT030 BKN100",
    "VTBU": "TAF VTBU 050500Z 0506/0606 20008KT 9000 FEW020 SCT100",
    "ROAH": "TAF ROAH 050505Z 0506/0612 22006KT 9999 FEW012",
    "VVDN": "TAF VVDN 050500Z 0506/0606 22013KT 9999 FEW017 SCT060",
    "RCKH": "TAF RCKH 050500Z 0506/0612 19008KT 9999 FEW015 BECMG 0512/0514 16005KT TEMPO 0518/0523 09005KT BECMG 0523/0601 19008KT",
    "KLAX": "TAF KLAX 050545Z 0506/0612 26010KT P6SM FEW009 SCT100 FM050900 VRB03KT P6SM BKN010 FM051400 VRB03KT P6SM SCT015 FM051800 26006KT P6SM FEW250 FM052100 26012KT P6SM SCT250 FM060700 26008KT P6SM SKC FM060900 VRB03KT P6SM BKN010",
    "KONT": "TAF KONT 050738Z 0508/0612 25006KT 5SM FU HZ FEW008 SCT250 FM050830 VRB05KT P6SM SCT250 FM052000 26013KT P6SM FEW250 FM060200 25007KT P6SM SKC",
    "KSFO": "TAF KSFO 050544Z 0506/0612 28014KT P6SM BKN150 FM050800 29008KT P6SM BKN010 FM051000 28007KT P6SM OVC008 FM051700 32010KT P6SM SCT010 FM052100 29016KT P6SM SCT250 FM060700 27009KT P6SM OVC015",
    "KOAK": "TAF KOAK 050544Z 0506/0612 28008KT P6SM OVC006 FM051800 29010KT P6SM SCT250 FM052100 29016KT P6SM SCT250 FM060400 28012KT P6SM OVC012 FM060600 27009KT P6SM OVC008",
    "KMHR": "TAF KMHR 050520Z 0506/0606 22008KT P6SM SCT250 FM051200 18006KT P6SM SCT250 FM051900 22008KT P6SM SCT250 FM060000 20006KT P6SM FEW250",
    "KDFW": "TAF KDFW 050632Z 0507/0612 19011KT P6SM BKN200 TEMPO 0507/0509 04015G30KT FM052000 18008KT P6SM VCTS SCT050CB TEMPO 0521/0523 36015G35KT 5SM -TSRA BKN050CB FM060000 01008KT P6SM SCT100 FM060500 09005KT P6SM FEW250",
    "KIAH": "TAF KIAH 050520Z 0506/0612 23004KT P6SM FEW250 TEMPO 0509/0513 6SM BR FM052000 18007KT P6SM FEW060 SCT250 FM060300 25005KT P6SM FEW030 PROB30 0603/0606 6SM -TSRA BR BKN030CB",
    "KORD": "TAF KORD 050720Z 0507/0612 34005KT 6SM BR VCSH SCT005 BKN050 FM050900 36007KT 5SM BR VCSH SCT005 BKN020 PROB30 0510/0514 3SM SHRA BR BKN005 OVC020 FM051400 01012KT 6SM BR VCTS SCT015 BKN025CB PROB30 0514/0517 3SM SHRA BR BKN015 OVC035 FM051700 03012KT P6SM SCT020 BKN035 FM060300 01006KT P6SM FEW035 SCT250",
    "KJFK": "TAF KJFK 050533Z 0506/0612 VRB05KT 5SM -RA BKN050 OVC100 FM050700 VRB05KT P6SM SCT050 BKN100 FM051300 17007KT P6SM FEW030 OVC150 FM052000 14008KT P6SM FEW030 OVC100 TEMPO 0520/0524 2SM TSRA BKN030CB FM060000 11007KT 5SM -SHRA SCT030 BKN050 FM060600 08007KT 3SM -RA BR BKN007 OVC015",
    "KRFD": "TAF KRFD 050542Z 0506/0606 VRB05KT 6SM BR FEW006 SCT010 BKN100 FM051500 02010KT P6SM BKN025 FM051800 04012KT P6SM SCT025 BKN035 FM060100 04006KT P6SM FEW035 SCT250",
    "KIND": "TAF KIND 050520Z 0506/0612 VRB06KT 5SM BR SCT007 OVC150 FM050800 28006KT 5SM BR SCT006 BKN011 FM051300 29006KT P6SM SCT011 BKN025 FM051600 29006KT P6SM SCT025 BKN040 PROB30 0518/0524 5SM -TSRA BKN035CB",
    "KDTW": "TAF KDTW 050520Z 0506/0612 03004KT 4SM BR SCT012 SCT060 BKN200 FM051200 04003KT P6SM BKN015 FM051600 06008KT P6SM -SHRA BKN035 OVC050 PROB30 0518/0522 2SM +TSRA BKN025CB OVC040 FM060000 06007KT P6SM SCT060 BKN120",
    "KMSP": "TAF KMSP 050520Z 0506/0612 03004KT 6SM BR SCT200 FM050800 08005KT 4SM BR SCT010 TEMPO 0508/0512 1SM BR BKN009 FM051400 12006KT P6SM SCT100 PROB30 0519/0523 4SM -TSRA BR BKN050CB FM060200 12004KT P6SM SKC",
    "CYEG": "TAF CYEG 050542Z 0506/0606 26004KT P6SM SCT100 SCT150 TEMPO 0506/0510 BKN100 BKN150 FM051000 30006KT P6SM SCT050 SCT100 FM051800 32010KT P6SM SCT030 TEMPO 0518/0521 P6SM -SHRA BKN030 FM052100 31010KT P6SM SCT040 TEMPO 0521/0601 VRB20G30KT P6SM -SHRA VCTS BKN040CB FM060100 31010KT P6SM SCT040 TEMPO 0601/0603 P6SM -SHRA BKN040 FM060300 30008KT P6SM FEW040 RMK NXT FCST BY 050900Z",
    "EHAM": "TAF EHAM 050439Z 0506/0612 30010KT 9999 FEW018 BKN025 TEMPO 0506/0515 BKN018 PROB30 TEMPO 0510/0514 7000 -RADZ BKN014 BECMG 0520/0523 22005KT BECMG 0604/0607 28012KT",
    "EBBR": "TAF EBBR 050500Z 0506/0612 30008KT 9999 SCT045 BECMG 0605/0607 24010KT",
    "EDDF": "TAF EDDF 050500Z 0506/0612 27006KT CAVOK PROB30 TEMPO 0506/0508 SHRA BKN030TCU BECMG 0508/0510 30012KT TEMPO 0510/0518 30015G25KT SHRA BKN030CB BECMG 0520/0522 27006KT",
    "EDFH": "TAF EDFH 050500Z 0506/0606 28005KT CAVOK BECMG 0507/0509 29010KT TEMPO 0510/0518 30015G25KT SHRA BKN015CB BECMG 0520/0522 26005KT",
    "EDDL": "TAF EDDL 050500Z 0506/0612 27006KT 9999 BKN035 BECMG 0507/0510 30011KT PROB30 TEMPO 0513/0516 30015G25KT SHRA BKN030TCU BECMG 0518/0521 30006KT BECMG 0522/0601 21007KT BECMG 0608/0611 27014KT PROB30 TEMPO 0610/0612 27015G25KT",
    "EDDK": "TAF EDDK 050500Z 0506/0612 29006KT 9999 BKN025 BECMG 0507/0510 30011KT PROB40 TEMPO 0511/0516 30015G25KT SHRA BKN030CB BECMG 0519/0522 28006KT BECMG 0600/0603 17004KT BECMG 0606/0608 24007KT BECMG 0609/0612 28012KT",
    "EBLG": "TAF EBLG 050500Z 0506/0612 29007KT 9999 FEW015 BKN040 BECMG 0604/0606 23010KT",
    "LSZH": "TAF LSZH 050525Z 0506/0612 VRB02KT CAVOK TX30/0515Z TN18/0506Z TN16/0604Z BECMG 0509/0512 29010KT PROB40 TEMPO 0512/0516 32015G25KT PROB40 TEMPO 0514/0518 9999 FEW080TCU BECMG 0516/0519 33004KT",
    "LIMC": "TAF LIMC 050500Z 0506/0612 VRB06KT CAVOK BECMG 0519/0521 01010KT BECMG 0604/0606 VRB06KT",
    "LIRF": "TAF LIRF 050500Z 0506/0612 03008KT CAVOK BECMG 0508/0510 25010KT BECMG 0518/0520 VRB05KT PROB30 TEMPO 0600/0605 1200 BCFG BECMG 0609/0611 25010KT",
    "EINN": "TAF AMD EINN 050734Z 0507/0606 26010KT 3500 -DZ BR BKN004 BECMG 0507/0509 9999 NSW BKN015 TEMPO 0600/0606 BKN010",
    "EGLL": "TAF EGLL 050503Z 0506/0612 27012KT 9999 FEW010 TEMPO 0506/0508 BKN009 PROB30 TEMPO 0604/0608 FEW005 BKN008",
    "EGSS": "TAF EGSS 050455Z 0506/0612 28008KT 9999 FEW035 PROB30 TEMPO 0506/0508 BKN009",
    "EPWA": "TAF EPWA 050530Z 0506/0606 27010KT CAVOK TEMPO 0508/0517 27016G30KT PROB40 TEMPO 0509/0517 SHRA BKN020CB PROB30 TEMPO 0511/0517 3000 TSRA BKN014CB",
    "UHPP": "TAF UHPP 050435Z 0506/0612 16003G12MPS 9999 BKN025CB TEMPO 0506/0512 22005MPS 1000 BR VV005 TEMPO 0512/0522 0700 FG VV002",
    "EFHK": "TAF AMD EFHK 050650Z 0506/0606 36007KT 9999 -SHRA BKN004 FEW020CB TEMPO 0506/0508 4500 SHRA BECMG 0507/0509 SCT025CB TEMPO 0508/0521 4500 TSRA TEMPO 0521/0606 5000 SHRA BKN008",
    "LBBG": "TAF LBBG 050500Z 0506/0606 35010KT 9999 SCT045 BECMG 0508/0510 12012KT PROB30 TEMPO 0511/0515 5000 SHRA FEW030CB SCT040 BECMG 0519/0520 VRB04KT",
    "LTAC": "TAF LTAC 050440Z 0506/0606 03015KT 9999 SCT040 PROB30 TEMPO 0512/0516 -TSRA FEW025CB BKN030 BECMG 0522/0524 VRB02KT",
    "UBBB": "TAF UBBB 050505Z 0506/0606 24005KT 9999 FEW060CB TX32/0510Z TN22/0601Z BECMG 0508/0510 33006KT TEMPO 0510/0516 35012KT SCT040 SCT050CB PROB40 TEMPO 0510/0514 -TSRA SCT040CB",
    "UTAA": "TAF UTAA 050445Z 0506/0606 34016KT 6000 SCT050 TEMPO 0510/0514 04014G24KT 4000 DRDU BECMG 0514/0516 27014KT TEMPO 0518/0603 21010KT",
    "UACC": "TAF UACC 050505Z 0506/0606 30005MPS 9999 SCT030CB BKN100 TX26/0510Z TN15/0524Z TEMPO 0506/0517 VRB18MPS 3100 -TSRA SQ BKN020CB BECMG 0518/0520 VRB01MPS SCT030 BKN100 TEMPO 0518/0602 3100 BR SCT011 BKN020 TEMPO 0602/0606 04005MPS 3100 -SHRA BKN020CB",
    "UAAA": "TAF UAAA 050502Z 0506/0606 02003MPS 9999 FEW050CB SCT100 TX30/0510Z TN15/0523Z TEMPO 0506/0515 08005G10MPS TEMPO 0515/0524 5000 BR BECMG 0602/0603 34005MPS",
    "UZTT": "TAF UZTT 050500Z 0506/0606 23010KT 7000 NSC TX35/0510Z TN20/0600Z TEMPO 0506/0512 32012G22KT FEW060CB",
    "ZWWW": "TAF ZWWW 050303Z 0506/0612 33004G11MPS CAVOK TX32/0509Z TX34/0609Z TN26/0523Z TEMPO 0518/0522 9999 -SHRA FEW040CB BKN040 BECMG 0602/0603 01004MPS",
    "ZLXY": "TAF ZLXY 050303Z 0506/0606 20003MPS 6000 NSC TX38/0508Z TN24/0521Z",
    "ZBAA": "TAF ZBAA 050302Z 0506/0612 19003MPS CAVOK TX34/0506Z TX34/0606Z TN21/0521Z TEMPO 0511/0514 -TSRA FEW040CB BKN040 BECMG 0610/0611 FEW040CB BKN040",
    "ZBHH": "TAF ZBHH 050305Z 0506/0606 36004MPS 9999 FEW040 TX27/0508Z TN14/0522Z BECMG 0506/0507 VRB08G13MPS -TSRA FEW040CB SCT040 BECMG 0508/0509 36004MPS NSW NSC",
    "ZSQD": "TAF ZSQD 050303Z 0506/0606 21004MPS 5000 BR NSC TX35/0506Z TN24/0520Z TEMPO 0506/0509 -TSRA BKN020 FEW030CB TEMPO 0518/0522 2800 +TSRA BKN020 SCT030CB",
    "ZMCK": "TAF ZMCK 050439Z 0506/0612 34008MPS 9999 FEW030CB SCT033 TX24/0507Z TN10/0521Z BECMG 0511/0513 VRB02MPS BECMG 0602/0604 33005MPS",
    "UUEE": "TAF UUEE 050456Z 0506/0606 27003G08MPS 9000 BKN016 TX20/0512Z TN14/0601Z TEMPO 0509/0518 24010G15MPS 4900 -TSRA BKN006 BKN020CB TEMPO 0521/0604 BKN004",
    "UUDD": "TAF UUDD 050452Z 0506/0612 27003MPS 9999 BKN020 TX23/0610Z TN15/0601Z PROB40 TEMPO 0508/0515 -TSRA BKN016CB BECMG 0515/0517 21005MPS TEMPO 0606/0612 21008G15MPS -TSRA BKN016CB",
    "ULLI": "TAF ULLI 050453Z 0506/0606 07003MPS 6000 BKN016 TEMPO 0506/0515 12006G13MPS 3100 -TSRA BKN010 BKN016CB TEMPO 0521/0605 1500 BR BKN004 BECMG 0603/0605 24003G08MPS",
    "USSS": "TAF USSS 050457Z 0506/0606 26003G13MPS 9999 SCT033CB TEMPO 0508/0516 -TSRAGR FM051700 16003MPS 6000 SCT020 FM060300 18003G08MPS CAVOK",
    "UNNT": "TAF UNNT 050500Z 0506/0606 17005MPS 8000 SCT040 TX30/0509Z TN19/0522Z BECMG 0507/0508 26003G08MPS TEMPO 0508/0606 27008G13MPS -TSRA BKN020CB",
    "UNKL": "TAF UNKL 050445Z 0506/0606 11003G08MPS 6000 SCT016CB TX30/0507Z TN19/0522Z TEMPO 0509/0512 -TSGRRA BECMG 0512/0514 35008G16MPS -TSRA BECMG 0515/0518 34003G08MPS NSW TEMPO 0518/0520 -TSRA",
    "UIBB": "TAF UIBB 050500Z 0506/0606 12003MPS 9999 SCT050CB TEMPO 0506/0512 VRB08MPS",
    "UEEE": "TAF UEEE 050500Z 0506/0612 32006G12MPS 9999 SCT030CB TX27/0508Z TN13/0518Z",
    "UHHH": "TAF UHHH 050449Z 0506/0612 04005MPS 9999 SCT011 BKN020CB TX22/0605Z TN15/0517Z TEMPO 0506/0510 VRB10MPS 5000 -TSRA TEMPO 0510/0524 5000 -SHRA BKN003 BKN017CB",
    "UHSS": "TAF UHSS 050445Z 0506/0612 21003MPS 9999 FEW040 TEMPO 0509/0612 BKN020CB"
  },
  "atis": {
    "RJAA": "[Arrival ATIS] RJAA ARR ATIS M 2246Z M2230 (APCH)ILS Y RWY16L LDG RWY 16L DEP RWY 16R DEP FREQ 124.2. TWY A1 CLSD. M 182230Z VRB01KT 25KM FEW010CU 22/20 Q1011/A2987= Q/TWO NINE EIGHT SEVEN STP\n[Departure ATIS] RJAA DEP ATIS Z 1224Z M1200 (APCH)ILS Z RWY34R LDG RWY 34R DEP RWY 34L DEP FREQ 124.2. TWY A1 CLSD. OBSERVE GEAR DOWN OPS PROC ON FNL. M 181200Z 04006KT 2400M -SHRA BR BKN002ST 20/19 Q1010/A2983= Q/TWO NINE EIGHT THREE STP",
    "PANC": "[Arrival ATIS] PANC ARR ATIS R 0753Z ANC ATIS INFO R 0753Z. 13010G20KT 10SM SCT040 BKN050 OVC080 13/07 A2993 (TWO NINER NINER THREE) RMK AO2 SLP135 T01280067. ILS RWY 15 APPROACHES IN USE. LANDING RWY 15, DEPARTING RWY 25L. NOTICE TO AIRMEN. TWY Q CLSD. TWY R CLSD BTWN TWY, S AND TWY U . TWY E CLSD BTWN TWY, L AND TWY M . RWY 15 PAPI OTS. TWY K BTWN A AND D RESTRICTED TO AIRCRAFT WITH WINGSPAN LESS THAN 118 FEET. HAZD WX INFO FOR ANC AREA AVBL FM FSS. CONTACT TOWER 118.3 FOR TAXI. ...ADVS YOU HAVE INFO R.\n[Departure ATIS] PANC DEP ATIS S 1753Z ANC ATIS INFO S 1753Z. 32003KT 10SM CLR 13/07 A3038 (THREE ZERO THREE EIGHT) RMK AO2 SLP290 T01330072 10133 20072 58001. 7R APPROACHES IN USE. LANDING RWY 7R, DEPARTING RWY 33. NOTICE TO AIRMEN. RWY 7L CLSD. CHECK NOTAMS FOR TAXIWAY CLOSURES. ...ADVS YOU HAVE INFO S.",
    "KSEA": "[Arrival ATIS] KSEA ARR ATIS I 2153Z SEA ATIS INFO I 2153Z. 33010G17KT 10SM FEW060 FEW210 25/08 A3000 (THREE ZERO ZERO ZERO). ILS AND CHARTED VISUAL APPROACH RWYS 34L AND 34R , APCH IN USE. DEPG RWY 34R. SIMUL ARRIVALS TO RWY 34L AND DEPARTURES TO RWY 34R ARE IN USE. SIMUL APCHS IN USE TO PARA RYS. NOTAMS... ILS RWY 34C OTS. BIRD ACTIVITY VICINITY ARPT. STADIUM TFR IN EFFECT CHECK FDC NOTAMS FOR MORE INFO. ...ADVS YOU HAVE INFO I.\n[Departure ATIS] KSEA DEP ATIS B 1553Z SEA ATIS INFO B 1553Z. 35009KT 10SM FEW250 18/09 A3007 (THREE ZERO ZERO SEVEN). ILS AND CHARTED VISUAL APPROACH RWYS 34L AND 34R , APCH IN USE. DEPG RWY 34R. SIMUL ARRIVALS TO RWY 34L AND DEPARTURES TO RWY 34R ARE IN USE. SIMUL APCHS IN USE TO PARA RYS. NOTAMS... ILS RWY 34C OTS. BIRD ACTIVITY VICINITY ARPT. ...ADVS YOU HAVE INFO B.",
    "ZSPD": "[Arrival ATIS] ZSPD ARR ATIS U 2230Z EXP ILS APCH INDEPENDENT PARL INSTR APCH LDG RWY 17R & 16L WIND RWY 17R TDZ 160/2MPS MID 140/2MPS END 130/2MPS RWY 16L TDZ 150/2MPS MID 140/2MPS END 140/2MPS VIS RWY 17R TDZ 2800M MID 3400M END 9000M VIS RWY 16L TDZ 450M MID 550M END 1000M RVR RWY 17R TDZ ABV 2000M MID ABV 2000M END ABV 2000M RVR RWY 16L TDZ 550M MID 700M END 1300M PRFG BR CLD BKN 60M T 24 /DP 24 QNH 1005 HPA CAUTION THE BIRDS NEAR THE RUNWAY RWY 17L/17R/16L/16R RWYCC 5/5/5 ISSUED AT 2100 WET/WET/WET DPT NR/NR/NR COV 100PCT/100PCT/100PCT. ADZ YOU HAVE INFO U.\n[Departure ATIS] ZSPD DEP ATIS P 2130Z DEP RWY 17L WIND RWY 17L TDZ 130/3MPS MID 110/2MPS END 100/3MPS MAX8 MNM1 VRB BTN 070/ AND 130/ VIS RWY 17L TDZ 1300M MID 1200M END 900M RVR RWY 17L TDZ 1800M MID 1600M END 1100M PRFG BR CLD BKN 60M T 24 /DP 24 QNH 1005 HPA DELIVERY FREQ 118.4 CAUTION THE BIRDS NEAR THE RUNWAY RWY 17L/17R/16L/16R RWYCC 5/5/5 ISSUED AT 2100 WET/WET/WET DPT NR/NR/NR COV 100PCT/100PCT/100PCT. ADZ YOU HAVE INFO P.",
    "ZSSS": "[Arrival ATIS] ZSSS ARR ATIS Y 0630Z EXP ILS APCH LDG RWY 18L WIND RWY 18L TDZ 210/5MPS MID 220/5MPS END 230/6MPS VIS RWY 18L TDZ 10000M MID 10000M END 10000M FBL SHRA CLD FEW 990M T 29 /DP 25 QNH 1005 HPA R\n[Departure ATIS] ZSSS DEP ATIS V 1830Z DEP RWY 18R WIND RWY 18R TDZ 080/2MPS MID 090/3MPS END 090/2MPS VIS RWY 18R TDZ 6000M MID 6000M END 6000M CLD BKN 240M T 25 /DP 23 QNH 1005 HPA RWY18L RWYCC 5/5/5 ISSUED AT 1148 WET/WET/WET DPT NR/NR/NR COV 100PCT/100PCT/100PCT RWY18R RWYCC 5/5/5 ISSUED AT 1210 WET/WET/WET DPT NR/NR/NR COV 100PCT/100PCT/100PCT QNH OF SHANGHAI TERMINAL CONTROL AREA 1005 HPA ADZ YOU HAVE INFO V.",
    "VHHH": "[Arrival ATIS] VHHH ARR ATIS I 2239Z ARRIVALS, RWY 25C. EXP ILS APCH, RWY 25C. CAUTION POSSIBLE GP FLUCTUATION RWY 25C. EXP RWY 25L AFTER 2300Z. SIG WS REP. WIND 200/16KT. VIS 10KM. FBL SHRA. CLD FEW 800FT SCT 2000FT. T30 DP25. QNH 1008HPA. ACK INFO I ON FIRST CTC WITH APP.\n[Departure ATIS] VHHH DEP ATIS N 2241Z DEPARTURES, RWY 25C/L. INDEPENDENT PARALLEL DEPARTURE IN PROGRESS. SIG WS FCST. WIND RWY 25C 200/15KT RWY 25L 190/18KT. VIS RWY 25C 10KM RWY 25L 10KM. FBL SHRA. CLD FEW 800FT SCT 2000FT. T30 DP25. QNH 1008HPA. ACK INFO N ON FIRST CTC WITH DELIVERY .",
    "RCTP": "[Arrival ATIS] RCTP ARR ATIS E 1100Z EXP ILS APCH RWY05L AND RWY05R ARR/DEP. WIND 090/06KT VARYING BTN 050 AND 120 VIS 10 KM OR MORE CLD FEW 1500FT BKN 2400FT BKN 4000FT T 28 DP 25 QNH 1008HPA NOSIG DUE TO FLOW CONTROL BY MANILA F-I-R, TRAFFIC CONCERNED MAY BE DELAYED. INFORM TAIPEI APCH OR TAIPEI TOWER ON INITIAL CONTACT YOU HAVE INFORMATION E\n[Departure ATIS] RCTP DEP ATIS U 1730Z EXP ILS APCH RWY23L ARR/DEP. RWY23R CLSD BTN 1700Z AND 2230Z FOR INSPECTION. WIND 160/06KT VIS 10 KM OR MORE CLD FEW 1500FT SCT 18000FT T 27 DP 25 QNH 1010HPA NOSIG INFORM TAIPEI APCH OR TAIPEI TOWER ON INITIAL CONTACT YOU HAVE INFORMATION U",
    "ZGSZ": "[Arrival ATIS] ZGSZ ARR ATIS N 2211Z EXP ILS APCH 15 EXP ILS OR VIS APCH 16L WIND 170/8MPS VIS 9999M -SHRA CLD SCT 990M T 28 /DP 26 QNH 1008 HPA INDEPENDENT PARALLEL DEPARTURES DEPENDENT PARALLEL APPROACHES V17,V18 AVAILABLE AFTER SULAS FLY HEADING 040 MISSED APPROACH ALTITUDE SETTING 1200METERS WHEN AIRBORNE CONTACT ZHUHAI APPROACH EXPECTED RNP ILS DME Z APPROACH RWY 15 16L 16R RWYCC 5/5/5 ISSUED AT 2200UTC WET/WET/WET DPT NR/NR/NR COV 100PCT/100PCT/100PCT ADZ YOU HAVE INFO N.\n[Departure ATIS] ZGSZ DEP ATIS N 2211Z DEP RWY 15 & 16L WIND 170/8MPS VIS 9999M -SHRA CLD SCT 990M T 28 /DP 26 QNH 1008 HPA DELIVERY FREQ 121.65 INDEPENDENT PARALLEL DEPARTURES DEPENDENT PARALLEL APPROACHES V17,V18 AVAILABLE AFTER SULAS FLY HEADING 040 MISSED APPROACH ALTITUDE SETTING 1200METERS WHEN AIRBORNE CONTACT ZHUHAI APPROACH EXPECTED RNP ILS DME Z APPROACH RWY 15 16L 16R RWYCC 5/5/5 ISSUED AT 2200UTC WET/WET/WET DPT NR/NR/NR COV 100PCT/100PCT/100PCT ADZ YOU HAVE INFO N.",
    "WSSS": "[Arrival ATIS] WSSS ARR ATIS W 2230Z METREPORT 2230Z ILS APCHRWY 20R TWY W 9 CLOSED, RWY 02C 20C RAPID EXIT TAXIWAY INDICATOR LIGHTS OFFFOLLOW THE GREENS TRIAL IN PROGRESS. WHEN VACATING THE RWY, PILOTS TO ADHERE TO ATC VERBAL INSTRUCTIONS. WHEN ON TWY, PILOT TO ADHERE TO FOLLOW THE GREENS INSTRUCTIONS. WHEN APPROACHING [A] JUNCTION, KEEP [A] LOOKOUT FOR CONTINUOUS GREENS. [IF] [A] BREAK IN THE GREENS IS OBSERVED, STOP AND CLARIFY WITH ATC. WIND 150/ 03KT VRB BTN100 AND180 VIS 10KM CLD FEW 1600FT T27 DP25 QNH 1010HPA NOSIG ACK ATIS W\n[Departure ATIS] WSSS DEP ATIS K 1800Z METREPORT 1800Z RWY 20C TWY W 9 CLOSED, RWY 02C 20C RAPID EXIT TAXIWAY INDICATOR LIGHTS OFFFOLLOW THE GREENS TRIAL IN PROGRESS. WHEN VACATING THE RWY, PILOTS TO ADHERE TO ATC VERBAL INSTRUCTIONS. WHEN ON TWY, PILOT TO ADHERE TO FOLLOW THE GREENS INSTRUCTIONS. WHEN APPROACHING [A] JUNCTION, KEEP [A] LOOKOUT FOR CONTINUOUS GREENS. [IF] [A] BREAK IN THE GREENS IS OBSERVED, STOP AND CLARIFY WITH ATC. WIND 180/ 06KT VIS 10KM CLD FEW 1400FT T28 DP25 QNH 1010HPA NOSIG DEP,INITIAL CMB 3000FT ACK ATIS K",
    "WMKK": "[Arrival ATIS] WMKK ARR ATIS D 2204Z WMKK ARR INFO D. TIME 2200. INDEPENDENT PARALLEL APPROACHES FOR RWY 14 L AND 15 ARE IN PROGRESS. EXP RNAV / ILS APCH FOR RWY 14 LEFT. EXP RNAV / ILS APCH FOR RWY 15. WIND RWY 14L DIRECTION NOT AVBL SPEED NOT AVBL. WIND RWY 15 DIRECTION NOT AVBL SPEED NOT AVBL. VIS RWY 14L TDZ NOT AVBL. VIS RWY 15 TDZ NOT AVBL. CLD FEW CB 1700 FT. T 25. DP 24. QNH 1008. NOSIG. AT FIRST CONTACT WITH LUMPUR RADAR, NOTIFY RCPT OF D\n[Departure ATIS] WMKK DEP ATIS Q 1934Z WMKK DEP INFO Q. TIME 1930. INDEPENDENT PARALLEL DEPARTURES FOR RWY 14 R AND 15 ARE IN PROGRESS. RWY 14 RIGHT. RWY 15. WIND RWY 14R DIRECTION NOT AVBL SPEED NOT AVBL. WIND RWY 15 DIRECTION NOT AVBL SPEED NOT AVBL. VIS RWY 14R TDZ NOT AVBL. VIS RWY 15 TDZ NOT AVBL. CLD FEW 3000 FT. T 26. DP 25. QNH 1009. NOSIG. ALL DEP ACFT TO CONTACT LUMPUR DEP AT 135 DECIMAL 25 MHZ WHEN ABN. AT FIRST CONTACT WITH LUMPUR GROUND, NOTIFY RCPT OF Q",
    "VTBS": "[Arrival ATIS] VTBS ARR ATIS Q 2230Z VTBS ARR ATIS Q 2232Z EXP ILS Z APCH ARR RWY 20L RWY 19 CLSD DUE TO WIP 06181555 20L 6/6/6 NR/NR/NR NR/NR/NR DRY/DRY/DRY , ,RETIL RWY 20L U/S 2230Z WIND 120/3KT VRB BTN 050/ AND 170/ VIS 10KM RVR RWY 20L ABV 2000M CLD FEW 2000FT T28 DP27 QNH 1008HPA TREND NOSIG ADZ BKK APCH ON INITIAL CONTACT THAT YOU HAVE INFO Q\n[Departure ATIS] VTBS DEP ATIS W 2000Z VTBS DEP ATIS W 2004Z DEP RWY 20L RWY 19 CLSD DUE TO WIP 06181555 20L 6/6/6 NR/NR/NR NR/NR/NR DRY/DRY/DRY , ,AFT AIRBORNE ALL DEPARTING ACFT SHALL CTC 119.25 2000Z WIND CALM VIS 10KM RVR RWY 20L ABV 2000M CLD FEW 2000FT T27 DP25 QNH 1009HPA TREND NOSIG ADZ GND WHEN INITIAL CONTACT YOU HAVE INFO W",
    "VTBU": "[Arrival ATIS] VTBU ARR ATIS E 1000Z VTBU ARR ATIS E 1005Z RNP RWY 18 TRL FL130 1000Z WIND 170/9KT VIS 10KM CLD FEW CB 1800FT T30 DP28 QNH 1009HPA TS IN APCH TREND BECMG TL1045 NSW ADZ CONTROLLER WHEN INITIAL CONTACT YOU HAVE INFO E\n[Departure ATIS] VTBU DEP ATIS D VTBU ARR/DEP DATIS RPT VTBU ARR ATIS D 0330Z ILS \"Z\" APCH RWY 18 TRL FL130 0330Z WIND 110/4KT VRB BTN 350/ AND 120/ VIS 6KM CLD FEW 2000FT T31 DP27 QNH 1014HPA TREND NOSIG ADZ CONTROLLER WHEN INITIAL CONTACT YOU HAVE INFO D",
    "ROAH": "[Arrival ATIS] ROAH ARR ATIS S 1952Z S1948 (APCH)RNP RWY18R USING RWY 18R DEP FREQ 126.5 258.3 RWY18L/36R CLSD S 181948Z AUTO 20006KT 4500M BR FEW001// SCT003// BKN013// 26/26 Q1013/A2992= Q/TWO NINE NINE TWO STP\n[Departure ATIS] ROAH DEP ATIS D 0104Z M0100 (APCH)RNP RWY18R LDG RWY 18R DEP RWY 18L DEP FREQ 126.5 258.3 M 050100Z 21005KT 60KM FEW015CU 30/27 Q1013/A2993= Q/TWO NINE NINE THREE STP",
    "VVDN": "[Arrival ATIS] VVDN ARR ATIS V 0732Z VVDN INFO V 0732Z. ILS VICTOR APPROACH 35L.. DPTG RWY 35R.. 0732Z. WIND 240/08KT CAVOK T33 DP22 QNH 1006HPA TREND NOSIG. ADZ ON INITIAL CTC YOU HAVE INFO. V.\n[Departure ATIS] VVDN DEP ATIS Q 1502Z VVDN INFO Q 1502Z. ILS VICTOR APPROACH 35L.. DPTG RWY 35R.. 1502Z. WIND 260/02KT CAVOK T28 DP23 QNH 1008HPA TREND NOSIG. ADZ ON INITIAL CTC YOU HAVE INFO. Q.",
    "RCKH": "[Arrival ATIS] RCKH ARR ATIS Y 0600Z EXPECT ILS APPROACH RWY 27 ARR/DEP TAXIWAY JULIETT, TAXIWAY BRAVO, TAXIWAY DELTA AND TAXIWAY ECHO CLOSED DUE MAINTENANCE. RUNWAY 27 ARRIVALS PLAN VACATE VIA CHARLIE OR\n[Departure ATIS] RCKH DEP ATIS U 0400Z EXPECT ILS APPROACH RWY 27 ARR/DEP TAXIWAY JULIETT, TAXIWAY BRAVO, TAXIWAY DELTA AND TAXIWAY ECHO CLOSED DUE MAINTENANCE. RUNWAY 27 ARRIVALS PLAN VACATE VIA CHARLIE OR",
    "KLAX": "[Arrival ATIS] KLAX ARR ATIS T 2153Z - KLAX ATIS INFO T 2153Z. 25011KT 10SM FEW010 21/14 A2998 (TWO NINER NINER EIGHT) RMK AO2 SLP149 T02110144. INST APCHS AND RNAV RNP APCHS RY 24R AND 25L, OR VCTR FOR VISUAL APCH WILL BE PROVIDED, SIMUL VISUAL APCHS TO ALL RWYS ARE IN PROG. CTC L A GC ON 121.75 FOR PUSH OR TAXI ON A. TWY C CLSD BTN TWY, C8 AND TWY C9 , , TWY B CLSD BTN TWY, F AND TWY B1, TWY B1 CLSD. ILS RY 25R OTS, RY 25R SFL OTS, RY 24L ALSF-2 OTS. LAX VOR UNMONITORED. IF ASSIGNED RUNWAY 25R FOR DEPARTURE, EXPECT DEPARTURE FROM INTERSECTION FOXTROT. TAXILANE CHARLIE EIGHT RESTRICTED TO AIRCRAFT WITH A WINGSPAN LESS THAN ONE HUNDRED EIGHTEEN FEET. USE CAUTION FOR INCREASED DRONE ACTIVIY IN THE VICINITY OF SOFI STADIUM AT OR BELOW 200FT AGL DURING THE WORLD CUP FROM 06/12/26 THROUGH 07/10/2026. HAZD WX INFO FOR LAX AREA AVBL FM FSS. BIRD ACTIVITY VICINITY ARPT. INCLUDE YOUR CALL SIGN IN ALL READBACKS. USE CAUTION WHEN EXITING RY24R AT TWY V, W, AND Y, TO HOLD SHORT OF RY24L. MULTIPLE RUNWAY INCURSIONS HAVE OCCURRED. ...ADVS YOU HAVE INFO T.\n[Departure ATIS] KLAX DEP ATIS X 2053Z - KLAX ATIS INFO X 2053Z. 25008KT 10SM FEW140 SCT190 BKN240 23/16 A3001 (THREE ZERO ZERO ONE) RMK AO2 SLP162 T02330156 58007. INST APCHS AND RNAV RNP APCHS RY 24R AND 25L, OR VCTR FOR VISUAL APCH WILL BE PROVIDED, SIMUL VISUAL APCHS TO ALL RWYS ARE IN PROG, SIMUL INSTR DEPARTURES IN PROG RWYS 24 AND 25. CTC L A GC ON 121.75 FOR PUSH OR TAXI ON A. TWY B CLSD BTN TWY, C10 AND TWY C7 , , TWY B6 CLSD, TWY B7 CLSD, TWY C CLSD BTN TWY, C1 AND TWY C3, TWY C1 CLSD, TWY C9 CLSD BTN TWY, B AND TWY C, TWY C8 CLSD BTN TWY, B AND TWY C. RY 25R SFL OTS, RY 24L ALSF-2 OTS. LAX VOR UNMONITORED. USE CAUTION FOR INCREASED DRONE ACTIVIY IN THE VICINITY OF SOFI STADIUM AT OR BELOW 200FT AGL DURING THE WORLD CUP FROM JUNE TWELFTH TWENTY TWENTY SIX THROUGH JULY TENTH TWENTY TWENTY SIX. HAZD WX INFO FOR LAX AREA AVBL FM FSS. USE CAUTION FOR HANG GLIDING 1 MILE SOUTH LOS ANGELES VOR. BIRD ACTIVITY VICINITY ARPT. INCLUDE YOUR CALL SIGN IN ALL READBACKS. USE CAUTION WHEN EXITING RY24R AT TWY V, W, AND Y, TO HOLD SHORT OF RY24L. MULTIPLE RUNWAY INCURSIONS HAVE OCCURRED. ...ADVS YOU HAVE INFO X.",
    "KONT": "[Arrival ATIS] KONT ARR ATIS R 2153Z - KONT ATIS INFO R 2153Z. 23007KT 10SM CLR 25/13 A2996 (TWO NINER NINER SIX). ILS AND VIS APR IN USE, RY26L & RY26R. LNDG AND DEPG RY 26L AND RY 26R. NOTAMS... TAXIWAY SIERRA CLSD BETWEEN SIERRA 8 AND W TAXIWAY Q SOUTH OF RWY 26L CLSD TAXIWAY T CLSD TAXIWAY SIERRA 5 CLSD. RY 26L IM OTS. USE CAUTION FOR NUMEROUS BIRDS OBSERVED IN VICINITY OF ONT. UAS IN THE VICINITY ONTARIO AIRPORT AT OR BELOW TWO HUNDRED. PILOTS READBACK RWY ASSIGNMENTS AND HOLD SHORT INSTRUCTIONS. ...ADVS YOU HAVE INFO R.\n[Departure ATIS] KONT DEP ATIS N 0553Z - KONT ATIS INFO N 0553Z. 24004KT 10SM BKN250 22/15 A2988 (TWO NINER EIGHT EIGHT) RMK AO2 SLP100. ILS AND VIS APR IN USE, RY26L & RY26R. LNDG AND DEPG RY 26L AND RY 26R. NOTAMS... TAXIWAY SIERRA CLSD BETWEEN SIERRA 8 AND W TAXIWAY Q SOUTH OF RWY 26L CLSD TAXIWAY T CLSD TAXIWAY SIERRA 5 CLSD. RY 26L IM OTS, RY 26R ALS OTS. USE CAUTION FOR NUMEROUS BIRDS OBSERVED IN VICINITY OF ONT. HAZD WX INFO FOR SOUTHERN CA AVBL ON FSS FREQUENCIES. PILOTS READBACK RWY ASSIGNMENTS AND HOLD SHORT INSTRUCTIONS. ...ADVS YOU HAVE INFO N.",
    "KSFO": "[Arrival ATIS] KSFO ARR ATIS T 2156Z SFO ATIS INFO T 2156Z. 21016KT 10SM FEW011 FEW180 22/13 A2990 (TWO NINER NINER ZERO) RMK AO2 SLP125 T02170128. SIMUL CLSLY SPCD DPNDNT ILS RY 28R AND ILS RY 28L APP IN USE. DEPG RWYS 28L, 28R. RY 1L, 1R CLSD. NUMEROUS TWY CLOSURES FOR CONSTRUCTION ON THE FIELD, PILOTS CHECK NOTAMS. DEPG ACFT WAITING ON FINAL NUMBERS ADVISE GROUND PRIOR TO ENTERING TWY F. ...ADVS YOU HAVE INFO T.\n[Departure ATIS] KSFO DEP ATIS R 1456Z SFO ATIS INFO R 1456Z. 30006KT 10SM FEW006 OVC011 14/11 A3002 (THREE ZERO ZERO TWO). SIMUL CLSLY SPCD DPNDNT ILS RY 28R AND ILS RY 28L APP IN USE. DEPG RWYS 28L, 28R. GATE",
    "KOAK": "[Arrival ATIS] KOAK ARR ATIS Z 1953Z OAK ATIS INFO Z 1953Z. 27012G18KT 10SM FEW005 FEW010 BKN200 19/13 A3002 (THREE ZERO ZERO TWO). RNAV, AND VA, RWY 30. ILS, AND VA, RWY 28R. FLOW TO LAX, SAN, SEA. ILS RWY 30, OTS, RWY 28R RAIL, OTS. UNN LIT CLOSE-IN OBSTACLES FOR RWY 30 DEPARTURES. RWY 30 DEPARTURES ARE ADVISED TO AVOID TURNING LEFT PRIOR TO DEPARTURE END OF RUNWAY. CTN, CRANE 1 POINT 6 NAUTICAL MILES, , AT 140 FEET AGL. CAUTION, BIRDS NEAR AIRPORT. ...ADVS YOU HAVE INFO Z.\n[Departure ATIS] KOAK DEP ATIS O 1953Z OAK ATIS INFO O 1953Z. 28014KT 10SM FEW005 22/14 A2988 (TWO NINER EIGHT EIGHT). RNAV Z/VA RWY 30 ILS/VA RWY 28R. FLOW TO LAX, LAS, SAN. ILS RWY 30, OTS. UNN LIT CLOSE-IN OBSTACLES FOR RWY 30 DEPARTURES. RWY 30 DEPARTURES ARE ADVISED TO AVOID TURNING LEFT PRIOR TO DEPARTURE END OF RUNWAY. SIGNATURE UNI-COM OUT OF SERVICE. CAUTION, BIRDS NEAR AIRPORT. ...ADVS YOU HAVE INFO O.",
    "KDFW": "[Arrival ATIS] KDFW ARR ATIS A 0553Z DFW ARR INFO A 0553Z. 17006KT 10SM FEW100 OVC250 31/20 A2998 (TWO NINER NINER EIGHT) RMK AO2 SLP140 OCNL LTGIC DSNT NE CB DSNT NE MOV SE T03060200 10361 20300 403720272 52017. SIMUL VISUAL APCH TO RWYS, 18R, 17C. LDG RWY 17C EXP LAHSO TWY B 10460 FT AVAIL, LDG RWY 18R EXP LAHSO TWY B 10100 FT AVL. NOTICE TO AIRMEN. RWY 13L CLSD. RWY 13R CLSD. RWY 17L CLSD. WARNING, RWY 18L HAS BEEN SHORTENED, 9273 FT AVAILABLE. RWY 18L ILS OTS, CL OTS. BIRD ACTIVITY VCNTY ARPT. ...ADVS YOU HAVE INFO A.\n[Departure ATIS] KDFW DEP ATIS W 1553Z - KDFW DEP INFO W 1553Z. 21022G32KT 10SM FEW025 FEW180 SCT250 31/21 A2994 (TWO NINER NINER FOUR) RMK AO2 PK WND 20032/1547 SLP128 T03110206. SIMUL PARL TRAFFIC DEPG RWYS 17R, 18L. NOTICE TO AIRMEN. WARNING, RWY 18L HAS BEEN SHORTENED, 9273 FT AVAILABLE. RWY 18L CL OTS. BIRD ACTIVITY VCNTY ARPT. ...ADVS YOU HAVE INFO W.",
    "KIAH": "[Arrival ATIS] KIAH ARR ATIS B 2053Z IAH ATIS INFO B 2053Z. 15009KT 10SM SCT045 35/26 A2970 (TWO NINER SEVEN ZERO). ARRIVALS EXPECT ILS OR RNAV Y RY 26R, ILS OR RNAV Y RY 26L, ILS OR RNAV Y RY 27. SIMUL APPROACHES IN USE. DEPG RY 15L, RY 15R. NOTICE TO AIRMEN. UNITED RAMP CONTROL IN EFFECT. BIRD ACTIVITY VICINITY ARPT. TWY SA CLSD BTN TWY, SG AND TWY SK , TWY SB CLSD BTN TWY, SG AND TWY SK , , TWY NR CLSD BTN TWY, NB AND TWY WW . TWY NC CLSD BTN TWY, NE AND TWY NR . TWY SG CLSD, TWY EA CLSD, USE CAUTION FOR STEEL PLATE ON TWY SF. NOTAM ATIS IN USE ON FREQUENCY 126.225. ...ADVS YOU HAVE INFO B.\n[Departure ATIS] KIAH DEP ATIS D 0453Z IAH ATIS INFO D 0453Z. 19003KT 10SM CLR 25/24 A2963 (TWO NINER SIX THREE). ARRIVALS EXPECT ILS OR RNAV Y RY 26L. DEPG RY 15L. NOTICE TO AIRMEN. UAL RAMP PROCEDURES TERMINATED PUSH BACK AT PILOTS DISCRETION. RY 26R, 8L CLSD. BIRD ACTIVITY VICINITY ARPT. TWY SA CLSD BTN TWY, SG AND TWY SK , TWY SB CLSD BTN TWY, SG AND TWY SK , , TWY SF CLSD BTN TWY, NB AND TWY RB . TWY SG CLSD, TWY EA CLSD. NOTAM ATIS IN USE ON FREQUENCY 126.225. ...ADVS YOU HAVE INFO D.",
    "KORD": "[Arrival ATIS] KORD ARR ATIS V 0451Z ORD ATIS INFO V 0451Z. 09005KT 4SM BR SCT005 BKN023 BKN250 20/19 A2994 (TWO NINER NINER FOUR) RMK AO2 SLP134 T02000189. ARR EXP VECTORS ILS RWY 10C APCH. DEPS EXP RWYS 10L FROM DD. 10,093 FT AVBL. RWY 4L, 22R CLSD, RWY 4R, 22L CLSD, RWY 9L, 27R CLSD, RWY 9R, 27L CLSD, RWY 10R, 28L CLSD. RWY 22R LOC OTS, RWY 28L GS OTS, RWY 9L IM OTS, RWY 9C IM OTS, RWY 10L IM OTS, RWY 10R IM OTS, RWY 27R IM OTS, RWY 28L IM OTS, RWY 28R IM OTS, RWY 9L PAPI OTS, RWY 27R PAPI OTS. ALL RWYS, COND CODE, 5, 5, 5 AT 2158Z . PILOTS USE CTN FOR BIRD ACTIVITY IN THE VICINITY OF THE ARPT. HAZD WX INFO FOR ORD AREA AVBL ON FSS. USE CTN FOR PERSONNEL AND EQUIP AT NUMEROUS SITES ON THE FIELD. READBACK ALL RWY HOLD SHORT INSTRUCTIONS. FOR CD GND METERING AND GC CONTACT ORD ON FREQ 121.9. ...ADVS YOU HAVE INFO V.\n[Departure ATIS] KORD DEP ATIS S 0351Z ORD ATIS INFO S 0351Z. 05009KT 2 1/2SM FU BR OVC004 20/19 A2994 (TWO NINER NINER FOUR) RMK AO2 SLP133 T02000189. ARR EXP VECTORS ILS RWY 10C APCH. DEPS EXP RWYS 9C FROM F F",
    "KJFK": "[Arrival ATIS] KJFK ARR ATIS I 1051Z JFK ATIS INFO I 1051Z. 00000KT 10SM FEW020 SCT045 BKN080 BKN250 22/18 A2998 (TWO NINER NINER EIGHT). APPROACH IN USE ILS RY 22L, ILS RY 22R. DEPG RY 22R. CRI OTS. RWY 22L/4R INNER MARKER OTS. NUM CRANES OPERATING AT JFK. BIRD ACTIVITY VICINITY ARPT. READBACK ALL RWY ASSIGNMENTS AND HOLD SHORT INSTRUCTIONS. ...ADVS YOU HAVE INFO I.\n[Departure ATIS] KJFK DEP ATIS N 1951Z JFK ATIS INFO N 1951Z. 21014KT 10SM SCT070 34/22 A2992 (TWO NINER NINER TWO) RMK AO2 SLP131 T03440217. APPROACH IN USE ILS RY 22L, ILS RY 22R. DEPG RY 22R. CRI OTS. RWY 22L/4R INNER MARKER OTS. HAZD WX INFO FOR NY METRO AREA AVBL ON FSS. SWAP IN EFFECT EXPECT REROUTES. NUM CRANES OPERATING AT JFK. BIRD ACTIVITY VICINITY ARPT. READBACK ALL RWY ASSIGNMENTS AND HOLD SHORT INSTRUCTIONS. ...ADVS YOU HAVE INFO N.",
    "KIND": "[Arrival ATIS] KIND ARR ATIS B 0007Z IND ATIS INFO B 0007Z SPECIAL. 28014G21KT 3SM TSRA BR BKN032CB BKN040 OVC100 23/22 A2996 (TWO NINER NINER SIX). PARL ILS RWY 23R AND 23L APPROACHES IN USE. CROSS RUNWAY OPER\n[Departure ATIS] KIND DEP ATIS H 1854Z IND ATIS INFO H 1854Z. 26009G19KT 10SM SCT036 BKN041 BKN170 23/16 A2981 (TWO NINER EIGHT ONE) RMK AO2 SLP088 T02280156. PARL ILS RWY 23R AND 23L APPROACHES IN USE. CROSS RU",
    "KDTW": "[Arrival ATIS] KDTW ARR ATIS E 1453Z DTW ARR INFO E 1453Z. 25020G29KT 10SM FEW030 SCT035 OVC060 20/13 A2951 (TWO NINER FIVE ONE) RMK AO2 PK WND 26029/1450 SLP989 T02000133 51023. SIMUL ILS Z RY 22R AND RY 21L APCH IN USE. NOTICE TO AIRMEN. RWY 22L, 4R CLSD, RWY 27R, 9L CLSD. PILOTS USE CTN FOR BIRD ACTIVITY. DEPARTURE ATIS 118.125. WARNING, RUNWAY TWO SEVEN LEFT HAS BEEN SHORTENED, SIX THOUSAND SEVEN HUNDRED EIGHTY-SEVEN FEET AVAILABLE. ...ADVS YOU HAVE INFO E.\n[Departure ATIS] KDTW DEP ATIS Q 2253Z - KDTW DEP INFO Q 2253Z. 21009KT 10SM FEW050 FEW250 33/24 A2991 (TWO NINER NINER ONE). DEPG RWY 21R, RWY 22L ;. NOTICE TO AIRMEN. RWY 27L, 9R CLSD, RWY 27R, 9L CLSD. PILOTS USE CTN FOR BIRD ACTIVITY. ...ADVS YOU HAVE INFO Q.",
    "KMSP": "[Arrival ATIS] KMSP ARR ATIS I 0653Z MSP ARR INFO I 0653Z. 18003KT 8SM SCT250 21/17 A3002 (THREE ZERO ZERO TWO). SIMULTANEOUS DEPENDENT, ILS RWY 12R APCH IN USE, ILS RWY 12L APCH IN USE. NOTICE TO AIRMEN. RWYS 4, 22 CLSD. TWY R7. R8. R9. R10. CLOSED, TWY R BETWEEN R6 AND R10 CLOSED. GS RWY 12L OTS, RWYS 12R, 12L, INNER MARKER OTS.. HAZD WX INFO FOR MSP AREA AVBL FM FSS. CTN, BIRDS NEAR MSP. READ BACK HS AND ALT. ALL ACFT TAXI WITH TRANSPONDER AND ALTITUDE ENCODING ON. ...ADVS YOU HAVE INFO I.\n[Departure ATIS] KMSP DEP ATIS O 0143Z MSP DEP INFO O 0143Z SPECIAL. 09016G21KT 2 1/2SM TSRA BR BKN015 BKN025 OVC044CB 21/18 A3000 (THREE ZERO ZERO ZERO) RMK AO2 PK WND 33036/0054 LTG DSNT SE-SW TS SE-SW MOV SE CB SE-SW MOV SE. DEPARTING RWY 12L, RWY 12R. NOTICE TO AIRMEN. RWYS 4, 22 CLSD. TWY R7. R8. R9. R10. CLOSED, TWY R BETWEEN R6 AND R10 CLOSED. SWAP IN EFCT, INCLUDING CDR. ALL ACFT CTC METERING ON ONE THREE THREE POINT FIVE SEVEN WHEN READY TO PUSHBACK OR TAXI. HAZD WX INFO FOR MSP AREA AVBL FM FSS. CTN, BIRDS NEAR MSP. READ BACK HS AND ALT. ALL ACFT TAXI WITH TRANSPONDER AND ALTITUDE ENCODING ON. ...ADVS YOU HAVE INFO O.",
    "CYEG": "[Arrival ATIS] CYEG ARR ATIS B 0700Z 26004KT 20SM SCT093 CIG BKN120 12/10 A2993 APCH RNAV Z OR Y RWY 20, INFORM ARRL OF REQ APCH ON INITIAL CTC. LDG AND DEP RWY 20. SIMUL APPROACHES MAY BE IN EFCT. INFORM CYEG ATC INFO B\n[Departure ATIS] CYEG DEP ATIS Y 0400Z CYEG ARR ATIS Y 0400Z 29006KT 20SM SCT110 CIG BKN140 BKN180 14/11 A2992 APCH RNAV Z OR Y RWY 20, INFORM ARRL OF REQ APCH ON INITIAL CTC. LDG AND DEP RWY 20. SIMUL APPROACHES MAY BE IN EFCT. INFORM CYEG ATC INFO Y",
    "EHAM": "[Arrival ATIS] EHAM ARR ATIS D 0750Z EHAM ARRIVAL INFO D. DEMAND. MAIN LANDING RWY 36 R. TRANSITION LEVEL 040. WIND 290 DEG, 11 KT, VRB BTN 250 AND 320 DEG, 16 KT MAX, 6 KT MNM. VIS 10 KM OR MORE. CLD SCT 1400 FT SCT 1700 FT. T 19. DP 16. QNH 1021 HPA. NOSIG. OPERATIONAL REPORT. CONTACT APCH WITH CALLSIGN ONLY. END OF INFO D\n[Departure ATIS] EHAM DEP ATIS W 2153Z EHAM DEPARTURE INFO W. DEMAND. MAIN DEPARTURE RWY 36 L. MAIN LANDING RWY 06. RWY 36 L RCR AT TIME 1954. RWYCC: 5/5/5 WET/WET/WET COVERAGE(%): 100/100/100. WIND 110 DEG, 3 KT, VRB BTN 060 AND 190 DEG. VIS 10 KM OR MORE. CLD FEW 2500 FT FEW CB 7000 FT. T 21. DP 19. QNH 1015 HPA. OPERATIONAL REPORT. INFORM SCHIPHOL DEL BY VOICE IF UNABLE TO COMPLY WITH NADP 2. END OF INFO W",
    "EBBR": "[Arrival ATIS] EBBR ARR ATIS S 0732Z EBBR NAT, EXP VECT FOR ILS APP ARR RWY01 RSCD AT 0602 RWY01 DRY. DEP RWY01 TRL 055 RWY 25R CLSD 280/8KT VIS ABV 10KM FEW2000FT T20 DP16 QNH 1024HPA NOSIG CFM ARR S\n[Departure ATIS] EBBR DEP ATIS O 0750Z EBBR NAT, DEP RWY01 RSCD AT 0602 RWY01 DRY. ARR RWY01 TRL 055 RWY 25R CLSD 290/6KT VRB BTN 260 AND 320 MNM4 MAX12 VIS ABV 10KM BKN2000FT BKN3700FT T20 DP16 QNH 1024HPA NOSIG CFM DEP O",
    "EDDF": "[Arrival ATIS] EDDF ARR ATIS Q 0750Z -ARR-ATIS EDDF Q METAR 050750 -EXPECT INDEPENDENT PARALLEL ILS Y APCH RWY 25R OR ILS APCH RWY 25L -RWY 25R 25L -GLS APCH ON REQUEST , DO NOT MISTAKE TWY M FOR RWY 25C WHEN PERFORMING VISUAL APPROACH , -TRL 60 -BIRDS OBSERVED AROUND THE AERODROME -24007KT 210V270 -9999 - -VCSH SCT036 BKN049 FEW///TCU -T22 DP14 -QNH1022 - -TREND NOSIG\n[Departure ATIS] EDDF DEP ATIS D 0650Z DEP-ATIS EDDF D METAR 050650 RWY 25C 18 TRL 60 27004KT RWY18 VRB02KT 9999 FEW033 SCT044 T21 DP14 QNH1022 TREND NOSIG END OF ATIS D",
    "EDDL": "[Arrival ATIS] EDDL ARR ATIS F 0920Z ATIS EDDL F METAR 280920 EXPECT VECTORS ILS APPROACH RWY 23R RWY 23L 23R TRL 60 21008KT 180V260 CAVOK T29 DP18 QNH1018 TREND NOSIG\n[Departure ATIS] EDDL DEP ATIS R EDDL ARR/DEP DATIS RPT -ATIS EDDL R METAR 020550 -EXPECT VECTORS ILS APPROACH -RWY 23L -TWY L8 CLOSED BETWEEN TWY M AND RWY 23L -TRL 60 - -23010KT -CAVOK - - -T19 DP13 -QNH1020 - -TREND NOSIG",
    "EDDK": "[Arrival ATIS] EDDK ARR ATIS G 0053Z -ATIS EDDK G SPECI 280053 -EXPECT CDO FOR ILS APCH -RWY 13L 24 -RWY COND RWY 13L AT TIME 0000 RWYCC 6 DEPOSIT TOTAL RWY DRY RWY 24 AT TIME 0000 RWYCC 6 DEPOSIT TOTAL RWY DRY -TRL 60 -RWY 13R AND RWY 31L CLOSED FOR DEPARTURE AND LANDING: TAXIING BTN THR RWY 13R AND INTERSECTION RWY 24 POSSIBLE : -25015G32KT 220V290 -CAVOK - - -T25 DP18 -QNH1015 - -\n[Departure ATIS] EDDK DEP ATIS Q EDDK ARR/DEP DATIS RPT -ATIS EDDK Q METAR 291920 -EXPECT ILS APCH -RWY 31R 06 -RWY COND RWY 31R AT TIME 1830 RWYCC 6 DEPOSIT TOTAL RWY DRY RWY 06 AT TIME 1830 RWYCC 6 DEPOSIT TOTAL RWY DRY -TRL 60 -RWY 13R AND RWY 31L CLOSED FOR DEPARTURE AND LANDING: TAXIING BTN THR RWY 13R AND INTERSECTION RWY 24 POSSIBLE : -04003KT -CAVOK - - -T24 DP13 -QNH1024 - -TREND NOSIG",
    "EBLG": "[Arrival ATIS] EBLG ATIS L 2218Z EBLG INFO, EXP RNAV TO ILS APP ARR RWY22L DEP RWY22L RWY 22L WET, RWYCC 555. TRL 055 TWY A4 DISPLACED. ADZ ON GND FREQ IF UNABLE S4 260/9KT MNM6 MAX22 VIS 3500M MODTSRA FEW2200FT BKN CB 3500FT T19 DP18 QNH 1020HPA TEMPO VRB/18KT MAX35 VIS2000M HVY TSRA CFM ATIS L",
    "LSZH": "[Arrival ATIS] LSZH ARR ATIS D 0750Z ARRIVALS, EXP ILS APCH, RWY 14. TRL 70. DEP RWY 28. WIND 210 DEG, 6 KT, VRB BTN 200 AND 280 DEG. CAVOK. T 23. DP 10. QNH 1025. NOSIG.\n[Departure ATIS] LSZH DEP ATIS V 0750Z DEP RWY 28. TRL 70. ARRIVALS, EXP ILS APCH, RWY 14. TMA S 1 IS NOT ACT. TMA S 2 AND S 3 ARE NOT ACT. WIND 240 DEG, 5 KT, VRB BTN 200 AND 280 DEG. CAVOK. T 23. DP 10. QNH 1025. NOSIG.",
    "LIMC": "[Arrival ATIS] LIMC ARR ATIS V 2211Z LIMC ARR V 2211Z I.L.S. ZULU RWY IN USE 35R TL 70 RWY 35L CLSD .. TAXIWAY ECHO WHISKY CLOSED... WIND TDZ VRB1KT VRB BTN 300/AND 090/ CAVOK T23 DP17 QNH 1020HPA QFE 0994HPA\n[Departure ATIS] LIMC DEP ATIS A 0650Z LIMC DEP A 0650Z RWY IN USE 35L TL 70 WIND END 320/3KT VRB BTN 260/AND 350/ CAVOK T27 DP13 QNH 1021HPA QFE 0995HPA DATALINK CLEARANCE AVAILABLE.... CONTACT 1 3 1 8 8 0 TO BE RELEASED BY THE AIRPORT OPERATOR ...",
    "LIRF": "[Arrival ATIS] LIRF ARR ATIS H 0650Z LIRF ARR H 0650Z RWY 16L ILS W RWY 16R ILS Z RWY IN USE 16L 16R TL 70 DEPENDENT PARL ILS APCH INPR RWY IN USE 16R OR 16L ASSIGNED BY ROME RADAR WIND RWY 16L TDZ 120/3KT VRB BTN 360/AND 160/ RWY 16R TDZ 070/5KT VRB BTN 020/AND 100/ CAVOK T28 DP11 QNH 1018HPA RRSM\n[Departure ATIS] LIRF DEP ATIS Y 2020Z LIRF DEP Y 2020Z RWY IN USE 25 TL 70 RWYS IN USE FOR ARR 34R AND 34L WIND END 310/7KT CAVOK T25 DP20 QNH 1017HPA REA IS SENT AUTOMATICALLY ONCE RLSD BY RAMP WHEN READY CONTACT FIUME RAMP 121.725",
    "EINN": "[Arrival ATIS] EINN ARR ATIS U 0730Z EXPECT I L S CATEGORY 1 LDG RWY24 TKOF RWY24 TRL FL060 24008KT 3500 -DZ BKN004 14/13 QNH Q1026 TREND BECMG 9999 BKN007 RUNWAY 2 4 SURFACE CONDITION CODE. 5 5 5. ISSUED AT 0 4 5 9. ALL PARTS. WET. 1 0 0 PERCENT ADVISE AT FIRST CONTACT YOU HAVE ATIS INFO U",
    "EGLL": "[Arrival ATIS] EGLL ARR ATIS L 0750Z LANDING RWY 27R TRANSITION-LEVEL: FL 70 RUNWAY 27R REDUCED DECLARED DISTANCES WITH TAKE OFF RUN AVAILABLE 3362METRES AND LANDING DISTANCE AVAILABLE 3362METRES IF STAND GUIDANCE IS OFF OR FAILS, REMAIN ON THE TAXIWAY CENTRELINE AND ADVISE ATC AUTO 27010KT 9999 BKN019 19/15 Q1025 ACKNOWLEDGE RECEIPT OF INFORMATION L\n[Departure ATIS] EGLL DEP ATIS R 0520Z DEPARTURE RWY 27L RWY27L SURFACE CONDITION CODES: 6/6/6 DRY/DRY/DRY DEPTH: NR/NR/NR COVERAGE: NR/NR/NR PILOTS THAT ARE IN RECEIPT OF DATALINK CLEARANCES ARE REMINDED THEY MUST CONTACT DELIVERY ON 121.980 WHEN READY FOR START DET VOR OOS RUNWAY 27R REDUCED DECLARED DISTANCES WITH TAKE OFF RUN AVAILABLE 3362METRES AND LANDING DISTANCE AVAILABLE 3362METRES AUTO 28012KT 9999 SCT010 BKN017 17/15 Q1025 ACKNOWLEDGE RECEIPT OF INFORMATION R AND REPORT AIRCRAFT TYPE AND CURRENT QNH ON FIRST CONTACT WITH HEATHROW",
    "EPWA": "[Arrival ATIS] EPWA ARR ATIS I 0531Z EPWA ARR I. TIME 0530. EXP U ARR ILS Z APCH FOR RWY 33. TRANSITION LEVEL 80. WIND 240 DEG, 5 KT, VRB BTN 210 AND 310 DEG. CAVOK. T 16. DP 11. QNH 1013. NOSIG. CAUTION. BIRD ACT. END OF EPWA ARR I\n[Departure ATIS] EPWA DEP ATIS U 1801Z EPWA DEP U. TIME 1800. DEP RWY 29. ARR RWY 33, EXP U ARR ILS Z. REPORT READY FOR STARTUP ON DELIVERY 121. 605. TRANSITION LEVEL 80. WIND 290 DEG, 8 KT. CAVOK. T 19. DP 9. QNH 1016. NOSIG. CAUTION. BIRD ACT. END OF EPWA DEP U",
    "EFHK": "[Arrival ATIS] EFHK ARR ATIS P 0725Z EXPECT ILS APCH ARR RWY 04L RUNWAY 04L CONDITION REPORT AT 0624 UTC RUNWAY CONDITION CODES 5 , 5 , 5 CONTAMINANTS ALL PARTS 100 PERCENT WET TRL 65 SPECIAL WIND 360 DEG 7 KT VIS 7KM 3000M MOD SHRA FEW 400 FT. SCT 1000 FT. SCT CB 2500 FT T 15 DP 14 QNH 1000 TEMPO VIS 4500M . FBL SHRA CLD BKN 500 FT. SCT CB 2000 FT. ACK INFO P\n[Departure ATIS] EFHK DEP ATIS H 1620Z DEP RWYS 22R AND 22L RUNWAY 22R CONDITION REPORT AT 1329 UTC RUNWAY CONDITION CODES 6 , 6 , 6 CONTAMINANTS ALL PARTS DRY RUNWAY 22L CONDITION REPORT AT 1330 UTC RUNWAY CONDITION CODES 6 , 6 , 6 CONTAMINANTS ALL PARTS DRY WIND 110 DEG 6 KT VIS 10KM FEW 1400 FT. SCT 1600 FT. FEW TCU 2800 FT T 19 DP 15 QNH 1003 TEMPO CLD FEW CB 3000 FT. ACK INFO H",
    "LTAC": "[Arrival ATIS] LTAC ARR ATIS O 0750Z EXP ILS V APCH 03C DEP RWY 03L RWY 03C WIND 070 DEG 10 KT VRB BTN 030 DEG AND 140 DEG RWY 03L WIND 070 DEG 11 KT VRB BTN 030 DEG AND 100 DEG TRL 110 VIS 9999 SCT04000 FT SCT10000 FT T 23 DP 12 QNH 1015 NOSIG FOR DELIVERY CTC 121.9. FOR DELIVERY FIRST USE DIGITAL DEP CLR. CTN BIRD HAZARD OVR AERODROME. APCH FREQUENCY 129.050. TAXIWAY ECHO 1 IS CLOSED. END OF ATIS O",
    "UBBB": "[Arrival ATIS] UBBB ARR ATIS A 0755Z ATIS A EXP ILS/ LDG 34 35 DEP 34 35 IN USE RWY 34 CLEAR DRY 70 RWY 35 CLEAR DRY 70 TLVL 110 WIND WIND RWY 34 300 10 KT SPD MAX 20 MIN 4 WIND RWY 35 310 6 KT SPD MAX 12 MIN 6 VIS CAVOK T 31 / DP 19 QNH 1005 HPA TREND TREND NOSIG MODERATE BIRDS ACT IN VICINITY OF AP END OF ATIS A\n[Departure ATIS] UBBB DEP ATIS L 0400Z ATIS L EXP ILS/ LDG 34 35 DEP 34 35 IN USE RWY 34 CLEAR DRY 70 RWY 35 CLEAR DRY 70 TLVL 110 WIND WIND RWY 34 270 4 KT SPD MAX 6 MIN 2 WIND RWY 35 260 6 KT SPD MAX 10 MIN 4 VIS 10 KM FEW CB 6000 FT RWY 34 FEW CB 6000 FT RWY 35 T 26 / DP 19 QNH 1005 HPA TREND TREND NOSIG MODERATE BIRDS ACT IN VICINITY OF AP END OF ATIS L",
    "ZWWW": "[Arrival ATIS] ZWWW ARR ATIS B 2200Z EXP ILSDME Z APCH LDG RWY 26L TA 3000 WIND 190/4MPS CAVOK T 26 /DP 09 QNH 1011 HPA ADZ YOU HAVE INFO B.\n[Departure ATIS] ZWWW DEP ATIS N 0430Z DEP RWY 26L TA 3000 WIND 010/6MPS VIS 9999M CLD FEW 990M T 28 /DP 14 QNH 1013 HPA ADZ YOU HAVE INFO N.",
    "ZLXY": "[Arrival ATIS] ZLXY ARR ATIS R 1900Z EXP ILS APCH LDG RWY 05L WIND VRB/1MPS VIS 6000M CLD SCT 900M /OVC 1800M T 19 /DP 18 QNH 1006 HPA VISUAL APPROACH IN PROGRESS ADZ YOU HAVE INFO R.\n[Departure ATIS] ZLXY DEP ATIS U 0400Z DEP RWY 05L & 06L WIND VRB/1MPS VIS 9999M CLD FEW 450M /SCT 900M /OVC 1800M T 23 /DP 19 QNH 1008 HPA ADZ YOU HAVE INFO U.",
    "ZBAA": "[Arrival ATIS] ZBAA ARR ATIS M 2230Z EXP ILS APCH DEPENDENT PARL INSTR APCH LDG RWY 36L & 36R & 01 WIND VRB DEG 1 MPS VIS 2800 BR NSC T 25 /DP 23 QNH 1004 HPA ADZ YOU HAVE INFO M.\n[Departure ATIS] ZBAA DEP ATIS F 1900Z DEP RWY 36L RWY 36R IS CLSD WIND 040 DEG 1 MPS VIS 5000 BR NSC T 23 /DP 22 QNH 1004 HPA ADZ YOU HAVE INFO F.",
    "ZBHH": "[Arrival ATIS] ZBHH ARR ATIS N 1408Z EXP ILSDME APCH LDG RWY 26 SFC COND & BA NOTICE: RWYCC 26 5/5/5 ISSUED AT 1353Z ALL PARTS WET NR 100PCT TA 3000 /TRL 3600 WIND 220/3MPS VIS 9999M -SHRA CLD SCT 990M /FEW CB 990M T 19 /DP 16 QNH 1011 HPA SUPPLEMENT INFO RETS BETWEEN 0800 AND 1600 UTC, TURBULENCE MAY OCCUR IN LOCAL FIELD. ADZ YOU HAVE INFO N.\n[Departure ATIS] ZBHH DEP ATIS K 2300Z DEP RWY 26 TA 3000 /TRL 3600 WIND 060/3MPS VRB BTN 010/ AND 080/ CAVOK T 21 /DP 15 QNH 1010 HPA ADZ YOU HAVE INFO K.",
    "ZSQD": "[Arrival ATIS] ZSQD ARR ATIS J 2204Z EXP ILSDME APCH LDG RWY 17 TA 3000 /TRL 3600 WIND 130/2MPS CAVOK T 22 /DP 22 QNH 1006 HPA VISUAL APPROACH OPERATION IN PROGRESS. RUNWAY 17,IF MISSED APPROACH,EXPECT FOLLOW THE STANDARD MISSED APPROACH PROCEDURE,CLIMB TO 900M ON QNH OR BY ATC CAUTION MAYBE THERE IS A FLOCK OF BIRDS IN THE VICINITY OF AIRPORT ADZ YOU HAVE INFO J.\n[Departure ATIS] ZSQD DEP ATIS B 1510Z DEP RWY 17 TA 3000 /TRL 3600 WIND 160/5MPS CAVOK T 22 /DP 20 QNH 1008 HPA VISUAL APPROACH OPERATION IN PROGRESS. WHEN READY CONTACT QINGDAO TOWER ON 118.275 RUNWAY 17,IF MISSED APPROACH,EXPECT FOLLOW THE STANDARD MISSED APPROACH PROCEDURE,CLIMB TO 900M ON QNH OR BY ATC CAUTION MAYBE THERE IS A FLOCK OF BIRDS IN THE VICINITY OF AIRPORT ADZ YOU HAVE INFO B."
  },
  "windtemp_alaska": "\n000\nFBAK31 KWNO 050159\nFD1AK1\nDATA BASED ON 050000Z    \nVALID 050600Z   FOR USE 0200-0900Z. TEMPS NEG ABV 24000\n\nFT  3000    6000    9000   12000   18000   24000  30000  34000  39000\nADK 1130 1311+07 2308+04 2416+00 2640-10 2647-22 255838 256448 257158\nADQ 2008 1805-02 1509-08 1309-14 1308-28 1410-37 241836 252037 251839\nAKN 0212 0315-03 0315-08 0314-13 0620-26 0631-39 021039 320938 290840\nANC 1209 1218+00 1119-05 1217-10 1221-22 1324-36 123650 141644 131042\nANN 9900 9900+02 9900-03 2612-06 3020-20 3233-31 326546 325853 303046\nBET 3607 0510-01 0712-06 0719-11 0617-24 0820-38 071746 041442 030941\nBRW 3013 3014+06 3015+01 3215-04 3518-16 3623-29 353145 353254 352152\nBTI 2822 3016+02 3319-02 3520-07 0123-17 0121-29 362245 352153 361649\nBTT 9900 0406+06 0408-02 0407-08 0518-20 0640-30 064945 065054 072648\nCDB 3408 3513+01 3320-04 3126-08 3040-20 2863-30 289642 288648 294945\nCZF 3507 0212+02 0313-04 0312-10 0417-23 0422-36 053148 053346 052043\nEHM 3612 0111-02 3513-07 3616-12 3619-24 0418-39 332043 321840 311541\nFAI 9900 0605+05 9900-02 1208-07 1007-21 0809-34 061549 072750 081844\nFYU 9900 9900+04 9900-02 3108-08 3511-21 0531-32 066046 064551 062046\nGAL 0508 0515+04 0614-02 0712-08 0921-21 0830-34 077246 076049 082845\nGKN 1716 1813+02 1512-04 1315-09 1222-21 1222-34 151651 141049 140742\nHOM 1017 1128-02 1231-06 1326-11 1233-24 1143-37 132845 161440 210640\nJNU 2105 2308+02 2608-01 2905-07 2912-21 3018-32 303647 303654 272045\nLUR 0413 0407+06 9900+02 9900-02 0312-16 0325-27 033243 033953 032657\nMCG 0407 1111+02 1115-04 1122-10 1018-22 1022-35 113150 083445 091643\nMDO 1422 1420+00 1617-05 1713-10 1918-22 1920-35 202148 212145 221643\nOME 9900 0806+04 1106-03 0808-08 0723-21 0658-31 068144 067552 063647\nORT      9900+05 1407-02 1310-08 9900-21 9900-34 141149 141252 990044\nOTZ 0905 0813+05 0811+00 0715-06 0734-16 0637-29 054444 054653 063451\nSNP 3410 3309+03 3308-03 3205-09 3012-21 2923-32 284145 284247 283444\nTKA 9900 9900+01 0905-05 0914-10 1221-22 1124-34 113051 102247 111342\nUNK 9900 0309+03 0611-03 0714-09 0828-22 0842-35 075747 075247 073044\nYAK 9900 2609+00 2308-03 2010-07 2012-21 2111-32 243348 252852 241745\nIKO 0812 0806+06 9900+02 2810-03 2831-15 2859-24 278739 279948 278955\nAFM 3305 0405+06 1106-01 0708-07 0731-17 0636-29 054344 054353 062950\n5AB 0824 0824+05 0820+01 1016-02 2220-11 2236-24 224740 235750 225656\n5AC 2906 2909+03 2915+01 2921-03 3035-15 3041-26 314943 316451 316457\n5AD 1823 1926+01 2325-01 2426-04 2434-15 2449-26 266840 267351 276355\n5AE 3216 3116-03 2924-05 2837-09 2767-19 2782-30 279741 278245 274744\n5AF 2307 2108+00 2309-01 2510-06 2617-18 2732-28 284845 296954 283551\n5AG 1514 1513+00 1811-03 2014-09 2215-20 2336-32 245047 243949 252746\n",
  "vaac_tokyo": [
    {
      "id": "20260705_30027000_0230",
      "year": "2026",
      "volcano": "Sheveluch",
      "psn": "N5639 E16122",
      "issued": "20260705",
      "text": "FVFE01 RJTD 050746\nVA ADVISORY\nDTG: 20260705/0746Z\nVAAC: TOKYO\nVOLCANO: SHEVELUCH 300270\nPSN: N5639 E16122\nAREA: RUSSIA\nSOURCE ELEV: 3283M AMSL\nADVISORY NR: 2026/230\nINFO SOURCE: KVERT HIMAWARI-9\nERUPTION DETAILS: ERUPTION AT 20260705/0725Z FL400 EXTD W REPORTED\nOBS VA DTG: 05/0730Z\nOBS VA CLD: VA NOT IDENTIFIABLE FM SATELLITE DATA WIND FL400 050/8KT\nFCST VA CLD +6 HR: NOT AVBL\nFCST VA CLD +12 HR: NOT AVBL\nFCST VA CLD +18 HR: NOT AVBL\nRMK: WE WILL ISSUE FURTHER ADVISORY IF VA IS DETECTED IN SATELLITE \nIMAGERY.\nNXT ADVISORY: NO FURTHER ADVISORIES=",
      "img_url": "https://ds.data.jma.go.jp/svd/vaac/data/VAGFN/2026/Images/20260705_30027000_0230_QH21_01.png",
      "sat_img_url": null,
      "text_url": "https://ds.data.jma.go.jp/svd/vaac/data/TextData/2026/20260705_30027000_0230_Text.html"
    },
    {
      "id": "20260704_27202000_0228",
      "year": "2026",
      "volcano": "Kanlaon",
      "psn": "N1025 E12308",
      "issued": "20260704",
      "text": "FVFE01 RJTD 040601\nVA ADVISORY\nDTG: 20260704/0601Z\nVAAC: TOKYO\nVOLCANO: KANLAON 272020\nPSN: N1025 E12308\nAREA: PHILIPPINES\nSOURCE ELEV: 2435M AMSL\nADVISORY NR: 2026/228\nINFO SOURCE: HIMAWARI-9 PHIVOLCS\nERUPTION DETAILS: ERUPTION AT 20260704/0539Z FL090 EXTD SW REPORTED\nOBS VA DTG: 04/0540Z\nOBS VA CLD: VA NOT IDENTIFIABLE FM SATELLITE DATA WIND FL090 070/7KT\nFCST VA CLD +6 HR: NOT AVBL\nFCST VA CLD +12 HR: NOT AVBL\nFCST VA CLD +18 HR: NOT AVBL\nRMK: WE WILL ISSUE FURTHER ADVISORY IF VA IS DETECTED IN SATELLITE \nIMAGERY.\nNXT ADVISORY: NO FURTHER ADVISORIES=",
      "img_url": "https://ds.data.jma.go.jp/svd/vaac/data/VAGFN/2026/Images/20260704_27202000_0228_QH21_01.png",
      "sat_img_url": null,
      "text_url": "https://ds.data.jma.go.jp/svd/vaac/data/TextData/2026/20260704_27202000_0228_Text.html"
    },
    {
      "id": "20260702_27303000_0714",
      "year": "2026",
      "volcano": "Mayon",
      "psn": "N1315 E12341",
      "issued": "20260702",
      "text": "FVFE01 RJTD 021550\nVA ADVISORY\nDTG: 20260702/1550Z\nVAAC: TOKYO\nVOLCANO: MAYON 273030\nPSN: N1315 E12341\nAREA: PHILIPPINES\nSOURCE ELEV: 2462M AMSL\nADVISORY NR: 2026/714\nINFO SOURCE: HIMAWARI-9 PHIVOLCS\nERUPTION DETAILS: ERUPTION AT 20260702/1535Z FL090 EXTD WSW REPORTED\nOBS VA DTG: 02/1530Z\nOBS VA CLD: VA NOT IDENTIFIABLE FM SATELLITE DATA WIND FL090 100/11KT\nFCST VA CLD +6 HR: NOT AVBL\nFCST VA CLD +12 HR: NOT AVBL\nFCST VA CLD +18 HR: NOT AVBL\nRMK: WE WILL ISSUE FURTHER ADVISORY IF VA IS DETECTED IN SATELLITE \nIMAGERY.\nNXT ADVISORY: NO FURTHER ADVISORIES=",
      "img_url": "https://ds.data.jma.go.jp/svd/vaac/data/VAGFN/2026/Images/20260702_27303000_0714_QH21_01.png",
      "sat_img_url": null,
      "text_url": "https://ds.data.jma.go.jp/svd/vaac/data/TextData/2026/20260702_27303000_0714_Text.html"
    },
    {
      "id": "20260701_30006000_0001",
      "year": "2026",
      "volcano": "Mutnovsky",
      "psn": "N5227 E15812",
      "issued": "20260701",
      "text": "FVFE01 RJTD 012206\nVA ADVISORY\nDTG: 20260701/2206Z\nVAAC: TOKYO\nVOLCANO: MUTNOVSKY 300060\nPSN: N5227 E15812\nAREA: RUSSIA\nSOURCE ELEV: 2288M AMSL\nADVISORY NR: 2026/1\nINFO SOURCE: KVERT KBGS UHPP HIMAWARI-9\nERUPTION DETAILS: ERUPTION AT 20260701/2016Z FL170 EXTD W REPORTED\nOBS VA DTG: 01/2140Z\nOBS VA CLD: VA NOT IDENTIFIABLE FM SATELLITE DATA WIND FL170 120/8KT\nFCST VA CLD +6 HR: NOT AVBL\nFCST VA CLD +12 HR: NOT AVBL\nFCST VA CLD +18 HR: NOT AVBL\nRMK: WE WILL ISSUE FURTHER ADVISORY IF VA IS DETECTED IN SATELLITE \nIMAGERY.\nNXT ADVISORY: NO FURTHER ADVISORIES=",
      "img_url": "https://ds.data.jma.go.jp/svd/vaac/data/VAGFN/2026/Images/20260701_30006000_0001_QH21_01.png",
      "sat_img_url": null,
      "text_url": "https://ds.data.jma.go.jp/svd/vaac/data/TextData/2026/20260701_30006000_0001_Text.html"
    }
  ],
  "vaac_alaska": [
    {
      "text": "\n000\nFVAK21 PAWU 050550\nVAAAK1\nVA ADVISORY\n\nDTG: 20260705/0545Z\n\nVAAC: ANCHORAGE\n\nVOLCANO: SHEVELUCH 300270\n\nPSN: N5639 E16122\n\nAREA: KAMCHATKA PENINSULA\n\nSOURCE ELEV: 10771 FT AMSL\n\nADVISORY NR: 2026/176\n\nINFO SOURCE: HIMAWARI/GOES\n\nERUPTION DETAILS:REMNANT VA CONTINUOUSLY OBS IN SATELLITE IMAGERY\n\nOBS VA DTG: 05/0545Z\n\nOBS VA CLD: SFC/FL280 N6616 E16056 - N6311 E16140 - N5959 E16113\n- N5960 E15906 - N6322 E16000 - N6611 E15926 - N6617 E16053 -\nN6616 E16056 MOV N 20KT\n\nFCST VA CLD +6HR: 05/1145Z SFC/FL280 N6919 E16214 - N6603 E16509\n- N6248 E16423 - N5957 E16320 - N5958 E16102 - N6312 E16137 -\nN6616 E16102 - N6851 E16012 - N6926 E16219 - N6919 E16214 - N6919\nE16214\n\nFCST VA CLD +12HR: 05/1745Z NO VA EXP\n\nFCST VA CLD +18HR: 05/2345Z NO VA EXP\n\nRMK: VA PARTIALLY OBSC BY MET CLOUD. VA SIGNATURE DISSIPATING ON SATELLITE IMAGERY...CC\n\nNXT ADVISORY: WILL BE ISSUED BY 20260705/1145Z=\n\n",
      "issued": "2026-07-05T05:50:00+00:00",
      "volcano": "Sheveluch",
      "psn": "N5639 E16122"
    }
  ]
}