{
  "updated_utc": "2026-07-01T17:55Z",
  "metar": {
    "RJAA": "METAR RJAA 011600Z AUTO 15004KT 3500 -RA BR NSC 22/21 Q1010 TEMPO 3000 SHRA BR FEW005 BKN008",
    "PANC": "METAR PANC 011653Z 00000KT 10SM FEW030 FEW060 12/07 A2994 RMK AO2 SLP139 T01220072",
    "PAFA": "METAR PAFA 011653Z 00000KT 10SM FEW070 FEW100 SCT200 13/06 A2993 RMK AO2 SLP140 T01280061",
    "PAED": "METAR PAED 011655Z 26003KT 10SM FEW043 13/06 A2992 RMK AO2A SLP128 T01250063 $",
    "KSEA": "METAR KSEA 011653Z 22008KT 10SM SCT016 OVC036 14/08 A3009 RMK AO2 SLP194 T01390083 $",
    "ZSPD": "METAR ZSPD 011600Z 26002MPS 7000 NSC 24/24 Q1009 NOSIG",
    "ZSSS": "METAR ZSSS 011600Z 20002MPS 170V240 CAVOK 24/23 Q1009 NOSIG",
    "RJFR": "METAR RJFR 011600Z AUTO 31009KT 5000 RA BR FEW010 SCT015 BKN090 //////CB 22/21 Q1006",
    "VHHH": "METAR VHHH 011600Z 08008KT 9999 FEW018 30/26 Q1008 NOSIG",
    "RCTP": "METAR RCTP 011600Z 33004KT 300V030 9999 FEW015 BKN100 29/27 Q1010 NOSIG RMK A2985",
    "ZGSZ": "METAR ZGSZ 011600Z 08003MPS 050V130 9999 FEW020 30/25 Q1009 NOSIG",
    "WSSS": "METAR WSSS 011600Z 13007KT 9999 FEW016 BKN300 29/24 Q1010 NOSIG",
    "WMKK": "METAR WMKK 011600Z VRB03KT 9999 FEW017CB 29/25 Q1009 NOSIG",
    "WIDD": "METAR WIDD 011600Z 14005KT 9999 FEW014 27/25 Q1010 NOSIG",
    "VTBS": "METAR VTBS 011600Z 31005KT 260V350 9999 FEW020 29/23 Q1008 NOSIG",
    "VTBU": "METAR VTBU 011600Z 31003KT 9999 FEW020 29/29 Q1008 NOSIG",
    "ROAH": "METAR ROAH 011600Z AUTO 19003KT 9999 SCT009 BKN019 27/27 Q1013",
    "VVDN": "METAR VVDN 011600Z 24003KT 9999 FEW020 26/25 Q1006 NOSIG",
    "RCKH": "METAR RCKH 011600Z 31003KT 9999 FEW010 SCT038 30/24 Q1010 NOSIG RMK A2985",
    "KLAX": "METAR KLAX 011653Z 23008KT 10SM SCT016 OVC023 18/15 A2994 RMK AO2 SLP136 T01830150 $",
    "KONT": "METAR KONT 011653Z 26006KT 10SM SCT020 OVC032 19/13 A2994 RMK AO2 SLP130 T01940133 $",
    "KSFO": "METAR KSFO 011556Z VRB05KT 10SM FEW004 FEW200 16/10 A2988 RMK AO2 SLP117 T01610100 $",
    "KOAK": "SPECI KOAK 011622Z 17007KT 10SM FEW008 SCT018 16/11 A2989 RMK AO2 T01610106",
    "KMHR": "METAR KMHR 011635Z AUTO 00000KT 10SM CLR 20/11 A2983 RMK AO2 T01980113 $",
    "KDFW": "METAR KDFW 011653Z 17015G21KT 10SM SCT040 SCT250 32/21 A3000 RMK AO2 SLP147 T03220211 $",
    "KIAH": "METAR KIAH 011653Z 20005KT 10SM SCT040 33/23 A3003 RMK AO2 SLP167 T03330228",
    "KORD": "METAR KORD 011651Z 23010G17KT 10SM FEW300 32/22 A2997 RMK AO2 SLP141 T03220217",
    "KJFK": "METAR KJFK 011651Z 17010KT 10SM FEW050 FEW250 29/21 A2999 RMK SLP155 T02940206 $",
    "KRFD": "METAR KRFD 011654Z 19010G20KT 10SM FEW250 31/23 A2997 RMK AO2 SLP142 T03110233",
    "KIND": "METAR KIND 011654Z VRB03KT 9SM SCT032 32/24 A3009 RMK AO2 SLP180 T03170239",
    "KDTW": "METAR KDTW 011653Z 22010G17KT 10SM SCT040 33/24 A3001 RMK AO2 SLP155 T03330244",
    "KMSP": "METAR KMSP 011653Z 17014G26KT 10SM FEW020 SCT140 SCT250 24/18 A2983 RMK AO2 PK WND 17029/1630 SLP097 T02440183",
    "CYEG": "METAR CYEG 011600Z 26009KT 12SM FEW014 BKN120 BKN250 17/14 A2980 RMK CU2AC5CI1 CI TR SLP094 DENSITY ALT 3400FT",
    "EHAM": "METAR EHAM 011625Z 31009KT CAVOK 23/08 Q1022 NOSIG",
    "EBBR": "METAR EBBR 011620Z 34010KT 310V010 9999 FEW045 24/13 Q1023 NOSIG",
    "EDDF": "METAR EDDF 011620Z AUTO VRB10G20KT CAVOK 26/10 Q1019 NOSIG",
    "EDFH": "METAR EDFH 011620Z 36008KT CAVOK 22/08 Q1022",
    "EDDL": "METAR EDDL 011620Z AUTO 29011KT 260V320 CAVOK 26/09 Q1021 NOSIG",
    "EDDK": "METAR EDDK 011620Z AUTO 32012KT 290V350 CAVOK 26/09 Q1021 NOSIG",
    "EBLG": "METAR EBLG 011620Z 29012KT CAVOK 23/12 Q1023 NOSIG",
    "LSZH": "METAR LSZH 011620Z 23006KT 170V280 9999 FEW035 FEW040TCU 23/13 Q1022 NOSIG",
    "LIMC": "METAR LIMC 011620Z 04009KT CAVOK 25/13 Q1013 NOSIG",
    "LIRF": "METAR LIRF 011620Z 26009KT 240V300 CAVOK 29/23 Q1009 NOSIG",
    "EINN": "METAR EINN 011600Z 23014KT 9999 FEW014 BKN018 BKN022 20/16 Q1020 NOSIG",
    "EGLL": "METAR EGLL 011620Z AUTO 28010KT 250V330 9999 NCD 25/12 Q1023",
    "EGSS": "METAR EGSS 011620Z AUTO 25007KT 210V300 9999 NCD 24/12 Q1023",
    "EPWA": "METAR EPWA 011600Z 32013KT CAVOK 29/19 Q1011 NOSIG",
    "UHPP": "METAR UHPP 011600Z 34003MPS 6000 VV004 08/08 Q1017 R34L/CLRD62 NOSIG RMK QFE759/1012",
    "EFHK": "METAR EFHK 011620Z 11009KT CAVOK 22/10 Q1016 NOSIG",
    "LBBG": "METAR LBBG 011600Z AUTO 12007KT 9999 NCD 29/21 Q1010 NOSIG",
    "LTAC": "METAR LTAC 011620Z 11009KT 080V140 9999 FEW040 30/05 Q1012 NOSIG RMK RWY21C 10007KT RWY03L 10010KT 060V120 RWY21R 08008KT RWY03R 07007KT RWY21L 11007KT",
    "UBBB": "METAR UBBB 011600Z 31004KT CAVOK 26/15 Q1012 NOSIG",
    "UTAA": "METAR UTAA 011600Z 30014KT 9999 FEW050CB SCT050 OVC100 29/10 Q1009 R88/CLRD70 NOSIG",
    "UACC": "METAR UACC 011600Z 02003MPS 350V050 CAVOK 20/08 Q1005 NOSIG RMK QFE723/0964",
    "UAAA": "METAR UAAA 011600Z VRB01MPS 9999 SCT050CB BKN100 21/15 Q1008 NOSIG",
    "UZTT": "METAR UZTT 011600Z VRB02KT CAVOK 29/07 Q1006 NOSIG",
    "ZWWW": "METAR ZWWW 011600Z 27003MPS 230V320 CAVOK 32/13 Q1006 NOSIG",
    "ZLXY": "METAR ZLXY 011600Z 33001MPS CAVOK 26/20 Q1009 NOSIG",
    "ZBAA": "METAR ZBAA 011600Z 07001MPS 9999 FEW040CB 26/23 Q1006 NOSIG",
    "ZBHH": "METAR ZBHH 011600Z 06002MPS 9999 FEW040 18/15 Q1011 NOSIG",
    "ZSQD": "METAR ZSQD 011600Z 16003MPS CAVOK 23/20 Q1008 NOSIG",
    "ZMCK": "METAR ZMCK 011600Z 06003MPS 9999 FEW033 SCT100 21/10 Q1011 NOSIG RMK QFE643.4 51 NT",
    "UUEE": "METAR UUEE 011600Z 33004G09MPS 270V010 CAVOK 27/13 Q1016 R06R/CLRD62 R06C/CLRD62 NOSIG",
    "UUDD": "METAR UUDD 011600Z 03003MPS 020V090 CAVOK 28/13 Q1016 R31L/CLRD65 NOSIG",
    "ULLI": "METAR ULLI 011600Z 11005MPS 9999 SCT046 23/12 Q1017 R88/090065 NOSIG",
    "USSS": "METAR USSS 011600Z 01003MPS 9999 BKN008 OVC016CB 17/17 Q1006 R26L/290350 R26R/290340 TEMPO SCT006 BKN016CB RMK QFE734/0978",
    "UNNT": "METAR UNNT 011600Z 05002MPS CAVOK 21/15 Q1009 R25/CLRD// R34/////// NOSIG RMK QFE747/0996",
    "UNKL": "METAR UNKL 011600Z 25001MPS CAVOK 18/18 Q1009 R29/CLRD// NOSIG RMK QFE731",
    "UIBB": "METAR UIBB 011600Z AUTO 29003MPS 9000 // NCD 17/17 Q1007 RMK QFE713/0950",
    "UEEE": "METAR UEEE 011600Z 32002MPS CAVOK 15/09 Q1004 R23/09//69 NOSIG RMK QFE744",
    "UHHH": "METAR UHHH 011600Z 03003MPS CAVOK 15/11 Q1010 R05L/090060 NOSIG RMK QFE751/1002",
    "UHSS": "METAR UHSS 011600Z 00000MPS 9999 OVC004 11/10 Q1015 RMK MT OBSC QFE760/1013"
  },
  "taf": {
    "RJAA": "TAF RJAA 011705Z 0118/0300 09010KT 6000 -SHRA FEW005 BKN012 TEMPO 0118/0201 1500 +SHRA BR FEW001 BKN003 BECMG 0123/0201 02006KT TEMPO 0201/0221 FEW001 BKN003 TEMPO 0221/0300 FEW005 BKN008",
    "PANC": "TAF PANC 011732Z 0118/0224 24007KT P6SM FEW050 TEMPO 0118/0120 17007KT FM020600 18005KT P6SM FEW050 SCT100 FM022000 24007KT P6SM FEW050 BKN100",
    "PAFA": "TAF PAFA 011720Z 0118/0224 VRB02KT P6SM FEW200 FM020000 30002KT P6SM SCT080",
    "PAED": "TAF PAED 011300Z 0113/0219 03006KT 9999 FEW030 SCT050 QNH2995INS BECMG 0121/0122 24012G18KT 9999 SCT040 QNH2988INS BECMG 0205/0206 21009KT 9999 FEW040 SCT060 QNH2979INS TX19/0201Z TN06/0113Z",
    "KSEA": "TAF KSEA 011720Z 0118/0224 20008KT P6SM SCT025 BKN040 FM012100 23008KT P6SM SCT035 BKN050 FM020300 26005KT P6SM BKN040 FM021100 21006KT P6SM SCT025 BKN040",
    "ZSPD": "TAF ZSPD 011502Z 0118/0224 19004MPS 6000 BKN015 TX28/0206Z TN23/0121Z TN24/0221Z",
    "ZSSS": "TAF ZSSS 011502Z 0118/0224 19004MPS 6000 BKN020 TX29/0206Z TN23/0121Z TN24/0221Z",
    "RJFR": "TAF RJFR 011705Z 0118/0300 30010KT 9999 FEW015 SCT040 TEMPO 0118/0119 2000 SHRA BR FEW003 SCT004 BKN005 TEMPO 0119/0121 BKN005 BKN030 TEMPO 0218/0221 BKN005 BKN009 TEMPO 0221/0300 FEW005 BKN008",
    "VHHH": "TAF VHHH 011700Z 0118/0224 12010KT 9999 FEW015 SCT030 TX34/0206Z TN28/0122Z TN28/0222Z TEMPO 0118/0122 3500 SHRA FEW010CB SCT020 TEMPO 0218/0224 12015G25KT 3000 SHRA FEW008CB SCT020",
    "RCTP": "TAF RCTP 011700Z 0118/0224 18005KT 9999 FEW015 BECMG 0200/0202 33007KT BECMG 0211/0213 15005KT",
    "ZGSZ": "TAF ZGSZ 011503Z 0118/0224 12004MPS 8000 SCT020 TX33/0206Z TN28/0122Z TN27/0222Z",
    "WSSS": "TAF WSSS 011700Z 0118/0300 20007KT 9999 FEW015 SCT020 TEMPO 0121/0200 24015G25KT 3000 TSRA FEW012CB BKN015",
    "WMKK": "TAF WMKK 011700Z 0118/0300 VRB03KT 9999 FEW030",
    "VTBS": "TAF VTBS 011700Z 0118/0224 29005KT 9999 FEW020 BECMG 0202/0204 22008KT TEMPO 0210/0216 VRB10G25KT 4000 TSRA FEW018CB SCT030 BKN100 BECMG 0218/0220 28005KT",
    "VTBU": "TAF VTBU 011700Z 0118/0218 25006KT 9999 FEW020 BECMG 0118/0120 35004KT BECMG 0201/0203 25008KT",
    "ROAH": "TAF ROAH 011705Z 0118/0300 21008KT 9999 FEW010 SCT012 TEMPO 0118/0121 FEW005 BKN008 TEMPO 0215/0218 FEW005 BKN008",
    "VVDN": "TAF VVDN 011700Z 0118/0218 23006KT 9999 FEW020 PROB40 TEMPO 0121/0124 4000 SHRA BKN013 FEW017CB BKN050 BECMG 0203/0204 01011KT TEMPO 0208/0212 24015G26KT 4000 TSRA BKN013 FEW015CB BKN050 BECMG 0213/0214 23005KT",
    "RCKH": "TAF RCKH 011700Z 0118/0224 07005KT 9999 FEW015 BECMG 0200/0202 15008KT TEMPO 0203/0209 17015G25KT BECMG 0214/0216 09005KT",
    "KLAX": "TAF KLAX 011725Z 0118/0224 24007KT P6SM SCT015 OVC025 FM012100 26012KT P6SM SCT035 FM020300 28006KT P6SM SKC FM020500 VRB03KT P6SM OVC012 FM021800 25006KT P6SM BKN020 FM022000 26012KT P6SM FEW025",
    "KONT": "TAF KONT 011737Z 0118/0224 25007KT P6SM BKN035 FM011900 25009KT P6SM SCT035 FM012100 25011KT P6SM SKC FM020600 25008KT P6SM FEW020 FM021100 VRB04KT P6SM BKN015 FM021600 VRB05KT P6SM SCT018 FM022100 25008KT P6SM SKC",
    "KSFO": "TAF KSFO 011739Z 0118/0224 24006KT P6SM FEW015 FM012000 25016KT P6SM SKC FM020400 26006KT P6SM FEW015 FM020800 21006KT P6SM SCT015 TEMPO 0211/0215 BKN015 FM021900 25015KT P6SM FEW020",
    "KOAK": "TAF KOAK 011739Z 0118/0224 20008KT P6SM SCT015 FM012000 26013KT P6SM FEW010 FM020400 26006KT P6SM FEW010 FM020900 23008KT P6SM OVC015 FM021800 24007KT P6SM SCT020 FM022000 28012KT P6SM FEW020",
    "KMHR": "TAF KMHR 011720Z 0118/0218 22007KT P6SM FEW250 FM012100 21011KT P6SM FEW250 FM020600 17009KT P6SM SKC",
    "KDFW": "TAF KDFW 011728Z 0118/0224 17015G21KT P6SM SCT040 FM020200 15009KT P6SM FEW250",
    "KIAH": "TAF KIAH 011731Z 0118/0224 17009KT P6SM SCT040 FM020500 16003KT P6SM SCT020 FM021500 17005KT P6SM SCT030 SCT060 FM021800 17009KT P6SM SCT035 PROB30 0218/0222 6SM -TSRA BR BKN035CB",
    "KORD": "TAF KORD 011722Z 0118/0224 22012G20KT P6SM FEW300 FM012200 21016G27KT P6SM FEW040 FEW300 FM020200 21011KT P6SM FEW050 SCT300 FM021700 23011G17KT P6SM SCT040 SCT250",
    "KJFK": "TAF KJFK 011725Z 0118/0224 18015KT P6SM SCT070 SCT250 FM012100 18016G24KT P6SM VCSH BKN070 FM020000 21012KT P6SM SCT070 FM020500 23007KT P6SM FEW250 FM021400 23010KT P6SM FEW250 FM021800 20013G18KT P6SM FEW050 FEW250",
    "KRFD": "TAF KRFD 011722Z 0118/0218 21013G21KT P6SM FEW040 FEW300 FM020100 22010KT P6SM SCT050 SCT250",
    "KIND": "TAF KIND 011735Z 0118/0224 23007KT P6SM FEW030 FM020600 22006KT P6SM SKC FM021500 23008KT P6SM FEW250",
    "KDTW": "TAF KDTW 011737Z 0118/0224 24013G20KT P6SM SCT060 FM020100 22008KT P6SM SKC FM021600 24013G20KT P6SM SCT060",
    "KMSP": "TAF KMSP 011739Z 0118/0224 17014G25KT P6SM SCT120 SCT250 FM012000 21013G22KT P6SM SCT080 BKN120 FM012200 24012G20KT P6SM SCT050 BKN080 TEMPO 0122/0201 3SM -TSRA BR OVC050CB FM020300 VRB04KT P6SM BKN070 FM020600 VRB03KT P6SM BKN120",
    "CYEG": "TAF CYEG 011740Z 0118/0218 VRB03KT P6SM BKN070 TEMPO 0118/0120 P6SM -SHRA OVC040 PROB30 0118/0120 5SM TSRA OVC030CB FM012000 VRB03KT P6SM BKN050 TEMPO 0120/0124 P6SM VCTS BKN030CB FM020000 VRB03KT P6SM SCT030 TEMPO 0200/0204 BKN030 FM020400 24005KT P6SM BKN060 TEMPO 0204/0210 P6SM -SHRA OVC030 PROB30 0204/0210 VRB15G25KT 3SM TSRA OVC030CB FM021000 VRB03KT P6SM SCT008 BKN025 TEMPO 0210/0215 6SM -SHRA BR BKN008 OVC025 FM021500 28006KT P6SM BKN120 RMK NXT FCST BY 012100Z",
    "EHAM": "TAF EHAM 011711Z 0118/0224 30007KT CAVOK BECMG 0120/0123 20007KT BECMG 0206/0208 25016KT 7000 -RADZ BKN018 PROB30 TEMPO 0208/0212 4000 DZRA BKN012 BECMG 0211/0213 30018G28KT 9999 NSW SCT030 BECMG 0215/0218 33014KT BECMG 0218/0221 27004KT",
    "EBBR": "TAF EBBR 011700Z 0118/0224 33009KT 9999 FEW040 BECMG 0203/0205 21010KT PROB30 TEMPO 0210/0213 SCT008 BKN011",
    "EDDF": "TAF EDDF 011700Z 0118/0224 33009KT CAVOK BECMG 0122/0124 VRB03KT BECMG 0207/0210 24011KT BECMG 0218/0221 32006KT",
    "EDFH": "TAF EDFH 011700Z 0118/0218 35008KT CAVOK BECMG 0121/0123 VRB03KT BECMG 0206/0209 27010KT PROB30 TEMPO 0211/0217 27015G25KT",
    "EDDL": "TAF EDDL 011700Z 0118/0224 30009KT CAVOK BECMG 0119/0123 VRB03KT BECMG 0202/0205 19006KT BECMG 0206/0209 24012KT TEMPO 0210/0217 26015G25KT BECMG 0216/0219 30010KT BECMG 0220/0223 30004KT",
    "EDDK": "TAF EDDK 011700Z 0118/0224 31010KT CAVOK BECMG 0119/0122 VRB03KT BECMG 0206/0209 25008KT BECMG 0210/0213 28013KT BECMG 0221/0223 31004KT",
    "EBLG": "TAF EBLG 011700Z 0118/0224 33009KT 9999 FEW040 BECMG 0205/0207 22010KT PROB30 TEMPO 0212/0215 SCT008 BKN011",
    "LSZH": "TAF LSZH 011725Z 0118/0224 24005KT 9999 FEW035 FEW040TCU TX27/0214Z TN14/0204Z TEMPO 0118/0119 SHRA BECMG 0119/0121 CAVOK BECMG 0200/0202 6000 MIFG NSC BECMG 0202/0204 1200 BCFG VV003 PROB40 0204/0206 0400 FG VV002 BECMG 0206/0208 9999 FEW025",
    "LIMC": "TAF LIMC 011700Z 0118/0224 02012KT CAVOK BECMG 0204/0206 VRB05KT",
    "LIRF": "TAF LIRF 011700Z 0118/0224 28014KT CAVOK BECMG 0118/0120 VRB05KT BECMG 0202/0204 04012KT TEMPO 0203/0218 4000 TSRA BKN010 BECMG 0208/0210 11010KT",
    "EINN": "TAF EINN 011700Z 0118/0218 21012KT 9999 -DZ FEW007 BKN012 TEMPO 0118/0121 24018G30KT TEMPO 0118/0124 4000 BKN007 PROB40 TEMPO 0120/0122 2000 -RADZ BR BKN004 BECMG 0122/0124 27018G30KT BECMG 0200/0202 28010KT NSW BKN020 BECMG 0206/0208 31008KT",
    "EGLL": "TAF EGLL 011659Z 0118/0224 29009KT 9999 SCT045 BECMG 0122/0124 23012KT TEMPO 0201/0209 BKN012 PROB30 TEMPO 0204/0209 8000 -RA PROB30 TEMPO 0206/0212 29015G25KT BECMG 0209/0212 31010KT",
    "EGSS": "TAF EGSS 011653Z 0118/0224 29008KT 9999 SCT045 BECMG 0119/0122 23012KT TEMPO 0202/0207 BKN014 PROB30 TEMPO 0203/0207 24015G25KT 8000 -RA -SHRA BKN009 BECMG 0207/0210 31014KT PROB30 TEMPO 0207/0209 9000 -RA BECMG 0218/0221 30004KT",
    "EPWA": "TAF EPWA 011730Z 0118/0218 33010KT 9999 SCT020 TEMPO 0118/0203 4000 SHRA BKN030CB PROB30 TEMPO 0119/0122 VRB35G50KT 0800 +TSRAGR BKN012 BKN030CB TEMPO 0122/0206 BKN005 BKN010",
    "UHPP": "TAF UHPP 011650Z 0118/0224 34003G08MPS 9999 BKN008 TEMPO 0118/0121 0500 FG VV001 BECMG 0121/0124 SCT020 BECMG 0200/0202 16005G12MPS BECMG 0207/0209 22003G10MPS",
    "EFHK": "TAF EFHK 011727Z 0118/0218 11007KT CAVOK PROB30 TEMPO 0118/0122 FEW050CB TEMPO 0122/0203 FEW050CB BECMG 0203/0205 6000 SHRA BKN009 SCT030CB TEMPO 0205/0209 9000 -RA SCT010 BKN040 BECMG 0209/0211 9999 -RA SCT045 TEMPO 0211/0218 FEW040CB",
    "LBBG": "TAF LBBG 011700Z 0118/0218 11010KT CAVOK BECMG 0118/0120 03006KT BECMG 0208/0209 12014KT TEMPO 0210/0216 5000 TSRA FEW030CB BKN045",
    "LTAC": "TAF LTAC 011640Z 0118/0218 07012KT CAVOK BECMG 0118/0121 VRB02KT BECMG 0207/0209 FEW040 SCT100 TEMPO 0213/0217 01012KT",
    "UBBB": "TAF UBBB 011652Z 0118/0218 VRB04KT CAVOK TX30/0210Z TN22/0201Z TEMPO 0118/0202 25005KT SCT020 BECMG 0202/0204 23010KT TEMPO 0208/0215 19018KT SCT035",
    "UTAA": "TAF UTAA 011655Z 0118/0218 33018KT 6000 BKN040 SCT050CB PROB40 TEMPO 0118/0124 VRB28KT 4000 -TSRA BECMG 0200/0202 02016KT 4000 DRDU BKN040",
    "UACC": "TAF UACC 011700Z 0118/0218 08005MPS 9999 SCT040 BKN060 TX30/0210Z TN15/0123Z TEMPO 0200/0205 12006MPS -TSRA SCT030CB BECMG 0205/0207 12007MPS SCT030CB TEMPO 0205/0216 VRB18MPS 3100 -TSRA SQ BKN030CB BECMG 0216/0218 16005MPS",
    "UAAA": "TAF UAAA 011706Z 0118/0218 06002G07MPS 9999 SCT040CB BKN100 TX31/0210Z TN19/0201Z TEMPO 0204/0210 17005G10MPS BECMG 0210/0211 24003G08MPS BKN015CB OVC050 TEMPO 0210/0215 29008G15MPS 3100 -TSRA BLDU TEMPO 0215/0218 18003MPS 5000 -TSRA",
    "UZTT": "TAF UZTT 011700Z 0118/0218 07010KT 7000 FEW060CB SCT100 TEMPO 0200/0212 28012G22KT -TSRA BKN050CB",
    "ZWWW": "TAF ZWWW 011501Z 0118/0224 18004MPS CAVOK TX38/0209Z TN29/0123Z TN28/0223Z BECMG 0202/0203 36004MPS BECMG 0213/0214 18004MPS",
    "ZLXY": "TAF ZLXY 011506Z 0118/0218 24003MPS 6000 NSC TX32/0207Z TN23/0121Z TEMPO 0207/0210 TSRA FEW040CB OVC050",
    "ZBAA": "TAF ZBAA 011500Z 0118/0224 15004MPS 5000 BR NSC TX34/0207Z TN21/0121Z TN23/0221Z",
    "ZBHH": "TAF ZBHH 011505Z 0118/0218 06004MPS 9999 FEW040 TX35/0208Z TN16/0122Z TEMPO 0206/0209 -TSRA FEW040CB FEW040",
    "ZSQD": "TAF ZSQD 011501Z 0118/0218 17004MPS 5000 BR NSC TX31/0206Z TN21/0120Z",
    "ZMCK": "TAF ZMCK 011642Z 0118/0224 VRB02MPS 9999 FEW030CB SCT033 TN14/0121Z TX26/0207Z PROB30 TEMPO 0118/0123 VRB08G13MPS 8000 TSRA SCT027CB SCT030 BECMG 0203/0205 33005MPS PROB40 TEMPO 0208/0216 VRB08G13MPS 8000 TSRA SCT027CB SCT030 BECMG 0212/0214 VRB02MPS",
    "UUEE": "TAF UUEE 011653Z 0118/0218 04003MPS 9999 SCT040 TX29/0213Z TN17/0201Z BECMG 0207/0209 18005MPS TEMPO 0209/0218 20008G14MPS",
    "UUDD": "TAF UUDD 011659Z 0118/0224 02003MPS 9999 SCT040 TX30/0212Z TN18/0201Z TEMPO 0203/0212 16005MPS TEMPO 0212/0224 20008MPS",
    "ULLI": "TAF ULLI 011654Z 0118/0218 09004G09MPS 6000 BKN020 TEMPO 0121/0202 3100 -SHRA BKN016CB BECMG 0202/0203 BKN011 TEMPO 0203/0215 1500 SHRA BR BKN006 BKN016CB BECMG 0213/0215 27006G13MPS BECMG 0215/0217 BKN016",
    "USSS": "TAF USSS 011652Z 0118/0218 34003G08MPS 6000 BKN011 TEMPO 0118/0204 0300 FG VV003 FM020400 02003G13MPS 9999 -SHRA BKN016CB TEMPO 0204/0218 -TSRA",
    "UNNT": "TAF UNNT 011700Z 0118/0218 04003G08MPS 8000 SCT040 TX30/0208Z TN16/0122Z PROB40 TEMPO 0118/0203 -TSRA BKN022CB TEMPO 0203/0212 10005G10MPS -TSRA BKN022CB",
    "UNKL": "TAF UNKL 011652Z 0118/0218 25003MPS 7000 SCT040 TEMPO 0118/0124 0300 FG BKN002 BECMG 0205/0207 -TSRAGR BKN020CB BECMG 0208/0210 31006G15MPS NSW TEMPO 0210/0215 -TSRAGR BECMG 0211/0213 26003MPS",
    "UIBB": "TAF UIBB 011700Z 0118/0218 28003G08MPS 0300 FG BKN001 BKN016CB TEMPO 0118/0201 4000 BR FEW001 BKN016CB BECMG 0201/0203 9999 -SHRA BKN016CB TEMPO 0203/0215 -TSRA",
    "UEEE": "TAF UEEE 011700Z 0118/0224 05003MPS CAVOK TX32/0206Z TN14/0118Z TEMPO 0200/0212 07006G12MPS",
    "UHHH": "TAF UHHH 011647Z 0118/0224 09003MPS 9999 SCT030 TX28/0206Z TN14/0119Z TEMPO 0120/0201 FEW008 SCT030",
    "UHSS": "TAF UHSS 011652Z 0118/0224 20003MPS 0600 FG BKN002 BKN016CB BECMG 0122/0124 9999 NSW SCT040CB"
  },
  "atis": {
    "RJAA": "[Arrival ATIS] RJAA ARR ATIS D 1429Z M1400 (APCH)ILS Y RWY16R USING RWY 16R DEP FREQ 124.2. RWY 16L/34R CLSD TIL 2030. RWY 16R/34L WILL BE CLSD FM 1510 EXC ACFT WITH PRIOR PERMISSION. M 011400Z AUTO 17004KT 150V210 6KM FEW090// SCT110// BKN120// 22/21 Q1011/A2986= Q/TWO NINE EIGHT SIX STP\n[Departure ATIS] RJAA DEP ATIS I 1101Z M1100 (APCH)ILS Y RWY16L LDG RWY 16L DEP RWY 16R DEP FREQ 124.2. TWY A1 CLSD. M 171100Z 16006KT 20KM FEW020CU BKN/// 20/18 Q1016/A3003= Q/THREE ZERO ZERO THREE STP",
    "PANC": "[Arrival ATIS] PANC ARR ATIS Y 1653Z ANC ATIS INFO Y 1653Z. 00000KT 10SM FEW030 FEW060 12/07 A2994 (TWO NINER NINER FOUR) RMK AO2 SLP139 T01220072. 7R, 7L APPROACHES IN USE. LANDING RWY 7R, 7L, DEPARTING RWY 7L, 33. NOTICE TO AIRMEN. TWY Q CLSD. TWY R CLSD BTWN TWY, S AND TWY U . TWY E CLSD BTWN TWY, L AND TWY M . TWY K BTWN A AND D RESTRICTED TO AIRCRAFT WITH WINGSPAN LESS THAN 118 FEET. CONTACT TOWER 118.3 FOR TAXI. ...ADVS YOU HAVE INFO Y.\n[Departure ATIS] PANC DEP ATIS Z 1753Z ANC ATIS INFO Z 1753Z. 22005KT 10SM FEW022 FEW040 FEW060 13/07 A2993 (TWO NINER NINER THREE) RMK AO2 SLP136 T01330072 10133 20067 56009. 7R, 7L APPROACHES IN USE. LANDING RWY 7R, 7L, DEPARTING RWY 7L, 33. NOTICE TO AIRMEN. TWY Q CLSD. TWY R CLSD BTWN TWY, S AND TWY U . TWY E CLSD BTWN TWY, L AND TWY M . TWY K BTWN A AND D RESTRICTED TO AIRCRAFT WITH WINGSPAN LESS THAN 118 FEET. CONTACT TOWER 118.3 FOR TAXI. ...ADVS YOU HAVE INFO Z.",
    "KSEA": "[Arrival ATIS] KSEA ARR ATIS A 1653Z SEA ATIS INFO A 1653Z. 20008KT 10SM SCT016 OVC036 14/08 A3009 (THREE ZERO ZERO NINER). ILS, RYS 16R AND 16L , APCH IN USE. DEPG RWY 16L, DEPG ACFT PLAN AND BRIEF NUMBERS FOR BOTH RWYS 16L AND 16C. SIMUL APCHS IN USE, BFI & SEA. TRAFFIC BELOW YOU ON FINAL. SIMUL APCHS IN USE TO PARA RYS. NOTAMS... BIRD ACTIVITY VICINITY ARPT. STADIUM TFR IN EFFECT CHECK FDC NOTAMS FOR MORE INFO. ...ADVS YOU HAVE INFO A.\n[Departure ATIS] KSEA DEP ATIS E 2253Z SEA ATIS INFO E 2253Z. 18008KT 10SM FEW026 BKN032 16/08 A3007 (THREE ZERO ZERO SEVEN). ILS, RYS 16R AND 16L , APCH IN USE. DEPG RWY 16L, DEPG ACFT PLAN AND BRIEF NUMBERS FOR BOTH RWYS 16L AND 16C. SIMUL APCHS IN USE, BFI & SEA. TRAFFIC BELOW YOU ON FINAL. SIMUL APCHS IN USE TO PARA RYS. NOTAMS... BIRD ACTIVITY VICINITY ARPT. ...ADVS YOU HAVE INFO E.",
    "ZSPD": "[Arrival ATIS] ZSPD ARR ATIS B 1730Z EXP ILS APCH INDEPENDENT PARL INSTR APCH LDG RWY 17R & 16L WIND RWY 17R TDZ 230/2MPS MID VRB BTN 190/ AND 260/1MPS END 220/1MPS RWY 16L TDZ 220/3MPS MID 230/2MPS END VRB BTN 210/ AND 270/1MPS VIS RWY 17R TDZ 4500M MID 4700M END 6000M VIS RWY 16L TDZ 7000M MID 5000M END 5000M BR NSC T 24 /DP 24 QNH 1009 HPA CAUTION THE BIRDS NEAR THE RUNWAY ADZ YOU HAVE INFO B.\n[Departure ATIS] ZSPD DEP ATIS W 1600Z DEP RWY 17L WIND RWY 17L TDZ 120/3MPS MID 120/2MPS END 100/2MPS VIS RWY 17L TDZ 4900M MID 5000M END 5000M BR NSC T 24 /DP 24 QNH 1008 HPA DELIVERY FREQ 121.7 CAUTION THE BIRDS NEAR THE RUNWAY ADZ YOU HAVE INFO W.",
    "ZSSS": "[Arrival ATIS] ZSSS ARR ATIS K 1430Z EXP ILS APCH LDG RWY 18L WIND RWY 18L TDZ 130/3MPS MID 120/3MPS END 130/3MPS VIS RWY 18L TDZ 7000M MID 6000M END 7000M BR NSC T 26 /DP 23 QNH 1009 HPA VISUAL APCH IN USE QNH OF SHANGHAI TERMINAL CONTROL AREA 1009 HPA ADZ YOU HAVE INFO K.\n[Departure ATIS] ZSSS DEP ATIS I 1330Z DEP RWY 18R WIND RWY 18R TDZ 130/2MPS MID 140/3MPS END 150/3MPS VIS RWY 18R TDZ 6000M MID 7000M END 6000M BR NSC T 27 /DP 22 QNH 1008 HPA VISUAL APCH IN USE QNH OF SHANGHAI TERMINAL CONTROL AREA 1009 HPA ADZ YOU HAVE INFO I.",
    "VHHH": "[Arrival ATIS] VHHH ARR ATIS H 1604Z ARRIVALS, RWY 25C. EXP ILS APCH, RWY 25C. RWY 25L MAY BE AVAILABLE FOR RNP AR APPROVED CARGO FLIGHTS UPON REQUEST. WIND 180/05KT. VIS 10KM. FBL SHRA. CLD FEW 1000FT SCT 2500FT. T28 DP25. QNH 1009HPA. ACK INFO H ON FIRST CTC WITH APP.\n[Departure ATIS] VHHH DEP ATIS Z 1605Z DEPARTURES, RWY 25L. WIND VRB5KT. VIS 10KM. FBL SHRA. CLD FEW 1000FT SCT 2500FT. T28 DP25. QNH 1009HPA. ACK INFO Z ON FIRST CTC WITH DELIVERY .",
    "RCTP": "[Arrival ATIS] RCTP ARR ATIS R 1600Z EXP ILS APCH RWY23R AND RWY23L ARR/DEP. WIND VRB/02KT VIS 10 KM OR MORE CLD FEW 1200FT SCT 2000FT T 27 DP 25 QNH 1011HPA NOSIG INFORM TAIPEI APCH OR TAIPEI TOWER ON INITIAL CONTACT YOU HAVE INFORMATION R\n[Departure ATIS] RCTP DEP ATIS R 1600Z EXP ILS APCH RWY23R AND RWY23L ARR/DEP. WIND VRB/02KT VIS 10 KM OR MORE CLD FEW 1200FT SCT 2000FT T 27 DP 25 QNH 1011HPA NOSIG INFORM TAIPEI APCH OR TAIPEI TOWER ON INITIAL CONTACT YOU HAVE INFORMATION R",
    "ZGSZ": "[Arrival ATIS] ZGSZ ARR ATIS A 1600Z EXP ILS APCH 15 EXP ILS OR VIS APCH 16R WIND 160/4MPS VIS 9999M CLD SCT 690M T 27 /DP 25 QNH 1009 HPA INDEPENDENT PARALLEL APPROACHES V17,V18 AVAILABLE AFTER SULAS FLY HEADING 040 MISSED APPROACH ALTITUDE SETTING 1200METERS WHEN AIRBORNE CONTACT ZHUHAI APPROACH EXPECTED RNP ILS DME Z APPROACH ADZ YOU HAVE INFO A.\n[Departure ATIS] ZGSZ DEP ATIS X 1430Z DEP RWY 16L WIND 160/6MPS VIS 9999M CLD FEW 600M /OVC 1200M T 27 /DP 25 QNH 1010 HPA DELIVERY FREQ 121.8 INDEPENDENT PARALLEL APPROACHES V17,V18 AVAILABLE AFTER SULAS FLY HEADING 040 MISSED APPROACH ALTITUDE SETTING 1200METERS WHEN AIRBORNE CONTACT ZHUHAI APPROACH EXPECTED RNP ILS DME Z APPROACH ADZ YOU HAVE INFO X.",
    "WSSS": "[Arrival ATIS] WSSS ARR ATIS B 1600Z METREPORT 1600Z ILS APCHRWY 20R SIMUL INDEPENDENT ILS AND VISUAL APPROACHES ARE CONDUCTED ON RWY 20. TWY W 9 CLOSED, RWY 02C 20C RAPID EXIT TAXIWAY INDICATOR LIGHTS OFFFOLLOW THE GREENS TRIAL IN PROGRESS. WHEN VACATING THE RWY, PILOTS TO ADHERE TO ATC VERBAL INSTRUCTIONS. WHEN ON TWY, PILOT TO ADHERE TO FOLLOW THE GREENS INSTRUCTIONS. WHEN APPROACHING [A] JUNCTION, KEEP [A] LOOKOUT FOR CONTINUOUS GREENS. [IF] [A] BREAK IN THE GREENS IS OBSERVED, STOP AND CLARIFY WITH ATC. WIND 300/ 03KT VIS 10KM CLD FEW 1800FT T26 DP24 QNH 1013HPA NOSIG ACK ATIS B\n[Departure ATIS] WSSS DEP ATIS C 1600Z METREPORT 1600Z RWY 20C SIMUL INDEPENDENT ILS AND VISUAL APPROACHES ARE CONDUCTED ON RWY 20. TWY W 9 CLOSED, RWY 02C 20C RAPID EXIT TAXIWAY INDICATOR LIGHTS OFFFOLLOW THE GREENS TRIAL IN PROGRESS. WHEN VACATING THE RWY, PILOTS TO ADHERE TO ATC VERBAL INSTRUCTIONS. WHEN ON TWY, PILOT TO ADHERE TO FOLLOW THE GREENS INSTRUCTIONS. WHEN APPROACHING [A] JUNCTION, KEEP [A] LOOKOUT FOR CONTINUOUS GREENS. [IF] [A] BREAK IN THE GREENS IS OBSERVED, STOP AND CLARIFY WITH ATC. WIND 230/ 03KT VRB BTN180 AND270 VIS 10KM CLD FEW 1800FT T26 DP24 QNH 1013HPA NOSIG DEP,INITIAL CMB 3000FT ACK ATIS C",
    "WMKK": "[Arrival ATIS] WMKK ARR ATIS E 1534Z WMKK ARR INFO E. TIME 1530. SINGLE RWY OPS IN PROGRESS. EXP RNAV / ILS APCH FOR RWY 14 LEFT. WIND RWY 14L DIRECTION NOT AVBL SPEED NOT AVBL. VIS RWY 14L TDZ NOT AVBL. CLD FEW 3000 FT. T 27. DP 24. QNH 1012. NOSIG. AT FIRST CONTACT WITH LUMPUR RADAR, NOTIFY RCPT OF E\n[Departure ATIS] WMKK DEP ATIS R 1534Z WMKK DEP INFO R. TIME 1530. SINGLE RWY OPS IN PROGRESS. RWY 14 RIGHT. WIND RWY 14R DIRECTION NOT AVBL SPEED NOT AVBL. VIS RWY 14R TDZ NOT AVBL. CLD FEW 3000 FT. T 27. DP 24. QNH 1012. NOSIG. ALL DEP ACFT TO CONTACT LUMPUR DEP AT 135 DECIMAL 25 MHZ WHEN ABN. AT FIRST CONTACT WITH LUMPUR GROUND, NOTIFY RCPT OF R",
    "VTBS": "[Arrival ATIS] VTBS ARR ATIS J 1600Z VTBS ARR ATIS J 1600Z EXP ILS Z APCH ARR RWY 19 OR RNP APCH RWY 20R ,RETIL RWY 19 U/S ,PILOT SHALL ADZ BKK APCH ON INITIAL CTC IF UNA TO CONDUCT RNP APCH DUE TO OPERATIONAL CONSTRAINT 1600Z WIND 190/4KT VIS 10KM CLD FEW 2000FT T30 DP22 QNH 1011HPA TREND NOSIG ADZ BKK APCH ON INITIAL CONTACT THAT YOU HAVE INFO J\n[Departure ATIS] VTBS DEP ATIS Q 1530Z DEP RWY 20L , ,AFT AIRBORNE ALL DEPARTING ACFT SHALL CTC 119.25 1530Z WIND 180/6KT VIS 10KM CLD FEW 2000FT T31 DP22 QNH 1011HPA TREND NOSIG ADZ GND WHEN INITIAL CONTACT YOU HAVE INFO Q",
    "VTBU": "[Arrival ATIS] VTBU ARR ATIS W 1400Z VTBU ARR ATIS W 1402Z RNP RWY 18 TRL FL130 1400Z WIND 250/3KT VIS 10KM CLD FEW 2000FT T29 DP27 QNH 1007HPA TREND NOSIG ADZ CONTROLLER WHEN INITIAL CONTACT YOU HAVE INFO W\n[Departure ATIS] VTBU DEP ATIS D VTBU ARR/DEP DATIS RPT VTBU ARR ATIS D 0330Z ILS \"Z\" APCH RWY 18 TRL FL130 0330Z WIND 110/4KT VRB BTN 350/ AND 120/ VIS 6KM CLD FEW 2000FT T31 DP27 QNH 1014HPA TREND NOSIG ADZ CONTROLLER WHEN INITIAL CONTACT YOU HAVE INFO D",
    "ROAH": "[Arrival ATIS] ROAH ARR ATIS Q 1604Z M1600 (APCH)ILS RWY18R USING RWY 18R DEP FREQ 126.5 258.3 RWY 18L/36R CLSD M 171600Z AUTO 18008KT 0300M R18L/P2000N E/1500D R18R/2000N E/1500D FG OVC001// 26/26 Q1013/A2993= Q/TWO NINE NINE THREE STP\n[Departure ATIS] ROAH DEP ATIS Z 0534Z M0530 (APCH)RNP RWY18R LDG RWY 18R DEP RWY 18L DEP FREQ 126.5 258.3 M 010530Z 20011KT 40KM FEW010CU 30/27 Q1012/A2988= Q/TWO NINE EIGHT EIGHT STP",
    "VVDN": "[Arrival ATIS] VVDN ARR ATIS K 1431Z VVDN INFO K 1431Z. ILS VICTOR APPROACH 35L.. DPTG RWY 35R.. 1431Z. WIND 220/06KT CAVOK T27 DP24 QNH 1008HPA TREND NOSIG. ADZ ON INITIAL CTC YOU HAVE INFO. K.\n[Departure ATIS] VVDN DEP ATIS S 0604Z VVDN INFO S 0604Z. ILS VICTOR APPROACH 35L.. DPTG RWY 35R.. 0604Z. WIND VRB/09KT CAVOK T37 DP24 QNH 1006HPA TREND NOSIG. ADZ ON INITIAL CTC YOU HAVE INFO. S.",
    "RCKH": "[Arrival ATIS] RCKH ARR ATIS X 1400Z EXPECT ILS APPROACH RWY 09 ARR/DEP TAXIWAY JULIETT, TAXIWAY BRAVO, TAXIWAY DELTA AND TAXIWAY ECHO CLOSED DUE MAINTENANCE. RUNWAY 0 9 ARRIVALS PLAN VACATE VIA CHARLIE OR FO\n[Departure ATIS] RCKH DEP ATIS J 0800Z EXPECT ILS APPROACH RWY 09 ARR/DEP TAXIWAY JULIETT, TAXIWAY BRAVO, TAXIWAY DELTA AND TAXIWAY ECHO CLOSED DUE MAINTENANCE. RUNWAY 0 9 ARRIVALS PLAN VACATE VIA CHARLIE OR FO",
    "KLAX": "[Arrival ATIS] KLAX ARR ATIS Z 1553Z - KLAX ATIS INFO Z 1553Z. 30003KT 9SM FEW009 OVC017 19/14 A2996 (TWO NINER NINER SIX) RMK AO2 SLP144 T01890144. SIMUL INST APCHS AND RNAV RNP RWYS 24R AND 25L APCHS, AND SIMUL APCHS IN PROG BTWN LAX AND HHR, SIMUL INSTR DEPARTURES IN PROG RWYS 24 AND 25. TWY C CLSD BTN TWY, C8 AND TWY C9 , , TWY C10 CLSD BTN TWY, B AND TWY C. RY 25R SFL OTS, RY 24L ALSF-2 OTS. LAX VOR UNMONITORED. TAXIWAY CHARLIE EIGHT BTWN TWY B AND TWY C AND TAXIWAY CHARLIE NINE BTWN TWY B AND TWY C ARE RESTRICTED TO AIRCRAFT WITH A WINGSPAN LESS THAN ONE HUNDRED EIGHTEEN FEET. USE CAUTION FOR INCREASED DRONE ACTIVIY IN THE VICINITY OF SOFI STADIUM AT OR BELOW 200FT AGL DURING THE WORLD CUP FROM 06/12/26 THROUGH 07/10/2026. HAZD WX INFO FOR LAX AREA AVBL FM FSS. BIRD ACTIVITY VICINITY ARPT. INCLUDE YOUR CALL SIGN IN ALL READBACKS. USE CAUTION WHEN EXITING RY24R AT TWY V, W, AND Y, TO HOLD SHORT OF RY24L. MULTIPLE RUNWAY INCURSIONS HAVE OCCURRED. ...ADVS YOU HAVE\n[Departure ATIS] KLAX DEP ATIS K 0953Z LAX ATIS INFO K 0953Z. 23004KT 9SM OVC006 17/15 A2992 (TWO NINER NINER TWO) RMK AO2 SLP128 T01670150. INST APCHS AND RNAV RNP APCHS ILS RY 24L, ILS RY 25L, AND SIMUL APCHS IN PROG BTWN LAX AND HHR, SIMUL INSTR DEPARTURES IN PROG 24L, 25R. CTC L A GC ON 121.75 FOR PUSH OR TAXI ON A. RWY 2 4 RIGHT SIX LEFT CLSD. TWY C CLSD BTN TWY, C8 AND TWY C9 , , TWY B CLSD BTN TWY, F AND TWY B1, TWY B1 CLSD. ILS RY 25R OTS, RY 25R SFL OTS, RY 24L ALSF-2 OTS. LAX VOR UNMONITORED. IF ASSIGNED RUNWAY 25R FOR DEPARTURE, EXPECT DEPARTURE FROM INTERSECTION FOXTROT. TAXILANE CHARLIE EIGHT RESTRICTED TO AIRCRAFT WITH A WINGSPAN LESS THAN ONE HUNDRED EIGHTEEN FEET. USE CAUTION FOR INCREASED DRONE ACTIVIY IN THE VICINITY OF SOFI STADIUM AT OR BELOW 200FT AGL DURING THE WORLD CUP FROM 06/12/26 THROUGH 07/10/2026. HAZD WX INFO FOR LAX AREA AVBL FM FSS. BIRD ACTIVITY VICINITY ARPT. TWR FREQ FOR ALL RWYS IS 120.95. CD AND GC FREQ IS 121.75. INCLUDE YOUR CALL SIGN IN ALL READBACKS. USE CAUTION WHEN EXITING RY24R AT TWY V, W, AND Y, TO HOLD SHORT OF RY24L. MULTIPLE RUNWAY INCURSIONS HAVE OCCURRED. ...ADVS YOU HAVE INFO K.",
    "KONT": "[Arrival ATIS] KONT ARR ATIS S 1615Z - KONT ATIS INFO S 1615Z SPECIAL. 11004KT 5SM HZ OVC015 18/14 A2996 (TWO NINER NINER SIX) RMK AO2 T01830139. ILS APR IN USE. RY26L & RY26R. LNDG AND DEPG RY 26L AND RY 26R. NOTAMS... TAXIWAY SIERRA FIVE CLOSED. TAXIWAY SIERRA CLOSED BETWEEN TAXIWAY SIERRA 8 AND TAXIWAY WHISKEY. RY 26L IM OTS, RY 26R ALS OTS. 8R PAPIS OTS. USE CAUTION FOR NUMEROUS BIRDS OBSERVED IN VICINITY OF ONT. UAS VICINITY ONT AT OR BELOW TWO HUNDRED. PILOTS READBACK RWY ASSIGNMENTS AND HOLD SHORT INSTRUCTIONS. ...ADVS YOU HAVE INFO S.\n[Departure ATIS] KONT DEP ATIS N 0553Z - KONT ATIS INFO N 0553Z. 24004KT 10SM BKN250 22/15 A2988 (TWO NINER EIGHT EIGHT) RMK AO2 SLP100. ILS AND VIS APR IN USE, RY26L & RY26R. LNDG AND DEPG RY 26L AND RY 26R. NOTAMS... TAXIWAY SIERRA CLSD BETWEEN SIERRA 8 AND W TAXIWAY Q SOUTH OF RWY 26L CLSD TAXIWAY T CLSD TAXIWAY SIERRA 5 CLSD. RY 26L IM OTS, RY 26R ALS OTS. USE CAUTION FOR NUMEROUS BIRDS OBSERVED IN VICINITY OF ONT. HAZD WX INFO FOR SOUTHERN CA AVBL ON FSS FREQUENCIES. PILOTS READBACK RWY ASSIGNMENTS AND HOLD SHORT INSTRUCTIONS. ...ADVS YOU HAVE INFO N.",
    "KSFO": "[Arrival ATIS] KSFO ARR ATIS O 1656Z - KSFO ATIS INFO O 1656Z. VRB06KT 10SM FEW006 BKN017 17/12 A2994 (TWO NINER NINER FOUR). SIMUL CLSLY SPCD DPNDNT ILS RY 28R AND ILS RY 28L APP IN USE. DEPG RWYS 28L, 28R. DEPG ACFT SHOULD BE PREPARED FOR A SHORT NOTICE RY CHANGE. RY 1L, 1R CLSD. NUMEROUS TWY CLOSURES FOR CONSTRUCTION ON THE FIELD, PILOTS CHECK NOTAMS. MULTIPLE CRANES VCY OF SFO CHECK NOTAMS. DEPG ACFT WAITING ON FINAL NUMBERS ADVISE GROUND PRIOR TO ENTERING TWY F. ...ADVS YOU HAVE INFO O.\n[Departure ATIS] KSFO DEP ATIS C 1256Z SFO ATIS INFO C 1256Z. 24004KT 10SM FEW008 13/09 A2987 (TWO NINER EIGHT SEVEN). ILS RY 28R APP IN USE. DEPG RWYS 28L, 28R. DEPG ACFT SHOULD BE PREPARED FOR A SHORT NOTICE RY CH",
    "KOAK": "[Arrival ATIS] KOAK ARR ATIS M 1453Z OAK ATIS INFO M 1453Z. 15007KT 10SM FEW008 BKN016 BKN022 15/11 A2988 (TWO NINER EIGHT EIGHT). RNAV Z RWY 30, ILS RWY 28R IN USE. FLOW TO LAX, SAN, SEA. ILS RWY 30, OTS, RWY 28R RAIL, OTS. UNN LIT CLOSE-IN OBSTACLES FOR RWY 30 DEPARTURES. RWY 30 DEPARTURES ARE ADVISED TO AVOID TURNING LEFT PRIOR TO DEPARTURE END OF RUNWAY. UNAUTH LASER ILLUMINATION EVENT. AT 0500Z . 28R FINAL 2 EAST OF AIRPORT. , 007 FEET, GREEN LASER, FROM THE NORTH. CTN, CRANE 1 POINT 6 NAUTICAL MILES, , AT 140 FEET AGL. CAUTION, BIRDS NEAR AIRPORT. ...ADVS YOU HAVE INFO M.\n[Departure ATIS] KOAK DEP ATIS O 1953Z OAK ATIS INFO O 1953Z. 28014KT 10SM FEW005 22/14 A2988 (TWO NINER EIGHT EIGHT). RNAV Z/VA RWY 30 ILS/VA RWY 28R. FLOW TO LAX, LAS, SAN. ILS RWY 30, OTS. UNN LIT CLOSE-IN OBSTACLES FOR RWY 30 DEPARTURES. RWY 30 DEPARTURES ARE ADVISED TO AVOID TURNING LEFT PRIOR TO DEPARTURE END OF RUNWAY. SIGNATURE UNI-COM OUT OF SERVICE. CAUTION, BIRDS NEAR AIRPORT. ...ADVS YOU HAVE INFO O.",
    "KDFW": "[Arrival ATIS] KDFW ARR ATIS T 1553Z - KDFW ARR INFO T 1553Z. 21015KT 10SM FEW090 FEW120 FEW180 BKN250 30/18 A2996 (TWO NINER NINER SIX). SIMUL VISUAL APCH TO RWYS, 13R, 18R, 17C, 17L. LDG RWY 17C EXP LAHSO TWY B 10460 FT AVAIL, LDG RWY 18R EXP LAHSO TWY B 10100 FT AVL. NOTICE TO AIRMEN. WARNING, RWY 18L HAS BEEN SHORTENED, 9273 FT AVAILABLE. RWY 18L ILS OTS, CL OTS. HAZD WX FOR DFW AVBL ON FSS. BIRD ACTIVITY VCNTY ARPT. ...ADVS YOU HAVE INFO T.\n[Departure ATIS] KDFW DEP ATIS W 1553Z - KDFW DEP INFO W 1553Z. 21022G32KT 10SM FEW025 FEW180 SCT250 31/21 A2994 (TWO NINER NINER FOUR) RMK AO2 PK WND 20032/1547 SLP128 T03110206. SIMUL PARL TRAFFIC DEPG RWYS 17R, 18L. NOTICE TO AIRMEN. WARNING, RWY 18L HAS BEEN SHORTENED, 9273 FT AVAILABLE. RWY 18L CL OTS. BIRD ACTIVITY VCNTY ARPT. ...ADVS YOU HAVE INFO W.",
    "KIAH": "[Arrival ATIS] KIAH ARR ATIS U 1553Z IAH ATIS INFO U 1553Z. 19005KT 10SM FEW030 SCT250 31/22 A3005 (THREE ZERO ZERO FIVE). ARRIVALS EXPECT ILS OR RNAV Y RY 26R, ILS OR RNAV Y RY 26L, ILS OR RNAV Y RY 27. SIMUL APPROACHES IN USE. DEPG RY 15L, RY 15R. NOTICE TO AIRMEN. UNITED RAMP CONTROL IN EFFECT. BIRD ACTIVITY VICINITY ARPT. LAHSO RY26L. CRANES ARE DOWN. TWY SA CLSD BTN TWY, SG AND TWY SK , TWY SB CLSD BTN TWY, SG AND TWY SK , , TWY WB CLSD BTN TWY, WG AND TWY WH . TWY SG CLSD, TWY EA CLSD. NOTAM ATIS IN USE ON FREQUENCY 126.225. ...ADVS YOU HAVE INFO U.\n[Departure ATIS] KIAH DEP ATIS A 2053Z IAH ATIS INFO A 2053Z. 19008G16KT 10SM SCT035 BKN250 33/24 A2993 (TWO NINER NINER THREE) RMK AO2 LTG DSNT E TSB02E23 SLP135 CB DSNT NE-E AND SW MOV NE 60000 T03280239 57019. ARRIVALS EXPECT ILS OR RNAV Y RY 26R, ILS OR RNAV Y RY 26L, ILS OR RNAV Y RY 27. SIMUL APPROACHES IN USE. DEPG RY 15L, RY 15R. NOTICE TO AIRMEN. UNITED RAMP CONTROL IN EFFECT. ALL RWY COND CODES, , 5 , , 5 , , 5 , AT 1730Z. HAZD WX INFO FOR IAH AREA AVBL FM FSS. BIRD ACTIVITY VICINITY ARPT. TWY SA CLSD BTN TWY, SG AND TWY SK , TWY SB CLSD BTN TWY, SG AND TWY SK , , TWY SG CLSD, TWY EA CLSD. NOTAM ATIS IN USE ON FREQUENCY 126.225. ...ADVS YOU HAVE INFO A.",
    "KORD": "[Arrival ATIS] KORD ARR ATIS H 1551Z ORD ATIS INFO H 1551Z. 22014G22KT 10SM FEW300 31/22 A2998 (TWO NINER NINER EIGHT) RMK AO2 SLP145 T03110217. ARR EXP VECTORS ILS RWY 27C APCH, ILS RWY 28C APCH, VISUAL APCH RWY 27R. SIMUL APCHS IN USE. DEPS EXP RWYS 22L 28R FROM NOVEMBER 5 9750 FT AVL. RWY 4L, 22R CLSD. RWY 22R LOC OTS, RWY 9L IM OTS, RWY 9C IM OTS, RWY 10L IM OTS, RWY 10R IM OTS, RWY 27R IM OTS, RWY 28L IM OTS, RWY 28R IM OTS, RWY 9L PAPI OTS, RWY 27R PAPI OTS, RWY 28C PAPI OTS. WIND SHEAR ADZYS ARE IN EFCT. PILOTS USE CTN FOR BIRD ACTIVITY IN THE VICINITY OF THE ARPT. HAZD WX INFO FOR ORD AREA AVBL ON FSS. USE CTN FOR PERSONNEL AND EQUIP AT NUMEROUS SITES ON THE FIELD. AUTHORIZED DRONE ACTIVITY, TERMINAL AREA, , 100 FEET. READBACK ALL RWY HOLD SHORT INSTRUCTIONS. WHEN READY TO TAXI CONTACT GND METERING ON FREQ 121.67. ...ADVS YOU HAVE INFO H.\n[Departure ATIS] KORD DEP ATIS K 1651Z ORD ATIS INFO K 1651Z. 23010G17KT 10SM FEW300 32/22 A2997 (TWO NINER NINER SEVEN) RMK AO2 SLP141 T03220217. ARR EXP VECTORS ILS RWY 27C APCH, ILS RWY 28C APCH, VISUAL APCH RWY 27R. SIMUL APCHS IN USE. LAND AND HOLD SHORT OPERATIONS ARE IN EFFECT. RWY 27C ARR PLAN TO H/S OF TWY V V, 9 THSD 7 HND 25 FT AVBL, RWY 28C ARR PLAN TO H/S OF TWY Z, 9 THSD 6 HND TEN FT AVBL. DEPS EXP RWYS 22L 28R FROM NOVEMBER 5 9750 FT AVL. RWY 4L, 22R CLSD. RWY 22R LOC OTS, RWY 9L IM OTS, RWY 9C IM OTS, RWY 10L IM OTS, RWY 10R IM OTS, RWY 27R IM OTS, RWY 28L IM OTS, RWY 28R IM OTS, RWY 9L PAPI OTS, RWY 27R PAPI OTS. PILOTS USE CTN FOR BIRD ACTIVITY IN THE VICINITY OF THE ARPT. HAZD WX INFO FOR ORD AREA AVBL ON FSS. USE CTN FOR PERSONNEL AND EQUIP AT NUMEROUS SITES ON THE FIELD. AUTHORIZED DRONE ACTIVITY, TERMINAL AREA, , 100 FEET. READBACK ALL RWY HOLD SHORT INSTRUCTIONS. WHEN READY TO TAXI CONTACT GND METERING ON FREQ 121.67. ...ADVS YOU HAVE INFO K.",
    "KJFK": "[Arrival ATIS] KJFK ARR ATIS E 1651Z - KJFK ATIS INFO E 1651Z. 18010KT 10SM FEW050 FEW250 29/21 A2999 (TWO NINER NINER NINER). APPROACH IN USE ILS RY 22L, ILS RY 22R. DEPG RY 22R. CRI OTS. RWY 22L/4R INNER MARKER OTS. SWAP IN EFFECT EXPECT REROUTES. NUM CRANES OPERATING AT JFK. BIRD ACTIVITY VICINITY ARPT. READBACK ALL RWY ASSIGNMENTS AND HOLD SHORT INSTRUCTIONS. ...ADVS YOU HAVE INFO E.\n[Departure ATIS] KJFK DEP ATIS F 1751Z JFK ATIS INFO F 1751Z. 19014KT 10SM FEW055 29/21 A2999 (TWO NINER NINER NINER). APPROACH IN USE ILS RY 22L, ILS RY 22R. DEPG RY 22R. CRI OTS. RWY 22L/4R INNER MARKER OTS. SWAP IN EFFECT EXPECT REROUTES. NUM CRANES OPERATING AT JFK. BIRD ACTIVITY VICINITY ARPT. READBACK ALL RWY ASSIGNMENTS AND HOLD SHORT INSTRUCTIONS. ...ADVS YOU HAVE INFO F.",
    "KIND": "[Arrival ATIS] KIND ARR ATIS Z 1254Z - KIND ATIS INFO Z 1254Z. 21009KT 10SM FEW070 BKN170 BKN250 21/18 A2998 (TWO NINER NINER EIGHT). PARL ILS RWY 23R AND 23L APPROACHES IN USE. CROSS RUNWAY OPERATIONS MAY BE IN EFFECT. NOTICE TO AIRMEN. RWY 32 GS OTS. TWY, P BTN TWY, H AND TWY B CLSD. P PAD CLSD. ILS RUNWAY 5R AND RUNWAY 5L INNER MARKER UNSERVICEABLE. RUNWAY 32 PAPI OTS. RUNWAY 32 TOUCHDOWN RVR OTS. RUNWAY 14 ROLLOUT RVR OTS. RWY 23R CONDITION CODES 5 5 5 AT 0920Z, RWY 23L CONDITION CODES. 5 5 5 AT 0920Z, RWY 32 CONDITION CODES. 5 5 5 AT 0920Z. ARPT ADZY FLOCK OF SMALL BIRDS IN THE VICINITY OF THE AIRPORT, ALT UNKN. ...ADVS YOU HAVE INFO Z.\n[Departure ATIS] KIND DEP ATIS H 1854Z IND ATIS INFO H 1854Z. 26009G19KT 10SM SCT036 BKN041 BKN170 23/16 A2981 (TWO NINER EIGHT ONE) RMK AO2 SLP088 T02280156. PARL ILS RWY 23R AND 23L APPROACHES IN USE. CROSS RU",
    "KDTW": "[Arrival ATIS] KDTW ARR ATIS L 1253Z DTW ARR INFO L 1253Z. 22008KT 10SM FEW070 SCT150 BKN230 19/13 A2963 (TWO NINER SIX THREE). SIMUL VISUAL RY 21L, RY 22R USE Z LOC FREQ 111.95 APCH IN USE. NOTICE TO AIRMEN. RWY 22L, 4R CLSD, RWY 27L, 9R CLSD, RWY 27R, 9L CLSD. PILOTS USE CTN FOR BIRD ACTIVITY. DEPARTURE ATIS 118.125. ...ADVS YOU HAVE INFO L.\n[Departure ATIS] KDTW DEP ATIS Q 2253Z - KDTW DEP INFO Q 2253Z. 21009KT 10SM FEW050 FEW250 33/24 A2991 (TWO NINER NINER ONE). DEPG RWY 21R, RWY 22L ;. NOTICE TO AIRMEN. RWY 27L, 9R CLSD, RWY 27R, 9L CLSD. PILOTS USE CTN FOR BIRD ACTIVITY. ...ADVS YOU HAVE INFO Q.",
    "KMSP": "[Arrival ATIS] KMSP ARR ATIS K 1753Z MSP ARR INFO K 1753Z. 19012G19KT 10SM FEW020 FEW055 SCT220 BKN250 26/18 A2985 (TWO NINER EIGHT FIVE). VISUAL RWY 12R APCH IN USE, VISUAL RWY 12L APCH IN USE. FINAL APCH, OVER NOISE SENSITIVE AREA. NOTICE TO AIRMEN. RWYS 4, 22 CLSD. TWY R7. R8. R9. R10. CLOSED, TWY R BETWEEN R6 AND R10 CLOSED. ILS RWY 12R OTS, GS RWY 12L OTS, MSP TDWR OTS, RWYS 12R, 12L, INNER MARKER OTS.. HAZD WX INFO FOR MSP AREA AVBL FM FSS. CTN, BIRDS NEAR MSP. READ BACK HS AND ALT. ALL ACFT TAXI WITH TRANSPONDER AND ALTITUDE ENCODING ON. ...ADVS YOU HAVE INFO K.\n[Departure ATIS] KMSP DEP ATIS V 1553Z - KMSP DEP INFO V 1553Z. 15012G24KT 10SM BKN140 BKN250 23/17 A2983 (TWO NINER EIGHT THREE). DEPARTING RWY 12L, RWY 12R, RWY 17. NOTICE TO AIRMEN. RWYS 4, 22 CLSD. TWY R7. R8. R9. R10. CLOSED, TWY R BETWEEN R6 AND R10 CLOSED. MSP TDWR OTS. SWAP IN EFCT, INCLUDING CDR. ALL ACFT CTC METERING ON ONE THREE THREE POINT FIVE SEVEN WHEN READY TO PUSHBACK OR TAXI. HAZD WX INFO FOR MSP AREA AVBL FM FSS. CTN, BIRDS NEAR MSP. READ BACK HS AND ALT. ALL ACFT TAXI WITH TRANSPONDER AND ALTITUDE ENCODING ON. ...ADVS YOU HAVE INFO V.",
    "CYEG": "[Arrival ATIS] CYEG ARR ATIS O 1715Z 29007KT 15SM -SHRA FEW016 CIG BKN084 OVC120 17/13 A2981 APCH RNAV Z OR Y RWY 20, INFORM ARRL OF REQ APCH ON INITIAL CTC. LDG AND DEP RWY 20. SIMUL APPROACHES MAY BE IN EFCT. INFORM CYEG ATC INFO O\n[Departure ATIS] CYEG DEP ATIS O 1715Z CYEG ARR ATIS O 1715Z 29007KT 15SM -SHRA FEW016 CIG BKN084 OVC120 17/13 A2981 APCH RNAV Z OR Y RWY 20, INFORM ARRL OF REQ APCH ON INITIAL CTC. LDG AND DEP RWY 20. SIMUL APPROACHES MAY BE IN EFCT. INFORM CYEG ATC INFO O",
    "EHAM": "[Arrival ATIS] EHAM ARR ATIS F 1650Z EHAM ARRIVAL INFO F. DEMAND. MAIN LANDING RWY 06. SECONDARY LANDING RWY 36 R. TRANSITION LEVEL 040. WIND 310 DEG, 9 KT, VRB BTN 240 AND 340 DEG, 17 KT MAX, 3 KT MNM. WIND SECONDARY RUNWAY 290 DEG, 9 KT, VRB BTN 250 AND 350 DEG, 14 KT MAX, 5 KT MNM. CAVOK. T 23. DP 9. QNH 1022 HPA. NOSIG. OPERATIONAL REPORT. CONVERGING APPROACHES IN PROGRESS. CONTACT APCH WITH CALLSIGN ONLY. END OF INFO F\n[Departure ATIS] EHAM DEP ATIS O 1322Z EHAM DEPARTURE INFO O. DEMAND. MAIN DEPARTURE RWY 36 L. MAIN LANDING RWY 06. WIND 320 DEG, 8 KT, VRB BTN 260 AND 030 DEG, 11 KT MAX, 3 KT MNM. VIS 10 KM OR MORE. CLD FEW 4200 FT. T 23. DP 9. QNH 1022 HPA. OPERATIONAL REPORT. INFORM SCHIPHOL DEL BY VOICE IF UNABLE TO COMPLY WITH NADP 2. END OF INFO O",
    "EBBR": "[Arrival ATIS] EBBR ARR ATIS M 1550Z EBBR NAT, EXP VECT FOR ILS APP ARR RWY25L RSCD AT 1526 RWY25L DRY. DEP RWY25R TRL 055 ILS RWY 25R U/S. RNP RWY 25R AVBL AT ATC DISCRETION. RWY STOPBARS U/S 210/7KT VRB BTN 190 AND 280 VIS ABV 10KM FEW3800FT T26 DP17 QNH 1019HPA NOSIG CFM ARR M\n[Departure ATIS] EBBR DEP ATIS K 1550Z EBBR NAT, DEP RWY25R RSCD AT 1536 RWY25R DRY. ARR RWY25L TRL 055 TWY OUT6, B3 CLSD. OUT7, E6, B1 MAX CAT C 250/9KT MNM6 MAX14 VIS ABV 10KM FEW3800FT T26 DP17 QNH 1019HPA NOSIG CFM DEP K",
    "EDDF": "[Arrival ATIS] EDDF ARR ATIS J -ARR-ATIS EDDF J METAR 011620 -EXPECT INDEPENDENT PARALLEL ILS Z APCH RWY 25R OR ILS APCH RWY 25L -RWY 25R 25L -GLS APCH ON REQUEST , DO NOT MISTAKE TWY M FOR RWY 25C WHEN PERFORMING VISUAL APPROACH , -TRL 60 - -VRB10G20KT -CAVOK - - -T26 DP10 -QNH1019 - -TREND NOSIG\n[Departure ATIS] EDDF DEP ATIS V 1720Z -DEP-ATIS EDDF V METAR 011720 - -RWY 25C 18 - -TRL 60 - -33010KT 290V350 RWY18 34008KT -CAVOK - - -T26 DP09 -QNH1020 - -TREND NOSIG",
    "EDDL": "[Arrival ATIS] EDDL ARR ATIS J 1620Z ATIS EDDL J METAR 011620 EXPECT VECTORS ILS APPROACH RWY23R RWY 23L 23R L8 CLOSED TRL 60 EXPECT INTENSE BIRD ACTIVITY IN THE VICINITY OF RWY SYSTEM 29011KT 260V320 CAVOK T26 DP09 QNH1021 TREND NOSIG\n[Departure ATIS] EDDL DEP ATIS J 1250Z -ATIS EDDL J METAR 301250 -EXPECT VECTORS ILS APPROACH -RWY 23L -L8 CLOSED TRY TO VACATE LATEST L7 L1 CLOSED CALCULATE TAKEOFF DISTANCE VIA L2 -TRL 60 -EXPECT INTENSE BIRD ACTIVITY IN THE VICINITY OF RWY SYSTEM -33008KT 290V010 -CAVOK - - -T27 DP15 -QNH1021 - -TREND NOSIG",
    "EDDK": "[Arrival ATIS] EDDK ARR ATIS M 1420Z -ATIS EDDK M METAR 011420 -EXPECT ILS APCH -RWY 24 -RWY COND RWY 24 AT TIME 1330 RWYCC 6 DEPOSIT TOTAL RWY DRY -TRL 60 -RWY 13R AND RWY 31L CLOSED FOR DEPARTURE AND LANDING: TAXIING BTN THR RWY 13R AND INTERSECTION RWY 24 POSSIBLE : -27011KT 230V320 -CAVOK - - -T27 DP09 -QNH1021 - -TREND NOSIG\n[Departure ATIS] EDDK DEP ATIS Q EDDK ARR/DEP DATIS RPT -ATIS EDDK Q METAR 291920 -EXPECT ILS APCH -RWY 31R 06 -RWY COND RWY 31R AT TIME 1830 RWYCC 6 DEPOSIT TOTAL RWY DRY RWY 06 AT TIME 1830 RWYCC 6 DEPOSIT TOTAL RWY DRY -TRL 60 -RWY 13R AND RWY 31L CLOSED FOR DEPARTURE AND LANDING: TAXIING BTN THR RWY 13R AND INTERSECTION RWY 24 POSSIBLE : -04003KT -CAVOK - - -T24 DP13 -QNH1024 - -TREND NOSIG",
    "EBLG": "[Arrival ATIS] EBLG ATIS F 0850Z EBLG INFO, EXP RNAV TO ILS APP ARR RWY22L DEP RWY22L RWY 22L DRY, RWYCC 666. TRL 055 TWY A4 CLSD 230/7KT VRB BTN 210 AND 290 VIS ABV 10KM FEW3000FT T19 DP11 QNH 1023HPA NOSIG CFM ATIS F",
    "LSZH": "[Arrival ATIS] LSZH ARR ATIS E 1650Z ARRIVALS, EXP ILS APCH, RWY 14. RWY COND REPORT. RWY COND CODE 6, 6, 6. COVERAGE NR, NR, NR. DEPTH NR, NR, NR. DRY AND DRY AND DRY. RWY REPORT END. TRL 70. DEP RWY 28. INCREASED BIRD ACT. WIND 220 DEG, 4 KT, VRB BTN 180 AND 250 DEG. VIS 10 KM OR MORE, TDZ 10 KM OR MORE. CLD FEW 3500 FT, FEW TCU 4000 FT. T 23. DP 12. QNH 1021. TREND TEMPO MOD SHRA.\n[Departure ATIS] LSZH DEP ATIS P 1650Z DEP RWY 28. RWY COND REPORT. RWY 28. RWY COND CODE 6, 6, 6. COVERAGE NR, NR, NR. DEPTH NR, NR, NR. DRY AND DRY AND DRY. RWY 16. RWY COND CODE 6, 6, 6. COVERAGE NR, NR, NR. DEPTH NR, NR, NR. DRY AND DRY AND DRY. RWY REPORT END. TRL 70. ARRIVALS, EXP ILS APCH, RWY 14. INCREASED BIRD ACT. TMA S 1 IS NOT ACT. TMA S 2 AND S 3 ARE NOT ACT. WIND 220 DEG, 5 KT, VRB BTN 180 AND 250 DEG. VIS 10 KM OR MORE. CLD FEW 3500 FT, FEW CB 4000 FT. T 23. DP 12. QNH 1021. TREND TEMPO MOD SHRA.",
    "LIMC": "[Arrival ATIS] LIMC ARR ATIS U 1650Z LIMC ARR U 1650Z I.L.S. ZULU RWY IN USE 35L TL 70 WIND TDZ 040/10KT CAVOK T27 DP11 QNH 1013HPA QFE 0987HPA AIRCRAFT REPORTED HEAD 30 KT . AT 2000 FT . ON FINAL RWY 35L\n[Departure ATIS] LIMC DEP ATIS A 1450Z LIMC DEP A 1450Z RWY IN USE 35L TL 70 INTERSECTION ECHO WHISKY CLOSED.. WIND END VRB8KT CAVOK T31 DP16 QNH 1018HPA QFE 0993HPA DATALINK CLEARANCE AVAILABLE.... CONTACT 1 3 1 8 8 0 TO BE RELEASED BY THE AIRPORT OPERATOR ...",
    "LIRF": "[Arrival ATIS] LIRF ARR ATIS Z 1611Z LIRF ARR Z 1611Z RWY 16L ILS X RWY 16R ILS Z RWY IN USE 16L 16R TL 70 DEPENDENT PARL ILS APCH INPR RWY IN USE 16R OR 16L ASSIGNED BY ROME RADAR WIND RWY 16L TDZ 280/15KT RWY 16R TDZ 270/12KT CAVOK T28 DP19 QNH 1018HPA RRSM\n[Departure ATIS] LIRF DEP ATIS B 0835Z LIRF DEP B 0835Z RWY IN USE 25 TL 75 RWYS IN USE FOR ARR 16L AND 16R WIND END 250/6KT VRB BTN 220/AND 280/ CAVOK T31 DP19 QNH 1013HPA REA IS SENT AUTOMATICALLY ONCE RLSD BY RAMP WHEN READY CONTACT FIUME RAMP 121.725 RRSM",
    "EINN": "[Arrival ATIS] EINN ARR ATIS V 1600Z EXPECT I L S CATEGORY 1 LDG RWY24 TKOF RWY24 TRL FL060 23014KT 9999 FEW014 BKN018 BKN022 20/16 QNH Q1020 TREND NOSIG ADVISE AT FIRST CONTACT YOU HAVE ATIS INFO V",
    "EGLL": "[Arrival ATIS] EGLL ARR ATIS B 1720Z RUNWAY 27R REDUCED DECLARED DISTANCES WITH TAKE OFF RUN AVAILABLE 3362METRES AND LANDING DISTANCE AVAILABLE 3362METRES LANDING RWY 27L TRANSITION-LEVEL: FL 70 IF STAND GUIDANCE IS OFF OR FAILS, REMAIN ON THE TAXIWAY CENTRELINE AND ADVISE ATC AUTO 27005KT 230V300 9999 NCD 24/11 Q1022 ACKNOWLEDGE RECEIPT OF INFORMATION B\n[Departure ATIS] EGLL DEP ATIS K 1520Z DEPARTURE RWY 27R PILOTS THAT ARE IN RECEIPT OF DATALINK CLEARANCES ARE REMINDED THEY MUST CONTACT DELIVERY ON 121.980 WHEN READY FOR START AUTO 22015KT 9999 BKN031 23/16 Q1017 ACKNOWLEDGE RECEIPT OF INFORMATION K AND REPORT AIRCRAFT TYPE AND CURRENT QNH ON FIRST CONTACT WITH HEATHROW",
    "EPWA": "[Arrival ATIS] EPWA ARR ATIS A 1601Z EPWA ARR A. TIME 1600. EXP U ARR ILS Z APCH FOR RWY 33. TRANSITION LEVEL 80. WIND 310 DEG, 7 KT. CAVOK. T 30. DP 13. QNH 1016. NOSIG. CAUTION. BIRD ACT. END OF EPWA ARR A\n[Departure ATIS] EPWA DEP ATIS Y 1437Z EPWA DEP Y. TIME 1435. DEP RWY 29. ARR RWY 33, EXP U ARR ILS Z. REPORT READY FOR STARTUP ON DELIVERY 121 DECIMAL 605. TRANSITION LEVEL 80. WIND 360 DEG, 8 KT, VRB BTN 330 AND 120 DEG. CAVOK. T 31. DP 16. QNH 1019. NOSIG. CAUTION. BIRD ACT. END OF EPWA DEP Y",
    "EFHK": "[Arrival ATIS] EFHK ARR ATIS A 1520Z EXPECT ILS APCH ARR RWY 22L RUNWAY 22L CONDITION REPORT AT 1354 UTC RUNWAY CONDITION CODES 3 , 3 , 3 CONTAMINANTS ALL PARTS 100 PERCENT SLIPPERY WET TRL 65 OBSERVE TAILWIND ON FINAL RWY22L WIND 330 DEG 8 KT VRB BTN 300 AND 360 DEG VIS 10KM FBL RA FEW 1400 FT T 15 DP 14 QNH 1002 NOSIG ACK INFO A\n[Departure ATIS] EFHK DEP ATIS U 1550Z DEP RWYS 22R AND 22L RUNWAY 22R CONDITION REPORT AT 1252 UTC RUNWAY CONDITION CODES 6 , 6 , 6 CONTAMINANTS ALL PARTS DRY RUNWAY 22L CONDITION REPORT AT 1307 UTC RUNWAY CONDITION CODES 6 , 6 , 6 CONTAMINANTS ALL PARTS DRY WIND 110 DEG 8 KT CAVOK T 22 DP 10 QNH 1016 NOSIG ACK INFO U",
    "LTAC": "[Arrival ATIS] LTAC ARR ATIS A 1450Z EXP ILS V APCH 03C DEP RWY 03L RWY 03C WIND VRB 02 KT TRL 110 VIS 9999 SCT04000 FT T 28 DP 07 QNH 1016 NOSIG FOR DELIVERY CTC 121.9. FOR DELIVERY FIRST USE DIGITAL DEP CLR. CTN BIRD HAZARD OVR AERODROME. APCH FREQUENCY 129.050. TAXIWAY ECHO 1 IS CLOSED. END OF ATIS A",
    "UBBB": "[Arrival ATIS] UBBB ARR ATIS I 1600Z ATIS I EXP ILS/ LDG 17 DEP 17 IN USE RWY 17 CLEAR DRY 70 TLVL 110 WIND WIND RWY 16 160 6 KT SPD MAX 6 MIN 6 WIND RWY 17 190 4 KT SPD MAX 6 MIN 2 VIS CAVOK T 25 / DP 18 QNH 1016 HPA TREND TREND NOSIG RWY 16 CLSD ONMAINT MODERATE BIRDS ACT IN VICINITY OF AP END OF ATIS I\n[Departure ATIS] UBBB DEP ATIS G 1500Z ATIS G EXP ILS/ LDG 17 DEP 17 IN USE RWY 17 CLEAR DRY 70 TLVL 110 WIND WIND RWY 16 180 6 KT SPD MAX 8 MIN 4 WIND RWY 17 210 6 KT SPD MAX 10 MIN 2 VIS CAVOK T 27 / DP 17 QNH 1016 HPA TREND TREND NOSIG RWY 16 CLSD ONMAINT MODERATE BIRDS ACT IN VICINITY OF AP END OF ATIS G",
    "ZWWW": "[Arrival ATIS] ZWWW ARR ATIS Q 1730Z EXP ILSDME Z APCH LDG RWY 26L TA 3000 WIND 320/2MPS VRB BTN 270/ AND 040/ CAVOK T 31 /DP 13 QNH 1007 HPA ADZ YOU HAVE INFO Q.\n[Departure ATIS] ZWWW DEP ATIS G 1300Z DEP RWY 26L TA 3000 WIND 300/2MPS CAVOK T 29 /DP 11 QNH 1011 HPA ADZ YOU HAVE INFO G.",
    "ZLXY": "[Arrival ATIS] ZLXY ARR ATIS B 1502Z EXP ILS APCH LDG RWY 05L & 06L WIND 350/1MPS VIS 9999M CLD SCT 1800M T 23 /DP 21 QNH 1009 HPA VISUAL APPROACH IN PROGRESS ADZ YOU HAVE INFO B.\n[Departure ATIS] ZLXY DEP ATIS P 0900Z DEP RWY 05L & 06L WIND 080/4MPS VRB BTN 030/ AND 120/ VIS 9999M CLD FEW 1500M /FEW TCU 1500M T 34 /DP 17 QNH 1005 HPA VISUAL APPROACH IN PROGRESS ADZ YOU HAVE INFO P.",
    "ZBAA": "[Arrival ATIS] ZBAA ARR ATIS Z 1600Z EXP ILS APCH DEPENDENT PARL INSTR APCH LDG RWY 36L & 36R WIND 070 DEG 1 MPS CAVOK T 21 /DP 20 QNH 1008 HPA VISUAL APPROACH IS IN PROGRESS. ADZ YOU HAVE INFO Z.\n[Departure ATIS] ZBAA DEP ATIS Y 1530Z DEP RWY 36L & 36R WIND 070 DEG 1 MPS CAVOK T 22 /DP 20 QNH 1008 HPA RWY INDEPENDENT PARALLEL DEP VISUAL APPROACH IS IN PROGRESS. ADZ YOU HAVE INFO Y.",
    "ZBHH": "[Arrival ATIS] ZBHH ARR ATIS E 1600Z EXP ILSDME APCH LDG RWY 08 TA 3000 /TRL 3600 WIND 060/2MPS VIS 9999M CLD FEW 1200M T 18 /DP 15 QNH 1011 HPA ADZ YOU HAVE INFO E.\n[Departure ATIS] ZBHH DEP ATIS K 0100Z DEP RWY 26 TA 3000 /TRL 3600 WIND VRB/2MPS CAVOK T 23 /DP 08 QNH 1010 HPA ADZ YOU HAVE INFO K.",
    "ZSQD": "[Arrival ATIS] ZSQD ARR ATIS T 1300Z EXP ILSDME APCH LDG RWY 17 TA 3000 /TRL 3600 WIND 160/4MPS CAVOK T 23 /DP 21 QNH 1009 HPA SEGREGATED OPERATION VISUAL APPROACH OPERATION IN PROGRESS. WHEN READY CONTACT QINGDAO TOWER ON 118.7 RUNWAY 17,IF MISSED APPROACH,EXPECT FOLLOW THE STANDARD MISSED APPROACH PROCEDURE,CLIMB TO 900M ON QNH OR BY ATC CAUTION MAYBE THERE IS A FLOCK OF BIRDS IN THE VICINITY OF AIRPORT ADZ YOU HAVE INFO T.\n[Departure ATIS] ZSQD DEP ATIS F 0002Z DEP RWY 16 TA 3000 /TRL 3600 WIND 160/5MPS VIS 9999M CLD FEW 900M T 24 /DP 20 QNH 1009 HPA SEGREGATED OPERATION VISUAL APPROACH OPERATION IN PROGRESS. RUNWAY 17,IF MISSED APPROACH,EXPECT FOLLOW THE STANDARD MISSED APPROACH PROCEDURE,CLIMB TO 900M ON QNH OR BY ATC CAUTION MAYBE THERE IS A FLOCK OF BIRDS IN THE VICINITY OF AIRPORT ADZ YOU HAVE INFO F."
  },
  "windtemp_alaska": "\n000\nFBAK31 KWNO 011359\nFD1AK1\nDATA BASED ON 011200Z    \nVALID 011800Z   FOR USE 1400-2100Z. TEMPS NEG ABV 24000\n\nFT  3000    6000    9000   12000   18000   24000  30000  34000  39000\nADK 2431 2531-01 2633-03 2631-09 2642-17 2649-29 265742 255544 255143\nADQ 1510 1511+02 2208-01 2712-07 2724-18 2738-30 274345 275746 275842\nAKN 1410 1612+00 2108-02 2407-06 2314-20 2618-31 263445 263847 263942\nANC 9900 0605+01 9900-04 9900-10 9900-23 3120-34 302947 292647 282742\nANN 2506 2307+00 2610-04 2713-09 2829-19 2934-30 293644 303848 302944\nBET 1412 1011-01 1214-04 1205-07 2113-20 2010-32 191248 241848 262142\nBRW 2305 2421-03 2427-08 2430-13 2435-25 2337-36 223449 232143 231041\nBTI 1707 2109+00 2313-06 2314-12 2218-23 2118-34 201448 201850 202044\nBTT 9900 2608-01 2408-06 2311-10 2211-23 2306-35 240948 241051 240944\nCDB 2519 2523+01 2536-01 2542-04 2554-17 2555-29 256044 256447 256245\nCZF 1011 1211-03 1311-05 1208-09 9900-20 2507-32 990048 990049 261443\nEHM 1810 2008+01 1914-03 2015-07 2117-19 2423-30 253546 253847 253143\nFAI 9900 1305+01 9900-04 9900-09 1909-23 1514-36 140549 990049 250742\nFYU 2708 2907+02 2906-03 2906-09 2312-22 1819-36 181950 181350 181344\nGAL 9900 9900-01 2007-07 9900-10 9900-22 2708-34 260848 251350 271544\nGKN 3405 0419+02 0318-04 0317-10 0111-23 0211-36 360949 311045 281241\nHOM 9900 1506+01 1508-03 1706-09 2914-20 2919-32 282847 283647 284042\nJNU 9900 2007-03 1711-09 1811-14 1720-26 1636-36 172739 221739 251340\nLUR 0607 2608-02 2417-06 2520-12 2526-25 2742-39 252548 261644 270940\nMCG 0808 1405+00 1709-05 1608-10 9900-21 2909-33 291747 281850 271944\nMDO 9900 3409+01 3510-04 3411-09 3408-22 3131-33 304945 294245 293941\nOME 2110 1506-01 1006-04 9900-10 2508-22 2612-35 251949 271548 271443\nORT      0208+01 3508-04 0109-10 0316-23 0326-36 071747 130545 180741\nOTZ 2111 2310+00 2308-05 2311-11 2518-24 2519-36 252450 261947 251343\nSNP 2211 2312+00 2212-04 2109-09 2505-18 2514-30 241945 242346 242242\nTKA 0105 0708+01 1107-04 1507-10 1610-23 3105-35 322647 311848 282042\nUNK 1605 1608-01 1610-07 1306-09 9900-21 2410-33 252348 262150 261444\nYAK 9900 3108-02 3308-06 3611-12 0216-25 0116-37 341642 321240 291640\nIKO 2430 2438+02 2450+00 2457-04 2461-17 2467-29 247243 247446 246645\nAFM 1909 1908-01 2506-05 2507-10 2414-24 2419-36 242850 242348 251344\n5AB 3116 3113+00 3118-01 3219-05 3222-17 3028-29 293143 293549 272647\n5AC 2209 2927+07 2935+03 2840-03 3046-14 3057-27 317341 328349 317151\n5AD 9900 2921+07 2928+02 2941-02 2961-14 2872-25 299140 791045 299448\n5AE 2619 2730+07 2631+03 2637-02 2658-15 2673-27 259741 760645 269546\n5AF 9900 2806-02 2817-06 2826-11 2861-20 2980-29 297642 296043 294842\n5AG 2708 3406+00 3512-05 3518-10 3423-23 3149-33 306943 305542 304641\n",
  "vaac_tokyo": [
    {
      "id": "20260701_27202000_0224",
      "year": "2026",
      "volcano": "Kanlaon",
      "psn": "N1025 E12308",
      "issued": "20260701",
      "text": "FVFE01 RJTD 011610\nVA ADVISORY\nDTG: 20260701/1610Z\nVAAC: TOKYO\nVOLCANO: KANLAON 272020\nPSN: N1025 E12308\nAREA: PHILIPPINES\nSOURCE ELEV: 2435M AMSL\nADVISORY NR: 2026/224\nINFO SOURCE: HIMAWARI-9 PHIVOLCS\nERUPTION DETAILS: ERUPTION AT 20260701/1546Z FL100 EXTD NNW REPORTED\nOBS VA DTG: 01/1550Z\nOBS VA CLD: VA NOT IDENTIFIABLE FM SATELLITE DATA WIND FL100 110/5KT\nFCST VA CLD +6 HR: NOT AVBL\nFCST VA CLD +12 HR: NOT AVBL\nFCST VA CLD +18 HR: NOT AVBL\nRMK: WE WILL ISSUE FURTHER ADVISORY IF VA IS DETECTED IN SATELLITE \nIMAGERY.\nNXT ADVISORY: NO FURTHER ADVISORIES=",
      "img_url": "https://ds.data.jma.go.jp/svd/vaac/data/VAGFN/2026/Images/20260701_27202000_0224_QH21_01.png",
      "sat_img_url": null,
      "text_url": "https://ds.data.jma.go.jp/svd/vaac/data/TextData/2026/20260701_27202000_0224_Text.html"
    },
    {
      "id": "20260630_27307000_0011",
      "year": "2026",
      "volcano": "Taal",
      "psn": "N1400 E12100",
      "issued": "20260630",
      "text": "FVFE01 RJTD 300656\nVA ADVISORY\nDTG: 20260630/0656Z\nVAAC: TOKYO\nVOLCANO: TAAL 273070\nPSN: N1400 E12100\nAREA: PHILIPPINES\nSOURCE ELEV: 311M AMSL\nADVISORY NR: 2026/11\nINFO SOURCE: HIMAWARI-9 PHIVOLCS\nERUPTION DETAILS: ERUPTION AT 20260630/0634Z FL050 EXTD SW REPORTED\nOBS VA DTG: 30/0640Z\nOBS VA CLD: VA NOT IDENTIFIABLE FM SATELLITE DATA WIND FL050 100/15KT\nFCST VA CLD +6 HR: NOT AVBL\nFCST VA CLD +12 HR: NOT AVBL\nFCST VA CLD +18 HR: NOT AVBL\nRMK: WE WILL ISSUE FURTHER ADVISORY IF VA IS DETECTED IN SATELLITE \nIMAGERY.\nNXT ADVISORY: NO FURTHER ADVISORIES=",
      "img_url": "https://ds.data.jma.go.jp/svd/vaac/data/VAGFN/2026/Images/20260630_27307000_0011_QH21_01.png",
      "sat_img_url": null,
      "text_url": "https://ds.data.jma.go.jp/svd/vaac/data/TextData/2026/20260630_27307000_0011_Text.html"
    },
    {
      "id": "20260629_30027000_0212",
      "year": "2026",
      "volcano": "Sheveluch",
      "psn": "N5639 E16122",
      "issued": "20260629",
      "text": "FVFE01 RJTD 292100\nVA ADVISORY\nDTG: 20260629/2100Z\nVAAC: TOKYO\nVOLCANO: SHEVELUCH 300270\nPSN: N5639 E16122\nAREA: RUSSIA\nSOURCE ELEV: 3283M AMSL\nADVISORY NR: 2026/212\nINFO SOURCE: HIMAWARI-9\nERUPTION DETAILS: POSS VA CONTINUOUSLY OBS IN SATELLITE IMAGERY.\nOBS VA DTG: 29/2020Z\nOBS VA CLD: SFC/FL330 N5821 E15839 - N5824 E15903 - N5810 E15901 - \nN5804 E15841 MOV NW 25KT\nFCST VA CLD +6 HR: 30/0220Z SFC/FL340 N6002 E15936 - N5922 E15845 - \nN5929 E15725 - N6012 E15855\nFCST VA CLD +12 HR: 30/0820Z SFC/FL330 N6015 E16127 - N6000 E16154 - \nN5926 E15906 - N5938 E15730 - N6000 E15744 - N5955 E15929\nFCST VA CLD +18 HR: 30/1420Z SFC/FL330 N5901 E16353 - N5834 E16359 - \nN5820 E15852 - N5900 E15721 - N5921 E15817 - N5846 E16027\nRMK: VA OBSCURED BY MET CLOUD. HOWEVER VA IS STILL EXPECTED IN THE \nAREA.\nNXT ADVISORY: 20260630/0000Z=",
      "img_url": "https://ds.data.jma.go.jp/svd/vaac/data/VAGFN/2026/Images/20260629_30027000_0212_QH21_01.png",
      "sat_img_url": "https://ds.data.jma.go.jp/svd/vaac/data/Sat/2026/Images/30027000/09-ir/20260629_2020_202606292100_ir.png",
      "text_url": "https://ds.data.jma.go.jp/svd/vaac/data/TextData/2026/20260629_30027000_0212_Text.html"
    },
    {
      "id": "20260628_27303000_0707",
      "year": "2026",
      "volcano": "Mayon",
      "psn": "N1315 E12341",
      "issued": "20260628",
      "text": "FVFE01 RJTD 281019\nVA ADVISORY\nDTG: 20260628/1019Z\nVAAC: TOKYO\nVOLCANO: MAYON 273030\nPSN: N1315 E12341\nAREA: PHILIPPINES\nSOURCE ELEV: 2462M AMSL\nADVISORY NR: 2026/707\nINFO SOURCE: HIMAWARI-9 PHIVOLCS\nERUPTION DETAILS: ERUPTION AT 20260628/0950Z FL120 EXTD WSW REPORTED\nOBS VA DTG: 28/1000Z\nOBS VA CLD: VA NOT IDENTIFIABLE FM SATELLITE DATA WIND FL120 050/10KT\nFCST VA CLD +6 HR: NOT AVBL\nFCST VA CLD +12 HR: NOT AVBL\nFCST VA CLD +18 HR: NOT AVBL\nRMK: WE WILL ISSUE FURTHER ADVISORY IF VA IS DETECTED IN SATELLITE \nIMAGERY.\nNXT ADVISORY: NO FURTHER ADVISORIES=",
      "img_url": "https://ds.data.jma.go.jp/svd/vaac/data/VAGFN/2026/Images/20260628_27303000_0707_QH21_01.png",
      "sat_img_url": null,
      "text_url": "https://ds.data.jma.go.jp/svd/vaac/data/TextData/2026/20260628_27303000_0707_Text.html"
    }
  ],
  "vaac_alaska": [
    {
      "text": "\n000\nFVAK21 PAWU 292114\nVAAAK1\nVA ADVISORY\n\nDTG: 20260629/2111Z\n\nVAAC: ANCHORAGE\n\nVOLCANO: SHEVELUCH 300270\n\nPSN: N5639 E16122\n\nAREA: KAMCHATKA PENINSULA\n\nSOURCE ELEV: 10771 FT AMSL\n\nADVISORY NR: 2026/163\n\nRMK: PLEASE SEE FVFE01 RJTD ISSUED BY VAAC TOKYO WHICH DESCRIBES\nCONDITIONS NEAR THE VAAC ANCHORAGE AREA OF RESPONSIBILITY...BS\n\n\n\n",
      "issued": "2026-06-29T21:14:00+00:00",
      "volcano": "Sheveluch",
      "psn": "N5639 E16122"
    }
  ]
}