{
  "updated_utc": "2026-07-18T16:50Z",
  "metar": {
    "RJAA": "METAR RJAA 181500Z AUTO 14004KT 9999 NCD 24/23 Q1008 NOSIG",
    "PANC": "METAR PANC 181453Z 22003KT 10SM -RA SCT006 BKN015 OVC021 09/08 A3000 RMK AO2 RAB19 SLP161 P0000 60000 T00940083 51006",
    "PAFA": "METAR PAFA 181453Z 00000KT 10SM FEW065 FEW080 11/09 A2991 RMK AO2 SLP132 VIRGA VC SE T01110089 52012 $",
    "PAED": "METAR PAED 181455Z 00000KT 10SM -RA OVC015 11/09 A2999 RMK AO2A RAB51 SLP152 PCPN VRY LGT P0000 60000 T01100086 52008 $",
    "KSEA": "METAR KSEA 181453Z 20006KT 10SM BKN006 OVC046 14/12 A3014 RMK AO2 SLP213 T01440122 51012 $",
    "ZSPD": "METAR ZSPD 181500Z VRB01MPS CAVOK 27/27 Q1003 NOSIG",
    "ZSSS": "METAR ZSSS 181500Z VRB01MPS 9999 -TSRA FEW030CB 26/24 Q1003 BECMG TL1550 -SHRA",
    "RJFR": "METAR RJFR 181500Z AUTO 35007KT 9999 FEW039 OVC047 28/25 Q1004",
    "VHHH": "METAR VHHH 181500Z 19005KT 150V210 9999 FEW010 30/25 Q1006 NOSIG",
    "RCTP": "METAR RCTP 181500Z 23008KT 9999 FEW020 27/24 Q1006 NOSIG RMK A2972",
    "ZGSZ": "METAR ZGSZ 181500Z 16004MPS CAVOK 29/27 Q1006 NOSIG",
    "WSSS": "METAR WSSS 181500Z VRB03KT 9999 FEW016 BKN300 29/25 Q1012 NOSIG",
    "WMKK": "METAR WMKK 181500Z VRB02KT 9999 FEW030 26/24 Q1011 NOSIG",
    "WIDD": "METAR WIDD 181500Z VRB02KT 9999 FEW014 28/25 Q1012 NOSIG",
    "VTBS": "METAR VTBS 181500Z 22010KT 9999 FEW020 30/25 Q1009 NOSIG",
    "VTBU": "METAR VTBU 181500Z 22005KT 9000 FEW020 29/28 Q1009 NOSIG",
    "ROAH": "METAR ROAH 181500Z AUTO 20008KT 9999 FEW005 BKN007 28/27 Q1006",
    "VVDN": "METAR VVDN 181500Z 24003KT 200V270 9999 FEW020 30/25 Q1006 NOSIG",
    "RCKH": "METAR RCKH 181500Z 19005KT 170V230 9999 FEW015 SCT020 BKN150 28/25 Q1008 NOSIG RMK A2978",
    "KLAX": "METAR KLAX 181453Z 09004KT 10SM SCT015 SCT130 22/18 A3001 RMK AO2 SLP159 T02220178 51006 $",
    "KONT": "METAR KONT 181453Z 22004KT 10SM FEW200 22/17 A3002 RMK AO2 SLP149 T02220172 53003 $",
    "KSFO": "METAR KSFO 181456Z 26007KT 10SM FEW012 BKN016 16/11 A3005 RMK AO2 SLP175 T01560111 53010 $",
    "KOAK": "METAR KOAK 181453Z 26003KT 10SM FEW007 BKN014 16/12 A3005 RMK AO2 SLP176 T01560117 53009",
    "KMHR": "METAR KMHR 181455Z AUTO 19008KT 10SM CLR 15/12 A2999 RMK AO2 T01530122 52013 $",
    "KDFW": "METAR KDFW 181453Z 20011KT 10SM FEW020 FEW190 SCT250 29/23 A3007 RMK AO2 SLP174 T02940228 50003 $",
    "KIAH": "METAR KIAH 181453Z 17006KT 10SM SCT022 SCT035 BKN250 31/25 A3012 RMK AO2 SLP199 T03060250 53006 $",
    "KORD": "METAR KORD 181451Z 29010G17KT 10SM FEW070 SCT100 BKN200 BKN250 30/22 A2987 RMK AO2 SLP109 T03000222 53002 $",
    "KJFK": "METAR KJFK 181451Z 18014KT 3SM -RA FU BKN040 BKN075 OVC110 24/22 A2992 RMK AO2 RAB13 SLP132 FU BKN040 P0000 60000 T02390222 56026 $",
    "KRFD": "METAR KRFD 181454Z 30012KT 10SM BKN031 BKN190 29/23 A2990 RMK AO2 SLP118 T02940228 53008 $",
    "KIND": "METAR KIND 181454Z 27012KT 10SM FEW047 BKN065 BKN250 31/23 A2995 RMK AO2 SLP134 T03060228 58006 $",
    "KDTW": "METAR KDTW 181453Z 23014KT 7SM SCT020 BKN100 BKN230 29/23 A2980 RMK AO2 SLP084 T02890233 58013 $",
    "KMSP": "METAR KMSP 181453Z 32006G15KT 10SM FEW250 27/18 A2999 RMK AO2 SLP149 T02670178 50005",
    "CYEG": "METAR CYEG 181500Z 17006KT 15SM BKN018 20/17 A2984 RMK SC7 SLP101 DENSITY ALT 3600FT",
    "EHAM": "METAR EHAM 181455Z 34012KT 310V020 9999 -RA FEW015 SCT017 BKN030 16/13 Q1017 NOSIG",
    "EBBR": "METAR EBBR 181520Z 31011KT 9999 SCT037 20/11 Q1018 NOSIG",
    "EDDF": "METAR EDDF 181520Z AUTO 28006KT 210V330 9999 VCSH FEW///TCU 28/10 Q1013 TEMPO SHRA BKN030CB",
    "EDFH": "METAR EDFH 181520Z COR 03007KT 350V060 9999 BKN055CB 21/13 Q1015",
    "EDDL": "METAR EDDL 181520Z AUTO 32012KT 9999 FEW046 22/12 Q1016 NOSIG",
    "EDDK": "METAR EDDK 181520Z AUTO 30014KT 280V340 9999 FEW044 24/12 Q1015 NOSIG",
    "EBLG": "METAR EBLG 181520Z 31008KT 280V340 9999 FEW032 21/13 Q1017 NOSIG",
    "LSZH": "METAR LSZH 181520Z VRB03KT 9999 VCTS FEW040CB SCT060 27/15 Q1015 TEMPO SHRA",
    "LIMC": "METAR LIMC 181520Z VRB03KT CAVOK 34/16 Q1010 NOSIG",
    "LIRF": "METAR LIRF 181520Z 26010KT CAVOK 32/23 Q1011 NOSIG",
    "EINN": "METAR EINN 181500Z 34011KT 310V020 9999 FEW025 22/11 Q1024 NOSIG",
    "EGLL": "METAR EGLL 181520Z AUTO 05009KT 010V100 9999 SCT049 22/09 Q1020",
    "EGSS": "METAR EGSS 181520Z AUTO 36009KT 9999 BKN037 BKN045 20/10 Q1021",
    "EPWA": "METAR EPWA 181500Z 27014KT 9999 FEW043TCU SCT045 25/16 Q1009 NOSIG",
    "UHPP": "METAR UHPP 181500Z 30004MPS 9999 FEW120 22/15 Q1018 R34L/CLRD62 NOSIG RMK QFE760/1014",
    "EFHK": "METAR EFHK 181520Z 13014KT CAVOK 25/15 Q1003 TEMPO FEW060TCU",
    "LBBG": "METAR LBBG 181500Z AUTO 12012KT 9999 NCD 27/19 Q1012 NOSIG",
    "LTAC": "METAR LTAC 181520Z 04006KT 360V070 9999 SCT040 28/08 Q1013 NOSIG RMK RWY21C 06003KT 360V170 RWY03L 04006KT 010V070 RWY21R 04005KT 010V070 RWY03R 01004KT 290V060 RWY21L 36006KT 310V010",
    "UBBB": "METAR UBBB 181500Z 35014KT CAVOK 28/20 Q1008 NOSIG",
    "UTAA": "METAR UTAA 181500Z 29010KT 9999 NSC 39/17 Q1005 R88/CLRD70 NOSIG",
    "UACC": "METAR UACC 181500Z 00000MPS CAVOK 31/11 Q1005 NOSIG RMK QFE723/0964",
    "UAAA": "METAR UAAA 181500Z 15002MPS 9999 SCT200 32/13 Q1006 NOSIG",
    "UZTT": "METAR UZTT 181500Z 24006KT CAVOK 37/18 Q1001 NOSIG",
    "ZWWW": "METAR ZWWW 181500Z 20002MPS 090V240 CAVOK 35/12 Q1007 NOSIG",
    "ZLXY": "METAR ZLXY 181500Z 24001MPS CAVOK 25/18 Q1007 NOSIG",
    "ZBAA": "METAR ZBAA 181500Z VRB01MPS CAVOK 23/21 Q1002 NOSIG",
    "ZBHH": "METAR ZBHH 181500Z 04003MPS 010V070 CAVOK 18/14 Q1009 NOSIG",
    "ZSQD": "METAR ZSQD 181500Z 16003MPS 9999 FEW053 24/20 Q1003 NOSIG",
    "ZMCK": "METAR ZMCK 181500Z VRB02MPS 9999 FEW030CB FEW033 16/10 Q1004 NOSIG RMK QFE639.2 65 NT",
    "UUEE": "METAR UUEE 181500Z 26002MPS CAVOK 25/11 Q1015 R06R/CLRD62 R06C/CLRD62 NOSIG",
    "UUDD": "METAR UUDD 181500Z 02002MPS 330V140 CAVOK 24/11 Q1015 R31L/CLRD65 NOSIG",
    "ULLI": "METAR ULLI 181500Z 18006MPS CAVOK 27/09 Q1008 R88/090065 NOSIG",
    "USSS": "METAR USSS 181500Z 05005MPS 9999 SCT020CB 20/20 Q1003 R08R/250050 TEMPO VRB20MPS -TSRAGR SQ RMK QFE732/0977",
    "UNNT": "METAR UNNT 181500Z 29001MPS CAVOK 21/20 Q1004 R07/CLRD// R16/CLRD// NOSIG RMK QFE743/0991",
    "UNKL": "METAR UNKL 181500Z 26002MPS CAVOK 18/18 Q1001 R29/CLRD// NOSIG RMK QFE726",
    "UIBB": "METAR UIBB 181500Z AUTO VRB01MPS 7000 // NCD 15/14 Q1001 RMK QFE708/0944",
    "UEEE": "METAR UEEE 181500Z 03001MPS 9999 -SHRA SCT023CB 17/17 Q0997 R23/290151 NOSIG RMK QFE739",
    "UHHH": "METAR UHHH 181500Z VRB01MPS CAVOK 19/19 Q1005 R23L/090060 NOSIG RMK QFE747/0996",
    "UHSS": "METAR UHSS 181500Z 00000MPS 9999 -SHRA SCT026CB 20/20 Q1009 RETS RMK MT OBSC QFE755/1007"
  },
  "taf": {
    "RJAA": "TAF RJAA 181105Z 1812/1918 16004KT 8000 FEW005 BKN020",
    "PANC": "TAF PANC 181449Z 1815/1918 VRB04KT P6SM -SHRA SCT010 OVC040 TEMPO 1815/1818 BKN015 FM182000 16008KT 6SM -RA OVC040 FM182300 14012G24KT P6SM VCSH SCT040 OVC070 FM190800 34005KT 6SM -RA OVC060 WS008/12030KT",
    "PAFA": "TAF PAFA 181136Z 1812/1918 20003KT P6SM SCT060 BKN100 FM190000 17006KT P6SM SCT050 SCT120",
    "PAED": "TAF PAED 181300Z 1813/1919 00000KT 9999 SCT008 BKN015 BKN020 620802 QNH2998INS BECMG 1819/1820 27004KT 9999 -SHRA BKN030 BKN060 650604 QNH3002INS BECMG 1904/1905 03008KT 9999 VCSH SCT030 BKN060 BKN080 640604 520208 QNH3002INS BECMG 1913/1914 36010KT 8000 -RA SCT050 BKN080 640802 550208 QNH2998INS TX13/1900Z TN10/1912Z",
    "KSEA": "TAF KSEA 181457Z 1815/1918 21006KT P6SM BKN006 OVC050 FM181800 24006KT P6SM SCT008 BKN045 FM181900 27006KT P6SM SCT050 FM190200 01008KT P6SM FEW250 FM191100 36005KT P6SM SCT250",
    "ZSPD": "TAF ZSPD 181504Z 1818/1924 04004MPS 8000 SCT030 TX33/1906Z TN27/1821Z TN27/1921Z TEMPO 1905/1909 TSRA BKN011 FEW030CB",
    "ZSSS": "TAF ZSSS 181503Z 1818/1924 11004MPS 8000 SCT030 TX33/1906Z TN27/1821Z TN27/1921Z TEMPO 1904/1908 TSRA BKN011 FEW030CB",
    "RJFR": "TAF RJFR 181105Z 1812/1918 01004KT 9999 FEW030 SCT040 BECMG 1821/1823 11006KT BECMG 1900/1903 06010KT TEMPO 1906/1912 -TSRA FEW020 BKN030 FEW030CB BECMG 1909/1912 31006KT TEMPO 1915/1918 BKN005 BKN020",
    "VHHH": "TAF VHHH 181400Z 1815/1921 20010KT 9999 FEW010 SCT025 TX31/1906Z TN27/1822Z TEMPO 1818/1824 3000 SHRA FEW010CB SCT020 TEMPO 1900/1906 24015G25KT 2500 TSRA SHRA FEW008CB SCT015",
    "RCTP": "TAF RCTP 181100Z 1812/1918 23015KT 9999 FEW010 BKN032 TEMPO 1812/1818 24010KT TEMPO 1818/1824 24009KT TEMPO 1900/1906 23020KT TEMPO 1906/1912 23022KT",
    "ZGSZ": "TAF ZGSZ 181502Z 1818/1924 18004MPS 8000 BKN040 TX30/1906Z TN27/1822Z TN26/1922Z TEMPO 1822/1901 SHRA FEW020CB BKN030 TEMPO 1902/1906 2500 +TSRA SCT010 FEW020CB BKN030",
    "WSSS": "TAF WSSS 181100Z 1812/1918 14005KT 9999 FEW015 SCT020",
    "WMKK": "TAF WMKK 181100Z 1812/1918 VRB03KT 9999 FEW018 PROB30 TEMPO 1820/1900 5000 TSRA FEW017CB",
    "VTBS": "TAF VTBS 181100Z 1812/1918 22008KT 9999 FEW020",
    "VTBU": "TAF VTBU 181100Z 1812/1912 22006KT 9000 FEW020 BECMG 1816/1818 36004KT BECMG 1900/1902 24008KT",
    "ROAH": "TAF ROAH 181105Z 1812/1918 21004KT 9999 FEW005 BKN010 TEMPO 1814/1821 FEW003 BKN005 TEMPO 1821/1900 FEW005 BKN008 TEMPO 1912/1918 FEW005 BKN008",
    "VVDN": "TAF VVDN 181100Z 1812/1912 22008KT 9999 FEW020 BECMG 1905/1906 01010KT",
    "RCKH": "TAF COR RCKH 181148Z 1812/1918 18005KT 9999 FEW010 BKN032 TEMPO 1812/1818 10005KT 4000 RA FEW010 BKN020 TEMPO 1818/1824 07005KT 4500 RA FEW010 BKN020 TEMPO 1900/1906 26009KT 5000 RA FEW010 BKN020 TEMPO 1906/1912 26010KT",
    "KLAX": "TAF KLAX 181617Z 1816/1918 13005KT P6SM SCT020 FM181900 26012KT P6SM FEW025 FM190300 24006KT P6SM FEW015 SCT150 FM190600 VRB03KT P6SM FEW015 SCT150 FM190900 VRB03KT P6SM BKN015 FM191700 VRB03KT P6SM SCT015",
    "KONT": "TAF KONT 181120Z 1812/1918 VRB04KT P6SM SCT200 FM182000 26010G21KT P6SM SCT150 FM190200 25010KT P6SM FEW200 FM190900 VRB04KT P6SM SKC",
    "KSFO": "TAF KSFO 181456Z 1815/1918 25007KT P6SM OVC015 FM181800 28015G25KT P6SM SKC FM190600 26007KT P6SM OVC010",
    "KOAK": "TAF KOAK 181456Z 1815/1918 24007KT P6SM OVC012 FM181800 27010KT P6SM SKC FM190500 26007KT P6SM OVC010",
    "KMHR": "TAF KMHR 181120Z 1812/1912 17008KT P6SM SKC FM181600 VRB05KT P6SM FEW250 FM182200 22011KT P6SM SKC FM190600 16007KT P6SM FEW250",
    "KDFW": "TAF KDFW 181437Z 1815/1918 18012KT P6SM SCT025 FM181600 18016KT P6SM SCT060 FM190200 18007KT P6SM FEW250",
    "KIAH": "TAF KIAH 181454Z 1815/1918 20007KT P6SM SCT020 BKN035 FM181900 17008KT P6SM SCT045 SCT250 FM190400 19004KT P6SM FEW020 SCT250",
    "KORD": "TAF KORD 181619Z 1816/1918 30012G18KT P6SM VCTS BKN035CB PROB30 1817/1820 VRB20G30KT 2SM TSRA BKN020 OVC035CB FM182000 06011G17KT P6SM FEW015 SCT035 FM190100 03012G18KT 5SM FU SCT015",
    "KJFK": "TAF KJFK 181421Z 1814/1918 18010KT 4SM SHRA FU OVC140 TEMPO 1815/1818 3SM TSRA BKN025CB FM181800 19014KT P6SM VCSH SCT015 OVC070 TEMPO 1819/1823 2SM TSRA BR BKN015 OVC050CB FM182300 20014G22KT 5SM -SHRA BKN015 OVC050 TEMPO 1823/1903 2SM TSRA BR BKN009 OVC050CB FM190300 24012KT 4SM SHRA BKN025 OVC050 FM190700 28012KT P6SM SCT040 BKN100 FM191200 33013KT P6SM BKN250",
    "KRFD": "TAF KRFD 181511Z 1815/1912 30013G22KT P6SM BKN030 FM181900 34011KT P6SM SCT035 FM190300 01009KT 5SM FU SCT035",
    "KIND": "TAF KIND 181120Z 1812/1918 23008KT P6SM FEW040 SCT180 FM181500 27013KT P6SM VCSH SCT050 PROB30 1821/1903 VRB15G25KT 5SM -TSRA BKN030CB FM190300 34007KT P6SM VCSH BKN150",
    "KDTW": "TAF KDTW 181509Z 1815/1918 24015G23KT P6SM SCT030 BKN050 OVC120 PROB30 1817/1820 2SM TSRA OVC030CB FM182100 32014G22KT P6SM SCT045 BKN060 FM190100 35010KT P6SM BKN200 FM190600 01005KT P6SM SKC",
    "KMSP": "TAF KMSP 181454Z 1815/1918 01010G18KT P6SM FEW250 FM190200 03004KT P6SM SCT250",
    "CYEG": "TAF CYEG 181441Z 1815/1912 17005KT P6SM BKN020 TEMPO 1815/1816 BKN030 FM181600 16010KT P6SM FEW020 BECMG 1816/1818 25005KT FM182000 28008KT P6SM SCT050 FM190000 27006KT P6SM FEW050 TEMPO 1900/1904 VRB25G40KT P6SM VCTS BKN050CB FM190400 25008KT P6SM FEW100 FM191000 27008KT P6SM SCT080 TEMPO 1910/1912 VRB25G35KT P6SM VCTS BKN080CB RMK NXT FCST BY 181800Z",
    "EHAM": "TAF EHAM 181115Z 1812/1918 32013KT 9999 SCT025 BKN030 BECMG 1819/1822 31008KT PROB30 TEMPO 1820/1824 7000 -SHRA FEW020TCU BECMG 1906/1909 32016KT",
    "EBBR": "TAF EBBR 181112Z 1812/1918 32010KT 9999 SCT030 SCT045",
    "EDDF": "TAF EDDF 181100Z 1812/1918 29009KT 9999 SCT045 PROB30 TEMPO 1814/1820 31015G25KT TSRA BKN045CB BECMG 1819/1822 31004KT PROB30 TEMPO 1901/1904 SHRA BKN035CB BECMG 1906/1908 30009KT",
    "EDFH": "TAF EDFH 181100Z 1812/1912 31007KT 9999 FEW045 PROB30 TEMPO 1814/1819 32015G25KT TSRA BKN035CB",
    "EDDL": "TAF EDDL 181100Z 1812/1918 31011KT 9999 SCT035 BECMG 1819/1822 29006KT BECMG 1907/1910 30012KT PROB30 TEMPO 1914/1917 31015G25KT",
    "EDDK": "TAF EDDK 181100Z 1812/1918 32011KT 9999 SCT040 BECMG 1819/1822 31006KT BECMG 1907/1910 31011KT PROB30 TEMPO 1913/1918 31015G25KT",
    "EBLG": "TAF EBLG 181112Z 1812/1918 31010KT 9999 SCT030 SCT045",
    "LSZH": "TAF LSZH 181425Z 1815/1921 20008KT 9999 FEW060CB TX26/1815Z TN15/1904Z TX24/1914Z PROB40 TEMPO 1815/1817 23015G26KT TSRA BECMG 1818/1820 15005KT BECMG 1821/1824 CAVOK BECMG 1905/1908 9999 SCT040 PROB40 TEMPO 1907/1917 SHRA SCT050TCU BECMG 1908/1911 30010KT PROB30 TEMPO 1912/1916 32015G25KT TSRA FEW050CB BECMG 1918/1921 03006KT CAVOK",
    "LIMC": "TAF LIMC 181100Z 1812/1918 22010KT 9999 FEW040 BECMG 1816/1818 VRB05KT PROB40 TEMPO 1819/1902 TSRA",
    "LIRF": "TAF LIRF 181100Z 1812/1918 27012KT CAVOK BECMG 1820/1822 VRB05KT BECMG 1907/1909 17010KT BECMG 1912/1914 23010KT BECMG 1916/1918 VRB05KT",
    "EINN": "TAF EINN 181100Z 1812/1912 36012KT 9999 FEW025",
    "EGLL": "TAF EGLL 181053Z 1812/1918 02010KT 9999 FEW030 PROB40 TEMPO 1903/1908 32006KT",
    "EGSS": "TAF EGSS 181056Z 1812/1918 03006KT 9999 SCT032 BECMG 1823/1902 33010KT",
    "EPWA": "TAF EPWA 181430Z 1815/1915 26012KT 9999 SCT035 TEMPO 1815/1820 27015G25KT 4000 SHRA SCT030CB PROB40 TEMPO 1815/1818 VRB17G28KT 2000 TSRA BKN030CB BECMG 1817/1819 VRB02KT TEMPO 1909/1915 -SHRA SCT040CB PROB30 TEMPO 1911/1915 VRB15G25KT 3000 TSRA BKN040CB",
    "UHPP": "TAF UHPP 181351Z 1815/1921 36003G12MPS 9999 SCT050 TX28/1903Z TN18/1816Z TEMPO 1821/1912 30005G12MPS",
    "EFHK": "TAF EFHK 181437Z 1815/1915 15009KT CAVOK TEMPO 1815/1817 FEW060CB TEMPO 1817/1821 21012G22KT 4000 TSRA BKN012 BKN040CB BECMG 1821/1823 BKN012 FEW040CB BECMG 1823/1901 BKN007 TEMPO 1901/1906 6000 -RADZ BKN007 FEW040CB BECMG 1906/1908 28012KT BKN012 BECMG 1910/1912 34012KT BKN015",
    "LBBG": "TAF LBBG 181100Z 1812/1912 12012KT CAVOK BECMG 1820/1822 VRB03KT TEMPO 1902/1905 3000 BR BKN010 BECMG 1906/1908 12012KT",
    "LTAC": "TAF LTAC 181040Z 1812/1912 06012KT 9999 SCT040 BECMG 1816/1819 CAVOK BECMG 1900/1903 VRB02KT",
    "UBBB": "TAF UBBB 181052Z 1812/1912 34016KT CAVOK TX30/1812Z TN25/1901Z TEMPO 1812/1818 02014KT FEW050CB PROB40 TEMPO 1818/1824 TS SCT040CB TEMPO 1900/1906 SCT012 FEW050CB",
    "UTAA": "TAF UTAA 181045Z 1812/1912 27016KT 6000 SCT050 TX42/1912Z TEMPO 1812/1818 34014G24KT 4000 DRDU TEMPO 1900/1907 30012G22KT",
    "UACC": "TAF UACC 181110Z 1812/1912 27006MPS 9999 SCT040CB BKN100 TX34/1909Z TN20/1900Z TEMPO 1812/1816 31007G12MPS BECMG 1816/1818 14003MPS TEMPO 1818/1904 20008MPS -TSRA BKN030CB BECMG 1904/1906 24006MPS TEMPO 1904/1912 28009MPS -TSRA BKN030CB",
    "UAAA": "TAF UAAA 181104Z 1812/1912 17002MPS 9999 FEW050 SCT100 TX42/1910Z TN23/1900Z TEMPO 1812/1816 04005MPS BECMG 1903/1904 01005MPS TEMPO 1905/1912 06005G10MPS",
    "UZTT": "TAF UZTT 181100Z 1812/1912 07010KT 7000 NSC TX44/1911Z TN27/1900Z TEMPO 1812/1816 32015KT",
    "ZWWW": "TAF ZWWW 181502Z 1818/1924 18004MPS CAVOK TX39/1909Z TN28/1823Z TN29/1923Z BECMG 1902/1903 36004MPS BECMG 1913/1914 18004MPS",
    "ZLXY": "TAF ZLXY 181502Z 1818/1918 26003MPS 6000 NSC TX36/1907Z TN21/1821Z",
    "ZBAA": "TAF ZBAA 181501Z 1818/1924 18003MPS CAVOK TX31/1906Z TN21/1821Z TN22/1921Z",
    "ZBHH": "TAF ZBHH 181501Z 1818/1918 06004MPS CAVOK TX30/1908Z TN15/1822Z TEMPO 1909/1912 VRB08G13MPS -TSRA FEW040CB FEW040",
    "ZSQD": "TAF ZSQD 181501Z 1818/1918 18004MPS 3500 BR NSC TX31/1906Z TN22/1820Z",
    "ZMCK": "TAF ZMCK 181636Z 1818/1924 VRB02MPS 9999 FEW030CB SCT033 TN12/1821Z TX24/1907Z BECMG 1900/1902 32005MPS PROB40 TEMPO 1905/1912 VRB09G14MPS TSRA SCT027CB SCT030 BECMG 1911/1913 VRB02MPS",
    "UUEE": "TAF UUEE 181350Z 1815/1915 05003MPS CAVOK TX27/1912Z TN15/1901Z TEMPO 1903/1915 22005MPS",
    "UUDD": "TAF UUDD 181352Z 1815/1921 20003MPS CAVOK TX27/1912Z TN12/1901Z",
    "ULLI": "TAF ULLI 181352Z 1815/1915 18006G12MPS 9999 SCT020 BECMG 1906/1908 22006G12MPS TEMPO 1909/1915 25009G15MPS 3100 -TSRA BKN017CB",
    "USSS": "TAF USSS 181345Z 1815/1915 06003G14MPS 6000 -SHRA BKN016CB TEMPO 1815/1915 VRB20MPS 0500 +TSRAGR SQ BKN003 BKN011CB",
    "UNNT": "TAF UNNT 181400Z 1815/1915 32003G08MPS 8000 SCT040 TX26/1912Z TN16/1822Z TEMPO 1815/1819 22006G15MPS -TSRA BKN020CB TEMPO 1819/1902 0150 FG BKN001 TEMPO 1902/1915 02006G13MPS -TSRA BKN020CB",
    "UNKL": "TAF UNKL 181347Z 1815/1915 27003MPS 6000 NSC TEMPO 1816/1818 0400 FG BECMG 1818/1820 0300 FG VV002 BECMG 1821/1823 6000 NSW TEMPO 1904/1915 -TSRA BKN016CB",
    "UIBB": "TAF UIBB 181400Z 1815/1915 20004MPS 0300 FG BKN001 BKN016CB TEMPO 1815/1821 4000 -SHRA FEW001 BKN017CB FM190100 26005G10MPS 9999 -SHRA BKN017CB TEMPO 1901/1915 VRB10MPS -TSRA",
    "UEEE": "TAF UEEE 181400Z 1815/1921 06003MPS 9999 FEW007 BKN017CB OVC070 TEMPO 1815/1901 0300 -TSRA FG VV002 TEMPO 1901/1915 VRB10MPS 2100 -TSRA SCT007 BKN015CB OVC070",
    "UHHH": "TAF UHHH 181353Z 1815/1921 24003MPS CAVOK TX30/1904Z TN18/1818Z FM181800 VRB01MPS 0400 FG VV002 BECMG 1821/1823 5000 BR FEW010 FM190100 28003MPS 9999 SCT020CB",
    "UHSS": "TAF UHSS 181350Z 1815/1921 36006MPS 5000 -SHRA BKN005 BKN016CB TEMPO 1815/1820 -TSRA BECMG 1906/1908 9999 NSW BKN020CB"
  },
  "atis": {},
  "windtemp_alaska": "\n000\nFBAK31 KWNO 181359\nFD1AK1\nDATA BASED ON 181200Z    \nVALID 181800Z   FOR USE 1400-2100Z. TEMPS NEG ABV 24000\n\nFT  3000    6000    9000   12000   18000   24000  30000  34000  39000\nADK 3318 3323+03 3329-02 3233-07 3350-18 3377-26 840936 841845 841349\nADQ 1725 1928+02 2128-03 2239-08 2148-15 2156-27 226741 227149 225254\nAKN 1633 1726+00 1727-05 1620-08 1923-19 2047-30 208244 218649 204146\nANC 1608 1519+00 1520-06 1717-10 2335-17 2353-27 236942 237350 234950\nANN 3213 3110+05 3014+03 2915-01 3018-15 3231-27 335442 334749 302249\nBET 1314 1011-02 0914-07 1113-11 1617-22 1824-34 193246 182643 181641\nBRW 0820 0921+02 0823-03 0818-09 0922-20 1126-31 083148 093148 102141\nBTI 0606 9900+04 2205-01 1909-06 1621-18 1533-29 165342 165750 163347\nBTT 9900 9900+02 9900-04 1705-10 1614-24 1813-35 201946 171843 161740\nCDB 1917 2015-02 2020-05 2025-09 2027-21 2041-32 205240 204040 212640\nCZF 0408 0309+00 0512-06 0516-12 0513-24 0505-36 990047 040542 050839\nEHM 1023 1219-02 1319-04 1421-10 1631-22 1743-34 184745 183341 181940\nFAI 1908 1509+02 1512-04 1411-10 1614-22 2320-31 233746 233546 202342\nFYU 2709 2305+03 9900-03 9900-08 1718-21 1637-34 154046 172944 172242\nGAL 1711 1713+00 1713-06 1713-13 1819-24 1925-34 202847 192044 171440\nGKN 1714 1818+01 1818-05 1916-09 2223-18 2441-26 256143 257050 243348\nHOM 1516 1717-01 1918-05 2122-08 2238-16 2352-27 226941 227050 225653\nJNU 2407 2806+01 2714+02 2616-02 2822-15 3139-27 315441 315551 291948\nLUR 0816 0714+02 0616-03 0621-09 0629-21 0539-32 045346 053948 052041\nMCG 1408 1508-01 1212-06 1314-12 1919-21 2236-33 213848 213445 202341\nMDO 2011 1910-01 2017-03 2326-05 2440-16 2438-26 244341 244850 244655\nOME 1210 1208+01 0705-05 0308-12 0515-24 0520-36 052145 051341 050939\nORT      2808+03 2308-03 2210-08 2217-18 2627-29 276043 285849 242546\nOTZ 1216 1216+00 1018-05 0819-10 0721-24 0627-36 063045 062342 071439\nSNP 3627 0126-03 0128-07 3630-12 3630-23 3529-34 353545 353641 353239\nTKA 9900 1512+00 1615-06 1816-11 1921-20 2240-28 237043 237749 223646\nUNK 1810 1916+00 1913-06 1709-12 1709-25 2019-36 212546 181142 150939\nYAK 2405 2506+01 2609-03 2614-04 2726-15 2939-26 284341 284750 283753\nIKO 3340 3336-02 3341-06 3341-11 3235-22 3229-34 323143 323638 323139\nAFM 1410 1414+00 1416-05 1418-11 1220-25 1220-36 121846 121442 121139\n5AB 2610 3119+09 3225+05 3336+01 3350-11 3356-18 336732 337842 338353\n5AC 3218 3121+07 3121+04 3124+00 3035-12 3037-24 312740 323750 323558\n5AD 2114 2420+05 2524+02 2528-02 2523-13 2428-24 243440 253049 232259\n5AE 1830 2037+04 2039-01 2044-06 2149-14 2155-25 216841 217349 216454\n5AF 3014 3015+05 2916+02 2918-03 3030-13 2929-25 292740 303050 303757\n5AG 2613 2711+02 2616-01 2722-04 2730-14 2736-26 263740 263949 263956\n",
  "vaac_active": [],
  "vaac_tokyo": [
    {
      "id": "20260718_30027000_0268",
      "year": "2026",
      "volcano": "Sheveluch",
      "psn": "N5639 E16122",
      "issued": "20260718",
      "text": "FVFE01 RJTD 180000\nVA ADVISORY\nDTG: 20260718/0000Z\nVAAC: TOKYO\nVOLCANO: SHEVELUCH 300270\nPSN: N5639 E16122\nAREA: RUSSIA\nSOURCE ELEV: 3283M AMSL\nADVISORY NR: 2026/268\nINFO SOURCE: KVERT HIMAWARI-9\nERUPTION DETAILS: VA CONTINUOUSLY OBS IN SATELLITE IMAGERY\nOBS VA DTG: 17/2320Z\nOBS VA CLD: SFC/FL290 N5601 E16322 - N5605 E16357 - N5546 E16401 - \nN5544 E16326 MOV SE 25KT\nFCST VA CLD +6 HR: 18/0520Z SFC/FL300 N5529 E16617 - N5404 E16714 - \nN5357 E16639 - N5527 E16530\nFCST VA CLD +12 HR: 18/1120Z SFC/FL300 N5352 E17006 - N5152 E17037 - \nN5152 E16936 - N5344 E16817\nFCST VA CLD +18 HR: NO VA EXP\nRMK: SOME PART OF VA OBSCURED BY MET CLOUD.\nNXT ADVISORY: 20260718/0600Z=",
      "img_url": "https://ds.data.jma.go.jp/svd/vaac/data/VAGFN/2026/Images/20260718_30027000_0268_QH21_01.png",
      "sat_img_url": "https://ds.data.jma.go.jp/svd/vaac/data/Sat/2026/Images/30027000/09-ir/20260717_2320_202607180000_ir.png",
      "text_url": "https://ds.data.jma.go.jp/svd/vaac/data/TextData/2026/20260718_30027000_0268_Text.html"
    },
    {
      "id": "20260717_27303000_0761",
      "year": "2026",
      "volcano": "Mayon",
      "psn": "N1315 E12341",
      "issued": "20260717",
      "text": "FVFE01 RJTD 172222\nVA ADVISORY\nDTG: 20260717/2222Z\nVAAC: TOKYO\nVOLCANO: MAYON 273030\nPSN: N1315 E12341\nAREA: PHILIPPINES\nSOURCE ELEV: 2462M AMSL\nADVISORY NR: 2026/761\nINFO SOURCE: HIMAWARI-9 PHIVOLCS\nERUPTION DETAILS: ERUPTION AT 20260717/2208Z FL100 EXTD SSE REPORTED\nOBS VA DTG: 17/2210Z\nOBS VA CLD: VA NOT IDENTIFIABLE FM SATELLITE DATA WIND FL100 360/6KT\nFCST VA CLD +6 HR: NOT AVBL\nFCST VA CLD +12 HR: NOT AVBL\nFCST VA CLD +18 HR: NOT AVBL\nRMK: WE WILL ISSUE FURTHER ADVISORY IF VA IS DETECTED IN SATELLITE \nIMAGERY.\nNXT ADVISORY: NO FURTHER ADVISORIES=",
      "img_url": "https://ds.data.jma.go.jp/svd/vaac/data/VAGFN/2026/Images/20260717_27303000_0761_QH21_01.png",
      "sat_img_url": null,
      "text_url": "https://ds.data.jma.go.jp/svd/vaac/data/TextData/2026/20260717_27303000_0761_Text.html"
    },
    {
      "id": "20260717_27307000_0014",
      "year": "2026",
      "volcano": "Taal",
      "psn": "N1400 E12100",
      "issued": "20260717",
      "text": "FVFE01 RJTD 171113\nVA ADVISORY\nDTG: 20260717/1113Z\nVAAC: TOKYO\nVOLCANO: TAAL 273070\nPSN: N1400 E12100\nAREA: PHILIPPINES\nSOURCE ELEV: 311M AMSL\nADVISORY NR: 2026/14\nINFO SOURCE: HIMAWARI-9 PHIVOLCS\nERUPTION DETAILS: ERUPTION AT 20260717/1051Z FL040 EXTD E REPORTED\nOBS VA DTG: 17/1100Z\nOBS VA CLD: VA NOT IDENTIFIABLE FM SATELLITE DATA WIND FL040 270/8KT\nFCST VA CLD +6 HR: NOT AVBL\nFCST VA CLD +12 HR: NOT AVBL\nFCST VA CLD +18 HR: NOT AVBL\nRMK: WE WILL ISSUE FURTHER ADVISORY IF VA IS DETECTED IN SATELLITE \nIMAGERY.\nNXT ADVISORY: NO FURTHER ADVISORIES=",
      "img_url": "https://ds.data.jma.go.jp/svd/vaac/data/VAGFN/2026/Images/20260717_27307000_0014_QH21_01.png",
      "sat_img_url": null,
      "text_url": "https://ds.data.jma.go.jp/svd/vaac/data/TextData/2026/20260717_27307000_0014_Text.html"
    },
    {
      "id": "20260713_28208001_0083",
      "year": "2026",
      "volcano": null,
      "psn": "N3136 E13039",
      "issued": "20260713",
      "text": "FVFE01 RJTD 130254\nVA ADVISORY\nDTG: 20260713/0254Z\nVAAC: TOKYO\nVOLCANO: SAKURAJIMA (AIRA CALDERA) 282080\nPSN: N3136 E13039\nAREA: JAPAN\nSOURCE ELEV: 1117M AMSL\nADVISORY NR: 2026/83\nINFO SOURCE: JMA HIMAWARI-9\nERUPTION DETAILS: ERUPTED AT 20260713/0152Z FL100 EXTD N\nOBS VA DTG: 13/0230Z\nOBS VA CLD: SFC/FL100 N3136 E13039 - N3142 E13040 - N3141 E13044 - \nN3134 E13042 MOV NE 15KT\nFCST VA CLD +6 HR: 13/0830Z SFC/FL100 N3234 E13121 - N3145 E13155 - \nN3202 E13110 - N3227 E13051\nFCST VA CLD +12 HR: 13/1430Z SFC/FL100 N3318 E13206 - N3142 E13317 - \nN3134 E13226 - N3312 E13118\nFCST VA CLD +18 HR: NO VA EXP\nRMK: NIL\nNXT ADVISORY: 20260713/0600Z=",
      "img_url": "https://ds.data.jma.go.jp/svd/vaac/data/VAGFN/2026/Images/20260713_28208001_0083_QH21_01.png",
      "sat_img_url": "https://ds.data.jma.go.jp/svd/vaac/data/Sat/2026/Images/28208001/09-ir/20260713_0230_202607130254_ir.png",
      "text_url": "https://ds.data.jma.go.jp/svd/vaac/data/TextData/2026/20260713_28208001_0083_Text.html"
    }
  ],
  "vaac_alaska": [
    {
      "text": "\n000\nFVAK21 PAWU 180008\nVAAAK1\nVA ADVISORY\n\nDTG: 20260718/0000Z\n\nVAAC: ANCHORAGE\n\nVOLCANO: SHEVELUCH 300270\n\nPSN: N5639 E16122\n\nAREA: KAMCHATKA PENINSULA\n\nSOURCE ELEV: 10771 FT AMSL\n\nADVISORY NR: 2026/205\n\nRMK: PLEASE SEE FVFE01 RJTD ISSUED BY VAAC TOKYO WHICH DESCRIBES\nCONDITIONS NEAR THE VAAC ANCHORAGE AREA OF RESPONSIBILITY...BS\n\n\n\n",
      "issued": "2026-07-18T00:08:00+00:00",
      "volcano": "Sheveluch",
      "psn": "N5639 E16122"
    }
  ]
}