{
  "updated_utc": "2026-07-17T14:22Z",
  "metar": {
    "RJAA": "METAR RJAA 171230Z 14006KT 9999 FEW005 BKN008 BKN020 25/23 Q1007 NOSIG",
    "PANC": "METAR PANC 171253Z 34005KT 10SM -RA OVC060 09/08 A2990 RMK AO2 SLP127 P0001 T00940083 $",
    "PAFA": "METAR PAFA 171253Z 25007KT 10SM FEW040 BKN050 OVC070 14/07 A2982 RMK AO2 RAB20E34 SLP100 P0000 T01390072 $",
    "PAED": "SPECI PAED 171235Z 00000KT 10SM BKN065 10/08 A2988 RMK AO2A RAE35 SLP115 $",
    "KSEA": "METAR KSEA 171253Z 18006KT 10SM FEW015 BKN032 14/11 A3002 RMK AO2 SLP172 T01440111 $",
    "ZSPD": "METAR ZSPD 171230Z 17004MPS CAVOK 32/25 Q1000 NOSIG",
    "ZSSS": "METAR ZSSS 171230Z VRB03MPS CAVOK 36/24 Q1000 NOSIG",
    "RJFR": "METAR RJFR 171300Z 35002KT 9999 FEW015 SCT020 28/26 Q1003",
    "VHHH": "METAR VHHH 171230Z 18007KT 110V210 9999 FEW012 30/26 Q1005 NOSIG",
    "RCTP": "METAR RCTP 171230Z 24011KT 9999 FEW015 SCT025 29/25 Q1005 NOSIG RMK A2969",
    "ZGSZ": "METAR ZGSZ 171300Z 17004MPS CAVOK 29/27 Q1005 NOSIG",
    "WSSS": "METAR WSSS 171230Z 20003KT 9999 FEW018 BKN300 27/25 Q1010 NOSIG",
    "WMKK": "METAR WMKK 171230Z VRB01KT 9999 FEW017CB 28/24 Q1009 NOSIG",
    "WIDD": "METAR WIDD 171230Z 09003KT 9999 FEW014 28/26 Q1010 NOSIG",
    "VTBS": "METAR VTBS 171230Z 22008KT 9999 FEW020 30/24 Q1008 NOSIG",
    "VTBU": "METAR VTBU 171230Z 22007KT 9000 FEW020 29/28 Q1008 NOSIG",
    "ROAH": "METAR ROAH 171230Z 21009KT 9999 FEW010 BKN/// 28/27 Q1006",
    "VVDN": "METAR VVDN 171230Z 10006KT 9999 FEW020 31/26 Q1006 NOSIG",
    "RCKH": "SPECI RCKH 171225Z 12004KT 060V210 2000 SHRA FEW012CB SCT014 BKN020 BKN040 25/24 Q1009 TEMPO 5000 -SHRA RMK CB OVHD A2982",
    "KLAX": "METAR KLAX 171253Z 11010KT 9SM SCT011 BKN014 21/18 A2990 RMK AO2 SLP122 T02110178 $",
    "KONT": "METAR KONT 171253Z 23003KT 10SM FEW130 FEW200 22/16 A2991 RMK AO2 SLP109 T02170156 $",
    "KSFO": "SPECI KSFO 171244Z 29010KT 10SM FEW004 SCT013 13/11 A2991 RMK AO2 T01330106 $",
    "KOAK": "METAR KOAK 171253Z 30004KT 10SM FEW006 SCT010 14/12 A2992 RMK AO2 SLP130 T01390117",
    "KMHR": "METAR KMHR 171235Z AUTO 15005KT 9SM CLR 12/09 A2983 RMK AO2 T01230086 $",
    "KDFW": "SPECI KDFW 171235Z 16008KT 10SM SCT018 BKN150 BKN250 26/23 A3010 RMK AO2 T02610233 $",
    "KIAH": "METAR KIAH 171253Z 16005KT 10SM FEW020 FEW250 27/26 A3013 RMK AO2 SLP201 T02720256",
    "KORD": "METAR KORD 171251Z 19004KT 1 1/4SM FU SCT019 BKN120 27/22 A3005 RMK AO2 SLP168 T02670217",
    "KJFK": "METAR KJFK 171251Z 03008KT 8SM FEW095 BKN250 BKN300 26/11 A3004 RMK AO2 SLP174 FU BKN300 T02610111 $",
    "KRFD": "METAR KRFD 171254Z 19004KT 1/2SM FU BKN100 24/19 A3007 RMK AO2 TWR VIS 3/4 SLP178 T02390194 RVRNO $",
    "KIND": "METAR KIND 171254Z 24005KT 10SM FEW040 BKN095 BKN110 27/23 A3009 RMK AO2 SLP180 CB DSNT S T02720233",
    "KDTW": "SPECI KDTW 171233Z 03003KT 1 1/4SM FU OVC016 21/18 A3012 RMK AO2 TWR VIS 1 1/2 FU OVC016 T02110178",
    "KMSP": "METAR KMSP 171253Z 23005KT 10SM FEW250 27/22 A2999 RMK AO2 SLP149 T02670217",
    "CYEG": "SPECI CYEG 171228Z 16003KT 1 1/2SM BR FEW150 14/14 A2998 RMK FG1AC1 AC TR SLP150 DENSITY ALT 2800FT",
    "EHAM": "METAR EHAM 171225Z 31009KT 280V350 9999 FEW028 SCT033 22/14 Q1014 NOSIG",
    "EBBR": "METAR EBBR 171250Z 32008KT 280V010 9999 FEW038 24/15 Q1015 NOSIG",
    "EDDF": "METAR EDDF 171250Z AUTO 21008KT 170V240 9999 VCSH SCT047 FEW///TCU 27/16 Q1012 TEMPO SHRA",
    "EDFH": "METAR EDFH 171250Z 28006KT 230V340 9999 SCT032 24/16 Q1015",
    "EDDL": "METAR EDDL 171250Z AUTO 27012KT 220V300 CAVOK 28/11 Q1013 NOSIG",
    "EDDK": "METAR EDDK 171250Z AUTO VRB05KT CAVOK 28/13 Q1013 BECMG 30010KT",
    "EBLG": "METAR EBLG 171250Z 27007KT CAVOK 25/12 Q1015 NOSIG",
    "LSZH": "METAR LSZH 171250Z 23006KT 160V290 9999 VCTS FEW055CB SCT065 29/14 Q1015 TEMPO 29017G25KT TSRA",
    "LIMC": "METAR LIMC 171250Z VRB04KT CAVOK 31/15 Q1013 NOSIG",
    "LIRF": "METAR LIRF 171250Z 18010KT 140V200 CAVOK 33/26 Q1013 NOSIG",
    "EINN": "METAR EINN 171230Z 34009KT 280V010 CAVOK 25/15 Q1020 NOSIG",
    "EGLL": "METAR EGLL 171250Z AUTO 31008KT 260V010 9999 NCD 28/11 Q1016",
    "EGSS": "METAR EGSS 171250Z AUTO 36007KT 300V080 9999 NCD 25/13 Q1017",
    "EPWA": "METAR EPWA 171230Z 14007KT 100V180 CAVOK 30/16 Q1013 NOSIG",
    "UHPP": "METAR UHPP 171300Z VRB01MPS 9999 SCT086 15/11 Q1019 R34L/CLRD62 NOSIG RMK QFE760/1014",
    "EFHK": "METAR EFHK 171250Z 17009KT 140V200 9999 FEW040 24/15 Q1016 NOSIG",
    "LBBG": "METAR LBBG 171230Z 09007KT 9999 FEW028 FEW033TCU SCT036 BKN045 27/19 Q1013 TEMPO VRB16G26KT 4000 TSRA SCT030CB",
    "LTAC": "METAR LTAC 171250Z 07010KT 030V120 9999 SCT040 30/08 Q1013 NOSIG RMK RWY21C 07013KT RWY03L 04013KT 010V070 RWY21R 05013KT 360V080 RWY03R 04010G20KT 010V070 RWY21L 06012KT",
    "UBBB": "METAR UBBB 171230Z 36012KT CAVOK 31/18 Q1006 NOSIG",
    "UTAA": "METAR UTAA 171300Z 31008KT 270V360 9999 FEW050 FEW100 39/17 Q1004 R88/CLRD70 NOSIG",
    "UACC": "METAR UACC 171230Z 27007G13MPS 230V320 9999 BKN043 31/10 Q1004 NOSIG RMK QFE722/0963",
    "UAAA": "METAR UAAA 171230Z 07003MPS 030V100 9999 FEW050 39/08 Q1006 NOSIG",
    "UZTT": "METAR UZTT 171230Z 29006KT 250V030 CAVOK 43/05 Q1001 NOSIG",
    "ZWWW": "METAR ZWWW 171230Z 34002MPS CAVOK 39/06 Q1006 NOSIG",
    "ZLXY": "METAR ZLXY 171300Z 20001MPS CAVOK 30/17 Q1004 NOSIG",
    "ZBAA": "METAR ZBAA 171230Z 15003MPS CAVOK 26/21 Q1001 NOSIG",
    "ZBHH": "METAR ZBHH 171300Z 07003MPS 050V110 9999 FEW040 FEW040CB 17/16 Q1006 RETS NOSIG",
    "ZSQD": "METAR ZSQD 171300Z 02003MPS 9999 FEW013 BKN030 22/22 Q1001 NOSIG",
    "ZMCK": "METAR ZMCK 171230Z VRB02MPS 9999 FEW030CB FEW033 21/10 Q1008 NOSIG RMK QFE641.8 49 MOP",
    "UUEE": "METAR UUEE 171230Z 33007MPS 300V010 CAVOK 21/07 Q1017 R06R/CLRD62 R06C/CLRD62 NOSIG",
    "UUDD": "METAR UUDD 171230Z 35007G12MPS 330V030 CAVOK 21/07 Q1016 R31L/CLRD65 NOSIG",
    "ULLI": "METAR ULLI 171230Z 22004MPS 180V250 CAVOK 24/08 Q1018 R88/090065 NOSIG",
    "USSS": "METAR USSS 171230Z 28003MPS 250V340 9999 SCT040 24/16 Q0999 R26R/210060 R26L/CLRD60 NOSIG RMK QFE729/0972",
    "UNNT": "METAR UNNT 171230Z VRB01MPS 9999 SCT050CB 24/18 Q0999 R07/290160 R34/CLRD// NOSIG RMK QFE739/0986",
    "UNKL": "METAR UNKL 171230Z 25002MPS 9999 -SHRA SCT038CB 19/17 Q0999 R29/290055 NOSIG RMK QFE724",
    "UIBB": "METAR UIBB 171230Z 15002MPS 9999 FEW050CB 22/11 Q1000 R12/CLRD62 NOSIG RMK QFE708/0944",
    "UEEE": "METAR UEEE 171230Z 02001MPS CAVOK 20/15 Q0993 R23/09//65 NOSIG RMK QFE736",
    "UHHH": "METAR UHHH 171230Z VRB01MPS 9999 FEW040CB 19/18 Q1001 R23L/090060 NOSIG RMK QFE744/0993",
    "UHSS": "METAR UHSS 171230Z 26001MPS 9999 SCT013 19/19 Q1008 RMK MT OBSC QFE755/1006"
  },
  "taf": {
    "RJAA": "TAF RJAA 171105Z 1712/1818 14006KT 8000 FEW005 BKN012 TEMPO 1712/1715 FEW002 BKN005 TEMPO 1715/1800 FEW003 BKN008 TEMPO 1812/1818 FEW003 BKN008",
    "PANC": "TAF PANC 171127Z 1712/1818 33004KT P6SM -RA SCT004 OVC070 FM171500 36003KT P6SM -SHRA FEW030 OVC045 FM172100 20006KT 5SM -SHRA BR FEW015 BKN030 FM180300 16007KT P6SM VCSH SCT035 BKN060",
    "PAFA": "TAF PAFA 171137Z 1712/1818 VRB04KT P6SM VCSH BKN060 OVC090 FM171400 22006KT P6SM SCT050 FM180000 24006KT P6SM VCTS FEW050CB FM180600 VRB04KT P6SM SCT050",
    "PAED": "TAF PAED 171300Z 1713/1819 33006KT 9999 -SHRA BKN060 OVC070 620604 QNH2984INS BECMG 1720/1721 33006KT 9000 -RA BKN025 OVC030 620604 QNH2985INS BECMG 1805/1806 21005KT 9999 VCSH BKN045 BKN060 620604 QNH2989INS BECMG 1813/1814 VRB04KT 9999 -SHRA BKN020 OVC040 620604 QNH2997INS TX14/1722Z TN09/1714Z",
    "KSEA": "TAF KSEA 171129Z 1712/1818 18006KT P6SM BKN022 OVC035 FM171800 23007KT P6SM BKN035 FM172100 24007KT P6SM SCT050 FM180300 31006KT P6SM SCT050 FM180600 35006KT P6SM FEW050 FM181200 20005KT P6SM BKN035",
    "ZSPD": "TAF ZSPD 170906Z 1712/1818 23004MPS 8000 SCT030 TX35/1712Z TX34/1806Z TN28/1721Z TEMPO 1805/1809 TSRA BKN008 FEW030CB",
    "ZSSS": "TAF ZSSS 170906Z 1712/1818 24004MPS 8000 SCT030 TX36/1712Z TX35/1803Z TN28/1721Z TEMPO 1804/1808 TSRA BKN011 FEW030CB",
    "RJFR": "TAF RJFR 171105Z 1712/1818 33004KT 9999 FEW020 BKN040 TEMPO 1716/1800 BKN005 BECMG 1800/1803 09010KT BECMG 1806/1809 05006KT BECMG 1815/1818 09004KT",
    "VHHH": "TAF VHHH 171400Z 1715/1821 18010KT 9999 FEW010 SCT025 TX31/1806Z TN27/1722Z TEMPO 1721/1803 24015G25KT 2500 TSRA SHRA FEW008CB SCT015",
    "RCTP": "TAF RCTP 171100Z 1712/1818 23010KT 9999 FEW015 TEMPO 1716/1722 20005KT BECMG 1722/1724 24015KT TEMPO 1803/1809 25020KT BECMG 1810/1812 23008KT",
    "ZGSZ": "TAF ZGSZ 170905Z 1712/1818 17004MPS 8000 SCT030 TX28/1712Z TX30/1806Z TN26/1722Z TEMPO 1717/1720 SHRA FEW020CB BKN030 TEMPO 1722/1801 SHRA SCT010 FEW020CB BKN030 TEMPO 1805/1808 TSRA SCT010 FEW020CB BKN030",
    "WSSS": "TAF WSSS 171100Z 1712/1818 13007KT 9999 FEW015 SCT020",
    "WMKK": "TAF WMKK 171100Z 1712/1818 VRB03KT 9999 FEW027 TEMPO 1718/1722 5000 TSRA FEW017CB",
    "VTBS": "TAF VTBS 171100Z 1712/1818 20008KT 9999 FEW020 TEMPO 1712/1716 VRB15KT 4000 TSRA FEW018CB SCT030 BKN100 TEMPO 1810/1814 VRB15KT 4000 TSRA FEW018CB SCT030 BKN100",
    "VTBU": "TAF VTBU 171100Z 1712/1812 25008KT 9000 FEW020",
    "ROAH": "TAF ROAH 171105Z 1712/1818 22006KT 9999 FEW005 BKN010 TEMPO 1712/1714 FEW005 BKN008 TEMPO 1714/1721 FEW003 BKN005 TEMPO 1721/1803 FEW005 BKN008 TEMPO 1812/1818 FEW005 BKN008",
    "VVDN": "TAF VVDN 171100Z 1712/1812 15010KT 9999 FEW020 BECMG 1713/1714 22008KT BECMG 1804/1805 36010KT",
    "RCKH": "TAF RCKH 171100Z 1712/1818 08005KT 9999 FEW015 BKN032 TEMPO 1712/1715 5000 SHRA FEW010 FEW012TCU BKN017 TEMPO 1718/1724 28010KT 3500 SHRA SCT006 FEW010CB BKN014 BECMG 1801/1803 26005KT TEMPO 1804/1810 25010KT 4000 SHRA SCT008 FEW010CB BKN016 BECMG 1810/1812 07005KT",
    "KLAX": "TAF KLAX 171135Z 1712/1818 11008KT P6SM OVC012 FM171800 24006KT P6SM SCT250 FM172000 26011KT P6SM SCT250 FM180300 24006KT P6SM OVC010 FM180600 15005KT P6SM OVC012 FM181700 VRB03KT P6SM OVC015",
    "KONT": "TAF KONT 171120Z 1712/1818 VRB04KT P6SM FEW200 FM172000 25012G20KT P6SM SCT150 FM180500 VRB05KT P6SM FEW200",
    "KSFO": "TAF KSFO 171120Z 1712/1818 26010KT P6SM SCT007 BKN010 FM171700 29015G25KT P6SM FEW007 FM180600 26009KT P6SM BKN010",
    "KOAK": "TAF KOAK 171120Z 1712/1818 23009KT P6SM SCT007 BKN010 FM171700 26012KT P6SM FEW007 FM180600 26009KT P6SM BKN010",
    "KMHR": "TAF KMHR 171120Z 1712/1812 18007KT P6SM SKC FM171800 22008KT P6SM SKC FM172300 22012KT P6SM SKC FM180600 17008KT P6SM SKC",
    "KDFW": "TAF KDFW 171120Z 1712/1818 16007KT P6SM SCT190 TEMPO 1712/1716 BKN015 FM171800 19010G20KT P6SM FEW250 FM180000 19007KT P6SM FEW250",
    "KIAH": "TAF KIAH 171120Z 1712/1818 16004KT P6SM FEW020 BKN250 FM171400 18007KT P6SM SCT025 SCT035 SCT250 FM171800 16009KT P6SM SCT040 SCT060 SCT250 FM180300 16004KT P6SM FEW030 SCT250",
    "KORD": "TAF KORD 171120Z 1712/1818 19004KT 1 1/2SM FU VV019 TEMPO 1712/1713 3/4SM FU FM171500 24006KT 3SM FU BKN100 FM171800 26009KT P6SM VCSH SCT035 TEMPO 1718/1722 VRB15G25KT 1SM -TSRA BKN030CB FM172200 26009KT P6SM VCTS SCT035CB PROB30 1722/1802 VRB15G25KT 3SM -TSRA BR BKN040CB FM180200 23010KT P6SM BKN050",
    "KJFK": "TAF KJFK 171318Z 1713/1818 05008KT P6SM BKN250 FM171600 20011KT P6SM BKN250 FM172300 19008KT 6SM FU BKN250 FM181300 20010KT 6SM FU OVC150 TEMPO 1814/1818 3SM SHRA OVC050",
    "KRFD": "TAF KRFD 171413Z 1714/1812 21005KT 1 1/2SM FU BKN100 TEMPO 1714/1715 3/4SM FU FM171600 22006KT 3SM FU BKN100 FM171700 25009KT P6SM VCSH SCT035 TEMPO 1718/1722 VRB15G25KT 1SM -TSRA BKN030CB FM172200 26009KT P6SM VCTS SCT035CB PROB30 1722/1801 VRB15G25KT 3SM -TSRA BR BKN040CB FM180100 23010KT P6SM BKN050",
    "KIND": "TAF KIND 171229Z 1712/1818 24004KT P6SM FEW060 SCT120 FM171700 23007KT P6SM BKN050 PROB30 1717/1721 4SM -TSRA BKN035CB FM172100 23007KT P6SM VCSH BKN050 TEMPO 1721/1801 VRB16G30KT 4SM -TSRA BKN025CB FM180100 23007KT P6SM BKN120",
    "KDTW": "TAF KDTW 171419Z 1714/1818 10004KT 1 1/2SM FU OVC030 FM171800 18008KT 2SM FU BKN035 FM180000 19005KT 6SM HZ SCT060 BKN080 FM180700 23007KT P6SM SCT035",
    "KMSP": "TAF KMSP 171121Z 1712/1818 22007KT P6SM FEW250 FM171700 23010G18KT P6SM FEW050 FM180200 26007KT P6SM FEW100 FM181100 33005KT P6SM SKC",
    "CYEG": "TAF AMD CYEG 171248Z 1712/1812 VRB03KT P6SM FEW160 FM172200 12010KT P6SM FEW040 TEMPO 1722/1802 VRB25G35KT P6SM VCTS BKN040CB FM180200 12008KT P6SM BKN080 PROB30 1802/1804 VRB25G35KT 3SM TSRA BKN080CB FM180400 13005KT P6SM FEW020 FM180600 12005KT P6SM SCT040 TEMPO 1806/1809 VRB20G30KT P6SM VCTS SCT020 BKN040CB FM180900 10005KT P6SM SCT008 PROB30 1809/1812 3/4SM BR SCT004 RMK NXT FCST BY 171500Z",
    "EHAM": "TAF EHAM 171111Z 1712/1818 32013KT 9999 SCT025 BECMG 1717/1720 32008KT PROB30 TEMPO 1721/1808 BKN018 BECMG 1809/1812 31014KT",
    "EBBR": "TAF EBBR 171100Z 1712/1818 33010KT 9999 FEW045",
    "EDDF": "TAF EDDF 171100Z 1712/1818 24010KT 9999 SCT020 PROB40 TEMPO 1712/1719 26015G30KT TSRA BKN030CB PROB30 TEMPO 1715/1718 26020G40KT 2500 TSRAGR BECMG 1717/1719 23005KT BECMG 1810/1812 26010KT",
    "EDFH": "TAF EDFH 171100Z 1712/1812 27009KT 9999 SCT030 PROB40 TEMPO 1712/1717 26015G30KT TSRA BKN050CB BECMG 1721/1723 28004KT",
    "EDDL": "TAF EDDL 171100Z 1712/1818 33006KT CAVOK BECMG 1712/1714 30011KT BECMG 1719/1722 29004KT PROB30 TEMPO 1804/1807 BKN014 BECMG 1806/1809 28011KT",
    "EDDK": "TAF EDDK 171100Z 1712/1818 30005KT CAVOK BECMG 1712/1714 30010KT BECMG 1720/1723 31005KT PROB30 TEMPO 1804/1807 BKN014 BECMG 1807/1810 30011KT",
    "EBLG": "TAF EBLG 171100Z 1712/1818 31009KT 9999 FEW045 PROB30 TEMPO 1802/1806 BKN012",
    "LSZH": "TAF AMD LSZH 171320Z 1713/1818 26005KT 9999 FEW050 TX27/1714Z TN16/1804Z TX25/1814Z TEMPO 1713/1719 FEW050TCU BECMG 1713/1714 29012KT PROB40 TEMPO 1713/1719 29017G30KT 4000 TSRA FEW050CB BECMG 1717/1719 17005KT PROB30 TEMPO 1719/1721 SHRA BECMG 1721/1724 CAVOK PROB40 1803/1805 9999 MIFG NSC TEMPO 1809/1817 26010KT 9999 FEW060 PROB30 TEMPO 1812/1818 30015G25KT TSRA FEW060CB",
    "LIMC": "TAF LIMC 171100Z 1712/1818 20010KT 9999 FEW040 BECMG 1716/1718 02005KT BECMG 1812/1814 22010KT",
    "LIRF": "TAF LIRF 171100Z 1712/1818 18012KT CAVOK BECMG 1717/1719 VRB05KT TEMPO 1802/1806 1000 BCFG BKN006 BECMG 1809/1811 28012KT",
    "EINN": "TAF EINN 171100Z 1712/1812 33010KT CAVOK BECMG 1720/1722 36010KT",
    "EGLL": "TAF EGLL 171120Z 1712/1818 33006KT 9999 FEW045 BECMG 1719/1722 05010KT PROB30 TEMPO 1815/1818 8000 SHRA",
    "EGSS": "TAF EGSS 171051Z 1712/1818 01008KT 9999 FEW045 PROB30 TEMPO 1723/1808 7000 BKN011",
    "EPWA": "TAF EPWA 171130Z 1712/1812 14010KT CAVOK TEMPO 1723/1804 4000 SHRA SCT050CB PROB30 TEMPO 1723/1804 VRB15G25KT 2000 TSRA BKN040CB BECMG 1804/1807 25010KT PROB30 TEMPO 1804/1807 BKN012",
    "UHPP": "TAF UHPP 171331Z 1715/1821 30003G10MPS 9999 SCT050 TX29/1803Z TN14/1717Z TEMPO 1715/1721 1000 BR VV002 TEMPO 1800/1809 19005G12MPS",
    "EFHK": "TAF EFHK 171123Z 1712/1812 17009KT 9999 FEW040 TEMPO 1805/1812 FEW040CB",
    "LBBG": "TAF LBBG 171100Z 1712/1812 12012KT 9999 SCT045 TEMPO 1712/1715 4000 TSRA SCT030CB BKN040 BECMG 1718/1720 VRB03KT BECMG 1808/1810 12012KT",
    "LTAC": "TAF LTAC 171040Z 1712/1812 03012KT 9999 SCT040 TEMPO 1712/1716 03015G25KT TEMPO 1716/1720 03015G25KT BECMG 1719/1721 CAVOK BECMG 1806/1809 SCT040",
    "UBBB": "TAF UBBB 171049Z 1712/1812 34014KT CAVOK TX31/1712Z TN23/1801Z TEMPO 1712/1715 02016KT TEMPO 1717/1802 33008KT SCT015 FEW040CB TEMPO 1808/1812 35018G28KT",
    "UTAA": "TAF UTAA 171045Z 1712/1812 36016KT 6000 SCT050 TX41/1811Z TEMPO 1712/1716 30012G22KT 4000 DRDU BECMG 1716/1718 26014KT TEMPO 1720/1804 32014KT BECMG 1804/1806 34016KT 4000 DRDU",
    "UACC": "TAF UACC 171101Z 1712/1812 27006MPS 9999 SCT040 BKN100 TX35/1809Z TN16/1723Z TEMPO 1712/1715 28012MPS SCT030CB BECMG 1715/1717 VRB01MPS TEMPO 1717/1804 21005MPS BECMG 1804/1806 25005MPS TEMPO 1804/1812 27012MPS SCT030CB",
    "UAAA": "TAF UAAA 171104Z 1712/1812 17003MPS 9999 FEW050 SCT100 TX41/1810Z TN22/1800Z TEMPO 1712/1715 04005MPS TEMPO 1803/1812 04005G10MPS",
    "UZTT": "TAF UZTT 171100Z 1712/1812 07010KT CAVOK TX44/1811Z TN27/1800Z TEMPO 1712/1718 32015KT",
    "ZWWW": "TAF ZWWW 170905Z 1712/1818 36004G09MPS CAVOK TX41/1809Z TN29/1723Z TN32/1818Z BECMG 1713/1714 18004MPS BECMG 1802/1803 36004MPS BECMG 1813/1814 18004MPS",
    "ZLXY": "TAF ZLXY 170903Z 1712/1812 15003MPS 6000 NSC TX32/1808Z TN24/1721Z BECMG 1722/1723 28005MPS",
    "ZBAA": "TAF ZBAA 170900Z 1712/1818 18003MPS CAVOK TX31/1806Z TN23/1721Z TN24/1818Z TEMPO 1808/1812 -TSRA FEW040CB BKN040",
    "ZBHH": "TAF AMD ZBHH 171136Z 1706/1806 24004MPS 9999 SCT040 TX29/1708Z TN16/1722Z BECMG 1709/1710 -TSRA SCT040 FEW040CB TEMPO 1710/1713 VRB10G15MPS 0600 +TSRA BECMG 1713/1714 NSW NSC",
    "ZSQD": "TAF ZSQD 170904Z 1712/1812 36004MPS 3500 BR BKN020 TX30/1806Z TN22/1720Z BECMG 1720/1721 2000 BKN010 BECMG 1722/1723 3500 FEW015",
    "ZMCK": "TAF ZMCK 171043Z 1712/1818 VRB02MPS 9999 FEW030CB SCT033 TN11/1721Z TX24/1807Z PROB30 TEMPO 1712/1718 VRB08MPS TSRA SCT027CB SCT030 PROB40 TEMPO 1805/1815 VRB08G13MPS TSRA SCT027CB SCT030",
    "UUEE": "TAF UUEE 171350Z 1715/1815 36005MPS 9999 SCT040 TX25/1813Z TN12/1801Z TEMPO 1715/1717 32008G15MPS BECMG 1718/1720 30003MPS",
    "UUDD": "TAF UUDD 171353Z 1715/1821 36008G13MPS 9999 SCT040 TX26/1812Z TN10/1801Z BECMG 1716/1718 36003MPS",
    "ULLI": "TAF ULLI 171350Z 1715/1815 21003MPS 9999 SCT030 BECMG 1807/1809 18005G10MPS",
    "USSS": "TAF USSS 171358Z 1715/1815 28003G14MPS 9999 BKN033CB TEMPO 1715/1718 -TSRA FM171800 33003MPS 6000 SCT016CB TEMPO 1718/1803 0300 -TSRA FG VV002 FM180400 08003G14MPS 6000 -SHRA BKN016CB TEMPO 1804/1815 -TSRA",
    "UNNT": "TAF UNNT 171400Z 1715/1815 27003G08MPS 8000 BKN040 TX26/1809Z TN16/1722Z TEMPO 1715/1718 32009G20MPS -TSRA BKN020CB TEMPO 1718/1801 0300 -TSRA FG BKN002 BKN020CB TEMPO 1801/1815 -TSRA BKN020CB",
    "UNKL": "TAF UNKL 171349Z 1715/1815 27003MPS 6000 -SHRA BKN016CB TEMPO 1715/1719 -TSRA BKN003 BKN016CB BECMG 1719/1721 1200 -TSRA BR BKN003 BKN016CB BECMG 1722/1724 6000 NSW BKN016CB TEMPO 1800/1805 1000 -TSRA BR BKN003 BKN016CB TEMPO 1805/1815 -TSRA",
    "UIBB": "TAF UIBB 171400Z 1715/1815 15005G10MPS 9999 -TSRA BKN016CB TEMPO 1715/1718 VRB10MPS 1900 TSRA VV004 BECMG 1718/1719 26003MPS BKN006 BKN016CB TEMPO 1719/1803 VRB08MPS 0900 +TSRA VV001 BECMG 1803/1804 NSW BKN016CB",
    "UEEE": "TAF UEEE 171400Z 1715/1821 03003G08MPS 9999 SCT030CB BKN100 TEMPO 1715/1723 VRB01MPS 0500 SHRA FG VV003",
    "UHHH": "TAF UHHH 171349Z 1715/1821 21003MPS 9999 FEW010 SCT025CB TX29/1806Z TN18/1717Z TEMPO 1715/1724 SCT006 SCT025CB TEMPO 1800/1809 20008MPS",
    "UHSS": "TAF UHSS 171350Z 1715/1821 18003MPS 0550 FG BKN002 BKN016CB BECMG 1722/1724 9999 NSW SCT030"
  },
  "atis": {
    "RJAA": "[Arrival ATIS] RJAA ARR ATIS J 0002Z M0000 (APCH)ILS Z RWY34R LDG RWY 34R DEP RWY 34L DEP FREQ 124.2. TWY A1 CLSD. OBSERVE GEAR DOWN OPS PROC ON FNL. M 230000Z 03013KT 30KM FEW012ST BKN015CU 20/16 Q1010/A2984= Q/TWO NINE EIGHT FOUR STP\n[Departure ATIS] RJAA DEP ATIS H 2305Z MS2300 (APCH)ILS Z RWY34R LDG RWY 34R DEP RWY 34L DEP FREQ 124.2. TWY A1 CLSD. OBSERVE GEAR DOWN OPS PROC ON FNL. MS 222300Z 05012KT 30KM BKN015CU 20/16 Q1010/A2982= Q/TWO NINE EIGHT TWO STP",
    "PANC": "[Arrival ATIS] PANC ARR ATIS D 2353Z ANC ATIS INFO D 2353Z. 00000KT 10SM FEW020 BKN080 BKN100 17/10 A3004 (THREE ZERO ZERO FOUR). 7R APPROACHES IN USE. LANDING RWY 7R, DEPARTING RWY 33. NOTICE TO AIRMEN. RWY 7L CLSD. CHECK NOTAMS FOR TAXIWAY CLOSURES. CAUTION FOR BIRD ACTIVITY IN THE ARPT AREA. ...ADVS YOU HAVE INFO D.\n[Departure ATIS] PANC DEP ATIS Z 1953Z ANC ATIS INFO Z 1953Z. 02003KT 10SM FEW010 BKN060 OVC090 13/12 A3007 (THREE ZERO ZERO SEVEN). 7R APPROACHES IN USE. LANDING RWY 7R, DEPARTING RWY 33. NOTICE TO AIRMEN. RWY 7L CLSD. CHECK NOTAMS FOR TAXIWAY CLOSURES. CAUTION FOR BIRD ACTIVITY IN THE ARPT AREA. ...ADVS YOU HAVE INFO Z.",
    "KSEA": "[Arrival ATIS] KSEA ARR ATIS L 1353Z SEA ATIS INFO L 1353Z. 14005KT 10SM FEW025 BKN034 BKN055 15/11 A3003 (THREE ZERO ZERO THREE). ILS, RYS 16R AND 16L , APCH IN USE. DEPG RWY 16L, DEPG ACFT PLAN AND BRIEF NUMBERS FOR BOTH RWYS 16L AND 16C. SIMUL APCHS IN USE, BFI & SEA. TRAFFIC BELOW YOU ON FINAL. SIMUL APCHS IN USE TO PARA RYS. NOTAMS... BIRD ACTIVITY VICINITY ARPT. ...ADVS YOU HAVE INFO L.\n[Departure ATIS] KSEA DEP ATIS L 1353Z SEA ATIS INFO L 1353Z. 14005KT 10SM FEW025 BKN034 BKN055 15/11 A3003 (THREE ZERO ZERO THREE). ILS, RYS 16R AND 16L , APCH IN USE. DEPG RWY 16L, DEPG ACFT PLAN AND BRIEF NUMBERS FOR BOTH RWYS 16L AND 16C. SIMUL APCHS IN USE, BFI & SEA. TRAFFIC BELOW YOU ON FINAL. SIMUL APCHS IN USE TO PARA RYS. NOTAMS... BIRD ACTIVITY VICINITY ARPT. ...ADVS YOU HAVE INFO L.",
    "ZSPD": "[Arrival ATIS] ZSPD ARR ATIS W 2330Z EXP ILS APCH INDEPENDENT PARL INSTR APCH LDG RWY 35L & 34R WIND RWY 35L TDZ 010/5MPS MID 010/5MPS END 020/4MPS RWY 34R TDZ 360/5MPS MID 010/4MPS END 010/5MPS VIS RWY 35L TDZ 10000M MID 10000M END 10000M VIS RWY 34R TDZ 10000M MID 10000M END 10000M CLD BKN 210M T 23 /DP 23 QNH 1003 HPA CAUTION THE BIRDS NEAR THE RUNWAY RWY 35R/35L/34R/34L RWYCC 5/5/5 ISSUED AT 1800 WET/WET/WET DPT NR/NR/NR COV 100PCT/100PCT/100PCT ADZ YOU HAVE INFO W.\n[Departure ATIS] ZSPD DEP ATIS X 0000Z DEP RWY 35R & 34L WIND RWY 35R TDZ 010/5MPS MID 360/5MPS END 020/5MPS RWY 34L TDZ 360/6MPS MID 010/6MPS END 020/5MPS VIS RWY 35R TDZ 10000M MID 10000M END 10000M VIS RWY 34L TDZ 10000M MID 10000M END 10000M CLD BKN 210M T 23 /DP 23 QNH 1003 HPA CAUTION THE BIRDS NEAR THE RUNWAY RWY 35R/35L/34R/34L RWYCC 5/5/5 ISSUED AT 1800 WET/WET/WET DPT NR/NR/NR COV 100PCT/100PCT/100PCT ADZ YOU HAVE INFO X.",
    "ZSSS": "[Arrival ATIS] ZSSS ARR ATIS C 2330Z EXP ILS APCH LDG RWY 36R WIND RWY 36R TDZ 050/5MPS MID 040/4MPS END 040/4MPS VIS RWY 36R TDZ 10000M MID 10000M END 10000M CLD BKN 270M T 23 /DP 21 QNH 1003 HPA RWY36R RWYCC 5/5/5 ISSUED AT 1250 WET/WET/WET DPT NR/NR/NR COV 100PCT/100PCT/100PCT RWY36L RWYCC 5/5/5 ISSUED AT 1240 WET/WET/WET DPT NR/NR/NR COV 100PCT/100PCT/100PCT QNH OF SHANGHAI TERMINAL CONTROL AREA 1003 HPA ADZ YOU HAVE INFO C.\n[Departure ATIS] ZSSS DEP ATIS D 1200Z DEP RWY 36L WIND RWY 36L TDZ 040/3MPS MID 030/4MPS END 040/5MPS VIS RWY 36L TDZ 10000M MID 10000M END 10000M CLD BKN 210M T 22 /DP 21 QNH 1003 HPA RWY36L RWYCC 5/5/5 ISSUED AT 0640 WET/WET/WET DPT NR/NR/NR COV 100PCT/100PCT/100PCT RWY36R RWYCC 5/5/5 ISSUED AT 0640 WET/WET/WET DPT NR/NR/NR COV 100PCT/100PCT/100PCT QNH OF SHANGHAI TERMINAL CONTROL AREA 1002 HPA ADZ YOU HAVE INFO D.",
    "VHHH": "[Arrival ATIS] VHHH ARR ATIS D 0006Z ARRIVALS, RWY 25R/L. EXP RNAV TRANSITION TO ILS APCH, RWY 25R. EXP ILS APCH, RWY 25L. RNP APCH IS AVBL ON REQ, RWY 25R. CAUTION POSSIBLE GP FLUCTUATION RWY 25L. WIND RWY 25R 220/08KT RWY 25L 230/07KT. VIS RWY 25R 10KM RWY 25L 10KM. CLD FEW 1200FT. T31 DP25. QNH 1004HPA. ACK INFO D ON FIRST CTC WITH APP.\n[Departure ATIS] VHHH DEP ATIS R 2304Z DEPARTURES, RWY 25L. RWY 25C IS CLSD FOR MAINT. EXP RWY 25C/L AFTER 0000Z. WIND VRB06KT. VIS 10KM. CLD FEW 1000FT. T29 DP25. QNH 1004HPA. ACK INFO R ON FIRST CTC WITH DELIVERY .",
    "RCTP": "[Arrival ATIS] RCTP ARR ATIS G 0000Z EXP ILS APCH RWY23R FOR ARR. RWY23R AND RWY23L FOR DEP. WIND 230/09KT VIS 10 KM OR MORE CLD FEW 2000FT BKN 20000FT T 31 DP 23 QNH 1004HPA NOSIG CTN BIRD ACTIVITY IN THE VCY OF THE AD. INFORM TAIPEI APCH OR TAIPEI TOWER ON INITIAL CONTACT YOU HAVE INFORMATION G\n[Departure ATIS] RCTP DEP ATIS Z 2030Z EXP ILS APCH RWY23L ARR/DEP. RWY23R CLSD BTN 1700Z AND 2230Z FOR INSPECTION. WIND 240/10KT VIS 10 KM OR MORE CLD FEW 1500FT BKN 3000FT T 28 DP 24 QNH 1003HPA NOSIG INFORM TAIPEI APCH OR TAIPEI TOWER ON INITIAL CONTACT YOU HAVE INFORMATION Z",
    "ZGSZ": "[Arrival ATIS] ZGSZ ARR ATIS Z 2230Z EXP ILS APCH 15 EXP ILS OR VIS APCH 16L WIND 180/3MPS VIS 9999M CLD SCT 780M T 29 /DP 27 QNH 1004 HPA INDEPENDENT PARALLEL DEPARTURES DEPENDENT PARALLEL APPROACHES MISSED APPROACH ALTITUDE SETTING 1200METERS WHEN AIRBORNE CONTACT ZHUHAI APPROACH EXPECTED RNP ILS DME Z APPROACH ADZ YOU HAVE INFO Z.\n[Departure ATIS] ZGSZ DEP ATIS B 2330Z DEP RWY 15 & 16L WIND 170/4MPS VIS 9999M CLD FEW 600M T 30 /DP 27 QNH 1004 HPA INDEPENDENT PARALLEL DEPARTURES DEPENDENT PARALLEL APPROACHES MISSED APPROACH ALTITUDE SETTING 1200METERS WHEN AIRBORNE CONTACT ZHUHAI APPROACH EXPECTED RNP ILS DME Z APPROACH ADZ YOU HAVE INFO B.",
    "WSSS": "[Arrival ATIS] WSSS ARR ATIS A 0000Z METREPORT 0000Z ILS APCHRWY 20R SIMUL INDEPENDENT ILS AND VISUAL APPROACHES ARE CONDUCTED ON RWY 20. TWY W 9 CLOSED, RWY 02C 20C RAPID EXIT TAXIWAY INDICATOR LIGHTS OFF WIND 140/ 06KT VRB BTN110 AND190 VIS 10KM CLD FEW 1800FT T28 DP24 QNH 1011HPA NOSIG ACK ATIS A\n[Departure ATIS] WSSS DEP ATIS B 2330Z METREPORT 2330Z RWY 20C TWY W 9 CLOSED, RWY 02C 20C RAPID EXIT TAXIWAY INDICATOR LIGHTS OFF WIND 170/ 03KT VIS 10KM CLD FEW 1600FT T26 DP24 QNH 1011HPA NOSIG DEP,INITIAL CMB 3000FT ACK ATIS B",
    "WMKK": "[Arrival ATIS] WMKK ARR ATIS H 2334Z WMKK ARR INFO H. TIME 2330. INDEPENDENT PARALLEL APPROACHES FOR RWY 32 R AND 33 ARE IN PROGRESS. EXP ILS APCH FOR RWY 32 RIGHT. EXP RNAV / ILS APCH FOR RWY 33. WIND RWY 32R DIRECTION NOT AVBL SPEED NOT AVBL. WIND RWY 32L DIRECTION NOT AVBL SPEED NOT AVBL. WIND RWY 33 DIRECTION NOT AVBL SPEED NOT AVBL. VIS RWY 32R TDZ NOT AVBL. VIS RWY 33 TDZ NOT AVBL. CLD FEW 1000 FT, CLD FEW CB 1700 FT. T 26. DP 25. QNH 1010. NOSIG. AT FIRST CONTACT WITH LUMPUR RADAR, NOTIFY RCPT OF H\n[Departure ATIS] WMKK DEP ATIS U 1503Z WMKK DEP INFO U. TIME 1500. INDEPENDENT PARALLEL DEPARTURES FOR RWY 32 L AND 33 ARE IN PROGRESS. RWY 32 LEFT. RWY 33. WIND RWY 32L DIRECTION NOT AVBL SPEED NOT AVBL. WIND RWY 33 DIRECTION NOT AVBL SPEED NOT AVBL. VIS RWY 32L TDZ NOT AVBL. VIS RWY 33 TDZ NOT AVBL. CLD FEW CB 1700 FT. T 28. DP 25. QNH 1011. NOSIG. ALL DEP ACFT TO CONTACT LUMPUR DEP AT 135 DECIMAL 25 MHZ WHEN ABN. AT FIRST CONTACT WITH LUMPUR GROUND, NOTIFY RCPT OF U",
    "VTBS": "[Arrival ATIS] VTBS ARR ATIS R 2300Z VTBS ARR ATIS R 2300Z EXP ILS Z APCH ARR RWY 20L RWY 19 CLSD DUE TO WIP ,ALL ACFT WILL BE DLA DUE VIP MOVEMENT ,RETIL RWY 20L U/S 2300Z WIND 290/5KT VRB BTN 260/ AND 320/ VIS 10KM CLD FEW 2000FT T29 DP20 QNH 1008HPA TREND NOSIG ADZ BKK APCH ON INITIAL CONTACT THAT YOU HAVE INFO R\n[Departure ATIS] VTBS DEP ATIS R 2000Z VTBS DEP ATIS R 2000Z DEP RWY 20L RWY 19 CLSD DUE TO WIP ,AFT AIRBORNE ALL DEPARTING ACFT SHALL CTC 119.25 2000Z WIND 260/5KT VIS 10KM CLD FEW 2000FT T30 DP21 QNH 1007HPA TREND NOSIG ADZ GND WHEN INITIAL CONTACT YOU HAVE INFO R",
    "VTBU": "[Arrival ATIS] VTBU ARR ATIS U 0430Z VTBU ARR ATIS U 0430Z RNP RWY 18 TRL FL130 MOBILE ACFT ARST SYSTEM INSTL ATP SIX HUNDRED AND TEN METERS FM THR RWY 36 CABLE HGT 3 INCHES. 0430Z WIND 360/6KT VRB BTN 320/ AND 020/ VIS 10KM CLD FEW 2000FT T34 DP27 QNH 1010HPA TREND NOSIG ADZ CONTROLLER WHEN INITIAL CONTACT YOU HAVE INFO U\n[Departure ATIS] VTBU DEP ATIS D VTBU ARR/DEP DATIS RPT VTBU ARR ATIS D 0330Z ILS \"Z\" APCH RWY 18 TRL FL130 0330Z WIND 110/4KT VRB BTN 350/ AND 120/ VIS 6KM CLD FEW 2000FT T31 DP27 QNH 1014HPA TREND NOSIG ADZ CONTROLLER WHEN INITIAL CONTACT YOU HAVE INFO D",
    "ROAH": "[Arrival ATIS] ROAH ARR ATIS J 0004Z M0000 (APCH)RNP RWY18R LDG RWY 18R DEP RWY 18L DEP FREQ 126.5 258.3 M 230000Z 17018KT 25KM SCT012CU 31/27 Q1005/A2969= Q/TWO NINE SIX NINE STP\n[Departure ATIS] ROAH DEP ATIS X 0517Z M0500 (APCH)RNP RWY18R LDG RWY 18R DEP RWY 18L DEP FREQ 126.5 258.3 M 220500Z 23007KT 50KM FEW015CU 30/26 Q1007/A2975= Q/TWO NINE SEVEN FIVE STP",
    "VVDN": "[Arrival ATIS] VVDN ARR ATIS S 1202Z VVDN INFO S 1202Z. ILS VICTOR APPROACH 35R. DPTG RWY 35R.. 1202Z. WIND 110/06KT CAVOK T31 DP25 QNH 1005HPA TREND NOSIG. ADZ ON INITIAL CTC YOU HAVE INFO. S.\n[Departure ATIS] VVDN DEP ATIS N 0423Z VVDN INFO N 0423Z. ILS VICTOR APPROACH 35L.. DPTG RWY 35R.. 0423Z. WIND 010/02KT CAVOK T36 DP24 QNH 1008HPA TREND NOSIG. WS ALL RWY. ADZ ON INITIAL CTC YOU HAVE INFO. N.",
    "RCKH": "[Arrival ATIS] RCKH ARR ATIS E 0430Z EXPECT ILS APPROACH RWY 27 ARR/DEP RWY SFC RWY 27 SFC COND 5/5/5 ISSUED AT 0050Z. 100/100/100 NR/NR/NR WET/WET/WET TAXIWAY JULIETT, TAXIWAY BRAVO, TAXIWAY DELTA AND TAX\n[Departure ATIS] RCKH DEP ATIS N 0430Z EXPECT ILS APPROACH RWY 27 ARR/DEP TAXIWAY JULIETT, TAXIWAY BRAVO, TAXIWAY DELTA AND TAXIWAY ECHO CLOSED DUE MAINTENANCE. RUNWAY 2 7 ARRIVALS PLAN VACATE VIA CHARLIE OR",
    "KLAX": "[Arrival ATIS] KLAX ARR ATIS Z 1353Z LAX ATIS INFO Z 1353Z. 09005KT 10SM FEW012 BKN016 22/18 A2991 (TWO NINER NINER ONE) RMK AO2 SLP125 T02170178. SIMUL INST APCHS AND RNAV RNP RWYS 24R AND 25L APCHS, OR VCTR FOR VISUAL APCH WILL BE PROVIDED, SIMUL VISUAL APCHS TO ALL RWYS ARE IN PROG, SIMUL INSTR DEPARTURES IN PROG RWYS 24 AND 25. CTC L A GC ON 121.75 FOR PUSH OR TAXI ON A. TWY B CLSD BTN TWY, C10 AND TWY C7 , , TWY B6 CLSD, TWY B7 CLSD, TWY C CLSD BTN TWY, C1 AND TWY C3, TWY C1 CLSD, TWY C9 CLSD BTN TWY, B AND TWY C, TWY C8 CLSD BTN TWY, B AND TWY C. PAPI OTS 24R, SEAL BEACH VOR OTS. HAZD WX INFO FOR LAX AREA AVBL FM FSS. BIRD ACTIVITY VICINITY ARPT. INCLUDE YOUR CALL SIGN IN ALL READBACKS. USE CAUTION WHEN EXITING RY24R AT TWY V, W, AND Y, TO HOLD SHORT OF RY24L. MULTIPLE RUNWAY INCURSIONS HAVE OCCURRED. ...ADVS YOU HAVE INFO Z.\n[Departure ATIS] KLAX DEP ATIS O 0753Z LAX ATIS INFO O 0753Z. 09010KT 10SM FEW010 21/18 A2987 (TWO NINER EIGHT SEVEN) RMK AO2 SLP110 T02110178 402890206. INST APCHS AND RNAV RNP APCHS RY 24R AND 25L, OR VCTR FOR VISUAL APCH WILL BE PROVIDED, SIMUL VISUAL APCHS TO ALL RWYS ARE IN PROG, SIMUL INSTR DEPARTURES IN PROG RWYS 24 AND 25. CTC L A GC ON 121.75 FOR PUSH OR TAXI ON A. TWY B CLSD BTN TWY, C10 AND TWY C7 , , TWY B6 CLSD, TWY B7 CLSD, TWY C CLSD BTN TWY, C1 AND TWY C3, TWY C1 CLSD, TWY C9 CLSD BTN TWY, B AND TWY C, TWY C8 CLSD BTN TWY, B AND TWY C. PAPI OTS 24R, SEAL BEACH VOR OTS. HAZD WX INFO FOR LAX AREA AVBL FM FSS. BIRD ACTIVITY VICINITY ARPT. TWR FREQ FOR ALL RWYS IS 120.95. CD AND GC FREQ IS 121.75. INCLUDE YOUR CALL SIGN IN ALL READBACKS. USE CAUTION WHEN EXITING RY24R AT TWY V, W, AND Y, TO HOLD SHORT OF RY24L. MULTIPLE RUNWAY INCURSIONS HAVE OCCURRED. ...ADVS YOU HAVE INFO O.",
    "KONT": "[Arrival ATIS] KONT ARR ATIS J 1353Z - KONT ATIS INFO J 1353Z. 00000KT 10SM FEW020 FEW220 23/14 A2984 (TWO NINER EIGHT FOUR) RMK AO2 SLP083 FU FEW020 T02330144. ILS AND VIS APR IN USE, RY26L & RY26R. LNDG AND DEPG RY 26L AND RY 26R. NOTAMS... TAXIWAY SIERRA FIVE CLOSED. TAXIWAY SIERRA CLOSED BETWEEN TAXIWAY SIERRA 8 AND TAXIWAY WHISKEY. RY 26L IM OTS, RY 26R ALS OTS. USE CAUTION FOR NUMEROUS BIRDS OBSERVED IN VICINITY OF ONT. PILOTS READBACK RWY ASSIGNMENTS AND HOLD SHORT INSTRUCTIONS. ...ADVS YOU HAVE INFO J.\n[Departure ATIS] KONT DEP ATIS N 0553Z - KONT ATIS INFO N 0553Z. 24004KT 10SM BKN250 22/15 A2988 (TWO NINER EIGHT EIGHT) RMK AO2 SLP100. ILS AND VIS APR IN USE, RY26L & RY26R. LNDG AND DEPG RY 26L AND RY 26R. NOTAMS... TAXIWAY SIERRA CLSD BETWEEN SIERRA 8 AND W TAXIWAY Q SOUTH OF RWY 26L CLSD TAXIWAY T CLSD TAXIWAY SIERRA 5 CLSD. RY 26L IM OTS, RY 26R ALS OTS. USE CAUTION FOR NUMEROUS BIRDS OBSERVED IN VICINITY OF ONT. HAZD WX INFO FOR SOUTHERN CA AVBL ON FSS FREQUENCIES. PILOTS READBACK RWY ASSIGNMENTS AND HOLD SHORT INSTRUCTIONS. ...ADVS YOU HAVE INFO N.",
    "KSFO": "[Arrival ATIS] KSFO ARR ATIS M 2356Z - KSFO ATIS INFO M 2356Z. 28021KT 10SM FEW007 18/12 A2995 (TWO NINER NINER FIVE). SIMUL CLSLY SPCD DPNDNT ILS RY 28R AND ILS RY 28L APP IN USE. DEPG RWYS 28L, 28R. DEPG ACFT SHOULD BE PREPARED FOR A SHORT NOTICE RY CHANGE. RY 1L, 1R CLSD. NUMEROUS TWY CLOSURES FOR CONSTRUCTION ON THE FIELD, PILOTS CHECK NOTAMS. MULTIPLE CRANES VCY OF SFO CHECK NOTAMS. DEPG ACFT WAITING ON FINAL NUMBERS ADVISE GROUND PRIOR TO ENTERING TWY F. ...ADVS YOU HAVE INFO M.\n[Departure ATIS] KSFO DEP ATIS J 0556Z SFO ATIS INFO J 0556Z. 25014KT 10SM FEW007 14/11 A2990 (TWO NINER NINER ZERO). SIMUL CLSLY SPCD DPNDNT ILS RY 28R AND ILS RY 28L APP IN USE. DEPG RWYS 28L, 28R. DEPG ACFT SHOULD BE PREPARED FOR A SHORT NOTICE RY CHANGE. RY 1L, 1R CLSD. NUMEROUS TWY CLOSURES FOR CONSTRUCTION ON THE FIELD, PILOTS CHECK NOTAMS. DEPG ACFT WAITING ON FINAL NUMBERS ADVISE GROUND PRIOR TO ENTERING TWY F. ...ADVS YOU HAVE INFO J.",
    "KOAK": "[Arrival ATIS] KOAK ARR ATIS E 2253Z - KOAK ATIS INFO E 2253Z. 26015KT 10SM FEW008 FEW015 19/12 A2996 (TWO NINER NINER SIX). RNAV, AND VA, RWY 30. ILS, AND VA, RWY 28R, RNAV Z 30, ILS 28R. FLOW TO LAX, SAN, SEA. ILS RWY 30, OTS. UNN LIT CLOSE-IN OBSTACLES FOR RWY 30 DEPARTURES. RWY 30 DEPARTURES ARE ADVISED TO AVOID TURNING LEFT PRIOR TO DEPARTURE END OF RUNWAY. SIGNATURE UNI-COM OUT OF SERVICE. CTN, CRANE 1 POINT 6 NAUTICAL MILES, , AT 140 FEET AGL. CAUTION, BIRDS NEAR AIRPORT. ...ADVS YOU HAVE INFO E.\n[Departure ATIS] KOAK DEP ATIS O 1953Z OAK ATIS INFO O 1953Z. 28014KT 10SM FEW005 22/14 A2988 (TWO NINER EIGHT EIGHT). RNAV Z/VA RWY 30 ILS/VA RWY 28R. FLOW TO LAX, LAS, SAN. ILS RWY 30, OTS. UNN LIT CLOSE-IN OBSTACLES FOR RWY 30 DEPARTURES. RWY 30 DEPARTURES ARE ADVISED TO AVOID TURNING LEFT PRIOR TO DEPARTURE END OF RUNWAY. SIGNATURE UNI-COM OUT OF SERVICE. CAUTION, BIRDS NEAR AIRPORT. ...ADVS YOU HAVE INFO O.",
    "KDFW": "[Arrival ATIS] KDFW ARR ATIS R 1253Z DFW ARR INFO R 1253Z. 18007KT 10SM BKN016 BKN170 BKN250 26/23 A3010 (THREE ZERO ONE ZERO) RMK AO2 SLP186 T02610233. SIMUL APCH IN USE. EXPECT ILS TO RWYS, 13R, 18R, 17C, 17L. LDG RWY 17C EXP LAHSO TWY B 10460 FT AVAIL, LDG RWY 18R EXP LAHSO TWY B 10100 FT AVL. NOTICE TO AIRMEN. WARNING, RWY 18L HAS BEEN SHORTENED, 9273 FT AVAILABLE. BIRD ACTIVITY VCNTY ARPT. ...ADVS YOU HAVE INFO R.\n[Departure ATIS] KDFW DEP ATIS F 1453Z DFW DEP INFO F 1453Z. 11005KT 10SM SCT020 BKN030 BKN055 BKN250 27/22 A3008 (THREE ZERO ZERO EIGHT) RMK AO2 SLP178 T02720217 51013. SIMUL PARL TRAFFIC DEPG RWYS 17R, 18L. NOTICE TO AIRMEN. WARNING, RWY 18L HAS BEEN SHORTENED, 9273 FT AVAILABLE. HAZD WX FOR DFW AVBL ON FSS. BIRD ACTIVITY VCNTY ARPT. ...ADVS YOU HAVE INFO F.",
    "KIAH": "[Arrival ATIS] KIAH ARR ATIS X 1153Z IAH ATIS INFO X 1153Z. 16003KT 10SM FEW020 FEW250 26/25 A3012 (THREE ZERO ONE TWO). ARRIVALS EXPECT ILS OR RNAV Y RY 26R, ILS OR RNAV Y RY 26L, ILS OR RNAV Y RY 27. SIMUL APPROACHES IN USE. DEPG RY 15L, RY 15R. NOTICE TO AIRMEN. UNITED RAMP CONTROL IN EFFECT. BIRD ACTIVITY VICINITY ARPT. CRANES ARE DOWN. TWY SA CLSD BTN TWY, SF AND TWY SK , TWY SB CLSD BTN TWY, SF AND TWY SK , , TWY EA CLSD. NOTAM ATIS IN USE ON FREQUENCY 126.225. ...ADVS YOU HAVE INFO X.\n[Departure ATIS] KIAH DEP ATIS T 0353Z IAH ATIS INFO T 0353Z. 15007KT 10SM FEW035 FEW180 BKN250 27/23 A2996 (TWO NINER NINER SIX). ARRIVALS EXPECT ILS OR RNAV Y RY 8R, ILS OR RNAV Y RY 8L. DEPG RY 15R. NOTICE TO AIRMEN. UNITED RAMP CONTROL IN EFFECT. RY 15L, 33R CLSD. HAZD WX INFO FOR IAH AREA AVBL FM FSS. BIRD ACTIVITY VICINITY ARPT. CRANES ARE DOWN. TWY SA CLSD BTN TWY, SF AND TWY SK , TWY SB CLSD BTN TWY, SF AND TWY SK , , TWY WB CLSD BTN TWY, WG AND TWY WH . TWY EA CLSD. NOTAM ATIS IN USE ON FREQUENCY 126.225. ...ADVS YOU HAVE INFO T.",
    "KORD": "[Arrival ATIS] KORD ARR ATIS F 1351Z ORD ATIS INFO F 1351Z. 20003KT 1 1/2SM FU FEW015 BKN120 28/22 A3005 (THREE ZERO ZERO FIVE) RMK AO2 SLP168 T02780217. ARR EXP VECTORS ILS RWY 27C APCH, ILS RWY 27R APCH, ILS RWY 28C APCH. SIMUL APCHS IN USE. DEPS EXP RWYS 22L 28R FROM NOVEMBER 5 9750 FT AVL. RWY 4L, 22R CLSD. RWY 22R LOC OTS, RWY 28L GS OTS, RWY 9L IM OTS, RWY 9C IM OTS, RWY 10L IM OTS, RWY 10R IM OTS, RWY 27R IM OTS, RWY 28L IM OTS, RWY 28R IM OTS, RWY 9L PAPI OTS, RWY 27R PAPI OTS. PILOTS USE CTN FOR BIRD ACTIVITY IN THE VICINITY OF THE ARPT. USE CTN FOR PERSONNEL AND EQUIP AT NUMEROUS SITES ON THE FIELD. READBACK ALL RWY HOLD SHORT INSTRUCTIONS. WHEN READY TO TAXI CONTACT GND METERING ON FREQ 121.67. ...ADVS YOU HAVE INFO F.\n[Departure ATIS] KORD DEP ATIS K 0251Z - KORD ATIS INFO K 0251Z. VRB05KT 3/4SM R10L/P6000FT FU VV015 27/17 A3006 (THREE ZERO ZERO SIX) RMK AO2 SLP174 T02670167 53011. ARR EXP VECTORS ILS RWY 10C APCH. DEPS EXP",
    "KJFK": "[Arrival ATIS] KJFK ARR ATIS M 1751Z JFK ATIS INFO M 1751Z. 24008KT 6SM FU FEW048 SCT055 OVC300 29/17 A2988 (TWO NINER EIGHT EIGHT) RMK AO2 SLP117 FU OVC300 T02890172 10294 20250 58014. APPROACH IN USE ILS RY 31R, ILS RY 31L. DEPG RY 31L. RWY 4R, 22L CLSD. RY 13L SFL OTS, RWY 22L/4R INNER MARKER OTS. NUM CRANES OPERATING AT JFK. BIRD ACTIVITY VICINITY ARPT. READBACK ALL RWY ASSIGNMENTS AND HOLD SHORT INSTRUCTIONS. ...ADVS YOU HAVE INFO M.\n[Departure ATIS] KJFK DEP ATIS H 0851Z JFK ATIS INFO H 0851Z. 33008KT 6SM FU OVC040 24/13 A2998 (TWO NINER NINER EIGHT) RMK AO2 FU OVC040. APPROACH IN USE ILS RY 31R, ILS RY 31L. DEPG RY 31L. RY 13L SFL OTS, RWY 22L/4R INNER MARKER OTS. RWY 22L PAPI OTS. NUM CRANES OPERATING AT JFK. BIRD ACTIVITY VICINITY ARPT. READBACK ALL RWY ASSIGNMENTS AND HOLD SHORT INSTRUCTIONS. ...ADVS YOU HAVE INFO H.",
    "KIND": "[Arrival ATIS] KIND ARR ATIS Q 1254Z IND ATIS INFO Q 1254Z. 24005KT 10SM FEW040 BKN095 BKN110 27/23 A3009 (THREE ZERO ZERO NINER). PARL ILS RWY 23R AND 23L APPROACHES IN USE. CROSS RUNWAY OPERATIONS MAY BE IN EFFECT. NOTICE TO AIRMEN. TWY, P BTN TWY, H AND TWY B CLSD, TWY, P BTN TWY, H AND TWY J CLSD, TWY, H BTN TWY, R AND TWY N CLSD. P PAD CLSD. ILS RUNWAY 5R AND RUNWAY 5L INNER MARKER UNSERVICEABLE. ...ADVS YOU HAVE INFO Q.\n[Departure ATIS] KIND DEP ATIS G 0254Z IND ATIS INFO G 0254Z. 03006KT 10SM SCT060 BKN110 BKN190 OVC250 28/22 A3007 (THREE ZERO ZERO SEVEN). PARL ILS RWY 5R AND 5L APPROACHES IN USE. CROSS RUNWAY OPERATIONS MAY BE IN EFFECT. NOTICE TO AIRMEN. TWY, P BTN TWY, H AND TWY B CLSD, TWY, P BTN TWY, H AND TWY J CLSD, TWY, H BTN TWY, R AND TWY N CLSD. P PAD CLSD. ILS RUNWAY 5R AND RUNWAY 5L INNER MARKER UNSERVICEABLE. HIWAS. ARPT ADZY FLOCK OF MEDIUM BIRDS IN THE VICINITY OF THE AIRPORT, ALT UNKN. ...ADVS YOU HAVE INFO G.",
    "KDTW": "[Arrival ATIS] KDTW ARR ATIS A 0853Z DTW ARR INFO A 0853Z. 00000KT 2SM FU OVC044 20/16 A3012 (THREE ZERO ONE TWO) RMK AO2 TWR VIS 3 SLP195 FU OVC044 T02000161 53005. SIMUL ILS Z RY 22R AND RY 21L APCH IN USE. SIMULTANEOUS ARRIVAL AND, DEPARTURE OPERATIONS ARE IN USE, ON RY 22R AND RY 22L. NOTICE TO AIRMEN. RWY 21R, 3L CLSD, RWY 27L, 9R CLSD, RWY 27R, 9L CLSD. TWYS Y1 CLSD ;. RY 22L ALS OTS. PILOTS USE CTN FOR BIRD ACTIVITY. TWR AND GC COMB ON FREQ 135.0. DEPARTURE ATIS 118.125. ...ADVS YOU HAVE INFO A.\n[Departure ATIS] KDTW DEP ATIS N 0953Z DTW DEP INFO N 0953Z. 35003KT 1SM R03R/P6000FT FU SCT000 OVC027 22/16 A3004 (THREE ZERO ZERO FOUR) RMK AO2 TWR VIS 2 SLP167 FU SCT000 T02170161. DEPG RWY 4R. . RWY 4R DEPARTURE POINT IS Y 2, DISTANCE REMAINING IS 11, THOUSAND, 450, FT, FULL LENGTH AVAIL UPON REQ ;. NOTICE TO AIRMEN. RWY 21R, 3L CLSD, RWY 27L, 9R CLSD, RWY 27R, 9L CLSD. TWYS Y1 CLSD ;. PILOTS USE CTN FOR BIRD ACTIVITY. TWR AND GC COMB ON FREQ 135.0. ...ADVS YOU HAVE INFO N.",
    "KMSP": "[Arrival ATIS] KMSP ARR ATIS H 1153Z - KMSP ARR INFO H 1153Z. 20006KT 10SM FEW250 26/22 A3000 (THREE ZERO ZERO ZERO) RMK AO2 SLP152 T02560217 10272 20256 53008. SIMULTANEOUS DEPENDENT, ILS RWY 12R APCH IN USE, LOCALIZER RWY 12L APCH IN USE. FINAL APCH, OVER NOISE SENSITIVE AREA. NOTICE TO AIRMEN. RWYS 4, 22 CLSD. TWY R7. R8. R9. R10. CLOSED. TWY R BTWN R6 AND R10 CLSD, TWY A7 CLSD, TWY A CLSD BTN TWY, A7 AND TWY D. GS RWY 12L OTS, RWYS 12R, 12L, INNER MARKER OTS. CTN, BIRDS NEAR MSP. READ BACK HS AND ALT. ALL ACFT TAXI WITH TRANSPONDER AND ALTITUDE ENCODING ON. 12R ARRIVALS ADVISE GATE ON INITIAL CONTACT. ...ADVS YOU HAVE INFO H.\n[Departure ATIS] KMSP DEP ATIS U 1153Z - KMSP DEP INFO U 1153Z. 20006KT 10SM FEW250 26/22 A3000 (THREE ZERO ZERO ZERO) RMK AO2 SLP152 T02560217 10272 20256 53008. DEPARTING RWY 12L, RWY 12R, RWY 17. NOTICE TO AIRMEN. RWYS 4, 22 CLSD. TWY R7. R8. R9. R10. CLOSED. TWY R BTWN R6 AND R10 CLSD, TWY A7 CLSD, TWY A CLSD BTN TWY, A7 AND TWY D. ALL ACFT CTC METERING ON ONE THREE THREE POINT FIVE SEVEN WHEN READY TO PUSHBACK OR TAXI. CTN, BIRDS NEAR MSP. READ BACK HS AND ALT. ALL ACFT TAXI WITH TRANSPONDER AND ALTITUDE ENCODING ON. ...ADVS YOU HAVE INFO U.",
    "CYEG": "[Arrival ATIS] CYEG ARR ATIS U 1400Z CYEG ARR ATIS U 1400Z VRB02KT 12SM FEW150 20/20 A2999 APCH RNAV Z OR Y RWY 20, INFORM ARRL OF REQ APCH ON INITIAL CTC. LDG AND DEP RWY 20. SIMUL APPROACHES MAY BE IN EFCT. CYYC GDP IN EFCT CTC CYEG FIC ON FREQ 122.375 OR TEL 1-780-890-8386. INFORM CYEG ATC INFO U\n[Departure ATIS] CYEG DEP ATIS U 1400Z CYEG ARR ATIS U 1400Z VRB02KT 12SM FEW150 20/20 A2999 APCH RNAV Z OR Y RWY 20, INFORM ARRL OF REQ APCH ON INITIAL CTC. LDG AND DEP RWY 20. SIMUL APPROACHES MAY BE IN EFCT. CYYC GDP IN EFCT CTC CYEG FIC ON FREQ 122.375 OR TEL 1-780-890-8386. INFORM CYEG ATC INFO U",
    "EHAM": "[Arrival ATIS] EHAM ARR ATIS A 0922Z EHAM ARRIVAL INFO A. DEMAND. MAIN LANDING RWY 06. SECONDARY LANDING RWY 36 R. TRANSITION LEVEL 045. WIND 310 DEG, 8 KT, VRB BTN 290 AND 010 DEG, 13 KT MAX, 4 KT MNM. WIND SECONDARY RUNWAY 310 DEG, 8 KT, VRB BTN 270 AND 010 DEG, 11 KT MAX, 3 KT MNM. VIS 10 KM OR MORE. CLD FEW 2100 FT BKN 2500 FT. T 20. DP 15. QNH 1014 HPA. NOSIG. OPERATIONAL REPORT. CONVERGING APPROACHES IN PROGRESS. CONTACT APCH WITH CALLSIGN ONLY. END OF INFO A\n[Departure ATIS] EHAM DEP ATIS V 1415Z EHAM DEPARTURE INFO V. DEMAND. MAIN DEPARTURE RWY 36 L. SECONDARY DEPARTURE RWY 36 C. MAIN LANDING RWY 36 R. WIND 310 DEG, 8 KT, VRB BTN 270 AND 350 DEG, 15 KT MAX, 5 KT MNM. WIND SECONDARY RUNWAY 320 DEG, 11 KT, VRB BTN 260 AND 360 DEG, 15 KT MAX, 5 KT MNM. VIS 10 KM OR MORE. CLD SCT 3000 FT. T 22. DP 14. QNH 1014 HPA. OPERATIONAL REPORT. INDEPENDENT PARALLEL DEPARTURES IN PROGRESS CHECK CORRECT SID IN FMS. INFORM SCHIPHOL DEL BY VOICE IF UNABLE TO COMPLY WITH NADP 2. END OF INFO V",
    "EBBR": "[Arrival ATIS] EBBR ARR ATIS B 2350Z EBBR NAT, EXP VECT FOR ILS APP ARR RWY01 RSCD AT 2111 RWY01 DRY. DEP RWY07L TRL 055 XNG RWY OPS INPR. TWY OUT 6 B3 CLSD 080/4KT CAVOK T21 DP19 QNH 1023HPA NOSIG CFM ARR B\n[Departure ATIS] EBBR DEP ATIS A 0850Z EBBR NAT, DEP RWY25R RSCD AT 0726 RWY25R DRY. ARR RWY25L TRL 055 B3 CLSD 290/5KT VRB BTN 260 AND 020 MNM2 MAX12 VIS ABV 10KM SCT2200FT T21 DP16 QNH 1015HPA NOSIG CFM DEP A",
    "EDDF": "[Arrival ATIS] EDDF ARR ATIS T 0920Z ARR-ATIS EDDF T METAR 170920 EXPECT INDEPENDENT PARALLEL ILS APCH RWY 25L OR ILS Z APCH RWY 25R RWY 25R 25L GLS APCH ON REQUEST , DO NOT MISTAKE TWY M FOR RWY 25C WHEN PERFORMING VISUAL APPROACH , RWY COND AT TIME 0930 : ALL RWYS DRY , RWYCC 6 , TRL 60 23006KT 180V260 9999 FEW026 T23 DP17 QNH1014 RESHRA TREND NOSIG END OF ATIS T\n[Departure ATIS] EDDF DEP ATIS D 2320Z DEP-ATIS EDDF D METAR 222320 RWY 07C ACFT DEPARTING RWY07C : EXPECT DEPARTURE FROM INTERSECTION L17 , TORA 3312 METERS. IF UNABLE , ADVISE APRON ON INITIAL CONTACT , TRL 60 01007KT CAVOK T26 DP20 QNH1022 TREND NOSIG",
    "EDDL": "[Arrival ATIS] EDDL ARR ATIS J 1720Z ATIS EDDL J METAR 161720 EXPECT VECTORS ILS APPROACH RWY 05R ATTENTION, RISK OF TWY INCURSION WHEN TAXIING TO RWY05R, CHECK HOT SPOTS T1 AND L9 ON TAXI CHART TRL 60 EXPECT INTENSE BIRD ACTIVITY IN THE VICINITY OF RWY SYSTEM 02010KT 350V050 CAVOK T28 DP14 QNH1014 TREND NOSIG\n[Departure ATIS] EDDL DEP ATIS R EDDL ARR/DEP DATIS RPT -ATIS EDDL R METAR 020550 -EXPECT VECTORS ILS APPROACH -RWY 23L -TWY L8 CLOSED BETWEEN TWY M AND RWY 23L -TRL 60 - -23010KT -CAVOK - - -T19 DP13 -QNH1020 - -TREND NOSIG",
    "EDDK": "[Arrival ATIS] EDDK ARR ATIS A 1450Z ATIS EDDK A METAR 161450 EXPECT ILS APCH RWY 13L RWY 13L 06 RWY COND RWY 13L AT TIME 1315 RWYCC 5 DEPOSIT TOTAL RWY WET RWY 06 AT TIME 1315 RWYCC 5 DEPOSIT TOTAL RWY WET TRL 60 RWY 13R AND RWY 31L CLOSED FOR DEPARTURE AND LANDING: TAXIING BTN THR RWY 13R AND INTERSECTION RWY 24 POSSIBLE : 05010KT 030V090 CAVOK T27 DP14 QNH1016 TREND NOSIG\n[Departure ATIS] EDDK DEP ATIS E 2050Z -ATIS EDDK E METAR 142050 -EXPECT CDO FOR ILS APCH RWY 31R -RWY 31R 06 -RWY COND RWY 31R AT TIME 1837 RWYCC 6 DEPOSIT TOTAL RWY DRY RWY 06 AT TIME 1837 RWYCC 6 DEPOSIT TOTAL RWY DRY -TRL 60 -RWY 13R AND RWY 31L CLOSED FOR DEPARTURE AND LANDING: TAXIING BTN THR RWY 13R AND INTERSECTION RWY 24 POSSIBLE : -02006KT 350V050 -CAVOK - - -T23 DP14 -QNH1018 - -TREND NOSIG",
    "EBLG": "[Arrival ATIS] EBLG ATIS J 1350Z EBLG INFO, EXP RNAV TO ILS APP ARR RWY22L DEP RWY22L RWY 22L DRY, RWYCC 666. TRL 055 ADZ ON GND FREQ IF UNABLE C4 260/8KT VRB BTN 250 AND 330 MNM3 MAX13 CAVOK T26 DP11 QNH 1014HPA NOSIG CFM ATIS J",
    "LSZH": "[Arrival ATIS] LSZH ARR ATIS E 1750Z ARRIVALS, EXP ILS APCH, RWY 14. TRL 70. DEP RWY 28. WIND 320 DEG, 10 KT. VIS 10 KM OR MORE, TDZ 10 KM OR MORE. TS, VCSH. CLD FEW 5000 FT, FEW CB 7000 FT. T 26. DP 18. QNH 1016. WS, WIND AT 2100 FT QNH 300 DEG 4 KT, WIND AT 2400 FT QNH 180 DEG 33 KT. TREND TEMPO MOD TSRA.\n[Departure ATIS] LSZH DEP ATIS Y 0920Z DEP RWY 28. RWY COND REPORT. RWY 28. RWY COND CODE 6, 6, 6. COVERAGE NR, NR, NR. DEPTH NR, NR, NR. DRY AND DRY AND DRY. RWY 16. RWY COND CODE 6, 6, 6. COVERAGE NR, NR, NR. DEPTH NR, NR, NR. DRY AND DRY AND DRY. RWY REPORT END. TRL 70. ARRIVALS, EXP ILS APCH, RWY 14. TMA S 1 IS NOT ACT. TMA S 2 AND S 3 ARE NOT ACT. WIND 240 DEG, 5 KT, VRB BTN 220 AND 280 DEG. CAVOK. T 25. DP 15. QNH 1017. NOSIG.",
    "LIMC": "[Arrival ATIS] LIMC ARR ATIS K 1750Z LIMC ARR K 1750Z I.L.S. ZULU RWY IN USE 35R TL 70 WIND TDZ VRB1KT CAVOK T32 DP16 QNH 1016HPA QFE 0991HPA\n[Departure ATIS] LIMC DEP ATIS M 1246Z LIMC DEP M 1246Z RWY IN USE 35R TL 70 BIRDS CONCENTRATION ON RWY STRIP WIND END VRB2KT CAVOK T31 DP14 QNH 1013HPA QFE 0988HPA DATALINK CLEARANCE AVAILABLE.... CONTACT 1 3 1 8 8 0 TO BE RELEASED BY THE AIRPORT OPERATOR ...",
    "LIRF": "[Arrival ATIS] LIRF ARR ATIS P 0850Z LIRF ARR P 0850Z RWY 16L ILS W RWY 16R ILS Z RWY IN USE 16L 16R TL 70 DEPENDENT PARL ILS APCH INPR RWY IN USE 16R OR 16L ASSIGNED BY ROME RADAR WIND RWY 16L TDZ 160/8KT VRB BTN 110/AND 180/ RWY 16R TDZ 170/8KT VRB BTN 130/AND 190/ CAVOK T32 DP25 QNH 1014HPA RRSM\n[Departure ATIS] LIRF DEP ATIS Q 1356Z LIRF DEP Q 1356Z RWY IN USE 25 TL 75 RWYS IN USE FOR ARR 16L AND 16R WIND END 190/10KT VRB BTN 160/AND 220/ CAVOK T32 DP25 QNH 1012HPA REA IS SENT AUTOMATICALLY ONCE RLSD BY RAMP WHEN READY CONTACT FIUME RAMP 121.725 RRSM",
    "EINN": "[Arrival ATIS] EINN ARR ATIS A 1400Z EXPECT I L S CATEGORY 1 LDG RWY06 TKOF RWY06 TRL FL060 33010KT 9999 FEW025 SCT200 26/14 QNH Q1020 TREND NOSIG ADVISE AT FIRST CONTACT YOU HAVE ATIS INFO A",
    "EGLL": "[Arrival ATIS] EGLL ARR ATIS W 0920Z LANDING RWY 27R TRANSITION-LEVEL: FL 70 RUNWAY 27R REDUCED DECLARED DISTANCES WITH TAKE OFF RUN AVAILABLE 3362METRES AND LANDING DISTANCE AVAILABLE 3362METRES IF STAND GUIDANCE IS OFF OR FAILS, REMAIN ON THE TAXIWAY CENTRELINE AND ADVISE ATC AUTO VRB04KT 9999 NCD 21/12 Q1017 ACKNOWLEDGE RECEIPT OF INFORMATION W\n[Departure ATIS] EGLL DEP ATIS J 0920Z DEPARTURE RWY 27L RUNWAY 27R REDUCED DECLARED DISTANCES WITH TAKE OFF RUN AVAILABLE 3362METRES AND LANDING DISTANCE AVAILABLE 3362METRES PILOTS THAT ARE IN RECEIPT OF DATALINK CLEARANCES ARE REMINDED THEY MUST CONTACT DELIVERY ON 121.980 WHEN READY FOR START AUTO VRB05KT 9999 NCD 21/12 Q1017 ACKNOWLEDGE RECEIPT OF INFORMATION J AND REPORT AIRCRAFT TYPE AND CURRENT QNH ON FIRST CONTACT WITH HEATHROW",
    "EPWA": "[Arrival ATIS] EPWA ARR ATIS C 1731Z EPWA ARR C. TIME 1730. EXP U ARR ILS Z APCH FOR RWY 33. TRANSITION LEVEL 80. WIND 050 DEG, 6 KT, VRB BTN 350 AND 060 DEG. CAVOK. T 29. DP 13. QNH 1018. NOSIG. CAUTION. BIRD ACT. END OF EPWA ARR C\n[Departure ATIS] EPWA DEP ATIS W 1348Z EPWA DEP W. TIME 1348. DEP RWY 15. ARR RWY 11, EXP N ARR ILS Z. REPORT READY FOR STARTUP ON DELIVERY 121 DECIMAL 605. TRANSITION LEVEL 80. WIND 160 DEG, 6 KT, VRB BTN 120 AND 190 DEG. CAVOK. T 31. DP 17. QNH 1012. NOSIG. CAUTION. BIRD ACT. END OF EPWA DEP W",
    "EFHK": "[Arrival ATIS] EFHK ARR ATIS H 1250Z EXPECT ILS APCH ARR RWY 15 RUNWAY 15 CONDITION REPORT AT 1103 UTC RUNWAY CONDITION CODES 6 , 6 , 6 CONTAMINANTS ALL PARTS DRY TRL 60 WIND 170 DEG 9 KT VRB BTN 140 AND 200 DEG VIS 10KM FEW 4000 FT T 24 DP 15 QNH 1016 NOSIG ACK INFO H\n[Departure ATIS] EFHK DEP ATIS F 2120Z DEP RWY 22R RUNWAY 22R CONDITION REPORT AT 2114 UTC RUNWAY CONDITION CODES 6 , 6 , 6 CONTAMINANTS ALL PARTS DRY WIND 300 DEG 5 KT CAVOK T 14 DP 4 QNH 1020 NOSIG ACK INFO F",
    "LTAC": "[Arrival ATIS] LTAC ARR ATIS B 1020Z EXP ILS V APCH 03C DEP RWY 03L RWY 03C WIND 080 DEG 12 KT VRB BTN 050 DEG AND 110 DEG RWY 03L WIND 090 DEG 14 KT TRL 110 VIS 9999 SCT04000 FT T 27 DP 07 QNH 1015 NOSIG FOR DELIVERY CTC 121.9. FOR DELIVERY FIRST USE DIGITAL DEP CLR. CTN BIRD HAZARD OVR AERODROME. APCH FREQUENCY 129.050. END OF ATIS B",
    "UBBB": "[Arrival ATIS] UBBB ARR ATIS D 1400Z ATIS D EXP ILS/ LDG 34 35 DEP 34 35 IN USE RWY 34 CLEAR DRY 70 RWY 35 CLEAR DRY 70 TLVL 110 WIND WIND RWY 34 350 14 KT SPD MAX 16 MIN 10 WIND RWY 35 350 12 KT SPD MAX 18 MIN 10 VIS CAVOK T 30 / DP 18 QNH 1006 HPA TREND TREND NOSIG MODERATE BIRDS ACT IN VICINITY OF AP END OF ATIS D\n[Departure ATIS] UBBB DEP ATIS X 2100Z ATIS X EXP ILS/ LDG 34 35 DEP 34 35 IN USE RWY 34 CLEAR DRY 70 RWY 35 CLEAR DRY 70 TLVL 110 WIND WIND RWY 34 360 6 KT SPD MAX 8 MIN 6 WIND RWY 35 350 6 KT SPD MAX 8 MIN 4 VIS 10 KM FEW CB 6000 FT RWY 34 FEW CB 6000 FT RWY 35 T 23 / DP 15 QNH 1015 HPA TREND TREND NOSIG MODERATE BIRDS ACT IN VICINITY OF AP END OF ATIS X",
    "ZWWW": "[Arrival ATIS] ZWWW ARR ATIS D 2330Z EXP ILSDME Z APCH LDG RWY 26L TA 3000 WIND 230/3MPS CAVOK T 26 /DP 04 QNH 1007 HPA BIRDS ACTIVITY IN THE VICINITY OF THE AERODROME ADZ YOU HAVE INFO D.\n[Departure ATIS] ZWWW DEP ATIS N 0530Z DEP RWY 26L TA 3000 WIND VRB/1MPS CAVOK T 39 /DP 06 QNH 1009 HPA ADZ YOU HAVE INFO N.",
    "ZLXY": "[Arrival ATIS] ZLXY ARR ATIS S 2300Z EXP ILS APCH LDG RWY 05L & 06L WIND 050/3MPS CAVOK T 21 /DP 18 QNH 1007 HPA VISUAL APPROACH IN PROGRESS ADZ YOU HAVE INFO S.\n[Departure ATIS] ZLXY DEP ATIS Q 2200Z DEP RWY 06L WIND 040/2MPS VIS 8000M CLD FEW 1500M T 20 /DP 18 QNH 1007 HPA VISUAL APPROACH IN PROGRESS ADZ YOU HAVE INFO Q.",
    "ZBAA": "[Arrival ATIS] ZBAA ARR ATIS P 2330Z EXP ILS APCH DEPENDENT PARL INSTR APCH LDG RWY 36L & 36R & 01 WIND 360 DEG 4 MPS 330V040 DEG CAVOK T 21 /DP 17 QNH 1008 HPA VISUAL APPROACH IS IN PROGRESS. ADZ YOU HAVE INFO P.\n[Departure ATIS] ZBAA DEP ATIS P 2330Z DEP RWY 36L & 36R & 01 WIND 360 DEG 4 MPS 330V040 DEG CAVOK T 21 /DP 17 QNH 1008 HPA RWY INDEPENDENT PARALLEL DEP VISUAL APPROACH IS IN PROGRESS. ADZ YOU HAVE INFO P.",
    "ZBHH": "[Arrival ATIS] ZBHH ARR ATIS H 2200Z EXP ILSDME APCH LDG RWY 26 TA 3000 /TRL 3600 WIND 010/3MPS VIS 9999M CLD FEW 1200M T 16 /DP 07 QNH 1009 HPA ADZ YOU HAVE INFO H.\n[Departure ATIS] ZBHH DEP ATIS Q 1500Z DEP RWY 08 TA 3000 /TRL 3600 WIND 140/2MPS VIS 5000M BR NSC T 19 /DP 19 QNH 1007 HPA ADZ YOU HAVE INFO Q.",
    "ZSQD": "[Arrival ATIS] ZSQD ARR ATIS U 2354Z EXP ILSDME APCH LDG RWY 17 TA 3000 /TRL 3600 WIND 120/3MPS VRB BTN 090/ AND 160/ CAVOK T 23 /DP 20 QNH 1008 HPA SEGREGATED OPERATION VISUAL APPROACH OPERATION IN PROGRESS. RUNWAY 17,IF MISSED APPROACH,EXPECT FOLLOW THE STANDARD MISSED APPROACH PROCEDURE,CLIMB TO 900M ON QNH OR BY ATC CAUTION MAYBE THERE IS A FLOCK OF BIRDS IN THE VICINITY OF AIRPORT ADZ YOU HAVE INFO U.\n[Departure ATIS] ZSQD DEP ATIS Y 2112Z DEP RWY 16 TA 3000 /TRL 3600 WIND 140/2MPS VIS 4000M BR CLD FEW 450M T 22 /DP 21 QNH 1009 HPA VISUAL APPROACH OPERATION IN PROGRESS. WHEN READY CONTACT QINGDAO TOWER ON 118.7 RUNWAY 16,IF MISSED APPROACH,EXPECT FOLLOW THE STANDARD MISSED APPROACH PROCEDURE,CLIMB TO 600M ON QNH OR BY ATC CAUTION MAYBE THERE IS A FLOCK OF BIRDS IN THE VICINITY OF AIRPORT ADZ YOU HAVE INFO Y."
  },
  "windtemp_alaska": "\n000\nFBAK31 KWNO 171400\nFD1AK1\nDATA BASED ON 171200Z    \nVALID 171800Z   FOR USE 1400-2100Z. TEMPS NEG ABV 24000\n\nFT  3000    6000    9000   12000   18000   24000  30000  34000  39000\nADK 2850 2852+09 2847+05 2847+00 2946-12 3052-23 295739 295449 305055\nADQ 3017 2712-01 2614-06 2619-10 2727-21 2738-32 274046 253445 252542\nAKN 2612 2710-03 2609-07 2614-12 2624-22 2630-33 274347 273545 262441\nANC 1207 1419+00 1618-04 1719-10 1930-23 1839-35 195444 194442 203141\nANN 3307 2805+12 2507+08 2407+02 2108-12 2207-24 990039 990049 990058\nBET 2508 2606-02 9900-08 2806-13 2813-24 2822-34 272647 271944 271441\nBRW 0415 0414+03 0511-01 0612-07 0815-19 1219-31 141547 151753 131345\nBTI 9900 9900+02 0607-04 9900-07 0805-17 0911-30 100845 990049 161244\nBTT 1412 1413+02 1214-04 1115-09 1317-20 1131-31 104846 113850 152043\nCDB 2127 2127-02 2231-05 2433-09 2633-15 2661-25 277742 288850 285451\nCZF 9900 0506-02 0906-08 0806-13 0305-24 3506-34 301047 300743 320840\nEHM 2212 2108-04 2513-07 2411-12 2515-22 2627-31 265045 264947 272943\nFAI 2411 1912+01 1813-06 1818-11 1734-20 1738-34 185346 184144 172542\nFYU 1610 1511+03 1613-04 1615-09 1722-17 1727-30 183246 183650 172545\nGAL 2708 9900+00 1009-05 0813-11 0922-23 1025-36 113046 112042 131340\nGKN 1514 1814+01 1815-04 1826-09 1834-19 1956-30 198343 208750 194445\nHOM 9900 2505+00 9900-06 9900-12 2215-23 2218-35 222444 223141 222541\nJNU 9900 2409+08 2312+06 2212+01 2213-12 2217-24 222140 232549 222457\nLUR 0828 0728+03 0826-03 0822-08 0920-22 1120-33 142147 131850 091442\nMCG 1711 1710-02 1711-07 1715-13 1511-25 1414-39 170944 180941 181039\nMDO 1713 1615+02 1817-03 1921-07 2036-19 1955-30 198043 197948 204245\nOME 0112 3606-01 0306-06 0706-12 0814-24 0720-33 062648 061945 061040\nORT      9900+04 1711-01 1819-05 1932-17 2053-27 206743 217352 214550\nOTZ 0105 0708+00 0910-04 0813-10 0839-21 0831-33 094148 082848 081841\nSNP 0914 9900+00 2509-02 2409-07 2511-19 2519-31 244640 263840 282841\nTKA 9900 1909-01 1812-06 1920-11 1929-24 1835-35 184245 193742 192840\nUNK 1406 9900+00 0906-06 0710-12 0917-24 0614-36 051648 081141 130840\nYAK 9900 2511+05 2218+02 2121-03 2034-14 1942-25 204541 215050 214455\nIKO 2552 2546+04 2650+02 2553-02 2548-14 2743-23 275439 266249 266357\nAFM 9900 1206+01 1214-04 1020-09 0730-21 1026-32 105447 113849 101942\n5AB 3139 3141+10 3144+06 3145+01 3139-10 3254-22 336337 348144 358655\n5AC 3414 3313+11 3211+07 3209+02 3313-12 3317-24 331540 341450 340958\n5AD 2622 2630+05 2438+01 2449-03 2268-16 2269-27 217640 217749 226754\n5AE 2618 2721-01 2625-02 2630-07 2636-19 2748-28 297944 307651 285047\n5AF 2806 2811+09 2712+05 2515+00 2422-12 2421-23 232140 232350 212058\n5AG 2017 2121+05 2127+01 2032-04 2042-14 2146-25 205341 205650 205255\n",
  "vaac_tokyo": [
    {
      "id": "20260717_27307000_0014",
      "year": "2026",
      "volcano": "Taal",
      "psn": "N1400 E12100",
      "issued": "20260717",
      "text": "FVFE01 RJTD 171113\nVA ADVISORY\nDTG: 20260717/1113Z\nVAAC: TOKYO\nVOLCANO: TAAL 273070\nPSN: N1400 E12100\nAREA: PHILIPPINES\nSOURCE ELEV: 311M AMSL\nADVISORY NR: 2026/14\nINFO SOURCE: HIMAWARI-9 PHIVOLCS\nERUPTION DETAILS: ERUPTION AT 20260717/1051Z FL040 EXTD E REPORTED\nOBS VA DTG: 17/1100Z\nOBS VA CLD: VA NOT IDENTIFIABLE FM SATELLITE DATA WIND FL040 270/8KT\nFCST VA CLD +6 HR: NOT AVBL\nFCST VA CLD +12 HR: NOT AVBL\nFCST VA CLD +18 HR: NOT AVBL\nRMK: WE WILL ISSUE FURTHER ADVISORY IF VA IS DETECTED IN SATELLITE \nIMAGERY.\nNXT ADVISORY: NO FURTHER ADVISORIES=",
      "img_url": "https://ds.data.jma.go.jp/svd/vaac/data/VAGFN/2026/Images/20260717_27307000_0014_QH21_01.png",
      "sat_img_url": null,
      "text_url": "https://ds.data.jma.go.jp/svd/vaac/data/TextData/2026/20260717_27307000_0014_Text.html"
    },
    {
      "id": "20260717_27303000_0759",
      "year": "2026",
      "volcano": "Mayon",
      "psn": "N1315 E12341",
      "issued": "20260717",
      "text": "FVFE01 RJTD 171107\nVA ADVISORY\nDTG: 20260717/1107Z\nVAAC: TOKYO\nVOLCANO: MAYON 273030\nPSN: N1315 E12341\nAREA: PHILIPPINES\nSOURCE ELEV: 2462M AMSL\nADVISORY NR: 2026/759\nINFO SOURCE: HIMAWARI-9 PHIVOLCS\nERUPTION DETAILS: ERUPTION AT 20260717/0526Z FL140 EXTD SSW REPORTED\nOBS VA DTG: 17/1050Z\nOBS VA CLD: VA NOT IDENTIFIABLE FM SATELLITE DATA WIND FL140 360/5KT\nFCST VA CLD +6 HR: NOT AVBL\nFCST VA CLD +12 HR: NOT AVBL\nFCST VA CLD +18 HR: NOT AVBL\nRMK: WE WILL ISSUE FURTHER ADVISORY IF VA IS DETECTED IN SATELLITE \nIMAGERY.\nNXT ADVISORY: NO FURTHER ADVISORIES=",
      "img_url": "https://ds.data.jma.go.jp/svd/vaac/data/VAGFN/2026/Images/20260717_27303000_0759_QH21_01.png",
      "sat_img_url": null,
      "text_url": "https://ds.data.jma.go.jp/svd/vaac/data/TextData/2026/20260717_27303000_0759_Text.html"
    },
    {
      "id": "20260716_30027000_0266",
      "year": "2026",
      "volcano": "Sheveluch",
      "psn": "N5639 E16122",
      "issued": "20260716",
      "text": "FVFE01 RJTD 161200\nVA ADVISORY\nDTG: 20260716/1200Z\nVAAC: TOKYO\nVOLCANO: SHEVELUCH 300270\nPSN: N5639 E16122\nAREA: RUSSIA\nSOURCE ELEV: 3283M AMSL\nADVISORY NR: 2026/266\nINFO SOURCE: HIMAWARI-9\nERUPTION DETAILS: VA CONTINUOUSLY OBS IN SATELLITE IMAGERY\nOBS VA DTG: 16/1120Z\nOBS VA CLD: SFC/FL230 N5556 E16558 - N5544 E16655 - N5425 E16745 - \nN5359 E17000 - N5312 E16918 - N5403 E16711 MOV SE 35KT\nFCST VA CLD +6 HR: 16/1720Z SFC/FL240 N5329 E17049 - N5230 E17321 - \nN5147 E17227 - N5314 E16939 - N5525 E16945 - N5436 E17056\nFCST VA CLD +12 HR: 16/2320Z SFC/FL250 N5118 E17628 - N5008 E17537 - \nN5210 E17232 - N5303 E17348 - N5459 E17402\nFCST VA CLD +18 HR: NO VA EXP\nRMK: THE RESPONSIBILITY FOR THIS ASH EVENT IS BEING TRANSFERRED TO \nVAAC ANCHORAGE. THE NEXT ADVISORY WILL BE ISSUED BY VAAC ANCHORAGE \nBY 1800UTC UNDER HEADER FVAK21 PAWU. WESTERN PART OF VA OBSCURED BY \nMET CLOUD.\nNXT ADVISORY: NO FURTHER ADVISORIES=",
      "img_url": "https://ds.data.jma.go.jp/svd/vaac/data/VAGFN/2026/Images/20260716_30027000_0266_QH21_01.png",
      "sat_img_url": "https://ds.data.jma.go.jp/svd/vaac/data/Sat/2026/Images/30027000/09-ir/20260716_1120_202607161200_ir.png",
      "text_url": "https://ds.data.jma.go.jp/svd/vaac/data/TextData/2026/20260716_30027000_0266_Text.html"
    },
    {
      "id": "20260713_28208001_0083",
      "year": "2026",
      "volcano": null,
      "psn": "N3136 E13039",
      "issued": "20260713",
      "text": "FVFE01 RJTD 130254\nVA ADVISORY\nDTG: 20260713/0254Z\nVAAC: TOKYO\nVOLCANO: SAKURAJIMA (AIRA CALDERA) 282080\nPSN: N3136 E13039\nAREA: JAPAN\nSOURCE ELEV: 1117M AMSL\nADVISORY NR: 2026/83\nINFO SOURCE: JMA HIMAWARI-9\nERUPTION DETAILS: ERUPTED AT 20260713/0152Z FL100 EXTD N\nOBS VA DTG: 13/0230Z\nOBS VA CLD: SFC/FL100 N3136 E13039 - N3142 E13040 - N3141 E13044 - \nN3134 E13042 MOV NE 15KT\nFCST VA CLD +6 HR: 13/0830Z SFC/FL100 N3234 E13121 - N3145 E13155 - \nN3202 E13110 - N3227 E13051\nFCST VA CLD +12 HR: 13/1430Z SFC/FL100 N3318 E13206 - N3142 E13317 - \nN3134 E13226 - N3312 E13118\nFCST VA CLD +18 HR: NO VA EXP\nRMK: NIL\nNXT ADVISORY: 20260713/0600Z=",
      "img_url": "https://ds.data.jma.go.jp/svd/vaac/data/VAGFN/2026/Images/20260713_28208001_0083_QH21_01.png",
      "sat_img_url": "https://ds.data.jma.go.jp/svd/vaac/data/Sat/2026/Images/28208001/09-ir/20260713_0230_202607130254_ir.png",
      "text_url": "https://ds.data.jma.go.jp/svd/vaac/data/TextData/2026/20260713_28208001_0083_Text.html"
    }
  ],
  "vaac_alaska": [
    {
      "text": "\n000\nFVAK21 PAWU 162126\nVAAAK1\nVA ADVISORY\n\nDTG: 20260716/2122Z\n\nVAAC: ANCHORAGE\n\nVOLCANO: SHEVELUCH 300270\n\nPSN: N5639 E16122\n\nAREA: KAMCHATKA PENINSULA\n\nSOURCE ELEV: 10771 FT AMSL\n\nADVISORY NR: 2026/204\n\nINFO SOURCE: HIMAWARI\n\nERUPTION DETAILS: VA NOT IDENTIFIABLE FM SATELLITE DATA.\n\nOBS VA DTG: 16/2122Z\n\nOBS VA CLD: VA NOT IDENTIFIABLE FM SATELLITE DATA WIND FL100 280/20KT\n\nFCST VA CLD +6HR: NOT AVBL\n\nFCST VA CLD +12HR: NOT AVBL\n\nFCST VA CLD +18HR: NOT AVBL\n\nRMK: A NEW ADVISORY WILL BE ISSUED IF VA IS DETECTED IN SATELLITE IMAGERY....DK\n\nNXT ADVISORY: NO FURTHER ADVISORIES=\n\n",
      "issued": "2026-07-16T21:26:00+00:00",
      "volcano": "Sheveluch",
      "psn": "N5639 E16122"
    }
  ]
}