{
  "updated_utc": "2026-07-14T22:43Z",
  "metar": {
    "RJAA": "METAR RJAA 142100Z 20002KT 9999 FEW013 SCT/// 26/24 Q1005 NOSIG",
    "PANC": "METAR PANC 142053Z 36005KT 5SM -RA BR OVC055 11/09 A2992 RMK AO2 SLP132 P0003 60016 T01110094 56010",
    "PAFA": "METAR PAFA 142053Z 06003KT 10SM SCT080 BKN140 OVC180 18/08 A2977 RMK AO2 SLP085 T01780078 58014 $",
    "PAED": "METAR PAED 142055Z 29006KT 6SM -RA OVC060 12/09 A2990 RMK AO2A SLP121 P0004 60008 T01190089 56011 $",
    "KSEA": "METAR KSEA 142053Z 28010KT 10SM FEW050 FEW230 27/07 A3008 RMK AO2 SLP190 T02720067 58008 $",
    "ZSPD": "METAR ZSPD 142100Z 20003MPS CAVOK 29/26 Q1004 NOSIG",
    "ZSSS": "METAR ZSSS 142100Z 19003MPS CAVOK 30/26 Q1003 NOSIG",
    "RJFR": "METAR RJFR 142100Z 23010KT 200V260 9999 FEW020 BKN/// 29/25 Q1005",
    "VHHH": "METAR VHHH 142100Z 15007KT 9999 FEW012 SCT025 28/25 Q1005 TEMPO 20020G30KT 1500 TSRA +SHRA FEW008CB SCT015",
    "RCTP": "METAR RCTP 142100Z 24003KT 9999 FEW015 SCT180 27/25 Q1008 NOSIG RMK A2979",
    "ZGSZ": "METAR ZGSZ 142100Z 16004MPS 9999 FEW020 BKN040 27/25 Q1005 BECMG AT2140 SHRA FEW026CB BKN030",
    "WSSS": "METAR WSSS 142100Z 11006KT 9999 FEW014 SCT016 BKN300 29/25 Q1010 NOSIG",
    "WMKK": "METAR WMKK 142100Z 14003KT 070V220 9999 FEW017CB 27/24 Q1009 NOSIG",
    "WIDD": "METAR WIDD 142100Z 11003KT 9999 FEW017 28/25 Q1010 NOSIG",
    "VTBS": "METAR VTBS 142100Z 23003KT 9999 FEW020 29/24 Q1008 NOSIG",
    "VTBU": "METAR VTBU 142100Z 24006KT 9999 FEW020 28/27 Q1008 NOSIG",
    "ROAH": "METAR ROAH 142100Z 21012KT 9999 FEW006 BKN009 27/26 Q1010",
    "VVDN": "METAR VVDN 142100Z 22006KT 9999 FEW020 SCT080 30/22 Q1005 NOSIG",
    "RCKH": "METAR RCKH 142100Z 17008KT 9999 FEW014 SCT020 BKN100 29/25 Q1010 NOSIG RMK A2983",
    "KLAX": "METAR KLAX 142053Z 27011KT 10SM FEW012 FEW029 SCT080 SCT180 24/18 A2995 RMK AO2 SLP142 T02440178 58010 $",
    "KONT": "METAR KONT 142053Z 26011G21KT 10SM FEW120 36/16 A2993 RMK AO2 SLP114 TCU DSNT SE T03560161 58016 $",
    "KSFO": "METAR KSFO 142056Z 32015KT 10SM FEW065 FEW200 26/14 A2997 RMK AO2 SLP147 T02560139 58005",
    "KOAK": "METAR KOAK 142053Z 27012KT 10SM FEW015 29/14 A2997 RMK AO2 SLP149 T02940144 58004",
    "KMHR": "METAR KMHR 142055Z AUTO 26008KT 10SM CLR 38/10 A2991 RMK AO2 T03780098 58012 $",
    "KDFW": "METAR KDFW 142053Z 15011KT 10SM SCT045TCU SCT095 SCT110 BKN250 32/20 A3002 RMK AO2 SLP157 TCU ALQDS T03170200 56018 $",
    "KIAH": "METAR KIAH 142053Z VRB04KT 10SM -RA FEW009 FEW040 BKN090 OVC130 26/24 A3006 RMK AO2 RAB1957 SLP179 P0000 60000 T02560239 56020",
    "KORD": "METAR KORD 142051Z 21004KT 10SM FEW060 FEW300 36/19 A3011 RMK AO2 SLP189 T03560194 58014",
    "KJFK": "METAR KJFK 142051Z 24016G23KT 10SM SCT250 BKN320 32/20 A2995 RMK AO2 SLP141 FU BKN320 T03170200 58025",
    "KRFD": "METAR KRFD 142054Z 22008KT 10SM FEW250 33/23 A3015 RMK AO2 SLP203 T03330228 56012",
    "KIND": "METAR KIND 142054Z 13006KT 10SM SCT055 SCT300 32/19 A3014 RMK AO2 SLP199 T03220189 58012 $",
    "KDTW": "METAR KDTW 142053Z 23014KT 10SM FEW250 34/23 A3008 RMK AO2 SLP182 T03390228 56014 $",
    "KMSP": "METAR KMSP 142053Z 22009G16KT 10SM CLR 34/19 A3012 RMK AO2 SLP192 T03390194 56010",
    "CYEG": "METAR CYEG 142100Z 13011G18KT 20SM FEW042 FEW056 BKN250 24/14 A3019 RMK CU1SC1CI7 CU TR SC TR SLP228 DENSITY ALT 3700FT",
    "EHAM": "METAR EHAM 142055Z 04011KT 360V070 CAVOK 22/17 Q1021 NOSIG",
    "EBBR": "METAR EBBR 142050Z 05004KT CAVOK 23/12 Q1019 NOSIG",
    "EDDF": "METAR EDDF 142050Z AUTO 07008KT CAVOK 26/15 Q1017 NOSIG",
    "EDFH": "METAR EDFH 142050Z 07003KT 040V110 CAVOK 19/15 Q1019",
    "EDDL": "METAR EDDL 142050Z AUTO 04009KT CAVOK 25/14 Q1019 NOSIG",
    "EDDK": "METAR EDDK 142050Z AUTO 02006KT 350V050 CAVOK 23/14 Q1018 NOSIG",
    "EBLG": "METAR EBLG 142050Z 02007KT CAVOK 23/12 Q1019 NOSIG",
    "LSZH": "METAR LSZH 142050Z 23004KT CAVOK 23/16 Q1018 NOSIG",
    "LIMC": "METAR LIMC 142050Z 13004KT 060V180 CAVOK 29/18 Q1016 NOSIG",
    "LIRF": "METAR LIRF 142050Z 12005KT CAVOK 27/22 Q1016 NOSIG",
    "EINN": "METAR EINN 142100Z 06010KT CAVOK 22/08 Q1022 NOSIG",
    "EGLL": "METAR EGLL 142050Z AUTO 04010KT 9999 NCD 24/15 Q1022",
    "EGSS": "METAR EGSS 142050Z AUTO 03008KT 9999 NCD 21/15 Q1023",
    "EPWA": "METAR EPWA 142100Z 02007KT CAVOK 22/13 Q1019 NOSIG",
    "UHPP": "METAR UHPP 142100Z VRB01MPS 9999 FEW040 SCT110 23/15 Q1012 R34L/CLRD62 NOSIG RMK MT OBSC QFE756/1008",
    "EFHK": "METAR EFHK 142050Z VRB02KT CAVOK 14/13 Q1019 NOSIG",
    "LBBG": "METAR LBBG 142100Z AUTO 06005KT 9999 NSC 21/16 Q1016 NOSIG",
    "LTAC": "METAR LTAC 142050Z 01006KT CAVOK 17/10 Q1017 NOSIG RMK RWY21C 02006KT RWY03L 01006KT RWY21R 36006KT RWY03R 36006KT RWY21L 02005KT 350V050",
    "UBBB": "METAR UBBB 142100Z 33008KT 9999 FEW060CB 26/22 Q1005 NOSIG",
    "UTAA": "METAR UTAA 142100Z 17008KT 110V200 9999 NSC 34/05 Q1007 R88/CLRD70 NOSIG",
    "UACC": "METAR UACC 142100Z 14005MPS CAVOK 26/14 Q1004 NOSIG RMK QFE722/0963",
    "UAAA": "METAR UAAA 142100Z 17002MPS 9999 SCT200 21/11 Q1008 NOSIG",
    "UZTT": "METAR UZTT 142100Z 08006KT CAVOK 26/11 Q1006 NOSIG",
    "ZWWW": "METAR ZWWW 142100Z VRB01MPS CAVOK 28/10 Q1009 NOSIG",
    "ZLXY": "METAR ZLXY 142100Z 27003MPS CAVOK 25/19 Q1005 NOSIG",
    "ZBAA": "METAR ZBAA 142100Z VRB01MPS CAVOK 23/22 Q1000 NOSIG",
    "ZBHH": "METAR ZBHH 142100Z 03003MPS CAVOK 15/13 Q1010 NOSIG",
    "ZSQD": "METAR ZSQD 142100Z 15001MPS 3000 BR NSC 22/22 Q1002 BECMG TL2200 2500",
    "ZMCK": "METAR ZMCK 142100Z VRB02MPS CAVOK 10/09 Q1011 NOSIG RMK QFE643.6 94",
    "UUEE": "METAR UUEE 142100Z 31004MPS 260V340 9000 -SHRA SCT034CB 19/18 Q1012 R24L/290145 R24C/290145 NOSIG",
    "UUDD": "METAR UUDD 142100Z 32005MPS CAVOK 18/17 Q1011 R31L/CLRD65 NOSIG",
    "ULLI": "METAR ULLI 142100Z 30002MPS 9999 SCT033 14/10 Q1018 R88/090065 NOSIG",
    "USSS": "METAR USSS 142100Z 11002MPS 9999 SCT028 17/17 Q1008 R08R/210060 R08L/210060 NOSIG RMK QFE736/0982",
    "UNNT": "METAR UNNT 142100Z 30001MPS CAVOK 12/12 Q1012 R07/CLRD// R34/CLRD// NOSIG RMK QFE749/0998",
    "UNKL": "METAR UNKL 142100Z 27002MPS CAVOK 14/12 Q1009 R29/CLRD// NOSIG RMK QFE731",
    "UIBB": "METAR UIBB 142100Z AUTO 26005MPS 230V290 9999 // ///054/// 16/12 Q1005 RMK QFE711/0948",
    "UEEE": "METAR UEEE 142100Z 13002MPS 9999 -SHRA BKN028CB 19/18 Q0995 R23/290159 NOSIG RMK QFE738",
    "UHHH": "METAR UHHH 142100Z 16003MPS 9999 -SHRA FEW007 SCT030CB 21/20 Q0996 R88/290045 NOSIG RMK QFE741/0988",
    "UHSS": "METAR UHSS 142100Z 18001MPS 1500 0900N FG VV002 20/20 Q1002 R01/CLRD70 NOSIG RMK QBB060 MT OBSC QFE750/1000"
  },
  "taf": {
    "RJAA": "TAF RJAA 141705Z 1418/1600 18006KT 9999 FEW030",
    "PANC": "TAF PANC 141741Z 1418/1524 02004KT P6SM -RA SCT035 OVC060 WS015/10035KT FM150000 14020G30KT P6SM VCSH OVC050 FM150400 16011KT 6SM -RA SCT025 BKN035 FM150900 18015G25KT P6SM -SHRA SCT015 BKN025",
    "PAFA": "TAF PAFA 141720Z 1418/1524 12004KT P6SM VCSH OVC060 TEMPO 1512/1513 P6SM -RA OVC050 FM151500 VRB03KT P6SM VCSH OVC030",
    "PAED": "TAF PAED 142100Z 1421/1603 32009KT 9000 -SHRA SCT045 OVC060 650706 530406 QNH2982INS BECMG 1505/1506 33009KT 8000 -SHRA SCT015 OVC020 620706 530406 QNH2979INS BECMG 1518/1519 21012G18KT 9999 VCSH SCT030 OVC045 620606 510003 QNH2986INS TX14/1500Z TN10/1513Z",
    "KSEA": "TAF KSEA 141720Z 1418/1524 34005KT P6SM SKC FM141900 31008KT P6SM SKC FM150700 36004KT P6SM BKN120 FM151500 31003KT P6SM FEW250",
    "ZSPD": "TAF ZSPD 142106Z 1500/1606 18004MPS 8000 SCT030 TX36/1506Z TX37/1606Z TN28/1521Z TEMPO 1505/1509 TSRA BKN008 SCT030CB",
    "ZSSS": "TAF ZSSS 142106Z 1500/1606 18004MPS 8000 SCT030 TX38/1506Z TX37/1606Z TN29/1521Z TEMPO 1506/1509 TSRA BKN011 SCT030CB",
    "RJFR": "TAF RJFR 141705Z 1418/1600 22010KT 9999 FEW020 SCT035 BECMG 1515/1518 27012KT",
    "VHHH": "TAF VHHH 142000Z 1421/1603 16010KT 9999 FEW015 SCT030 TX30/1506Z TN27/1422Z TN28/1522Z TEMPO 1421/1503 20020G35KT 1500 TSRA +SHRA FEW008CB SCT015 TEMPO 1503/1506 3000 SHRA FEW010CB SCT020 TEMPO 1503/1509 24010KT TEMPO 1521/1602 2500 TSRA SHRA FEW008CB SCT015",
    "RCTP": "TAF RCTP 141700Z 1418/1524 17005KT 9999 FEW015 BKN032 TEMPO 1502/1508 25010KT FEW012 FEW015CB BKN025 BECMG 1518/1520 20008KT",
    "ZGSZ": "TAF AMD ZGSZ 142223Z 1418/1524 18006MPS 8000 BKN020 TX31/1506Z TN26/1422Z TN26/1522Z TEMPO 1422/1424 20008G15MPS 1500 +SHRA SCT015 FEW020CB BKN030 TEMPO 1500/1503 2000 +SHRA SCT015 FEW020CB BKN030 TEMPO 1504/1508 TSRA FEW020 FEW025CB BKN030",
    "WSSS": "TAF WSSS 141700Z 1418/1600 12004KT 9999 FEW015 SCT020",
    "WMKK": "TAF WMKK 141700Z 1418/1600 11006KT 9000 FEW030",
    "VTBS": "TAF VTBS 141700Z 1418/1524 20008KT 9999 FEW020 TEMPO 1510/1514 VRB15KT 4000 TSRA FEW018CB SCT030 BKN100",
    "VTBU": "TAF VTBU 141700Z 1418/1518 22006KT 9999 FEW020",
    "ROAH": "TAF AMD ROAH 142103Z 1421/1600 21008KT 9999 FEW008 SCT015 TEMPO 1421/1423 FEW005 BKN008 TEMPO 1515/1600 FEW005 BKN008",
    "VVDN": "TAF VVDN 141700Z 1418/1518 21008KT 9999 FEW020 SCT060 BECMG 1504/1505 02010KT TEMPO 1508/1512 TS SCT013 FEW015CB SCT060 BECMG 1513/1514 21008KT",
    "RCKH": "TAF RCKH 141700Z 1418/1524 17008KT 9999 FEW012 BKN032 TEMPO 1418/1424 12005KT 4000 SHRA FEW010 FEW012CB BKN017 TEMPO 1500/1506 4000 SHRA FEW008 FEW010CB BKN017 TEMPO 1506/1512 22013KT 3500 SHRA FEW008 FEW010CB BKN017 BECMG 1512/1514 13005KT",
    "KLAX": "TAF KLAX 142100Z 1421/1524 26012G18KT P6SM SCT250 FM150300 26010KT P6SM SCT250 FM150700 24005KT P6SM SCT250 FM151000 VRB03KT P6SM SCT006 FM151600 24006KT P6SM FEW006 SCT250 FM152000 26012KT P6SM SCT250",
    "KONT": "TAF KONT 141736Z 1418/1524 VRB04KT P6SM FEW180 FM142000 25012G22KT P6SM FEW180 FM150300 25007KT P6SM SKC FM150700 VRB04KT P6SM SKC",
    "KSFO": "TAF KSFO 142101Z 1421/1524 30015G25KT P6SM SKC FM150400 29014KT P6SM SKC FM150800 26009KT P6SM SKC FM151800 30012KT P6SM SKC FM152100 29015G25KT P6SM SKC",
    "KOAK": "TAF KOAK 141741Z 1418/1524 28007KT P6SM SKC FM142000 29012KT P6SM SKC FM150300 24007KT P6SM SKC FM152100 28013KT P6SM SKC",
    "KMHR": "TAF KMHR 141720Z 1418/1518 VRB05KT P6SM FEW250 FM142100 26008KT P6SM FEW250 FM150300 19008KT P6SM SKC",
    "KDFW": "TAF KDFW 142105Z 1421/1524 14015KT P6SM VCSH SCT040 FM150100 16007KT P6SM BKN100 FM151900 17009KT P6SM VCSH BKN050",
    "KIAH": "TAF KIAH 142124Z 1421/1524 VRB04KT P6SM VCSH FEW009 FEW040 BKN090 FM150300 VRB03KT P6SM SCT030 BKN070 FM151500 13005KT 6SM SHRA SCT030 BKN060 PROB30 1515/1518 4SM TSRA BKN035CB FM151800 16009KT 6SM SHRA BR SCT030 BKN050 FM152200 18007KT P6SM SCT050",
    "KORD": "TAF KORD 142052Z 1421/1524 VRB05KT P6SM FEW060 FEW250 FM150000 27005KT P6SM FEW250 FM152100 09006KT P6SM SCT250",
    "KJFK": "TAF KJFK 142003Z 1420/1524 23019KT P6SM BKN250 FM150100 24015KT P6SM SCT250 FM150500 26013KT P6SM BKN250 FM150900 27010KT P6SM SCT250 FM151400 28014KT 6SM HZ BKN250 FM151600 26015G22KT 6SM HZ BKN250 TEMPO 1517/1520 5SM FU",
    "KRFD": "TAF KRFD 142052Z 1421/1518 25005KT P6SM FEW250",
    "KIND": "TAF KIND 142048Z 1421/1524 08005KT P6SM SCT050 FM142300 VRB03KT P6SM FEW250 FM151600 27005KT P6SM FEW050",
    "KDTW": "TAF KDTW 142022Z 1420/1524 25010KT P6SM SCT250 FM150100 27005KT P6SM SCT250 FM151500 29008KT P6SM SCT250 FM152200 32008KT P6SM FEW060 SCT150 SCT250 PROB30 1522/1524 3SM -TSRA BKN060CB",
    "KMSP": "TAF KMSP 142041Z 1421/1524 26008KT P6SM SKC FM150300 VRB04KT P6SM SKC FM151500 29006KT 6SM FU SKC",
    "CYEG": "TAF CYEG 142040Z 1421/1518 12012G22KT P6SM FEW070 FM142200 13012G22KT P6SM SCT070 FM150200 12012G22KT P6SM SCT050 PROB40 1502/1508 VRB35G45KT 1SM +TSRAGR OVC050CB FM150800 14010KT P6SM SCT150 BECMG 1508/1510 02006KT FM151200 VRB03KT P6SM BKN150 RMK NXT FCST BY 150000Z",
    "EHAM": "TAF EHAM 141659Z 1418/1524 04015KT CAVOK BECMG 1419/1422 04009KT BECMG 1509/1512 05015KT",
    "EBBR": "TAF EBBR 141700Z 1418/1524 04010KT CAVOK",
    "EDDF": "TAF EDDF 141700Z 1418/1524 03008KT 9999 FEW040 PROB30 TEMPO 1418/1419 36013KT TSRA SCT050CB PROB30 TEMPO 1514/1517 TSRA SCT050CB",
    "EDFH": "TAF EDFH 141700Z 1418/1518 04008KT 9999 FEW040 PROB30 TEMPO 1418/1419 36013KT TSRA SCT050CB PROB30 TEMPO 1506/1509 BKN012 PROB30 TEMPO 1514/1517 TSRA SCT050CB",
    "EDDL": "TAF EDDL 141700Z 1418/1524 04012KT CAVOK BECMG 1419/1422 03005KT BECMG 1507/1510 04011KT BECMG 1518/1521 03005KT",
    "EDDK": "TAF EDDK 141700Z 1418/1524 03009KT CAVOK BECMG 1421/1424 VRB03KT BECMG 1508/1511 04009KT BECMG 1520/1523 VRB03KT",
    "EBLG": "TAF EBLG 141700Z 1418/1524 04010KT CAVOK",
    "LSZH": "TAF LSZH 142025Z 1421/1603 VRB02KT 9999 FEW070TCU TX29/1513Z TN17/1504Z BECMG 1421/1422 CAVOK PROB30 TEMPO 1501/1506 9999 FEW070TCU PROB40 1509/1513 08005KT BECMG 1510/1512 9999 FEW080TCU PROB40 TEMPO 1512/1518 21015G25KT TSRA SCT060CB PROB30 TEMPO 1513/1517 24020G35KT 4000 TSGR PROB30 TEMPO 1518/1524 19010KT TSRA SCT060CB",
    "LIMC": "TAF LIMC 141700Z 1418/1524 17010KT 9999 FEW060 BECMG 1418/1420 VRB05KT BECMG 1512/1514 17010KT",
    "LIRF": "TAF LIRF 141700Z 1418/1524 19010KT CAVOK BECMG 1419/1421 12007KT BECMG 1509/1511 22010KT",
    "EINN": "TAF EINN 141700Z 1418/1518 08012KT CAVOK BECMG 1419/1421 05007KT BECMG 1510/1512 08010KT BECMG 1516/1518 VRB03KT",
    "EGLL": "TAF EGLL 141653Z 1418/1524 05010KT 9999 FEW040 PROB40 1501/1508 BKN009",
    "EGSS": "TAF EGSS 141700Z 1418/1524 04012KT 9999 FEW025 PROB40 TEMPO 1418/1420 05015G25KT BECMG 1422/1501 BKN008 PROB30 1502/1506 8000 -DZ BKN004 BECMG 1506/1509 FEW020 PROB30 TEMPO 1509/1512 BKN012 PROB30 TEMPO 1521/1524 BKN012",
    "EPWA": "TAF EPWA 142030Z 1421/1521 01005KT CAVOK PROB40 1500/1507 BKN005 PROB40 TEMPO 1513/1521 2000 TSRA BKN040CB",
    "UHPP": "TAF UHPP 141937Z 1421/1603 33003G08MPS 9999 BKN035CB TX27/1503Z TN13/1518Z TEMPO 1503/1512 -SHRA BKN013CB BKN030",
    "EFHK": "TAF EFHK 142033Z 1421/1521 24004KT CAVOK BECMG 1505/1507 34010KT",
    "LBBG": "TAF LBBG 141700Z 1418/1518 11008KT 9999 SCT045 BECMG 1419/1420 VRB04KT BECMG 1505/1507 13010KT",
    "LTAC": "TAF LTAC 141640Z 1418/1518 34012KT CAVOK BECMG 1418/1420 VRB02KT BECMG 1504/1507 SCT040 BECMG 1515/1517 CAVOK",
    "UBBB": "TAF UBBB 141658Z 1418/1518 33012KT CAVOK TX32/1510Z TN23/1501Z BECMG 1421/1423 34018G28KT SCT025 TEMPO 1423/1506 35024G34KT SCT010 FEW040 TEMPO 1506/1515 34028G38KT",
    "UTAA": "TAF UTAA 141645Z 1418/1518 24014KT 6000 SCT050 TX42/1509 TEMPO 1418/1424 18010KT BECMG 1502/1504 04016KT TEMPO 1504/1510 09014G24KT 4000 DRDU",
    "UACC": "TAF UACC 141705Z 1418/1518 15005MPS 9999 SCT040 BKN100 TX34/1509Z TN22/1423Z TEMPO 1418/1504 21005MPS -TSRA BKN030CB BECMG 1504/1506 26005MPS SCT040CB TEMPO 1504/1516 31011MPS 3100 -TSRA BKN030CB",
    "UAAA": "TAF UAAA 141701Z 1418/1518 16003MPS 9999 SCT100 TX36/1510Z TN20/1501Z TEMPO 1418/1424 21005MPS BECMG 1503/1504 34003MPS TEMPO 1505/1512 04005G10MPS BECMG 1512/1514 16005MPS",
    "UZTT": "TAF UZTT 141700Z 1418/1518 05010KT CAVOK TX41/1511Z TN26/1500Z TEMPO 1500/1506 34010G20KT",
    "ZWWW": "TAF ZWWW 142102Z 1500/1606 20004G09MPS CAVOK TX35/1509Z TX36/1606Z TN26/1523Z BECMG 1500/1501 34004G11MPS BECMG 1507/1508 9999 FEW040CB BECMG 1514/1515 20004MPS CAVOK",
    "ZLXY": "TAF ZLXY 142124Z 1500/1524 06003MPS 6000 NSC TX34/1507Z TN26/1521Z",
    "ZBAA": "TAF ZBAA 142103Z 1500/1606 18003MPS CAVOK TX36/1506Z TX32/1606Z TN24/1521Z",
    "ZBHH": "TAF ZBHH 142102Z 1500/1524 24004MPS 9999 FEW040 TX31/1508Z TN14/1522Z",
    "ZSQD": "TAF ZSQD 142113Z 1500/1524 20003MPS 3500 BR NSC TX26/1506Z TN21/1520Z TEMPO 1502/1506 SHRA TEMPO 1513/1517 2000 +TSRA BKN020 SCT030CB",
    "ZMCK": "TAF ZMCK 141647Z 1418/1524 VRB02MPS 9999 FEW030CB SCT033 TN07/1421Z TX28/1507Z BECMG 1503/1505 28005MPS PROB30 TEMPO 1508/1516 VRB09G14MPS TSRA SCT027CB SCT030 BECMG 1510/1512 VRB02MPS PROB40 TEMPO 1516/1524 VRB08MPS 6000 TSRA SCT027CB BKN030",
    "UUEE": "TAF UUEE 141955Z 1421/1521 33003G08MPS 6000 SCT020 TX25/1512Z TN16/1501Z TEMPO 1421/1504 0300 FG BKN002 TEMPO 1504/1507 BKN010 TEMPO 1507/1517 35008G15MPS",
    "UUDD": "TAF UUDD 141956Z 1421/1603 32003MPS 9999 SCT016 TX25/1512Z TN15/1601Z PROB40 TEMPO 1421/1422 -TSRA BKN020CB TEMPO 1422/1506 BKN007 TEMPO 1509/1516 34008G14MPS",
    "ULLI": "TAF ULLI 141954Z 1421/1521 36003MPS 6000 BKN017 TEMPO 1421/1504 3100 BR BECMG 1505/1507 32005G10MPS",
    "USSS": "TAF USSS 141951Z 1421/1521 08003G08MPS 6000 -SHRA BKN016CB TEMPO 1421/1503 0300 FG BKN004 BKN011CB FM150300 15003G14MPS 8000 -SHRA BKN016CB TEMPO 1503/1518 -TSRAGR",
    "UNNT": "TAF UNNT 142000Z 1421/1521 34003G08MPS 8000 SCT040 TX26/1508Z TN12/1421Z TEMPO 1421/1501 0300 FG SCT002",
    "UNKL": "TAF UNKL 141941Z 1421/1521 26002G07MPS 6000 SCT040 BECMG 1503/1506 29007G16MPS BECMG 1510/1513 28002G07MPS",
    "UIBB": "TAF UIBB 142000Z 1421/1521 29003G08MPS 9999 -SHRA FEW001 BKN016CB TEMPO 1421/1503 VRB08MPS 1900 SHRA VV004 TEMPO 1503/1512 VRB10MPS -TSRA",
    "UEEE": "TAF UEEE 142000Z 1421/1603 12003G10MPS 9999 SCT030CB OVC100 TX26/1506Z TN18/1518Z TEMPO 1421/1506 2100 -TSRA SCT007 BKN020CB OVC100",
    "UHHH": "TAF UHHH 141952Z 1421/1603 08003MPS 9999 -SHRA FEW005 SCT020CB TX26/1508Z TN20/1518Z TEMPO 1421/1512 36005MPS 2100 -SHRA SCT003 BKN015CB",
    "UHSS": "TAF COR UHSS 142103Z 1421/1603 19003MPS 2000 BR BKN002 OVC015 TEMPO 1421/1423 0550 FG BECMG 1423/1501 9999 NSW BKN016CB BECMG 1504/1506 6000 -SHRA"
  },
  "atis": {
    "RJAA": "[Arrival ATIS] RJAA ARR ATIS N 0233Z M0230 (APCH)ILS Z RWY34R LDG RWY 34R DEP RWY 34L DEP FREQ 124.2. TWY A1 CLSD. OBSERVE GEAR DOWN OPS PROC ON FNL. M 220230Z 13007KT 360V170 40KM FEW025CU BKN/// 25/20 Q1000/A2955= Q/TWO NINE FIVE FIVE STP\n[Departure ATIS] RJAA DEP ATIS M 0214Z M0200 (APCH)ILS Z RWY34R LDG RWY 34R DEP RWY 34L DEP FREQ 124.2. TWY A1 CLSD. OBSERVE GEAR DOWN OPS PROC ON FNL. M 220200Z VRB03KT 40KM FEW025CU BKN/// 26/19 Q1000/A2955= Q/TWO NINE FIVE FIVE STP",
    "PANC": "[Arrival ATIS] PANC ARR ATIS M 0653Z ANC ATIS INFO M 0653Z. 13017G28KT 10SM BKN060 OVC085 14/08 A3005 (THREE ZERO ZERO FIVE). ILS RWY 15 APPROACHES IN USE. LANDING RWY 15, DEPARTING RWY 25L, 15. NOTICE TO AIRMEN. TWY Q CLSD. TWY K BTWN A AND D RESTRICTED TO AIRCRAFT WITH WINGSPAN LESS THAN 118 FEET. IF DEPARTING RWY 15 PLAN INTERSECTION DEPARTURE FROM TWY S. CONTACT TOWER 118.3 FOR TAXI. ...ADVS YOU HAVE INFO M.\n[Departure ATIS] PANC DEP ATIS I 0353Z ANC ATIS INFO I 0353Z. 14016G33KT 10SM OVC055 14/08 A3007 (THREE ZERO ZERO SEVEN). ILS RWY 15 APPROACHES IN USE. LANDING RWY 15, DEPARTING RWY 25L. NOTICE TO AIRMEN. TWY Q",
    "KSEA": "[Arrival ATIS] KSEA ARR ATIS C 2153Z SEA ATIS INFO C 2153Z. 28008KT 10SM FEW050 FEW230 28/04 A3007 (THREE ZERO ZERO SEVEN). ILS AND CHARTED VISUAL APPROACH RWYS 34L AND 34R , APCH IN USE. DEPG RWY 34R, DEPG ACFT PLAN AND BRIEF NUMBERS FOR BOTH RWYS 34R AND 34C. SIMUL ARRIVALS TO RWY 34L AND DEPARTURES TO RWY 34R ARE IN USE. SIMUL APCHS IN USE TO PARA RYS. NOTAMS... BIRD ACTIVITY VICINITY ARPT. ...ADVS YOU HAVE INFO C.\n[Departure ATIS] KSEA DEP ATIS C 2153Z - KSEA ATIS INFO C 2153Z. 28008KT 10SM FEW050 FEW230 28/04 A3007 (THREE ZERO ZERO SEVEN). ILS AND CHARTED VISUAL APPROACH RWYS 34L AND 34R , APCH IN USE. DEPG RWY 34R, DEPG ACFT PLAN AND BRIEF NUMBERS FOR BOTH RWYS 34R AND 34C. SIMUL ARRIVALS TO RWY 34L AND DEPARTURES TO RWY 34R ARE IN USE. SIMUL APCHS IN USE TO PARA RYS. NOTAMS... BIRD ACTIVITY VICINITY ARPT. ...ADVS YOU HAVE INFO C.",
    "ZSPD": "[Arrival ATIS] ZSPD ARR ATIS M 0230Z EXP ILS APCH LDG RWY 17R & 16L WIND RWY 17R TDZ 110/9MPS MID 110/8MPS END 100/7MPS RWY 16L TDZ 120/8MPS MID 100/7MPS END 110/7MPS VIS RWY 17R TDZ 4700M MID 2900M END 2700M VIS RWY 16L TDZ 5000M MID 4200M END 3700M BR CLD BKN 150M /OVC 990M T 23 /DP 23 QNH 1004 HPA CAUTION THE BIRDS NEAR THE RUNWAY RWY 17L/17R/16L/16R RWYCC 5/5/5 ISSUED AT 2025 WET/WET/WET DPT NR/NR/NR COV 100PCT/100PCT/100PCT. ADZ YOU HAVE INFO M.\n[Departure ATIS] ZSPD DEP ATIS M 0230Z DEP RWY 17L & 16R WIND RWY 17L TDZ 110/7MPS MID 100/6MPS END 100/8MPS RWY 16R TDZ 110/8MPS MID 110/8MPS END 110/6MPS VIS RWY 17L TDZ 3400M MID 3800M END 3500M VIS RWY 16R TDZ 3500M MID 3400M END 4200M BR CLD BKN 150M /OVC 990M T 23 /DP 23 QNH 1004 HPA CAUTION THE BIRDS NEAR THE RUNWAY RWY 17L/17R/16L/16R RWYCC 5/5/5 ISSUED AT 2025 WET/WET/WET DPT NR/NR/NR COV 100PCT/100PCT/100PCT. ADZ YOU HAVE INFO M.",
    "ZSSS": "[Arrival ATIS] ZSSS ARR ATIS X 0230Z EXP ILS APCH LDG RWY 18L WIND RWY 18L TDZ 100/3MPS MID 100/5MPS END 110/5MPS VRB BTN 080/ AND 140/ VIS RWY 18L TDZ 10000M MID 10000M END 10000M FBL RA CLD BKN 210M T 24 /DP 22 QNH 1004 HPA RWY18L RWYCC 5/5/5 ISSUED AT 2130 WET/WET/WET DPT NR/NR/NR COV 100PCT/100PCT/100PCT RWY18R RWYCC 5/5/5 ISSUED AT 2130 WET/WET/WET DPT NR/NR/NR COV 100PCT/100PCT/100PCT QNH OF SHANGHAI TERMINAL CONTROL AREA 1004 HPA ADZ YOU HAVE INFO X.\n[Departure ATIS] ZSSS DEP ATIS S 0030Z DEP RWY 18R WIND RWY 18R TDZ 110/5MPS VRB BTN 060/ AND 130/ MID 100/5MPS END 120/4MPS VIS RWY 18R TDZ 10000M MID 10000M END 10000M CLD BKN 210M T 24 /DP 23 QNH 1004 HPA RWY18L RWYCC 5/5/5 ISSUED AT 2130 WET/WET/WET DPT NR/NR/NR COV 100PCT/100PCT/100PCT RWY18R RWYCC 5/5/5 ISSUED AT 2130 WET/WET/WET DPT NR/NR/NR COV 100PCT/100PCT/100PCT VISUAL APCH IN USE QNH OF SHANGHAI TERMINAL CONTROL AREA 1005 HPA ADZ YOU HAVE INFO S.",
    "VHHH": "[Arrival ATIS] VHHH ARR ATIS D 0135Z ARRIVALS, RWY 25L/R. EXP RNAV TRANSITION TO ILS APCH, RWY 25R. EXP ILS APCH, RWY 25L. RNP APCH IS AVBL ON REQ, RWY 25R. WIND RWY 25L 250/12KT RWY 25R 230/08KT. VIS RWY 25L 10KM RWY 25R 10KM. CLD FEW 1200FT. T31 DP25. QNH 1008HPA. ACK INFO D ON FIRST CTC WITH APP.\n[Departure ATIS] VHHH DEP ATIS S 0136Z DEPARTURES, RWY 25C/L. INDEPENDENT PARALLEL DEPARTURE IN PROGRESS. WIND RWY 25L 250/12KT RWY 25C 250/10KT. VIS RWY 25L 10KM RWY 25C 10KM. CLD FEW 1200FT. T31 DP25. QNH 1008HPA. ACK INFO S ON FIRST CTC WITH DELIVERY .",
    "RCTP": "[Arrival ATIS] RCTP ARR ATIS O 0200Z EXP ILS APCH RWY23R AND RWY23L ARR/DEP. WIND 240/07KT VARYING BTN 200 AND 270 VIS 10 KM OR MORE CLD FEW 2000FT T 33 DP 25 QNH 1007HPA NOSIG CTN BIRD ACTIVITY IN THE VCY OF THE AD. INFORM TAIPEI APCH OR TAIPEI TOWER ON INITIAL CONTACT YOU HAVE INFORMATION O\n[Departure ATIS] RCTP DEP ATIS N 0130Z EXP ILS APCH RWY23R AND RWY23L ARR/DEP. WIND 240/07KT VARYING BTN 190 AND 290 VIS 10 KM OR MORE CLD FEW 2000FT T 32 DP 25 QNH 1007HPA NOSIG CTN BIRD ACTIVITY IN THE VCY OF THE AD. INFORM TAIPEI APCH OR TAIPEI TOWER ON INITIAL CONTACT YOU HAVE INFORMATION N",
    "ZGSZ": "[Arrival ATIS] ZGSZ ARR ATIS P 0200Z EXP ILS APCH 15 EXP ILS OR VIS APCH 16R WIND 180/5MPS VIS 9999M CLD SCT 900M T 30 /DP 26 QNH 1008 HPA INDEPENDENT PARALLEL DEPARTURES DEPENDENT PARALLEL APPROACHES V17,V18 AVAILABLE AFTER SULAS FLY HEADING 040 MISSED APPROACH ALTITUDE SETTING 1200METERS WHEN AIRBORNE CONTACT ZHUHAI APPROACH EXPECTED RNP ILS DME Z APPROACH ADZ YOU HAVE INFO P.\n[Departure ATIS] ZGSZ DEP ATIS N 0100Z DEP RWY 15 & 16L WIND 200/5MPS VIS 9999M CLD SCT 900M T 30 /DP 26 QNH 1008 HPA INDEPENDENT PARALLEL DEPARTURES DEPENDENT PARALLEL APPROACHES V17,V18 AVAILABLE AFTER SULAS FLY HEADING 040 MISSED APPROACH ALTITUDE SETTING 1200METERS WHEN AIRBORNE CONTACT ZHUHAI APPROACH EXPECTED RNP ILS DME Z APPROACH ADZ YOU HAVE INFO N.",
    "WSSS": "[Arrival ATIS] WSSS ARR ATIS M 0213Z METREPORT 0213Z ILS APCHRWY 20R SIMUL INDEPENDENT ILS AND VISUAL APPROACHES ARE CONDUCTED ON RWY 20. RSCD RWY20R 0213Z RWYCC:6.5.5. SECOND PART 100% WET. THIRD PART 100% WET. TWY W 9 CLOSED, RWY 02C 20C RAPID EXIT TAXIWAY INDICATOR LIGHTS OFFRAIN OVER AIRFIELD, WIND 270/ 09KT VRB BTN250 AND310 VIS 10KM FBL TSRA CLD FEW 1300FT FEW CB 1500FT SCT TCU 1600FT T27 DP24 QNH 1013HPA CHANGI AD 2 VALID 0145/ 0300 TS S APCH MOV E 5KT OBS NC TS AD MOV E 5KT FCST INTSF TEMPO TL0300 VIS3000M MOD TSRA BECMG FM0315 TL0345 NSW ACK ATIS M\n[Departure ATIS] WSSS DEP ATIS M 0208Z METREPORT 0208Z RWY 20C SIMUL INDEPENDENT ILS AND VISUAL APPROACHES ARE CONDUCTED ON RWY 20. RSCD RWY20C 0208Z RWYCC:6.5.5. SECOND PART 100% WET. THIRD PART 100% WET. TWY W 9 CLOSED, RWY 02C 20C RAPID EXIT TAXIWAY INDICATOR LIGHTS OFF WIND 280/ 11KT VRB BTN250 AND310 VIS 10KM FBL TSRA CLD FEW 1300FT FEW CB 1500FT SCT TCU 1600FT T27 DP24 QNH 1013HPA CHANGI AD 2 VALID 0145/ 0300 TS S APCH MOV E 5KT OBS NC TS AD MOV E 5KT FCST INTSF TEMPO TL0300 VIS3000M MOD TSRA BECMG FM0315 TL0345 NSW DEP,INITIAL CMB 3000FT ACK ATIS M",
    "WMKK": "[Arrival ATIS] WMKK ARR ATIS J 0204Z WMKK ARR INFO J. TIME 0200. INDEPENDENT PARALLEL APPROACHES FOR RWY 14 L AND 15 ARE IN PROGRESS. EXP RNAV / ILS APCH FOR RWY 14 LEFT. EXP RNAV / ILS APCH FOR RWY 15. WIND RWY 14L DIRECTION NOT AVBL SPEED NOT AVBL. WIND RWY 15 DIRECTION NOT AVBL SPEED NOT AVBL. VIS RWY 14L TDZ NOT AVBL. VIS RWY 15 TDZ NOT AVBL. CLD FEW 2000 FT. T 29. DP 25. QNH 1012. NOSIG. AT FIRST CONTACT WITH LUMPUR RADAR, NOTIFY RCPT OF J\n[Departure ATIS] WMKK DEP ATIS U 2135Z WMKK DEP INFO U. TIME 2130. INDEPENDENT PARALLEL DEPARTURES FOR RWY 14 R AND 15 ARE IN PROGRESS. RWY 14 RIGHT. RWY 15. WIND RWY 14R DIRECTION NOT AVBL SPEED NOT AVBL. WIND RWY 15 DIRECTION NOT AVBL SPEED NOT AVBL. VIS RWY 14R TDZ NOT AVBL. VIS RWY 15 TDZ NOT AVBL. WX TS. CLD FEW 1000 FT, CLD FEW CB 1700 FT, CLD SCT 3000 FT. T 26. DP 24. QNH 1010. NOSIG. ALL DEP ACFT TO CONTACT LUMPUR DEP AT 135 DECIMAL 25 MHZ WHEN ABN. AT FIRST CONTACT WITH LUMPUR GROUND, NOTIFY RCPT OF U",
    "VTBS": "[Arrival ATIS] VTBS ARR ATIS O 0200Z VTBS ARR ATIS O 0201Z EXP ILS Z APCH ARR RWY 19 OR RNP APCH RWY 20R , ,PILOT SHALL ADZ BKK APCH ON INITIAL CTC IF UNA TO CONDUCT RNP APCH DUE TO OPERATIONAL CONSTRAINT 0200Z WIND 280/9KT VRB BTN 240/ AND 300/ VIS 10KM CLD FEW 2000FT T31 DP21 QNH 1011HPA TREND NOSIG ADZ BKK APCH ON INITIAL CONTACT THAT YOU HAVE INFO O\n[Departure ATIS] VTBS DEP ATIS W 0200Z VTBS DEP ATIS W 0200Z SIMULTANEOUS INDEPENDENT PARL DEP IN PROGRESS DEP RWY 20L OR DEP RWY 19 , ,AFT AIRBORNE ALL DEPARTING ACFT SHALL CTC 119.25 0200Z WIND 250/9KT VRB BTN 230/ AND 290/ VIS 10KM CLD FEW 2000FT T31 DP21 QNH 1011HPA TREND NOSIG ADZ GND WHEN INITIAL CONTACT YOU HAVE INFO W",
    "VTBU": "[Arrival ATIS] VTBU ARR ATIS U 0430Z VTBU ARR ATIS U 0430Z RNP RWY 18 TRL FL130 MOBILE ACFT ARST SYSTEM INSTL ATP SIX HUNDRED AND TEN METERS FM THR RWY 36 CABLE HGT 3 INCHES. 0430Z WIND 360/6KT VRB BTN 320/ AND 020/ VIS 10KM CLD FEW 2000FT T34 DP27 QNH 1010HPA TREND NOSIG ADZ CONTROLLER WHEN INITIAL CONTACT YOU HAVE INFO U\n[Departure ATIS] VTBU DEP ATIS D VTBU ARR/DEP DATIS RPT VTBU ARR ATIS D 0330Z ILS \"Z\" APCH RWY 18 TRL FL130 0330Z WIND 110/4KT VRB BTN 350/ AND 120/ VIS 6KM CLD FEW 2000FT T31 DP27 QNH 1014HPA TREND NOSIG ADZ CONTROLLER WHEN INITIAL CONTACT YOU HAVE INFO D",
    "ROAH": "[Arrival ATIS] ROAH ARR ATIS R 0215Z M0200 (APCH)RNP RWY18R LDG RWY 18R DEP RWY 18L DEP FREQ 126.5 258.3 M 220200Z 23006KT 30KM FEW020CU 29/25 Q1009/A2979= Q/TWO NINE SEVEN NINE STP\n[Departure ATIS] ROAH DEP ATIS I 0557Z M0530 (APCH)ILS RWY18R LDG RWY 18R DEP RWY 18L DEP FREQ 126.5 258.3 M 120530Z 17022KT 15KM FEW010CU SCT012CU BKN/// 29/26 Q1009/A2980= Q/TWO NINE EIGHT ZERO STP",
    "VVDN": "[Arrival ATIS] VVDN ARR ATIS T 1932Z VVDN INFO T 1932Z. ILS VICTOR APPROACH 35L.. DPTG RWY 35R.. 1932Z. WIND 220/05KT CAVOK T27 DP25 QNH 1008HPA TREND NOSIG. ADZ ON INITIAL CTC YOU HAVE INFO. T.\n[Departure ATIS] VVDN DEP ATIS N 0423Z VVDN INFO N 0423Z. ILS VICTOR APPROACH 35L.. DPTG RWY 35R.. 0423Z. WIND 010/02KT CAVOK T36 DP24 QNH 1008HPA TREND NOSIG. WS ALL RWY. ADZ ON INITIAL CTC YOU HAVE INFO. N.",
    "RCKH": "[Arrival ATIS] RCKH ARR ATIS X 0130Z EXPECT ILS APPROACH RWY 09 ARR/DEP TAXIWAY JULIETT, TAXIWAY BRAVO, TAXIWAY DELTA AND TAXIWAY ECHO CLOSED DUE MAINTENANCE.RUNWAY 0 9 ARRIVALS PLAN VACATE VIA CHARLIE OR FOXTROT AND EXPEDITE VACATE. FROM 0 2 5 0 ZULU TO 0 3 3 0 ZULU RUNWAY CLOSED. ALL TAKE-OFF AND LANDING SUSPENDED DUE CONSTRUCTION. WIND 020/03KT VIS 10 KM OR MORE CLD FEW 1400FT SCT 2600FT T 32 DP 22 QNH 1008HPA NOSIG CAUTION BIRD ACTIVITY IN VICINITY OF THE AERODROME. INFORM KAO-HSIUN APCH OR KAO-HSIUN TOWER ON INITIAL CONTACT YOU HAVE INFORMATION X\n[Departure ATIS] RCKH DEP ATIS R 0630Z EXPECT ILS APPROACH RWY 09 ARR/DEP TAXIWAY JULIETT, TAXIWAY BRAVO, TAXIWAY DELTA AND TAXIWAY ECHO CLOSED DUE MAINTENANCE. RUNWAY 0 9 ARRIVALS PLAN VACATE VIA CHARLIE OR FO",
    "KLAX": "[Arrival ATIS] KLAX ARR ATIS N 0153Z LAX ATIS INFO N 0153Z. 25010KT 10SM FEW015 FEW250 19/14 A2987 (TWO NINER EIGHT SEVEN) RMK AO2 SLP114 T01890139. INST APCHS AND RNAV RNP APCHS RY 24R AND 25L, OR VCTR FOR VISUAL APCH WILL BE PROVIDED, SIMUL VISUAL APCHS TO ALL RWYS ARE IN PROG, SIMUL INSTR DEPARTURES IN PROG RWYS 24 AND 25. CTC L A GC ON 121.75 FOR PUSH OR TAXI ON A. TWY C CLSD BTN TWY, C8 AND TWY C9 , , TWY B CLSD BTN TWY, F AND TWY B1, TWY B1 CLSD. ILS RY 25R OTS, RY 25R SFL OTS, RY 24L ALSF-2 OTS. UNAUTHORIZED UAS ACTIVITY IN VICINITY OF AIRPORT. LAX VOR UNMONITORED. IF ASSIGNED RUNWAY 25R FOR DEPARTURE, EXPECT DEPARTURE FROM INTERSECTION FOXTROT. TAXILANE CHARLIE EIGHT RESTRICTED TO AIRCRAFT WITH A WINGSPAN LESS THAN ONE HUNDRED EIGHTEEN FEET. USE CAUTION FOR INCREASED DRONE ACTIVIY IN THE VICINITY OF SOFI STADIUM AT OR BELOW 200FT AGL DURING THE WORLD CUP FROM 06/12/26 THROUGH 07/10/2026. HAZD WX INFO FOR LAX AREA AVBL FM FSS. BIRD ACTIVITY VICINITY ARPT. INCLUDE YOUR CALL SIGN IN ALL READBACKS. USE CAUTION WHEN EXITING RY24R AT TWY V, W, AND Y, TO HOLD SHORT OF RY24L. MULTIPLE RUNWAY INCURSIONS HAVE OCCURRED. ...ADVS YOU HAVE INFO N.\n[Departure ATIS] KLAX DEP ATIS D 1853Z LAX ATIS INFO D 1853Z. 25011KT 10SM FEW018 BKN024 21/13 A2994 (TWO NINER NINER FOUR) RMK AO2 SLP135 T02060133. INST APCHS AND RNAV RNP APCHS RY 24R AND 25L, OR VCTR FOR VISUAL APCH WILL BE PROVIDED, SIMUL VISUAL APCHS TO ALL RWYS ARE IN PROG, SIMUL INSTR DEPARTURES IN PROG RWYS 24 AND 25. CTC L A GC ON 121.75 FOR PUSH OR TAXI ON A. TWY C CLSD BTN TWY, C8 AND TWY C9 , , TWY B CLSD BTN TWY, F AND TWY B1, TWY B1 CLSD. ILS RY 25R OTS, RY 25R SFL OTS, RY 24L ALSF-2 OTS. LAX VOR UNMONITORED. IF ASSIGNED RUNWAY 25R FOR DEPARTURE, EXPECT DEPARTURE FROM INTERSECTION FOXTROT. TAXILANE CHARLIE EIGHT RESTRICTED TO AIRCRAFT WITH A WINGSPAN LESS THAN ONE HUNDRED EIGHTEEN FEET. USE CAUTION FOR INCREASED DRONE ACTIVIY IN THE VICINITY OF SOFI STADIUM AT OR BELOW 200FT AGL DURING THE WORLD CUP FROM 06/12/26 THROUGH 07/10/2026. HAZD WX INFO FOR LAX AREA AVBL FM FSS. BIRD ACTIVITY VICINITY ARPT. INCLUDE YOUR CALL SIGN IN ALL READBACKS. USE CAUTION WHEN EXITING RY24R AT TWY V, W, AND Y, TO HOLD SHORT OF RY24L. MULTIPLE RUNWAY INCURSIONS HAVE OCCURRED. ...ADVS YOU HAVE INFO D.",
    "KONT": "[Arrival ATIS] KONT ARR ATIS S 1953Z ONT ATIS INFO S 1953Z. 23006G15KT 10SM FEW120 34/16 A2995 (TWO NINER NINER FIVE). ILS AND VIS APR IN USE, RY26L & RY26R. LNDG AND DEPG RY 26L AND RY 26R. NOTAMS... TAXIWAY SIERRA FIVE CLOSED. TAXIWAY SIERRA CLOSED BETWEEN TAXIWAY SIERRA 8 AND TAXIWAY WHISKEY. RY 26L IM OTS, RY 26R ALS OTS. USE CAUTION FOR NUMEROUS BIRDS OBSERVED IN VICINITY OF ONT. HAZD WX INFO FOR SOUTHERN CA AVBL ON FSS FREQUENCIES. PILOTS READBACK RWY ASSIGNMENTS AND HOLD SHORT INSTRUCTIONS. ...ADVS YOU HAVE INFO S.\n[Departure ATIS] KONT DEP ATIS N 0553Z - KONT ATIS INFO N 0553Z. 24004KT 10SM BKN250 22/15 A2988 (TWO NINER EIGHT EIGHT) RMK AO2 SLP100. ILS AND VIS APR IN USE, RY26L & RY26R. LNDG AND DEPG RY 26L AND RY 26R. NOTAMS... TAXIWAY SIERRA CLSD BETWEEN SIERRA 8 AND W TAXIWAY Q SOUTH OF RWY 26L CLSD TAXIWAY T CLSD TAXIWAY SIERRA 5 CLSD. RY 26L IM OTS, RY 26R ALS OTS. USE CAUTION FOR NUMEROUS BIRDS OBSERVED IN VICINITY OF ONT. HAZD WX INFO FOR SOUTHERN CA AVBL ON FSS FREQUENCIES. PILOTS READBACK RWY ASSIGNMENTS AND HOLD SHORT INSTRUCTIONS. ...ADVS YOU HAVE INFO N.",
    "KSFO": "[Arrival ATIS] KSFO ARR ATIS J 0356Z SFO ATIS INFO J 0356Z. 27015KT 10SM FEW005 SCT011 13/11 A2991 (TWO NINER NINER ONE) RMK PK WND 28026/0321. SIMUL CLSLY SPCD DPNDNT ILS RY 28R AND ILS RY 28L APP IN USE. DEPG RWYS 28L, 28R. DEPG ACFT SHOULD BE PREPARED FOR A SHORT NOTICE RY CHANGE. RY 1L, 1R CLSD. NUMEROUS TWY CLOSURES FOR CONSTRUCTION ON THE FIELD, PILOTS CHECK NOTAMS. DEPG ACFT WAITING ON FINAL NUMBERS ADVISE GROUND PRIOR TO ENTERING TWY F. ...ADVS YOU HAVE INFO J.\n[Departure ATIS] KSFO DEP ATIS T 1456Z SFO ATIS INFO T 1456Z. 00000KT 10SM SCT140 BKN200 18/13 A2991 (TWO NINER NINER ONE) RMK AO2 SLP128 T01780133 53008. SIMUL CLSLY SPCD DPNDNT ILS RY 28R AND ILS RY 28L APP IN USE. DEPG RWYS 28L, 28R. RY 1L, 1R CLSD. NUMEROUS TWY CLOSURES FOR CONSTRUCTION ON THE FIELD, PILOTS CHECK NOTAMS. DEPG ACFT WAITING ON FINAL NUMBERS ADVISE GROUND PRIOR TO ENTERING TWY F. ...ADVS YOU HAVE INFO T.",
    "KOAK": "[Arrival ATIS] KOAK ARR ATIS T 2053Z - KOAK ATIS INFO T 2053Z. 25015KT 10SM FEW008 20/13 A2994 (TWO NINER NINER FOUR). RNAV, AND VA, RWY 30. ILS, AND VA, RWY 28R. FLOW TO LAX, LAS, SAN, SEA. RWY 28L CLSD. TAXIWAYS GOLF, HOTEL, PAPA, JULIET BETWEEN RUNWAYS 28 RIGHT AND 28 LEFT CLOSED. ILS RWY 30, OTS, RWY 28R RAIL, OTS. UNN LIT CLOSE-IN OBSTACLES FOR RWY 30 DEPARTURES. RWY 30 DEPARTURES ARE ADVISED TO AVOID TURNING LEFT PRIOR TO DEPARTURE END OF RUNWAY. CTN, CRANE 1 POINT 6 NAUTICAL MILES, , AT 140 FEET AGL. CAUTION, BIRDS NEAR AIRPORT. ...ADVS YOU HAVE INFO T.\n[Departure ATIS] KOAK DEP ATIS O 1953Z OAK ATIS INFO O 1953Z. 28014KT 10SM FEW005 22/14 A2988 (TWO NINER EIGHT EIGHT). RNAV Z/VA RWY 30 ILS/VA RWY 28R. FLOW TO LAX, LAS, SAN. ILS RWY 30, OTS. UNN LIT CLOSE-IN OBSTACLES FOR RWY 30 DEPARTURES. RWY 30 DEPARTURES ARE ADVISED TO AVOID TURNING LEFT PRIOR TO DEPARTURE END OF RUNWAY. SIGNATURE UNI-COM OUT OF SERVICE. CAUTION, BIRDS NEAR AIRPORT. ...ADVS YOU HAVE INFO O.",
    "KDFW": "[Arrival ATIS] KDFW ARR ATIS L 2153Z - KDFW ARR INFO L 2153Z. 14013G22KT 10SM SCT048TCU SCT060 SCT110 BKN250 32/19 A3000 (THREE ZERO ZERO ZERO) RMK AO2 SLP150 TCU ALQDS T03220194. SIMUL APCH IN USE. EXPECT ILS TO RWYS, 18R, 17C, 17L AND ILS RWY 13R. LDG RWY 17C EXP LAHSO TWY B 10460 FT AVAIL, LDG RWY 18R EXP LAHSO TWY B 10100 FT AVL. NOTICE TO AIRMEN. WARNING, RWY 18L HAS BEEN SHORTENED, 9273 FT AVAILABLE. HAZD WX FOR DFW AVBL ON FSS. BIRD ACTIVITY VCNTY ARPT. ...ADVS YOU HAVE INFO L.\n[Departure ATIS] KDFW DEP ATIS F 1453Z DFW DEP INFO F 1453Z. 11005KT 10SM SCT020 BKN030 BKN055 BKN250 27/22 A3008 (THREE ZERO ZERO EIGHT) RMK AO2 SLP178 T02720217 51013. SIMUL PARL TRAFFIC DEPG RWYS 17R, 18L. NOTICE TO AIRMEN. WARNING, RWY 18L HAS BEEN SHORTENED, 9273 FT AVAILABLE. HAZD WX FOR DFW AVBL ON FSS. BIRD ACTIVITY VCNTY ARPT. ...ADVS YOU HAVE INFO F.",
    "KIAH": "[Arrival ATIS] KIAH ARR ATIS N 2153Z IAH ATIS INFO N 2153Z. 11007KT 10SM FEW014 SCT095 BKN130 OVC170 26/24 A3004 (THREE ZERO ZERO FOUR). ARRIVALS EXPECT ILS OR RNAV Y RY 26R, ILS OR RNAV Y RY 26L, ILS OR RNAV Y RY 27. SIMUL APPROACHES IN USE. DEPG RY 15L, RY 15R. NOTICE TO AIRMEN. UNITED RAMP CONTROL IN EFFECT. ALL RWY COND CODES, , 5 , , 5 , , 5 , AT 1515Z. HAZD WX INFO FOR IAH AREA AVBL FM FSS. BIRD ACTIVITY VICINITY ARPT. CRANES ARE DOWN. TWY SA CLSD BTN TWY, SF AND TWY SK , TWY SB CLSD BTN TWY, SF AND TWY SK , , TWY EA CLSD. NOTAM ATIS IN USE ON FREQUENCY 126.225. ...ADVS YOU HAVE INFO N.\n[Departure ATIS] KIAH DEP ATIS T 0353Z IAH ATIS INFO T 0353Z. 15007KT 10SM FEW035 FEW180 BKN250 27/23 A2996 (TWO NINER NINER SIX). ARRIVALS EXPECT ILS OR RNAV Y RY 8R, ILS OR RNAV Y RY 8L. DEPG RY 15R. NOTICE TO AIRMEN. UNITED RAMP CONTROL IN EFFECT. RY 15L, 33R CLSD. HAZD WX INFO FOR IAH AREA AVBL FM FSS. BIRD ACTIVITY VICINITY ARPT. CRANES ARE DOWN. TWY SA CLSD BTN TWY, SF AND TWY SK , TWY SB CLSD BTN TWY, SF AND TWY SK , , TWY WB CLSD BTN TWY, WG AND TWY WH . TWY EA CLSD. NOTAM ATIS IN USE ON FREQUENCY 126.225. ...ADVS YOU HAVE INFO T.",
    "KORD": "[Arrival ATIS] KORD ARR ATIS U 2051Z ORD ATIS INFO U 2051Z. 21004KT 10SM FEW060 FEW300 36/19 A3011 (THREE ZERO ONE ONE) RMK AO2 SLP189 T03560194 58014. ARR EXP VECTORS ILS RWY 27C APCH, VISUAL APCH RWY 27R, VISUAL APCH RWY 28C. SIMUL APCHS IN USE. LAND AND HOLD SHORT OPERATIONS ARE IN EFFECT. RWY 27C ARR PLAN TO H/S OF TWY V V, 9 THSD 7 HND 25 FT AVBL, RWY 28C ARR PLAN TO H/S OF TWY Z, 9 THSD 6 HND TEN FT AVBL. DEPS EXP RWYS 22L 27L FROM T T 9960 FT AVL. RWY 4L, 22R CLSD. RWY 22R LOC OTS, RWY 28L GS OTS, RWY 9L IM OTS, RWY 9C IM OTS, RWY 10L IM OTS, RWY 10R IM OTS, RWY 27R IM OTS, RWY 28L IM OTS, RWY 28R IM OTS, RWY 9L PAPI OTS, RWY 27R PAPI OTS. PILOTS USE CTN FOR BIRD ACTIVITY IN THE VICINITY OF THE ARPT. USE CTN FOR PERSONNEL AND EQUIP AT NUMEROUS SITES ON THE FIELD. READBACK ALL RWY HOLD SHORT INSTRUCTIONS. WHEN READY TO TAXI CONTACT GND METERING ON FREQ 121.67. ...ADVS YOU HAVE INFO U.\n[Departure ATIS] KORD DEP ATIS U 2051Z ORD ATIS INFO U 2051Z. 21004KT 10SM FEW060 FEW300 36/19 A3011 (THREE ZERO ONE ONE) RMK AO2 SLP189 T03560194 58014. ARR EXP VECTORS ILS RWY 27C APCH, VISUAL APCH RWY 27R, VI",
    "KJFK": "[Arrival ATIS] KJFK ARR ATIS E 2051Z JFK ATIS INFO E 2051Z. 25016G23KT 10SM SCT250 BKN320 32/20 A2995 (TWO NINER NINER FIVE). APPROACH IN USE ILS RY 22L, ILS RY 22R. DEPG RY 22R, ACFT FILED OVER RBV OR DIXIE EX\n[Departure ATIS] KJFK DEP ATIS E 2051Z JFK ATIS INFO E 2051Z. 25016G23KT 10SM SCT250 BKN320 32/20 A2995 (TWO NINER NINER FIVE). APPROACH IN USE ILS RY 22L, ILS RY 22R. DEPG RY 22R, ACFT FILED OVER RBV OR DIXIE EXPECT RY 31L KE FOR DEP. RY 4R PAPI OTS, RY 13L SFL OTS, RWY 22L/4R INNER MARKER OTS. NUM CRANES OPERATING AT JFK. BIRD ACTIVITY VICINITY ARPT. READBACK ALL RWY ASSIGNMENTS AND HOLD SHORT INSTRUCTIONS. ...ADVS YOU HAVE INFO E.",
    "KIND": "[Arrival ATIS] KIND ARR ATIS O 1154Z - KIND ATIS INFO O 1154Z. 05004KT 10SM FEW250 23/18 A3019 (THREE ZERO ONE NINER). PARL ILS RWY 5R AND 5L APPROACHES IN USE. CROSS RUNWAY OPERATIONS MAY BE IN EFFECT. PARL APCHS IN USE. NOTICE TO AIRMEN. TWY, P BTN TWY, H AND TWY B CLSD, TWY, P BTN TWY, H AND TWY J CLSD, TWY, H BTN TWY, R AND TWY N CLSD. P PAD CLSD. ILS RUNWAY 5R AND RUNWAY 5L INNER MARKER UNSERVICEABLE. ARPT ADZY FLOCK OF SMALL BIRDS IN THE VICINITY OF THE AIRPORT, ALT UNKN. ...ADVS YOU HAVE INFO O.\n[Departure ATIS] KIND DEP ATIS H 1854Z IND ATIS INFO H 1854Z. 26009G19KT 10SM SCT036 BKN041 BKN170 23/16 A2981 (TWO NINER EIGHT ONE) RMK AO2 SLP088 T02280156. PARL ILS RWY 23R AND 23L APPROACHES IN USE. CROSS RU",
    "KDTW": "[Arrival ATIS] KDTW ARR ATIS B 1753Z DTW ARR INFO B 1753Z. 24009KT 9SM SCT250 33/22 A3013 (THREE ZERO ONE THREE). SIMUL VISUAL RY 21L, RY 22R USE Z LOC FREQ 111.95 APCH IN USE. NOTICE TO AIRMEN. RWY 21R, 3L CLSD, RWY 27L, 9R CLSD, RWY 27R, 9L CLSD. TWYS Y1, Y3, Y4 CLSD ;. PILOTS USE CTN FOR BIRD ACTIVITY. DEPARTURE ATIS 118.125. ...ADVS YOU HAVE INFO B.\n[Departure ATIS] KDTW DEP ATIS Q 2253Z - KDTW DEP INFO Q 2253Z. 21009KT 10SM FEW050 FEW250 33/24 A2991 (TWO NINER NINER ONE). DEPG RWY 21R, RWY 22L ;. NOTICE TO AIRMEN. RWY 27L, 9R CLSD, RWY 27R, 9L CLSD. PILOTS USE CTN FOR BIRD ACTIVITY. ...ADVS YOU HAVE INFO Q.",
    "KMSP": "[Arrival ATIS] KMSP ARR ATIS F 2153Z MSP ARR INFO F 2153Z. 27010KT 10SM CLR 34/18 A3012 (THREE ZERO ONE TWO). VISUAL RWY 30L APCH IN USE, VISUAL RWY 30R APCH IN USE. LAHSO, ACFT LNDG RWY 30L EXP TO HLDSHRT TWY A9 FOR CRSSGTFC, 8 THSD 1 HND FIFTY FT AVBL. NOTICE TO AIRMEN. RWYS 4, 22 CLSD. TWY R7. R8. R9. R10. CLOSED. TWY R BTWN R6 AND R10 CLSD, USE CAUTION, NUMEROUS TAXIWAY CLOSURES, TWY A7 CLSD, TWY A CLSD BTN TWY, A7 AND TWY D. GS RWY 12L OTS, RWYS 12R, 12L, INNER MARKER OTS. CTN, BIRDS NEAR MSP. READ BACK HS AND ALT. ALL ACFT TAXI WITH TRANSPONDER AND ALTITUDE ENCODING ON. ...ADVS YOU HAVE INFO F.\n[Departure ATIS] KMSP DEP ATIS S 2153Z - KMSP DEP INFO S 2153Z. 27010KT 10SM CLR 34/18 A3012 (THREE ZERO ONE TWO). DEPARTING RWY 30L, RWY 30R, RWY 17. NOTICE TO AIRMEN. RWYS 4, 22 CLSD. TWY R7. R8. R9. R10. CLOSED. TWY R BTWN R6 AND R10 CLSD, USE CAUTION, NUMEROUS TAXIWAY CLOSURES, TWY A7 CLSD, TWY A CLSD BTN TWY, A7 AND TWY D. ALL ACFT CTC METERING ON ONE THREE THREE POINT FIVE SEVEN WHEN READY TO PUSHBACK OR TAXI. CTN, BIRDS NEAR MSP. READ BACK HS AND ALT. ALL ACFT TAXI WITH TRANSPONDER AND ALTITUDE ENCODING ON. ...ADVS YOU HAVE INFO S.",
    "CYEG": "[Arrival ATIS] CYEG ARR ATIS R 2200Z CYEG ARR ATIS R 2200Z 10008G15KT 20SM FEW042 CIG BKN240 25/16 A3017 APCH RNAV Z OR Y RWY 20, INFORM ARRL OF REQ APCH ON INITIAL CTC. LDG AND DEP RWY 20. CYYC GDP IN EFCT CTC CYEG FIC ON FREQ 122.375 OR TEL 1-780-890-8386. SIMUL APPROACHES MAY BE IN EFCT. INFORM CYEG ATC INFO R\n[Departure ATIS] CYEG DEP ATIS Q 2200Z CYEG ARR ATIS Q 2200Z 10008G15KT 20SM FEW042 CIG BKN240 25/16 A3017 APCH RNAV Z OR Y RWY 20, INFORM ARRL OF REQ APCH ON INITIAL CTC. LDG AND DEP RWY 20. SIMUL APPROACHES MAY BE IN EFCT. INFORM CYEG ATC INFO Q",
    "EHAM": "[Arrival ATIS] EHAM ARR ATIS M 2120Z EHAM ARRIVAL INFO M. DEMAND. MAIN LANDING RWY 06. TRANSITION LEVEL 040. WIND 040 DEG, 13 KT, 20 KT MAX, 9 KT MNM. CAVOK. T 21. DP 17. QNH 1021 HPA. NOSIG. OPERATIONAL REPORT. CONTACT APCH WITH CALLSIGN ONLY. END OF INFO M\n[Departure ATIS] EHAM DEP ATIS Z 1920Z EHAM DEPARTURE INFO Z. DEMAND. MAIN DEPARTURE RWY 36 L. SECONDARY DEPARTURE RWY 36 C. MAIN LANDING RWY 06. WIND 040 DEG, 15 KT, VRB BTN 010 AND 070 DEG, 20 KT MAX, 9 KT MNM. WIND SECONDARY RUNWAY 050 DEG, 19 KT, VRB BTN 010 AND 070 DEG, 24 KT MAX, 10 KT MNM. CAVOK. T 23. DP 16. QNH 1020 HPA. OPERATIONAL REPORT. INDEPENDENT PARALLEL DEPARTURES IN PROGRESS CHECK CORRECT SID IN FMS. INFORM SCHIPHOL DEL BY VOICE IF UNABLE TO COMPLY WITH NADP 2. END OF INFO Z",
    "EBBR": "[Arrival ATIS] EBBR ARR ATIS R 0650Z EBBR NAT, EXP VECT FOR ILS APP ARR RWY01 RSCD AT 0606 RWY01 DRY. DEP RWY07R TRL 055 XNG RWY OPS INPR 040/5KT VRB BTN 350 AND 060 MNM1 MAX10 CAVOK T21 DP17 QNH 1018HPA NOSIG CFM ARR R\n[Departure ATIS] EBBR DEP ATIS F 1820Z EBBR NAT, DEP RWY07R RSCD AT 1551 RWY07R DRY. ARR RWY01 TRL 055 XNG RWY OPS INPR. TWY C6 CLSD 050/12KT MNM9 MAX18 CAVOK T28 DP12 QNH 1018HPA NOSIG CFM DEP F",
    "EDDF": "[Arrival ATIS] EDDF ARR ATIS Z 0650Z ARR-ATIS EDDF Z METAR 140650 EXPECT INDEPENDENT PARALLEL ILS Y APCH RWY 07L OR ILS APCH RWY 07R RWY 07L 07R GLS APCH ON REQUEST , TRL 60 04011KT CAVOK T24 DP14 QNH1017 TREND NOSIG END OF ATIS Z\n[Departure ATIS] EDDF DEP ATIS M 1450Z DEP-ATIS EDDF M METAR 141450 RWY 07C 18 ACFT DEPARTING RWY18 : EXPECT POSSIBLE DEPARTURE FROM INTERSECTION M , TORA 3454 METERS. IF UNABLE , ADVISE TWR ON INITIAL CONTACT , AD WRNG VALID UNTIL 1500 , ISOL TS SFC WIND 315 DEG 20 KT MAX 40 KT GR 1CM FCST NC , RWY COND AT TIME 1356 : ALL RWYS DRY , RWYCC 6 , TRL 60 35007KT RWY18 VRB03KT 9999 -SHRA FEW///CB T31 DP14 QNH1015 TREND TEMPO TSRA END OF ATIS M",
    "EDDL": "[Arrival ATIS] EDDL ARR ATIS O 0620Z ATIS EDDL O METAR 140620 EXPECT VECTORS ILS APPROACH RWY 05R TWY L2 , L4 AND L5 BTN TWY M AND RWY05R CLOSED VACATE RWY 05R VIA L3 OR L1 ATTENTION, RISK OF TWY INCURSION WHEN TAXIING TO RWY05R, CHECK HOT SPOTS T1 AND L9 ON TAXI CHART TRL 60 01005KT CAVOK T23 DP16 QNH1017 TREND NOSIG\n[Departure ATIS] EDDL DEP ATIS R EDDL ARR/DEP DATIS RPT -ATIS EDDL R METAR 020550 -EXPECT VECTORS ILS APPROACH -RWY 23L -TWY L8 CLOSED BETWEEN TWY M AND RWY 23L -TRL 60 - -23010KT -CAVOK - - -T19 DP13 -QNH1020 - -TREND NOSIG",
    "EDDK": "[Arrival ATIS] EDDK ARR ATIS E 2350Z -ATIS EDDK E METAR 102350 -EXPECT CDO FOR ILS APCH RWY 31R -RWY 31R 06 -RWY COND RWY 31R AT TIME 0000 RWYCC 6 DEPOSIT TOTAL RWY DRY RWY 06 AT TIME 0000 RWYCC 6 DEPOSIT TOTAL RWY DRY -TRL 60 -RWY 13R AND RWY 31L CLOSED FOR DEPARTURE AND LANDING: TAXIING BTN THR RWY 13R AND INTERSECTION RWY 24 POSSIBLE : -VRB02KT -CAVOK - - -T16 DP13 -QNH1018 - -TREND NOSIG\n[Departure ATIS] EDDK DEP ATIS E 2050Z -ATIS EDDK E METAR 142050 -EXPECT CDO FOR ILS APCH RWY 31R -RWY 31R 06 -RWY COND RWY 31R AT TIME 1837 RWYCC 6 DEPOSIT TOTAL RWY DRY RWY 06 AT TIME 1837 RWYCC 6 DEPOSIT TOTAL RWY DRY -TRL 60 -RWY 13R AND RWY 31L CLOSED FOR DEPARTURE AND LANDING: TAXIING BTN THR RWY 13R AND INTERSECTION RWY 24 POSSIBLE : -02006KT 350V050 -CAVOK - - -T23 DP14 -QNH1018 - -TREND NOSIG",
    "EBLG": "[Arrival ATIS] EBLG ATIS K 2220Z EBLG INFO, EXP RNAV TO ILS APP ARR RWY04R DEP RWY04R RWY 04R DRY, RWYCC 666. TRL 055 ADZ ON GND FREQ IF UNABLE S2 030/5KT CAVOK T21 DP13 QNH 1020HPA NOSIG CFM ATIS K",
    "LSZH": "[Arrival ATIS] LSZH ARR ATIS G 0520Z ARRIVALS, EXP ILS APCH, RWY 34. TRL 70. SOUTHBOUND AND WESTBOUND DEPARTURES : EXP RWY 28. NORTHBOUND AND EASTBOUND DEPARTURES : EXP RWY 32. TWY E 4 CLSD. WIND 360 DEG, 5 KT. CAVOK. T 20. DP 14. QNH 1018. NOSIG.\n[Departure ATIS] LSZH DEP ATIS V 0520Z SOUTHBOUND AND WESTBOUND DEPARTURES : EXP RWY 28. NORTHBOUND AND EASTBOUND DEPARTURES : EXP RWY 32. TRL 70. ARRIVALS, EXP ILS APCH, RWY 34. TMA S 1 IS ACT. TMA S 2 AND S 3 ARE ACT. WIND VRB, 1 KT. CAVOK. T 20. DP 14. QNH 1018. NOSIG.",
    "LIMC": "[Arrival ATIS] LIMC ARR ATIS G 0220Z LIMC ARR G 0220Z I.L.S. ZULU RWY IN USE 35L RCR AT 2141Z 5/5/5 WET WET WET TL 70 RWY 35R CLSD WIND TDZ VRB2KT VRB BTN 040/AND 140/ CAVOK T23 DP19 QNH 1023HPA QFE 0997HPA\n[Departure ATIS] LIMC DEP ATIS E 2020Z LIMC DEP E 2020Z RWY IN USE 35R TL 70 MMP VOR ON MAINTENANCE WIND END VRB1KT CAVOK T26 DP18 QNH 1017HPA QFE 0992HPA DATALINK CLEARANCE AVAILABLE.... CONTACT 1 3 1 8 8 0 TO BE RELEASED BY THE AIRPORT OPERATOR ...",
    "LIRF": "[Arrival ATIS] LIRF ARR ATIS X 2237Z LIRF ARR X 2237Z ILS RWY IN USE 16L TL 70 WIND TDZ 070/4KT CAVOK T24 DP19 QNH 1017HPA\n[Departure ATIS] LIRF DEP ATIS T 1952Z LIRF DEP T 1952Z RWY IN USE 25 TL 70 RWY 25 AVAILABLE ONLY FROM TWY BC OR BD CONFIRM ON CLR REQ RWYS IN USE FOR ARR 16L AND 16R WIND END 280/8KT VRB BTN 250/AND 310/ CAVOK T27 DP21 QNH 1021HPA REA IS SENT AUTOMATICALLY ONCE RLSD BY RAMP WHEN READY CONTACT FIUME RAMP 121.725",
    "EINN": "[Arrival ATIS] EINN ARR ATIS Z 0200Z EXPECT I L S CATEGORY 1 LDG RWY24 TKOF RWY24 TRL FL060 00000KT CAVOK 16/12 QNH Q1025 TREND NOSIG ADVISE AT FIRST CONTACT YOU HAVE ATIS INFO Z",
    "EGLL": "[Arrival ATIS] EGLL ARR ATIS T 0220Z LANDING RWY 09R TRANSITION-LEVEL: FL 70 IF STAND GUIDANCE IS OFF OR FAILS, REMAIN ON THE TAXIWAY CENTRELINE AND ADVISE ATC AUTO 06008KT 9999 NCD 19/16 Q1026 ACKNOWLEDGE RECEIPT OF INFORMATION T\n[Departure ATIS] EGLL DEP ATIS Y 2020Z DEPARTURE RWY 09R PILOTS THAT ARE IN RECEIPT OF DATALINK CLEARANCES ARE REMINDED THEY MUST CONTACT DELIVERY ON 121.980 WHEN READY FOR START DATALINK CLEARANCES NOT AVAILABLE FOR CPT DEPARTURES AUTO 03016KT 9999 NCD 26/12 Q1021 ACKNOWLEDGE RECEIPT OF INFORMATION Y AND REPORT AIRCRAFT TYPE AND CURRENT QNH ON FIRST CONTACT WITH HEATHROW",
    "EPWA": "[Arrival ATIS] EPWA ARR ATIS D 0448Z EPWA ARR D. TIME 0448. EXP U ARR ILS Z APCH FOR RWY 33. LOW VIS PROC IN OPS. TRANSITION LEVEL 80. WIND 310 DEG, 6 KT. VIS TDZ 10 KM OR MORE. CLD OVC 300 FT. T 14. DP 14. QNH 1015. TREND BECMG CLD BKN 500 FT. CAUTION. BIRD ACT. END OF EPWA ARR D\n[Departure ATIS] EPWA DEP ATIS Q 1731Z EPWA DEP Q. TIME 1730. DEP RWY 29. ARR RWY 33, EXP U ARR ILS Z. REPORT READY FOR STARTUP ON DELIVERY 121 DECIMAL 605. TRANSITION LEVEL 80. WIND 360 DEG, 7 KT. CAVOK. T 26. DP 14. QNH 1018. NOSIG. CAUTION. BIRD ACT. END OF EPWA DEP Q",
    "EFHK": "[Arrival ATIS] EFHK ARR ATIS Z 0650Z EXPECT ILS APCH ARR RWY 04L RUNWAY 04L CONDITION REPORT AT 0157 UTC RUNWAY CONDITION CODES 6 , 6 , 6 CONTAMINANTS ALL PARTS DRY TRL 60 WIND 350 DEG 6 KT VRB BTN 310 AND 030 DEG VIS 10KM BKN 2400 FT T 18 DP 12 QNH 1020 NOSIG ACK INFO Z\n[Departure ATIS] EFHK DEP ATIS V 2120Z DEP RWY 04R RUNWAY 04R CONDITION REPORT AT 2117 UTC RUNWAY CONDITION CODES 6 , 6 , 6 CONTAMINANTS ALL PARTS DRY WIND 290 DEG 7 KT CAVOK T 18 DP 10 QNH 1018 NOSIG ACK INFO V",
    "LTAC": "[Arrival ATIS] LTAC ARR ATIS X 1950Z EXP ILS X APCH 03L DEP RWY 03L RWY 03L WIND 030 DEG 09 KT RWY 03L WIND 030 DEG 09 KT TRL 110 CAVOK T 19 DP 10 QNH 1017 NOSIG FOR DELIVERY CTC 121.9. FOR DELIVERY FIRST USE DIGITAL DEP CLR. CTN BIRD HAZARD OVR AERODROME. APCH FREQUENCY 129.050. SINGLE RWY OPERATION INPR. END OF ATIS X",
    "UBBB": "[Arrival ATIS] UBBB ARR ATIS U 2130Z ATIS U EXP ILS/ LDG 34 35 DEP 34 35 IN USE RWY 34 CLEAR DRY 70 RWY 35 CLEAR DRY 70 TLVL 110 WIND WIND RWY 34 330 8 KT SPD MAX 10 MIN 8 WIND RWY 35 330 8 KT SPD MAX 14 MIN 6 VIS 10 KM FEW CB 6000 FT RWY 34 FEW CB 6000 FT RWY 35 T 26 / DP 21 QNH 1005 HPA TREND TREND NOSIG MODERATE BIRDS ACT IN VICINITY OF AP END OF ATIS U\n[Departure ATIS] UBBB DEP ATIS G 1431Z ATIS G EXP ILS/ LDG 34 35 DEP 34 35 IN USE RWY 34 CLEAR DRY 70 RWY 35 CLEAR DRY 70 TLVL 110 WIND WIND RWY 34 010 8 KT SPD MAX 12 MIN 6 WIND RWY 35 360 8 KT SPD MAX 10 MIN 4 VIS CAVOK T 29 / DP 20 QNH 1005 HPA TREND TREND NOSIG MODERATE BIRDS ACT IN VICINITY OF AP END OF ATIS G",
    "ZWWW": "[Arrival ATIS] ZWWW ARR ATIS A 2200Z EXP ILSDME Z APCH LDG RWY 26L TA 3000 WIND 140/2MPS VRB BTN 110/ AND 210/ CAVOK T 29 /DP 10 QNH 1009 HPA BIRDS ACTIVITY IN THE VICINITY OF THE AERODROME ADZ YOU HAVE INFO A.\n[Departure ATIS] ZWWW DEP ATIS G 0200Z DEP RWY 26L TA 3000 WIND 270/4MPS CAVOK T 28 /DP 07 QNH 1008 HPA BIRDS ACTIVITY IN THE VICINITY OF THE AERODROME ADZ YOU HAVE INFO G.",
    "ZLXY": "[Arrival ATIS] ZLXY ARR ATIS T 0200Z EXP ILS APCH LDG RWY 05L & 06R WIND 070/4MPS VIS 9999M CLD FEW 270M /SCT 480M /OVC 1800M T 21 /DP 17 QNH 1010 HPA ADZ YOU HAVE INFO T.\n[Departure ATIS] ZLXY DEP ATIS Z 1100Z DEP RWY 05L & 06L WIND 040/3MPS VRB BTN 010/ AND 070/ VIS 4500M -RA BR CLD SCT 240M /SCT 600M /OVC 1200M T 19 /DP 18 QNH 1011 HPA RUNWAY 05L SURFACE CONDITION CODE 555 RUNWAY 06L SURFACE CONDITION CODE 555 RUNWAY 06R SURFACE CONDITION CODE 555 ADZ YOU HAVE INFO Z.",
    "ZBAA": "[Arrival ATIS] ZBAA ARR ATIS H 0200Z EXP ILS APCH DEPENDENT PARL INSTR APCH LDG RWY 36L & 36R & 01 WIND 200 DEG 2 MPS 130V260 DEG CAVOK T 26 /DP 16 QNH 1008 HPA VISUAL APPROACH IS IN PROGRESS. ADZ YOU HAVE INFO H.\n[Departure ATIS] ZBAA DEP ATIS O 2030Z DEP RWY 36L & 01 RWY 36R IS CLSD WIND 020 DEG 2 MPS CAVOK T 23 /DP 22 QNH 1000 HPA RWY INDEPENDENT PARALLEL DEP VISUAL APPROACH IS IN PROGRESS. ADZ YOU HAVE INFO O.",
    "ZBHH": "[Arrival ATIS] ZBHH ARR ATIS Z 0100Z EXP ILSDME APCH LDG RWY 26 TA 3000 /TRL 3600 WIND 240/3MPS VRB BTN 190/ AND 290/ VIS 9999M CLD SCT 900M T 20 /DP 13 QNH 1010 HPA ADZ YOU HAVE INFO Z.\n[Departure ATIS] ZBHH DEP ATIS Q 1500Z DEP RWY 08 TA 3000 /TRL 3600 WIND 140/2MPS VIS 5000M BR NSC T 19 /DP 19 QNH 1007 HPA ADZ YOU HAVE INFO Q.",
    "ZSQD": "[Arrival ATIS] ZSQD ARR ATIS G 0200Z EXP ILSDME APCH LDG RWY 17 TA 3000 /TRL 3600 WIND 150/2MPS VRB BTN 090/ AND 190/ VIS 9999M CLD BKN 600M /BKN 1500M T 25 /DP 19 QNH 1009 HPA SEGREGATED OPERATION VISUAL APPROACH OPERATION IN PROGRESS. RUNWAY 17,IF MISSED APPROACH,EXPECT FOLLOW THE STANDARD MISSED APPROACH PROCEDURE,CLIMB TO 900M ON QNH OR BY ATC CAUTION MAYBE THERE IS A FLOCK OF BIRDS IN THE VICINITY OF AIRPORT ADZ YOU HAVE INFO G.\n[Departure ATIS] ZSQD DEP ATIS Y 2112Z DEP RWY 16 TA 3000 /TRL 3600 WIND 140/2MPS VIS 4000M BR CLD FEW 450M T 22 /DP 21 QNH 1009 HPA VISUAL APPROACH OPERATION IN PROGRESS. WHEN READY CONTACT QINGDAO TOWER ON 118.7 RUNWAY 16,IF MISSED APPROACH,EXPECT FOLLOW THE STANDARD MISSED APPROACH PROCEDURE,CLIMB TO 600M ON QNH OR BY ATC CAUTION MAYBE THERE IS A FLOCK OF BIRDS IN THE VICINITY OF AIRPORT ADZ YOU HAVE INFO Y."
  },
  "windtemp_alaska": "\n000\nFBAK31 KWNO 142000\nFD1AK1\nDATA BASED ON 141800Z    \nVALID 150000Z   FOR USE 2000-0300Z. TEMPS NEG ABV 24000\n\nFT  3000    6000    9000   12000   18000   24000  30000  34000  39000\nADK 2318 2530+06 2632+03 2642-01 2648-12 2749-23 275439 275848 276060\nADQ 2419 2330+05 2335+02 2342-04 2351-18 2358-31 236543 236343 235343\nAKN 2234 2232+02 2130-01 2229-06 2228-19 2328-32 232745 233541 233341\nANC 1324 1931+04 2036+00 2038-05 2042-17 2048-28 206544 206550 214445\nANN 9900 9900+09 9900+03 2507-01 3413-14 3638-26 015641 366649 014053\nBET 9900 0905+02 9900-01 1912-06 1520-19 1422-30 152048 191447 212341\nBRW 2211 2110+00 1911-05 1812-10 1912-23 2014-36 191647 191644 181041\nBTI 2808 2515+03 2423-03 2319-09 2215-22 2525-33 255446 244048 222343\nBTT 0910 1313+02 1413-03 1612-09 1923-19 2023-31 212647 203350 223444\nCDB 2822 2727+00 2636-01 2643-06 2562-16 2685-26 750141 750850 257049\nCZF 3417 3516-02 3611-05 0109-10 1817-19 1624-31 173048 182149 211341\nEHM 3039 2931-01 2833-05 2731-08 2620-19 2413-31 201346 232844 243340\nFAI 1716 1928+03 1922-02 1920-05 2027-17 2140-28 216143 216352 214148\nFYU 1410 1513+03 1814-02 2115-07 2129-17 2240-28 236144 236253 224247\nGAL 1214 1311+02 1514-03 1921-07 2114-19 2217-31 212046 201850 202444\nGKN 1628 1844+01 2142+01 2248-03 2243-15 2147-27 206242 207951 226052\nHOM 1626 1823+03 1930-01 1932-05 2040-18 2052-30 196245 205545 214043\nJNU 9900 2809+02 2409+03 3008+01 3219-12 3116-23 322239 333149 344159\nLUR 1710 1508-02 1408-07 1808-12 2305-23 2506-36 240546 200744 180641\nMCG 1609 1815+02 1615-01 1920-07 1824-19 1626-30 182146 192650 202643\nMDO 2034 2035+07 2034+02 2136-03 2147-15 2153-26 216342 207350 217051\nOME 0208 0907-01 1108-06 1508-09 1914-20 2132-31 203548 192951 201543\nORT      1612+06 2123+01 2334-03 2338-14 2243-25 225241 226851 245455\nOTZ 1307 1407-01 1410-07 1710-10 1910-22 2125-32 213747 213150 201642\nSNP 2819 2818-03 2819-07 2823-12 2828-24 2835-35 275142 274741 263842\nTKA 1409 1826+01 1921-03 2232-06 1941-17 1944-29 205744 206251 213844\nUNK 1123 1017+00 1115-03 1413-06 1811-18 1811-31 181647 181851 192043\nYAK 2207 2009+01 2519+02 2626-01 2428-13 2430-23 233139 243349 254458\nIKO 2714 2620+02 2635+00 2649-03 2654-14 2665-23 266939 267549 267460\nAFM 1108 1409+00 1713-05 1714-10 2021-21 2129-31 212946 222751 212442\n5AB 2614 2823+09 2833+05 2836+01 2843-12 2848-23 295038 295448 305357\n5AC 3416 3314+06 3311+03 3409-01 0125-12 3638-24 015439 015849 025557\n5AD 2528 2527+09 2530+06 2532+01 2538-13 2538-23 254239 244348 244458\n5AE 2632 2537+03 2541+02 2548-03 2563-14 2584-24 258940 259450 257855\n5AF 2608 2808+05 3012+03 3215+01 3116-11 3018-23 302339 312448 332758\n5AG 1821 2515+09 2325+04 2426-01 2437-13 2339-24 234339 234448 224657\n",
  "vaac_tokyo": [
    {
      "id": "20260714_27303000_0745",
      "year": "2026",
      "volcano": "Mayon",
      "psn": "N1315 E12341",
      "issued": "20260714",
      "text": "FVFE01 RJTD 141854\nVA ADVISORY\nDTG: 20260714/1854Z\nVAAC: TOKYO\nVOLCANO: MAYON 273030\nPSN: N1315 E12341\nAREA: PHILIPPINES\nSOURCE ELEV: 2462M AMSL\nADVISORY NR: 2026/745\nINFO SOURCE: HIMAWARI-9 PHIVOLCS\nERUPTION DETAILS: ERUPTION AT 20260714/1609Z FL130 EXTD SSE REPORTED\nOBS VA DTG: 14/1830Z\nOBS VA CLD: SFC/FL130 N1316 E12342 - N1314 E12344 - N1312 E12341 - \nN1315 E12340 MOV SE 5KT\nFCST VA CLD +6 HR: 15/0030Z SFC/FL130 N1309 E12344 - N1226 E12354 - \nN1243 E12330 - N1309 E12326\nFCST VA CLD +12 HR: 15/0630Z SFC/FL130 N1316 E12345 - N1218 E12343 - \nN1227 E12306 - N1315 E12316\nFCST VA CLD +18 HR: 15/1230Z SFC/FL130 N1311 E12406 - N1143 E12321 - \nN1224 E12246 - N1319 E12318\nRMK: NIL\nNXT ADVISORY: 20260715/0000Z=",
      "img_url": "https://ds.data.jma.go.jp/svd/vaac/data/VAGFN/2026/Images/20260714_27303000_0745_QH21_01.png",
      "sat_img_url": "https://ds.data.jma.go.jp/svd/vaac/data/Sat/2026/Images/27303000/09-ir/20260714_1830_202607141854_ir.png",
      "text_url": "https://ds.data.jma.go.jp/svd/vaac/data/TextData/2026/20260714_27303000_0745_Text.html"
    },
    {
      "id": "20260714_30027000_0263",
      "year": "2026",
      "volcano": "Sheveluch",
      "psn": "N5639 E16122",
      "issued": "20260714",
      "text": "FVFE01 RJTD 141200\nVA ADVISORY\nDTG: 20260714/1200Z\nVAAC: TOKYO\nVOLCANO: SHEVELUCH 300270\nPSN: N5639 E16122\nAREA: RUSSIA\nSOURCE ELEV: 3283M AMSL\nADVISORY NR: 2026/263\nINFO SOURCE: HIMAWARI-9\nERUPTION DETAILS: VA CONTINUOUSLY OBS IN SATELLITE IMAGERY\nOBS VA DTG: 14/1120Z\nOBS VA CLD: SFC/FL390 N5359 E16539 - N5422 E16550 - N5414 E16656 - \nN5349 E16654 MOV SE 40KT\nFCST VA CLD +6 HR: 14/1720Z SFC/FL400 N5233 E17412 - N5141 E17210 - \nN5144 E17002 - N5224 E17116\nFCST VA CLD +12 HR: 14/2320Z SFC/FL400 N5147 W17910 - N5115 W17906 - \nN5025 E17725 - N5008 E17317 - N5113 E17652\nFCST VA CLD +18 HR: 15/0520Z SFC/FL400 N5217 W17056 - N5119 W17200 - \nN4942 W17651 - N4907 E17606 - N5056 W17716\nRMK: THE RESPONSIBILITY FOR THIS ASH EVENT IS BEING TRANSFERRED TO \nVAAC ANCHORAGE. THE NEXT ADVISORY WILL BE ISSUED BY VAAC ANCHORAGE \nBY 1800UTC UNDER HEADER FVAK21 PAWU. SOME PART OF VA OBSCURED BY MET \nCLOUD.\nNXT ADVISORY: NO FURTHER ADVISORIES=",
      "img_url": "https://ds.data.jma.go.jp/svd/vaac/data/VAGFN/2026/Images/20260714_30027000_0263_QH21_01.png",
      "sat_img_url": "https://ds.data.jma.go.jp/svd/vaac/data/Sat/2026/Images/30027000/09-ir/20260714_1120_202607141200_ir.png",
      "text_url": "https://ds.data.jma.go.jp/svd/vaac/data/TextData/2026/20260714_30027000_0263_Text.html"
    },
    {
      "id": "20260713_28208001_0083",
      "year": "2026",
      "volcano": null,
      "psn": "N3136 E13039",
      "issued": "20260713",
      "text": "FVFE01 RJTD 130254\nVA ADVISORY\nDTG: 20260713/0254Z\nVAAC: TOKYO\nVOLCANO: SAKURAJIMA (AIRA CALDERA) 282080\nPSN: N3136 E13039\nAREA: JAPAN\nSOURCE ELEV: 1117M AMSL\nADVISORY NR: 2026/83\nINFO SOURCE: JMA HIMAWARI-9\nERUPTION DETAILS: ERUPTED AT 20260713/0152Z FL100 EXTD N\nOBS VA DTG: 13/0230Z\nOBS VA CLD: SFC/FL100 N3136 E13039 - N3142 E13040 - N3141 E13044 - \nN3134 E13042 MOV NE 15KT\nFCST VA CLD +6 HR: 13/0830Z SFC/FL100 N3234 E13121 - N3145 E13155 - \nN3202 E13110 - N3227 E13051\nFCST VA CLD +12 HR: 13/1430Z SFC/FL100 N3318 E13206 - N3142 E13317 - \nN3134 E13226 - N3312 E13118\nFCST VA CLD +18 HR: NO VA EXP\nRMK: NIL\nNXT ADVISORY: 20260713/0600Z=",
      "img_url": "https://ds.data.jma.go.jp/svd/vaac/data/VAGFN/2026/Images/20260713_28208001_0083_QH21_01.png",
      "sat_img_url": "https://ds.data.jma.go.jp/svd/vaac/data/Sat/2026/Images/28208001/09-ir/20260713_0230_202607130254_ir.png",
      "text_url": "https://ds.data.jma.go.jp/svd/vaac/data/TextData/2026/20260713_28208001_0083_Text.html"
    },
    {
      "id": "20260712_27307000_0012",
      "year": "2026",
      "volcano": "Taal",
      "psn": "N1400 E12100",
      "issued": "20260712",
      "text": "FVFE01 RJTD 121243\nVA ADVISORY\nDTG: 20260712/1243Z\nVAAC: TOKYO\nVOLCANO: TAAL 273070\nPSN: N1400 E12100\nAREA: PHILIPPINES\nSOURCE ELEV: 311M AMSL\nADVISORY NR: 2026/12\nINFO SOURCE: HIMAWARI-9 PHIVOLCS\nERUPTION DETAILS: ERUPTION AT 20260712/1227Z FL050 EXTD NE REPORTED\nOBS VA DTG: 12/1230Z\nOBS VA CLD: VA NOT IDENTIFIABLE FM SATELLITE DATA WIND FL050 230/19KT\nFCST VA CLD +6 HR: NOT AVBL\nFCST VA CLD +12 HR: NOT AVBL\nFCST VA CLD +18 HR: NOT AVBL\nRMK: WE WILL ISSUE FURTHER ADVISORY IF VA IS DETECTED IN SATELLITE \nIMAGERY.\nNXT ADVISORY: NO FURTHER ADVISORIES=",
      "img_url": "https://ds.data.jma.go.jp/svd/vaac/data/VAGFN/2026/Images/20260712_27307000_0012_QH21_01.png",
      "sat_img_url": null,
      "text_url": "https://ds.data.jma.go.jp/svd/vaac/data/TextData/2026/20260712_27307000_0012_Text.html"
    }
  ],
  "vaac_alaska": [
    {
      "text": "\n000\nFVAK21 PAWU 141734\nVAAAK1\nVA ADVISORY\n\nDTG: 20260714/1716Z\n\nVAAC: ANCHORAGE\n\nVOLCANO: SHEVELUCH 300270\n\nPSN: N5639 E16122\n\nAREA: KAMCHATKA PENINSULA\n\nSOURCE ELEV: 10771 FT AMSL\n\nADVISORY NR: 2026/197\n\nINFO SOURCE: HIMAWARI\n\nERUPTION DETAILS: VA CONTINIOUSLY OBS IN SATELLITE IMAGERY\n\nOBS VA DTG: 14/1716Z\n\nOBS VA CLD: SFC/FL300 N5250 E17045 - N5217 E17219 - N5122 E16957\n- N5217 E16818 - N5250 E17045 MOV SE 30KT\n\nFCST VA CLD +6HR: 14/2316Z SFC/FL300 N5233 E17702 - N5103 E17842\n- N5013 E17327 - N5203 E17135 - N5233 E17702\n\nFCST VA CLD +12HR: 15/0516Z SFC/FL300 N5225 W17753 - N5056\nW17437 - N4917 E17803 - N5047 E17535 - N5225 W17753\n\nFCST VA CLD +18HR: 15/1116Z SFC/FL300 N5249 W17146 - N5153\nW16808 - N4942 W17642 - N5036 W17849 - N5249 W17146 - N5249 W17146\n\nRMK: VAAC TOKYO HAS TRANSFERRED RESPONSIBILITY OF THIS EVENT\nTO VAAC ANCHORAGE. THIS ADVISORY UPDATES MESSAGE FVFE01 RJTD....DK\n\nNXT ADVISORY: WILL BE ISSUED BY 20260714/2316Z=\n\n",
      "issued": "2026-07-14T17:34:00+00:00",
      "volcano": "Sheveluch",
      "psn": "N5639 E16122"
    }
  ]
}