{
  "updated_utc": "2026-07-12T11:01Z",
  "metar": {
    "RJAA": "METAR RJAA 120930Z VRB02KT 9999 FEW020 BKN130 BKN/// 27/23 Q1010 NOSIG",
    "PANC": "SPECI PANC 120934Z VRB03KT 10SM SCT011 BKN016 OVC021 12/11 A2983 RMK AO2 T01170106",
    "PAFA": "METAR PAFA 120953Z 24006KT 10SM FEW060 FEW075 BKN100 BKN160 16/11 A2969 RMK AO2 SLP057 T01560111 $",
    "PAED": "SPECI PAED 120935Z 00000KT 10SM BKN009 OVC017 13/10 A2981 RMK AO2A SLP091 $",
    "KSEA": "METAR KSEA 120953Z 20013KT 10SM FEW022 SCT042 14/10 A3011 RMK AO2 SLP199 T01390100 $",
    "ZSPD": "METAR ZSPD 120930Z 14013G18MPS 9999 BKN023 29/25 Q0996 NOSIG",
    "ZSSS": "METAR ZSSS 120930Z 16010G15MPS 9999 SCT026 30/25 Q0994 NOSIG",
    "RJFR": "METAR RJFR 121000Z 01005KT 270V030 9999 FEW030 SCT050 BKN/// 27/26 Q1012",
    "VHHH": "METAR VHHH 120930Z 02006KT 9999 FEW010 34/27 Q0998 NOSIG",
    "RCTP": "METAR RCTP 120930Z 18006KT 120V270 9999 FEW020 SCT050 BKN130 34/28 Q1000 NOSIG RMK A2955",
    "ZGSZ": "METAR ZGSZ 121000Z 18006MPS 9999 FEW026 31/28 Q0998 NOSIG",
    "WSSS": "METAR WSSS 120930Z 16009KT 9999 FEW016 FEW020TCU BKN270 29/24 Q1007 NOSIG",
    "WMKK": "METAR WMKK 120930Z VRB03KT 9999 FEW018 32/24 Q1006 NOSIG",
    "WIDD": "METAR WIDD 120930Z 18008KT 9999 FEW014 29/24 Q1008 NOSIG",
    "VTBS": "METAR VTBS 120930Z 26010KT 9999 FEW020 30/22 Q1003 NOSIG",
    "VTBU": "METAR VTBU 120930Z 28009KT 250V320 9999 FEW020 SCT100 30/25 Q1004 NOSIG",
    "ROAH": "METAR ROAH 120930Z 16018KT 9999 FEW008 SCT011 BKN/// 28/26 Q1009",
    "VVDN": "METAR VVDN 120930Z 36006KT 9999 FEW020 SCT070 32/24 Q0999 NOSIG",
    "RCKH": "METAR RCKH 120930Z 17014KT 9999 SCT016 SCT024 BKN036 31/26 Q1002 NOSIG RMK A2960",
    "KLAX": "METAR KLAX 120953Z 26006KT 10SM FEW012 FEW150 BKN250 19/17 A2991 RMK AO2 SLP125 T01940172 $",
    "KONT": "METAR KONT 120953Z 00000KT 10SM SCT250 21/15 A2992 RMK AO2 SLP113 T02110150 $",
    "KSFO": "METAR KSFO 120956Z 29004KT 10SM FEW004 BKN150 15/12 A2990 RMK AO2 SLP125 T01500117 $",
    "KOAK": "METAR KOAK 120953Z 32006KT 10SM BKN170 15/13 A2991 RMK AO2 SLP126 T01500128",
    "KMHR": "METAR KMHR 120915Z AUTO 17008KT 10SM CLR 21/09 A2984 RMK AO2 RAE0851 T02080094 $",
    "KDFW": "METAR KDFW 120953Z 19007KT 10SM CLR 27/21 A3004 RMK AO2 SLP163 T02670211 $",
    "KIAH": "METAR KIAH 120953Z 05005KT 10SM FEW020 BKN140 OVC200 26/26 A3005 RMK AO2 RAE12 SLP175 P0000 T02610256 $",
    "KORD": "METAR KORD 120951Z 36006KT 10SM CLR 20/17 A3015 RMK AO2 SLP204 T02000172 $",
    "KJFK": "METAR KJFK 120951Z 02003KT 10SM SCT050 BKN100 BKN250 21/15 A3011 RMK AO2 SLP197 T02060150 $",
    "KRFD": "METAR KRFD 120954Z 35003KT 10SM CLR 16/14 A3019 RMK AO2 SLP218 T01610144 $",
    "KIND": "METAR KIND 120954Z 03008KT 8SM SCT250 21/20 A3009 RMK AO2 SLP181 T02110200",
    "KDTW": "METAR KDTW 120953Z 02003KT 10SM FEW200 18/14 A3016 RMK AO2 SLP209 T01830139 $",
    "KMSP": "METAR KMSP 120953Z 22005KT 10SM CLR 24/19 A3015 RMK AO2 SLP204 T02440189 $",
    "CYEG": "METAR CYEG 121000Z 12005KT 20SM FEW081 FEW250 12/12 A2987 RMK AC2CI1 CI TR SLP121 DENSITY ALT 2700FT",
    "EHAM": "METAR EHAM 120925Z 04010KT 350V080 CAVOK 23/17 Q1024 NOSIG",
    "EBBR": "METAR EBBR 120920Z 07007KT 030V090 CAVOK 27/14 Q1023 NOSIG",
    "EDDF": "METAR EDDF 120920Z AUTO 08010KT 030V140 CAVOK 28/10 Q1022 NOSIG",
    "EDFH": "METAR EDFH 120920Z 10006KT 030V170 CAVOK 26/09 Q1023",
    "EDDL": "METAR EDDL 120920Z AUTO 06008KT 020V090 CAVOK 28/14 Q1023 NOSIG",
    "EDDK": "METAR EDDK 120920Z AUTO 07005KT 360V160 CAVOK 28/12 Q1023 NOSIG",
    "EBLG": "METAR EBLG 120920Z 04009KT 360V070 CAVOK 27/13 Q1023 NOSIG",
    "LSZH": "METAR LSZH 120920Z 03007KT 360V080 CAVOK 26/12 Q1021 NOSIG",
    "LIMC": "METAR LIMC 120920Z VRB03KT CAVOK 29/17 Q1017 NOSIG",
    "LIRF": "METAR LIRF 120920Z 20005KT 130V270 CAVOK 32/15 Q1015 NOSIG",
    "EINN": "METAR EINN 120930Z 06005KT 010V100 CAVOK 23/17 Q1024 NOSIG",
    "EGLL": "METAR EGLL 120920Z AUTO 04011KT 010V080 9999 NCD 23/15 Q1025",
    "EGSS": "METAR EGSS 120920Z AUTO 05012KT 9999 NCD 25/16 Q1025",
    "EPWA": "METAR EPWA 120930Z 25003KT 210V280 9999 BKN008 16/15 Q1014 NOSIG",
    "UHPP": "METAR UHPP 121000Z VRB01MPS CAVOK 21/12 Q1009 R16R/CLRD62 NOSIG RMK QFE754/1005",
    "EFHK": "METAR EFHK 120920Z 04006KT CAVOK 25/19 Q1017 NOSIG",
    "LBBG": "METAR LBBG 120930Z AUTO 15007KT 120V180 9999 NSC 28/15 Q1015 NOSIG",
    "LTAC": "METAR LTAC 120920Z 29004KT 230V020 CAVOK 27/08 Q1016 NOSIG RMK RWY21C 30006KT 240V340 RWY03L VRB03KT RWY21R VRB04KT RWY03R VRB04KT RWY21L 18006KT 100V250",
    "UBBB": "METAR UBBB 120930Z 34016KT CAVOK 30/21 Q1011 NOSIG",
    "UTAA": "METAR UTAA 121000Z 30016KT 9999 FEW050 SCT100 41/13 Q1007 R88/CLRD70 NOSIG",
    "UACC": "METAR UACC 120930Z 10004MPS 050V180 CAVOK 31/09 Q1011 NOSIG RMK QFE727/0969",
    "UAAA": "METAR UAAA 120930Z 20004MPS 160V240 9999 SCT050CB BKN200 36/04 Q1003 NOSIG",
    "UZTT": "METAR UZTT 120930Z 28008KT 210V340 CAVOK 37/12 Q1001 NOSIG",
    "ZWWW": "METAR ZWWW 120930Z 34005MPS CAVOK 36/08 Q1002 NOSIG",
    "ZLXY": "METAR ZLXY 121000Z 25002MPS 200V300 9999 FEW050 33/19 Q1004 NOSIG",
    "ZBAA": "METAR ZBAA 120930Z VRB01MPS CAVOK 30/24 Q1003 NOSIG",
    "ZBHH": "METAR ZBHH 121000Z 20003MPS 180V240 CAVOK 26/17 Q1009 NOSIG",
    "ZSQD": "METAR ZSQD 121000Z 13007MPS 9999 BKN018 28/25 Q1002 NOSIG",
    "ZMCK": "METAR ZMCK 120930Z 32008MPS 9999 FEW033 16/07 Q1010 NOSIG RMK QFE642.8 53 MOP",
    "UUEE": "METAR UUEE 120930Z 31005MPS 240V340 9999 FEW009 21/18 Q1005 R06R/250145 R06C/250145 TEMPO 4900 -TSRA BKN011CB",
    "UUDD": "SPECI UUDD 120915Z 31004MPS 9999 -SHRA SCT016CB 19/17 Q1006 R13R/290045 NOSIG",
    "ULLI": "METAR ULLI 120930Z 04005MPS 360V070 CAVOK 28/17 Q1014 WS R10L R88/090065 NOSIG",
    "USSS": "METAR USSS 120930Z 34003MPS 300V010 9999 SCT040CB 26/21 Q1007 R26R/220050 R26L/210060 NOSIG RMK QFE735/0980",
    "UNNT": "METAR UNNT 120930Z 02004MPS CAVOK 24/11 Q1013 R07/CLRD// R34/////// NOSIG RMK QFE750/1000",
    "UNKL": "METAR UNKL 120930Z 35003MPS 300V040 CAVOK 20/08 Q1012 R29/CLRD// NOSIG RMK QFE733",
    "UIBB": "METAR UIBB 120930Z 31004MPS 270V340 9999 SCT040CB 14/08 Q1008 R30/220162 NOSIG RMK QFE713/0951",
    "UEEE": "METAR UEEE 120930Z 10001MPS CAVOK 23/11 Q1004 R23/09//66 NOSIG RMK QFE744",
    "UHHH": "METAR UHHH 120930Z 24004MPS 9999 FEW040 29/23 Q1002 R88/090060 NOSIG RMK QFE745/0993",
    "UHSS": "METAR UHSS 120930Z 36004MPS 9999 BKN009 18/16 Q1006 R01/CLRD70 NOSIG RMK MT OBSC QFE753/1004"
  },
  "taf": {
    "RJAA": "TAF RJAA 120505Z 1206/1312 21006KT 9999 FEW020 TEMPO 1210/1221 4000 -SHRA BR FEW001 BKN003 BECMG 1221/1300 28008KT",
    "PANC": "TAF PANC 120557Z 1206/1312 19007KT P6SM BKN015 BKN035 TEMPO 1206/1210 BKN009 FM121300 12005KT 6SM -SHRA OVC009 FM122300 15007KT P6SM -SHRA SCT030 OVC060 FM130100 14007G17KT P6SM -SHRA OVC019",
    "PAFA": "TAF PAFA 120520Z 1206/1312 22007KT P6SM SCT070 BKN130 FM121200 VRB03KT P6SM OVC070",
    "PAED": "TAF PAED 120500Z 1205/1311 VRB06KT 9000 BKN009 OVC020 620208 QNH2981INS BECMG 1211/1212 35006KT 9999 -RA BKN035 OVC060 60357 QNH2982INS TX14/1220Z TN11/1212Z",
    "KSEA": "TAF KSEA 120848Z 1209/1312 22012KT P6SM FEW020 BKN040 FM121200 20008KT P6SM BKN025 BKN040 FM121800 27003KT P6SM FEW030 SCT250 FM122100 36010KT P6SM SCT250 FM130500 03006KT P6SM FEW250",
    "ZSPD": "TAF ZSPD 120910Z 1212/1318 15015G20MPS 6000 BKN020 TX29/1212Z TX32/1306Z TN26/1221Z BECMG 1219/1220 16010G16MPS BECMG 1309/1310 16008MPS",
    "ZSSS": "TAF ZSSS 120910Z 1212/1318 15010G15MPS 6000 BKN015 TX29/1212Z TX33/1306Z TN28/1221Z BECMG 1306/1307 17005MPS",
    "RJFR": "TAF RJFR 120505Z 1206/1312 07006KT 9000 FEW011 BKN015 TEMPO 1212/1300 BKN005 BECMG 1306/1309 33010KT",
    "VHHH": "TAF VHHH 121100Z 1212/1318 18010KT 9999 FEW010 TX33/1306Z TN29/1222Z TEMPO 1212/1221 VRB05KT TEMPO 1303/1308 4000 SHRA FEW010CB SCT020 BECMG 1308/1310 12010KT",
    "RCTP": "TAF RCTP 121100Z 1212/1318 07005KT 9999 FEW020 BKN032 TEMPO 1218/1224 19007KT BECMG 1303/1304 01010KT TEMPO 1306/1310 27007KT 4000 SHRA FEW010 FEW012CB BKN017 BECMG 1310/1312 20005KT",
    "ZGSZ": "TAF ZGSZ 120901Z 1212/1318 18004MPS 8000 FEW040 TX30/1212Z TX33/1306Z TN28/1222Z TEMPO 1307/1311 TSRA FEW015 FEW020CB BKN030",
    "WSSS": "TAF WSSS 120500Z 1206/1312 15010KT 9999 FEW015 SCT020",
    "WMKK": "TAF WMKK 120500Z 1206/1312 VRB03KT 9999 FEW018",
    "VTBS": "TAF VTBS 120500Z 1206/1312 24008KT 9999 FEW020 SCT030 TEMPO 1208/1212 VRB15KT 3000 TSRA FEW018CB SCT030 BKN080 TEMPO 1308/1312 VRB15KT 4000 TSRA FEW018CB SCT030 BKN080",
    "VTBU": "TAF VTBU 120500Z 1206/1306 26012KT 9999 FEW020 SCT100 TEMPO 1208/1213 VRB15KT 4000 TSRA FEW018CB SCT030 BKN090",
    "ROAH": "TAF ROAH 120505Z 1206/1312 15023KT 9999 FEW008 BKN012 TEMPO 1206/1210 15025G35KT TEMPO 1215/1300 FEW005 BKN008",
    "VVDN": "TAF VVDN 120500Z 1206/1306 24008KT 9999 FEW020 BKN060 BECMG 1206/1207 10010KT BECMG 1213/1214 24007KT",
    "RCKH": "TAF RCKH 121100Z 1212/1318 16012KT 9999 FEW015 BKN032 TEMPO 1214/1220 7000 RA FEW012 BKN022 TEMPO 1302/1306 18015G25KT 4000 SHRA FEW010 FEW012CB BKN020 TEMPO 1310/1316 3000 SHRA FEW008 FEW012CB BKN018",
    "KLAX": "TAF KLAX 120843Z 1209/1312 26006KT P6SM FEW012 BKN250 FM121200 VRB03KT 5SM HZ OVC015 FM121700 26007KT P6SM BKN025 FM121900 26012KT P6SM BKN250 FM130400 26008KT P6SM FEW015 BKN250 FM130800 VRB03KT P6SM OVC015",
    "KONT": "TAF KONT 120520Z 1206/1312 25008KT P6SM SCT150 FM120700 VRB04KT P6SM FEW150 FM122000 25010G19KT P6SM SCT150 FM130300 24008KT P6SM SCT200 FM130700 VRB04KT P6SM BKN200",
    "KSFO": "TAF KSFO 120846Z 1209/1312 31007KT P6SM FEW003 BKN150 FM121500 33006KT P6SM SCT015 FM122000 30013KT P6SM SCT200 FM130400 29010KT P6SM SCT200 FM131100 27009KT 4SM BR SCT015",
    "KOAK": "TAF KOAK 120520Z 1206/1312 28011KT P6SM SCT200 FM121000 31007KT P6SM SCT010 SCT200 FM121800 30012KT P6SM SCT200 FM122100 29014KT P6SM SCT200 FM130500 29010KT P6SM SCT200",
    "KMHR": "TAF KMHR 120520Z 1206/1306 17008KT P6SM BKN250 FM120900 16006KT P6SM VCSH BKN200 FM121600 VRB05KT P6SM VCSH OVC150 FM130000 22008KT P6SM BKN250",
    "KDFW": "TAF KDFW 120903Z 1209/1312 18009KT P6SM FEW250 FM121600 17008KT P6SM VCSH SCT045 FM121900 17007KT P6SM -SHRA SCT060 TEMPO 1219/1223 4SM -TSRA BKN060 OVC250CB FM130100 12007KT P6SM SCT090 BKN200",
    "KIAH": "TAF KIAH 120836Z 1209/1312 13005KT P6SM FEW020 BKN140 OVC200 PROB30 1209/1211 -RA SCT020 BKN140 OVC200 FM121700 16006KT P6SM VCSH SCT035 BKN045 BKN120 TEMPO 1218/1222 VRB20KT 4SM TSRA SCT025 BKN035CB FM130200 16008KT P6SM FEW025 BKN120 FM130900 18003KT P6SM SCT020 SCT120",
    "KORD": "TAF KORD 120850Z 1209/1312 36005KT P6SM SKC FM121600 06009KT P6SM SKC FM130300 VRB04KT P6SM SKC",
    "KJFK": "TAF KJFK 120839Z 1209/1312 04005KT P6SM FEW100 FM121500 10009KT P6SM FEW050 FM121800 17010KT P6SM SCT070 FM130200 18006KT P6SM FEW070 FM131000 22004KT P6SM FEW070",
    "KRFD": "TAF KRFD 120850Z 1209/1306 VRB02KT P6SM SKC FM121500 08008KT P6SM SKC FM130300 VRB02KT P6SM SKC",
    "KIND": "TAF KIND 120520Z 1206/1312 04007KT P6SM SCT100 FM121700 05011G20KT P6SM SCT050 FM130000 05005KT P6SM SKC",
    "KDTW": "TAF KDTW 120830Z 1209/1312 03005KT P6SM FEW200 FM121400 07005KT P6SM SKC FM121800 08008KT P6SM SKC FM130000 09007KT P6SM SKC",
    "KMSP": "TAF KMSP 120847Z 1209/1312 22008KT P6SM SKC FM121500 23012G18KT P6SM SKC",
    "CYEG": "TAF CYEG 120845Z 1209/1306 14003KT P6SM SCT090 SCT250 TEMPO 1209/1210 BKN090 BECMG 1210/1211 4SM BR FM121100 12004KT 5SM BR FEW002 TEMPO 1211/1213 1/2SM FG VV002 BECMG 1213/1214 P6SM NSW SKC FM121400 14008KT P6SM SKC BECMG 1217/1219 30010G20KT SCT030 FM121900 30012G22KT P6SM SCT030 TEMPO 1219/1221 BKN030 FM122300 28022G32KT P6SM SKC BECMG 1301/1303 28012KT BECMG 1304/1306 31008KT RMK NXT FCST BY 121200Z",
    "EHAM": "TAF EHAM 120449Z 1206/1312 04010KT CAVOK BECMG 1221/1224 BKN012 PROB30 TEMPO 1304/1307 7000 BKN005 BECMG 1307/1310 CAVOK",
    "EBBR": "TAF EBBR 120512Z 1206/1312 06008KT CAVOK",
    "EDDF": "TAF EDDF 120500Z 1206/1312 04008KT CAVOK TEMPO 1217/1223 03013KT",
    "EDFH": "TAF EDFH 120500Z 1206/1306 09007KT CAVOK",
    "EDDL": "TAF EDDL 120500Z 1206/1312 03004KT CAVOK BECMG 1207/1210 03009KT BECMG 1221/1224 01004KT BECMG 1308/1311 02009KT",
    "EDDK": "TAF EDDK 120500Z 1206/1312 VRB02KT CAVOK BECMG 1208/1210 04006KT BECMG 1220/1223 VRB03KT BECMG 1308/1310 36006KT",
    "EBLG": "TAF EBLG 120512Z 1206/1312 06007KT CAVOK",
    "LSZH": "TAF LSZH 120825Z 1209/1315 06005KT CAVOK TX32/1215Z TN14/1303Z TX32/1315Z BECMG 1209/1211 07011KT BECMG 1218/1220 06005KT BECMG 1220/1223 32004KT",
    "LIMC": "TAF LIMC 120500Z 1206/1312 VRB04KT CAVOK",
    "LIRF": "TAF LIRF 120500Z 1206/1312 VRB05KT CAVOK BECMG 1209/1211 25010KT BECMG 1214/1216 31010KT BECMG 1222/1224 VRB05KT BECMG 1309/1311 25010KT",
    "EINN": "TAF EINN 120500Z 1206/1306 36008KT 9999 FEW030 BECMG 1206/1208 04010KT BECMG 1208/1210 08011KT BECMG 1219/1221 04008KT",
    "EGLL": "TAF EGLL 120453Z 1206/1312 04014KT 9999 BKN016 TEMPO 1206/1208 BKN014 BECMG 1208/1211 CAVOK BECMG 1212/1216 10016KT PROB40 TEMPO 1304/1308 BKN012",
    "EGSS": "TAF EGSS 120456Z 1206/1312 05011KT 9999 BKN012 BECMG 1206/1209 CAVOK PROB30 TEMPO 1206/1207 BKN008 PROB30 TEMPO 1211/1220 07015G25KT PROB40 TEMPO 1302/1307 BKN014",
    "EPWA": "TAF EPWA 120830Z 1209/1309 24006KT 9999 BKN007 BKN010 TEMPO 1209/1211 4000 DZRA BR BKN004 BECMG 1212/1214 BKN015 PROB40 1302/1307 BKN006",
    "UHPP": "TAF UHPP 120735Z 1209/1315 34003G08MPS 9999 NSC TEMPO 1302/1310 18005MPS",
    "EFHK": "TAF EFHK 120832Z 1209/1309 03005KT CAVOK TEMPO 1209/1211 SHRA FEW040CB BECMG 1211/1213 SCT035CB TEMPO 1211/1218 4000 TSRA PROB30 TEMPO 1212/1216 2500 +TSGR BECMG 1219/1221 SCT035 PROB30 1221/1305 FEW045CB",
    "LBBG": "TAF LBBG 120500Z 1206/1306 VRB04KT 9999 SCT045 BECMG 1208/1210 12014KT PROB30 TEMPO 1218/1224 5000 TSRA FEW030CB BKN040 BECMG 1301/1303 30008KT SCT030 OVC050",
    "LTAC": "TAF LTAC 121040Z 1212/1312 VRB02KT CAVOK TEMPO 1220/1224 03012KT BECMG 1309/1311 FEW040",
    "UBBB": "TAF UBBB 121051Z 1212/1312 34012KT CAVOK TX30/1212Z TN24/1301Z TEMPO 1212/1218 35018G28KT FEW030 TEMPO 1218/1304 33006KT SCT015 BECMG 1304/1306 34016G26KT TEMPO 1306/1312 SCT030",
    "UTAA": "TAF UTAA 120445Z 1206/1306 35020KT 6000 SCT050CB SCT050 TX41/1211Z TEMPO 1206/1215 30020G30KT 2500 BLDU BECMG 1216/1218 27018KT",
    "UACC": "TAF UACC 120504Z 1206/1306 09005MPS 9999 SCT040 BKN100 TX32/1209Z TN16/1224Z TEMPO 1206/1215 03008MPS SCT030CB BECMG 1215/1217 VRB01MPS BECMG 1304/1306 22005MPS",
    "UAAA": "TAF UAAA 120502Z 1206/1306 32003G08MPS 9999 FEW050CB SCT100 TX36/1210Z TN20/1301Z TEMPO 1206/1212 24005G10MPS BECMG 1212/1214 24003MPS TEMPO 1212/1218 17003MPS",
    "UZTT": "TAF UZTT 120500Z 1206/1306 20010KT 7000 NSC TX39/1211Z TN25/1300Z TEMPO 1206/1218 28010G20KT FEW060CB PROB40 TEMPO 1206/1218 TS SCT050CB",
    "ZWWW": "TAF ZWWW 120904Z 1212/1318 36004MPS CAVOK TX38/1309Z TN26/1223Z TN28/1318Z BECMG 1214/1215 18004MPS BECMG 1302/1303 36004MPS BECMG 1314/1315 18004MPS",
    "ZLXY": "TAF ZLXY 120906Z 1212/1312 22003MPS 6000 NSC TX36/1307Z TN24/1221Z BECMG 1306/1307 08005MPS",
    "ZBAA": "TAF ZBAA 120901Z 1212/1318 10004MPS 6000 NSC TX33/1307Z TN24/1221Z TN25/1318Z TEMPO 1215/1219 2800 -SHRA BR",
    "ZBHH": "TAF ZBHH 120901Z 1212/1312 06004MPS 8000 NSC TX31/1308Z TN13/1222Z",
    "ZSQD": "TAF ZSQD 120903Z 1212/1312 12007G14MPS 6000 BKN015 TX27/1306Z TN26/1220Z BECMG 1300/1301 13012G19MPS TEMPO 1309/1312 RA BKN014 OVC020",
    "ZMCK": "TAF ZMCK 121040Z 1212/1318 32005MPS 9999 FEW030CB SCT033 TN07/1221Z TX23/1307Z BECMG 1213/1215 VRB02MPS PROB40 TEMPO 1303/1312 VRB09G14MPS TSRA SCT027CB SCT030 BECMG 1305/1308 33006MPS BECMG 1310/1312 VRB02MPS",
    "UUEE": "TAF UUEE 120756Z 1209/1309 09003G08MPS 9000 FEW007 BKN016 TX21/1309Z TN17/1301Z TEMPO 1209/1221 VRB25MPS 1000 TSRAGR SQ BKN006 BKN020CB BECMG 1221/1223 35005MPS TEMPO 1221/1309 2000 TSRA BKN005 BKN016CB",
    "UUDD": "TAF UUDD 120753Z 1209/1315 29003MPS 6000 -RA FEW006 BKN016 TX23/1312Z TN15/1301Z TEMPO 1209/1218 VRB15MPS 1000 TSRA SQ BKN010CB TEMPO 1218/1304 BKN003 PROB40 TEMPO 1218/1304 0300 FG BECMG 1304/1306 35006MPS TEMPO 1306/1315 35009G16MPS 1000 TSRA BKN016CB",
    "ULLI": "TAF ULLI 120753Z 1209/1309 03006G12MPS 9999 SCT020 TEMPO 1210/1218 4000 -TSRA BKN016CB BECMG 1218/1219 35004G09MPS",
    "USSS": "TAF USSS 120745Z 1209/1309 29003G14MPS 9999 BKN020CB TEMPO 1209/1218 26009G23MPS -TSRAGR FM121800 02003MPS 6000 SCT020 FM130300 07003G14MPS 9999 BKN020CB",
    "UNNT": "TAF UNNT 120800Z 1209/1309 02003G08MPS 8000 SCT040 TX26/1309Z TN11/1222Z TEMPO 1209/1212 06008G13MPS BECMG 1302/1306 21005G10MPS BECMG 1307/1308 27003G08MPS",
    "UNKL": "TAF UNKL 120754Z 1209/1309 02005G10MPS 8000 SCT040 BECMG 1210/1212 24003G08MPS BECMG 1300/1302 17005MPS BECMG 1303/1305 12003G08MPS",
    "UIBB": "TAF UIBB 120800Z 1209/1309 31003G08MPS 9999 -SHRA BKN020CB TEMPO 1209/1215 VRB08MPS -TSRA",
    "UEEE": "TAF UEEE 120800Z 1209/1315 10003MPS CAVOK",
    "UHHH": "TAF UHHH 120759Z 1209/1315 24003MPS 9999 SCT017CB TX28/1305Z TN23/1218Z TEMPO 1212/1224 25008MPS 5000 -SHRA",
    "UHSS": "TAF UHSS 120741Z 1209/1315 36003MPS 4000 BR BKN004 BKN016CB TEMPO 1209/1212 1400 -SHRA BR TEMPO 1212/1224 0550 -SHRA FG BKN002 BKN016CB BECMG 1300/1303 9999 NSW BKN007 BKN017CB"
  },
  "atis": {
    "RJAA": "[Arrival ATIS] RJAA ARR ATIS K 0700Z M0700 (APCH)ILS Z RWY34R LDG RWY 34R DEP RWY 34L DEP FREQ 124.2. TWY A1 CLSD. OBSERVE GEAR DOWN OPS PROC ON FNL. M 210700Z 08007KT 25KM FEW012ST BKN035SC 25/21 Q0998/A2948= Q/TWO NINE FOUR EIGHT STP\n[Departure ATIS] RJAA DEP ATIS G 0543Z M0530 (APCH)ILS RWY34L/ILS Z RWY34R LDG RWY 34L/34R DEP RWY 34L DEP FREQ 124.2. TWY A1 CLSD. SIMUL PARL APCHS INPR. OBSERVE GEAR DOWN OPS PROC ON FNL. M 210530Z 36003KT 310V070 20KM FEW008ST BKN012ST 24/21 Q0998/A2949= Q/TWO NINE FOUR NINE STP",
    "PANC": "[Arrival ATIS] PANC ARR ATIS K 0653Z ANC ATIS INFO K 0653Z. 23008KT 10SM FEW050 FEW130 SCT200 12/08 A3017 (THREE ZERO ONE SEVEN) RMK AO2 SLP216 T01220083. 7R APPROACHES IN USE. LANDING RWY 7R, DEPARTING RWY 33. NOTICE TO AIRMEN. RWY 7L CLSD. CHECK NOTAMS FOR TAXIWAY CLOSURES. CAUTION FOR BIRD ACTIVITY IN THE ARPT AREA. CONTACT TOWER 118.3 FOR TAXI. ...ADVS YOU HAVE INFO K.\n[Departure ATIS] PANC DEP ATIS Y 2253Z ANC ATIS INFO Y 2253Z. 23009G25KT 10SM OVC100 14/08 A2984 (TWO NINER EIGHT FOUR) RMK AO2 PK WND 26031/2210 SLP104 T01390083. VISUAL APPROACHES IN USE. LANDING RWY 15, DEPAR",
    "KSEA": "[Arrival ATIS] KSEA ARR ATIS A 0553Z SEA ATIS INFO A 0553Z. 22017G29KT 10SM BKN048 BKN080 BKN250 16/10 A3005 (THREE ZERO ZERO FIVE). ILS AND CHARTED VISUAL APPROACH RWY 16C , APCH IN USE. DEPG RWY 16L. SIMUL A\n[Departure ATIS] KSEA DEP ATIS L 0453Z SEA ATIS INFO L 0453Z. 23015G22KT 10SM FEW040 SCT085 SCT140 17/11 A3003 (THREE ZERO ZERO THREE). ILS AND CHARTED VISUAL APPROACH RWYS 16R AND 16L , APCH IN USE. DEPG RWY 16L, DEPG ACFT PLAN AND BRIEF NUMBERS FOR BOTH RWYS 16L AND 16C. SIMUL APCHS IN USE, BFI & SEA. TRAFFIC BELOW YOU ON FINAL. SIMUL APCHS IN USE TO PARA RYS. NOTAMS... BIRD ACTIVITY VICINITY ARPT. ...ADVS YOU HAVE INFO L.",
    "ZSPD": "[Arrival ATIS] ZSPD ARR ATIS J 0630Z EXP ILS APCH INDEPENDENT PARL INSTR APCH LDG RWY 17R & 16L WIND RWY 17R TDZ 130/6MPS MID 110/5MPS END 110/5MPS RWY 16L TDZ 130/6MPS MID 120/5MPS END 110/5MPS VIS RWY 17R TDZ 8000M MID 10000M END 10000M VIS RWY 16L TDZ 10000M MID 10000M END 10000M CLD SCT 390M T 26 /DP 23 QNH 1009 HPA CAUTION THE BIRDS NEAR THE RUNWAY RWY 17L/17R/16L/16R RWYCC 5/5/5 ISSUED AT 0505 WET/WET/WET DPT NR/NR/NR COV 100PCT/100PCT/100PCT ADZ YOU HAVE INFO J.\n[Departure ATIS] ZSPD DEP ATIS J 0630Z DEP RWY 17L & 16R WIND RWY 17L TDZ 130/7MPS MID 120/6MPS END 130/5MPS RWY 16R TDZ 130/6MPS MID 130/6MPS END 110/5MPS VIS RWY 17L TDZ 10000M MID 10000M END 10000M VIS RWY 16R TDZ 10000M MID 10000M END 10000M CLD SCT 390M T 26 /DP 23 QNH 1009 HPA CAUTION THE BIRDS NEAR THE RUNWAY RWY 17L/17R/16L/16R RWYCC 5/5/5 ISSUED AT 0505 WET/WET/WET DPT NR/NR/NR COV 100PCT/100PCT/100PCT ADZ YOU HAVE INFO J.",
    "ZSSS": "[Arrival ATIS] ZSSS ARR ATIS B 0600Z EXP ILS APCH LDG RWY 18L WIND RWY 18L TDZ 120/4MPS MID 130/5MPS VRB BTN 110/ AND 170/ END 130/5MPS VIS RWY 18L TDZ 10000M MID 10000M END 10000M CLD SCT 600M T 28 /DP 23 QNH 1008 HPA RWY18L RWYCC 5/5/5 ISSUED AT 0030 WET/WET/WET DPT NR/NR/NR COV 100PCT/100PCT/100PCT RWY18R RWYCC 5/5/5 ISSUED AT 0240 WET/WET/WET DPT NR/NR/NR COV 50PCT/50PCT/50PCT QNH OF SHANGHAI TERMINAL CONTROL AREA 1009 HPA ADZ YOU HAVE INFO B.\n[Departure ATIS] ZSSS DEP ATIS Z 0500Z DEP RWY 18R WIND RWY 18R TDZ 050/4MPS MID 100/4MPS VRB BTN 060/ AND 120/ END 090/4MPS VRB BTN 070/ AND 130/ VIS RWY 18R TDZ 9000M MID 10000M END 10000M FBL SHRA CLD SCT 480M /FEW CB 900M T 28 /DP 24 QNH 1009 HPA RWY18L RWYCC 5/5/5 ISSUED AT 0030 WET/WET/WET DPT NR/NR/NR COV 100PCT/100PCT/100PCT RWY18R RWYCC 5/5/5 ISSUED AT 0240 WET/WET/WET DPT NR/NR/NR COV 50PCT/50PCT/50PCT QNH OF SHANGHAI TERMINAL CONTROL AREA 1009 HPA ADZ YOU HAVE INFO Z.",
    "VHHH": "[Arrival ATIS] VHHH ARR ATIS I 0607Z ARRIVALS, RWY 25R/L. EXP RNAV TRANSITION TO ILS APCH, RWY 25R. EXP ILS APCH, RWY 25L. RNP APCH IS AVBL ON REQ, RWY 25R. CAUTION POSSIBLE GP FLUCTUATION RWY 25L. WIND RWY 25R 220/09KT RWY 25L 220/12KT. VIS RWY 25R 10KM RWY 25L 10KM. CLD FEW 1200FT SCT 2500FT. T32 DP24. QNH 1009HPA. ACK INFO I ON FIRST CTC WITH APP.\n[Departure ATIS] VHHH DEP ATIS W 0610Z DEPARTURES, RWY 25C/L. INDEPENDENT PARALLEL DEPARTURE IN PROGRESS. WIND RWY 25C 230/08KT RWY 25L 220/12KT. VIS RWY 25C 10KM RWY 25L 10KM. CLD FEW 1200FT SCT 2500FT. T32 DP24. QNH 1009HPA. ACK INFO W ON FIRST CTC WITH DELIVERY .",
    "RCTP": "[Arrival ATIS] RCTP ARR ATIS A 0700Z EXP ILS APCH RWY23R FOR ARR. RWY23L FOR DEP. WIND 280/12KT VIS 10 KM OR MORE CLD FEW 2000FT T 34 DP 24 QNH 1008HPA NOSIG CTN BIRD ACTIVITY IN THE VCY OF THE AD. DUE TO FLOW CONTROL BY FUKUOKA F-I-R, TRAFFIC CONCERNED MAY BE DELAYED. INFORM TAIPEI APCH OR TAIPEI TOWER ON INITIAL CONTACT YOU HAVE INFORMATION A\n[Departure ATIS] RCTP DEP ATIS X 0530Z EXP ILS APCH RWY23R FOR ARR. RWY23L FOR DEP. WIND 290/15KT VIS 10 KM OR MORE CLD FEW 2000FT T 33 DP 26 QNH 1009HPA NOSIG CTN BIRD ACTIVITY IN THE VCY OF THE AD. INFORM TAIPEI APCH OR TAIPEI TOWER ON INITIAL CONTACT YOU HAVE INFORMATION X",
    "ZGSZ": "[Arrival ATIS] ZGSZ ARR ATIS N 0700Z EXP ILS APCH 15 EXP ILS OR VIS APCH 16R WIND 170/7MPS VIS 9999M CLD FEW 600M T 31 /DP 26 QNH 1008 HPA INDEPENDENT PARALLEL DEPARTURES DEPENDENT PARALLEL APPROACHES V17,V18 AVAILABLE AFTER SULAS FLY HEADING 040 MISSED APPROACH ALTITUDE SETTING 1200METERS WHEN AIRBORNE CONTACT ZHUHAI APPROACH EXPECTED RNP ILS DME Z APPROACH ADZ YOU HAVE INFO N.\n[Departure ATIS] ZGSZ DEP ATIS M 0641Z DEP RWY 15 & 16L WIND 170/7MPS VIS 9999M CLD FEW 600M T 31 /DP 27 QNH 1008 HPA INDEPENDENT PARALLEL DEPARTURES DEPENDENT PARALLEL APPROACHES V17,V18 AVAILABLE AFTER SULAS FLY HEADING 040 MISSED APPROACH ALTITUDE SETTING 1200METERS WHEN AIRBORNE CONTACT ZHUHAI APPROACH EXPECTED RNP ILS DME Z APPROACH ADZ YOU HAVE INFO M.",
    "WSSS": "[Arrival ATIS] WSSS ARR ATIS X 0630Z METREPORT 0630Z ILS APCHRWY 20R SIMUL INDEPENDENT ILS AND VISUAL APPROACHES ARE CONDUCTED ON RWY 20. TWY W 9 CLOSED, RWY 02C 20C RAPID EXIT TAXIWAY INDICATOR LIGHTS OFF WIND 210/ 05KT VRB BTN160 AND220 VIS 10KM CLD FEW CB 1800FT SCT TCU 2000FT T31 DP25 QNH 1010HPA NOSIG ACK ATIS X\n[Departure ATIS] WSSS DEP ATIS X 0600Z METREPORT 0600Z RWY 20C SIMUL INDEPENDENT ILS AND VISUAL APPROACHES ARE CONDUCTED ON RWY 20. TWY W 9 CLOSED, RWY 02C 20C RAPID EXIT TAXIWAY INDICATOR LIGHTS OFF WIND 200/ 05KT VRB BTN140 AND220 VIS 10KM CLD FEW CB 1800FT SCT TCU 2000FT T31 DP25 QNH 1010HPA NOSIG DEP,INITIAL CMB 3000FT ACK ATIS X",
    "WMKK": "[Arrival ATIS] WMKK ARR ATIS B 0649Z WMKK ARR INFO B. TIME 0630. INDEPENDENT PARALLEL APPROACHES FOR RWY 14 R AND 15 ARE IN PROGRESS. EXP RNAV / ILS APCH FOR RWY 14 RIGHT. EXP RNAV / ILS APCH FOR RWY 15. WIND RWY 14R 210 DEG, 6 KT. WIND RWY 15 230 DEG, 10 KT. VIS RWY 14R 10 KM OR MORE. VIS RWY 15 10 KM OR MORE. CLD FEW CB 1700 FT, CLD SCT 1800 FT. T 32. DP 26. QNH 1009. NOSIG. AT FIRST CONTACT WITH LUMPUR RADAR, NOTIFY RCPT OF B\n[Departure ATIS] WMKK DEP ATIS Q 0434Z WMKK DEP INFO Q. TIME 0430. INDEPENDENT PARALLEL DEPARTURES FOR RWY 14 R AND 15 ARE IN PROGRESS. RWY 14 RIGHT. RWY 15. WIND RWY 14R DIRECTION NOT AVBL SPEED NOT AVBL. WIND RWY 15 DIRECTION NOT AVBL SPEED NOT AVBL. VIS RWY 14R TDZ NOT AVBL. VIS RWY 15 TDZ NOT AVBL. CLD SCT 1800 FT. T 31. DP 25. QNH 1011. NOSIG. ALL DEP ACFT TO CONTACT LUMPUR DEP AT 135 DECIMAL 25 MHZ WHEN ABN. AT FIRST CONTACT WITH LUMPUR GROUND, NOTIFY RCPT OF Q",
    "VTBS": "[Arrival ATIS] VTBS ARR ATIS U 0700Z VTBS ARR ATIS U 0701Z SIMULTANEOUS INDEPENDENT PARL APCH IN PROGRESS EXP ILS Z APCH ARR RWY 19 OR RNP APCH RWY 20R , ,PILOT SHALL ADZ BKK APCH ON INITIAL CTC IF UNA TO CONDUCT RNP APCH DUE TO OPERATIONAL CONSTRAINT 0700Z WIND VRB5KT VIS 10KM CLD FEW 2000FT T35 DP20 QNH 1009HPA TREND NOSIG ADZ BKK APCH ON INITIAL CONTACT THAT YOU HAVE INFO U\n[Departure ATIS] VTBS DEP ATIS A 0530Z SIMULTANEOUS INDEPENDENT PARL DEP IN PROGRESS DEP RWY 20L OR DEP RWY 19 , ,AFT AIRBORNE ALL DEPARTING ACFT SHALL CTC 119.25 0530Z WIND VRB BTN 240/ AND 360/1KT VIS 10KM CLD FEW 2000FT T34 DP20 QNH 1010HPA TREND NOSIG ADZ GND WHEN INITIAL CONTACT YOU HAVE INFO A",
    "VTBU": "[Arrival ATIS] VTBU ARR ATIS U 0430Z VTBU ARR ATIS U 0430Z RNP RWY 18 TRL FL130 MOBILE ACFT ARST SYSTEM INSTL ATP SIX HUNDRED AND TEN METERS FM THR RWY 36 CABLE HGT 3 INCHES. 0430Z WIND 360/6KT VRB BTN 320/ AND 020/ VIS 10KM CLD FEW 2000FT T34 DP27 QNH 1010HPA TREND NOSIG ADZ CONTROLLER WHEN INITIAL CONTACT YOU HAVE INFO U\n[Departure ATIS] VTBU DEP ATIS D VTBU ARR/DEP DATIS RPT VTBU ARR ATIS D 0330Z ILS \"Z\" APCH RWY 18 TRL FL130 0330Z WIND 110/4KT VRB BTN 350/ AND 120/ VIS 6KM CLD FEW 2000FT T31 DP27 QNH 1014HPA TREND NOSIG ADZ CONTROLLER WHEN INITIAL CONTACT YOU HAVE INFO D",
    "ROAH": "[Arrival ATIS] ROAH ARR ATIS E 0640Z M0630 (APCH)RNP RWY18R LDG RWY 18R DEP RWY 18L DEP FREQ 126.5 258.3 M 210630Z 22008KT 50KM FEW010CU 29/27 Q1010/A2984= Q/TWO NINE EIGHT FOUR STP\n[Departure ATIS] ROAH DEP ATIS I 0557Z M0530 (APCH)ILS RWY18R LDG RWY 18R DEP RWY 18L DEP FREQ 126.5 258.3 M 120530Z 17022KT 15KM FEW010CU SCT012CU BKN/// 29/26 Q1009/A2980= Q/TWO NINE EIGHT ZERO STP",
    "VVDN": "[Arrival ATIS] VVDN ARR ATIS R 0602Z VVDN INFO R 0602Z. ILS VICTOR APPROACH 35L.. DPTG RWY 35R.. 0602Z. WIND 010/09KT CAVOK T36 DP24 QNH 1007HPA TREND NOSIG. ADZ ON INITIAL CTC YOU HAVE INFO. R.\n[Departure ATIS] VVDN DEP ATIS N 0423Z VVDN INFO N 0423Z. ILS VICTOR APPROACH 35L.. DPTG RWY 35R.. 0423Z. WIND 010/02KT CAVOK T36 DP24 QNH 1008HPA TREND NOSIG. WS ALL RWY. ADZ ON INITIAL CTC YOU HAVE INFO. N.",
    "RCKH": "[Arrival ATIS] RCKH ARR ATIS E 0930Z EXPECT ILS APPROACH RWY 09 ARR/DEP RWY SFC RWY 09 SFC COND 5/5/5 ISSUED AT 0500Z. 100/100/100 NR/NR/NR WET/WET/DRY TAXIWAY JULIETT, TAXIWAY BRAVO, TAXIWAY DELTA AND TAX\n[Departure ATIS] RCKH DEP ATIS B 0800Z EXPECT ILS APPROACH RWY 09 ARR/DEP RWY SFC RWY 09 SFC COND 5/5/5 ISSUED AT 0500Z. 100/100/100 NR/NR/NR WET/WET/DRY TAXIWAY JULIETT, TAXIWAY BRAVO, TAXIWAY DELTA AND TAX",
    "KLAX": "[Arrival ATIS] KLAX ARR ATIS K 0553Z LAX ATIS INFO K 0553Z. 22008KT 10SM FEW030 17/14 A2993 (TWO NINER NINER THREE) RMK AO2 SLP134 FU FEW030 T01670139 10200 20167 52002. INST APCHS AND RNAV RNP APCHS RY 24R AND 25L, OR VCTR FOR VISUAL APCH WILL BE PROVIDED, SIMUL VISUAL APCHS TO ALL RWYS ARE IN PROG, SIMUL INSTR DEPARTURES IN PROG RWYS 24 AND 25. TWY C CLSD BTN TWY, C8 AND TWY C9 , , TWY B CLSD BTN TWY, F AND TWY B1, TWY B1 CLSD. ILS RY 25R OTS, RY 25R SFL OTS, RY 24L ALSF-2 OTS. LAX VOR UNMONITORED. IF ASSIGNED RUNWAY 25R FOR DEPARTURE, EXPECT DEPARTURE FROM INTERSECTION FOXTROT. TAXILANE CHARLIE EIGHT RESTRICTED TO AIRCRAFT WITH A WINGSPAN LESS THAN ONE HUNDRED EIGHTEEN FEET. USE CAUTION FOR INCREASED DRONE ACTIVIY IN THE VICINITY OF SOFI STADIUM AT OR BELOW 200FT AGL DURING THE WORLD CUP FROM 06/12/26 THROUGH 07/10/2026. HAZD WX INFO FOR LAX AREA AVBL FM FSS. BIRD ACTIVITY VICINITY ARPT. TWR FREQ FOR ALL RWYS IS 120.95. CD AND GC FREQ IS 121.75. INCLUDE YOUR CALL SIGN IN ALL READBACKS. USE CAUTION WHEN EXITING RY24R AT TWY V, W, AND Y, TO HOLD SHORT OF RY24L. MULTIPLE RUNWAY INCURSIONS HAVE OCCURRED. ...ADVS YOU HAVE INFO K.\n[Departure ATIS] KLAX DEP ATIS W 1853Z LAX ATIS INFO W 1853Z. 23010KT 10SM FEW016 SCT022 SCT027 20/13 A3000 (THREE ZERO ZERO ZERO) RMK AO2 SLP158 T02000128. INST APCHS AND RNAV RNP APCHS RY 24R AND 25L, OR VCTR FOR VISUAL APCH WILL BE PROVIDED, SIMUL VISUAL APCHS TO ALL RWYS ARE IN PROG, SIMUL INSTR DEPARTURES IN PROG RWYS 24 AND 25. CTC L A GC ON 121.75 FOR PUSH OR TAXI ON A. TWY C CLSD BTN TWY, C8 AND TWY C9 , , TWY B CLSD BTN TWY, F AND TWY B1, TWY B1 CLSD. ILS RY 25R OTS, RY 25R SFL OTS, RY 24L ALSF-2 OTS. LAX VOR UNMONITORED. IF ASSIGNED RUNWAY 25R FOR DEPARTURE, EXPECT DEPARTURE FROM INTERSECTION FOXTROT. TAXILANE CHARLIE EIGHT RESTRICTED TO AIRCRAFT WITH A WINGSPAN LESS THAN ONE HUNDRED EIGHTEEN FEET. USE CAUTION FOR INCREASED DRONE ACTIVIY IN THE VICINITY OF SOFI STADIUM AT OR BELOW 200FT AGL DURING THE WORLD CUP FROM 06/12/26 THROUGH 07/10/2026. HAZD WX INFO FOR LAX AREA AVBL FM FSS. USE CAUTION FOR HANG GLIDING 1 MILE SOUTH LOS ANGELES VOR. BIRD ACTIVITY VICINITY ARPT. INCLUDE YOUR CALL SIGN IN ALL READBACKS. USE CAUTION WHEN EXITING RY24R AT TWY V, W, AND Y, TO HOLD SHORT OF RY24L. MULTIPLE RUNWAY INCURSIONS HAVE OCCURRED. ...ADVS YOU HAVE INFO W.",
    "KONT": "[Arrival ATIS] KONT ARR ATIS R 2053Z - KONT ATIS INFO R 2053Z. 24008KT 10SM CLR 27/11 A2995 (TWO NINER NINER FIVE). ILS AND VIS APR IN USE, RY26L & RY26R. LNDG AND DEPG RY 26L AND RY 26R. NOTAMS... TAXIWAY SIERRA CLSD BETWEEN SIERRA 8 AND W TAXIWAY Q SOUTH OF RWY 26L CLSD TAXIWAY T CLSD TAXIWAY SIERRA 5 CLSD. RY 26L IM OTS. USE CAUTION FOR NUMEROUS BIRDS OBSERVED IN VICINITY OF ONT. PILOTS READBACK RWY ASSIGNMENTS AND HOLD SHORT INSTRUCTIONS. ...ADVS YOU HAVE INFO R.\n[Departure ATIS] KONT DEP ATIS N 0553Z - KONT ATIS INFO N 0553Z. 24004KT 10SM BKN250 22/15 A2988 (TWO NINER EIGHT EIGHT) RMK AO2 SLP100. ILS AND VIS APR IN USE, RY26L & RY26R. LNDG AND DEPG RY 26L AND RY 26R. NOTAMS... TAXIWAY SIERRA CLSD BETWEEN SIERRA 8 AND W TAXIWAY Q SOUTH OF RWY 26L CLSD TAXIWAY T CLSD TAXIWAY SIERRA 5 CLSD. RY 26L IM OTS, RY 26R ALS OTS. USE CAUTION FOR NUMEROUS BIRDS OBSERVED IN VICINITY OF ONT. HAZD WX INFO FOR SOUTHERN CA AVBL ON FSS FREQUENCIES. PILOTS READBACK RWY ASSIGNMENTS AND HOLD SHORT INSTRUCTIONS. ...ADVS YOU HAVE INFO N.",
    "KSFO": "[Arrival ATIS] KSFO ARR ATIS J 0656Z - KSFO ATIS INFO J 0656Z. 26009KT 10SM FEW004 BKN015 15/11 A2997 (TWO NINER NINER SEVEN). ILS RY 28R APP IN USE. DEPG RWYS 28L, 28R. RY 1L, 1R CLSD. NUMEROUS TWY CLOSURES FOR CONSTRUCTION ON THE FIELD, PILOTS CHECK NOTAMS. DEPG ACFT WAITING ON FINAL NUMBERS ADVISE GROUND PRIOR TO ENTERING TWY F. ...ADVS YOU HAVE INFO J.\n[Departure ATIS] KSFO DEP ATIS J 0356Z SFO ATIS INFO J 0356Z. 27015KT 10SM FEW005 SCT011 13/11 A2991 (TWO NINER NINER ONE) RMK PK WND 28026/0321. SIMUL CLSLY SPCD DPNDNT ILS RY 28R AND ILS RY 28L APP IN USE. DEPG RWYS 28L, 28R. DEPG ACFT SHOULD BE PREPARED FOR A SHORT NOTICE RY CHANGE. RY 1L, 1R CLSD. NUMEROUS TWY CLOSURES FOR CONSTRUCTION ON THE FIELD, PILOTS CHECK NOTAMS. DEPG ACFT WAITING ON FINAL NUMBERS ADVISE GROUND PRIOR TO ENTERING TWY F. ...ADVS YOU HAVE INFO J.",
    "KOAK": "[Arrival ATIS] KOAK ARR ATIS T 2053Z - KOAK ATIS INFO T 2053Z. 25015KT 10SM FEW008 20/13 A2994 (TWO NINER NINER FOUR). RNAV, AND VA, RWY 30. ILS, AND VA, RWY 28R. FLOW TO LAX, LAS, SAN, SEA. RWY 28L CLSD. TAXIWAYS GOLF, HOTEL, PAPA, JULIET BETWEEN RUNWAYS 28 RIGHT AND 28 LEFT CLOSED. ILS RWY 30, OTS, RWY 28R RAIL, OTS. UNN LIT CLOSE-IN OBSTACLES FOR RWY 30 DEPARTURES. RWY 30 DEPARTURES ARE ADVISED TO AVOID TURNING LEFT PRIOR TO DEPARTURE END OF RUNWAY. CTN, CRANE 1 POINT 6 NAUTICAL MILES, , AT 140 FEET AGL. CAUTION, BIRDS NEAR AIRPORT. ...ADVS YOU HAVE INFO T.\n[Departure ATIS] KOAK DEP ATIS O 1953Z OAK ATIS INFO O 1953Z. 28014KT 10SM FEW005 22/14 A2988 (TWO NINER EIGHT EIGHT). RNAV Z/VA RWY 30 ILS/VA RWY 28R. FLOW TO LAX, LAS, SAN. ILS RWY 30, OTS. UNN LIT CLOSE-IN OBSTACLES FOR RWY 30 DEPARTURES. RWY 30 DEPARTURES ARE ADVISED TO AVOID TURNING LEFT PRIOR TO DEPARTURE END OF RUNWAY. SIGNATURE UNI-COM OUT OF SERVICE. CAUTION, BIRDS NEAR AIRPORT. ...ADVS YOU HAVE INFO O.",
    "KDFW": "[Arrival ATIS] KDFW ARR ATIS W 0853Z DFW ARR INFO W 0853Z. 18007KT 10SM CLR 27/21 A3004 (THREE ZERO ZERO FOUR). SIMUL VISUAL APCH TO RWYS, 18R, 17C. LDG RWY 17C EXP LAHSO TWY B 10460 FT AVAIL, LDG RWY 18R EXP LAHSO TWY B 10100 FT AVL. NOTICE TO AIRMEN. RWY 13L CLSD. RWY 13R CLSD. RWY 17L CLSD. RWY 17C PAPI OTS. WARNING, RWY 18L HAS BEEN SHORTENED, 9273 FT AVAILABLE. BIRD ACTIVITY VCNTY ARPT. ...ADVS YOU HAVE INFO W.\n[Departure ATIS] KDFW DEP ATIS W 1553Z - KDFW DEP INFO W 1553Z. 21022G32KT 10SM FEW025 FEW180 SCT250 31/21 A2994 (TWO NINER NINER FOUR) RMK AO2 PK WND 20032/1547 SLP128 T03110206. SIMUL PARL TRAFFIC DEPG RWYS 17R, 18L. NOTICE TO AIRMEN. WARNING, RWY 18L HAS BEEN SHORTENED, 9273 FT AVAILABLE. RWY 18L CL OTS. BIRD ACTIVITY VCNTY ARPT. ...ADVS YOU HAVE INFO W.",
    "KIAH": "[Arrival ATIS] KIAH ARR ATIS Z 0617Z - KIAH ATIS INFO Z 0617Z SPECIAL. 00000KT 7SM SCT016 BKN023 OVC180 24/24 A2988 (TWO NINER EIGHT EIGHT). ARRIVALS EXPECT ILS OR RNAV Y RY 8R, ILS OR RNAV Y RY 8L. SIMUL APPROACHES IN USE. DEPG RY 15L. NOTICE TO AIRMEN. UAL RAMP PROCEDURES TERMINATED PUSH BACK AT PILOTS DISCRETION. HAZD WX INFO FOR IAH AREA AVBL FM FSS. BIRD ACTIVITY VICINITY ARPT. TWY SA CLSD BTN TWY, SG AND TWY SK , TWY SB CLSD BTN TWY, SG AND TWY SK , , TWY SG CLSD, TWY EA CLSD. NOTAM ATIS IN USE ON FREQUENCY 126.225. ...ADVS YOU HAVE INFO Z.\n[Departure ATIS] KIAH DEP ATIS T 0353Z IAH ATIS INFO T 0353Z. 15007KT 10SM FEW035 FEW180 BKN250 27/23 A2996 (TWO NINER NINER SIX). ARRIVALS EXPECT ILS OR RNAV Y RY 8R, ILS OR RNAV Y RY 8L. DEPG RY 15R. NOTICE TO AIRMEN. UNITED RAMP CONTROL IN EFFECT. RY 15L, 33R CLSD. HAZD WX INFO FOR IAH AREA AVBL FM FSS. BIRD ACTIVITY VICINITY ARPT. CRANES ARE DOWN. TWY SA CLSD BTN TWY, SF AND TWY SK , TWY SB CLSD BTN TWY, SF AND TWY SK , , TWY WB CLSD BTN TWY, WG AND TWY WH . TWY EA CLSD. NOTAM ATIS IN USE ON FREQUENCY 126.225. ...ADVS YOU HAVE INFO T.",
    "KORD": "[Arrival ATIS] KORD ARR ATIS Q 0951Z ORD ATIS INFO Q 0951Z. 36006KT 10SM CLR 20/17 A3015 (THREE ZERO ONE FIVE) RMK AO2 SLP204 T02000172. ARR EXP VECTORS ILS RWY 10C APCH. DEPS EXP RWYS 22L, 10L. RWY 4L, 22R CLSD, RWY 9L, 27R CLSD, RWY 9C, 27C CLSD, RWY 9R, 27L CLSD, RWY 10R, 28L CLSD. RWY 22R LOC OTS, RWY 28L GS OTS, RWY 9L IM OTS, RWY 9C IM OTS, RWY 10L IM OTS, RWY 10R IM OTS, RWY 27R IM OTS, RWY 28L IM OTS, RWY 28R IM OTS, RWY 9L PAPI OTS, RWY 27R PAPI OTS. PILOTS USE CTN FOR BIRD ACTIVITY IN THE VICINITY OF THE ARPT. NOISE ABATEMENT PROCEDURES ARE IN EFFECT. USE CTN FOR PERSONNEL AND EQUIP AT NUMEROUS SITES ON THE FIELD. READBACK ALL RWY HOLD SHORT INSTRUCTIONS. FOR CD GND METERING AND GC CONTACT ORD ON FREQ 121.9. ...ADVS YOU HAVE INFO Q.\n[Departure ATIS] KORD DEP ATIS V 2151Z ORD ATIS INFO V 2151Z. 02014G22KT 10SM FEW050 BKN250 28/17 A3007 (THREE ZERO ZERO SEVEN) RMK AO2 SLP178 T02780172. ARR EXP VECTORS ILS RWY 9L APCH, ILS RWY 10C APCH, VISUAL APCH RWY 10R. PILOTS EXP 2 INTCP THE ILS Y RY 10R FNA CRS. SIMUL APCHS IN USE. DEPS EXP RWYS 9C FROM F F 9200 FT AVL, 10L FROM DD. 10,093 FT AVBL. ATTN PILOTS. SIMUL PARL DEPS IN USE. EXP TO INITIALLY FLY RWY. HDG ON DEP. PILOTS MUST READ BACK DRCTN OF TURNS BY ATC. RWY 4L, 22R CLSD. RWY 22R LOC OTS, RWY 28L GS OTS, RWY 9L IM OTS, RWY 9C IM OTS, RWY 10L IM OTS, RWY 10R IM OTS, RWY 27R IM OTS, RWY 28L IM OTS, RWY 28R IM OTS, RWY 9L PAPI OTS, RWY 27R PAPI OTS. PILOTS USE CTN FOR BIRD ACTIVITY IN THE VICINITY OF THE ARPT. USE CTN FOR PERSONNEL AND EQUIP AT NUMEROUS SITES ON THE FIELD. READBACK ALL RWY HOLD SHORT INSTRUCTIONS. WHEN READY TO TAXI CONTACT GND METERING ON FREQ 121.67. ...ADVS YOU HAVE INFO V.",
    "KJFK": "[Arrival ATIS] KJFK ARR ATIS O 0751Z JFK ATIS INFO O 0751Z. 05004KT 10SM FEW050 BKN120 BKN250 21/16 A3008 (THREE ZERO ZERO EIGHT). APPROACH IN USE ILS RY 4R, ILS RY 4L. DEPG RY 4L. NUM CRANES OPERATING AT JFK. BIRD ACTIVITY VICINITY ARPT. READBACK ALL RWY ASSIGNMENTS AND HOLD SHORT INSTRUCTIONS. ...ADVS YOU HAVE INFO O.\n[Departure ATIS] KJFK DEP ATIS G 2351Z - KJFK ATIS INFO G 2351Z. 12007KT 10SM FEW045 SCT150 BKN250 24/15 A3001 (THREE ZERO ZERO ONE). APPROACH IN USE ILS RY 4R, ILS RY 4L. DEPG RY 4L. YES WE KNOW THERE IS AN AMBER FLAS",
    "KIND": "[Arrival ATIS] KIND ARR ATIS G 1754Z IND ATIS INFO G 1754Z. 22007KT 10SM SCT034 SCT041TCU BKN250 29/22 A2995 (TWO NINER NINER FIVE) RMK AO2 SLP135 TCU SE AND W T02940222 10294 20211 58012. PARL ILS RWY 23R AND 23L APPROACHES IN USE. CROSS RUNWAY OPERATIONS MAY BE IN EFFECT. NOTICE TO AIRMEN. TWY, P BTN TWY, H AND TWY B CLSD, TWY, P BTN TWY, H AND TWY J CLSD, TWY, H BTN TWY, R AND TWY N CLSD. P PAD CLSD. ILS RUNWAY 5R AND RUNWAY 5L INNER MARKER UNSERVICEABLE. ARPT ADZY FLOCK OF LARGE BIRDS IN THE VICINITY OF THE AIRPORT, ALT UNKN. ...ADVS YOU HAVE INFO G.\n[Departure ATIS] KIND DEP ATIS H 1854Z IND ATIS INFO H 1854Z. 26009G19KT 10SM SCT036 BKN041 BKN170 23/16 A2981 (TWO NINER EIGHT ONE) RMK AO2 SLP088 T02280156. PARL ILS RWY 23R AND 23L APPROACHES IN USE. CROSS RU",
    "KDTW": "[Arrival ATIS] KDTW ARR ATIS A 0553Z - KDTW ARR INFO A 0553Z. 20003KT 10SM FEW045 16/13 A2992 (TWO NINER NINER TWO) RMK AO2 SLP130 T01610128 10222 20161 51001. VISUAL RY 21L APCH IN USE. NOTICE TO AIRMEN. RWY 22R, 4L CLSD, RWY 22L, 4R CLSD, RWY 27L, 9R CLSD, RWY 27R, 9L CLSD. PILOTS USE CTN FOR BIRD ACTIVITY. TWR AND GC COMB ON FREQ 118.4. DEPARTURE ATIS 118.125. ...ADVS YOU HAVE INFO A.\n[Departure ATIS] KDTW DEP ATIS Q 2253Z - KDTW DEP INFO Q 2253Z. 21009KT 10SM FEW050 FEW250 33/24 A2991 (TWO NINER NINER ONE). DEPG RWY 21R, RWY 22L ;. NOTICE TO AIRMEN. RWY 27L, 9R CLSD, RWY 27R, 9L CLSD. PILOTS USE CTN FOR BIRD ACTIVITY. ...ADVS YOU HAVE INFO Q.",
    "KMSP": "[Arrival ATIS] KMSP ARR ATIS G 0853Z MSP ARR INFO G 0853Z. 22007KT 10SM CLR 25/19 A3014 (THREE ZERO ONE FOUR). VISUAL RWY 12R APCH IN USE, VISUAL RWY 12L APCH IN USE. NOTICE TO AIRMEN. RWYS 4, 22 CLSD. TWY R7. R8. R9. R10. CLOSED. TWY R BTWN R6 AND R10 CLSD, TWY A7 CLSD, TWY A CLSD BTN TWY, A7 AND TWY D. GS RWY 12L OTS, RWYS 12R, 12L, INNER MARKER OTS. CTN, BIRDS NEAR MSP. READ BACK HS AND ALT. ALL ACFT TAXI WITH TRANSPONDER AND ALTITUDE ENCODING ON. ...ADVS YOU HAVE INFO G.\n[Departure ATIS] KMSP DEP ATIS V 1053Z - KMSP DEP INFO V 1053Z. 19004KT 10SM CLR 24/19 A3016 (THREE ZERO ONE SIX) RMK AO2 SLP208 T02390189. DEPARTING RWY 12L, RWY 12R, RWY 17. NOTICE TO AIRMEN. RWYS 4, 22 CLSD. TWY R7. R8. R9. R10. CLOSED. TWY R BTWN R6 AND R10 CLSD, TWY A7 CLSD, TWY A CLSD BTN TWY, A7 AND TWY D. ALL ACFT CTC METERING ON ONE THREE THREE POINT FIVE SEVEN WHEN READY TO PUSHBACK OR TAXI. CTN, BIRDS NEAR MSP. READ BACK HS AND ALT. ALL ACFT TAXI WITH TRANSPONDER AND ALTITUDE ENCODING ON. ...ADVS YOU HAVE INFO V.",
    "CYEG": "[Arrival ATIS] CYEG ARR ATIS K 0600Z 21003KT 20SM FEW140 12/11 A2990 APCH RNAV Z OR Y RWY 02, INFORM ARRL OF REQ APCH ON INITIAL CTC. LDG AND DEP RWY 02. SIMUL APPROACHES MAY BE IN EFCT. INFORM CYEG ATC INFO K\n[Departure ATIS] CYEG DEP ATIS J 0500Z CYEG ARR ATIS J 0500Z VRB02KT 20SM SCT140 SCT250 13/12 A2989 APCH RNAV Z OR Y RWY 02, INFORM ARRL OF REQ APCH ON INITIAL CTC. LDG AND DEP RWY 02. SIMUL APPROACHES MAY BE IN EFCT. INFORM CYEG ATC INFO J",
    "EHAM": "[Arrival ATIS] EHAM ARR ATIS M 0701Z EHAM ARRIVAL INFO M. DEMAND. MAIN LANDING RWY 06. TRANSITION LEVEL 040. WIND 360 DEG, 4 KT, VRB BTN 310 AND 050 DEG. VIS 10 KM OR MORE. CLD FEW 1800 FT. T 23. DP 19. QNH 1024 HPA. NOSIG. OPERATIONAL REPORT. CONTACT APCH WITH CALLSIGN ONLY. END OF INFO M\n[Departure ATIS] EHAM DEP ATIS O 0921Z EHAM DEPARTURE INFO O. DEMAND. MAIN DEPARTURE RWY 36 L. MAIN LANDING RWY 06. WIND 050 DEG, 5 KT, VRB BTN 270 AND 100 DEG, 13 KT MAX, 4 KT MNM. VIS 10 KM OR MORE. CLD FEW 1300 FT. T 20. DP 17. QNH 1021 HPA. OPERATIONAL REPORT. INFORM SCHIPHOL DEL BY VOICE IF UNABLE TO COMPLY WITH NADP 2. END OF INFO O",
    "EBBR": "[Arrival ATIS] EBBR ARR ATIS J 0820Z EBBR NAT, EXP VECT FOR ILS APP ARR RWY01 RSCD AT 0623 RWY01 DRY. DEP RWY07R TRL 055 XNG RWY OPS INPR 080/9KT VRB BTN 050 AND 110 CAVOK T25 DP15 QNH 1023HPA NOSIG CFM ARR J\n[Departure ATIS] EBBR DEP ATIS I 1015Z EBBR NAT, DEP RWY07R RSCD AT 0645 RWY07R DRY. ARR RWY01 TRL 055 XNG RWY OPS INPR 060/12KT MNM7 MAX17 CAVOK T30 DP14 QNH 1023HPA NOSIG CFM DEP I",
    "EDDF": "[Arrival ATIS] EDDF ARR ATIS X 1050Z -ARR-ATIS EDDF X METAR 121050 -EXPECT INDEPENDENT PARALLEL ILS Y APCH RWY 07L OR ILS APCH RWY 07R -RWY 07L 07R -GLS APCH ON REQUEST , -TRL 60 -CAUTION : BIRD ACTIVITY IN THE VICINITY OF THE AD -VRB07KT -CAVOK - - -T30 DP09 -QNH1022 - -TREND NOSIG\n[Departure ATIS] EDDF DEP ATIS K 1020Z DEP-ATIS EDDF K METAR 121020 RWY 07C 18 ACFT DEPARTING RWY18 : EXPECT POSSIBLE DEPARTURE FROM INTERSECTION M , TORA 3454 METERS. IF UNABLE , ADVISE TWR ON INITIAL CONTACT , TRL 60 CAUTION : BIRD ACTIVITY IN THE VICINITY OF THE AD 04009KT 010V160 RWY18 09008KT CAVOK T30 DP10 QNH1022 TREND NOSIG END OF ATIS K",
    "EDDL": "[Arrival ATIS] EDDL ARR ATIS E 0650Z ATIS EDDL E METAR 120650 EXPECT VECTORS ILS APPROACH RWY 05R TWY L2 , L4 AND L5 BTN TWY M AND RWY05R CLOSED ATTENTION, RISK OF TWY INCURSION WHEN TAXIING TO RWY05R, CHECK HOT SPOTS T1 AND L9 ON TAXI CHART TRL 60 04005KT 010V080 CAVOK T24 DP14 QNH1023 TREND NOSIG\n[Departure ATIS] EDDL DEP ATIS R EDDL ARR/DEP DATIS RPT -ATIS EDDL R METAR 020550 -EXPECT VECTORS ILS APPROACH -RWY 23L -TWY L8 CLOSED BETWEEN TWY M AND RWY 23L -TRL 60 - -23010KT -CAVOK - - -T19 DP13 -QNH1020 - -TREND NOSIG",
    "EDDK": "[Arrival ATIS] EDDK ARR ATIS I 0750Z -ATIS EDDK I METAR 120750 -EXPECT ILS APCH RWY 13L -RWY 13L 06 -RWY COND RWY 13L AT TIME 0700 RWYCC 6 DEPOSIT TOTAL RWY DRY RWY 06 AT TIME 0700 RWYCC 6 DEPOSIT TOTAL RWY DRY TWY A2 CLOSED. ALL ACFT LANDING ON RWY13L: YOU MAY ANYTIME VACATE VIA RWY24 IF YOU ARE UNABLE VIA A3 -TRL 60 -RWY 13R AND RWY 31L CLOSED FOR DEPARTURE AND LANDING: TAXIING BTN THR RWY 13R AND INTERSECTION RWY 24 POSSIBLE : -08006KT 050V130 -CAVOK - - -T26 DP13 -QNH1022 - -TREND NOSIG\n[Departure ATIS] EDDK DEP ATIS Q EDDK ARR/DEP DATIS RPT -ATIS EDDK Q METAR 291920 -EXPECT ILS APCH -RWY 31R 06 -RWY COND RWY 31R AT TIME 1830 RWYCC 6 DEPOSIT TOTAL RWY DRY RWY 06 AT TIME 1830 RWYCC 6 DEPOSIT TOTAL RWY DRY -TRL 60 -RWY 13R AND RWY 31L CLOSED FOR DEPARTURE AND LANDING: TAXIING BTN THR RWY 13R AND INTERSECTION RWY 24 POSSIBLE : -04003KT -CAVOK - - -T24 DP13 -QNH1024 - -TREND NOSIG",
    "EBLG": "[Arrival ATIS] EBLG ATIS L 1059Z EBLG INFO, ARR RWY04R DEP RWY04R RWY 04R DRY, RWYCC 666. TRL 055 ADZ ON GND FREQ IF UNABLE S2 060/12KT VRB BTN 360 AND 080 MNM5 MAX21 CAVOK T29 DP12 QNH 1023HPA NOSIG CFM ATIS L",
    "LSZH": "[Arrival ATIS] LSZH ARR ATIS M 0820Z ARRIVALS, EXP ILS APCH, RWY 14. TRL 70. DEP RWY 28. WIND 030 DEG, 7 KT, VRB BTN 010 AND 080 DEG. CAVOK. T 24. DP 12. QNH 1021. NOSIG.\n[Departure ATIS] LSZH DEP ATIS O 0820Z DEP RWY 28. TRL 70. ARRIVALS, EXP ILS APCH, RWY 14. TMA S 1 IS NOT ACT. TMA S 2 AND S 3 ARE NOT ACT. WIND 040 DEG, 6 KT, VRB BTN 010 AND 080 DEG. CAVOK. T 24. DP 12. QNH 1021. NOSIG.",
    "LIMC": "[Arrival ATIS] LIMC ARR ATIS X 1050Z LIMC ARR X 1050Z I.L.S. ZULU RWY IN USE 35L TL 70 WIND TDZ VRB7KT CAVOK T30 DP17 QNH 1017HPA QFE 0992HPA\n[Departure ATIS] LIMC DEP ATIS P 2350Z LIMC DEP P 2350Z RWY IN USE 17R TL 70 WIND END 020/4KT CAVOK T23 DP19 QNH 1023HPA QFE 0995HPA DATALINK CLEARANCE AVAILABLE.... CONTACT 1 3 1 8 8 0 TO BE RELEASED BY THE AIRPORT OPERATOR ...",
    "LIRF": "[Arrival ATIS] LIRF ARR ATIS F 1020Z LIRF ARR F 1020Z RWY 16L ILS W RWY 16R ILS Z RWY IN USE 16L 16R TL 70 DEPENDENT PARL ILS APCH INPR RWY IN USE 16R OR 16L ASSIGNED BY ROME RADAR WIND RWY 16L TDZ 230/12KT RWY 16R TDZ 230/9KT VRB BTN 180/AND 250/ CAVOK T32 DP20 QNH 1015HPA RRSM\n[Departure ATIS] LIRF DEP ATIS V 0650Z LIRF DEP V 0650Z RWY IN USE 25 TL 70 RWY IN USE FOR ARR 16L WIND END 060/6KT CAVOK T28 DP20 QNH 1015HPA REA IS SENT AUTOMATICALLY ONCE RLSD BY RAMP WHEN READY CONTACT FIUME RAMP 121.725 RRSM",
    "EINN": "[Arrival ATIS] EINN ARR ATIS L 1030Z EXPECT I L S CATEGORY 1 LDG RWY06 TKOF RWY06 TRL FL060 VRB04KT 9999 FEW022 25/17 QNH Q1024 TREND NOSIG ADVISE AT FIRST CONTACT YOU HAVE ATIS INFO L",
    "EGLL": "[Arrival ATIS] EGLL ARR ATIS D 1050Z LANDING RWY 09L TRANSITION-LEVEL: FL 70 RUNWAY 09L REDUCED DECLARED DISTANCES IF STAND GUIDANCE IS OFF OR FAILS, REMAIN ON THE TAXIWAY CENTRELINE AND ADVISE ATC AUTO 07014KT 9999 NCD 27/15 Q1024 TURBULENCE POSSIBLE ON FINAL APPROACH ACKNOWLEDGE RECEIPT OF INFORMATION D\n[Departure ATIS] EGLL DEP ATIS Q 1050Z DEPARTURE RWY 09R PILOTS THAT ARE IN RECEIPT OF DATALINK CLEARANCES ARE REMINDED THEY MUST CONTACT DELIVERY ON 121.980 WHEN READY FOR START DATALINK CLEARANCES NOT AVAILABLE FOR CPT DEPARTURES RUNWAY 09L REDUCED DECLARED DISTANCES RUNWAY ENTRY POINT AB13 UNAVAILABLE FOR 09L AUTO 06017KT 040V100 9999 NCD 27/15 Q1024 TURBULENCE MAY BE EXPERIENCED ON DEPARTURE ACKNOWLEDGE RECEIPT OF INFORMATION Q AND REPORT AIRCRAFT TYPE AND CURRENT QNH ON FIRST CONTACT WITH HEATHROW",
    "EPWA": "[Arrival ATIS] EPWA ARR ATIS J 1101Z EPWA ARR J. TIME 1100. EXP U ARR ILS Z APCH FOR RWY 33. RWY 33 RCC 5, 5, 5. 1ST PART, WET. 2ND PART, WET. 3RD PART, WET. RWY REPORT END. TRANSITION LEVEL 80. WIND 300 DEG, 3 KT, VRB BTN 280 AND 340 DEG. VIS TDZ 10 KM OR MORE. WX FBL RA. CLD BKN 900 FT. T 16. DP 15. QNH 1015. TREND TEMPO VIS 4000 M, FBL DZ. CAUTION. BIRD ACT. END OF EPWA ARR J\n[Departure ATIS] EPWA DEP ATIS Y 0452Z EPWA DEP Y. TIME 0452. DEP RWY 29. ARR RWY 33, EXP U ARR ILS Z. REPORT READY FOR STARTUP ON DELIVERY 121 DECIMAL 605. RWY 29 RCC 5, 5, 5. 1ST PART, WET. 2ND PART, WET. 3RD PART, WET. RWY REPORT END. TRANSITION LEVEL 80. WIND 240 DEG, 7 KT. VIS MID 10 KM OR MORE. CLD SCT 800 FT, CLD BKN 3000 FT. T 15. DP 14. QNH 1014. TREND BECMG CLD BKN 800 FT. CAUTION. BIRD ACT. END OF EPWA DEP Y",
    "EFHK": "[Arrival ATIS] EFHK ARR ATIS R 1053Z EXPECT ILS APCH ARR RWY 04L RUNWAY 04L CONDITION REPORT AT 1051 UTC RUNWAY CONDITION CODES 5 , 5 , 5 CONTAMINANTS ALL PARTS 100 PERCENT WET TRL 60 SPECIAL WIND 350 DEG 12 KT VIS 10KM MOD SHRA FEW CB 7500 FT T 24 DP 21 QNH 1017 TEMPO VIS 7KM MOD TSRA ACK INFO R\n[Departure ATIS] EFHK DEP ATIS W 1920Z DEP RWY 04R RUNWAY 04R CONDITION REPORT AT 1839 UTC RUNWAY CONDITION CODES 4 DOWNGRADED , 4 DOWNGRADED , 4 DOWNGRADED CONTAMINANTS ALL PARTS 100 PERCENT WET WIND 330 DEG 4 KT VRB BTN 310 AND 100 DEG VIS 10KM FEW 2000 FT. FEW CB 4000 FT T 18 DP 18 QNH 1017 RETSRA NOSIG ACK INFO W",
    "LTAC": "[Arrival ATIS] LTAC ARR ATIS P 0950Z EXP ILS V APCH 03C DEP RWY 03L RWY 03C WIND 140 DEG 05 KT VRB BTN 040 DEG AND 200 DEG RWY 03L WIND VRB 05 KT TRL 110 CAVOK T 28 DP 08 QNH 1016 NOSIG FOR DELIVERY CTC 121.9. FOR DELIVERY FIRST USE DIGITAL DEP CLR. CTN BIRD HAZARD OVR AERODROME. APCH FREQUENCY 129.050. END OF ATIS P",
    "UBBB": "[Arrival ATIS] UBBB ARR ATIS A 0630Z ATIS A EXP ILS/ LDG 34 35 DEP 34 35 IN USE RWY 35 CLEAR DRY 70 RWY 34 CLEAR DRY 70 MOD TURB INAPCH BTN 4000 AND 2000 FT TLVL 110 WIND WIND RWY 34 340 26 KT SPD MAX 36 MIN 16 WIND RWY 35 330 26 KT SPD MAX 36 MIN 18 VIS CAVOK T 26 / DP 18 QNH 1014 HPA TREND TREND NOSIG MODERATE BIRDS ACT IN VICINITY OF AP END OF ATIS A\n[Departure ATIS] UBBB DEP ATIS U 0420Z ATIS U EXP ILS/ LDG 34 35 DEP 34 35 IN USE RWY 34 CLEAR DRY 70 RWY 35 CLEAR DRY 70 TLVL 110 WIND WIND RWY 34 340 20 KT SPD MAX 28 MIN 16 WIND RWY 35 330 20 KT SPD MAX 28 MIN 16 VIS CAVOK T 28 / DP 20 QNH 1013 HPA TREND TREND NOSIG MODERATE BIRDS ACT IN VICINITY OF AP END OF ATIS U",
    "ZWWW": "[Arrival ATIS] ZWWW ARR ATIS R 0600Z EXP ILSDME Z APCH LDG RWY 26R TA 3000 WIND 340/4MPS VRB BTN 300/ AND 010/ CAVOK T 34 /DP 10 QNH 1008 HPA ADZ YOU HAVE INFO R.\n[Departure ATIS] ZWWW DEP ATIS O 0600Z DEP RWY 26L TA 3000 WIND 340/4MPS VRB BTN 300/ AND 010/ CAVOK T 34 /DP 10 QNH 1008 HPA ADZ YOU HAVE INFO O.",
    "ZLXY": "[Arrival ATIS] ZLXY ARR ATIS B 1000Z EXP ILS APCH LDG RWY 23R & 24L WIND 250/2MPS VRB BTN 200/ AND 300/ VIS 9999M CLD FEW 1500M T 33 /DP 19 QNH 1004 HPA VISUAL APPROACH IN PROGRESS ADZ YOU HAVE INFO B.\n[Departure ATIS] ZLXY DEP ATIS T 0600Z DEP RWY 05L & 06L WIND 030/3MPS VIS 4000M -RA BR CLD FEW 210M /SCT 600M /OVC 990M T 20 /DP 19 QNH 1012 HPA RUNWAY 05L SURFACE CONDITION CODE 555 RUNWAY 06L SURFACE CONDITION CODE 555 ADZ YOU HAVE INFO T.",
    "ZBAA": "[Arrival ATIS] ZBAA ARR ATIS R 0700Z EXP ILS APCH DEPENDENT PARL INSTR APCH LDG RWY 18R & 18L & 19 WIND 190 DEG 7 MPS 150V210 DEG CAVOK T 30 /DP 09 QNH 1010 HPA VISUAL APPROACH IS IN PROGRESS. ADZ YOU HAVE INFO R.\n[Departure ATIS] ZBAA DEP ATIS E 0100Z DEP RWY 36L & 36R & 01 WIND VRB DEG 2 MPS CAVOK T 25 /DP 11 QNH 1012 HPA RWY INDEPENDENT PARALLEL DEP VISUAL APPROACH IS IN PROGRESS. ADZ YOU HAVE INFO E.",
    "ZBHH": "[Arrival ATIS] ZBHH ARR ATIS Z 0500Z EXP ILSDME APCH LDG RWY 26 TA 3000 /TRL 3600 WIND 250/6MPS VRB BTN 220/ AND 290/ CAVOK T 24 /DP 04 QNH 1012 HPA ADZ YOU HAVE INFO Z.\n[Departure ATIS] ZBHH DEP ATIS Q 1500Z DEP RWY 08 TA 3000 /TRL 3600 WIND 140/2MPS VIS 5000M BR NSC T 19 /DP 19 QNH 1007 HPA ADZ YOU HAVE INFO Q.",
    "ZSQD": "[Arrival ATIS] ZSQD ARR ATIS H 0700Z EXP ILSDME APCH LDG RWY 35 TA 3000 /TRL 3600 WIND 020/4MPS CAVOK T 29 /DP 13 QNH 1010 HPA SEGREGATED OPERATION VISUAL APPROACH OPERATION IN PROGRESS. RUNWAY 35,IF MISSED APPROACH,EXPECT FOLLOW THE STANDARD MISSED APPROACH PROCEDURE,CLIMB TO 1200M ON QNH OR BY ATC CAUTION MAYBE THERE IS A FLOCK OF BIRDS IN THE VICINITY OF AIRPORT ADZ YOU HAVE INFO H.\n[Departure ATIS] ZSQD DEP ATIS A 0000Z DEP RWY 34 TA 3000 /TRL 3600 WIND 020/4MPS CAVOK T 25 /DP 17 QNH 1010 HPA SEGREGATED OPERATION VISUAL APPROACH OPERATION IN PROGRESS. RUNWAY 35,IF MISSED APPROACH,EXPECT FOLLOW THE STANDARD MISSED APPROACH PROCEDURE,CLIMB TO 1200M ON QNH OR BY ATC CAUTION MAYBE THERE IS A FLOCK OF BIRDS IN THE VICINITY OF AIRPORT ADZ YOU HAVE INFO A."
  },
  "windtemp_alaska": "\n000\nFBAK31 KWNO 120801\nFD1AK1\nDATA BASED ON 120600Z    \nVALID 121200Z   FOR USE 0800-1500Z. TEMPS NEG ABV 24000\n\nFT  3000    6000    9000   12000   18000   24000  30000  34000  39000\nADK 2423 2526+07 2628+05 2632+02 2543-09 2446-21 257636 258446 258558\nADQ 2205 2309+03 2110-03 2013-08 2220-18 2033-30 193445 212847 252345\nAKN 1812 1814+00 1822-04 2023-09 2127-21 2224-31 212646 232943 262741\nANC 1411 1718+03 1919-02 1724-07 1832-18 1834-29 183944 174254 192348\nANN 2806 9900+00 9900-04 0806-10 0711-23 0912-35 071849 061645 020742\nBET 1825 2018-01 1920-07 1824-12 1626-22 1633-35 162240 231437 261940\nBRW 1016 1006+05 2705+01 2409-05 2212-18 2119-28 191943 202053 201754\nBTI 1014 2107+10 2514+02 2518-04 2720-16 2518-27 252443 262553 251957\nBTT 2213 2120+04 1825-01 1731-07 1627-16 1733-28 173244 173454 171950\nCDB 2822 2831+02 2841+00 2847-05 2850-16 2982-24 790439 790548 298250\nCZF 1806 9900-01 9900-06 9900-11 0806-21 1115-32 100644 291041 271441\nEHM 2420 2623-03 2625-05 2627-09 2637-22 2752-33 285339 284539 283641\nFAI 2810 2116+04 1825+00 1827-06 1923-17 1730-27 173244 173954 182851\nFYU 2723 2316+10 2211+01 2111-05 1917-15 1925-27 172443 172053 172357\nGAL 2122 2223+00 2221-05 1815-10 1728-19 1733-31 164346 154448 182143\nGKN 1724 1923+04 1921+00 1919-04 1924-17 1828-28 192444 183153 182255\nHOM 1213 1522+02 1617-02 1816-07 1825-18 1830-30 174545 183550 211946\nJNU 9900 2405+02 9900-01 9900-05 0513-18 0526-30 064545 055254 051949\nLUR 1619 1420+05 1323-01 1329-06 1432-17 1621-29 132744 132652 132051\nMCG 2014 2017+00 1919-05 1926-10 1829-19 1734-31 175047 164048 182444\nMDO 1513 1712+04 1820+00 1724-05 1726-16 1826-27 192743 202254 202053\nOME 2024 1819-02 1520-04 1511-07 0808-20 0815-31 081445 081247 990041\nORT      9900+09 1811+02 1812-04 1919-15 1920-28 192443 202153 181260\nOTZ 1617 1719+02 1717-03 1421-07 1125-19 0941-31 085247 093549 111444\nSNP 2923 2823+01 2727-02 2728-07 2849-14 2878-24 780238 780848 287750\nTKA 1813 1920+02 1921-02 1830-07 1835-19 1837-28 173945 174754 192448\nUNK 1918 1826-01 1823-05 1918-10 1613-21 1715-32 141947 151945 191242\nYAK 9900 2809+04 2814+02 2907-04 9900-15 0506-28 111243 090853 990058\nIKO 2723 2731+07 2837+03 2848+01 2856-10 2857-21 275337 274948 286758\nAFM 1718 1521+01 1523-02 1524-07 1231-18 1429-29 134145 144451 162746\n5AB 2620 2618+08 2716+05 2712+01 2312-11 2107-22 990038 091047 990056\n5AC 2605 2506-01 9900-04 3407-09 3321-21 3230-33 334246 333846 332644\n5AD 2023 2018+06 2212+02 2409-03 2711-14 2820-24 282641 285852 296356\n5AE 2518 2620+04 2721-01 2725-06 2745-17 2753-28 288943 287546 275046\n5AF 2105 9900+04 3606-01 0210-06 0319-19 0238-30 034546 034253 362149\n5AG 1511 1809+06 1811+01 1911-04 1509-15 1206-28 230543 160553 330758\n",
  "vaac_tokyo": [
    {
      "id": "20260712_27303000_0725",
      "year": "2026",
      "volcano": "Mayon",
      "psn": "N1315 E12341",
      "issued": "20260712",
      "text": "FVFE01 RJTD 120911\nVA ADVISORY\nDTG: 20260712/0911Z\nVAAC: TOKYO\nVOLCANO: MAYON 273030\nPSN: N1315 E12341\nAREA: PHILIPPINES\nSOURCE ELEV: 2462M AMSL\nADVISORY NR: 2026/725\nINFO SOURCE: HIMAWARI-9 PHIVOLCS\nERUPTION DETAILS: ERUPTION AT 20260712/0858Z FL090 EXTD NE REPORTED\nOBS VA DTG: 12/0900Z\nOBS VA CLD: VA NOT IDENTIFIABLE FM SATELLITE DATA WIND FL090 230/13KT\nFCST VA CLD +6 HR: NOT AVBL\nFCST VA CLD +12 HR: NOT AVBL\nFCST VA CLD +18 HR: NOT AVBL\nRMK: WE WILL ISSUE FURTHER ADVISORY IF VA IS DETECTED IN SATELLITE \nIMAGERY.\nNXT ADVISORY: NO FURTHER ADVISORIES=",
      "img_url": "https://ds.data.jma.go.jp/svd/vaac/data/VAGFN/2026/Images/20260712_27303000_0725_QH21_01.png",
      "sat_img_url": null,
      "text_url": "https://ds.data.jma.go.jp/svd/vaac/data/TextData/2026/20260712_27303000_0725_Text.html"
    },
    {
      "id": "20260712_28208001_0079",
      "year": "2026",
      "volcano": null,
      "psn": "N3136 E13039",
      "issued": "20260712",
      "text": "FVFE01 RJTD 120839\nVA ADVISORY\nDTG: 20260712/0839Z\nVAAC: TOKYO\nVOLCANO: SAKURAJIMA (AIRA CALDERA) 282080\nPSN: N3136 E13039\nAREA: JAPAN\nSOURCE ELEV: 1117M AMSL\nADVISORY NR: 2026/79\nINFO SOURCE: JMA HIMAWARI-9\nERUPTION DETAILS: ERUPTED AT 20260712/0757Z FL100 STNR\nOBS VA DTG: 12/0820Z\nOBS VA CLD: SFC/FL100 N3136 E13038 - N3142 E13039 - N3141 E13044 - \nN3134 E13040 MOV N 15KT\nFCST VA CLD +6 HR: 12/1420Z SFC/FL100 N3304 E13054 - N3218 E13111 - \nN3219 E13051 - N3304 E13032\nFCST VA CLD +12 HR: 12/2020Z SFC/FL100 N3359 E13155 - N3233 E13152 - \nN3237 E13122 - N3406 E13111\nFCST VA CLD +18 HR: NO VA EXP\nRMK: NIL\nNXT ADVISORY: 20260712/1200Z=",
      "img_url": "https://ds.data.jma.go.jp/svd/vaac/data/VAGFN/2026/Images/20260712_28208001_0079_QH21_01.png",
      "sat_img_url": "https://ds.data.jma.go.jp/svd/vaac/data/Sat/2026/Images/28208001/09-ir/20260712_0820_202607120839_ir.png",
      "text_url": "https://ds.data.jma.go.jp/svd/vaac/data/TextData/2026/20260712_28208001_0079_Text.html"
    },
    {
      "id": "20260712_30019000_0003",
      "year": "2026",
      "volcano": "Krasheninnikov",
      "psn": "N5436 E16016",
      "issued": "20260712",
      "text": "FVFE01 RJTD 120130\nVA ADVISORY\nDTG: 20260712/0130Z\nVAAC: TOKYO\nVOLCANO: KRASHENINNIKOV 300190\nPSN: N5436 E16016\nAREA: RUSSIA\nSOURCE ELEV: 1816M AMSL\nADVISORY NR: 2026/3\nINFO SOURCE: HIMAWARI-9\nERUPTION DETAILS: VA AT 20260712/0100Z FL080 EXTD SE\nOBS VA DTG: 12/0100Z\nOBS VA CLD: SFC/FL080 N5440 E16023 - N5412 E16045 - N5402 E16033 - \nN5434 E16013 MOV SE 20KT\nFCST VA CLD +6 HR: 12/0700Z SFC/FL080 N5310 E16258 - N5251 E16229 - \nN5302 E16111 - N5436 E16016\nFCST VA CLD +12 HR: 12/1300Z SFC/FL090 N5233 E16425 - N5158 E16444 - \nN5210 E16103 - N5446 E16008 - N5251 E16216\nFCST VA CLD +18 HR: 12/1900Z SFC/FL090 N5142 E16614 - N5044 E16548 - \nN5213 E15943 - N5432 E15924 - N5448 E16118 - N5223 E16227\nRMK: NIL\nNXT ADVISORY: 20260712/0600Z=",
      "img_url": "https://ds.data.jma.go.jp/svd/vaac/data/VAGFN/2026/Images/20260712_30019000_0003_QH21_01.png",
      "sat_img_url": "https://ds.data.jma.go.jp/svd/vaac/data/Sat/2026/Images/30019000/09-ir/20260712_0100_202607120130_ir.png",
      "text_url": "https://ds.data.jma.go.jp/svd/vaac/data/TextData/2026/20260712_30019000_0003_Text.html"
    },
    {
      "id": "20260711_30025000_0049",
      "year": "2026",
      "volcano": "Bezymianny",
      "psn": "N5558 E16036",
      "issued": "20260711",
      "text": "FVFE01 RJTD 111800\nVA ADVISORY\nDTG: 20260711/1800Z\nVAAC: TOKYO\nVOLCANO: BEZYMIANNY 300250\nPSN: N5558 E16036\nAREA: RUSSIA\nSOURCE ELEV: 2882M AMSL\nADVISORY NR: 2026/49\nINFO SOURCE: HIMAWARI-9\nERUPTION DETAILS: NO ERUPTION. RE-SUSPENDED VA\nOBS VA DTG: 11/1720Z\nOBS VA CLD: SFC/FL100 N5600 E16036 - N5611 E16048 - N5550 E16122 - \nN5542 E16205 - N5538 E16115 MOV E 20KT\nFCST VA CLD +6 HR: 11/2320Z SFC/FL110 N5452 E16402 - N5457 E16227 - \nN5557 E16037 - N5548 E16151\nFCST VA CLD +12 HR: 12/0520Z SFC/FL110 N5409 E16553 - N5356 E16453 - \nN5424 E16245 - N5558 E16036 - N5519 E16239 - N5434 E16317\nFCST VA CLD +18 HR: NO VA EXP\nRMK: RE-SUSPENDED VA. \nNXT ADVISORY: 20260712/0000Z=",
      "img_url": "https://ds.data.jma.go.jp/svd/vaac/data/VAGFN/2026/Images/20260711_30025000_0049_QH21_01.png",
      "sat_img_url": "https://ds.data.jma.go.jp/svd/vaac/data/Sat/2026/Images/30025000/09-ir/20260711_1720_202607111800_ir.png",
      "text_url": "https://ds.data.jma.go.jp/svd/vaac/data/TextData/2026/20260711_30025000_0049_Text.html"
    }
  ],
  "vaac_alaska": [
    {
      "text": "\n000\nFVAK21 PAWU 111230\nVAAAK1\nVA ADVISORY\n\nDTG: 20260711/1224Z\n\nVAAC: ANCHORAGE\n\nVOLCANO: SHEVELUCH 300270\n\nPSN: N5639 E16122\n\nAREA: KAMCHATKA PENINSULA\n\nSOURCE ELEV: 10771 FT AMSL\n\nADVISORY NR: 2026/193\n\nRMK: PLEASE SEE FVXX2 KNES ISSUED BY VAAC WASHINGTON WHICH DESCRIBES\nCONDITIONS NEAR THE VAAC ANCHORAGE AREA OF RESPONSIBILITY...CC\n\n\n\n",
      "issued": "2026-07-11T12:30:00+00:00",
      "volcano": "Sheveluch",
      "psn": "N5639 E16122"
    }
  ]
}