{
  "updated_utc": "2026-07-11T20:25Z",
  "metar": {
    "RJAA": "METAR RJAA 111830Z AUTO 16005KT 9999 NSC 23/22 Q1011 NOSIG",
    "PANC": "METAR PANC 111853Z 06003KT 10SM CLR 18/11 A2977 RMK AO2 SLP081 T01780106",
    "PAFA": "METAR PAFA 111853Z 05005KT 7SM FEW100 SCT120 22/14 A2961 RMK AO2 SLP031 T02170139",
    "PAED": "METAR PAED 111855Z 00000KT 10SM BKN150 19/10 A2975 RMK AO2A SLP070 T01940104 $",
    "KSEA": "METAR KSEA 111853Z VRB03KT 10SM FEW020 SCT080 19/09 A3002 RMK AO2 SLP171 T01940089 $",
    "ZSPD": "METAR ZSPD 111830Z 11010G16MPS 9999 BKN013 27/27 Q0993 NOSIG",
    "ZSSS": "METAR ZSSS 111830Z 11009MPS 080V140 9999 BKN014 27/25 Q0992 BECMG TL1930 BKN015",
    "RJFR": "METAR RJFR 111900Z AUTO 05013KT 9999 FEW027 25/24 Q1012",
    "VHHH": "METAR VHHH 111830Z 21013KT 9999 FEW010 30/26 Q0997 NOSIG",
    "RCTP": "METAR RCTP 111830Z 22013KT 9999 -RA FEW012 SCT050 BKN100 29/23 Q0993 NOSIG RMK A2933",
    "ZGSZ": "METAR ZGSZ 111900Z 16003MPS CAVOK 29/27 Q0997 NOSIG",
    "WSSS": "METAR WSSS 111830Z 15005KT 120V180 9999 FEW018 BKN300 28/24 Q1010 NOSIG",
    "WMKK": "METAR WMKK 111830Z VRB03KT 9000 FEW030 27/25 Q1009 NOSIG",
    "WIDD": "METAR WIDD 111830Z AUTO 17002KT 9999 BKN024 OVC055 26/24 Q1010 NOSIG",
    "VTBS": "METAR VTBS 111830Z 20005KT 9999 FEW020 28/23 Q1004 NOSIG",
    "VTBU": "METAR VTBU 111830Z 23007KT 9000 FEW020 29/27 Q1005 NOSIG",
    "ROAH": "METAR ROAH 111830Z AUTO 15023KT 8000 OVC009 27/26 Q1006",
    "VVDN": "METAR VVDN 111830Z 24003KT 9999 FEW020 BKN070 29/22 Q1000 NOSIG",
    "RCKH": "METAR RCKH 111900Z 19009KT 150V220 9999 FEW014 SCT030 BKN110 30/26 Q0999 NOSIG RMK QFF 999.0HPA A2950",
    "KLAX": "METAR KLAX 111853Z 14006KT 10SM FEW012 FEW017 SCT240 SCT280 24/16 A2996 RMK AO2 SLP143 T02390156 $",
    "KONT": "METAR KONT 111853Z 25008G15KT 10SM BKN280 29/14 A2994 RMK AO2 SLP123 T02940144 $",
    "KSFO": "METAR KSFO 111856Z 32017KT 10SM FEW008 SCT200 18/11 A2995 RMK AO2 SLP141 T01780111 $",
    "KOAK": "METAR KOAK 111853Z 27010KT 10SM FEW006 FEW010 BKN200 17/11 A2996 RMK AO2 SLP145 T01720111",
    "KMHR": "METAR KMHR 111835Z AUTO 25006KT 10SM CLR 27/11 A2987 RMK AO2 T02730111 $",
    "KDFW": "METAR KDFW 111853Z 17007KT 140V210 10SM BKN060 BKN250 34/20 A3001 RMK AO2 SLP150 T03440200 $",
    "KIAH": "METAR KIAH 111853Z 02009KT 10SM FEW014 BKN140 BKN170 27/24 A3009 RMK AO2 SLP189 SHRA DSNT N-E W-NW T02720239",
    "KORD": "METAR KORD 111851Z 05014G19KT 10SM FEW015 SCT250 27/16 A3007 RMK AO2 SLP179 T02720161 $",
    "KJFK": "METAR KJFK 111851Z 10010KT 10SM FEW030 SCT080 BKN100 BKN250 24/20 A2997 RMK AO2 SLP148 VCSH S T02440200 $",
    "KRFD": "METAR KRFD 111854Z 07007KT 10SM FEW049 SCT060 28/17 A3008 RMK AO2 SLP183 T02830172",
    "KIND": "SPECI KIND 111843Z 03005KT 10SM FEW023 SCT028 BKN110 27/21 A3002 RMK AO2 T02670206",
    "KDTW": "METAR KDTW 111853Z 08009KT 10SM BKN040 BKN220 28/13 A3005 RMK AO2 SLP173 T02780128 $",
    "KMSP": "METAR KMSP 111853Z 21008KT 10SM SCT045 30/19 A3009 RMK AO2 SLP182 T03000194 $",
    "CYEG": "METAR CYEG 111900Z 10005KT 070V140 20SM BKN027 BKN250 21/16 A2976 RMK CU6CI1 SLP078 DENSITY ALT 3800FT",
    "EHAM": "METAR EHAM 111855Z 04009KT 010V070 CAVOK 24/18 Q1021 NOSIG",
    "EBBR": "METAR EBBR 111850Z 03008KT CAVOK 27/17 Q1019 NOSIG",
    "EDDF": "METAR EDDF 111850Z AUTO 03013KT CAVOK 29/08 Q1018 NOSIG",
    "EDFH": "METAR EDFH 111850Z 06006KT 010V110 CAVOK 25/12 Q1020",
    "EDDL": "METAR EDDL 111850Z AUTO 05008KT CAVOK 28/10 Q1019 NOSIG",
    "EDDK": "METAR EDDK 111850Z AUTO 04008KT CAVOK 28/13 Q1018 NOSIG",
    "EBLG": "METAR EBLG 111850Z 03011KT CAVOK 28/14 Q1019 NOSIG",
    "LSZH": "METAR LSZH 111850Z 07005KT CAVOK 29/12 Q1017 NOSIG",
    "LIMC": "METAR LIMC 111850Z 27005KT 200V340 CAVOK 26/13 Q1015 NOSIG",
    "LIRF": "METAR LIRF 111850Z 20005KT 170V230 CAVOK 28/22 Q1015 NOSIG",
    "EINN": "METAR EINN 111830Z 04011KT CAVOK 26/17 Q1023 NOSIG",
    "EGLL": "METAR EGLL 111850Z AUTO 10012KT 9999 NCD 26/16 Q1020",
    "EGSS": "METAR EGSS 111850Z AUTO 05010KT 9999 NCD 23/15 Q1022",
    "EPWA": "METAR EPWA 111830Z 32006KT 9999 -SHRA SCT038CB 17/14 Q1016 NOSIG",
    "UHPP": "METAR UHPP 111830Z 35004MPS CAVOK 12/10 Q1012 R34L/CLRD62 NOSIG RMK QFE755/1007",
    "EFHK": "METAR EFHK 111850Z 13004KT 9999 -TSRA FEW018 SCT040CB 19/17 Q1018 BECMG -SHRA",
    "LBBG": "METAR LBBG 111830Z AUTO 13008KT 9999 NSC 23/18 Q1017 NOSIG",
    "LTAC": "METAR LTAC 111850Z VRB01KT CAVOK 22/01 Q1018 NOSIG RMK RWY21C VRB01KT RWY03L VRB02KT RWY21R 03003KT 320V130 RWY03R VRB02KT RWY21L 03004KT 310V090",
    "UBBB": "METAR UBBB 111830Z 34012KT CAVOK 27/22 Q1013 NOSIG",
    "UTAA": "METAR UTAA 111900Z 29016KT 9999 NSC 34/18 Q1007 R88/CLRD70 NOSIG",
    "UACC": "METAR UACC 111830Z 08006MPS CAVOK 23/15 Q1013 NOSIG RMK QFE728/0971",
    "UAAA": "METAR UAAA 111830Z 18002MPS 9999 FEW100 23/12 Q1005 NOSIG",
    "UZTT": "METAR UZTT 111830Z 08006KT 060V120 4000 FU FEW066CB 30/11 Q1003 NOSIG",
    "ZWWW": "METAR ZWWW 111830Z 17003MPS CAVOK 28/08 Q1005 NOSIG",
    "ZLXY": "METAR ZLXY 111900Z 24003MPS 9999 FEW026 BKN050 23/21 Q1008 NOSIG",
    "ZBAA": "METAR ZBAA 111830Z VRB01MPS 9999 -SHRA OVC040 25/24 Q1002 NOSIG",
    "ZBHH": "METAR ZBHH 111900Z 19002MPS 160V230 3500 BR SCT030 19/19 Q1010 NOSIG",
    "ZSQD": "METAR ZSQD 111900Z 15003MPS 120V180 9999 BKN010 26/25 Q1006 NOSIG",
    "ZMCK": "METAR ZMCK 111830Z 29006MPS 9999 -RA FEW027CB BKN030 09/08 Q1006 NOSIG RMK QFE640.2 96 NT",
    "UUEE": "METAR UUEE 111830Z 31003G08MPS 250V360 9999 SCT049 19/17 Q1012 R24L/290145 R24C/290145 NOSIG",
    "UUDD": "METAR UUDD 111830Z 36003MPS CAVOK 18/17 Q1011 R13R/290045 NOSIG",
    "ULLI": "METAR ULLI 111830Z 36003MPS 320V060 9000 -TSRA BKN020CB 19/17 Q1017 R88/290050 TEMPO VRB17MPS 2000 TSRA SQ BKN010 BKN017CB",
    "USSS": "METAR USSS 111830Z 00000MPS 9000 NSC 20/20 Q1011 R08R/CLRD60 R08L/CLRD60 NOSIG RMK QFE738/0984",
    "UNNT": "METAR UNNT 111830Z 34003MPS CAVOK 12/11 Q1013 R07/CLRD// R34/////// NOSIG RMK QFE750/1000",
    "UNKL": "METAR UNKL 111830Z 28002MPS 9000 NSC 09/09 Q1011 R29/CLRD// NOSIG RMK QFE733",
    "UIBB": "METAR UIBB 111830Z AUTO 28002MPS 9999 // ///062/// 11/09 Q1008 RMK QFE713/0951",
    "UEEE": "METAR UEEE 111830Z 33002MPS CAVOK 11/09 Q1007 R23/09//61 NOSIG RMK QFE747",
    "UHHH": "METAR UHHH 111830Z 13001MPS 5000 BR FEW030 21/21 Q1003 R23L/090060 NOSIG RMK QFE746/0994",
    "UHSS": "METAR UHSS 111900Z 00000MPS 2500 R19/1600D -SHRA BR BKN008 OVC///CB 18/18 Q1007 R19/290060 NOSIG RMK MT OBSC QFE754/1005"
  },
  "taf": {
    "RJAA": "TAF RJAA 111705Z 1118/1300 22006KT 9999 FEW015 BKN030 TEMPO 1209/1212 FEW003 BKN008 TEMPO 1212/1215 FEW001 BKN005 TEMPO 1215/1221 4000 -SHRA BR FEW001 BKN005 TEMPO 1221/1300 FEW003 BKN008",
    "PANC": "TAF PANC 111735Z 1118/1224 07006KT P6SM FEW080 FM112000 22012G20KT P6SM OVC060 FM120300 16012G20KT P6SM VCSH OVC060 FM121300 15008KT P6SM -SHRA SCT030 OVC060",
    "PAFA": "TAF PAFA 111728Z 1118/1224 07007KT P6SM BKN100 FM112200 22010G20KT P6SM BKN100 PROB30 1201/1204 P6SM -SHRA BKN050 FM120600 25008KT P6SM OVC050 FM121200 VRB03KT P6SM OVC050",
    "PAED": "TAF PAED 111300Z 1113/1219 03004KT 9999 FEW055 SCT180 QNH2975INS BECMG 1120/1121 26010G20KT 9999 SCT200 QNH2975INS BECMG 1208/1209 30005KT 9999 -SHRA BKN030 QNH2979INS TX16 TN10/1212Z",
    "KSEA": "TAF KSEA 111720Z 1118/1224 20004KT P6SM SCT025 BKN070 FM112000 23008KT P6SM SCT035 SCT060 FM120300 22012G21KT P6SM BKN035 BKN060 FM121100 20008KT P6SM BKN035 BKN060",
    "ZSPD": "TAF ZSPD 111522Z 1118/1224 10017G25MPS 6000 SHRA BKN013 TX30/1206Z TN26/1121Z TN27/1221Z TEMPO 1118/1122 2800 +SHRA BKN009 FEW030CB TEMPO 1122/1202 +SHRA BKN009 FEW030CB BECMG 1202/1204 16018G27MPS -SHRA BKN016 TEMPO 1207/1211 SHRA BKN013 FEW030CB BECMG 1213/1215 16012G21MPS",
    "ZSSS": "TAF ZSSS 111522Z 1118/1224 10011G22MPS 6000 SHRA BKN013 TX31/1206Z TN27/1121Z TN28/1221Z TEMPO 1118/1122 2800 +SHRA BKN009 FEW030CB TEMPO 1122/1202 +SHRA BKN009 FEW030CB BECMG 1202/1204 16015G25MPS -SHRA BKN020 BECMG 1207/1209 16010G18MPS TEMPO 1207/1211 SHRA BKN011",
    "RJFR": "TAF AMD RJFR 111938Z 1119/1300 07010KT 9999 FEW005 SCT007 BKN012 TEMPO 1119/1203 FEW003 BKN005 TEMPO 1206/1215 BKN005 TEMPO 1215/1300 0900 FG FEW003 BKN005 BECMG 1221/1300 09008KT",
    "VHHH": "TAF VHHH 112000Z 1121/1303 22015KT 9999 FEW010 TX34/1206Z TN29/1122Z TN28/1222Z",
    "RCTP": "TAF RCTP 111700Z 1118/1224 21020G32KT 9999 FEW015 BKN100 BECMG 1204/1206 23010KT BECMG 1211/1213 18005KT",
    "ZGSZ": "TAF ZGSZ 111508Z 1118/1224 20004MPS 8000 FEW040 TX34/1206Z TN28/1122Z TN28/1222Z",
    "WSSS": "TAF WSSS 111700Z 1118/1300 17008KT 9999 FEW015 SCT020",
    "WMKK": "TAF WMKK 111700Z 1118/1300 VRB03KT 9999 FEW030 TEMPO 1122/1201 5000 TSRA FEW017CB",
    "VTBS": "TAF VTBS 111700Z 1118/1224 23008KT 9999 FEW020 TEMPO 1209/1213 VRB15KT 4000 TSRA FEW018CB SCT020 BKN080",
    "VTBU": "TAF VTBU 111700Z 1118/1218 24006KT 9000 FEW020",
    "ROAH": "TAF ROAH 111705Z 1118/1300 16024KT 9999 FEW010 BKN015 TEMPO 1118/1121 16028G38KT FEW006 BKN008 TEMPO 1121/1209 16025G35KT",
    "VVDN": "TAF VVDN 111700Z 1118/1218 23006KT 9999 FEW020 SCT070 BECMG 1206/1207 02010KT BECMG 1213/1214 24006KT",
    "RCKH": "TAF RCKH 111700Z 1118/1224 20010KT 9999 FEW015 BKN032 TEMPO 1118/1124 20015G25KT FEW012 BKN018 BKN030 TEMPO 1200/1206 5000 SHRA FEW012 FEW015TCU BKN020 BECMG 1206/1208 17010KT TEMPO 1212/1218 5000 SHRA FEW012 BKN018 BKN030 TEMPO 1218/1224 10005KT 4000 SHRA FEW012 BKN017 BKN030",
    "KLAX": "TAF KLAX 111740Z 1118/1224 18005KT P6SM SCT018 BKN250 FM111900 25010KT P6SM SCT018 BKN250 FM120600 25006KT P6SM BKN015 FM121100 25004KT P6SM OVC009 FM121400 VRB03KT P6SM OVC012 FM121800 26005KT P6SM OVC020 FM122000 26010KT P6SM BKN250",
    "KONT": "TAF KONT 111728Z 1118/1224 VRB03KT P6SM SCT250 FM111900 25011G18KT P6SM SCT150 FM120100 25010KT P6SM SCT150 FM120400 25007KT P6SM SCT150 FM120900 VRB04KT P6SM FEW150 FM121900 25010G19KT P6SM SCT200",
    "KSFO": "TAF KSFO 111726Z 1118/1224 31012KT P6SM FEW008 BKN200 FM112000 30015KT P6SM SCT200 FM120800 29011KT P6SM SCT100 FM121500 33006KT P6SM SCT015 FM122000 30013KT P6SM SCT200",
    "KOAK": "TAF KOAK 111726Z 1118/1224 28011KT P6SM SCT200 FM121000 31007KT P6SM SCT010 SCT200 FM121800 30012KT P6SM SCT200",
    "KMHR": "TAF KMHR 111722Z 1118/1218 VRB05KT P6SM SCT250 FM112000 22011KT P6SM BKN250 FM120600 17008KT P6SM OVC150",
    "KDFW": "TAF KDFW 111720Z 1118/1224 19012KT P6SM SCT250 FM122000 16012KT P6SM VCTS SCT050CB BKN100",
    "KIAH": "TAF KIAH 112015Z 1120/1224 02006KT P6SM VCTS SCT035CB SCT120 BKN150 TEMPO 1121/1123 VRB25KT 3SM TSRA BKN030CB FM120000 14007KT P6SM FEW035 SCT150 FM120300 VRB03KT P6SM SCT025 FM121700 VRB05KT P6SM VCSH FEW040 PROB30 1217/1222 VRB10G15KT P6SM TS BKN040CB",
    "KORD": "TAF KORD 111720Z 1118/1224 05012KT P6SM FEW015 BKN250 FM120200 02005KT P6SM SKC FM121500 06008KT P6SM SKC",
    "KJFK": "TAF KJFK 111931Z 1120/1224 10009KT P6SM SCT050 BKN250 FM112200 12009KT P6SM FEW080 BKN250 FM120300 VRB05KT P6SM FEW080 SCT250 FM121500 10009KT P6SM FEW080 FM121800 15010KT P6SM SCT080 SCT250",
    "KRFD": "TAF KRFD 111720Z 1118/1218 06010KT P6SM SCT250 FM120200 03004KT P6SM SKC FM121500 08008KT P6SM SKC",
    "KIND": "TAF KIND 111725Z 1118/1224 35005KT P6SM VCSH SCT006 BKN019 FM112000 02005KT P6SM VCSH SCT015 BKN035 TEMPO 1120/1122 5SM -SHRA BKN020 FM120000 04006KT P6SM SCT035 BKN100",
    "KDTW": "TAF KDTW 111723Z 1118/1224 06010KT P6SM BKN045 BKN250 FM120100 03005KT P6SM FEW060 SCT250 FM121400 06010KT P6SM SKC",
    "KMSP": "TAF KMSP 111720Z 1118/1224 19007KT P6SM SCT040 FM120200 19008KT P6SM SKC FM121500 22009G18KT P6SM FEW250",
    "CYEG": "TAF AMD CYEG 111850Z 1118/1218 08010G20KT P6SM SCT030 BKN260 TEMPO 1118/1120 BKN030 OVC260 FM112000 04012KT P6SM SCT015 BKN050 OVC090 TEMPO 1120/1121 VRB20G30KT 2SM +TSRA BKN015 BKN050 OVC090CB FM112100 04012KT P6SM SCT015 BKN050 OVC090 TEMPO 1121/1123 P6SM -SHRA BKN015 BKN050 OVC090 PROB40 1121/1123 VRB20G30KT 2SM +TSRA BKN015 OVC050CB FM112300 30012G22KT P6SM SCT012 BKN050 OVC080 TEMPO 1123/1124 P6SM -SHRA VCTS BKN012 BKN050 OVC080CB FM120000 30012KT P6SM FEW020 SCT080 BKN120 BECMG 1202/1204 VRB03KT FM120400 VRB03KT P6SM BKN080 TEMPO 1204/1208 P6SM -SHRA FM120800 12005KT P6SM FEW006 FEW070 FM121000 12005KT P6SM SCT004 PROB40 1210/1215 1/2SM FG VV002 RMK NXT FCST BY 112100Z",
    "EHAM": "TAF EHAM 111709Z 1118/1224 05010KT CAVOK PROB30 TEMPO 1204/1206 BKN006",
    "EBBR": "TAF EBBR 111712Z 1118/1224 04008KT CAVOK",
    "EDDF": "TAF EDDF 111700Z 1118/1224 04009KT CAVOK TEMPO 1118/1121 03014KT TEMPO 1218/1221 04014KT",
    "EDFH": "TAF EDFH 111700Z 1118/1218 08008KT CAVOK",
    "EDDL": "TAF EDDL 111700Z 1118/1224 04011KT CAVOK BECMG 1119/1122 03004KT BECMG 1207/1210 03009KT",
    "EDDK": "TAF EDDK 111700Z 1118/1224 06007KT CAVOK BECMG 1121/1124 VRB03KT BECMG 1209/1212 04007KT BECMG 1221/1223 VRB03KT",
    "EBLG": "TAF EBLG 111712Z 1118/1224 03008KT CAVOK",
    "LSZH": "TAF LSZH 111725Z 1118/1224 09006KT CAVOK TX32/1215Z TN16/1203Z BECMG 1119/1121 32004KT BECMG 1206/1208 04005KT BECMG 1208/1210 07011KT BECMG 1218/1220 05004KT",
    "LIMC": "TAF LIMC 111700Z 1118/1224 VRB05KT CAVOK PROB40 TEMPO 1118/1121 26015G30KT 4000 TSRA",
    "LIRF": "TAF LIRF 111700Z 1118/1224 VRB05KT CAVOK PROB30 TEMPO 1202/1205 SHRA BECMG 1209/1211 26010KT BECMG 1216/1218 32010KT BECMG 1222/1224 VRB05KT",
    "EINN": "TAF EINN 111700Z 1118/1218 02010KT CAVOK PROB30 TEMPO 1205/1207 BKN008 BECMG 1207/1209 07010KT",
    "EGLL": "TAF EGLL 111653Z 1118/1224 07010KT CAVOK TEMPO 1122/1208 BKN012 PROB30 TEMPO 1201/1207 BKN008",
    "EGSS": "TAF EGSS 111653Z 1118/1224 05011KT CAVOK BECMG 1121/1124 BKN010 TEMPO 1200/1206 BKN006 BECMG 1206/1209 CAVOK",
    "EPWA": "TAF AMD EPWA 111924Z 1119/1218 VRB04KT 9999 SCT040 TEMPO 1119/1121 1500 +SHRA BKN003 BKN015CB PROB30 TEMPO 1119/1121 TSRA PROB40 TEMPO 1121/1203 3000 SHRA BR BKN005 BKN030CB BECMG 1123/1202 BKN010 TEMPO 1203/1210 2500 -DZRA BR BKN002 OVC007 BECMG 1210/1213 02010KT BKN025",
    "UHPP": "TAF UHPP 111938Z 1121/1303 34003G12MPS 9999 NSC TX28/1203Z TN11/1217Z TEMPO 1202/1209 18005MPS",
    "EFHK": "TAF AMD EFHK 111910Z 1118/1218 14005KT 9999 FEW025 SCT040 TEMPO 1119/1121 SHRA FEW040CB PROB30 TEMPO 1120/1121 4000 +TSRA PROB30 TEMPO 1205/1209 FEW035CB BECMG 1209/1211 SCT035CB TEMPO 1209/1217 6000 TSRA PROB30 TEMPO 1212/1216 2500 +TSGR BECMG 1213/1215 34010KT BECMG 1217/1218 SCT035",
    "LBBG": "TAF LBBG 111700Z 1118/1218 13012KT 9999 SCT045 BECMG 1118/1120 VRB04KT BECMG 1208/1210 12012KT PROB30 TEMPO 1214/1218 5000 TSRA FEW030CB BKN040",
    "LTAC": "TAF LTAC 111640Z 1118/1218 VRB02KT CAVOK TEMPO 1212/1216 03012KT",
    "UBBB": "TAF UBBB 111659Z 1118/1218 34014KT CAVOK TX31/1210Z TN23/1201Z BECMG 1200/1202 33018G28KT SCT015 TEMPO 1202/1212 35022G32KT FEW060CB TEMPO 1212/1218 35012KT",
    "UTAA": "TAF UTAA 111645Z 1118/1218 30016KT 6000 SCT050 TEMPO 1206/1214 30018G28KT 3000 DRDU BECMG 1216/1218 26016KT",
    "UACC": "TAF UACC 111701Z 1118/1218 04003MPS 9999 SCT040 BKN100 TX32/1209Z TN18/1201Z TEMPO 1118/1206 08005MPS TEMPO 1206/1218 08006MPS SCT030CB",
    "UAAA": "TAF UAAA 111704Z 1118/1218 24002G07MPS 9999 SCT100 TX35/1210Z TN20/1201Z BECMG 1204/1205 32005MPS FEW050CB BECMG 1215/1216 22002MPS SCT050CB BKN100",
    "UZTT": "TAF UZTT 111700Z 1118/1218 22010KT 7000 NSC TX39/1211Z TN25/1200Z TEMPO 1118/1124 28010G20KT FEW060CB PROB40 TEMPO 1118/1124 -TSRA BKN050CB",
    "ZWWW": "TAF ZWWW 111507Z 1118/1224 18004MPS CAVOK TX37/1209Z TN26/1123Z TN26/1223Z BECMG 1202/1203 36004MPS BECMG 1214/1215 18004MPS",
    "ZLXY": "TAF AMD ZLXY 111840Z 1118/1218 24004MPS 5000 -RA BR NSC TX33/1208Z TN24/1121Z BECMG 1200/1201 HZ",
    "ZBAA": "TAF AMD ZBAA 111932Z 1118/1224 12004MPS 5000 BR NSC TX30/1207Z TN25/1121Z TN23/1221Z TEMPO 1118/1120 2800 +SHRA BR",
    "ZBHH": "TAF ZBHH 111505Z 1118/1218 24004MPS 2000 BR BKN030 TX28/1208Z TN17/1122Z TEMPO 1120/1123 0800 FG BECMG 1200/1201 4000",
    "ZSQD": "TAF ZSQD 111501Z 1118/1218 16007MPS 3500 BR BKN010 TX31/1204Z TN25/1120Z TEMPO 1203/1207 13012G17MPS BECMG 1207/1208 10008MPS",
    "ZMCK": "TAF ZMCK 111631Z 1118/1224 30008MPS 9999 RA FEW020 FEW027CB BKN030 TN07/1121Z TX17/1207Z BECMG 1201/1203 31009MPS NSW FEW030CB SCT033 BECMG 1210/1212 VRB02MPS",
    "UUEE": "TAF COR UUEE 111952Z 1121/1221 34003G08MPS 9999 FEW007 BKN030 TX23/1213Z TN17/1201Z TEMPO 1121/1206 3500 -TSRA BKN016CB TEMPO 1210/1218 VRB18MPS 1500 TSRA SQ BKN020CB BECMG 1218/1219 05005MPS TEMPO 1219/1221 4900 -SHRA OVC007 BKN016CB",
    "UUDD": "TAF UUDD 111955Z 1121/1303 03003MPS 6000 -RA FEW006 BKN016 TX21/1211Z TN16/1201Z TEMPO 1121/1206 -TSRA BKN016CB TEMPO 1206/1219 03008G16MPS 2000 TSRA BKN016CB",
    "ULLI": "TAF ULLI 111953Z 1121/1221 35005G11MPS 6000 BKN016 TX30/1212Z TN18/1201Z TEMPO 1121/1124 VRB13MPS 2000 TSRA SQ FEW010 BKN017CB BECMG 1200/1201 02003MPS TEMPO 1200/1204 0300 FG BKN002 BECMG 1206/1208 05006G13MPS TEMPO 1208/1218 3100 -TSRA BKN016CB",
    "USSS": "TAF USSS 111954Z 1121/1221 24003MPS 6000 SCT020 TEMPO 1121/1202 0300 FG VV002 FM120200 29003G14MPS 9999 BKN030CB TEMPO 1202/1216 -TSRAGR FM121600 02003MPS 6000 SCT020",
    "UNNT": "TAF UNNT 112000Z 1121/1221 34003G08MPS 8000 BKN040 TX24/1210Z TN12/1122Z BECMG 1203/1206 05008G14MPS BECMG 1212/1215 11003G08MPS",
    "UNKL": "TAF UNKL 111948Z 1121/1221 30003MPS 6000 SCT040 TEMPO 1121/1122 0400 FG BECMG 1122/1124 0400 FG VV002 BECMG 1201/1202 6000 NSW SCT040 BECMG 1204/1206 01005MPS BECMG 1209/1212 09003MPS",
    "UIBB": "TAF UIBB 112000Z 1121/1221 30003MPS 0300 FG BKN001 BKN020CB TEMPO 1121/1201 5000 BR FEW003 BKN020CB BECMG 1201/1203 9999 NSW NSC TEMPO 1203/1212 VRB08MPS",
    "UEEE": "TAF UEEE 112000Z 1121/1303 34003G08MPS 9999 SCT030CB TEMPO 1121/1124 SCT007 BKN030CB",
    "UHHH": "TAF UHHH 111951Z 1121/1303 VRB01MPS 3100 BR FEW010 TX30/1205Z TN23/1218Z FM120000 23003MPS 9999 SCT020CB TEMPO 1202/1212 25008MPS 5000 -TSRA",
    "UHSS": "TAF UHSS 111950Z 1121/1303 18003MPS 9999 -SHRA BKN007 BKN016CB TEMPO 1121/1203 0550 FG BKN002 BKN016CB"
  },
  "atis": {
    "RJAA": "[Arrival ATIS] RJAA ARR ATIS Y 0233Z M0230 (APCH)ILS Z RWY34R LDG RWY 34R DEP RWY 34L DEP FREQ 124.2. TWY A1 CLSD. OBSERVE GEAR DOWN OPS PROC ON FNL. M 210230Z 31008KT 25KM SCT005ST BKN010CU 25/22 Q0999/A2952= Q/TWO NINE FIVE TWO STP\n[Departure ATIS] RJAA DEP ATIS Y 0233Z M0230 (APCH)ILS Z RWY34R LDG RWY 34R DEP RWY 34L DEP FREQ 124.2. TWY A1 CLSD. OBSERVE GEAR DOWN OPS PROC ON FNL. M 210230Z 31008KT 25KM SCT005ST BKN010CU 25/22 Q0999/A2952= Q/TWO NINE FIVE TWO STP",
    "PANC": "[Arrival ATIS] PANC ARR ATIS V 1953Z ANC ATIS INFO V 1953Z. 22010G19KT 200V270 10SM CLR 18/09 A2977 (TWO NINER SEVEN SEVEN). VISUAL APPROACHES IN USE. LANDING RWY 15, DEPARTING RWY 25L, 15. NOTICE TO AIRMEN. TWY Q CLSD. TWY R CLSD BTWN TWY, S AND TWY T . TWY K BTWN A AND D RESTRICTED TO AIRCRAFT WITH WINGSPAN LESS THAN 118 FEET. CONTACT TOWER 118.3 FOR TAXI. ...ADVS YOU HAVE INFO V.\n[Departure ATIS] PANC DEP ATIS L 0953Z ANC ATIS INFO L 0953Z. 23003KT 10SM FEW045 FEW060 FEW080 FEW220 14/10 A2980 (TWO NINER EIGHT ZERO). 7R, VISUAL APPROACHES IN USE. LNDG AND DEPG RWY 7L, LANDING RWY 7R, 7L, D",
    "KSEA": "[Arrival ATIS] KSEA ARR ATIS B 1853Z SEA ATIS INFO B 1853Z. VRB03KT 10SM FEW020 SCT080 19/09 A3002 (THREE ZERO ZERO TWO). ILS AND CHARTED VISUAL APPROACH RWYS 16R AND 16L , APCH IN USE. DEPG RWY 16L, DEPG ACFT\n[Departure ATIS] KSEA DEP ATIS M 1653Z - KSEA ATIS INFO M 1653Z. 19006KT 10SM FEW020 BKN080 18/09 A3003 (THREE ZERO ZERO THREE). ILS AND CHARTED VISUAL APPROACH RWYS 16R AND 16L , APCH IN USE. DEPG RWY 16L, DEPG ACFT PLAN AND BRIEF NUMBERS FOR BOTH RWYS 16L AND 16C. SIMUL APCHS IN USE, BFI & SEA. TRAFFIC BELOW YOU ON FINAL. SIMUL APCHS IN USE TO PARA RYS. NOTAMS... BIRD ACTIVITY VICINITY ARPT. ...ADVS YOU HAVE INFO M.",
    "ZSPD": "[Arrival ATIS] ZSPD ARR ATIS A 0230Z EXP ILS APCH INDEPENDENT PARL INSTR APCH LDG RWY 17R & 16L WIND RWY 17R TDZ 080/3MPS VRB BTN 050/ AND 120/ MID 100/3MPS END 120/4MPS VRB BTN 080/ AND 150/ RWY 16L TDZ 110/3MPS MID 100/3MPS END 110/3MPS VIS RWY 17R TDZ 10000M MID 10000M END 10000M VIS RWY 16L TDZ 10000M MID 10000M END 10000M CLD BKN 600M T 26 /DP 25 QNH 1010 HPA CAUTION THE BIRDS NEAR THE RUNWAY ADZ YOU HAVE INFO A.\n[Departure ATIS] ZSPD DEP ATIS Z 0200Z DEP RWY 17L & 16R WIND RWY 17L TDZ 160/3MPS MID 130/3MPS END VRB/3MPS RWY 16R TDZ 140/3MPS MID 140/3MPS END 140/3MPS VIS RWY 17L TDZ 10000M MID 10000M END 10000M VIS RWY 16R TDZ 10000M MID 10000M END 10000M CLD BKN 300M T 26 /DP 25 QNH 1010 HPA CAUTION THE BIRDS NEAR THE RUNWAY ADZ YOU HAVE INFO Z.",
    "ZSSS": "[Arrival ATIS] ZSSS ARR ATIS R 0200Z EXP ILS APCH LDG RWY 18L WIND RWY 18L TDZ 130/3MPS MID 100/2MPS END 100/2MPS VIS RWY 18L TDZ 5000M MID 4900M END 5000M FBL SHRA BR CLD SCT 450M T 26 /DP 24 QNH 1010 HPA RWY18L RWYCC 5/5/5 ISSUED AT 0030 WET/WET/WET DPT NR/NR/NR COV 100PCT/100PCT/100PCT RWY18R RWYCC 5/5/5 ISSUED AT 0030 WET/WET/WET DPT NR/NR/NR COV 100PCT/100PCT/100PCT QNH OF SHANGHAI TERMINAL CONTROL AREA 1010 HPA ADZ YOU HAVE INFO R.\n[Departure ATIS] ZSSS DEP ATIS P 1245Z DEP RWY 18R WIND RWY 18R TDZ 180/2MPS MID 170/2MPS END 150/2MPS VIS RWY 18R TDZ 10000M MID 10000M END 10000M CLD FEW 990M T 27 /DP 24 QNH 1007 HPA QNH OF SHANGHAI TERMINAL CONTROL AREA 1008 HPA ADZ YOU HAVE INFO P.",
    "VHHH": "[Arrival ATIS] VHHH ARR ATIS D 0204Z ARRIVALS, RWY 25R/L. EXP RNAV TRANSITION TO ILS APCH, RWY 25R. RNP APCH IS AVBL ON REQ, RWY 25R. EXP ILS APCH RWY 25L CAUTION POSSIBLE GP FLUCTUATION RWY 25L. WIND RWY 25L 230/08KT RWY 25R 220/09KT. VIS RWY 25L 10KM RWY 25R 10KM. CLD FEW 1200FT SCT 2500FT. T32 DP24. QNH 1011HPA. ACK INFO D ON FIRST CTC WITH APP.\n[Departure ATIS] VHHH DEP ATIS R 0208Z DEPARTURES, RWY 25C/L. INDEPENDENT PARALLEL DEPARTURE IN PROGRESS. WIND RWY 25L 210/06KT RWY 25C 200/09KT. VIS RWY 25L 10KM RWY 25C 10KM. CLD FEW 1200FT SCT 2500FT. T32 DP24. QNH 1011HPA. ACK INFO R ON FIRST CTC WITH DELIVERY .",
    "RCTP": "[Arrival ATIS] RCTP ARR ATIS P 0130Z EXP ILS APCH RWY23R AND RWY23L ARR/DEP. WIND 220/09KT VIS 10 KM OR MORE CLD FEW 2000FT SCT 25000FT T 33 DP 24 QNH 1010HPA NOSIG DUE TO FLOW CONTROL BY HONGKONG AND FUKUOKA F-I-R, TRAFFIC CONCERNED MAY BE DELAYED. CTN BIRD ACTIVITY IN THE VCY OF THE AD. INFORM TAIPEI APCH OR TAIPEI TOWER ON INITIAL CONTACT YOU HAVE INFORMATION P\n[Departure ATIS] RCTP DEP ATIS L 2330Z EXP ILS APCH RWY23R AND RWY23L ARR/DEP. WIND 210/08KT VIS 10 KM OR MORE CLD FEW 1500FT BKN 20000FT T 29 DP 23 QNH 1011HPA NOSIG DUE TO FLOW CONTROL BY HONGKONG F-I-R, TRAFFIC CONCERNED MAY BE DELAYED. CTN BIRD ACTIVITY IN THE VCY OF THE AD. INFORM TAIPEI APCH OR TAIPEI TOWER ON INITIAL CONTACT YOU HAVE INFORMATION L",
    "ZGSZ": "[Arrival ATIS] ZGSZ ARR ATIS Z 0200Z EXP ILS APCH 15 EXP ILS OR VIS APCH 16R WIND 170/6MPS VIS 9999M CLD FEW 600M T 31 /DP 27 QNH 1011 HPA INDEPENDENT PARALLEL DEPARTURES DEPENDENT PARALLEL APPROACHES MISSED APPROACH ALTITUDE SETTING 1200METERS WHEN AIRBORNE CONTACT ZHUHAI APPROACH EXPECTED RNP ILS DME Z APPROACH ADZ YOU HAVE INFO Z.\n[Departure ATIS] ZGSZ DEP ATIS X 0100Z DEP RWY 15 & 16L WIND 160/6MPS VIS 9999M CLD FEW 600M T 30 /DP 27 QNH 1011 HPA INDEPENDENT PARALLEL DEPARTURES DEPENDENT PARALLEL APPROACHES MISSED APPROACH ALTITUDE SETTING 1200METERS WHEN AIRBORNE CONTACT ZHUHAI APPROACH EXPECTED RNP ILS DME Z APPROACH ADZ YOU HAVE INFO X.",
    "WSSS": "[Arrival ATIS] WSSS ARR ATIS N 0230Z METREPORT 0230Z ILS APCHRWY 20R SIMUL INDEPENDENT ILS AND VISUAL APPROACHES ARE CONDUCTED ON RWY 20. TWY W 9 CLOSED, RWY 02C 20C RAPID EXIT TAXIWAY INDICATOR LIGHTS OFF WIND 160/ 08KT VRB BTN120 AND190 VIS 10KM CLD FEW TCU 1700FT SCT 1800FT T30 DP25 QNH 1012HPA NOSIG ACK ATIS N\n[Departure ATIS] WSSS DEP ATIS L 0100Z METREPORT 0100Z RWY 20C SIMUL INDEPENDENT ILS AND VISUAL APPROACHES ARE CONDUCTED ON RWY 20. TWY W 9 CLOSED, RWY 02C 20C RAPID EXIT TAXIWAY INDICATOR LIGHTS OFF WIND 170/ 05KT VRB BTN100 AND210 VIS 10KM CLD SCT 1600FT FEW TCU 1800FT T30 DP26 QNH 1012HPA NOSIG DEP,INITIAL CMB 3000FT ACK ATIS L",
    "WMKK": "[Arrival ATIS] WMKK ARR ATIS D 0204Z WMKK ARR INFO D. TIME 0200. INDEPENDENT PARALLEL APPROACHES FOR RWY 14 L AND 15 ARE IN PROGRESS. EXP RNAV / ILS APCH FOR RWY 14 LEFT. EXP RNAV / ILS APCH FOR RWY 15. WIND RWY 14L DIRECTION NOT AVBL SPEED NOT AVBL. WIND RWY 15 DIRECTION NOT AVBL SPEED NOT AVBL. VIS RWY 14L TDZ NOT AVBL. VIS RWY 15 TDZ NOT AVBL. CLD FEW 1800 FT. T 31. DP 24. QNH 1012. NOSIG. AT FIRST CONTACT WITH LUMPUR RADAR, NOTIFY RCPT OF D\n[Departure ATIS] WMKK DEP ATIS Y 1504Z WMKK DEP INFO Y. TIME 1500. INDEPENDENT PARALLEL DEPARTURES FOR RWY 14 R AND 15 ARE IN PROGRESS. RWY 14 RIGHT. RWY 15. WIND RWY 14R DIRECTION NOT AVBL SPEED NOT AVBL. WIND RWY 15 DIRECTION NOT AVBL SPEED NOT AVBL. VIS RWY 14R TDZ NOT AVBL. VIS RWY 15 TDZ NOT AVBL. CLD FEW 3000 FT. T 28. DP 25. QNH 1012. NOSIG. ALL DEP ACFT TO CONTACT LUMPUR DEP AT 135 DECIMAL 25 MHZ WHEN ABN. AT FIRST CONTACT WITH LUMPUR GROUND, NOTIFY RCPT OF Y",
    "VTBS": "[Arrival ATIS] VTBS ARR ATIS K 0230Z VTBS ARR ATIS K 0230Z EXP ILS Z APCH ARR RWY 19 OR RNP APCH RWY 20R , ,PILOT SHALL ADZ BKK APCH ON INITIAL CTC IF UNA TO CONDUCT RNP APCH DUE TO OPERATIONAL CONSTRAINT 0230Z WIND VRB3KT VIS 10KM CLD FEW 2000FT T32 DP22 QNH 1011HPA TREND NOSIG ADZ BKK APCH ON INITIAL CONTACT THAT YOU HAVE INFO K\n[Departure ATIS] VTBS DEP ATIS S 0200Z VTBS DEP ATIS S 0201Z SIMULTANEOUS INDEPENDENT PARL DEP IN PROGRESS DEP RWY 20L OR DEP RWY 19 , ,AFT AIRBORNE ALL DEPARTING ACFT SHALL CTC 119.25 0200Z WIND 270/3KT VRB BTN 200/ AND 330/ VIS 10KM CLD FEW 2000FT T31 DP22 QNH 1011HPA TREND NOSIG ADZ GND WHEN INITIAL CONTACT YOU HAVE INFO S",
    "VTBU": "[Arrival ATIS] VTBU ARR ATIS U 0430Z VTBU ARR ATIS U 0430Z RNP RWY 18 TRL FL130 MOBILE ACFT ARST SYSTEM INSTL ATP SIX HUNDRED AND TEN METERS FM THR RWY 36 CABLE HGT 3 INCHES. 0430Z WIND 360/6KT VRB BTN 320/ AND 020/ VIS 10KM CLD FEW 2000FT T34 DP27 QNH 1010HPA TREND NOSIG ADZ CONTROLLER WHEN INITIAL CONTACT YOU HAVE INFO U\n[Departure ATIS] VTBU DEP ATIS D VTBU ARR/DEP DATIS RPT VTBU ARR ATIS D 0330Z ILS \"Z\" APCH RWY 18 TRL FL130 0330Z WIND 110/4KT VRB BTN 350/ AND 120/ VIS 6KM CLD FEW 2000FT T31 DP27 QNH 1014HPA TREND NOSIG ADZ CONTROLLER WHEN INITIAL CONTACT YOU HAVE INFO D",
    "ROAH": "[Arrival ATIS] ROAH ARR ATIS T 0102Z M0100 (APCH)RNP RWY18R LDG RWY 18R DEP RWY 18L DEP FREQ 126.5 258.3 M 210100Z 19007KT 50KM FEW010CU 29/27 Q1012/A2990= Q/TWO NINE NINE ZERO STP\n[Departure ATIS] ROAH DEP ATIS F 1204Z M1200 (APCH)RNP RWY18R LDG RWY 18R DEP RWY 18L DEP FREQ 119.175 316.0 M 201200Z 18011KT 40KM FEW006ST 27/26 Q1012/A2989= Q/TWO NINE EIGHT NINE STP",
    "VVDN": "[Arrival ATIS] VVDN ARR ATIS A 1332Z VVDN INFO A 1332Z. ILS ZULU RWY 35L. DPTG RWY 35R.. 1332Z. WIND CALM CAVOK T31 DP24 QNH 1001HPA TREND NOSIG. ADZ ON INITIAL CTC YOU HAVE INFO. A.\n[Departure ATIS] VVDN DEP ATIS R 0503Z VVDN INFO R 0503Z. ILS VICTOR APPROACH 35L.. DPTG RWY 35R.. 0502Z. WIND 090/05KT VRB BTN 070/ AND 140/ CAVOK T37 DP23 QNH 1007HPA TREND NOSIG. ADZ ON INITIAL CTC YOU HAVE INFO. R.",
    "RCKH": "[Arrival ATIS] RCKH ARR ATIS F 0130Z EXPECT ILS APPROACH RWY 09 ARR/DEP TAXIWAY JULIETT, TAXIWAY BRAVO, TAXIWAY DELTA AND TAXIWAY ECHO CLOSED DUE MAINTENANCE. RUNWAY 0 9 ARRIVALS PLAN VACATE VIA CHARLIE OR FOXTROT AND EXPEDITE VACATE. WIND 320/05KT VARYING BTN 270 AND 040 VIS 10 KM OR MORE CLD SCT 2000FT BKN 22000FT T 32 DP 23 QNH 1010HPA NOSIG CAUTION BIRD ACTIVITY IN VICINITY OF THE AERODROME. INFORM KAO-HSIUN APCH OR KAO-HSIUN TOWER ON INITIAL CONTACT YOU HAVE INFORMATION F\n[Departure ATIS] RCKH DEP ATIS J 0630Z EXPECT ILS APPROACH RWY 27 ARR/DEP TAXIWAY JULIETT, TAXIWAY BRAVO, TAXIWAY DELTA AND TAXIWAY ECHO CLOSED DUE MAINTENANCE.RUNWAY 2 7 ARRIVALS PLAN VACATE VIA CHARLIE OR A",
    "KLAX": "[Arrival ATIS] KLAX ARR ATIS G 1753Z LAX ATIS INFO G 1753Z. 16008G16KT 10SM SCT019 SCT240 24/16 A2996 (TWO NINER NINER SIX) RMK AO2 SLP144 T02390156 10239 20194 51012. SIMUL INST APCHS AND RNAV RNP RWYS 24R AND 25L APCHS, AND SIMUL APCHS IN PROG BTWN LAX AND HHR, SIMUL INSTR DEPARTURES IN PROG 25R, 24R. CTC L A GC ON 121.75 FOR PUSH OR TAXI ON A. RWY 2 4 LEFT 6 RIGHT CLSD. TWY B CLSD BTN TWY, C10 AND TWY C7 , , TWY B6 CLSD, TWY B7 CLSD, TWY C CLSD BTN TWY, C1 AND TWY C3, TWY C1 CLSD, TWY C9 CLSD BTN TWY, B AND TWY C, TWY C8 CLSD BTN TWY, B AND TWY C, TWY Y CLSD BTN RWY, 24R AND TWY E. RY 25R SFL OTS, RY 24L ALSF-2 OTS. LAX VOR UNMONITORED. HAZD WX INFO FOR LAX AREA AVBL FM FSS. BIRD ACTIVITY VICINITY ARPT. INCLUDE YOUR CALL SIGN IN ALL READBACKS. USE CAUTION WHEN EXITING RY24R AT TWY V, W, AND Y, TO HOLD SHORT OF RY24L. MULTIPLE RUNWAY INCURSIONS HAVE OCCURRED. ...ADVS YOU HAVE INFO G.\n[Departure ATIS] KLAX DEP ATIS W 1853Z LAX ATIS INFO W 1853Z. 23010KT 10SM FEW016 SCT022 SCT027 20/13 A3000 (THREE ZERO ZERO ZERO) RMK AO2 SLP158 T02000128. INST APCHS AND RNAV RNP APCHS RY 24R AND 25L, OR VCTR FOR VISUAL APCH WILL BE PROVIDED, SIMUL VISUAL APCHS TO ALL RWYS ARE IN PROG, SIMUL INSTR DEPARTURES IN PROG RWYS 24 AND 25. CTC L A GC ON 121.75 FOR PUSH OR TAXI ON A. TWY C CLSD BTN TWY, C8 AND TWY C9 , , TWY B CLSD BTN TWY, F AND TWY B1, TWY B1 CLSD. ILS RY 25R OTS, RY 25R SFL OTS, RY 24L ALSF-2 OTS. LAX VOR UNMONITORED. IF ASSIGNED RUNWAY 25R FOR DEPARTURE, EXPECT DEPARTURE FROM INTERSECTION FOXTROT. TAXILANE CHARLIE EIGHT RESTRICTED TO AIRCRAFT WITH A WINGSPAN LESS THAN ONE HUNDRED EIGHTEEN FEET. USE CAUTION FOR INCREASED DRONE ACTIVIY IN THE VICINITY OF SOFI STADIUM AT OR BELOW 200FT AGL DURING THE WORLD CUP FROM 06/12/26 THROUGH 07/10/2026. HAZD WX INFO FOR LAX AREA AVBL FM FSS. USE CAUTION FOR HANG GLIDING 1 MILE SOUTH LOS ANGELES VOR. BIRD ACTIVITY VICINITY ARPT. INCLUDE YOUR CALL SIGN IN ALL READBACKS. USE CAUTION WHEN EXITING RY24R AT TWY V, W, AND Y, TO HOLD SHORT OF RY24L. MULTIPLE RUNWAY INCURSIONS HAVE OCCURRED. ...ADVS YOU HAVE INFO W.",
    "KONT": "[Arrival ATIS] KONT ARR ATIS R 2053Z - KONT ATIS INFO R 2053Z. 24008KT 10SM CLR 27/11 A2995 (TWO NINER NINER FIVE). ILS AND VIS APR IN USE, RY26L & RY26R. LNDG AND DEPG RY 26L AND RY 26R. NOTAMS... TAXIWAY SIERRA CLSD BETWEEN SIERRA 8 AND W TAXIWAY Q SOUTH OF RWY 26L CLSD TAXIWAY T CLSD TAXIWAY SIERRA 5 CLSD. RY 26L IM OTS. USE CAUTION FOR NUMEROUS BIRDS OBSERVED IN VICINITY OF ONT. PILOTS READBACK RWY ASSIGNMENTS AND HOLD SHORT INSTRUCTIONS. ...ADVS YOU HAVE INFO R.\n[Departure ATIS] KONT DEP ATIS N 0553Z - KONT ATIS INFO N 0553Z. 24004KT 10SM BKN250 22/15 A2988 (TWO NINER EIGHT EIGHT) RMK AO2 SLP100. ILS AND VIS APR IN USE, RY26L & RY26R. LNDG AND DEPG RY 26L AND RY 26R. NOTAMS... TAXIWAY SIERRA CLSD BETWEEN SIERRA 8 AND W TAXIWAY Q SOUTH OF RWY 26L CLSD TAXIWAY T CLSD TAXIWAY SIERRA 5 CLSD. RY 26L IM OTS, RY 26R ALS OTS. USE CAUTION FOR NUMEROUS BIRDS OBSERVED IN VICINITY OF ONT. HAZD WX INFO FOR SOUTHERN CA AVBL ON FSS FREQUENCIES. PILOTS READBACK RWY ASSIGNMENTS AND HOLD SHORT INSTRUCTIONS. ...ADVS YOU HAVE INFO N.",
    "KSFO": "[Arrival ATIS] KSFO ARR ATIS D 0156Z SFO ATIS INFO D 0156Z. 26014KT 10SM FEW022 18/11 A2997 (TWO NINER NINER SEVEN). SIMUL CLSLY SPCD DPNDNT ILS RY 28R AND ILS RY 28L APP IN USE. DEPG RWYS 28L, 28R. RY 1L, 1R CLSD. NUMEROUS TWY CLOSURES FOR CONSTRUCTION ON THE FIELD, PILOTS CHECK NOTAMS. DEPG ACFT WAITING ON FINAL NUMBERS ADVISE GROUND PRIOR TO ENTERING TWY F. ...ADVS YOU HAVE INFO D.\n[Departure ATIS] KSFO DEP ATIS J 0356Z SFO ATIS INFO J 0356Z. 27015KT 10SM FEW005 SCT011 13/11 A2991 (TWO NINER NINER ONE) RMK PK WND 28026/0321. SIMUL CLSLY SPCD DPNDNT ILS RY 28R AND ILS RY 28L APP IN USE. DEPG RWYS 28L, 28R. DEPG ACFT SHOULD BE PREPARED FOR A SHORT NOTICE RY CHANGE. RY 1L, 1R CLSD. NUMEROUS TWY CLOSURES FOR CONSTRUCTION ON THE FIELD, PILOTS CHECK NOTAMS. DEPG ACFT WAITING ON FINAL NUMBERS ADVISE GROUND PRIOR TO ENTERING TWY F. ...ADVS YOU HAVE INFO J.",
    "KOAK": "[Arrival ATIS] KOAK ARR ATIS A 0353Z - KOAK ATIS INFO A 0353Z. 25010KT 10SM FEW003 OVC007 14/12 A3004 (THREE ZERO ZERO FOUR). RNAV, RWY 30. ILS, RWY 28R. FLOW TO LAX, LAS, SAN, SEA. ILS RWY 30, OTS, RWY 28R RAIL, OTS. UNN LIT CLOSE-IN OBSTACLES FOR RWY 30 DEPARTURES. RWY 30 DEPARTURES ARE ADVISED TO AVOID TURNING LEFT PRIOR TO DEPARTURE END OF RUNWAY. CTN, CRANE 1 POINT 6 NAUTICAL MILES, , AT 140 FEET AGL. CAUTION, BIRDS NEAR AIRPORT. ...ADVS YOU HAVE INFO A.\n[Departure ATIS] KOAK DEP ATIS O 1953Z OAK ATIS INFO O 1953Z. 28014KT 10SM FEW005 22/14 A2988 (TWO NINER EIGHT EIGHT). RNAV Z/VA RWY 30 ILS/VA RWY 28R. FLOW TO LAX, LAS, SAN. ILS RWY 30, OTS. UNN LIT CLOSE-IN OBSTACLES FOR RWY 30 DEPARTURES. RWY 30 DEPARTURES ARE ADVISED TO AVOID TURNING LEFT PRIOR TO DEPARTURE END OF RUNWAY. SIGNATURE UNI-COM OUT OF SERVICE. CAUTION, BIRDS NEAR AIRPORT. ...ADVS YOU HAVE INFO O.",
    "KDFW": "[Arrival ATIS] KDFW ARR ATIS H 1853Z DFW ARR INFO H 1853Z. 18007KT 140V210 10SM BKN060 BKN250 34/20 A3001 (THREE ZERO ZERO ONE) RMK AO2 SLP150 T03440200. SIMUL VISUAL APCH TO RWYS, 13R, 18R, 17C, 17L. LDG RWY 17C EXP LAHSO TWY B 10460 FT AVAIL, LDG RWY 18R EXP LAHSO TWY B 10100 FT AVL. NOTICE TO AIRMEN. RWY 17C PAPI OTS. WARNING, RWY 18L HAS BEEN SHORTENED, 9273 FT AVAILABLE. BIRD ACTIVITY VCNTY ARPT. ...ADVS YOU HAVE INFO H.\n[Departure ATIS] KDFW DEP ATIS W 1553Z - KDFW DEP INFO W 1553Z. 21022G32KT 10SM FEW025 FEW180 SCT250 31/21 A2994 (TWO NINER NINER FOUR) RMK AO2 PK WND 20032/1547 SLP128 T03110206. SIMUL PARL TRAFFIC DEPG RWYS 17R, 18L. NOTICE TO AIRMEN. WARNING, RWY 18L HAS BEEN SHORTENED, 9273 FT AVAILABLE. RWY 18L CL OTS. BIRD ACTIVITY VCNTY ARPT. ...ADVS YOU HAVE INFO W.",
    "KIAH": "[Arrival ATIS] KIAH ARR ATIS U 1953Z IAH ATIS INFO U 1953Z. 02006KT 10SM FEW015 SCT120 BKN150 BKN180 27/24 A3007 (THREE ZERO ZERO SEVEN). ARRIVALS EXPECT ILS OR RNAV Y RY 26R, ILS OR RNAV Y RY 26L, ILS OR RNAV Y RY 27. SIMUL APPROACHES IN USE. DEPG RY 15L, RY 15R. NOTICE TO AIRMEN. UNITED RAMP CONTROL IN EFFECT. CODED DEPARTURE ROUTES IN EFFECT. HAZD WX INFO FOR IAH AREA AVBL FM FSS. BIRD ACTIVITY VICINITY ARPT. CRANES ARE DOWN. TWY SA CLSD BTN TWY, SF AND TWY SK , TWY SB CLSD BTN TWY, SF AND TWY SK , , TWY EA CLSD. NOTAM ATIS IN USE ON FREQUENCY 126.225. ...ADVS YOU HAVE INFO U.\n[Departure ATIS] KIAH DEP ATIS T 0353Z IAH ATIS INFO T 0353Z. 15007KT 10SM FEW035 FEW180 BKN250 27/23 A2996 (TWO NINER NINER SIX). ARRIVALS EXPECT ILS OR RNAV Y RY 8R, ILS OR RNAV Y RY 8L. DEPG RY 15R. NOTICE TO AIRMEN. UNITED RAMP CONTROL IN EFFECT. RY 15L, 33R CLSD. HAZD WX INFO FOR IAH AREA AVBL FM FSS. BIRD ACTIVITY VICINITY ARPT. CRANES ARE DOWN. TWY SA CLSD BTN TWY, SF AND TWY SK , TWY SB CLSD BTN TWY, SF AND TWY SK , , TWY WB CLSD BTN TWY, WG AND TWY WH . TWY EA CLSD. NOTAM ATIS IN USE ON FREQUENCY 126.225. ...ADVS YOU HAVE INFO T.",
    "KORD": "[Arrival ATIS] KORD ARR ATIS S 1851Z - KORD ATIS INFO S 1851Z. 05014G19KT 10SM FEW015 SCT250 27/16 A3007 (THREE ZERO ZERO SEVEN) RMK AO2 SLP179 T02720161. ARR EXP VECTORS ILS RWY 9L APCH, ILS RWY 10C APCH, VISUAL APCH RWY 10R. PILOTS EXP 2 INTCP THE ILS Y RY 10R FNA CRS. SIMUL APCHS IN USE. DEPS EXP RWYS 9C FROM F F 9200 FT AVL, 10L FROM DD. 10,093 FT AVBL. ATTN PILOTS. SIMUL PARL DEPS IN USE. EXP TO INITIALLY FLY RWY. HDG ON DEP. PILOTS MUST READ BACK DRCTN OF TURNS BY ATC. RWY 4L, 22R CLSD. RWY 22R LOC OTS, RWY 28L GS OTS, RWY 9L IM OTS, RWY 9C IM OTS, RWY 10L IM OTS, RWY 10R IM OTS, RWY 27R IM OTS, RWY 28L IM OTS, RWY 28R IM OTS, RWY 9L PAPI OTS, RWY 27R PAPI OTS. PILOTS USE CTN FOR BIRD ACTIVITY IN THE VICINITY OF THE ARPT. USE CTN FOR PERSONNEL AND EQUIP AT NUMEROUS SITES ON THE FIELD. READBACK ALL RWY HOLD SHORT INSTRUCTIONS. WHEN READY TO TAXI CONTACT GND METERING ON FREQ 121.67. ...ADVS YOU HAVE INFO S.\n[Departure ATIS] KORD DEP ATIS A 0751Z ORD ATIS INFO A 0751Z. 36006KT 10SM BKN250 19/15 A2997 (TWO NINER NINER SEVEN) RMK AO2 SLP144 T01940150. ARR EXP VECTORS ILS RWY 10L APCH. DEPS EXP RWYS 10L. RWY 4L, 22R CLSD, RWY 4R, 22L CLSD, RWY 9L, 27R CLSD, RWY 9C, 27C CLSD, RWY 9R, 27L CLSD, RWY 10C, 28C CLSD, RWY 10R, 28L CLSD. RWY 22R LOC OTS, RWY 28L GS OTS, RWY 9L IM OTS, RWY 9C IM OTS, RWY 10L IM OTS, RWY 10R IM OTS, RWY 27R IM OTS, RWY 28L IM OTS, RWY 28R IM OTS, RWY 9L PAPI OTS, RWY 27R PAPI OTS. PILOTS USE CTN FOR BIRD ACTIVITY IN THE VICINITY OF THE ARPT. NOISE ABATEMENT PROCEDURES ARE IN EFFECT. USE CTN FOR PERSONNEL AND EQUIP AT NUMEROUS SITES ON THE FIELD. READBACK ALL RWY HOLD SHORT INSTRUCTIONS. FOR CD GND METERING AND GC CONTACT ORD ON FREQ 121.9. ...ADVS YOU HAVE INFO A.",
    "KJFK": "[Arrival ATIS] KJFK ARR ATIS I 0151Z JFK ATIS INFO I 0151Z. 28011KT 10SM FEW090 SCT140 BKN250 24/11 A2982 (TWO NINER EIGHT TWO). APPROACH IN USE ILS RY 31R, VISUAL APCH RY 31L. DEPG RY 31L. RY 31L PAPI OTS, RWY 22L/4R INNER MARKER OTS. NUM CRANES OPERATING AT JFK. BIRD ACTIVITY VICINITY ARPT. READBACK ALL RWY ASSIGNMENTS AND HOLD SHORT INSTRUCTIONS. ...ADVS YOU HAVE INFO I.\n[Departure ATIS] KJFK DEP ATIS X 1551Z JFK ATIS INFO X 1551Z. 32014G18KT 10SM FEW050 FEW140 BKN250 31/18 A2983 (TWO NINER EIGHT THREE). APPROACH IN USE ILS RY 4R, ILS RY 4L. DEPG RY 4L. RWY 13R, 31L CLSD. RY 31R PAPI OTS, RWY 22L/4R INNER MARKER OTS.RWY 31R PAPI OTS. USE CAUTION FOR A MALFUNCTIONING AMBER FLASHING LIGHT APPROACH END RUNWAY 22L. NUM CRANES OPERATING AT JFK. BIRD ACTIVITY VICINITY ARPT. READBACK ALL RWY ASSIGNMENTS AND HOLD SHORT INSTRUCTIONS. ...ADVS YOU HAVE INFO X.",
    "KIND": "[Arrival ATIS] KIND ARR ATIS W 1314Z - KIND ATIS INFO W 1314Z SPECIAL. 20008KT 7SM BKN004 23/22 A2998 (TWO NINER NINER EIGHT). ILS RWY 23R APCH IN USE. CROSS RUNWAY OPERATIONS MAY BE IN EFFECT. NOTICE TO AIRMEN. RWYS 23L AND 5R CLSD. TWY, P BTN TWY, H AND TWY B CLSD, TWY, P BTN TWY, H AND TWY J CLSD, TWY, H BTN TWY, R AND TWY N CLSD. P PAD CLSD. ILS RUNWAY 5R AND RUNWAY 5L INNER MARKER UNSERVICEABLE. ...ADVS YOU HAVE INFO W.\n[Departure ATIS] KIND DEP ATIS H 1854Z IND ATIS INFO H 1854Z. 26009G19KT 10SM SCT036 BKN041 BKN170 23/16 A2981 (TWO NINER EIGHT ONE) RMK AO2 SLP088 T02280156. PARL ILS RWY 23R AND 23L APPROACHES IN USE. CROSS RU",
    "KDTW": "[Arrival ATIS] KDTW ARR ATIS K 0753Z DTW ARR INFO K 0753Z. 35004KT 10SM FEW030 BKN040 21/18 A2997 (TWO NINER NINER SEVEN). ILS Z RY 22R APCH IN USE. NOTICE TO AIRMEN. RWY 22L, 4R CLSD, RWY 21R, 3L CLSD, RWY 21L, 3R CLSD, RWY 27L, 9R CLSD, RWY 27R, 9L CLSD. TWYS Y1 CLSD ;. RWSL OTS. PILOTS USE CTN FOR BIRD ACTIVITY. TWR AND GC COMB ON FREQ 135.0. DEPARTURE ATIS 118.125. ...ADVS YOU HAVE INFO K.\n[Departure ATIS] KDTW DEP ATIS Q 2253Z - KDTW DEP INFO Q 2253Z. 21009KT 10SM FEW050 FEW250 33/24 A2991 (TWO NINER NINER ONE). DEPG RWY 21R, RWY 22L ;. NOTICE TO AIRMEN. RWY 27L, 9R CLSD, RWY 27R, 9L CLSD. PILOTS USE CTN FOR BIRD ACTIVITY. ...ADVS YOU HAVE INFO Q.",
    "KMSP": "[Arrival ATIS] KMSP ARR ATIS B 1853Z MSP ARR INFO B 1853Z. 21008KT 10SM SCT045 30/19 A3009 (THREE ZERO ZERO NINER). SIMULTANEOUS DEPENDENT, RNAV ZULU RWY 12R APCH IN USE, LOCALIZER RWY 12L APCH IN USE. FINAL APCH, OVER NOISE SENSITIVE AREA. NOTICE TO AIRMEN. TEMPO FLT RESTRICTIONS IN EFCT 3 MILE RADIUS MSP 339 RDL 5.4 DME FIX. TWY R7. R8. R9. R10. CLOSED. TWY R BTWN R6 AND R10 CLSD, USE CAUTION, NUMEROUS TAXIWAY CLOSURES, TWY A7 CLSD, TWY A CLSD BTN TWY, A7 AND TWY D. ILS RWY 12R OTS, GS RWY 12L OTS, RWYS 12R, 12L, INNER MARKER OTS. CTN, BIRDS NEAR MSP. READ BACK HS AND ALT. ALL ACFT TAXI WITH TRANSPONDER AND ALTITUDE ENCODING ON. ADVISE TOWER OF GATE ON INITIAL CONTACT. ...ADVS YOU HAVE INFO B.\n[Departure ATIS] KMSP DEP ATIS X 1653Z - KMSP DEP INFO X 1653Z. 22005KT 10SM SCT130 29/19 A3010 (THREE ZERO ONE ZERO) RMK AO2 SLP187 T02940194. DEPARTING RWY 12L, RWY 12R, RWY 17. NOTICE TO AIRMEN. TEMPO FLT RESTRICTIONS IN EFCT 3 MILE RADIUS MSP 339 RDL 5.4 DME FIX. RWYS 4, 22 CLSD. TWY R7. R8. R9. R10. CLOSED. TWY R BTWN R6 AND R10 CLSD, USE CAUTION, NUMEROUS TAXIWAY CLOSURES, TWY A7 CLSD, TWY A CLSD BTN TWY, A7 AND TWY D. ALL ACFT CTC METERING ON ONE THREE THREE POINT FIVE SEVEN WHEN READY TO PUSHBACK OR TAXI. CTN, BIRDS NEAR MSP. READ BACK HS AND ALT. ALL ACFT TAXI WITH TRANSPONDER AND ALTITUDE ENCODING ON. ...ADVS YOU HAVE INFO X.",
    "CYEG": "[Arrival ATIS] CYEG ARR ATIS W 2012Z 24011KT 15SM -TSRA CIG BKN025CB OVC250 20/17 A2981 SIGMET A2 IN EFFECT. APCH RNAV Z OR Y RWY 02, INFORM ARRL OF REQ APCH ON INITIAL CTC. LDG AND DEP RWY 02. SIMUL APPROACHES MAY BE IN EFCT. INFORM CYEG ATC INFO W\n[Departure ATIS] CYEG DEP ATIS U 2000Z CYEG ARR ATIS U 2000Z 25008KT 15SM CIG BKN028TCU BKN250 20/16 A2978 SIGMET A2 IN EFFECT. APCH RNAV Z OR Y RWY 02, INFORM ARRL OF REQ APCH ON INITIAL CTC. LDG AND DEP RWY 02. SIMUL APPROACHES MAY BE IN EFCT. INFORM CYEG ATC INFO U",
    "EHAM": "[Arrival ATIS] EHAM ARR ATIS G 2021Z EHAM ARRIVAL INFO G. DEMAND. MAIN LANDING RWY 06. TRANSITION LEVEL 040. WIND 020 DEG, 9 KT, VRB BTN 350 AND 060 DEG, 15 KT MAX, 7 KT MNM. VIS 10 KM OR MORE. CLD FEW 1600 FT. T 21. DP 18. QNH 1021 HPA. NOSIG. OPERATIONAL REPORT. CONTACT APCH WITH CALLSIGN ONLY. END OF INFO G\n[Departure ATIS] EHAM DEP ATIS O 0921Z EHAM DEPARTURE INFO O. DEMAND. MAIN DEPARTURE RWY 36 L. MAIN LANDING RWY 06. WIND 050 DEG, 5 KT, VRB BTN 270 AND 100 DEG, 13 KT MAX, 4 KT MNM. VIS 10 KM OR MORE. CLD FEW 1300 FT. T 20. DP 17. QNH 1021 HPA. OPERATIONAL REPORT. INFORM SCHIPHOL DEL BY VOICE IF UNABLE TO COMPLY WITH NADP 2. END OF INFO O",
    "EBBR": "[Arrival ATIS] EBBR ARR ATIS S 0150Z EBBR NAT, EXP VECT FOR ILS APP ARR RWY01 RSCD AT 2102 RWY01 WET. DEP RWY07R TRL 055 IF ABLE VACATE E5. XNG RWY OPS INPR 050/9KT VIS ABV 10KM FEW TCU 4000FT T20 DP19 QNH 1023HPA NOSIG CFM ARR S\n[Departure ATIS] EBBR DEP ATIS V 1820Z EBBR NAT, DEP RWY07R RSCD AT 1449 RWY07R DRY. ARR RWY01 TRL 055 XNG RWY OPS INPR. C6 CLSD 040/11KT MNM8 MAX16 CAVOK T28 DP16 QNH 1019HPA NOSIG CFM DEP V",
    "EDDF": "[Arrival ATIS] EDDF ARR ATIS D 0220Z ARR-ATIS EDDF D METAR 210220 EXPECT DEPENDENT PARALLEL ILS Y APCH RWY 25R OR ILS APCH RWY 25L RWY 25R 25L GLS APCH ON REQUEST , FROM 0250 EXPECT ILS OR GLS APCH , TRL 60 VRB02KT CAVOK T21 DP18 QNH1022 TREND NOSIG END OF ATIS D\n[Departure ATIS] EDDF DEP ATIS W 1050Z DEP-ATIS EDDF W METAR 111050 RWY 07C 18 ACFT DEPARTING RWY18 : EXPECT POSSIBLE DEPARTURE FROM INTERSECTION M , TORA 3454 METERS. IF UNABLE , ADVISE TWR ON INITIAL CONTACT , TRL 60 05010KT 360V080 RWY18 VRB06KT CAVOK T29 DP13 QNH1019 TREND NOSIG",
    "EDDL": "[Arrival ATIS] EDDL ARR ATIS G 1520Z ATIS EDDL G METAR 091520 EXPECT VECTORS ILS APPROACH RWY05L RWY 05R 05L TWY L2 , L4 AND L5 BTN TWY M AND RWY05R CLOSED TRL 60 04008KT 010V090 CAVOK T25 DP13 QNH1018 TREND NOSIG\n[Departure ATIS] EDDL DEP ATIS R EDDL ARR/DEP DATIS RPT -ATIS EDDL R METAR 020550 -EXPECT VECTORS ILS APPROACH -RWY 23L -TWY L8 CLOSED BETWEEN TWY M AND RWY 23L -TRL 60 - -23010KT -CAVOK - - -T19 DP13 -QNH1020 - -TREND NOSIG",
    "EDDK": "[Arrival ATIS] EDDK ARR ATIS O 1350Z ATIS EDDK O METAR 091350 EXPECT ILS APCH RWY 31R RWY 31R 06 RWY COND RWY 31R AT TIME 1330 RWYCC 6 DEPOSIT TOTAL RWY DRY RWY 06 AT TIME 1330 RWYCC 6 DEPOSIT TOTAL RWY DRY RWY 06/24 ONLY AVAILABLE FOR DEPARTURES TRL 60 RWY 13R AND RWY 31L CLOSED FOR DEPARTURE AND LANDING: TAXIING BTN THR RWY 13R AND INTERSECTION RWY 24 POSSIBLE : 36008KT 240V050 CAVOK T26 DP15 QNH1018 TREND NOSIG\n[Departure ATIS] EDDK DEP ATIS Q EDDK ARR/DEP DATIS RPT -ATIS EDDK Q METAR 291920 -EXPECT ILS APCH -RWY 31R 06 -RWY COND RWY 31R AT TIME 1830 RWYCC 6 DEPOSIT TOTAL RWY DRY RWY 06 AT TIME 1830 RWYCC 6 DEPOSIT TOTAL RWY DRY -TRL 60 -RWY 13R AND RWY 31L CLOSED FOR DEPARTURE AND LANDING: TAXIING BTN THR RWY 13R AND INTERSECTION RWY 24 POSSIBLE : -04003KT -CAVOK - - -T24 DP13 -QNH1024 - -TREND NOSIG",
    "EBLG": "[Arrival ATIS] EBLG ATIS S 1958Z EBLG INFO, ARR RWY04R DEP RWY04R RWY 04R DRY, RWYCC 666. TRL 055 ADZ ON GND FREQ IF UNABLE S2 040/8KT MNM6 MAX15 CAVOK T25 DP13 QNH 1020HPA NOSIG CFM ATIS S",
    "LSZH": "[Arrival ATIS] LSZH ARR ATIS G 0950Z ARRIVALS, EXP ILS APCH, RWY 14. TRL 70. DEP RWY 28. WIND VRB, 4 KT. CAVOK. T 28. DP 14. QNH 1018. NOSIG.\n[Departure ATIS] LSZH DEP ATIS V 0950Z DEP RWY 28. TRL 70. ARRIVALS, EXP ILS APCH, RWY 14. TMA S 1 IS NOT ACT. TMA S 2 AND S 3 ARE NOT ACT. WIND VRB, 3 KT. CAVOK. T 28. DP 14. QNH 1018. NOSIG.",
    "LIMC": "[Arrival ATIS] LIMC ARR ATIS H 0950Z LIMC ARR H 0950Z I.L.S. ZULU RWY IN USE 35R TL 70 WIND TDZ 210/6KT VRB BTN 160/AND 260/ VIS 10KM CLD BKN 8000FT T28 DP18 QNH 1016HPA QFE 0991HPA\n[Departure ATIS] LIMC DEP ATIS P 2350Z LIMC DEP P 2350Z RWY IN USE 17R TL 70 WIND END 020/4KT CAVOK T23 DP19 QNH 1023HPA QFE 0995HPA DATALINK CLEARANCE AVAILABLE.... CONTACT 1 3 1 8 8 0 TO BE RELEASED BY THE AIRPORT OPERATOR ...",
    "LIRF": "[Arrival ATIS] LIRF ARR ATIS D 1920Z LIRF ARR D 1920Z RWY 16L ILS W RWY 16R ILS Z RWY IN USE 16L 16R TL 70 DEPENDENT PARL ILS APCH INPR RWY IN USE 16R OR 16L ASSIGNED BY ROME RADAR WIND RWY 16L TDZ 200/3KT RWY 16R TDZ 190/3KT CAVOK T27 DP22 QNH 1015HPA RRSM\n[Departure ATIS] LIRF DEP ATIS H 1954Z LIRF DEP H 1954Z RWY IN USE 25 TL 70 RWYS IN USE FOR ARR 16L AND 16R WIND END 230/2KT CAVOK T26 DP22 QNH 1016HPA REA IS SENT AUTOMATICALLY ONCE RLSD BY RAMP WHEN READY CONTACT FIUME RAMP 121.725",
    "EINN": "[Arrival ATIS] EINN ARR ATIS W 1000Z EXPECT I L S CATEGORY 1 LDG RWY06 TKOF RWY06 TRL FL060 03010KT CAVOK 21/13 QNH Q1024 TREND NOSIG ADVISE AT FIRST CONTACT YOU HAVE ATIS INFO W",
    "EGLL": "[Arrival ATIS] EGLL ARR ATIS S 0950Z LANDING RWY 09L TRANSITION-LEVEL: FL 70 RUNWAY 09L REDUCED DECLARED DISTANCES IF STAND GUIDANCE IS OFF OR FAILS, REMAIN ON THE TAXIWAY CENTRELINE AND ADVISE ATC AUTO 05012KT 030V110 9999 NCD 26/15 Q1021 ACKNOWLEDGE RECEIPT OF INFORMATION S\n[Departure ATIS] EGLL DEP ATIS H 2020Z DEPARTURE RWY 09L PILOTS THAT ARE IN RECEIPT OF DATALINK CLEARANCES ARE REMINDED THEY MUST CONTACT DELIVERY ON 121.980 WHEN READY FOR START DATALINK CLEARANCES NOT AVAILABLE FOR CPT DEPARTURES RUNWAY 09L REDUCED DECLARED DISTANCES RUNWAY ENTRY POINT AB13 UNAVAILABLE FOR 09L AUTO 08009KT 9999 NCD 23/16 Q1021 ACKNOWLEDGE RECEIPT OF INFORMATION H AND REPORT AIRCRAFT TYPE AND CURRENT QNH ON FIRST CONTACT WITH HEATHROW",
    "EPWA": "[Arrival ATIS] EPWA ARR ATIS C 0201Z EPWA ARR C. TIME 0200. EXP N ARR ILS Z APCH FOR RWY 11. TRANSITION LEVEL 80. WIND VRB, 1 KT, VRB BTN 120 AND 220 DEG. CAVOK. T 19. DP 15. QNH 1022. NOSIG. CAUTION. BIRD ACT. END OF EPWA ARR C\n[Departure ATIS] EPWA DEP ATIS W 2007Z EPWA DEP W. TIME 2007. DEP RWY 29. ARR RWY 33, EXP U ARR ILS Z. REPORT READY FOR STARTUP ON DELIVERY 121 DECIMAL 605. RWY 29 RCC 5, 5, 5. 1ST PART, WET. 2ND PART, WET. 3RD PART, WET. RWY REPORT END. TRANSITION LEVEL 80. WIND 320 DEG, 7 KT, VRB BTN 280 AND 340 DEG. VIS MID 5 KM. WX MOD SHRA. CLD BKN CB 3000 FT. T 16. DP 15. QNH 1016. TREND TEMPO VIS 1500 M, HVY SHRA, CLD BKN 400 FT. CAUTION. BIRD ACT. END OF EPWA DEP W",
    "EFHK": "[Arrival ATIS] EFHK ARR ATIS X 1750Z EXPECT ILS APCH ARR RWY 04L RUNWAY 04L CONDITION REPORT AT 1744 UTC RUNWAY CONDITION CODES 4 DOWNGRADED , 4 DOWNGRADED , 4 DOWNGRADED C ONTAMINANTS ALL PARTS 100 PERCENT WET TRL 60 WIND 080 DEG 18 KT MAX31 MNM10 KT VRB BTN 020 AND 080 DEG VIS 2500M RVR VALUES AVBL ON ATC FREQ HVY TSRA BKN CB 4000 FT T 19 DP 17 QNH 1017 BECMG 19020KT 8000 TSGR ACK INFO X AUTO UPDATE ENDS AT 1856\n[Departure ATIS] EFHK DEP ATIS W 1920Z DEP RWY 04R RUNWAY 04R CONDITION REPORT AT 1839 UTC RUNWAY CONDITION CODES 4 DOWNGRADED , 4 DOWNGRADED , 4 DOWNGRADED CONTAMINANTS ALL PARTS 100 PERCENT WET WIND 330 DEG 4 KT VRB BTN 310 AND 100 DEG VIS 10KM FEW 2000 FT. FEW CB 4000 FT T 18 DP 18 QNH 1017 RETSRA NOSIG ACK INFO W",
    "LTAC": "[Arrival ATIS] LTAC ARR ATIS Y 1520Z EXP ILS Z APCH 21C DEP RWY 21R RWY 21C WIND 290 DEG 11 KT VRB BTN 250 DEG AND 310 DEG RWY 21R WIND 260 DEG 09 KT VRB BTN 220 DEG AND 310 DEG TRL 115 VIS 9999 SCT04000 FT T 30 DP 05 QNH 1008 NOSIG FOR DELIVERY CTC 121.9. FOR DELIVERY FIRST USE DIGITAL DEP CLR. CTN BIRD HAZARD OVR AERODROME. APCH FREQUENCY 129.050. TAXIWAY ECHO 1 IS CLOSED. END OF ATIS Y",
    "UBBB": "[Arrival ATIS] UBBB ARR ATIS P 2000Z ATIS P EXP ILS/ LDG 34 35 DEP 34 35 IN USE RWY 34 CLEAR DRY 70 RWY 35 CLEAR DRY 70 TLVL 110 WIND WIND RWY 34 340 14 KT SPD MAX 18 MIN 10 WIND RWY 35 340 16 KT SPD MAX 18 MIN 10 VIS CAVOK T 27 / DP 22 QNH 1012 HPA TREND TREND NOSIG MODERATE BIRDS ACT IN VICINITY OF AP END OF ATIS P\n[Departure ATIS] UBBB DEP ATIS C 1330Z ATIS C EXP ILS/ LDG 34 35 DEP 34 35 IN USE RWY 34 CLEAR DRY 70 RWY 35 CLEAR DRY 70 TLVL 110 WIND WIND RWY 34 360 14 KT SPD MAX 18 MIN 12 WIND RWY 35 350 16 KT SPD MAX 20 MIN 10 VIS CAVOK T 29 / DP 17 QNH 1011 HPA TREND TREND NOSIG MODERATE BIRDS ACT IN VICINITY OF AP END OF ATIS C",
    "ZWWW": "[Arrival ATIS] ZWWW ARR ATIS J 0230Z EXP ILSDME Z APCH LDG RWY 26R TA 3000 WIND 160/2MPS VRB BTN 120/ AND 220/ CAVOK T 31 /DP 08 QNH 1010 HPA ADZ YOU HAVE INFO J.\n[Departure ATIS] ZWWW DEP ATIS S 1830Z DEP RWY 26R TA 3000 WIND 170/3MPS CAVOK T 28 /DP 08 QNH 1005 HPA ADZ YOU HAVE INFO S.",
    "ZLXY": "[Arrival ATIS] ZLXY ARR ATIS H 1700Z EXP ILS APCH LDG RWY 23R & 24L WIND 250/4MPS VIS 9999M CLD SCT 990M /BKN 1500M T 23 /DP 22 QNH 1008 HPA VISUAL APPROACH IN PROGRESS RUNWAY 23R SURFACE CONDITION CODE 555 RUNWAY 24L SURFACE CONDITION CODE 555 ADZ YOU HAVE INFO H.\n[Departure ATIS] ZLXY DEP ATIS G 2219Z DEP RWY 05L & 06L WIND 320/1MPS CAVOK T 19 /DP 18 QNH 1010 HPA VISUAL APPROACH IN PROGRESS ADZ YOU HAVE INFO G.",
    "ZBAA": "[Arrival ATIS] ZBAA ARR ATIS H 0230Z EXP ILS APCH DEPENDENT PARL INSTR APCH LDG RWY 36L & 36R & 01 WIND 160 DEG 2 MPS 090V260 DEG CAVOK T 27 /DP 11 QNH 1012 HPA VISUAL APPROACH IS IN PROGRESS. ADZ YOU HAVE INFO H.\n[Departure ATIS] ZBAA DEP ATIS E 0100Z DEP RWY 36L & 36R & 01 WIND VRB DEG 2 MPS CAVOK T 25 /DP 11 QNH 1012 HPA RWY INDEPENDENT PARALLEL DEP VISUAL APPROACH IS IN PROGRESS. ADZ YOU HAVE INFO E.",
    "ZBHH": "[Arrival ATIS] ZBHH ARR ATIS B 1718Z EXP ILSDME APCH LDG RWY 08 TA 3000 /TRL 3600 WIND 190/2MPS VRB BTN 170/ AND 230/ VIS 3500M BR CLD SCT 900M T 19 /DP 19 QNH 1010 HPA ADZ YOU HAVE INFO B.\n[Departure ATIS] ZBHH DEP ATIS Q 1500Z DEP RWY 08 TA 3000 /TRL 3600 WIND 140/2MPS VIS 5000M BR NSC T 19 /DP 19 QNH 1007 HPA ADZ YOU HAVE INFO Q.",
    "ZSQD": "[Arrival ATIS] ZSQD ARR ATIS B 0100Z EXP ILSDME APCH LDG RWY 35 TA 3000 /TRL 3600 WIND 360/3MPS VRB BTN 340/ AND 040/ CAVOK T 25 /DP 18 QNH 1011 HPA SEGREGATED OPERATION VISUAL APPROACH OPERATION IN PROGRESS. RUNWAY 35,IF MISSED APPROACH,EXPECT FOLLOW THE STANDARD MISSED APPROACH PROCEDURE,CLIMB TO 1200M ON QNH OR BY ATC CAUTION MAYBE THERE IS A FLOCK OF BIRDS IN THE VICINITY OF AIRPORT ADZ YOU HAVE INFO B.\n[Departure ATIS] ZSQD DEP ATIS A 0000Z DEP RWY 34 TA 3000 /TRL 3600 WIND 020/4MPS CAVOK T 25 /DP 17 QNH 1010 HPA SEGREGATED OPERATION VISUAL APPROACH OPERATION IN PROGRESS. RUNWAY 35,IF MISSED APPROACH,EXPECT FOLLOW THE STANDARD MISSED APPROACH PROCEDURE,CLIMB TO 1200M ON QNH OR BY ATC CAUTION MAYBE THERE IS A FLOCK OF BIRDS IN THE VICINITY OF AIRPORT ADZ YOU HAVE INFO A."
  },
  "windtemp_alaska": "\n000\nFBAK31 KWNO 112000\nFD1AK1\nDATA BASED ON 111800Z    \nVALID 120000Z   FOR USE 2000-0300Z. TEMPS NEG ABV 24000\n\nFT  3000    6000    9000   12000   18000   24000  30000  34000  39000\nADK 2631 2729+06 2831+03 2834+00 2741-10 2639-21 283839 275049 265156\nADQ 2710 2410+05 2413+02 2315-03 2420-13 2223-26 242843 273851 274151\nAKN 2514 2722+02 2724-01 2525-05 2332-16 2240-27 244144 234352 243746\nANC 1515 1721+04 1924+00 2022-04 2023-15 2339-26 234944 204353 232851\nANN 9900 9900+02 9900-04 1308-10 1007-22 0710-35 061548 061344 110542\nBET 2329 2429+00 2433-05 2329-09 2131-18 2027-30 173645 193046 222842\nBRW 1106 2109+03 2210-03 2413-07 2422-17 2431-27 243844 244453 242651\nBTI 9900 2306+08 2416+01 2420-05 2520-17 2727-27 282744 283554 282753\nBTT 1310 1312+09 1620+02 1618-04 1716-16 1724-26 172143 191753 191556\nCDB 2025 2325+05 2430+00 2439-04 2458-16 2483-26 741041 751447 259549\nCZF 2324 2320-01 2220-04 2117-09 1821-19 1430-30 124046 142844 221140\nEHM 2325 2232+01 2234-04 2236-09 2240-19 2245-30 224746 234443 243743\nFAI 1915 2017+08 1926+02 1922-03 1722-15 1826-27 182643 182053 191754\nFYU 1506 1507+10 1711+03 1812-02 2112-15 2212-27 990044 990053 241056\nGAL 1824 1629+04 1428-01 1430-06 1336-17 1433-27 124242 134652 162248\nGKN 1821 1826+07 1920+02 1919-03 1920-15 2024-26 212543 202153 191557\nHOM 1814 1819+04 1921+01 1925-03 2223-14 2130-26 203443 233153 242851\nJNU 9900 9900+03 0610+00 0615-05 0425-17 0533-30 064746 064654 061948\nLUR 0818 1014+03 1216-01 1519-05 1723-17 1922-29 193544 193954 202250\nMCG 1932 1737+02 1640-03 1630-08 1727-20 1327-32 142943 172442 211944\nMDO 1909 1712+06 1816+02 1818-03 1711-15 2008-26 230743 220553 241455\nOME 1520 1612+04 1816-01 1818-05 1322-16 1323-27 123644 134452 161346\nORT      9900+10 2308+04 2111-02 1914-14 2016-27 201643 211653 221258\nOTZ 1223 1325+06 1433+00 1536-05 1432-16 1522-27 152643 153053 181850\nSNP 2935 2936+00 2836-04 2836-09 2941-20 2956-30 285141 284539 274140\nTKA 2019 1828+04 1830-02 2129-05 2036-15 2255-28 205644 186452 213050\nUNK 1822 1818+04 1617-01 1519-06 1312-16 1219-27 103144 113752 170746\nYAK 1705 2506+06 2707+02 9900-04 0508-15 0612-28 051844 072254 051955\nIKO 2731 2637+04 2642+01 2651-04 2671-15 2680-27 750340 760545 267648\nAFM 1312 1319+06 1424+01 1424-04 1625-16 1623-27 172943 172653 172253\n5AB 2619 2722+07 2820+06 2820+02 3014-09 3014-21 301537 322048 332258\n5AC 3307 3305+01 3507-04 3614-09 3528-21 3539-33 344845 344345 332243\n5AD 1816 1611+06 2806+01 3216-02 3128-14 3128-26 311742 314250 316951\n5AE 3009 2916+07 2623+03 2733+00 2744-12 2856-24 289139 770748 269856\n5AF 9900 3606+03 0311+00 0419-05 0227-19 0336-30 043946 033553 011448\n5AG 2006 2105+07 9900+02 1106-04 0708-16 0714-28 072444 062553 011753\n",
  "vaac_tokyo": [
    {
      "id": "20260711_30025000_0049",
      "year": "2026",
      "volcano": "Bezymianny",
      "psn": "N5558 E16036",
      "issued": "20260711",
      "text": "FVFE01 RJTD 111800\nVA ADVISORY\nDTG: 20260711/1800Z\nVAAC: TOKYO\nVOLCANO: BEZYMIANNY 300250\nPSN: N5558 E16036\nAREA: RUSSIA\nSOURCE ELEV: 2882M AMSL\nADVISORY NR: 2026/49\nINFO SOURCE: HIMAWARI-9\nERUPTION DETAILS: NO ERUPTION. RE-SUSPENDED VA\nOBS VA DTG: 11/1720Z\nOBS VA CLD: SFC/FL100 N5600 E16036 - N5611 E16048 - N5550 E16122 - \nN5542 E16205 - N5538 E16115 MOV E 20KT\nFCST VA CLD +6 HR: 11/2320Z SFC/FL110 N5452 E16402 - N5457 E16227 - \nN5557 E16037 - N5548 E16151\nFCST VA CLD +12 HR: 12/0520Z SFC/FL110 N5409 E16553 - N5356 E16453 - \nN5424 E16245 - N5558 E16036 - N5519 E16239 - N5434 E16317\nFCST VA CLD +18 HR: NO VA EXP\nRMK: RE-SUSPENDED VA. \nNXT ADVISORY: 20260712/0000Z=",
      "img_url": "https://ds.data.jma.go.jp/svd/vaac/data/VAGFN/2026/Images/20260711_30025000_0049_QH21_01.png",
      "sat_img_url": "https://ds.data.jma.go.jp/svd/vaac/data/Sat/2026/Images/30025000/09-ir/20260711_1720_202607111800_ir.png",
      "text_url": "https://ds.data.jma.go.jp/svd/vaac/data/TextData/2026/20260711_30025000_0049_Text.html"
    },
    {
      "id": "20260711_30027000_0260",
      "year": "2026",
      "volcano": "Sheveluch",
      "psn": "N5639 E16122",
      "issued": "20260711",
      "text": "FVFE01 RJTD 110000\nVA ADVISORY\nDTG: 20260711/0000Z\nVAAC: TOKYO\nVOLCANO: SHEVELUCH 300270\nPSN: N5639 E16122\nAREA: RUSSIA\nSOURCE ELEV: 3283M AMSL\nADVISORY NR: 2026/260\nINFO SOURCE: HIMAWARI-9\nERUPTION DETAILS: VA CONTINUOUSLY OBS IN SATELLITE IMAGERY\nOBS VA DTG: 10/2320Z\nOBS VA CLD: SFC/FL280 N3856 E16034 - N3914 E16113 - N3732 E16657 - \nN3911 E17113 - N3852 E17223 - N3641 E16925 - N3652 E16532 MOV E 70KT\nFCST VA CLD +6 HR: 11/0520Z SFC/FL290 N4547 E17734 - N3905 E17405 - \nN3624 E16722 - N3636 E16203 - N4037 E17140 - N4547 E17454\nFCST VA CLD +12 HR: 11/1120Z SFC/FL290 N5003 W17906 - N4523 E17948 - \nN3452 E16722 - N3458 E16449 - N4713 E17654 - N4918 E17614\nFCST VA CLD +18 HR: NO VA EXP\nRMK: THE RESPONSIBILITY FOR THIS ASH EVENT IS BEING TRANSFERRED TO \nVAAC WASHINGTON. THE NEXT ADVISORY WILL BE ISSUED BY VAAC WASHINGTON \nBY 0600UTC UNDER HEADER FVXX22 KNES. SOME PART OF VA OBSCURED BY MET \nCLOUD.\nNXT ADVISORY: NO FURTHER ADVISORIES=",
      "img_url": "https://ds.data.jma.go.jp/svd/vaac/data/VAGFN/2026/Images/20260711_30027000_0260_QH21_01.png",
      "sat_img_url": "https://ds.data.jma.go.jp/svd/vaac/data/Sat/2026/Images/30027000/09-ir/20260710_2320_202607110000_ir.png",
      "text_url": "https://ds.data.jma.go.jp/svd/vaac/data/TextData/2026/20260711_30027000_0260_Text.html"
    },
    {
      "id": "20260706_27202000_0232",
      "year": "2026",
      "volcano": "Kanlaon",
      "psn": "N1025 E12308",
      "issued": "20260706",
      "text": "FVFE01 RJTD 061545\nVA ADVISORY\nDTG: 20260706/1545Z\nVAAC: TOKYO\nVOLCANO: KANLAON 272020\nPSN: N1025 E12308\nAREA: PHILIPPINES\nSOURCE ELEV: 2435M AMSL\nADVISORY NR: 2026/232\nINFO SOURCE: HIMAWARI-9 PHIVOLCS\nERUPTION DETAILS: ERUPTION AT 20260706/1520Z FL100 EXTD SW REPORTED\nOBS VA DTG: 06/1530Z\nOBS VA CLD: VA NOT IDENTIFIABLE FM SATELLITE DATA WIND FL100 350/5KT\nFCST VA CLD +6 HR: NOT AVBL\nFCST VA CLD +12 HR: NOT AVBL\nFCST VA CLD +18 HR: NOT AVBL\nRMK: WE WILL ISSUE FURTHER ADVISORY IF VA IS DETECTED IN SATELLITE \nIMAGERY.\nNXT ADVISORY: NO FURTHER ADVISORIES=",
      "img_url": "https://ds.data.jma.go.jp/svd/vaac/data/VAGFN/2026/Images/20260706_27202000_0232_QH21_01.png",
      "sat_img_url": null,
      "text_url": "https://ds.data.jma.go.jp/svd/vaac/data/TextData/2026/20260706_27202000_0232_Text.html"
    },
    {
      "id": "20260705_27303000_0717",
      "year": "2026",
      "volcano": "Mayon",
      "psn": "N1315 E12341",
      "issued": "20260705",
      "text": "FVFE01 RJTD 051936\nVA ADVISORY\nDTG: 20260705/1936Z\nVAAC: TOKYO\nVOLCANO: MAYON 273030\nPSN: N1315 E12341\nAREA: PHILIPPINES\nSOURCE ELEV: 2462M AMSL\nADVISORY NR: 2026/717\nINFO SOURCE: HIMAWARI-9 PHIVOLCS\nERUPTION DETAILS: ERUPTION AT 20260705/1914Z FL090 EXTD WSW REPORTED\nOBS VA DTG: 05/1920Z\nOBS VA CLD: VA NOT IDENTIFIABLE FM SATELLITE DATA WIND FL090 050/8KT\nFCST VA CLD +6 HR: NOT AVBL\nFCST VA CLD +12 HR: NOT AVBL\nFCST VA CLD +18 HR: NOT AVBL\nRMK: WE WILL ISSUE FURTHER ADVISORY IF VA IS DETECTED IN SATELLITE \nIMAGERY.\nNXT ADVISORY: NO FURTHER ADVISORIES=",
      "img_url": "https://ds.data.jma.go.jp/svd/vaac/data/VAGFN/2026/Images/20260705_27303000_0717_QH21_01.png",
      "sat_img_url": null,
      "text_url": "https://ds.data.jma.go.jp/svd/vaac/data/TextData/2026/20260705_27303000_0717_Text.html"
    }
  ],
  "vaac_alaska": [
    {
      "text": "\n000\nFVAK21 PAWU 111230\nVAAAK1\nVA ADVISORY\n\nDTG: 20260711/1224Z\n\nVAAC: ANCHORAGE\n\nVOLCANO: SHEVELUCH 300270\n\nPSN: N5639 E16122\n\nAREA: KAMCHATKA PENINSULA\n\nSOURCE ELEV: 10771 FT AMSL\n\nADVISORY NR: 2026/193\n\nRMK: PLEASE SEE FVXX2 KNES ISSUED BY VAAC WASHINGTON WHICH DESCRIBES\nCONDITIONS NEAR THE VAAC ANCHORAGE AREA OF RESPONSIBILITY...CC\n\n\n\n",
      "issued": "2026-07-11T12:30:00+00:00",
      "volcano": "Sheveluch",
      "psn": "N5639 E16122"
    }
  ]
}