{
  "updated_utc": "2026-07-14T15:54Z",
  "metar": {
    "RJAA": "METAR RJAA 141400Z AUTO 18004KT 9999 FEW006 BKN080 BKN090 26/23 Q1006 NOSIG",
    "PANC": "METAR PANC 141453Z 00000KT 10SM -RA FEW011 OVC060 11/10 A2998 RMK AO2 RAE13B40 SLP154 P0001 60008 T01060100 56018",
    "PAFA": "METAR PAFA 141453Z 00000KT 10SM -RA BKN070 BKN090 OVC130 13/11 A2989 RMK AO2 RAB27 SLP125 P0000 60000 T01280106 56006 $",
    "PAED": "METAR PAED 141355Z 36008KT 5SM -RA FEW005 BKN045 OVC060 11/10 A2998 RMK AO2A SLP148 P0003 T01080097 $",
    "KSEA": "METAR KSEA 141453Z 34003KT 10SM FEW150 FEW210 18/07 A3010 RMK AO2 SLP198 ACSL DSNT SE T01830072 51008 $",
    "ZSPD": "METAR ZSPD 141400Z 17004MPS CAVOK 30/27 Q1004 NOSIG",
    "ZSSS": "METAR ZSSS 141400Z 16004MPS CAVOK 32/27 Q1003 NOSIG",
    "RJFR": "METAR RJFR 141400Z 21012KT 9999 FEW030 SCT/// 29/23 Q1007",
    "VHHH": "METAR VHHH 141400Z 17007KT 120V210 9999 FEW015 SCT040 28/23 Q1005 NOSIG",
    "RCTP": "METAR RCTP 141400Z VRB02KT 9999 FEW015 SCT040 BKN060 29/26 Q1010 NOSIG RMK A2984",
    "ZGSZ": "METAR ZGSZ 141400Z 17007MPS 9999 -SHRA SCT020 BKN043 26/24 Q1005 NOSIG",
    "WSSS": "METAR WSSS 141400Z 12008KT 9999 FEW018 BKN300 29/25 Q1011 NOSIG",
    "WMKK": "METAR WMKK 141400Z 13005KT 080V200 9000 FEW030 29/25 Q1010 NOSIG",
    "WIDD": "METAR WIDD 141400Z 12005KT 9999 FEW014 29/25 Q1011 NOSIG",
    "VTBS": "METAR VTBS 141400Z 21011KT 9999 FEW020 30/24 Q1008 NOSIG",
    "VTBU": "METAR VTBU 141400Z 24006KT 9999 FEW020 29/27 Q1009 NOSIG",
    "ROAH": "METAR ROAH 141400Z AUTO 19011KT 9999 NCD 27/25 Q1012",
    "VVDN": "METAR VVDN 141400Z VRB02KT 9999 FEW020 31/26 Q1006 NOSIG",
    "RCKH": "METAR RCKH 141400Z 16010KT 130V190 9999 VCSH FEW013 SCT018 BKN030 30/25 Q1011 NOSIG RMK A2986",
    "KLAX": "METAR KLAX 141453Z 28004KT 8SM FEW008 SCT180 21/18 A2998 RMK AO2 SLP151 T02110178 53006 $",
    "KONT": "METAR KONT 141453Z 00000KT 10SM FEW220 22/16 A3000 RMK AO2 SLP144 T02170156 53009 $",
    "KSFO": "METAR KSFO 141356Z 28006KT 10SM CLR 17/13 A2997 RMK AO2 SLP150 T01670128",
    "KOAK": "METAR KOAK 141453Z 00000KT 10SM CLR 19/14 A2998 RMK AO2 SLP151 T01940144 51006",
    "KMHR": "METAR KMHR 141355Z AUTO 00000KT 7SM CLR 22/13 A2994 RMK AO2 T02160125 $",
    "KDFW": "METAR KDFW 141453Z 10005KT 10SM SCT020 BKN030 BKN055 BKN250 27/22 A3008 RMK AO2 SLP178 T02720217 51013 $",
    "KIAH": "SPECI KIAH 141407Z 04004KT 2SM RA BR FEW008 BKN028 OVC075 24/23 A3011 RMK AO2 PRESRR P0003 T02390228",
    "KORD": "METAR KORD 141451Z 33003KT 10SM SCT250 30/22 A3018 RMK AO2 SLP214 T03000217 50000",
    "KJFK": "METAR KJFK 141451Z 23011KT 10SM BKN250 28/18 A3008 RMK AO2 SLP187 T02780178 58003",
    "KRFD": "METAR KRFD 141454Z 34005KT 10SM FEW250 29/22 A3021 RMK AO2 SLP224 T02890222 58002",
    "KIND": "METAR KIND 141454Z 00000KT 10SM FEW250 28/21 A3021 RMK AO2 SLP221 T02830206 50006 $",
    "KDTW": "METAR KDTW 141453Z 26008KT 10SM BKN250 29/19 A3015 RMK AO2 SLP205 T02940194 58005 $",
    "KMSP": "METAR KMSP 141453Z 27007KT 10SM CLR 28/20 A3020 RMK AO2 SLP219 T02780200 50001",
    "CYEG": "METAR CYEG 141400Z 06005KT 20SM FEW057 FEW070 FEW250 17/11 A3022 RMK SC1ACC1CI1 SC TR ACC TR TCU ASOCTD SLP236 DENSITY ALT 2900FT",
    "EHAM": "METAR EHAM 141355Z 05013KT 020V090 CAVOK 28/15 Q1020 NOSIG",
    "EBBR": "METAR EBBR 141420Z 03007KT 360V090 CAVOK 30/14 Q1018 NOSIG",
    "EDDF": "METAR EDDF 141420Z AUTO 06005KT 340V140 9999 VCSH FEW///CB 32/14 Q1015 RESHRA TEMPO TSRA",
    "EDFH": "METAR EDFH 141420Z 06009KT 020V110 CAVOK 20/14 Q1018 RETSRA",
    "EDDL": "METAR EDDL 141420Z AUTO 04014KT 350V050 CAVOK 30/11 Q1017 NOSIG",
    "EDDK": "METAR EDDK 141420Z AUTO 03013KT 360V070 CAVOK 32/13 Q1016 NOSIG",
    "EBLG": "METAR EBLG 141420Z 04011KT 010V080 CAVOK 31/14 Q1017 NOSIG",
    "LSZH": "METAR LSZH 141420Z 31004KT 260V010 9999 FEW068 FEW070CB 32/14 Q1016 TEMPO TS",
    "LIMC": "METAR LIMC 141420Z 26009KT 220V300 CAVOK 34/16 Q1015 NOSIG",
    "LIRF": "METAR LIRF 141420Z 19009KT 150V210 CAVOK 33/20 Q1016 NOSIG",
    "EINN": "METAR EINN 141400Z 08008KT 050V140 CAVOK 28/10 Q1021 NOSIG",
    "EGLL": "METAR EGLL 141420Z AUTO 05011KT 9999 NCD 26/16 Q1020",
    "EGSS": "METAR EGSS 141420Z 05011KT 010V080 CAVOK 29/14 Q1021",
    "EPWA": "METAR EPWA 141400Z 01006KT 310V050 CAVOK 27/14 Q1018 NOSIG",
    "UHPP": "METAR UHPP 141400Z 32002MPS 9999 -SHRA SCT040CB BKN079 18/15 Q1011 R34L/CLRD62 NOSIG RMK QFE755/1007",
    "EFHK": "METAR EFHK 141420Z VRB04KT 9999 FEW040 23/12 Q1019 NOSIG",
    "LBBG": "METAR LBBG 141400Z AUTO 12011KT 9999 NSC 27/16 Q1015 NOSIG",
    "LTAC": "METAR LTAC 141420Z 31010KT 270V330 9999 SCT040 SCT100 27/09 Q1013 NOSIG RMK RWY21C 31011KT 270V330 RWY03L 31010KT 260V340 RWY21R 29010KT 250V310 RWY03R 29010KT 250V310 RWY21L 30010KT 250V350",
    "UBBB": "METAR UBBB 141400Z 02008KT CAVOK 30/20 Q1005 NOSIG",
    "UTAA": "METAR UTAA 141400Z 09004KT 040V120 9999 FEW100 43/05 Q1005 R88/CLRD70 NOSIG",
    "UACC": "METAR UACC 141400Z 13003MPS 9999 SCT046 32/15 Q1005 NOSIG RMK QFE723/0964",
    "UAAA": "METAR UAAA 141400Z 13002MPS 9999 FEW050CB SCT100 BKN200 30/14 Q1009 NOSIG",
    "UZTT": "METAR UZTT 141400Z 36008KT 330V030 CAVOK 38/03 Q1005 NOSIG",
    "ZWWW": "METAR ZWWW 141400Z 26004MPS CAVOK 32/12 Q1007 NOSIG",
    "ZLXY": "METAR ZLXY 141400Z 26005MPS 9999 SCT070 27/20 Q1005 NOSIG",
    "ZBAA": "METAR ZBAA 141400Z VRB01MPS CAVOK 26/24 Q1000 NOSIG",
    "ZBHH": "METAR ZBHH 141400Z 17002MPS CAVOK 19/16 Q1009 NOSIG",
    "ZSQD": "METAR ZSQD 141400Z 30003MPS CAVOK 26/23 Q1002 NOSIG",
    "ZMCK": "METAR ZMCK 141400Z VRB02MPS CAVOK 16/09 Q1011 NOSIG RMK QFE643.6 64",
    "UUEE": "METAR UUEE 141400Z 32006MPS 260V340 9999 SCT050TCU 23/16 Q1011 R24L/CLRD62 R24C/CLRD62 NOSIG",
    "UUDD": "METAR UUDD 141400Z 35006MPS 310V030 9999 SCT046 24/14 Q1010 R88/CLRD65 NOSIG",
    "ULLI": "METAR ULLI 141400Z 32004MPS 280V360 9999 BKN033 19/12 Q1018 R88/090065 NOSIG",
    "USSS": "METAR USSS 141400Z 11003MPS 9999 BKN018CB 21/19 Q1011 R08R/210060 R08L/210060 TEMPO -TSRA RMK QFE738/0984",
    "UNNT": "METAR UNNT 141400Z 35001MPS CAVOK 22/12 Q1011 R07/CLRD// R34/CLRD// NOSIG RMK QFE748/0997",
    "UNKL": "METAR UNKL 141400Z 26002MPS CAVOK 17/13 Q1008 R29/CLRD// NOSIG RMK QFE731",
    "UIBB": "METAR UIBB 141400Z 09001MPS 9999 NSC 20/09 Q1005 R12/CLRD62 NOSIG RMK QFE711/0948",
    "UEEE": "METAR UEEE 141400Z 16003MPS 9999 SCT050CB 24/18 Q0994 R23/09//61 NOSIG RMK QFE737",
    "UHHH": "METAR UHHH 141400Z 12001MPS CAVOK 21/21 Q0998 R23L/090060 NOSIG RMK QFE742/0990",
    "UHSS": "METAR UHSS 141400Z 24001MPS 0150 R19/0550N FG VV001 19/19 Q1003 RMK QBB050 MT OBSC QFE751/1001"
  },
  "taf": {
    "RJAA": "TAF RJAA 141105Z 1412/1518 16004KT 9999 FEW030",
    "PANC": "TAF PANC 141503Z 1415/1518 02006KT P6SM -RA SCT035 OVC060 WS020/10035KT TEMPO 1415/1418 14015G25KT FM150000 13015G30KT P6SM VCSH OVC050 FM150200 10011KT 6SM -RA SCT025 BKN035 FM150400 16015G25KT 6SM -SHRA BKN025",
    "PAFA": "TAF PAFA 141144Z 1412/1518 VRB03KT P6SM BKN060 OVC100 FM141600 11006KT P6SM VCSH OVC060",
    "PAED": "TAF AMD PAED 141400Z 1414/1519 33010KT 8000 -RA BKN045 OVC060 620604 530406 QNH2986INS BECMG 1421/1422 36009KT 9999 VCSH BKN060 BKN080 620604 530406 QNH2978INS BECMG 1504/1505 30009KT 9000 -RA SCT025 BKN030 OVC060 620604 530406 QNH2979INS BECMG 1513/1514 24012G22KT 9999 NSW SCT050 BKN090 520208 QNH2986INS TX15/1501Z TN10/1416Z",
    "KSEA": "TAF KSEA 141508Z 1415/1518 34005KT P6SM SKC FM141900 31008KT P6SM SKC FM150700 36004KT P6SM BKN120",
    "ZSPD": "TAF ZSPD 140905Z 1412/1518 18004MPS 8000 SCT030 TX32/1412Z TX35/1506Z TN28/1421Z TEMPO 1505/1509 TSRA BKN008 SCT030CB",
    "ZSSS": "TAF ZSSS 140904Z 1412/1518 18004MPS 8000 SCT030 TX34/1412Z TX37/1506Z TN29/1421Z TEMPO 1506/1509 TSRA BKN008 SCT030CB",
    "RJFR": "TAF RJFR 141105Z 1412/1518 21006KT 9999 FEW015 SCT020 BKN050 BECMG 1515/1518 27008KT",
    "VHHH": "TAF VHHH 141400Z 1415/1521 18010KT 9999 FEW015 SCT025 TX30/1506Z TN26/1422Z TEMPO 1416/1421 20020G30KT 2000 +SHRA FEW010CB SCT020 TEMPO 1421/1503 20020G30KT 1500 TSRA +SHRA FEW008CB SCT015 TEMPO 1503/1506 3000 SHRA FEW010CB SCT020",
    "RCTP": "TAF RCTP 141100Z 1412/1518 14005KT 9999 FEW010 BKN032 TEMPO 1412/1418 20005KT TEMPO 1418/1424 21005KT TEMPO 1500/1503 24005KT BECMG 1503/1504 36005KT TEMPO 1506/1512 13005KT",
    "ZGSZ": "TAF ZGSZ 140907Z 1412/1518 16004MPS 8000 SCT013 SCT040 TX27/1412Z TX31/1506Z TN26/1422Z TEMPO 1421/1423 SHRA FEW020 FEW025CB BKN030 TEMPO 1500/1503 2000 +SHRA FEW012 FEW020CB BKN030 TEMPO 1505/1508 TSRA FEW012 FEW020CB BKN030",
    "WSSS": "TAF WSSS 141100Z 1412/1518 15009KT 9999 FEW015 SCT020",
    "WMKK": "TAF WMKK 141100Z 1412/1518 12006KT 9999 FEW030",
    "VTBS": "TAF VTBS 141100Z 1412/1518 21008KT 9999 FEW020 TEMPO 1412/1416 VRB15G25KT 4000 TSRA FEW018CB SCT030 BKN100 TEMPO 1508/1514 VRB15G25KT 4000 TSRA FEW018CB SCT030 BKN100",
    "VTBU": "TAF VTBU 141100Z 1412/1512 22010KT 9999 FEW020",
    "ROAH": "TAF ROAH 141105Z 1412/1518 20010KT 9999 FEW008 BKN012 TEMPO 1415/1421 FEW005 BKN008 TEMPO 1515/1518 FEW005 BKN008",
    "VVDN": "TAF VVDN 141100Z 1412/1512 22008KT 9999 FEW020 SCT060 TEMPO 1412/1414 TS SCT013 FEW015CB SCT060 BECMG 1504/1505 02010KT TEMPO 1508/1512 TS SCT013 FEW015CB SCT060",
    "RCKH": "TAF RCKH 141100Z 1412/1518 16005KT 6000 FEW010 BKN032 TEMPO 1418/1424 10005KT 4000 SHRA FEW010 BKN017 TEMPO 1500/1506 23005KT 4000 SHRA FEW010 BKN017 TEMPO 1506/1512 22005KT 3500 SHRA FEW010 BKN017",
    "KLAX": "TAF KLAX 141357Z 1414/1518 26005KT P6SM SCT007 TEMPO 1414/1415 BKN007 FM141700 26006KT P6SM SCT008 FM141900 26012KT P6SM SCT250 FM150300 26006KT P6SM SCT250 FM150700 24005KT P6SM BKN008 FM151000 VRB03KT P6SM OVC006",
    "KONT": "TAF KONT 141234Z 1413/1518 VRB04KT P6SM FEW150 FM142000 25012G20KT P6SM FEW200 FM150300 25007KT P6SM SKC FM150700 VRB04KT P6SM SKC",
    "KSFO": "TAF KSFO 141448Z 1415/1518 28007KT P6SM FEW150 FM141900 28015G25KT P6SM SKC FM150400 29014KT P6SM SKC FM150800 26009KT P6SM SKC",
    "KOAK": "TAF KOAK 141120Z 1412/1518 28004KT P6SM FEW150 FM142000 27010KT P6SM SKC FM150300 24007KT P6SM FEW007",
    "KMHR": "TAF KMHR 141120Z 1412/1512 VRB05KT P6SM BKN250 FM142100 24010G17KT P6SM SCT250 FM150700 16003KT P6SM SKC",
    "KDFW": "TAF KDFW 141501Z 1415/1518 09005KT P6SM VCSH SCT020 BKN060 TEMPO 1415/1416 BKN020 FM141700 10007KT P6SM SCT025 BKN060 FM141900 12007KT P6SM VCTS SCT060CB TEMPO 1422/1424 4SM -TSRA OVC035CB FM150000 16005KT P6SM SCT100",
    "KIAH": "TAF KIAH 141504Z 1415/1518 09007KT 2SM SHRA BR SCT008 BKN018 OVC035 FM141700 18007KT 6SM SHRA BR SCT020 BKN025 FM142000 15007KT P6SM SCT030 OVC100 FM150300 VRB03KT P6SM SCT030 BKN070 FM151500 13005KT P6SM SCT030 BKN060 PROB30 1515/1518 4SM TSRA BKN035CB",
    "KORD": "TAF KORD 141459Z 1415/1518 31005KT P6SM SCT250 FM141900 08006KT P6SM FEW250 FM142300 26005KT P6SM SKC",
    "KJFK": "TAF KJFK 141437Z 1415/1518 24012KT P6SM BKN250 FM141700 23015KT P6SM SCT250 FM141900 21017G26KT P6SM SCT250 FM150000 23016G21KT P6SM SCT250 FM150700 26011KT P6SM SCT250 FM151300 27014KT P6SM FEW250 FM151600 27017G27KT P6SM FEW250",
    "KRFD": "TAF KRFD 141126Z 1412/1512 32005KT P6SM SKC FM142000 27004KT P6SM SKC",
    "KIND": "TAF KIND 141120Z 1412/1518 03005KT P6SM FEW250 FM141600 09006KT P6SM FEW050 FM142100 12005KT P6SM FEW250",
    "KDTW": "TAF KDTW 141502Z 1415/1518 26010KT P6SM SCT250 FM150100 27005KT P6SM SCT250 FM151500 29005KT P6SM SCT250",
    "KMSP": "TAF KMSP 141500Z 1415/1518 25009KT P6SM SKC FM151300 27004KT P6SM SKC",
    "CYEG": "TAF CYEG 141440Z 1415/1512 10005KT P6SM SKC FM142200 13012KT P6SM FEW050 FM150200 12015G25KT P6SM SCT050 PROB40 1502/1508 VRB30G40KT 2SM TSRA OVC050CB FM150800 14010KT P6SM FEW040 FM151000 16005KT P6SM SCT120 RMK NXT FCST BY 141800Z",
    "EHAM": "TAF EHAM 141036Z 1412/1518 05016KT CAVOK BECMG 1419/1422 04008KT BECMG 1508/1511 05016KT",
    "EBBR": "TAF EBBR 141100Z 1412/1518 04010KT CAVOK",
    "EDDF": "TAF EDDF 141100Z 1412/1518 04011KT 9999 FEW040 TEMPO 1413/1419 30020G30KT TSRA SCT040 BKN070CB PROB30 TEMPO 1414/1418 30025G45KT 2000 +TSRAGR BECMG 1500/1502 04006KT PROB30 TEMPO 1504/1509 35015G25KT TSRA BKN015 BKN030CB BECMG 1509/1511 04011KT PROB30 TEMPO 1513/1517 04015G25KT",
    "EDFH": "TAF EDFH 141100Z 1412/1512 05010KT CAVOK TEMPO 1412/1418 04020G30KT TSRA BKN060CB PROB30 TEMPO 1414/1418 31025G45KT 2000 +TSRAGR PROB30 TEMPO 1506/1509 BKN010",
    "EDDL": "TAF EDDL 141100Z 1412/1518 03013KT CAVOK PROB30 TEMPO 1413/1417 04015G25KT BECMG 1419/1422 02005KT BECMG 1508/1510 04010KT",
    "EDDK": "TAF EDDK 141100Z 1412/1518 04008KT CAVOK BECMG 1420/1423 VRB03KT BECMG 1508/1511 04008KT",
    "EBLG": "TAF EBLG 141100Z 1412/1518 04010KT CAVOK",
    "LSZH": "TAF LSZH 141425Z 1415/1521 33005KT 9999 FEW070TCU TX31/1415Z TN19/1504Z TX29/1513Z TEMPO 1415/1419 18010KT PROB40 TEMPO 1415/1420 20015G25KT TSRA SCT060CB PROB30 TEMPO 1417/1420 32015G25KT BECMG 1420/1423 CAVOK PROB40 1509/1513 08005KT BECMG 1511/1513 9999 FEW080TCU PROB40 TEMPO 1513/1521 21015G25KT TSRA SCT060CB PROB30 TEMPO 1513/1517 24020G35KT 4000 TSGR",
    "LIMC": "TAF AMD LIMC 141336Z 1413/1518 23010KT CAVOK BECMG 1418/1420 VRB05KT",
    "LIRF": "TAF LIRF 141100Z 1412/1518 19012KT CAVOK BECMG 1417/1419 13007KT BECMG 1509/1511 21010KT",
    "EINN": "TAF EINN 141100Z 1412/1512 08010KT CAVOK BECMG 1419/1421 05007KT BECMG 1510/1512 08010KT",
    "EGLL": "TAF EGLL 141054Z 1412/1518 03010KT 9999 FEW040 BECMG 1412/1414 09014KT BECMG 1418/1421 03010KT PROB30 1503/1508 BKN010 BECMG 1510/1513 09012KT",
    "EGSS": "TAF EGSS 141102Z 1412/1518 04012KT 9999 BKN012 BECMG 1412/1414 FEW025 PROB40 TEMPO 1412/1419 05015G25KT BECMG 1422/1501 BKN008 PROB30 1502/1506 8000 -DZ BKN004 BECMG 1506/1509 FEW020",
    "EPWA": "TAF EPWA 141430Z 1415/1515 36010KT CAVOK BECMG 1422/1501 VRB02KT PROB40 1500/1507 BKN005",
    "UHPP": "TAF UHPP 141337Z 1415/1521 35003G08MPS 9999 BKN025CB TX27/1503Z TN14/1418Z TEMPO 1415/1421 1000 -SHRA BR BKN004 BKN013CB",
    "EFHK": "TAF EFHK 141428Z 1415/1515 35005KT 9999 FEW040",
    "LBBG": "TAF LBBG 141100Z 1412/1512 15010KT 9999 SCT050 BECMG 1417/1419 VRB04KT",
    "LTAC": "TAF LTAC 141040Z 1412/1512 VRB02KT 9999 SCT040 SCT100 TEMPO 1412/1416 33012KT BECMG 1416/1418 CAVOK BECMG 1504/1507 SCT040 SCT100 PROB40 TEMPO 1508/1512 -SHRA BKN030 BKN080",
    "UBBB": "TAF UBBB 141048Z 1412/1512 02008KT CAVOK TX32/1412Z TN24/1501Z TEMPO 1412/1416 05010KT BECMG 1416/1418 33010KT SCT015 BECMG 1422/1424 34024G34KT SCT012 FEW030CB TEMPO 1502/1512 33028G38KT",
    "UTAA": "TAF UTAA 141045Z 1412/1512 02016KT 6000 SCT050 TX42/1508 BECMG 1416/1418 26014KT TEMPO 1420/1503 18010G20KT BECMG 1506/1508 06016KT 4000 DRDU",
    "UACC": "TAF UACC 141100Z 1412/1512 15005MPS 9999 SCT040 BKN100 TX33/1509Z TN22/1423Z TEMPO 1412/1418 -TSRA BKN030CB TEMPO 1418/1504 18005MPS -TSRA BKN030CB BECMG 1504/1506 26005MPS SCT040CB TEMPO 1504/1512 VRB16MPS 3100 -TSRA BKN030CB",
    "UAAA": "TAF UAAA 141102Z 1412/1512 15003MPS 9999 FEW050CB SCT100 TX35/1510Z TN20/1501Z TEMPO 1412/1415 06005MPS TEMPO 1415/1424 21005MPS BECMG 1503/1504 35005MPS TEMPO 1506/1512 05005G10MPS",
    "UZTT": "TAF UZTT 141100Z 1412/1512 07010KT 7000 NSC TX40/1511Z TN26/1500Z TEMPO 1412/1416 32010G20KT",
    "ZWWW": "TAF ZWWW 140904Z 1412/1518 20004G09MPS CAVOK TX35/1509Z TN28/1423Z TN28/1518Z BECMG 1500/1501 34004G11MPS BECMG 1507/1508 9999 FEW040CB BECMG 1514/1515 20004MPS CAVOK",
    "ZLXY": "TAF AMD ZLXY 141219Z 1412/1512 26004MPS 6000 NSC TX34/1508Z TN25/1422Z",
    "ZBAA": "TAF ZBAA 140901Z 1412/1518 17004MPS CAVOK TX36/1506Z TN23/1421Z TN25/1518Z",
    "ZBHH": "TAF ZBHH 140902Z 1412/1512 06004MPS 9999 FEW040 TX31/1508Z TN14/1422Z TEMPO 1412/1414 FEW040CB FEW040",
    "ZSQD": "TAF ZSQD 140902Z 1412/1512 34005MPS 3500 BR NSC TX28/1506Z TN22/1420Z BECMG 1414/1415 22003MPS BECMG 1420/1421 1200 BECMG 1423/1424 3000",
    "ZMCK": "TAF ZMCK 141039Z 1412/1518 VRB02MPS 9999 FEW030CB SCT033 TN08/1421Z TX27/1507Z BECMG 1503/1505 28005MPS BECMG 1510/1512 VRB02MPS",
    "UUEE": "TAF UUEE 141352Z 1415/1515 33005MPS 9999 BKN020 TX25/1512Z TN17/1501Z TEMPO 1415/1418 31009G16MPS PROB40 TEMPO 1415/1418 -TSRA BKN016CB TEMPO 1421/1506 BKN007 TEMPO 1507/1515 35008G15MPS",
    "UUDD": "TAF UUDD 141356Z 1415/1521 33003G08MPS 9999 SCT020 TX26/1512Z TN16/1501Z TEMPO 1415/1418 36008G13MPS PROB40 TEMPO 1415/1418 -TSRA BKN016CB TEMPO 1421/1506 BKN007 TEMPO 1509/1517 36008G14MPS",
    "ULLI": "TAF ULLI 141350Z 1415/1515 35003MPS 9999 BKN020 PROB40 TEMPO 1421/1503 1000 BR BECMG 1506/1508 30005G10MPS",
    "USSS": "TAF USSS 141354Z 1415/1515 12003G13MPS 9999 BKN020CB TEMPO 1415/1418 VRB20MPS -TSRAGR SQ FM141800 06003MPS 8000 -SHRA BKN016CB TEMPO 1418/1503 0300 -TSRA FG BKN004 BKN010CB TEMPO 1503/1515 -TSRAGR BECMG 1504/1506 15003G14MPS",
    "UNNT": "TAF UNNT 141400Z 1415/1515 35003G08MPS 8000 SCT040 TX26/1508Z TN13/1422Z TEMPO 1421/1501 0300 FG SCT002",
    "UNKL": "TAF UNKL 141346Z 1415/1515 26002G07MPS 6000 SCT040 BECMG 1503/1506 29007G16MPS BECMG 1510/1513 28002G07MPS",
    "UIBB": "TAF UIBB 141400Z 1415/1515 19002MPS 9999 -SHRA BKN020CB TEMPO 1415/1417 VRB07MPS BECMG 1417/1418 28005MPS TEMPO 1503/1512 VRB10MPS -TSRA",
    "UEEE": "TAF UEEE 141400Z 1415/1521 12003G10MPS 9999 SCT030CB OVC100 TX26/1506Z TN18/1418Z TEMPO 1415/1421 VRB15MPS 3200 -TSRA SQ SCT010 BKN020CB OVC100",
    "UHHH": "TAF UHHH 141346Z 1415/1521 14003MPS 9999 FEW010 SCT020CB TX26/1508Z TN21/1420Z BECMG 1416/1418 5000 -SHRA FEW005 BKN016CB TEMPO 1418/1506 1000 SHRA BKN003 BKN016CB BECMG 1422/1424 36005MPS BECMG 1509/1512 20003MPS",
    "UHSS": "TAF AMD UHSS 141433Z 1414/1521 19003MPS 0500 FG BKN002 OVC015 TEMPO 1415/1423 0300 FG BKN001 BECMG 1423/1501 9999 NSW BKN016CB BECMG 1504/1506 6000 -SHRA"
  },
  "atis": {},
  "windtemp_alaska": "\n000\nFBAK31 KWNO 141359\nFD1AK1\nDATA BASED ON 141200Z    \nVALID 141800Z   FOR USE 1400-2100Z. TEMPS NEG ABV 24000\n\nFT  3000    6000    9000   12000   18000   24000  30000  34000  39000\nADK 2411 2622+02 2737+02 2742-02 2747-12 2752-23 275539 275949 275760\nADQ 2128 2136+08 2136+02 2138-02 2155-14 2166-25 207041 208249 217954\nAKN 2030 1825+06 1826+00 1827-05 2036-17 2050-28 205644 205449 215145\nANC 1328 1734+04 2130+01 2236-03 2251-15 2263-26 228341 228851 227755\nANN 3608 3410+07 3209+02 3206-02 3310-15 3626-28 366142 367351 353550\nBET 1811 1720+04 1724-02 1720-07 1714-18 1808-30 201944 192650 212943\nBRW 2010 1912+01 1814-05 1614-10 1312-23 1309-35 150848 151245 161241\nBTI 2623 2620+02 2418-03 2418-09 2119-23 2019-35 191946 202044 211842\nBTT 1411 1516+01 1520-04 1718-10 2227-21 2342-30 234146 233550 223145\nCDB 2732 2734+01 2638-01 2643-05 2648-19 2555-31 267742 267244 254944\nCZF 0317 0110-01 9900-06 9900-09 1919-19 1930-31 183846 183248 211942\nEHM 1714 1619+04 1717-01 1819-06 1820-18 1820-29 172445 192546 223142\nFAI 1820 1927+02 1830-03 1830-07 2231-17 2252-27 237043 238753 244149\nFYU 2006 2112+03 2117-04 2123-09 2436-19 2445-29 256945 258652 243746\nGAL 1311 1912+00 1815-04 1914-08 2131-19 2133-30 213846 213750 222744\nGKN 1630 1841+01 2041-02 2135-03 2232-14 2349-25 235241 247551 256855\nHOM 1530 2024+08 2131+03 2137-03 2054-15 2170-25 207741 218751 217353\nJNU 9900 2905+01 9900+01 9900-02 3316-12 3433-24 345140 345850 335458\nLUR 1810 1410-01 1109-06 1108-13 0310-25 0316-37 030943 990042 140641\nMCG 1510 1816+02 1923-01 2027-06 2127-18 1935-29 194445 195250 213644\nMDO 1632 2028+07 2231+03 2335-02 2331-14 2435-24 234639 235749 247059\nOME 9900 1810-01 1806-05 1709-10 1916-22 2020-32 203446 203248 211743\nORT      1814+05 2019+00 2120-04 2427-14 2440-25 265442 267552 275155\nOTZ 1415 1722-01 1812-06 2010-11 2013-21 2015-33 223647 222447 211542\nSNP 3224 3221-03 3019-07 2822-11 2630-23 2638-35 263644 263642 263240\nTKA 1625 1928+00 2021-03 2029-05 2037-15 2050-27 217242 218652 226651\nUNK 1118 1114+00 1413-04 1711-08 1922-20 2129-31 202645 212750 212543\nYAK 9900 2409+02 2511+01 2512+00 2723-12 2824-24 293439 284549 295559\nIKO 2818 2820+00 2731+00 2638-04 2761-13 2773-25 278140 278949 268158\nAFM 1413 1414-02 1712-06 1814-10 1917-21 2124-33 234847 233848 212042\n5AB 2421 2626+07 2733+04 2740+00 2844-11 2847-23 295139 285549 295459\n5AC 3416 3311+06 3408+02 3510-01 3522-14 3641-25 016241 017549 016657\n5AD 2720 2621+10 2725+07 2824+02 2823-12 2620-22 242239 252448 262558\n5AE 2339 2348+06 2351+03 2352-02 2358-13 2266-26 227242 227749 236550\n5AF 2705 2706+03 2608+00 3009-01 3521-11 3431-23 354839 344749 356459\n5AG 1615 2212+06 2814+04 2818+00 2522-12 2623-23 262739 263349 284359\n",
  "vaac_active": [
    {
      "volcano": "MAYON",
      "volcano_jp": "マヨン",
      "advisory_nr": "2026/742",
      "obs_time": "2026-07-14 14:27Z",
      "issued_time": "2026-07-14 14:43Z",
      "text_url": "https://www.data.jma.go.jp/vaac/data/TextData/2026/20260714_27303000_0742_Text.html",
      "lat": 13.25,
      "lon": 123.683,
      "text": "FVFE01 RJTD 141443\nVA ADVISORY\nDTG: 20260714/1443Z\nVAAC: TOKYO\nVOLCANO: MAYON 273030\nPSN: N1315 E12341\nAREA: PHILIPPINES\nSOURCE ELEV: 2462M AMSL\nADVISORY NR: 2026/742\nINFO SOURCE: HIMAWARI-9 PHIVOLCS\nERUPTION DETAILS: ERUPTION AT 20260714/1427Z VA CLD UNKNOWN REPORTED\nOBS VA DTG: 14/1430Z\nOBS VA CLD: VA NOT IDENTIFIABLE FM SATELLITE DATA WIND FL180 040/6KT\nFCST VA CLD +6 HR: NOT AVBL\nFCST VA CLD +12 HR: NOT AVBL\nFCST VA CLD +18 HR: NOT AVBL\nRMK: WE WILL ISSUE FURTHER ADVISORY IF VA IS DETECTED IN SATELLITE \nIMAGERY.\nNXT ADVISORY: NO FURTHER ADVISORIES="
    },
    {
      "volcano": "SHEVELUCH",
      "volcano_jp": "シベルチ",
      "advisory_nr": "2026/263",
      "obs_time": "2026-07-14 11:20Z",
      "issued_time": "2026-07-14 12:00Z",
      "text_url": "https://www.data.jma.go.jp/vaac/data/TextData/2026/20260714_30027000_0263_Text.html",
      "lat": 56.65,
      "lon": 161.367,
      "text": "FVFE01 RJTD 141200\nVA ADVISORY\nDTG: 20260714/1200Z\nVAAC: TOKYO\nVOLCANO: SHEVELUCH 300270\nPSN: N5639 E16122\nAREA: RUSSIA\nSOURCE ELEV: 3283M AMSL\nADVISORY NR: 2026/263\nINFO SOURCE: HIMAWARI-9\nERUPTION DETAILS: VA CONTINUOUSLY OBS IN SATELLITE IMAGERY\nOBS VA DTG: 14/1120Z\nOBS VA CLD: SFC/FL390 N5359 E16539 - N5422 E16550 - N5414 E16656 - \nN5349 E16654 MOV SE 40KT\nFCST VA CLD +6 HR: 14/1720Z SFC/FL400 N5233 E17412 - N5141 E17210 - \nN5144 E17002 - N5224 E17116\nFCST VA CLD +12 HR: 14/2320Z SFC/FL400 N5147 W17910 - N5115 W17906 - \nN5025 E17725 - N5008 E17317 - N5113 E17652\nFCST VA CLD +18 HR: 15/0520Z SFC/FL400 N5217 W17056 - N5119 W17200 - \nN4942 W17651 - N4907 E17606 - N5056 W17716\nRMK: THE RESPONSIBILITY FOR THIS ASH EVENT IS BEING TRANSFERRED TO \nVAAC ANCHORAGE. THE NEXT ADVISORY WILL BE ISSUED BY VAAC ANCHORAGE \nBY 1800UTC UNDER HEADER FVAK21 PAWU. SOME PART OF VA OBSCURED BY MET \nCLOUD.\nNXT ADVISORY: NO FURTHER ADVISORIES="
    },
    {
      "volcano": "MAYON",
      "volcano_jp": "マヨン",
      "advisory_nr": "2026/741",
      "obs_time": "2026-07-14 06:29Z",
      "issued_time": "2026-07-14 10:42Z",
      "text_url": "https://www.data.jma.go.jp/vaac/data/TextData/2026/20260714_27303000_0741_Text.html",
      "lat": 13.25,
      "lon": 123.683,
      "text": "FVFE01 RJTD 141042\nVA ADVISORY\nDTG: 20260714/1042Z\nVAAC: TOKYO\nVOLCANO: MAYON 273030\nPSN: N1315 E12341\nAREA: PHILIPPINES\nSOURCE ELEV: 2462M AMSL\nADVISORY NR: 2026/741\nINFO SOURCE: HIMAWARI-9 PHIVOLCS\nERUPTION DETAILS: ERUPTION AT 20260714/0629Z FL130 EXTD SW-SE \nREPORTED\nOBS VA DTG: 14/1020Z\nOBS VA CLD: VA NOT IDENTIFIABLE FM SATELLITE DATA WIND FL130 050/4KT\nFCST VA CLD +6 HR: NOT AVBL\nFCST VA CLD +12 HR: NOT AVBL\nFCST VA CLD +18 HR: NOT AVBL\nRMK: WE WILL ISSUE FURTHER ADVISORY IF VA IS DETECTED IN SATELLITE \nIMAGERY.\nNXT ADVISORY: NO FURTHER ADVISORIES="
    }
  ],
  "vaac_tokyo": [
    {
      "id": "20260714_30027000_0263",
      "year": "2026",
      "volcano": "Sheveluch",
      "psn": "N5639 E16122",
      "issued": "20260714",
      "text": "FVFE01 RJTD 141200\nVA ADVISORY\nDTG: 20260714/1200Z\nVAAC: TOKYO\nVOLCANO: SHEVELUCH 300270\nPSN: N5639 E16122\nAREA: RUSSIA\nSOURCE ELEV: 3283M AMSL\nADVISORY NR: 2026/263\nINFO SOURCE: HIMAWARI-9\nERUPTION DETAILS: VA CONTINUOUSLY OBS IN SATELLITE IMAGERY\nOBS VA DTG: 14/1120Z\nOBS VA CLD: SFC/FL390 N5359 E16539 - N5422 E16550 - N5414 E16656 - \nN5349 E16654 MOV SE 40KT\nFCST VA CLD +6 HR: 14/1720Z SFC/FL400 N5233 E17412 - N5141 E17210 - \nN5144 E17002 - N5224 E17116\nFCST VA CLD +12 HR: 14/2320Z SFC/FL400 N5147 W17910 - N5115 W17906 - \nN5025 E17725 - N5008 E17317 - N5113 E17652\nFCST VA CLD +18 HR: 15/0520Z SFC/FL400 N5217 W17056 - N5119 W17200 - \nN4942 W17651 - N4907 E17606 - N5056 W17716\nRMK: THE RESPONSIBILITY FOR THIS ASH EVENT IS BEING TRANSFERRED TO \nVAAC ANCHORAGE. THE NEXT ADVISORY WILL BE ISSUED BY VAAC ANCHORAGE \nBY 1800UTC UNDER HEADER FVAK21 PAWU. SOME PART OF VA OBSCURED BY MET \nCLOUD.\nNXT ADVISORY: NO FURTHER ADVISORIES=",
      "img_url": "https://ds.data.jma.go.jp/svd/vaac/data/VAGFN/2026/Images/20260714_30027000_0263_QH21_01.png",
      "sat_img_url": "https://ds.data.jma.go.jp/svd/vaac/data/Sat/2026/Images/30027000/09-ir/20260714_1120_202607141200_ir.png",
      "text_url": "https://ds.data.jma.go.jp/svd/vaac/data/TextData/2026/20260714_30027000_0263_Text.html"
    },
    {
      "id": "20260714_27303000_0741",
      "year": "2026",
      "volcano": "Mayon",
      "psn": "N1315 E12341",
      "issued": "20260714",
      "text": "FVFE01 RJTD 141042\nVA ADVISORY\nDTG: 20260714/1042Z\nVAAC: TOKYO\nVOLCANO: MAYON 273030\nPSN: N1315 E12341\nAREA: PHILIPPINES\nSOURCE ELEV: 2462M AMSL\nADVISORY NR: 2026/741\nINFO SOURCE: HIMAWARI-9 PHIVOLCS\nERUPTION DETAILS: ERUPTION AT 20260714/0629Z FL130 EXTD SW-SE \nREPORTED\nOBS VA DTG: 14/1020Z\nOBS VA CLD: VA NOT IDENTIFIABLE FM SATELLITE DATA WIND FL130 050/4KT\nFCST VA CLD +6 HR: NOT AVBL\nFCST VA CLD +12 HR: NOT AVBL\nFCST VA CLD +18 HR: NOT AVBL\nRMK: WE WILL ISSUE FURTHER ADVISORY IF VA IS DETECTED IN SATELLITE \nIMAGERY.\nNXT ADVISORY: NO FURTHER ADVISORIES=",
      "img_url": "https://ds.data.jma.go.jp/svd/vaac/data/VAGFN/2026/Images/20260714_27303000_0741_QH21_01.png",
      "sat_img_url": null,
      "text_url": "https://ds.data.jma.go.jp/svd/vaac/data/TextData/2026/20260714_27303000_0741_Text.html"
    },
    {
      "id": "20260713_28208001_0083",
      "year": "2026",
      "volcano": null,
      "psn": "N3136 E13039",
      "issued": "20260713",
      "text": "FVFE01 RJTD 130254\nVA ADVISORY\nDTG: 20260713/0254Z\nVAAC: TOKYO\nVOLCANO: SAKURAJIMA (AIRA CALDERA) 282080\nPSN: N3136 E13039\nAREA: JAPAN\nSOURCE ELEV: 1117M AMSL\nADVISORY NR: 2026/83\nINFO SOURCE: JMA HIMAWARI-9\nERUPTION DETAILS: ERUPTED AT 20260713/0152Z FL100 EXTD N\nOBS VA DTG: 13/0230Z\nOBS VA CLD: SFC/FL100 N3136 E13039 - N3142 E13040 - N3141 E13044 - \nN3134 E13042 MOV NE 15KT\nFCST VA CLD +6 HR: 13/0830Z SFC/FL100 N3234 E13121 - N3145 E13155 - \nN3202 E13110 - N3227 E13051\nFCST VA CLD +12 HR: 13/1430Z SFC/FL100 N3318 E13206 - N3142 E13317 - \nN3134 E13226 - N3312 E13118\nFCST VA CLD +18 HR: NO VA EXP\nRMK: NIL\nNXT ADVISORY: 20260713/0600Z=",
      "img_url": "https://ds.data.jma.go.jp/svd/vaac/data/VAGFN/2026/Images/20260713_28208001_0083_QH21_01.png",
      "sat_img_url": "https://ds.data.jma.go.jp/svd/vaac/data/Sat/2026/Images/28208001/09-ir/20260713_0230_202607130254_ir.png",
      "text_url": "https://ds.data.jma.go.jp/svd/vaac/data/TextData/2026/20260713_28208001_0083_Text.html"
    },
    {
      "id": "20260712_27307000_0012",
      "year": "2026",
      "volcano": "Taal",
      "psn": "N1400 E12100",
      "issued": "20260712",
      "text": "FVFE01 RJTD 121243\nVA ADVISORY\nDTG: 20260712/1243Z\nVAAC: TOKYO\nVOLCANO: TAAL 273070\nPSN: N1400 E12100\nAREA: PHILIPPINES\nSOURCE ELEV: 311M AMSL\nADVISORY NR: 2026/12\nINFO SOURCE: HIMAWARI-9 PHIVOLCS\nERUPTION DETAILS: ERUPTION AT 20260712/1227Z FL050 EXTD NE REPORTED\nOBS VA DTG: 12/1230Z\nOBS VA CLD: VA NOT IDENTIFIABLE FM SATELLITE DATA WIND FL050 230/19KT\nFCST VA CLD +6 HR: NOT AVBL\nFCST VA CLD +12 HR: NOT AVBL\nFCST VA CLD +18 HR: NOT AVBL\nRMK: WE WILL ISSUE FURTHER ADVISORY IF VA IS DETECTED IN SATELLITE \nIMAGERY.\nNXT ADVISORY: NO FURTHER ADVISORIES=",
      "img_url": "https://ds.data.jma.go.jp/svd/vaac/data/VAGFN/2026/Images/20260712_27307000_0012_QH21_01.png",
      "sat_img_url": null,
      "text_url": "https://ds.data.jma.go.jp/svd/vaac/data/TextData/2026/20260712_27307000_0012_Text.html"
    }
  ],
  "vaac_alaska": [
    {
      "text": "\n000\nFVAK21 PAWU 141218\nVAAAK1\nVA ADVISORY\n\nDTG: 20260714/1215Z\n\nVAAC: ANCHORAGE\n\nVOLCANO: SHEVELUCH 300270\n\nPSN: N5639 E16122\n\nAREA: KAMCHATKA PENINSULA\n\nSOURCE ELEV: 10771 FT AMSL\n\nADVISORY NR: 2026/196\n\nRMK: PLEASE SEE FVFE01 RJTD ISSUED BY VAAC TOKYO WHICH DESCRIBES\nCONDITIONS NEAR THE VAAC ANCHORAGE AREA OF RESPONSIBILITY...CC\n\n\n\n",
      "issued": "2026-07-14T12:18:00+00:00",
      "volcano": "Sheveluch",
      "psn": "N5639 E16122"
    }
  ]
}