{
  "updated_utc": "2026-06-29T07:17Z",
  "metar": {
    "RJAA": "METAR RJAA 290530Z 18005KT 130V210 9999 FEW015 SCT020 BKN/// 25/22 Q1013 NOSIG",
    "PANC": "METAR PANC 290553Z 15013G21KT 10SM FEW040 FEW065 14/09 A3009 RMK AO2 SLP190 60005 T01440089 10167 20128 58001",
    "PAFA": "METAR PAFA 290553Z 24006KT 10SM FEW049 FEW065 SCT090 16/07 A2997 RMK AO2 SLP152 60000 T01560072 10172 20156 53001 $",
    "PAED": "METAR PAED 290555Z 35005KT 10SM FEW050 SCT060 BKN080 15/11 A3007 RMK AO2A SLP179 60000 T01520110 10174 20147 56004 $",
    "KSEA": "SPECI KSEA 290524Z 22009KT 10SM BKN023 14/09 A3007 RMK AO2 T01390094 $",
    "ZSPD": "METAR ZSPD 290530Z 13006MPS 9999 BKN013 27/24 Q1009 NOSIG",
    "ZSSS": "METAR ZSSS 290530Z 14005MPS 110V170 9999 BKN026 29/23 Q1008 NOSIG",
    "RJFR": "METAR RJFR 290600Z 09004KT 9999 FEW030 26/19 Q1011",
    "VHHH": "METAR VHHH 290530Z 08007KT 050V110 9999 FEW015 32/24 Q1006 NOSIG",
    "RCTP": "METAR RCTP 290530Z 01008KT 340V040 9999 FEW020 SCT200 32/27 Q1008 NOSIG RMK A2979",
    "ZGSZ": "METAR ZGSZ 290600Z 22004MPS 9999 SCT030 30/27 Q1006 NOSIG",
    "WSSS": "METAR WSSS 290530Z 16008KT 9000 -SHRA FEW016TCU FEW018CB SCT300 31/25 Q1009 NOSIG",
    "WMKK": "METAR WMKK 290530Z 27008KT 210V320 8000 -RA FEW009 FEW017CB SCT018 28/25 Q1009 NOSIG",
    "WIDD": "METAR WIDD 290530Z 17007KT 130V210 1800 RA BKN014 29/25 Q1010 NOSIG",
    "ROAH": "METAR ROAH 290530Z 18010KT 9999 FEW005 SCT/// 30/29 Q1012",
    "RCKH": "METAR RCKH 290530Z 14017G27KT 120V180 9999 VCSH FEW020 BKN040 BKN070 31/22 Q1008 NOSIG RMK A2979",
    "KLAX": "METAR KLAX 290553Z 23005KT 10SM CLR 18/14 A2986 RMK AO2 SLP111 T01780139 10206 20172 50006",
    "KONT": "METAR KONT 290553Z 24006KT 10SM FEW022 17/13 A2987 RMK AO2 SLP107 T01720133 10244 20172 51013 $",
    "KSFO": "METAR KSFO 290556Z 29014KT 10SM FEW012 14/11 A2988 RMK AO2 SLP117 T01390106 10211 20139 56001 $",
    "KOAK": "METAR KOAK 290553Z 27006KT 10SM CLR 16/12 A2988 RMK AO2 SLP116 T01560117 10228 20156 56005",
    "KDFW": "METAR KDFW 290553Z 17018G30KT 10SM FEW250 28/22 A2987 RMK AO2 PK WND 17031/0506 SLP103 T02830217 10344 20283 403610261 51014 $",
    "KIAH": "METAR KIAH 290553Z 17010KT 7SM SCT023 BKN036 29/25 A2998 RMK AO2 SLP151 T02890250 10317 20283 403500272 51013",
    "KORD": "METAR KORD 290551Z 15007KT 10SM FEW020 BKN110 BKN250 25/22 A2991 RMK AO2 SLP122 T02500217 10267 20239 402720167 50004 $",
    "KJFK": "METAR KJFK 290551Z 00000KT 10SM FEW250 20/19 A3003 RMK SLP170 T02000189 10228 20200 53001 $",
    "KRFD": "SPECI KRFD 290535Z 09003KT 10SM SCT020 SCT042 BKN060 24/22 A2991 RMK AO2 T02440217 $",
    "KIND": "METAR KIND 290554Z 12007KT 10SM FEW030 BKN180 26/23 A2997 RMK AO2 SLP140 T02560233 10283 20256 51023 $",
    "KDTW": "METAR KDTW 290553Z 00000KT 10SM FEW055 SCT150 SCT220 21/18 A3004 RMK AO2 SLP167 T02060183 10256 20206 53007 $",
    "KMSP": "METAR KMSP 290553Z 13013G20KT 10SM BKN037 BKN050 24/21 A2971 RMK AO2 SLP056 T02390211 10250 20239 402780189 55002 $",
    "CYEG": "METAR CYEG 290600Z 33004KT 20SM FEW073 SCT110 BKN120 15/14 A2978 RMK AC1AC3AC4 AC TR SLP088 DENSITY ALT 3200FT",
    "EHAM": "METAR EHAM 290525Z 27006KT CAVOK 19/16 Q1022 NOSIG",
    "EBBR": "METAR EBBR 290520Z 25006KT CAVOK 16/13 Q1024 NOSIG",
    "EDDF": "METAR EDDF 290520Z AUTO 36008KT 320V030 9999 -SHRA BKN034 FEW///CB 22/20 Q1022 TEMPO SHRA",
    "EDFH": "METAR EDFH 290520Z 35007KT 320V020 7000 BKN003 BKN019 18/18 Q1024",
    "EDDL": "METAR EDDL 290520Z AUTO VRB02KT CAVOK 21/17 Q1023 TEMPO SHRA SCT030TCU",
    "EDDK": "METAR EDDK 290520Z AUTO 33006KT 300V360 CAVOK 21/17 Q1023 NOSIG",
    "EBLG": "METAR EBLG 290520Z VRB02KT CAVOK 17/15 Q1025 NOSIG",
    "LSZH": "METAR LSZH 290520Z 21004KT 9999 FEW040 FEW055CB SCT060 23/18 Q1024 TEMPO TSRA",
    "LIMC": "METAR LIMC 290520Z 36008KT CAVOK 25/17 Q1018 NOSIG",
    "LIRF": "METAR LIRF 290520Z 06003KT 9999 FEW030 25/21 Q1015 NOSIG",
    "VTBS": "METAR VTBS 290530Z 26010KT 9999 FEW020 33/21 Q1006 NOSIG",
    "VTBU": "METAR VTBU 290530Z 24012KT 9999 FEW020 33/26 Q1007 NOSIG",
    "VVDN": "METAR VVDN 290530Z 11007KT 050V130 9999 FEW017 34/25 Q1004 NOSIG",
    "EINN": "METAR EINN 290530Z 20007KT 9999 FEW009 BKN033 14/11 Q1023 NOSIG",
    "EGLL": "METAR EGLL 290520Z AUTO 25008KT 9999 NCD 14/10 Q1026",
    "EGSS": "METAR EGSS 290520Z AUTO 26003KT 9999 NCD 13/10 Q1025",
    "EPWA": "METAR EPWA 290530Z 29008KT 260V330 CAVOK 28/19 Q1017 NOSIG",
    "UHPP": "METAR UHPP 290530Z 20005MPS 170V230 9999 SCT030CB BKN044 BKN069 14/07 Q1004 R16R/CLRD62 NOSIG RMK MT OBSC QFE750/1000",
    "EFHK": "METAR EFHK 290520Z 33008KT 300V360 9999 SCT013 18/15 Q1013 NOSIG",
    "LBBG": "METAR LBBG 290530Z 22006KT CAVOK 23/13 Q1018 NOSIG",
    "LTAC": "METAR LTAC 290520Z 06006KT 010V080 CAVOK 20/09 Q1021 NOSIG RMK RWY21C 05011KT RWY03L 06005KT 360V100 RWY21R 04011KT RWY03R 02004KT 320V060 RWY21L 05007KT 360V110",
    "UBBB": "METAR UBBB 290530Z 34020KT 9999 BKN028 24/16 Q1014 NOSIG",
    "UTAA": "METAR UTAA 290600Z 08004KT 9999 FEW055CB SCT055 BKN100 27/14 Q1014 R88/CLRD70 NOSIG",
    "UACC": "METAR UACC 290530Z 24006MPS 210V270 9999 SCT023 22/15 Q1001 NOSIG RMK QFE720/0960",
    "UAAA": "METAR UAAA 290530Z 36002MPS 9999 FEW050 SCT200 34/15 Q1008 NOSIG",
    "UZTT": "METAR UZTT 290530Z 33016KT 290V360 CAVOK 30/13 Q1011 NOSIG",
    "ZWWW": "METAR ZWWW 290530Z 18005MPS 140V210 9999 BKN033 27/13 Q1012 NOSIG",
    "ZLXY": "METAR ZLXY 290600Z 17002MPS 110V220 CAVOK 32/20 Q1005 NOSIG",
    "ZBAA": "METAR ZBAA 290530Z 10002MPS 060V140 9999 SCT026 26/19 Q1008 NOSIG",
    "ZBHH": "METAR ZBHH 290600Z VRB02MPS 9999 FEW040 FEW040TCU 28/12 Q1008 NOSIG",
    "ZSQD": "METAR ZSQD 290600Z 17006MPS CAVOK 26/20 Q1009 NOSIG",
    "ZMCK": "METAR ZMCK 290530Z 30008MPS 9999 SCT030CB SCT033 24/12 Q1012 NOSIG RMK QFE644.2 45 MOP",
    "UUEE": "METAR UUEE 290530Z 30003G08MPS 240V350 CAVOK 18/13 Q1015 R24L/CLRD62 R24C/CLRD62 NOSIG",
    "UUDD": "METAR UUDD 290530Z 30004MPS CAVOK 18/14 Q1015 R31L/CLRD65 NOSIG",
    "ULLI": "METAR ULLI 290530Z 31004MPS 9999 BKN011 OVC025 20/18 Q1011 R88/290050 NOSIG",
    "USSS": "METAR USSS 290530Z 33004MPS 5000 -SHRA BKN006 OVC026CB 12/12 Q1001 R26L/290350 R26R/290540 NOSIG RMK QFE730/0974",
    "UNNT": "METAR UNNT 290530Z 12003MPS 070V150 CAVOK 29/16 Q1003 R07/CLRD// R34/////// NOSIG RMK QFE742/0990",
    "UNKL": "METAR UNKL 290530Z 21004MPS 9999 SCT045CB 24/16 Q1005 R29/CLRD// NOSIG RMK QFE729",
    "UIBB": "METAR UIBB 290530Z 25002MPS 9999 TS BKN026CB 22/16 Q1006 R12/210162 NOSIG RMK QFE712/0949",
    "UEEE": "METAR UEEE 290530Z 05002MPS 010V140 CAVOK 29/07 Q1007 R23/09//62 NOSIG RMK QFE747",
    "UHHH": "METAR UHHH 290530Z 25004MPS 210V320 9999 FEW042 27/15 Q1010 R23R/090060 NOSIG RMK QFE751/1002",
    "UHSS": "METAR UHSS 290530Z 17005MPS 9999 SCT040CB 18/13 Q1012 R19/CLRD70 NOSIG RMK QFE757/1010"
  },
  "taf": {
    "RJAA": "TAF RJAA 290505Z 2906/3012 12005KT 9999 FEW008 BKN015 TEMPO 2913/2915 FEW005 BKN008 BECMG 2913/2915 03004KT TEMPO 2915/2918 4000 BR FEW003 BKN005 TEMPO 2918/2921 1500 BR BCFG FEW001 BKN003 BECMG 2921/3000 11008KT TEMPO 2921/3000 FEW005 BKN008",
    "PANC": "TAF PANC 290525Z 2906/3012 16012G20KT P6SM FEW025 SCT060 BKN080 FM291800 18009G18KT P6SM -SHRA SCT025 BKN045 OVC060 FM292200 16012G22KT P6SM -SHRA SCT025 BKN045 OVC060 FM300300 16012G22KT P6SM VCSH FEW030 SCT045 BKN080 FM300800 16008KT P6SM SCT045 OVC060",
    "PAFA": "TAF PAFA 290533Z 2906/3012 24008KT P6SM BKN050 BKN150 FM292100 24007G14KT P6SM VCSH BKN040 BKN120 FM300600 26005KT P6SM BKN050",
    "PAED": "TAF PAED 290500Z 2905/3011 15006KT 9999 SCT040 BKN060 QNH3007INS BECMG 2915/2916 14006KT 9999 -RA SCT030 BKN045 QNH3009INS BECMG 2922/2923 21010G25KT 9999 NSW SCT045 OVC060 QNH3007INS TX15/3001Z TN11/2913Z",
    "KSEA": "TAF KSEA 290554Z 2906/3012 21009KT P6SM BKN025 FM290900 20009KT P6SM OVC015 FM291100 20008KT P6SM OVC010 FM291800 21006KT P6SM OVC020 FM292200 22008KT P6SM SCT020 OVC035 FM300000 23007KT P6SM SCT035 BKN050 FM300900 23008KT P6SM BKN030 BKN050",
    "ZSPD": "TAF ZSPD 290303Z 2906/3012 13004MPS 6000 BKN020 TX27/2906Z TX27/3006Z TN23/2921Z BECMG 2913/2914 -SHRA BKN011 TEMPO 2918/2922 SHRA BKN008 FEW030CB TEMPO 2923/3004 TSRA BKN008 SCT030CB",
    "ZSSS": "TAF ZSSS 290303Z 2906/3012 13004MPS 6000 BKN020 TX29/2906Z TX27/3006Z TN24/2921Z BECMG 2913/2914 -SHRA BKN011 TEMPO 2918/2922 SHRA BKN008 FEW030CB TEMPO 2922/3003 TSRA BKN008 SCT030CB",
    "RJFR": "TAF RJFR 290505Z 2906/3012 13004KT 9999 FEW012 BECMG 2911/2913 02006KT",
    "VHHH": "TAF VHHH 290500Z 2906/3012 12010KT 9999 FEW010 SCT025 TX32/2906Z TX33/3006Z TN28/2922Z TEMPO 2906/2909 27010KT TEMPO 2922/3002 4000 SHRA FEW010CB SCT018 TEMPO 3002/3009 27010KT",
    "RCTP": "TAF RCTP 290500Z 2906/3012 36005KT 9999 FEW015 BKN032 TEMPO 2906/2910 27005KT SCT010 FEW012CB BKN018 BECMG 2910/2912 20005KT TEMPO 2920/3001 14005KT BECMG 3001/3003 36005KT TEMPO 3003/3009 35010KT",
    "ZGSZ": "TAF ZGSZ 290302Z 2906/3012 18004MPS 8000 SCT040 TX31/2906Z TX32/3006Z TN27/2922Z TEMPO 2906/2909 TSRA FEW015 FEW020CB BKN030",
    "WSSS": "TAF WSSS 290500Z 2906/3012 17008KT 9999 FEW015 SCT020",
    "WMKK": "TAF WMKK 290500Z 2906/3012 VRB03KT 9999 FEW018 TEMPO 2906/2910 23010KT 5000 TSRA FEW010 FEW017CB",
    "ROAH": "TAF ROAH 290505Z 2906/3012 19012KT 9999 FEW008 SCT012 TEMPO 2912/2915 FEW005 BKN008 TEMPO 2915/3000 FEW003 BKN005",
    "RCKH": "TAF RCKH 290500Z 2906/3012 16010KT 9999 FEW015 BKN032 TEMPO 2906/2910 17020G30KT 5000 SHRA FEW010 FEW015CB BKN022 BECMG 2914/2916 12005KT BECMG 2918/2920 03005KT BECMG 3000/3002 27005KT TEMPO 3006/3012 21010KT",
    "KLAX": "TAF KLAX 290541Z 2906/3012 VRB03KT P6SM SKC FM290800 VRB03KT P6SM BKN015 OVC025 FM291600 VRB03KT P6SM BKN025 OVC035 FM291800 26012KT P6SM SKC FM300300 26008KT P6SM BKN025 FM300800 VRB03KT P6SM BKN015 OVC025",
    "KONT": "TAF KONT 290520Z 2906/3012 26007KT P6SM FEW030 FM290800 VRB04KT P6SM OVC022 FM291600 VRB05KT P6SM SCT025 FM292000 24013G21KT P6SM SKC FM300500 25011KT P6SM FEW040 FM300700 VRB04KT P6SM BKN035",
    "KSFO": "TAF KSFO 290520Z 2906/3012 27012KT P6SM SKC FM291200 VRB05KT P6SM SCT020 FM292000 29017G25KT P6SM SKC FM300500 28010KT P6SM FEW022 FM300900 VRB05KT P6SM BKN017",
    "KOAK": "TAF KOAK 290520Z 2906/3012 28007KT P6SM SKC FM291200 VRB05KT P6SM SCT018 FM292100 27013G20KT P6SM SKC FM300500 28009KT P6SM FEW016 FM301000 VRB05KT P6SM BKN015",
    "KMHR": "TAF KMHR 290520Z 2906/3006 VRB05KT P6SM SKC AMD NOT SKED",
    "KDFW": "TAF KDFW 290659Z 2907/3012 18018G28KT P6SM FEW250 TEMPO 2907/2911 BKN026 FM300300 18015KT P6SM FEW250",
    "KIAH": "TAF KIAH 290528Z 2906/3012 17008G20KT P6SM SCT035 FM291000 18005KT P6SM SCT025 TEMPO 2911/2914 BKN030 FM291700 18010KT P6SM SCT050",
    "KORD": "TAF KORD 290520Z 2906/3012 16010KT P6SM SCT030 SCT120 TEMPO 2906/2908 BKN025 FM291200 20011G18KT P6SM FEW035 SCT300 FM291800 21015G26KT P6SM SCT040 SCT250 FM300200 21011G20KT P6SM FEW050 FEW300",
    "KJFK": "TAF KJFK 290538Z 2906/3012 VRB04KT P6SM FEW006 FEW080 FEW250 TEMPO 2909/2912 5SM BR BKN006 FM291200 02005KT P6SM FEW006 FEW060 FM291500 17007KT P6SM SCT060 FM291900 17010KT P6SM SCT060 FM300200 19007KT P6SM FEW060",
    "KRFD": "TAF KRFD 290520Z 2906/3006 15008KT P6SM SCT020 BKN045 TEMPO 2906/2908 BKN020 FM291200 19011G18KT P6SM FEW040 FEW150 SCT300 FM291800 21015G26KT P6SM SCT040 SCT250 FM300200 21010KT P6SM FEW050 FEW300 WS015/25040KT",
    "KIND": "TAF KIND 290522Z 2906/3012 16008KT P6SM SCT080 BKN200 FM291400 20012KT P6SM BKN050 FM300100 18007KT P6SM SCT200",
    "KDTW": "TAF KDTW 290520Z 2906/3012 14003KT P6SM SCT120 BKN250 FM290700 07003KT P6SM SCT120 BKN250 FM291300 13005KT P6SM BKN120 FM291800 16009KT P6SM SCT150 FM300100 18006KT P6SM BKN100 FM300800 22007KT P6SM SCT250",
    "KMSP": "TAF KMSP 290523Z 2906/3012 13015G23KT P6SM FEW023 SCT040 FM291000 14008KT P6SM BKN040 BKN100 FM291500 15010KT P6SM SCT040 FM291800 17018G28KT P6SM SCT050 FM300100 19014G24KT P6SM SCT050 FM300500 20011KT P6SM SCT050",
    "CYEG": "TAF CYEG 290540Z 2906/3006 35008KT P6SM FEW080 BKN120 PROB30 2910/2914 1SM BR FM291800 34012G22KT P6SM SCT080 TEMPO 2920/2924 P6SM VCTS BKN080CB FM300300 30006KT P6SM SCT100 RMK NXT FCST BY 290900Z",
    "EHAM": "TAF EHAM 290446Z 2906/3012 28008KT CAVOK BECMG 2906/2908 31012KT BECMG 2919/2922 02005KT",
    "EBBR": "TAF EBBR 290510Z 2906/3012 33007KT CAVOK",
    "EDDF": "TAF EDDF 290500Z 2906/3012 34008KT CAVOK TEMPO 2906/2909 27015G30KT TSRA SCT020 BKN040CB TEMPO 2909/2915 BKN045 BECMG 2923/3001 04005KT",
    "EDFH": "TAF COR EDFH 290527Z 2906/3006 35007KT 9999 SCT010 TEMPO 2906/2908 3500 SHRA BKN003 BKN040CB PROB30 TEMPO 2908/2910 BKN010 BECMG 2918/2921 05004KT",
    "EDDL": "TAF EDDL 290500Z 2906/3012 27005KT CAVOK PROB30 TEMPO 2906/2907 SHRA BKN040TCU BECMG 2912/2914 33008KT BECMG 3001/3003 36003KT",
    "EDDK": "TAF EDDK 290500Z 2906/3012 33007KT CAVOK PROB30 TEMPO 2906/2908 SHRA SCT030TCU BECMG 2918/2921 VRB03KT",
    "EBLG": "TAF EBLG 290510Z 2900/3006 32008KT CAVOK",
    "LSZH": "TAF LSZH 290525Z 2906/3012 26005KT 9999 FEW050TCU SCT075 TX29/2914Z TN23/2906Z TN18/3004Z TEMPO 2906/2908 27010KT 4000 TSRA BECMG 2909/2912 03005KT TEMPO 2911/2921 02010KT SHRA FEW070TCU PROB40 TEMPO 2912/2921 32015G30KT 4000 TSRA SCT060CB TEMPO 2923/3012 CAVOK",
    "LIMC": "TAF LIMC 290500Z 2906/3012 01010KT CAVOK BECMG 2906/2908 VRB05KT TEMPO 2916/2920 35015G25KT TEMPO 2917/2922 4000 TSRA",
    "LIRF": "TAF LIRF 290500Z 2906/3012 VRB05KT 9999 FEW040 BECMG 2908/2910 26011KT BECMG 2914/2916 04008KT BECMG 3008/3010 26011KT",
    "VTBS": "TAF VTBS 290500Z 2906/3012 23008KT 9999 FEW020 TEMPO 2909/2913 VRB15KT 4000 TSRA FEW018CB SCT020 BKN080",
    "VTBU": "TAF VTBU 290500Z 2906/3006 24010KT 9999 FEW020",
    "VVDN": "TAF VVDN 290500Z 2906/3006 12011KT 9999 FEW017 TEMPO 2907/2911 25016G28KT 2500 +TSRA BKN010 SCT015CB BKN050 TEMPO 2911/2914 4500 TSRA SCT013 FEW015CB BKN060 BECMG 2914/2915 22007KT",
    "EINN": "TAF EINN 290500Z 2906/3006 20010KT 9999 FEW010 BKN035 PROB40 TEMPO 2912/2915 4000 SHRA SCT012 BECMG 2915/2917 15012KT PROB40 TEMPO 2920/2924 -SHRA BKN012 TEMPO 3000/3006 -RA BKN012 PROB30 TEMPO 3000/3006 4000 RADZ BKN008 BECMG 3001/3003 19008KT BECMG 3004/3006 23010KT",
    "EGLL": "TAF EGLL 290458Z 2906/3012 25006KT 9999 FEW045",
    "EGSS": "TAF EGSS 290458Z 2906/3012 25005KT 9999 FEW045",
    "EPWA": "TAF EPWA 290530Z 2906/3006 27005KT CAVOK BECMG 2908/2912 36012KT PROB30 TEMPO 2912/2918 VRB20G35KT 3000 TSRA BKN060CB TEMPO 3000/3005 VRB15G25KT 2000 TSRA SCT005 BKN050CB",
    "UHPP": "TAF UHPP 290454Z 2906/3012 18003G12MPS 9999 -SHRA SCT016 BKN030CB TEMPO 2910/2922 1000 -SHRA BR VV002 TEMPO 2922/3012 3000 -SHRA BR BKN004 OVC020CB",
    "EFHK": "TAF EFHK 290527Z 2906/3006 34009KT 9999 FEW014 BECMG 2913/2915 20010KT TEMPO 3000/3003 BKN050CB PROB40 3000/3002 7000 TSRA BECMG 3004/3006 30010KT",
    "LBBG": "TAF LBBG 290500Z 2906/3006 VRB03KT CAVOK BECMG 2909/2911 13012KT BECMG 2917/2919 VRB03KT",
    "LTAC": "TAF LTAC 290440Z 2906/3006 04009KT CAVOK BECMG 2906/2909 FEW040 BECMG 2916/2918 CAVOK",
    "UBBB": "TAF UBBB 290510Z 2906/3006 33018G28KT 9999 BKN020 TX26/2910Z TN20/3001Z TEMPO 2906/2911 35022KT FEW050CB BECMG 2911/2912 02010KT SCT030 TEMPO 2912/2918 06006KT BECMG 2920/2922 VRB04KT TEMPO 2922/3006 SCT010",
    "UTAA": "TAF UTAA 290445Z 2905/3006 03016KT 6000 SCT030 SCT040CB TEMPO 2905/2912 33014G24KT 4000 DRDU PROB40 TEMPO 2909/2916 VRB30KT 3000 -TSRA ",
    "UACC": "TAF UACC 290502Z 2906/3006 24009MPS 9999 BKN030CB BKN050 TX24/2906Z TN15/3001Z TEMPO 2906/2916 VRB17MPS 2000 TSRA SQ BKN020CB BECMG 2917/2919 21005MPS SCT030 BKN100 TEMPO 2917/2920 -SHRA SCT020CB TEMPO 3003/3006 23010MPS SCT030CB",
    "UAAA": "TAF UAAA 290503Z 2906/3006 34003MPS 9999 SCT050CB BKN100 TX36/2910Z TN20/3001Z TEMPO 2910/2916 25006G15MPS 5000 -TSRA BLDU BECMG 2916/2917 23003MPS BECMG 3004/3005 34003MPS",
    "UZTT": "TAF UZTT 290500Z 2906/3006 09010KT 7000 FEW060CB TEMPO 2906/2912 26020G30KT 4000 -DS SCT060CB TEMPO 2912/2918 VRB20G30KT 3000 -TSRA -DS BKN050CB",
    "ZWWW": "TAF ZWWW 290304Z 2906/3012 36004MPS 9999 FEW040CB TX33/2909Z TX38/3009Z TN26/2923Z BECMG 2912/2913 18004MPS CAVOK BECMG 3002/3003 36004MPS",
    "ZLXY": "TAF ZLXY 290306Z 2906/3006 06003MPS 3000 HZ NSC TX36/2907Z TN23/2922Z TEMPO 2911/2915 -TSRA FEW040CB OVC060",
    "ZBAA": "TAF ZBAA 290311Z 2906/3012 15003MPS 6000 NSC TX29/2907Z TX27/3006Z TN21/2921Z TEMPO 2916/2922 2800 -TSRA FEW040CB BKN040",
    "ZBHH": "TAF ZBHH 290313Z 2906/3006 23004MPS 9999 FEW040 TX30/2908Z TN14/2922Z BECMG 2910/2911 -TSRA FEW040 FEW040CB TEMPO 2911/2913 33012G18MPS TSRA BECMG 2913/2914 NSW NSC TEMPO 2918/2921 -TSRA FEW040 FEW040CB",
    "ZSQD": "TAF ZSQD 290302Z 2906/3006 16005MPS 5000 BR NSC TX28/3006Z TN22/2920Z",
    "ZMCK": "TAF ZMCK 290441Z 2906/3012 VRB02MPS 9999 FEW030CB SCT033 TX26/2907Z TN12/2921Z TEMPO 2906/2915 VRB08G13MPS 6000 TSRA SCT027CB SCT030 TEMPO 3005/3012 VRB09G14MPS TSRA SCT027CB SCT030",
    "UUEE": "TAF UUEE 290450Z 2906/3006 32003G08MPS 9999 BKN030 TX21/2912Z TN12/3001Z TEMPO 2907/2916 36008G14MPS",
    "UUDD": "TAF UUDD 290452Z 2906/3012 31005MPS 9999 BKN020 TX23/2912Z TN12/3001Z TEMPO 2906/2916 34008G13MPS BECMG 2916/2918 03003MPS PROB40 TEMPO 2921/3004 0300 FG BKN002 BECMG 3004/3006 33006MPS",
    "ULLI": "TAF ULLI 290452Z 2906/3006 26003MPS 9999 BKN010 OVC016 BECMG 2907/2909 32005G10MPS BECMG 2910/2912 BKN016 BECMG 2918/2920 24003MPS",
    "USSS": "TAF USSS 290459Z 2906/3006 32005G17MPS 6000 -SHRA BKN011CB TEMPO 2906/3006 -TSRA BKN006 BKN016CB BECMG 2913/2916 36003G14MPS BECMG 2921/2924 17003G08MPS",
    "UNNT": "TAF UNNT 290500Z 2906/3006 12003G08MPS 8000 SCT040 TX30/2909Z TN18/2923Z TEMPO 2906/2915 17008G14MPS -TSRA BKN022CB TEMPO 2920/3003 22008G20MPS -TSRA BKN020CB BECMG 3003/3005 25006G13MPS",
    "UNKL": "TAF UNKL 290450Z 2906/3006 25003G08MPS 8000 SCT040 TEMPO 2906/2915 28008G16MPS -TSRAGR BKN030CB TEMPO 2918/3006 -TSRA BKN020CB",
    "UIBB": "TAF AMD UIBB 290614Z 2906/3006 23003G08MPS 9999 -TSRA BKN016CB TEMPO 2906/2908 VRB15MPS 0700 +SHRA VV003 BECMG 2908/2909 NSW TEMPO 2909/2918 VRB15MPS -TSRA",
    "UEEE": "TAF UEEE 290500Z 2906/3012 06003G08MPS CAVOK TX31/2906Z TN16/2918Z",
    "UHHH": "TAF AMD UHHH 290622Z 2906/3012 26003MPS 9999 SCT020CB TX28/2906Z TN17/2918Z TEMPO 2906/2924 VRB08MPS 5000 -TSRA FEW010 BKN016CB",
    "UHSS": "TAF UHSS 290500Z 2906/3012 28003MPS 9999 SCT040CB"
  },
  "atis": {
    "RJAA": "[Arrival ATIS] RJAA ARR ATIS E 0623Z M0600 (APCH)ILS Z RWY16R/ILS Z RWY16L LDG RWY 16R/16L DEP RWY 16R DEP FREQ 124.2. SIMUL PARL APCHS INPR. M 290600Z 17005KT 25KM FEW012CU SCT015CU BKN020CU 25/22 Q1013/A2992= Q/TWO NINE NINE TWO STP\n[Departure ATIS] RJAA DEP ATIS P 1308Z M1300 (APCH)ILS Y RWY16R/ILS Y RWY16L USING RWY 16R/16L DEP FREQ 124.2. TWY A1 CLSD. PARL APCHS INPR. RWY 16L/34R WILL BE CLSD FM 1410. M 161300Z 15001KT 40KM BKN/// 17/14 Q1020/A3012= Q/THREE ZERO ONE TWO STP",
    "PANC": "[Arrival ATIS] PANC ARR ATIS U 1853Z ANC ATIS INFO U 1853Z. 28005KT 10SM CLR 11/06 A2998 (TWO NINER NINER EIGHT). 7R APPROACHES IN USE. LANDING RWY 7R, DEPARTING RWY 33. NOTICE TO AIRMEN. RWY 7L CLSD. TWY K CLSD BTWN RWY, 33 AND TWY Y. CHECK NOTAMS FOR TAXIWAY CLOSURES. RUNWAY 33 THRESHOLD CLOSED. ...ADVS YOU HAVE INFO U.\n[Departure ATIS] PANC DEP ATIS Z 0653Z ANC ATIS INFO Z 0653Z. 13010KT 10SM BKN060 13/08 A3010 (THREE ZERO ONE ZERO) RMK AO2 PK WND 15027/0558 SLP193 T01330083. ILS RWY 15 APPROACHES IN USE. LANDING RWY 15, DEPAR",
    "KSEA": "[Arrival ATIS] KSEA ARR ATIS G 0653Z SEA ATIS INFO G 0653Z. 18007KT 10SM OVC023 13/09 A3007 (THREE ZERO ZERO SEVEN). ILS, RYS 16C AND 16L , APCH IN USE. DEPG RWY 16L. SIMUL APCHS IN USE, BFI & SEA. TRAFFIC BELOW YOU ON FINAL. SIMUL APCHS IN USE TO PARA RYS. NOTAMS... RWYS 16R CLSD. BIRD ACTIVITY VICINITY ARPT. APCH AND DEP PATHS ARE OVER NOISE SENSITIVE AREAS. ...ADVS YOU HAVE INFO G.\n[Departure ATIS] KSEA DEP ATIS G 0653Z SEA ATIS INFO G 0653Z. 18007KT 10SM OVC023 13/09 A3007 (THREE ZERO ZERO SEVEN). ILS, RYS 16C AND 16L , APCH IN USE. DEPG RWY 16L. SIMUL APCHS IN USE, BFI & SEA. TRAFFIC BELOW YOU ON FINAL. SIMUL APCHS IN USE TO PARA RYS. NOTAMS... RWYS 16R CLSD. BIRD ACTIVITY VICINITY ARPT. APCH AND DEP PATHS ARE OVER NOISE SENSITIVE AREAS. ...ADVS YOU HAVE INFO G.",
    "ZSPD": "[Arrival ATIS] ZSPD ARR ATIS W 1800Z EXP ILS APCH LDG RWY 34R RWY 34L IS CLSD RWY 35L IS CLSD WIND RWY 34R TDZ 250/2MPS MID 270/2MPS END 290/2MPS VIS RWY 34R TDZ 5000M MID 6000M END 8000M BR CLD BKN 480M T 23 /DP 23 QNH 1008 HPA CAUTION THE BIRDS NEAR THE RUNWAY RWY 35R/35L/34R/34L RWYCC 5/5/5 ISSUED AT 1306 WET/WET/WET DPT NR/NR/NR COV 100PCT/100PCT/100PCT ADZ YOU HAVE INFO W.\n[Departure ATIS] ZSPD DEP ATIS X 1830Z DEP RWY 35R RWY 34L IS CLSD RWY 35L IS CLSD WIND RWY 35R TDZ 240/2MPS MID 240/3MPS END 250/2MPS VIS RWY 35R TDZ 5000M MID 4800M END 4700M BR CLD BKN 480M T 23 /DP 23 QNH 1008 HPA DELIVERY FREQ 118.8 CAUTION THE BIRDS NEAR THE RUNWAY RWY 35R/35L/34R/34L RWYCC 5/5/5 ISSUED AT 1306 WET/WET/WET DPT NR/NR/NR COV 100PCT/100PCT/100PCT ADZ YOU HAVE INFO X.",
    "ZSSS": "[Arrival ATIS] ZSSS ARR ATIS O 1530Z EXP ILS APCH LDG RWY 36R WIND RWY 36R TDZ 350/3MPS MID 330/3MPS END 340/2MPS VIS RWY 36R TDZ 10000M MID 9000M END 10000M CLD BKN 270M /BKN 690M T 23 /DP 21 QNH 1009 HPA QNH OF SHANGHAI TERMINAL CONTROL AREA 1009 HPA ADZ YOU HAVE INFO O.\n[Departure ATIS] ZSSS DEP ATIS G 1200Z DEP RWY 36L WIND RWY 36L TDZ 360/4MPS MID 340/4MPS END 330/4MPS VIS RWY 36L TDZ 10000M MID 10000M END 10000M CLD SCT 420M /BKN 690M T 24 /DP 21 QNH 1008 HPA RWY36L RWYCC 5/5/5 ISSUED AT 0730 WET/WET/WET DPT NR/NR/NR COV 50PCT/50PCT/50PCT RWY36R RWYCC 5/5/5 ISSUED AT 0730 WET/WET/WET DPT NR/NR/NR COV 50PCT/50PCT/50PCT QNH OF SHANGHAI TERMINAL CONTROL AREA 1008 HPA ADZ YOU HAVE INFO G.",
    "VHHH": "[Arrival ATIS] VHHH ARR ATIS G 1905Z ARRIVALS, RWY 25C. EXP ILS APCH, RWY 25C. RWY 25 RUNWAY CONDITION REPORT AT 0315Z. RWY 25C RUNWAY CONDITION CODES 5 , 5 , 5 . RWY SFC ALL PARTS WET. SIG WS FCST. WIND 200/06KT. VIS 10KM. FBL SHRA. CLD FEW 1000FT SCT 2200FT. T27 DP24. QNH 1008HPA. ACK INFO G ON FIRST CTC WITH APP.\n[Departure ATIS] VHHH DEP ATIS T 1816Z DEPARTURES, RWY 25C. RWY 25 RUNWAY CONDITION REPORT AT 0315Z. RWY 25C RUNWAY CONDITION CODES 5 , 5 , 5 . RWY SFC ALL PARTS WET. WIND 180/15KT. VIS 10KM. FBL SHRA. CLD FEW 1000FT SCT 2200FT. T27 DP24. QNH 1008HPA. ACK INFO T ON FIRST CTC WITH GROUND ON 122.15.",
    "RCTP": "[Arrival ATIS] RCTP ARR ATIS Y 1900Z EXP ILS APCH RWY05R ARR/DEP. RWY05L CLSD BTN 1700Z AND 2230Z FOR INSPECTION. TWY-E BTN TWY-P AND TWY-Q CLSD BTN 1700Z AND 2220Z. WIND CALM VIS 10 KM OR MORE CLD FEW 1500FT BKN 15000FT T 26 DP 24 QNH 1009HPA NOSIG DUE TO FLOW CONTROL BY FUKUOKA AND HONG KONG F-I-R, TRAFFIC CONCERNED MAY BE DELAYED. INFORM TAIPEI APCH OR TAIPEI TOWER ON INITIAL CONTACT YOU HAVE INFORMATION Y\n[Departure ATIS] RCTP DEP ATIS U 1700Z EXP ILS APCH RWY05R ARR/DEP. RWY05L CLSD BTN 1700Z AND 2230Z FOR INSPECTION. WIND 160/03KT VARYING BTN 110 AND 190 VIS 10 KM OR MORE CLD FEW 1500FT SCT 4000FT BKN 16000FT T 27 DP 24 QNH 1010HPA NOSIG D-C-L SERVICE SUSPENDED. DUE TO FLOW CONTROL BY HONG KONG F-I-R, TRAFFIC CONCERNED MAY BE DELAYED. INFORM TAIPEI APCH OR TAIPEI TOWER ON INITIAL CONTACT YOU HAVE INFORMATION U",
    "ZGSZ": "[Arrival ATIS] ZGSZ ARR ATIS J 0700Z EXP ILS APCH 15 EXP ILS OR VIS APCH 16R WIND 200/6MPS VIS 9999M CLD SCT 900M T 30 /DP 26 QNH 1006 HPA INDEPENDENT PARALLEL DEPARTURES DEPENDENT PARALLEL APPROACHES MISSED\n[Departure ATIS] ZGSZ DEP ATIS Q 1830Z DEP RWY 15 & 16L WIND 180/7MPS VIS 9999M -RA CLD FEW 330M /SCT 450M /OVC 690M T 26 /DP 25 QNH 1008 HPA DELIVERY FREQ 121.65 INDEPENDENT PARALLEL APPROACHES INDEPENDENT PARALLEL DEPARTURES MISSED APPROACH ALTITUDE SETTING 1200METERS WHEN AIRBORNE CONTACT ZHUHAI APPROACH EXPECTED RNP ILS DME Z APPROACH ADZ YOU HAVE INFO Q.",
    "WSSS": "[Arrival ATIS] WSSS ARR ATIS F 1900Z METREPORT 1900Z ILS APCHRWY 20R RWY 20C 02C CLSD. RSCD RWY20R 2309Z RWYCC:6.5.5. SECOND PART 100% WET. THIRD PART 100% WET. TWY W 9 CLOSED, RWY 02C 20C RAPID EXIT TAXIWAY INDICATOR LIGHTS OFFFOLLOW THE GREENS TRIAL IN PROGRESS. WHEN VACATING THE RWY, PILOTS TO ADHERE TO ATC VERBAL INSTRUCTIONS. WHEN ON TWY, PILOT TO ADHERE TO FOLLOW THE GREENS INSTRUCTIONS. WHEN APPROACHING [A] JUNCTION, KEEP [A] LOOKOUT FOR CONTINUOUS GREENS. [IF] [A] BREAK IN THE GREENS IS OBSERVED, STOP AND CLARIFY WITH ATC. WIND 150/ 06KT VRB BTN120 AND180 VIS 10KM CLD FEW 1800FT T28 DP25 QNH 1011HPA NOSIG ACK ATIS F\n[Departure ATIS] WSSS DEP ATIS B 1700Z METREPORT 1700Z RWY 20C RSCD RWY20C 2308Z RWYCC:6.5.5. SECOND PART 100% WET. THIRD PART 100% WET. TWY W 9 CLOSED, RWY 02C 20C RAPID EXIT TAXIWAY INDICATOR LIGHTS OFFFOLLOW THE GREENS TRIAL IN PROGRESS. WHEN VACATING THE RWY, PILOTS TO ADHERE TO ATC VERBAL INSTRUCTIONS. WHEN ON TWY, PILOT TO ADHERE TO FOLLOW THE GREENS INSTRUCTIONS. WHEN APPROACHING [A] JUNCTION, KEEP [A] LOOKOUT FOR CONTINUOUS GREENS. [IF] [A] BREAK IN THE GREENS IS OBSERVED, STOP AND CLARIFY WITH ATC. WIND 130/ 04KT VIS 10KM CLD FEW 1800FT T29 DP25 QNH 1012HPA NOSIG DEP,INITIAL CMB 3000FT ACK ATIS B",
    "WMKK": "[Arrival ATIS] WMKK ARR ATIS M 1704Z WMKK ARR INFO M. TIME 1700. INDEPENDENT PARALLEL APPROACHES FOR RWY 14 L AND 15 ARE IN PROGRESS. EXP RNAV / ILS APCH FOR RWY 14 LEFT. EXP RNAV / ILS APCH FOR RWY 15. WIND RWY 14L DIRECTION NOT AVBL SPEED NOT AVBL. WIND RWY 15 DIRECTION NOT AVBL SPEED NOT AVBL. VIS RWY 14L TDZ NOT AVBL. VIS RWY 15 TDZ NOT AVBL. CLD FEW 3000 FT. T 28. DP 24. QNH 1011. NOSIG. PILOT SHALL REPORT ONCE VACATED RWY 14 L. AT FIRST CONTACT WITH LUMPUR RADAR, NOTIFY RCPT OF M\n[Departure ATIS] WMKK DEP ATIS P 1534Z WMKK DEP INFO P. TIME 1530. INDEPENDENT PARALLEL DEPARTURES FOR RWY 14 L AND 15 ARE IN PROGRESS. RWY 14 LEFT. RWY 15. WIND RWY 14L DIRECTION NOT AVBL SPEED NOT AVBL. WIND RWY 15 DIRECTION NOT AVBL SPEED NOT AVBL. VIS RWY 14L TDZ NOT AVBL. VIS RWY 15 TDZ NOT AVBL. CLD FEW 3000 FT. T 29. DP 24. QNH 1011. NOSIG. ALL DEP ACFT TO CONTACT LUMPUR DEP AT 135 DECIMAL 25 MHZ WHEN ABN. AT FIRST CONTACT WITH LUMPUR GROUND, NOTIFY RCPT OF P",
    "ROAH": "[Arrival ATIS] ROAH ARR ATIS G 1904Z S1904 (APCH)ILS RWY18R USING RWY 18R DEP FREQ 126.5 258.3 RWY18L/36R CLSD S 161904Z AUTO 28012KT 260V320 1100M R18L/2000U E/P2000N R18R/1800D E/2000N RA BR FEW003// BKN027// BKN047// //////CB 24/24 Q1013/A2992 RMK RI014 CB OHD MOV UNKNOWN= Q/TWO NINE NINE TWO STP\n[Departure ATIS] ROAH DEP ATIS Y 0536Z M0530 (APCH)ILS RWY18R LDG RWY 18R DEP RWY 18L DEP FREQ 126.5 258.3 M 290530Z 18010KT 25KM FEW005ST SCT/// 30/29 Q1012/A2989= Q/TWO NINE EIGHT NINE STP",
    "RCKH": "[Arrival ATIS] RCKH ARR ATIS X 0600Z EXPECT ILS APPROACH RWY 09 ARR/DEP TAXIWAY JULIETT, TAXIWAY BRAVO, TAXIWAY DELTA AND TAXIWAY ECHO CLOSED DUE MAINTENANCE. RUNWAY 0 9 ARRIVALS PLAN VACATE VIA CHARLIE OR\n[Departure ATIS] RCKH DEP ATIS W 0530Z EXPECT ILS APPROACH RWY 09 ARR/DEP TAXIWAY JULIETT, TAXIWAY BRAVO, TAXIWAY DELTA AND TAXIWAY ECHO CLOSED DUE MAINTENANCE. RUNWAY 0 9 ARRIVALS PLAN VACATE VIA CHARLIE OR",
    "KLAX": "[Arrival ATIS] KLAX ARR ATIS O 1853Z LAX ATIS INFO O 1853Z. 23007KT 10SM SCT011 21/14 A2999 (TWO NINER NINER NINER) RMK AO2 SLP155 T02060144. SIMUL INST APCHS AND RNAV RNP RWYS 24R AND 25L APCHS, AND SIMUL APCHS IN PROG BTWN LAX AND HHR, SIMUL INSTR DEPARTURES IN PROG RWYS 24 AND 25. CTC L A GC ON 121.75 FOR PUSH OR TAXI ON A. TWY C CLSD BTN TWY, C8 AND TWY C9 , , TWY B CLSD BTN TWY, F AND TWY B1, TWY B1 CLSD. ILS RY 25R OTS, RY 25R SFL OTS, RY 24L ALSF-2 OTS. LAX VOR UNMONITORED. IF ASSIGNED RUNWAY 25R FOR DEPARTURE, EXPECT DEPARTURE FROM INTERSECTION FOXTROT. TAXILANE CHARLIE EIGHT RESTRICTED TO AIRCRAFT WITH A WINGSPAN LESS THAN ONE HUNDRED EIGHTEEN FEET. USE CAUTION FOR INCREASED DRONE ACTIVIY IN THE VICINITY OF SOFI STADIUM AT OR BELOW 200FT AGL DURING THE WORLD CUP FROM 06/12/26 THROUGH 07/10/2026. HAZD WX INFO FOR LAX AREA AVBL FM FSS. BIRD ACTIVITY VICINITY ARPT. INCLUDE YOUR CALL SIGN IN ALL READBACKS. USE CAUTION WHEN EXITING RY24R AT TWY V, W, AND Y, TO HOLD SHORT OF RY24L. MULTIPLE RUNWAY INCURSIONS HAVE OCCURRED. ...ADVS YOU HAVE INFO O.\n[Departure ATIS] KLAX DEP ATIS J 1453Z LAX ATIS INFO J 1453Z. 09004KT 9SM OVC011 18/15 A3000 (THREE ZERO ZERO ZERO) RMK AO2 SLP155 T01780150 53010. SIMUL INST APCHS AND RNAV RNP RWYS 24R AND 25L APCHS, AND SIMUL APCHS IN PROG BTWN LAX AND HHR, SIMUL INSTR DEPARTURES IN PROG RWYS 24 AND 25. CTC L A GC ON 121.75 FOR PUSH OR TAXI ON A. TWY C CLSD BTN TWY, C8 AND TWY C9 , , TWY B CLSD BTN TWY, F AND TWY B1, TWY B1 CLSD. ILS RY 25R OTS, RY 25R SFL OTS, RY 24L ALSF-2 OTS. LAX VOR UNMONITORED. IF ASSIGNED RUNWAY 25R FOR DEPARTURE, EXPECT DEPARTURE FROM INTERSECTION FOXTROT. TAXILANE CHARLIE EIGHT RESTRICTED TO AIRCRAFT WITH A WINGSPAN LESS THAN ONE HUNDRED EIGHTEEN FEET. USE CAUTION FOR INCREASED DRONE ACTIVIY IN THE VICINITY OF SOFI STADIUM AT OR BELOW 200FT AGL DURING THE WORLD CUP FROM 06/12/26 THROUGH 07/10/2026. HAZD WX INFO FOR LAX AREA AVBL FM FSS. BIRD ACTIVITY VICINITY ARPT. INCLUDE YOUR CALL SIGN IN ALL READBACKS. USE CAUTION WHEN EXITING RY24R AT TWY V, W, AND Y, TO HOLD SHORT OF RY24L. MULTIPLE RUNWAY INCURSIONS HAVE OCCURRED. ...ADVS YOU HAVE INFO J.",
    "KONT": "[Arrival ATIS] KONT ARR ATIS B 1753Z - KONT ATIS INFO B 1753Z. 29005KT 10SM FEW110 27/12 A2998 (TWO NINER NINER EIGHT). ILS RUNWAY 2 6 LEFT APPROACH IN USE. VISUAL APCH RY 26L, RY 26R IN USE, RNAV/GPS APCH RY 26R IN USE. LNDG AND DEPG RY 26L AND RY 26R. NOTAMS... TAXIWAY SIERRA CLSD BETWEEN SIERRA 8 AND W TAXIWAY Q SOUTH OF RWY 26L CLSD TAXIWAY T CLSD TAXIWAY SIERRA 5 CLSD. ILS RY 26R OTS, RY 26L IM OTS, RY 26R ALS OTS. USE CAUTION FOR NUMEROUS BIRDS OBSERVED IN VICINITY OF ONT. UAS ACTIVITY IN VICINITY OF ONT AT OR BELOW 200 FEET. PILOTS READBACK RWY ASSIGNMENTS AND HOLD SHORT INSTRUCTIONS. ...ADVS YOU HAVE INFO B.\n[Departure ATIS] KONT DEP ATIS N 0553Z - KONT ATIS INFO N 0553Z. 24004KT 10SM BKN250 22/15 A2988 (TWO NINER EIGHT EIGHT) RMK AO2 SLP100. ILS AND VIS APR IN USE, RY26L & RY26R. LNDG AND DEPG RY 26L AND RY 26R. NOTAMS... TAXIWAY SIERRA CLSD BETWEEN SIERRA 8 AND W TAXIWAY Q SOUTH OF RWY 26L CLSD TAXIWAY T CLSD TAXIWAY SIERRA 5 CLSD. RY 26L IM OTS, RY 26R ALS OTS. USE CAUTION FOR NUMEROUS BIRDS OBSERVED IN VICINITY OF ONT. HAZD WX INFO FOR SOUTHERN CA AVBL ON FSS FREQUENCIES. PILOTS READBACK RWY ASSIGNMENTS AND HOLD SHORT INSTRUCTIONS. ...ADVS YOU HAVE INFO N.",
    "KSFO": "[Arrival ATIS] KSFO ARR ATIS I 0156Z SFO ATIS INFO I 0156Z. 27020KT 10SM CLR 18/10 A2989 (TWO NINER EIGHT NINER). SIMUL CLSLY SPCD DPNDNT ILS RY 28R AND ILS RY 28L APP IN USE. DEPG RWYS 28L, 28R. DEPG ACFT SHOULD BE PREPARED FOR A SHORT NOTICE RY CHANGE. RY 1L, 1R CLSD. NUMEROUS TWY CLOSURES FOR CONSTRUCTION ON THE FIELD, PILOTS CHECK NOTAMS. DEPG ACFT WAITING ON FINAL NUMBERS ADVISE GROUND PRIOR TO ENTERING TWY F. ...ADVS YOU HAVE INFO I.\n[Departure ATIS] KSFO DEP ATIS G 2356Z SFO ATIS INFO G 2356Z. 27019KT 10SM FEW043 21/10 A2991 (TWO NINER NINER ONE). SIMUL CLSLY SPCD DPNDNT ILS RY 28R AND ILS RY 28L APP IN USE. DEPG RWYS 28L, 28R. DEPG ACFT SHOULD BE PREPARED FOR A SHORT NOTICE RY CHANGE. RY 1L, 1R CLSD. NUMEROUS TWY CLOSURES FOR CONSTRUCTION ON THE FIELD, PILOTS CHECK NOTAMS. ORACLE PARK TFR IN EFFECT. DEPG ACFT WAITING ON FINAL NUMBERS ADVISE GROUND PRIOR TO ENTERING TWY F. ...ADVS YOU HAVE INFO G.",
    "KOAK": "[Arrival ATIS] KOAK ARR ATIS G 1353Z OAK ATIS INFO G 1353Z. 07005KT 10SM FEW014 14/11 A2996 (TWO NINER NINER SIX). RNAV Z VA 30 ILS VA 28R. FLOW TO LAX, PHX, SAN, SEA. ILS RWY 30, OTS, RWY 10R PAPIS, OTS, RWY 28R RAIL, OTS. UNN LIT CLOSE-IN OBSTACLES FOR RWY 30 DEPARTURES. RWY 30 DEPARTURES ARE ADVISED TO AVOID TURNING LEFT PRIOR TO DEPARTURE END OF RUNWAY. CTN, CRANE 1 POINT 6 NAUTICAL MILES, , AT 140 FEET AGL. CAUTION, BIRDS NEAR AIRPORT. ...ADVS YOU HAVE INFO G.\n[Departure ATIS] KOAK DEP ATIS O 1953Z OAK ATIS INFO O 1953Z. 28014KT 10SM FEW005 22/14 A2988 (TWO NINER EIGHT EIGHT). RNAV Z/VA RWY 30 ILS/VA RWY 28R. FLOW TO LAX, LAS, SAN. ILS RWY 30, OTS. UNN LIT CLOSE-IN OBSTACLES FOR RWY 30 DEPARTURES. RWY 30 DEPARTURES ARE ADVISED TO AVOID TURNING LEFT PRIOR TO DEPARTURE END OF RUNWAY. SIGNATURE UNI-COM OUT OF SERVICE. CAUTION, BIRDS NEAR AIRPORT. ...ADVS YOU HAVE INFO O.",
    "KDFW": "[Arrival ATIS] KDFW ARR ATIS I 2353Z - KDFW ARR INFO I 2353Z. 18020G30KT 10SM FEW060 FEW250 34/21 A2978 (TWO NINER SEVEN EIGHT) RMK AO2 PK WND 17032/2304 SLP073 T03440206 10361 20339 56016. SIMUL VISUAL APCH TO RWYS, 13R, 18R, 17C, 17L. LDG RWY 17C EXP LAHSO TWY B 10460 FT AVAIL, LDG RWY 18R EXP LAHSO TWY B 10100 FT AVL. NOTICE TO AIRMEN. WARNING, RWY 18L HAS BEEN SHORTENED, 9273 FT AVAILABLE. RWY 18L ILS OTS, CL OTS. BIRD ACTIVITY VCNTY ARPT. ...ADVS YOU HAVE INFO I.\n[Departure ATIS] KDFW DEP ATIS W 1553Z - KDFW DEP INFO W 1553Z. 21022G32KT 10SM FEW025 FEW180 SCT250 31/21 A2994 (TWO NINER NINER FOUR) RMK AO2 PK WND 20032/1547 SLP128 T03110206. SIMUL PARL TRAFFIC DEPG RWYS 17R, 18L. NOTICE TO AIRMEN. WARNING, RWY 18L HAS BEEN SHORTENED, 9273 FT AVAILABLE. RWY 18L CL OTS. BIRD ACTIVITY VCNTY ARPT. ...ADVS YOU HAVE INFO W.",
    "KIAH": "[Arrival ATIS] KIAH ARR ATIS R 1253Z IAH ATIS INFO R 1253Z. 13007KT 7SM FEW044 FEW250 27/26 A3014 (THREE ZERO ONE FOUR) RMK AO2 SLP204 T02720256. ARRIVALS EXPECT ILS OR RNAV Y RY 26R, ILS OR RNAV Y RY 26L, ILS OR RNAV Y RY 27. SIMUL APPROACHES IN USE. DEPG RY 15L, RY 15R. NOTICE TO AIRMEN. UNITED RAMP CONTROL IN EFFECT. BIRD ACTIVITY VICINITY ARPT. CRANES ARE DOWN. TWY SA CLSD BTN TWY, SG AND TWY SK , TWY SB CLSD BTN TWY, SG AND TWY SK , , TWY SG CLSD, TWY EA CLSD. NOTAM ATIS IN USE ON FREQUENCY 126.225. ...ADVS YOU HAVE INFO R.\n[Departure ATIS] KIAH DEP ATIS A 2053Z IAH ATIS INFO A 2053Z. 19008G16KT 10SM SCT035 BKN250 33/24 A2993 (TWO NINER NINER THREE) RMK AO2 LTG DSNT E TSB02E23 SLP135 CB DSNT NE-E AND SW MOV NE 60000 T03280239 57019. ARRIVALS EXPECT ILS OR RNAV Y RY 26R, ILS OR RNAV Y RY 26L, ILS OR RNAV Y RY 27. SIMUL APPROACHES IN USE. DEPG RY 15L, RY 15R. NOTICE TO AIRMEN. UNITED RAMP CONTROL IN EFFECT. ALL RWY COND CODES, , 5 , , 5 , , 5 , AT 1730Z. HAZD WX INFO FOR IAH AREA AVBL FM FSS. BIRD ACTIVITY VICINITY ARPT. TWY SA CLSD BTN TWY, SG AND TWY SK , TWY SB CLSD BTN TWY, SG AND TWY SK , , TWY SG CLSD, TWY EA CLSD. NOTAM ATIS IN USE ON FREQUENCY 126.225. ...ADVS YOU HAVE INFO A.",
    "KORD": "[Arrival ATIS] KORD ARR ATIS Y 1851Z ORD ATIS INFO Y 1851Z. 22016G28KT 10SM BKN055 BKN250 24/12 A2957 (TWO NINER FIVE SEVEN) RMK AO2 PK WND 24033/1833 SLP010 T02440117. ARR EXP VECTORS ILS RWY 28C APCH, VISUAL APCH RWY 27C, VISUAL APCH RWY 27R. SIMUL APCHS IN USE. DEPS EXP RWYS 22L 28R FROM NOVEMBER 5 9750 FT AVL. RWY 4L, 22R CLSD. RWY 22L ILS OTS, RWY 22R LOC OTS, RWY 9L IM OTS, RWY 9C IM OTS, RWY 10L IM OTS, RWY 10R IM OTS, RWY 27R IM OTS, RWY 28L IM OTS, RWY 28R IM OTS, RWY 9L PAPI OTS, RWY 27R PAPI OTS, RWSL OTS. WIND SHEAR ADZYS ARE IN EFCT. PILOTS USE CTN FOR BIRD ACTIVITY IN THE VICINITY OF THE ARPT. HAZD WX INFO FOR ORD AREA AVBL ON FSS. USE CTN FOR PERSONNEL AND EQUIP AT NUMEROUS SITES ON THE FIELD. READBACK ALL RWY HOLD SHORT INSTRUCTIONS. WHEN READY TO TAXI CONTACT GND METERING ON FREQ 121.67. ...ADVS YOU HAVE INFO Y.\n[Departure ATIS] KORD DEP ATIS U 0651Z ORD ATIS INFO U 0651Z. 16006KT 10SM FEW020 BKN120 26/22 A2992 (TWO NINER NINER TWO) RMK AO2 SLP125 T02560222. ARR EXP VECTORS ILS RWY 9C APCH. LAND AND HOLD SHORT OPERATIONS ARE IN EFFECT. RWY 9C ARR PLAN TO H/S OF TWY T T, 8 THSD 8 HND THIRTY FT AVBL. DEPS EXP RWYS 9R FROM S S 9870 FT AVL. RWY 4L, 22R CLSD, RWY 4R, 22L CLSD, RWY 9L, 27R CLSD, RWY 10L, 28R CLSD, RWY 10C, 28C CLSD, RWY 10R, 28L CLSD. RWY 22R LOC OTS, RWY 9L IM OTS, RWY 9C IM OTS, RWY 10L IM OTS, RWY 10R IM OTS, RWY 27R IM OTS, RWY 28L IM OTS, RWY 28R IM OTS, RWY 9L PAPI OTS, RWY 27R PAPI OTS. PILOTS USE CTN FOR BIRD ACTIVITY IN THE VICINITY OF THE ARPT. NOISE ABATEMENT PROCEDURES ARE IN EFFECT. USE CTN FOR PERSONNEL AND EQUIP AT NUMEROUS SITES ON THE FIELD. READBACK ALL RWY HOLD SHORT INSTRUCTIONS. FOR CD GND METERING AND GC CONTACT ORD ON FREQ 121.9. ...ADVS YOU HAVE INFO U.",
    "KJFK": "[Arrival ATIS] KJFK ARR ATIS A 1851Z JFK ATIS INFO A 1851Z. 21017KT 10SM FEW060 SCT250 23/08 A2984 (TWO NINER EIGHT FOUR) RMK AO2 SLP103 T02280083. APPROACH IN USE RNAV GPS Z RY 13L, RNAV GPS X RY 22L. DEPG RY 13R. CONVERGING RY OPERATIONS IN USE. RWY 22L/4R INNER MARKER OTS. RWY 22L PAPI OTS. NUM CRANES OPERATING AT JFK. BIRD ACTIVITY VICINITY ARPT. READBACK ALL RWY ASSIGNMENTS AND HOLD SHORT INSTRUCTIONS. ...ADVS YOU HAVE INFO A.\n[Departure ATIS] KJFK DEP ATIS W 1551Z JFK ATIS INFO W 1551Z. 22014KT 10SM FEW060 FEW250 22/10 A2988 (TWO NINER EIGHT EIGHT). APPROACH IN USE ILS RY 31R, VISUAL APCH RY 31L. DEPG RY 31L. RWY 4L, 22R CLSD. RWY 22L/4R INNER MARKER OTS. NUM CRANES OPERATING AT JFK. BIRD ACTIVITY VICINITY ARPT. READBACK ALL RWY ASSIGNMENTS AND HOLD SHORT INSTRUCTIONS. ...ADVS YOU HAVE INFO W.",
    "KIND": "[Arrival ATIS] KIND ARR ATIS X 1254Z - KIND ATIS INFO X 1254Z. 32007KT 10SM FEW060 18/12 A3015 (THREE ZERO ONE FIVE). ILS RWY 5R APCH IN USE. CROSS RUNWAY OPERATIONS MAY BE IN EFFECT. NOTICE TO AIRMEN. RWY 32 GS OTS. RWYS 23R AND 5L CLSD. TWY, P BTN TWY, H AND TWY B CLSD. P PAD CLSD. ILS RUNWAY 5R AND RUNWAY 5L INNER MARKER UNSERVICEABLE. RUNWAY 32 PAPI OTS. RUNWAY 32 TOUCHDOWN RVR OTS. RUNWAY 14 ROLLOUT RVR OTS. ARPT ADZY FLOCK OF MEDIUM BIRDS IN THE VICINITY OF THE AIRPORT, ALT UNKN. ...ADVS YOU HAVE INFO X.\n[Departure ATIS] KIND DEP ATIS H 1854Z IND ATIS INFO H 1854Z. 26009G19KT 10SM SCT036 BKN041 BKN170 23/16 A2981 (TWO NINER EIGHT ONE) RMK AO2 SLP088 T02280156. PARL ILS RWY 23R AND 23L APPROACHES IN USE. CROSS RU",
    "KDTW": "[Arrival ATIS] KDTW ARR ATIS E 1653Z - KDTW ARR INFO E 1653Z. 07004KT 10SM SCT050 BKN250 27/17 A3000 (THREE ZERO ZERO ZERO) RMK AO2 SLP155 T02670167. SIMUL VISUAL RY 3R, RY 4L USE Z LOC FREQ 111.95 APCH IN USE. NOTICE TO AIRMEN. RWY 22L, 4R CLSD, RWY 27L, 9R CLSD, RWY 27R, 9L CLSD. PILOTS USE CTN FOR BIRD ACTIVITY. DEPARTURE ATIS 118.125. ...ADVS YOU HAVE INFO E.\n[Departure ATIS] KDTW DEP ATIS Q 1253Z - KDTW DEP INFO Q 1253Z. 21015KT 10SM SCT080 BKN100 BKN200 19/09 A2979 (TWO NINER SEVEN NINER) RMK AO2 SLP086 T01890094. DEPG RWY 21R ;. NOTICE TO AIRMEN. RWY 22L, 4R CLSD, RWY 27L, 9R CLSD, RWY 27R, 9L CLSD. PILOTS USE CTN FOR BIRD ACTIVITY. ...ADVS YOU HAVE INFO Q.",
    "KMSP": "[Arrival ATIS] KMSP ARR ATIS M 0453Z - KMSP ARR INFO M 0453Z. 13015G22KT 10SM FEW023 BKN040 BKN100 24/21 A2970 (TWO NINER SEVEN ZERO). SIMULTANEOUS DEPENDENT, ILS RWY 12R APCH IN USE, LOCALIZER RWY 12L APCH IN USE. FINAL APCH, OVER NOISE SENSITIVE AREA. NOTICE TO AIRMEN. RWYS 4, 22 CLSD, RWYS 17, 35 CLSD. TWY R7. R8. R9. R10. CLOSED, TWY R BETWEEN R6 AND R10 CLOSED, USE CAUTION, NUMEROUS TAXIWAY CLOSURES. GS RWY 12L OTS, RUNWAY STATUS LIGHTS OTS, RWYS 12R, 12L, INNER MARKER OTS.. CTN, BIRDS NEAR MSP. READ BACK HS AND ALT. ALL ACFT TAXI WITH TRANSPONDER AND ALTITUDE ENCODING ON. ...ADVS YOU HAVE INFO M.\n[Departure ATIS] KMSP DEP ATIS S 0053Z MSP DEP INFO S 0053Z. 12012KT 10SM OVC026 25/20 A2971 (TWO NINER SEVEN ONE). DEPARTING RWY 12L, RWY 12R, RWY 17. NOTICE TO AIRMEN. RWYS 4, 22 CLSD. TWY R7. R8. R9. R10. CLOSED, TWY R BETWEEN R6 AND R10 CLOSED, USE CAUTION, NUMEROUS TAXIWAY CLOSURES. ALL ACFT CTC METERING ON ONE THREE THREE POINT FIVE SEVEN WHEN READY TO PUSHBACK OR TAXI. CTN, BIRDS NEAR MSP. READ BACK HS AND ALT. ALL ACFT TAXI WITH TRANSPONDER AND ALTITUDE ENCODING ON. ...ADVS YOU HAVE INFO S.",
    "CYEG": "[Arrival ATIS] CYEG ARR ATIS L 0700Z 32004KT 20SM CIG BKN100 15/14 A2978 APCH RNAV Z OR Y RWY 02, INFORM ARRL OF REQ APCH ON INITIAL CTC. LDG AND DEP RWY 02. RSC 02 5/5/5 100 PCT WET, 100 PCT WET, 100 PCT WET. VALID JUN 29 0452 - JUN 29 1252. SIMUL APPROACHES MAY BE IN EFCT. INFORM CYEG ATC INFO L\n[Departure ATIS] CYEG DEP ATIS G 0400Z CYEG ARR ATIS G 0400Z 32005KT 20SM SCT078 CIG BKN100 BKN120 16/15 A2977 APCH RNAV Z OR Y RWY 02, INFORM ARRL OF REQ APCH ON INITIAL CTC. LDG AND DEP RWY 02. RSC 02 6/6/6 25 PCT WET, 25 PCT WET, 25 PCT WET. VALID JUN 29 0053. SIMUL APPROACHES MAY BE IN EFCT. INFORM CYEG ATC INFO G",
    "EHAM": "[Arrival ATIS] EHAM ARR ATIS I 0650Z EHAM ARRIVAL INFO I. DEMAND. MAIN LANDING RWY 36 R. TRANSITION LEVEL 040. WIND 290 DEG, 5 KT, VRB BTN 240 AND 320 DEG. CAVOK. T 20. DP 17. QNH 1023 HPA. NOSIG. OPERATIONAL REPORT. CONTACT APCH WITH CALLSIGN ONLY. END OF INFO I\n[Departure ATIS] EHAM DEP ATIS V 1559Z EHAM DEPARTURE INFO V. DEMAND. MAIN DEPARTURE RWY 24. MAIN LANDING RWY 18 R. WIND 250 DEG, 17 KT, VRB BTN 210 AND 280 DEG, 23 KT MAX, 11 KT MNM. VIS 10 KM OR MORE. CLD FEW 3700 FT. T 25. DP 16. QNH 1019 HPA. OPERATIONAL REPORT. CONVERGING DEPARTURES AND APPROACHES IN PROGRESS. INFORM SCHIPHOL DEL BY VOICE IF UNABLE TO COMPLY WITH NADP 2. END OF INFO V",
    "EBBR": "[Arrival ATIS] EBBR ARR ATIS I 0623Z EBBR NAT, EXP VECT FOR ILS APP ARR RWY25L RSCD AT 0616 RWY25L WET, RWYCC 555. DEP RWY25R TRL 055 TWY C1 C2 C3 AND C6 CLSD. ILS 25R U/S. RNP 25R ATC DISCRETION. RWY 19 CLSD 280/8KT CAVOK T18 DP14 QNH 1025HPA NOSIG CFM ARR I\n[Departure ATIS] EBBR DEP ATIS A 0637Z EBBR NAT, DEP RWY25R RSCD AT 0629 RWY25R DRY. ARR RWY25L TRL 055 TWY OUTER 6 B3 CLSD. RWY 19 CLSD 250/9KT CAVOK T18 DP14 QNH 1025HPA NOSIG CFM DEP A",
    "EDDF": "[Arrival ATIS] EDDF ARR ATIS Q 0650Z -ARR-ATIS EDDF Q METAR 290650 -EXPECT INDEPENDENT PARALLEL ILS Z APCH RWY 25R OR ILS APCH RWY 25L -RWY 25R 25L -GLS APCH ON REQUEST , RWY COND AT TIME 0050 : ALL RWYS WET , RWYCC 5 , DO NOT MISTAKE TWY M FOR RWY 25C WHEN PERFORMING VISUAL APPROACH , -TRL 60 - -23004KT -9999 - -VCSH FEW015 FEW///TCU -T22 DP20 -QNH1022 -RESHRA -TREND BECMG 32009KT\n[Departure ATIS] EDDF DEP ATIS G 1920Z DEP-ATIS EDDF G METAR 281920 RWY 07C 18 ACFT DEPARTING RWY18 : EXPECT POSSIBLE DEPARTURE FROM INTERSECTION M , TORA 3454 METERS. IF UNABLE , ADVISE TWR ON INITIAL CONTACT , TRL 60 32008KT 280V010 RWY18 32004KT CAVOK T33 DP16 QNH1018 TREND NOSIG",
    "EDDL": "[Arrival ATIS] EDDL ARR ATIS F 2020Z ATIS EDDL F METAR 282020 EXPECT VECTORS ILS APPROACH RWY 23L TRL 60 32009KT 9999 FEW040 T25 DP19 QNH1021 TREND NOSIG\n[Departure ATIS] EDDL DEP ATIS Y EDDL ARR/DEP DATIS RPT -ATIS EDDL Y METAR 231750 -EXPECT VECTORS ILS APPROACH -RWY 05R -ATTENTION, RISK OF TWY INCURSION WHEN TAXIING TO RWY05R, CHECK HOT SPOTS T1 AND L9 ON TAXI CHART -TRL 60 -EXPECT INTENSE BIRD ACTIVITY IN THE VICINITY OF RWY SYSTEM -VRB02KT -CAVOK - - -T30 DP17 -QNH1019 - -TREND NOSIG",
    "EDDK": "[Arrival ATIS] EDDK ARR ATIS C 1420Z -ATIS EDDK C METAR 231420 -EXPECT ILS APCH RWY 31R -RWY 31R 06 -RWY COND RWY 31R AT TIME 1325 RWYCC 6 DEPOSIT TOTAL RWY DRY RWY 06 AT TIME 1325 RWYCC 6 DEPOSIT TOTAL RWY DRY -TRL 60 -RWY 13R AND RWY 31L CLOSED FOR DEPARTURE AND LANDING: TAXIING BTN THR RWY 13R AND INTERSECTION RWY 24 POSSIBLE : -35004KT 300V060 -CAVOK - - -T29 DP17 -QNH1020 - -TREND NOSIG\n[Departure ATIS] EDDK DEP ATIS K EDDK ARR/DEP DATIS RPT -ATIS EDDK K METAR 271250 -EXPECT ILS APCH RWY 13L OR RNP RWY 06 -RWY 13L 06 -RWY COND RWY 13L AT TIME 0600 RWYCC 6 DEPOSIT TOTAL RWY DRY RWY 06 AT TIME 0600 RWYCC 6 DEPOSIT TOTAL RWY DRY -TRL 60 -RWY 13R AND RWY 31L CLOSED FOR DEPARTURE AND LANDING: TAXIING BTN THR RWY 13R AND INTERSECTION RWY 24 POSSIBLE : -11006KT 040V140 -CAVOK - - -T37 DP23 -QNH1015 - -TREND TEMPO SHRA SCT045CB",
    "EBLG": "[Arrival ATIS] EBLG ATIS F 0520Z EBLG INFO, EXP RNAV TO ILS APP ARR RWY22L DEP RWY22L RWY 22L WET, RWYCC 555. TRL 055 TWY A4 DISPLACED A VRB2KT CAVOK T17 DP15 QNH 1025HPA NOSIG CFM ATIS F",
    "LSZH": "[Arrival ATIS] LSZH ARR ATIS L 0650Z ARRIVALS, EXP ILS APCH, RWY 14. RWY COND REPORT. RWY COND CODE 5, 5, 5. COVERAGE 100 PER CENT, 100 PER CENT, 100 PER CENT. DEPTH NR, NR, NR. WET AND WET AND WET. RWY REPORT END. TRL 70. DEP RWY 28. WIND 250 DEG, 10 KT, VRB BTN 220 AND 290 DEG. VIS 4200 M, TDZ 10 KM OR MORE. MOD TSRA. CLD BKN 3000 FT, SCT CB 4500 FT, BKN 5000 FT. T 22. DP 18. QNH 1026. FREQUENT TS, OBSERVED, TOP FLT LEVEL 410. WS, WIND AT 2850 FT QNH 180 DEG 11 KT, WIND AT 3400 FT QNH 280 DEG 13 KT. TREND TEMPO NSW.\n[Departure ATIS] LSZH DEP ATIS R 0650Z DEP RWY 28. RWY COND REPORT. RWY 28. RWY COND CODE 5, 5, 5. COVERAGE 100 PER CENT, 100 PER CENT, 100 PER CENT. DEPTH NR, NR, NR. WET AND WET AND WET. RWY 16. RWY COND CODE 5, 5, 5. COVERAGE 100 PER CENT, 100 PER CENT, 100 PER CENT. DEPTH NR, NR, NR. WET AND WET AND WET. RWY REPORT END. TRL 70. ARRIVALS, EXP ILS APCH, RWY 14. TMA S 1 IS NOT ACT. TMA S 2 AND S 3 ARE NOT ACT. WIND 250 DEG, 6 KT, VRB BTN 220 AND 290 DEG. VIS 4200 M. MOD TSRA. CLD BKN 3000 FT, SCT CB 4500 FT, BKN 5000 FT. T 22. DP 18. QNH 1026. FREQUENT TS, OBSERVED, TOP FLT LEVEL 410. WS, WIND AT 2850 FT QNH 180 DEG 11 KT, WIND AT 3400 FT QNH 280 DEG 13 KT. TREND TEMPO NSW.",
    "LIMC": "[Arrival ATIS] LIMC ARR ATIS N 0201Z LIMC ARR N 0201Z I.L.S. ZULU RWY IN USE 35R TL 70 RWY 35L CLSD WIND TDZ VRB2KT CAVOK T25 DP15 QNH 1018HPA QFE 0993HPA\n[Departure ATIS] LIMC DEP ATIS A 1220Z LIMC DEP A 1220Z RWY IN USE 35L TL 70 WIND END 270/7KT VRB BTN 150/AND 300/ CAVOK T33 DP20 QNH 1018HPA QFE 0992HPA DATALINK CLEARANCE AVAILABLE.... CONTACT 1 3 1 8 8 0 TO BE RELEASED BY THE AIRPORT OPERATOR ...",
    "LIRF": "[Arrival ATIS] LIRF ARR ATIS D 1550Z LIRF ARR D 1550Z ILS RWY IN USE 34R 34L TL 70 DEPENDENT PARL ILS APCH INPR RWY IN USE 34R AND 34L ASSIGNED BY ROME RADAR WIND RWY 34R TDZ VRB2KT VRB BTN 340/AND 080/ RWY 34L TDZ 260/3KT VRB BTN 240/AND 350/ CAVOK T29 DP19 QNH 1014HPA RRSM\n[Departure ATIS] LIRF DEP ATIS O 0358Z LIRF DEP O 0358Z RWY IN USE 25 TL 70 RWYS IN USE FOR ARR 16L AND 16R WIND END VRB1KT VRB BTN 300/AND 010/ VIS 10KM CLD FEW 3000FT T23 DP20 QNH 1015HPA REA IS SENT AUTOMATICALLY ONCE RLSD BY RAMP WHEN READY CONTACT FIUME RAMP 121.725 RRSM",
    "VTBS": "[Arrival ATIS] VTBS ARR ATIS E 1900Z VTBS ARR ATIS E 1900Z EXP ILS Z APCH ARR RWY 19 RWY 20L AND 20R CLSD DUE TO WIP 06161216 19 5/5/5 100/100/100 NR/NR/NR WET/WET/WET ,RETIL RWY 19 U/S 1900Z WIND VRB BTN 030/ AND 090/2KT VIS 10KM CLD FEW 2000FT T28 DP24 QNH 1010HPA TREND NOSIG ADZ BKK APCH ON INITIAL CONTACT THAT YOU HAVE INFO E\n[Departure ATIS] VTBS DEP ATIS I 1800Z VTBS DEP ATIS I 1801Z DEP RWY 20L RWY 20R CLSD DUE TO WIP 06161218 20L 5/5/5 100/100/100 NR/NR/NR WET/WET/WET , ,AFT AIRBORNE ALL DEPARTING ACFT SHALL CTC 119.25 1800Z WIND 170/5KT VIS 10KM CLD FEW 2000FT T28 DP24 QNH 1010HPA TREND NOSIG ADZ GND WHEN INITIAL CONTACT YOU HAVE INFO I",
    "VTBU": "[Arrival ATIS] VTBU ARR ATIS K 1200Z VTBU ARR ATIS K 1200Z RNP RWY 18 TRL FL130 1200Z WIND 200/7KT VIS 10KM CLD FEW 2000FT T29 DP28 QNH 1009HPA TREND NOSIG ADZ CONTROLLER WHEN INITIAL CONTACT YOU HAVE INFO K\n[Departure ATIS] VTBU DEP ATIS D VTBU ARR/DEP DATIS RPT VTBU ARR ATIS D 0330Z ILS \"Z\" APCH RWY 18 TRL FL130 0330Z WIND 110/4KT VRB BTN 350/ AND 120/ VIS 6KM CLD FEW 2000FT T31 DP27 QNH 1014HPA TREND NOSIG ADZ CONTROLLER WHEN INITIAL CONTACT YOU HAVE INFO D",
    "VVDN": "[Arrival ATIS] VVDN ARR ATIS J 1402Z VVDN INFO J 1402Z. ILS VICTOR APPROACH 35L.. DPTG RWY 35R.. 1402Z. WIND 240/02KT CAVOK T27 DP23 QNH 1009HPA TREND NOSIG. ADZ ON INITIAL CTC YOU HAVE INFO. J.\n[Departure ATIS] VVDN DEP ATIS P 0532Z VVDN INFO P 0532Z. ILS VICTOR APPROACH 35L.. DPTG RWY 35R.. 0532Z. WIND 180/06KT CAVOK T37 DP23 QNH 1006HPA TREND NOSIG. ADZ ON INITIAL CTC YOU HAVE INFO. P.",
    "EINN": "[Arrival ATIS] EINN ARR ATIS W 0700Z EXPECT I L S CATEGORY 1 LDG RWY24 TKOF RWY24 TRL FL060 19009KT 9999 FEW009 SCT020 BKN033 15/11 QNH Q1023 TREND NOSIG ADVISE AT FIRST CONTACT YOU HAVE ATIS INFO W",
    "EGLL": "[Arrival ATIS] EGLL ARR ATIS Y 0650Z RUNWAY 27R REDUCED DECLARED DISTANCES LANDING RWY 27R TRANSITION-LEVEL: FL 70 IF STAND GUIDANCE IS OFF OR FAILS, REMAIN ON THE TAXIWAY CENTRELINE AND ADVISE ATC AUTO 28007KT 230V300 9999 OVC040 16/11 Q1027 ACKNOWLEDGE RECEIPT OF INFORMATION Y\n[Departure ATIS] EGLL DEP ATIS F 1450Z DEPARTURE RWY 27R PILOTS THAT ARE IN RECEIPT OF DATALINK CLEARANCES ARE REMINDED THEY MUST CONTACT DELIVERY ON 121.980 WHEN READY FOR START AUTO 25014KT 210V280 9999 NCD 26/12 Q1014 ACKNOWLEDGE RECEIPT OF INFORMATION F AND REPORT AIRCRAFT TYPE AND CURRENT QNH ON FIRST CONTACT WITH HEATHROW",
    "EPWA": "[Arrival ATIS] EPWA ARR ATIS A 1601Z EPWA ARR A. TIME 1600. EXP U ARR ILS Z APCH FOR RWY 33. TRANSITION LEVEL 80. WIND 320 DEG, 11 KT. CAVOK. T 25. DP 5. QNH 1019. NOSIG. CAUTION. BIRD ACT. END OF EPWA ARR A\n[Departure ATIS] EPWA DEP ATIS X 0731Z EPWA DEP X. TIME 0730. DEP RWY 33. ARR RWY 33, EXP U ARR ILS Z. REPORT READY FOR STARTUP ON DELIVERY 121 DECIMAL 605. RWY 11 29 CLSD FOR LDG AND TAKE OFF. TRANSITION LEVEL 80. WIND 140 DEG, 3 KT, VRB BTN 100 AND 170 DEG. CAVOK. T 31. DP 18. QNH 1018. NOSIG. CAUTION. BIRD ACT. END OF EPWA DEP X",
    "EFHK": "[Arrival ATIS] EFHK ARR ATIS T 1820Z EXPECT ILS APCH ARR RWY 22L RUNWAY 22L CONDITION REPORT AT 1630 UTC RUNWAY CONDITION CODES 6 , 6 , 6 CONTAMINANTS ALL PARTS DRY TRL 65 WIND 300 DEG 4 KT CAVOK T 18 DP 11 QNH 1000 NOSIG ACK INFO T\n[Departure ATIS] EFHK DEP ATIS C 1113Z DEP RWY 22R RUNWAY 22R CONDITION REPORT AT 0852 UTC RUNWAY CONDITION CODES 6 , 6 , 6 CONTAMINANTS ALL PARTS DRY WIND 270 DEG 8 KT VRB BTN 230 AND 330 DEG VIS 10KM SCT 4800 FT T 21 DP 9 QNH 1016 NOSIG ACK INFO C",
    "LTAC": "[Arrival ATIS] LTAC ARR ATIS W 1550Z EXP ILS V APCH 03C DEP RWY 03L RWY 03C WIND 070 DEG 10 KT RWY 03L WIND 060 DEG 11 KT TRL 110 CAVOK T 26 DP 09 QNH 1013 NOSIG FOR DELIVERY CTC 121.9. FOR DELIVERY FIRST USE DIGITAL DEP CLR. CTN BIRD HAZARD OVR AERODROME. APCH FREQUENCY 129.050. TAXIWAY ECHO 1 IS CLOSED. END OF ATIS W",
    "UBBB": "[Arrival ATIS] UBBB ARR ATIS U 0630Z ATIS U EXP ILS/ LDG 34 DEP 34 35 IN USE RWY 34 CLEAR DRY 70 RWY 35 CLEAR DRY 70 TLVL 110 WIND WIND RWY 34 350 22 KT SPD MAX 28 MIN 16 WIND RWY 35 320 18 KT SPD MAX 24 MIN 10 VIS 10 KM BKN 2900 FT RWY 34 BKN 2700 FT RWY 35 T 24 / DP 17 QNH 1014 HPA TREND TREND NOSIG MODERATE BIRDS ACT IN VICINITY OF AP END OF ATIS U\n[Departure ATIS] UBBB DEP ATIS S 0600Z ATIS S EXP ILS/ LDG 34 DEP 34 35 IN USE RWY 34 CLEAR DRY 70 RWY 35 CLEAR DRY 70 TLVL 110 WIND WIND RWY 34 350 20 KT SPD MAX 26 MIN 14 WIND RWY 35 350 20 KT SPD MAX 28 MIN 16 VIS 10 KM BKN 3500 FT RWY 34 BKN 2900 FT RWY 35 T 24 / DP 16 QNH 1014 HPA TREND TREND NOSIG MODERATE BIRDS ACT IN VICINITY OF AP END OF ATIS S",
    "ZWWW": "[Arrival ATIS] ZWWW ARR ATIS V 1800Z EXP ILSDME Z APCH LDG RWY 26L TA 3000 WIND 160/3MPS CAVOK T 30 /DP 08 QNH 1009 HPA ADZ YOU HAVE INFO V.\n[Departure ATIS] ZWWW DEP ATIS T 0630Z DEP RWY 26L TA 3000 WIND 020/4MPS VRB BTN 350/ AND 050/ CAVOK T 34 /DP 07 QNH 1008 HPA FLOCKS ACTIVITY IN VICINITY OF AERODROME ADZ YOU HAVE INFO T.",
    "ZLXY": "[Arrival ATIS] ZLXY ARR ATIS Y 0600Z EXP ILS APCH LDG RWY 05L & 06R WIND 170/2MPS VRB BTN 110/ AND 220/ CAVOK T 32 /DP 20 QNH 1005 HPA VISUAL APPROACH IN PROGRESS ADZ YOU HAVE INFO Y.\n[Departure ATIS] ZLXY DEP ATIS P 0900Z DEP RWY 05L & 06L WIND 080/4MPS VRB BTN 030/ AND 120/ VIS 9999M CLD FEW 1500M /FEW TCU 1500M T 34 /DP 17 QNH 1005 HPA VISUAL APPROACH IN PROGRESS ADZ YOU HAVE INFO P.",
    "ZBAA": "[Arrival ATIS] ZBAA ARR ATIS E 1903Z EXP ILS APCH LDG RWY 36L RWY 36R IS CLSD WIND VRB DEG 1 MPS VIS 9999 CLD FEW 600M T 20 /DP 19 QNH 1008 HPA VISUAL APPROACH IS IN PROGRESS. RWY 01 RWYCC 5/5/5 ISSUED AT 1400 ALL PARTS WET NR 100PCT RWY 36L RWYCC 5/5/5 ISSUED AT 1400 ALL PARTS WET NR 100PCT ADZ YOU HAVE INFO E.\n[Departure ATIS] ZBAA DEP ATIS C 1830Z DEP RWY 36L & 36R & 01 WIND 270 DEG 2 MPS 230V330 DEG VIS 9999 CLD FEW 600M T 21 /DP 20 QNH 1009 HPA RWY INDEPENDENT PARALLEL DEP VISUAL APPROACH IS IN PROGRESS. RWY 01 RWYCC 5/5/5 ISSUED AT 1400 ALL PARTS WET NR 100PCT RWY 36R RWYCC 5/5/5 ISSUED AT 1400 ALL PARTS WET NR 100PCT RWY 36L RWYCC 5/5/5 ISSUED AT 1400 ALL PARTS WET NR 100PCT ADZ YOU HAVE INFO C.",
    "ZBHH": "[Arrival ATIS] ZBHH ARR ATIS L 0500Z EXP ILSDME APCH LDG RWY 26 TA 3000 /TRL 3600 WIND 140/2MPS VIS 9999M CLD FEW 1200M /FEW TCU 1200M T 27 /DP 13 QNH 1009 HPA ADZ YOU HAVE INFO L.\n[Departure ATIS] ZBHH DEP ATIS K 0100Z DEP RWY 26 TA 3000 /TRL 3600 WIND VRB/2MPS CAVOK T 23 /DP 08 QNH 1010 HPA ADZ YOU HAVE INFO K.",
    "ZSQD": "[Arrival ATIS] ZSQD ARR ATIS K 0900Z EXP ILSDME APCH LDG RWY 17 TA 3000 /TRL 3600 WIND 160/8MPS CAVOK T 25 /DP 18 QNH 1010 HPA SEGREGATED OPERATION VISUAL APPROACH OPERATION IN PROGRESS. RUNWAY 17,IF MISSED APPROACH,EXPECT FOLLOW THE STANDARD MISSED APPROACH PROCEDURE,CLIMB TO 900M ON QNH OR BY ATC CAUTION MAYBE THERE IS A FLOCK OF BIRDS IN THE VICINITY OF AIRPORT ADZ YOU HAVE INFO K.\n[Departure ATIS] ZSQD DEP ATIS I 0700Z DEP RWY 16 TA 3000 /TRL 3600 WIND 160/7MPS VIS 9999M CLD FEW 900M T 27 /DP 16 QNH 1011 HPA SEGREGATED OPERATION VISUAL APPROACH OPERATION IN PROGRESS. RUNWAY 17,IF MISSED APPROACH,EXPECT FOLLOW THE STANDARD MISSED APPROACH PROCEDURE,CLIMB TO 900M ON QNH OR BY ATC CAUTION MAYBE THERE IS A FLOCK OF BIRDS IN THE VICINITY OF AIRPORT ADZ YOU HAVE INFO I."
  },
  "windtemp_alaska": "\n000\nFBAK31 KWNO 290159\nFD1AK1\nDATA BASED ON 290000Z    \nVALID 290600Z   FOR USE 0200-0900Z. TEMPS NEG ABV 24000\n\nFT  3000    6000    9000   12000   18000   24000  30000  34000  39000\nADK 1917 1915+02 2015-03 2018-07 2524-13 2740-24 275538 276849 275257\nADQ 2419 2421+01 2424-02 2428-07 2429-20 2429-31 242545 242853 242948\nAKN 2414 2323-02 2026-07 2227-10 2335-22 2245-33 214846 214149 232944\nANC 2109 2113+01 2113-04 2210-09 2311-20 2419-31 252245 252253 221746\nANN 3411 3216+05 3120+02 3021-02 2927-14 2928-27 272943 272749 263153\nBET 2021 2018-04 1919-10 1819-14 1826-25 1831-37 183143 192341 211441\nBRW 2708 2716+02 2722+00 2724-04 2628-17 2536-30 225746 234554 231849\nBTI 1015 1307+06 0805+01 0506-04 1207-15 1613-26 181944 182654 202253\nBTT 2528 2610+01 2706-02 9900-07 9900-18 0913-29 093045 103554 151148\nCDB 2411 2520-03 2532-03 2535-07 2543-20 2553-32 257145 266948 254947\nCZF 1708 1407-03 1208-09 1011-14 0820-25 0831-36 083344 101442 990040\nEHM 2321 2320-05 2325-08 2430-12 2438-24 2444-35 244745 243742 242441\nFAI 2514 2724+01 2629-04 2629-08 2211-21 1415-32 091746 130950 181145\nFYU 2531 2629+01 2626-02 2524-07 2013-17 1612-30 111945 121751 161646\nGAL 2315 2320-01 2219-06 2112-09 1509-20 1311-32 171346 161651 151245\nGKN 1819 2112+03 2407-03 9900-09 9900-22 2719-32 283046 272349 231546\nHOM 2318 2615+01 2412-04 2215-09 2319-20 2323-30 212545 202254 232347\nJNU 2508 2607+00 2809-01 2713-05 2515-18 2421-30 253245 242949 232147\nLUR 0312 3408+05 3109+00 3010-06 3306-18 9900-30 172447 162856 990048\nMCG 2114 2214+00 2116-06 2016-11 1822-21 1824-32 193245 193252 171345\nMDO 2614 2713+01 2814-03 2814-08 2613-20 2811-31 270945 270753 251546\nOME 2414 2312-02 2205-05 9900-10 0618-20 0721-32 061848 081451 120843\nORT      2812+03 2814-03 2811-08 2610-23 2114-32 201944 211949 201344\nOTZ 2315 1107+02 0813-02 0716-07 0716-20 0830-32 113347 112951 131245\nSNP 2818 2818-04 2819-06 2724-11 2732-23 2738-35 274045 273944 273342\nTKA 1923 2116+02 2212-04 2109-09 2311-22 2620-31 263045 262853 201445\nUNK 2112 2116-02 2017-07 1712-11 1314-22 1124-33 122546 132150 141243\nYAK 2605 2910+00 2714-01 2811-07 2706-20 9900-31 080546 990051 221245\nIKO 2515 2523+01 2528-02 2530-06 2538-18 2653-27 276242 276650 275853\nAFM 2315 2105+02 9900-02 9900-06 0713-18 1019-30 123246 134155 151247\n5AB 1438 1436+01 1530-01 1524-03 1916-13 2121-23 232639 224649 233356\n5AC 3229 3130+07 3031+03 3035-01 2935-14 2942-26 295142 295850 295257\n5AD 2918 2921+03 2826+00 2833-05 2743-20 2748-33 275746 276048 275047\n5AE 2525 2532+01 2532-02 2533-07 2538-20 2544-31 256544 268351 265350\n5AF 2920 2817+03 2820+00 2823-04 2631-16 2529-29 243544 254251 254049\n5AG 2713 2812+01 2814-02 2818-06 2817-20 2818-31 281647 261650 251946\n",
  "vaac_tokyo": [
    {
      "id": "20260628_27303000_0707",
      "year": "2026",
      "volcano": "Mayon",
      "psn": "N1315 E12341",
      "issued": "20260628",
      "text": "FVFE01 RJTD 281019\nVA ADVISORY\nDTG: 20260628/1019Z\nVAAC: TOKYO\nVOLCANO: MAYON 273030\nPSN: N1315 E12341\nAREA: PHILIPPINES\nSOURCE ELEV: 2462M AMSL\nADVISORY NR: 2026/707\nINFO SOURCE: HIMAWARI-9 PHIVOLCS\nERUPTION DETAILS: ERUPTION AT 20260628/0950Z FL120 EXTD WSW REPORTED\nOBS VA DTG: 28/1000Z\nOBS VA CLD: VA NOT IDENTIFIABLE FM SATELLITE DATA WIND FL120 050/10KT\nFCST VA CLD +6 HR: NOT AVBL\nFCST VA CLD +12 HR: NOT AVBL\nFCST VA CLD +18 HR: NOT AVBL\nRMK: WE WILL ISSUE FURTHER ADVISORY IF VA IS DETECTED IN SATELLITE \nIMAGERY.\nNXT ADVISORY: NO FURTHER ADVISORIES=",
      "img_url": "https://ds.data.jma.go.jp/svd/vaac/data/VAGFN/2026/Images/20260628_27303000_0707_QH21_01.png",
      "sat_img_url": null,
      "text_url": "https://ds.data.jma.go.jp/svd/vaac/data/TextData/2026/20260628_27303000_0707_Text.html"
    },
    {
      "id": "20260624_30027000_0208",
      "year": "2026",
      "volcano": "Sheveluch",
      "psn": "N5639 E16122",
      "issued": "20260624",
      "text": "FVFE01 RJTD 240600\nVA ADVISORY\nDTG: 20260624/0600Z\nVAAC: TOKYO\nVOLCANO: SHEVELUCH 300270\nPSN: N5639 E16122\nAREA: RUSSIA\nSOURCE ELEV: 3283M AMSL\nADVISORY NR: 2026/208\nINFO SOURCE: HIMAWARI-9\nERUPTION DETAILS: VA CONTINUOUSLY OBS IN SATELLITE IMAGERY\nOBS VA DTG: 24/0520Z\nOBS VA CLD: SFC/FL150 N5540 E15823 - N5518 E15808 - N5432 E15904 - \nN5452 E15927 MOV SW 15KT\nFCST VA CLD +6 HR: 24/1120Z SFC/FL170 N5444 E15806 - N5247 E15915 - \nN5216 E15831 - N5336 E15736\nFCST VA CLD +12 HR: 24/1720Z SFC/FL170 N5147 E15929 - N4958 E15929 - \nN5004 E15823 - N5127 E15726 - N5330 E15801\nFCST VA CLD +18 HR: 24/2320Z SFC/FL170 N5211 E15833 - N5026 E16054 - \nN4736 E16054 - N4758 E15930 - N5036 E15756\nRMK: SOME PART OF VA OBSCURED BY MET CLOUD.\nNXT ADVISORY: 20260624/1200Z=",
      "img_url": "https://ds.data.jma.go.jp/svd/vaac/data/VAGFN/2026/Images/20260624_30027000_0208_QH21_01.png",
      "sat_img_url": "https://ds.data.jma.go.jp/svd/vaac/data/Sat/2026/Images/30027000/09-ir/20260624_0520_202606240600_ir.png",
      "text_url": "https://ds.data.jma.go.jp/svd/vaac/data/TextData/2026/20260624_30027000_0208_Text.html"
    },
    {
      "id": "20260621_28208001_0077",
      "year": "2026",
      "volcano": null,
      "psn": "N3136 E13039",
      "issued": "20260621",
      "text": "FVFE01 RJTD 211018\nVA ADVISORY\nDTG: 20260621/1018Z\nVAAC: TOKYO\nVOLCANO: SAKURAJIMA (AIRA CALDERA) 282080\nPSN: N3136 E13039\nAREA: JAPAN\nSOURCE ELEV: 1117M AMSL\nADVISORY NR: 2026/77\nINFO SOURCE: JMA HIMAWARI-9\nERUPTION DETAILS: EXPLODED AT 20260621/0955Z FL090 EXTD SE\nOBS VA DTG: 21/1000Z\nOBS VA CLD: VA NOT IDENTIFIABLE FM SATELLITE DATA WIND FL090 280/26KT\nFCST VA CLD +6 HR: NOT AVBL\nFCST VA CLD +12 HR: NOT AVBL\nFCST VA CLD +18 HR: NOT AVBL\nRMK: WE WILL ISSUE FURTHER ADVISORY IF VA IS DETECTED IN SATELLITE \nIMAGERY.\nNXT ADVISORY: NO FURTHER ADVISORIES=",
      "img_url": "https://ds.data.jma.go.jp/svd/vaac/data/VAGFN/2026/Images/20260621_28208001_0077_QH21_01.png",
      "sat_img_url": null,
      "text_url": "https://ds.data.jma.go.jp/svd/vaac/data/TextData/2026/20260621_28208001_0077_Text.html"
    },
    {
      "id": "20260619_27202000_0220",
      "year": "2026",
      "volcano": "Kanlaon",
      "psn": "N1025 E12308",
      "issued": "20260619",
      "text": "FVFE01 RJTD 191816\nVA ADVISORY\nDTG: 20260619/1816Z\nVAAC: TOKYO\nVOLCANO: KANLAON 272020\nPSN: N1025 E12308\nAREA: PHILIPPINES\nSOURCE ELEV: 2435M AMSL\nADVISORY NR: 2026/220\nINFO SOURCE: HIMAWARI-9 PHIVOLCS\nERUPTION DETAILS: ERUPTION AT 20260619/1746Z FL100 EXTD SW REPORTED\nOBS VA DTG: 19/1750Z\nOBS VA CLD: VA NOT IDENTIFIABLE FM SATELLITE DATA WIND FL100 050/6KT\nFCST VA CLD +6 HR: NOT AVBL\nFCST VA CLD +12 HR: NOT AVBL\nFCST VA CLD +18 HR: NOT AVBL\nRMK: WE WILL ISSUE FURTHER ADVISORY IF VA IS DETECTED IN SATELLITE \nIMAGERY.\nNXT ADVISORY: NO FURTHER ADVISORIES=",
      "img_url": "https://ds.data.jma.go.jp/svd/vaac/data/VAGFN/2026/Images/20260619_27202000_0220_QH21_01.png",
      "sat_img_url": null,
      "text_url": "https://ds.data.jma.go.jp/svd/vaac/data/TextData/2026/20260619_27202000_0220_Text.html"
    }
  ],
  "vaac_alaska": []
}