{
  "updated_utc": "2026-07-15T16:15Z",
  "metar": {
    "RJAA": "METAR RJAA 151430Z AUTO 16006KT 8000 FEW006 SCT220 26/25 Q1001 TEMPO 4000 BR FEW003 BKN008",
    "PANC": "SPECI PANC 151420Z 15010KT 10SM FEW005 BKN060 OVC075 11/09 A2987 RMK AO2 RAE17 P0000 T01060089",
    "PAFA": "METAR PAFA 151453Z 17006KT 10SM SCT055 BKN075 OVC100 12/09 A2973 RMK AO2 SLP070 60000 T01220089 51009 $",
    "PAED": "METAR PAED 151455Z 19012KT 10SM SCT046 OVC060 11/09 A2985 RMK AO2A SLP104 P0001 60002 T01110088 52008 $",
    "KSEA": "METAR KSEA 151453Z 22005KT 10SM FEW130 16/11 A3012 RMK AO2 SLP204 T01610106 51006 $",
    "ZSPD": "METAR ZSPD 151430Z 17004MPS CAVOK 31/26 Q1003 NOSIG",
    "ZSSS": "METAR ZSSS 151430Z 20004MPS CAVOK 33/26 Q1003 NOSIG",
    "RJFR": "METAR RJFR 151500Z AUTO 22005KT 9999 SCT028 BKN032 OVC034 29/25 Q1002",
    "VHHH": "METAR VHHH 151430Z 16008KT 130V210 9999 3500W -SHRA FEW008 SCT025 29/25 Q1007 TEMPO 3000 SHRA FEW010CB SCT020",
    "RCTP": "METAR RCTP 151430Z 24005KT 220V280 9999 FEW020 SCT030 BKN090 29/26 Q1010 NOSIG RMK A2984",
    "ZGSZ": "METAR ZGSZ 151500Z 11006MPS 9999 -TSRA FEW015 FEW025CB BKN040 27/25 Q1007 BECMG AT1520 2000 +SHRA",
    "WSSS": "METAR WSSS 151430Z 12008KT 9999 FEW018 BKN300 29/25 Q1012 NOSIG",
    "WMKK": "METAR WMKK 151430Z 14004KT 070V200 9999 FEW030 30/25 Q1011 NOSIG",
    "WIDD": "METAR WIDD 151430Z 14004KT 080V190 9999 FEW014 29/25 Q1012 NOSIG",
    "VTBS": "METAR VTBS 151430Z 21007KT 9999 FEW020 29/24 Q1011 NOSIG",
    "VTBU": "METAR VTBU 151430Z 02003KT 8000 -RA FEW020 BKN100 25/25 Q1012 NOSIG",
    "ROAH": "METAR ROAH 151430Z AUTO 22010KT 9999 SCT005 BKN007 27/27 Q1011",
    "VVDN": "METAR VVDN 151430Z 22011KT 9999 FEW020 SCT080 31/22 Q1007 NOSIG",
    "RCKH": "METAR RCKH 151430Z 16004KT 130V200 9999 FEW012 SCT030 BKN050 29/24 Q1011 NOSIG RMK A2988",
    "KLAX": "METAR KLAX 151453Z 00000KT 10SM FEW010 FEW160 SCT250 23/17 A2988 RMK AO2 SLP117 T02280167 55000 $",
    "KONT": "METAR KONT 151453Z 00000KT 10SM FEW130 25/13 A2990 RMK AO2 SLP106 T02500133 53003 $",
    "KSFO": "METAR KSFO 151456Z 30013KT 10SM CLR 17/12 A2995 RMK AO2 SLP142 T01720117 53008",
    "KOAK": "METAR KOAK 151453Z 28009KT 10SM FEW006 17/13 A2996 RMK AO2 SLP144 T01720128 53008",
    "KMHR": "METAR KMHR 151435Z AUTO 21006KT 10SM CLR 25/08 A2988 RMK AO2 T02500076 $",
    "KDFW": "SPECI KDFW 151435Z VRB05KT 10SM SCT017 SCT100 SCT250 27/21 A3010 RMK AO2 T02670211 $",
    "KIAH": "METAR KIAH 151453Z 12006KT 10SM FEW015 BKN160 OVC250 27/22 A3009 RMK AO2 SLP190 T02670222 51012",
    "KORD": "METAR KORD 151451Z 00000KT 10SM FEW300 30/22 A3009 RMK AO2 SLP183 T03000222 58004",
    "KJFK": "METAR KJFK 151451Z 24012KT 10SM FEW250 BKN300 32/22 A2984 RMK AO2 SLP104 FU BKN300 T03170222 58014",
    "KRFD": "METAR KRFD 151454Z 32004KT 10SM SCT250 29/24 A3013 RMK AO2 SLP197 T02890239 56002",
    "KIND": "METAR KIND 151454Z 27005KT 9SM FEW035 FEW300 30/21 A3013 RMK AO2 SLP195 T03000211 58002 $",
    "KDTW": "METAR KDTW 151453Z VRB06KT 10SM BKN230 29/22 A3005 RMK AO2 SLP171 T02940222 50001",
    "KMSP": "METAR KMSP 151453Z 31006KT 10SM FEW250 29/22 A3014 RMK AO2 SLP199 T02940222 50000",
    "CYEG": "METAR CYEG 151500Z 16005KT 110V180 20SM FEW140 SCT250 19/15 A3010 RMK AC2CI1 SLP194 DENSITY ALT 3200FT",
    "EHAM": "METAR EHAM 151425Z 06012KT 030V100 CAVOK 27/11 Q1021 NOSIG",
    "EBBR": "METAR EBBR 151420Z 04010KT 020V080 CAVOK 29/11 Q1020 NOSIG",
    "EDDF": "METAR EDDF 151420Z AUTO 05011KT 020V090 CAVOK 30/13 Q1017 NOSIG",
    "EDFH": "METAR EDFH 151420Z VRB05KT CAVOK 27/11 Q1019",
    "EDDL": "METAR EDDL 151420Z AUTO 04013KT 360V060 CAVOK 29/11 Q1019 NOSIG",
    "EDDK": "METAR EDDK 151420Z AUTO 03011KT 360V060 CAVOK 29/11 Q1018 NOSIG",
    "EBLG": "METAR EBLG 151420Z 03011KT 350V060 CAVOK 28/10 Q1019 NOSIG",
    "LSZH": "METAR LSZH 151420Z 18007KT 9999 FEW060CB 27/16 Q1018 NOSIG",
    "LIMC": "METAR LIMC 151420Z 36024G34KT 9999 TS FEW040CB SCT080 28/19 Q1015 NOSIG",
    "LIRF": "METAR LIRF 151420Z 23008KT 190V280 CAVOK 32/24 Q1016 NOSIG",
    "EINN": "METAR EINN 151430Z 09005KT 020V150 9999 FEW030 29/14 Q1022 NOSIG",
    "EGLL": "METAR EGLL 151420Z AUTO 07010KT 030V100 9999 NCD 28/13 Q1022",
    "EGSS": "METAR EGSS 151420Z AUTO 06012KT 9999 NCD 28/13 Q1023",
    "EPWA": "METAR EPWA 151430Z 35008KT 330V030 CAVOK 28/13 Q1019 NOSIG",
    "UHPP": "METAR UHPP 151500Z 17003MPS 9999 FEW100 15/12 Q1014 R34L/CLRD62 NOSIG RMK QFE757/1010",
    "EFHK": "METAR EFHK 151420Z 32012KT CAVOK 26/14 Q1018 NOSIG",
    "LBBG": "METAR LBBG 151430Z AUTO 12010KT 9999 NCD 28/18 Q1015 NOSIG",
    "LTAC": "METAR LTAC 151420Z VRB06KT 9999 SCT040 29/07 Q1015 NOSIG RMK RWY21C 04012KT RWY03L 07007KT 010V130 RWY21R 05008KT 360V100 RWY03R 09005KT 020V130 RWY21L VRB05KT",
    "UBBB": "METAR UBBB 151430Z 33022G32KT CAVOK 27/22 Q1007 NOSIG",
    "UTAA": "METAR UTAA 151500Z 10006KT 9999 NSC 41/05 Q1004 R88/CLRD70 NOSIG",
    "UACC": "METAR UACC 151430Z 27006MPS CAVOK 29/15 Q1005 NOSIG RMK QFE723/0964",
    "UAAA": "METAR UAAA 151430Z 13003MPS 9999 FEW050CB BKN100 30/14 Q1008 NOSIG",
    "UZTT": "METAR UZTT 151430Z 14006KT 080V170 CAVOK 37/10 Q1005 NOSIG",
    "ZWWW": "METAR ZWWW 151430Z 19005MPS 9999 FEW040 29/12 Q1008 NOSIG",
    "ZLXY": "METAR ZLXY 151500Z 04003MPS 9999 SCT070 28/22 Q1005 NOSIG",
    "ZBAA": "METAR ZBAA 151430Z 07002MPS 050V120 CAVOK 26/23 Q1000 NOSIG",
    "ZBHH": "METAR ZBHH 151500Z 06002MPS 360V090 CAVOK 22/17 Q1009 NOSIG",
    "ZSQD": "METAR ZSQD 151500Z 29002MPS 250V320 4000 +SHRA FEW015 SCT030 22/22 Q1004 BECMG TL1610 -SHRA",
    "ZMCK": "METAR ZMCK 151430Z 01003MPS 9999 FEW033 22/08 Q1009 NOSIG RMK QFE642.4 40 NT",
    "UUEE": "METAR UUEE 151430Z 30005G10MPS 270V340 9999 SCT031 23/16 Q1012 R24L/CLRD62 R24C/CLRD62 TEMPO -TSRA SCT020CB",
    "UUDD": "METAR UUDD 151430Z 32006G11MPS 290V350 9999 SCT033 23/15 Q1011 WS R31L R31L/CLRD65 NOSIG",
    "ULLI": "METAR ULLI 151430Z 31009MPS 9999 SCT043 23/14 Q1015 R88/090065 NOSIG",
    "USSS": "METAR USSS 151430Z 12003MPS 9999 -SHRA SCT026CB 15/15 Q1001 R08R/290050 R08L/290535 TEMPO -TSRA RMK QFE731/0975",
    "UNNT": "METAR UNNT 151430Z 36002MPS CAVOK 21/14 Q1008 R07/CLRD// R34/CLRD// NOSIG RMK QFE746/0995",
    "UNKL": "METAR UNKL 151430Z 25001MPS CAVOK 16/13 Q1010 R29/CLRD// NOSIG RMK QFE732",
    "UIBB": "METAR UIBB 151430Z AUTO 27003MPS 150V300 9999 // NCD 14/11 Q1006 RMK QFE712/0950",
    "UEEE": "METAR UEEE 151430Z 36003MPS 9999 SCT050CB 19/18 Q0997 R23/09//74 NOSIG RMK QFE739",
    "UHHH": "METAR UHHH 151430Z 25006MPS 9999 SCT037CB 22/20 Q0991 R23L/090060 NOSIG RMK QFE737/0983",
    "UHSS": "METAR UHSS 151500Z 23003MPS 8000 BKN037CB 20/19 Q0994 RMK QFE744/0993"
  },
  "taf": {
    "RJAA": "TAF AMD RJAA 151244Z 1512/1618 17010KT 8000 FEW005 BKN012 TEMPO 1512/1520 4000 BR FEW003 BKN005 BECMG 1522/1600 01004KT BECMG 1600/1603 12010KT TEMPO 1615/1618 3000 BR",
    "PANC": "TAF PANC 151449Z 1515/1618 16010G20KT P6SM -SHRA FEW005 OVC050 FM152200 18012G20KT P6SM VCSH SCT030 OVC050 FM160100 18012KT P6SM BKN050 OVC070 FM160900 16011KT P6SM BKN080",
    "PAFA": "TAF PAFA 151545Z 1516/1618 24008KT P6SM -SHRA SCT025 BKN050 OVC070 FM152100 24010KT P6SM OVC050 TEMPO 1603/1606 P6SM -SHRA BKN025 FM160600 22009G19KT P6SM OVC050 FM161600 23005KT P6SM BKN050",
    "PAED": "TAF AMD PAED 151330Z 1513/1619 21010KT 9999 -SHRA OVC040 620703 540406 QNH2982INS BECMG 1517/1518 22012G22KT 9999 -SHRA SCT045 OVC060 620703 520009 QNH2990INS BECMG 1604/1605 21009KT 9999 NSW SCT050 BKN065 620703 QNH3002INS TX14/1600Z TN10/1514Z",
    "KSEA": "TAF KSEA 151455Z 1515/1618 20005KT P6SM FEW250 FM152100 33007KT P6SM FEW250 FM160600 VRB04KT P6SM VCSH BKN150",
    "ZSPD": "TAF ZSPD 151502Z 1518/1624 18004MPS 8000 SCT030 TX38/1606Z TN29/1521Z TN28/1621Z TEMPO 1606/1610 TSRA BKN008 SCT030CB",
    "ZSSS": "TAF ZSSS 151502Z 1518/1624 18004MPS 8000 SCT030 TX38/1606Z TN29/1521Z TN28/1621Z TEMPO 1606/1610 TSRA BKN011 SCT030CB",
    "RJFR": "TAF RJFR 151105Z 1512/1618 24010KT 9999 FEW013 BECMG 1517/1519 28006KT",
    "VHHH": "TAF VHHH 151400Z 1515/1621 20010KT 9999 FEW010 SCT030 TX31/1606Z TN26/1522Z TEMPO 1515/1517 14010KT 3000 SHRA FEW010CB SCT020 TEMPO 1521/1603 24015G25KT 2000 TSRA +SHRA FEW008CB SCT015 TEMPO 1603/1606 3000 SHRA FEW010CB SCT020",
    "RCTP": "TAF RCTP 151100Z 1512/1618 24010KT 9999 FEW010 BKN032 TEMPO 1512/1518 18005KT TEMPO 1518/1524 15005KT TEMPO 1604/1610 28017KT FEW010 BKN020 FEW025TCU",
    "ZGSZ": "TAF ZGSZ 151512Z 1518/1624 18004MPS 8000 BKN040 TX31/1606Z TN26/1522Z TN27/1622Z TEMPO 1518/1521 SHRA SCT011 FEW020CB TEMPO 1522/1601 2000 +SHRA SCT012 FEW020CB BKN030 TEMPO 1602/1605 SHRA SCT011 FEW020CB BKN030 TEMPO 1605/1608 SHRA SCT011 FEW020CB",
    "WSSS": "TAF WSSS 151100Z 1512/1618 15007KT 9999 FEW015 SCT020",
    "WMKK": "TAF WMKK 151100Z 1512/1618 VRB03KT 9999 FEW018",
    "VTBS": "TAF VTBS 151100Z 1512/1618 21008KT 9999 FEW020 TEMPO 1512/1514 -TSRA FEW018CB SCT020 BKN080 TEMPO 1610/1615 VRB15KT 4000 TSRA FEW018CB SCT020 BKN080",
    "VTBU": "TAF VTBU 151100Z 1512/1612 24008KT 9999 FEW020",
    "ROAH": "TAF ROAH 151105Z 1512/1618 22010KT 9999 FEW006 BKN010 TEMPO 1512/1518 FEW003 BKN005 TEMPO 1518/1600 4000 BR FEW003 BKN005 TEMPO 1600/1603 FEW005 BKN008 TEMPO 1612/1618 FEW005 BKN008",
    "VVDN": "TAF VVDN 151100Z 1512/1612 24005KT 9999 FEW020 BECMG 1606/1607 02010KT",
    "RCKH": "TAF RCKH 151100Z 1512/1618 15005KT 9999 FEW010 BKN032 TEMPO 1512/1518 08005KT TEMPO 1518/1524 05005KT TEMPO 1604/1610 22010KT 4000 SHRA FEW010 BKN020 TEMPO 1612/1618 08005KT",
    "KLAX": "TAF KLAX 151524Z 1515/1618 VRB03KT P6SM SKC FM151700 24006KT P6SM SKC FM152000 26012KT P6SM SKC FM160300 26006KT P6SM SKC FM161000 VRB03KT P6SM OVC008",
    "KONT": "TAF KONT 151120Z 1512/1618 VRB04KT P6SM SKC FM152000 25012G22KT P6SM FEW120 FM160500 VRB04KT P6SM SCT120",
    "KSFO": "TAF KSFO 151459Z 1515/1618 30013KT P6SM SKC FM152000 30022G30KT P6SM SKC FM160900 27015G25KT P6SM SKC",
    "KOAK": "TAF KOAK 151120Z 1512/1618 23007KT P6SM SKC FM152000 26013KT P6SM SKC FM160800 23009KT P6SM SCT009",
    "KMHR": "TAF KMHR 151121Z 1512/1612 VRB05KT P6SM SKC FM152100 24008G15KT P6SM SKC FM160000 23012KT P6SM SKC FM160500 16006KT P6SM SKC",
    "KDFW": "TAF KDFW 151512Z 1515/1618 18003KT P6SM SCT020 SCT100 TEMPO 1515/1516 BKN020 FM151900 20007KT P6SM VCSH FEW090 FM160100 18006KT P6SM BKN200",
    "KIAH": "TAF KIAH 151502Z 1515/1618 12006KT P6SM VCSH FEW015 BKN160 OVC250 FM151700 14007KT 6SM SHRA VCTS SCT030CB BKN050 PROB30 1517/1522 4SM TSRA BKN035CB FM152200 13007KT P6SM VCSH SCT035 BKN050 FM160200 VRB04KT P6SM OVC150 FM161400 17007KT P6SM SCT060 BKN150",
    "KORD": "TAF KORD 151458Z 1515/1618 25005KT P6SM FEW250 FM152100 09006KT P6SM FEW050 FEW250 FM161000 04005KT 6SM FU FEW050 SCT250",
    "KJFK": "TAF KJFK 151434Z 1515/1618 24012KT P6SM SCT250 FM151600 26015G23KT 6SM HZ BKN250 FM152000 27018G27KT 6SM FU BKN250 TEMPO 1520/1524 5SM FU FM160000 32013KT 6SM FU BKN250 TEMPO 1600/1604 5SM FU FM160400 31007KT 6SM HZ BKN250 FM161500 27010KT 6SM HZ BKN250",
    "KRFD": "TAF KRFD 151126Z 1512/1612 26005KT P6SM FEW250 FM160600 11005KT 6SM FU FEW050 SCT250",
    "KIND": "TAF KIND 151120Z 1512/1618 VRB03KT P6SM FEW250 FM151600 26005KT P6SM FEW050 SCT250",
    "KDTW": "TAF KDTW 151501Z 1515/1618 26006KT P6SM BKN250 FM151600 29008KT P6SM SCT250 FM152200 33006KT 6SM FU FEW060 BKN200 PROB30 1523/1602 4SM -TSRA BKN060CB BKN150 FM160200 05005KT 4SM FU BKN200",
    "KMSP": "TAF KMSP 151437Z 1515/1618 29003KT P6SM FEW250 FM152200 VRB03KT 5SM FU SCT150 FM160500 09005KT 6SM FU FEW250",
    "CYEG": "TAF AMD CYEG 151607Z 1516/1612 VRB03KT P6SM SCT020 SCT150 TEMPO 1516/1517 BKN020 FM151700 18006KT P6SM FEW030 FM152300 16008G18KT P6SM FEW040 SCT220 TEMPO 1523/1602 P6SM VCTS SCT030CB BKN100 FM160200 26008KT P6SM FEW030 SCT100 PROB30 1602/1606 VRB20G30KT 3SM TSRA OVC050CB FM160600 30006KT P6SM FEW015 RMK NXT FCST BY 151800Z",
    "EHAM": "TAF EHAM 151102Z 1512/1618 05016KT CAVOK BECMG 1519/1522 02008KT",
    "EBBR": "TAF EBBR 151120Z 1512/1618 04008KT 9999 FEW045",
    "EDDF": "TAF EDDF 151100Z 1512/1618 04010KT CAVOK PROB30 TEMPO 1513/1517 04015G30KT TSRA SCT045CB BECMG 1520/1522 03005KT PROB30 TEMPO 1613/1617 04015G30KT TSRA SCT045CB",
    "EDFH": "TAF EDFH 151100Z 1512/1612 06009KT CAVOK PROB30 TEMPO 1513/1517 07015G30KT TSRA BKN050CB BECMG 1523/1602 12005KT",
    "EDDL": "TAF EDDL 151100Z 1512/1618 04012KT CAVOK BECMG 1518/1521 03006KT",
    "EDDK": "TAF EDDK 151100Z 1512/1618 04008KT CAVOK BECMG 1520/1523 VRB03KT BECMG 1610/1612 05005KT",
    "EBLG": "TAF EBLG 151120Z 1512/1618 04008KT 9999 FEW045",
    "LSZH": "TAF AMD LSZH 151600Z 1516/1621 20008KT 9999 FEW050TCU TX27/1516Z TN17/1604Z TX31/1615Z PROB40 TEMPO 1517/1520 29015G25KT TSRA SCT050CB PROB30 TEMPO 1519/1522 SHRA PROB40 TEMPO 1524/1604 26015G30KT TSRA SCT060CB BECMG 1604/1606 CAVOK BECMG 1611/1614 9999 FEW060 BECMG 1615/1617 SCT050TCU TEMPO 1618/1621 25015G40KT 4500 TSRA SCT040CB",
    "LIMC": "TAF LIMC 151100Z 1512/1618 VRB05KT CAVOK TEMPO 1512/1516 4000 TSRA BKN014 TEMPO 1519/1523 4000 TSRA BKN014",
    "LIRF": "TAF LIRF 151100Z 1512/1618 23010KT CAVOK BECMG 1517/1519 VRB05KT TEMPO 1600/1605 4000 BCFG BECMG 1609/1611 25012KT",
    "EINN": "TAF EINN 151100Z 1512/1612 12008KT CAVOK",
    "EGLL": "TAF EGLL 151103Z 1512/1618 09012KT 9999 FEW030 BECMG 1520/1523 03008KT TEMPO 1603/1608 BKN012 PROB30 TEMPO 1603/1607 BKN009 BECMG 1609/1612 09010KT",
    "EGSS": "TAF EGSS 151056Z 1512/1618 06009KT 9999 FEW040 TEMPO 1523/1607 BKN008",
    "EPWA": "TAF EPWA 151430Z 1515/1615 03008KT CAVOK ",
    "UHPP": "TAF UHPP 151332Z 1515/1621 16003G12MPS 9999 BKN030CB TEMPO 1515/1522 0700 FG VV002 TEMPO 1612/1621 1000 BR VV003",
    "EFHK": "TAF EFHK 151431Z 1515/1615 32011KT CAVOK BECMG 1609/1611 16010KT",
    "LBBG": "TAF LBBG 151100Z 1512/1612 12012KT 9999 SCT045 BECMG 1517/1519 VRB04KT BECMG 1609/1611 12012KT",
    "LTAC": "TAF LTAC 151040Z 1512/1612 04012KT 9999 SCT040 BECMG 1515/1518 CAVOK BECMG 1518/1520 VRB02KT BECMG 1606/1609 01012KT SCT040",
    "UBBB": "TAF UBBB 151054Z 1512/1612 33022G32KT 9999 SCT015 TX31/1512Z TN23/1601Z TEMPO 1512/1520 35028G38KT TEMPO 1520/1608 SCT010 FEW050CB BECMG 1608/1610 35018G28KT",
    "UTAA": "TAF UTAA 151045Z 1512/1612 15014KT 6000 SCT050 TX42/1611Z TEMPO 1512/1516 09014KT TEMPO 1516/1522 23012KT BECMG 1522/1524 33016KT TEMPO 1600/1608 29014G24KT 3000 DRDU",
    "UACC": "TAF AMD UACC 151205Z 1512/1612 27005MPS 9999 SCT030 BKN100 TX34/1609Z TN22/1523Z TEMPO 1512/1516 30012MPS BKN030CB BECMG 1516/1518 VRB01MPS TEMPO 1516/1603 18005MPS 3100 -TSRA BKN030CB BECMG 1603/1605 21007MPS SCT030CB BKN050 TEMPO 1603/1612 24011G16MPS 3100 -TSRA BKN030CB",
    "UAAA": "TAF UAAA 151102Z 1512/1612 04003MPS 9999 FEW050CB SCT100 TX38/1610Z TN20/1601Z BECMG 1514/1515 16003MPS BECMG 1603/1604 34003MPS TEMPO 1606/1612 04003G08MPS",
    "UZTT": "TAF UZTT 151100Z 1512/1612 09010KT 7000 NSC TX41/1511Z TN25/1600Z TEMPO 1512/1518 30010G20KT",
    "ZWWW": "TAF ZWWW 151507Z 1518/1624 20004MPS CAVOK TX38/1609Z TN26/1523Z TN28/1623Z BECMG 1602/1603 36004MPS BECMG 1614/1615 18004MPS",
    "ZLXY": "TAF ZLXY 151509Z 1518/1618 06003MPS 6000 NSC TX33/1607Z TN25/1522Z TEMPO 1609/1611 33008G15MPS TSRA FEW030CB OVC050 BECMG 1610/1611 33008G15MPS TSRA FEW030CB OVC050 BECMG 1613/1614 26004MPS NSW NSC",
    "ZBAA": "TAF ZBAA 151501Z 1518/1624 18004MPS CAVOK TX33/1606Z TN24/1521Z TN23/1621Z",
    "ZBHH": "TAF ZBHH 151512Z 1518/1618 04004MPS 9999 FEW040 TX30/1608Z TN16/1522Z TEMPO 1609/1612 -TSRA FEW040CB FEW040",
    "ZSQD": "TAF ZSQD 151502Z 1518/1618 36003MPS 3500 BR BKN020 TX32/1606Z TN21/1520Z",
    "ZMCK": "TAF ZMCK 151049Z 1512/1618 VRB02MPS 9999 FEW030CB BKN033 TN14/1521Z TX23/1607Z PROB40 TEMPO 1515/1608 VRB08MPS 6000 TSRA SCT027CB BKN030 BECMG 1602/1604 32006MPS BECMG 1610/1612 VRB02MPS",
    "UUEE": "TAF UUEE 151351Z 1515/1615 33005MPS 9999 BKN020 TX22/1515Z TN15/1601Z TEMPO 1515/1518 35008G15MPS -TSRA SCT020CB TEMPO 1606/1615 35009G17MPS",
    "UUDD": "TAF UUDD 151353Z 1515/1621 33006MPS 9999 SCT016 TX22/1515Z TN13/1621Z TEMPO 1605/1618 36010G17MPS",
    "ULLI": "TAF ULLI 151351Z 1515/1615 32005G10MPS 9999 SCT030 BECMG 1523/1524 02003MPS BECMG 1606/1608 05003G08MPS",
    "USSS": "TAF USSS 151351Z 1515/1615 15003G10MPS 6000 -SHRA BKN016CB TEMPO 1515/1603 VRB20MPS 0300 -TSRA FG SQ FM160300 27003G14MPS 9999 SCT016CB TEMPO 1603/1615 -TSRA",
    "UNNT": "TAF UNNT 151400Z 1515/1615 13003G08MPS 9999 SCT040 TX25/1611Z TN14/1523Z PROB40 TEMPO 1603/1615 -TSRA BKN030CB",
    "UNKL": "TAF UNKL 151348Z 1515/1615 24003MPS 8000 SCT040 TEMPO 1518/1521 1000 BR TEMPO 1521/1601 0400 FG VV002",
    "UIBB": "TAF UIBB 151400Z 1515/1615 28003G08MPS 9999 -SHRA FEW001 BKN016CB TEMPO 1515/1518 VRB08MPS TEMPO 1518/1601 0300 FG TEMPO 1603/1612 VRB08MPS",
    "UEEE": "TAF UEEE 151400Z 1515/1621 06003G10MPS 9999 BKN020CB OVC100 TEMPO 1515/1523 VRB01MPS 0500 TSRA FG VV002",
    "UHHH": "TAF UHHH 151345Z 1515/1621 18003MPS 9999 SCT020CB TX26/1606Z TN19/1515Z TEMPO 1515/1523 0700 -TSRA FG FEW002 BKN016CB TEMPO 1523/1603 24005G10MPS 2500 -TSRA FEW006 BKN016CB",
    "UHSS": "TAF UHSS 151400Z 1515/1621 21003MPS 6000 -SHRA BKN006 BKN016CB TEMPO 1515/1601 24005G12MPS 0700 +SHRA FG BKN002 BKN012CB BECMG 1605/1607 9999 NSW SCT040"
  },
  "atis": {},
  "windtemp_alaska": "\n000\nFBAK31 KWNO 151358\nFD1AK1\nDATA BASED ON 151200Z    \nVALID 151800Z   FOR USE 1400-2100Z. TEMPS NEG ABV 24000\n\nFT  3000    6000    9000   12000   18000   24000  30000  34000  39000\nADK 2815 2732+08 2741+03 2744-01 2650-13 2663-24 266439 266848 266757\nADQ 2822 2823+01 2726-04 2632-08 2658-20 2583-29 750540 750348 266046\nAKN 2721 2723-01 2723-06 2829-10 2833-22 2748-34 266143 265543 254443\nANC 2113 2116+00 2016-05 1915-11 2017-25 1914-35 222241 233239 233040\nANN 3207 9900+09 3206+06 3411+01 3312-13 3415-24 341940 321549 311457\nBET 2620 2717-02 2617-05 2618-10 2414-22 1811-35 201047 252144 252342\nBRW 9900 2205+00 2005-06 2306-11 2112-22 2222-33 223947 212349 171342\nBTI 0714 0607+04 0905-03 1206-09 2010-19 2019-30 213245 213253 201945\nBTT 0605 1006+01 0806-03 9900-08 9900-20 9900-32 131948 131652 181342\nCDB 1909 2213+00 2318-02 2527-04 2550-15 2567-26 268441 268651 267054\nCZF 2606 2805-03 2507-06 2508-12 2108-23 1612-35 142147 190844 241142\nEHM 2720 2722-02 2622-05 2625-10 2626-21 2633-34 254545 264944 264143\nFAI 2316 2411+02 2211-03 2212-08 2012-20 1511-32 081749 151345 191641\nFYU 0505 0610+03 0809-02 1008-07 1509-19 1715-31 142748 142850 181942\nGAL 1609 1614+02 1413-03 1213-08 1109-20 1108-33 990049 090550 191042\nGKN 1621 1930+02 2025-04 2016-10 2025-22 2228-33 223545 233842 223140\nHOM 2525 2524-01 2626-07 2626-11 2627-26 2538-34 255638 255340 243642\nJNU 1711 2321+06 2419+01 2425+00 2527-11 2534-23 253640 263450 263360\nLUR 0708 1410-01 1708-06 2006-11 2213-23 2222-34 223348 221746 990041\nMCG 1909 2213+00 2108-05 2105-09 1306-20 0910-32 071049 990046 231441\nMDO 2319 2218+01 2320-02 2327-09 2351-18 2474-29 740341 740148 245346\nOME 0209 0106+00 0106-06 9900-10 1715-21 1515-33 141547 161151 990043\nORT      2419+04 2419-02 2216-09 2131-21 2232-33 224145 223643 223142\nOTZ 3606 0506+00 0506-04 9900-09 2014-20 1815-32 180948 201052 200642\nSNP 2307 2607-02 2608-06 2611-09 2619-21 2531-33 247144 256346 254244\nTKA 1922 2015+00 2018-06 1917-11 1811-23 1211-34 140746 221841 222340\nUNK 9900 9900+01 9900-04 0906-08 1212-20 1312-33 110848 090650 230842\nYAK 1814 2112+03 2223+00 2334-04 2351-14 2462-24 246640 247150 245754\nIKO 2320 2328+04 2342+04 2448-01 2446-13 2551-24 266239 266848 266658\nAFM 1206 1506+02 1509-03 1611-08 1808-20 1608-33 171048 151052 181043\n5AB 3615 3221+04 3133+01 3050-02 2957-14 2961-24 296939 307248 306354\n5AC 3518 3517+08 3517+06 3515+01 3516-12 3518-24 351740 351549 331158\n5AD 2821 2727+08 2729+06 2627+01 2631-11 2533-23 253840 253950 253460\n5AE 2813 2620+02 2630+00 2642-03 2655-14 2661-24 256640 256749 266358\n5AF 2313 2318+08 2519+05 2620+01 2622-11 2624-23 262440 262250 271960\n5AG 2517 2519+04 2427+02 2436-03 2449-13 2551-24 245940 246150 245958\n",
  "vaac_active": [
    {
      "volcano": "MAYON",
      "volcano_jp": "マヨン",
      "advisory_nr": "2026/748",
      "obs_time": "2026-07-15 11:42Z",
      "issued_time": "2026-07-15 12:11Z",
      "text_url": "https://www.data.jma.go.jp/vaac/data/TextData/2026/20260715_27303000_0748_Text.html",
      "lat": 13.25,
      "lon": 123.683,
      "text": "FVFE01 RJTD 151211\nVA ADVISORY\nDTG: 20260715/1211Z\nVAAC: TOKYO\nVOLCANO: MAYON 273030\nPSN: N1315 E12341\nAREA: PHILIPPINES\nSOURCE ELEV: 2462M AMSL\nADVISORY NR: 2026/748\nINFO SOURCE: HIMAWARI-9 PHIVOLCS\nERUPTION DETAILS: ERUPTION AT 20260715/1142Z VA CLD UNKNOWN REPORTED\nOBS VA DTG: 15/1150Z\nOBS VA CLD: VA NOT IDENTIFIABLE FM SATELLITE DATA WIND FL180 010/8KT\nFCST VA CLD +6 HR: NOT AVBL\nFCST VA CLD +12 HR: NOT AVBL\nFCST VA CLD +18 HR: NOT AVBL\nRMK: WE WILL ISSUE FURTHER ADVISORY IF VA IS DETECTED IN SATELLITE \nIMAGERY.\nNXT ADVISORY: NO FURTHER ADVISORIES="
    }
  ],
  "vaac_tokyo": [
    {
      "id": "20260714_27303000_0746",
      "year": "2026",
      "volcano": "Mayon",
      "psn": "N1315 E12341",
      "issued": "20260714",
      "text": "FVFE01 RJTD 142339\nVA ADVISORY\nDTG: 20260714/2339Z\nVAAC: TOKYO\nVOLCANO: MAYON 273030\nPSN: N1315 E12341\nAREA: PHILIPPINES\nSOURCE ELEV: 2462M AMSL\nADVISORY NR: 2026/746\nINFO SOURCE: HIMAWARI-9 PHIVOLCS\nERUPTION DETAILS: ERUPTION AT 20260714/2207Z FL130 EXTD SE REPORTED\nOBS VA DTG: 14/2320Z\nOBS VA CLD: VA NOT IDENTIFIABLE FM SATELLITE DATA WIND FL130 030/3KT\nFCST VA CLD +6 HR: NOT AVBL\nFCST VA CLD +12 HR: NOT AVBL\nFCST VA CLD +18 HR: NOT AVBL\nRMK: VA OF PREVIOUS VAA HAS DISSIPATED IN SATELLITE IMAGERY. NEW \nERUPTION REPORTED. WE WILL ISSUE FURTHER ADVISORY IF VA IS DETECTED \nIN SATELLITE IMAGERY.\nNXT ADVISORY: NO FURTHER ADVISORIES=",
      "img_url": "https://ds.data.jma.go.jp/svd/vaac/data/VAGFN/2026/Images/20260714_27303000_0746_QH21_01.png",
      "sat_img_url": "https://ds.data.jma.go.jp/svd/vaac/data/Sat/2026/Images/27303000/09-ir/20260714_2320_202607142339_ir.png",
      "text_url": "https://ds.data.jma.go.jp/svd/vaac/data/TextData/2026/20260714_27303000_0746_Text.html"
    },
    {
      "id": "20260714_30027000_0263",
      "year": "2026",
      "volcano": "Sheveluch",
      "psn": "N5639 E16122",
      "issued": "20260714",
      "text": "FVFE01 RJTD 141200\nVA ADVISORY\nDTG: 20260714/1200Z\nVAAC: TOKYO\nVOLCANO: SHEVELUCH 300270\nPSN: N5639 E16122\nAREA: RUSSIA\nSOURCE ELEV: 3283M AMSL\nADVISORY NR: 2026/263\nINFO SOURCE: HIMAWARI-9\nERUPTION DETAILS: VA CONTINUOUSLY OBS IN SATELLITE IMAGERY\nOBS VA DTG: 14/1120Z\nOBS VA CLD: SFC/FL390 N5359 E16539 - N5422 E16550 - N5414 E16656 - \nN5349 E16654 MOV SE 40KT\nFCST VA CLD +6 HR: 14/1720Z SFC/FL400 N5233 E17412 - N5141 E17210 - \nN5144 E17002 - N5224 E17116\nFCST VA CLD +12 HR: 14/2320Z SFC/FL400 N5147 W17910 - N5115 W17906 - \nN5025 E17725 - N5008 E17317 - N5113 E17652\nFCST VA CLD +18 HR: 15/0520Z SFC/FL400 N5217 W17056 - N5119 W17200 - \nN4942 W17651 - N4907 E17606 - N5056 W17716\nRMK: THE RESPONSIBILITY FOR THIS ASH EVENT IS BEING TRANSFERRED TO \nVAAC ANCHORAGE. THE NEXT ADVISORY WILL BE ISSUED BY VAAC ANCHORAGE \nBY 1800UTC UNDER HEADER FVAK21 PAWU. SOME PART OF VA OBSCURED BY MET \nCLOUD.\nNXT ADVISORY: NO FURTHER ADVISORIES=",
      "img_url": "https://ds.data.jma.go.jp/svd/vaac/data/VAGFN/2026/Images/20260714_30027000_0263_QH21_01.png",
      "sat_img_url": "https://ds.data.jma.go.jp/svd/vaac/data/Sat/2026/Images/30027000/09-ir/20260714_1120_202607141200_ir.png",
      "text_url": "https://ds.data.jma.go.jp/svd/vaac/data/TextData/2026/20260714_30027000_0263_Text.html"
    },
    {
      "id": "20260713_28208001_0083",
      "year": "2026",
      "volcano": null,
      "psn": "N3136 E13039",
      "issued": "20260713",
      "text": "FVFE01 RJTD 130254\nVA ADVISORY\nDTG: 20260713/0254Z\nVAAC: TOKYO\nVOLCANO: SAKURAJIMA (AIRA CALDERA) 282080\nPSN: N3136 E13039\nAREA: JAPAN\nSOURCE ELEV: 1117M AMSL\nADVISORY NR: 2026/83\nINFO SOURCE: JMA HIMAWARI-9\nERUPTION DETAILS: ERUPTED AT 20260713/0152Z FL100 EXTD N\nOBS VA DTG: 13/0230Z\nOBS VA CLD: SFC/FL100 N3136 E13039 - N3142 E13040 - N3141 E13044 - \nN3134 E13042 MOV NE 15KT\nFCST VA CLD +6 HR: 13/0830Z SFC/FL100 N3234 E13121 - N3145 E13155 - \nN3202 E13110 - N3227 E13051\nFCST VA CLD +12 HR: 13/1430Z SFC/FL100 N3318 E13206 - N3142 E13317 - \nN3134 E13226 - N3312 E13118\nFCST VA CLD +18 HR: NO VA EXP\nRMK: NIL\nNXT ADVISORY: 20260713/0600Z=",
      "img_url": "https://ds.data.jma.go.jp/svd/vaac/data/VAGFN/2026/Images/20260713_28208001_0083_QH21_01.png",
      "sat_img_url": "https://ds.data.jma.go.jp/svd/vaac/data/Sat/2026/Images/28208001/09-ir/20260713_0230_202607130254_ir.png",
      "text_url": "https://ds.data.jma.go.jp/svd/vaac/data/TextData/2026/20260713_28208001_0083_Text.html"
    },
    {
      "id": "20260712_27307000_0012",
      "year": "2026",
      "volcano": "Taal",
      "psn": "N1400 E12100",
      "issued": "20260712",
      "text": "FVFE01 RJTD 121243\nVA ADVISORY\nDTG: 20260712/1243Z\nVAAC: TOKYO\nVOLCANO: TAAL 273070\nPSN: N1400 E12100\nAREA: PHILIPPINES\nSOURCE ELEV: 311M AMSL\nADVISORY NR: 2026/12\nINFO SOURCE: HIMAWARI-9 PHIVOLCS\nERUPTION DETAILS: ERUPTION AT 20260712/1227Z FL050 EXTD NE REPORTED\nOBS VA DTG: 12/1230Z\nOBS VA CLD: VA NOT IDENTIFIABLE FM SATELLITE DATA WIND FL050 230/19KT\nFCST VA CLD +6 HR: NOT AVBL\nFCST VA CLD +12 HR: NOT AVBL\nFCST VA CLD +18 HR: NOT AVBL\nRMK: WE WILL ISSUE FURTHER ADVISORY IF VA IS DETECTED IN SATELLITE \nIMAGERY.\nNXT ADVISORY: NO FURTHER ADVISORIES=",
      "img_url": "https://ds.data.jma.go.jp/svd/vaac/data/VAGFN/2026/Images/20260712_27307000_0012_QH21_01.png",
      "sat_img_url": null,
      "text_url": "https://ds.data.jma.go.jp/svd/vaac/data/TextData/2026/20260712_27307000_0012_Text.html"
    }
  ],
  "vaac_alaska": [
    {
      "text": "\n000\nFVAK21 PAWU 151258\nVAAAK1\nVA ADVISORY\n\nDTG: 20260715/1254Z\n\nVAAC: ANCHORAGE\n\nVOLCANO: SHEVELUCH 300270\n\nPSN: N5639 E16122\n\nAREA: KAMCHATKA PENINSULA\n\nSOURCE ELEV: 10771 FT AMSL\n\nADVISORY NR: 2026/201\n\nINFO SOURCE: HIMAWARI\n\nERUPTION DETAILS: VA NOT IDENTIFIABLE FM SATELLITE DATA.\n\nOBS VA DTG: 15/1254Z\n\nOBS VA CLD: VA NOT IDENTIFIABLE FM SATELLITE DATA.\n\nFCST VA CLD +6HR: NOT AVBL\n\nFCST VA CLD +12HR: NOT AVBL\n\nFCST VA CLD +18HR: NOT AVBL\n\nRMK: A NEW ADVISORY WILL BE ISSUED IF VA IS DETECTED IN SATELLITE IMAGERY....SC\n\nNXT ADVISORY: NO FURTHER ADVISORIES=\n\n",
      "issued": "2026-07-15T12:58:00+00:00",
      "volcano": "Sheveluch",
      "psn": "N5639 E16122"
    }
  ]
}