{
  "updated_utc": "2026-07-21T09:20Z",
  "metar": {
    "RJAA": "METAR RJAA 210730Z 13007KT 9999 FEW030 BKN/// 33/27 Q1007 NOSIG",
    "PANC": "METAR PANC 210753Z 24004KT 5SM -RA BR SCT004 BKN038 OVC050 10/09 A3012 RMK AO2 SLP199 P0005 T01000094",
    "PAFA": "METAR PAFA 210753Z 22013G22KT 10SM BKN075 BKN110 BKN200 17/12 A2989 RMK AO2 SLP125 LTG DSNT S CB DSNT S-W MOV NW T01720117 $",
    "PAED": "METAR PAED 210755Z COR 26006KT 6SM -SHDZ SCT005 OVC022 11/10 A3010 RMK AO2A CIG 012 RWY24 SLP189 P0001 T01120098 $ COR 0855",
    "KSEA": "METAR KSEA 210753Z 33003KT 10SM CLR 21/14 A2996 RMK AO2 SLP147 T02060139 402780156 $",
    "ZSPD": "METAR ZSPD 210730Z 09004MPS CAVOK 30/26 Q1005 NOSIG",
    "ZSSS": "METAR ZSSS 210730Z 36003MPS 320V030 9999 BKN040 35/25 Q1004 NOSIG",
    "RJFR": "METAR RJFR 210800Z 07003KT 010V140 9999 FEW020 SCT035 32/26 Q1008",
    "VHHH": "METAR VHHH 210730Z 22006KT 190V250 9999 FEW008 SCT028 29/24 Q1007 NOSIG",
    "RCTP": "METAR RCTP 210730Z 28010KT 250V310 9999 FEW018 FEW020CB BKN200 33/23 Q1008 NOSIG RMK CB SE-S A2978",
    "ZGSZ": "METAR ZGSZ 210800Z 16004MPS 9999 BKN050 29/26 Q1007 NOSIG",
    "WSSS": "METAR WSSS 210730Z 13009KT 100V160 9999 FEW018TCU FEW020CB BKN300 31/25 Q1010 NOSIG",
    "WMKK": "METAR WMKK 210730Z VRB04KT 9999 FEW017CB SCT018 33/25 Q1008 NOSIG",
    "WIDD": "METAR WIDD 210730Z 16006KT 9999 FEW014 31/26 Q1010 NOSIG",
    "VTBS": "METAR VTBS 210730Z 21005KT 100V270 9999 FEW020 34/21 Q1008 NOSIG",
    "VTBU": "METAR VTBU 210730Z 26007KT 200V310 9000 FEW020 33/26 Q1008 NOSIG",
    "ROAH": "METAR ROAH 210730Z 24006KT 9999 FEW012 31/28 Q1009",
    "VVDN": "METAR VVDN 210730Z 09011KT 050V120 9999 FEW020 36/22 Q1005 NOSIG",
    "RCKH": "METAR RCKH 210730Z 25009KT 9999 FEW016 32/25 Q1008 NOSIG RMK 24009KT/R09 A2977",
    "KLAX": "METAR KLAX 210753Z 21003KT 10SM BKN200 22/18 A2992 RMK AO2 SLP127 T02220178 402830200 $",
    "KONT": "METAR KONT 210753Z 25006KT 10SM SCT150 BKN220 25/12 A2994 RMK AO2 SLP117 T02500122 403330217 $",
    "KSFO": "METAR KSFO 210756Z 30005KT 10SM FEW004 FEW099 BKN160 17/14 A2990 RMK AO2 SLP125 T01670139 402220150 $",
    "KOAK": "METAR KOAK 210753Z 00000KT 10SM FEW004 BKN160 BKN250 17/14 A2991 RMK AO2 SLP126 T01720144 402170150",
    "KMHR": "METAR KMHR 210735Z AUTO 00000KT 10SM CLR 24/11 A2986 RMK AO2 T02380110 $",
    "KDFW": "METAR KDFW 210753Z 21009KT 10SM CLR 29/19 A2987 RMK AO2 SLP103 T02940189 $",
    "KIAH": "METAR KIAH 210753Z 24004KT 10SM FEW250 27/23 A2988 RMK AO2 SLP118 T02670233",
    "KORD": "METAR KORD 210751Z 27008G16KT 10SM SCT037 BKN047 OVC150 25/21 A2966 RMK AO2 SLP039 T02500211",
    "KJFK": "METAR KJFK 210751Z 18012KT 10SM BKN048 BKN075 BKN250 23/20 A2995 RMK AO2 SLP142 T02330200 $",
    "KRFD": "METAR KRFD 210754Z 25007KT 10SM FEW041 BKN160 OVC250 23/21 A2970 RMK AO2 RAB27E34 SLP053 OCNL LTGICCG DSNT SE-S CB DSNT SE-S MOV SE P0000 T02330211",
    "KIND": "METAR KIND 210754Z 19007KT 8SM OVC210 23/20 A2978 RMK AO2 SLP075 T02330200",
    "KDTW": "METAR KDTW 210753Z 20011KT 5SM HZ SCT055 BKN095 OVC190 23/19 A2965 RMK AO2 SLP034 T02330189",
    "KMSP": "METAR KMSP 210753Z 30015G22KT 10SM CLR 24/15 A2972 RMK AO2 SLP058 T02390150 $",
    "CYEG": "METAR CYEG 210800Z 22003KT 3SM SHRA FU SCT065 OVC089 16/16 A3022 RMK SC3AC5 CVCTV CLD EMBD SLP237 DENSITY ALT 2700FT",
    "EHAM": "METAR EHAM 210725Z 35005KT 300V040 9999 FEW024 BKN032 18/11 Q1026 NOSIG",
    "EBBR": "METAR EBBR 210750Z 01005KT 320V040 9999 BKN030 16/10 Q1027 NOSIG",
    "EDDF": "METAR EDDF 210750Z AUTO 03004KT 340V110 CAVOK 20/09 Q1024 NOSIG",
    "EDFH": "METAR EDFH 210750Z 35004KT 300V060 CAVOK 16/09 Q1025",
    "EDDL": "METAR EDDL 210750Z AUTO 36005KT 9999 BKN023 BKN029 18/09 Q1026 NOSIG",
    "EDDK": "METAR EDDK 210750Z AUTO 32006KT 230V010 9999 FEW023 16/10 Q1025 NOSIG",
    "EBLG": "METAR EBLG 210750Z 01005KT 310V060 9999 SCT018 17/11 Q1026 NOSIG",
    "LSZH": "METAR LSZH 210750Z 01006KT 330V070 CAVOK 18/07 Q1022 NOSIG",
    "LIMC": "METAR LIMC 210750Z 12010KT 9999 SCT050 26/15 Q1017 NOSIG",
    "LIRF": "METAR LIRF 210750Z 08004KT 340V120 CAVOK 31/23 Q1015 NOSIG",
    "EINN": "METAR EINN 210730Z 36007KT 9999 -DZ FEW004 BKN011 BKN018 14/13 Q1032 BECMG SCT012",
    "EGLL": "METAR EGLL 210750Z AUTO 04006KT 350V080 9999 NCD 18/11 Q1029",
    "EGSS": "METAR EGSS 210750Z AUTO 02010KT 350V050 9999 BKN020 17/11 Q1029",
    "EPWA": "METAR EPWA 210730Z 27010KT 9999 BKN010 BKN026 16/14 Q1012 TEMPO 4000 RADZ BKN007",
    "UHPP": "METAR UHPP 210730Z 13002MPS 6000 -SHRA BKN003 OVC022CB 15/15 Q0998 R16R/290252 NOSIG RMK MT OBSC QFE745/0994",
    "EFHK": "METAR EFHK 210750Z 02009KT 350V050 9999 BKN024 12/07 Q1014 NOSIG",
    "LBBG": "METAR LBBG 210730Z VRB03KT CAVOK 30/17 Q1014 NOSIG",
    "LTAC": "METAR LTAC 210750Z VRB05KT CAVOK 29/10 Q1015 NOSIG RMK RWY21C VRB05KT RWY03L VRB03KT RWY21R VRB03KT RWY03R 29005KT 230V320 RWY21L 30005KT 220V020",
    "UBBB": "METAR UBBB 210730Z 16006KT 9999 FEW033 31/16 Q1013 NOSIG",
    "UTAA": "METAR UTAA 210800Z 35004KT 9999 FEW033CB SCT033 OVC100 29/17 Q1011 R88/CLRD70 NOSIG",
    "UACC": "METAR UACC 210730Z 26004MPS 230V300 9999 SCT040CB 25/13 Q0996 NOSIG RMK QFE716/0955",
    "UAAA": "SPECI UAAA 210723Z 23008G13MPS 9999 BKN050CB OVC100 35/07 Q1003 TEMPO 22010G16MPS 3000 BLDU",
    "UZTT": "METAR UZTT 210730Z 29010KT 240V320 CAVOK 34/09 Q1005 NOSIG",
    "ZWWW": "METAR ZWWW 210730Z 03003MPS 340V070 CAVOK 42/08 Q0998 NOSIG",
    "ZLXY": "METAR ZLXY 210800Z 06005MPS 030V090 9999 FEW040TCU 36/23 Q1002 NOSIG",
    "ZBAA": "METAR ZBAA 210730Z 16003MPS 110V200 CAVOK 31/22 Q1003 NOSIG",
    "ZBHH": "METAR ZBHH 210800Z 20006G11MPS 170V230 9999 SCT040 FEW040CB 23/16 Q1008 BECMG AT0830 12004MPS -TSRA",
    "ZSQD": "METAR ZSQD 210800Z 16005MPS CAVOK 31/22 Q1005 NOSIG",
    "ZMCK": "METAR ZMCK 210730Z VRB01MPS 9999 SCT030CB SCT033 20/14 Q1005 NOSIG RMK QFE639.8 69 MOP",
    "UUEE": "METAR UUEE 210730Z 22002MPS 150V290 9999 SCT009 BKN030 21/18 Q1010 R24L/290145 R24C/290145 NOSIG",
    "UUDD": "METAR UUDD 210730Z 15005MPS 9999 SCT027 23/19 Q1011 R13R/290045 NOSIG",
    "ULLI": "METAR ULLI 210730Z 06005MPS 040V100 5000 -SHRA BKN007 BKN016CB OVC031 13/11 Q1010 R10R/290050 NOSIG RMK OBST OBSC",
    "USSS": "METAR USSS 210730Z 02007MPS 350V060 CAVOK 27/14 Q1008 R08R/CLRD60 NOSIG RMK QFE736/0982",
    "UNNT": "METAR UNNT 210730Z 11002MPS 050V210 CAVOK 28/13 Q0999 R25/CLRD// R16/CLRD// NOSIG RMK QFE739/0986",
    "UNKL": "METAR UNKL 210730Z 10003MPS 030V140 CAVOK 25/14 Q0999 R11/CLRD// NOSIG RMK QFE724",
    "UIBB": "METAR UIBB 210730Z 16003MPS 110V260 9000 SCT043CB 23/13 Q1003 R30/CLRD62 NOSIG RMK QFE709/0946",
    "UEEE": "METAR UEEE 210730Z 14004MPS CAVOK 22/14 Q1007 R23/09//58 NOSIG RMK QFE747",
    "UHHH": "METAR UHHH 210730Z 10002MPS 050V180 9999 FEW033 31/16 Q1005 R88/090060 NOSIG RMK QFE748/0997",
    "UHSS": "METAR UHSS 210730Z 14003MPS 9999 SCT040CB 26/20 Q1004 R19/CLRD70 NOSIG RMK QFE752/1003"
  },
  "taf": {
    "RJAA": "TAF RJAA 210505Z 2106/2212 19008KT 9999 FEW030 BECMG 2121/2200 04004KT BECMG 2203/2206 15010KT BECMG 2209/2212 03004KT",
    "PANC": "TAF PANC 210520Z 2106/2212 24007KT P6SM VCSH SCT005 BKN020 OVC060 TEMPO 2106/2108 -SHRA BKN005 FM211000 16006KT P6SM FEW005 BKN020 FM211800 15012G24KT P6SM VCSH SCT040 BKN070 FM220200 15012G24KT P6SM -RA SCT040 OVC060",
    "PAFA": "TAF PAFA 210818Z 2108/2212 23008KT P6SM VCSH SCT050 BKN130 TEMPO 2108/2112 6SM -TSRA BR BKN070CB FM211200 20006KT 6SM -SHRA BR BKN025 OVC050 FM212100 15004KT P6SM BKN050",
    "PAED": "TAF AMD PAED 210700Z 2107/2211 24009KT 9999 SCT005 BKN013 OVC020 620604 QNH3005INS TEMPO 2107/2110 9000 -SHRA BKN003 BECMG 2110/2111 25009KT 8000 BR SCT004 BKN022 OVC065 620654 QNH3010INS BECMG 2114/2115 VRB06KT 6000 BR FEW004 BKN055 BKN075 620753 QNH3007INS BECMG 2120/2121 33015KT 9999 -RA SCT045 OVC060 640703 QNH3003INS BECMG 2201/2202 36012KT 9000 -RA FEW020 SCT045 OVC055 640703 550208 QNH3001INS TX16/2122Z TN10/2113Z",
    "KSEA": "TAF KSEA 210906Z 2109/2212 34005KT P6SM SCT200 BKN250 FM212000 32007KT P6SM BKN250 FM220600 01006KT P6SM SCT250",
    "ZSPD": "TAF ZSPD 210307Z 2106/2212 22004MPS 6000 BKN030 TX34/2106Z TX32/2206Z TN28/2121Z TEMPO 2107/2110 33007G12MPS TSRA BKN011 FEW030CB TEMPO 2110/2114 33007G12MPS TSRA BKN011 FEW030CB",
    "ZSSS": "TAF ZSSS 210307Z 2106/2212 21004MPS 6000 BKN030 TX34/2106Z TX33/2206Z TN27/2121Z TEMPO 2106/2110 33007G12MPS TSRA BKN011 FEW030CB TEMPO 2110/2113 33007G12MPS TSRA BKN011 FEW030CB",
    "RJFR": "TAF RJFR 210505Z 2106/2212 31006KT 9999 FEW025 SCT045",
    "VHHH": "TAF VHHH 210800Z 2109/2215 20010KT 9999 FEW010 SCT025 TX32/2206Z TN28/2122Z TEMPO 2109/2112 10010KT TEMPO 2122/2204 3000 SHRA FEW010CB SCT020",
    "RCTP": "TAF RCTP 210500Z 2106/2212 24011KT 9999 FEW010 BKN032 TEMPO 2106/2112 26016KT BECMG 2112/2113 19009KT TEMPO 2113/2118 12005KT TEMPO 2118/2124 24005KT BECMG 2200/2201 25012KT TEMPO 2201/2207 31012KT",
    "ZGSZ": "TAF ZGSZ 210306Z 2106/2212 16004MPS 8000 BKN040 TX30/2106Z TX31/2206Z TN27/2122Z TEMPO 2106/2108 SHRA FEW020 FEW025CB BKN030 TEMPO 2119/2122 SHRA FEW025CB BKN030",
    "WSSS": "TAF WSSS 210500Z 2106/2212 17007KT 9999 FEW015 SCT020",
    "WMKK": "TAF WMKK 210500Z 2106/2212 VRB03KT 9999 FEW018 PROB30 TEMPO 2108/2111 5000 TSRA FEW017CB",
    "VTBS": "TAF VTBS 210500Z 2106/2212 23008KT 9999 FEW020 TEMPO 2114/2118 VRB15KT 4000 TSRA FEW018CB SCT030 BKN100",
    "VTBU": "TAF VTBU 210500Z 2106/2206 23010KT 9999 FEW020",
    "ROAH": "TAF ROAH 210505Z 2106/2212 26006KT 9999 FEW008 SCT015 BECMG 2200/2203 30006KT TEMPO 2203/2209 4000 SHRA BR FEW005 BKN008 FEW015CB",
    "VVDN": "TAF VVDN 210500Z 2106/2206 36009KT 9999 FEW020 BECMG 2107/2108 10010KT BECMG 2112/2113 22006KT",
    "RCKH": "TAF RCKH 210500Z 2106/2212 21005KT 9999 FEW010 BKN032 TEMPO 2106/2112 24010KT TEMPO 2112/2118 14005KT TEMPO 2118/2124 09005KT BECMG 2200/2202 24005KT TEMPO 2202/2206 26010KT",
    "KLAX": "TAF KLAX 210838Z 2109/2212 VRB03KT P6SM BKN200 FM211700 26006KT P6SM SCT250 FM212100 26012KT P6SM SCT250 FM220300 26008KT P6SM SCT250 FM220800 VRB03KT P6SM SCT250",
    "KONT": "TAF KONT 210520Z 2106/2212 VRB05KT P6SM FEW150 FM212200 25011G18KT P6SM SCT150 FM220300 25009KT P6SM FEW150 FM220700 VRB05KT P6SM FEW150",
    "KSFO": "TAF KSFO 210836Z 2109/2212 32004KT P6SM BKN150 FM212100 28011KT P6SM BKN150 FM220900 28007KT P6SM SCT010",
    "KOAK": "TAF KOAK 210520Z 2106/2212 29011KT P6SM FEW005 BKN180 FM210900 26004KT P6SM SCT005 OVC150 FM211600 27006KT P6SM SCT010 BKN150",
    "KMHR": "TAF KMHR 210520Z 2106/2206 VRB05KT P6SM BKN250 FM212200 23009KT P6SM BKN250",
    "KDFW": "TAF KDFW 210848Z 2109/2212 21007KT P6SM FEW250 FM211700 VRB05KT P6SM SCT080 FM220000 17005KT P6SM FEW080",
    "KIAH": "TAF KIAH 210836Z 2109/2212 VRB04KT P6SM FEW250 FM211000 25005KT P6SM FEW015 FEW250 FM211500 27005KT P6SM SKC FM212100 28003KT P6SM FEW060 FM220000 VRB03KT P6SM SCT060",
    "KORD": "TAF KORD 210849Z 2109/2212 25011KT P6SM VCSH SCT040 BKN100 TEMPO 2109/2111 4SM -TSRA BR SCT015 OVC030CB FM211100 27011G19KT P6SM SCT050 BKN250 FM211500 30015G23KT P6SM BKN050 FM220200 01012G19KT P6SM SCT025 SCT150",
    "KJFK": "TAF KJFK 210832Z 2109/2212 16007KT P6SM VCSH BKN040 BKN070 FM211300 15013G22KT P6SM VCSH FEW030 BKN050 FM211600 16014G23KT P6SM VCSH SCT025 BKN050 PROB30 2116/2121 3SM -TSRA BKN020CB FM212100 18015G24KT 5SM -SHRA BKN020 OVC050 TEMPO 2121/2201 26020G40KT 2SM TSRA BKN020CB FM220100 20014G23KT P6SM VCSH BKN025 BKN100 TEMPO 2201/2205 3SM SHRA FM220600 22011KT 4SM BR VCSH BKN015",
    "KRFD": "TAF KRFD 210849Z 2109/2206 24009KT P6SM VCSH FEW040 BKN150 FM211000 27011G19KT P6SM SCT050 BKN250 FM211400 32015G23KT P6SM BKN050 FM220200 36012G19KT P6SM FEW025 SCT150",
    "KIND": "TAF KIND 210751Z 2108/2212 22009KT P6SM OVC180 FM211200 25012G20KT P6SM VCSH BKN035 PROB30 2114/2118 VRB18G28KT 3SM TSRA OVC020CB FM211800 29013G21KT P6SM SCT040 FM220200 33010KT P6SM SCT070",
    "KDTW": "TAF KDTW 210905Z 2109/2212 21011G19KT P6SM SCT050 BKN070 BKN150 PROB30 2110/2113 5SM -TSRA SCT028 OVC040CB FM211400 26014G24KT P6SM BKN045 BKN080 FM212000 28016G26KT P6SM BKN045 FM220000 33012G22KT P6SM SCT030 BKN045",
    "KMSP": "TAF KMSP 210834Z 2109/2212 33013G26KT P6SM FEW040 FM211200 33013G26KT P6SM BKN030 FM211500 33014G26KT P6SM SKC FM220400 02011KT P6SM FEW250",
    "CYEG": "TAF CYEG 210840Z 2109/2206 VRB03KT P6SM SCT020 OVC080 TEMPO 2109/2110 3SM -SHRA VCTS FU BKN020CB FM211000 22005KT 3SM -SHRA FU BKN015 TEMPO 2110/2115 6SM FU BKN070 PROB30 2110/2114 3/4SM FU BR BKN005 FM211500 12008KT P6SM OVC030 TEMPO 2115/2121 3SM -RA BR FU OVC015 FM212100 13008KT P6SM BKN050 TEMPO 2121/2206 4SM FU RMK NXT FCST BY 211200Z",
    "EHAM": "TAF EHAM 210441Z 2106/2212 35004KT 9999 FEW025 BECMG 2111/2114 32012KT PROB30 TEMPO 2207/2212 5000 DZ -SHRA BKN016 SCT018TCU",
    "EBBR": "TAF EBBR 210506Z 2106/2212 01005KT 9999 SCT032",
    "EDDF": "TAF EDDF 210500Z 2106/2212 02007KT CAVOK BECMG 2120/2122 VRB02KT BECMG 2207/2209 29007KT",
    "EDFH": "TAF EDFH 210500Z 2106/2206 36006KT CAVOK",
    "EDDL": "TAF EDDL 210500Z 2106/2212 VRB03KT 9999 FEW025 BECMG 2106/2109 33008KT BECMG 2120/2123 27004KT BECMG 2206/2209 30009KT",
    "EDDK": "TAF EDDK 210500Z 2106/2212 VRB03KT CAVOK BECMG 2106/2108 33006KT TEMPO 2209/2212 31011KT",
    "EBLG": "TAF EBLG 210506Z 2106/2212 36005KT 9999 SCT030",
    "LSZH": "TAF LSZH 210825Z 2109/2215 04008KT CAVOK TX25/2115Z TN11/2204Z TX26/2215Z TEMPO 2109/2119 9999 FEW060 PROB40 TEMPO 2110/2117 08010KT BECMG 2120/2122 35004KT CAVOK",
    "LIMC": "TAF LIMC 210500Z 2106/2212 VRB05KT 9999 FEW050 TEMPO 2106/2112 4000 TSRA TEMPO 2115/2121 4000 SHRA",
    "LIRF": "TAF LIRF 210500Z 2106/2212 VRB05KT CAVOK BECMG 2106/2108 16010KT BECMG 2112/2114 22012KT BECMG 2118/2120 34008KT BECMG 2202/2204 03012KT BECMG 2208/2210 30014KT",
    "EINN": "TAF AMD EINN 210703Z 2107/2206 36009KT 3000 -DZ BR BKN009 BECMG 2107/2109 9999 NSW BKN012 BECMG 2109/2111 SCT020",
    "EGLL": "TAF EGLL 210452Z 2106/2212 02010KT CAVOK PROB30 TEMPO 2106/2112 BKN025 BECMG 2120/2123 17003KT BECMG 2209/2212 32010KT",
    "EGSS": "TAF EGSS 210453Z 2106/2212 01010KT CAVOK PROB30 TEMPO 2106/2113 BKN020 BECMG 2118/2121 13004KT PROB30 TEMPO 2200/2209 FEW015 BKN030",
    "EPWA": "TAF EPWA 210830Z 2109/2209 27015KT 9999 BKN020 TEMPO 2109/2118 29018G28KT 4000 DZRA BKN012 PROB40 TEMPO 2109/2118 -SHRA BKN008 BKN020TCU BECMG 2122/2201 27005KT",
    "UHPP": "TAF UHPP 210740Z 2109/2215 18003G10MPS 2000 SHRA BR BKN004 OVC014CB TEMPO 2109/2121 0500 FG VV002 BECMG 2121/2122 6000 -SHRA BKN010 OVC020CB TEMPO 2122/2209 2000 SHRA BR VV004 TEMPO 2209/2215 1000 BR VV003",
    "EFHK": "TAF EFHK 210827Z 2109/2209 02011KT 9999 SCT025 BKN030 PROB40 TEMPO 2200/2204 7000 RA BKN013 PROB40 TEMPO 2204/2209 BKN013",
    "LBBG": "TAF LBBG 210500Z 2106/2206 VRB03KT 9999 SCT045 BECMG 2108/2110 12012KT PROB40 TEMPO 2111/2116 VRB17G30KT 4000 TSRA FEW030CB BKN040 BECMG 2119/2121 VRB03KT TEMPO 2201/2204 4000 BR BKN010",
    "LTAC": "TAF LTAC 210440Z 2106/2206 VRB02KT CAVOK BECMG 2107/2110 FEW040 BECMG 2113/2115 03012KT CAVOK BECMG 2121/2123 VRB02KT",
    "UBBB": "TAF UBBB 210507Z 2106/2206 14008KT CAVOK TX32/2110Z TN21/2201Z TEMPO 2106/2112 VRB04KT SCT030 BECMG 2120/2122 VRB04KT TEMPO 2122/2204 32005KT",
    "UTAA": "TAF AMD UTAA 210600Z 2106/2206 10010G20KT 4000 BLDU SCT030 SCT030CB PROB30 TEMPO 2106/2112 VRB28KT 3000 DRDU -TSRA TEMPO 2112/2116 VRB22G32KT 2000 BLDU -TSRA BKN020CB BECMG 2118/2120 12014KT SCT040 SCT040CB",
    "UACC": "TAF AMD UACC 210556Z 2106/2206 24008MPS 9999 SCT030CB BKN050 TX24/2110Z TN15/2123Z TEMPO 2106/2118 VRB19MPS 2000 TSRA SQ BKN020CB BECMG 2118/2120 VRB01MPS TEMPO 2118/2201 3100 -SHRA BR BKN011 BKN015CB TEMPO 2201/2206 32006MPS -TSRA BKN020CB",
    "UAAA": "TAF AMD UAAA 210734Z 2107/2206 22005MPS 9999 SCT050CB BKN100 TX33/2110Z TN22/2200Z TEMPO 2108/2113 28015G22MPS 1100 TSRA BLDU SCT015CB TEMPO 2113/2122 28008G14MPS 2000 TSRA BLDU TEMPO 2122/2124 15003MPS BECMG 2203/2205 35005MPS",
    "UZTT": "TAF UZTT 210500Z 2106/2206 23010KT 7000 FEW060CB SCT100 TX35/2111Z TN24/2200Z TEMPO 2106/2116 27014G24KT 4000 -DS SCT060CB PROB40 TEMPO 2110/2116 TS SCT050CB",
    "ZWWW": "TAF ZWWW 210305Z 2106/2212 36004MPS CAVOK TX42/2109Z TX32/2209Z TN30/2123Z BECMG 2114/2115 20004MPS BECMG 2118/2119 30008G16MPS TEMPO 2119/2122 2500 SA BECMG 2204/2205 30004G09MPS",
    "ZLXY": "TAF ZLXY 210307Z 2106/2206 06003MPS 6000 NSC TX36/2107Z TN24/2121Z TEMPO 2109/2112 06012G17MPS TSRA FEW040CB OVC050",
    "ZBAA": "TAF ZBAA 210301Z 2106/2212 18003MPS 5000 BR NSC TX30/2106Z TX31/2206Z TN23/2121Z",
    "ZBHH": "TAF AMD ZBHH 210702Z 2106/2206 24004MPS 9999 SCT040 TX30/2107Z TN14/2119Z TEMPO 2107/2109 TSRA SCT040CB SCT040 BECMG 2110/2111 -TSRA SCT040CB SCT040 TEMPO 2111/2113 VRB10G18MPS 2800 +TSRA BECMG 2113/2114 NSW NSC",
    "ZSQD": "TAF ZSQD 210301Z 2106/2206 16004MPS 3500 BR NSC TX31/2106Z TN22/2120Z",
    "ZMCK": "TAF ZMCK 210436Z 2106/2212 VRB02MPS 9999 FEW030CB SCT033 TX24/2107Z TN12/2121Z TEMPO 2107/2114 VRB08G13MPS TSRA SCT027CB SCT030",
    "UUEE": "TAF UUEE 210754Z 2109/2209 20003MPS 9999 FEW007 BKN016 TX24/2113Z TN15/2202Z TEMPO 2109/2118 27008G15MPS -TSRA BKN016CB",
    "UUDD": "TAF UUDD 210753Z 2109/2215 26003MPS 9999 BKN016 TX25/2112Z TN15/2202Z TEMPO 2109/2118 26008G13MPS -TSRA BKN020CB PROB40 TEMPO 2122/2204 0300 FG BKN002 BECMG 2204/2206 20005MPS",
    "ULLI": "TAF ULLI 210753Z 2109/2209 06006G13MPS 6000 BKN006 OVC016 TEMPO 2109/2115 3100 -SHRA BR BKN004 BKN017CB BECMG 2115/2116 03003MPS TEMPO 2115/2118 BKN016 OVC030 TEMPO 2118/2206 0300 FG VV002 TEMPO 2207/2208 BKN010",
    "USSS": "TAF USSS 210753Z 2109/2209 36003G13MPS 9999 SCT040 TEMPO 2109/2116 03008G18MPS FM211800 27003G08MPS 6000 SCT016 FM220500 33003G13MPS 9999 -SHRA SCT033CB",
    "UNNT": "TAF UNNT 210800Z 2109/2209 04003G08MPS 8000 BKN040 TX28/2110Z TN17/2122Z TEMPO 2114/2121 -TSRA BKN020CB TEMPO 2203/2209 10006G14MPS -TSRA BKN020CB",
    "UNKL": "TAF UNKL 210742Z 2109/2209 11003G08MPS 9999 SCT040 TEMPO 2109/2110 -TSRA BKN030CB BECMG 2110/2112 -TSRA BKN030CB BECMG 2113/2115 NSW SCT040 BECMG 2206/2208 -TSRA BKN030CB",
    "UIBB": "TAF UIBB 210800Z 2109/2209 15002G07MPS 9999 SCT016CB TEMPO 2109/2115 VRB07MPS -TSRA",
    "UEEE": "TAF UEEE 210800Z 2109/2215 34003G08MPS 9999 SCT033CB BKN100",
    "UHHH": "TAF UHHH 210750Z 2109/2215 12003MPS CAVOK TX30/2204Z TN18/2118Z FM220000 06003G08MPS 9999 SCT020",
    "UHSS": "TAF UHSS 210745Z 2109/2215 32003MPS 9999 BKN030CB BECMG 2113/2116 0700 FG BKN003 BECMG 2121/2123 9999 NSW SCT040"
  },
  "atis": {
    "RJAA": "[Arrival ATIS] RJAA ARR ATIS Z 0612Z M0600 (APCH)ILS Z RWY16R/ILS Z RWY16L LDG RWY 16R/16L DEP RWY 16R DEP FREQ 124.2. TWY A1 CLSD. SIMUL PARL APCHS INPR. M 240600Z 11009KT 30KM FEW020CU BKN/// 23/19 Q1012/A2989= Q/TWO NINE EIGHT NINE STP\n[Departure ATIS] RJAA DEP ATIS Z 0610Z M0600 (APCH)ILS Z RWY16R/ILS Z RWY16L LDG RWY 16R/16L DEP RWY 16R DEP FREQ 124.2. TWY A1 CLSD. SIMUL PARL APCHS INPR. M 240600Z 11009KT 30KM FEW020CU BKN/// 23/19 Q1012/A2989= Q/TWO NINE EIGHT NINE STP",
    "PANC": "[Arrival ATIS] PANC ARR ATIS N 0553Z ANC ATIS INFO N 0553Z. 15016G26KT 10SM FEW020 FEW060 BKN110 12/06 A3011 (THREE ZERO ONE ONE). ILS RWY 15 APPROACHES IN USE. LANDING RWY 15, DEPARTING RWY 25L. NOTICE TO AIRMEN. RWY 25R CLSD. CHECK NOTAMS FOR TAXIWAY CLOSURES. CAUTION FOR BIRD ACTIVITY IN THE ARPT AREA. CONTACT TOWER 118.3 FOR TAXI. ...ADVS YOU HAVE INFO N.\n[Departure ATIS] PANC DEP ATIS X 0753Z ANC ATIS INFO X 0753Z. 22004KT 5SM -RA BR SCT004 BKN038 OVC050 10/09 A3012 (THREE ZERO ONE TWO). 7R, 7L APPROACHES IN USE. LANDING RWY 7R, 7L, DEPARTING RWY 7L, 33. NOTICE TO AIRMEN. TWY Q CLSD. TWY K BTWN A AND C RESTRICTED TO AIRCRAFT WITH WINGSPAN LESS THAN 118 FEET. CONTACT TOWER 118.3 FOR TAXI. RWY 7R 5 5 5 1258Z, RWY 7L 5 5 5 1258Z, RWY 33 5 5 5 1258Z. ...ADVS YOU HAVE INFO X.",
    "KSEA": "[Arrival ATIS] KSEA ARR ATIS H 0853Z SEA ATIS INFO H 0853Z. 33004KT 10SM CLR 19/14 A2996 (TWO NINER NINER SIX). ILS AND CHARTED VISUAL APPROACH RWY 34C, VISUAL APPROACH RY 34R RNAV, GPS, RY 34R , APCH IN USE.\n[Departure ATIS] KSEA DEP ATIS F 0653Z SEA ATIS INFO F 0653Z. 27003KT 10SM SCT250 22/14 A2996 (TWO NINER NINER SIX) RMK AO2 SLP147 T02170139. ILS AND CHARTED VISUAL APPROACH RWY 34C, VISUAL APPROACH RY 34R RNAV, GPS, RY 34R , APCH IN USE. DEPG RWY 34R. NOTAMS... RY 34L CLSD. TWY Z CLSD. LOC RWY 34R OTS. BIRD ACTIVITY VICINITY ARPT. APCH AND DEP PATHS ARE OVER NOISE SENSITIVE AREAS. ...ADVS YOU HAVE INFO F.",
    "ZSPD": "[Arrival ATIS] ZSPD ARR ATIS Y 0600Z EXP ILS APCH INDEPENDENT PARL INSTR APCH LDG RWY 35L & 34R WIND RWY 35L TDZ 020/5MPS MID 030/5MPS END 030/5MPS RWY 34R TDZ 030/5MPS MID 020/5MPS END 040/5MPS VIS RWY 35L TDZ 10000M MID 10000M END 10000M VIS RWY 34R TDZ 10000M MID 10000M END 10000M CLD BKN 360M T 24 /DP 22 QNH 1004 HPA CAUTION THE BIRDS NEAR THE RUNWAY ADZ YOU HAVE INFO Y.\n[Departure ATIS] ZSPD DEP ATIS U 0430Z DEP RWY 35R & 34L WIND RWY 35R TDZ 030/6MPS MID 020/6MPS END 010/6MPS RWY 34L TDZ 030/6MPS MID 040/6MPS END 040/5MPS VIS RWY 35R TDZ 10000M MID 10000M END 10000M VIS RWY 34L TDZ 10000M MID 10000M END 10000M CLD BKN 300M T 24 /DP 23 QNH 1004 HPA CAUTION THE BIRDS NEAR THE RUNWAY RWY 35R/35L/34R/34L RWYCC 5/5/5 ISSUED AT 2212 WET/WET/WET DPT NR/NR/NR COV 100PCT/100PCT/100PCT. ADZ YOU HAVE INFO U.",
    "ZSSS": "[Arrival ATIS] ZSSS ARR ATIS P 0530Z EXP ILS APCH LDG RWY 36R WIND RWY 36R TDZ 040/4MPS MID 040/4MPS VRB BTN 010/ AND 080/ END 040/3MPS VIS RWY 36R TDZ 10000M MID 10000M END 10000M CLD BKN 450M T 24 /DP 21 QNH 1005 HPA RWY36R RWYCC 5/5/5 ISSUED AT 2130 WET/WET/WET DPT NR/NR/NR COV 100PCT/100PCT/100PCT RWY36L RWYCC 5/5/5 ISSUED AT 2130 WET/WET/WET DPT NR/NR/NR COV 100PCT/100PCT/100PCT QNH OF SHANGHAI TERMINAL CONTROL AREA 1004 HPA ADZ YOU HAVE INFO P.\n[Departure ATIS] ZSSS DEP ATIS P 0530Z DEP RWY 36L WIND RWY 36L TDZ 040/3MPS VRB BTN 020/ AND 080/ MID 040/4MPS END 040/4MPS VIS RWY 36L TDZ 10000M MID 10000M END 10000M CLD BKN 450M T 24 /DP 21 QNH 1005 HPA RWY36R RWYCC 5/5/5 ISSUED AT 2130 WET/WET/WET DPT NR/NR/NR COV 100PCT/100PCT/100PCT RWY36L RWYCC 5/5/5 ISSUED AT 2130 WET/WET/WET DPT NR/NR/NR COV 100PCT/100PCT/100PCT QNH OF SHANGHAI TERMINAL CONTROL AREA 1004 HPA ADZ YOU HAVE INFO P.",
    "VHHH": "[Arrival ATIS] VHHH ARR ATIS A 0606Z ARRIVALS, RWY 25R/L. EXP ILS APCH, RWY 25L. EXP RNAV TRANSITION TO ILS APCH, RWY 25R. RNP APCH IS AVBL ON REQ, RWY 25R. CAUTION POSSIBLE GP FLUCTUATION RWY 25L. SIG WS FCST RWY 25R/L. WIND RWY 25R 230/17KT RWY 25L 200/10KT. VIS RWY 25R 10KM RWY 25L 10KM. CLD FEW 1000FT SCT 2500FT. T33 DP26. QNH 1002HPA. ACK INFO A ON FIRST CTC WITH APP.\n[Departure ATIS] VHHH DEP ATIS O 0607Z DEPARTURES, RWY 25C/L. INDEPENDENT PARALLEL DEPARTURE IN PROGRESS. WIND RWY 25C 230/16KT RWY 25L 220/10KT. VIS RWY 25C 10KM RWY 25L 10KM. CLD FEW 1000FT SCT 2500FT. T33 DP26. QNH 1002HPA. ACK INFO O ON FIRST CTC WITH DELIVERY .",
    "RCTP": "[Arrival ATIS] RCTP ARR ATIS T 0600Z EXP ILS APCH RWY23R FOR ARR. RWY23L FOR DEP. WIND 290/12KT VIS 10 KM OR MORE CLD FEW 2000FT BKN 18000FT T 33 DP 26 QNH 1001HPA NOSIG DUE TO FLOW CONTROL BY MANILA F-I-R, TRAFFIC CONCERNED MAY BE DELAYED. CTN BIRD ACTIVITY IN THE VCY OF THE AD. INFORM TAIPEI APCH OR TAIPEI TOWER ON INITIAL CONTACT YOU HAVE INFORMATION T\n[Departure ATIS] RCTP DEP ATIS N 0300Z EXP ILS APCH RWY23L ARR/DEP. RWY23R CLSD BTN 0300Z AND 0330Z FOR INSPECTION. WIND 250/13KT VIS 10 KM OR MORE CLD FEW 2000FT SCT 15000FT T 34 DP 25 QNH 1008HPA N",
    "ZGSZ": "[Arrival ATIS] ZGSZ ARR ATIS N 0600Z EXP ILS APCH 15 EXP ILS OR VIS APCH 16R WIND 180/9MPS VIS 9999M CLD FEW 900M T 32 /DP 28 QNH 1002 HPA INDEPENDENT PARALLEL DEPARTURES INDEPENDENT PARALLEL APPROACHES V17,V18 AVAILABLE AFTER SULAS FLY HEADING 040 MISSED APPROACH ALTITUDE SETTING 1200METERS WHEN AIRBORNE CONTACT ZHUHAI APPROACH EXPECTED RNP ILS DME Z APPROACH ADZ YOU HAVE INFO N.\n[Departure ATIS] ZGSZ DEP ATIS H 0400Z DEP RWY 15 & 16L WIND 180/7MPS VIS 9999M CLD FEW 900M T 32 /DP 28 QNH 1003 HPA INDEPENDENT PARALLEL DEPARTURES DEPENDENT PARALLEL APPROACHES MISSED APPROACH ALTITUDE SETTING 1200METERS WHEN AIRBORNE CONTACT ZHUHAI APPROACH EXPECTED RNP ILS DME Z APPROACH ADZ YOU HAVE INFO H.",
    "WSSS": "[Arrival ATIS] WSSS ARR ATIS L 0600Z METREPORT 0600Z ILS APCHRWY 20R SIMUL INDEPENDENT ILS AND VISUAL APPROACHES ARE CONDUCTED ON RWY 20. TWY W 9 CLOSED, RWY 02C 20C RAPID EXIT TAXIWAY INDICATOR LIGHTS OFFTWY CENTRE LINE LIGHTS AT CHANGI AIRPORT WILL BE TURNED ON PROGRESSIVELY DUE TESTING IN PROGRESS WIND 180/ 11KT VIS 10KM CLD FEW 1600FT FEW CB 1700FT FEW TCU 1800FT T31 DP26 QNH 1009HPA RETS NOSIG ACK ATIS L\n[Departure ATIS] WSSS DEP ATIS K 0500Z METREPORT 0500Z RWY 20C SIMUL INDEPENDENT ILS AND VISUAL APPROACHES ARE CONDUCTED ON RWY 20. TWY W 9 CLOSED, RWY 02C 20C RAPID EXIT TAXIWAY INDICATOR LIGHTS OFFTWY CENTRE LINE LIGHTS AT CHANGI AIRPORT WILL BE TURNED ON PROGRESSIVELY DUE TESTING IN PROGRESS WIND 170/ 11KT VIS 10KM TS CLD FEW 1500FT FEW CB 1700FT FEW TCU 1800FT T29 DP24 QNH 1010HPA CHANGI AD 3 VALID 0500/ 0530 TS S APCH MOV NW 5KT OBS INTSF BECMG FM0600 TL0615 NSW DEP,INITIAL CMB 3000FT ACK ATIS K",
    "WMKK": "[Arrival ATIS] WMKK ARR ATIS D 0533Z WMKK ARR INFO D. TIME 0530. INDEPENDENT PARALLEL APPROACHES FOR RWY 32 R AND 33 ARE IN PROGRESS. EXP RNAV / ILS APCH FOR RWY 32 RIGHT. EXP RNAV / ILS APCH FOR RWY 33. WIND RWY 32R DIRECTION NOT AVBL SPEED NOT AVBL. WIND RWY 32L DIRECTION NOT AVBL SPEED NOT AVBL. WIND RWY 33 DIRECTION NOT AVBL SPEED NOT AVBL. VIS RWY 32R TDZ NOT AVBL. VIS RWY 33 TDZ NOT AVBL. WX VCSH. CLD FEW CB 1700 FT, CLD SCT 1800 FT. T 30. DP 27. QNH 1009. NOSIG. AT FIRST CONTACT WITH LUMPUR RADAR, NOTIFY RCPT OF D\n[Departure ATIS] WMKK DEP ATIS Z 0533Z WMKK DEP INFO Z. TIME 0530. INDEPENDENT PARALLEL DEPARTURES FOR RWY 32 L AND 33 ARE IN PROGRESS. RWY 32 LEFT. RWY 33. WIND RWY 32L DIRECTION NOT AVBL SPEED NOT AVBL. WIND RWY 33 DIRECTION NOT AVBL SPEED NOT AVBL. VIS RWY 32L TDZ NOT AVBL. VIS RWY 33 TDZ NOT AVBL. WX VCSH. CLD FEW CB 1700 FT, CLD SCT 1800 FT. T 30. DP 27. QNH 1009. NOSIG. ALL DEP ACFT TO CONTACT LUMPUR DEP AT 135 DECIMAL 25 MHZ WHEN ABN. AT FIRST CONTACT WITH LUMPUR GROUND, NOTIFY RCPT OF Z",
    "VTBS": "[Arrival ATIS] VTBS ARR ATIS O 0600Z VTBS ARR ATIS O 0601Z SIMULTANEOUS INDEPENDENT PARL APCH IN PROGRESS EXP ILS Z APCH ARR RWY 19 OR RNP APCH RWY 20R , ,PILOT SHALL ADZ BKK APCH ON INITIAL CTC IF UNA TO CONDUCT RNP APCH DUE TO OPERATIONAL CONSTRAINT 0600Z WIND 200/10KT VIS 10KM CLD FEW 2000FT T34 DP23 QNH 1006HPA TREND NOSIG ADZ BKK APCH ON INITIAL CONTACT THAT YOU HAVE INFO O\n[Departure ATIS] VTBS DEP ATIS T 0530Z DEP RWY 20L , ,AFT AIRBORNE ALL DEPARTING ACFT SHALL CTC 119.25 0530Z WIND 180/11KT VRB BTN 160/ AND 220/ VIS 10KM CLD FEW 2000FT T34 DP23 QNH 1006HPA TREND NOSIG ADZ GND WHEN INITIAL CONTACT YOU HAVE INFO T",
    "VTBU": "[Arrival ATIS] VTBU ARR ATIS S 0430Z VTBU ARR ATIS S 0431Z RNP RWY 36 TRL FL130 MOBILE ACFT ARST SYSTEM INSTL ATP SIX HUNDRED AND TEN METERS FM THR RWY 36 CABLE HGT 3 INCHES. 0430Z WIND 330/5KT VRB BTN 290/ AND 030/ VIS 10KM CLD FEW 2000FT T32 DP26 QNH 1009HPA TREND NOSIG ADZ CONTROLLER WHEN INITIAL CONTACT YOU HAVE INFO S\n[Departure ATIS] VTBU DEP ATIS D VTBU ARR/DEP DATIS RPT VTBU ARR ATIS D 0330Z ILS \"Z\" APCH RWY 18 TRL FL130 0330Z WIND 110/4KT VRB BTN 350/ AND 120/ VIS 6KM CLD FEW 2000FT T31 DP27 QNH 1014HPA TREND NOSIG ADZ CONTROLLER WHEN INITIAL CONTACT YOU HAVE INFO D",
    "ROAH": "[Arrival ATIS] ROAH ARR ATIS T 0619Z M0600 (APCH)RNP RWY18R LDG RWY 18R DEP RWY 18L DEP FREQ 126.5 258.3 M 240600Z 15018KT 15KM FEW020CU BKN/// 33/25 Q1004/A2966= Q/TWO NINE SIX SIX STP\n[Departure ATIS] ROAH DEP ATIS L 0234Z M0230 (APCH)RNP RWY18R LDG RWY 18R DEP RWY 18L DEP FREQ 126.5 258.3 M 240230Z 16015KT 15KM FEW017CU SCT/// 32/26 Q1005/A2970= Q/TWO NINE SEVEN ZERO STP",
    "VVDN": "[Arrival ATIS] VVDN ARR ATIS O 0532Z VVDN INFO O 0532Z. ILS VICTOR APPROACH 35L.. DPTG RWY 35R.. 0532Z. WIND 210/05KT VRB BTN 170/ AND 240/ CAVOK T38 DP23 QNH 1003HPA TREND NOSIG. ADZ ON INITIAL CTC YOU HAVE INFO. O.\n[Departure ATIS] VVDN DEP ATIS M 0432Z VVDN INFO M 0432Z. ILS VICTOR APPROACH 35L.. DPTG RWY 35R.. 0432Z. WIND 220/04KT CAVOK T37 DP22 QNH 1004HPA TREND NOSIG. ADZ ON INITIAL CTC YOU HAVE INFO. M.",
    "RCKH": "[Arrival ATIS] RCKH ARR ATIS R 0600Z EXPECT ILS APPROACH RWY 27 ARR/DEP TAXIWAY JULIETT, TAXIWAY BRAVO, TAXIWAY DELTA AND TAXIWAY ECHO CLOSED DUE MAINTENANCE. RUNWAY 2 7 ARRIVALS PLAN VACATE VIA CHARLIE OR ALPHA AND EXPEDITE VACATE. WIND 290/13KT VARYING BTN 260 AND 330 VIS 10 KM OR MORE CLD SCT 1200FT BKN 2000FT BKN 3500FT T 31 DP 25 QNH 1002HPA NOSIG CAUTION BIRD ACTIVITY IN VICINITY OF THE AERODROME. INFORM KAO-HSIUN APCH OR KAO-HSIUN TOWER ON INITIAL CONTACT YOU HAVE INFORMATION R\n[Departure ATIS] RCKH DEP ATIS G 0430Z EXPECT ILS APPROACH RWY 27 ARR/DEP RWY SFC RWY 09 SFC COND 5/5/5 ISSUED AT 0255Z. 100/100/100 NR/NR/NR WET/WET/WET TAXIWAY JULIETT, TAXIWAY BRAVO, TAXIWAY DELTA AND TAX",
    "KLAX": "[Arrival ATIS] KLAX ARR ATIS X 0553Z - KLAX ATIS INFO X 0553Z. 25009KT 10SM FEW007 SCT009 BKN011 18/16 A3003 (THREE ZERO ZERO THREE) RMK AO2 SLP167 T01780156 10211 20178 52012. INST APCHS AND RNAV RNP APCHS RY 24R AND 25L, OR VCTR FOR VISUAL APCH WILL BE PROVIDED, SIMUL VISUAL APCHS TO ALL RWYS ARE IN PROG, AND SIMUL APCHS IN PROG BTWN LAX AND HHR, SIMUL INSTR DEPARTURES IN PROG RWYS 24 AND 25. TWY C CLSD BTN TWY, C8 AND TWY C9 , , TWY C10 CLSD BTN TWY, B AND TWY C. RY 25R SFL OTS, RY 24L ALSF-2 OTS. LAX VOR UNMONITORED. TAXIWAY CHARLIE EIGHT BTWN TWY B AND TWY C AND TAXIWAY CHARLIE NINE BTWN TWY B AND TWY C ARE RESTRICTED TO AIRCRAFT WITH A WINGSPAN LESS THAN ONE HUNDRED EIGHTEEN FEET. USE CAUTION FOR INCREASED DRONE ACTIVIY IN THE VICINITY OF SOFI STADIUM AT OR BELOW 200FT AGL DURING THE WORLD CUP FROM 06/12/26 THROUGH 07/10/2026. HAZD WX INFO FOR LAX AREA AVBL FM FSS. BIRD ACTIVITY VICINITY ARPT. GC FREQ FOR ALL RWYS IS 121.75. INCLUDE YOUR CALL SIGN IN ALL READBACKS. USE CAUTION WHEN EXITING RY24R AT TWY V, W, AND Y, TO HOLD SHORT OF RY24L. MULTIPLE RUNWAY INCURSIONS HAVE OCCURRED. ...ADVS YOU HAVE INFO X.\n[Departure ATIS] KLAX DEP ATIS B 0853Z LAX ATIS INFO B 0853Z. 23005KT 10SM BKN200 22/19 A2991 (TWO NINER NINER ONE) RMK AO2 SLP126 T02170194 58003. INST APCHS AND RNAV RNP APCHS 6R, OR VCTR FOR VISUAL APCH WILL BE P",
    "KONT": "[Arrival ATIS] KONT ARR ATIS D 1153Z ONT ATIS INFO D 1153Z. 23004KT 10SM FEW200 21/17 A3001 (THREE ZERO ZERO ONE). ILS AND VIS APR IN USE, RY26L & RY26R. LNDG AND DEPG RY 26L AND RY 26R. NOTAMS... TAXIWAY SIERRA FIVE CLOSED. TAXIWAY SIERRA CLOSED BETWEEN TAXIWAY SIERRA 8 AND TAXIWAY WHISKEY. RY 26L IM OTS, RY 26R ALS OTS. PILOTS READBACK RWY ASSIGNMENTS AND HOLD SHORT INSTRUCTIONS. ...ADVS YOU HAVE INFO D.\n[Departure ATIS] KONT DEP ATIS N 0553Z - KONT ATIS INFO N 0553Z. 24004KT 10SM BKN250 22/15 A2988 (TWO NINER EIGHT EIGHT) RMK AO2 SLP100. ILS AND VIS APR IN USE, RY26L & RY26R. LNDG AND DEPG RY 26L AND RY 26R. NOTAMS... TAXIWAY SIERRA CLSD BETWEEN SIERRA 8 AND W TAXIWAY Q SOUTH OF RWY 26L CLSD TAXIWAY T CLSD TAXIWAY SIERRA 5 CLSD. RY 26L IM OTS, RY 26R ALS OTS. USE CAUTION FOR NUMEROUS BIRDS OBSERVED IN VICINITY OF ONT. HAZD WX INFO FOR SOUTHERN CA AVBL ON FSS FREQUENCIES. PILOTS READBACK RWY ASSIGNMENTS AND HOLD SHORT INSTRUCTIONS. ...ADVS YOU HAVE INFO N.",
    "KSFO": "[Arrival ATIS] KSFO ARR ATIS U 0756Z SFO ATIS INFO U 0756Z. 28009KT 10SM FEW004 BKN160 17/13 A2991 (TWO NINER NINER ONE). ILS RY 28R APP IN USE. DEPG RWYS 28R. RY 28L, 1L, 1R CLSD. NUMEROUS TWY CLOSURES FOR CONSTRUCTION ON THE FIELD, PILOTS CHECK NOTAMS. DEPG ACFT WAITING ON FINAL NUMBERS ADVISE GROUND PRIOR TO ENTERING TWY F. ...ADVS YOU HAVE INFO U.\n[Departure ATIS] KSFO DEP ATIS H 1956Z SFO ATIS INFO H 1956Z. 32008KT 10SM FEW006 SCT013 BKN100 19/14 A2995 (TWO NINER NINER FIVE). SIMUL CLSLY SPCD DPNDNT ILS RY 28R AND ILS RY 28L APP IN USE. DEPG RWYS 28L, 28R. DEPG ACFT SHOULD BE PREPARED FOR A SHORT NOTICE RY CHANGE. RY 1L, 1R CLSD. NUMEROUS TWY CLOSURES FOR CONSTRUCTION ON THE FIELD, PILOTS CHECK NOTAMS. DEPG ACFT WAITING ON FINAL NUMBERS ADVISE GROUND PRIOR TO ENTERING TWY F. ...ADVS YOU HAVE INFO H.",
    "KOAK": "[Arrival ATIS] KOAK ARR ATIS G 2353Z - KOAK ATIS INFO G 2353Z. 27013KT 10SM FEW009 FEW015 18/12 A3002 (THREE ZERO ZERO TWO). RNAV, AND VA, RWY 30. ILS, AND VA, RWY 28R. FLOW TO LAX, LAS, SAN, SLC, SEA. ILS RWY 30, OTS. UNN LIT CLOSE-IN OBSTACLES FOR RWY 30 DEPARTURES. RWY 30 DEPARTURES ARE ADVISED TO AVOID TURNING LEFT PRIOR TO DEPARTURE END OF RUNWAY. SIGNATURE UNI-COM OUT OF SERVICE. CTN, CRANE 1 POINT 6 NAUTICAL MILES, , AT 140 FEET AGL. CAUTION, BIRDS NEAR AIRPORT. ...ADVS YOU HAVE INFO G.\n[Departure ATIS] KOAK DEP ATIS O 1953Z OAK ATIS INFO O 1953Z. 28014KT 10SM FEW005 22/14 A2988 (TWO NINER EIGHT EIGHT). RNAV Z/VA RWY 30 ILS/VA RWY 28R. FLOW TO LAX, LAS, SAN. ILS RWY 30, OTS. UNN LIT CLOSE-IN OBSTACLES FOR RWY 30 DEPARTURES. RWY 30 DEPARTURES ARE ADVISED TO AVOID TURNING LEFT PRIOR TO DEPARTURE END OF RUNWAY. SIGNATURE UNI-COM OUT OF SERVICE. CAUTION, BIRDS NEAR AIRPORT. ...ADVS YOU HAVE INFO O.",
    "KDFW": "[Arrival ATIS] KDFW ARR ATIS U 0853Z - KDFW ARR INFO U 0853Z. 23011KT 10SM CLR 29/19 A2986 (TWO NINER EIGHT SIX) RMK AO2 SLP099 T02890189 58004. SIMUL VISUAL APCH TO RWYS, 13R, 18R. LDG RWY 17C EXP LAHSO TWY B 10460 FT AVAIL, LDG RWY 18R EXP LAHSO TWY B 10100 FT AVL. NOTICE TO AIRMEN. RWY 13L CLSD. RWY 17L CLSD. RWY 17C CLSD. RWY 18L CLSD, WARNING, RWY 18L HAS BEEN SHORTENED, 9273 FT AVAILABLE. RWY 18L ILS OTS, CL OTS. BIRD ACTIVITY VCNTY ARPT. ...ADVS YOU HAVE INFO U.\n[Departure ATIS] KDFW DEP ATIS J 0253Z DFW DEP INFO J 0253Z. 17008KT 10SM FEW250 31/19 A2994 (TWO NINER NINER FOUR) RMK AO2 SLP128 T03110194 53004. SIMUL PARL TRAFFIC DEPG RWYS 17R, 18L. NOTICE TO AIRMEN. RWY 13L CLSD. RWY 13R CLSD. RWY 17L CLSD. WARNING, RWY 18L HAS BEEN SHORTENED, 9273 FT AVAILABLE. HAZD WX FOR DFW AVBL ON FSS. BIRD ACTIVITY VCNTY ARPT. ...ADVS YOU HAVE INFO J.",
    "KIAH": "[Arrival ATIS] KIAH ARR ATIS Z 0453Z IAH ATIS INFO Z 0453Z. 19004KT 10SM CLR 29/25 A2989 (TWO NINER EIGHT NINER). ARRIVALS EXPECT ILS OR RNAV Y RY 26R, ILS OR RNAV Y RY 27. DEPG RY 15L. NOTICE TO AIRMEN. UAL RAMP PROCEDURES TERMINATED PUSH BACK AT PILOTS DISCRETION. RY 8R, 26L CLSD. BIRD ACTIVITY VICINITY ARPT. CRANES ARE DOWN. TWY SA CLSD BTN TWY, SF AND TWY SK , TWY SB CLSD BTN TWY, SF AND TWY SK , , TWY EA CLSD. NOTAM ATIS IN USE ON FREQUENCY 126.225. ...ADVS YOU HAVE INFO Z.\n[Departure ATIS] KIAH DEP ATIS T 0353Z IAH ATIS INFO T 0353Z. 15007KT 10SM FEW035 FEW180 BKN250 27/23 A2996 (TWO NINER NINER SIX). ARRIVALS EXPECT ILS OR RNAV Y RY 8R, ILS OR RNAV Y RY 8L. DEPG RY 15R. NOTICE TO AIRMEN. UNITED RAMP CONTROL IN EFFECT. RY 15L, 33R CLSD. HAZD WX INFO FOR IAH AREA AVBL FM FSS. BIRD ACTIVITY VICINITY ARPT. CRANES ARE DOWN. TWY SA CLSD BTN TWY, SF AND TWY SK , TWY SB CLSD BTN TWY, SF AND TWY SK , , TWY WB CLSD BTN TWY, WG AND TWY WH . TWY EA CLSD. NOTAM ATIS IN USE ON FREQUENCY 126.225. ...ADVS YOU HAVE INFO T.",
    "KORD": "[Arrival ATIS] KORD ARR ATIS E 0851Z - KORD ATIS INFO E 0851Z. 25007G16KT 10SM TS SCT040CB BKN095 OVC150 24/21 A2966 (TWO NINER SIX SIX) RMK AO2 RAB35E45 TSB37 SLP038 OCNL LTGICCG S TS S MOV E P0000 60000 T02440211 56003. ARR EXP VECTORS ILS RWY 28C APCH. DEPS EXP RWYS 22L, 28R. RWY 4L, 22R CLSD, RWY 9L, 27R CLSD, RWY 9C, 27C CLSD, RWY 9R, 27L CLSD, RWY 10R, 28L CLSD. RWY 22R LOC OTS, RWY 28L GS OTS, RWY 9L IM OTS, RWY 9C IM OTS, RWY 10L IM OTS, RWY 10R IM OTS, RWY 27R IM OTS, RWY 28L IM OTS, RWY 28R IM OTS, RWY 9L PAPI OTS, RWY 27R PAPI OTS. PILOTS USE CTN FOR BIRD ACTIVITY IN THE VICINITY OF THE ARPT. NOISE ABATEMENT PROCEDURES ARE IN EFFECT. USE CTN FOR PERSONNEL AND EQUIP AT NUMEROUS SITES ON THE FIELD. READBACK ALL RWY HOLD SHORT INSTRUCTIONS. FOR CD GND METERING AND GC CONTACT ORD ON FREQ 121.9. ...ADVS YOU HAVE INFO E.\n[Departure ATIS] KORD DEP ATIS A 0551Z ORD ATIS INFO A 0551Z. 26007KT 7SM SCT050 BKN250 24/22 A2967 (TWO NINER SIX SEVEN) RMK AO2 SLP041 T02440217 10261 20244 402780183 56007. ARR EXP VECTORS ILS RWY 28C APCH. LAND AND HOLD SHORT OPERATIONS ARE IN EFFECT. RWY 28C ARR PLAN TO H/S OF TWY Z, 9 THSD 6 HND TEN FT AVBL. DEPS EXP RWYS 22L, 28C. RWY 4L, 22R CLSD, RWY 9L, 27R CLSD, RWY 9C, 27C CLSD, RWY 9R, 27L CLSD, RWY 10L, 28R CLSD, RWY 10R, 28L CLSD. RWY 22R LOC OTS, RWY 28L GS OTS, RWY 9L IM OTS, RWY 9C IM OTS, RWY 10L IM OTS, RWY 10R IM OTS, RWY 27R IM OTS, RWY 28L IM OTS, RWY 28R IM OTS, RWY 9L PAPI OTS, RWY 27R PAPI OTS. PILOTS USE CTN FOR BIRD ACTIVITY IN THE VICINITY OF THE ARPT. NOISE ABATEMENT PROCEDURES ARE IN EFFECT. USE CTN FOR PERSONNEL AND EQUIP AT NUMEROUS SITES ON THE FIELD. READBACK ALL RWY HOLD SHORT INSTRUCTIONS. FOR CD GND METERING AND GC CONTACT ORD ON FREQ 121.9. ...ADVS YOU HAVE INFO A.",
    "KJFK": "[Arrival ATIS] KJFK ARR ATIS F 0851Z - KJFK ATIS INFO F 0851Z. 18010KT 10SM BKN035 BKN250 23/20 A2993 (TWO NINER NINER THREE) RMK AO2 SLP133 T02330200 58010. APPROACH IN USE RNAV GPS Z RY 13L, RNAV GPS X RY 22L. DEPG RY 13R. RWY 4L, 22R CLSD. RY 13L ALS OTS, RY 22L PAPI OTS, RY 13L SFL OTS, RWY 22L/4R INNER MARKER OTS. NUM CRANES OPERATING AT JFK. BIRD ACTIVITY VICINITY ARPT. READBACK ALL RWY ASSIGNMENTS AND HOLD SHORT INSTRUCTIONS. ...ADVS YOU HAVE INFO F.\n[Departure ATIS] KJFK DEP ATIS E 1929Z JFK ATIS INFO E 1929Z SPECIAL. 19015KT 3SM -TSRA FU FEW005 BKN060CB OVC110 23/22 A2981 (TWO NINER EIGHT ONE) RMK FRQ LTGIC S TS S MOV E FU BKN060. APPROACH IN USE ILS RY 22L, ILS RY 22R. DEPG RY 22R. RY 13L SFL OTS, RWY 22L/4R INNER MARKER OTS. HAZD WX INFO FOR NY METRO AREA AVBL ON FSS. SWAP IN EFFECT EXPECT REROUTES. NUM CRANES OPERATING AT JFK. BIRD ACTIVITY VICINITY ARPT. READBACK ALL RWY ASSIGNMENTS AND HOLD SHORT INSTRUCTIONS. ...ADVS YOU HAVE INFO E.",
    "KIND": "[Arrival ATIS] KIND ARR ATIS P 0854Z - KIND ATIS INFO P 0854Z. 21008KT 8SM OVC220 23/20 A2977 (TWO NINER SEVEN SEVEN). PARL ILS RWY 23R AND 23L APPROACHES IN USE. NOTICE TO AIRMEN. TWY, P BTN TWY, H AND TWY B CLSD, TWY, P BTN TWY, H AND TWY J CLSD, TWY, H BTN TWY, R AND TWY N CLSD. P PAD CLSD. ILS RUNWAY 5R AND RUNWAY 5L INNER MARKER UNSERVICEABLE. ...ADVS YOU HAVE INFO P.\n[Departure ATIS] KIND DEP ATIS G 0254Z IND ATIS INFO G 0254Z. 03006KT 10SM SCT060 BKN110 BKN190 OVC250 28/22 A3007 (THREE ZERO ZERO SEVEN). PARL ILS RWY 5R AND 5L APPROACHES IN USE. CROSS RUNWAY OPERATIONS MAY BE IN EFFECT. NOTICE TO AIRMEN. TWY, P BTN TWY, H AND TWY B CLSD, TWY, P BTN TWY, H AND TWY J CLSD, TWY, H BTN TWY, R AND TWY N CLSD. P PAD CLSD. ILS RUNWAY 5R AND RUNWAY 5L INNER MARKER UNSERVICEABLE. HIWAS. ARPT ADZY FLOCK OF MEDIUM BIRDS IN THE VICINITY OF THE AIRPORT, ALT UNKN. ...ADVS YOU HAVE INFO G.",
    "KDTW": "[Arrival ATIS] KDTW ARR ATIS E 0853Z DTW ARR INFO E 0853Z. 23013KT 5SM HZ SCT050 BKN090 OVC200 23/19 A2963 (TWO NINER SIX THREE) RMK AO2 SLP027 T02280189 56030. ILS RY 21L APCH IN USE. NOTICE TO AIRMEN. RWY 22R, 4L CLSD, RWY 22L, 4R CLSD, RWY 21R, 3L CLSD, RWY 27L, 9R CLSD, RWY 27R, 9L CLSD. TWYS Y1 CLSD ;. RY 22L ALS OTS. HAZD WX INFO . CNVTV SIG 37 C, FOR MI , AND OH AVBL ON FLIGHT SERVICE FREQS. PILOTS USE CTN FOR BIRD ACTIVITY. TWR AND GC COMB ON FREQ 135.0. DEPARTURE ATIS 118.125. ...ADVS YOU HAVE INFO E.\n[Departure ATIS] KDTW DEP ATIS N 0953Z DTW DEP INFO N 0953Z. 35003KT 1SM R03R/P6000FT FU SCT000 OVC027 22/16 A3004 (THREE ZERO ZERO FOUR) RMK AO2 TWR VIS 2 SLP167 FU SCT000 T02170161. DEPG RWY 4R. . RWY 4R DEPARTURE POINT IS Y 2, DISTANCE REMAINING IS 11, THOUSAND, 450, FT, FULL LENGTH AVAIL UPON REQ ;. NOTICE TO AIRMEN. RWY 21R, 3L CLSD, RWY 27L, 9R CLSD, RWY 27R, 9L CLSD. TWYS Y1 CLSD ;. PILOTS USE CTN FOR BIRD ACTIVITY. TWR AND GC COMB ON FREQ 135.0. ...ADVS YOU HAVE INFO N.",
    "KMSP": "[Arrival ATIS] KMSP ARR ATIS J 0453Z MSP ARR INFO J 0453Z. 28011KT 10SM CLR 26/18 A2970 (TWO NINER SEVEN ZERO). ILS RWY 30R APCH IN USE. NOTICE TO AIRMEN. RWYS 12R, 30L CLSD, RWYS 4, 22 CLSD. TWY R7. R8. R9. R10. CLOSED. TWY R BTWN R6 AND R10 CLSD, TWY A7 CLSD, TWY A CLSD BTN TWY, A7 AND TWY D. GS RWY 12L OTS, RWYS 12R, 12L, INNER MARKER OTS. HAZD WX INFO FOR MSP AREA AVBL FM FSS. CTN, BIRDS NEAR MSP. READ BACK HS AND ALT. ALL ACFT TAXI WITH TRANSPONDER AND ALTITUDE ENCODING ON. ...ADVS YOU HAVE INFO J.\n[Departure ATIS] KMSP DEP ATIS T 0153Z - KMSP DEP INFO T 0153Z. 28009KT 10SM CLR 28/17 A2968 (TWO NINER SIX EIGHT). DEPARTING RWY 30L, RWY 30R. NOTICE TO AIRMEN. RWYS 4, 22 CLSD. TWY R7. R8. R9. R10. CLOSED. TWY R BTWN R6 AND R10 CLSD, TWY A7 CLSD, TWY A CLSD BTN TWY, A7 AND TWY D. SWAP IN EFCT, INCLUDING CDR. ALL ACFT CTC METERING ON ONE THREE THREE POINT FIVE SEVEN WHEN READY TO PUSHBACK OR TAXI. HAZD WX INFO FOR MSP AREA AVBL FM FSS. CTN, BIRDS NEAR MSP. READ BACK HS AND ALT. ALL ACFT TAXI WITH TRANSPONDER AND ALTITUDE ENCODING ON. ...ADVS YOU HAVE INFO T.",
    "CYEG": "[Arrival ATIS] CYEG ARR ATIS V 0800Z 21003KT 3SM SHRA FU SCT065 CIG OVC089 16/16 A3022 APCH RNAV Z OR Y OR ILS RWY 02, INFORM ARRL OF REQ APCH ON INITIAL CTC. LDG AND DEP RWY 02. INFORM CYEG ATC INFO V\n[Departure ATIS] CYEG DEP ATIS F 0300Z CYEG ARR ATIS F 0300Z 01004KT 4SM FU SCT034 CIG BKN250 17/15 A3022 APCH RNAV Z OR Y OR ILS RWY 02, INFORM ARRL OF REQ APCH ON INITIAL CTC. LDG AND DEP RWY 02. SIMUL APPROACHES MAY BE IN EFCT. INFORM CYEG ATC INFO F",
    "EHAM": "[Arrival ATIS] EHAM ARR ATIS M 0850Z EHAM ARRIVAL INFO M. DEMAND. MAIN LANDING RWY 06. SECONDARY LANDING RWY 36 R. TRANSITION LEVEL 040. WIND 340 DEG, 6 KT, VRB BTN 310 AND 040 DEG, 13 KT MAX, 4 KT MNM. WIND SECONDARY RUNWAY 330 DEG, 9 KT, VRB BTN 270 AND 360 DEG, 12 KT MAX, 4 KT MNM. VIS 10 KM OR MORE. CLD FEW 2500 FT BKN 3200 FT. T 19. DP 11. QNH 1026 HPA. NOSIG. OPERATIONAL REPORT. CONVERGING APPROACHES IN PROGRESS. CONTACT APCH WITH CALLSIGN ONLY. END OF INFO M\n[Departure ATIS] EHAM DEP ATIS T 0822Z EHAM DEPARTURE INFO T. DEMAND. MAIN DEPARTURE RWY 36 L. MAIN LANDING RWY 06. WIND 020 DEG, 8 KT, VRB BTN 320 AND 070 DEG. VIS 10 KM OR MORE. CLD FEW 2500 FT BKN 3000 FT. T 18. DP 11. QNH 1026 HPA. OPERATIONAL REPORT. INFORM SCHIPHOL DEL BY VOICE IF UNABLE TO COMPLY WITH NADP 2. END OF INFO T",
    "EBBR": "[Arrival ATIS] EBBR ARR ATIS N 0820Z EBBR NAT, EXP VECT FOR ILS APP ARR RWY25L RSCD AT 0648 RWY25L DRY. DEP RWY25R TRL 055 ILS 25R NOT AVBL. RNP RWY 25R AVBL AT ATC DISCRETION. TAIL OPS TAIL REP AT 0819, ALT 1000FT, 020 DEG/07 KT 030/7KT VRB BTN 330 AND 050 VIS ABV 10KM SCT3000FT T16 DP10 QNH 1027HPA NOSIG CFM ARR N\n[Departure ATIS] EBBR DEP ATIS N 0820Z EBBR NAT, DEP RWY25R RSCD AT 0704 RWY25R DRY. ARR RWY25L TRL 055 TWY B1 CLSD. ADV DLC IF UNA TO LINEUP VIA B3 , TORA 2760 M. TAIL OPS TAIL REP AT 0819, ALT 1000FT, 020 DEG/07 KT 020/5KT VRB BTN 010 AND 070 MNM4 MAX10 VIS ABV 10KM SCT3000FT T16 DP10 QNH 1027HPA NOSIG CFM DEP N",
    "EDDF": "[Arrival ATIS] EDDF ARR ATIS T 0920Z -ARR-ATIS EDDF T METAR 210920 -EXPECT INDEPENDENT PARALLEL ILS Z APCH RWY 07L OR ILS APCH RWY 07R -RWY 07L 07R -GLS APCH ON REQUEST , -TRL 60 - -36008KT 330V040 -9999 - -FEW049 -T21 DP08 -QNH1023 - -TREND NOSIG\n[Departure ATIS] EDDF DEP ATIS U 1920Z -DEP-ATIS EDDF U METAR 201920 - -RWY 07C 18 -ACFT DEPARTING RWY18 : EXPECT POSSIBLE DEPARTURE FROM INTERSECTION M , TORA 3454 METERS. IF UNABLE , ADVISE TWR ON INITIAL CONTACT , -TRL 60 - -01008KT RWY18 01007KT -CAVOK - - -T19 DP08 -QNH1022 - -TREND NOSIG",
    "EDDL": "[Arrival ATIS] EDDL ARR ATIS Z 1850Z ATIS EDDL Z METAR 181850 EXPECT VECTORS ILS APPROACH RWY 23R RWY 23L 23R TRL 60 EXPECT INTENSE BIRD ACTIVITY IN THE VICINITY OF RWY SYSTEM 33011KT 9999 FEW043 T20 DP10 QNH1015 TREND NOSIG\n[Departure ATIS] EDDL DEP ATIS R EDDL ARR/DEP DATIS RPT -ATIS EDDL R METAR 020550 -EXPECT VECTORS ILS APPROACH -RWY 23L -TWY L8 CLOSED BETWEEN TWY M AND RWY 23L -TRL 60 - -23010KT -CAVOK - - -T19 DP13 -QNH1020 - -TREND NOSIG",
    "EDDK": "[Arrival ATIS] EDDK ARR ATIS K 1950Z -ATIS EDDK K METAR 181950 -EXPECT ILS APCH -RWY 31R 24 -RWY COND RWY 31R AT TIME 1315 RWYCC 6 DEPOSIT TOTAL RWY DRY RWY 24 AT TIME 1315 RWYCC 6 DEPOSIT TOTAL RWY DRY -TRL 60 -RWY 13R AND RWY 31L CLOSED FOR DEPARTURE AND LANDING: TAXIING BTN THR RWY 13R AND INTERSECTION RWY 24 POSSIBLE : -33007KT -CAVOK - - -T19 DP11 -QNH1016 - -TREND NOSIG\n[Departure ATIS] EDDK DEP ATIS E 2050Z -ATIS EDDK E METAR 142050 -EXPECT CDO FOR ILS APCH RWY 31R -RWY 31R 06 -RWY COND RWY 31R AT TIME 1837 RWYCC 6 DEPOSIT TOTAL RWY DRY RWY 06 AT TIME 1837 RWYCC 6 DEPOSIT TOTAL RWY DRY -TRL 60 -RWY 13R AND RWY 31L CLOSED FOR DEPARTURE AND LANDING: TAXIING BTN THR RWY 13R AND INTERSECTION RWY 24 POSSIBLE : -02006KT 350V050 -CAVOK - - -T23 DP14 -QNH1018 - -TREND NOSIG",
    "EBLG": "[Arrival ATIS] EBLG ATIS O 0620Z EBLG INFO, EXP RNAV TO ILS APP ARR RWY04R DEP RWY04R RWY 04R DRY, RWYCC 666. TRL 055 ADZ ON GND FREQ IF UNABLE S2 360/3KT VRB BTN 330 AND 070 CAVOK T13 DP10 QNH 1026HPA NOSIG CFM ATIS O",
    "LSZH": "[Arrival ATIS] LSZH ARR ATIS A 0720Z ARRIVALS, EXP ILS APCH, RWY 14. TRL 70. DEP RWY 28. TWY E 4 CLSD. WIND 040 DEG, 6 KT, VRB BTN 360 AND 090 DEG. CAVOK. T 17. DP 7. QNH 1022. NOSIG.\n[Departure ATIS] LSZH DEP ATIS U 0720Z DEP RWY 28. TRL 70. ARRIVALS, EXP ILS APCH, RWY 14. TMA S 1 IS NOT ACT. TMA S 2 AND S 3 ARE NOT ACT. WIND 030 DEG, 5 KT, VRB BTN 360 AND 090 DEG. CAVOK. T 17. DP 7. QNH 1022. NOSIG.",
    "LIMC": "[Arrival ATIS] LIMC ARR ATIS F 0652Z LIMC ARR F 0652Z I.L.S. ZULU RWY IN USE 35R TL 70 WIND TDZ 060/7KT VRB BTN 040/AND 140/ VIS 10KM CLD SCT 5000FT T25 DP16 QNH 1017HPA QFE 0992HPA REPORTED 10 KT . TAIL ON F\n[Departure ATIS] LIMC DEP ATIS D 0650Z LIMC DEP D 0650Z RWY IN USE 35L TL 70 BIRDS CONCENTRATION ON RWY STRIP WIND END 130/10KT VRB BTN 090/AND 160/ VIS 10KM CLD SCT 5000FT T25 DP16 QNH 1017HPA QFE 0991HPA REPORTED 10 KT . TAIL ON FINAL DATALINK CLEARANCE AVAILABLE.... CONTACT 1 3 1 8 8 0 TO BE RELEASED BY THE AIRPORT OPERATOR ...",
    "LIRF": "[Arrival ATIS] LIRF ARR ATIS K 0854Z LIRF ARR K 0854Z RWY 16L ILS W RWY 16R ILS Z RWY IN USE 16L 16R TL 70 DEPENDENT PARL ILS APCH INPR RWY IN USE 16R OR 16L ASSIGNED BY ROME RADAR WIND RWY 16L TDZ 160/8KT VRB BTN 120/AND 200/ RWY 16R TDZ 200/9KT VRB BTN 170/AND 230/ CAVOK T33 DP20 QNH 1013HPA\n[Departure ATIS] LIRF DEP ATIS Q 1220Z LIRF DEP Q 1220Z RWY IN USE 25 TL 75 RWYS IN USE FOR ARR 16L AND 16R WIND END 270/8KT VRB BTN 240/AND 310/ CAVOK T32 DP24 QNH 1012HPA REA IS SENT AUTOMATICALLY ONCE RLSD BY RAMP WHEN READY CONTACT FIUME RAMP 121.725 RRSM",
    "EINN": "[Arrival ATIS] EINN ARR ATIS H 0900Z EXPECT I L S CATEGORY 1 LDG RWY06 TKOF RWY06 TRL FL055 01007KT 9999 -DZ SCT008 BKN012 15/13 QNH Q1032 TREND BECMG BKN015 ADVISE AT FIRST CONTACT YOU HAVE ATIS INFO H",
    "EGLL": "[Arrival ATIS] EGLL ARR ATIS G 0920Z LANDING RWY 09L TRANSITION-LEVEL: FL 70 RUNWAY 09L REDUCED DECLARED DISTANCES IF STAND GUIDANCE IS OFF OR FAILS, REMAIN ON THE TAXIWAY CENTRELINE AND ADVISE ATC BIG VOR/DME OOS FROM 0900 ZULU AUTO 05009KT 360V060 9999 SCT031 19/11 Q1029 ACKNOWLEDGE RECEIPT OF INFORMATION G AUTO UPDATE ENDS AT 0959\n[Departure ATIS] EGLL DEP ATIS N 0750Z DEPARTURE RWY 09R RUNWAY 09L REDUCED DECLARED DISTANCES PILOTS THAT ARE IN RECEIPT OF DATALINK CLEARANCES ARE REMINDED THEY MUST CONTACT DELIVERY ON 121.980 WHEN READY FOR START DATALINK CLEARANCES NOT AVAILABLE FOR CPT DEPARTURES AUTO 03005KT 350V070 9999 NCD 18/11 Q1029 ACKNOWLEDGE RECEIPT OF INFORMATION N AND REPORT AIRCRAFT TYPE AND CURRENT QNH ON FIRST CONTACT WITH HEATHROW",
    "EPWA": "[Arrival ATIS] EPWA ARR ATIS E 0531Z EPWA ARR E. TIME 0530. EXP U ARR ILS Z APCH FOR RWY 33. TRANSITION LEVEL 80. WIND 230 DEG, 4 KT, VRB BTN 190 AND 270 DEG. CAVOK. T 19. DP 13. QNH 1019. NOSIG. CAUTION. BIRD ACT. END OF EPWA ARR E\n[Departure ATIS] EPWA DEP ATIS Y 0529Z EPWA DEP Y. TIME 0529. DEP RWY 29. ARR RWY 33, EXP U ARR ILS Z. REPORT READY FOR STARTUP ON DELIVERY 121 DECIMAL 605. RWY 29 RCC 5, 5, 5. 1ST PART, WET. 2ND PART, WET. 3RD PART, WET. RWY REPORT END. TRANSITION LEVEL 80. WIND 250 DEG, 11 KT. VIS MID 10 KM OR MORE. WX FBL DZ. CLD OVC 600 FT. T 14. DP 13. QNH 1012. TREND TEMPO VIS 3000 M, MOD DZ, CLD BKN 400 FT. CAUTION. BIRD ACT. END OF EPWA DEP Y",
    "EFHK": "[Arrival ATIS] EFHK ARR ATIS H 0620Z EXPECT ILS APCH ARR RWY 15 RUNWAY 15 CONDITION REPORT AT 0147 UTC RUNWAY CONDITION CODES 5 , 5 , 5 CONTAMINANTS ALL PARTS 100 PERCENT WET TRL 65 WIND 190 DEG 8 KT VIS 10KM FBL RA BKN 500 FT T 14 DP 13 QNH 1012 NOSIG ACK INFO H\n[Departure ATIS] EFHK DEP ATIS K 0604Z DEP RWY 22R RUNWAY 22R CONDITION REPORT AT 0146 UTC RUNWAY CONDITION CODES 5 , 5 , 5 CONTAMINANTS ALL PARTS 100 PERCENT WET SPECIAL WIND 180 DEG 6 KT VIS 10KM FBL RA BKN 500 FT. BKN 3500 FT T 14 DP 13 QNH 1012 NOSIG ACK INFO K",
    "LTAC": "[Arrival ATIS] LTAC ARR ATIS X 1920Z EXP ILS V APCH 03C DEP RWY 03L RWY 03C WIND 040 DEG 07 KT RWY 03L WIND 030 DEG 10 KT TRL 110 CAVOK T 22 DP 11 QNH 1015 NOSIG FOR DELIVERY CTC 121.9. FOR DELIVERY FIRST USE DIGITAL DEP CLR. CTN BIRD HAZARD OVR AERODROME. APCH FREQUENCY 129.050. END OF ATIS X",
    "UBBB": "[Arrival ATIS] UBBB ARR ATIS C 0914Z ATIS C EXP ILS/ LDG 16 17 DEP 16 17 IN USE RWY 16 CLEAR DRY 70 RWY 17 CLEAR DRY 70 TLVL 110 WIND WIND RWY 16 160 10 KT SPD MAX 14 MIN 8 WIND RWY 17 070 2 KT SPD MAX 10 MIN 0 VIS 10 KM FEW 4000 FT RWY 16 FEW CLD TYPE NOT AVBL RWY 17 T 31 / DP 18 QNH 1012 HPA TREND TREND NOSIG MODERATE BIRDS ACT IN VICINITY OF AP END OF ATIS C\n[Departure ATIS] UBBB DEP ATIS A 0830Z ATIS A EXP ILS/ LDG 16 17 DEP 16 17 IN USE RWY 16 CLEAR DRY 70 RWY 17 CLEAR DRY 70 TLVL 110 WIND WIND RWY 16 020 8 KT SPD MAX 12 MIN 6 WIND RWY 17 150 4 KT SPD MAX 8 MIN 2 VIS 10 KM FEW 4000 FT RWY 16 FEW CLD TYPE NOT AVBL RWY 17 T 31 / DP 18 QNH 1012 HPA TREND TREND NOSIG MODERATE BIRDS ACT IN VICINITY OF AP END OF ATIS A",
    "ZWWW": "[Arrival ATIS] ZWWW ARR ATIS T 0830Z EXP ILSDME Z APCH LDG RWY 26R TA 3000 WIND 020/4MPS VRB BTN 350/ AND 060/ CAVOK T 42 /DP 08 QNH 998 HPA ADZ YOU HAVE INFO T.\n[Departure ATIS] ZWWW DEP ATIS F 0100Z DEP RWY 26L TA 3000 WIND 170/5MPS VRB BTN 150/ AND 210/ CAVOK T 25 /DP 03 QNH 1010 HPA ADZ YOU HAVE INFO F.",
    "ZLXY": "[Arrival ATIS] ZLXY ARR ATIS E 0600Z EXP ILS APCH LDG RWY 05L & 06R WIND 050/4MPS VIS 9999M CLD FEW 1200M T 29 /DP 20 QNH 1008 HPA VISUAL APPROACH IN PROGRESS ADZ YOU HAVE INFO E.\n[Departure ATIS] ZLXY DEP ATIS C 0400Z DEP RWY 05L & 06L WIND 080/4MPS VRB BTN 040/ AND 120/ VIS 9999M CLD FEW 1200M T 28 /DP 20 QNH 1009 HPA VISUAL APPROACH IN PROGRESS ADZ YOU HAVE INFO C.",
    "ZBAA": "[Arrival ATIS] ZBAA ARR ATIS L 0600Z EXP ILS APCH INDEPENDENT PARL INSTR APCH LDG RWY 36L & 01 WIND 150 DEG 3 MPS 100V220 DEG CAVOK T 29 /DP 19 QNH 1006 HPA ADZ YOU HAVE INFO L.\n[Departure ATIS] ZBAA DEP ATIS J 0500Z DEP RWY 36L & 36R & 01 WIND 170 DEG 3 MPS 120V240 DEG CAVOK T 28 /DP 20 QNH 1007 HPA RWY INDEPENDENT PARALLEL DEP ADZ YOU HAVE INFO J.",
    "ZBHH": "[Arrival ATIS] ZBHH ARR ATIS M 0500Z EXP ILSDME APCH LDG RWY 26 TA 3000 /TRL 3600 WIND VRB/2MPS CAVOK T 26 /DP 04 QNH 1012 HPA ADZ YOU HAVE INFO M.\n[Departure ATIS] ZBHH DEP ATIS Q 1500Z DEP RWY 08 TA 3000 /TRL 3600 WIND 140/2MPS VIS 5000M BR NSC T 19 /DP 19 QNH 1007 HPA ADZ YOU HAVE INFO Q.",
    "ZSQD": "[Arrival ATIS] ZSQD ARR ATIS G 0500Z EXP ILSDME APCH LDG RWY 17 TA 3000 /TRL 3600 WIND 110/3MPS VRB BTN 030/ AND 170/ VIS 9999M CLD SCT 1500M T 30 /DP 16 QNH 1007 HPA SEGREGATED OPERATION VISUAL APPROACH OPERATION IN PROGRESS. RUNWAY 17,IF MISSED APPROACH,EXPECT FOLLOW THE STANDARD MISSED APPROACH PROCEDURE,CLIMB TO 900M ON QNH OR BY ATC CAUTION MAYBE THERE IS A FLOCK OF BIRDS IN THE VICINITY OF AIRPORT ADZ YOU HAVE INFO G.\n[Departure ATIS] ZSQD DEP ATIS B 0100Z DEP RWY 34 TA 3000 /TRL 3600 WIND VRB/1MPS VIS 9999M CLD FEW 570M T 24 /DP 19 QNH 1009 HPA SEGREGATED OPERATION VISUAL APPROACH OPERATION IN PROGRESS. RUNWAY 35,IF MISSED APPROACH,EXPECT FOLLOW THE STANDARD MISSED APPROACH PROCEDURE,CLIMB TO 1200M ON QNH OR BY ATC CAUTION MAYBE THERE IS A FLOCK OF BIRDS IN THE VICINITY OF AIRPORT ADZ YOU HAVE INFO B."
  },
  "windtemp_alaska": "\n000\nFBAK31 KWNO 210800\nFD1AK1\nDATA BASED ON 210600Z    \nVALID 211200Z   FOR USE 0800-1500Z. TEMPS NEG ABV 24000\n\nFT  3000    6000    9000   12000   18000   24000  30000  34000  39000\nADK 2825 2823+12 2725+06 2731+00 2837-10 2942-19 315233 325645 327657\nADQ 2028 2027+00 2125-04 2125-07 2632-15 2643-28 265844 275552 262648\nAKN 1737 1931+00 2026-03 2229-05 2342-15 2442-27 265245 266153 253046\nANC 1806 1510+00 1615-05 1820-09 1720-23 1628-34 211645 181842 181842\nANN 3405 1905+14 9900+08 2205+02 2016-14 2022-25 212741 202749 212755\nBET 1432 1328-01 1223-06 1425-09 2228-17 2227-31 202547 233142 231841\nBRW 1219 1210+08 1612+01 1921-04 1524-16 1430-28 144143 134652 132352\nBTI 1024 1109+12 1006+05 1406-01 1613-15 1524-26 143442 133552 161956\nBTT 1208 1517+08 1421+02 1326-03 1233-16 1132-28 133744 144353 143749\nCDB 2537 2543+09 2642+04 2644-01 2644-14 2546-25 254242 263851 283752\nCZF 1220 1225-01 1221-07 1220-11 1315-21 1613-32 202246 221539 241339\nEHM 1527 1926+03 2324+01 2326-04 2538-15 2553-28 257444 266148 263443\nFAI 2423 2021+05 1218+01 1429-05 1437-18 1344-29 135444 135751 163646\nFYU 1511 1215+13 1319+05 1322-02 1429-16 1430-28 162643 151852 153350\nGAL 2208 1105+01 0912-04 1421-09 1242-21 1259-32 128445 136446 132542\nGKN 1820 1820+03 1826-02 1727-07 1433-20 1443-33 146845 145846 173243\nHOM 1710 1813+00 1919-05 2021-09 2424-20 2739-29 287246 273648 232044\nJNU 9900 2209+10 2115+06 2019-01 1928-16 1833-27 183741 183549 193254\nLUR 1614 1317+02 1323-04 1431-09 1453-21 1465-31 138444 138049 133542\nMCG 1708 1411+00 1420-06 1525-12 1433-23 1527-34 171944 162341 181741\nMDO 2411 2413+00 2213-03 2214-08 2117-22 2020-34 272644 241643 191842\nOME 1216 1215-01 1213-07 1215-12 1418-25 1513-36 132044 152140 151439\nORT      3207+09 1611+03 1615-04 1531-17 1541-29 154842 165451 164250\nOTZ 1510 1413+01 1317-05 1427-09 1450-22 1372-32 139246 137046 143441\nSNP 3120 2928+08 2832+05 2838+00 2753-13 2864-25 298139 309846 296449\nTKA 1914 1816+01 1721-05 1625-09 1530-22 1442-33 144646 153342 161942\nUNK 1416 1319+00 1321-06 1428-12 1427-23 1425-34 142145 152441 161740\nYAK 9900 2212+05 2015+00 1826-05 1739-19 1752-29 167142 167049 174347\nIKO 2532 2535+12 2536+06 2634+00 2733-13 2934-23 314737 326847 327057\nAFM 3106 0605+03 1017-02 1327-06 1343-18 1355-30 136444 146551 144145\n5AB 2425 2429+09 2437+06 2546+02 2649-07 2745-17 294432 295043 296855\n5AC 3326 3113+12 2710+07 2412+01 2418-13 2420-25 222641 222550 212756\n5AD 2814 2714+02 2718-01 2725-05 2837-14 2946-27 294944 285154 273550\n5AE 2246 2342+03 2448+01 2450-03 2547-14 2546-25 264443 274352 283055\n5AF 2912 2611+07 2119+02 1929-03 1938-17 1951-29 186842 196748 204149\n5AG 2917 2411+03 2113-02 2115-07 1921-21 1828-34 183043 192743 192543\n",
  "vaac_tokyo": [
    {
      "id": "20260721_27307000_0016",
      "year": "2026",
      "volcano": "Taal",
      "psn": "N1400 E12100",
      "issued": "20260721",
      "text": "FVFE01 RJTD 210701\nVA ADVISORY\nDTG: 20260721/0701Z\nVAAC: TOKYO\nVOLCANO: TAAL 273070\nPSN: N1400 E12100\nAREA: PHILIPPINES\nSOURCE ELEV: 311M AMSL\nADVISORY NR: 2026/16\nINFO SOURCE: HIMAWARI-9 PHIVOLCS\nERUPTION DETAILS: ERUPTION AT 20260721/0629Z FL080 EXTD SE REPORTED\nOBS VA DTG: 21/0650Z\nOBS VA CLD: VA NOT IDENTIFIABLE FM SATELLITE DATA WIND FL080 060/3KT\nFCST VA CLD +6 HR: NOT AVBL\nFCST VA CLD +12 HR: NOT AVBL\nFCST VA CLD +18 HR: NOT AVBL\nRMK: WE WILL ISSUE FURTHER ADVISORY IF VA IS DETECTED IN SATELLITE \nIMAGERY.\nNXT ADVISORY: NO FURTHER ADVISORIES=",
      "img_url": "https://ds.data.jma.go.jp/svd/vaac/data/VAGFN/2026/Images/20260721_27307000_0016_QH21_01.png",
      "sat_img_url": null,
      "text_url": "https://ds.data.jma.go.jp/svd/vaac/data/TextData/2026/20260721_27307000_0016_Text.html"
    },
    {
      "id": "20260721_28208001_0086",
      "year": "2026",
      "volcano": null,
      "psn": "N3136 E13039",
      "issued": "20260721",
      "text": "FVFE01 RJTD 210627\nVA ADVISORY\nDTG: 20260721/0627Z\nVAAC: TOKYO\nVOLCANO: SAKURAJIMA (AIRA CALDERA) 282080\nPSN: N3136 E13039\nAREA: JAPAN\nSOURCE ELEV: 1117M AMSL\nADVISORY NR: 2026/86\nINFO SOURCE: JMA HIMAWARI-9\nERUPTION DETAILS: ERUPTED AT 20260721/0514Z FL140 STNR\nOBS VA DTG: 21/0610Z\nOBS VA CLD: SFC/FL140 N3140 E13037 - N3139 E13043 - N3131 E13043 - \nN3131 E13036 MOV S 5KT\nFCST VA CLD +6 HR: 21/1210Z SFC/FL140 N3207 E13054 - N3118 E13054 - \nN3119 E13021 - N3159 E13012\nFCST VA CLD +12 HR: 21/1810Z SFC/FL140 N3224 E13103 - N3138 E13035 - \nN3138 E12953 - N3315 E13009\nFCST VA CLD +18 HR: NO VA EXP\nRMK: NIL\nNXT ADVISORY: 20260721/1200Z=",
      "img_url": "https://ds.data.jma.go.jp/svd/vaac/data/VAGFN/2026/Images/20260721_28208001_0086_QH21_01.png",
      "sat_img_url": "https://ds.data.jma.go.jp/svd/vaac/data/Sat/2026/Images/28208001/09-ir/20260721_0610_202607210627_ir.png",
      "text_url": "https://ds.data.jma.go.jp/svd/vaac/data/TextData/2026/20260721_28208001_0086_Text.html"
    },
    {
      "id": "20260720_30027000_0272",
      "year": "2026",
      "volcano": "Sheveluch",
      "psn": "N5639 E16122",
      "issued": "20260720",
      "text": "FVFE01 RJTD 201500\nVA ADVISORY\nDTG: 20260720/1500Z\nVAAC: TOKYO\nVOLCANO: SHEVELUCH 300270\nPSN: N5639 E16122\nAREA: RUSSIA\nSOURCE ELEV: 3283M AMSL\nADVISORY NR: 2026/272\nINFO SOURCE: HIMAWARI-9\nERUPTION DETAILS: VA CONTINUOUSLY OBS IN SATELLITE IMAGERY\nOBS VA DTG: 20/1420Z\nOBS VA CLD: SFC/FL390 N5626 E16711 - N5644 E16801 - N5334 E17100 - \nN5320 E17046 - N5455 E16741 MOV SE 80KT\nFCST VA CLD +6 HR: 20/2020Z SFC/FL400 N5451 E17745 - N5237 E17715 - \nN5013 E17845 - N5030 E17644 - N5236 E17455 - N5459 E17606\nFCST VA CLD +12 HR: 21/0220Z SFC/FL400 N5255 W17530 - N4753 W17642 - \nN4554 W17523 - N4517 W17545 - N4651 W17824 - N5004 W17948\nFCST VA CLD +18 HR: 21/0820Z SFC/FL400 N5101 W17024 - N4432 W17322 - \nN4036 W16942 - N4024 W17143 - N4405 W17542 - N4722 W17530\nRMK: SOME PART OF VA OBSCURED BY MET CLOUD. THE RESPONSIBILITY FOR \nTHIS ASH EVENT IS BEING TRANSFERRED TO VAAC ANCHORAGE. THE NEXT \nADVISORY WILL BE ISSUED BY VAAC ANCHORAGE BY 1800UTC UNDER HEADER \nFVAK21 PAWU.\nNXT ADVISORY: NO FURTHER ADVISORIES=",
      "img_url": "https://ds.data.jma.go.jp/svd/vaac/data/VAGFN/2026/Images/20260720_30027000_0272_QH21_01.png",
      "sat_img_url": "https://ds.data.jma.go.jp/svd/vaac/data/Sat/2026/Images/30027000/09-ir/20260720_1420_202607201500_ir.png",
      "text_url": "https://ds.data.jma.go.jp/svd/vaac/data/TextData/2026/20260720_30027000_0272_Text.html"
    },
    {
      "id": "20260719_27303000_0769",
      "year": "2026",
      "volcano": "Mayon",
      "psn": "N1315 E12341",
      "issued": "20260719",
      "text": "FVFE01 RJTD 192213\nVA ADVISORY\nDTG: 20260719/2213Z\nVAAC: TOKYO\nVOLCANO: MAYON 273030\nPSN: N1315 E12341\nAREA: PHILIPPINES\nSOURCE ELEV: 2462M AMSL\nADVISORY NR: 2026/769\nINFO SOURCE: HIMAWARI-9 PHIVOLCS\nERUPTION DETAILS: ERUPTION AT 20260719/2148Z FL080 EXTD W REPORTED\nOBS VA DTG: 19/2200Z\nOBS VA CLD: VA NOT IDENTIFIABLE FM SATELLITE DATA WIND FL080 010/2KT\nFCST VA CLD +6 HR: NOT AVBL\nFCST VA CLD +12 HR: NOT AVBL\nFCST VA CLD +18 HR: NOT AVBL\nRMK: WE WILL ISSUE FURTHER ADVISORY IF VA IS DETECTED IN SATELLITE \nIMAGERY.\nNXT ADVISORY: NO FURTHER ADVISORIES=",
      "img_url": "https://ds.data.jma.go.jp/svd/vaac/data/VAGFN/2026/Images/20260719_27303000_0769_QH21_01.png",
      "sat_img_url": null,
      "text_url": "https://ds.data.jma.go.jp/svd/vaac/data/TextData/2026/20260719_27303000_0769_Text.html"
    }
  ],
  "vaac_alaska": [
    {
      "text": "\n000\nFVAK21 PAWU 210244\nVAAAK1\nVA ADVISORY\n\nDTG: 20260721/0242Z\n\nVAAC: ANCHORAGE\n\nVOLCANO: SHEVELUCH 300270\n\nPSN: N5639 E16122\n\nAREA: KAMCHATKA PENINSULA\n\nSOURCE ELEV: 10771 FT AMSL\n\nADVISORY NR: 2026/212\n\nINFO SOURCE: HIMAWARI\n\nERUPTION DETAILS: NIL\n\nOBS VA DTG: 21/0242Z\n\nOBS VA CLD: VA NOT IDENTIFIABLE FROM SATELLITE DATA\n\nFCST VA CLD +6HR: NO VA EXP\n\nFCST VA CLD +12HR: NO VA EXP\n\nFCST VA CLD +18HR: NO VA EXP\n\nRMK: NIL...BH\n\nNXT ADVISORY: NO FURTHER ADVISORIES=\n\n",
      "issued": "2026-07-21T02:44:00+00:00",
      "volcano": "Sheveluch",
      "psn": "N5639 E16122"
    }
  ]
}