{
  "updated_utc": "2026-07-15T11:18Z",
  "metar": {
    "RJAA": "METAR RJAA 150930Z 15012KT 8000 FEW015 BKN/// 28/25 Q1001 NOSIG",
    "PANC": "METAR PANC 150953Z 15012G26KT 10SM FEW005 OVC050 12/08 A2984 RMK AO2 PK WND 16029/0938 RAE02 SLP106 P0000 T01170078 $",
    "PAFA": "METAR PAFA 150953Z 04003KT 10SM FEW055 SCT070 BKN085 14/08 A2968 RMK AO2 SLP055 T01390078",
    "PAED": "METAR PAED 150955Z 00000KT 10SM -RA OVC060 11/09 A2983 RMK AO2A SLP098 P0000 T01070093 $",
    "KSEA": "METAR KSEA 150953Z 00000KT 10SM BKN250 16/09 A3008 RMK AO2 SLP190 T01560089 $",
    "ZSPD": "METAR ZSPD 150930Z 17005MPS 9999 SCT026 36/26 Q1002 NOSIG",
    "ZSSS": "METAR ZSSS 150930Z VRB03MPS CAVOK 38/24 Q1002 NOSIG",
    "RJFR": "METAR RJFR 151000Z 23012KT 9999 FEW030 SCT060 BKN/// 31/25 Q1002",
    "VHHH": "METAR VHHH 150930Z 23008KT 5000 +SHRA FEW005 SCT020 25/24 Q1006 TEMPO 26015G25KT 1500 TSRA +SHRA FEW008CB SCT015",
    "RCTP": "METAR RCTP 150930Z 24017KT 9999 FEW015 FEW020TCU SCT060 32/25 Q1007 NOSIG RMK TCU SE A2976",
    "ZGSZ": "METAR ZGSZ 151000Z 15006MPS 8000 -SHRA SCT009 BKN033 26/25 Q1005 RESHRA NOSIG",
    "WSSS": "METAR WSSS 150930Z 11010KT 9999 TS FEW015 FEW017CB FEW018TCU SCT050 31/25 Q1009 BECMG FM1015 TL1030 NSW",
    "WMKK": "METAR WMKK 150930Z VRB05KT 9999 FEW018 33/25 Q1008 NOSIG",
    "WIDD": "METAR WIDD 150930Z 14007KT 9999 FEW014 31/26 Q1009 NOSIG",
    "VTBS": "METAR VTBS 150930Z 18017KT 9999 FEW020 SCT030 32/24 Q1007 NOSIG",
    "VTBU": "METAR VTBU 150930Z 22009KT 9999 FEW020 30/27 Q1009 NOSIG",
    "ROAH": "METAR ROAH 150930Z 21009KT 9999 FEW007 BKN015 BKN/// 28/27 Q1009",
    "VVDN": "METAR VVDN 150930Z 34004KT 9999 FEW020 SCT080 32/24 Q1004 NOSIG",
    "RCKH": "METAR RCKH 150930Z 08006KT 9999 FEW015 SCT040 BKN220 29/25 Q1009 NOSIG RMK A2982",
    "KLAX": "METAR KLAX 150953Z 00000KT 10SM FEW250 20/18 A2989 RMK AO2 SLP118 T02000178 $",
    "KONT": "METAR KONT 150953Z 00000KT 10SM CLR 23/13 A2990 RMK AO2 SLP105 T02330133 $",
    "KSFO": "METAR KSFO 150956Z 30009KT 10SM CLR 16/11 A2993 RMK AO2 SLP136 T01610111",
    "KOAK": "METAR KOAK 150953Z 28006KT 10SM CLR 17/13 A2994 RMK AO2 SLP137 T01670133",
    "KMHR": "METAR KMHR 150935Z AUTO 15005KT 10SM CLR 21/09 A2987 RMK AO2 T02090090 $",
    "KDFW": "METAR KDFW 150953Z 18004KT 10SM BKN023 BKN250 23/19 A3008 RMK AO2 SLP177 T02330189 $",
    "KIAH": "METAR KIAH 150953Z 11006KT 10SM FEW110 OVC150 24/23 A3006 RMK AO2 SLP180 T02390233 $",
    "KORD": "METAR KORD 150951Z 25004KT 10SM FEW250 25/23 A3010 RMK AO2 SLP186 T02500228 $",
    "KJFK": "METAR KJFK 150951Z 23010KT 10SM FEW250 24/21 A2987 RMK AO2 SLP116 T02390211",
    "KRFD": "METAR KRFD 150954Z 00000KT 7SM FEW250 21/21 A3013 RMK AO2 SLP197 T02110206",
    "KIND": "METAR KIND 150954Z 01003KT 10SM FEW045 23/19 A3012 RMK AO2 SLP192 T02330194 $",
    "KDTW": "METAR KDTW 150953Z 26004KT 7SM SCT060 BKN120 OVC230 24/20 A3005 RMK AO2 SLP169 T02390200 $",
    "KMSP": "METAR KMSP 150953Z 23003KT 8SM CLR 25/23 A3013 RMK AO2 SLP196 T02500228",
    "CYEG": "METAR CYEG 151000Z 03009KT 20SM FEW020CB BKN027 17/15 A3014 RMK CB1SC5 CB TR CB N MOV NE FRQ LTNG DIST NE SLP206 DENSITY ALT 3000FT",
    "EHAM": "METAR EHAM 150925Z 05011KT 020V090 CAVOK 24/14 Q1022 NOSIG",
    "EBBR": "METAR EBBR 150920Z 06007KT 020V100 9999 FEW044 26/15 Q1021 NOSIG",
    "EDDF": "METAR EDDF 150920Z AUTO 05010KT 030V090 CAVOK 26/15 Q1019 NOSIG",
    "EDFH": "METAR EDFH 150920Z 07005KT 360V140 CAVOK 22/15 Q1021",
    "EDDL": "METAR EDDL 150920Z AUTO 06013KT CAVOK 26/11 Q1021 NOSIG",
    "EDDK": "METAR EDDK 150920Z AUTO 06009KT 030V090 CAVOK 27/13 Q1020 NOSIG",
    "EBLG": "METAR EBLG 150920Z 04014KT CAVOK 25/14 Q1021 NOSIG",
    "LSZH": "METAR LSZH 150920Z VRB02KT 9999 FEW075 27/18 Q1019 NOSIG",
    "LIMC": "METAR LIMC 150920Z 18003KT 130V240 CAVOK 31/18 Q1017 NOSIG",
    "LIRF": "METAR LIRF 150920Z 18006KT 150V240 9999 FEW010 31/23 Q1017 NOSIG",
    "EINN": "METAR EINN 150930Z 13006KT CAVOK 23/15 Q1023 NOSIG",
    "EGLL": "METAR EGLL 150920Z AUTO 05009KT 360V080 9999 BKN026 23/15 Q1024",
    "EGSS": "METAR EGSS 150920Z AUTO 02011KT 9999 BKN018 BKN022 22/15 Q1025",
    "EPWA": "METAR EPWA 150930Z 09004KT 040V180 9999 FEW038 25/15 Q1020 NOSIG",
    "UHPP": "METAR UHPP 151000Z VRB01MPS CAVOK 21/14 Q1012 R34L/CLRD62 NOSIG RMK QFE756/1008",
    "EFHK": "METAR EFHK 150920Z 33009KT 9999 FEW035 23/14 Q1019 NOSIG",
    "LBBG": "METAR LBBG 150930Z 14007KT 110V190 9999 SCT042 30/18 Q1016 NOSIG",
    "LTAC": "METAR LTAC 150920Z 29005KT 9999 FEW040 25/08 Q1017 NOSIG RMK RWY21C 03007KT 310V120 RWY03L VRB05KT RWY21R 33007KT 280V010 RWY03R 36005KT 280V070 RWY21L 04006G16KT 320V100",
    "UBBB": "METAR UBBB 150930Z 34028KT CAVOK 31/21 Q1007 NOSIG",
    "UTAA": "METAR UTAA 151000Z 08008KT 010V150 9999 NSC 43/05 Q1005 R88/CLRD70 NOSIG",
    "UACC": "METAR UACC 150930Z 27008MPS 250V310 9999 FEW030 33/13 Q1004 NOSIG RMK QFE722/0963",
    "UAAA": "METAR UAAA 150930Z 03004MPS 350V070 9999 FEW050TCU SCT200 36/06 Q1008 NOSIG",
    "UZTT": "METAR UZTT 150930Z 35006KT CAVOK 39/09 Q1006 NOSIG",
    "ZWWW": "METAR ZWWW 150930Z 33004MPS 300V360 CAVOK 31/13 Q1009 NOSIG",
    "ZLXY": "METAR ZLXY 151000Z 02003MPS 9999 FEW050 32/21 Q1003 NOSIG",
    "ZBAA": "METAR ZBAA 150930Z 19006MPS CAVOK 36/22 Q0998 NOSIG",
    "ZBHH": "METAR ZBHH 151000Z 20003MPS 160V240 CAVOK 30/18 Q1007 NOSIG",
    "ZSQD": "METAR ZSQD 151000Z 19002MPS 140V210 9999 BKN050 26/20 Q1002 NOSIG",
    "ZMCK": "METAR ZMCK 150930Z 30006MPS 270V330 9999 FEW030CB FEW033 28/08 Q1007 NOSIG RMK QFE641.0 28 MOP",
    "UUEE": "METAR UUEE 150930Z 32004G10MPS 9999 BKN016 19/15 Q1013 R24L/CLRD62 R24C/CLRD62 NOSIG",
    "UUDD": "METAR UUDD 150930Z 34007MPS 9999 SCT026 22/15 Q1012 R31L/CLRD65 NOSIG",
    "ULLI": "METAR ULLI 150930Z 30005MPS 280V340 CAVOK 22/15 Q1016 R88/090065 NOSIG",
    "USSS": "METAR USSS 150930Z 12006MPS 9999 BKN020CB 21/19 Q1003 R08R/CLRD60 R08L/11//60 TEMPO VRB23MPS -TSRA SQ RMK QFE732/0976",
    "UNNT": "METAR UNNT 150930Z 04002MPS CAVOK 26/10 Q1010 R07/CLRD// R34/CLRD// NOSIG RMK QFE748/0997",
    "UNKL": "METAR UNKL 150930Z 30007MPS CAVOK 23/11 Q1009 R29/150060 NOSIG RMK QFE731",
    "UIBB": "METAR UIBB 150930Z 28006MPS 240V330 9999 SCT040CB 20/11 Q1005 R30/CLRD62 NOSIG RMK QFE711/0948",
    "UEEE": "METAR UEEE 150930Z 10003MPS 9999 SCT025CB 23/19 Q0997 R23/09//65 NOSIG RMK QFE739",
    "UHHH": "METAR UHHH 150930Z 35002MPS 300V030 9999 FEW022CB 24/20 Q0991 R88/090060 NOSIG RMK QFE737/0983",
    "UHSS": "METAR UHSS 150930Z 24003MPS 9000 BKN019CB 21/21 Q0998 R19/290060 NOSIG RMK MT OBSC QFE747/0996"
  },
  "taf": {
    "RJAA": "TAF RJAA 150505Z 1506/1612 17010KT 9999 FEW030 BECMG 1521/1600 28004KT BECMG 1600/1603 12010KT",
    "PANC": "TAF PANC 150527Z 1506/1612 VRB05KT 5SM -RA BR SCT020 OVC060 WS015/13030KT TEMPO 1506/1510 4SM -RA BR SCT020 OVC060 FM151000 18018G28KT P6SM -RA BKN025 BKN040 OVC560 FM152200 18012G20KT P6SM VCSH SCT030 OVC050 FM160100 18012KT P6SM BKN050 OVC070 FM160900 16011KT P6SM BKN080",
    "PAFA": "TAF PAFA 150534Z 1506/1612 30004KT P6SM VCSH SCT070 BKN090 FM151500 17004KT P6SM -SHRA OVC035 FM160000 24008KT P6SM -RA OVC025",
    "PAED": "TAF AMD PAED 150655Z 1506/1611 31009KT 9000 -RA SCT020 BKN040 OVC060 620703 550406 QNH2979INS TEMPO 1507/1512 8000 BR BKN004 BECMG 1518/1519 21012G18KT 9999 -SHRA SCT030 BKN060 620604 510003 QNH2985INS BECMG 1602/1603 22009KT 9999 NSW SCT035 BKN065 620654 QNH2991INS TX15/1603Z TN10/1512Z",
    "KSEA": "TAF KSEA 150850Z 1509/1612 VRB03KT P6SM SCT250 FM151200 20004KT P6SM SCT250 FM151500 29004KT P6SM FEW250 FM152100 32007KT P6SM SKC FM160000 34008KT P6SM SKC",
    "ZSPD": "TAF ZSPD 150907Z 1512/1618 18004MPS 8000 SCT030 TX36/1512Z TX37/1606Z TN28/1521Z TEMPO 1606/1610 TSRA BKN008 SCT030CB",
    "ZSSS": "TAF ZSSS 150907Z 1512/1618 18004MPS 8000 SCT030 TX37/1512Z TX37/1606Z TN29/1521Z TEMPO 1606/1610 TSRA BKN011 SCT030CB",
    "RJFR": "TAF RJFR 150505Z 1506/1612 22014KT 9999 FEW025 BKN040 BECMG 1514/1516 28004KT",
    "VHHH": "TAF VHHH 151100Z 1512/1618 20010KT 9999 FEW010 SCT030 TX31/1606Z TN27/1522Z TEMPO 1512/1515 08010KT TEMPO 1521/1603 24015G25KT 2000 TSRA +SHRA FEW008CB SCT015 TEMPO 1603/1606 3000 SHRA FEW010CB SCT020",
    "RCTP": "TAF RCTP 151100Z 1512/1618 24010KT 9999 FEW010 BKN032 TEMPO 1512/1518 18005KT TEMPO 1518/1524 15005KT TEMPO 1604/1610 28017KT FEW010 BKN020 FEW025TCU",
    "ZGSZ": "TAF ZGSZ 150906Z 1512/1618 18004MPS 8000 BKN040 TX25/1512Z TX31/1606Z TN24/1522Z TEMPO 1518/1521 SHRA FEW025CB BKN033 TEMPO 1521/1601 2000 +SHRA SCT012 FEW025CB BKN033 TEMPO 1603/1606 TSRA SCT012 FEW025CB BKN033",
    "WSSS": "TAF WSSS 150500Z 1506/1612 15007KT 9999 FEW015 SCT020",
    "WMKK": "TAF WMKK 150500Z 1506/1612 12005KT 9999 FEW018",
    "VTBS": "TAF VTBS 150500Z 1506/1612 22010KT 9999 FEW020 TEMPO 1509/1514 VRB15KT 4000 TSRA FEW018CB SCT020 BKN080",
    "VTBU": "TAF VTBU 150500Z 1506/1606 24010KT 9999 FEW020",
    "ROAH": "TAF AMD ROAH 150702Z 1507/1612 22010KT 9999 FEW008 BKN012 TEMPO 1507/1603 FEW004 BKN006",
    "VVDN": "TAF VVDN 150500Z 1506/1606 20010KT 9999 FEW020 BECMG 1506/1507 05010KT BECMG 1512/1513 20006KT",
    "RCKH": "TAF RCKH 151100Z 1512/1618 15005KT 9999 FEW010 BKN032 TEMPO 1512/1518 08005KT TEMPO 1518/1524 05005KT TEMPO 1604/1610 22010KT 4000 SHRA FEW010 BKN020 TEMPO 1612/1618 08005KT",
    "KLAX": "TAF KLAX 151022Z 1510/1612 VRB03KT P6SM SKC FM151600 24006KT P6SM SKC FM152000 26012KT P6SM SKC FM160300 26006KT P6SM SKC FM161000 VRB03KT P6SM SKC",
    "KONT": "TAF KONT 150520Z 1506/1612 VRB04KT P6SM SKC FM152000 25012G22KT P6SM FEW120 FM160500 VRB04KT P6SM SCT120",
    "KSFO": "TAF KSFO 150859Z 1509/1612 28008KT P6SM SKC FM151800 28015G25KT P6SM SKC",
    "KOAK": "TAF KOAK 150520Z 1506/1612 24007KT P6SM SKC FM152100 28013KT P6SM SKC FM160400 28010KT P6SM FEW009 FM161100 27008KT P6SM BKN009",
    "KMHR": "TAF KMHR 150520Z 1506/1606 20006KT P6SM SKC FM152100 24008G15KT P6SM SKC FM160000 23012G20KT P6SM SKC FM160500 17006KT P6SM SKC",
    "KDFW": "TAF KDFW 150932Z 1510/1612 18003KT P6SM FEW025 SCT040 TEMPO 1510/1513 BKN015 FM151800 20007KT P6SM VCSH FEW090 FM160000 18004KT P6SM FEW200",
    "KIAH": "TAF KIAH 150839Z 1509/1612 VRB04KT P6SM SCT015 BKN150 FM151000 VRB03KT P6SM VCSH BKN035 FM151500 13006KT P6SM VCSH SCT030 BKN040 FM151700 14007KT 6SM SHRA SCT030 BKN050 PROB30 1517/1522 4SM TSRA BKN035CB FM152200 13007KT P6SM SCT035 BKN050 FM160200 VRB04KT P6SM OVC150",
    "KORD": "TAF KORD 150859Z 1509/1612 25005KT P6SM SKC FM152000 09006KT P6SM FEW050 FEW250 FM161000 04005KT 5SM FU FEW050 SCT250",
    "KJFK": "TAF KJFK 150830Z 1509/1612 25012KT P6SM SCT250 FM151600 26015G23KT 6SM HZ BKN250 FM152000 27018G27KT 6SM FU BKN250 TEMPO 1520/1524 5SM FU FM160000 32013KT 6SM FU BKN250 TEMPO 1600/1604 5SM FU FM160400 31007KT 6SM HZ BKN250",
    "KRFD": "TAF KRFD 150859Z 1509/1606 26005KT P6SM SKC FM160500 11005KT 6SM FU FEW050 SCT250",
    "KIND": "TAF KIND 150533Z 1506/1612 VRB03KT P6SM FEW250 FM151600 26005KT P6SM FEW050 SCT250",
    "KDTW": "TAF KDTW 150828Z 1508/1612 26006KT P6SM SCT250 FM151600 29008KT P6SM SCT250 FM152200 33006KT 6SM FU FEW060 BKN200 PROB30 1523/1602 4SM -TSRA BKN060CB BKN150 FM160200 05005KT 4SM FU BKN200",
    "KMSP": "TAF KMSP 150857Z 1509/1612 24003KT P6SM SKC FM151300 VRB03KT P6SM SKC FM152200 VRB03KT 5SM FU SCT150 FM160500 09005KT 6SM FU FEW250",
    "CYEG": "TAF CYEG 150840Z 1509/1606 10006KT P6SM SCT030 TEMPO 1509/1510 P6SM VCTS SCT030CB BKN120 FM151200 VRB03KT P6SM SCT025 FM151700 19006KT P6SM FEW030 FM152200 16008G18KT P6SM FEW040 SCT220 PROB30 1601/1605 VRB20G30KT 3SM TSRA OVC050CB FM160500 26008KT P6SM FEW030 SCT100 RMK NXT FCST BY 151200Z",
    "EHAM": "TAF EHAM 150455Z 1506/1612 04009KT CAVOK BECMG 1509/1512 05015KT BECMG 1520/1523 04008KT BECMG 1609/1612 03014KT",
    "EBBR": "TAF EBBR 150509Z 1506/1612 04007KT CAVOK",
    "EDDF": "TAF EDDF 150500Z 1506/1612 04010KT CAVOK PROB30 TEMPO 1513/1517 04015G30KT TSRA SCT045CB BECMG 1518/1521 05005KT",
    "EDFH": "TAF EDFH 150500Z 1506/1606 06008KT CAVOK PROB30 TEMPO 1513/1517 07015G30KT TSRA BKN050CB BECMG 1523/1602 12005KT",
    "EDDL": "TAF EDDL 150500Z 1506/1612 04007KT CAVOK BECMG 1507/1510 04012KT BECMG 1518/1521 03006KT",
    "EDDK": "TAF EDDK 150500Z 1506/1612 VRB03KT CAVOK BECMG 1508/1511 04008KT BECMG 1520/1523 VRB03KT BECMG 1610/1612 05005KT",
    "EBLG": "TAF EBLG 150509Z 1506/1612 04007KT CAVOK",
    "LSZH": "TAF LSZH 150825Z 1509/1615 06005KT CAVOK TX29/1513Z TN17/1604Z TX30/1615Z BECMG 1510/1512 VRB02KT 9999 FEW070 TEMPO 1511/1516 21015G25KT TEMPO 1512/1516 TSRA SCT060CB PROB40 TEMPO 1512/1516 24020G40KT 4000 TSGR PROB40 TEMPO 1516/1522 SHRA FEW060TCU PROB40 TEMPO 1522/1602 TSRA SCT060CB BECMG 1602/1604 CAVOK PROB30 1603/1605 2000 BCFG NSC BECMG 1611/1614 9999 FEW060",
    "LIMC": "TAF LIMC 150500Z 1506/1612 VRB05KT 9999 FEW060 TEMPO 1512/1524 4000 TSRA",
    "LIRF": "TAF LIRF 150500Z 1506/1612 10006KT CAVOK BECMG 1509/1511 22010KT BECMG 1518/1520 VRB05KT TEMPO 1600/1605 4000 BCFG BECMG 1609/1611 24012KT",
    "EINN": "TAF EINN 151100Z 1512/1612 12008KT CAVOK",
    "EGLL": "TAF EGLL 151103Z 1512/1618 09012KT 9999 FEW030 BECMG 1520/1523 03008KT TEMPO 1603/1608 BKN012 PROB30 TEMPO 1603/1607 BKN009 BECMG 1609/1612 09010KT",
    "EGSS": "TAF EGSS 151056Z 1512/1618 06009KT 9999 FEW040 TEMPO 1523/1607 BKN008",
    "EPWA": "TAF EPWA 150830Z 1509/1609 02008KT CAVOK ",
    "UHPP": "TAF UHPP 150730Z 1509/1615 16003G12MPS 9999 BKN040CB",
    "EFHK": "TAF EFHK 150831Z 1509/1609 33009KT CAVOK",
    "LBBG": "TAF LBBG 151100Z 1512/1612 12012KT 9999 SCT045 BECMG 1517/1519 VRB04KT BECMG 1609/1611 12012KT",
    "LTAC": "TAF LTAC 151040Z 1512/1612 04012KT 9999 SCT040 BECMG 1515/1518 CAVOK BECMG 1518/1520 VRB02KT BECMG 1606/1609 01012KT SCT040",
    "UBBB": "TAF UBBB 151054Z 1512/1612 33022G32KT 9999 SCT015 TX31/1512Z TN23/1601Z TEMPO 1512/1520 35028G38KT TEMPO 1520/1608 SCT010 FEW050CB BECMG 1608/1610 35018G28KT",
    "UTAA": "TAF UTAA 151045Z 1512/1612 15014KT 6000 SCT050 TX42/1611Z TEMPO 1512/1516 09014KT TEMPO 1516/1522 23012KT BECMG 1522/1524 33016KT TEMPO 1600/1608 29014G24KT 3000 DRDU",
    "UACC": "TAF AMD UACC 150810Z 1508/1606 27005MPS 9999 SCT030 BKN100 TX35/1509Z TN22/1523Z TEMPO 1508/1516 30012MPS BKN030CB PROB40 TEMPO 1508/1516 -TSRA BKN020CB BECMG 1516/1518 VRB01MPS TEMPO 1516/1603 18005MPS 3100 -TSRA BKN030CB TEMPO 1603/1606 22007MPS BKN030CB",
    "UAAA": "TAF UAAA 150503Z 1506/1606 34003MPS 9999 FEW050CB SCT100 TX37/1510Z TN20/1601Z TEMPO 1506/1512 04003G08MPS BECMG 1512/1514 16003MPS BECMG 1603/1604 34003MPS",
    "UZTT": "TAF UZTT 151100Z 1512/1612 09010KT 7000 NSC TX41/1511Z TN25/1600Z TEMPO 1512/1518 30010G20KT",
    "ZWWW": "TAF ZWWW 150903Z 1512/1618 34004MPS CAVOK TX38/1609Z TN26/1523Z TN30/1618Z BECMG 1514/1515 20004MPS BECMG 1602/1603 36004MPS BECMG 1614/1615 18004MPS",
    "ZLXY": "TAF ZLXY 150901Z 1512/1612 06003MPS 6000 NSC TX33/1607Z TN26/1521Z TEMPO 1609/1611 33008G15MPS TSRA FEW030CB OVC050 BECMG 1610/1611 33008G15MPS TSRA FEW030CB OVC050",
    "ZBAA": "TAF ZBAA 150902Z 1512/1618 18004MPS CAVOK TX33/1606Z TN24/1521Z TN25/1618Z",
    "ZBHH": "TAF ZBHH 150904Z 1512/1612 04004MPS 9999 FEW040 TX30/1608Z TN16/1522Z TEMPO 1609/1612 -TSRA FEW040CB FEW040",
    "ZSQD": "TAF AMD ZSQD 151025Z 1506/1606 20003MPS 6000 NSC TX32/1606Z TN21/1520Z TEMPO 1510/1511 +SHRA TEMPO 1512/1516 2500 +TSRA BKN020 SCT030CB BECMG 1517/1518 2000 BR BECMG 1600/1601 36005MPS 5000",
    "ZMCK": "TAF ZMCK 151049Z 1512/1618 VRB02MPS 9999 FEW030CB BKN033 TN14/1521Z TX23/1607Z PROB40 TEMPO 1515/1608 VRB08MPS 6000 TSRA SCT027CB BKN030 BECMG 1602/1604 32006MPS BECMG 1610/1612 VRB02MPS",
    "UUEE": "TAF UUEE 150751Z 1509/1609 33005MPS 9999 BKN016 TX24/1512Z TN15/1601Z TEMPO 1509/1517 35008G15MPS TEMPO 1606/1609 35009G15MPS",
    "UUDD": "TAF UUDD 150754Z 1509/1615 33006MPS 9999 BKN016 TX24/1512Z TN15/1601Z TEMPO 1509/1518 35008G15MPS PROB40 TEMPO 1512/1517 -TSRA BKN020CB TEMPO 1605/1615 36010G16MPS",
    "ULLI": "TAF ULLI 150754Z 1509/1609 32005G10MPS 9999 SCT030 BECMG 1520/1522 02003G08MPS",
    "USSS": "TAF USSS 150751Z 1509/1609 15003G14MPS 6000 -SHRA BKN016CB TEMPO 1509/1603 VRB21MPS -TSRAGR SQ FM160300 26003G13MPS 9999 SCT016CB TEMPO 1603/1609 -TSRA",
    "UNNT": "TAF UNNT 150800Z 1509/1609 17003G08MPS 9999 SCT040 TX28/1608Z TN15/1523Z TEMPO 1600/1609 11005G10MPS",
    "UNKL": "TAF UNKL 150753Z 1509/1609 29007G15MPS 9999 SCT040 BECMG 1510/1512 23003G08MPS",
    "UIBB": "TAF UIBB 150800Z 1509/1609 28006G14MPS 9999 -SHRA BKN016CB TEMPO 1509/1515 VRB12MPS 1900 TSRA VV003",
    "UEEE": "TAF UEEE 150800Z 1509/1615 08003MPS 9999 BKN020CB OVC100 TEMPO 1509/1515 VRB10MPS 3200 -TSRA TEMPO 1515/1523 0500 TSRA FG VV003",
    "UHHH": "TAF UHHH 150747Z 1509/1615 01003G08MPS 9999 SCT020CB TX26/1606Z TN19/1515Z TEMPO 1509/1524 0700 -TSRA FG FEW003 SCT016CB FM160000 24005G12MPS 9999 SCT020CB",
    "UHSS": "TAF UHSS 150750Z 1509/1615 23003MPS 6000 -SHRA BKN007 BKN015CB TEMPO 1509/1523 BKN002 BKN012CB BECMG 1523/1601 24005G10MPS FM160600 19003MPS 9999 SCT040"
  },
  "atis": {
    "RJAA": "[Arrival ATIS] RJAA ARR ATIS Z 0612Z M0600 (APCH)ILS RWY34L/ILS Z RWY34R LDG RWY 34L/34R DEP RWY 34L DEP FREQ 124.2. TWY A1 CLSD. SIMUL PARL APCHS INPR. OBSERVE GEAR DOWN OPS PROC ON FNL. M 220600Z 08007KT 030V110 35KM FEW020CU BKN025CU BKN170AC 21/17 Q1002/A2960= Q/TWO NINE SIX ZERO STP\n[Departure ATIS] RJAA DEP ATIS Z 0610Z M0600 (APCH)ILS RWY34L/ILS Z RWY34R LDG RWY 34L/34R DEP RWY 34L DEP FREQ 124.2. TWY A1 CLSD. SIMUL PARL APCHS INPR. OBSERVE GEAR DOWN OPS PROC ON FNL. M 220600Z 08007KT 030V110 35KM FEW020CU BKN025CU BKN170AC 21/17 Q1002/A2960= Q/TWO NINE SIX ZERO STP",
    "PANC": "[Arrival ATIS] PANC ARR ATIS J 0553Z - PANC ATIS INFO J 0553Z. 18008G15KT 10SM FEW060 SCT075 15/08 A3008 (THREE ZERO ZERO EIGHT). ILS RWY 15 APPROACHES IN USE. LANDING RWY 15, DEPARTING RWY 25L. NOTICE TO AIRMEN. RWY 25R CLSD. CHECK NOTAMS FOR TAXIWAY CLOSURES. CONTACT TOWER 118.3 FOR TAXI. ...ADVS YOU HAVE INFO J.\n[Departure ATIS] PANC DEP ATIS I 0353Z ANC ATIS INFO I 0353Z. 14016G33KT 10SM OVC055 14/08 A3007 (THREE ZERO ZERO SEVEN). ILS RWY 15 APPROACHES IN USE. LANDING RWY 15, DEPARTING RWY 25L. NOTICE TO AIRMEN. TWY Q",
    "KSEA": "[Arrival ATIS] KSEA ARR ATIS L 0553Z SEA ATIS INFO L 0553Z. 35005KT 10SM CLR 18/10 A3003 (THREE ZERO ZERO THREE). ILS AND CHARTED VISUAL APPROACH RWYS 34L AND 34R , APCH IN USE. DEPG RWY 34R, DEPG ACFT PLAN AND BRIEF NUMBERS FOR BOTH RWYS 34R AND 34C. SIMUL ARRIVALS TO RWY 34L AND DEPARTURES TO RWY 34R ARE IN USE. SIMUL APCHS IN USE TO PARA RYS. NOTAMS... BIRD ACTIVITY VICINITY ARPT. APCH AND DEP PATHS ARE OVER NOISE SENSITIVE AREAS. ...ADVS YOU HAVE INFO L.\n[Departure ATIS] KSEA DEP ATIS A 0653Z SEA ATIS INFO A 0653Z. 00000KT 10SM SCT250 19/07 A3008 (THREE ZERO ZERO EIGHT). ILS AND CHARTED VISUAL APPROACH RWY 34C , APCH IN USE. DEPG RWY 34R. NOTAMS... RY 34L CLSD. TWY N CLSD BTN RWY, 34L AND TWY T. BIRD ACTIVITY VICINITY ARPT. APCH AND DEP PATHS ARE OVER NOISE SENSITIVE AREAS. ...ADVS YOU HAVE INFO A.",
    "ZSPD": "[Arrival ATIS] ZSPD ARR ATIS V 0600Z EXP ILS APCH INDEPENDENT PARL INSTR APCH LDG RWY 17R & 16L WIND RWY 17R TDZ 080/6MPS MID 070/7MPS END 090/10MPS RWY 16L TDZ 100/9MPS MID 090/10MPS END 100/9MPS VIS RWY 17R TDZ 10000M MID 10000M END 10000M VIS RWY 16L TDZ 10000M MID 10000M END 10000M FBL SHRA BR CLD BKN 120M T 23 /DP 23 QNH 1003 HPA SUPPLEMENT INFO RESHRA CAUTION THE BIRDS NEAR THE RUNWAY RWY 17L/17R/16L/16R RWYCC 5/5/5 ISSUED AT 0300 WET/WET/WET DPT NR/NR/NR COV 100PCT/100PCT/100PCT ADZ YOU HAVE INFO V.\n[Departure ATIS] ZSPD DEP ATIS V 0600Z DEP RWY 17L & 16R WIND RWY 17L TDZ 070/6MPS VRB BTN 040/ AND 100/ MID 070/7MPS END 100/10MPS RWY 16R TDZ 100/8MPS MID 100/10MPS END 100/9MPS VIS RWY 17L TDZ 10000M MID 10000M END 10000M VIS RWY 16R TDZ 10000M MID 8000M END 10000M FBL SHRA BR CLD BKN 120M T 23 /DP 23 QNH 1003 HPA SUPPLEMENT INFO RESHRA CAUTION THE BIRDS NEAR THE RUNWAY RWY 17L/17R/16L/16R RWYCC 5/5/5 ISSUED AT 0300 WET/WET/WET DPT NR/NR/NR COV 100PCT/100PCT/100PCT ADZ YOU HAVE INFO V.",
    "ZSSS": "[Arrival ATIS] ZSSS ARR ATIS F 0600Z EXP ILS APCH LDG RWY 18L WIND RWY 18L TDZ 100/5MPS MID 090/5MPS END 110/4MPS VIS RWY 18L TDZ 10000M MID 10000M END 10000M FBL RA CLD BKN 270M T 24 /DP 22 QNH 1002 HPA RWY18L RWYCC 5/5/5 ISSUED AT 0230 WET/WET/WET DPT NR/NR/NR COV 100PCT/100PCT/100PCT RWY18R RWYCC 5/5/5 ISSUED AT 0310 WET/WET/WET DPT NR/NR/NR COV 100PCT/100PCT/100PCT QNH OF SHANGHAI TERMINAL CONTROL AREA 1003 HPA ADZ YOU HAVE INFO F.\n[Departure ATIS] ZSSS DEP ATIS S 0030Z DEP RWY 18R WIND RWY 18R TDZ 110/5MPS VRB BTN 060/ AND 130/ MID 100/5MPS END 120/4MPS VIS RWY 18R TDZ 10000M MID 10000M END 10000M CLD BKN 210M T 24 /DP 23 QNH 1004 HPA RWY18L RWYCC 5/5/5 ISSUED AT 2130 WET/WET/WET DPT NR/NR/NR COV 100PCT/100PCT/100PCT RWY18R RWYCC 5/5/5 ISSUED AT 2130 WET/WET/WET DPT NR/NR/NR COV 100PCT/100PCT/100PCT VISUAL APCH IN USE QNH OF SHANGHAI TERMINAL CONTROL AREA 1005 HPA ADZ YOU HAVE INFO S.",
    "VHHH": "[Arrival ATIS] VHHH ARR ATIS I 0609Z ARRIVALS, RWY 25L/R. EXP RNAV TRANSITION TO ILS APCH, RWY 25R. EXP ILS APCH, RWY 25L. RNP APCH IS AVBL ON REQ, RWY 25R. WIND RWY 25L 220/09KT RWY 25R 230/15KT. VIS RWY 25L 10KM RWY 25R 10KM. CLD FEW 1500FT. T33 DP25. QNH 1005HPA. ACK INFO I ON FIRST CTC WITH APP.\n[Departure ATIS] VHHH DEP ATIS X 0611Z DEPARTURES, RWY 25C/L. INDEPENDENT PARALLEL DEPARTURE IN PROGRESS. WIND RWY 25C 240/14KT RWY 25L 210/08KT. VIS RWY 25C 10KM RWY 25L 10KM. CLD FEW 1500FT. T33 DP25. QNH 1005HPA. ACK INFO X ON FIRST CTC WITH DELIVERY .",
    "RCTP": "[Arrival ATIS] RCTP ARR ATIS W 0600Z EXP ILS APCH RWY23R FOR ARR. RWY23L FOR DEP. WIND 300/12KT VIS 10 KM OR MORE CLD FEW 2000FT T 32 DP 26 QNH 1005HPA NOSIG CTN BIRD ACTIVITY IN THE VCY OF THE AD. INFORM TAIPEI APCH OR TAIPEI TOWER ON INITIAL CONTACT YOU HAVE INFORMATION W\n[Departure ATIS] RCTP DEP ATIS U 0500Z EXP ILS APCH RWY23R FOR ARR. RWY23L FOR DEP. WIND 290/11KT VIS 10 KM OR MORE CLD FEW 2000FT T 33 DP 26 QNH 1005HPA NOSIG CTN BIRD ACTIVITY IN THE VCY OF THE AD. INFORM TAIPEI APCH OR TAIPEI TOWER ON INITIAL CONTACT YOU HAVE INFORMATION U",
    "ZGSZ": "[Arrival ATIS] ZGSZ ARR ATIS Z 0600Z EXP ILS APCH 15 EXP ILS OR VIS APCH 16R WIND 170/6MPS VIS 9999M CLD FEW 900M T 32 /DP 26 QNH 1005 HPA INDEPENDENT PARALLEL DEPARTURES DEPENDENT PARALLEL APPROACHES V17,V18 AVAILABLE AFTER SULAS FLY HEADING 040 MISSED APPROACH ALTITUDE SETTING 1200METERS WHEN AIRBORNE CONTACT ZHUHAI APPROACH EXPECTED RNP ILS DME Z APPROACH ADZ YOU HAVE INFO Z.\n[Departure ATIS] ZGSZ DEP ATIS N 0100Z DEP RWY 15 & 16L WIND 200/5MPS VIS 9999M CLD SCT 900M T 30 /DP 26 QNH 1008 HPA INDEPENDENT PARALLEL DEPARTURES DEPENDENT PARALLEL APPROACHES V17,V18 AVAILABLE AFTER SULAS FLY HEADING 040 MISSED APPROACH ALTITUDE SETTING 1200METERS WHEN AIRBORNE CONTACT ZHUHAI APPROACH EXPECTED RNP ILS DME Z APPROACH ADZ YOU HAVE INFO N.",
    "WSSS": "[Arrival ATIS] WSSS ARR ATIS B 0600Z METREPORT 0600Z ILS APCHRWY 20R SIMUL INDEPENDENT ILS AND VISUAL APPROACHES ARE CONDUCTED ON RWY 20. RSCD RWY20R 0344Z RWYCC:5.5.5. WHOLE RWY 100% WET. TWY W 9 CLOSED, RWY 02C 20C RAPID EXIT TAXIWAY INDICATOR LIGHTS OFFRAIN OVER AIRFIELD, WIND VRB/ 04KT VIS 05KM MOD RA CLD SCT 1000FT FEW TCU 1600FT T26 DP24 QNH 1012HPA BECMG TL0630 VIS6KM NSW ACK ATIS B\n[Departure ATIS] WSSS DEP ATIS B 0500Z METREPORT 0500Z RWY 20C SIMUL INDEPENDENT ILS AND VISUAL APPROACHES ARE CONDUCTED ON RWY 20. RSCD RWY20C 0344Z RWYCC:5.5.5. WHOLE RWY 100% WET. TWY W 9 CLOSED, RWY 02C 20C RAPID EXIT TAXIWAY INDICATOR LIGHTS OFFRAIN OVER AIRFIELD, WIND 250/ 07KT VRB BTN200 AND280 VIS 4900M MOD RA CLD FEW 1200FT FEW TCU 1600FT FEW CB 1800FT T26 DP25 QNH 1012HPA RETS BECMG FM0600 TL0630 VIS6KM NSW DEP,INITIAL CMB 3000FT ACK ATIS B",
    "WMKK": "[Arrival ATIS] WMKK ARR ATIS G 0614Z WMKK ARR INFO G. TIME 0600. INDEPENDENT PARALLEL APPROACHES FOR RWY 32 R AND 33 ARE IN PROGRESS. EXP RNAV / ILS APCH FOR RWY 32 RIGHT. EXP RNAV / ILS APCH FOR RWY 33. WIND RWY 32R DIRECTION NOT AVBL SPEED NOT AVBL. WIND RWY 32L DIRECTION NOT AVBL SPEED NOT AVBL. WIND RWY 33 DIRECTION NOT AVBL SPEED NOT AVBL. VIS RWY 32R TDZ NOT AVBL. VIS RWY 33 TDZ NOT AVBL. CLD SCT 1800 FT. T 32. DP 25. QNH 1010. NOSIG. AT FIRST CONTACT WITH LUMPUR RADAR, NOTIFY RCPT OF G\n[Departure ATIS] WMKK DEP ATIS U 2135Z WMKK DEP INFO U. TIME 2130. INDEPENDENT PARALLEL DEPARTURES FOR RWY 14 R AND 15 ARE IN PROGRESS. RWY 14 RIGHT. RWY 15. WIND RWY 14R DIRECTION NOT AVBL SPEED NOT AVBL. WIND RWY 15 DIRECTION NOT AVBL SPEED NOT AVBL. VIS RWY 14R TDZ NOT AVBL. VIS RWY 15 TDZ NOT AVBL. WX TS. CLD FEW 1000 FT, CLD FEW CB 1700 FT, CLD SCT 3000 FT. T 26. DP 24. QNH 1010. NOSIG. ALL DEP ACFT TO CONTACT LUMPUR DEP AT 135 DECIMAL 25 MHZ WHEN ABN. AT FIRST CONTACT WITH LUMPUR GROUND, NOTIFY RCPT OF U",
    "VTBS": "[Arrival ATIS] VTBS ARR ATIS X 0600Z VTBS ARR ATIS X 0600Z SIMULTANEOUS INDEPENDENT PARL APCH IN PROGRESS EXP ILS Z APCH ARR RWY 19 OR RNP APCH RWY 20R , ,PILOT SHALL ADZ BKK APCH ON INITIAL CTC IF UNA TO CONDUCT RNP APCH DUE TO OPERATIONAL CONSTRAINT 0600Z WIND 320/9KT VRB BTN 250/ AND 340/ VIS 10KM CLD FEW 2000FT T34 DP21 QNH 1009HPA TREND NOSIG ADZ BKK APCH ON INITIAL CONTACT THAT YOU HAVE INFO X\n[Departure ATIS] VTBS DEP ATIS E 0530Z VTBS DEP ATIS E 0531Z SIMULTANEOUS INDEPENDENT PARL DEP IN PROGRESS DEP RWY 20L OR DEP RWY 19 , ,AFT AIRBORNE ALL DEPARTING ACFT SHALL CTC 119.25 0530Z WIND 300/12KT VRB BTN 260/ AND 330/ VIS 10KM CLD FEW 2000FT T35 DP20 QNH 1009HPA TREND NOSIG ADZ GND WHEN INITIAL CONTACT YOU HAVE INFO E",
    "VTBU": "[Arrival ATIS] VTBU ARR ATIS U 0430Z VTBU ARR ATIS U 0430Z RNP RWY 18 TRL FL130 MOBILE ACFT ARST SYSTEM INSTL ATP SIX HUNDRED AND TEN METERS FM THR RWY 36 CABLE HGT 3 INCHES. 0430Z WIND 360/6KT VRB BTN 320/ AND 020/ VIS 10KM CLD FEW 2000FT T34 DP27 QNH 1010HPA TREND NOSIG ADZ CONTROLLER WHEN INITIAL CONTACT YOU HAVE INFO U\n[Departure ATIS] VTBU DEP ATIS D VTBU ARR/DEP DATIS RPT VTBU ARR ATIS D 0330Z ILS \"Z\" APCH RWY 18 TRL FL130 0330Z WIND 110/4KT VRB BTN 350/ AND 120/ VIS 6KM CLD FEW 2000FT T31 DP27 QNH 1014HPA TREND NOSIG ADZ CONTROLLER WHEN INITIAL CONTACT YOU HAVE INFO D",
    "ROAH": "[Arrival ATIS] ROAH ARR ATIS X 0523Z M0500 (APCH)RNP RWY18R LDG RWY 18R DEP RWY 18L DEP FREQ 126.5 258.3 M 220500Z 23007KT 50KM FEW015CU 30/26 Q1007/A2975= Q/TWO NINE SEVEN FIVE STP\n[Departure ATIS] ROAH DEP ATIS X 0517Z M0500 (APCH)RNP RWY18R LDG RWY 18R DEP RWY 18L DEP FREQ 126.5 258.3 M 220500Z 23007KT 50KM FEW015CU 30/26 Q1007/A2975= Q/TWO NINE SEVEN FIVE STP",
    "VVDN": "[Arrival ATIS] VVDN ARR ATIS N 0532Z VVDN INFO N 0532Z. ILS VICTOR APPROACH 35L.. DPTG RWY 35R.. 0532Z. WIND 100/09KT CAVOK T37 DP24 QNH 1006HPA TREND NOSIG. ADZ ON INITIAL CTC YOU HAVE INFO. N.\n[Departure ATIS] VVDN DEP ATIS N 0423Z VVDN INFO N 0423Z. ILS VICTOR APPROACH 35L.. DPTG RWY 35R.. 0423Z. WIND 010/02KT CAVOK T36 DP24 QNH 1008HPA TREND NOSIG. WS ALL RWY. ADZ ON INITIAL CTC YOU HAVE INFO. N.",
    "RCKH": "[Arrival ATIS] RCKH ARR ATIS H 0600Z EXPECT ILS APPROACH RWY 27 ARR/DEP TAXIWAY JULIETT, TAXIWAY BRAVO, TAXIWAY DELTA AND TAXIWAY ECHO CLOSED DUE MAINTENANCE.RUNWAY 2 7 ARRIVALS PLAN VACATE VIA CHARLIE OR ALPHA AND EXPEDITE VACATE. WIND 270/12KT VARYING BTN 240 AND 300 VIS 10 KM OR MORE CLD FEW 2200FT SCT 22000FT T 31 DP 24 QNH 1005HPA NOSIG CAUTION BIRD ACTIVITY IN VICINITY OF THE AERODROME. INFORM KAO-HSIUN APCH OR KAO-HSIUN TOWER ON INITIAL CONTACT YOU HAVE INFORMATION H\n[Departure ATIS] RCKH DEP ATIS A 0730Z EXPECT ILS APPROACH RWY 09 ARR/DEP RWY SFC RWY 09 SFC COND 5/5/5 ISSUED AT 2227Z. 100/100/100 NR/NR/NR WET/WET/WET TAXIWAY JULIETT, TAXIWAY BRAVO, TAXIWAY DELTA AND TAX",
    "KLAX": "[Arrival ATIS] KLAX ARR ATIS T 0553Z LAX ATIS INFO T 0553Z. 24007KT 10SM FEW015 17/14 A2991 (TWO NINER NINER ONE) RMK AO2 SLP125 T01720144 10211 20172 50009. INST APCHS AND RNAV RNP APCHS RY 24R AND 25L, OR VCTR FOR VISUAL APCH WILL BE PROVIDED, SIMUL VISUAL APCHS TO ALL RWYS ARE IN PROG, SIMUL INSTR DEPARTURES IN PROG RWYS 24 AND 25. CTC L A GC ON 121.75 FOR PUSH OR TAXI ON A. TWY C CLSD BTN TWY, C8 AND TWY C9 , , TWY B CLSD BTN TWY, F AND TWY B1, TWY B1 CLSD. ILS RY 25R OTS, RY 25R SFL OTS, RY 24L ALSF-2 OTS. UNAUTHORIZED UAS ACTIVITY IN VICINITY OF AIRPORT. LAX VOR UNMONITORED. IF ASSIGNED RUNWAY 25R FOR DEPARTURE, EXPECT DEPARTURE FROM INTERSECTION FOXTROT. TAXILANE CHARLIE EIGHT RESTRICTED TO AIRCRAFT WITH A WINGSPAN LESS THAN ONE HUNDRED EIGHTEEN FEET. USE CAUTION FOR INCREASED DRONE ACTIVIY IN THE VICINITY OF SOFI STADIUM AT OR BELOW 200FT AGL DURING THE WORLD CUP FROM 06/12/26 THROUGH 07/10/2026. HAZD WX INFO FOR LAX AREA AVBL FM FSS. BIRD ACTIVITY VICINITY ARPT. TWR FREQ FOR ALL RWYS IS 120.95. CD AND GC FREQ IS 121.75. INCLUDE YOUR CALL SIGN IN ALL READBACKS. USE CAUTION WHEN EXITING RY24R AT TWY V, W, AND Y, TO HOLD SHORT OF RY24L. MULTIPLE RUNWAY INCURSIONS HAVE OCCURRED. ...ADVS YOU HAVE INFO T.\n[Departure ATIS] KLAX DEP ATIS D 1853Z LAX ATIS INFO D 1853Z. 25011KT 10SM FEW018 BKN024 21/13 A2994 (TWO NINER NINER FOUR) RMK AO2 SLP135 T02060133. INST APCHS AND RNAV RNP APCHS RY 24R AND 25L, OR VCTR FOR VISUAL APCH WILL BE PROVIDED, SIMUL VISUAL APCHS TO ALL RWYS ARE IN PROG, SIMUL INSTR DEPARTURES IN PROG RWYS 24 AND 25. CTC L A GC ON 121.75 FOR PUSH OR TAXI ON A. TWY C CLSD BTN TWY, C8 AND TWY C9 , , TWY B CLSD BTN TWY, F AND TWY B1, TWY B1 CLSD. ILS RY 25R OTS, RY 25R SFL OTS, RY 24L ALSF-2 OTS. LAX VOR UNMONITORED. IF ASSIGNED RUNWAY 25R FOR DEPARTURE, EXPECT DEPARTURE FROM INTERSECTION FOXTROT. TAXILANE CHARLIE EIGHT RESTRICTED TO AIRCRAFT WITH A WINGSPAN LESS THAN ONE HUNDRED EIGHTEEN FEET. USE CAUTION FOR INCREASED DRONE ACTIVIY IN THE VICINITY OF SOFI STADIUM AT OR BELOW 200FT AGL DURING THE WORLD CUP FROM 06/12/26 THROUGH 07/10/2026. HAZD WX INFO FOR LAX AREA AVBL FM FSS. BIRD ACTIVITY VICINITY ARPT. INCLUDE YOUR CALL SIGN IN ALL READBACKS. USE CAUTION WHEN EXITING RY24R AT TWY V, W, AND Y, TO HOLD SHORT OF RY24L. MULTIPLE RUNWAY INCURSIONS HAVE OCCURRED. ...ADVS YOU HAVE INFO D.",
    "KONT": "[Arrival ATIS] KONT ARR ATIS S 1953Z ONT ATIS INFO S 1953Z. 23006G15KT 10SM FEW120 34/16 A2995 (TWO NINER NINER FIVE). ILS AND VIS APR IN USE, RY26L & RY26R. LNDG AND DEPG RY 26L AND RY 26R. NOTAMS... TAXIWAY SIERRA FIVE CLOSED. TAXIWAY SIERRA CLOSED BETWEEN TAXIWAY SIERRA 8 AND TAXIWAY WHISKEY. RY 26L IM OTS, RY 26R ALS OTS. USE CAUTION FOR NUMEROUS BIRDS OBSERVED IN VICINITY OF ONT. HAZD WX INFO FOR SOUTHERN CA AVBL ON FSS FREQUENCIES. PILOTS READBACK RWY ASSIGNMENTS AND HOLD SHORT INSTRUCTIONS. ...ADVS YOU HAVE INFO S.\n[Departure ATIS] KONT DEP ATIS N 0553Z - KONT ATIS INFO N 0553Z. 24004KT 10SM BKN250 22/15 A2988 (TWO NINER EIGHT EIGHT) RMK AO2 SLP100. ILS AND VIS APR IN USE, RY26L & RY26R. LNDG AND DEPG RY 26L AND RY 26R. NOTAMS... TAXIWAY SIERRA CLSD BETWEEN SIERRA 8 AND W TAXIWAY Q SOUTH OF RWY 26L CLSD TAXIWAY T CLSD TAXIWAY SIERRA 5 CLSD. RY 26L IM OTS, RY 26R ALS OTS. USE CAUTION FOR NUMEROUS BIRDS OBSERVED IN VICINITY OF ONT. HAZD WX INFO FOR SOUTHERN CA AVBL ON FSS FREQUENCIES. PILOTS READBACK RWY ASSIGNMENTS AND HOLD SHORT INSTRUCTIONS. ...ADVS YOU HAVE INFO N.",
    "KSFO": "[Arrival ATIS] KSFO ARR ATIS E 0356Z SFO ATIS INFO E 0356Z. 29012KT 10SM FEW200 19/09 A2993 (TWO NINER NINER THREE). SIMUL CLSLY SPCD DPNDNT ILS RY 28R AND ILS RY 28L APP IN USE. DEPG RWYS 28L, 28R. DEPG ACFT SHOULD BE PREPARED FOR A SHORT NOTICE RY CHANGE. RY 1L, 1R CLSD. NUMEROUS TWY CLOSURES FOR CONSTRUCTION ON THE FIELD, PILOTS CHECK NOTAMS. DEPG ACFT WAITING ON FINAL NUMBERS ADVISE GROUND PRIOR TO ENTERING TWY F. ...ADVS YOU HAVE INFO E.\n[Departure ATIS] KSFO DEP ATIS T 1456Z SFO ATIS INFO T 1456Z. 00000KT 10SM SCT140 BKN200 18/13 A2991 (TWO NINER NINER ONE) RMK AO2 SLP128 T01780133 53008. SIMUL CLSLY SPCD DPNDNT ILS RY 28R AND ILS RY 28L APP IN USE. DEPG RWYS 28L, 28R. RY 1L, 1R CLSD. NUMEROUS TWY CLOSURES FOR CONSTRUCTION ON THE FIELD, PILOTS CHECK NOTAMS. DEPG ACFT WAITING ON FINAL NUMBERS ADVISE GROUND PRIOR TO ENTERING TWY F. ...ADVS YOU HAVE INFO T.",
    "KOAK": "[Arrival ATIS] KOAK ARR ATIS T 2053Z - KOAK ATIS INFO T 2053Z. 25015KT 10SM FEW008 20/13 A2994 (TWO NINER NINER FOUR). RNAV, AND VA, RWY 30. ILS, AND VA, RWY 28R. FLOW TO LAX, LAS, SAN, SEA. RWY 28L CLSD. TAXIWAYS GOLF, HOTEL, PAPA, JULIET BETWEEN RUNWAYS 28 RIGHT AND 28 LEFT CLOSED. ILS RWY 30, OTS, RWY 28R RAIL, OTS. UNN LIT CLOSE-IN OBSTACLES FOR RWY 30 DEPARTURES. RWY 30 DEPARTURES ARE ADVISED TO AVOID TURNING LEFT PRIOR TO DEPARTURE END OF RUNWAY. CTN, CRANE 1 POINT 6 NAUTICAL MILES, , AT 140 FEET AGL. CAUTION, BIRDS NEAR AIRPORT. ...ADVS YOU HAVE INFO T.\n[Departure ATIS] KOAK DEP ATIS O 1953Z OAK ATIS INFO O 1953Z. 28014KT 10SM FEW005 22/14 A2988 (TWO NINER EIGHT EIGHT). RNAV Z/VA RWY 30 ILS/VA RWY 28R. FLOW TO LAX, LAS, SAN. ILS RWY 30, OTS. UNN LIT CLOSE-IN OBSTACLES FOR RWY 30 DEPARTURES. RWY 30 DEPARTURES ARE ADVISED TO AVOID TURNING LEFT PRIOR TO DEPARTURE END OF RUNWAY. SIGNATURE UNI-COM OUT OF SERVICE. CAUTION, BIRDS NEAR AIRPORT. ...ADVS YOU HAVE INFO O.",
    "KDFW": "[Arrival ATIS] KDFW ARR ATIS Z 0953Z - KDFW ARR INFO Z 0953Z. 19004KT 10SM BKN023 BKN250 23/19 A3008 (THREE ZERO ZERO EIGHT) RMK AO2 SLP177 T02330189. SIMUL VISUAL APCH TO RWYS, 18R, 17C. LDG RWY 17C EXP LAHSO TWY B 10460 FT AVAIL, LDG RWY 18R EXP LAHSO TWY B 10100 FT AVL. NOTICE TO AIRMEN. RWY 13L CLSD. RWY 13R CLSD. RWY 17L CLSD. RWY 18L CLSD, WARNING, RWY 18L HAS BEEN SHORTENED, 9273 FT AVAILABLE. RWY 18L ILS OTS, CL OTS. BIRD ACTIVITY VCNTY ARPT. ...ADVS YOU HAVE INFO Z.\n[Departure ATIS] KDFW DEP ATIS F 1453Z DFW DEP INFO F 1453Z. 11005KT 10SM SCT020 BKN030 BKN055 BKN250 27/22 A3008 (THREE ZERO ZERO EIGHT) RMK AO2 SLP178 T02720217 51013. SIMUL PARL TRAFFIC DEPG RWYS 17R, 18L. NOTICE TO AIRMEN. WARNING, RWY 18L HAS BEEN SHORTENED, 9273 FT AVAILABLE. HAZD WX FOR DFW AVBL ON FSS. BIRD ACTIVITY VCNTY ARPT. ...ADVS YOU HAVE INFO F.",
    "KIAH": "[Arrival ATIS] KIAH ARR ATIS Z 0353Z IAH ATIS INFO Z 0353Z. 07006KT 10SM FEW010 FEW031 BKN130 24/24 A3009 (THREE ZERO ZERO NINER). ARRIVALS EXPECT ILS OR RNAV Y RY 8R, ILS OR RNAV Y RY 8L. DEPG RY 15L. NOTICE TO A\n[Departure ATIS] KIAH DEP ATIS T 0353Z IAH ATIS INFO T 0353Z. 15007KT 10SM FEW035 FEW180 BKN250 27/23 A2996 (TWO NINER NINER SIX). ARRIVALS EXPECT ILS OR RNAV Y RY 8R, ILS OR RNAV Y RY 8L. DEPG RY 15R. NOTICE TO AIRMEN. UNITED RAMP CONTROL IN EFFECT. RY 15L, 33R CLSD. HAZD WX INFO FOR IAH AREA AVBL FM FSS. BIRD ACTIVITY VICINITY ARPT. CRANES ARE DOWN. TWY SA CLSD BTN TWY, SF AND TWY SK , TWY SB CLSD BTN TWY, SF AND TWY SK , , TWY WB CLSD BTN TWY, WG AND TWY WH . TWY EA CLSD. NOTAM ATIS IN USE ON FREQUENCY 126.225. ...ADVS YOU HAVE INFO T.",
    "KORD": "[Arrival ATIS] KORD ARR ATIS U 1051Z - KORD ATIS INFO U 1051Z. 25003KT 9SM FEW250 24/22 A3010 (THREE ZERO ONE ZERO) RMK AO2 SLP187 T02440222. ARR EXP VECTORS ILS RWY 28C APCH, VISUAL APCH RWY 27C, VISUAL APCH RWY 27R. SIMUL APCHS IN USE. LAND AND HOLD SHORT OPERATIONS ARE IN EFFECT. RWY 27C ARR PLAN TO H/S OF TWY V V, 9 THSD 7 HND 25 FT AVBL, RWY 28C ARR PLAN TO H/S OF TWY Z, 9 THSD 6 HND TEN FT AVBL. DEPS EXP RWYS 22L 27L FROM T T 9960 FT AVL. RWY 4L, 22R CLSD. RWY 22R LOC OTS, RWY 28L GS OTS, RWY 9L IM OTS, RWY 9C IM OTS, RWY 10L IM OTS, RWY 10R IM OTS, RWY 27R IM OTS, RWY 28L IM OTS, RWY 28R IM OTS, RWY 9L PAPI OTS, RWY 27R PAPI OTS, RWSL OTS. PILOTS USE CTN FOR BIRD ACTIVITY IN THE VICINITY OF THE ARPT. USE CTN FOR PERSONNEL AND EQUIP AT NUMEROUS SITES ON THE FIELD. READBACK ALL RWY HOLD SHORT INSTRUCTIONS. WHEN READY TO TAXI CONTACT GND METERING ON FREQ 121.67. ...ADVS YOU HAVE INFO U.\n[Departure ATIS] KORD DEP ATIS U 2051Z ORD ATIS INFO U 2051Z. 21004KT 10SM FEW060 FEW300 36/19 A3011 (THREE ZERO ONE ONE) RMK AO2 SLP189 T03560194 58014. ARR EXP VECTORS ILS RWY 27C APCH, VISUAL APCH RWY 27R, VI",
    "KJFK": "[Arrival ATIS] KJFK ARR ATIS T 0951Z - KJFK ATIS INFO T 0951Z. 24010KT 10SM FEW250 24/21 A2987 (TWO NINER EIGHT SEVEN). APPROACH IN USE ILS RY 22L, ILS RY 22R. DEPG RY 22R. RY 4R PAPI OTS, RY 13L SFL OTS, RWY 22L/4R INNER MARKER OTS. NUM CRANES OPERATING AT JFK. BIRD ACTIVITY VICINITY ARPT. READBACK ALL RWY ASSIGNMENTS AND HOLD SHORT INSTRUCTIONS. ...ADVS YOU HAVE INFO T.\n[Departure ATIS] KJFK DEP ATIS H 2351Z JFK ATIS INFO H 2351Z. 26017G23KT 10SM SCT250 BKN320 31/18 A2990 (TWO NINER NINER ZERO). APPROACH IN USE ILS RY 22L, ILS RY 22R. DEPG RY 22R, ACFT FILED OVER RBV OR DIXIE EXPECT RY 31L KE FOR DEP. RY 4R PAPI OTS, RY 13L SFL OTS, RWY 22L/4R INNER MARKER OTS. NUM CRANES OPERATING AT JFK. BIRD ACTIVITY VICINITY ARPT. READBACK ALL RWY ASSIGNMENTS AND HOLD SHORT INSTRUCTIONS. ...ADVS YOU HAVE INFO H.",
    "KIND": "[Arrival ATIS] KIND ARR ATIS K 0754Z IND ATIS INFO K 0754Z. 02003KT 10SM CLR 22/17 A3017 (THREE ZERO ONE SEVEN). PARL ILS RWY 23R AND 23L APPROACHES IN USE. CROSS RUNWAY OPERATIONS MAY BE IN EFFECT. PARL APCHS IN USE. NOTICE TO AIRMEN. TWY, P BTN TWY, H AND TWY B CLSD, TWY, P BTN TWY, H AND TWY J CLSD, TWY, H BTN TWY, R AND TWY N CLSD. P PAD CLSD. ILS RUNWAY 5R AND RUNWAY 5L INNER MARKER UNSERVICEABLE. ARPT ADZY FLOCK OF SMALL BIRDS IN THE VICINITY OF THE AIRPORT, ALT UNKN. ...ADVS YOU HAVE INFO K.\n[Departure ATIS] KIND DEP ATIS H 1854Z IND ATIS INFO H 1854Z. 26009G19KT 10SM SCT036 BKN041 BKN170 23/16 A2981 (TWO NINER EIGHT ONE) RMK AO2 SLP088 T02280156. PARL ILS RWY 23R AND 23L APPROACHES IN USE. CROSS RU",
    "KDTW": "[Arrival ATIS] KDTW ARR ATIS F 0553Z DTW ARR INFO F 0553Z. 07006KT 5SM RA BR SCT034 BKN060 OVC090 16/14 A2993 (TWO NINER NINER THREE). ILS RY 3R APCH IN USE. NOTICE TO AIRMEN. RWY 22R, 4L CLSD, RWY 22L, 4R CLSD, RWY 21R, 3L CLSD, RWY 27L, 9R CLSD, RWY 27R, 9L CLSD. PILOTS USE CTN FOR BIRD ACTIVITY. RWY 3R CONDITION CODE 5 5 5 , AT 2320Z ZULU. TWR AND GC COMB ON FREQ 118.4. DEPARTURE ATIS 118.125. ...ADVS YOU HAVE INFO F.\n[Departure ATIS] KDTW DEP ATIS Q 2253Z - KDTW DEP INFO Q 2253Z. 21009KT 10SM FEW050 FEW250 33/24 A2991 (TWO NINER NINER ONE). DEPG RWY 21R, RWY 22L ;. NOTICE TO AIRMEN. RWY 27L, 9R CLSD, RWY 27R, 9L CLSD. PILOTS USE CTN FOR BIRD ACTIVITY. ...ADVS YOU HAVE INFO Q.",
    "KMSP": "[Arrival ATIS] KMSP ARR ATIS A 0353Z MSP ARR INFO A 0353Z. 25004KT 10SM CLR 29/22 A3013 (THREE ZERO ONE THREE) RMK AO2 SLP196 T02890222. VISUAL RWY 30L APCH IN USE, VISUAL RWY 30R APCH IN USE. NOTICE TO AIRMEN. RWYS 4, 22 CLSD, RWYS 17, 35 CLSD. TWY R7. R8. R9. R10. CLOSED. TWY R BTWN R6 AND R10 CLSD, USE CAUTION, NUMEROUS TAXIWAY CLOSURES, TWY A7 CLSD, TWY A CLSD BTN TWY, A7 AND TWY D. GS RWY 12L OTS, RWYS 12R, 12L, INNER MARKER OTS. SFC MOVMT GDNC CTL SYS OPS IN EFCT FOR LOW VSBY AND RVR. CTN, BIRDS NEAR MSP. READ BACK HS AND ALT. ALL ACFT TAXI WITH TRANSPONDER AND ALTITUDE ENCODING ON. ...ADVS YOU HAVE INFO A.\n[Departure ATIS] KMSP DEP ATIS W 1053Z - KMSP DEP INFO W 1053Z. 00000KT 7SM FEW250 24/22 A3014 (THREE ZERO ONE FOUR). DEPARTING RWY 12L, RWY 12R, RWY 17. NOTICE TO AIRMEN. RWYS 4, 22 CLSD. TWY R7. R8. R9. R10. CLOSED. TWY R BTWN R6 AND R10 CLSD, USE CAUTION, NUMEROUS TAXIWAY CLOSURES, TWY A7 CLSD, TWY A CLSD BTN TWY, A7 AND TWY D. ALL ACFT CTC METERING ON ONE THREE THREE POINT FIVE SEVEN WHEN READY TO PUSHBACK OR TAXI. CTN, BIRDS NEAR MSP. READ BACK HS AND ALT. ALL ACFT TAXI WITH TRANSPONDER AND ALTITUDE ENCODING ON. ...ADVS YOU HAVE INFO W.",
    "CYEG": "[Arrival ATIS] CYEG ARR ATIS G 0600Z 10010KT 20SM FEW053 SCT150 19/14 A3013 SIGMET E1 IN EFFECT. APCH RNAV Z OR Y RWY 20, INFORM ARRL OF REQ APCH ON INITIAL CTC. LDG AND DEP RWY 20. SIMUL APPROACHES MAY BE IN EFCT. SE FLO ALF. INFORM CYEG ATC INFO G\n[Departure ATIS] CYEG DEP ATIS N 1100Z CYEG ARR ATIS N 1100Z 07009KT 20SM FEW020CB SCT150 17/15 A3012 SIGMET E2 IN EFFECT. APCH RNAV Z OR Y RWY 02, INFORM ARRL OF REQ APCH ON INITIAL CTC. LDG AND DEP RWY 02. SIMUL APPROACHES MAY BE IN EFCT. INFORM CYEG ATC INFO N",
    "EHAM": "[Arrival ATIS] EHAM ARR ATIS G 1052Z EHAM ARRIVAL INFO G. DEMAND. MAIN LANDING RWY 06. SECONDARY LANDING RWY 36 R. TRANSITION LEVEL 040. WIND 090 DEG, 12 KT, VRB BTN 050 AND 110 DEG, 19 KT MAX, 9 KT MNM. WIND SECONDARY RUNWAY 040 DEG, 13 KT, VRB BTN 020 AND 100 DEG, 18 KT MAX, 7 KT MNM. VIS 10 KM OR MORE. CLD FEW 4000 FT. T 26. DP 13. QNH 1022 HPA. NOSIG. OPERATIONAL REPORT. CONVERGING APPROACHES IN PROGRESS. CONTACT APCH WITH CALLSIGN ONLY. END OF INFO G\n[Departure ATIS] EHAM DEP ATIS N 1052Z EHAM DEPARTURE INFO N. DEMAND. MAIN DEPARTURE RWY 36 L. MAIN LANDING RWY 06. WIND 070 DEG, 14 KT, VRB BTN 030 AND 100 DEG, 21 KT MAX, 8 KT MNM. VIS 10 KM OR MORE. CLD FEW 4000 FT. T 26. DP 13. QNH 1022 HPA. OPERATIONAL REPORT. INFORM SCHIPHOL DEL BY VOICE IF UNABLE TO COMPLY WITH NADP 2. END OF INFO N",
    "EBBR": "[Arrival ATIS] EBBR ARR ATIS D 1020Z EBBR NAT, EXP VECT FOR ILS APP ARR RWY01 RSCD AT 0726 RWY01 DRY. DEP RWY07R RWY07L TRL 055 XNG RWY OPS INPR 060/13KT VIS ABV 10KM FEW4800FT T27 DP15 QNH 1021HPA NOSIG CFM ARR D\n[Departure ATIS] EBBR DEP ATIS K 0600Z EBBR NAT, DEP RWY07R RSCD AT 0316 RWY07L RSCD AT 0327 RWY07R DRY. RWY07L DRY. ARR RWY01 TRL 055 XNG RWY OPS INPR 040/7KT CAVOK T20 DP15 QNH 1021HPA NOSIG CFM DEP K",
    "EDDF": "[Arrival ATIS] EDDF ARR ATIS D 1050Z ARR-ATIS EDDF D METAR 151050 EXPECT INDEPENDENT PARALLEL ILS Y APCH RWY 07L OR ILS APCH RWY 07R RWY 07L 07R TRL 60 02009KT 320V060 CAVOK T28 DP14 QNH1019 TREND NOSIG END OF ATIS D\n[Departure ATIS] EDDF DEP ATIS H 1050Z DEP-ATIS EDDF H METAR 151050 RWY 07C 18 ACFT DEPARTING RWY18 : EXPECT POSSIBLE DEPARTURE FROM INTERSECTION M , TORA 3454 METERS. IF UNABLE , ADVISE TWR ON INITIAL CONTACT , TRL 60 02009KT 320V060 RWY18 02006KT CAVOK T28 DP14 QNH1019 TREND NOSIG",
    "EDDL": "[Arrival ATIS] EDDL ARR ATIS I 0950Z -ATIS EDDL I METAR 110950 -EXPECT VECTORS ILS APPROACH -RWY 05R -TWY L2 , L4 AND L5 BTN TWY M AND RWY05R CLOSED -TRL 60 - -07011KT 010V130 -CAVOK - - -T27 DP15 -QNH1019 - -TREND NOSIG\n[Departure ATIS] EDDL DEP ATIS R EDDL ARR/DEP DATIS RPT -ATIS EDDL R METAR 020550 -EXPECT VECTORS ILS APPROACH -RWY 23L -TWY L8 CLOSED BETWEEN TWY M AND RWY 23L -TRL 60 - -23010KT -CAVOK - - -T19 DP13 -QNH1020 - -TREND NOSIG",
    "EDDK": "[Arrival ATIS] EDDK ARR ATIS L 0820Z ATIS EDDK L METAR 150820 EXPECT ILS APCH RWY 13L RWY COND RWY 13L AT TIME 0700 RWYCC 6 DEPOSIT TOTAL RWY DRY TWY A BLOCKED BETWEEN RWY 24 AND A2, LANDING TRAFFIC VACATE A3 OR RWY END* TEMPORARILY AMENDED TOWER FREQUENCY 120.505 TRL 60 RWY 13R AND RWY 31L CLOSED FOR DEPARTURE AND LANDING: TAXIING BTN THR RWY 13R AND INTERSECTION RWY 24 POSSIBLE : 06008KT 020V140 CAVOK T26 DP13 QNH1020 TREND NOSIG\n[Departure ATIS] EDDK DEP ATIS E 2050Z -ATIS EDDK E METAR 142050 -EXPECT CDO FOR ILS APCH RWY 31R -RWY 31R 06 -RWY COND RWY 31R AT TIME 1837 RWYCC 6 DEPOSIT TOTAL RWY DRY RWY 06 AT TIME 1837 RWYCC 6 DEPOSIT TOTAL RWY DRY -TRL 60 -RWY 13R AND RWY 31L CLOSED FOR DEPARTURE AND LANDING: TAXIING BTN THR RWY 13R AND INTERSECTION RWY 24 POSSIBLE : -02006KT 350V050 -CAVOK - - -T23 DP14 -QNH1018 - -TREND NOSIG",
    "EBLG": "[Arrival ATIS] EBLG ATIS P 0820Z EBLG INFO, EXP RNAV TO ILS APP ARR RWY04R DEP RWY04R RWY 04R DRY, RWYCC 666. TRL 055 ADZ ON GND FREQ IF UNABLE S2 020/11KT VRB BTN 360 AND 060 CAVOK T24 DP15 QNH 1021HPA NOSIG CFM ATIS P",
    "LSZH": "[Arrival ATIS] LSZH ARR ATIS J 1050Z ARRIVALS, EXP ILS APCH, RWY 14. TRL 70. DEP RWY 28. INCREASED BIRD ACT. WIND VRB, 3 KT. VIS 10 KM OR MORE, TDZ 10 KM OR MORE. VCSH. CLD FEW 5000 FT. T 28. DP 17. QNH 1018. TREND TEMPO MOD TSRA.\n[Departure ATIS] LSZH DEP ATIS O 1050Z DEP RWY 28. TRL 70. ARRIVALS, EXP ILS APCH, RWY 14. INCREASED BIRD ACT. TMA S 1 IS NOT ACT. TMA S 2 AND S 3 ARE NOT ACT. WIND VRB, 3 KT. VIS 10 KM OR MORE. VCSH. CLD FEW 5000 FT. T 28. DP 17. QNH 1018. TREND TEMPO MOD TSRA.",
    "LIMC": "[Arrival ATIS] LIMC ARR ATIS Q 1052Z LIMC ARR Q 1052Z I.L.S. ZULU RWY IN USE 35R TL 70 WIND TDZ 230/7KT VRB BTN 160/AND 250/ CAVOK T32 DP19 QNH 1017HPA QFE 0991HPA\n[Departure ATIS] LIMC DEP ATIS L 0920Z LIMC DEP L 0920Z RWY IN USE 35L TL 70 BIRDS CONCENTRATION ON RWY STRIP WIND END VRB6KT CAVOK T31 DP18 QNH 1017HPA QFE 0991HPA DATALINK CLEARANCE AVAILABLE.... CONTACT 1 3 1 8 8 0 TO BE RELEASED BY THE AIRPORT OPERATOR ...",
    "LIRF": "[Arrival ATIS] LIRF ARR ATIS Z 1038Z LIRF ARR Z 1038Z RWY 16L ILS W RWY 16R ILS Z RWY IN USE 16L 16R TL 70 DEPENDENT PARL ILS APCH INPR RWY IN USE 16R OR 16L ASSIGNED BY ROME RADAR WIND RWY 16L TDZ 240/9KT RWY 16R TDZ 230/9KT VRB BTN 170/AND 250/ CAVOK T33 DP24 QNH 1016HPA RRSM\n[Departure ATIS] LIRF DEP ATIS H 0550Z LIRF DEP H 0550Z RWY IN USE 25 TL 70 RWYS IN USE FOR ARR 16L AND 16R WIND END 140/6KT CAVOK T27 DP19 QNH 1016HPA REA IS SENT AUTOMATICALLY ONCE RLSD BY RAMP WHEN READY CONTACT FIUME RAMP 121.725 RRSM",
    "EINN": "[Arrival ATIS] EINN ARR ATIS L 1000Z EXPECT I L S CATEGORY 1 LDG RWY06 TKOF RWY06 TRL FL060 13006KT CAVOK 24/15 QNH Q1023 TREND NOSIG ADVISE AT FIRST CONTACT YOU HAVE ATIS INFO L",
    "EGLL": "[Arrival ATIS] EGLL ARR ATIS D 1050Z LANDING RWY 09L TRANSITION-LEVEL: FL 70 RUNWAY 09L REDUCED DECLARED DISTANCES IF STAND GUIDANCE IS OFF OR FAILS, REMAIN ON THE TAXIWAY CENTRELINE AND ADVISE ATC AUTHORISED DRONE OPERATING 3 NM TO THE NORTH OF AIRFIELD 250 FEET AUTO 03011KT 360V090 9999 BKN034 24/15 Q1023 ACKNOWLEDGE RECEIPT OF INFORMATION D\n[Departure ATIS] EGLL DEP ATIS O 0950Z DEPARTURE RWY 09R PILOTS THAT ARE IN RECEIPT OF DATALINK CLEARANCES ARE REMINDED THEY MUST CONTACT DELIVERY ON 121.980 WHEN READY FOR START DATALINK CLEARANCES NOT AVAILABLE FOR CPT DEPARTURES AUTO 06015KT 020V080 9999 BKN029 23/15 Q1023 ACKNOWLEDGE RECEIPT OF INFORMATION O AND REPORT AIRCRAFT TYPE AND CURRENT QNH ON FIRST CONTACT WITH HEATHROW",
    "EPWA": "[Arrival ATIS] EPWA ARR ATIS H 1001Z EPWA ARR H. TIME 1000. EXP U ARR ILS Z APCH FOR RWY 33. TRANSITION LEVEL 80. WIND VRB, 4 KT. VIS TDZ 10 KM OR MORE. CLD FEW 4000 FT. T 26. DP 15. QNH 1020. NOSIG. CAUTION. BIRD ACT. END OF EPWA ARR H\n[Departure ATIS] EPWA DEP ATIS Z 0807Z EPWA DEP Z. TIME 0807. DEP RWY 15. ARR RWY 11, EXP N ARR ILS Z. REPORT READY FOR STARTUP ON DELIVERY 121 DECIMAL 605. TRANSITION LEVEL 80. WIND 060 DEG, 4 KT, VRB BTN 340 AND 150 DEG. VIS MID 10 KM OR MORE. CLD FEW 2600 FT. T 23. DP 16. QNH 1020. NOSIG. CAUTION. BIRD ACT. END OF EPWA DEP Z",
    "EFHK": "[Arrival ATIS] EFHK ARR ATIS M 0950Z EXPECT ILS APCH ARR RWY 04L RUNWAY 04L CONDITION REPORT AT 0703 UTC RUNWAY CONDITION CODES 6 , 6 , 6 CONTAMINANTS ALL PARTS DRY TRL 60 WIND 320 DEG 5 KT VRB BTN 280 AND 020 DEG VIS 10KM FEW 3700 FT T 24 DP 15 QNH 1019 NOSIG ACK INFO M\n[Departure ATIS] EFHK DEP ATIS L 0450Z DEP RWY 04R RUNWAY 04R CONDITION REPORT AT 0213 UTC RUNWAY CONDITION CODES 6 , 6 , 6 CONTAMINANTS ALL PARTS DRY WIND 350 DEG 5 KT VRB BTN 320 AND 020 DEG CAVOK T 17 DP 9 QNH 1020 NOSIG ACK INFO L",
    "LTAC": "[Arrival ATIS] LTAC ARR ATIS G 1050Z EXP ILS V APCH 03C DEP RWY 03L RWY 03C WIND VRB 06 KT RWY 03L WIND VRB 06 KT TRL 110 VIS 9999 SCT04000 FT T 27 DP 08 QNH 1017 NOSIG FOR DELIVERY CTC 121.9. FOR DELIVERY FIRST USE DIGITAL DEP CLR. CTN BIRD HAZARD OVR AERODROME. APCH FREQUENCY 129.050. INDEPENDENT PARL DEPS INPR. END OF ATIS G",
    "UBBB": "[Arrival ATIS] UBBB ARR ATIS V 0624Z ATIS V EXP ILS/ LDG 34 35 DEP 34 35 IN USE RWY 34 CLEAR DRY 70 RWY 35 CLEAR DRY 70 TLVL 110 WIND WIND RWY 34 330 18 KT SPD MAX 28 MIN 12 WIND RWY 35 320 22 KT SPD MAX 28 MIN 16 VIS 10 KM FEW CB 6000 FT RWY 34 FEW CB 6000 FT RWY 35 T 25 / DP 18 QNH 1014 HPA TREND TREND NOSIG MODERATE BIRDS ACT IN VICINITY OF AP END OF ATIS V\n[Departure ATIS] UBBB DEP ATIS G 1030Z ATIS G EXP ILS/ LDG 34 35 DEP 34 35 IN USE RWY 34 CLEAR DRY 70 RWY 35 CLEAR DRY 70 TLVL 110 WIND WIND RWY 34 350 26 KT SPD MAX 34 MIN 18 WIND RWY 35 340 24 KT SPD MAX 34 MIN 18 VIS CAVOK T 31 / DP 21 QNH 1007 HPA TREND TREND NOSIG MODERATE BIRDS ACT IN VICINITY OF AP END OF ATIS G",
    "ZWWW": "[Arrival ATIS] ZWWW ARR ATIS R 0530Z EXP ILSDME Z APCH LDG RWY 26R TA 3000 WIND 300/5MPS CAVOK T 29 /DP 09 QNH 1008 HPA ADZ YOU HAVE INFO R.\n[Departure ATIS] ZWWW DEP ATIS H 0230Z DEP RWY 26L TA 3000 WIND VRB/1MPS CAVOK T 28 /DP 07 QNH 1008 HPA BIRDS ACTIVITY IN THE VICINITY OF THE AERODROME ADZ YOU HAVE INFO H.",
    "ZLXY": "[Arrival ATIS] ZLXY ARR ATIS X 0600Z EXP ILS APCH LDG RWY 05L & 06R WIND 100/3MPS VRB BTN 010/ AND 140/ VIS 9999M CLD SCT 600M /BKN 1800M T 24 /DP 18 QNH 1008 HPA ADZ YOU HAVE INFO X.\n[Departure ATIS] ZLXY DEP ATIS Z 1100Z DEP RWY 05L & 06L WIND 040/3MPS VRB BTN 010/ AND 070/ VIS 4500M -RA BR CLD SCT 240M /SCT 600M /OVC 1200M T 19 /DP 18 QNH 1011 HPA RUNWAY 05L SURFACE CONDITION CODE 555 RUNWAY 06L SURFACE CONDITION CODE 555 RUNWAY 06R SURFACE CONDITION CODE 555 ADZ YOU HAVE INFO Z.",
    "ZBAA": "[Arrival ATIS] ZBAA ARR ATIS P 0600Z EXP ILS APCH DEPENDENT PARL INSTR APCH LDG RWY 18R & 18L & 19 WIND 200 DEG 5G10 MPS 140V240 DEG CAVOK T 31 /DP 16 QNH 1005 HPA VISUAL APPROACH IS IN PROGRESS. ADZ YOU HAVE INFO P.\n[Departure ATIS] ZBAA DEP ATIS O 0530Z DEP RWY 18R & 18L & 19 WIND 210 DEG 6 MPS 150V250 DEG CAVOK T 30 /DP 16 QNH 1005 HPA RWY INDEPENDENT PARALLEL DEP VISUAL APPROACH IS IN PROGRESS. ADZ YOU HAVE INFO O.",
    "ZBHH": "[Arrival ATIS] ZBHH ARR ATIS Z 0100Z EXP ILSDME APCH LDG RWY 26 TA 3000 /TRL 3600 WIND 240/3MPS VRB BTN 190/ AND 290/ VIS 9999M CLD SCT 900M T 20 /DP 13 QNH 1010 HPA ADZ YOU HAVE INFO Z.\n[Departure ATIS] ZBHH DEP ATIS Q 1500Z DEP RWY 08 TA 3000 /TRL 3600 WIND 140/2MPS VIS 5000M BR NSC T 19 /DP 19 QNH 1007 HPA ADZ YOU HAVE INFO Q.",
    "ZSQD": "[Arrival ATIS] ZSQD ARR ATIS H 0300Z EXP ILSDME APCH LDG RWY 17 TA 3000 /TRL 3600 WIND 170/3MPS VRB BTN 140/ AND 200/ VIS 9999M CLD SCT 600M /BKN 1500M T 25 /DP 19 QNH 1008 HPA SEGREGATED OPERATION VISUAL APPROACH OPERATION IN PROGRESS. RUNWAY 17,IF MISSED APPROACH,EXPECT FOLLOW THE STANDARD MISSED APPROACH PROCEDURE,CLIMB TO 900M ON QNH OR BY ATC CAUTION MAYBE THERE IS A FLOCK OF BIRDS IN THE VICINITY OF AIRPORT ADZ YOU HAVE INFO H.\n[Departure ATIS] ZSQD DEP ATIS Y 2112Z DEP RWY 16 TA 3000 /TRL 3600 WIND 140/2MPS VIS 4000M BR CLD FEW 450M T 22 /DP 21 QNH 1009 HPA VISUAL APPROACH OPERATION IN PROGRESS. WHEN READY CONTACT QINGDAO TOWER ON 118.7 RUNWAY 16,IF MISSED APPROACH,EXPECT FOLLOW THE STANDARD MISSED APPROACH PROCEDURE,CLIMB TO 600M ON QNH OR BY ATC CAUTION MAYBE THERE IS A FLOCK OF BIRDS IN THE VICINITY OF AIRPORT ADZ YOU HAVE INFO Y."
  },
  "windtemp_alaska": "\n000\nFBAK31 KWNO 150800\nFD1AK1\nDATA BASED ON 150600Z    \nVALID 151200Z   FOR USE 0800-1500Z. TEMPS NEG ABV 24000\n\nFT  3000    6000    9000   12000   18000   24000  30000  34000  39000\nADK 2526 2634+10 2637+05 2640+00 2644-12 2648-23 275338 275747 275558\nADQ 2729 2727+01 2530-02 2434-08 2460-18 2473-28 249942 740049 246849\nAKN 2630 2729-02 2730-07 2732-11 2637-24 2550-34 256242 255442 244142\nANC 2016 1922-01 1923-06 2024-10 2126-21 2233-32 235443 234743 223341\nANN 3207 2606+09 2509+04 2808+00 3417-12 3521-25 352639 362749 362957\nBET 2826 2723-02 2723-07 2719-11 2205-22 1115-34 141247 241443 252241\nBRW 2106 2209+00 2109-05 1907-10 1809-22 2018-33 223247 212647 180742\nBTI 0707 9900+04 9900-02 2307-09 2317-19 2322-30 222746 222751 222044\nBTT 1006 1106+03 1506-03 1705-07 1606-20 1714-31 161347 151552 192043\nCDB 2611 2716+00 2620-04 2631-06 2656-17 2674-26 268840 269049 267655\nCZF 3010 9900-02 2305-06 2606-11 9900-23 1311-34 132348 160944 251242\nEHM 2725 2728-02 2628-06 2728-11 2733-23 2740-35 265045 264442 253542\nFAI 2117 1911+03 1713-03 1713-08 1822-19 1722-31 163147 152148 202442\nFYU 0810 9900+05 1707-02 1912-07 1924-18 1928-28 195046 193953 202044\nGAL 1915 1816+01 1712-03 1313-08 1315-20 1309-32 101048 091451 191242\nGKN 1629 1937+02 2129-02 2127-08 2129-21 2235-33 234843 234343 223343\nHOM 2527 2426-01 2426-05 2429-09 2344-20 2365-30 238143 246945 234644\nJNU 2008 2516+05 2723+05 2621+00 2525-13 2625-24 272741 242950 233557\nLUR 9900 1410-01 1507-06 1907-12 2410-23 2515-35 231946 231044 990041\nMCG 1817 1625+00 1626-05 1121-09 0911-19 1012-31 090750 201046 211640\nMDO 2516 2417+02 2424-01 2431-05 2450-17 2469-27 248441 259150 246050\nOME 0216 0210+00 0306-05 0105-10 1509-20 1515-32 161947 171650 230642\nORT      2414+03 2325-01 2327-06 2126-19 2040-31 194645 204645 233543\nOTZ 0408 0709+00 1106-05 9900-09 1912-20 1918-32 192147 191752 210742\nSNP 2512 2612-02 2614-06 2617-09 2520-21 2526-33 265044 265545 264344\nTKA 1820 1923-01 1923-06 1821-11 1714-21 1912-33 211645 222643 212940\nUNK 0505 9900+01 1305-03 1110-07 1408-20 1310-32 121347 111251 210741\nYAK 1616 2217+05 2230+00 2235-03 2450-14 2457-25 256241 266551 254353\nIKO 2318 2427+03 2534+03 2543-02 2647-13 2659-24 266540 266749 266358\nAFM 0908 1312+01 1612-03 1815-08 1915-20 2013-32 161247 151252 191242\n5AB 3020 2934+07 2944+03 2949-01 2852-12 2859-23 296337 296647 295957\n5AC 3215 3318+08 3421+05 3522+01 3519-12 3620-24 352339 352048 361758\n5AD 2725 2629+09 2631+05 2633+01 2631-11 2633-23 263440 263550 263561\n5AE 2616 2620+02 2635+00 2549-03 2560-15 2568-25 256939 257249 257258\n5AF 2716 2714+08 2717+05 2620+00 2721-12 2921-24 302540 302251 263057\n5AG 2523 2324+06 2428+03 2433-02 2447-12 2451-24 255840 266150 255157\n",
  "vaac_tokyo": [
    {
      "id": "20260714_27303000_0746",
      "year": "2026",
      "volcano": "Mayon",
      "psn": "N1315 E12341",
      "issued": "20260714",
      "text": "FVFE01 RJTD 142339\nVA ADVISORY\nDTG: 20260714/2339Z\nVAAC: TOKYO\nVOLCANO: MAYON 273030\nPSN: N1315 E12341\nAREA: PHILIPPINES\nSOURCE ELEV: 2462M AMSL\nADVISORY NR: 2026/746\nINFO SOURCE: HIMAWARI-9 PHIVOLCS\nERUPTION DETAILS: ERUPTION AT 20260714/2207Z FL130 EXTD SE REPORTED\nOBS VA DTG: 14/2320Z\nOBS VA CLD: VA NOT IDENTIFIABLE FM SATELLITE DATA WIND FL130 030/3KT\nFCST VA CLD +6 HR: NOT AVBL\nFCST VA CLD +12 HR: NOT AVBL\nFCST VA CLD +18 HR: NOT AVBL\nRMK: VA OF PREVIOUS VAA HAS DISSIPATED IN SATELLITE IMAGERY. NEW \nERUPTION REPORTED. WE WILL ISSUE FURTHER ADVISORY IF VA IS DETECTED \nIN SATELLITE IMAGERY.\nNXT ADVISORY: NO FURTHER ADVISORIES=",
      "img_url": "https://ds.data.jma.go.jp/svd/vaac/data/VAGFN/2026/Images/20260714_27303000_0746_QH21_01.png",
      "sat_img_url": "https://ds.data.jma.go.jp/svd/vaac/data/Sat/2026/Images/27303000/09-ir/20260714_2320_202607142339_ir.png",
      "text_url": "https://ds.data.jma.go.jp/svd/vaac/data/TextData/2026/20260714_27303000_0746_Text.html"
    },
    {
      "id": "20260714_30027000_0263",
      "year": "2026",
      "volcano": "Sheveluch",
      "psn": "N5639 E16122",
      "issued": "20260714",
      "text": "FVFE01 RJTD 141200\nVA ADVISORY\nDTG: 20260714/1200Z\nVAAC: TOKYO\nVOLCANO: SHEVELUCH 300270\nPSN: N5639 E16122\nAREA: RUSSIA\nSOURCE ELEV: 3283M AMSL\nADVISORY NR: 2026/263\nINFO SOURCE: HIMAWARI-9\nERUPTION DETAILS: VA CONTINUOUSLY OBS IN SATELLITE IMAGERY\nOBS VA DTG: 14/1120Z\nOBS VA CLD: SFC/FL390 N5359 E16539 - N5422 E16550 - N5414 E16656 - \nN5349 E16654 MOV SE 40KT\nFCST VA CLD +6 HR: 14/1720Z SFC/FL400 N5233 E17412 - N5141 E17210 - \nN5144 E17002 - N5224 E17116\nFCST VA CLD +12 HR: 14/2320Z SFC/FL400 N5147 W17910 - N5115 W17906 - \nN5025 E17725 - N5008 E17317 - N5113 E17652\nFCST VA CLD +18 HR: 15/0520Z SFC/FL400 N5217 W17056 - N5119 W17200 - \nN4942 W17651 - N4907 E17606 - N5056 W17716\nRMK: THE RESPONSIBILITY FOR THIS ASH EVENT IS BEING TRANSFERRED TO \nVAAC ANCHORAGE. THE NEXT ADVISORY WILL BE ISSUED BY VAAC ANCHORAGE \nBY 1800UTC UNDER HEADER FVAK21 PAWU. SOME PART OF VA OBSCURED BY MET \nCLOUD.\nNXT ADVISORY: NO FURTHER ADVISORIES=",
      "img_url": "https://ds.data.jma.go.jp/svd/vaac/data/VAGFN/2026/Images/20260714_30027000_0263_QH21_01.png",
      "sat_img_url": "https://ds.data.jma.go.jp/svd/vaac/data/Sat/2026/Images/30027000/09-ir/20260714_1120_202607141200_ir.png",
      "text_url": "https://ds.data.jma.go.jp/svd/vaac/data/TextData/2026/20260714_30027000_0263_Text.html"
    },
    {
      "id": "20260713_28208001_0083",
      "year": "2026",
      "volcano": null,
      "psn": "N3136 E13039",
      "issued": "20260713",
      "text": "FVFE01 RJTD 130254\nVA ADVISORY\nDTG: 20260713/0254Z\nVAAC: TOKYO\nVOLCANO: SAKURAJIMA (AIRA CALDERA) 282080\nPSN: N3136 E13039\nAREA: JAPAN\nSOURCE ELEV: 1117M AMSL\nADVISORY NR: 2026/83\nINFO SOURCE: JMA HIMAWARI-9\nERUPTION DETAILS: ERUPTED AT 20260713/0152Z FL100 EXTD N\nOBS VA DTG: 13/0230Z\nOBS VA CLD: SFC/FL100 N3136 E13039 - N3142 E13040 - N3141 E13044 - \nN3134 E13042 MOV NE 15KT\nFCST VA CLD +6 HR: 13/0830Z SFC/FL100 N3234 E13121 - N3145 E13155 - \nN3202 E13110 - N3227 E13051\nFCST VA CLD +12 HR: 13/1430Z SFC/FL100 N3318 E13206 - N3142 E13317 - \nN3134 E13226 - N3312 E13118\nFCST VA CLD +18 HR: NO VA EXP\nRMK: NIL\nNXT ADVISORY: 20260713/0600Z=",
      "img_url": "https://ds.data.jma.go.jp/svd/vaac/data/VAGFN/2026/Images/20260713_28208001_0083_QH21_01.png",
      "sat_img_url": "https://ds.data.jma.go.jp/svd/vaac/data/Sat/2026/Images/28208001/09-ir/20260713_0230_202607130254_ir.png",
      "text_url": "https://ds.data.jma.go.jp/svd/vaac/data/TextData/2026/20260713_28208001_0083_Text.html"
    },
    {
      "id": "20260712_27307000_0012",
      "year": "2026",
      "volcano": "Taal",
      "psn": "N1400 E12100",
      "issued": "20260712",
      "text": "FVFE01 RJTD 121243\nVA ADVISORY\nDTG: 20260712/1243Z\nVAAC: TOKYO\nVOLCANO: TAAL 273070\nPSN: N1400 E12100\nAREA: PHILIPPINES\nSOURCE ELEV: 311M AMSL\nADVISORY NR: 2026/12\nINFO SOURCE: HIMAWARI-9 PHIVOLCS\nERUPTION DETAILS: ERUPTION AT 20260712/1227Z FL050 EXTD NE REPORTED\nOBS VA DTG: 12/1230Z\nOBS VA CLD: VA NOT IDENTIFIABLE FM SATELLITE DATA WIND FL050 230/19KT\nFCST VA CLD +6 HR: NOT AVBL\nFCST VA CLD +12 HR: NOT AVBL\nFCST VA CLD +18 HR: NOT AVBL\nRMK: WE WILL ISSUE FURTHER ADVISORY IF VA IS DETECTED IN SATELLITE \nIMAGERY.\nNXT ADVISORY: NO FURTHER ADVISORIES=",
      "img_url": "https://ds.data.jma.go.jp/svd/vaac/data/VAGFN/2026/Images/20260712_27307000_0012_QH21_01.png",
      "sat_img_url": null,
      "text_url": "https://ds.data.jma.go.jp/svd/vaac/data/TextData/2026/20260712_27307000_0012_Text.html"
    }
  ],
  "vaac_alaska": [
    {
      "text": "\n000\nFVAK21 PAWU 151030\nVAAAK1\nVA ADVISORY\n\nDTG: 20260715/1030Z\n\nVAAC: ANCHORAGE\n\nVOLCANO: SHEVELUCH 300270\n\nPSN: N5639 E16122\n\nAREA: KAMCHATKA PENINSULA\n\nSOURCE ELEV: 10771 FT AMSL\n\nADVISORY NR: 2026/200\n\nINFO SOURCE: HIMAWARI\n\nERUPTION DETAILS: RESIDUAL VA VISIBLE IN SATELLITE IMAGERY.\n\nOBS VA DTG: 15/1030Z\n\nOBS VA CLD: FL100/FL280 N4936 E17508 - N4909 E17830 - N4815\nE17812 - N4851 E17428 - N4936 E17508 MOV SE 30KT\n\nFCST VA CLD +6HR: 15/1630Z FL100/FL280 N4925 E17932 - N4935\nW17706 - N4821 W17725 - N4818 E17849 - N4925 E17932 - N4925 E17932\n\nFCST VA CLD +12HR: 15/2230Z NO VA EXP\n\nFCST VA CLD +18HR: 16/0430Z NO VA EXP\n\nRMK: VA PARTIALLY OBSCURED BY MET CLOUDS...SC\n\nNXT ADVISORY: WILL BE ISSUED BY 20260715/1630Z=\n\n",
      "issued": "2026-07-15T10:30:00+00:00",
      "volcano": "Sheveluch",
      "psn": "N5639 E16122"
    }
  ]
}