{
  "updated_utc": "2026-07-16T03:54Z",
  "metar": {
    "RJAA": "METAR RJAA 160200Z 12007KT 070V160 8000 FEW015 BKN020 BKN/// 29/26 Q1001 NOSIG",
    "PANC": "METAR PANC 160253Z 29006KT 10SM BKN060 BKN200 16/08 A2997 RMK AO2 SLP149 T01560083 52007",
    "PAFA": "METAR PAFA 160253Z VRB06KT 10SM -RA FEW050 BKN070 BKN090 BKN180 16/09 A2981 RMK AO2 RAB40 SLP099 P0000 60000 T01610089 51008",
    "PAED": "METAR PAED 160155Z 24013KT 10SM BKN045 BKN055 18/06 A2994 RMK AO2A SLP135 T01800062 $",
    "KSEA": "METAR KSEA 160253Z 32007KT 10SM FEW050 SCT140 BKN200 24/08 A2997 RMK AO2 SLP152 ACC SE-W T02440078 55006 $",
    "ZSPD": "METAR ZSPD 160200Z 25005MPS 220V290 CAVOK 37/25 Q1003 NOSIG",
    "ZSSS": "METAR ZSSS 160200Z 32003MPS 290V350 CAVOK 38/25 Q1003 NOSIG",
    "RJFR": "METAR RJFR 160200Z 29011KT 9999 FEW030 33/25 Q1002",
    "VHHH": "METAR VHHH 160200Z 24009KT 9999 SHRA FEW006 SCT020 26/25 Q1007 TEMPO VRB15G30KT 2500 TSRA SHRA FEW008CB SCT015",
    "RCTP": "METAR RCTP 160200Z 25010KT 9999 FEW020 SCT200 33/25 Q1008 NOSIG RMK A2979",
    "ZGSZ": "METAR ZGSZ 160200Z 18006MPS 4500 SHRA BR SCT008 BKN033 26/25 Q1007 BECMG AT0220 -SHRA",
    "WSSS": "METAR WSSS 160200Z 12009KT 090V150 9999 SCT016 FEW020TCU BKN300 30/26 Q1012 NOSIG",
    "WMKK": "METAR WMKK 160200Z 07004KT 360V160 9000 FEW017CB 32/25 Q1012 NOSIG",
    "WIDD": "METAR WIDD 160200Z 16007KT 9999 FEW014 30/25 Q1013 NOSIG",
    "VTBS": "METAR VTBS 160200Z 20009KT 9999 FEW020 30/23 Q1011 NOSIG",
    "VTBU": "METAR VTBU 160200Z 24009KT 200V270 9999 FEW020 30/27 Q1012 NOSIG",
    "ROAH": "METAR ROAH 160200Z 23009KT 9999 FEW005 BKN009 30/28 Q1009",
    "VVDN": "METAR VVDN 160200Z 25005KT 200V310 9999 FEW020 BKN060 34/23 Q1007 NOSIG",
    "RCKH": "METAR RCKH 160200Z VRB02KT 9999 FEW018 SCT030 33/24 Q1010 NOSIG RMK A2984",
    "KLAX": "METAR KLAX 160253Z 24006KT 10SM FEW010 FEW250 23/18 A2977 RMK AO2 SLP080 T02280183 56006 $",
    "KONT": "METAR KONT 160253Z 24010KT 10SM FEW120 FEW250 31/16 A2979 RMK AO2 SLP067 T03110156 53002",
    "KSFO": "METAR KSFO 160156Z 30014KT 10SM CLR 18/11 A2990 RMK AO2 SLP126 T01830106",
    "KOAK": "METAR KOAK 160253Z 25012KT 10SM CLR 18/12 A2990 RMK AO2 SLP125 T01830122 56003",
    "KMHR": "METAR KMHR 160155Z AUTO 22013KT 9SM CLR 36/06 A2978 RMK AO2 T03620064 $",
    "KDFW": "METAR KDFW 160253Z 17006KT 10SM SCT100 BKN250 24/20 A3004 RMK AO2 SLP164 T02440200 53006 $",
    "KIAH": "METAR KIAH 160253Z 10007KT 10SM BKN170 OVC250 26/24 A3005 RMK AO2 SLP176 T02610244 53013",
    "KORD": "METAR KORD 160251Z 01005KT 10SM FEW045 BKN250 30/23 A3004 RMK AO2 SLP166 T03000228 53011",
    "KJFK": "METAR KJFK 160251Z 34008KT 10SM BKN046 OVC300 28/13 A2992 RMK AO2 SLP130 FU OVC300 T02780133 53019",
    "KRFD": "METAR KRFD 160254Z 00000KT 10SM SCT250 27/24 A3006 RMK AO2 SLP174 T02720244 53010",
    "KIND": "METAR KIND 160254Z 31004KT 10SM FEW050 BKN300 28/21 A3006 RMK AO2 SLP171 FU ALF T02780211 53008",
    "KDTW": "SPECI KDTW 160235Z 07005KT 1 1/2SM FU SCT000 BKN015 OVC045 27/21 A3002 RMK AO2 TWR VIS 3 FU SCT000 T02670206",
    "KMSP": "METAR KMSP 160253Z 04004KT 1 1/2SM FU OVC022 28/22 A3007 RMK AO2 SLP178 T02830217 53008",
    "CYEG": "METAR CYEG 160200Z 31005KT 20SM BKN050 BKN140 BKN210 22/20 A3002 RMK SC5AC1CI1 SLP166 DENSITY ALT 3700FT",
    "EHAM": "METAR EHAM 160155Z 03006KT 360V070 CAVOK 20/16 Q1021 NOSIG",
    "EBBR": "METAR EBBR 160220Z 02002KT CAVOK 16/11 Q1020 NOSIG",
    "EDDF": "METAR EDDF 160220Z AUTO 02008KT CAVOK 21/11 Q1018 NOSIG",
    "EDFH": "METAR EDFH 160220Z 11007KT CAVOK 18/11 Q1020",
    "EDDL": "METAR EDDL 160220Z AUTO 36003KT CAVOK 18/13 Q1019 NOSIG",
    "EDDK": "METAR EDDK 160220Z AUTO VRB01KT CAVOK 16/11 Q1019 NOSIG",
    "EBLG": "METAR EBLG 160220Z 03006KT CAVOK 18/10 Q1019 NOSIG",
    "LSZH": "METAR LSZH 160220Z AUTO VRB03KT 9999 -RA BKN074 18/17 Q1020 NOSIG",
    "LIMC": "METAR LIMC 160220Z 36003KT 300V030 CAVOK 22/19 Q1018 NOSIG",
    "LIRF": "METAR LIRF 160220Z 33004KT CAVOK 23/23 Q1016 NOSIG",
    "EINN": "METAR EINN 160200Z VRB02KT CAVOK 20/16 Q1023 NOSIG",
    "EGLL": "METAR EGLL 160220Z AUTO 04005KT 360V080 9999 NCD 17/14 Q1022",
    "EGSS": "METAR EGSS 160220Z AUTO 01008KT 6000 SCT004 15/14 Q1023",
    "EPWA": "METAR EPWA 160200Z 04006KT CAVOK 19/16 Q1021 NOSIG",
    "UHPP": "METAR UHPP 160200Z 20004MPS 9999 SCT014 BKN025 18/12 Q1017 R16R/CLRD62 NOSIG RMK MT OBSC QFE760/1013",
    "EFHK": "METAR EFHK 160220Z 35007KT CAVOK 16/11 Q1021 NOSIG",
    "LBBG": "METAR LBBG 160200Z AUTO 24005KT 9999 NCD 20/16 Q1016 NOSIG",
    "LTAC": "METAR LTAC 160220Z 02008KT CAVOK 15/11 Q1018 NOSIG RMK RWY21C 03007KT RWY03L 01006KT RWY21R 01005KT RWY03R 36009KT RWY21L 01007KT",
    "UBBB": "METAR UBBB 160200Z 32018KT CAVOK 26/20 Q1009 NOSIG",
    "UTAA": "METAR UTAA 160200Z 29012KT 6000 NSC 30/19 Q1007 R88/CLRD70 NOSIG",
    "UACC": "METAR UACC 160200Z 20004MPS 9999 SCT046 23/15 Q1004 NOSIG RMK QFE722/0963",
    "UAAA": "METAR UAAA 160200Z 36003MPS 9999 NSC 27/10 Q1009 NOSIG",
    "UZTT": "METAR UZTT 160200Z 04006KT CAVOK 31/10 Q1006 NOSIG",
    "ZWWW": "METAR ZWWW 160200Z 20003MPS CAVOK 32/07 Q1009 NOSIG",
    "ZLXY": "METAR ZLXY 160200Z 08005MPS 050V120 9999 FEW025 SCT040 30/23 Q1003 NOSIG",
    "ZBAA": "METAR ZBAA 160200Z 36004MPS CAVOK 30/21 Q1003 NOSIG",
    "ZBHH": "METAR ZBHH 160200Z 08003MPS 040V110 9999 SCT040 FEW040CB 23/13 Q1010 NOSIG",
    "ZSQD": "METAR ZSQD 160200Z 05002MPS 030V090 7000 SCT010 OVC026 25/24 Q1003 NOSIG",
    "ZMCK": "METAR ZMCK 160200Z 12004MPS 090V160 9999 FEW030CB SCT033 22/11 Q1009 NOSIG RMK QFE642.5 51 MOP",
    "UUEE": "METAR UUEE 160200Z 29004MPS CAVOK 16/14 Q1010 R24C/290145 NOSIG",
    "UUDD": "METAR UUDD 160200Z 28004MPS CAVOK 16/15 Q1011 R31L/CLRD65 NOSIG",
    "ULLI": "METAR ULLI 160200Z 03004MPS CAVOK 18/12 Q1019 R88/090065 NOSIG",
    "USSS": "SPECI USSS 160157Z 23002MPS 9999 OVC013 16/16 Q0995 R26L/290050 R26R/290040 NOSIG RMK QFE726/0968",
    "UNNT": "METAR UNNT 160200Z 15002MPS 9999 SCT040CB 22/14 Q1007 R25/CLRD// R34/CLRD// NOSIG RMK QFE745/0994",
    "UNKL": "METAR UNKL 160200Z VRB01MPS CAVOK 20/14 Q1009 R29/CLRD// NOSIG RMK QFE731",
    "UIBB": "METAR UIBB 160200Z 27004MPS 190V330 9999 BKN015CB 16/12 Q1008 R30/CLRD62 NOSIG RMK QFE713/0951",
    "UEEE": "METAR UEEE 160200Z 11004MPS CAVOK 25/17 Q0997 R23/09//64 NOSIG RMK QFE739",
    "UHHH": "METAR UHHH 160200Z 24008MPS 9999 SCT040 25/16 Q0993 R88/090060 NOSIG RMK QFE739/0985",
    "UHSS": "METAR UHSS 160200Z 27001MPS 9999 SCT009 BKN011 24/22 Q0992 R19/190065 NOSIG RMK MT OBSC QFE743/0991"
  },
  "taf": {
    "RJAA": "TAF RJAA 152305Z 1600/1706 13010KT 9999 FEW020 BKN040 TEMPO 1615/1621 3000 BR FEW005 BKN008",
    "PANC": "TAF PANC 152342Z 1600/1706 19012G20KT P6SM VCSH FEW025 BKN050 FM160600 18008KT P6SM BKN080 FM161400 17007KT P6SM VCSH SCT030 OVC040 FM161800 16010KT P6SM -RA SCT025 OVC040",
    "PAFA": "TAF PAFA 160324Z 1603/1706 24005KT P6SM -RA FEW040 OVC080 FM160600 22009G19KT P6SM -RA SCT025 OVC050 FM161200 23005KT P6SM BKN050",
    "PAED": "TAF AMD PAED 160325Z 1603/1703 24012KT 9999 SCT045 BKN060 QNH2995INS BECMG 1607/1608 33009KT 9999 SCT030 BKN050 QNH3000INS BECMG 1620/1621 25009KT 9999 -SHRA BKN031 OVC050 640753 QNH2997INS BECMG 1623/1624 32008KT 9000 -RA BKN015 OVC045 640703 QNH2995INS TX16/1603Z TN08/1613Z",
    "KSEA": "TAF KSEA 160307Z 1603/1706 33009KT P6SM FEW050 BKN150 BKN250 FM160600 VRB04KT P6SM VCSH BKN150 FM161200 25005KT P6SM VCSH OVC100 FM161600 21005KT P6SM -SHRA BKN025 OVC040 FM162000 23009KT P6SM VCSH OVC035",
    "ZSPD": "TAF ZSPD 152105Z 1600/1706 18004MPS 8000 SCT030 TX38/1606Z TX38/1706Z TN28/1621Z TEMPO 1606/1610 TSRA BKN008 SCT030CB",
    "ZSSS": "TAF ZSSS 152105Z 1600/1706 18004MPS 8000 SCT030 TX38/1606Z TX38/1706Z TN28/1621Z TEMPO 1606/1610 TSRA BKN011 SCT030CB",
    "RJFR": "TAF RJFR 152305Z 1600/1706 33010KT 9999 FEW045 BECMG 1618/1621 17004KT BECMG 1700/1703 01008KT",
    "VHHH": "TAF VHHH 160200Z 1603/1709 18010KT 9999 FEW010 SCT030 TX30/1606Z TX31/1706Z TN26/1622Z TEMPO 1603/1608 VRB15G30KT 2000 TSRA +SHRA FEW008CB SCT015 TEMPO 1608/1611 3000 SHRA FEW010CB SCT020 TEMPO 1617/1623 3000 SHRA FEW010CB SCT020 PROB30 TEMPO 1623/1705 24015G25KT 2500 TSRA SHRA FEW008CB SCT015",
    "RCTP": "TAF RCTP 152300Z 1600/1706 24010KT 9999 FEW010 BKN032 TEMPO 1600/1604 19005KT TEMPO 1604/1610 28015KT TEMPO 1612/1618 18005KT TEMPO 1618/1624 15005KT",
    "ZGSZ": "TAF ZGSZ 152107Z 1600/1706 18004MPS 8000 BKN040 TX30/1606Z TX31/1706Z TN26/1622Z TEMPO 1600/1603 SHRA FEW015 FEW020CB BKN030 TEMPO 1604/1608 2000 +SHRA SCT015 FEW020CB BKN030 TEMPO 1622/1701 SHRA FEW015 FEW020CB BKN030 TEMPO 1703/1706 SHRA FEW015 FEW020CB BKN030",
    "WSSS": "TAF WSSS 152300Z 1600/1706 14008KT 9999 FEW015 SCT020",
    "WMKK": "TAF WMKK 152300Z 1600/1706 11005KT 9999 FEW018",
    "VTBS": "TAF VTBS 152300Z 1600/1706 22008KT 9999 FEW020 TEMPO 1609/1614 VRB15KT 4000 TSRA FEW018CB SCT020 BKN080",
    "VTBU": "TAF VTBU 152300Z 1600/1624 24009KT 9999 FEW020 SCT100",
    "ROAH": "TAF AMD ROAH 160234Z 1602/1706 24010KT 9999 FEW008 BKN012 TEMPO 1602/1605 FEW005 BKN008 TEMPO 1612/1615 FEW005 BKN008 TEMPO 1615/1621 FEW003 BKN005 TEMPO 1621/1703 FEW005 BKN008",
    "VVDN": "TAF VVDN 152300Z 1600/1624 24010KT 9999 FEW020 SCT060 BECMG 1605/1606 01010KT BECMG 1611/1612 22008KT",
    "RCKH": "TAF RCKH 152300Z 1600/1706 18005KT 9999 FEW010 BKN032 TEMPO 1600/1604 08005KT TEMPO 1604/1610 24008KT 5000 SHRA FEW010 BKN020 TEMPO 1619/1701 08005KT 4000 SHRA FEW010 BKN018 TEMPO 1701/1706 24005KT",
    "KLAX": "TAF KLAX 160340Z 1604/1706 26006KT P6SM SKC FM160900 11005KT P6SM SCT008 FM161800 24006KT P6SM FEW010 FM162000 26012KT P6SM SKC FM170300 26005KT P6SM SCT250",
    "KONT": "TAF KONT 152329Z 1600/1706 25012G22KT P6SM FEW120 FM160500 27005KT P6SM FEW120 FM160900 VRB03KT P6SM FEW200 FM161900 25014G22KT P6SM FEW150",
    "KSFO": "TAF KSFO 160248Z 1603/1706 29015KT P6SM SKC FM160600 29015KT P6SM SKC FM162000 30020G30KT P6SM SKC",
    "KOAK": "TAF KOAK 152331Z 1600/1706 28016KT P6SM SKC FM160600 28010KT P6SM SKC FM161300 26007KT P6SM SCT010 FM162000 28016KT P6SM SKC",
    "KMHR": "TAF KMHR 152320Z 1600/1624 24013G19KT P6SM SKC FM160200 23011KT P6SM SKC FM160500 17006KT P6SM SKC FM161800 20005KT P6SM SKC FM162100 23009KT P6SM SKC",
    "KDFW": "TAF KDFW 160255Z 1603/1706 18011KT P6SM FEW025 BKN100 TEMPO 1614/1616 BKN018 FM161700 17013KT P6SM VCSH SCT035 BKN100 FM162300 18013KT P6SM BKN070",
    "KIAH": "TAF KIAH 160259Z 1603/1706 11006KT P6SM FEW020 BKN170 BKN250 FM161500 16007KT P6SM SCT025 BKN035 BKN250 FM161800 15009KT P6SM SCT035 BKN050 BKN100 FM170200 15004KT P6SM FEW020 SCT250",
    "KORD": "TAF KORD 160252Z 1603/1706 05007KT P6SM BKN300 FM160900 07004KT 5SM FU BKN035",
    "KJFK": "TAF KJFK 160235Z 1603/1706 35008KT 6SM FU BKN050 BKN250 FM160400 30007KT 6SM FU BKN250 FM161500 28012G20KT 5SM FU BKN250 FM162300 31012G21KT 6SM FU BKN250 FM170100 34010KT P6SM SCT250",
    "KRFD": "TAF KRFD 160252Z 1603/1624 VRB03KT P6SM BKN300 TEMPO 1608/1612 5SM BR BCFG FM161200 09003KT 6SM FU BKN035",
    "KIND": "TAF KIND 160221Z 1602/1706 27003KT P6SM SCT250 FM161300 27004KT P6SM FEW050 SCT250 FM161800 23006KT P6SM SCT050 BKN200",
    "KDTW": "TAF KDTW 160255Z 1603/1706 03005KT 1 1/2SM FU BKN030 BKN200 FM161400 35005KT 3SM FU BKN035 BKN200 FM170300 11004KT 6SM FU BKN200",
    "KMSP": "TAF KMSP 160258Z 1603/1706 04004KT 2SM FU OVC022 FM161400 17007KT 6SM FU SCT050 FM170200 13003KT P6SM FEW100",
    "CYEG": "TAF CYEG 160240Z 1603/1624 31005KT P6SM FEW050 SCT140 TEMPO 1603/1606 P6SM -SHRA BKN050 BKN140 FM160600 VRB03KT P6SM FEW020 SCT060 TEMPO 1606/1610 5SM -SHRA VCTS BR BKN020 BKN060CB FM161000 VRB03KT P6SM FEW008 TEMPO 1610/1614 BKN008 PROB30 1610/1614 1SM BR BKN003 FM161400 VRB03KT P6SM SCT015 TEMPO 1614/1618 BKN015 FM161800 22005KT P6SM FEW030 RMK NXT FCST BY 160600Z",
    "EHAM": "TAF EHAM 152312Z 1600/1706 04010KT CAVOK BECMG 1623/1702 33007KT PROB30 TEMPO 1702/1706 6000 BKN012",
    "EBBR": "TAF EBBR 152315Z 1600/1706 04008KT CAVOK",
    "EDDF": "TAF EDDF 152300Z 1600/1706 05008KT CAVOK BECMG 1612/1614 14006KT PROB30 TEMPO 1612/1618 20015G30KT TSRA SCT050CB BECMG 1614/1617 20005KT",
    "EDFH": "TAF EDFH 152300Z 1600/1624 10005KT CAVOK PROB40 TEMPO 1612/1615 20015G30KT TSRA SCT050CB BECMG 1615/1618 16006KT TEMPO 1615/1617 25020G40KT 2000 TSGRRA BKN040CB BECMG 1620/1623 23005KT",
    "EDDL": "TAF EDDL 152300Z 1600/1706 03005KT CAVOK BECMG 1600/1602 VRB03KT BECMG 1608/1611 02007KT BECMG 1622/1701 29004KT",
    "EDDK": "TAF EDDK 152300Z 1600/1706 VRB03KT CAVOK BECMG 1611/1614 01006KT PROB30 TEMPO 1612/1616 01015G25KT 3000 TSRA BKN050CB BECMG 1620/1623 16004KT PROB30 TEMPO 1700/1706 SHRA BKN040TCU",
    "EBLG": "TAF EBLG 152315Z 1600/1706 02005KT CAVOK",
    "LSZH": "TAF LSZH 160225Z 1603/1709 VRB02KT CAVOK TX31/1615Z TN17/1604Z TN17/1704Z BECMG 1611/1614 9999 FEW060 PROB40 1615/1618 12010KT TEMPO 1616/1624 SHRA SCT040TCU PROB40 TEMPO 1616/1623 22015G25KT TSRA SCT040CB PROB30 TEMPO 1616/1620 30015G35KT 4500 +RA PROB40 TEMPO 1705/1709 SHRA SCT050CB",
    "LIMC": "TAF LIMC 152300Z 1600/1706 02010KT CAVOK PROB30 TEMPO 1600/1603 TSRA BECMG 1603/1605 VRB05KT BECMG 1618/1620 36010KT TEMPO 1620/1704 4000 TSRA BKN010",
    "LIRF": "TAF LIRF 152300Z 1600/1706 VRB05KT CAVOK TEMPO 1600/1606 3000 BCFG BECMG 1609/1611 28012KT BECMG 1618/1620 VRB05KT",
    "EINN": "TAF EINN 152300Z 1600/1624 13005KT CAVOK BECMG 1617/1619 33010KT BECMG 1622/1624 01008KT",
    "EGLL": "TAF EGLL 152311Z 1600/1706 03008KT 9999 FEW040 TEMPO 1603/1608 BKN012 PROB30 TEMPO 1603/1607 BKN009 BECMG 1615/1618 09010KT BECMG 1623/1702 03008KT",
    "EGSS": "TAF AMD EGSS 160233Z 1602/1706 02008KT CAVOK TEMPO 1602/1607 8000 BKN008 PROB30 TEMPO 1602/1606 BKN004 TEMPO 1700/1706 BKN008",
    "EPWA": "TAF EPWA 160230Z 1603/1703 04005KT CAVOK",
    "UHPP": "TAF UHPP 160141Z 1603/1709 18003G12MPS 9999 BKN020CB TEMPO 1603/1609 BKN012 OVC015CB TEMPO 1609/1621 0700 FG VV002",
    "EFHK": "TAF EFHK 160224Z 1603/1703 01007KT CAVOK BECMG 1609/1611 18012KT BECMG 1622/1624 18002KT",
    "LBBG": "TAF LBBG 152300Z 1600/1624 VRB04KT 9999 SCT045 BECMG 1608/1610 12012KT TEMPO 1610/1617 5000 TSRA SCT030CB BKN040 BECMG 1617/1619 VRB04KT",
    "LTAC": "TAF LTAC 152240Z 1600/1624 VRB02KT CAVOK BECMG 1606/1608 04012KT SCT040 BECMG 1616/1618 CAVOK BECMG 1619/1621 VRB02KT",
    "UBBB": "TAF UBBB 152302Z 1600/1624 33022G32KT 9999 SCT015 FEW050CB TX29/1610Z TN24/1601Z TEMPO 1600/1606 34026G36KT BECMG 1608/1610 35018G28KT TEMPO 1612/1624 34014KT SCT020",
    "UTAA": "TAF UTAA 152245Z 1600/1624 34016KT 6000 SCT050 TX42/1609Z TEMPO 1600/1603 24018G28KT 3000 DRDU BECMG 1606/1608 02016KT 4000 DRDU BECMG 1616/1618 14014KT TEMPO 1620/1624 20010G20KT",
    "UACC": "TAF COR UACC 152300Z 1600/1624 20007MPS 9999 SCT030CB BKN050 TX30/1609Z TN17/1623Z TEMPO 1600/1606 24009G14MPS 2000 TSRA BKN030CB BECMG 1606/1608 24008MPS TEMPO 1606/1616 28012G17MPS 2000 TSRA BKN030CB BECMG 1616/1618 25004MPS SCT040 BKN100 TEMPO 1616/1624 30005MPS",
    "UAAA": "TAF UAAA 152302Z 1600/1624 35002G07MPS 9999 FEW050CB SCT100 TX38/1610Z TN20/1601Z TEMPO 1600/1603 17003MPS TEMPO 1605/1614 05005G10MPS BECMG 1614/1615 14005MPS",
    "UZTT": "TAF UZTT 152300Z 1600/1624 07010KT 7000 NSC TX41/1611Z TN26/1600Z TEMPO 1606/1616 32015KT",
    "ZWWW": "TAF ZWWW 152105Z 1600/1706 20004MPS CAVOK TX38/1609Z TX38/1706Z TN28/1623Z BECMG 1602/1603 36004MPS BECMG 1614/1615 18004MPS BECMG 1702/1703 36004MPS",
    "ZLXY": "TAF ZLXY 152114Z 1600/1624 06004MPS 5000 HZ NSC TX34/1607Z TN22/1622Z BECMG 1609/1610 33008G15MPS TSRA FEW030CB OVC050 BECMG 1613/1614 26004MPS -RA OVC050 BECMG 1617/1618 HZ",
    "ZBAA": "TAF ZBAA 152104Z 1600/1706 18004MPS CAVOK TX33/1606Z TX33/1706Z TN24/1621Z",
    "ZBHH": "TAF ZBHH 152106Z 1600/1624 23004MPS 9999 FEW040 TX30/1608Z TN16/1622Z TEMPO 1607/1610 -TSRA FEW040CB FEW040",
    "ZSQD": "TAF ZSQD 152107Z 1600/1624 02004MPS 6000 NSC TX30/1606Z TN22/1620Z",
    "ZMCK": "TAF ZMCK 152242Z 1600/1706 VRB02MPS 9999 FEW030CB SCT033 TX23/1607Z TN11/1621Z PROB40 TEMPO 1600/1610 VRB08MPS 6000 TSRA SCT027CB SCT030 BECMG 1602/1605 31006MPS BECMG 1610/1612 VRB02MPS",
    "UUEE": "TAF UUEE 160150Z 1603/1703 32005MPS 9999 SCT020 TX21/1612Z TN10/1702Z TEMPO 1605/1617 35010G17MPS",
    "UUDD": "TAF UUDD 160155Z 1603/1709 29006MPS 9999 BKN016 TX20/1612Z TN10/1701Z BECMG 1606/1607 35006MPS TEMPO 1607/1618 36009G17MPS TEMPO 1706/1709 35008G15MPS",
    "ULLI": "TAF ULLI 160152Z 1603/1703 04005G10MPS 9999 SCT017 BECMG 1616/1618 04003MPS",
    "USSS": "TAF USSS 160151Z 1603/1703 23003G08MPS 6000 BKN011CB TEMPO 1603/1604 BKN004 BKN011CB FM160400 27003G14MPS 9999 -SHRA BKN020CB TEMPO 1604/1619 -TSRA",
    "UNNT": "TAF UNNT 160200Z 1603/1703 14003G08MPS 9999 SCT040 TX25/1611Z TN14/1622Z TEMPO 1603/1703 -TSRA BKN020CB BECMG 1610/1614 10008G15MPS BECMG 1615/1619 22003G08MPS",
    "UNKL": "TAF UNKL 160158Z 1603/1703 15003G08MPS CAVOK FM162300 24005MPS 4500 -SHRA BKN016CB TEMPO 1623/1624 11003G08MPS 6000 -SHRA BECMG 1700/1702 11003G08MPS 6000 -SHRA",
    "UIBB": "TAF UIBB 160200Z 1603/1703 27003G08MPS 9999 -SHRA BKN016CB TEMPO 1603/1612 VRB08MPS BECMG 1616/1618 21005MPS",
    "UEEE": "TAF UEEE 160200Z 1603/1709 10005G10MPS 9999 SCT030CB OVC100 TX27/1606Z TN16/1618Z TEMPO 1603/1615 VRB16MPS 5000 -TSRA",
    "UHHH": "TAF UHHH 160152Z 1603/1709 24008G13MPS 9999 SCT020CB TX27/1606Z TN18/1618Z TEMPO 1603/1610 5000 -SHRA FEW006 BKN016CB BECMG 1612/1614 20003G08MPS BECMG 1700/1702 24008G13MPS",
    "UHSS": "TAF AMD UHSS 160325Z 1603/1709 25003MPS 9999 BKN025CB BECMG 1612/1614 19003MPS BKN004 BECMG 1623/1701 SCT040"
  },
  "atis": {
    "RJAA": "[Arrival ATIS] RJAA ARR ATIS O 1110Z M1100 (APCH)ILS Z RWY34R LDG RWY 34R DEP RWY 34L DEP FREQ 124.2. TWY A1 CLSD. OBSERVE GEAR DOWN OPS PROC ON FNL. M 221100Z 06005KT 010V100 20KM FEW010ST BKN030SC 19/16 Q1005/A2969= Q/TWO NINE SIX NINE STP\n[Departure ATIS] RJAA DEP ATIS P 1132Z M1130 (APCH)ILS Z RWY34R LDG RWY 34R DEP RWY 34L DEP FREQ 124.2. TWY A1 CLSD. OBSERVE GEAR DOWN OPS PROC ON FNL. M 221130Z 07007KT 030V100 20KM FEW010ST BKN030SC 19/16 Q1005/A2970= Q/TWO NINE SEVEN ZERO STP",
    "PANC": "[Arrival ATIS] PANC ARR ATIS O 1053Z ANC ATIS INFO O 1053Z. 19009G20KT 10SM SCT110 BKN180 13/09 A3007 (THREE ZERO ZERO SEVEN) RMK AO2 SLP182 T01330089. ILS RWY 15 APPROACHES IN USE. LANDING RWY 15, DEPARTING RWY 25L. NOTICE TO AIRMEN. RWY 25R CLSD. CHECK NOTAMS FOR TAXIWAY CLOSURES. CONTACT TOWER 118.3 FOR TAXI. ...ADVS YOU HAVE INFO O.\n[Departure ATIS] PANC DEP ATIS I 0353Z ANC ATIS INFO I 0353Z. 14016G33KT 10SM OVC055 14/08 A3007 (THREE ZERO ZERO SEVEN). ILS RWY 15 APPROACHES IN USE. LANDING RWY 15, DEPARTING RWY 25L. NOTICE TO AIRMEN. TWY Q",
    "KSEA": "[Arrival ATIS] KSEA ARR ATIS K 0353Z - KSEA ATIS INFO K 0353Z. 32005KT 10SM FEW050 SCT150 BKN250 23/07 A2997 (TWO NINER NINER SEVEN). ILS AND CHARTED VISUAL APPROACH RWYS 34L AND 34R , APCH IN USE. DEPG RWY 34R. SIMUL ARRIVALS TO RWY 34L AND DEPARTURES TO RWY 34R ARE IN USE. SIMUL APCHS IN USE TO PARA RYS. NOTAMS... BIRD ACTIVITY VICINITY ARPT. HAZD WX INFO FOR WESTERN WA CONTACT FLIGHT SERVICE. ...ADVS YOU HAVE INFO K.\n[Departure ATIS] KSEA DEP ATIS I 0153Z SEA ATIS INFO I 0153Z. 31008KT 10SM FEW050 BKN150 BKN230 27/08 A2996 (TWO NINER NINER SIX). ILS AND CHARTED VISUAL APPROACH RWYS 34L AND 34R , APCH IN USE. DEPG RWY 34R. SIMUL ARRIVALS TO RWY 34L AND DEPARTURES TO RWY 34R ARE IN USE. SIMUL APCHS IN USE TO PARA RYS. NOTAMS... BIRD ACTIVITY VICINITY ARPT. HAZD WX INFO FOR WESTERN WA CONTACT FLIGHT SERVICE. ...ADVS YOU HAVE INFO I.",
    "ZSPD": "[Arrival ATIS] ZSPD ARR ATIS J 1130Z EXP ILS APCH INDEPENDENT PARL INSTR APCH LDG RWY 35L & 34R WIND RWY 35L TDZ 360/6MPS MID 010/5MPS END 020/4MPS RWY 34R TDZ 010/5MPS MID 020/5MPS END 030/6MPS VIS RWY 35L TDZ 10000M MID 10000M END 10000M VIS RWY 34R TDZ 10000M MID 10000M END 10000M FBL SHRA CLD BKN 150M T 23 /DP 23 QNH 1002 HPA CAUTION THE BIRDS NEAR THE RUNWAY RWY 35R/35L/34R/34L RWYCC 5/5/5 ISSUED AT 1750 WET/WET/WET DPT NR/NR/NR COV 100PCT/100PCT/100PCT. ADZ YOU HAVE INFO J.\n[Departure ATIS] ZSPD DEP ATIS E 1005Z DEP RWY 17L & 16R WIND RWY 17L TDZ 110/6MPS MID 120/6MPS END 120/6MPS RWY 16R TDZ 130/5MPS MID 130/6MPS END 130/6MPS VIS RWY 17L TDZ 10000M MID 10000M END 10000M VIS RWY 16R TDZ 9000M MID 8000M END 8000M FBL SHRA CLD BKN 120M /FEW CB 900M T 23 /DP 23 QNH 1001 HPA CAUTION THE BIRDS NEAR THE RUNWAY RWY 17L/17R/16L/16R RWYCC 5/5/5 ISSUED AT 1001 WET/WET/WET DPT NR/NR/NR COV 100PCT/100PCT/100PCT. ADZ YOU HAVE INFO E.",
    "ZSSS": "[Arrival ATIS] ZSSS ARR ATIS A 1034Z EXP ILS APCH LDG RWY 36R WIND RWY 36R TDZ 030/5MPS MID 020/5MPS END 360/4MPS VIS RWY 36R TDZ 10000M MID 10000M END 10000M FBL SHRA CLD BKN 240M /OVC 1200M T 22 /DP 22 QNH 1002 HPA SUPPLEMENT INFO RESHRA RWY36L RWYCC 5/5/5 ISSUED AT 0640 WET/WET/WET DPT NR/NR/NR COV 100PCT/100PCT/100PCT RWY36R RWYCC 5/5/5 ISSUED AT 0640 WET/WET/WET DPT NR/NR/NR COV 100PCT/100PCT/100PCT QNH OF SHANGHAI TERMINAL CONTROL AREA 1003 HPA ADZ YOU HAVE INFO A.\n[Departure ATIS] ZSSS DEP ATIS C 1130Z DEP RWY 36L WIND RWY 36L TDZ 060/2MPS VRB BTN 020/ AND 100/ MID 030/3MPS END 040/5MPS VIS RWY 36L TDZ 10000M MID 10000M END 10000M FBL SHRA CLD BKN 210M T 23 /DP 22 QNH 1002 HPA RWY36L RWYCC 5/5/5 ISSUED AT 0640 WET/WET/WET DPT NR/NR/NR COV 100PCT/100PCT/100PCT RWY36R RWYCC 5/5/5 ISSUED AT 0640 WET/WET/WET DPT NR/NR/NR COV 100PCT/100PCT/100PCT QNH OF SHANGHAI TERMINAL CONTROL AREA 1002 HPA ADZ YOU HAVE INFO C.",
    "VHHH": "[Arrival ATIS] VHHH ARR ATIS C 1134Z ARRIVALS, RWY 25R. EXP RNAV TRANSITION TO ILS APCH, RWY 25R. RNP APCH IS AVBL ON REQ, RWY 25R. RWY 25C CLSD. WIND 220/10KT. VIS 10KM. CLD FEW 1200FT. T31 DP25. QNH 1004HPA. ACK INFO C ON FIRST CTC WITH APP.\n[Departure ATIS] VHHH DEP ATIS Q 1036Z DEPARTURES, RWY 25L. RWY 25C CLSD. WIND 150/07KT VRB BTN 090/ AND 180/. VIS 10KM. CLD FEW 1500FT. T32 DP25. QNH 1003HPA. ACK INFO Q ON FIRST CTC WITH DELIVERY .",
    "RCTP": "[Arrival ATIS] RCTP ARR ATIS H 1130Z EXP ILS APCH RWY23R AND RWY23L ARR/DEP. WIND VRB/02KT VIS 10 KM OR MORE CLD FEW 2000FT T 30 DP 25 QNH 1004HPA NOSIG INFORM TAIPEI APCH OR TAIPEI TOWER ON INITIAL CONTACT YOU HAVE INFORMATION H\n[Departure ATIS] RCTP DEP ATIS N 2130Z EXP ILS APCH RWY23L ARR/DEP. RWY23R CLSD BTN 1700Z AND 2230Z FOR INSPECTION. WIND 240/07KT VIS 10 KM OR MORE CLD FEW 2000FT SCT 20000FT T 27 DP 24 QNH 1008HPA",
    "ZGSZ": "[Arrival ATIS] ZGSZ ARR ATIS B 0314Z EXP ILS APCH 15 EXP ILS OR VIS APCH 16R WIND 190/5MPS VIS 7000M -SHRA CLD SCT 240M /BKN 900M T 26 /DP 25 QNH 1007 HPA INDEPENDENT PARALLEL DEPARTURES DEPENDENT PARALLEL APPROACHES MISSED APPROACH ALTITUDE SETTING 1200METERS WHEN AIRBORNE CONTACT ZHUHAI APPROACH EXPECTED RNP ILS DME Z APPROACH RWY 15 16L 16R RWYCC 5/5/5 ISSUED AT 2315UTC WET/WET/WET DPT NR/NR/NR COV 100PCT/100PCT/100PCT ADZ YOU HAVE INFO B.\n[Departure ATIS] ZGSZ DEP ATIS O 1108Z DEP RWY 15 & 16L WIND 160/8MPS CAVOK T 30 /DP 27 QNH 1004 HPA INDEPENDENT PARALLEL DEPARTURES DEPENDENT PARALLEL APPROACHES V17,V18 AVAILABLE AFTER SULAS FLY HEADING 040 MISSED APPROACH ALTITUDE SETTING 1200METERS WHEN AIRBORNE CONTACT ZHUHAI APPROACH EXPECTED RNP ILS DME Z APPROACH ADZ YOU HAVE INFO O.",
    "WSSS": "[Arrival ATIS] WSSS ARR ATIS R 1130Z METREPORT 1130Z ILS APCHRWY 02L SIMUL INDEPENDENT ILS AND VISUAL APPROACHES ARE BEING CONDUCTED ON RWY 02. TWY W 9 CLOSED, RWY 02C 20C RAPID EXIT TAXIWAY INDICATOR LIGHTS OFFFOLLOW THE GREENS TRIAL IN PROGRESS. WHEN VACATING THE RWY, PILOTS TO ADHERE TO ATC VERBAL INSTRUCTIONS. WHEN ON TWY, PILOT TO ADHERE TO FOLLOW THE GREENS INSTRUCTIONS. WHEN APPROACHING [A] JUNCTION, KEEP [A] LOOKOUT FOR CONTINUOUS GREENS. [IF] [A] BREAK IN THE GREENS IS OBSERVED, STOP AND CLARIFY WITH ATC. FOLLOW THE GREENS TRIAL IN PROGRESS. WHEN VACATING THE RWY, PILOTS TO ADHERE TO ATC VERBAL INSTRUCTIONS. WHEN ON TWY, PILOT TO ADHERE TO FOLLOW THE GREENS INSTRUCTIONS. WHEN APPROACHING [A] JUNCTION, KEEP [A] LOOKOUT FOR CONTINUOUS GREENS. [IF] [A] BREAK IN THE GREENS IS OBSERVED, STOP AND CLARIFY WITH ATC. WIND CALM. VIS 10KM CLD FEW 1600FT T26 DP25 QNH 1010HPA NOSIG ACK ATIS R\n[Departure ATIS] WSSS DEP ATIS N 0933Z METREPORT 0933Z RWY 20C SIMUL INDEPENDENT ILS AND VISUAL APPROACHES ARE CONDUCTED ON RWY 20. TWY W 9 CLOSED, RWY 02C 20C RAPID EXIT TAXIWAY INDICATOR LIGHTS OFF WIND 220/ 10KT VIS 10KM FBL RA CLD FEW 1200FT SCT 1600FT T27 DP24 QNH 1009HPA NOSIG DEP,INITIAL CMB 3000FT ACK ATIS N",
    "WMKK": "[Arrival ATIS] WMKK ARR ATIS F 1104Z WMKK ARR INFO F. TIME 1100. INDEPENDENT PARALLEL APPROACHES FOR RWY 32 R AND 33 ARE IN PROGRESS. EXP RNAV / ILS APCH FOR RWY 32 RIGHT. EXP RNAV / ILS APCH FOR RWY 33. WIND RWY 32R DIRECTION NOT AVBL SPEED NOT AVBL. WIND RWY 32L DIRECTION NOT AVBL SPEED NOT AVBL. WIND RWY 33 DIRECTION NOT AVBL SPEED NOT AVBL. VIS RWY 32R TDZ NOT AVBL. VIS RWY 33 TDZ NOT AVBL. CLD FEW 1800 FT. T 29. DP 25. QNH 1008. NOSIG. AT FIRST CONTACT WITH LUMPUR RADAR, NOTIFY RCPT OF F\n[Departure ATIS] WMKK DEP ATIS Q 0734Z WMKK DEP INFO Q. TIME 0730. INDEPENDENT PARALLEL DEPARTURES FOR RWY 32 L AND 33 ARE IN PROGRESS. RWY 32 LEFT. RWY 33. WIND RWY 32L DIRECTION NOT AVBL SPEED NOT AVBL. WIND RWY 33 DIRECTION NOT AVBL SPEED NOT AVBL. VIS RWY 32L TDZ NOT AVBL. VIS RWY 33 TDZ NOT AVBL. CLD SCT 1800 FT. T 33. DP 23. QNH 1008. NOSIG. ALL DEP ACFT TO CONTACT LUMPUR DEP AT 135 DECIMAL 25 MHZ WHEN ABN. AT FIRST CONTACT WITH LUMPUR GROUND, NOTIFY RCPT OF Q",
    "VTBS": "[Arrival ATIS] VTBS ARR ATIS D 0000Z VTBS ARR ATIS D 0004Z EXP ILS Z APCH ARR RWY 19 OR RNP APCH RWY 20R , ,PILOT SHALL ADZ BKK APCH ON INITIAL CTC IF UNA TO CONDUCT RNP APCH DUE TO OPERATIONAL CONSTRAINT 0000Z\n[Departure ATIS] VTBS DEP ATIS P 1000Z VTBS DEP ATIS P 1001Z SIMULTANEOUS INDEPENDENT PARL DEP IN PROGRESS DEP RWY 20L OR DEP RWY 19 , ,AFT AIRBORNE ALL DEPARTING ACFT SHALL CTC 119.25 1000Z WIND 320/7KT VRB BTN 280/ AND 340/ VIS 10KM CLD FEW 2000FT T34 DP21 QNH 1006HPA TREND NOSIG ADZ GND WHEN INITIAL CONTACT YOU HAVE INFO P",
    "VTBU": "[Arrival ATIS] VTBU ARR ATIS U 0430Z VTBU ARR ATIS U 0430Z RNP RWY 18 TRL FL130 MOBILE ACFT ARST SYSTEM INSTL ATP SIX HUNDRED AND TEN METERS FM THR RWY 36 CABLE HGT 3 INCHES. 0430Z WIND 360/6KT VRB BTN 320/ AND 020/ VIS 10KM CLD FEW 2000FT T34 DP27 QNH 1010HPA TREND NOSIG ADZ CONTROLLER WHEN INITIAL CONTACT YOU HAVE INFO U\n[Departure ATIS] VTBU DEP ATIS D VTBU ARR/DEP DATIS RPT VTBU ARR ATIS D 0330Z ILS \"Z\" APCH RWY 18 TRL FL130 0330Z WIND 110/4KT VRB BTN 350/ AND 120/ VIS 6KM CLD FEW 2000FT T31 DP27 QNH 1014HPA TREND NOSIG ADZ CONTROLLER WHEN INITIAL CONTACT YOU HAVE INFO D",
    "ROAH": "[Arrival ATIS] ROAH ARR ATIS L 0115Z M0100 (APCH)ILS RWY18R LDG RWY 18R DEP RWY 18L DEP FREQ 126.5 258.3 M 160100Z 23008KT 160V260 15KM FEW005ST SCT007ST BKN009CU 29/27 Q1009/A2981= Q/TWO NINE EIGHT ONE STP\n[Departure ATIS] ROAH DEP ATIS X 0517Z M0500 (APCH)RNP RWY18R LDG RWY 18R DEP RWY 18L DEP FREQ 126.5 258.3 M 220500Z 23007KT 50KM FEW015CU 30/26 Q1007/A2975= Q/TWO NINE SEVEN FIVE STP",
    "VVDN": "[Arrival ATIS] VVDN ARR ATIS Y 1102Z VVDN INFO Y 1102Z. ILS VICTOR APPROACH 35L.. DPTG RWY 35R.. 1102Z. WIND 130/07KT CAVOK T32 DP26 QNH 1005HPA TREND NOSIG. ADZ ON INITIAL CTC YOU HAVE INFO. Y.\n[Departure ATIS] VVDN DEP ATIS N 0423Z VVDN INFO N 0423Z. ILS VICTOR APPROACH 35L.. DPTG RWY 35R.. 0423Z. WIND 010/02KT CAVOK T36 DP24 QNH 1008HPA TREND NOSIG. WS ALL RWY. ADZ ON INITIAL CTC YOU HAVE INFO. N.",
    "RCKH": "[Arrival ATIS] RCKH ARR ATIS T 1130Z EXPECT ILS APPROACH RWY 09 ARR/DEP TAXIWAY JULIETT, TAXIWAY BRAVO, TAXIWAY DELTA AND TAXIWAY ECHO CLOSED DUE MAINTENANCE. RUNWAY 0 9 ARRIVALS PLAN VACATE VIA CHARLIE OR FOXTROT AND EXPEDITE VACATE. WIND 270/06KT VARYING BTN 240 AND 300 VIS 10 KM OR MORE CLD SCT 1800FT T 29 DP 25 QNH 1005HPA NOSIG CAUTION BIRD ACTIVITY IN VICINITY OF THE AERODROME. INFORM KAO-HSIUN APCH OR KAO-HSIUN TOWER ON INITIAL CONTACT YOU HAVE INFORMATION T\n[Departure ATIS] RCKH DEP ATIS M 1300Z EXPECT ILS APPROACH RWY 09 ARR/DEP RWY SFC RWY 09 SFC COND 5/5/5 ISSUED AT 2227Z. 100/100/100 NR/NR/NR WET/WET/WET TAXIWAY JULIETT, TAXIWAY BRAVO, TAXIWAY DELTA AND TAX",
    "KLAX": "[Arrival ATIS] KLAX ARR ATIS D 1053Z LAX ATIS INFO D 1053Z. 26004KT 10SM FEW010 BKN012 17/14 A2989 (TWO NINER EIGHT NINER) RMK AO2 SLP119 T01670144. INST APCHS AND RNAV RNP APCHS ILS RY 24R, OR VCTR FOR VISUAL APCH WILL BE PROVIDED, SIMUL VISUAL APCHS TO ALL RWYS ARE IN PROG, SIMUL INSTR DEPARTURES IN PROG RWYS 24 AND 25. CTC L A GC ON 121.75 FOR PUSH OR TAXI ON A. RWY 2 5 LEFT 7 RIGHT CLSD. TWY C CLSD BTN TWY, C8 AND TWY C9 , , TWY B CLSD BTN TWY, F AND TWY B1, TWY B1 CLSD, TWY H CLSD BTWN TWY J AND TWY Q. TWY L CLSD BTWN RWY25L AND RWY 25R. TWY C10 CLSD BTWN TWY B AND TWY C. TXL C10 CLSD. TWY C CLSD BTWN TWY C9 AND TWY J. ILS RY 25R OTS, RY 25R SFL OTS, RY 24L ALSF-2 OTS. UNAUTHORIZED UAS ACTIVITY IN VICINITY OF AIRPORT. LAX VOR UNMONITORED. IF ASSIGNED RUNWAY 25R FOR DEPARTURE, EXPECT DEPARTURE FROM INTERSECTION FOXTROT. TAXIWAY CHARLIE EIGHT BTWN TWY B AND TWY C AND TAXIWAY CHARLIE NINE BTWN TWY B AND TWY C ARE RESTRICTED TO AIRCRAFT WITH A WINGSPAN LESS THAN ONE HUNDRED EIGHTEEN FEET. USE CAUTION FOR INCREASED DRONE ACTIVIY IN THE VICINITY OF SOFI STADIUM AT OR BELOW 200FT AGL DURING THE WORLD CUP FROM 06/12/26 THROUGH 07/10/2026. HAZD WX INFO FOR LAX AREA AVBL FM FSS. BIRD ACTIVITY VICINITY ARPT. TWR FREQ FOR ALL RWYS IS 120.95. CD AND GC FREQ IS 121.75. INCLUDE YOUR CALL SIGN IN ALL READBACKS. USE CAUTION WHEN EXITING RY24R AT TWY V, W, AND Y, TO HOLD SHORT OF RY24L. MULTIPLE RUNWAY INCURSIONS HAVE OCCURRED. ...ADVS YOU HAVE INFO D.\n[Departure ATIS] KLAX DEP ATIS U 0653Z LAX ATIS INFO U 0653Z. 23008KT 10SM FEW015 17/14 A2990 (TWO NINER NINER ZERO) RMK AO2 SLP124 T01670144. INST APCHS AND RNAV RNP APCHS RY 24R AND 25L, OR VCTR FOR VISUAL APCH WILL BE PROVIDED, SIMUL VISUAL APCHS TO ALL RWYS ARE IN PROG, SIMUL INSTR DEPARTURES IN PROG RWYS 24 AND 25. CTC L A GC ON 121.75 FOR PUSH OR TAXI ON A. TWY C CLSD BTN TWY, C8 AND TWY C9 , , TWY B CLSD BTN TWY, F AND TWY B1, TWY B1 CLSD. ILS RY 25R OTS, RY 25R SFL OTS, RY 24L ALSF-2 OTS. UNAUTHORIZED UAS ACTIVITY IN VICINITY OF AIRPORT. LAX VOR UNMONITORED. IF ASSIGNED RUNWAY 25R FOR DEPARTURE, EXPECT DEPARTURE FROM INTERSECTION FOXTROT. TAXILANE CHARLIE EIGHT RESTRICTED TO AIRCRAFT WITH A WINGSPAN LESS THAN ONE HUNDRED EIGHTEEN FEET. USE CAUTION FOR INCREASED DRONE ACTIVIY IN THE VICINITY OF SOFI STADIUM AT OR BELOW 200FT AGL DURING THE WORLD CUP FROM 06/12/26 THROUGH 07/10/2026. HAZD WX INFO FOR LAX AREA AVBL FM FSS. BIRD ACTIVITY VICINITY ARPT. TWR FREQ FOR ALL RWYS IS 120.95. CD AND GC FREQ IS 121.75. INCLUDE YOUR CALL SIGN IN ALL READBACKS. USE CAUTION WHEN EXITING RY24R AT TWY V, W, AND Y, TO HOLD SHORT OF RY24L. MULTIPLE RUNWAY INCURSIONS HAVE OCCURRED. ...ADVS YOU HAVE INFO U.",
    "KONT": "[Arrival ATIS] KONT ARR ATIS T 2153Z ONT ATIS INFO T 2153Z. 23011G18KT 10SM FEW120 FEW250 38/14 A2981 (TWO NINER EIGHT ONE). ILS AND VIS APR IN USE, RY26L & RY26R. LNDG AND DEPG RY 26L AND RY 26R. NOTAMS... TAXIWAY SIERRA FIVE CLOSED. TAXIWAY SIERRA CLOSED BETWEEN TAXIWAY SIERRA 8 AND TAXIWAY WHISKEY. RY 26L IM OTS, RY 26R ALS OTS. USE CAUTION FOR NUMEROUS BIRDS OBSERVED IN VICINITY OF ONT. HAZD WX INFO FOR SOUTHERN CA AVBL ON FSS FREQUENCIES. PILOTS READBACK RWY ASSIGNMENTS AND HOLD SHORT INSTRUCTIONS. ...ADVS YOU HAVE INFO T.\n[Departure ATIS] KONT DEP ATIS N 0553Z - KONT ATIS INFO N 0553Z. 24004KT 10SM BKN250 22/15 A2988 (TWO NINER EIGHT EIGHT) RMK AO2 SLP100. ILS AND VIS APR IN USE, RY26L & RY26R. LNDG AND DEPG RY 26L AND RY 26R. NOTAMS... TAXIWAY SIERRA CLSD BETWEEN SIERRA 8 AND W TAXIWAY Q SOUTH OF RWY 26L CLSD TAXIWAY T CLSD TAXIWAY SIERRA 5 CLSD. RY 26L IM OTS, RY 26R ALS OTS. USE CAUTION FOR NUMEROUS BIRDS OBSERVED IN VICINITY OF ONT. HAZD WX INFO FOR SOUTHERN CA AVBL ON FSS FREQUENCIES. PILOTS READBACK RWY ASSIGNMENTS AND HOLD SHORT INSTRUCTIONS. ...ADVS YOU HAVE INFO N.",
    "KSFO": "[Arrival ATIS] KSFO ARR ATIS P 0956Z SFO ATIS INFO P 0956Z. 25008KT 10SM OVC009 14/12 A2992 (TWO NINER NINER TWO). ILS RY 28R APP IN USE. DEPG RWYS 28L, 28R. RY 1L, 1R CLSD. NUMEROUS TWY CLOSURES FOR CONSTRUCTION ON THE FIELD, PILOTS CHECK NOTAMS. DEPG ACFT WAITING ON FINAL NUMBERS ADVISE GROUND PRIOR TO ENTERING TWY F. ...ADVS YOU HAVE INFO P.\n[Departure ATIS] KSFO DEP ATIS T 1456Z SFO ATIS INFO T 1456Z. 00000KT 10SM SCT140 BKN200 18/13 A2991 (TWO NINER NINER ONE) RMK AO2 SLP128 T01780133 53008. SIMUL CLSLY SPCD DPNDNT ILS RY 28R AND ILS RY 28L APP IN USE. DEPG RWYS 28L, 28R. RY 1L, 1R CLSD. NUMEROUS TWY CLOSURES FOR CONSTRUCTION ON THE FIELD, PILOTS CHECK NOTAMS. DEPG ACFT WAITING ON FINAL NUMBERS ADVISE GROUND PRIOR TO ENTERING TWY F. ...ADVS YOU HAVE INFO T.",
    "KOAK": "[Arrival ATIS] KOAK ARR ATIS T 2053Z - KOAK ATIS INFO T 2053Z. 25015KT 10SM FEW008 20/13 A2994 (TWO NINER NINER FOUR). RNAV, AND VA, RWY 30. ILS, AND VA, RWY 28R. FLOW TO LAX, LAS, SAN, SEA. RWY 28L CLSD. TAXIWAYS GOLF, HOTEL, PAPA, JULIET BETWEEN RUNWAYS 28 RIGHT AND 28 LEFT CLOSED. ILS RWY 30, OTS, RWY 28R RAIL, OTS. UNN LIT CLOSE-IN OBSTACLES FOR RWY 30 DEPARTURES. RWY 30 DEPARTURES ARE ADVISED TO AVOID TURNING LEFT PRIOR TO DEPARTURE END OF RUNWAY. CTN, CRANE 1 POINT 6 NAUTICAL MILES, , AT 140 FEET AGL. CAUTION, BIRDS NEAR AIRPORT. ...ADVS YOU HAVE INFO T.\n[Departure ATIS] KOAK DEP ATIS O 1953Z OAK ATIS INFO O 1953Z. 28014KT 10SM FEW005 22/14 A2988 (TWO NINER EIGHT EIGHT). RNAV Z/VA RWY 30 ILS/VA RWY 28R. FLOW TO LAX, LAS, SAN. ILS RWY 30, OTS. UNN LIT CLOSE-IN OBSTACLES FOR RWY 30 DEPARTURES. RWY 30 DEPARTURES ARE ADVISED TO AVOID TURNING LEFT PRIOR TO DEPARTURE END OF RUNWAY. SIGNATURE UNI-COM OUT OF SERVICE. CAUTION, BIRDS NEAR AIRPORT. ...ADVS YOU HAVE INFO O.",
    "KDFW": "[Arrival ATIS] KDFW ARR ATIS U 2353Z - KDFW ARR INFO U 2353Z. 21010KT 10SM FEW030 FEW090 BKN250 26/20 A3002 (THREE ZERO ZERO TWO) RMK AO2 SLP159 60007 T02610200 10322 20222 56023. SIMUL VISUAL APCH TO RWYS, 13R, 18R, 17C, 17L. LDG RWY 17C EXP LAHSO TWY B 10460 FT AVAIL, LDG RWY 18R EXP LAHSO TWY B 10100 FT AVL. NOTICE TO AIRMEN. RWY 17C PAPI OTS. WARNING, RWY 18L HAS BEEN SHORTENED, 9273 FT AVAILABLE. HAZD WX FOR DFW AVBL ON FSS. BIRD ACTIVITY VCNTY ARPT. ...ADVS YOU HAVE INFO U.\n[Departure ATIS] KDFW DEP ATIS F 1453Z DFW DEP INFO F 1453Z. 11005KT 10SM SCT020 BKN030 BKN055 BKN250 27/22 A3008 (THREE ZERO ZERO EIGHT) RMK AO2 SLP178 T02720217 51013. SIMUL PARL TRAFFIC DEPG RWYS 17R, 18L. NOTICE TO AIRMEN. WARNING, RWY 18L HAS BEEN SHORTENED, 9273 FT AVAILABLE. HAZD WX FOR DFW AVBL ON FSS. BIRD ACTIVITY VCNTY ARPT. ...ADVS YOU HAVE INFO F.",
    "KIAH": "[Arrival ATIS] KIAH ARR ATIS E 2253Z IAH ATIS INFO E 2253Z. 11006KT 10SM FEW120 BKN160 BKN250 29/23 A3003 (THREE ZERO ZERO THREE). ARRIVALS EXPECT ILS OR RNAV Y RY 8R, ILS OR RNAV Y RY 8L. SIMUL APPROACHES IN USE. DEPG RY 15L, RY 15R. NOTICE TO AIRMEN. UNITED RAMP CONTROL IN EFFECT. CODED DEPARTURE ROUTES IN EFFECT. HAZD WX INFO FOR IAH AREA AVBL FM FSS. BIRD ACTIVITY VICINITY ARPT. LAHSO RY8R. CRANES ARE DOWN. TWY SA CLSD BTN TWY, SF AND TWY SK , TWY SB CLSD BTN TWY, SF AND TWY SK , , TWY EA CLSD. NOTAM ATIS IN USE ON FREQUENCY 126.225. ...ADVS YOU HAVE INFO E.\n[Departure ATIS] KIAH DEP ATIS T 0353Z IAH ATIS INFO T 0353Z. 15007KT 10SM FEW035 FEW180 BKN250 27/23 A2996 (TWO NINER NINER SIX). ARRIVALS EXPECT ILS OR RNAV Y RY 8R, ILS OR RNAV Y RY 8L. DEPG RY 15R. NOTICE TO AIRMEN. UNITED RAMP CONTROL IN EFFECT. RY 15L, 33R CLSD. HAZD WX INFO FOR IAH AREA AVBL FM FSS. BIRD ACTIVITY VICINITY ARPT. CRANES ARE DOWN. TWY SA CLSD BTN TWY, SF AND TWY SK , TWY SB CLSD BTN TWY, SF AND TWY SK , , TWY WB CLSD BTN TWY, WG AND TWY WH . TWY EA CLSD. NOTAM ATIS IN USE ON FREQUENCY 126.225. ...ADVS YOU HAVE INFO T.",
    "KORD": "[Arrival ATIS] KORD ARR ATIS B 1051Z ORD ATIS INFO B 1051Z. 02012KT 10SM FEW010 BKN035 BKN120 BKN250 15/13 A2991 (TWO NINER NINER ONE) RMK AO2 SLP126 T01500133. ARR EXP VECTORS ILS RWY 9L APCH, ILS PRM RWY 10C APCH, ILS PRM Y RY 10R APCH. CTN RY 10R LOC IS OFFSET 2.5 DEGREES. SIMUL APCHS IN USE. DEPS EXP RWYS 9C FROM F F 9200 FT AVL. RWY 4L, 22R CLSD. RWY 22L ILS OTS, RWY 22R LOC OTS, RWY 9L IM OTS, RWY 9C IM OTS, RWY 10L IM OTS, RWY 10R IM OTS, RWY 27R IM OTS, RWY 28L IM OTS, RWY 28R IM OTS, RWY 9L PAPI OTS, RWY 27R PAPI OTS. PILOTS USE CTN FOR BIRD ACTIVITY IN THE VICINITY OF THE ARPT. USE CTN FOR PERSONNEL AND EQUIP AT NUMEROUS SITES ON THE FIELD. READBACK ALL RWY HOLD SHORT INSTRUCTIONS. WHEN READY TO TAXI CONTACT GND METERING ON FREQ 121.67. ...ADVS YOU HAVE INFO B.\n[Departure ATIS] KORD DEP ATIS J 2051Z ORD ATIS INFO J 2051Z. 28004KT 10SM FEW050 BKN300 34/20 A3003 (THREE ZERO ZERO THREE) RMK AO2 SLP162 T03440200 58013. ARR EXP VECTORS ILS RWY 10C APCH, VISUAL APCH RWY 9L, V",
    "KJFK": "[Arrival ATIS] KJFK ARR ATIS X 0351Z JFK ATIS INFO X 0351Z. 01004KT 10SM BKN048 OVC300 27/13 A2992 (TWO NINER NINER TWO) RMK AO2 FU OVC300. APPROACH IN USE ILS RY 31R, ILS RY 31L. DEPG RY 31L. RWY 4R, 22L CLSD, RWY 4L, 22R CLSD. RY 13L SFL OTS, RWY 22L/4R INNER MARKER OTS. HAZD WX INFO FOR NY METRO AREA AVBL ON FSS. NUM CRANES OPERATING AT JFK. BIRD ACTIVITY VICINITY ARPT. READBACK ALL RWY ASSIGNMENTS AND HOLD SHORT INSTRUCTIONS. ...ADVS YOU HAVE INFO X.\n[Departure ATIS] KJFK DEP ATIS Y 1251Z - KJFK ATIS INFO Y 1251Z. 25016KT 10SM SCT250 28/22 A2988 (TWO NINER EIGHT EIGHT) RMK AO2 SLP117 T02780217. APPROACH IN USE ILS RY 22L, ILS RY 22R. DEPG RY 22R. RWY 13L, 31R CLSD. RY 4R PAPI OTS, RY 13L SFL OTS, RWY 22L/4R INNER MARKER OTS. NUM CRANES OPERATING AT JFK. BIRD ACTIVITY VICINITY ARPT. READBACK ALL RWY ASSIGNMENTS AND HOLD SHORT INSTRUCTIONS. ...ADVS YOU HAVE INFO Y.",
    "KIND": "[Arrival ATIS] KIND ARR ATIS F 0254Z - KIND ATIS INFO F 0254Z. 31004KT 10SM FEW050 BKN300 28/21 A3006 (THREE ZERO ZERO SIX) RMK AO2 SLP171 FU ALF T02780211 53008. PARL ILS RWY 23R AND 23L APPROACHES IN USE. C\n[Departure ATIS] KIND DEP ATIS H 1854Z IND ATIS INFO H 1854Z. 26009G19KT 10SM SCT036 BKN041 BKN170 23/16 A2981 (TWO NINER EIGHT ONE) RMK AO2 SLP088 T02280156. PARL ILS RWY 23R AND 23L APPROACHES IN USE. CROSS RU",
    "KDTW": "[Arrival ATIS] KDTW ARR ATIS I 0153Z - KDTW ARR INFO I 0153Z. 10006KT 1 3/4SM FU SCT000 BKN045 OVC085 28/22 A3001 (THREE ZERO ZERO ONE) RMK AO2 TWR VIS 4 SLP156 FU SCT000 T02780217. SIMUL ILS Z RY 4L AND RY 3R APCH IN USE. NOTICE TO AIRMEN. RWY 21R, 3L CLSD, RWY 27L, 9R CLSD, RWY 27R, 9L CLSD. TWYS Y1 CLSD ;. HAZD WX INFO . CNVTV SIG 4 E, FOR MI , . CNVTV SIG 6 E, FOR MI , AVBL ON FLIGHT SERVICE FREQS. PILOTS USE CTN FOR BIRD ACTIVITY. UNAUTH LASER ILLUM EVNT AT MORE THAN ONE TWO MILES, WEST OF ARPT, ONE ONE THSD FT, BLUE LASER, FROM THE SOUTHWEST. DEPARTURE ATIS 118.125. ...ADVS YOU HAVE INFO I.\n[Departure ATIS] KDTW DEP ATIS Q 2253Z - KDTW DEP INFO Q 2253Z. 21009KT 10SM FEW050 FEW250 33/24 A2991 (TWO NINER NINER ONE). DEPG RWY 21R, RWY 22L ;. NOTICE TO AIRMEN. RWY 27L, 9R CLSD, RWY 27R, 9L CLSD. PILOTS USE CTN FOR BIRD ACTIVITY. ...ADVS YOU HAVE INFO Q.",
    "KMSP": "[Arrival ATIS] KMSP ARR ATIS E 0253Z MSP ARR INFO E 0253Z. 04004KT 1 1/2SM FU OVC022 28/22 A3007 (THREE ZERO ZERO SEVEN). SIMULTANEOUS DEPENDENT, ILS RWY 12R APCH IN USE, LOCALIZER RWY 12L APCH IN USE. FINAL APCH, OVER NOISE SENSITIVE AREA. NOTICE TO AIRMEN. RWYS 4, 22 CLSD. TWY R7. R8. R9. R10. CLOSED. TWY R BTWN R6 AND R10 CLSD, USE CAUTION, NUMEROUS TAXIWAY CLOSURES, TWY A7 CLSD, TWY A CLSD BTN TWY, A7 AND TWY D. GS RWY 12L OTS, RWYS 12R, 12L, INNER MARKER OTS. HAZD WX INFO FOR MSP AREA AVBL FM FSS. CTN, BIRDS NEAR MSP. READ BACK HS AND ALT. ALL ACFT TAXI WITH TRANSPONDER AND ALTITUDE ENCODING ON. 12R ARRIVALS ADVISE GATE ON INITIAL CONTACT. ...ADVS YOU HAVE INFO E.\n[Departure ATIS] KMSP DEP ATIS Q 0153Z MSP DEP INFO Q 0153Z. 03007G15KT 1 1/2SM FU BKN025 BKN065 BKN250 29/21 A3006 (THREE ZERO ZERO SIX) RMK AO2 SLP174 T02890211. DEPARTING RWY 12L, RWY 12R, RWY 17. NOTICE TO AIRMEN. RWYS 4, 22 CLSD. TWY R7. R8. R9. R10. CLOSED. TWY R BTWN R6 AND R10 CLSD, USE CAUTION, NUMEROUS TAXIWAY CLOSURES, TWY A7 CLSD, TWY A CLSD BTN TWY, A7 AND TWY D. ALL ACFT CTC METERING ON ONE THREE THREE POINT FIVE SEVEN WHEN READY TO PUSHBACK OR TAXI. HAZD WX INFO FOR MSP AREA AVBL FM FSS. CTN, BIRDS NEAR MSP. READ BACK HS AND ALT. ALL ACFT TAXI WITH TRANSPONDER AND ALTITUDE ENCODING ON. ...ADVS YOU HAVE INFO Q.",
    "CYEG": "[Arrival ATIS] CYEG ARR ATIS H 0300Z CYEG ARR ATIS H 0300Z 03005KT 15SM FEW034 SCT140 CIG BKN220 21/19 A3001 SIGMET M2 IN EFFECT. APCH RNAV Z OR Y RWY 02, INFORM ARRL OF REQ APCH ON INITIAL CTC. LDG AND DEP RWY 02. SIMUL APPROACHES MAY BE IN EFCT. INFORM CYEG ATC INFO H\n[Departure ATIS] CYEG DEP ATIS H 0300Z CYEG ARR ATIS H 0300Z 03005KT 15SM FEW034 SCT140 CIG BKN220 21/19 A3001 SIGMET M2 IN EFFECT. APCH RNAV Z OR Y RWY 02, INFORM ARRL OF REQ APCH ON INITIAL CTC. LDG AND DEP RWY 02. SIMUL APPROACHES MAY BE IN EFCT. INFORM CYEG ATC INFO H",
    "EHAM": "[Arrival ATIS] EHAM ARR ATIS J 0324Z EHAM ARRIVAL INFO J. DEMAND. MAIN LANDING RWY 06. TRANSITION LEVEL 040. WIND 010 DEG, 6 KT, VRB BTN 320 AND 040 DEG, 11 KT MAX, 4 KT MNM. CAVOK. T 19. DP 16. QNH 1020 HPA. NOSIG. OPERATIONAL REPORT. EXP ILS APCH. CONTACT APCH WITH CALLSIGN ONLY. END OF INFO J\n[Departure ATIS] EHAM DEP ATIS V 2051Z EHAM DEPARTURE INFO V. DEMAND. MAIN DEPARTURE RWY 36 L. MAIN LANDING RWY 36 C. WIND 040 DEG, 9 KT, VRB BTN 010 AND 070 DEG, 17 KT MAX, 7 KT MNM. CAVOK. T 22. DP 15. QNH 1022 HPA. OPERATIONAL REPORT. INFORM SCHIPHOL DEL BY VOICE IF UNABLE TO COMPLY WITH NADP 2. END OF INFO V",
    "EBBR": "[Arrival ATIS] EBBR ARR ATIS J 1120Z EBBR NAT, EXP VECT FOR ILS APP ARR RWY01 RSCD AT 1119 RWY01 DRY. DEP RWY07R TRL 055 TWY OUT 6 B3 CLSD. XNG RWY OPS INPR 070/8KT VRB BTN 040 AND 100 VIS ABV 10KM FEW1700FT T27 DP21 QNH 1026HPA NOSIG CFM ARR J\n[Departure ATIS] EBBR DEP ATIS M 0920Z EBBR NAT, DEP RWY07R RSCD AT 0524 RWY07R DRY. ARR RWY01 TRL 055 TWY OUT 6 B3 CLSD. XNG RWY OPS INPR 020/9KT VRB BTN 350 AND 070 CAVOK T25 DP20 QNH 1026HPA NOSIG CFM DEP M",
    "EDDF": "[Arrival ATIS] EDDF ARR ATIS X 0350Z -ARR-ATIS EDDF X METAR 160350 -EXPECT DEPENDENT PARALLEL ILS Y APCH RWY 07L OR ILS APCH RWY 07R -RWY 07L 07R - -TRL 60 - -07005KT -CAVOK - - -T20 DP10 -QNH1018 - -TREND NOSIG\n[Departure ATIS] EDDF DEP ATIS E 1050Z DEP-ATIS EDDF E METAR 221050 RWY 07C 18 ACFT DEPARTING RWY18 : EXPECT POSSIBLE DEPARTURE FROM INTERSECTION M , TORA 3454 METERS. IF UNABLE , ADVISE TWR ON INITIAL CONTACT , ACFT DEPARTING RWY07C : EXPECT DEPARTURE FROM INTERSECTION L17 , TORA 3312 METERS. IF UNABLE , ADVISE APRON ON INITIAL CONTACT , TRL 60 ATTN : BIRDS IN THE VCY OF THE AD VRB06KT RWY18 VRB04KT CAVOK T33 DP17 QNH1023 TREND NOSIG END OF ATIS E",
    "EDDL": "[Arrival ATIS] EDDL ARR ATIS E 1850Z -ATIS EDDL E METAR 151850 -EXPECT VECTORS ILS APPROACH RWY05L -RWY 05R 05L -ATTENTION, RISK OF TWY INCURSION WHEN TAXIING TO RWY05R, CHECK HOT SPOTS T1 AND L9 ON TAXI CHART -TRL 60 -EXPECT INTENSE BIRD ACTIVITY IN THE VICINITY OF RWY SYSTEM -04010KT -CAVOK - - -T27 DP09 -QNH1019 - -TREND NOSIG\n[Departure ATIS] EDDL DEP ATIS R EDDL ARR/DEP DATIS RPT -ATIS EDDL R METAR 020550 -EXPECT VECTORS ILS APPROACH -RWY 23L -TWY L8 CLOSED BETWEEN TWY M AND RWY 23L -TRL 60 - -23010KT -CAVOK - - -T19 DP13 -QNH1020 - -TREND NOSIG",
    "EDDK": "[Arrival ATIS] EDDK ATIS M 0250Z -ATIS EDDK M METAR 160250 -EXPECT CDO FOR ILS RWY 13L -RWY 13L 06 -RWY COND RWY 13L AT TIME 0030 RWYCC 6 DEPOSIT TOTAL RWY DRY RWY 06 AT TIME 0030 RWYCC 6 DEPOSIT TOTAL RWY DRY -TRL 60 -RWY 13R AND RWY 31L CLOSED FOR DEPARTURE AND LANDING: TAXIING BTN THR RWY 13R AND INTERSECTION RWY 24 POSSIBLE : -VRB02KT -CAVOK - - -T15 DP11 -QNH1019 - -TREND NOSIG\n[Departure ATIS] EDDK DEP ATIS E 2050Z -ATIS EDDK E METAR 142050 -EXPECT CDO FOR ILS APCH RWY 31R -RWY 31R 06 -RWY COND RWY 31R AT TIME 1837 RWYCC 6 DEPOSIT TOTAL RWY DRY RWY 06 AT TIME 1837 RWYCC 6 DEPOSIT TOTAL RWY DRY -TRL 60 -RWY 13R AND RWY 31L CLOSED FOR DEPARTURE AND LANDING: TAXIING BTN THR RWY 13R AND INTERSECTION RWY 24 POSSIBLE : -02006KT 350V050 -CAVOK - - -T23 DP14 -QNH1018 - -TREND NOSIG",
    "EBLG": "[Arrival ATIS] EBLG ATIS E 0050Z EBLG INFO, EXP RNAV TO ILS APP ARR RWY04R DEP RWY04R RWY 04R DRY, RWYCC 666. TRL 055 ADZ ON GND FREQ IF UNABLE S2 030/6KT CAVOK T18 DP10 QNH 1020HPA NOSIG CFM ATIS E",
    "LSZH": "[Arrival ATIS] LSZH ARR ATIS F 0350Z ARRIVALS, EXP ILS APCH, RWY 34. RWY COND REPORT. RWY COND CODE 5, 5, 5. COVERAGE 100 PER CENT, 100 PER CENT, 100 PER CENT. DEPTH NR, NR, NR. WET AND WET AND WET. RWY REPORT END. TRL 70. DEP RWY 32. DEPENDENT OPS ON CONVERGING RWY. WIND VRB, 2 KT. CAVOK. T 17. DP 16. QNH 1020. NOSIG.\n[Departure ATIS] LSZH DEP ATIS X 0350Z DEP RWY 32. DEPENDENT OPS ON CONVERGING RWY. RWY COND REPORT. RWY 32. RWY COND CODE 5, 5, 5. COVERAGE 100 PER CENT, 100 PER CENT, 100 PER CENT. DEPTH NR, NR, NR. WET AND WET AND WET. RWY 34. RWY COND CODE 5, 5, 5. COVERAGE 100 PER CENT, 100 PER CENT, 100 PER CENT. DEPTH NR, NR, NR. WET AND WET AND WET. RWY REPORT END. TRL 70. ARRIVALS, EXP ILS APCH, RWY 34. TMA S 1 IS ACT. TMA S 2 AND S 3 ARE ACT. WIND VRB, 1 KT. CAVOK. T 17. DP 16. QNH 1020. NOSIG.",
    "LIMC": "[Arrival ATIS] LIMC ARR ATIS M 0143Z LIMC ARR M 0143Z I.L.S. ZULU RWY IN USE 35L TL 70 WIND TDZ 310/6KT CAVOK T22 DP20 QNH 1017HPA QFE 0992HPA RWY 35R CLSD\n[Departure ATIS] LIMC DEP ATIS I 1521Z LIMC DEP I 1521Z RWY IN USE 35R TL 70 BIRDS CONCENTRATION ON RWY STRIP WIND END 040/10KT VRB BTN 360/AND 060/ CAVOK T27 DP17 QNH 1017HPA QFE 0991HPA DATALINK CLEARANCE AVAILABLE.... CONTACT 1 3 1 8 8 0 TO BE RELEASED BY THE AIRPORT OPERATOR ...",
    "LIRF": "[Arrival ATIS] LIRF ARR ATIS F 0120Z LIRF ARR F 0120Z ILS WHISKEY RWY IN USE 16L TL 70 WIND TDZ VRB2KT VRB BTN 260/AND 330/ CAVOK T25 DP24 QNH 1016HPA\n[Departure ATIS] LIRF DEP ATIS H 0550Z LIRF DEP H 0550Z RWY IN USE 25 TL 70 RWYS IN USE FOR ARR 16L AND 16R WIND END 140/6KT CAVOK T27 DP19 QNH 1016HPA REA IS SENT AUTOMATICALLY ONCE RLSD BY RAMP WHEN READY CONTACT FIUME RAMP 121.725 RRSM",
    "EINN": "[Arrival ATIS] EINN ARR ATIS O 0330Z EXPECT I L S CATEGORY 1 LDG RWY24 TKOF RWY24 TRL FL060 01003KT CAVOK 17/14 QNH Q1023 TREND NOSIG ADVISE AT FIRST CONTACT YOU HAVE ATIS INFO O",
    "EGLL": "[Arrival ATIS] EGLL ARR ATIS W 0350Z LANDING RWY 09R TRANSITION-LEVEL: FL 70 RUNWAY 09L REDUCED DECLARED DISTANCES IF STAND GUIDANCE IS OFF OR FAILS, REMAIN ON THE TAXIWAY CENTRELINE AND ADVISE ATC 09R SINGLE RUNWAY OPERATIONS IN FORCE AUTO 03008KT 9999 NCD 16/14 Q1022 ACKNOWLEDGE RECEIPT OF INFORMATION W\n[Departure ATIS] EGLL DEP ATIS E 1120Z DEPARTURE RWY 09R PILOTS THAT ARE IN RECEIPT OF DATALINK CLEARANCES ARE REMINDED THEY MUST CONTACT DELIVERY ON 121.980 WHEN READY FOR START DATALINK CLEARANCES NOT AVAILABLE FOR CPT DEPARTURES DET VOR OOS AUTO 10011KT 050V110 9999 NCD 27/18 Q1026 ACKNOWLEDGE RECEIPT OF INFORMATION E AND REPORT AIRCRAFT TYPE AND CURRENT QNH ON FIRST CONTACT WITH HEATHROW",
    "EPWA": "[Arrival ATIS] EPWA ARR ATIS E 0301Z EPWA ARR E. TIME 0300. EXP U ARR ILS Z APCH FOR RWY 33. TRANSITION LEVEL 80. WIND 030 DEG, 7 KT. CAVOK. T 19. DP 16. QNH 1021. NOSIG. CAUTION. BIRD ACT. END OF EPWA ARR E\n[Departure ATIS] EPWA DEP ATIS X 1801Z EPWA DEP X. TIME 1800. DEP RWY 29. ARR RWY 33, EXP U ARR ILS Z. REPORT READY FOR STARTUP ON DELIVERY 121 DECIMAL 605. TRANSITION LEVEL 80. WIND 020 DEG, 7 KT, VRB BTN 350 AND 060 DEG. CAVOK. T 26. DP 14. QNH 1019. NOSIG. CAUTION. BIRD ACT. END OF EPWA DEP X",
    "EFHK": "[Arrival ATIS] EFHK ARR ATIS H 1120Z SIMUL INDEPENDENT IFR APPROACHES IN PROGRESS. EXPECT ILS APCH ARR RWYS 22L AND 22R RUNWAY 22L CONDITION REPORT AT 0751 UTC RUNWAY CONDITION CODES 6 , 6 , 6 C ONTAMINANTS ALL PARTS DRY RUNWAY 22R CONDITION REPORT AT 0751 UTC RUNWAY CONDITION CODES 6 , 6 , 6 C ONTAMINANTS ALL PARTS DRY TRL 60 WIND 340 DEG 7 KT VRB BTN 290 AND 020 DEG CAVOK T 21 DP 6 QNH 1020 NOSIG ACK INFO H\n[Departure ATIS] EFHK DEP ATIS B 1059Z DEP RWY 22R RUNWAY 22R CONDITION REPORT AT 0751 UTC RUNWAY CONDITION CODES 6 , 6 , 6 CONTAMINANTS ALL PARTS DRY WIND 300 DEG 7 KT VRB BTN 250 AND 330 DEG CAVOK T 21 DP 8 QNH 1020 NOSIG ACK INFO B",
    "LTAC": "[Arrival ATIS] LTAC ARR ATIS M 0220Z EXP ILS V APCH 03C DEP RWY 03L RWY 03C WIND 020 DEG 08 KT RWY 03L WIND 010 DEG 06 KT TRL 110 CAVOK T 15 DP 11 QNH 1018 NOSIG FOR DELIVERY CTC 121.9. FOR DELIVERY FIRST USE DIGITAL DEP CLR. CTN BIRD HAZARD OVR AERODROME. APCH FREQUENCY 129.050. END OF ATIS M",
    "UBBB": "[Arrival ATIS] UBBB ARR ATIS P 0312Z ATIS P EXP ILS/ LDG 34 35 DEP 34 35 IN USE RWY 34 CLEAR DRY 70 RWY 35 CLEAR DRY 70 TLVL 110 WIND WIND RWY 34 330 20 KT SPD MAX 28 MIN 14 WIND RWY 35 320 18 KT SPD MAX 28 MIN 16 VIS CAVOK T 27 / DP 20 QNH 1010 HPA TREND TREND NOSIG MODERATE BIRDS ACT IN VICINITY OF AP END OF ATIS P\n[Departure ATIS] UBBB DEP ATIS N 1809Z ATIS N EXP ILS/ LDG 34 35 DEP 34 35 IN USE RWY 34 CLEAR DRY 70 RWY 35 CLEAR DRY 70 TLVL 110 WIND WIND RWY 34 330 22 KT SPD MAX 30 MIN 16 WIND RWY 35 330 22 KT SPD MAX 30 MIN 18 VIS CAVOK T 26 / DP 21 QNH 1008 HPA TREND TREND NOSIG MODERATE BIRDS ACT IN VICINITY OF AP END OF ATIS N",
    "ZWWW": "[Arrival ATIS] ZWWW ARR ATIS L 0330Z EXP ILSDME Z APCH LDG RWY 26R TA 3000 WIND 290/2MPS VRB BTN 250/ AND 330/ CAVOK T 33 /DP 06 QNH 1009 HPA ADZ YOU HAVE INFO L.\n[Departure ATIS] ZWWW DEP ATIS H 0230Z DEP RWY 26L TA 3000 WIND VRB/1MPS CAVOK T 28 /DP 07 QNH 1008 HPA BIRDS ACTIVITY IN THE VICINITY OF THE AERODROME ADZ YOU HAVE INFO H.",
    "ZLXY": "[Arrival ATIS] ZLXY ARR ATIS D 1100Z EXP ILS APCH LDG RWY 05L & 06R WIND VRB/1MPS VIS 9999M CLD FEW 900M T 25 /DP 18 QNH 1007 HPA VISUAL APPROACH IN PROGRESS ADZ YOU HAVE INFO D.\n[Departure ATIS] ZLXY DEP ATIS Z 1100Z DEP RWY 05L & 06L WIND 040/3MPS VRB BTN 010/ AND 070/ VIS 4500M -RA BR CLD SCT 240M /SCT 600M /OVC 1200M T 19 /DP 18 QNH 1011 HPA RUNWAY 05L SURFACE CONDITION CODE 555 RUNWAY 06L SURFACE CONDITION CODE 555 RUNWAY 06R SURFACE CONDITION CODE 555 ADZ YOU HAVE INFO Z.",
    "ZBAA": "[Arrival ATIS] ZBAA ARR ATIS B 1100Z EXP ILS APCH DEPENDENT PARL INSTR APCH LDG RWY 36L & 36R & 01 WIND 020 DEG 2 MPS VIS 9999 TS CLD SCT CB 1200M T 27 /DP 16 QNH 1006 HPA VISUAL APPROACH IS IN PROGRESS. ADZ YOU HAVE INFO B.\n[Departure ATIS] ZBAA DEP ATIS D 0200Z DEP RWY 36L & 36R & 01 WIND 360 DEG 4 MPS CAVOK T 30 /DP 21 QNH 1003 HPA RWY INDEPENDENT PARALLEL DEP VISUAL APPROACH IS IN PROGRESS. ADZ YOU HAVE INFO D.",
    "ZBHH": "[Arrival ATIS] ZBHH ARR ATIS O 1000Z EXP ILSDME APCH LDG RWY 08 TA 3000 /TRL 3600 WIND 100/2MPS VRB BTN 070/ AND 180/ VIS 9999M -SHRA CLD FEW 1200M /SCT CB 1200M T 22 /DP 15 QNH 1006 HPA SUPPLEMENT INFO RETS BETWEEN 0400 AND 1200 UTC, TURBULENCE MAY OCCUR IN LOCAL FIELD. ADZ YOU HAVE INFO O.\n[Departure ATIS] ZBHH DEP ATIS Q 1500Z DEP RWY 08 TA 3000 /TRL 3600 WIND 140/2MPS VIS 5000M BR NSC T 19 /DP 19 QNH 1007 HPA ADZ YOU HAVE INFO Q.",
    "ZSQD": "[Arrival ATIS] ZSQD ARR ATIS U 1000Z EXP ILSDME APCH LDG RWY 17 TA 3000 /TRL 3600 WIND 160/6MPS CAVOK T 24 /DP 19 QNH 1007 HPA SEGREGATED OPERATION VISUAL APPROACH OPERATION IN PROGRESS. RUNWAY 17,IF MISSED APPROACH,EXPECT FOLLOW THE STANDARD MISSED APPROACH PROCEDURE,CLIMB TO 900M ON QNH OR BY ATC CAUTION MAYBE THERE IS A FLOCK OF BIRDS IN THE VICINITY OF AIRPORT ADZ YOU HAVE INFO U.\n[Departure ATIS] ZSQD DEP ATIS Y 2112Z DEP RWY 16 TA 3000 /TRL 3600 WIND 140/2MPS VIS 4000M BR CLD FEW 450M T 22 /DP 21 QNH 1009 HPA VISUAL APPROACH OPERATION IN PROGRESS. WHEN READY CONTACT QINGDAO TOWER ON 118.7 RUNWAY 16,IF MISSED APPROACH,EXPECT FOLLOW THE STANDARD MISSED APPROACH PROCEDURE,CLIMB TO 600M ON QNH OR BY ATC CAUTION MAYBE THERE IS A FLOCK OF BIRDS IN THE VICINITY OF AIRPORT ADZ YOU HAVE INFO Y."
  },
  "windtemp_alaska": "\n000\nFBAK31 KWNO 160159\nFD1AK1\nDATA BASED ON 160000Z    \nVALID 160600Z   FOR USE 0200-0900Z. TEMPS NEG ABV 24000\n\nFT  3000    6000    9000   12000   18000   24000  30000  34000  39000\nADK 0218 3519+02 3323-01 3127-06 3040-18 2946-31 285143 284644 294445\nADQ 2107 2408+02 2510-01 2518-05 2544-15 2659-26 267241 267849 266857\nAKN 1905 2005+01 2008-03 2213-08 2435-17 2561-27 258542 259450 255852\nANC 2006 2308+01 2506-04 2608-09 2825-20 2832-33 274146 275045 263243\nANN 9900 2606+08 2412+06 2512+03 2615-10 2812-23 301340 301150 311160\nBET 2305 2406-02 9900-05 2108-10 2215-22 2119-34 234845 244846 243043\nBRW 9900 9900+00 1908-05 2012-11 2019-20 2124-32 212848 202651 181242\nBTI 0411 0411+04 0508-02 0708-07 0905-18 1208-29 141347 151655 191443\nBTT 2710 9900+04 9900-02 3606-07 9900-20 9900-32 091049 101151 181043\nCDB 1719 1924+02 2232+01 2449-02 2352-14 2454-25 246440 247049 246957\nCZF 2111 2015-01 2015-07 1812-12 2014-23 2020-35 211946 221343 241141\nEHM 9900 1605-02 1807-05 2112-09 2325-19 2257-30 239043 249149 244748\nFAI 2624 2823+01 2919-03 3116-08 3314-21 3511-34 021549 990047 231041\nFYU 2819 2906+03 2906-02 9900-07 0408-20 0723-32 093449 101447 181140\nGAL 9900 1807+01 1606-04 1312-08 1513-21 1606-33 990049 990050 220842\nGKN 1820 2316+02 2614-04 2807-10 3210-24 3017-36 302545 272842 252740\nHOM 2413 2709+02 2809-02 2713-08 2625-19 2756-29 279343 278449 264947\nJNU 2207 2118+05 2323+02 2429+00 2435-12 2431-24 254140 254449 254059\nLUR 0407 1708-01 1909-05 2107-09 2215-22 2125-33 223848 221848 990042\nMCG 2425 2614+00 2413-05 2308-10 2005-21 2306-33 251048 251847 241843\nMDO 2517 2513+01 2615-02 2622-07 2731-20 2757-30 279642 278847 264747\nOME 9900 2006+00 2308-05 9900-11 1514-21 1315-33 111849 121148 990042\nORT      2725+03 2814-04 3011-10 2708-24 1906-37 230743 232039 232439\nOTZ 2405 1706+01 1708-04 1811-09 1812-20 1608-32 141148 140952 990042\nSNP 2911 3213-01 3318-07 3413-10 3513-22 3516-34 311245 252044 261741\nTKA 2017 2310+01 2708-04 2508-10 2609-21 2813-33 272447 272945 252542\nUNK 2813 2908+00 2707-04 2005-10 1410-21 1511-33 141049 180948 231242\nYAK 9900 2407+00 2719-02 2629-07 2552-17 2582-25 258841 258849 245249\nIKO 3318 3021+03 2729+00 2636-05 2458-15 2379-24 238541 239249 236551\nAFM 9900 9900+03 2005-02 2107-08 2006-20 9900-33 110948 120853 190643\n5AB 9900 9900+05 3112+01 3222-03 3245-14 3362-25 348838 349746 348554\n5AC 3013 3011+09 3211+06 3211+02 3409-11 3513-23 361540 011850 351960\n5AD 2616 2720+08 2722+05 2723+00 2630-12 2632-24 273239 283049 282760\n5AE 2214 2317+04 2431+03 2538-01 2539-13 2543-24 265139 265448 255159\n5AF 3017 2714+08 2719+05 2621+01 2629-11 2530-23 252940 262750 262459\n5AG 2812 2915+03 2720+00 2630-03 2653-13 2665-24 266841 267050 265954\n",
  "vaac_tokyo": [
    {
      "id": "20260716_30027000_0264",
      "year": "2026",
      "volcano": "Sheveluch",
      "psn": "N5639 E16122",
      "issued": "20260716",
      "text": "FVFE01 RJTD 160126\nVA ADVISORY\nDTG: 20260716/0126Z\nVAAC: TOKYO\nVOLCANO: SHEVELUCH 300270\nPSN: N5639 E16122\nAREA: RUSSIA\nSOURCE ELEV: 3283M AMSL\nADVISORY NR: 2026/264\nINFO SOURCE: KBGS HIMAWARI-9\nERUPTION DETAILS: ERUPTION AT 20260716/0046Z FL230 REPORTED\nOBS VA DTG: 16/0110Z\nOBS VA CLD: SFC/FL230 N5643 E16119 - N5651 E16135 - N5642 E16139 - \nN5637 E16120 MOV E 15KT\nFCST VA CLD +6 HR: 16/0710Z SFC/FL230 N5535 E16513 - N5528 E16428 - \nN5639 E16340 - N5649 E16127 - N5722 E16124 - N5719 E16423\nFCST VA CLD +12 HR: 16/1310Z SFC/FL230 N5703 E16750 - N5519 E16840 - \nN5411 E16755 - N5421 E16702 - N5631 E16632 - N5637 E16255 - N5746 \nE16242\nFCST VA CLD +18 HR: NO VA EXP\nRMK: NIL\nNXT ADVISORY: 20260716/0600Z=",
      "img_url": "https://ds.data.jma.go.jp/svd/vaac/data/VAGFN/2026/Images/20260716_30027000_0264_QH21_01.png",
      "sat_img_url": "https://ds.data.jma.go.jp/svd/vaac/data/Sat/2026/Images/30027000/09-ir/20260716_0110_202607160126_ir.png",
      "text_url": "https://ds.data.jma.go.jp/svd/vaac/data/TextData/2026/20260716_30027000_0264_Text.html"
    },
    {
      "id": "20260715_27307000_0013",
      "year": "2026",
      "volcano": "Taal",
      "psn": "N1400 E12100",
      "issued": "20260715",
      "text": "FVFE01 RJTD 152348\nVA ADVISORY\nDTG: 20260715/2348Z\nVAAC: TOKYO\nVOLCANO: TAAL 273070\nPSN: N1400 E12100\nAREA: PHILIPPINES\nSOURCE ELEV: 311M AMSL\nADVISORY NR: 2026/13\nINFO SOURCE: HIMAWARI-9 PHIVOLCS\nERUPTION DETAILS: ERUPTION AT 20260715/2330Z FL030 EXTD ENE REPORTED\nOBS VA DTG: 15/2340Z\nOBS VA CLD: VA NOT IDENTIFIABLE FM SATELLITE DATA WIND FL030 170/2KT\nFCST VA CLD +6 HR: NOT AVBL\nFCST VA CLD +12 HR: NOT AVBL\nFCST VA CLD +18 HR: NOT AVBL\nRMK: WE WILL ISSUE FURTHER ADVISORY IF VA IS DETECTED IN SATELLITE \nIMAGERY.\nNXT ADVISORY: NO FURTHER ADVISORIES=",
      "img_url": "https://ds.data.jma.go.jp/svd/vaac/data/VAGFN/2026/Images/20260715_27307000_0013_QH21_01.png",
      "sat_img_url": null,
      "text_url": "https://ds.data.jma.go.jp/svd/vaac/data/TextData/2026/20260715_27307000_0013_Text.html"
    },
    {
      "id": "20260715_27303000_0751",
      "year": "2026",
      "volcano": "Mayon",
      "psn": "N1315 E12341",
      "issued": "20260715",
      "text": "FVFE01 RJTD 152204\nVA ADVISORY\nDTG: 20260715/2204Z\nVAAC: TOKYO\nVOLCANO: MAYON 273030\nPSN: N1315 E12341\nAREA: PHILIPPINES\nSOURCE ELEV: 2462M AMSL\nADVISORY NR: 2026/751\nINFO SOURCE: HIMAWARI-9 PHIVOLCS\nERUPTION DETAILS: ERUPTION AT 20260715/1842Z FL100 EXTD SSW REPORTED\nOBS VA DTG: 15/2150Z\nOBS VA CLD: VA NOT IDENTIFIABLE FM SATELLITE DATA WIND FL100 320/2KT\nFCST VA CLD +6 HR: NOT AVBL\nFCST VA CLD +12 HR: NOT AVBL\nFCST VA CLD +18 HR: NOT AVBL\nRMK: WE WILL ISSUE FURTHER ADVISORY IF VA IS DETECTED IN SATELLITE \nIMAGERY.\nNXT ADVISORY: NO FURTHER ADVISORIES=",
      "img_url": "https://ds.data.jma.go.jp/svd/vaac/data/VAGFN/2026/Images/20260715_27303000_0751_QH21_01.png",
      "sat_img_url": null,
      "text_url": "https://ds.data.jma.go.jp/svd/vaac/data/TextData/2026/20260715_27303000_0751_Text.html"
    },
    {
      "id": "20260713_28208001_0083",
      "year": "2026",
      "volcano": null,
      "psn": "N3136 E13039",
      "issued": "20260713",
      "text": "FVFE01 RJTD 130254\nVA ADVISORY\nDTG: 20260713/0254Z\nVAAC: TOKYO\nVOLCANO: SAKURAJIMA (AIRA CALDERA) 282080\nPSN: N3136 E13039\nAREA: JAPAN\nSOURCE ELEV: 1117M AMSL\nADVISORY NR: 2026/83\nINFO SOURCE: JMA HIMAWARI-9\nERUPTION DETAILS: ERUPTED AT 20260713/0152Z FL100 EXTD N\nOBS VA DTG: 13/0230Z\nOBS VA CLD: SFC/FL100 N3136 E13039 - N3142 E13040 - N3141 E13044 - \nN3134 E13042 MOV NE 15KT\nFCST VA CLD +6 HR: 13/0830Z SFC/FL100 N3234 E13121 - N3145 E13155 - \nN3202 E13110 - N3227 E13051\nFCST VA CLD +12 HR: 13/1430Z SFC/FL100 N3318 E13206 - N3142 E13317 - \nN3134 E13226 - N3312 E13118\nFCST VA CLD +18 HR: NO VA EXP\nRMK: NIL\nNXT ADVISORY: 20260713/0600Z=",
      "img_url": "https://ds.data.jma.go.jp/svd/vaac/data/VAGFN/2026/Images/20260713_28208001_0083_QH21_01.png",
      "sat_img_url": "https://ds.data.jma.go.jp/svd/vaac/data/Sat/2026/Images/28208001/09-ir/20260713_0230_202607130254_ir.png",
      "text_url": "https://ds.data.jma.go.jp/svd/vaac/data/TextData/2026/20260713_28208001_0083_Text.html"
    }
  ],
  "vaac_alaska": [
    {
      "text": "\n000\nFVAK21 PAWU 151258\nVAAAK1\nVA ADVISORY\n\nDTG: 20260715/1254Z\n\nVAAC: ANCHORAGE\n\nVOLCANO: SHEVELUCH 300270\n\nPSN: N5639 E16122\n\nAREA: KAMCHATKA PENINSULA\n\nSOURCE ELEV: 10771 FT AMSL\n\nADVISORY NR: 2026/201\n\nINFO SOURCE: HIMAWARI\n\nERUPTION DETAILS: VA NOT IDENTIFIABLE FM SATELLITE DATA.\n\nOBS VA DTG: 15/1254Z\n\nOBS VA CLD: VA NOT IDENTIFIABLE FM SATELLITE DATA.\n\nFCST VA CLD +6HR: NOT AVBL\n\nFCST VA CLD +12HR: NOT AVBL\n\nFCST VA CLD +18HR: NOT AVBL\n\nRMK: A NEW ADVISORY WILL BE ISSUED IF VA IS DETECTED IN SATELLITE IMAGERY....SC\n\nNXT ADVISORY: NO FURTHER ADVISORIES=\n\n",
      "issued": "2026-07-15T12:58:00+00:00",
      "volcano": "Sheveluch",
      "psn": "N5639 E16122"
    }
  ]
}