{
  "updated_utc": "2026-07-16T07:34Z",
  "metar": {
    "RJAA": "METAR RJAA 160600Z 10008KT 070V140 9999 FEW015 SCT100 BKN/// 31/26 Q1000 NOSIG",
    "PANC": "METAR PANC 160553Z 14007KT 10SM SCT060 15/09 A3000 RMK AO2 SLP159 T01500094 10178 20150 53009",
    "PAFA": "METAR PAFA 160553Z 22004KT 10SM FEW040 SCT070 BKN100 13/11 A2987 RMK AO2 RAE10 SLP118 P0000 60003 T01280106 10167 20128 53018",
    "PAED": "METAR PAED 160555Z 23007KT 10SM FEW047 16/07 A2998 RMK AO2A SLP148 T01560071 10185 20148 52010 $",
    "KSEA": "METAR KSEA 160553Z 34007KT 10SM FEW050 SCT150 BKN250 21/08 A2995 RMK AO2 SLP146 T02110083 10283 20211 58005 $",
    "ZSPD": "METAR ZSPD 160600Z 03003MPS 340V110 CAVOK 36/25 Q1002 BECMG TL0730 10005MPS",
    "ZSSS": "METAR ZSSS 160600Z 26002MPS 200V350 CAVOK 37/24 Q1002 NOSIG",
    "RJFR": "METAR RJFR 160600Z 29012KT 9999 FEW025 BKN/// 34/22 Q1001",
    "VHHH": "METAR VHHH 160600Z 23012KT 9999 SHRA FEW006 SCT020 26/25 Q1007 TEMPO 23015G25KT 3000 TSRA SHRA FEW008CB SCT015",
    "RCTP": "METAR RCTP 160600Z 25019KT 9999 FEW020 SCT200 33/25 Q1007 WS ALL RWY NOSIG RMK A2974",
    "ZGSZ": "METAR ZGSZ 160600Z 18004MPS 9999 -SHRA SCT010 BKN050 27/26 Q1006 NOSIG",
    "WSSS": "METAR WSSS 160600Z 16008KT 080V200 9999 FEW016 FEW018TCU FEW020CB SCT300 31/25 Q1012 NOSIG",
    "WMKK": "METAR WMKK 160600Z VRB05KT 9999 FEW017CB SCT018 33/25 Q1010 NOSIG",
    "WIDD": "METAR WIDD 160600Z 13006KT 9999 FEW014 32/25 Q1012 NOSIG",
    "VTBS": "METAR VTBS 160600Z 24012KT 200V270 9999 FEW020CB SCT040 32/22 Q1009 NOSIG",
    "VTBU": "METAR VTBU 160600Z 22010KT 9999 FEW020 SCT100 31/28 Q1011 NOSIG",
    "ROAH": "METAR ROAH 160600Z 24008KT 9999 FEW005 BKN/// 30/28 Q1008",
    "VVDN": "METAR VVDN 160600Z 31004KT 250V040 9999 FEW020 SCT080 36/22 Q1005 NOSIG",
    "RCKH": "SPECI RCKH 160542Z 24012KT 190V280 9000 -SHRA FEW010CB FEW016 SCT028 BKN056 32/25 Q1009 NOSIG RMK 23013KT/R09 CB SW A2981",
    "KLAX": "METAR KLAX 160553Z 21003KT 10SM FEW010 FEW250 22/18 A2981 RMK AO2 SLP090 T02170183 10261 20217 51011 $",
    "KONT": "METAR KONT 160553Z 27006KT 10SM CLR 27/14 A2984 RMK AO2 SLP082 T02720144 10378 20272 51016 $",
    "KSFO": "METAR KSFO 160556Z 28013G21KT 10SM CLR 16/11 A2992 RMK AO2 PK WND 28030/0520 SLP132 T01560106 10211 20156 53008 $",
    "KOAK": "METAR KOAK 160553Z 23003KT 10SM CLR 16/12 A2993 RMK AO2 SLP133 T01610122 10222 20161 53008",
    "KMHR": "METAR KMHR 160535Z AUTO 14007KT 10SM CLR 22/08 A2982 RMK AO2 T02170078 $",
    "KDFW": "METAR KDFW 160553Z 16007KT 10SM FEW120 BKN160 BKN190 OVC250 24/21 A3006 RMK AO2 SLP170 60000 T02440211 10261 20244 403220222 51007 $",
    "KIAH": "METAR KIAH 160553Z 05005KT 10SM FEW025 BKN200 OVC250 25/24 A3008 RMK AO2 SLP186 T02500244 10294 20250 403000228 50011",
    "KORD": "METAR KORD 160551Z 02009KT 8SM BKN250 26/22 A3006 RMK AO2 SLP172 T02610217 10322 20261 403500244 50006",
    "KJFK": "METAR KJFK 160551Z 31006KT 10SM BKN050 OVC300 26/13 A2992 RMK AO2 SLP131 FU OVC300 T02610133 10283 20244 53000 $",
    "KRFD": "METAR KRFD 160554Z 04005KT 10SM SCT250 26/23 A3007 RMK AO2 SLP174 T02560233 10317 20244 403330206 50000",
    "KIND": "METAR KIND 160554Z 25005KT 10SM FEW220 BKN300 26/22 A3007 RMK AO2 SLP172 T02560217 10311 20250 50000",
    "KDTW": "SPECI KDTW 160545Z 04004KT 1 3/4SM FU SCT000 OVC021 24/17 A3004 RMK AO2 TWR VIS 2 FU SCT000 T02440167",
    "KMSP": "METAR KMSP 160553Z 00000KT 1 1/2SM FU OVC019 27/21 A3008 RMK AO2 SLP177 T02720206 10322 20272 403560239 50001",
    "CYEG": "SPECI CYEG 160547Z 06008KT 010V070 20SM SCT088CB SCT120 18/17 A3001 RMK CB3AC1 AC TR CB S MOV SE FRQ LTNG DIST SE SLP162 DENSITY ALT 3300FT",
    "EHAM": "METAR EHAM 160555Z 02007KT 330V050 CAVOK 20/17 Q1020 NOSIG",
    "EBBR": "METAR EBBR 160550Z VRB01KT CAVOK 18/14 Q1019 NOSIG",
    "EDDF": "METAR EDDF 160550Z AUTO 04005KT CAVOK 23/11 Q1019 NOSIG",
    "EDFH": "METAR EDFH 160550Z 14008KT CAVOK 20/12 Q1020",
    "EDDL": "METAR EDDL 160550Z AUTO VRB01KT CAVOK 20/14 Q1018 NOSIG",
    "EDDK": "METAR EDDK 160550Z AUTO VRB02KT CAVOK 19/12 Q1019 NOSIG",
    "EBLG": "METAR EBLG 160550Z 02004KT CAVOK 20/12 Q1019 NOSIG",
    "LSZH": "METAR LSZH 160550Z VRB01KT CAVOK 19/17 Q1020 NOSIG",
    "LIMC": "METAR LIMC 160550Z 02006KT CAVOK 23/19 Q1018 NOSIG",
    "LIRF": "METAR LIRF 160550Z 36002KT CAVOK 25/24 Q1016 NOSIG",
    "EINN": "METAR EINN 160600Z VRB02KT CAVOK 16/14 Q1023 NOSIG",
    "EGLL": "METAR EGLL 160550Z AUTO 04009KT 010V070 9999 NCD 17/14 Q1022",
    "EGSS": "METAR EGSS 160550Z AUTO 36007KT 9000 NCD 16/15 Q1022",
    "EPWA": "METAR EPWA 160600Z 06005KT 020V090 CAVOK 22/16 Q1021 NOSIG",
    "UHPP": "METAR UHPP 160600Z 17003MPS 140V200 9999 FEW010 SCT023CB BKN040 17/13 Q1018 R34L/190062 NOSIG RMK MT OBSC QFE760/1013",
    "EFHK": "METAR EFHK 160550Z 05004KT 010V070 9999 FEW046 20/13 Q1022 NOSIG",
    "LBBG": "METAR LBBG 160600Z 25006KT CAVOK 26/18 Q1016 NOSIG",
    "LTAC": "METAR LTAC 160550Z 05004KT 340V080 CAVOK 21/12 Q1018 NOSIG RMK RWY21C 04008KT 360V080 RWY03L 06005KT 010V120 RWY21R 04008KT 350V070 RWY03R 35006KT 310V020 RWY21L 06005KT 340V090",
    "UBBB": "METAR UBBB 160600Z 34020G30KT CAVOK 29/19 Q1010 NOSIG",
    "UTAA": "METAR UTAA 160600Z 31008KT 280V350 9000 NSC 35/20 Q1008 R88/CLRD70 NOSIG",
    "UACC": "METAR UACC 160600Z 23013G18MPS 9999 SCT043CB 33/13 Q1001 NOSIG RMK QFE720/0960",
    "UAAA": "METAR UAAA 160600Z 05002MPS 320V110 9999 FEW050 37/05 Q1009 NOSIG",
    "UZTT": "METAR UZTT 160600Z 23006KT 190V270 7000 NSC 37/15 Q1006 NOSIG",
    "ZWWW": "METAR ZWWW 160600Z 34004MPS 300V020 CAVOK 35/09 Q1008 NOSIG",
    "ZLXY": "METAR ZLXY 160600Z 36002MPS 330V030 9999 BKN040 33/24 Q1001 NOSIG",
    "ZBAA": "METAR ZBAA 160600Z VRB02MPS CAVOK 34/20 Q1001 NOSIG",
    "ZBHH": "METAR ZBHH 160600Z VRB01MPS 9999 SCT040 26/13 Q1009 BECMG TL0730 -TSRA",
    "ZSQD": "METAR ZSQD 160600Z 08004MPS 050V110 9999 SCT016 28/24 Q1001 NOSIG",
    "ZMCK": "METAR ZMCK 160600Z 34008MPS 9999 FEW030CB SCT033 24/09 Q1010 NOSIG RMK QFE642.8 39 MOP",
    "UUEE": "METAR UUEE 160600Z 34007G12MPS 9999 SCT014 17/14 Q1011 R24L/290145 R24C/290145 NOSIG",
    "UUDD": "METAR UUDD 160600Z 32006MPS 5000 -SHRA FEW010 BKN030CB 16/16 Q1010 R31L/290045 NOSIG",
    "ULLI": "METAR ULLI 160600Z 06006MPS 030V090 9999 FEW026 17/09 Q1021 R88/090065 NOSIG",
    "USSS": "METAR USSS 160600Z 04002MPS 010V080 9999 VCTS FEW009 BKN018CB 18/17 Q0995 R26L/290350 R26R/290040 TEMPO -TSRA RMK QFE726/0968",
    "UNNT": "METAR UNNT 160600Z 14004MPS CAVOK 27/13 Q1005 R25/CLRD// R34/CLRD// NOSIG RMK QFE744/0992",
    "UNKL": "METAR UNKL 160600Z 12002MPS CAVOK 24/11 Q1008 R11/CLRD// NOSIG RMK QFE730",
    "UIBB": "METAR UIBB 160600Z 26003MPS 210V340 9999 BKN040CB 21/12 Q1007 R30/CLRD62 NOSIG RMK QFE713/0950",
    "UEEE": "METAR UEEE 160600Z 10003MPS CAVOK 27/17 Q0996 R23/09//64 NOSIG RMK QFE738",
    "UHHH": "METAR UHHH 160600Z 23009MPS 9999 FEW045CB 25/15 Q0994 R88/090060 NOSIG RMK QFE739/0986",
    "UHSS": "METAR UHSS 160600Z 26004MPS 230V300 9999 SCT031 29/21 Q0995 R01/CLRD70 NOSIG RMK MT OBSC QFE745/0993"
  },
  "taf": {
    "RJAA": "TAF RJAA 160505Z 1606/1712 12008KT 9999 FEW030 SCT040 TEMPO 1618/1703 4000 -SHRA BR FEW003 BKN008 TEMPO 1706/1712 FEW003 BKN008",
    "PANC": "TAF PANC 160541Z 1606/1712 20008KT P6SM SCT060 FM161600 17007KT P6SM OVC060 FM162000 16010KT P6SM -RA SCT025 OVC045 FM162200 17012KT 5SM -RA SCT015 OVC025 FM170900 34006KT P6SM SCT020 OVC035 WS020/12025KT",
    "PAFA": "TAF PAFA 160527Z 1606/1712 24005KT P6SM -RA FEW040 OVC080 FM160800 22009G19KT P6SM -RA SCT025 OVC050 FM161200 23006KT P6SM BKN050",
    "PAED": "TAF PAED 160500Z 1605/1711 24009KT 9999 SCT050 QNH2995INS BECMG 1620/1621 25009KT 9999 -SHRA BKN031 OVC050 640753 QNH2997INS BECMG 1623/1624 32008KT 9000 -RA BKN015 OVC045 640703 QNH2995INS BECMG 1702/1703 33008KT 9999 -SHRA FEW015 FEW025 OVC050 640753 QNH2990INS BECMG 1707/1708 01006KT 9999 NSW BKN008 BKN015 OVC035 650753 QNH2987INS TX16/1605Z TN08/1613Z",
    "KSEA": "TAF KSEA 160527Z 1606/1712 35007KT P6SM FEW050 BKN100 FM161200 24005KT P6SM VCSH OVC100 FM161600 21005KT P6SM -SHRA BKN025 OVC040 FM162000 23010KT P6SM VCSH OVC050 FM170700 22007KT P6SM BKN050",
    "ZSPD": "TAF AMD ZSPD 160631Z 1606/1712 05004MPS 8000 SCT030 TX38/1606Z TX38/1706Z TN29/1621Z TEMPO 1606/1610 TSRA BKN011 FEW030CB BECMG 1607/1609 16004MPS TEMPO 1706/1710 TSRA BKN011 FEW030CB",
    "ZSSS": "TAF AMD ZSSS 160635Z 1606/1712 30004MPS 8000 SCT030 TX39/1606Z TX38/1706Z TN29/1621Z TEMPO 1606/1610 TSRA BKN015 FEW030CB BECMG 1607/1609 18004MPS TEMPO 1706/1710 TSRA BKN015 FEW030CB",
    "RJFR": "TAF RJFR 160505Z 1606/1712 32014KT 9999 FEW050 BECMG 1700/1703 04006KT TEMPO 1703/1709 -TSRA FEW011 BKN030 FEW030CB",
    "VHHH": "TAF VHHH 160500Z 1606/1712 20010KT 9999 FEW010 SCT025 TX30/1606Z TX31/1706Z TN26/1622Z TEMPO 1606/1608 26015G25KT 2000 TSRA +SHRA FEW008CB SCT015 TEMPO 1608/1611 3000 SHRA FEW010CB SCT020 TEMPO 1617/1623 3000 SHRA FEW010CB SCT020 TEMPO 1623/1705 24020G30KT 2500 TSRA SHRA FEW008CB SCT015 TEMPO 1705/1708 3000 SHRA FEW010CB SCT020",
    "RCTP": "TAF RCTP 160500Z 1606/1712 24012KT 9999 FEW015 BKN032 TEMPO 1606/1611 28017KT TEMPO 1613/1616 22007KT TEMPO 1706/1710 26015KT FEW010 FEW018TCU BKN025",
    "ZGSZ": "TAF ZGSZ 160304Z 1606/1712 18005MPS 8000 BKN040 TX28/1606Z TX28/1706Z TN25/1622Z TEMPO 1606/1610 SHRA FEW015 FEW020CB BKN030 TEMPO 1622/1701 SHRA FEW015 FEW020CB BKN030 TEMPO 1703/1707 SHRA FEW015 FEW020CB BKN030",
    "WSSS": "TAF WSSS 160500Z 1606/1712 14008KT 9999 FEW015 SCT020",
    "WMKK": "TAF WMKK 160500Z 1606/1712 VRB03KT 9999 FEW018",
    "VTBS": "TAF VTBS 160500Z 1606/1712 22008KT 9999 FEW020 TEMPO 1610/1614 VRB15KT 4000 TSRA FEW018CB SCT030 BKN080 TEMPO 1708/1712 VRB15KT 4000 TSRA FEW018CB SCT030 BKN080",
    "VTBU": "TAF VTBU 160500Z 1606/1706 24010KT 9999 FEW020",
    "ROAH": "TAF AMD ROAH 160606Z 1606/1712 22010KT 9999 FEW005 BKN010 TEMPO 1610/1614 FEW005 BKN008 TEMPO 1614/1621 FEW003 BKN005 TEMPO 1621/1703 FEW005 BKN008",
    "VVDN": "TAF VVDN 160500Z 1606/1706 12008KT 9999 FEW020 BKN070 TEMPO 1609/1612 25015KT TS SCT013 FEW017CB BKN070 PROB30 TEMPO 1617/1621 35015KT 4500 TSRA BKN013 FEW017CB BKN060",
    "RCKH": "TAF COR RCKH 160525Z 1606/1712 16005KT 9999 FEW015 BKN032 TEMPO 1606/1610 22008KT 5000 SHRA FEW010 FEW015CB BKN018 TEMPO 1616/1620 5000 SHRA FEW010 FEW015CB BKN018 TEMPO 1620/1623 08005KT TEMPO 1623/1703 24005KT 4000 SHRA FEW010 FEW012CB BKN016 BECMG 1703/1705 21005KT TEMPO 1708/1712 22010KT 5000 SHRA FEW010 FEW015CB BKN018",
    "KLAX": "TAF KLAX 160532Z 1606/1712 25005KT P6SM SKC FM160900 11005KT P6SM SCT008 FM161800 24006KT P6SM SKC FM162000 26012KT P6SM SKC FM170300 26006KT P6SM SCT250 FM170900 11005KT P6SM SCT008",
    "KONT": "TAF KONT 160534Z 1606/1712 25008KT P6SM FEW120 FM160700 VRB04KT P6SM FEW200 FM161900 25014G22KT P6SM SCT150 FM170300 26010KT P6SM FEW200 FM170700 VRB04KT P6SM SKC",
    "KSFO": "TAF KSFO 160520Z 1606/1712 29015KT P6SM SKC FM161900 30020G30KT P6SM SKC FM170600 28015KT P6SM SKC FM170900 28014KT P6SM SCT010",
    "KOAK": "TAF KOAK 160520Z 1606/1712 26010KT P6SM SKC FM161300 26008KT P6SM FEW005 FM162000 28016KT P6SM SKC FM170600 25010KT P6SM BKN010",
    "KMHR": "TAF KMHR 160549Z 1606/1706 17006KT P6SM SKC FM161800 20005KT P6SM SKC FM162100 23009KT P6SM SKC",
    "KDFW": "TAF KDFW 160538Z 1606/1712 17009KT P6SM VCSH SCT050 BKN100 FM161000 17011KT P6SM FEW025 BKN100 TEMPO 1611/1615 BKN022 FM161500 17011KT P6SM VCSH SCT030 BKN110 FM162000 18013KT P6SM -SHRA VCTS SCT035CB BKN120 FM162300 16010KT P6SM SCT110 BKN250",
    "KIAH": "TAF KIAH 160532Z 1606/1712 11004KT P6SM FEW020 BKN140 BKN250 FM161500 16007KT P6SM SCT025 BKN035 BKN250 FM161800 15009KT P6SM SCT035 SCT050 SCT100 FM170200 15007KT P6SM FEW020 SCT250 FM170600 VRB03KT P6SM SCT015 SCT025",
    "KORD": "TAF KORD 160701Z 1607/1712 07006KT 5SM FU SCT035 BKN250",
    "KJFK": "TAF KJFK 160525Z 1606/1712 30006KT P6SM BKN050 BKN250 TEMPO 1611/1615 6SM HZ FM161500 27011KT 5SM FU SCT050 BKN250 FM161800 23014G22KT 5SM FU SCT050 BKN250 TEMPO 1619/1623 3SM FU FM162300 31012G21KT 5SM FU FEW050 BKN250 FM170100 34010KT 5SM FU BKN250 FM170600 33006KT 6SM FU BKN250",
    "KRFD": "TAF KRFD 160528Z 1606/1706 VRB03KT P6SM BKN300 TEMPO 1608/1612 4SM BR BCFG FM161200 09003KT 6SM FU BKN035 FM170200 07004KT 5SM FU BKN035",
    "KIND": "TAF KIND 160530Z 1606/1712 VRB03KT P6SM SCT250 FM161300 27004KT P6SM FEW050 SCT250 FM161800 23006KT P6SM SCT050 BKN200",
    "KDTW": "TAF KDTW 160626Z 1606/1712 VRB03KT 1 1/2SM FU OVC025 FM161400 35005KT 3SM FU SCT035 BKN200 FM170100 14004KT 4SM FU BKN200",
    "KMSP": "TAF KMSP 160540Z 1606/1712 04004KT 1SM FU OVC022 FM161100 08002KT 3SM FU OVC022 FM161400 17007KT 6SM FU SCT050 FM162100 18006KT P6SM SCT050",
    "CYEG": "TAF AMD CYEG 160712Z 1607/1706 14006KT P6SM FEW120 FM160900 VRB03KT P6SM SCT070 TEMPO 1609/1611 VRB15G25KT P6SM -SHRA VCTS OVC060CB FM161100 VRB03KT P6SM FEW010 PROB30 1611/1614 1SM BR BKN003 FM161700 21006KT P6SM FEW030 FM162100 17008KT P6SM SCT040 FM170300 11006KT P6SM SKC RMK NXT FCST BY 160900Z",
    "EHAM": "TAF EHAM 160457Z 1606/1712 04010KT CAVOK BECMG 1623/1702 34007KT PROB30 TEMPO 1702/1706 6000 BKN014 BECMG 1709/1712 32014KT",
    "EBBR": "TAF EBBR 160501Z 1606/1712 03008KT CAVOK",
    "EDDF": "TAF EDDF 160500Z 1606/1712 05008KT CAVOK BECMG 1612/1614 14006KT PROB30 TEMPO 1612/1618 20015G30KT TSRA SCT050CB BECMG 1616/1620 20005KT",
    "EDFH": "TAF AMD EDFH 160639Z 1606/1706 15010KT CAVOK PROB40 TEMPO 1612/1618 20015G30KT TSRA SCT050CB BECMG 1618/1620 17005KT BECMG 1620/1623 24005KT",
    "EDDL": "TAF EDDL 160500Z 1606/1712 VRB03KT CAVOK BECMG 1608/1611 01007KT BECMG 1622/1701 31004KT BECMG 1707/1710 28009KT",
    "EDDK": "TAF EDDK 160500Z 1606/1712 VRB03KT CAVOK BECMG 1611/1614 04006KT PROB30 TEMPO 1612/1618 23015G25KT 3000 TSRA BKN050CB BECMG 1620/1623 VRB03KT PROB30 TEMPO 1706/1711 SHRA BKN040TCU BECMG 1707/1710 29009KT",
    "EBLG": "TAF EBLG 160501Z 1606/1712 35007KT CAVOK",
    "LSZH": "TAF LSZH 160525Z 1606/1712 VRB02KT CAVOK TX31/1615Z TN19/1606Z TN17/1704Z BECMG 1613/1615 23010KT 9999 FEW060 TEMPO 1616/1624 SHRA SCT050TCU PROB40 TEMPO 1616/1621 26017G30KT TSRA SCT040CB PROB30 TEMPO 1616/1619 29020G35KT 4000 TSGR BECMG 1620/1622 VRB02KT PROB30 TEMPO 1621/1624 15010KT BECMG 1700/1702 CAVOK BECMG 1707/1709 9999 FEW050 SCT070 PROB40 TEMPO 1709/1712 21015G25KT 4500 TSRA SCT050CB",
    "LIMC": "TAF LIMC 160500Z 1606/1712 VRB05KT CAVOK BECMG 1618/1620 36010KT TEMPO 1620/1704 4000 TSRA BKN010",
    "LIRF": "TAF LIRF 160500Z 1606/1712 VRB05KT CAVOK BECMG 1609/1611 28013KT BECMG 1618/1620 VRB05KT BECMG 1708/1710 19010KT",
    "EINN": "TAF EINN 160500Z 1606/1706 VRB03KT CAVOK BECMG 1617/1619 33010KT BECMG 1622/1624 01008KT",
    "EGLL": "TAF EGLL 160456Z 1606/1712 03008KT 9999 FEW040 PROB30 TEMPO 1606/1608 BKN009 BECMG 1612/1615 09010KT BECMG 1623/1702 03008KT PROB30 TEMPO 1703/1708 BKN009",
    "EGSS": "TAF EGSS 160455Z 1606/1712 02008KT CAVOK PROB30 TEMPO 1606/1609 8000 BKN006 TEMPO 1700/1708 BKN008",
    "EPWA": "TAF EPWA 160530Z 1606/1706 04005KT CAVOK",
    "UHPP": "TAF UHPP 160455Z 1606/1712 18003G12MPS 6000 -SHRA SCT007 BKN020CB TEMPO 1606/1608 1000 BR VV003 TEMPO 1608/1621 0500 FG VV002 BECMG 1621/1623 BKN020CB",
    "EFHK": "TAF EFHK 160531Z 1606/1706 04006KT 9999 FEW045 BECMG 1609/1611 18012KT BECMG 1620/1622 18002KT",
    "LBBG": "TAF LBBG 160500Z 1606/1706 VRB04KT 9999 SCT045 BECMG 1607/1609 12012KT TEMPO 1610/1617 5000 TSRA SCT030CB BKN040 BECMG 1617/1619 VRB04KT",
    "LTAC": "TAF LTAC 160440Z 1606/1706 03008KT CAVOK BECMG 1606/1608 SCT040 BECMG 1616/1618 CAVOK",
    "UBBB": "TAF UBBB 160504Z 1606/1706 33018G28KT 9999 SCT020 TX30/1610Z TN24/1701Z TEMPO 1606/1612 35024G34KT BECMG 1615/1617 34018KT TEMPO 1618/1706 34012G22KT SCT012 FEW040CB",
    "UTAA": "TAF COR UTAA 160730Z 1606/1706 34016KT 6000 SCT050 TX42/1609Z TEMPO 1606/1610 02016G26KT 3000 DRDU BECMG 1616/1618 14014KT TEMPO 1620/1624 20010G20KT",
    "UACC": "TAF AMD UACC 160609Z 1606/1706 26014MPS 9999 SCT040CB BKN050 TX31/1609Z TN16/1623Z TEMPO 1606/1615 VRB25MPS 3100 -TSRA SQ BKN030CB TEMPO 1615/1618 28013MPS -TSRA BKN030CB BECMG 1618/1619 24005MPS SCT040 BKN100 TEMPO 1618/1624 30008MPS TEMPO 1703/1706 SCT030CB",
    "UAAA": "TAF UAAA 160502Z 1606/1706 04002G07MPS 9999 FEW050CB SCT100 TX38/1610Z TN21/1701Z TEMPO 1606/1614 09005G10MPS BECMG 1614/1615 16005MPS BECMG 1703/1704 03003G08MPS",
    "UZTT": "TAF UZTT 160500Z 1606/1706 34012KT CAVOK TX41/1611Z TN26/1700Z TEMPO 1606/1617 30015KT BECMG 1617/1618 07010KT",
    "ZWWW": "TAF ZWWW 160310Z 1606/1712 34004G09MPS CAVOK TX38/1609Z TX39/1709Z TN28/1623Z BECMG 1614/1615 18004MPS BECMG 1702/1703 36004MPS",
    "ZLXY": "TAF ZLXY 160315Z 1606/1706 06004MPS 5000 HZ NSC TX34/1608Z TN22/1621Z BECMG 1608/1609 30008G15MPS 1500 TSRA FEW040CB OVC050 BECMG 1611/1612 26003MPS 3000 -RA OVC050 TEMPO 1612/1615 SHRA FEW040CB OVC050 BECMG 1617/1618 HZ",
    "ZBAA": "TAF ZBAA 160301Z 1606/1712 18004MPS CAVOK TX35/1606Z TX36/1706Z TN24/1621Z",
    "ZBHH": "TAF ZBHH 160311Z 1606/1706 24004G09MPS 9999 SCT040 TX29/1608Z TN16/1622Z BECMG 1606/1607 VRB10G17MPS 2800 TSRA SCT040 FEW040CB BECMG 1610/1611 6000 NSW NSC",
    "ZSQD": "TAF ZSQD 160305Z 1606/1706 04004MPS 5000 BR NSC TX30/1606Z TN22/1620Z BECMG 1619/1620 2500 BECMG 1621/1622 3500",
    "ZMCK": "TAF ZMCK 160447Z 1606/1712 33007MPS 9999 FEW030CB SCT033 TX24/1607Z TN10/1621Z PROB40 TEMPO 1606/1618 VRB08G13MPS TSRA SCT027CB SCT030 BECMG 1610/1613 VRB02MPS",
    "UUEE": "TAF UUEE 160450Z 1606/1706 32006G11MPS 9999 BKN016 TX21/1612Z TN10/1702Z TEMPO 1606/1617 35010G17MPS",
    "UUDD": "TAF UUDD 160454Z 1606/1712 35006MPS 9999 SCT016 TX20/1612Z TN10/1701Z TEMPO 1606/1608 BKN010 TEMPO 1608/1618 36009G17MPS TEMPO 1706/1712 35008G15MPS",
    "ULLI": "TAF ULLI 160450Z 1606/1706 04006G12MPS 9999 SCT020 BECMG 1616/1618 04003MPS",
    "USSS": "TAF USSS 160455Z 1606/1706 27003G14MPS 8000 -SHRA BKN016CB TEMPO 1606/1618 28008G20MPS -TSRAGR",
    "UNNT": "TAF UNNT 160500Z 1606/1706 13003G08MPS 9999 SCT040 TX26/1609Z TN14/1622Z TEMPO 1606/1612 14008G15MPS -TSRA BKN020CB TEMPO 1612/1706 -TSRA BKN016CB BECMG 1700/1704 24005G12MPS",
    "UNKL": "TAF UNKL 160451Z 1606/1706 11003G08MPS 9999 SCT040",
    "UIBB": "TAF UIBB 160500Z 1606/1706 26003G08MPS 9999 BKN030CB TEMPO 1606/1612 VRB08MPS BECMG 1618/1620 20005MPS",
    "UEEE": "TAF UEEE 160500Z 1606/1712 10005G10MPS 9999 SCT030CB OVC100 TX28/1606Z TN16/1618Z TEMPO 1606/1615 VRB16MPS 5000 -TSRA",
    "UHHH": "TAF UHHH 160446Z 1606/1712 24008G13MPS 9999 SCT020CB TX27/1606Z TN18/1618Z TEMPO 1606/1610 5000 -SHRA FEW006 BKN016CB BECMG 1612/1614 20003G08MPS BECMG 1700/1702 24008G13MPS",
    "UHSS": "TAF UHSS 160450Z 1606/1712 27005MPS 9999 BKN025CB BECMG 1612/1614 19003MPS BKN004 BECMG 1623/1701 SCT040"
  },
  "atis": {},
  "windtemp_alaska": "\n000\nFBAK31 KWNO 160159\nFD1AK1\nDATA BASED ON 160000Z    \nVALID 160600Z   FOR USE 0200-0900Z. TEMPS NEG ABV 24000\n\nFT  3000    6000    9000   12000   18000   24000  30000  34000  39000\nADK 0218 3519+02 3323-01 3127-06 3040-18 2946-31 285143 284644 294445\nADQ 2107 2408+02 2510-01 2518-05 2544-15 2659-26 267241 267849 266857\nAKN 1905 2005+01 2008-03 2213-08 2435-17 2561-27 258542 259450 255852\nANC 2006 2308+01 2506-04 2608-09 2825-20 2832-33 274146 275045 263243\nANN 9900 2606+08 2412+06 2512+03 2615-10 2812-23 301340 301150 311160\nBET 2305 2406-02 9900-05 2108-10 2215-22 2119-34 234845 244846 243043\nBRW 9900 9900+00 1908-05 2012-11 2019-20 2124-32 212848 202651 181242\nBTI 0411 0411+04 0508-02 0708-07 0905-18 1208-29 141347 151655 191443\nBTT 2710 9900+04 9900-02 3606-07 9900-20 9900-32 091049 101151 181043\nCDB 1719 1924+02 2232+01 2449-02 2352-14 2454-25 246440 247049 246957\nCZF 2111 2015-01 2015-07 1812-12 2014-23 2020-35 211946 221343 241141\nEHM 9900 1605-02 1807-05 2112-09 2325-19 2257-30 239043 249149 244748\nFAI 2624 2823+01 2919-03 3116-08 3314-21 3511-34 021549 990047 231041\nFYU 2819 2906+03 2906-02 9900-07 0408-20 0723-32 093449 101447 181140\nGAL 9900 1807+01 1606-04 1312-08 1513-21 1606-33 990049 990050 220842\nGKN 1820 2316+02 2614-04 2807-10 3210-24 3017-36 302545 272842 252740\nHOM 2413 2709+02 2809-02 2713-08 2625-19 2756-29 279343 278449 264947\nJNU 2207 2118+05 2323+02 2429+00 2435-12 2431-24 254140 254449 254059\nLUR 0407 1708-01 1909-05 2107-09 2215-22 2125-33 223848 221848 990042\nMCG 2425 2614+00 2413-05 2308-10 2005-21 2306-33 251048 251847 241843\nMDO 2517 2513+01 2615-02 2622-07 2731-20 2757-30 279642 278847 264747\nOME 9900 2006+00 2308-05 9900-11 1514-21 1315-33 111849 121148 990042\nORT      2725+03 2814-04 3011-10 2708-24 1906-37 230743 232039 232439\nOTZ 2405 1706+01 1708-04 1811-09 1812-20 1608-32 141148 140952 990042\nSNP 2911 3213-01 3318-07 3413-10 3513-22 3516-34 311245 252044 261741\nTKA 2017 2310+01 2708-04 2508-10 2609-21 2813-33 272447 272945 252542\nUNK 2813 2908+00 2707-04 2005-10 1410-21 1511-33 141049 180948 231242\nYAK 9900 2407+00 2719-02 2629-07 2552-17 2582-25 258841 258849 245249\nIKO 3318 3021+03 2729+00 2636-05 2458-15 2379-24 238541 239249 236551\nAFM 9900 9900+03 2005-02 2107-08 2006-20 9900-33 110948 120853 190643\n5AB 9900 9900+05 3112+01 3222-03 3245-14 3362-25 348838 349746 348554\n5AC 3013 3011+09 3211+06 3211+02 3409-11 3513-23 361540 011850 351960\n5AD 2616 2720+08 2722+05 2723+00 2630-12 2632-24 273239 283049 282760\n5AE 2214 2317+04 2431+03 2538-01 2539-13 2543-24 265139 265448 255159\n5AF 3017 2714+08 2719+05 2621+01 2629-11 2530-23 252940 262750 262459\n5AG 2812 2915+03 2720+00 2630-03 2653-13 2665-24 266841 267050 265954\n",
  "vaac_active": [
    {
      "volcano": "SHEVELUCH",
      "volcano_jp": "シベルチ",
      "advisory_nr": "2026/265",
      "obs_time": "2026-07-16 05:20Z",
      "issued_time": "2026-07-16 06:00Z",
      "text_url": "https://www.data.jma.go.jp/vaac/data/TextData/2026/20260716_30027000_0265_Text.html",
      "lat": 56.65,
      "lon": 161.367,
      "text": "FVFE01 RJTD 160600\nVA ADVISORY\nDTG: 20260716/0600Z\nVAAC: TOKYO\nVOLCANO: SHEVELUCH 300270\nPSN: N5639 E16122\nAREA: RUSSIA\nSOURCE ELEV: 3283M AMSL\nADVISORY NR: 2026/265\nINFO SOURCE: KVERT UHPP HIMAWARI-9\nERUPTION DETAILS: VA CONTINUOUSLY OBS IN SATELLITE IMAGERY\nOBS VA DTG: 16/0520Z\nOBS VA CLD: SFC/FL230 N5643 E16316 - N5549 E16508 - N5526 E16453 - \nN5618 E16252 MOV SE 30KT\nFCST VA CLD +6 HR: 16/1120Z SFC/FL230 N5454 E16830 - N5356 E16813 - \nN5455 E16603 - N5632 E16536 - N5628 E16636\nFCST VA CLD +12 HR: 16/1720Z SFC/FL240 N5514 E17127 - N5331 E17209 - \nN5238 E17030 - N5338 E16858 - N5450 E16955 - N5609 E16849 - N5609 \nE17030\nFCST VA CLD +18 HR: NO VA EXP\nRMK: WESTERN PART OF VA OBSCURED BY MET CLOUD.\nNXT ADVISORY: 20260716/1200Z="
    },
    {
      "volcano": "MAYON",
      "volcano_jp": "マヨン",
      "advisory_nr": "2026/752",
      "obs_time": "2026-07-16 01:44Z",
      "issued_time": "2026-07-16 01:59Z",
      "text_url": "https://www.data.jma.go.jp/vaac/data/TextData/2026/20260716_27303000_0752_Text.html",
      "lat": 13.25,
      "lon": 123.683,
      "text": "FVFE01 RJTD 160159\nVA ADVISORY\nDTG: 20260716/0159Z\nVAAC: TOKYO\nVOLCANO: MAYON 273030\nPSN: N1315 E12341\nAREA: PHILIPPINES\nSOURCE ELEV: 2462M AMSL\nADVISORY NR: 2026/752\nINFO SOURCE: HIMAWARI-9 PHIVOLCS\nERUPTION DETAILS: ERUPTION AT 20260716/0144Z VA CLD UNKNOWN REPORTED\nOBS VA DTG: 16/0140Z\nOBS VA CLD: VA NOT IDENTIFIABLE FM SATELLITE DATA WIND FL180 010/5KT\nFCST VA CLD +6 HR: NOT AVBL\nFCST VA CLD +12 HR: NOT AVBL\nFCST VA CLD +18 HR: NOT AVBL\nRMK: WE WILL ISSUE FURTHER ADVISORY IF VA IS DETECTED IN SATELLITE \nIMAGERY.\nNXT ADVISORY: NO FURTHER ADVISORIES="
    },
    {
      "volcano": "SHEVELUCH",
      "volcano_jp": "シベルチ",
      "advisory_nr": "2026/264",
      "obs_time": "2026-07-16 00:46Z",
      "issued_time": "2026-07-16 01:26Z",
      "text_url": "https://www.data.jma.go.jp/vaac/data/TextData/2026/20260716_30027000_0264_Text.html",
      "lat": 56.65,
      "lon": 161.367,
      "text": "FVFE01 RJTD 160126\nVA ADVISORY\nDTG: 20260716/0126Z\nVAAC: TOKYO\nVOLCANO: SHEVELUCH 300270\nPSN: N5639 E16122\nAREA: RUSSIA\nSOURCE ELEV: 3283M AMSL\nADVISORY NR: 2026/264\nINFO SOURCE: KBGS HIMAWARI-9\nERUPTION DETAILS: ERUPTION AT 20260716/0046Z FL230 REPORTED\nOBS VA DTG: 16/0110Z\nOBS VA CLD: SFC/FL230 N5643 E16119 - N5651 E16135 - N5642 E16139 - \nN5637 E16120 MOV E 15KT\nFCST VA CLD +6 HR: 16/0710Z SFC/FL230 N5535 E16513 - N5528 E16428 - \nN5639 E16340 - N5649 E16127 - N5722 E16124 - N5719 E16423\nFCST VA CLD +12 HR: 16/1310Z SFC/FL230 N5703 E16750 - N5519 E16840 - \nN5411 E16755 - N5421 E16702 - N5631 E16632 - N5637 E16255 - N5746 \nE16242\nFCST VA CLD +18 HR: NO VA EXP\nRMK: NIL\nNXT ADVISORY: 20260716/0600Z="
    }
  ],
  "vaac_tokyo": [
    {
      "id": "20260716_30027000_0265",
      "year": "2026",
      "volcano": "Sheveluch",
      "psn": "N5639 E16122",
      "issued": "20260716",
      "text": "FVFE01 RJTD 160600\nVA ADVISORY\nDTG: 20260716/0600Z\nVAAC: TOKYO\nVOLCANO: SHEVELUCH 300270\nPSN: N5639 E16122\nAREA: RUSSIA\nSOURCE ELEV: 3283M AMSL\nADVISORY NR: 2026/265\nINFO SOURCE: KVERT UHPP HIMAWARI-9\nERUPTION DETAILS: VA CONTINUOUSLY OBS IN SATELLITE IMAGERY\nOBS VA DTG: 16/0520Z\nOBS VA CLD: SFC/FL230 N5643 E16316 - N5549 E16508 - N5526 E16453 - \nN5618 E16252 MOV SE 30KT\nFCST VA CLD +6 HR: 16/1120Z SFC/FL230 N5454 E16830 - N5356 E16813 - \nN5455 E16603 - N5632 E16536 - N5628 E16636\nFCST VA CLD +12 HR: 16/1720Z SFC/FL240 N5514 E17127 - N5331 E17209 - \nN5238 E17030 - N5338 E16858 - N5450 E16955 - N5609 E16849 - N5609 \nE17030\nFCST VA CLD +18 HR: NO VA EXP\nRMK: WESTERN PART OF VA OBSCURED BY MET CLOUD.\nNXT ADVISORY: 20260716/1200Z=",
      "img_url": "https://ds.data.jma.go.jp/svd/vaac/data/VAGFN/2026/Images/20260716_30027000_0265_QH21_01.png",
      "sat_img_url": "https://ds.data.jma.go.jp/svd/vaac/data/Sat/2026/Images/30027000/09-ir/20260716_0520_202607160600_ir.png",
      "text_url": "https://ds.data.jma.go.jp/svd/vaac/data/TextData/2026/20260716_30027000_0265_Text.html"
    },
    {
      "id": "20260715_27307000_0013",
      "year": "2026",
      "volcano": "Taal",
      "psn": "N1400 E12100",
      "issued": "20260715",
      "text": "FVFE01 RJTD 152348\nVA ADVISORY\nDTG: 20260715/2348Z\nVAAC: TOKYO\nVOLCANO: TAAL 273070\nPSN: N1400 E12100\nAREA: PHILIPPINES\nSOURCE ELEV: 311M AMSL\nADVISORY NR: 2026/13\nINFO SOURCE: HIMAWARI-9 PHIVOLCS\nERUPTION DETAILS: ERUPTION AT 20260715/2330Z FL030 EXTD ENE REPORTED\nOBS VA DTG: 15/2340Z\nOBS VA CLD: VA NOT IDENTIFIABLE FM SATELLITE DATA WIND FL030 170/2KT\nFCST VA CLD +6 HR: NOT AVBL\nFCST VA CLD +12 HR: NOT AVBL\nFCST VA CLD +18 HR: NOT AVBL\nRMK: WE WILL ISSUE FURTHER ADVISORY IF VA IS DETECTED IN SATELLITE \nIMAGERY.\nNXT ADVISORY: NO FURTHER ADVISORIES=",
      "img_url": "https://ds.data.jma.go.jp/svd/vaac/data/VAGFN/2026/Images/20260715_27307000_0013_QH21_01.png",
      "sat_img_url": null,
      "text_url": "https://ds.data.jma.go.jp/svd/vaac/data/TextData/2026/20260715_27307000_0013_Text.html"
    },
    {
      "id": "20260715_27303000_0751",
      "year": "2026",
      "volcano": "Mayon",
      "psn": "N1315 E12341",
      "issued": "20260715",
      "text": "FVFE01 RJTD 152204\nVA ADVISORY\nDTG: 20260715/2204Z\nVAAC: TOKYO\nVOLCANO: MAYON 273030\nPSN: N1315 E12341\nAREA: PHILIPPINES\nSOURCE ELEV: 2462M AMSL\nADVISORY NR: 2026/751\nINFO SOURCE: HIMAWARI-9 PHIVOLCS\nERUPTION DETAILS: ERUPTION AT 20260715/1842Z FL100 EXTD SSW REPORTED\nOBS VA DTG: 15/2150Z\nOBS VA CLD: VA NOT IDENTIFIABLE FM SATELLITE DATA WIND FL100 320/2KT\nFCST VA CLD +6 HR: NOT AVBL\nFCST VA CLD +12 HR: NOT AVBL\nFCST VA CLD +18 HR: NOT AVBL\nRMK: WE WILL ISSUE FURTHER ADVISORY IF VA IS DETECTED IN SATELLITE \nIMAGERY.\nNXT ADVISORY: NO FURTHER ADVISORIES=",
      "img_url": "https://ds.data.jma.go.jp/svd/vaac/data/VAGFN/2026/Images/20260715_27303000_0751_QH21_01.png",
      "sat_img_url": null,
      "text_url": "https://ds.data.jma.go.jp/svd/vaac/data/TextData/2026/20260715_27303000_0751_Text.html"
    },
    {
      "id": "20260713_28208001_0083",
      "year": "2026",
      "volcano": null,
      "psn": "N3136 E13039",
      "issued": "20260713",
      "text": "FVFE01 RJTD 130254\nVA ADVISORY\nDTG: 20260713/0254Z\nVAAC: TOKYO\nVOLCANO: SAKURAJIMA (AIRA CALDERA) 282080\nPSN: N3136 E13039\nAREA: JAPAN\nSOURCE ELEV: 1117M AMSL\nADVISORY NR: 2026/83\nINFO SOURCE: JMA HIMAWARI-9\nERUPTION DETAILS: ERUPTED AT 20260713/0152Z FL100 EXTD N\nOBS VA DTG: 13/0230Z\nOBS VA CLD: SFC/FL100 N3136 E13039 - N3142 E13040 - N3141 E13044 - \nN3134 E13042 MOV NE 15KT\nFCST VA CLD +6 HR: 13/0830Z SFC/FL100 N3234 E13121 - N3145 E13155 - \nN3202 E13110 - N3227 E13051\nFCST VA CLD +12 HR: 13/1430Z SFC/FL100 N3318 E13206 - N3142 E13317 - \nN3134 E13226 - N3312 E13118\nFCST VA CLD +18 HR: NO VA EXP\nRMK: NIL\nNXT ADVISORY: 20260713/0600Z=",
      "img_url": "https://ds.data.jma.go.jp/svd/vaac/data/VAGFN/2026/Images/20260713_28208001_0083_QH21_01.png",
      "sat_img_url": "https://ds.data.jma.go.jp/svd/vaac/data/Sat/2026/Images/28208001/09-ir/20260713_0230_202607130254_ir.png",
      "text_url": "https://ds.data.jma.go.jp/svd/vaac/data/TextData/2026/20260713_28208001_0083_Text.html"
    }
  ],
  "vaac_alaska": [
    {
      "text": "\n000\nFVAK21 PAWU 151258\nVAAAK1\nVA ADVISORY\n\nDTG: 20260715/1254Z\n\nVAAC: ANCHORAGE\n\nVOLCANO: SHEVELUCH 300270\n\nPSN: N5639 E16122\n\nAREA: KAMCHATKA PENINSULA\n\nSOURCE ELEV: 10771 FT AMSL\n\nADVISORY NR: 2026/201\n\nINFO SOURCE: HIMAWARI\n\nERUPTION DETAILS: VA NOT IDENTIFIABLE FM SATELLITE DATA.\n\nOBS VA DTG: 15/1254Z\n\nOBS VA CLD: VA NOT IDENTIFIABLE FM SATELLITE DATA.\n\nFCST VA CLD +6HR: NOT AVBL\n\nFCST VA CLD +12HR: NOT AVBL\n\nFCST VA CLD +18HR: NOT AVBL\n\nRMK: A NEW ADVISORY WILL BE ISSUED IF VA IS DETECTED IN SATELLITE IMAGERY....SC\n\nNXT ADVISORY: NO FURTHER ADVISORIES=\n\n",
      "issued": "2026-07-15T12:58:00+00:00",
      "volcano": "Sheveluch",
      "psn": "N5639 E16122"
    }
  ]
}