{
  "updated_utc": "2026-07-14T18:36Z",
  "metar": {
    "RJAA": "METAR RJAA 141700Z AUTO VRB02KT 9999 NCD 25/23 Q1006 NOSIG",
    "PANC": "METAR PANC 141653Z 34005KT 6SM RA BR BKN055 OVC070 11/09 A2996 RMK AO2 SLP146 P0004 T01110094",
    "PAFA": "METAR PAFA 141653Z 06005KT 10SM FEW060 BKN075 OVC110 13/09 A2983 RMK AO2 RAE19 SLP104 P0000 T01330094 $",
    "PAED": "METAR PAED 141655Z 34006KT 6SM -RA BKN040 BKN050 OVC060 11/09 A2994 RMK AO2A SLP135 P0005 T01110092 $",
    "KSEA": "METAR KSEA 141653Z 28005KT 10SM FEW120 FEW230 21/10 A3011 RMK AO2 SLP201 HZ FEW120 T02060100 $",
    "ZSPD": "METAR ZSPD 141700Z 20005MPS CAVOK 30/26 Q1003 NOSIG",
    "ZSSS": "METAR ZSSS 141700Z 19004MPS CAVOK 31/27 Q1003 NOSIG",
    "RJFR": "METAR RJFR 141700Z AUTO 22008KT 9999 FEW033 BKN050 29/23 Q1005",
    "VHHH": "METAR VHHH 141700Z 14010KT 9999 -SHRA FEW015 SCT040 29/24 Q1005 NOSIG",
    "RCTP": "METAR RCTP 141700Z 25006KT 9999 FEW015 BKN030 28/25 Q1009 NOSIG RMK A2982",
    "ZGSZ": "METAR ZGSZ 141700Z 15005MPS CAVOK 28/24 Q1005 NOSIG",
    "WSSS": "METAR WSSS 141700Z 12005KT 9999 FEW018 BKN300 29/25 Q1012 NOSIG",
    "WMKK": "METAR WMKK 141700Z 12006KT 070V190 9999 FEW030 29/25 Q1010 NOSIG",
    "WIDD": "METAR WIDD 141700Z 13006KT 9999 FEW017 28/25 Q1012 NOSIG",
    "VTBS": "METAR VTBS 141700Z 22005KT 9999 FEW020 SCT100 30/24 Q1009 NOSIG",
    "VTBU": "METAR VTBU 141700Z 22006KT 9999 FEW020 29/27 Q1010 NOSIG",
    "ROAH": "METAR ROAH 141700Z AUTO 19011KT 9999 FEW005 26/26 Q1011",
    "VVDN": "METAR VVDN 141700Z 23006KT 9999 FEW020 SCT080 30/22 Q1006 NOSIG",
    "RCKH": "METAR RCKH 141700Z 14005KT 110V190 9999 -RA FEW012 SCT018 BKN025 29/26 Q1010 NOSIG RMK A2984",
    "KLAX": "METAR KLAX 141653Z 27005KT 10SM FEW009 SCT012 SCT180 22/18 A2999 RMK AO2 SLP154 T02170178 $",
    "KONT": "METAR KONT 141653Z 00000KT 10SM FEW110 FEW200 27/14 A2999 RMK AO2 SLP138 T02720139 $",
    "KSFO": "METAR KSFO 141656Z 03005KT 10SM FEW200 22/16 A2998 RMK AO2 SLP153 T02170156",
    "KOAK": "METAR KOAK 141653Z 25007KT 10SM CLR 23/16 A2998 RMK AO2 SLP153 T02280156",
    "KMHR": "METAR KMHR 141655Z AUTO VRB03KT 10SM CLR 31/11 A2995 RMK AO2 T03140107 $",
    "KDFW": "METAR KDFW 141653Z 11009KT 10SM SCT031 SCT065 BKN210 31/21 A3008 RMK AO2 SLP178 T03060211 $",
    "KIAH": "METAR KIAH 141653Z 06010KT 7SM -RA BKN005 BKN070 OVC110 23/23 A3014 RMK AO2 SLP204 P0007 T02330233",
    "KORD": "METAR KORD 141651Z 26004KT 10SM FEW250 32/20 A3017 RMK AO2 SLP210 T03220200",
    "KJFK": "METAR KJFK 141651Z 23017KT 10SM SCT210 BKN320 30/19 A3005 RMK AO2 SLP176 FU BKN320 T03000189",
    "KRFD": "METAR KRFD 141654Z 28007KT 10SM FEW250 31/23 A3020 RMK AO2 SLP219 T03060228",
    "KIND": "METAR KIND 141654Z 09003KT 10SM FEW044 FEW250 31/20 A3019 RMK AO2 SLP216 T03060200 $",
    "KDTW": "METAR KDTW 141653Z 24010KT 8SM BKN250 32/22 A3014 RMK AO2 SLP202 T03170217 $",
    "KMSP": "METAR KMSP 141653Z 28007KT 10SM CLR 31/19 A3017 RMK AO2 SLP208 T03060194",
    "CYEG": "METAR CYEG 141700Z 13014G19KT 20SM FEW050 FEW150 SCT250 22/12 A3022 RMK SC1AC1CI3 SC TR SLP237 DENSITY ALT 3400FT",
    "EHAM": "METAR EHAM 141655Z 03015KT 360V070 CAVOK 27/14 Q1019 NOSIG",
    "EBBR": "METAR EBBR 141650Z 04010KT CAVOK 30/12 Q1018 NOSIG",
    "EDDF": "METAR EDDF 141650Z AUTO 01012KT 9999 -SHRA FEW///TCU 28/14 Q1015 RESHRA TEMPO 01012G22KT SHRA",
    "EDFH": "METAR EDFH 141650Z 11003KT 050V160 9999 -TSRA SCT082CB 22/16 Q1018",
    "EDDL": "METAR EDDL 141650Z AUTO 03012KT 350V060 CAVOK 29/12 Q1017 BECMG 03006KT",
    "EDDK": "METAR EDDK 141650Z AUTO 01010KT 330V040 CAVOK 30/12 Q1017 BECMG 02005KT",
    "EBLG": "METAR EBLG 141650Z 02013KT CAVOK 29/12 Q1018 NOSIG",
    "LSZH": "METAR LSZH 141650Z 13004KT 9999 VCSH FEW064 FEW068TCU 28/16 Q1017 NOSIG",
    "LIMC": "METAR LIMC 141650Z 24005KT 200V270 CAVOK 33/16 Q1013 NOSIG",
    "LIRF": "METAR LIRF 141650Z 19009KT CAVOK 31/20 Q1016 NOSIG",
    "EINN": "METAR EINN 141700Z 09012KT 070V140 CAVOK 29/09 Q1021 NOSIG",
    "EGLL": "METAR EGLL 141650Z AUTO 05011KT 020V080 9999 NCD 29/11 Q1020",
    "EGSS": "METAR EGSS 141650Z AUTO 06014KT 9999 NCD 29/12 Q1021",
    "EPWA": "METAR EPWA 141700Z 34008KT 310V020 CAVOK 26/14 Q1017 NOSIG",
    "UHPP": "METAR UHPP 141700Z 34002MPS 310V020 9999 FEW040CB BKN120 17/15 Q1011 R34L/CLRD62 NOSIG RMK MT OBSC QFE755/1007",
    "EFHK": "METAR EFHK 141650Z 34005KT CAVOK 23/12 Q1019 NOSIG",
    "LBBG": "METAR LBBG 141700Z AUTO 11005KT 9999 NSC 25/17 Q1015 NOSIG",
    "LTAC": "METAR LTAC 141650Z 02011KT 9999 FEW040 SCT080 24/10 Q1014 NOSIG RMK RWY21C 04013KT RWY03L 01007KT RWY21R 02012KT RWY03R 01011KT RWY21L 03011KT",
    "UBBB": "METAR UBBB 141700Z 33008KT CAVOK 26/23 Q1005 NOSIG",
    "UTAA": "METAR UTAA 141700Z 24002KT 9999 SCT100 35/07 Q1005 R88/CLRD70 NOSIG",
    "UACC": "METAR UACC 141700Z 09005MPS 060V180 CAVOK 25/11 Q1005 NOSIG RMK QFE723/0964",
    "UAAA": "METAR UAAA 141700Z 22002MPS 9999 SCT100 BKN200 25/11 Q1009 NOSIG",
    "UZTT": "METAR UZTT 141700Z 04006KT CAVOK 33/05 Q1005 NOSIG",
    "ZWWW": "METAR ZWWW 141700Z VRB01MPS CAVOK 29/09 Q1009 NOSIG",
    "ZLXY": "METAR ZLXY 141700Z 25005MPS 9999 SCT060 25/21 Q1005 NOSIG",
    "ZBAA": "METAR ZBAA 141700Z VRB01MPS CAVOK 25/24 Q0999 NOSIG",
    "ZBHH": "METAR ZBHH 141700Z 07002MPS CAVOK 17/15 Q1010 NOSIG",
    "ZSQD": "METAR ZSQD 141700Z 24002MPS 210V290 CAVOK 24/23 Q1002 NOSIG",
    "ZMCK": "METAR ZMCK 141700Z VRB02MPS CAVOK 12/09 Q1011 NOSIG RMK QFE643.6 87",
    "UUEE": "METAR UUEE 141700Z 31004G11MPS CAVOK 23/17 Q1011 R24L/CLRD62 R24C/CLRD62 NOSIG",
    "UUDD": "METAR UUDD 141700Z 01004MPS 9999 FEW043 24/15 Q1011 R88/CLRD65 NOSIG",
    "ULLI": "METAR ULLI 141700Z 06003MPS 350V090 9999 BKN035 19/11 Q1018 R88/090065 NOSIG",
    "USSS": "METAR USSS 141700Z 08003MPS 9999 SCT019CB 19/19 Q1010 R08R/210060 R08L/210060 NOSIG RMK QFE738/0984",
    "UNNT": "METAR UNNT 141700Z 32001MPS CAVOK 14/11 Q1012 R07/CLRD// R34/CLRD// NOSIG RMK QFE749/0998",
    "UNKL": "METAR UNKL 141700Z 33001MPS CAVOK 16/13 Q1008 R29/CLRD// NOSIG RMK QFE731",
    "UIBB": "METAR UIBB 141700Z 30002MPS 250V330 9999 NSC 18/11 Q1004 R12/CLRD62 NOSIG RMK QFE710/0947",
    "UEEE": "METAR UEEE 141700Z 14002MPS 9999 BKN040CB 22/17 Q0994 R23/09//61 NOSIG RMK QFE737",
    "UHHH": "METAR UHHH 141700Z 15001MPS CAVOK 21/21 Q0997 R23L/090060 NOSIG RMK QFE741/0989",
    "UHSS": "METAR UHSS 141700Z 18002MPS 0300 R19/1500D FG OVC003 20/19 Q1002 RMK QBB100 MT OBSC QFE750/1000"
  },
  "taf": {
    "RJAA": "TAF RJAA 141705Z 1418/1600 18006KT 9999 FEW030",
    "PANC": "TAF PANC 141741Z 1418/1524 02004KT P6SM -RA SCT035 OVC060 WS015/10035KT FM150000 14020G30KT P6SM VCSH OVC050 FM150400 16011KT 6SM -RA SCT025 BKN035 FM150900 18015G25KT P6SM -SHRA SCT015 BKN025",
    "PAFA": "TAF PAFA 141720Z 1418/1524 12004KT P6SM VCSH OVC060 TEMPO 1512/1513 P6SM -RA OVC050 FM151500 VRB03KT P6SM VCSH OVC030",
    "PAED": "TAF AMD PAED 141400Z 1414/1519 33010KT 8000 -RA BKN045 OVC060 620604 530406 QNH2986INS BECMG 1421/1422 36009KT 9999 VCSH BKN060 BKN080 620604 530406 QNH2978INS BECMG 1504/1505 30009KT 9000 -RA SCT025 BKN030 OVC060 620604 530406 QNH2979INS BECMG 1513/1514 24012G22KT 9999 NSW SCT050 BKN090 520208 QNH2986INS TX15/1501Z TN10/1416Z",
    "KSEA": "TAF KSEA 141720Z 1418/1524 34005KT P6SM SKC FM141900 31008KT P6SM SKC FM150700 36004KT P6SM BKN120 FM151500 31003KT P6SM FEW250",
    "ZSPD": "TAF ZSPD 141503Z 1418/1524 18004MPS 8000 SCT030 TX36/1506Z TN28/1421Z TN28/1521Z TEMPO 1505/1509 TSRA BKN008 SCT030CB",
    "ZSSS": "TAF ZSSS 141503Z 1418/1524 18004MPS 8000 SCT030 TX38/1506Z TN28/1421Z TN28/1521Z TEMPO 1506/1509 TSRA BKN011 SCT030CB",
    "RJFR": "TAF RJFR 141705Z 1418/1600 22010KT 9999 FEW020 SCT035 BECMG 1515/1518 27012KT",
    "VHHH": "TAF VHHH 141700Z 1418/1524 16010KT 9999 FEW015 SCT025 TX30/1506Z TN26/1422Z TN27/1522Z TEMPO 1418/1421 20020G30KT 2000 +SHRA FEW010CB SCT020 TEMPO 1421/1503 20020G30KT 1500 TSRA +SHRA FEW008CB SCT015 TEMPO 1503/1506 3000 SHRA FEW010CB SCT020 TEMPO 1503/1509 24010KT",
    "RCTP": "TAF RCTP 141700Z 1418/1524 17005KT 9999 FEW015 BKN032 TEMPO 1502/1508 25010KT FEW012 FEW015CB BKN025 BECMG 1518/1520 20008KT",
    "ZGSZ": "TAF ZGSZ 141505Z 1418/1524 18006MPS 8000 BKN020 TX31/1506Z TN26/1422Z TN26/1522Z TEMPO 1421/1424 SHRA FEW020 FEW025CB BKN030 TEMPO 1500/1503 2000 +SHRA SCT015 FEW020CB BKN030 TEMPO 1504/1508 TSRA FEW020 FEW025CB BKN030",
    "WSSS": "TAF WSSS 141700Z 1418/1600 12004KT 9999 FEW015 SCT020",
    "WMKK": "TAF WMKK 141700Z 1418/1600 11006KT 9000 FEW030",
    "VTBS": "TAF VTBS 141700Z 1418/1524 20008KT 9999 FEW020 TEMPO 1510/1514 VRB15KT 4000 TSRA FEW018CB SCT030 BKN100",
    "VTBU": "TAF VTBU 141700Z 1418/1518 22006KT 9999 FEW020",
    "ROAH": "TAF ROAH 141705Z 1418/1600 20011KT 9999 FEW005 TEMPO 1515/1600 FEW005 BKN008",
    "VVDN": "TAF VVDN 141700Z 1418/1518 21008KT 9999 FEW020 SCT060 BECMG 1504/1505 02010KT TEMPO 1508/1512 TS SCT013 FEW015CB SCT060 BECMG 1513/1514 21008KT",
    "RCKH": "TAF RCKH 141700Z 1418/1524 17008KT 9999 FEW012 BKN032 TEMPO 1418/1424 12005KT 4000 SHRA FEW010 FEW012CB BKN017 TEMPO 1500/1506 4000 SHRA FEW008 FEW010CB BKN017 TEMPO 1506/1512 22013KT 3500 SHRA FEW008 FEW010CB BKN017 BECMG 1512/1514 13005KT",
    "KLAX": "TAF KLAX 141720Z 1418/1524 26010KT P6SM SCT200 FM142200 26012G18KT P6SM SCT250 FM150300 26010KT P6SM SCT250 FM150700 24005KT P6SM SCT250 FM151000 VRB03KT P6SM SCT006 FM151600 24006KT P6SM FEW006 SCT250 FM152000 26012KT P6SM SCT250",
    "KONT": "TAF KONT 141736Z 1418/1524 VRB04KT P6SM FEW180 FM142000 25012G22KT P6SM FEW180 FM150300 25007KT P6SM SKC FM150700 VRB04KT P6SM SKC",
    "KSFO": "TAF KSFO 141741Z 1418/1524 28007KT P6SM SKC FM142100 28015G25KT P6SM SKC FM150400 29014KT P6SM SKC FM150800 26009KT P6SM SKC FM151800 30012KT P6SM SKC FM152100 29015G25KT P6SM SKC",
    "KOAK": "TAF KOAK 141741Z 1418/1524 28007KT P6SM SKC FM142000 29012KT P6SM SKC FM150300 24007KT P6SM SKC FM152100 28013KT P6SM SKC",
    "KMHR": "TAF KMHR 141720Z 1418/1518 VRB05KT P6SM FEW250 FM142100 26008KT P6SM FEW250 FM150300 19008KT P6SM SKC",
    "KDFW": "TAF KDFW 141720Z 1418/1524 10007KT P6SM BKN035 FM141900 12007KT P6SM VCTS SCT045CB TEMPO 1421/1423 4SM -TSRA OVC030CB FM150000 16005KT P6SM SCT100 BKN200 FM151900 17009KT P6SM VCSH BKN035",
    "KIAH": "TAF KIAH 141720Z 1418/1524 05009KT P6SM -RA SCT005 SCT070 OVC120 FM142000 15007KT P6SM SCT030 OVC100 FM150300 VRB03KT P6SM SCT030 BKN070 FM151500 13005KT 6SM SHRA SCT030 BKN060 PROB30 1515/1518 4SM TSRA BKN035CB FM151800 16009KT 6SM SHRA BR SCT030 BKN050 FM152200 18007KT P6SM SCT050",
    "KORD": "TAF KORD 141720Z 1418/1524 27005KT P6SM FEW250 FM142000 09006KT P6SM FEW250 FM142300 27005KT P6SM FEW250 FM152100 09006KT P6SM SCT250",
    "KJFK": "TAF KJFK 141740Z 1418/1524 22017KT P6SM BKN250 FM142000 21020G27KT P6SM SCT250 FM150000 23016KT P6SM SCT250 FM150500 26013KT P6SM FEW250 FM150900 27011KT P6SM SCT250 FM151400 28012KT 6SM HZ BKN250 FM151600 26015G22KT 6SM HZ BKN250 TEMPO 1517/1520 5SM FU",
    "KRFD": "TAF KRFD 141720Z 1418/1518 27005KT P6SM FEW250",
    "KIND": "TAF KIND 141720Z 1418/1524 09006KT P6SM FEW050 FEW250 FM142300 12003KT P6SM FEW250 FM151600 27005KT P6SM FEW050",
    "KDTW": "TAF KDTW 141720Z 1418/1524 26010KT P6SM SCT250 FM150100 27005KT P6SM SCT250 FM151500 29008KT P6SM SCT250 FM152200 32008KT P6SM FEW060 SCT150 SCT250 PROB30 1522/1524 3SM -TSRA BKN060CB",
    "KMSP": "TAF KMSP 141721Z 1418/1524 26008KT P6SM SKC FM150300 VRB04KT P6SM SKC FM151500 29006KT 6SM FU SKC",
    "CYEG": "TAF CYEG 141740Z 1418/1518 10008KT P6SM FEW070 FM142200 13012KT P6SM SCT070 FM150200 12015G25KT P6SM SCT050 PROB40 1502/1508 VRB30G40KT 2SM TSRA OVC050CB FM150800 14010KT P6SM FEW040 BECMG 1508/1510 02006KT FM151200 VRB03KT P6SM BKN150 RMK NXT FCST BY 142100Z",
    "EHAM": "TAF EHAM 141659Z 1418/1524 04015KT CAVOK BECMG 1419/1422 04009KT BECMG 1509/1512 05015KT",
    "EBBR": "TAF EBBR 141700Z 1418/1524 04010KT CAVOK",
    "EDDF": "TAF EDDF 141700Z 1418/1524 03008KT 9999 FEW040 PROB30 TEMPO 1418/1419 36013KT TSRA SCT050CB PROB30 TEMPO 1514/1517 TSRA SCT050CB",
    "EDFH": "TAF EDFH 141700Z 1418/1518 04008KT 9999 FEW040 PROB30 TEMPO 1418/1419 36013KT TSRA SCT050CB PROB30 TEMPO 1506/1509 BKN012 PROB30 TEMPO 1514/1517 TSRA SCT050CB",
    "EDDL": "TAF EDDL 141700Z 1418/1524 04012KT CAVOK BECMG 1419/1422 03005KT BECMG 1507/1510 04011KT BECMG 1518/1521 03005KT",
    "EDDK": "TAF EDDK 141700Z 1418/1524 03009KT CAVOK BECMG 1421/1424 VRB03KT BECMG 1508/1511 04009KT BECMG 1520/1523 VRB03KT",
    "EBLG": "TAF EBLG 141700Z 1418/1524 04010KT CAVOK",
    "LSZH": "TAF LSZH 141725Z 1418/1524 15005KT 9999 FEW060 FEW070TCU TX29/1513Z TN19/1504Z PROB30 TEMPO 1418/1421 32015G25KT TSRA SCT060CB BECMG 1420/1423 CAVOK PROB30 TEMPO 1501/1506 9999 SHRA FEW070TCU PROB40 1509/1513 08005KT BECMG 1510/1512 9999 FEW080TCU PROB40 TEMPO 1512/1518 21015G25KT TSRA SCT060CB PROB30 TEMPO 1513/1517 24020G35KT 4000 TSGR PROB30 TEMPO 1518/1524 19010KT TSRA SCT060CB",
    "LIMC": "TAF LIMC 141700Z 1418/1524 17010KT 9999 FEW060 BECMG 1418/1420 VRB05KT BECMG 1512/1514 17010KT",
    "LIRF": "TAF LIRF 141700Z 1418/1524 19010KT CAVOK BECMG 1419/1421 12007KT BECMG 1509/1511 22010KT",
    "EINN": "TAF EINN 141700Z 1418/1518 08012KT CAVOK BECMG 1419/1421 05007KT BECMG 1510/1512 08010KT BECMG 1516/1518 VRB03KT",
    "EGLL": "TAF EGLL 141653Z 1418/1524 05010KT 9999 FEW040 PROB40 1501/1508 BKN009",
    "EGSS": "TAF EGSS 141700Z 1418/1524 04012KT 9999 FEW025 PROB40 TEMPO 1418/1420 05015G25KT BECMG 1422/1501 BKN008 PROB30 1502/1506 8000 -DZ BKN004 BECMG 1506/1509 FEW020 PROB30 TEMPO 1509/1512 BKN012 PROB30 TEMPO 1521/1524 BKN012",
    "EPWA": "TAF EPWA 141730Z 1418/1518 02010KT CAVOK BECMG 1422/1501 VRB02KT PROB40 1500/1507 BKN005 PROB30 TEMPO 1514/1518 2000 TSRA BKN040CB",
    "UHPP": "TAF UHPP 141649Z 1418/1524 33003G08MPS 9999 BKN025CB TX27/1503Z TN14/1418Z",
    "EFHK": "TAF EFHK 141724Z 1418/1518 34005KT CAVOK",
    "LBBG": "TAF LBBG 141700Z 1418/1518 11008KT 9999 SCT045 BECMG 1419/1420 VRB04KT BECMG 1505/1507 13010KT",
    "LTAC": "TAF LTAC 141640Z 1418/1518 34012KT CAVOK BECMG 1418/1420 VRB02KT BECMG 1504/1507 SCT040 BECMG 1515/1517 CAVOK",
    "UBBB": "TAF UBBB 141658Z 1418/1518 33012KT CAVOK TX32/1510Z TN23/1501Z BECMG 1421/1423 34018G28KT SCT025 TEMPO 1423/1506 35024G34KT SCT010 FEW040 TEMPO 1506/1515 34028G38KT",
    "UTAA": "TAF UTAA 141645Z 1418/1518 24014KT 6000 SCT050 TX42/1509 TEMPO 1418/1424 18010KT BECMG 1502/1504 04016KT TEMPO 1504/1510 09014G24KT 4000 DRDU",
    "UACC": "TAF UACC 141705Z 1418/1518 15005MPS 9999 SCT040 BKN100 TX34/1509Z TN22/1423Z TEMPO 1418/1504 21005MPS -TSRA BKN030CB BECMG 1504/1506 26005MPS SCT040CB TEMPO 1504/1516 31011MPS 3100 -TSRA BKN030CB",
    "UAAA": "TAF UAAA 141701Z 1418/1518 16003MPS 9999 SCT100 TX36/1510Z TN20/1501Z TEMPO 1418/1424 21005MPS BECMG 1503/1504 34003MPS TEMPO 1505/1512 04005G10MPS BECMG 1512/1514 16005MPS",
    "UZTT": "TAF UZTT 141700Z 1418/1518 05010KT CAVOK TX41/1511Z TN26/1500Z TEMPO 1500/1506 34010G20KT",
    "ZWWW": "TAF ZWWW 141510Z 1418/1524 20004G09MPS CAVOK TX35/1509Z TN28/1423Z TN26/1523Z BECMG 1500/1501 34004G11MPS BECMG 1507/1508 9999 FEW040CB BECMG 1514/1515 20004MPS CAVOK",
    "ZLXY": "TAF ZLXY 141507Z 1418/1518 23004MPS 6000 NSC TX34/1508Z TN23/1422Z",
    "ZBAA": "TAF ZBAA 141501Z 1418/1524 19004MPS CAVOK TX36/1506Z TN23/1421Z TN24/1521Z",
    "ZBHH": "TAF ZBHH 141501Z 1418/1518 06004MPS 9999 FEW040 TX31/1508Z TN14/1422Z",
    "ZSQD": "TAF ZSQD 141503Z 1418/1518 16003MPS 3000 BR NSC TX28/1506Z TN22/1420Z BECMG 1420/1421 1400 BECMG 1422/1423 3000 TEMPO 1504/1508 SHRA BKN020 FEW030CB TEMPO 1513/1517 +TSRA BKN020 SCT030CB",
    "ZMCK": "TAF ZMCK 141647Z 1418/1524 VRB02MPS 9999 FEW030CB SCT033 TN07/1421Z TX28/1507Z BECMG 1503/1505 28005MPS PROB30 TEMPO 1508/1516 VRB09G14MPS TSRA SCT027CB SCT030 BECMG 1510/1512 VRB02MPS PROB40 TEMPO 1516/1524 VRB08MPS 6000 TSRA SCT027CB BKN030",
    "UUEE": "TAF UUEE 141653Z 1418/1518 33003G08MPS 9999 SCT020 TX25/1512Z TN17/1501Z TEMPO 1421/1506 BKN007 TEMPO 1507/1517 35008G15MPS",
    "UUDD": "TAF UUDD 141656Z 1418/1524 34003MPS 9999 SCT020 TX25/1512Z TN16/1501Z TEMPO 1422/1506 BKN007 TEMPO 1509/1517 36008G14MPS",
    "ULLI": "TAF ULLI 141651Z 1418/1518 31003MPS 6000 BKN017 PROB40 TEMPO 1421/1504 1000 BR BECMG 1506/1508 31005G10MPS",
    "USSS": "TAF USSS 141648Z 1418/1518 08003G08MPS 6000 -SHRA BKN013CB TEMPO 1418/1503 0300 -TSRA FG BKN004 BKN011CB FM150300 15003G14MPS 8000 -SHRA BKN016CB TEMPO 1503/1518 -TSRAGR",
    "UNNT": "TAF UNNT 141700Z 1418/1518 34003G08MPS 8000 SCT040 TX26/1508Z TN12/1421Z TEMPO 1420/1501 0300 FG SCT002",
    "UNKL": "TAF UNKL 141643Z 1418/1518 26002G07MPS 6000 SCT040 TEMPO 1419/1422 0500 FG BECMG 1503/1506 29007G16MPS BECMG 1510/1513 28002G07MPS",
    "UIBB": "TAF UIBB 141700Z 1418/1518 28003G08MPS 9999 -SHRA BKN016CB TEMPO 1418/1503 VRB08MPS BKN006 BKN016CB TEMPO 1503/1512 VRB10MPS -TSRA",
    "UEEE": "TAF UEEE 141700Z 1418/1524 12003G10MPS 9999 SCT030CB OVC100 TX26/1506Z TN18/1418Z TEMPO 1418/1424 2100 -TSRA SCT007 BKN020CB OVC100",
    "UHHH": "TAF UHHH 141657Z 1418/1524 14003MPS 5000 -SHRA FEW005 BKN016CB TX26/1508Z TN21/1420Z TEMPO 1418/1509 1400 SHRA BKN003 BKN016CB BECMG 1422/1424 36005MPS BECMG 1509/1512 20003MPS",
    "UHSS": "TAF UHSS 141645Z 1418/1524 19003MPS 0500 FG BKN002 OVC015 TEMPO 1418/1423 0300 FG BKN001 BECMG 1423/1501 9999 NSW BKN016CB BECMG 1504/1506 6000 -SHRA"
  },
  "atis": {},
  "windtemp_alaska": "\n000\nFBAK31 KWNO 141359\nFD1AK1\nDATA BASED ON 141200Z    \nVALID 141800Z   FOR USE 1400-2100Z. TEMPS NEG ABV 24000\n\nFT  3000    6000    9000   12000   18000   24000  30000  34000  39000\nADK 2411 2622+02 2737+02 2742-02 2747-12 2752-23 275539 275949 275760\nADQ 2128 2136+08 2136+02 2138-02 2155-14 2166-25 207041 208249 217954\nAKN 2030 1825+06 1826+00 1827-05 2036-17 2050-28 205644 205449 215145\nANC 1328 1734+04 2130+01 2236-03 2251-15 2263-26 228341 228851 227755\nANN 3608 3410+07 3209+02 3206-02 3310-15 3626-28 366142 367351 353550\nBET 1811 1720+04 1724-02 1720-07 1714-18 1808-30 201944 192650 212943\nBRW 2010 1912+01 1814-05 1614-10 1312-23 1309-35 150848 151245 161241\nBTI 2623 2620+02 2418-03 2418-09 2119-23 2019-35 191946 202044 211842\nBTT 1411 1516+01 1520-04 1718-10 2227-21 2342-30 234146 233550 223145\nCDB 2732 2734+01 2638-01 2643-05 2648-19 2555-31 267742 267244 254944\nCZF 0317 0110-01 9900-06 9900-09 1919-19 1930-31 183846 183248 211942\nEHM 1714 1619+04 1717-01 1819-06 1820-18 1820-29 172445 192546 223142\nFAI 1820 1927+02 1830-03 1830-07 2231-17 2252-27 237043 238753 244149\nFYU 2006 2112+03 2117-04 2123-09 2436-19 2445-29 256945 258652 243746\nGAL 1311 1912+00 1815-04 1914-08 2131-19 2133-30 213846 213750 222744\nGKN 1630 1841+01 2041-02 2135-03 2232-14 2349-25 235241 247551 256855\nHOM 1530 2024+08 2131+03 2137-03 2054-15 2170-25 207741 218751 217353\nJNU 9900 2905+01 9900+01 9900-02 3316-12 3433-24 345140 345850 335458\nLUR 1810 1410-01 1109-06 1108-13 0310-25 0316-37 030943 990042 140641\nMCG 1510 1816+02 1923-01 2027-06 2127-18 1935-29 194445 195250 213644\nMDO 1632 2028+07 2231+03 2335-02 2331-14 2435-24 234639 235749 247059\nOME 9900 1810-01 1806-05 1709-10 1916-22 2020-32 203446 203248 211743\nORT      1814+05 2019+00 2120-04 2427-14 2440-25 265442 267552 275155\nOTZ 1415 1722-01 1812-06 2010-11 2013-21 2015-33 223647 222447 211542\nSNP 3224 3221-03 3019-07 2822-11 2630-23 2638-35 263644 263642 263240\nTKA 1625 1928+00 2021-03 2029-05 2037-15 2050-27 217242 218652 226651\nUNK 1118 1114+00 1413-04 1711-08 1922-20 2129-31 202645 212750 212543\nYAK 9900 2409+02 2511+01 2512+00 2723-12 2824-24 293439 284549 295559\nIKO 2818 2820+00 2731+00 2638-04 2761-13 2773-25 278140 278949 268158\nAFM 1413 1414-02 1712-06 1814-10 1917-21 2124-33 234847 233848 212042\n5AB 2421 2626+07 2733+04 2740+00 2844-11 2847-23 295139 285549 295459\n5AC 3416 3311+06 3408+02 3510-01 3522-14 3641-25 016241 017549 016657\n5AD 2720 2621+10 2725+07 2824+02 2823-12 2620-22 242239 252448 262558\n5AE 2339 2348+06 2351+03 2352-02 2358-13 2266-26 227242 227749 236550\n5AF 2705 2706+03 2608+00 3009-01 3521-11 3431-23 354839 344749 356459\n5AG 1615 2212+06 2814+04 2818+00 2522-12 2623-23 262739 263349 284359\n",
  "vaac_active": [
    {
      "volcano": "MAYON",
      "volcano_jp": "マヨン",
      "advisory_nr": "2026/744",
      "obs_time": "2026-07-14 16:09Z",
      "issued_time": "2026-07-14 17:31Z",
      "text_url": "https://www.data.jma.go.jp/vaac/data/TextData/2026/20260714_27303000_0744_Text.html",
      "lat": 13.25,
      "lon": 123.683,
      "text": "FVFE01 RJTD 141731\nVA ADVISORY\nDTG: 20260714/1731Z\nVAAC: TOKYO\nVOLCANO: MAYON 273030\nPSN: N1315 E12341\nAREA: PHILIPPINES\nSOURCE ELEV: 2462M AMSL\nADVISORY NR: 2026/744\nINFO SOURCE: HIMAWARI-9 PHIVOLCS\nERUPTION DETAILS: ERUPTION AT 20260714/1609Z FL130 EXTD SSE REPORTED\nOBS VA DTG: 14/1710Z\nOBS VA CLD: VA NOT IDENTIFIABLE FM SATELLITE DATA WIND FL130 040/5KT\nFCST VA CLD +6 HR: NOT AVBL\nFCST VA CLD +12 HR: NOT AVBL\nFCST VA CLD +18 HR: NOT AVBL\nRMK: WE WILL ISSUE FURTHER ADVISORY IF VA IS DETECTED IN SATELLITE \nIMAGERY.\nNXT ADVISORY: NO FURTHER ADVISORIES="
    },
    {
      "volcano": "SHEVELUCH",
      "volcano_jp": "シベルチ",
      "advisory_nr": "2026/197",
      "obs_time": "2026-07-14 17:16Z",
      "issued_time": "2026-07-14 17:16Z",
      "text_url": "https://www.data.jma.go.jp/vaac/data/TextData/2026/20260714_30027000_0197_AN_Text.html",
      "lat": 56.65,
      "lon": 161.367,
      "text": "FVFE01 RJTD 141735\nVAAAK1\nVA ADVISORY\n\nDTG: 20260714/1716Z\n\nVAAC: ANCHORAGE\n\nVOLCANO: SHEVELUCH 300270\n\nPSN: N5639 E16122\n\nAREA: KAMCHATKA PENINSULA\n\nSOURCE ELEV: 10771 FT AMSL\n\nADVISORY NR: 2026/197\n\nINFO SOURCE: HIMAWARI\n\nERUPTION DETAILS: VA CONTINIOUSLY OBS IN SATELLITE IMAGERY\n\nOBS VA DTG: 14/1716Z\n\nOBS VA CLD: SFC/FL300 N5250 E17045 - N5217 E17219 - N5122 E16957\n- N5217 E16818 - N5250 E17045 MOV SE 30KT\n\nFCST VA CLD +6HR: 14/2316Z SFC/FL300 N5233 E17702 - N5103 E17842\n- N5013 E17327 - N5203 E17135 - N5233 E17702\n\nFCST VA CLD +12HR: 15/0516Z SFC/FL300 N5225 W17753 - N5056\nW17437 - N4917 E17803 - N5047 E17535 - N5225 W17753\n\nFCST VA CLD +18HR: 15/1116Z SFC/FL300 N5249 W17146 - N5153\nW16808 - N4942 W17642 - N5036 W17849 - N5249 W17146 - N5249 W17146\n\nRMK: VAAC TOKYO HAS TRANSFERRED RESPONSIBILITY OF THIS EVENT\nTO VAAC ANCHORAGE. THIS ADVISORY UPDATES MESSAGE FVFE01 RJTD....DK\n\nNXT ADVISORY: WILL BE ISSUED BY 20260714/2316Z="
    },
    {
      "volcano": "MAYON",
      "volcano_jp": "マヨン",
      "advisory_nr": "2026/743",
      "obs_time": "2026-07-14 14:27Z",
      "issued_time": "2026-07-14 15:53Z",
      "text_url": "https://www.data.jma.go.jp/vaac/data/TextData/2026/20260714_27303000_0743_Text.html",
      "lat": 13.25,
      "lon": 123.683,
      "text": "FVFE01 RJTD 141553\nVA ADVISORY\nDTG: 20260714/1553Z\nVAAC: TOKYO\nVOLCANO: MAYON 273030\nPSN: N1315 E12341\nAREA: PHILIPPINES\nSOURCE ELEV: 2462M AMSL\nADVISORY NR: 2026/743\nINFO SOURCE: HIMAWARI-9 PHIVOLCS\nERUPTION DETAILS: ERUPTION AT 20260714/1427Z FL120 EXTD SSE REPORTED\nOBS VA DTG: 14/1540Z\nOBS VA CLD: VA NOT IDENTIFIABLE FM SATELLITE DATA WIND FL120 040/4KT\nFCST VA CLD +6 HR: NOT AVBL\nFCST VA CLD +12 HR: NOT AVBL\nFCST VA CLD +18 HR: NOT AVBL\nRMK: WE WILL ISSUE FURTHER ADVISORY IF VA IS DETECTED IN SATELLITE \nIMAGERY.\nNXT ADVISORY: NO FURTHER ADVISORIES="
    },
    {
      "volcano": "MAYON",
      "volcano_jp": "マヨン",
      "advisory_nr": "2026/742",
      "obs_time": "2026-07-14 14:27Z",
      "issued_time": "2026-07-14 14:43Z",
      "text_url": "https://www.data.jma.go.jp/vaac/data/TextData/2026/20260714_27303000_0742_Text.html",
      "lat": 13.25,
      "lon": 123.683,
      "text": "FVFE01 RJTD 141443\nVA ADVISORY\nDTG: 20260714/1443Z\nVAAC: TOKYO\nVOLCANO: MAYON 273030\nPSN: N1315 E12341\nAREA: PHILIPPINES\nSOURCE ELEV: 2462M AMSL\nADVISORY NR: 2026/742\nINFO SOURCE: HIMAWARI-9 PHIVOLCS\nERUPTION DETAILS: ERUPTION AT 20260714/1427Z VA CLD UNKNOWN REPORTED\nOBS VA DTG: 14/1430Z\nOBS VA CLD: VA NOT IDENTIFIABLE FM SATELLITE DATA WIND FL180 040/6KT\nFCST VA CLD +6 HR: NOT AVBL\nFCST VA CLD +12 HR: NOT AVBL\nFCST VA CLD +18 HR: NOT AVBL\nRMK: WE WILL ISSUE FURTHER ADVISORY IF VA IS DETECTED IN SATELLITE \nIMAGERY.\nNXT ADVISORY: NO FURTHER ADVISORIES="
    },
    {
      "volcano": "SHEVELUCH",
      "volcano_jp": "シベルチ",
      "advisory_nr": "2026/263",
      "obs_time": "2026-07-14 11:20Z",
      "issued_time": "2026-07-14 12:00Z",
      "text_url": "https://www.data.jma.go.jp/vaac/data/TextData/2026/20260714_30027000_0263_Text.html",
      "lat": 56.65,
      "lon": 161.367,
      "text": "FVFE01 RJTD 141200\nVA ADVISORY\nDTG: 20260714/1200Z\nVAAC: TOKYO\nVOLCANO: SHEVELUCH 300270\nPSN: N5639 E16122\nAREA: RUSSIA\nSOURCE ELEV: 3283M AMSL\nADVISORY NR: 2026/263\nINFO SOURCE: HIMAWARI-9\nERUPTION DETAILS: VA CONTINUOUSLY OBS IN SATELLITE IMAGERY\nOBS VA DTG: 14/1120Z\nOBS VA CLD: SFC/FL390 N5359 E16539 - N5422 E16550 - N5414 E16656 - \nN5349 E16654 MOV SE 40KT\nFCST VA CLD +6 HR: 14/1720Z SFC/FL400 N5233 E17412 - N5141 E17210 - \nN5144 E17002 - N5224 E17116\nFCST VA CLD +12 HR: 14/2320Z SFC/FL400 N5147 W17910 - N5115 W17906 - \nN5025 E17725 - N5008 E17317 - N5113 E17652\nFCST VA CLD +18 HR: 15/0520Z SFC/FL400 N5217 W17056 - N5119 W17200 - \nN4942 W17651 - N4907 E17606 - N5056 W17716\nRMK: THE RESPONSIBILITY FOR THIS ASH EVENT IS BEING TRANSFERRED TO \nVAAC ANCHORAGE. THE NEXT ADVISORY WILL BE ISSUED BY VAAC ANCHORAGE \nBY 1800UTC UNDER HEADER FVAK21 PAWU. SOME PART OF VA OBSCURED BY MET \nCLOUD.\nNXT ADVISORY: NO FURTHER ADVISORIES="
    }
  ],
  "vaac_tokyo": [
    {
      "id": "20260714_27303000_0744",
      "year": "2026",
      "volcano": "Mayon",
      "psn": "N1315 E12341",
      "issued": "20260714",
      "text": "FVFE01 RJTD 141731\nVA ADVISORY\nDTG: 20260714/1731Z\nVAAC: TOKYO\nVOLCANO: MAYON 273030\nPSN: N1315 E12341\nAREA: PHILIPPINES\nSOURCE ELEV: 2462M AMSL\nADVISORY NR: 2026/744\nINFO SOURCE: HIMAWARI-9 PHIVOLCS\nERUPTION DETAILS: ERUPTION AT 20260714/1609Z FL130 EXTD SSE REPORTED\nOBS VA DTG: 14/1710Z\nOBS VA CLD: VA NOT IDENTIFIABLE FM SATELLITE DATA WIND FL130 040/5KT\nFCST VA CLD +6 HR: NOT AVBL\nFCST VA CLD +12 HR: NOT AVBL\nFCST VA CLD +18 HR: NOT AVBL\nRMK: WE WILL ISSUE FURTHER ADVISORY IF VA IS DETECTED IN SATELLITE \nIMAGERY.\nNXT ADVISORY: NO FURTHER ADVISORIES=",
      "img_url": "https://ds.data.jma.go.jp/svd/vaac/data/VAGFN/2026/Images/20260714_27303000_0744_QH21_01.png",
      "sat_img_url": null,
      "text_url": "https://ds.data.jma.go.jp/svd/vaac/data/TextData/2026/20260714_27303000_0744_Text.html"
    },
    {
      "id": "20260714_30027000_0263",
      "year": "2026",
      "volcano": "Sheveluch",
      "psn": "N5639 E16122",
      "issued": "20260714",
      "text": "FVFE01 RJTD 141200\nVA ADVISORY\nDTG: 20260714/1200Z\nVAAC: TOKYO\nVOLCANO: SHEVELUCH 300270\nPSN: N5639 E16122\nAREA: RUSSIA\nSOURCE ELEV: 3283M AMSL\nADVISORY NR: 2026/263\nINFO SOURCE: HIMAWARI-9\nERUPTION DETAILS: VA CONTINUOUSLY OBS IN SATELLITE IMAGERY\nOBS VA DTG: 14/1120Z\nOBS VA CLD: SFC/FL390 N5359 E16539 - N5422 E16550 - N5414 E16656 - \nN5349 E16654 MOV SE 40KT\nFCST VA CLD +6 HR: 14/1720Z SFC/FL400 N5233 E17412 - N5141 E17210 - \nN5144 E17002 - N5224 E17116\nFCST VA CLD +12 HR: 14/2320Z SFC/FL400 N5147 W17910 - N5115 W17906 - \nN5025 E17725 - N5008 E17317 - N5113 E17652\nFCST VA CLD +18 HR: 15/0520Z SFC/FL400 N5217 W17056 - N5119 W17200 - \nN4942 W17651 - N4907 E17606 - N5056 W17716\nRMK: THE RESPONSIBILITY FOR THIS ASH EVENT IS BEING TRANSFERRED TO \nVAAC ANCHORAGE. THE NEXT ADVISORY WILL BE ISSUED BY VAAC ANCHORAGE \nBY 1800UTC UNDER HEADER FVAK21 PAWU. SOME PART OF VA OBSCURED BY MET \nCLOUD.\nNXT ADVISORY: NO FURTHER ADVISORIES=",
      "img_url": "https://ds.data.jma.go.jp/svd/vaac/data/VAGFN/2026/Images/20260714_30027000_0263_QH21_01.png",
      "sat_img_url": "https://ds.data.jma.go.jp/svd/vaac/data/Sat/2026/Images/30027000/09-ir/20260714_1120_202607141200_ir.png",
      "text_url": "https://ds.data.jma.go.jp/svd/vaac/data/TextData/2026/20260714_30027000_0263_Text.html"
    },
    {
      "id": "20260713_28208001_0083",
      "year": "2026",
      "volcano": null,
      "psn": "N3136 E13039",
      "issued": "20260713",
      "text": "FVFE01 RJTD 130254\nVA ADVISORY\nDTG: 20260713/0254Z\nVAAC: TOKYO\nVOLCANO: SAKURAJIMA (AIRA CALDERA) 282080\nPSN: N3136 E13039\nAREA: JAPAN\nSOURCE ELEV: 1117M AMSL\nADVISORY NR: 2026/83\nINFO SOURCE: JMA HIMAWARI-9\nERUPTION DETAILS: ERUPTED AT 20260713/0152Z FL100 EXTD N\nOBS VA DTG: 13/0230Z\nOBS VA CLD: SFC/FL100 N3136 E13039 - N3142 E13040 - N3141 E13044 - \nN3134 E13042 MOV NE 15KT\nFCST VA CLD +6 HR: 13/0830Z SFC/FL100 N3234 E13121 - N3145 E13155 - \nN3202 E13110 - N3227 E13051\nFCST VA CLD +12 HR: 13/1430Z SFC/FL100 N3318 E13206 - N3142 E13317 - \nN3134 E13226 - N3312 E13118\nFCST VA CLD +18 HR: NO VA EXP\nRMK: NIL\nNXT ADVISORY: 20260713/0600Z=",
      "img_url": "https://ds.data.jma.go.jp/svd/vaac/data/VAGFN/2026/Images/20260713_28208001_0083_QH21_01.png",
      "sat_img_url": "https://ds.data.jma.go.jp/svd/vaac/data/Sat/2026/Images/28208001/09-ir/20260713_0230_202607130254_ir.png",
      "text_url": "https://ds.data.jma.go.jp/svd/vaac/data/TextData/2026/20260713_28208001_0083_Text.html"
    },
    {
      "id": "20260712_27307000_0012",
      "year": "2026",
      "volcano": "Taal",
      "psn": "N1400 E12100",
      "issued": "20260712",
      "text": "FVFE01 RJTD 121243\nVA ADVISORY\nDTG: 20260712/1243Z\nVAAC: TOKYO\nVOLCANO: TAAL 273070\nPSN: N1400 E12100\nAREA: PHILIPPINES\nSOURCE ELEV: 311M AMSL\nADVISORY NR: 2026/12\nINFO SOURCE: HIMAWARI-9 PHIVOLCS\nERUPTION DETAILS: ERUPTION AT 20260712/1227Z FL050 EXTD NE REPORTED\nOBS VA DTG: 12/1230Z\nOBS VA CLD: VA NOT IDENTIFIABLE FM SATELLITE DATA WIND FL050 230/19KT\nFCST VA CLD +6 HR: NOT AVBL\nFCST VA CLD +12 HR: NOT AVBL\nFCST VA CLD +18 HR: NOT AVBL\nRMK: WE WILL ISSUE FURTHER ADVISORY IF VA IS DETECTED IN SATELLITE \nIMAGERY.\nNXT ADVISORY: NO FURTHER ADVISORIES=",
      "img_url": "https://ds.data.jma.go.jp/svd/vaac/data/VAGFN/2026/Images/20260712_27307000_0012_QH21_01.png",
      "sat_img_url": null,
      "text_url": "https://ds.data.jma.go.jp/svd/vaac/data/TextData/2026/20260712_27307000_0012_Text.html"
    }
  ],
  "vaac_alaska": [
    {
      "text": "\n000\nFVAK21 PAWU 141734\nVAAAK1\nVA ADVISORY\n\nDTG: 20260714/1716Z\n\nVAAC: ANCHORAGE\n\nVOLCANO: SHEVELUCH 300270\n\nPSN: N5639 E16122\n\nAREA: KAMCHATKA PENINSULA\n\nSOURCE ELEV: 10771 FT AMSL\n\nADVISORY NR: 2026/197\n\nINFO SOURCE: HIMAWARI\n\nERUPTION DETAILS: VA CONTINIOUSLY OBS IN SATELLITE IMAGERY\n\nOBS VA DTG: 14/1716Z\n\nOBS VA CLD: SFC/FL300 N5250 E17045 - N5217 E17219 - N5122 E16957\n- N5217 E16818 - N5250 E17045 MOV SE 30KT\n\nFCST VA CLD +6HR: 14/2316Z SFC/FL300 N5233 E17702 - N5103 E17842\n- N5013 E17327 - N5203 E17135 - N5233 E17702\n\nFCST VA CLD +12HR: 15/0516Z SFC/FL300 N5225 W17753 - N5056\nW17437 - N4917 E17803 - N5047 E17535 - N5225 W17753\n\nFCST VA CLD +18HR: 15/1116Z SFC/FL300 N5249 W17146 - N5153\nW16808 - N4942 W17642 - N5036 W17849 - N5249 W17146 - N5249 W17146\n\nRMK: VAAC TOKYO HAS TRANSFERRED RESPONSIBILITY OF THIS EVENT\nTO VAAC ANCHORAGE. THIS ADVISORY UPDATES MESSAGE FVFE01 RJTD....DK\n\nNXT ADVISORY: WILL BE ISSUED BY 20260714/2316Z=\n\n",
      "issued": "2026-07-14T17:34:00+00:00",
      "volcano": "Sheveluch",
      "psn": "N5639 E16122"
    }
  ]
}