{
  "updated_utc": "2026-07-22T16:25Z",
  "metar": {
    "RJAA": "METAR RJAA 221430Z AUTO 24003KT 9999 FEW009 SCT100 29/25 Q1006 NOSIG",
    "PANC": "METAR PANC 221453Z 15015G27KT 10SM SCT033 OVC041 11/06 A3005 RMK AO2 PK WND 16029/1356 SLP175 T01060061 51003",
    "PAFA": "METAR PAFA 221453Z 03005KT 10SM -RA BKN065 11/09 A2990 RMK AO2 SLP128 P0001 60002 T01060089 51015",
    "PAED": "SPECI PAED 221447Z 00000KT 10SM -SHRA SCT007 SCT022 BKN0028 BKN037 OVC044 11/09 A3003 RMK AO2A SLP165 $",
    "KSEA": "METAR KSEA 221453Z 04003KT 10SM FEW160 FEW250 23/15 A2995 RMK A02 SLP144 T02330150 53007",
    "ZSPD": "METAR ZSPD 221430Z 15002MPS CAVOK 26/24 Q1007 NOSIG",
    "ZSSS": "METAR ZSSS 221430Z 15002MPS 120V180 CAVOK 27/24 Q1006 NOSIG",
    "RJFR": "METAR RJFR 221500Z AUTO VRB01KT 9999 SCT047 29/25 Q1009",
    "VHHH": "METAR VHHH 221430Z 16006KT 120V230 9999 FEW012 29/25 Q1008 NOSIG",
    "RCTP": "METAR RCTP 221430Z 12005KT 9999 FEW020 29/25 Q1009 NOSIG RMK A2981",
    "ZGSZ": "METAR ZGSZ 221500Z 16005MPS CAVOK 29/26 Q1008 NOSIG",
    "WSSS": "METAR WSSS 221430Z 17004KT 9999 FEW018 BKN300 26/24 Q1012 NOSIG",
    "WMKK": "METAR WMKK 221430Z VRB01KT 9000 FEW030 27/25 Q1011 NOSIG",
    "WIDD": "METAR WIDD 221430Z 20003KT 9000 FEW014 26/25 Q1012 NOSIG",
    "VTBS": "METAR VTBS 221430Z VRB02KT 9999 -RA FEW020 SCT040 27/24 Q1009 NOSIG",
    "VTBU": "METAR VTBU 221430Z 23004KT 200V260 9000 FEW020 SCT100 29/28 Q1009 NOSIG",
    "ROAH": "METAR ROAH 221430Z AUTO 12004KT 9999 NCD 29/26 Q1010",
    "VVDN": "METAR VVDN 221430Z 19006KT 9999 FEW020CB SCT060 30/22 Q1008 TEMPO TL1530 4000 SHRA",
    "RCKH": "METAR RCKH 221430Z VRB02KT 9999 FEW016 SCT120 29/25 Q1009 NOSIG RMK A2981",
    "KLAX": "METAR KLAX 221453Z 26003KT 8SM FEW004 OVC006 21/19 A3001 RMK AO2 SLP159 T02060194 51014",
    "KONT": "METAR KONT 221453Z 24004KT 10SM CLR 23/16 A3002 RMK AO2 SLP149 T02330156 51013 $",
    "KSFO": "METAR KSFO 221456Z 18011KT 10SM FEW006 BKN017 19/15 A3005 RMK AO2 SLP176 T01940150 51023",
    "KOAK": "METAR KOAK 221453Z 21014KT 10SM FEW005 SCT020 19/16 A3005 RMK AO2 SLP174 T01940156 53021",
    "KMHR": "METAR KMHR 221435Z AUTO 22010KT 10SM CLR 21/15 A3001 RMK AO2 T02140154 $",
    "KDFW": "METAR KDFW 221453Z 02005KT 10SM CLR 35/22 A2992 RMK AO2 SLP119 T03500217 51007 $",
    "KIAH": "METAR KIAH 221453Z 27006KT 10SM FEW250 32/23 A2989 RMK AO2 SLP118 T03170228 50003",
    "KORD": "METAR KORD 221451Z 01008KT 10SM FEW038 BKN050 20/09 A3007 RMK AO2 SLP178 T02000094 51014 $",
    "KJFK": "METAR KJFK 221451Z 26011KT 10SM FEW028 27/19 A2973 RMK AO2 SLP067 T02720194 50004 $",
    "KRFD": "METAR KRFD 221454Z 01008KT 10SM FEW040 19/08 A3011 RMK AO2 SLP193 T01940083 51008 $",
    "KIND": "METAR KIND 221454Z 36011KT 10SM FEW060 FEW070 SCT250 21/09 A3004 RMK AO2 SLP167 T02060094 51014",
    "KDTW": "METAR KDTW 221453Z 33009KT 10SM SCT030 BKN180 19/10 A2999 RMK AO2 SLP152 T01890100 51015",
    "KMSP": "METAR KMSP 221453Z VRB05KT 10SM SCT044 OVC060 19/09 A3017 RMK AO2 SLP214 T01890094 51010",
    "CYEG": "SPECI CYEG 221426Z 17004KT 8SM FEW100 18/17 A3002 RMK ACC2 FU SLP165 DENSITY ALT 3200FT",
    "EHAM": "METAR EHAM 221455Z 33011KT 300V010 9999 FEW018 SCT023 BKN045 18/13 Q1023 NOSIG",
    "EBBR": "METAR EBBR 221450Z 32011KT 300V360 9999 SCT040 20/12 Q1024 NOSIG",
    "EDDF": "METAR EDDF 221450Z AUTO 33010KT 290V010 9999 SCT049 23/09 Q1021 NOSIG",
    "EDFH": "METAR EDFH 221450Z 33012KT 290V350 9999 SCT038 18/09 Q1023",
    "EDDL": "METAR EDDL 221450Z AUTO 28014KT 250V310 9999 SCT032 BKN042 20/13 Q1022 NOSIG",
    "EDDK": "METAR EDDK 221450Z AUTO 32011KT 290V350 9999 -RADZ FEW028 BKN037 BKN045 18/13 Q1022 NOSIG",
    "EBLG": "METAR EBLG 221450Z 32010KT 260V350 9999 FEW036 20/11 Q1023 NOSIG",
    "LSZH": "METAR LSZH 221450Z 20005KT 140V230 9999 FEW070 27/06 Q1020 NOSIG",
    "LIMC": "METAR LIMC 221450Z VRB06KT 9999 SCT055 29/13 Q1016 NOSIG",
    "LIRF": "METAR LIRF 221450Z 28013KT CAVOK 31/21 Q1013 NOSIG",
    "EINN": "METAR EINN 221430Z 02012KT 9999 BKN037 22/12 Q1029 NOSIG",
    "EGLL": "METAR EGLL 221450Z AUTO 27005KT 210V320 9999 NCD 25/12 Q1024",
    "EGSS": "METAR EGSS 221450Z AUTO 36004KT 240V060 9999 SCT045 24/12 Q1025",
    "EPWA": "METAR EPWA 221430Z 31007KT CAVOK 21/10 Q1014 NOSIG",
    "UHPP": "METAR UHPP 221500Z 06002MPS 9999 BKN026 11/10 Q1010 R16R/290248 NOSIG RMK QFE755/1006",
    "EFHK": "METAR EFHK 221450Z 36011KT 330V030 9999 FEW045 19/07 Q1006 TEMPO TL1700 12005KT",
    "LBBG": "METAR LBBG 221430Z 14004KT 060V190 9999 FEW009 SCT019 BKN036 23/20 Q1010 NOSIG",
    "LTAC": "METAR LTAC 221450Z 28007KT 210V310 CAVOK 31/05 Q1011 NOSIG RMK RWY21C 24010KT 200V270 RWY03L 24007KT 210V270 RWY21R 22011KT 170V250 RWY03R 22006KT 180V270 RWY21L 24010KT",
    "UBBB": "METAR UBBB 221430Z 16008KT 130V190 CAVOK 30/14 Q1009 NOSIG",
    "UTAA": "METAR UTAA 221500Z 30010KT 9999 FEW050 SCT100 34/13 Q1007 R88/CLRD70 NOSIG",
    "UACC": "METAR UACC 221430Z 33004MPS 9000 -SHRA BKN046CB 17/15 Q1002 NOSIG RMK QFE721/0961",
    "UAAA": "METAR UAAA 221430Z 07003MPS 9999 SCT050CB BKN100 24/18 Q1006 NOSIG",
    "UZTT": "METAR UZTT 221430Z 03008KT CAVOK 30/11 Q1007 NOSIG",
    "ZWWW": "METAR ZWWW 221430Z 34003MPS CAVOK 26/15 Q1008 NOSIG",
    "ZLXY": "METAR ZLXY 221500Z VRB01MPS CAVOK 30/14 Q1003 NOSIG",
    "ZBAA": "METAR ZBAA 221430Z 09001MPS CAVOK 23/21 Q1004 NOSIG",
    "ZBHH": "METAR ZBHH 221500Z 23002MPS 200V260 9999 -SHRA SCT040 19/15 Q1008 NOSIG",
    "ZSQD": "METAR ZSQD 221500Z 13002MPS 9999 SCT010 25/25 Q1004 NOSIG",
    "ZMCK": "METAR ZMCK 221430Z 16003MPS CAVOK 19/11 Q1009 NOSIG RMK QFE642.1 57",
    "UUEE": "METAR UUEE 221430Z 23005MPS 9999 FEW056TCU 23/13 Q1006 R24L/CLRD62 R24C/CLRD62 NOSIG",
    "UUDD": "METAR UUDD 221430Z 17005MPS 9999 FEW040 23/12 Q1007 R13R/CLRD65 NOSIG",
    "ULLI": "METAR ULLI 221430Z 31006MPS 9999 SCT023CB OVC040 16/11 Q1005 R88/090065 NOSIG",
    "USSS": "METAR USSS 221430Z 35004MPS 9999 FEW046 28/16 Q1010 R26L/CLRD60 R26R/CLRD60 NOSIG RMK QFE737/0982",
    "UNNT": "METAR UNNT 221430Z 05002MPS 350V080 9000 BKN046CB 18/18 Q0999 R25/290160 R16/CLRD// NOSIG RMK QFE740/0986",
    "UNKL": "METAR UNKL 221430Z 26002MPS CAVOK 19/17 Q0998 R29/CLRD// NOSIG RMK QFE723",
    "UIBB": "METAR UIBB 221430Z 09003MPS 9999 NSC 20/14 Q1000 R12/CLRD62 NOSIG RMK QFE708/0944",
    "UEEE": "METAR UEEE 221430Z 02001MPS 9999 SCT050CB 21/16 Q1003 R23/09//60 NOSIG RMK QFE744",
    "UHHH": "METAR UHHH 221430Z 36002MPS CAVOK 22/21 Q1007 R05R/090060 NOSIG RMK QFE749/0999",
    "UHSS": "METAR UHSS 221500Z 01004MPS 9999 BKN006 17/17 Q1009 RMK MT OBSC QFE755/1007"
  },
  "taf": {
    "RJAA": "TAF AMD RJAA 221255Z 2212/2318 12004KT 9999 FEW030 BECMG 2309/2312 04008KT TEMPO 2309/2315 4000 -SHRA BR FEW005 BKN008 TEMPO 2315/2318 2000 -SHRA BR FEW002 BKN005",
    "PANC": "TAF PANC 221125Z 2212/2318 15018G28KT P6SM -RA SCT025 OVC045 FM221400 15014G24KT P6SM SCT020 OVC035 FM221800 16012G22KT P6SM SCT045 BKN080 FM230000 15010G20KT P6SM -RA SCT025 OVC040 FM230300 16015G25KT 5SM -RA SCT015 OVC025 FM230800 16025G40KT 5SM -RA SCT015 OVC030",
    "PAFA": "TAF PAFA 221350Z 2214/2318 22005KT P6SM -RA SCT040 OVC060 FM221600 18006KT P6SM SCT040 BKN060 FM230000 18010KT P6SM VCSH SCT040 BKN060 FM230500 15006KT P6SM -RA SCT030 OVC050 FM231200 15006KT 5SM -RA BR SCT015 OVC030",
    "PAED": "TAF PAED 220500Z 2205/2311 33009KT 9000 -SHRA FEW022 SCT037 OVC060 640703 520106 QNH2996INS BECMG 2210/2211 33009KT 9999 NSW FEW020 OVC040 620604 QNH2996INS BECMG 2302/2303 32007KT 9000 -RA FEW009 BKN055 OVC070 640901 QNH2978INS TX13/2301Z TN09/2212Z",
    "KSEA": "TAF KSEA 221509Z 2215/2318 04007KT P6SM SKC FM221700 33006KT P6SM SKC FM222100 33009KT P6SM SCT250 FM230600 23007KT P6SM SCT120 BKN250 FM231200 21009KT P6SM OVC015",
    "ZSPD": "TAF ZSPD 221505Z 2218/2324 16004MPS 6000 SCT030 TX35/2306Z TN27/2221Z TN28/2321Z TEMPO 2307/2312 23010G15MPS TSRA BKN011 SCT030CB",
    "ZSSS": "TAF ZSSS 221505Z 2218/2324 16004MPS 8000 SCT030 TX36/2306Z TN27/2221Z TN28/2321Z TEMPO 2307/2312 27009G15MPS +TSRA BKN013 SCT030CB",
    "RJFR": "TAF RJFR 221105Z 2212/2318 28004KT CAVOK BECMG 2303/2306 34012KT BECMG 2312/2315 28006KT",
    "VHHH": "TAF VHHH 221400Z 2215/2321 16010KT 9999 FEW010 SCT025 TX34/2306Z TN28/2222Z TEMPO 2215/2224 VRB05KT BECMG 2304/2306 22010KT BECMG 2310/2312 16010KT TEMPO 2315/2321 VRB05KT",
    "RCTP": "TAF RCTP 221100Z 2212/2318 21005KT 9999 FEW015 TEMPO 2218/2223 15005KT SCT010 BKN017 BECMG 2223/2301 25005KT TEMPO 2302/2308 27010KT TEMPO 2306/2310 FEW010 FEW015TCU BKN020 BECMG 2308/2310 08007KT",
    "ZGSZ": "TAF ZGSZ 221501Z 2218/2324 18004MPS 8000 SCT040 TX33/2306Z TN28/2222Z TN28/2322Z",
    "WSSS": "TAF WSSS 221100Z 2212/2318 19008KT 9999 FEW015 SCT020",
    "WMKK": "TAF WMKK 221100Z 2212/2318 VRB03KT 9000 FEW018 PROB30 TEMPO 2220/2300 5000 TSRA FEW010 FEW017CB",
    "VTBS": "TAF VTBS 221100Z 2212/2318 22008KT 9999 FEW020 TEMPO 2212/2215 VRB15G25KT 4000 TSRA FEW018CB SCT030 BKN100 TEMPO 2309/2313 VRB15G25KT 4000 TSRA FEW018CB SCT030 BKN100",
    "VTBU": "TAF VTBU 221100Z 2212/2312 23008KT 9999 FEW020",
    "ROAH": "TAF ROAH 221105Z 2212/2318 14005KT 9999 FEW012 SCT020 BECMG 2214/2216 04004KT TEMPO 2303/2309 4000 SHRA BR FEW008 BKN015 FEW020CB BECMG 2309/2312 11006KT",
    "VVDN": "TAF AMD VVDN 221400Z 2214/2312 20006KT 9999 SCT017 SCT050 TEMPO 2214/2218 4000 SHRA BKN013 FEW015CB BKN050 BECMG 2304/2305 01010KT TEMPO 2308/2312 23015G25KT 3500 TSRA BKN013 FEW015CB BKN050",
    "RCKH": "TAF RCKH 221100Z 2212/2318 24005KT 9999 FEW015 BKN032 BECMG 2214/2216 07005KT TEMPO 2220/2302 6000 -RA FEW010 BKN022 BECMG 2300/2302 30005KT TEMPO 2303/2309 29010KT BECMG 2316/2318 35005KT",
    "KLAX": "TAF KLAX 221459Z 2215/2318 26005KT P6SM OVC006 FM221800 26008KT P6SM SCT006 FM222000 26015KT P6SM SCT250 FM222300 26015G22KT P6SM SCT250 FM230300 26010KT P6SM SCT250 FM230600 26008KT P6SM BKN008",
    "KONT": "TAF KONT 221120Z 2212/2318 VRB05KT P6SM SKC FM222100 25011G19KT P6SM FEW200 FM230600 VRB05KT P6SM SKC",
    "KSFO": "TAF KSFO 221507Z 2215/2318 19015G23KT P6SM FEW006 BKN017 FM222300 25015KT P6SM SKC FM230600 27010KT P6SM BKN015",
    "KOAK": "TAF KOAK 221120Z 2212/2318 26009KT P6SM FEW008 FM221300 25015KT P6SM BKN015 FM221800 28015KT P6SM SKC FM230500 28010KT P6SM BKN015",
    "KMHR": "TAF KMHR 221120Z 2212/2312 16007KT P6SM FEW250 FM221800 22009G15KT P6SM SKC FM222100 23012G21KT P6SM SKC FM230300 22010KT P6SM SKC FM230600 17005KT P6SM SKC",
    "KDFW": "TAF KDFW 221455Z 2215/2318 04010KT P6SM FEW250 FM230000 07008KT P6SM SCT070 SCT250",
    "KIAH": "TAF KIAH 221502Z 2215/2318 29006KT P6SM FEW070 SCT250 FM221800 34006KT P6SM FEW070 SCT250 PROB30 2221/2301 4SM TSRA BKN050CB FM230600 VRB05KT P6SM SKC",
    "KORD": "TAF KORD 221457Z 2215/2318 03011KT P6SM FEW035 SCT050 FM230200 VRB04KT P6SM FEW060",
    "KJFK": "TAF KJFK 221436Z 2215/2318 25014G20KT P6SM SCT030 SCT060 PROB30 2218/2221 5SM -SHRA FM222200 28011G17KT P6SM SCT070 FM230000 34009KT P6SM FEW090 FM230600 36009KT P6SM SKC",
    "KRFD": "TAF KRFD 221457Z 2215/2312 36011KT P6SM FEW070 FM230200 VRB04KT P6SM SCT060",
    "KIND": "TAF KIND 221120Z 2212/2318 01011KT P6SM SCT050 FM230100 36007KT P6SM FEW050 FM231300 05006KT P6SM FEW050",
    "KDTW": "TAF KDTW 221450Z 2215/2318 33012G22KT P6SM SCT045 FM221900 31012KT P6SM BKN060 FM230100 30007KT P6SM SCT060 FM230600 34004KT P6SM SKC",
    "KMSP": "TAF KMSP 221524Z 2215/2318 02005KT P6SM BKN060 FM221800 35007KT P6SM FEW060 FM230600 18003KT P6SM SKC",
    "CYEG": "TAF CYEG 221440Z 2215/2312 VRB03KT 5SM FU FEW020 FEW080 TEMPO 2215/2222 P6SM NSW FM222200 21005KT P6SM SCT030 TEMPO 2222/2303 5SM FU FM230300 16005KT P6SM SKC PROB30 2310/2312 1SM BR RMK NXT FCST BY 221800Z",
    "EHAM": "TAF EHAM 221103Z 2212/2318 32015KT 9999 FEW017 BKN030 BECMG 2217/2220 33008KT BECMG 2309/2312 33014KT BECMG 2315/2318 32007KT",
    "EBBR": "TAF EBBR 221105Z 2212/2318 33010KT 9999 SCT025 BKN045 PROB30 TEMPO 2303/2306 4500 -SHRA BKN012",
    "EDDF": "TAF EDDF 221100Z 2212/2318 31010KT 9999 FEW045 TEMPO 2212/2218 32010G20KT BECMG 2222/2224 31005KT TEMPO 2306/2310 BKN045 BECMG 2308/2310 31010KT TEMPO 2312/2318 32010G20KT",
    "EDFH": "TAF EDFH 221100Z 2212/2312 32007KT 9999 FEW045",
    "EDDL": "TAF EDDL 221100Z 2212/2318 30008KT 9999 BKN040 BECMG 2212/2214 30013KT BECMG 2218/2221 30004KT PROB30 TEMPO 2305/2308 BKN010 BECMG 2308/2311 31009KT",
    "EDDK": "TAF EDDK 221100Z 2212/2318 31012KT 9999 BKN030 BECMG 2218/2221 32005KT PROB30 TEMPO 2304/2308 BKN010 BECMG 2309/2312 32010KT",
    "EBLG": "TAF EBLG 221105Z 2212/2318 32010KT 9999 SCT020 BKN045 PROB30 TEMPO 2304/2309 4500 -SHRA BKN012",
    "LSZH": "TAF LSZH 221425Z 2215/2321 VRB02KT CAVOK TX27/2215Z TN13/2304Z TX27/2315Z PROB40 TEMPO 2215/2218 30008KT 9999 FEW060 PROB40 2304/2309 03005KT TEMPO 2308/2317 9999 FEW050 PROB40 TEMPO 2315/2320 31008KT",
    "LIMC": "TAF LIMC 221100Z 2212/2318 VRB05KT 9999 FEW050",
    "LIRF": "TAF LIRF 221100Z 2212/2318 29015KT 9999 FEW030 BECMG 2213/2215 32015KT BECMG 2222/2224 04008KT BECMG 2310/2312 25010KT",
    "EINN": "TAF AMD EINN 221531Z 2215/2312 03012KT 9999 FEW028 SCT035 BECMG 2218/2220 36008KT PROB30 2303/2308 0500 FG BKN001",
    "EGLL": "TAF EGLL 221053Z 2212/2318 04005KT 9999 FEW045 BECMG 2218/2221 11010KT BECMG 2303/2306 22005KT",
    "EGSS": "TAF EGSS 221051Z 2212/2318 04007KT 9999 FEW045 PROB40 2302/2307 6000",
    "EPWA": "TAF EPWA 221430Z 2215/2315 29005KT CAVOK TEMPO 2303/2315 27020G30KT 2500 TSRA BKN010 BKN025CB",
    "UHPP": "TAF UHPP 221345Z 2215/2321 15003G10MPS 9999 SCT012 BKN030CB TEMPO 2215/2221 0500 DZ FG VV002",
    "EFHK": "TAF EFHK 221432Z 2215/2315 02010KT CAVOK TEMPO 2215/2216 12008KT BECMG 2216/2217 32010KT TEMPO 2303/2306 7000 SHRA BKN007 SCT020CB TEMPO 2307/2315 SCT025CB PROB40 2310/2315 SHRA",
    "LBBG": "TAF LBBG 221100Z 2212/2312 34012KT 9999 SCT015 SCT045 TEMPO 2212/2217 VRB20G35KT 3000 TSRA SCT010 SCT025CB BKN030 TEMPO 2222/2306 BKN010 OVC020",
    "LTAC": "TAF LTAC 221040Z 2212/2312 VRB02KT 9999 FEW040 BECMG 2212/2215 CAVOK BECMG 2300/2303 SCT040 SCT100 BECMG 2304/2307 27012KT PROB30 TEMPO 2307/2311 33015G25KT -SHRA FEW025CB BKN030",
    "UBBB": "TAF UBBB 221050Z 2212/2312 17012KT CAVOK TX32/2212Z TN22/2301Z TEMPO 2212/2218 14006KT SCT020 BECMG 2218/2220 VRB04KT TEMPO 2220/2304 30005KT FEW010 BECMG 2304/2306 17008KT",
    "UTAA": "TAF UTAA 221055Z 2211/2312 28016KT 6000 SCT030 SCT050CB TEMPO 2211/2214 22018G28KT 3000 BLDU TEMPO 2214/2218 18014G24KT 4000 DRDU",
    "UACC": "TAF UACC 221100Z 2212/2312 36005MPS 9999 SCT020CB BKN050 TX22/2310Z TN15/2223Z TEMPO 2212/2218 32005MPS -TSRA SCT011 BKN015CB BECMG 2218/2220 36003MPS SCT030 BKN100 TEMPO 2218/2304 02005MPS -SHRA SCT011 BKN020CB BECMG 2304/2306 02006MPS SCT030CB TEMPO 2304/2312 VRB15MPS -TSRA SQ BKN020CB",
    "UAAA": "TAF UAAA 221104Z 2212/2312 22003MPS 9999 SCT050CB BKN100 TX31/2309Z TN18/2300Z TEMPO 2212/2218 16005G12MPS TS TEMPO 2223/2305 28005G10MPS 5000 -TSRA BECMG 2305/2307 34005MPS TEMPO 2308/2312 04006G14MPS 5000 -TSRA BLDU",
    "UZTT": "TAF UZTT 221100Z 2212/2312 32010KT 7000 FEW060CB SCT100 TX35/2311Z TN24/2300Z TEMPO 2212/2218 VRB15G25KT 3000 -TSRA -DS BKN050CB",
    "ZWWW": "TAF ZWWW 221507Z 2218/2324 33004G11MPS 8000 BKN040 TX31/2309Z TN24/2223Z TN23/2323Z BECMG 2306/2307 FEW040CB BKN040 BECMG 2313/2314 16004MPS CAVOK",
    "ZLXY": "TAF ZLXY 221504Z 2218/2318 06003MPS 6000 NSC TX36/2307Z TN23/2221Z",
    "ZBAA": "TAF ZBAA 221502Z 2218/2324 14003MPS 6000 NSC TX29/2306Z TN21/2221Z TN20/2321Z TEMPO 2219/2301 -TSRA FEW030CB BKN040 TEMPO 2311/2315 -TSRA FEW040CB BKN040",
    "ZBHH": "TAF ZBHH 221502Z 2218/2318 24004G09MPS 9999 SCT040 TX29/2308Z TN15/2222Z TEMPO 2221/2224 2800 -SHRA SCT040 FEW040CB BECMG 2307/2308 -TSRA SCT040 FEW040CB TEMPO 2308/2311 34010G17MPS TSRA BECMG 2311/2312 NSW NSC",
    "ZSQD": "TAF ZSQD 221502Z 2218/2318 33003MPS 3500 BR SCT010 TX32/2306Z TN22/2220Z BECMG 2301/2302 17005MPS",
    "ZMCK": "TAF ZMCK 221053Z 2212/2318 VRB02MPS 9999 FEW030CB SCT033 TN12/2221Z TX30/2307Z",
    "UUEE": "TAF UUEE 221358Z 2215/2315 21003G08MPS 9999 SCT016 TX22/2215Z TN14/2301Z PROB40 TEMPO 2300/2312 -TSRA BKN016CB BECMG 2303/2306 27005MPS",
    "UUDD": "TAF UUDD 221354Z 2215/2321 21003MPS 9999 BKN016 TX23/2215Z TN14/2321Z PROB40 TEMPO 2215/2218 -TSRA BKN020CB BECMG 2304/2306 27006MPS BECMG 2316/2318 VRB01MPS",
    "ULLI": "TAF ULLI 221354Z 2215/2315 30003G08MPS 6000 BKN016 TEMPO 2215/2217 3100 -TSRA BKN016CB TEMPO 2222/2303 0300 FG SCT003",
    "USSS": "TAF USSS 221351Z 2215/2315 35003G14MPS 9999 SCT040CB FM221800 32003MPS 6000 SCT016 FM230300 12003G12MPS 9999 SCT040CB TEMPO 2306/2315 -TSRA",
    "UNNT": "TAF UNNT 221400Z 2215/2315 31003G08MPS 8000 BKN030 TX25/2309Z TN16/2222Z TEMPO 2215/2302 0300 -TSRA FG BKN002 BKN020CB TEMPO 2302/2315 -TSRA BKN020CB",
    "UNKL": "TAF UNKL 221349Z 2215/2315 26003G08MPS 6000 SCT016CB TEMPO 2215/2218 -TSRA BECMG 2304/2307 -TSRA BECMG 2308/2311 NSW TEMPO 2311/2314 -TSRA",
    "UIBB": "TAF UIBB 221400Z 2215/2315 10003G08MPS 9999 BKN020CB TEMPO 2215/2218 VRB08MPS BECMG 2218/2220 23005MPS TEMPO 2221/2312 VRB10MPS -TSRA",
    "UEEE": "TAF UEEE 221400Z 2215/2321 11003G08MPS 9999 SCT020CB OVC100 TEMPO 2215/2224 VRB01MPS 0500 TSRA FG VV003",
    "UHHH": "TAF UHHH 221348Z 2215/2321 06003MPS 9999 SCT020CB TX30/2305Z TN20/2218Z TEMPO 2215/2222 0300 FG FEW003 SCT015CB",
    "UHSS": "TAF UHSS 221345Z 2215/2321 36003MPS 9999 BKN004 BECMG 2216/2218 0700 FG BKN002 BECMG 2222/2301 SCT040CB"
  },
  "atis": {},
  "windtemp_alaska": "\n000\nFBAK31 KWNO 221359\nFD1AK1\nDATA BASED ON 221200Z    \nVALID 221800Z   FOR USE 1400-2100Z. TEMPS NEG ABV 24000\n\nFT  3000    6000    9000   12000   18000   24000  30000  34000  39000\nADK 2453 2453+13 2450+09 2449+05 2351-05 2451-16 245431 245541 245254\nADQ 2622 2633+07 2735+03 2840-01 2841-09 2836-19 284935 294944 294855\nAKN 2221 2329+05 2446+03 2543-01 2741-09 2751-20 285735 287245 297752\nANC 1911 2115+01 2321-03 2522-05 2637-13 2745-21 288336 298746 286651\nANN 3428 3318+11 3320+08 3220+03 2822-11 2924-25 292543 292553 272850\nBET 1830 1931+03 2138+00 2248-02 2558-10 2567-20 267836 278445 267449\nBRW 2506 9900+06 1211+01 1221-05 1133-16 1037-28 115443 125550 142345\nBTI 2619 1911+07 1722+02 1621-04 1533-16 1539-28 143642 133249 162547\nBTT 2311 2310+02 2209-04 2211-09 1808-21 1422-33 144044 171639 231439\nCDB 2439 2539+09 2738+06 2740+02 2850-06 2944-16 294732 295242 305556\nCZF 1426 1424+01 1827-01 2131-04 2349-13 2477-22 259836 259944 257945\nEHM 2237 2236+06 2244+04 2349+01 2648-08 2760-18 278433 289843 279653\nFAI 2617 2617+00 2313-04 2308-09 2115-21 2315-34 263539 263438 252941\nFYU 2412 1418+02 1623-03 1718-08 1623-19 1536-28 145144 163843 192041\nGAL 2017 2017+00 2015-06 2212-08 2415-19 2744-28 277941 276242 263441\nGKN 1621 2119+01 2310-03 2421-07 2643-15 2554-23 276440 286748 274848\nHOM 2016 2313+03 2523-01 2630-03 2844-10 2851-20 285635 285645 285153\nJNU 2605 3117+06 3230+04 3228+01 3134-14 3044-25 314442 324553 322648\nLUR 9900 2705+01 9900-05 1508-09 1309-19 1117-32 103046 112643 141340\nMCG 2025 2119+00 2014-05 2423-06 2537-15 2753-24 279437 289946 276046\nMDO 2516 2523+05 2533+02 2534-02 2535-13 2740-21 305236 306345 296556\nOME 1209 1012+00 0814-06 1510-08 2113-18 2422-29 245842 245441 243840\nORT      2518+02 2319-03 2326-06 2338-15 2456-25 245841 245449 253347\nOTZ 1111 1011+01 1014-05 1017-10 1312-20 1318-32 201243 231640 221639\nSNP 2440 2449+12 2456+08 2457+03 2576-07 2587-16 259831 259541 258653\nTKA 1923 2022+00 2121-05 2328-07 2646-15 2753-25 289138 289346 275647\nUNK 1912 1615-01 1914-03 2116-06 2424-16 2546-26 258739 268544 265042\nYAK 9900 2522+04 2740+02 2641-02 2741-14 2639-23 293439 304051 303854\nIKO 2440 2442+13 2544+08 2540+04 2630-06 2630-16 263131 283442 293355\nAFM 1508 1412+01 1214-05 1021-10 1316-21 1317-33 151042 200939 211339\n5AB 2317 2425+12 2429+08 2530+03 2341-08 2363-18 237432 238142 238754\n5AC 3634 3627+10 3520+07 3415+03 3112-11 3012-25 301542 272050 252553\n5AD 2621 2717+08 2715+05 2715+00 2715-13 2713-24 352938 364447 016257\n5AE 2435 2222+10 2823+05 2722-01 2822-08 2930-18 325134 325345 336855\n5AF 3122 3226+08 3321+05 3320+00 3020-12 2924-25 292242 311853 312653\n5AG 2627 2629+06 2533+04 2531-01 2637-13 2638-23 284038 324648 325656\n",
  "vaac_active": [
    {
      "volcano": "SHEVELUCH",
      "volcano_jp": "シベルチ",
      "advisory_nr": "2026/216",
      "obs_time": "2026-07-22 12:30Z",
      "issued_time": "2026-07-22 12:30Z",
      "text_url": "https://www.data.jma.go.jp/vaac/data/TextData/2026/20260722_30027000_0216_AN_Text.html",
      "lat": 56.65,
      "lon": 161.367,
      "text": "FVFE01 RJTD 221237\nVAAAK1\nVA ADVISORY\n\nDTG: 20260722/1230Z\n\nVAAC: ANCHORAGE\n\nVOLCANO: SHEVELUCH 300270\n\nPSN: N5639 E16122\n\nAREA: KAMCHATKA PENINSULA\n\nSOURCE ELEV: 10771 FT AMSL\n\nADVISORY NR: 2026/216\n\nINFO SOURCE: HIMAWARI/GOES\n\nERUPTION DETAILS: VA CONTINUOUSLY OBS IN SATELLITE IMAGERY\n\nOBS VA DTG: 22/1230Z\n\nOBS VA CLD: SFC/FL320 N6201 W15427 - N6453 W15735 - N6524 W17007\n- N6309 W17425 - N6201 W15427 MOV E 90KT\n\nFCST VA CLD +6HR: 22/1830Z SFC/FL320 N6700 W16147 - N6245 W14108\n- N6056 W14242 - N6356 W16602 - N6700 W16147\n\nFCST VA CLD +12HR: 23/0030Z SFC/FL320 N6717 W15308 - N6256\nW14010 - N5935 W13457 - N6727 W13449 - N6615 W14056 - N6717\nW15308 - N6717 W15308\n\nFCST VA CLD +18HR: 23/0630Z NO VA EXP\n\nRMK: NIL...BS\n\nNXT ADVISORY: WILL BE ISSUED BY 20260722/1830Z="
    }
  ],
  "vaac_tokyo": [
    {
      "id": "20260722_30027000_0276",
      "year": "2026",
      "volcano": "Sheveluch",
      "psn": "N5639 E16122",
      "issued": "20260722",
      "text": "FVFE01 RJTD 220506\nVA ADVISORY\nDTG: 20260722/0506Z\nVAAC: TOKYO\nVOLCANO: SHEVELUCH 300270\nPSN: N5639 E16122\nAREA: RUSSIA\nSOURCE ELEV: 3283M AMSL\nADVISORY NR: 2026/276\nINFO SOURCE: HIMAWARI-9\nERUPTION DETAILS: VA CONTINUOUSLY OBS IN SATELLITE IMAGERY\nOBS VA DTG: 22/0430Z\nOBS VA CLD: SFC/FL350 N6057 E17954 - N6010 W17949 - N5908 E17504 - \nN5937 E17453 - N6015 E17614 MOV NE 100KT\nFCST VA CLD +6 HR: 22/1030Z SFC/FL370 N6217 W15947 - N6303 W17404 - \nN6354 W17256 - N6401 W16626\nFCST VA CLD +12 HR: 22/1630Z SFC/FL380 N6204 W14422 - N6050 W14304 - \nN6532 W16429 - N6624 W16339\nFCST VA CLD +18 HR: 22/2230Z SFC/FL390 N6338 W13523 - N5921 W13421 - \nN6726 W15737 - N6713 W15453\nRMK: THE RESPONSIBILITY FOR THIS ASH EVENT IS BEING TRANSFERRED TO \nVAAC ANCHORAGE. THE NEXT ADVISORY WILL BE ISSUED BY VAAC ANCHORAGE \nBY 0700UTC UNDER HEADER FVAK21 PAWU. SOUTHERN PART OF VA OBSCURED BY \nMET CLOUD.\nNXT ADVISORY: NO FURTHER ADVISORIES=",
      "img_url": "https://ds.data.jma.go.jp/svd/vaac/data/VAGFN/2026/Images/20260722_30027000_0276_QH21_01.png",
      "sat_img_url": "https://ds.data.jma.go.jp/svd/vaac/data/Sat/2026/Images/30027000/09-ir/20260722_0430_202607220506_ir.png",
      "text_url": "https://ds.data.jma.go.jp/svd/vaac/data/TextData/2026/20260722_30027000_0276_Text.html"
    },
    {
      "id": "20260722_28505000_0001",
      "year": "2026",
      "volcano": "Tokachidake",
      "psn": "N4325 E14241",
      "issued": "20260722",
      "text": "FVFE01 RJTD 220219\nVA ADVISORY\nDTG: 20260722/0219Z\nVAAC: TOKYO\nVOLCANO: TOKACHIDAKE 285050\nPSN: N4325 E14241\nAREA: JAPAN\nSOURCE ELEV: 2077M AMSL\nADVISORY NR: 2026/1\nINFO SOURCE: JMA HIMAWARI-9\nERUPTION DETAILS: ERUPTED AT 20260722/0207Z FL070 STNR\nOBS VA DTG: 22/0200Z\nOBS VA CLD: VA NOT IDENTIFIABLE FM SATELLITE DATA WIND FL070 290/9KT\nFCST VA CLD +6 HR: NOT AVBL\nFCST VA CLD +12 HR: NOT AVBL\nFCST VA CLD +18 HR: NOT AVBL\nRMK: WE WILL ISSUE FURTHER ADVISORY IF VA IS DETECTED IN SATELLITE \nIMAGERY.\nNXT ADVISORY: NO FURTHER ADVISORIES=",
      "img_url": "https://ds.data.jma.go.jp/svd/vaac/data/VAGFN/2026/Images/20260722_28505000_0001_QH21_01.png",
      "sat_img_url": null,
      "text_url": "https://ds.data.jma.go.jp/svd/vaac/data/TextData/2026/20260722_28505000_0001_Text.html"
    },
    {
      "id": "20260721_27307000_0019",
      "year": "2026",
      "volcano": "Taal",
      "psn": "N1400 E12100",
      "issued": "20260721",
      "text": "FVFE01 RJTD 211319\nVA ADVISORY\nDTG: 20260721/1319Z\nVAAC: TOKYO\nVOLCANO: TAAL 273070\nPSN: N1400 E12100\nAREA: PHILIPPINES\nSOURCE ELEV: 311M AMSL\nADVISORY NR: 2026/19\nINFO SOURCE: HIMAWARI-9 PHIVOLCS\nERUPTION DETAILS: ERUPTION AT 20260721/1209Z FL110 REPORTED\nOBS VA DTG: 21/1250Z\nOBS VA CLD: SFC/FL110 N1404 E12056 - N1359 E12050 - N1354 E12057 - \nN1358 E12100 MOV W 15KT\nFCST VA CLD +6 HR: 21/1850Z SFC/FL130 N1329 E12051 - N1306 E12036 - \nN1322 E11953 - N1339 E12003\nFCST VA CLD +12 HR: 22/0050Z SFC/FL140 N1259 E12029 - N1227 E12001 - \nN1251 E11858 - N1320 E11911\nFCST VA CLD +18 HR: NO VA EXP\nRMK: NIL\nNXT ADVISORY: 20260721/1800Z=",
      "img_url": "https://ds.data.jma.go.jp/svd/vaac/data/VAGFN/2026/Images/20260721_27307000_0019_QH21_01.png",
      "sat_img_url": "https://ds.data.jma.go.jp/svd/vaac/data/Sat/2026/Images/27307000/09-ir/20260721_1250_202607211319_ir.png",
      "text_url": "https://ds.data.jma.go.jp/svd/vaac/data/TextData/2026/20260721_27307000_0019_Text.html"
    },
    {
      "id": "20260721_28208001_0086",
      "year": "2026",
      "volcano": null,
      "psn": "N3136 E13039",
      "issued": "20260721",
      "text": "FVFE01 RJTD 210627\nVA ADVISORY\nDTG: 20260721/0627Z\nVAAC: TOKYO\nVOLCANO: SAKURAJIMA (AIRA CALDERA) 282080\nPSN: N3136 E13039\nAREA: JAPAN\nSOURCE ELEV: 1117M AMSL\nADVISORY NR: 2026/86\nINFO SOURCE: JMA HIMAWARI-9\nERUPTION DETAILS: ERUPTED AT 20260721/0514Z FL140 STNR\nOBS VA DTG: 21/0610Z\nOBS VA CLD: SFC/FL140 N3140 E13037 - N3139 E13043 - N3131 E13043 - \nN3131 E13036 MOV S 5KT\nFCST VA CLD +6 HR: 21/1210Z SFC/FL140 N3207 E13054 - N3118 E13054 - \nN3119 E13021 - N3159 E13012\nFCST VA CLD +12 HR: 21/1810Z SFC/FL140 N3224 E13103 - N3138 E13035 - \nN3138 E12953 - N3315 E13009\nFCST VA CLD +18 HR: NO VA EXP\nRMK: NIL\nNXT ADVISORY: 20260721/1200Z=",
      "img_url": "https://ds.data.jma.go.jp/svd/vaac/data/VAGFN/2026/Images/20260721_28208001_0086_QH21_01.png",
      "sat_img_url": "https://ds.data.jma.go.jp/svd/vaac/data/Sat/2026/Images/28208001/09-ir/20260721_0610_202607210627_ir.png",
      "text_url": "https://ds.data.jma.go.jp/svd/vaac/data/TextData/2026/20260721_28208001_0086_Text.html"
    }
  ],
  "vaac_alaska": [
    {
      "text": "\n000\nFVAK21 PAWU 221234\nVAAAK1\nVA ADVISORY\n\nDTG: 20260722/1230Z\n\nVAAC: ANCHORAGE\n\nVOLCANO: SHEVELUCH 300270\n\nPSN: N5639 E16122\n\nAREA: KAMCHATKA PENINSULA\n\nSOURCE ELEV: 10771 FT AMSL\n\nADVISORY NR: 2026/216\n\nINFO SOURCE: HIMAWARI/GOES\n\nERUPTION DETAILS: VA CONTINUOUSLY OBS IN SATELLITE IMAGERY\n\nOBS VA DTG: 22/1230Z\n\nOBS VA CLD: SFC/FL320 N6201 W15427 - N6453 W15735 - N6524 W17007\n- N6309 W17425 - N6201 W15427 MOV E 90KT\n\nFCST VA CLD +6HR: 22/1830Z SFC/FL320 N6700 W16147 - N6245 W14108\n- N6056 W14242 - N6356 W16602 - N6700 W16147\n\nFCST VA CLD +12HR: 23/0030Z SFC/FL320 N6717 W15308 - N6256\nW14010 - N5935 W13457 - N6727 W13449 - N6615 W14056 - N6717\nW15308 - N6717 W15308\n\nFCST VA CLD +18HR: 23/0630Z NO VA EXP\n\nRMK: NIL...BS\n\nNXT ADVISORY: WILL BE ISSUED BY 20260722/1830Z=\n\n",
      "issued": "2026-07-22T12:34:00+00:00",
      "volcano": "Sheveluch",
      "psn": "N5639 E16122"
    }
  ]
}