{
  "updated_utc": "2026-07-20T22:53Z",
  "metar": {
    "RJAA": "METAR RJAA 202100Z 23003KT 200V260 9999 FEW030 BKN110 27/25 Q1008 NOSIG",
    "PANC": "METAR PANC 202153Z 05003KT 6SM -RA BR SCT004 BKN060 OVC070 13/12 A3005 RMK AO2 SLP178 P0003 T01280122",
    "PAFA": "METAR PAFA 202153Z VRB04KT 10SM SCT120 BKN180 24/10 A2992 RMK AO2 SLP134 T02440100 $",
    "PAED": "METAR PAED 202055Z 03007KT 5SM -RA FEW004 OVC042 14/12 A3004 RMK AO2A SLP169 P0003 60015 T01350121 53001 $",
    "KSEA": "METAR KSEA 202153Z 29006KT 10SM FEW180 BKN230 26/14 A2998 RMK AO2 SLP154 T02610139 $",
    "ZSPD": "METAR ZSPD 202100Z VRB01MPS 9999 FEW013 29/27 Q1005 NOSIG",
    "ZSSS": "METAR ZSSS 202100Z VRB01MPS CAVOK 28/26 Q1005 NOSIG",
    "RJFR": "METAR RJFR 202100Z 11004KT 9999 FEW007 SCT040 28/26 Q1009",
    "VHHH": "METAR VHHH 202100Z 18008KT 9999 FEW010 29/25 Q1006 NOSIG",
    "RCTP": "METAR RCTP 202100Z 22008KT 9999 FEW015 27/24 Q1008 NOSIG RMK A2979",
    "ZGSZ": "METAR ZGSZ 202100Z 16005MPS 9999 BKN033 29/26 Q1006 BECMG AT2140 FEW020CB BKN030",
    "WSSS": "METAR WSSS 202100Z 17006KT 7000 FEW016 FEW018TCU BKN050 26/24 Q1011 NOSIG",
    "WMKK": "METAR WMKK 202100Z 04004KT 340V110 8000 FEW010 FEW017CB 26/24 Q1010 NOSIG",
    "WIDD": "METAR WIDD 202100Z 18004KT 150V230 9999 FEW014 26/24 Q1011 NOSIG",
    "VTBS": "METAR VTBS 202100Z 26005KT 9999 FEW020 29/22 Q1009 NOSIG",
    "VTBU": "METAR VTBU 202100Z 27003KT 9999 FEW020 28/27 Q1009 NOSIG",
    "ROAH": "METAR ROAH 202100Z 22007KT 9999 FEW010 28/27 Q1009",
    "VVDN": "METAR VVDN 202100Z 00000KT 9999 FEW020 28/22 Q1007 NOSIG",
    "RCKH": "METAR RCKH 202100Z 07004KT 040V110 9999 VCSH FEW015 SCT020 BKN035 27/24 Q1009 NOSIG RMK A2981",
    "KLAX": "METAR KLAX 202153Z 26010KT 10SM BKN200 26/18 A2990 RMK AO2 SLP124 T02560183 $",
    "KONT": "METAR KONT 202153Z 24009KT 10SM FEW100 BKN140 BKN190 32/12 A2992 RMK AO2 SLP112 VIRGA S T03170122 $",
    "KSFO": "METAR KSFO 202056Z 31014KT 10SM FEW006 BKN100 21/14 A2995 RMK AO2 SLP141 60000 T02060144 56007",
    "KOAK": "METAR KOAK 202153Z 28011KT 10SM FEW005 FEW010 FEW090 BKN180 22/14 A2995 RMK AO2 SLP140 T02170144",
    "KMHR": "METAR KMHR 202055Z AUTO 22007KT 10SM CLR 34/07 A2989 RMK AO2 T03370071 56013 $",
    "KDFW": "METAR KDFW 202153Z 22008KT 10SM FEW075 37/18 A2986 RMK AO2 SLP101 T03720183 $",
    "KIAH": "METAR KIAH 202153Z VRB03KT 10SM FEW250 36/20 A2990 RMK AO2 SLP122 T03610200",
    "KORD": "METAR KORD 202151Z 20013G20KT 5SM HZ FEW035 FEW250 28/18 A2975 RMK AO2 SLP069 T02780183",
    "KJFK": "METAR KJFK 202151Z 16010KT 10SM SCT250 24/12 A2997 RMK AO2 SLP147 T02440117 $",
    "KRFD": "METAR KRFD 202054Z 17011KT 7SM FEW250 27/21 A2978 RMK AO2 SLP081 60001 T02720206 58031",
    "KIND": "METAR KIND 202054Z 25007KT 9SM SCT042 OVC250 29/18 A2990 RMK AO2 SLP117 T02940183 58012",
    "KDTW": "METAR KDTW 202153Z 21012KT 7SM FEW090 SCT180 OVC230 26/14 A2985 RMK AO2 SLP105 T02610144",
    "KMSP": "METAR KMSP 202153Z 28016G26KT 10SM FEW050 33/18 A2964 RMK AO2 PK WND 28030/2121 SLP031 T03330178",
    "CYEG": "METAR CYEG 202100Z 34008KT 4SM FU BKN022TCU 19/16 A3020 RMK TCU7 SLP233 DENSITY ALT 3100FT",
    "EHAM": "METAR EHAM 202055Z 35004KT 320V020 CAVOK 14/09 Q1026 NOSIG",
    "EBBR": "METAR EBBR 202120Z 35006KT CAVOK 16/09 Q1025 NOSIG",
    "EDDF": "METAR EDDF 202120Z AUTO 01007KT CAVOK 17/09 Q1023 NOSIG",
    "EDFH": "METAR EDFH 202120Z 36005KT CAVOK 13/08 Q1024",
    "EDDL": "METAR EDDL 202120Z AUTO 36007KT CAVOK 18/09 Q1024 NOSIG",
    "EDDK": "METAR EDDK 202120Z AUTO VRB02KT CAVOK 12/09 Q1024 NOSIG",
    "EBLG": "METAR EBLG 202120Z 35005KT 9999 FEW010 16/08 Q1025 NOSIG",
    "LSZH": "METAR LSZH 202120Z 02010G22KT 340V060 CAVOK 19/06 Q1022 NOSIG",
    "LIMC": "METAR LIMC 202120Z 09003KT 9999 SCT050 25/18 Q1015 NOSIG",
    "LIRF": "METAR LIRF 202120Z VRB01KT CAVOK 27/24 Q1014 NOSIG",
    "EINN": "METAR EINN 202100Z 35009KT 9999 FEW040 17/12 Q1031 NOSIG",
    "EGLL": "METAR EGLL 202120Z AUTO 14008KT 9999 NCD 19/09 Q1027",
    "EGSS": "METAR EGSS 202120Z AUTO 11006KT 040V210 9999 NCD 17/12 Q1028",
    "EPWA": "METAR EPWA 202100Z 22005KT 190V250 9999 FEW041 14/12 Q1014 NOSIG",
    "UHPP": "METAR UHPP 202100Z 19006MPS 8000 -SHRA BKN004 OVC025CB 14/14 Q1003 R16R/290250 NOSIG RMK MT OBSC QFE749/0999",
    "EFHK": "METAR EFHK 202120Z 03009KT 9999 FEW049 14/08 Q1015 NOSIG",
    "LBBG": "METAR LBBG 202100Z AUTO 05002KT 9999 NSC 23/19 Q1015 NOSIG",
    "LTAC": "METAR LTAC 202120Z 04006KT CAVOK 21/10 Q1016 NOSIG RMK RWY21C 08003KT 030V090 RWY03L 05005KT RWY21R 04003KT 350V060 RWY03R 01004KT RWY21L 03004KT",
    "UBBB": "METAR UBBB 202100Z 33006KT CAVOK 24/19 Q1013 NOSIG",
    "UTAA": "METAR UTAA 202100Z 30010KT 8000 FEW040CB BKN040 31/19 Q1010 R88/CLRD70 NOSIG",
    "UACC": "METAR UACC 202100Z 00000MPS CAVOK 19/11 Q0998 NOSIG RMK QFE718/0957",
    "UAAA": "METAR UAAA 202100Z 23005MPS 9999 FEW100 SCT200 29/09 Q1000 NOSIG",
    "UZTT": "METAR UZTT 202100Z 34010KT 310V020 CAVOK 29/10 Q1002 NOSIG",
    "ZWWW": "METAR ZWWW 202100Z 18006MPS CAVOK 33/07 Q1000 NOSIG",
    "ZLXY": "METAR ZLXY 202100Z 31001MPS CAVOK 25/22 Q1004 NOSIG",
    "ZBAA": "METAR ZBAA 202100Z 16002MPS 9999 SCT026 23/22 Q1004 NOSIG",
    "ZBHH": "METAR ZBHH 202100Z VRB01MPS CAVOK 14/13 Q1008 NOSIG",
    "ZSQD": "METAR ZSQD 202100Z 10001MPS 3500 BR FEW012 21/21 Q1005 BECMG TL2130 2800",
    "ZMCK": "METAR ZMCK 202100Z 07003MPS 9999 SCT100 12/08 Q1007 NOSIG RMK QFE641.2 77 MOP",
    "UUEE": "METAR UUEE 202100Z 17002MPS 140V200 CAVOK 23/14 Q1012 R24L/CLRD62 R24C/CLRD62 NOSIG",
    "UUDD": "METAR UUDD 202100Z 15001MPS CAVOK 19/16 Q1013 R13R/CLRD65 NOSIG",
    "ULLI": "METAR ULLI 202100Z 05006MPS 010V080 9999 BKN020 OVC034 15/10 Q1013 R88/090065 NOSIG",
    "USSS": "METAR USSS 202100Z 34003MPS CAVOK 18/18 Q1007 R08R/220060 NOSIG RMK QFE736/0981",
    "UNNT": "METAR UNNT 202100Z 31002MPS CAVOK 16/14 Q1000 R25/CLRD// R16/CLRD// NOSIG RMK QFE740/0987",
    "UNKL": "METAR UNKL 202100Z 00000MPS 9999 4300S BR FEW049 11/11 Q1001 R11/CLRD// NOSIG RMK QFE726",
    "UIBB": "METAR UIBB 202100Z AUTO 30001MPS 0050 0000S // ///000/// 11/11 Q1003 RMK QBB010 QFE710/0946",
    "UEEE": "METAR UEEE 202100Z 33003MPS CAVOK 14/10 Q1009 R23/09//53 NOSIG RMK QFE748",
    "UHHH": "METAR UHHH 202100Z VRB01MPS CAVOK 21/19 Q1007 R88/090060 NOSIG RMK QFE749/0999",
    "UHSS": "METAR UHSS 202100Z 36002MPS 9999 SCT003 19/18 Q1005 R01/CLRD70 NOSIG RMK QBB110 MT OBSC QFE752/1003"
  },
  "taf": {
    "RJAA": "TAF RJAA 201705Z 2018/2200 15005KT 9999 FEW030 BECMG 2021/2023 31004KT BECMG 2101/2103 16006KT BECMG 2109/2112 27004KT",
    "PANC": "TAF PANC 201933Z 2020/2124 VRB04KT 6SM -RA SCT006 SCT025 OVC050 TEMPO 2020/2022 5SM -RA BR OVC006 FM202200 24006KT 5SM -RA SCT006 OVC020 FM210300 19008KT P6SM -RA SCT010 OVC025 FM210800 16008KT P6SM SCT030 BKN040",
    "PAFA": "TAF PAFA 201729Z 2018/2124 15005KT P6SM SCT060 BKN120 FM210300 24006KT P6SM VCSH FEW025 BKN050 FM211200 20006KT 6SM -SHRA BR BKN025 OVC050",
    "PAED": "TAF AMD PAED 202220Z 2022/2203 01006KT 9000 -SHRA FEW004 OVC045 620709 QNH3004INS TEMPO 2022/2101 BKN004 BECMG 2107/2108 VRB06KT 6000 BR SCT015 OVC030 620603 QNH3011INS BECMG 2117/2118 35006KT 9999 NSW OVC050 620603 QNH3010INS BECMG 2121/2122 35009KT 9000 -SHRA OVC040 650709 QNH3008INS TX15/2121Z TN10/2113Z",
    "KSEA": "TAF KSEA 202101Z 2021/2124 30008KT P6SM BKN250 FM210600 36005KT P6SM SCT250 FM211600 35004KT P6SM FEW250 FM212000 29007KT P6SM BKN250",
    "ZSPD": "TAF ZSPD 202106Z 2100/2206 19004MPS 6000 SCT030 TX33/2106Z TX32/2206Z TN28/2121Z TEMPO 2106/2110 TSRA BKN015 FEW030CB",
    "ZSSS": "TAF ZSSS 202106Z 2100/2206 20004MPS 6000 SCT030 TX34/2106Z TX33/2206Z TN27/2121Z TEMPO 2106/2110 TSRA BKN015 FEW030CB",
    "RJFR": "TAF RJFR 201705Z 2018/2200 09008KT 9999 FEW015 SCT045 BECMG 2106/2109 33008KT",
    "VHHH": "TAF VHHH 202000Z 2021/2203 20010KT 9999 FEW010 SCT025 TX31/2106Z TN27/2022Z TN27/2122Z TEMPO 2021/2024 3500 SHRA FEW010CB SCT020 TEMPO 2100/2106 24015G25KT 2500 TSRA SHRA FEW008CB SCT015",
    "RCTP": "TAF RCTP 201700Z 2018/2124 22007KT 9999 FEW015 BKN032 TEMPO 2018/2022 15005KT BECMG 2023/2101 24012KT TEMPO 2103/2109 27017KT TEMPO 2107/2111 5000 SHRA FEW010 FEW015CB BKN020 BECMG 2110/2112 20005KT",
    "ZGSZ": "TAF ZGSZ 202103Z 2100/2206 18004MPS 8000 BKN040 TX30/2106Z TX32/2206Z TN27/2122Z TEMPO 2100/2104 2000 +TSRA SCT010 FEW020CB BKN030 TEMPO 2105/2108 TSRA SCT010 FEW020CB BKN030 TEMPO 2121/2124 SHRA FEW020CB BKN030",
    "WSSS": "TAF AMD WSSS 202105Z 2021/2200 16004KT 9999 FEW015 SCT020 TEMPO 2104/2107 3000 TSRA FEW012CB BKN015",
    "WMKK": "TAF WMKK 201700Z 2018/2200 VRB03KT 9000 FEW030 PROB30 TEMPO 2019/2022 6000 -TSRA FEW017CB",
    "VTBS": "TAF VTBS 201700Z 2018/2124 21008KT 9999 FEW020 BECMG 2020/2022 27005KT BECMG 2106/2108 21008KT TEMPO 2108/2112 VRB15KT 4000 TSRA FEW018CB SCT030 BKN100",
    "VTBU": "TAF VTBU 201700Z 2018/2118 21006KT 9999 FEW020",
    "ROAH": "TAF ROAH 201705Z 2018/2200 22006KT 9999 FEW008 SCT015 BECMG 2106/2109 29006KT TEMPO 2106/2109 4000 SHRA BR FEW005 BKN008 FEW015CB BECMG 2112/2115 23006KT",
    "VVDN": "TAF VVDN 201700Z 2018/2118 23006KT 9999 FEW020 BECMG 2105/2106 10010KT BECMG 2112/2113 22007KT",
    "RCKH": "TAF RCKH 201700Z 2018/2124 08005KT 9999 FEW015 BKN032 TEMPO 2020/2102 27008KT 5000 SHRA FEW008 FEW015CB BKN018 BECMG 2102/2104 22005KT TEMPO 2104/2110 24010KT FEW010 FEW015CB BKN022 BECMG 2110/2112 07005KT",
    "KLAX": "TAF KLAX 202214Z 2022/2124 26010KT P6SM SCT200 FM210400 26006KT P6SM SCT200 FM210800 VRB03KT P6SM SCT250 FM211000 VRB03KT 6SM BR BKN006 FM211500 26006KT P6SM SCT250",
    "KONT": "TAF KONT 201733Z 2018/2124 VRB05KT P6SM BKN150 FM202000 25011G20KT P6SM SCT150 FM210300 25009KT P6SM FEW200 FM210600 VRB05KT P6SM SKC FM212200 25011G18KT P6SM SCT150",
    "KSFO": "TAF KSFO 202138Z 2022/2124 31014KT P6SM VCSH FEW006 BKN100 FM210600 30010KT P6SM BKN150 TEMPO 2113/2117 04004KT P6SM BKN007 OVC150 FM211700 31006KT P6SM SCT010 BKN150 FM212100 30015KT P6SM BKN200",
    "KOAK": "TAF KOAK 202138Z 2022/2124 28010KT P6SM VCSH FEW006 BKN150 BKN250 FM202300 30013KT P6SM VCSH FEW015 BKN180 FM210500 26004KT P6SM BKN007 OVC150 FM211600 27006KT P6SM SCT010 BKN150",
    "KMHR": "TAF KMHR 201720Z 2018/2118 22008KT P6SM SCT250 FM210600 15005KT P6SM BKN250",
    "KDFW": "TAF KDFW 202057Z 2021/2124 19006KT P6SM FEW250",
    "KIAH": "TAF KIAH 202115Z 2021/2124 20004KT P6SM FEW250 FM210000 21005KT P6SM FEW050 FEW250 FM211400 26007KT P6SM FEW025",
    "KORD": "TAF KORD 202052Z 2021/2124 22013G21KT 6SM HZ FEW050 SCT120 BKN250 TEMPO 2103/2107 2SM TSRA BR SCT015 OVC040CB FM210700 24011KT P6SM -SHRA SCT050 BKN150 FM211000 27011KT 6SM HZ FEW020 BKN050 FM211500 30012G22KT P6SM SCT050",
    "KJFK": "TAF KJFK 201932Z 2019/2124 18009KT P6SM FEW060 FEW250 FM210100 16007KT P6SM SCT250 FM211300 15013G22KT P6SM SCT025 BKN050 FM211600 16014G23KT P6SM VCSH BKN025 BKN050 PROB30 2116/2120 4SM -TSRA BKN020CB FM212000 17014G23KT P6SM VCSH BKN025 BKN050 TEMPO 2123/2124 2SM TSRA BKN020CB",
    "KRFD": "TAF KRFD 202139Z 2022/2118 19011G19KT P6SM SCT250 FM202230 20012G19KT P6SM VCTS FEW050 SCT120CB BKN250 TEMPO 2023/2024 -TSRA FEW050 BKN110CB FM210000 20009KT P6SM VCSH SCT050 BKN150 TEMPO 2102/2105 34020G30KT 2SM TSRA BR SCT015 OVC040CB FM210600 25007KT 6SM BR FEW020 BKN150 FM211400 30013G23KT P6SM SCT050",
    "KIND": "TAF KIND 202006Z 2020/2124 24008KT 6SM HZ SCT045 BKN250 FM202300 23006KT 6SM HZ SCT250 FM210800 22008KT P6SM VCTS BKN040CB BKN150 FM211000 23010KT P6SM -SHRA BKN040 TEMPO 2111/2113 2SM -TSRA OVC020CB FM211400 22010KT P6SM BKN025 FM211700 28008G19KT P6SM SCT035",
    "KDTW": "TAF KDTW 202013Z 2020/2124 20010KT P6SM SCT050 SCT250 FM210100 19007KT P6SM SCT100 BKN200 FM210600 22012KT P6SM BKN080 OVC120 PROB30 2106/2111 4SM TSRA BKN040CB OVC060 FM211100 25014G25KT P6SM BKN040 FM212000 28015G25KT P6SM SCT060",
    "KMSP": "TAF KMSP 202051Z 2021/2124 29016G26KT P6SM FEW040 FM210200 31013G21KT P6SM SKC FM211000 32016G26KT P6SM SCT028 FM211600 33016G26KT P6SM FEW050",
    "CYEG": "TAF CYEG 202044Z 2021/2118 34010KT 4SM FU BKN020 TEMPO 2021/2103 BKN025 PROB30 2021/2101 2SM FU FM210300 VRB03KT 4SM FU FEW030 BKN070 PROB30 2111/2116 3/4SM FU BR VV006 FM211600 27005KT 5SM FU SCT012 BKN030 RMK NXT FCST BY 210000Z",
    "EHAM": "TAF EHAM 201700Z 2018/2124 34012KT 9999 SCT035 BECMG 2018/2021 36006KT BECMG 2110/2113 32013KT BECMG 2118/2121 33006KT",
    "EBBR": "TAF EBBR 201700Z 2018/2124 35008KT CAVOK",
    "EDDF": "TAF EDDF 201700Z 2018/2124 02007KT CAVOK",
    "EDFH": "TAF EDFH 201700Z 2018/2118 01007KT CAVOK",
    "EDDL": "TAF AMD EDDL 201934Z 2019/2124 VRB03KT CAVOK BECMG 2107/2110 33008KT",
    "EDDK": "TAF EDDK 201700Z 2018/2124 34006KT CAVOK BECMG 2018/2021 VRB03KT BECMG 2107/2110 34007KT",
    "EBLG": "TAF EBLG 201700Z 2018/2124 01007KT CAVOK",
    "LSZH": "TAF LSZH 202025Z 2021/2203 03010KT CAVOK TX25/2115Z TN12/2104Z TEMPO 2022/2105 9999 SCT075 BECMG 2023/2102 34004KT BECMG 2107/2109 06008KT 9999 FEW070 BECMG 2116/2119 CAVOK BECMG 2119/2122 VRB02KT",
    "LIMC": "TAF LIMC 201700Z 2018/2124 VRB05KT 9999 FEW050 TEMPO 2101/2110 4000 TSRA TEMPO 2115/2118 4000 SHRA",
    "LIRF": "TAF LIRF 201700Z 2018/2124 VRB05KT CAVOK PROB30 TEMPO 2101/2105 3000 BR BECMG 2106/2108 16010KT BECMG 2112/2114 22012KT BECMG 2118/2120 VRB05KT",
    "EINN": "TAF EINN 201700Z 2018/2118 35009KT 9999 SCT032",
    "EGLL": "TAF EGLL 201659Z 2018/2124 02006KT CAVOK BECMG 2018/2021 10010KT TEMPO 2100/2113 BKN030 BECMG 2102/2105 02005KT",
    "EGSS": "TAF EGSS 201703Z 2018/2124 01008KT CAVOK PROB40 2018/2022 12010KT TEMPO 2100/2113 SCT018 BKN030",
    "EPWA": "TAF EPWA 202030Z 2021/2121 19005KT 9999 BKN030 BECMG 2023/2101 25010KT -RA BKN014 TEMPO 2023/2112 27017G27KT SHRA BKN007 BKN014CB PROB40 TEMPO 2112/2118 31018G30KT -SHRA BKN014CB BECMG 2114/2117 32012KT BKN020",
    "UHPP": "TAF UHPP 201942Z 2021/2203 16003G12MPS 9999 -SHRA BKN010 OVC020CB TEMPO 2021/2024 2000 SHRA BR VV002 BECMG 2108/2110 NSW SCT015 BKN030CB TEMPO 2110/2203 0500 DZ FG VV002",
    "EFHK": "TAF EFHK 202022Z 2021/2121 04009KT CAVOK PROB30 TEMPO 2101/2110 04015G25KT",
    "LBBG": "TAF LBBG 201700Z 2018/2118 VRB04KT 9999 SCT045 TEMPO 2101/2105 2000 BR PROB40 2102/2104 0500 BCFG SCT002 BECMG 2108/2110 12012KT TEMPO 2111/2116 5000 TSRA FEW030CB BKN040",
    "LTAC": "TAF LTAC 201640Z 2018/2118 VRB02KT CAVOK TEMPO 2018/2022 02013KT BECMG 2107/2110 FEW040 BECMG 2113/2115 CAVOK TEMPO 2114/2118 02015KT",
    "UBBB": "TAF UBBB 201715Z 2018/2118 33012KT 9999 FEW015 TX31/2110Z TN21/2101Z TEMPO 2018/2024 FEW060CB TEMPO 2100/2106 28005KT SCT010 BECMG 2106/2108 14008KT CAVOK TEMPO 2108/2118 18014KT FEW025",
    "UTAA": "TAF UTAA 201645Z 2017/2118 33010G20KT 4000 DRDU BKN030 SCT050CB TEMPO 2017/2024 30022G32KT 0800 DS VV007 PROB40 TEMPO 2100/2105 VRB34KT 2000 BLDU -TSRA",
    "UACC": "TAF UACC 201701Z 2018/2118 24003MPS 9999 SCT040 BKN100 TX25/2112Z TN18/2024Z BECMG 2023/2101 24008MPS SCT030CB BKN050 TEMPO 2101/2104 3100 -SHRA BKN030CB TEMPO 2104/2109 VRB16MPS 3100 -TSRA SQ BKN020CB TEMPO 2109/2118 VRB20MPS 3100 -TSRA SQ BKN020CB",
    "UAAA": "TAF UAAA 201703Z 2018/2118 19002MPS 9999 SCT050CB BKN100 TX34/2110Z TN25/2100Z BECMG 2103/2105 32005MPS BECMG 2108/2110 21005MPS TEMPO 2108/2118 27007G14MPS 4000 -TSRA BLDU SCT015CB OVC050",
    "UZTT": "TAF UZTT 201700Z 2018/2118 30012KT 7000 NSC TX35/2111Z TN24/2100Z TEMPO 2018/2024 30015G25KT 3000 -DS",
    "ZWWW": "TAF ZWWW 202101Z 2100/2206 18004G09MPS CAVOK TX42/2109Z TX33/2206Z TN28/2123Z BECMG 2102/2103 36004MPS BECMG 2114/2115 20004MPS BECMG 2122/2123 33007G15MPS TEMPO 2123/2203 30012G20MPS 1500 SA NSC",
    "ZLXY": "TAF ZLXY 202104Z 2100/2124 06003MPS 6000 NSC TX37/2107Z TN24/2121Z TEMPO 2108/2111 -SHRA FEW040CB BKN050",
    "ZBAA": "TAF ZBAA 202103Z 2100/2206 16004MPS 6000 NSC TX31/2106Z TX33/2206Z TN24/2121Z",
    "ZBHH": "TAF ZBHH 202102Z 2100/2124 24004MPS 9999 SCT040 TX30/2107Z TN16/2119Z BECMG 2109/2110 -TSRA FEW040CB SCT040 TEMPO 2110/2112 +TSRA BECMG 2112/2113 NSW NSC",
    "ZSQD": "TAF ZSQD 202103Z 2100/2124 16004MPS 5000 BR NSC TX31/2106Z TN22/2120Z",
    "ZMCK": "TAF ZMCK 202240Z 2100/2206 VRB02MPS 9999 FEW030CB SCT033 TX25/2107Z TN11/2121Z TEMPO 2100/2113 VRB08G13MPS TSRA SCT027CB SCT030",
    "UUEE": "TAF UUEE 201956Z 2021/2121 18003MPS 9999 BKN030 TX25/2113Z TN18/2102Z TEMPO 2100/2105 BKN005 PROB40 TEMPO 2112/2118 -TSRA BKN016CB",
    "UUDD": "TAF UUDD 201955Z 2021/2203 18003MPS 9999 FEW007 BKN016 TX25/2112Z TN18/2101Z PROB40 TEMPO 2021/2106 -TSRA BKN020CB BECMG 2106/2107 26005MPS TEMPO 2107/2119 26008G13MPS -TSRA BKN020CB BECMG 2119/2121 19003MPS",
    "ULLI": "TAF ULLI 201953Z 2021/2121 05006G13MPS 6000 BKN016 BECMG 2023/2024 BKN010 TEMPO 2100/2112 08008G15MPS 1000 TSRA BR BKN004 BKN017CB BECMG 2112/2113 BKN016 BECMG 2115/2116 01003MPS",
    "USSS": "TAF USSS 201941Z 2021/2121 35003G08MPS 6000 BKN016 TEMPO 2021/2104 0300 FG SCT003 FM210400 01003G14MPS 9999 SCT033",
    "UNNT": "TAF UNNT 202000Z 2021/2121 04003G08MPS 9999 BKN040 TX28/2109Z TN16/2022Z",
    "UNKL": "TAF UNKL 201947Z 2021/2121 VRB01MPS 6000 SCT040 TEMPO 2021/2024 0300 FG BKN002",
    "UIBB": "TAF UIBB 202000Z 2021/2121 VRB01MPS 0300 FG BKN001 BKN016CB TEMPO 2021/2101 4000 BR FEW003 SCT016CB BECMG 2101/2103 9999 NSW BKN016CB BECMG 2103/2105 25006MPS",
    "UEEE": "TAF UEEE 202000Z 2021/2203 33003G10MPS 9999 SCT030CB BKN100",
    "UHHH": "TAF UHHH 201951Z 2021/2203 10003MPS 9999 SCT030 TX30/2106Z TN18/2119Z TEMPO 2021/2022 0400 FG",
    "UHSS": "TAF UHSS 202245Z 2100/2206 32003MPS 9999 FEW040 TEMPO 2100/2206 BKN025CB"
  },
  "atis": {},
  "windtemp_alaska": "\n000\nFBAK31 KWNO 201959\nFD1AK1\nDATA BASED ON 201800Z    \nVALID 210000Z   FOR USE 2000-0300Z. TEMPS NEG ABV 24000\n\nFT  3000    6000    9000   12000   18000   24000  30000  34000  39000\nADK 2819 2715+12 2718+07 2721+00 2820-13 2726-23 293338 293648 304357\nADQ 2310 2309-01 2218-05 2219-11 2218-24 1920-36 191743 191941 191741\nAKN 2018 2018-01 1917-07 1913-12 2515-24 2928-34 293542 261742 231242\nANC 1406 1515+01 1627-02 1633-07 1457-18 1560-29 157443 157550 154347\nANN 0105 9900+14 9900+09 9900+02 2008-13 2014-25 211040 201049 211857\nBET 1911 1716-02 1620-07 1622-12 2411-23 2826-33 284245 261943 211141\nBRW 1123 1314+05 1516+00 1720-03 1934-17 2047-27 196343 206553 183553\nBTI 1009 2509+10 2414+04 2521+00 2213-14 2013-26 241943 252252 241457\nBTT 1512 1414+07 1527+02 1633-02 1638-16 1539-27 144242 154151 163355\nCDB 1933 2135+01 2437-01 2543-03 2645-15 2842-26 284443 285353 293849\nCZF 1612 1514-02 1519-07 1515-12 2509-23 2621-34 273145 261741 200839\nEHM 1719 1819-01 1917-05 2014-09 2516-20 2835-29 276545 284849 261843\nFAI 1007 1611+09 1624+03 1529-03 1534-16 1536-28 153342 153151 162055\nFYU 9900 1308+11 1615+04 1621-01 1623-15 1727-27 153143 143253 162752\nGAL 1405 1808+02 1814-04 1631-10 1650-19 1579-29 149142 159150 154846\nGKN 1719 1726+07 1424+02 1526-03 1636-17 1637-28 163242 173251 183254\nHOM 1907 1615-01 1718-05 1721-10 1637-22 1556-33 148644 155944 163343\nJNU 9900 2610+12 2414+07 2215+01 1918-14 1923-26 183241 193950 203556\nLUR 1018 1124+03 1127-02 1128-08 1328-21 1449-33 169345 156947 132841\nMCG 9900 1809+00 1415-04 1525-10 1642-21 1577-31 640044 158248 154344\nMDO 2013 1723+04 1531-01 1634-06 1644-18 1653-28 156443 156650 164749\nOME 1611 1517-01 1517-06 1417-13 1421-25 1420-36 143043 143140 142239\nORT      9900+11 1508+05 1712-01 1623-16 1630-27 163244 163552 183250\nOTZ 1418 1519+01 1420-04 1322-10 1339-22 1564-32 650844 147848 153342\nSNP 2413 2627+07 2727+02 2634-03 2842-14 2852-26 286742 296250 294446\nTKA 2113 1520+03 1537-02 1640-06 1555-17 1556-29 156743 156951 164750\nUNK 1513 1618-01 1622-07 1525-12 1534-24 1552-34 158043 144942 153241\nYAK 2805 2107+05 2014+03 2018-01 1926-15 1830-27 172643 162452 182951\nIKO 2532 2632+08 2832+05 2833-01 2834-13 2834-25 303641 305050 314554\nAFM 1311 1417+03 1422-01 1533-07 1653-17 1667-28 158142 168552 165049\n5AB 2838 2830+13 2827+07 2828+01 2934-10 3040-20 315735 306645 306757\n5AC 3420 3413+13 3308+08 3307+01 2508-14 2115-26 212740 202749 202656\n5AD 2712 2219+03 2222-02 2228-06 2140-19 2040-32 204446 204945 204545\n5AE 2318 2423+00 2521-05 2522-09 2830-21 3050-31 318844 316049 282445\n5AF 2911 2311+10 2214+06 2217+00 2021-15 1926-27 212742 212950 203554\n5AG 1820 1821+06 1924+01 1930-04 1840-16 1844-28 174642 174550 184453\n",
  "vaac_active": [
    {
      "volcano": "SHEVELUCH",
      "volcano_jp": "シベルチ",
      "advisory_nr": "2026/210",
      "obs_time": "2026-07-20 20:10Z",
      "issued_time": "2026-07-20 20:10Z",
      "text_url": "https://www.data.jma.go.jp/vaac/data/TextData/2026/20260720_30027000_0210_AN_Text.html",
      "lat": 56.65,
      "lon": 161.367,
      "text": "FVFE01 RJTD 202037\nVAAAK1\nVA ADVISORY\n\nDTG: 20260720/2010Z\n\nVAAC: ANCHORAGE\n\nVOLCANO: SHEVELUCH 300270\n\nPSN: N5639 E16122\n\nAREA: KAMCHATKA PENINSULA\n\nSOURCE ELEV: 10771 FT AMSL\n\nADVISORY NR: 2026/210\n\nINFO SOURCE: HIMAWARI/GOES\n\nERUPTION DETAILS: VA CONTINUOUSLY OBS IN SATELLITE IMAGERY.\n\nOBS VA DTG: 20/2010Z\n\nOBS VA CLD: SFC/FL310 N5529 E17705 - N5423 E17732 - N5411 E17614\n- N5514 E17533 - N5529 E17705 MOV SE 45KT\nSFC/FL400 N5218 E17714 - N4943 W17955 - N4920 E17817 - N5207\nE17626 - N5218 E17714 MOV SE 80KT\n\nFCST VA CLD +6HR: 21/0210Z SFC/FL310 N5340 W17920 - N5305 W17945\n- N5334 E17926 - N5407 E17934 - N5340 W17920\nSFC/FL400 N4944 W17940 - N4803 W17821 - N4751 W17940 - N4932\nE17909 - N4944 W17940 - N4944 W17940\n\nFCST VA CLD +12HR: 21/0810Z NO VA EXP\n\nFCST VA CLD +18HR: 21/1410Z NO VA EXP\n\nRMK: CORRECTED DATE ON VAA. SOME PART OF VA OBSCURED BY MET CLOUD...T\nS\n\nNXT ADVISORY: WILL BE ISSUED BY 20260720/2310Z="
    },
    {
      "volcano": "SHEVELUCH",
      "volcano_jp": "シベルチ",
      "advisory_nr": "2026/209",
      "obs_time": "2026-07-20 18:00Z",
      "issued_time": "2026-07-20 18:00Z",
      "text_url": "https://www.data.jma.go.jp/vaac/data/TextData/2026/20260720_30027000_0209_AN_Text.html",
      "lat": 56.65,
      "lon": 161.367,
      "text": "FVFE01 RJTD 201800\nVAAAK1\nVA ADVISORY\n\nDTG: 20260720/1800Z\n\nVAAC: ANCHORAGE\n\nVOLCANO: SHEVELUCH 300270\n\nPSN: N5639 E16122\n\nAREA: KAMCHATKA PENINSULA\n\nSOURCE ELEV: 10771 FT AMSL\n\nADVISORY NR: 2026/209\n\nINFO SOURCE: HIMAWARI\n\nERUPTION DETAILS: SOME PART OF VA OBSCURED BY MET CLOUDS.\n\nOBS VA DTG: 20/1800Z\n\nOBS VA CLD: SFC/FL400 N5214 E17533 - N4903 E17910 - N4837 E17630\n- N5202 E17358 - N5214 E17533 MOV SE 80KT\n\nFCST VA CLD +6HR: 21/0000Z SFC/FL400 N4926 E17911 - N4929 E17942\n- N4622 E17958 - N4624 E17905 - N4926 E17911 - N4926 E17911\n\nFCST VA CLD +12HR: 21/0600Z NO VA EXP\n\nFCST VA CLD +18HR: 21/1200Z NO VA EXP\n\nRMK: VAAC TOKYO HAS TRANSFERRED RESPONSIBILITY OF THIS EVENT\nTO VAAC ANCHORAGE. THIS ADVISORY UPDATES MESSAGE FVFE01 RJTD....TS\n\nNXT ADVISORY: WILL BE ISSUED BY 20260721/2100Z="
    }
  ],
  "vaac_tokyo": [
    {
      "id": "20260720_30027000_0272",
      "year": "2026",
      "volcano": "Sheveluch",
      "psn": "N5639 E16122",
      "issued": "20260720",
      "text": "FVFE01 RJTD 201500\nVA ADVISORY\nDTG: 20260720/1500Z\nVAAC: TOKYO\nVOLCANO: SHEVELUCH 300270\nPSN: N5639 E16122\nAREA: RUSSIA\nSOURCE ELEV: 3283M AMSL\nADVISORY NR: 2026/272\nINFO SOURCE: HIMAWARI-9\nERUPTION DETAILS: VA CONTINUOUSLY OBS IN SATELLITE IMAGERY\nOBS VA DTG: 20/1420Z\nOBS VA CLD: SFC/FL390 N5626 E16711 - N5644 E16801 - N5334 E17100 - \nN5320 E17046 - N5455 E16741 MOV SE 80KT\nFCST VA CLD +6 HR: 20/2020Z SFC/FL400 N5451 E17745 - N5237 E17715 - \nN5013 E17845 - N5030 E17644 - N5236 E17455 - N5459 E17606\nFCST VA CLD +12 HR: 21/0220Z SFC/FL400 N5255 W17530 - N4753 W17642 - \nN4554 W17523 - N4517 W17545 - N4651 W17824 - N5004 W17948\nFCST VA CLD +18 HR: 21/0820Z SFC/FL400 N5101 W17024 - N4432 W17322 - \nN4036 W16942 - N4024 W17143 - N4405 W17542 - N4722 W17530\nRMK: SOME PART OF VA OBSCURED BY MET CLOUD. THE RESPONSIBILITY FOR \nTHIS ASH EVENT IS BEING TRANSFERRED TO VAAC ANCHORAGE. THE NEXT \nADVISORY WILL BE ISSUED BY VAAC ANCHORAGE BY 1800UTC UNDER HEADER \nFVAK21 PAWU.\nNXT ADVISORY: NO FURTHER ADVISORIES=",
      "img_url": "https://ds.data.jma.go.jp/svd/vaac/data/VAGFN/2026/Images/20260720_30027000_0272_QH21_01.png",
      "sat_img_url": "https://ds.data.jma.go.jp/svd/vaac/data/Sat/2026/Images/30027000/09-ir/20260720_1420_202607201500_ir.png",
      "text_url": "https://ds.data.jma.go.jp/svd/vaac/data/TextData/2026/20260720_30027000_0272_Text.html"
    },
    {
      "id": "20260719_27303000_0769",
      "year": "2026",
      "volcano": "Mayon",
      "psn": "N1315 E12341",
      "issued": "20260719",
      "text": "FVFE01 RJTD 192213\nVA ADVISORY\nDTG: 20260719/2213Z\nVAAC: TOKYO\nVOLCANO: MAYON 273030\nPSN: N1315 E12341\nAREA: PHILIPPINES\nSOURCE ELEV: 2462M AMSL\nADVISORY NR: 2026/769\nINFO SOURCE: HIMAWARI-9 PHIVOLCS\nERUPTION DETAILS: ERUPTION AT 20260719/2148Z FL080 EXTD W REPORTED\nOBS VA DTG: 19/2200Z\nOBS VA CLD: VA NOT IDENTIFIABLE FM SATELLITE DATA WIND FL080 010/2KT\nFCST VA CLD +6 HR: NOT AVBL\nFCST VA CLD +12 HR: NOT AVBL\nFCST VA CLD +18 HR: NOT AVBL\nRMK: WE WILL ISSUE FURTHER ADVISORY IF VA IS DETECTED IN SATELLITE \nIMAGERY.\nNXT ADVISORY: NO FURTHER ADVISORIES=",
      "img_url": "https://ds.data.jma.go.jp/svd/vaac/data/VAGFN/2026/Images/20260719_27303000_0769_QH21_01.png",
      "sat_img_url": null,
      "text_url": "https://ds.data.jma.go.jp/svd/vaac/data/TextData/2026/20260719_27303000_0769_Text.html"
    },
    {
      "id": "20260717_27307000_0014",
      "year": "2026",
      "volcano": "Taal",
      "psn": "N1400 E12100",
      "issued": "20260717",
      "text": "FVFE01 RJTD 171113\nVA ADVISORY\nDTG: 20260717/1113Z\nVAAC: TOKYO\nVOLCANO: TAAL 273070\nPSN: N1400 E12100\nAREA: PHILIPPINES\nSOURCE ELEV: 311M AMSL\nADVISORY NR: 2026/14\nINFO SOURCE: HIMAWARI-9 PHIVOLCS\nERUPTION DETAILS: ERUPTION AT 20260717/1051Z FL040 EXTD E REPORTED\nOBS VA DTG: 17/1100Z\nOBS VA CLD: VA NOT IDENTIFIABLE FM SATELLITE DATA WIND FL040 270/8KT\nFCST VA CLD +6 HR: NOT AVBL\nFCST VA CLD +12 HR: NOT AVBL\nFCST VA CLD +18 HR: NOT AVBL\nRMK: WE WILL ISSUE FURTHER ADVISORY IF VA IS DETECTED IN SATELLITE \nIMAGERY.\nNXT ADVISORY: NO FURTHER ADVISORIES=",
      "img_url": "https://ds.data.jma.go.jp/svd/vaac/data/VAGFN/2026/Images/20260717_27307000_0014_QH21_01.png",
      "sat_img_url": null,
      "text_url": "https://ds.data.jma.go.jp/svd/vaac/data/TextData/2026/20260717_27307000_0014_Text.html"
    },
    {
      "id": "20260713_28208001_0083",
      "year": "2026",
      "volcano": null,
      "psn": "N3136 E13039",
      "issued": "20260713",
      "text": "FVFE01 RJTD 130254\nVA ADVISORY\nDTG: 20260713/0254Z\nVAAC: TOKYO\nVOLCANO: SAKURAJIMA (AIRA CALDERA) 282080\nPSN: N3136 E13039\nAREA: JAPAN\nSOURCE ELEV: 1117M AMSL\nADVISORY NR: 2026/83\nINFO SOURCE: JMA HIMAWARI-9\nERUPTION DETAILS: ERUPTED AT 20260713/0152Z FL100 EXTD N\nOBS VA DTG: 13/0230Z\nOBS VA CLD: SFC/FL100 N3136 E13039 - N3142 E13040 - N3141 E13044 - \nN3134 E13042 MOV NE 15KT\nFCST VA CLD +6 HR: 13/0830Z SFC/FL100 N3234 E13121 - N3145 E13155 - \nN3202 E13110 - N3227 E13051\nFCST VA CLD +12 HR: 13/1430Z SFC/FL100 N3318 E13206 - N3142 E13317 - \nN3134 E13226 - N3312 E13118\nFCST VA CLD +18 HR: NO VA EXP\nRMK: NIL\nNXT ADVISORY: 20260713/0600Z=",
      "img_url": "https://ds.data.jma.go.jp/svd/vaac/data/VAGFN/2026/Images/20260713_28208001_0083_QH21_01.png",
      "sat_img_url": "https://ds.data.jma.go.jp/svd/vaac/data/Sat/2026/Images/28208001/09-ir/20260713_0230_202607130254_ir.png",
      "text_url": "https://ds.data.jma.go.jp/svd/vaac/data/TextData/2026/20260713_28208001_0083_Text.html"
    }
  ],
  "vaac_alaska": [
    {
      "text": "\n000\nFVAK21 PAWU 202032\nVAAAK1\nVA ADVISORY\n\nDTG: 20260720/2010Z\n\nVAAC: ANCHORAGE\n\nVOLCANO: SHEVELUCH 300270\n\nPSN: N5639 E16122\n\nAREA: KAMCHATKA PENINSULA\n\nSOURCE ELEV: 10771 FT AMSL\n\nADVISORY NR: 2026/210\n\nINFO SOURCE: HIMAWARI/GOES\n\nERUPTION DETAILS: VA CONTINUOUSLY OBS IN SATELLITE IMAGERY.\n\nOBS VA DTG: 20/2010Z\n\nOBS VA CLD: SFC/FL310 N5529 E17705 - N5423 E17732 - N5411 E17614\n- N5514 E17533 - N5529 E17705 MOV SE 45KT\nSFC/FL400 N5218 E17714 - N4943 W17955 - N4920 E17817 - N5207\nE17626 - N5218 E17714 MOV SE 80KT\n\nFCST VA CLD +6HR: 21/0210Z SFC/FL310 N5340 W17920 - N5305 W17945\n- N5334 E17926 - N5407 E17934 - N5340 W17920\nSFC/FL400 N4944 W17940 - N4803 W17821 - N4751 W17940 - N4932\nE17909 - N4944 W17940 - N4944 W17940\n\nFCST VA CLD +12HR: 21/0810Z NO VA EXP\n\nFCST VA CLD +18HR: 21/1410Z NO VA EXP\n\nRMK: CORRECTED DATE ON VAA. SOME PART OF VA OBSCURED BY MET CLOUD...TS\n\nNXT ADVISORY: WILL BE ISSUED BY 20260720/2310Z=\n\n",
      "issued": "2026-07-20T20:32:00+00:00",
      "volcano": "Sheveluch",
      "psn": "N5639 E16122"
    }
  ]
}