{
  "updated_utc": "2026-07-14T06:02Z",
  "metar": {
    "RJAA": "METAR RJAA 140430Z 13008KT 9999 FEW030 BKN/// 30/24 Q1006 NOSIG",
    "PANC": "METAR PANC 140453Z 15015G27KT 10SM BKN060 OVC070 14/08 A3007 RMK AO2 PK WND 18032/0438 SLP182 T01440083",
    "PAFA": "METAR PAFA 140453Z 07004KT 10SM FEW045 FEW080 SCT110 BKN200 17/09 A2993 RMK AO2 SLP138 CB DSNT E-SE MOV NE T01720094 $",
    "PAED": "METAR PAED 140455Z 34009KT 10SM FEW012 FEW045 OVC055 14/10 A3006 RMK AO2A LTG DSNT S SLP175 T01380104 $",
    "KSEA": "METAR KSEA 140453Z 35008KT 10SM SCT220 20/02 A3004 RMK AO2 SLP177 T02000017",
    "ZSPD": "METAR ZSPD 140430Z 19006MPS CAVOK 35/26 Q1004 NOSIG",
    "ZSSS": "SPECI ZSSS 140422Z 28004MPS 160V320 CAVOK 36/25 Q1003 NOSIG",
    "RJFR": "METAR RJFR 140500Z 09006KT 9999 FEW030 BKN045 31/26 Q1008",
    "VHHH": "SPECI VHHH 140428Z 15011KT 110V180 9999 SHRA FEW008 SCT017 28/26 Q1001 NOSIG",
    "RCTP": "METAR RCTP 140430Z 34007KT 300V020 9999 FEW020 BKN150 33/27 Q1009 NOSIG RMK A2980",
    "ZGSZ": "METAR ZGSZ 140500Z 10006MPS 060V120 9999 FEW016 SCT023 31/26 Q1001 NOSIG",
    "WSSS": "METAR WSSS 140430Z 13010KT 9999 FEW020 BKN300 32/24 Q1011 NOSIG",
    "WMKK": "METAR WMKK 140430Z 14006KT 080V250 9000 VCSH SCT018 31/25 Q1010 NOSIG",
    "WIDD": "METAR WIDD 140430Z 14008KT 080V210 9999 SCT014 32/25 Q1011 NOSIG",
    "VTBS": "METAR VTBS 140430Z 23011KT 9999 FEW020 SCT035 32/22 Q1008 NOSIG",
    "VTBU": "METAR VTBU 140430Z 23012KT 190V260 9999 FEW020 SCT100 31/27 Q1009 NOSIG",
    "ROAH": "METAR ROAH 140430Z 18012KT 9999 FEW010 SCT/// 30/25 Q1011",
    "VVDN": "METAR VVDN 140430Z 25005KT 9999 FEW020 SCT060 34/22 Q1004 NOSIG",
    "RCKH": "SPECI RCKH 140404Z 17015G27KT 140V200 4500 -SHRA SCT009TCU SCT010 BKN014 BKN022 27/25 Q1010 RESHRA TEMPO 3000 SHRA RMK TCU SE A2983",
    "KLAX": "METAR KLAX 140453Z 25008KT 10SM BKN008 20/18 A2997 RMK AO2 SLP146 T02000178 $",
    "KONT": "METAR KONT 140453Z 23008KT 10SM FEW160 FEW250 24/16 A2998 RMK AO2 SLP136 T02390156 $",
    "KSFO": "METAR KSFO 140456Z 30011KT 10SM FEW170 BKN200 17/13 A2995 RMK AO2 SLP141 T01720128",
    "KOAK": "METAR KOAK 140453Z 30004KT 10SM BKN180 18/14 A2995 RMK AO2 SLP141 T01830139",
    "KMHR": "METAR KMHR 140415Z AUTO 20005KT 10SM CLR 28/10 A2988 RMK AO2 T02760099 $",
    "KDFW": "METAR KDFW 140453Z 16006KT 10SM FEW045 FEW065 SCT160 SCT250 26/21 A3008 RMK AO2 SLP179 T02610211 $",
    "KIAH": "SPECI KIAH 140437Z 03004KT 10SM SCT006 BKN022 BKN170 25/25 A3009 RMK AO2 T02500250",
    "KORD": "METAR KORD 140451Z 26004KT 10SM CLR 27/19 A3016 RMK AO2 SLP207 T02720194",
    "KJFK": "METAR KJFK 140451Z 23013KT 10SM FEW250 23/16 A3014 RMK AO2 SLP207 T02280161 402780194 $",
    "KRFD": "METAR KRFD 140454Z 00000KT 10SM CLR 22/21 A3020 RMK AO2 SLP220 T02220206",
    "KIND": "METAR KIND 140454Z 02005KT 10SM CLR 23/17 A3018 RMK AO2 SLP212 T02330167 403110194",
    "KDTW": "METAR KDTW 140453Z 22005KT 9SM SCT250 25/18 A3015 RMK AO2 SLP206 T02500183 403220183 $",
    "KMSP": "METAR KMSP 140453Z 20005KT 10SM CLR 27/22 A3015 RMK AO2 SLP204 T02720217",
    "CYEG": "METAR CYEG 140500Z 10006KT 20SM FEW100 17/12 A3012 RMK ACC1 ACC TR SLP203 DENSITY ALT 3000FT",
    "EHAM": "METAR EHAM 140425Z 04010KT 010V070 CAVOK 20/17 Q1018 NOSIG",
    "EBBR": "METAR EBBR 140420Z 34003KT CAVOK 18/17 Q1017 NOSIG",
    "EDDF": "METAR EDDF 140420Z AUTO 03015KT CAVOK 22/14 Q1016 NOSIG",
    "EDFH": "METAR EDFH 140420Z 08005KT 030V120 CAVOK 18/12 Q1017",
    "EDDL": "METAR EDDL 140420Z AUTO VRB02KT CAVOK 21/15 Q1017 NOSIG",
    "EDDK": "METAR EDDK 140420Z AUTO VRB02KT CAVOK 20/14 Q1017 NOSIG",
    "EBLG": "METAR EBLG 140420Z 34003KT CAVOK 18/15 Q1017 NOSIG",
    "LSZH": "METAR LSZH 140420Z 30003KT 280V360 CAVOK 18/16 Q1016 NOSIG",
    "LIMC": "METAR LIMC 140420Z 08005KT 050V110 9999 SCT080 25/20 Q1017 NOSIG",
    "LIRF": "METAR LIRF 140420Z 07005KT CAVOK 23/22 Q1017 NOSIG",
    "EINN": "METAR EINN 140430Z 03004KT CAVOK 14/11 Q1022 NOSIG",
    "EGLL": "METAR EGLL 140420Z AUTO 05010KT 9999 OVC014 17/14 Q1021",
    "EGSS": "METAR EGSS 140420Z AUTO 03011KT 9999 OVC005 16/15 Q1022",
    "EPWA": "METAR EPWA 140430Z 32006KT 9999 BKN009 16/15 Q1019 BECMG BKN016",
    "UHPP": "METAR UHPP 140430Z 32006MPS 9999 BKN045 BKN058 26/14 Q1008 R34L/CLRD62 NOSIG RMK MT OBSC QFE753/1004",
    "EFHK": "METAR EFHK 140420Z 01006KT 9999 FEW024 16/13 Q1020 NOSIG",
    "LBBG": "METAR LBBG 140430Z AUTO 29008KT 270V330 9999 NCD 20/15 Q1014 NOSIG",
    "LTAC": "METAR LTAC 140420Z 09004KT 050V150 9999 FEW040 SCT100 20/13 Q1013 NOSIG RMK RWY21C 05008KT RWY03L 02006KT 360V060 RWY21R 03007KT RWY03R 06003KT 020V090 RWY21L 14004KT 110V180",
    "UBBB": "METAR UBBB 140430Z 34014KT CAVOK 29/19 Q1007 NOSIG",
    "UTAA": "METAR UTAA 140500Z 32006KT 290V350 9999 NSC 37/10 Q1008 R88/CLRD70 NOSIG",
    "UACC": "METAR UACC 140430Z 10006MPS CAVOK 30/13 Q1008 NOSIG RMK QFE725/0967",
    "UAAA": "METAR UAAA 140430Z 30003MPS 240V330 9999 SCT050CB BKN100 29/13 Q1010 NOSIG",
    "UZTT": "METAR UZTT 140430Z 02006KT 360V060 CAVOK 35/12 Q1007 NOSIG",
    "ZWWW": "METAR ZWWW 140430Z 35003MPS 310V030 CAVOK 33/12 Q1007 NOSIG",
    "ZLXY": "METAR ZLXY 140500Z 15003MPS 100V220 CAVOK 36/25 Q1000 NOSIG",
    "ZBAA": "METAR ZBAA 140430Z 01003MPS 340V040 CAVOK 32/21 Q1000 NOSIG",
    "ZBHH": "METAR ZBHH 140500Z 21002MPS 160V240 9999 FEW040 27/13 Q1007 NOSIG",
    "ZSQD": "METAR ZSQD 140500Z 31007MPS 9999 BKN014 BKN023 29/26 Q0998 BECMG TL0600 BKN015",
    "ZMCK": "METAR ZMCK 140430Z 29007MPS 260V320 9999 FEW030CB SCT033 20/10 Q1010 NOSIG RMK QFE643.1 54 MOP",
    "UUEE": "METAR UUEE 140430Z 35004G09MPS 300V020 9999 BKN006 18/16 Q1010 R24L/CLRD62 R24C/CLRD62 NOSIG",
    "UUDD": "SPECI UUDD 140420Z 34004MPS 1800 BR OVC002 17/17 Q1009 R13R/CLRD65 NOSIG RMK QBB060",
    "ULLI": "METAR ULLI 140430Z 03004MPS 350V070 9999 BKN022 18/13 Q1017 R88/090065 NOSIG",
    "USSS": "METAR USSS 140430Z 11003MPS 9999 OVC013CB 18/17 Q1012 R08L/CLRD60 R08R/CLRD60 NOSIG RMK QFE739/0986",
    "UNNT": "METAR UNNT 140430Z 01004MPS 9999 BKN021 19/14 Q1009 R25/CLRD// R16/CLRD// NOSIG RMK QFE747/0996",
    "UNKL": "METAR UNKL 140430Z 29001MPS CAVOK 19/14 Q1006 R29/CLRD// NOSIG RMK QFE729",
    "UIBB": "METAR UIBB 140430Z 29003MPS 9999 NSC 22/09 Q1006 R30/CLRD62 NOSIG RMK QFE712/0949",
    "UEEE": "METAR UEEE 140430Z 15005MPS 9999 SCT050CB 30/19 Q0992 R23/09//65 NOSIG RMK QFE735",
    "UHHH": "METAR UHHH 140430Z 25007MPS 9999 FEW043CB 29/18 Q1000 R88/090060 NOSIG RMK QFE743/0991",
    "UHSS": "METAR UHSS 140430Z 21005MPS 9999 BKN016 24/20 Q1002 R19/CLRD70 NOSIG RMK MT OBSC QFE750/1000"
  },
  "taf": {
    "RJAA": "TAF RJAA 140505Z 1406/1512 13008KT 9999 FEW030",
    "PANC": "TAF PANC 140540Z 1406/1512 16020G30KT P6SM VCSH FEW030 OVC050 FM140800 15015G32KT P6SM -RA SCT020 OVC040 FM141500 14028G35KT 6SM -RA BR SCT020 OVC030 FM142100 13020G28KT P6SM -SHRA SCT020 OVC040 FM150300 15012G22KT P6SM VCSH FEW030 BKN050",
    "PAFA": "TAF PAFA 140520Z 1406/1512 VRB04KT P6SM SCT080 BKN200 FM141200 13007KT P6SM VCSH BKN060 OVC100",
    "PAED": "TAF PAED 140500Z 1405/1511 33009KT 9999 FEW013 FEW050 OVC060 620802 540109 QNH3004INS BECMG 1406/1407 33009KT 9999 -SHRA SCT015 BKN030 OVC045 640604 QNH3003INS BECMG 1410/1411 17010G15KT 9000 -RA SCT010 BKN020 OVC040 640604 550109 QNH2986INS BECMG 1421/1422 36009KT 9999 NSW FEW060 BKN080 OVC120 WS013/14035KT 610802 QNH2976INS BECMG 1502/1503 32012KT 9999 -SHRA FEW035 SCT050 OVC070 640703 550357 QNH2976INS BECMG 1506/1507 02008KT 8000 -RA BKN010 OVC020 640604 540109 QNH2979INS TX17/1501Z TN10/1414Z",
    "KSEA": "TAF KSEA 140520Z 1406/1512 35007KT P6SM FEW250 FM140800 01004KT P6SM SKC FM141400 34006KT P6SM SKC FM141900 31007KT P6SM SKC FM150300 34006KT P6SM SKC",
    "ZSPD": "TAF ZSPD 140303Z 1406/1512 20004MPS 8000 SCT020 TX36/1406Z TX34/1506Z TN28/1421Z",
    "ZSSS": "TAF ZSSS 140303Z 1406/1512 21004MPS 8000 SCT020 TX37/1406Z TX35/1506Z TN29/1421Z",
    "RJFR": "TAF RJFR 140505Z 1406/1512 36010KT 9999 FEW030 BECMG 1408/1410 17006KT",
    "VHHH": "TAF VHHH 140500Z 1406/1512 17015KT 9999 FEW015 SCT025 TX29/1406Z TX30/1506Z TN26/1422Z TEMPO 1406/1412 18020G30KT 2500 SHRA FEW010CB SCT020 TEMPO 1418/1421 19020G30KT 2000 +SHRA FEW010CB SCT020 TEMPO 1421/1503 20020G30KT 1500 TSRA +SHRA FEW008CB SCT020 TEMPO 1503/1506 3000 SHRA FEW010CB SCT020",
    "RCTP": "TAF RCTP 140500Z 1406/1512 33009KT 9999 FEW010 BKN032 TEMPO 1407/1412 26009KT 4000 SHRA FEW010 BKN017 FEW020CB BECMG 1412/1413 12005KT TEMPO 1413/1418 19005KT TEMPO 1418/1424 19005KT BECMG 1500/1501 27005KT",
    "ZGSZ": "TAF ZGSZ 140313Z 1406/1512 16004MPS 8000 SCT040 TX31/1406Z TX31/1506Z TN27/1422Z TEMPO 1406/1408 2000 TSRA SCT011 FEW020CB BKN030 TEMPO 1408/1411 SHRA SCT011 FEW020CB TEMPO 1411/1414 SHRA SCT011 FEW020CB TEMPO 1422/1502 TSRA SCT011 FEW020CB BKN030",
    "WSSS": "TAF WSSS 140500Z 1406/1512 16009KT 9999 FEW015 SCT020",
    "WMKK": "TAF WMKK 140500Z 1406/1512 15007KT 9999 FEW018 PROB30 TEMPO 1406/1410 6000 -TSRA FEW017CB SCT018",
    "VTBS": "TAF VTBS 140500Z 1406/1512 21008KT 9999 FEW020 TEMPO 1406/1412 VRB15G25KT 4000 TSRA FEW018CB SCT030 BKN100 TEMPO 1508/1512 VRB15G25KT 4000 TSRA FEW018CB SCT030 BKN100",
    "VTBU": "TAF VTBU 140500Z 1406/1506 23010KT 9999 FEW020",
    "ROAH": "TAF ROAH 140505Z 1406/1512 19010KT 9999 FEW008 SCT015 TEMPO 1415/1500 FEW005 BKN008",
    "VVDN": "TAF VVDN 140500Z 1406/1506 01010KT 9999 FEW020 SCT060 TEMPO 1407/1410 TS SCT013 FEW015CB SCT060 PROB30 TEMPO 1410/1413 24015G25KT 4500 TSRA BKN013 FEW015CB BKN060 BECMG 1413/1414 21006KT",
    "RCKH": "TAF RCKH 140500Z 1406/1512 15009KT 6000 FEW010 BKN032 TEMPO 1406/1412 16015KT 3200 SHRA FEW010 BKN017 FEW020CB BECMG 1412/1413 14005KT TEMPO 1418/1424 20005KT 4000 SHRA FEW010 BKN017 FEW020CB TEMPO 1500/1506 21005KT 3500 SHRA FEW010 BKN017",
    "KLAX": "TAF KLAX 140536Z 1406/1512 25005KT P6SM SCT200 FM141000 VRB03KT P6SM OVC006 FM141700 26006KT P6SM SCT008 FM141900 26012KT P6SM SCT250 FM150300 26008KT P6SM SCT250 FM150500 24005KT P6SM BKN008 FM151000 VRB03KT P6SM OVC006",
    "KONT": "TAF KONT 140520Z 1406/1512 VRB04KT P6SM FEW150 FM142000 25012G20KT P6SM FEW200 FM150300 25007KT P6SM SKC FM150700 VRB04KT P6SM SKC",
    "KSFO": "TAF KSFO 140520Z 1406/1512 29010KT P6SM BKN200 FM141500 30005KT P6SM FEW010 BKN200 FM141900 31012KT P6SM BKN200 FM142100 31015G25KT P6SM BKN150 FM150400 29010KT P6SM FEW010 BKN150",
    "KOAK": "TAF KOAK 140520Z 1406/1512 29008KT P6SM BKN150 BKN200 FM141200 29004KT P6SM FEW010 BKN200 FM141800 26007KT P6SM BKN150 FM142100 29012KT P6SM BKN150 FM150400 28010KT P6SM FEW010 BKN150",
    "KMHR": "TAF KMHR 140520Z 1406/1506 VRB04KT P6SM SKC FM142100 24010G17KT P6SM SCT250",
    "KDFW": "TAF KDFW 140520Z 1406/1512 13004KT P6SM FEW020 FEW060 FM141800 12007KT P6SM VCSH SCT080 FM150000 18004KT P6SM SCT210",
    "KIAH": "TAF KIAH 140520Z 1406/1512 VRB03KT P6SM FEW008 SCT020 OVC150 TEMPO 1406/1410 BKN008 FM141000 VRB04KT P6SM VCTS SCT015 BKN020CB FM141200 16005KT 5SM SHRA VCTS SCT015 BKN020CB TEMPO 1412/1416 3SM TSRA OVC015CB FM141600 18007KT 6SM SHRA BR SCT020 BKN025 FM141900 15007KT P6SM SCT030 OVC100 FM150300 VRB03KT P6SM SCT030 BKN070",
    "KORD": "TAF KORD 140520Z 1406/1512 27006KT P6SM SKC FM141200 32005KT P6SM SKC FM141900 08006KT P6SM SKC FM150000 25005KT P6SM SKC",
    "KJFK": "TAF KJFK 140520Z 1406/1512 23013KT P6SM FEW250 FM141500 24013G20KT P6SM FEW250 FM141800 21018G25KT P6SM FEW250 FM150200 24014KT P6SM FEW250 FM150700 25011KT P6SM FEW250",
    "KRFD": "TAF KRFD 140520Z 1406/1506 26003KT P6SM SKC FM141200 32005KT P6SM SKC FM142000 27004KT P6SM SKC",
    "KIND": "TAF KIND 140529Z 1406/1512 04005KT P6SM FEW250 FM141600 09006KT P6SM FEW050",
    "KDTW": "TAF KDTW 140520Z 1406/1512 23005KT P6SM SCT250 FM141400 26008KT P6SM SCT250 FM142000 25010KT P6SM SKC FM150100 24006KT P6SM SKC",
    "KMSP": "TAF KMSP 140520Z 1406/1512 22008KT P6SM SKC",
    "CYEG": "TAF CYEG 140540Z 1406/1506 08007KT P6SM FEW100 FM140900 10005KT P6SM SKC FM142200 13012KT P6SM SCT060 FM150300 12014KT P6SM VCTS BKN060CB FM150500 16012KT P6SM FEW040 RMK NXT FCST BY 140900Z",
    "EHAM": "TAF EHAM 140432Z 1406/1512 04012KT CAVOK",
    "EBBR": "TAF EBBR 140507Z 1406/1512 03006KT CAVOK ",
    "EDDF": "TAF EDDF 140500Z 1406/1512 04012KT CAVOK TEMPO 1413/1419 04020G30KT TSRA BKN070CB PROB30 TEMPO 1414/1418 31025G45KT 2000 +TSRAGR",
    "EDFH": "TAF EDFH 140500Z 1406/1506 08008KT CAVOK PROB40 TEMPO 1412/1419 04020G30KT TSRA BKN060CB PROB30 TEMPO 1414/1419 31025G45KT 2000 +TSRAGR",
    "EDDL": "TAF EDDL 140500Z 1406/1512 VRB03KT CAVOK BECMG 1406/1408 04008KT BECMG 1410/1412 04013KT PROB30 TEMPO 1413/1417 04015G25KT BECMG 1419/1422 02005KT BECMG 1508/1510 04010KT",
    "EDDK": "TAF EDDK 140500Z 1406/1512 VRB03KT CAVOK BECMG 1407/1410 04008KT PROB30 TEMPO 1413/1416 03015G25KT BECMG 1420/1423 VRB03KT BECMG 1508/1511 04008KT",
    "EBLG": "TAF EBLG 140507Z 1406/1512 03007KT CAVOK",
    "LSZH": "TAF LSZH 140525Z 1406/1512 28003KT CAVOK TX32/1415Z TN20/1406Z TN18/1504Z PROB40 TEMPO 1406/1408 36013KT TSRA SCT050CB PROB40 TEMPO 1408/1410 SHRA FEW060TCU BECMG 1410/1413 9999 FEW070TCU TEMPO 1413/1417 21012KT PROB40 TEMPO 1413/1418 21015G25KT TSRA SCT060CB BECMG 1420/1422 CAVOK PROB30 TEMPO 1511/1512 21015G25KT TSRA FEW070CB",
    "LIMC": "TAF LIMC 140500Z 1406/1512 VRB05KT 9999 FEW060 BECMG 1412/1414 23010KT BECMG 1418/1420 VRB05KT",
    "LIRF": "TAF LIRF 140500Z 1406/1512 VRB05KT CAVOK BECMG 1409/1411 20010KT BECMG 1417/1419 14010KT",
    "EINN": "TAF EINN 140500Z 1406/1506 03007KT CAVOK BECMG 1407/1409 08010KT BECMG 1418/1420 04007KT",
    "EGLL": "TAF EGLL 140455Z 1406/1512 05010KT 9999 BKN016 TEMPO 1406/1408 BKN010 BECMG 1409/1412 CAVOK PROB30 TEMPO 1504/1506 BKN010",
    "EGSS": "TAF EGSS 140457Z 1406/1512 04012KT 9999 BKN010 TEMPO 1406/1407 8000 -DZ BKN004 BECMG 1407/1410 FEW025 PROB40 1502/1507 BKN007",
    "EPWA": "TAF EPWA 140530Z 1406/1506 36007KT 9999 BKN012 PROB40 1406/1407 BKN006 BECMG 1407/1409 SCT040",
    "UHPP": "TAF UHPP 140439Z 1406/1512 32005G12MPS 9999 BKN040CB TX25/1406Z TN15/1417Z",
    "EFHK": "TAF EFHK 140529Z 1406/1506 36009KT 9999 SCT020",
    "LBBG": "TAF LBBG 140500Z 1406/1506 35010KT 9999 SCT050 PROB30 TEMPO 1410/1415 5000 SHRA FEW030CB BKN050 BECMG 1413/1415 13010KT BECMG 1417/1419 VRB04KT",
    "LTAC": "TAF LTAC 140440Z 1406/1506 VRB02KT 9999 SCT040 SCT100 TEMPO 1409/1413 30012KT TEMPO 1413/1417 35012KT BECMG 1416/1418 CAVOK",
    "UBBB": "TAF UBBB 140500Z 1406/1506 35014KT CAVOK TX33/1410Z TN25/1501Z TEMPO 1408/1416 05010KT BECMG 1416/1418 33010KT SCT015 BECMG 1420/1422 34020G30KT SCT012 FEW030CB TEMPO 1422/1506 33026G36KT",
    "UTAA": "TAF UTAA 140445Z 1406/1506 03016KT 6000 SCT050 TX41/1410Z TEMPO 1410/1416 33016G26KT 3000 BLDU BECMG 1416/1418 23012KT TEMPO 1420/1503 20014KT",
    "UACC": "TAF UACC 140500Z 1406/1506 17005MPS 9999 SCT040 BKN100 TX38/1409Z TN22/1423Z TEMPO 1406/1418 -TSRA BKN030CB BECMG 1418/1420 14005MPS TEMPO 1418/1504 18005MPS -TSRA BKN030CB BECMG 1504/1506 24005MPS SCT040CB",
    "UAAA": "TAF UAAA 140502Z 1406/1506 34003MPS 9999 SCT050CB BKN100 TX33/1410Z TN20/1501Z TEMPO 1406/1415 04005G10MPS BECMG 1415/1417 14003MPS TEMPO 1415/1424 20005MPS BECMG 1502/1503 01005MPS SCT100",
    "UZTT": "TAF UZTT 140500Z 1406/1506 22010KT 7000 NSC TX40/1411Z TN26/1500Z TEMPO 1406/1418 32015KT",
    "ZWWW": "TAF ZWWW 140304Z 1406/1512 36004MPS CAVOK TX38/1409Z TX35/1509Z TN28/1423Z BECMG 1410/1411 20004MPS BECMG 1500/1501 36004MPS",
    "ZLXY": "TAF ZLXY 140312Z 1406/1506 06004MPS 5000 BR NSC TX36/1407Z TN25/1421Z BECMG 1411/1412 26010G15MPS TSRA FEW040CB OVC060 BECMG 1414/1415 26004MPS -SHRA TEMPO 1415/1418 SHRA BECMG 1418/1419 BR NSC",
    "ZBAA": "TAF ZBAA 140300Z 1406/1512 17004MPS CAVOK TX34/1406Z TX36/1506Z TN23/1421Z",
    "ZBHH": "TAF ZBHH 140302Z 1406/1506 24004MPS 9999 FEW040 TX29/1408Z TN14/1422Z TEMPO 1409/1411 VRB08G13MPS -TSRA FEW040CB FEW040",
    "ZSQD": "TAF ZSQD 140301Z 1406/1506 32006G13MPS 3500 BR BKN015 TX32/1406Z TN22/1420Z BECMG 1414/1415 26003MPS BECMG 1420/1421 1600 BECMG 1422/1423 3500",
    "ZMCK": "TAF ZMCK 140445Z 1406/1512 29007MPS 9999 FEW030CB SCT033 TX23/1407Z TN08/1421Z BECMG 1410/1412 VRB02MPS BECMG 1503/1505 28005MPS BECMG 1510/1512 VRB02MPS",
    "UUEE": "TAF UUEE 140451Z 1406/1506 36005MPS 9999 BKN011 TX24/1412Z TN17/1503Z TEMPO 1410/1418 33009G16MPS PROB40 TEMPO 1410/1418 -TSRA BKN016CB",
    "UUDD": "TAF UUDD 140454Z 1406/1512 33005MPS 6000 OVC005 TX24/1412Z TN16/1501Z TEMPO 1406/1408 OVC003 BECMG 1408/1410 BKN016 TEMPO 1410/1417 34008G13MPS PROB40 TEMPO 1410/1417 -TSRA BKN020CB",
    "ULLI": "TAF ULLI 140453Z 1406/1506 03005G10MPS 9999 BKN016 BECMG 1413/1414 34005MPS BECMG 1418/1419 28003MPS",
    "USSS": "TAF USSS 140453Z 1406/1506 12003G13MPS 9999 -SHRA BKN016CB TEMPO 1406/1506 VRB20MPS -TSRA SQ",
    "UNNT": "TAF UNNT 140500Z 1406/1506 35003G08MPS 9999 SCT020 TX25/1409Z TN13/1422Z",
    "UNKL": "TAF UNKL 140451Z 1406/1506 26003G08MPS 8000 SCT040 TEMPO 1406/1415 29008G16MPS -TSRA BKN016CB",
    "UIBB": "TAF UIBB 140500Z 1406/1506 20003G08MPS 9999 SCT050CB TEMPO 1406/1412 VRB08MPS BECMG 1412/1415 30005MPS",
    "UEEE": "TAF UEEE 140500Z 1406/1512 13005G10MPS 9999 SCT030CB BKN100 TX31/1406Z TN18/1418Z TEMPO 1406/1415 VRB18MPS 3200 -TSRA SQ SCT010 BKN030CB OVC100",
    "UHHH": "TAF UHHH 140450Z 1406/1512 24006G11MPS 9999 SCT030CB TX31/1406Z TN22/1420Z BECMG 1410/1412 18003MPS FM141600 10003MPS 5000 -SHRA FEW005 BKN016CB TEMPO 1416/1503 1400 SHRA BKN003 BKN016CB BECMG 1422/1424 01005MPS",
    "UHSS": "TAF UHSS 140449Z 1406/1512 19003MPS 9999 BKN025 BECMG 1410/1412 3000 BR BKN004 TEMPO 1412/1422 0600 FG BKN002 BECMG 1422/1424 9999 NSW BKN016CB"
  },
  "atis": {
    "RJAA": "[Arrival ATIS] RJAA ARR ATIS A 2017Z M2000 (APCH)NIL USING RWY NIL TWY A1 CLSD. RWY 16R/34L AND 16L/34R CLSD TIL 2030. USING RWY WILL BE 34L/34R FM 2030. M 212000Z AUTO 30002KT 9999 SCT017// 20/18 Q1000/A2953= Q/TWO NINE FIVE THREE STP\n[Departure ATIS] RJAA DEP ATIS W 1207Z M1200 (APCH)ILS Z RWY34R LDG RWY 34R DEP RWY 34L DEP FREQ 124.2. TWY A1 CLSD. OBSERVE GEAR DOWN OPS PROC ON FNL. M 211200Z 03004KT 360V060 25KM FEW012CU BKN/// 21/19 Q0999/A2952= Q/TWO NINE FIVE TWO STP",
    "PANC": "[Arrival ATIS] PANC ARR ATIS Y 2012Z ANC ATIS INFO Y 2012Z SPECIAL. 29005KT 10SM SCT021 SCT110 14/09 A3017 (THREE ZERO ONE SEVEN). 7R APPROACHES IN USE. LANDING RWY 7R, DEPARTING RWY 33. NOTICE TO AIRMEN. RWY 7L CLSD. CHECK NOTAMS FOR TAXIWAY CLOSURES. CAUTION FOR BIRD ACTIVITY IN THE ARPT AREA. CONTACT TOWER 118.3 FOR TAXI. ...ADVS YOU HAVE INFO Y.\n[Departure ATIS] PANC DEP ATIS I 0353Z ANC ATIS INFO I 0353Z. 14016G33KT 10SM OVC055 14/08 A3007 (THREE ZERO ZERO SEVEN). ILS RWY 15 APPROACHES IN USE. LANDING RWY 15, DEPARTING RWY 25L. NOTICE TO AIRMEN. TWY Q",
    "KSEA": "[Arrival ATIS] KSEA ARR ATIS L 0453Z SEA ATIS INFO L 0453Z. 33008KT 10SM SCT220 20/02 A3004 (THREE ZERO ZERO FOUR). ILS AND CHARTED VISUAL APPROACH RWYS 34L AND 34R , APCH IN USE. DEPG RWY 34R, DEPG ACFT PLAN AND BRIEF NUMBERS FOR BOTH RWYS 34R AND 34C. SIMUL ARRIVALS TO RWY 34L AND DEPARTURES TO RWY 34R ARE IN USE. SIMUL APCHS IN USE TO PARA RYS. NOTAMS... BIRD ACTIVITY VICINITY ARPT. APCH AND DEP PATHS ARE OVER NOISE SENSITIVE AREAS. ...ADVS YOU HAVE INFO L.\n[Departure ATIS] KSEA DEP ATIS M 0553Z SEA ATIS INFO M 0553Z. 33007KT 10SM FEW220 18/07 A3006 (THREE ZERO ZERO SIX). ILS AND CHARTED VISUAL APPROACH RWYS 34L AND 34R , APCH IN USE. DEPG RWY 34R, DEPG ACFT PLAN AND BRIEF NUMBERS FOR BOTH RWYS 34R AND 34C. SIMUL ARRIVALS TO RWY 34L AND DEPARTURES TO RWY 34R ARE IN USE. SIMUL APCHS IN USE TO PARA RYS. NOTAMS... BIRD ACTIVITY VICINITY ARPT. APCH AND DEP PATHS ARE OVER NOISE SENSITIVE AREAS. ...ADVS YOU HAVE INFO M.",
    "ZSPD": "[Arrival ATIS] ZSPD ARR ATIS U 2022Z EXP ILS APCH LDG RWY 16L RWY 16R IS CLSD RWY 17R IS CLSD WIND RWY 16L TDZ 130/7MPS MID 120/8MPS END 120/7MPS VIS RWY 16L TDZ 10000M MID 10000M END 10000M CLD BKN 360M /OVC 990M T 23 /DP 23 QNH 1006 HPA CAUTION THE BIRDS NEAR THE RUNWAY RWY 35R/35L/34R/34L RWYCC 5/5/5 ISSUED AT 2000 WET/WET/WET DPT NR/NR/NR COV 100PCT/100PCT/100PCT ADZ YOU HAVE INFO U.\n[Departure ATIS] ZSPD DEP ATIS T 2000Z DEP RWY 17L RWY 16R IS CLSD RWY 17R IS CLSD WIND RWY 17L TDZ 120/7MPS MID 120/7MPS END 120/6MPS VIS RWY 17L TDZ 8000M MID 10000M END 10000M CLD BKN 360M /OVC 990M T 23 /DP 23 QNH 1006 HPA DELIVERY FREQ 118.8 CAUTION THE BIRDS NEAR THE RUNWAY RWY 17L/17R/16L/16R RWYCC 5/5/5 ISSUED AT 1245 WET/WET/WET DPT NR/NR/NR COV 100PCT/100PCT/100PCT. ADZ YOU HAVE INFO T.",
    "ZSSS": "[Arrival ATIS] ZSSS ARR ATIS R 1300Z EXP ILS APCH LDG RWY 18L WIND RWY 18L TDZ 130/4MPS MID 100/4MPS END 140/4MPS VIS RWY 18L TDZ 9000M MID 8000M END 10000M FBL SHRA CLD BKN 330M /FEW CB 900M T 25 /DP 23 QNH 1009 HPA QNH OF SHANGHAI TERMINAL CONTROL AREA 1009 HPA ADZ YOU HAVE INFO R.\n[Departure ATIS] ZSSS DEP ATIS N 1100Z DEP RWY 18R WIND RWY 18R TDZ 120/3MPS MID 140/4MPS VRB BTN 110/ AND 170/ END 150/3MPS VIS RWY 18R TDZ 8000M MID 8000M END 7000M CLD FEW 450M T 26 /DP 23 QNH 1008 HPA QNH OF SHANGHAI TERMINAL CONTROL AREA 1009 HPA ADZ YOU HAVE INFO N.",
    "VHHH": "[Arrival ATIS] VHHH ARR ATIS K 2006Z ARRIVALS, RWY 25C. EXP ILS APCH, RWY 25C. RWY 25L IS CLSD FOR MAINT. RWY 25R NON OPERATIONAL. WIND 220/07KT. VIS 10KM. CLD FEW 1200FT SCT 2500FT. T29 DP25. QNH 1008HPA. ACK INFO K ON FIRST CTC WITH APP.\n[Departure ATIS] VHHH DEP ATIS Y 0044Z DEPARTURES, RWY 07C/R. RWY 07 RUNWAY CONDITION REPORT AT 0005Z. RWY 07C RUNWAY CONDITION CODES 5 , 5 , 5 . RWY 07R RUNWAY CONDITION CODES 5 , 5 , 5 . RWY SFC ALL PARTS WET. EXP RWY 07R AFTER 0130Z. INDEPENDENT PARALLEL DEPARTURE IN PROGRESS. NO DEVIATION BELOW 4300FT DUE TERRAIN. WIND RWY 07C 090/07KT RWY 07R 050/10KT. VIS RWY 07C 10KM RWY 07R 10KM. CLD FEW 600FT SCT 2500FT. T28 DP26. QNH 1002HPA. RERA. TREND TEMPO VIS 3500M MOD SHRA. ACK INFO Y ON FIRST CTC WITH DELIVERY .",
    "RCTP": "[Arrival ATIS] RCTP ARR ATIS B 2000Z EXP ILS APCH RWY23R ARR/DEP. RWY23L CLSD BTN 1700Z AND 2230Z FOR INSPECTION. WIND 240/08KT VIS 10 KM OR MORE CLD FEW 1500FT T 27 DP 25 QNH 1007HPA NOSIG DUE TO FLOW CONTROL BY FUKUOKA F-I-R, TRAFFIC CONCERNED MAY BE DELAYED. INFORM TAIPEI APCH OR TAIPEI TOWER ON INITIAL CONTACT YOU HAVE INFORMATION B\n[Departure ATIS] RCTP DEP ATIS V 1730Z EXP ILS APCH RWY05L ARR/DEP. RWY05R CLSD BTN 1700Z AND 2230Z FOR INSPECTION. WIND 220/01KT VIS 10 KM OR MORE CLD FEW 2000FT T 27 DP 25 QNH 1007HPA NOSIG INFORM TAIPEI APCH OR TAIPEI TOWER ON INITIAL CONTACT YOU HAVE INFORMATION V",
    "ZGSZ": "[Arrival ATIS] ZGSZ ARR ATIS Y 2000Z EXP ILS OR VIS APCH LDG RWY 15 WIND 180/5MPS VIS 9999M CLD SCT 690M T 28 /DP 27 QNH 1008 HPA SINGLE RUNWAY OPERATION MISSED APPROACH ALTITUDE SETTING 1200METERS WHEN AIRBORNE CONTACT ZHUHAI APPROACH EXPECTED RNP ILS DME Z APPROACH ADZ YOU HAVE INFO Y.\n[Departure ATIS] ZGSZ DEP ATIS S 1723Z DEP RWY 15 WIND 170/5MPS VIS 9999M CLD SCT 450M T 28 /DP 27 QNH 1009 HPA DELIVERY FREQ 121.65 SINGLE RUNWAY OPERATION MISSED APPROACH ALTITUDE SETTING 1200METERS WHEN AIRBORNE CONTACT ZHUHAI APPROACH EXPECTED RNP ILS DME Z APPROACH ADZ YOU HAVE INFO S.",
    "WSSS": "[Arrival ATIS] WSSS ARR ATIS F 2000Z METREPORT 2000Z ILS APCHRWY 02C RWY 02L 20R CLSD. RSCD RWY02C 1915Z RWYCC:6.6.5. THIRD PART 100% WET. TWY W 9 CLOSED, RWY 02C 20C RAPID EXIT TAXIWAY INDICATOR LIGHTS OFFFOLLOW THE GREENS TRIAL IN PROGRESS. WHEN VACATING THE RWY, PILOTS TO ADHERE TO ATC VERBAL INSTRUCTIONS. WHEN ON TWY, PILOT TO ADHERE TO FOLLOW THE GREENS INSTRUCTIONS. WHEN APPROACHING [A] JUNCTION, KEEP [A] LOOKOUT FOR CONTINUOUS GREENS. [IF] [A] BREAK IN THE GREENS IS OBSERVED, STOP AND CLARIFY WITH ATC. WIND 300/ 06KT VRB BTN270 AND350 VIS 10KM CLD FEW 1800FT T27 DP24 QNH 1011HPA NOSIG ACK ATIS F\n[Departure ATIS] WSSS DEP ATIS H 2000Z METREPORT 2000Z RWY 02C RWY 02L 20R CLSD. RSCD RWY02C 1915Z RWYCC:6.6.5. THIRD PART 100% WET. TWY W 9 CLOSED, RWY 02C 20C RAPID EXIT TAXIWAY INDICATOR LIGHTS OFFFOLLOW THE GREENS TRIAL IN PROGRESS. WHEN VACATING THE RWY, PILOTS TO ADHERE TO ATC VERBAL INSTRUCTIONS. WHEN ON TWY, PILOT TO ADHERE TO FOLLOW THE GREENS INSTRUCTIONS. WHEN APPROACHING [A] JUNCTION, KEEP [A] LOOKOUT FOR CONTINUOUS GREENS. [IF] [A] BREAK IN THE GREENS IS OBSERVED, STOP AND CLARIFY WITH ATC. WIND 300/ 06KT VRB BTN220 AND010 VIS 10KM CLD FEW 1800FT T27 DP24 QNH 1011HPA NOSIG DEP,INITIAL CMB 3000FT ACK ATIS H",
    "WMKK": "[Arrival ATIS] WMKK ARR ATIS J 2004Z WMKK ARR INFO J. TIME 2000. INDEPENDENT PARALLEL APPROACHES FOR RWY 14 R AND 15 ARE IN PROGRESS. EXP RNAV / ILS APCH FOR RWY 14 RIGHT. EXP RNAV / ILS APCH FOR RWY 15. WIND RWY 14R DIRECTION NOT AVBL SPEED NOT AVBL. WIND RWY 15 DIRECTION NOT AVBL SPEED NOT AVBL. VIS RWY 14R TDZ NOT AVBL. VIS RWY 15 TDZ NOT AVBL. CLD FEW 1000 FT, CLD FEW CB 1700 FT. T 27. DP 25. QNH 1010. NOSIG. AT FIRST CONTACT WITH LUMPUR RADAR, NOTIFY RCPT OF J\n[Departure ATIS] WMKK DEP ATIS O 1507Z WMKK DEP INFO O. TIME 1500. SINGLE RWY OPS IN PROGRESS. RWY 14 RIGHT. WIND RWY 14R DIRECTION NOT AVBL SPEED NOT AVBL. VIS RWY 14R TDZ NOT AVBL. CLD SCT 3000 FT. T 29. DP 25. QNH 1011. TREND TEMPO VIS 7 KM, FBL RA. ALL DEP ACFT TO CONTACT LUMPUR DEP AT 135 DECIMAL 25 MHZ WHEN ABN. AT FIRST CONTACT WITH LUMPUR GROUND, NOTIFY RCPT OF O",
    "VTBS": "[Arrival ATIS] VTBS ARR ATIS B 2000Z VTBS ARR ATIS B 2000Z EXP ILS Z APCH ARR RWY 20L RWY 19 CLSD DUE TO WIP ,RETIL RWY 20L U/S , 2000Z WIND CALM VIS 10KM CLD FEW 2000FT T27 DP24 QNH 1009HPA TREND NOSIG ADZ BKK APCH ON INITIAL CONTACT THAT YOU HAVE INFO B\n[Departure ATIS] VTBS DEP ATIS H 1930Z VTBS DEP ATIS H 1931Z DEP RWY 02R RWY 01 CLSD DUE TO WIP , ,AFT AIRBORNE ALL DEPARTING ACFT SHALL CTC 119.25 1930Z WIND VRB BTN 030/ AND 140/2KT VIS 10KM CLD FEW 2000FT T28 DP25 QNH 1010HPA TREND NOSIG ADZ GND WHEN INITIAL CONTACT YOU HAVE INFO H",
    "VTBU": "[Arrival ATIS] VTBU ARR ATIS U 0430Z VTBU ARR ATIS U 0430Z RNP RWY 18 TRL FL130 MOBILE ACFT ARST SYSTEM INSTL ATP SIX HUNDRED AND TEN METERS FM THR RWY 36 CABLE HGT 3 INCHES. 0430Z WIND 360/6KT VRB BTN 320/ AND 020/ VIS 10KM CLD FEW 2000FT T34 DP27 QNH 1010HPA TREND NOSIG ADZ CONTROLLER WHEN INITIAL CONTACT YOU HAVE INFO U\n[Departure ATIS] VTBU DEP ATIS D VTBU ARR/DEP DATIS RPT VTBU ARR ATIS D 0330Z ILS \"Z\" APCH RWY 18 TRL FL130 0330Z WIND 110/4KT VRB BTN 350/ AND 120/ VIS 6KM CLD FEW 2000FT T31 DP27 QNH 1014HPA TREND NOSIG ADZ CONTROLLER WHEN INITIAL CONTACT YOU HAVE INFO D",
    "ROAH": "[Arrival ATIS] ROAH ARR ATIS B 1824Z M1800 (APCH)RNP RWY18L USING RWY 18L DEP FREQ 126.5 258.3 RWY 18R/36L CLSD M 211800Z AUTO 00000KT 9999 NCD 26/25 Q1008/A2979= Q/TWO NINE SEVEN NINE STP\n[Departure ATIS] ROAH DEP ATIS I 0557Z M0530 (APCH)ILS RWY18R LDG RWY 18R DEP RWY 18L DEP FREQ 126.5 258.3 M 120530Z 17022KT 15KM FEW010CU SCT012CU BKN/// 29/26 Q1009/A2980= Q/TWO NINE EIGHT ZERO STP",
    "VVDN": "[Arrival ATIS] VVDN ARR ATIS T 1932Z VVDN INFO T 1932Z. ILS VICTOR APPROACH 35L.. DPTG RWY 35R.. 1932Z. WIND 220/05KT CAVOK T27 DP25 QNH 1008HPA TREND NOSIG. ADZ ON INITIAL CTC YOU HAVE INFO. T.\n[Departure ATIS] VVDN DEP ATIS N 0423Z VVDN INFO N 0423Z. ILS VICTOR APPROACH 35L.. DPTG RWY 35R.. 0423Z. WIND 010/02KT CAVOK T36 DP24 QNH 1008HPA TREND NOSIG. WS ALL RWY. ADZ ON INITIAL CTC YOU HAVE INFO. N.",
    "RCKH": "[Arrival ATIS] RCKH ARR ATIS K 1300Z EXPECT ILS APPROACH RWY 09 ARR/DEP RWY SFC RWY 09 SFC COND 5/5/5 ISSUED AT 1200Z. 100/100/100 NR/NR/NR WET/WET/DRY TAXIWAY JULIETT, TAXIWAY BRAVO, TAXIWAY DELTA AND TAX\n[Departure ATIS] RCKH DEP ATIS V 0752Z EXPECT ILS APPROACH RWY 09 ARR/DEP TAXIWAY JULIETT, TAXIWAY BRAVO, TAXIWAY DELTA AND TAXIWAY ECHO CLOSED DUE MAINTENANCE. RUNWAY 0 9 ARRIVALS PLAN VACATE VIA CHARLIE OR FO",
    "KLAX": "[Arrival ATIS] KLAX ARR ATIS F 1953Z LAX ATIS INFO F 1953Z. 23013G26KT 10SM FEW019 SCT024 21/13 A2993 (TWO NINER NINER THREE) RMK AO2 PK WND 22026/1947 SLP133 T02110133. INST APCHS AND RNAV RNP APCHS RY 24R AND 25L, OR VCTR FOR VISUAL APCH WILL BE PROVIDED, SIMUL VISUAL APCHS TO ALL RWYS ARE IN PROG, SIMUL INSTR DEPARTURES IN PROG RWYS 24 AND 25. CTC L A GC ON 121.75 FOR PUSH OR TAXI ON A. TWY C CLSD BTN TWY, C8 AND TWY C9 , , TWY B CLSD BTN TWY, F AND TWY B1, TWY B1 CLSD. ILS RY 25R OTS, RY 25R SFL OTS, RY 24L ALSF-2 OTS. LAX VOR UNMONITORED. IF ASSIGNED RUNWAY 25R FOR DEPARTURE, EXPECT DEPARTURE FROM INTERSECTION FOXTROT. TAXILANE CHARLIE EIGHT RESTRICTED TO AIRCRAFT WITH A WINGSPAN LESS THAN ONE HUNDRED EIGHTEEN FEET. USE CAUTION FOR INCREASED DRONE ACTIVIY IN THE VICINITY OF SOFI STADIUM AT OR BELOW 200FT AGL DURING THE WORLD CUP FROM 06/12/26 THROUGH 07/10/2026. HAZD WX INFO FOR LAX AREA AVBL FM FSS. BIRD ACTIVITY VICINITY ARPT. INCLUDE YOUR CALL SIGN IN ALL READBACKS. USE CAUTION WHEN EXITING RY24R AT TWY V, W, AND Y, TO HOLD SHORT OF RY24L. MULTIPLE RUNWAY INCURSIONS HAVE OCCURRED. ...ADVS YOU HAVE INFO F.\n[Departure ATIS] KLAX DEP ATIS D 1853Z LAX ATIS INFO D 1853Z. 25011KT 10SM FEW018 BKN024 21/13 A2994 (TWO NINER NINER FOUR) RMK AO2 SLP135 T02060133. INST APCHS AND RNAV RNP APCHS RY 24R AND 25L, OR VCTR FOR VISUAL APCH WILL BE PROVIDED, SIMUL VISUAL APCHS TO ALL RWYS ARE IN PROG, SIMUL INSTR DEPARTURES IN PROG RWYS 24 AND 25. CTC L A GC ON 121.75 FOR PUSH OR TAXI ON A. TWY C CLSD BTN TWY, C8 AND TWY C9 , , TWY B CLSD BTN TWY, F AND TWY B1, TWY B1 CLSD. ILS RY 25R OTS, RY 25R SFL OTS, RY 24L ALSF-2 OTS. LAX VOR UNMONITORED. IF ASSIGNED RUNWAY 25R FOR DEPARTURE, EXPECT DEPARTURE FROM INTERSECTION FOXTROT. TAXILANE CHARLIE EIGHT RESTRICTED TO AIRCRAFT WITH A WINGSPAN LESS THAN ONE HUNDRED EIGHTEEN FEET. USE CAUTION FOR INCREASED DRONE ACTIVIY IN THE VICINITY OF SOFI STADIUM AT OR BELOW 200FT AGL DURING THE WORLD CUP FROM 06/12/26 THROUGH 07/10/2026. HAZD WX INFO FOR LAX AREA AVBL FM FSS. BIRD ACTIVITY VICINITY ARPT. INCLUDE YOUR CALL SIGN IN ALL READBACKS. USE CAUTION WHEN EXITING RY24R AT TWY V, W, AND Y, TO HOLD SHORT OF RY24L. MULTIPLE RUNWAY INCURSIONS HAVE OCCURRED. ...ADVS YOU HAVE INFO D.",
    "KONT": "[Arrival ATIS] KONT ARR ATIS R 1953Z ONT ATIS INFO R 1953Z. 22009G17KT 10SM CLR 25/12 A2990 (TWO NINER NINER ZERO). ILS AND VIS APR IN USE, RY26L & RY26R. LNDG AND DEPG RY 26L AND RY 26R. NOTAMS... TAXIWAY SIERRA CLSD BETWEEN SIERRA 8 AND W TAXIWAY Q SOUTH OF RWY 26L CLSD TAXIWAY T CLSD TAXIWAY SIERRA 5 CLSD. RY 26L IM OTS. USE CAUTION FOR NUMEROUS BIRDS OBSERVED IN VICINITY OF ONT. HAZD WX INFO FOR SOUTHERN CA AVBL ON FSS FREQUENCIES. PILOTS READBACK RWY ASSIGNMENTS AND HOLD SHORT INSTRUCTIONS. ...ADVS YOU HAVE INFO R.\n[Departure ATIS] KONT DEP ATIS N 0553Z - KONT ATIS INFO N 0553Z. 24004KT 10SM BKN250 22/15 A2988 (TWO NINER EIGHT EIGHT) RMK AO2 SLP100. ILS AND VIS APR IN USE, RY26L & RY26R. LNDG AND DEPG RY 26L AND RY 26R. NOTAMS... TAXIWAY SIERRA CLSD BETWEEN SIERRA 8 AND W TAXIWAY Q SOUTH OF RWY 26L CLSD TAXIWAY T CLSD TAXIWAY SIERRA 5 CLSD. RY 26L IM OTS, RY 26R ALS OTS. USE CAUTION FOR NUMEROUS BIRDS OBSERVED IN VICINITY OF ONT. HAZD WX INFO FOR SOUTHERN CA AVBL ON FSS FREQUENCIES. PILOTS READBACK RWY ASSIGNMENTS AND HOLD SHORT INSTRUCTIONS. ...ADVS YOU HAVE INFO N.",
    "KSFO": "[Arrival ATIS] KSFO ARR ATIS W 1729Z - KSFO ATIS INFO W 1729Z SPECIAL. 27014G20KT 10SM FEW005 BKN014 15/11 A2993 (TWO NINER NINER THREE). SIMUL CLSLY SPCD DPNDNT ILS RY 28R AND ILS RY 28L APP IN USE. DEPG RWYS 28L, 28R. DEPG ACFT SHOULD BE PREPARED FOR A SHORT NOTICE RY CHANGE. RY 1L, 1R CLSD. NUMEROUS TWY CLOSURES FOR CONSTRUCTION ON THE FIELD, PILOTS CHECK NOTAMS. DEPG ACFT WAITING ON FINAL NUMBERS ADVISE GROUND PRIOR TO ENTERING TWY F. ...ADVS YOU HAVE INFO W.\n[Departure ATIS] KSFO DEP ATIS T 1456Z SFO ATIS INFO T 1456Z. 00000KT 10SM SCT140 BKN200 18/13 A2991 (TWO NINER NINER ONE) RMK AO2 SLP128 T01780133 53008. SIMUL CLSLY SPCD DPNDNT ILS RY 28R AND ILS RY 28L APP IN USE. DEPG RWYS 28L, 28R. RY 1L, 1R CLSD. NUMEROUS TWY CLOSURES FOR CONSTRUCTION ON THE FIELD, PILOTS CHECK NOTAMS. DEPG ACFT WAITING ON FINAL NUMBERS ADVISE GROUND PRIOR TO ENTERING TWY F. ...ADVS YOU HAVE INFO T.",
    "KOAK": "[Arrival ATIS] KOAK ARR ATIS T 2053Z - KOAK ATIS INFO T 2053Z. 25015KT 10SM FEW008 20/13 A2994 (TWO NINER NINER FOUR). RNAV, AND VA, RWY 30. ILS, AND VA, RWY 28R. FLOW TO LAX, LAS, SAN, SEA. RWY 28L CLSD. TAXIWAYS GOLF, HOTEL, PAPA, JULIET BETWEEN RUNWAYS 28 RIGHT AND 28 LEFT CLOSED. ILS RWY 30, OTS, RWY 28R RAIL, OTS. UNN LIT CLOSE-IN OBSTACLES FOR RWY 30 DEPARTURES. RWY 30 DEPARTURES ARE ADVISED TO AVOID TURNING LEFT PRIOR TO DEPARTURE END OF RUNWAY. CTN, CRANE 1 POINT 6 NAUTICAL MILES, , AT 140 FEET AGL. CAUTION, BIRDS NEAR AIRPORT. ...ADVS YOU HAVE INFO T.\n[Departure ATIS] KOAK DEP ATIS O 1953Z OAK ATIS INFO O 1953Z. 28014KT 10SM FEW005 22/14 A2988 (TWO NINER EIGHT EIGHT). RNAV Z/VA RWY 30 ILS/VA RWY 28R. FLOW TO LAX, LAS, SAN. ILS RWY 30, OTS. UNN LIT CLOSE-IN OBSTACLES FOR RWY 30 DEPARTURES. RWY 30 DEPARTURES ARE ADVISED TO AVOID TURNING LEFT PRIOR TO DEPARTURE END OF RUNWAY. SIGNATURE UNI-COM OUT OF SERVICE. CAUTION, BIRDS NEAR AIRPORT. ...ADVS YOU HAVE INFO O.",
    "KDFW": "[Arrival ATIS] KDFW ARR ATIS N 0553Z DFW ARR INFO N 0553Z. 18004KT 10SM FEW021 SCT160 BKN200 26/22 A3008 (THREE ZERO ZERO EIGHT) RMK AO2 SLP176 T02560217 10294 20256 403220222 50003. ILS APCH TO RWYS, 18R, 17C AND ILS RWY 13R. LDG RWY 17C EXP LAHSO TWY B 10460 FT AVAIL, LDG RWY 18R EXP LAHSO TWY B 10100 FT AVL. NOTICE TO AIRMEN. RWY 13L CLSD. RWY 17L CLSD. WARNING, RWY 18L HAS BEEN SHORTENED, 9273 FT AVAILABLE. HAZD WX FOR DFW AVBL ON FSS. BIRD ACTIVITY VCNTY ARPT. ...ADVS YOU HAVE INFO N.\n[Departure ATIS] KDFW DEP ATIS W 1553Z - KDFW DEP INFO W 1553Z. 21022G32KT 10SM FEW025 FEW180 SCT250 31/21 A2994 (TWO NINER NINER FOUR) RMK AO2 PK WND 20032/1547 SLP128 T03110206. SIMUL PARL TRAFFIC DEPG RWYS 17R, 18L. NOTICE TO AIRMEN. WARNING, RWY 18L HAS BEEN SHORTENED, 9273 FT AVAILABLE. RWY 18L CL OTS. BIRD ACTIVITY VCNTY ARPT. ...ADVS YOU HAVE INFO W.",
    "KIAH": "[Arrival ATIS] KIAH ARR ATIS T 2353Z IAH ATIS INFO T 2353Z. 12007KT 7SM -RA FEW010 FEW038 BKN095 OVC150 25/24 A3007 (THREE ZERO ZERO SEVEN) RMK SLP181 P0003 60030 T02500244 10261 20244 58009. ARRIVALS EXPECT ILS OR RNAV Y RY 26R, ILS OR RNAV Y RY 26L, ILS OR RNAV Y RY 27. SIMUL APPROACHES IN USE. DEPG RY 15L, RY 15R. NOTICE TO AIRMEN. UNITED RAMP CONTROL IN EFFECT. CODED DEPARTURE ROUTES IN EFFECT. ALL RWY COND CODES, , 5 , , 5 , , 5 , AT 1652Z. HAZD WX INFO FOR IAH AREA AVBL FM FSS. WIND SHEAR ADZYS IN EFCT. BIRD ACTIVITY VICINITY ARPT. CRANES ARE DOWN. TWY SA CLSD BTN TWY, SF AND TWY SK , TWY SB CLSD BTN TWY, SF AND TWY SK , , TWY EA CLSD. NOTAM ATIS IN USE ON FREQUENCY 126.225. ...ADVS YOU HAVE INFO T.\n[Departure ATIS] KIAH DEP ATIS T 0353Z IAH ATIS INFO T 0353Z. 15007KT 10SM FEW035 FEW180 BKN250 27/23 A2996 (TWO NINER NINER SIX). ARRIVALS EXPECT ILS OR RNAV Y RY 8R, ILS OR RNAV Y RY 8L. DEPG RY 15R. NOTICE TO AIRMEN. UNITED RAMP CONTROL IN EFFECT. RY 15L, 33R CLSD. HAZD WX INFO FOR IAH AREA AVBL FM FSS. BIRD ACTIVITY VICINITY ARPT. CRANES ARE DOWN. TWY SA CLSD BTN TWY, SF AND TWY SK , TWY SB CLSD BTN TWY, SF AND TWY SK , , TWY WB CLSD BTN TWY, WG AND TWY WH . TWY EA CLSD. NOTAM ATIS IN USE ON FREQUENCY 126.225. ...ADVS YOU HAVE INFO T.",
    "KORD": "[Arrival ATIS] KORD ARR ATIS M 0351Z ORD ATIS INFO M 0351Z. 27006KT 10SM CLR 28/20 A3016 (THREE ZERO ONE SIX) RMK AO2 SLP208 T02780200. ARR EXP VECTORS ILS RWY 10C APCH. DEPS EXP RWYS 9C FROM F F 9200 FT AVL, 10L FROM DD. 10,093 FT AVBL. ATTN PILOTS. SIMUL PARL DEPS IN USE. EXP TO INITIALLY FLY RWY. HDG ON DEP. PILOTS MUST READ BACK DRCTN OF TURNS BY ATC. RWY 4L, 22R CLSD, RWY 4R, 22L CLSD, RWY 9L, 27R CLSD, RWY 10R, 28L CLSD. RWY 22R LOC OTS, RWY 28L GS OTS, RWY 9L IM OTS, RWY 9C IM OTS, RWY 10L IM OTS, RWY 10R IM OTS, RWY 27R IM OTS, RWY 28L IM OTS, RWY 28R IM OTS, RWY 9L PAPI OTS, RWY 27R PAPI OTS. PILOTS USE CTN FOR BIRD ACTIVITY IN THE VICINITY OF THE ARPT. USE CTN FOR PERSONNEL AND EQUIP AT NUMEROUS SITES ON THE FIELD. READBACK ALL RWY HOLD SHORT INSTRUCTIONS. WHEN READY TO TAXI CONTACT GND METERING ON FREQ 121.67. ...ADVS YOU HAVE INFO M.\n[Departure ATIS] KORD DEP ATIS E 2051Z ORD ATIS INFO E 2051Z. 32006KT 10SM CLR 33/18 A3016 (THREE ZERO ONE SIX) RMK AO2 SLP205 T03330183 58011. ARR EXP VECTORS ILS RWY 10C APCH, VISUAL APCH RWY 9L, VISUAL APCH RWY 10R. PILOTS EXP 2 INTCP THE ILS Y RY 10R FNA CRS. SIMUL APCHS IN USE. DEPS EXP RWYS 9C FROM F F 9200 FT AVL, 10L FROM DD. 10,093 FT AVBL. ATTN PILOTS. SIMUL PARL DEPS IN USE. EXP TO INITIALLY FLY RWY. HDG ON DEP. PILOTS MUST READ BACK DRCTN OF TURNS BY ATC. RWY 4L, 22R CLSD. RWY 22R LOC OTS, RWY 28L GS OTS, RWY 9L IM OTS, RWY 9C IM OTS, RWY 10L IM OTS, RWY 10R IM OTS, RWY 27R IM OTS, RWY 28L IM OTS, RWY 28R IM OTS, RWY 9L PAPI OTS, RWY 27R PAPI OTS. PILOTS USE CTN FOR BIRD ACTIVITY IN THE VICINITY OF THE ARPT. USE CTN FOR PERSONNEL AND EQUIP AT NUMEROUS SITES ON THE FIELD. READBACK ALL RWY HOLD SHORT INSTRUCTIONS. WHEN READY TO TAXI CONTACT GND METERING ON FREQ 121.67. ...ADVS YOU HAVE INFO E.",
    "KJFK": "[Arrival ATIS] KJFK ARR ATIS O 0551Z JFK ATIS INFO O 0551Z. 24011KT 10SM FEW250 22/17 A3013 (THREE ZERO ONE THREE). APPROACH IN USE RNAV GPS X RY 22L. DEPG RY 22R. RWY 13R, 31L CLSD. RY 4R PAPI OTS, RY 13L SFL OTS, RWY 22L/4R INNER MARKER OTS. NUM CRANES OPERATING AT JFK. BIRD ACTIVITY VICINITY ARPT. READBACK ALL RWY ASSIGNMENTS AND HOLD SHORT INSTRUCTIONS. ...ADVS YOU HAVE INFO O.\n[Departure ATIS] KJFK DEP ATIS J 0151Z - KJFK ATIS INFO J 0151Z. 21006KT 10SM FEW250 22/18 A3021 (THREE ZERO TWO ONE) RMK AO2 SLP229 T02220183. APPROACH IN USE ILS RY 22L, ILS RY 22R. DEPG RY 22R, ACFT FILED OVER RBV OR DIXIE EXPECT RY 31L KE FOR DEP. RY 4R PAPI OTS. NUM CRANES OPERATING AT JFK. BIRD ACTIVITY VICINITY ARPT. READBACK ALL RWY ASSIGNMENTS AND HOLD SHORT INSTRUCTIONS. ...ADVS YOU HAVE INFO J.",
    "KIND": "[Arrival ATIS] KIND ARR ATIS C 2354Z IND ATIS INFO C 2354Z. 05012KT 10SM FEW055 29/16 A3010 (THREE ZERO ONE ZERO). PARL ILS RWY 5R AND 5L APPROACHES IN USE. CROSS RUNWAY OPERATIONS MAY BE IN EFFECT. NOTICE TO AIRMEN. TWY, P BTN TWY, H AND TWY B CLSD, TWY, P BTN TWY, H AND TWY J CLSD, TWY, H BTN TWY, R AND TWY N CLSD. P PAD CLSD. ILS RUNWAY 5R AND RUNWAY 5L INNER MARKER UNSERVICEABLE. ARPT ADZY FLOCK OF MEDIUM BIRDS IN THE VICINITY OF THE AIRPORT, ALT UNKN. ...ADVS YOU HAVE INFO C.\n[Departure ATIS] KIND DEP ATIS H 1854Z IND ATIS INFO H 1854Z. 26009G19KT 10SM SCT036 BKN041 BKN170 23/16 A2981 (TWO NINER EIGHT ONE) RMK AO2 SLP088 T02280156. PARL ILS RWY 23R AND 23L APPROACHES IN USE. CROSS RU",
    "KDTW": "[Arrival ATIS] KDTW ARR ATIS H 0053Z DTW ARR INFO H 0053Z. 17009KT 10SM SCT250 28/21 A3013 (THREE ZERO ONE THREE) RMK AO2 SLP200 T02780206. SIMUL VISUAL RY 21L, RY 22R USE Z LOC FREQ 111.95 APCH IN USE. NOTICE TO AIRMEN. RWY 21R, 3L CLSD, RWY 27L, 9R CLSD, RWY 27R, 9L CLSD. TWYS Y1 CLSD ;. PILOTS USE CTN FOR BIRD ACTIVITY. DEPARTURE ATIS 118.125. ...ADVS YOU HAVE INFO H.\n[Departure ATIS] KDTW DEP ATIS Q 2253Z - KDTW DEP INFO Q 2253Z. 21009KT 10SM FEW050 FEW250 33/24 A2991 (TWO NINER NINER ONE). DEPG RWY 21R, RWY 22L ;. NOTICE TO AIRMEN. RWY 27L, 9R CLSD, RWY 27R, 9L CLSD. PILOTS USE CTN FOR BIRD ACTIVITY. ...ADVS YOU HAVE INFO Q.",
    "KMSP": "[Arrival ATIS] KMSP ARR ATIS A 0453Z MSP ARR INFO A 0453Z. 20005KT 10SM CLR 27/22 A3015 (THREE ZERO ONE FIVE). VISUAL RWY 30L APCH IN USE, VISUAL RWY 30R APCH IN USE. NOTICE TO AIRMEN. RWYS 4, 22 CLSD, RWYS 17, 35 CLSD. TWY R7. R8. R9. R10. CLOSED. TWY R BTWN R6 AND R10 CLSD, TWY M CLSD BETWEEN A AND B, USE CAUTION, NUMEROUS TAXIWAY CLOSURES, TWY A7 CLSD, TWY A CLSD BTN TWY, A7 AND TWY D, TWY B CLSD BTN TWY, A9 AND TWY M, TWY A CLSD BTN TWY, A9 AND TWY M. GS RWY 12L OTS, RWYS 12R, 12L, INNER MARKER OTS. CTN, BIRDS NEAR MSP. READ BACK HS AND ALT. ALL ACFT TAXI WITH TRANSPONDER AND ALTITUDE ENCODING ON. ...ADVS YOU HAVE INFO A.\n[Departure ATIS] KMSP DEP ATIS W 0053Z MSP DEP INFO W 0053Z. 21008KT 10SM CLR 32/20 A3014 (THREE ZERO ONE FOUR) RMK AO2 SLP199 T03170200. DEPARTING RWY 30L, RWY 30R, RWY 17. NOTICE TO AIRMEN. RWYS 4, 22 CLSD. TWY R7. R8. R9. R10. CLOSED. TWY R BTWN R6 AND R10 CLSD, TWY A7 CLSD, TWY A CLSD BTN TWY, A7 AND TWY D. ALL ACFT CTC METERING ON ONE THREE THREE POINT FIVE SEVEN WHEN READY TO PUSHBACK OR TAXI. CTN, BIRDS NEAR MSP. READ BACK HS AND ALT. ALL ACFT TAXI WITH TRANSPONDER AND ALTITUDE ENCODING ON. ...ADVS YOU HAVE INFO W.",
    "CYEG": "[Arrival ATIS] CYEG ARR ATIS T 0500Z CYEG ARR ATIS T 0500Z 09006KT 20SM FEW100 17/12 A3012 APCH RNAV Z OR Y RWY 02, INFORM ARRL OF REQ APCH ON INITIAL CTC. LDG AND DEP RWY 02. SIMUL APPROACHES MAY BE IN EFCT.\n[Departure ATIS] CYEG DEP ATIS S 0400Z CYEG ARR ATIS S 0400Z 06006KT 20SM FEW060TCU FEW100 19/12 A3010 APCH RNAV Z OR Y RWY 02, INFORM ARRL OF REQ APCH ON INITIAL CTC. LDG AND DEP RWY 02. SIMUL APPROACHES MAY BE IN EFCT. INFORM CYEG ATC INFO S",
    "EHAM": "[Arrival ATIS] EHAM ARR ATIS I 0550Z EHAM ARRIVAL INFO I. DEMAND. MAIN LANDING RWY 06. SECONDARY LANDING RWY 36 R. TRANSITION LEVEL 040. WIND 050 DEG, 12 KT. WIND SECONDARY RUNWAY 050 DEG, 6 KT, VRB BTN 020 AND 080 DEG, 13 KT MAX, 4 KT MNM. CAVOK. T 21. DP 17. QNH 1019 HPA. NOSIG. OPERATIONAL REPORT. CONVERGING APPROACHES IN PROGRESS. CONTACT APCH WITH CALLSIGN ONLY. END OF INFO I\n[Departure ATIS] EHAM DEP ATIS Y 1620Z EHAM DEPARTURE INFO Y. DEMAND. MAIN DEPARTURE RWY 36 L. MAIN LANDING RWY 06. WIND 040 DEG, 11 KT. CAVOK. T 24. DP 15. QNH 1019 HPA. OPERATIONAL REPORT. INFORM SCHIPHOL DEL BY VOICE IF UNABLE TO COMPLY WITH NADP 2. END OF INFO Y",
    "EBBR": "[Arrival ATIS] EBBR ARR ATIS F 0450Z EBBR NAT, EXP VECT FOR ILS APP ARR RWY01 RSCD AT 0326 RWY01 DRY. DEP RWY07R TRL 055 XNG RWY OPS INPR 340/4KT VRB BTN 290 AND 010 CAVOK T19 DP17 QNH 1017HPA NOSIG CFM ARR F\n[Departure ATIS] EBBR DEP ATIS X 0754Z EBBR NAT, DEP RWY25R RSCD AT 0531 RWY25R WET, RWYCC 555. ARR RWY25L TRL 055 TAIL REP AT 0745, ALT 1000FT, 120 DEG/08 KT 040/4KT VRB BTN 360 AND 060 CAVOK T23 DP20 QNH 1024HPA NOSIG CFM DEP X",
    "EDDF": "[Arrival ATIS] EDDF ARR ATIS P 1650Z ARR-ATIS EDDF P METAR 131650 EXPECT INDEPENDENT PARALLEL ILS Y APCH RWY 07L OR ILS APCH RWY 07R RWY 07L 07R GLS APCH ON REQUEST , TRL 60 06009KT 020V080 CAVOK T32 DP07 QNH1015 TREND NOSIG END OF ATIS P\n[Departure ATIS] EDDF DEP ATIS U 1836Z DEP-ATIS EDDF U SPECI 211836 RWY 07C 18 ACFT DEPARTING RWY18 : EXPECT POSSIBLE DEPARTURE FROM INTERSECTION M , TORA 3454 METERS. IF UNABLE , ADVISE TWR ON INITIAL CONTACT , ACFT DEPARTING RWY07C : EXPECT DEPARTURE FROM INTERSECTION L17 , TORA 3312 METERS. IF UNABLE , ADVISE APRON ON INITIAL CONTACT , TRL 60 02007KT RWY18 02006KT CAVOK T30 DP19 QNH1023 END OF ATIS U",
    "EDDL": "[Arrival ATIS] EDDL ARR ATIS D 1450Z -ATIS EDDL D METAR 131450 -EXPECT VECTORS ILS APPROACH -RWY 05R -TWY L2 , L4 AND L5 BTN TWY M AND RWY05R CLOSED VACATE RWY 05R VIA L3 OR L1 ATTENTION, RISK OF TWY INCURSION WHEN TAXIING TO RWY05R, CHECK HOT SPOTS T1 AND L9 ON TAXI CHART -TRL 60 - -02007KT 340V080 -CAVOK - - -T32 DP13 -QNH1017 - -TREND NOSIG\n[Departure ATIS] EDDL DEP ATIS R EDDL ARR/DEP DATIS RPT -ATIS EDDL R METAR 020550 -EXPECT VECTORS ILS APPROACH -RWY 23L -TWY L8 CLOSED BETWEEN TWY M AND RWY 23L -TRL 60 - -23010KT -CAVOK - - -T19 DP13 -QNH1020 - -TREND NOSIG",
    "EDDK": "[Arrival ATIS] EDDK ATIS M 0320Z -ATIS EDDK M METAR 140320 -EXPECT ILS APCH RWY 13L -RWY 13L 06 -RWY COND RWY 13L AT TIME 0015 RWYCC 6 DEPOSIT TOTAL RWY DRY RWY 06 AT TIME 0015 RWYCC 6 DEPOSIT TOTAL RWY DRY -TRL 60 -RWY 13R AND RWY 31L CLOSED FOR DEPARTURE AND LANDING: TAXIING BTN THR RWY 13R AND INTERSECTION RWY 24 POSSIBLE : -09006KT 050V130 -CAVOK - - -T21 DP14 -QNH1016 - -TREND NOSIG\n[Departure ATIS] EDDK DEP ATIS Q EDDK ARR/DEP DATIS RPT -ATIS EDDK Q METAR 291920 -EXPECT ILS APCH -RWY 31R 06 -RWY COND RWY 31R AT TIME 1830 RWYCC 6 DEPOSIT TOTAL RWY DRY RWY 06 AT TIME 1830 RWYCC 6 DEPOSIT TOTAL RWY DRY -TRL 60 -RWY 13R AND RWY 31L CLOSED FOR DEPARTURE AND LANDING: TAXIING BTN THR RWY 13R AND INTERSECTION RWY 24 POSSIBLE : -04003KT -CAVOK - - -T24 DP13 -QNH1024 - -TREND NOSIG",
    "EBLG": "[Arrival ATIS] EBLG ATIS F 1950Z EBLG INFO, EXP RNAV TO ILS APP ARR RWY04R DEP RWY04R RWY 04R DRY, RWYCC 666. TRL 055 TWY A4 DISPLACED 030/6KT CAVOK T26 DP20 QNH 1025HPA NOSIG CFM ATIS F",
    "LSZH": "[Arrival ATIS] LSZH ARR ATIS M 0550Z ARRIVALS, EXP RNP APCH, RWY 28. TRL 70. DEP RWY 32. WIND 330 DEG, 7 KT. VIS 10 KM OR MORE, TDZ 10 KM OR MORE. VCTS. NSC. T 20. DP 16. QNH 1017. TREND TEMPO WIND 330 DEG, 15 KT, TS.\n[Departure ATIS] LSZH DEP ATIS Q 1650Z DEP RWY 28. TRL 70. ARRIVALS, EXP ILS APCH, RWY 14. TMA S 1 IS NOT ACT. TMA S 2 AND S 3 ARE NOT ACT. WIND 100 DEG, 4 KT. CAVOK. T 30. DP 14. QNH 1016. NOSIG.",
    "LIMC": "[Arrival ATIS] LIMC ARR ATIS O 1950Z LIMC ARR O 1950Z I.L.S. ZULU RWY IN USE 35L TL 70 WIND TDZ 040/5KT CAVOK T27 DP21 QNH 1023HPA QFE 0998HPA\n[Departure ATIS] LIMC DEP ATIS E 2020Z LIMC DEP E 2020Z RWY IN USE 35R TL 70 MMP VOR ON MAINTENANCE WIND END VRB1KT CAVOK T26 DP18 QNH 1017HPA QFE 0992HPA DATALINK CLEARANCE AVAILABLE.... CONTACT 1 3 1 8 8 0 TO BE RELEASED BY THE AIRPORT OPERATOR ...",
    "LIRF": "[Arrival ATIS] LIRF ARR ATIS Y 0550Z LIRF ARR Y 0550Z RWY 16L ILS W RWY 16R ILS Z RWY IN USE 16L 16R TL 70 DEPENDENT PARL ILS APCH INPR RWY IN USE 16R OR 16L ASSIGNED BY ROME RADAR WIND RWY 16L TDZ 050/3KT VRB BTN 030/AND 110/ RWY 16R TDZ 070/4KT VRB BTN 010/AND 090/ CAVOK T26 DP24 QNH 1017HPA RRSM\n[Departure ATIS] LIRF DEP ATIS T 1952Z LIRF DEP T 1952Z RWY IN USE 25 TL 70 RWY 25 AVAILABLE ONLY FROM TWY BC OR BD CONFIRM ON CLR REQ RWYS IN USE FOR ARR 16L AND 16R WIND END 280/8KT VRB BTN 250/AND 310/ CAVOK T27 DP21 QNH 1021HPA REA IS SENT AUTOMATICALLY ONCE RLSD BY RAMP WHEN READY CONTACT FIUME RAMP 121.725",
    "EINN": "[Arrival ATIS] EINN ARR ATIS I 0430Z EXPECT I L S CATEGORY 1 LDG RWY06 TKOF RWY06 TRL FL060 03004KT CAVOK 14/11 QNH Q1022 TREND NOSIG ADVISE AT FIRST CONTACT YOU HAVE ATIS INFO I",
    "EGLL": "[Arrival ATIS] EGLL ARR ATIS D 0550Z LANDING RWY 09L TRANSITION-LEVEL: FL 70 RUNWAY 09L REDUCED DECLARED DISTANCES IF STAND GUIDANCE IS OFF OR FAILS, REMAIN ON THE TAXIWAY CENTRELINE AND ADVISE ATC AUTO 03008KT 9999 OVC013 18/14 Q1022 ACKNOWLEDGE RECEIPT OF INFORMATION D\n[Departure ATIS] EGLL DEP ATIS G 1620Z DEPARTURE RWY 09R PILOTS THAT ARE IN RECEIPT OF DATALINK CLEARANCES ARE REMINDED THEY MUST CONTACT DELIVERY ON 121.980 WHEN READY FOR START DATALINK CLEARANCES NOT AVAILABLE FOR CPT DEPARTURES AUTHORISED DRONE OPERATING 1 NM TO THE NORTH OF AIRFIELD 130 FEET AUTO 04020KT 9999 NCD 27/13 Q1020 TURBULENCE MAY BE EXPERIENCED ON DEPARTURE ACKNOWLEDGE RECEIPT OF INFORMATION G AND REPORT AIRCRAFT TYPE AND CURRENT QNH ON FIRST CONTACT WITH HEATHROW",
    "EPWA": "[Arrival ATIS] EPWA ARR ATIS I 1731Z EPWA ARR I. TIME 1730. EXP U ARR ILS Z APCH FOR RWY 33. RWY 33 RCC 6, 5, 6. 1ST PART, DRY. 2ND PART, WET. 3RD PART, DRY. RWY REPORT END. TRANSITION LEVEL 80. WIND 340 DEG, 14 KT. VIS TDZ 10 KM OR MORE. CLD FEW CB 3000 FT. T 17. DP 14. QNH 1012. TREND TEMPO SHRA, CLD BKN CB 3000 FT. MOD ICING REPORTED BTW FL 135 AND FL 150. CAUTION. BIRD ACT. END OF EPWA ARR I\n[Departure ATIS] EPWA DEP ATIS Y 1434Z EPWA DEP Y. TIME 1434. DEP RWY 29. ARR RWY 33, EXP U ARR ILS Z. REPORT READY FOR STARTUP ON DELIVERY 121 DECIMAL 605. RWY 29 RCC 6, 6, 6. 1ST PART, DRY. 2ND PART, DRY. 3RD PART, DRY. RWY REPORT END. TRANSITION LEVEL 80. WIND 300 DEG, 7 KT, VRB BTN 250 AND 330 DEG. VIS MID 10 KM OR MORE. CLD SCT 3000 FT. T 26. DP 20. QNH 1017. NOSIG. CAUTION. BIRD ACT. END OF EPWA DEP Y",
    "EFHK": "[Arrival ATIS] EFHK ARR ATIS X 0550Z EXPECT ILS APCH ARR RWY 04L RUNWAY 04L CONDITION REPORT AT 0157 UTC RUNWAY CONDITION CODES 6 , 6 , 6 CONTAMINANTS ALL PARTS DRY TRL 60 WIND 360 DEG 8 KT VRB BTN 320 AND 040 DEG VIS 10KM SCT 2200 FT T 18 DP 13 QNH 1020 NOSIG ACK INFO X\n[Departure ATIS] EFHK DEP ATIS J 1650Z DEP RWY 04R RUNWAY 04R CONDITION REPORT AT 1127 UTC RUNWAY CONDITION CODES 6 , 6 , 6 CONTAMINANTS ALL PARTS DRY WIND 350 DEG 7 KT VIS 10KM BKN 2200 FT T 19 DP 15 QNH 1018 NOSIG ACK INFO J",
    "LTAC": "[Arrival ATIS] LTAC ARR ATIS L 0350Z EXP ILS V APCH 03C DEP RWY 03L RWY 03C WIND 060 DEG 04 KT RWY 03L WIND 020 DEG 06 KT TRL 110 CAVOK T 19 DP 13 QNH 1013 NOSIG FOR DELIVERY CTC 121.9. FOR DELIVERY FIRST USE DIGITAL DEP CLR. CTN BIRD HAZARD OVR AERODROME. APCH FREQUENCY 129.050. END OF ATIS L",
    "UBBB": "[Arrival ATIS] UBBB ARR ATIS M 0530Z ATIS M EXP ILS/ LDG 34 35 DEP 34 35 IN USE RWY 34 CLEAR DRY 70 RWY 35 CLEAR DRY 70 TLVL 110 WIND WIND RWY 34 340 12 KT SPD MAX 16 MIN 10 WIND RWY 35 330 12 KT SPD MAX 18 MIN 10 VIS CAVOK T 30 / DP 18 QNH 1007 HPA TREND TREND NOSIG MODERATE BIRDS ACT IN VICINITY OF AP END OF ATIS M\n[Departure ATIS] UBBB DEP ATIS L 1800Z ATIS L EXP ILS/ LDG 34 35 DEP 34 35 IN USE RWY 34 CLEAR DRY 70 RWY 35 CLEAR DRY 70 TLVL 110 WIND WIND RWY 34 320 8 KT SPD MAX 10 MIN 6 WIND RWY 35 320 10 KT SPD MAX 12 MIN 6 VIS CAVOK T 25 / DP 22 QNH 1008 HPA TREND TREND NOSIG MODERATE BIRDS ACT IN VICINITY OF AP END OF ATIS L",
    "ZWWW": "[Arrival ATIS] ZWWW ARR ATIS N 0330Z EXP ILSDME Z APCH LDG RWY 26R TA 3000 WIND VRB/1MPS CAVOK T 32 /DP 10 QNH 1007 HPA ADZ YOU HAVE INFO N.\n[Departure ATIS] ZWWW DEP ATIS B 1230Z DEP RWY 26L TA 3000 WIND 310/3MPS CAVOK T 34 /DP 09 QNH 1006 HPA ADZ YOU HAVE INFO B.",
    "ZLXY": "[Arrival ATIS] ZLXY ARR ATIS K 2000Z EXP ILS APCH LDG RWY 06L WIND 040/3MPS VIS 7000M -RA CLD FEW 150M /SCT 300M /OVC 900M T 18 /DP 17 QNH 1009 HPA RUNWAY 06L SURFACE CONDITION CODE 555 ADZ YOU HAVE INFO K.\n[Departure ATIS] ZLXY DEP ATIS Z 1100Z DEP RWY 05L & 06L WIND 040/3MPS VRB BTN 010/ AND 070/ VIS 4500M -RA BR CLD SCT 240M /SCT 600M /OVC 1200M T 19 /DP 18 QNH 1011 HPA RUNWAY 05L SURFACE CONDITION CODE 555 RUNWAY 06L SURFACE CONDITION CODE 555 RUNWAY 06R SURFACE CONDITION CODE 555 ADZ YOU HAVE INFO Z.",
    "ZBAA": "[Arrival ATIS] ZBAA ARR ATIS T 2000Z EXP ILS APCH LDG RWY 36L RWY 36R IS CLSD WIND 080 DEG 2 MPS CAVOK T 17 /DP 15 QNH 1008 HPA VISUAL APPROACH IS IN PROGRESS. ADZ YOU HAVE INFO T.\n[Departure ATIS] ZBAA DEP ATIS P 1800Z DEP RWY 36L RWY 36R IS CLSD WIND 150 DEG 3 MPS CAVOK T 21 /DP 14 QNH 1008 HPA VISUAL APPROACH IS IN PROGRESS. ADZ YOU HAVE INFO P.",
    "ZBHH": "[Arrival ATIS] ZBHH ARR ATIS O 1600Z EXP ILSDME APCH LDG RWY 26 TA 3000 /TRL 3600 WIND 220/4MPS CAVOK T 20 /DP 06 QNH 1010 HPA ADZ YOU HAVE INFO O.\n[Departure ATIS] ZBHH DEP ATIS Q 1500Z DEP RWY 08 TA 3000 /TRL 3600 WIND 140/2MPS VIS 5000M BR NSC T 19 /DP 19 QNH 1007 HPA ADZ YOU HAVE INFO Q.",
    "ZSQD": "[Arrival ATIS] ZSQD ARR ATIS S 0001Z EXP ILSDME APCH LDG RWY 35 TA 3000 /TRL 3600 WIND 290/5MPS VIS 5000M BR CLD BKN 150M /OVC 600M T 26 /DP 26 QNH 995 HPA SEGREGATED OPERATION VISUAL APPROACH OPERATION IN PROGRESS. RUNWAY 35,IF MISSED APPROACH,EXPECT FOLLOW THE STANDARD MISSED APPROACH PROCEDURE,CLIMB TO 1200M ON QNH OR BY ATC CAUTION MAYBE THERE IS A FLOCK OF BIRDS IN THE VICINITY OF AIRPORT RWY 35 RWYCC 5/5/5 ISSUED AT 2021UTC WET/WET/WET DPT NR/NR/NR COV 100PCT/100PCT/100PCT RWY 34 RWYCC 5/5/5 ISSUED AT 2105UTC WET/WET/WET DPT NR/NR/NR COV 100PCT/100PCT/100PCT ADZ YOU HAVE INFO S.\n[Departure ATIS] ZSQD DEP ATIS D 1501Z DEP RWY 16 TA 3000 /TRL 3600 WIND 150/6MPS VIS 9999M CLD BKN 270M /OVC 600M T 26 /DP 26 QNH 997 HPA VISUAL APPROACH OPERATION IN PROGRESS. WHEN READY CONTACT QINGDAO TOWER ON 118.7 RUNWAY 16,IF MISSED APPROACH,EXPECT FOLLOW THE STANDARD MISSED APPROACH PROCEDURE,CLIMB TO 600M ON QNH OR BY ATC CAUTION MAYBE THERE IS A FLOCK OF BIRDS IN THE VICINITY OF AIRPORT RWY 16 RWYCC 5/5/5 ISSUED AT 1342UTC WET/WET/WET DPT NR/NR/NR COV 100PCT/100PCT/100PCT ADZ YOU HAVE INFO D."
  },
  "windtemp_alaska": "\n000\nFBAK31 KWNO 140159\nFD1AK1\nDATA BASED ON 140000Z    \nVALID 140600Z   FOR USE 0200-0900Z. TEMPS NEG ABV 24000\n\nFT  3000    6000    9000   12000   18000   24000  30000  34000  39000\nADK 3117 2919+05 2924+02 2831-02 2845-12 2955-25 307541 318551 304851\nADQ 1622 2116+07 2432+05 2444+00 2546-12 2650-23 266539 257648 257957\nAKN 1636 1724+06 2131+03 2339-01 2353-12 2369-23 238039 238649 239856\nANC 1618 1726+02 1919-03 2222-06 2640-16 2654-25 268141 279249 266254\nANN 3410 3207+05 3312+01 3510-04 3514-17 3520-29 342345 352152 331847\nBET 1519 1518+00 1814-03 1820-06 2138-15 2243-27 225043 227050 224647\nBRW 9900 1909+01 2114-03 1918-09 1516-22 1612-33 151349 151847 161342\nBTI 2819 2710+05 1607+00 1612-06 1730-20 1744-31 176647 175652 182047\nBTT 2010 2111+01 2215-05 2117-10 1918-23 1824-36 172249 212543 232341\nCDB 2139 2144+09 2147+04 2153-01 2162-14 2182-25 711239 711448 219252\nCZF 1611 1507-01 1806-04 1909-09 2018-20 2238-29 226944 225850 223143\nEHM 1422 1624+03 2029+02 2132-04 2139-15 2153-27 217642 219149 226148\nFAI 2013 2024+03 2025-03 2122-09 2220-22 2430-33 266845 265545 243744\nFYU 2412 2313+03 2219-03 2119-09 2118-23 1826-35 183247 203045 222744\nGAL 2014 1809-01 1710-06 1911-11 2017-23 2519-33 265045 254543 243543\nGKN 1724 1930+02 1921-03 2115-08 2730-18 2755-27 288141 289150 275550\nHOM 1620 1626+01 1923+01 2124-04 2543-13 2657-24 257840 268550 268454\nJNU 2506 2707+01 2810+01 2507-03 2509-16 2813-28 323244 334352 323049\nLUR 9900 0410+00 0416-05 0415-10 0314-23 0219-36 061647 130543 160841\nMCG 2025 1929+00 1925-04 2125-10 2448-18 2561-28 248243 258650 245647\nMDO 1414 1613+03 2010+00 2314-04 2733-14 2847-23 286939 287549 288056\nOME 1819 1825-02 2021-05 2120-09 2118-20 2013-32 211648 222346 232442\nORT      2617+05 2313-02 2214-08 2321-20 2735-30 297843 286148 273447\nOTZ 2017 1714-02 1812-06 1811-11 2213-21 2318-34 252147 231745 221541\nSNP 0118 3615+01 3312-04 2911-07 2618-19 2223-28 204144 213748 232742\nTKA 1822 1929+01 1925-04 2025-08 2541-18 2659-27 268542 269450 266250\nUNK 1913 1711-02 1815-05 2116-09 2313-20 2322-32 258344 256348 233643\nYAK 9900 2611+01 2612-02 2511-05 2920-14 3032-26 315842 317651 316453\nIKO 3028 2833+04 2839+01 2738-03 2543-15 2444-27 244243 244748 234745\nAFM 1821 1817-01 1922-06 1925-12 1923-24 1913-35 200947 211843 221540\n5AB 2608 2621+03 2937+03 2943-01 2942-11 2946-22 295139 305849 305459\n5AC 0111 0310+04 0208+01 0109-03 3622-16 3531-28 366242 367051 355451\n5AD 2217 2514+07 3126+05 3137+01 3029-11 3126-21 323337 323947 315257\n5AE 2436 2333+11 2441+07 2444+01 2449-12 2441-22 244737 245547 246057\n5AF 2808 3009+03 2708+00 2510-04 3115-14 3228-26 345942 346951 347053\n5AG 2210 2309+03 2412-01 2613-03 3027-12 3037-23 315940 317149 317957\n",
  "vaac_tokyo": [
    {
      "id": "20260714_27303000_0739",
      "year": "2026",
      "volcano": "Mayon",
      "psn": "N1315 E12341",
      "issued": "20260714",
      "text": "FVFE01 RJTD 140246\nVA ADVISORY\nDTG: 20260714/0246Z\nVAAC: TOKYO\nVOLCANO: MAYON 273030\nPSN: N1315 E12341\nAREA: PHILIPPINES\nSOURCE ELEV: 2462M AMSL\nADVISORY NR: 2026/739\nINFO SOURCE: HIMAWARI-9 PHIVOLCS\nERUPTION DETAILS: ERUPTION AT 20260714/0006Z FL130 EXTD ENE REPORTED\nOBS VA DTG: 14/0230Z\nOBS VA CLD: VA NOT IDENTIFIABLE FM SATELLITE DATA WIND FL130 020/4KT\nFCST VA CLD +6 HR: NOT AVBL\nFCST VA CLD +12 HR: NOT AVBL\nFCST VA CLD +18 HR: NOT AVBL\nRMK: WE WILL ISSUE FURTHER ADVISORY IF VA IS DETECTED IN SATELLITE \nIMAGERY.\nNXT ADVISORY: NO FURTHER ADVISORIES=",
      "img_url": "https://ds.data.jma.go.jp/svd/vaac/data/VAGFN/2026/Images/20260714_27303000_0739_QH21_01.png",
      "sat_img_url": null,
      "text_url": "https://ds.data.jma.go.jp/svd/vaac/data/TextData/2026/20260714_27303000_0739_Text.html"
    },
    {
      "id": "20260713_28208001_0083",
      "year": "2026",
      "volcano": null,
      "psn": "N3136 E13039",
      "issued": "20260713",
      "text": "FVFE01 RJTD 130254\nVA ADVISORY\nDTG: 20260713/0254Z\nVAAC: TOKYO\nVOLCANO: SAKURAJIMA (AIRA CALDERA) 282080\nPSN: N3136 E13039\nAREA: JAPAN\nSOURCE ELEV: 1117M AMSL\nADVISORY NR: 2026/83\nINFO SOURCE: JMA HIMAWARI-9\nERUPTION DETAILS: ERUPTED AT 20260713/0152Z FL100 EXTD N\nOBS VA DTG: 13/0230Z\nOBS VA CLD: SFC/FL100 N3136 E13039 - N3142 E13040 - N3141 E13044 - \nN3134 E13042 MOV NE 15KT\nFCST VA CLD +6 HR: 13/0830Z SFC/FL100 N3234 E13121 - N3145 E13155 - \nN3202 E13110 - N3227 E13051\nFCST VA CLD +12 HR: 13/1430Z SFC/FL100 N3318 E13206 - N3142 E13317 - \nN3134 E13226 - N3312 E13118\nFCST VA CLD +18 HR: NO VA EXP\nRMK: NIL\nNXT ADVISORY: 20260713/0600Z=",
      "img_url": "https://ds.data.jma.go.jp/svd/vaac/data/VAGFN/2026/Images/20260713_28208001_0083_QH21_01.png",
      "sat_img_url": "https://ds.data.jma.go.jp/svd/vaac/data/Sat/2026/Images/28208001/09-ir/20260713_0230_202607130254_ir.png",
      "text_url": "https://ds.data.jma.go.jp/svd/vaac/data/TextData/2026/20260713_28208001_0083_Text.html"
    },
    {
      "id": "20260712_27307000_0012",
      "year": "2026",
      "volcano": "Taal",
      "psn": "N1400 E12100",
      "issued": "20260712",
      "text": "FVFE01 RJTD 121243\nVA ADVISORY\nDTG: 20260712/1243Z\nVAAC: TOKYO\nVOLCANO: TAAL 273070\nPSN: N1400 E12100\nAREA: PHILIPPINES\nSOURCE ELEV: 311M AMSL\nADVISORY NR: 2026/12\nINFO SOURCE: HIMAWARI-9 PHIVOLCS\nERUPTION DETAILS: ERUPTION AT 20260712/1227Z FL050 EXTD NE REPORTED\nOBS VA DTG: 12/1230Z\nOBS VA CLD: VA NOT IDENTIFIABLE FM SATELLITE DATA WIND FL050 230/19KT\nFCST VA CLD +6 HR: NOT AVBL\nFCST VA CLD +12 HR: NOT AVBL\nFCST VA CLD +18 HR: NOT AVBL\nRMK: WE WILL ISSUE FURTHER ADVISORY IF VA IS DETECTED IN SATELLITE \nIMAGERY.\nNXT ADVISORY: NO FURTHER ADVISORIES=",
      "img_url": "https://ds.data.jma.go.jp/svd/vaac/data/VAGFN/2026/Images/20260712_27307000_0012_QH21_01.png",
      "sat_img_url": null,
      "text_url": "https://ds.data.jma.go.jp/svd/vaac/data/TextData/2026/20260712_27307000_0012_Text.html"
    },
    {
      "id": "20260712_30019000_0003",
      "year": "2026",
      "volcano": "Krasheninnikov",
      "psn": "N5436 E16016",
      "issued": "20260712",
      "text": "FVFE01 RJTD 120130\nVA ADVISORY\nDTG: 20260712/0130Z\nVAAC: TOKYO\nVOLCANO: KRASHENINNIKOV 300190\nPSN: N5436 E16016\nAREA: RUSSIA\nSOURCE ELEV: 1816M AMSL\nADVISORY NR: 2026/3\nINFO SOURCE: HIMAWARI-9\nERUPTION DETAILS: VA AT 20260712/0100Z FL080 EXTD SE\nOBS VA DTG: 12/0100Z\nOBS VA CLD: SFC/FL080 N5440 E16023 - N5412 E16045 - N5402 E16033 - \nN5434 E16013 MOV SE 20KT\nFCST VA CLD +6 HR: 12/0700Z SFC/FL080 N5310 E16258 - N5251 E16229 - \nN5302 E16111 - N5436 E16016\nFCST VA CLD +12 HR: 12/1300Z SFC/FL090 N5233 E16425 - N5158 E16444 - \nN5210 E16103 - N5446 E16008 - N5251 E16216\nFCST VA CLD +18 HR: 12/1900Z SFC/FL090 N5142 E16614 - N5044 E16548 - \nN5213 E15943 - N5432 E15924 - N5448 E16118 - N5223 E16227\nRMK: NIL\nNXT ADVISORY: 20260712/0600Z=",
      "img_url": "https://ds.data.jma.go.jp/svd/vaac/data/VAGFN/2026/Images/20260712_30019000_0003_QH21_01.png",
      "sat_img_url": "https://ds.data.jma.go.jp/svd/vaac/data/Sat/2026/Images/30019000/09-ir/20260712_0100_202607120130_ir.png",
      "text_url": "https://ds.data.jma.go.jp/svd/vaac/data/TextData/2026/20260712_30019000_0003_Text.html"
    }
  ],
  "vaac_alaska": [
    {
      "text": "\n000\nFVAK21 PAWU 111230\nVAAAK1\nVA ADVISORY\n\nDTG: 20260711/1224Z\n\nVAAC: ANCHORAGE\n\nVOLCANO: SHEVELUCH 300270\n\nPSN: N5639 E16122\n\nAREA: KAMCHATKA PENINSULA\n\nSOURCE ELEV: 10771 FT AMSL\n\nADVISORY NR: 2026/193\n\nRMK: PLEASE SEE FVXX2 KNES ISSUED BY VAAC WASHINGTON WHICH DESCRIBES\nCONDITIONS NEAR THE VAAC ANCHORAGE AREA OF RESPONSIBILITY...CC\n\n\n\n",
      "issued": "2026-07-11T12:30:00+00:00",
      "volcano": "Sheveluch",
      "psn": "N5639 E16122"
    }
  ]
}