{
  "updated_utc": "2026-07-02T15:08Z",
  "metar": {
    "RJAA": "METAR RJAA 021330Z 36010KT 2000 -SHRA BR SCT002 BKN003 20/20 Q1007 BECMG 8000 NSW",
    "PANC": "METAR PANC 021353Z 22004KT 10SM FEW070 FEW250 07/05 A2980 RMK AO2 SLP090 T00670050",
    "PAFA": "METAR PAFA 021353Z 36003KT 10SM FEW080 SCT120 09/07 A2973 RMK AO2 SLP070 T00940072",
    "PAED": "METAR PAED 021355Z 00000KT 10SM FEW070 SCT150 09/04 A2978 RMK AO2A SLP080 T00850035 $",
    "KSEA": "METAR KSEA 021353Z 17007KT 10SM FEW010 OVC016 13/10 A3006 RMK AO2 SLP185 T01280100 $",
    "ZSPD": "METAR ZSPD 021330Z 17003MPS 4000 BR FEW013 25/25 Q1012 NOSIG",
    "ZSSS": "METAR ZSSS 021330Z 18003MPS 6000 -SHRA FEW010 26/25 Q1011 NOSIG",
    "RJFR": "METAR RJFR 021400Z 26003KT 9999 FEW020 BKN/// 23/20 Q1012",
    "VHHH": "METAR VHHH 021330Z 11014KT 9999 FEW010 FEW015CB SCT025 31/26 Q1010 TEMPO 12025G35KT 2500 TSRA SHRA FEW008CB SCT020",
    "RCTP": "METAR RCTP 021330Z 17007KT 9999 FEW015 29/25 Q1013 NOSIG RMK A2993",
    "ZGSZ": "METAR ZGSZ 021400Z 11005MPS 9999 SCT033 31/25 Q1011 BECMG AT1440 SHRA FEW020CB BKN030",
    "WSSS": "METAR WSSS 021330Z 19003KT 9999 FEW020 SCT170 BKN300 28/24 Q1011 NOSIG",
    "WMKK": "METAR WMKK 021330Z 13004KT 090V190 9999 FEW030 29/24 Q1009 NOSIG",
    "WIDD": "METAR WIDD 021330Z 00000KT 9999 FEW014 26/25 Q1011 NOSIG",
    "VTBS": "METAR VTBS 021330Z VRB02KT 9000 -RA FEW020 SCT035 27/26 Q1007 RETS NOSIG",
    "VTBU": "METAR VTBU 021330Z 25003KT 190V280 9999 FEW020 SCT100 30/28 Q1007 NOSIG",
    "ROAH": "METAR ROAH 021330Z 18003KT 9999 FEW010 27/26 Q1015",
    "VVDN": "METAR VVDN 021330Z 34003KT 9999 FEW020 SCT070 30/26 Q1005 NOSIG",
    "RCKH": "METAR RCKH 021330Z 15010G20KT 110V190 9999 FEW032 SCT040 31/25 Q1012 NOSIG RMK A2991",
    "KLAX": "METAR KLAX 021353Z 27005KT 10SM SCT011 OVC017 18/14 A2995 RMK AO2 SLP139 T01780144 $",
    "KONT": "METAR KONT 021353Z 35003KT 5SM HZ OVC012 17/13 A2996 RMK AO2 SLP133 T01670133 $",
    "KSFO": "METAR KSFO 021356Z 18005KT 10SM FEW006 SCT200 14/10 A2992 RMK AO2 SLP133 T01390100",
    "KOAK": "METAR KOAK 021353Z 19008KT 10SM FEW013 BKN017 BKN200 14/11 A2993 RMK AO2 SLP134 T01440106",
    "KMHR": "METAR KMHR 021335Z 16005KT 10SM CLR 13/11 A2988 RMK AO2 T01280114",
    "KDFW": "METAR KDFW 021353Z 20009KT 10SM FEW200 BKN250 29/20 A3001 RMK AO2 SLP153 T02890200 $",
    "KIAH": "METAR KIAH 021353Z 09004KT 10SM FEW018 SCT150 29/25 A3003 RMK AO2 SLP168 T02940250",
    "KORD": "METAR KORD 021351Z 05008KT 10SM BKN034 BKN065 BKN250 26/19 A3005 RMK AO2 SLP170 T02610189",
    "KJFK": "METAR KJFK 021351Z 32009KT 10SM FEW250 36/21 A2999 RMK SLP154 T03560206 $",
    "KRFD": "SPECI KRFD 021327Z VRB04KT 10SM SCT020 SCT250 26/21 A3006 RMK AO2 T02560206",
    "KIND": "METAR KIND 021354Z 24005KT 9SM FEW150 29/24 A3014 RMK AO2 SLP199 T02890244",
    "KDTW": "METAR KDTW 021353Z 27010KT 10SM FEW025 FEW250 30/24 A3007 RMK AO2 SLP175 T03000239",
    "KMSP": "METAR KMSP 021353Z 13004KT 10SM BKN250 24/21 A2994 RMK AO2 SLP132 T02440211",
    "CYEG": "METAR CYEG 021400Z 29004KT 20SM FEW074 FEW250 14/12 A2986 RMK AC2CI1 CI TR ACC ASOCTD SLP118 DENSITY ALT 2900FT",
    "EHAM": "METAR EHAM 021325Z 30020KT 270V330 9999 FEW030 20/10 Q1020 NOSIG",
    "EBBR": "METAR EBBR 021320Z 24009KT 210V270 9999 BKN009 BKN041 19/17 Q1022 RERA REDZ NOSIG",
    "EDDF": "METAR EDDF 021320Z AUTO 24012KT 210V280 CAVOK 28/11 Q1019 NOSIG",
    "EDFH": "METAR EDFH 021320Z 25012G22KT 200V300 CAVOK 25/10 Q1021",
    "EDDL": "METAR EDDL 021320Z COR AUTO 25013KT 230V290 9999 -RADZ FEW014 SCT024 BKN034 19/16 Q1021 RERA NOSIG",
    "EDDK": "METAR EDDK 021320Z AUTO 29017KT 9999 FEW020 23/13 Q1020 NOSIG",
    "EBLG": "METAR EBLG 021320Z 24014KT 9999 -RA BKN016 18/15 Q1022 TEMPO 4500 -RADZ BKN013",
    "LSZH": "METAR LSZH 021320Z VRB05KT 9999 FEW070 27/10 Q1023 NOSIG",
    "LIMC": "METAR LIMC 021320Z 23010KT 210V280 CAVOK 31/12 Q1016 NOSIG",
    "LIRF": "METAR LIRF 021320Z 32009KT 290V360 9999 SCT050 29/18 Q1011 NOSIG",
    "EINN": "METAR EINN 021330Z 26009KT 9999 FEW025 BKN027 17/10 Q1028 NOSIG",
    "EGLL": "METAR EGLL 021320Z AUTO 31013KT 280V340 9999 NCD 25/08 Q1022",
    "EGSS": "METAR EGSS 021320Z AUTO 30012G23KT 260V340 9999 NCD 24/09 Q1022",
    "EPWA": "METAR EPWA 021330Z 32008KT 280V350 CAVOK 26/12 Q1015 NOSIG",
    "UHPP": "SPECI UHPP 021352Z 15003MPS 2000 0500SE PRFG OVC004 06/06 Q1019 R16R/CLRD62 NOSIG RMK QFE761/1015",
    "EFHK": "METAR EFHK 021320Z 02006KT 340V050 9999 SCT035 20/12 Q1008 BECMG -TSRA SCT040CB",
    "LBBG": "METAR LBBG 021330Z 12008KT 9999 FEW036 30/18 Q1009 NOSIG",
    "LTAC": "METAR LTAC 021320Z 27009KT 9999 SCT040 34/07 Q1009 NOSIG RMK RWY21C 27010KT 210V330 RWY03L 28008KT 230V310 RWY21R 26010KT 220V310 RWY03R 27011KT RWY21L 27008KT 230V330",
    "UBBB": "METAR UBBB 021330Z 18012KT CAVOK 30/15 Q1008 NOSIG",
    "UTAA": "METAR UTAA 021400Z 30006KT 260V330 9999 BKN050 BKN100 30/10 Q1009 R88/CLRD70 NOSIG",
    "UACC": "METAR UACC 021330Z 13003MPS 100V180 9999 SCT043CB 26/13 Q1000 TEMPO VRB16MPS 3100 -TSRA SQ BKN030CB RMK QFE719/0959",
    "UAAA": "SPECI UAAA 021313Z 27008MPS 6000 -SHRA VCTS BKN050CB OVC100 21/18 Q1012 NOSIG",
    "UZTT": "METAR UZTT 021330Z 14008KT CAVOK 25/13 Q1010 NOSIG",
    "ZWWW": "METAR ZWWW 021330Z 27004MPS CAVOK 34/15 Q1005 NOSIG",
    "ZLXY": "METAR ZLXY 021400Z 34003MPS CAVOK 23/19 Q1010 NOSIG",
    "ZBAA": "METAR ZBAA 021330Z 08005MPS 030V120 7000 NSC 29/22 Q1006 NOSIG",
    "ZBHH": "METAR ZBHH 021400Z 05003MPS CAVOK 22/14 Q1010 NOSIG",
    "ZSQD": "METAR ZSQD 021400Z 15006MPS 6000 SCT008 24/24 Q1009 BECMG TL1500 BKN008",
    "ZMCK": "METAR ZMCK 021330Z VRB01MPS 9999 FEW030CB BKN033 22/09 Q1012 NOSIG RMK QFE644.0 44 NT",
    "UUEE": "METAR UUEE 021330Z 20006MPS 170V240 CAVOK 29/12 Q1010 R24L/CLRD62 R24C/CLRD62 NOSIG",
    "UUDD": "METAR UUDD 021330Z 21005MPS 160V260 CAVOK 30/12 Q1011 R13R/CLRD65 NOSIG",
    "ULLI": "SPECI ULLI 021316Z 23003MPS 9999 SCT007 BKN018CB OVC033 17/15 Q1003 R88/290050 NOSIG RMK OBST OBSC",
    "USSS": "METAR USSS 021330Z 09003MPS 060V130 9999 VCTS SCT033CB 20/17 Q1006 R08R/290350 R08L/290040 TEMPO VRB18MPS 0500 +TSRAGR SQ RMK QFE735/0980",
    "UNNT": "METAR UNNT 021330Z 07004MPS CAVOK 28/14 Q1008 R07/CLRD// R34/////// NOSIG RMK QFE746/0995",
    "UNKL": "METAR UNKL 021330Z 26001MPS CAVOK 24/17 Q1009 R29/CLRD// NOSIG RMK QFE731",
    "UIBB": "METAR UIBB 021330Z VRB01MPS 9000 SCT033CB 18/18 Q1008 R12/290151 NOSIG RMK QFE714/0952",
    "UEEE": "METAR UEEE 021330Z 07002MPS CAVOK 21/08 Q1003 R23/09//69 NOSIG RMK QFE744",
    "UHHH": "METAR UHHH 021330Z 00000MPS CAVOK 20/17 Q1007 R23R/090060 NOSIG RMK QFE749/0999",
    "UHSS": "METAR UHSS 021330Z 11001MPS 9999 NSC 06/05 Q1014 R19/CLRD70 NOSIG RMK QFE759/1012"
  },
  "taf": {
    "RJAA": "TAF AMD RJAA 021341Z 0213/0318 36010KT 8000 -SHRA FEW003 BKN012 TEMPO 0213/0221 3000 -SHRA BR FEW002 BKN005 TEMPO 0221/0300 FEW003 BKN008 TEMPO 0315/0318 4000 BR FEW001 BKN003",
    "PANC": "TAF PANC 021126Z 0212/0318 18005KT P6SM FEW050 SCT250 FM022000 27007KT P6SM FEW050 BKN140 FM030400 16012G20KT P6SM FEW050 BKN100 FM031000 18005KT P6SM VCSH BKN050",
    "PAFA": "TAF PAFA 021120Z 0212/0318 04004KT P6SM FEW070 FM030000 36007KT P6SM VCSH SCT060 FM030600 36004KT P6SM FEW100",
    "PAED": "TAF PAED 021300Z 0213/0319 24006KT 9999 FEW050 SCT100 QNH2977INS BECMG 0302/0303 27009KT 9999 VCSH FEW040 BKN060 OVC085 QNH2969INS BECMG 0304/0305 24009KT 9999 -RA FEW025 BKN040 OVC055 QNH2969INS BECMG 0310/0311 21006KT 9999 NSW BKN023 OVC040 QNH2977INS TX20/0302Z TN07/0213Z",
    "KSEA": "TAF KSEA 021451Z 0215/0318 20006KT P6SM BKN012 OVC020 FM022100 21010KT P6SM SCT025 BKN050 FM022300 22008KT P6SM VCSH BKN040 FM030500 22005KT P6SM VCSH OVC025 FM031500 21005KT P6SM SCT008 OVC015",
    "ZSPD": "TAF AMD ZSPD 021242Z 0212/0318 18004MPS 6000 -SHRA BKN015 TX26/0212Z TX29/0305Z TN24/0221Z TEMPO 0221/0301 TSRA BKN010 FEW030CB TEMPO 0306/0310 33008G13MPS 2000 TSRA BKN010 SCT030CB BECMG 0310/0312 NSW",
    "ZSSS": "TAF AMD ZSSS 021239Z 0212/0318 18004MPS 6000 -SHRA BKN015 TX26/0212Z TX30/0305Z TN24/0221Z TEMPO 0221/0301 TSRA BKN010 FEW030CB TEMPO 0306/0310 33008G13MPS 2000 TSRA BKN010 SCT030CB BECMG 0310/0312 NSW",
    "RJFR": "TAF RJFR 021105Z 0212/0318 30006KT 9999 FEW010 BECMG 0309/0312 14004KT BECMG 0315/0318 07006KT TEMPO 0315/0318 BKN005 BKN007",
    "VHHH": "TAF VHHH 021400Z 0215/0321 12020KT 9999 FEW015 SCT025 TX31/0306Z TN26/0222Z TEMPO 0215/0218 12020G30KT 2500 TSRA SHRA FEW008CB SCT020 TEMPO 0218/0224 12020G30KT 2500 SHRA FEW008CB SCT020 TEMPO 0300/0306 13020G30KT 1500 +SHRA FEW008CB SCT015 TEMPO 0306/0315 13025G35KT 1500 TSRA +SHRA FEW008CB SCT015 TEMPO 0315/0321 13025G35KT 2000 TSRA SHRA FEW008CB SCT020",
    "RCTP": "TAF RCTP 021100Z 0212/0318 21005KT 9999 FEW015 BKN032 BECMG 0301/0303 33005KT TEMPO 0306/0310 28010KT FEW012 FEW015TCU BKN020 BKN050 BECMG 0310/0312 21005KT",
    "ZGSZ": "TAF ZGSZ 020906Z 0212/0318 12006MPS 8000 SCT040 TX31/0212Z TX32/0306Z TN29/0222Z TEMPO 0222/0302 SHRA FEW020 FEW025CB BKN030 TEMPO 0303/0307 TSRA SCT020 FEW020CB BKN030 TEMPO 0313/0315 SHRA FEW020 FEW025CB BKN030",
    "WSSS": "TAF WSSS 021100Z 0212/0318 18008KT 9999 FEW015 SCT020 TEMPO 0306/0309 3000 TSRA FEW012CB BKN015",
    "WMKK": "TAF WMKK 021100Z 0212/0318 VRB03KT 9999 FEW030 PROB30 TEMPO 0306/0310 5000 TSRA FEW017CB SCT018",
    "VTBS": "TAF VTBS 021100Z 0212/0318 19008KT 9999 FEW020 TEMPO 0212/0218 VRB15G25KT 4000 TSRA FEW018CB SCT030 BKN100 TEMPO 0308/0314 VRB15G25KT 4000 TSRA FEW018CB SCT030 BKN100",
    "VTBU": "TAF VTBU 021100Z 0212/0312 23008KT 9999 FEW020 TEMPO 0214/0218 VRB15KT 4000 TSRA FEW018CB SCT030 BKN100",
    "ROAH": "TAF ROAH 021105Z 0212/0318 19006KT 9999 FEW008 BKN012 TEMPO 0215/0221 FEW005 BKN008 TEMPO 0315/0318 FEW005 BKN008",
    "VVDN": "TAF VVDN 021100Z 0212/0312 02010KT 9999 SCT020 BECMG 0213/0214 25007KT TEMPO 0215/0302 4000 SHRA BKN013 FEW015CB BKN060 TEMPO 0309/0312 25015G25KT 4000 TSRA BKN013 FEW015CB BKN050",
    "RCKH": "TAF RCKH 021100Z 0212/0318 15005KT 9999 FEW015 BECMG 0301/0303 21010KT BECMG 0310/0312 15005KT",
    "KLAX": "TAF KLAX 021408Z 0214/0318 25006KT P6SM OVC015 FM022000 26012KT P6SM SCT022 FM030700 26010KT P6SM BKN018 BKN025 FM031000 26005KT P6SM BKN018 BKN025 FM031700 26005KT P6SM SCT018 BKN025",
    "KONT": "TAF KONT 021120Z 0212/0318 VRB04KT P6SM OVC012 FM021630 VRB05KT P6SM SCT020 FM022100 25010KT P6SM SKC FM030500 25005KT P6SM SKC FM031200 VRB03KT P6SM BKN010 FM031600 VRB04KT P6SM FEW012",
    "KSFO": "TAF KSFO 021459Z 0215/0318 20006KT P6SM FEW006 SCT015 FM021900 27015KT P6SM FEW020 FM030300 28011KT P6SM FEW012 FM030900 28006KT P6SM SCT010",
    "KOAK": "TAF KOAK 021322Z 0213/0318 20008KT P6SM FEW013 BKN017 FM021800 24007KT P6SM SCT020 FM022000 28012KT P6SM FEW020 FM031100 27005KT P6SM OVC015",
    "KMHR": "TAF KMHR 021120Z 0212/0312 16006KT P6SM SCT200 FM021800 24007KT P6SM FEW250 FM030000 22012KT P6SM SKC FM030500 16007KT P6SM SKC",
    "KDFW": "TAF KDFW 021451Z 0215/0318 17010KT P6SM FEW060 FEW250",
    "KIAH": "TAF KIAH 021459Z 0215/0318 14006KT P6SM SCT020 BKN035 BKN150 FM021800 17009KT P6SM VCTS SCT035CB PROB30 0218/0224 6SM -TSRA BR BKN030CB FM030000 14007KT P6SM FEW030 SCT050 TEMPO 0309/0312 BKN015",
    "KORD": "TAF KORD 021503Z 0215/0318 12008KT P6SM FEW030 FM021630 18010KT P6SM FEW030 FM021730 23012G22KT P6SM FEW040 FEW300 FM030100 22010KT P6SM SCT050 SCT250 PROB30 0307/0311 3SM TSRA BKN050CB",
    "KJFK": "TAF KJFK 021406Z 0214/0318 30010KT P6SM FEW250 FM021600 21011KT P6SM FEW050 FEW250 FM021800 19015KT P6SM FEW050 FEW250 FM022100 19019G25KT P6SM FEW050 FEW250 FM030100 20012KT P6SM FEW250 FM030300 23010KT P6SM FEW250 FM030700 27008KT P6SM FEW250",
    "KRFD": "TAF KRFD 021503Z 0215/0312 12008KT P6SM SCT030 FM021800 23012G22KT P6SM FEW060 FEW300 FM030100 22010KT P6SM SCT050 SCT250 PROB30 0306/0310 3SM TSRA BKN050CB",
    "KIND": "TAF KIND 021308Z 0213/0318 23006KT P6SM SKC FM021800 23009KT P6SM FEW050 FM030300 22004KT P6SM SCT250 FM031600 23008KT P6SM FEW050 SCT250",
    "KDTW": "TAF KDTW 021401Z 0214/0318 26010KT P6SM SCT025 SCT250 TEMPO 0214/0216 BKN025 BKN250 FM021600 24013G20KT P6SM SCT045 FM030000 25007KT P6SM SCT060 FM031600 25013G20KT P6SM SCT045",
    "KMSP": "TAF KMSP 021133Z 0212/0318 15004KT P6SM FEW250 FM021600 17005KT P6SM SCT250 FM022200 19008KT P6SM FEW080 SCT250 FM030200 17006KT P6SM BKN250 PROB30 0305/0308 4SM -TSRA BKN040CB FM031000 15005KT P6SM BKN120",
    "CYEG": "TAF CYEG 021440Z 0215/0312 28006KT P6SM FEW080 FM022100 25006KT P6SM BKN060 TEMPO 0221/0301 VRB15G25KT P6SM -SHRA VCTS BKN040CB FM030100 14006KT P6SM SCT080 RMK NXT FCST BY 021800Z",
    "EHAM": "TAF EHAM 021100Z 0212/0318 29017G27KT 9999 SCT022 BECMG 0215/0218 32014KT BECMG 0220/0223 26006KT BECMG 0306/0309 29012KT",
    "EBBR": "TAF EBBR 021124Z 0212/0318 25010KT 9999 SCT020 PROB30 TEMPO 0212/0215 4000 -SHRA BKN012 BECMG 0215/0217 31009KT",
    "EDDF": "TAF EDDF 021100Z 0212/0318 24010KT CAVOK PROB40 TEMPO 0212/0218 25015G25KT BECMG 0216/0219 30011KT PROB30 TEMPO 0218/0220 BKN035 BECMG 0220/0223 31006KT",
    "EDFH": "TAF EDFH 021100Z 0212/0312 26012KT CAVOK PROB40 TEMPO 0212/0218 27015G25KT BECMG 0218/0221 31005KT",
    "EDDL": "TAF AMD EDDL 021217Z 0212/0318 27015G25KT CAVOK TEMPO 0212/0217 27012KT TEMPO 0212/0215 4000 -DZ BECMG 0218/0220 27006KT BECMG 0309/0311 29011KT",
    "EDDK": "TAF EDDK 021100Z 0212/0318 29015KT CAVOK TEMPO 0213/0217 30015G25KT BECMG 0219/0221 31007KT BECMG 0301/0304 VRB03KT BECMG 0308/0310 30009KT",
    "EBLG": "TAF EBLG 021124Z 0212/0318 26011KT 9999 SCT020 PROB30 TEMPO 0212/0216 4500 -SHRA BKN014 BECMG 0217/0219 32007KT",
    "LSZH": "TAF LSZH 021425Z 0215/0321 26007KT 9999 FEW075 TX27/0215Z TN16/0302Z TX26/0315Z BECMG 0216/0218 CAVOK BECMG 0221/0223 9999 FEW050 BKN070 BECMG 0306/0308 04007KT BECMG 0311/0313 35004KT BECMG 0319/0321 CAVOK",
    "LIMC": "TAF LIMC 021100Z 0212/0318 21007KT CAVOK BECMG 0221/0223 01010KT BECMG 0303/0305 VRB05KT",
    "LIRF": "TAF LIRF 021100Z 0212/0318 06012KT 9999 SCT030 TEMPO 0212/0214 16014KT 4000 TSRA BKN010 TEMPO 0214/0218 4000 SHRA BECMG 0217/0219 VRB05KT BECMG 0302/0304 04010KT BECMG 0309/0311 26012KT",
    "EINN": "TAF EINN 021100Z 0212/0312 30010KT 9999 FEW010 BKN025 BECMG 0223/0301 22005KT BECMG 0308/0310 25010KT",
    "EGLL": "TAF EGLL 021055Z 0212/0318 31012KT 9999 FEW045 BECMG 0315/0318 25006KT",
    "EGSS": "TAF EGSS 021053Z 0212/0318 31013KT CAVOK PROB40 TEMPO 0212/0218 31017G27KT BECMG 0315/0318 25008KT",
    "EPWA": "TAF EPWA 021430Z 0215/0315 31010KT CAVOK BECMG 0218/0220 25004KT TEMPO 0305/0315 28020G30KT PROB40 TEMPO 0305/0307 4000 SHRA BKN012 BKN030CB BECMG 0306/0308 27014KT ",
    "UHPP": "TAF UHPP 021344Z 0215/0321 19003G12MPS 9999 BKN030CB TEMPO 0215/0222 0700 FG VV002 TEMPO 0300/0309 -SHRA BKN014 OVC025CB TEMPO 0309/0321 1000 -SHRA BR VV002",
    "EFHK": "TAF EFHK 021431Z 0215/0315 21010KT 9999 FEW025 SCT040 TEMPO 0215/0219 7000 SHRA FEW040CB PROB40 TEMPO 0215/0217 TS PROB40 0223/0305 2000 BR BKN002 BECMG 0305/0307 14010KT FEW040CB TEMPO 0307/0315 7000 SHRA BKN012 PROB40 0309/0315 TSRA",
    "LBBG": "TAF LBBG 021100Z 0212/0312 12014KT 9999 SCT040 TEMPO 0212/0216 VRB16G28KT 4000 TSRA SCT030CB BKN045 BECMG 0216/0217 VRB03KT PROB40 TEMPO 0217/0220 5000 SHRA FEW030CB BKN045 TEMPO 0223/0305 3000 BR BKN012 BECMG 0308/0310 13014KT",
    "LTAC": "TAF LTAC 021040Z 0212/0312 25008KT 9999 SCT040 BECMG 0212/0215 35012KT BECMG 0216/0219 VRB02KT CAVOK BECMG 0306/0309 30012KT SCT040",
    "UBBB": "TAF UBBB 021051Z 0212/0312 19012KT CAVOK TX32/0212Z TN22/0301Z TEMPO 0212/0215 23020KT TEMPO 0215/0218 23005KT FEW060CB BECMG 0218/0220 24005KT TEMPO 0220/0306 VRB04KT FEW012 BECMG 0306/0308 19010KT",
    "UTAA": "TAF UTAA 021045Z 0212/0312 32016KT 6000 BKN040 SCT050CB TEMPO 0212/0217 02014KT PROB30 TEMPO 0212/0215 -TSRA TEMPO 0217/0301 25012KT",
    "UACC": "TAF UACC 021101Z 0212/0312 21008MPS 9999 SCT030CB BKN050 TX24/0310Z TN14/0223Z TEMPO 0212/0218 VRB18MPS 3100 -TSRA SQ BKN020CB BECMG 0218/0220 17003MPS SCT030 BECMG 0301/0303 21009MPS SCT030CB TEMPO 0303/0312 VRB18MPS 3100 -TSRA SQ BKN020CB",
    "UAAA": "TAF UAAA 021103Z 0212/0312 22003G08MPS 9999 BKN040CB OVC100 TX20/0310Z TN18/0301Z TEMPO 0212/0216 28010G17MPS 3100 -TSRA BLDU BKN015CB TEMPO 0216/0303 28005G10MPS 3000 TSRA BR BKN015CB OVC050 BECMG 0304/0305 34003G08MPS -SHRA TEMPO 0304/0312 26005MPS 3000 SHRA BR BKN015CB OVC050",
    "UZTT": "TAF UZTT 021100Z 0212/0312 07010KT 7000 SCT060CB BKN100 TEMPO 0212/0218 VRB14G24KT -TSRA BKN050CB",
    "ZWWW": "TAF ZWWW 020902Z 0212/0318 36004MPS CAVOK TX39/0309Z TN28/0223Z TN31/0318Z BECMG 0213/0214 18004MPS BECMG 0302/0303 36004MPS BECMG 0313/0314 18004MPS",
    "ZLXY": "TAF ZLXY 020909Z 0212/0312 24003MPS 3000 HZ NSC TX33/0308Z TN21/0222Z",
    "ZBAA": "TAF ZBAA 020900Z 0212/0318 15004MPS 5000 BR NSC TX37/0307Z TN23/0221Z TN25/0318Z TEMPO 0214/0216 -TSRA FEW040CB BKN040 TEMPO 0309/0313 -TSRA FEW040CB BKN040",
    "ZBHH": "TAF ZBHH 020905Z 0212/0312 04004MPS 9999 FEW040 TX35/0308Z TN17/0222Z TEMPO 0306/0309 FEW040CB FEW040",
    "ZSQD": "TAF ZSQD 020901Z 0212/0312 16004MPS 3500 BR NSC TX33/0306Z TN23/0220Z",
    "ZMCK": "TAF ZMCK 021048Z 0212/0318 34005MPS 9999 FEW030CB BKN033 TN14/0221Z TX22/0307Z TEMPO 0212/0216 VRB08G13MPS SHRA SCT027CB BKN030 BECMG 0213/0215 VRB02MPS PROB40 TEMPO 0218/0305 VRB08MPS TSRA SCT027CB BKN030 TEMPO 0306/0318 VRB09G14MPS 6000 TSRA SCT027CB BKN030",
    "UUEE": "TAF UUEE 021355Z 0215/0315 25003G08MPS 9999 SCT030 TX28/0215Z TN18/0301Z TEMPO 0215/0224 21009G16MPS -TSRA BKN020CB BECMG 0300/0302 31005MPS PROB40 TEMPO 0305/0315 -TSRA BKN020CB",
    "UUDD": "TAF UUDD 021352Z 0215/0321 22005MPS 9999 FEW009 BKN020 TX29/0215Z TN20/0301Z TEMPO 0215/0301 27009G16MPS 2000 TSRA BKN016CB PROB40 TEMPO 0301/0304 0300 FG BKN002 BECMG 0303/0305 31005MPS PROB40 TEMPO 0304/0315 -TSRA BKN020CB",
    "ULLI": "TAF ULLI 021352Z 0215/0315 27005G10MPS 6000 BKN010 TEMPO 0215/0218 BKN005 BECMG 0218/0220 27003MPS BKN016 TEMPO 0221/0304 0300 FG SCT003 TEMPO 0312/0315 3100 -SHRA BKN020CB",
    "USSS": "TAF USSS 021352Z 0215/0315 08003G12MPS 8000 -SHRA BKN033CB TEMPO 0215/0218 VRB18MPS -TSRAGR SQ FM021800 29003MPS 6000 SCT016CB TEMPO 0218/0303 0300 -TSRA FG BKN002 BKN010CB FM030300 35003G14MPS 9999 BKN016CB TEMPO 0303/0315 -TSRA",
    "UNNT": "TAF UNNT 021400Z 0215/0315 11003G08MPS CAVOK TX33/0310Z TN17/0222Z PROB40 TEMPO 0306/0312 -TSRA BKN016CB",
    "UNKL": "TAF UNKL 021345Z 0215/0315 27003G08MPS 9999 SCT040 TX30/0306Z TN15/0222Z",
    "UIBB": "TAF UIBB 021400Z 0215/0315 31003G08MPS 0300 FG BKN001 BKN016CB TEMPO 0215/0302 +TSRA BECMG 0302/0303 9999 NSW BKN016CB TEMPO 0303/0315 -TSRA",
    "UEEE": "TAF UEEE 021400Z 0215/0321 08003G08MPS CAVOK TX30/0306Z TN13/0218Z",
    "UHHH": "TAF UHHH 021347Z 0215/0321 18003MPS CAVOK TX28/0305Z TN16/0219Z FM021800 VRB01MPS 5000 BR FEW010 SCT022CB FM022300 20003G08MPS 9999 SCT022CB TEMPO 0301/0315 5000 -SHRA",
    "UHSS": "TAF UHSS 021350Z 0215/0321 18003MPS 0550 FG BKN002 BECMG 0222/0224 9999 NSW NSC"
  },
  "atis": {
    "RJAA": "[Arrival ATIS] RJAA ARR ATIS U 0036Z M0030 (APCH)ILS Z RWY34R LDG RWY 34R DEP RWY 34L DEP FREQ 124.2. TWY A1 CLSD. OBSERVE GEAR DOWN OPS PROC ON FNL. M 180030Z 06007KT 030V090 15KM -SHRA FEW002ST BKN004ST 21/20 Q1011/A2986= Q/TWO NINE EIGHT SIX STP\n[Departure ATIS] RJAA DEP ATIS S 2332Z MS2330 (APCH)ILS Z RWY34R LDG RWY 34R DEP RWY 34L DEP FREQ 124.2. TWY A1 CLSD. OBSERVE GEAR DOWN OPS PROC ON FNL. MS 172330Z 04006KT 340V080 8KM -SHRA FEW002ST BKN004ST 21/20 Q1011/A2987= Q/TWO NINE EIGHT SEVEN STP",
    "PANC": "[Arrival ATIS] PANC ARR ATIS Y 1453Z ANC ATIS INFO Y 1453Z. 20004KT 10SM FEW070 FEW250 11/06 A2979 (TWO NINER SEVEN NINER). 7R, 7L APPROACHES IN USE. LANDING RWY 7R, 7L, DEPARTING RWY 7L, 33. NOTICE TO AIRMEN. TWY Q CLSD. TWY R CLSD BTWN TWY, S AND TWY U . TWY E CLSD BTWN TWY, L AND TWY M . TWY K BTWN A AND D RESTRICTED TO AIRCRAFT WITH WINGSPAN LESS THAN 118 FEET. CONTACT TOWER 118.3 FOR TAXI. ...ADVS YOU HAVE INFO Y.\n[Departure ATIS] PANC DEP ATIS Q 0753Z ANC ATIS INFO Q 0753Z. 19009KT 10SM FEW060 SCT240 13/08 A2980 (TWO NINER EIGHT ZERO). 7R, 7L APPROACHES IN USE. LANDING RWY 7L, 33, DEPARTING RWY 33. NOTICE TO AIRMEN. TWY Q CLSD. TWY R CLSD BTWN TWY, S AND TWY U . TWY E CLSD BTWN TWY, L AND TWY M . TWY K BTWN A AND D RESTRICTED TO AIRCRAFT WITH WINGSPAN LESS THAN 118 FEET. CONTACT TOWER 118.3 FOR TAXI. ...ADVS YOU HAVE INFO Q.",
    "KSEA": "[Arrival ATIS] KSEA ARR ATIS A 1453Z SEA ATIS INFO A 1453Z. 14009KT 10SM OVC013 13/09 A3007 (THREE ZERO ZERO SEVEN). ILS, RYS 16R AND 16L , APCH IN USE. DEPG RWY 16L, DEPG ACFT PLAN AND BRIEF NUMBERS FOR BOTH RWYS 16L AND 16C. SIMUL APCHS IN USE, BFI & SEA. TRAFFIC BELOW YOU ON FINAL. SIMUL APCHS IN USE TO PARA RYS. NOTAMS... BIRD ACTIVITY VICINITY ARPT. ...ADVS YOU HAVE INFO A.\n[Departure ATIS] KSEA DEP ATIS E 2253Z SEA ATIS INFO E 2253Z. 18008KT 10SM FEW026 BKN032 16/08 A3007 (THREE ZERO ZERO SEVEN). ILS, RYS 16R AND 16L , APCH IN USE. DEPG RWY 16L, DEPG ACFT PLAN AND BRIEF NUMBERS FOR BOTH RWYS 16L AND 16C. SIMUL APCHS IN USE, BFI & SEA. TRAFFIC BELOW YOU ON FINAL. SIMUL APCHS IN USE TO PARA RYS. NOTAMS... BIRD ACTIVITY VICINITY ARPT. ...ADVS YOU HAVE INFO E.",
    "ZSPD": "[Arrival ATIS] ZSPD ARR ATIS C 1500Z EXP ILS APCH INDEPENDENT PARL INSTR APCH LDG RWY 17R & 16L WIND RWY 17R TDZ 190/4MPS MID 180/4MPS END 180/3MPS RWY 16L TDZ 180/4MPS MID 180/3MPS END 180/3MPS VIS RWY 17R TDZ 3200M MID 4300M END 3400M VIS RWY 16L TDZ 4700M MID 3500M END 3800M BR NSC T 25 /DP 25 QNH 1011 HPA CAUTION THE BIRDS NEAR THE RUNWAY RWY 17L/17R/16L/16R RWYCC 5/5/5 ISSUED AT 1433 WET/WET/WET DPT NR/NR/NR COV 100PCT/100PCT/100PCT. ADZ YOU HAVE INFO C.\n[Departure ATIS] ZSPD DEP ATIS S 0030Z DEP RWY 35R & 34L WIND RWY 35R TDZ 040/3MPS MID 040/3MPS END 030/3MPS RWY 34L TDZ 060/3MPS MID 050/3MPS END 040/2MPS VIS RWY 35R TDZ 10000M MID 10000M END 10000M VIS RWY 34L TDZ 10000M MID 7000M END 10000M CLD BKN 300M T 25 /DP 22 QNH 1009 HPA CAUTION THE BIRDS NEAR THE RUNWAY ADZ YOU HAVE INFO S.",
    "ZSSS": "[Arrival ATIS] ZSSS ARR ATIS E 0000Z EXP ILS APCH LDG RWY 36R WIND RWY 36R TDZ 110/2MPS MID 060/2MPS END 030/3MPS VIS RWY 36R TDZ 7000M MID 5000M END 6000M BR CLD SCT 450M T 27 /DP 22 QNH 1009 HPA VISUAL APCH IN USE QNH OF SHANGHAI TERMINAL CONTROL AREA 1009 HPA ADZ YOU HAVE INFO E.\n[Departure ATIS] ZSSS DEP ATIS I 1330Z DEP RWY 18R WIND RWY 18R TDZ 130/2MPS MID 140/3MPS END 150/3MPS VIS RWY 18R TDZ 6000M MID 7000M END 6000M BR NSC T 27 /DP 22 QNH 1008 HPA VISUAL APCH IN USE QNH OF SHANGHAI TERMINAL CONTROL AREA 1009 HPA ADZ YOU HAVE INFO I.",
    "VHHH": "[Arrival ATIS] VHHH ARR ATIS F 0007Z ARRIVALS, RWY 25R/L. EXP RNAV TRANSITION TO ILS APCH, RWY 25R. RNP APCH IS AVBL ON REQ, RWY 25R. EXP ILS APCH RWY 25L. CAUTION POSSIBLE GP FLUCTUATION RWY 25L. RWY 25 RUNWAY CONDITION REPORT AT 0000Z. RWY 25R RUNWAY CONDITION CODES 5 , 5 , 5 . RWY SFC ALL PARTS WET. RWY 25L RUNWAY CONDITION CODES 5 , 5 , 5 . RWY SFC ALL PARTS WET. SIG WS FCST 25R 25L. WIND RWY 25R 210/10KT RWY 25L 190/10KT. VIS RWY 25R 10KM RWY 25L 10KM. MOD SHRA. CLD FEW 800FT FEW CB 1200FT SCT 1800FT. T29 DP25. QNH 1008HPA. CB. TREND TEMPO 240/20KT MAX30 VIS 3000M MOD TSRA. ACK INFO F ON FIRST CTC WITH APP.\n[Departure ATIS] VHHH DEP ATIS X 0010Z DEPARTURES, RWY 25C/L. RWY 25 RUNWAY CONDITION REPORT AT 0000Z. RWY 25C RUNWAY CONDITION CODES 5 , 5 , 5 . RWY SFC ALL PARTS WET. RWY 25L RUNWAY CONDITION CODES 5 , 5 , 5 . RWY SFC ALL PARTS WET. INDEPENDENT PARALLEL DEPARTURE IN PROGRESS. SIG WS FCST 25C 25L. WIND RWY 25C 200/10KT RWY 25L 190/12KT. VIS RWY 25C 10KM RWY 25L 10KM. MOD SHRA. CLD FEW 800FT FEW CB 1200FT SCT 1800FT. T29 DP25. QNH 1008HPA. CB. TREND TEMPO 240/20KT MAX30 VIS 3000M MOD TSRA. ACK INFO X ON FIRST CTC WITH DELIVERY .",
    "RCTP": "[Arrival ATIS] RCTP ARR ATIS J 0030Z EXP ILS APCH RWY23L AND RWY23R ARR/DEP. WIND 070/03KT VARYING BTN 010 AND 110 VIS 10 KM OR MORE CLD FEW 1500FT SCT 20000FT T 34 DP 25 QNH 1011HPA NOSIG DUE TO FLOW CONTROL BY MANILA F-I-R, TRAFFIC CONCERNED MAY BE DELAYED. CTN BIRD ACTIVITY IN THE VCY OF THE AD. INFORM TAIPEI APCH OR TAIPEI TOWER ON INITIAL CONTACT YOU HAVE INFORMATION J\n[Departure ATIS] RCTP DEP ATIS I 0000Z EXP ILS APCH RWY23L AND RWY23R ARR/DEP. WIND 190/03KT VARYING BTN 110 AND 260 VIS 10 KM OR MORE CLD FEW 1500FT SCT 20000FT T 32 DP 25 QNH 1011HPA NOSIG DUE TO FLOW CONTROL BY MANILA F-I-R, TRAFFIC CONCERNED MAY BE DELAYED. CTN BIRD ACTIVITY IN THE VCY OF THE AD. INFORM TAIPEI APCH OR TAIPEI TOWER ON INITIAL CONTACT YOU HAVE INFORMATION I",
    "ZGSZ": "[Arrival ATIS] ZGSZ ARR ATIS D 2335Z EXP ILS OR VIS APCH LDG RWY 16L WIND 250/5MPS VRB BTN 200/ AND 270/ VIS 2800M +SHRA CLD SCT 270M /FEW CB 600M /BKN 990M T 25 /DP 24 QNH 1009 HPA INDEPENDENT PARALLEL DEPARTURES MISSED APPROACH ALTITUDE SETTING 1200METERS WHEN AIRBORNE CONTACT ZHUHAI APPROACH EXPECTED RNP ILS DME Z APPROACH RWY 15 16L 16R RWYCC 5/5/5 ISSUED AT 2320UTC WET/WET/WET DPT NR/NR/NR COV 100PCT/100PCT/100PCT ADZ YOU HAVE INFO D.\n[Departure ATIS] ZGSZ DEP ATIS G 0030Z DEP RWY 15 & 16L WIND VRB/1MPS VIS 6000M SHRA CLD SCT 270M /FEW CB 600M /BKN 990M T 26 /DP 25 QNH 1009 HPA INDEPENDENT PARALLEL DEPARTURES DEPENDENT PARALLEL APPROACHES MISSED APPROACH ALTITUDE SETTING 1200METERS WHEN AIRBORNE CONTACT ZHUHAI APPROACH EXPECTED RNP ILS DME Z APPROACH RWY 15 16L 16R RWYCC 5/5/5 ISSUED AT 2320UTC WET/WET/WET DPT NR/NR/NR COV 100PCT/100PCT/100PCT ADZ YOU HAVE INFO G.",
    "WSSS": "[Arrival ATIS] WSSS ARR ATIS V 0030Z METREPORT 0030Z ILS APCHRWY 20R SIMUL INDEPENDENT ILS AND VISUAL APPROACHES ARE CONDUCTED ON RWY 20. TWY W 9 CLOSED, RWY 02C 20C RAPID EXIT TAXIWAY INDICATOR LIGHTS OFF WIND VRB BTN290 AND350 02KT VIS 10KM FBL SHRA CLD FEW 1400FT FEW TCU 1600FT FEW CB 1800FT T28 DP24 QNH 1012HPA NOSIG ACK ATIS V\n[Departure ATIS] WSSS DEP ATIS R 2230Z METREPORT 2230Z RWY 20C SIMUL INDEPENDENT ILS AND VISUAL APPROACHES ARE CONDUCTED ON RWY 20. TWY W 9 CLOSED, RWY 02C 20C RAPID EXIT TAXIWAY INDICATOR LIGHTS OFFFOLLOW THE GREENS TRIAL IN PROGRESS. WHEN VACATING THE RWY, PILOTS TO ADHERE TO ATC VERBAL INSTRUCTIONS. WHEN ON TWY, PILOT TO ADHERE TO FOLLOW THE GREENS INSTRUCTIONS. WHEN APPROACHING [A] JUNCTION, KEEP [A] LOOKOUT FOR CONTINUOUS GREENS. [IF] [A] BREAK IN THE GREENS IS OBSERVED, STOP AND CLARIFY WITH ATC. WIND 280/ 03KT VRB BTN230 AND300 VIS 10KM CLD FEW 1800FT T26 DP24 QNH 1011HPA NOSIG DEP,INITIAL CMB 3000FT ACK ATIS R",
    "WMKK": "[Arrival ATIS] WMKK ARR ATIS G 2218Z WMKK ARR INFO G. TIME 2200. INDEPENDENT PARALLEL APPROACHES FOR RWY 14 L AND 15 ARE IN PROGRESS. EXP RNAV / ILS APCH FOR RWY 14 LEFT. EXP RNAV / ILS APCH FOR RWY 15. WIND RWY 14L 010 DEG, 5 KT. WIND RWY 15 330 DEG, 5 KT. VIS RWY 14L TDZ 10 KM OR MORE. VIS RWY 15 TDZ 10 KM OR MORE. CLD FEW 3000 FT. T 26. DP 24. QNH 1010. NOSIG. AT FIRST CONTACT WITH LUMPUR RADAR, NOTIFY RCPT OF G\n[Departure ATIS] WMKK DEP ATIS R 1534Z WMKK DEP INFO R. TIME 1530. SINGLE RWY OPS IN PROGRESS. RWY 14 RIGHT. WIND RWY 14R DIRECTION NOT AVBL SPEED NOT AVBL. VIS RWY 14R TDZ NOT AVBL. CLD FEW 3000 FT. T 27. DP 24. QNH 1012. NOSIG. ALL DEP ACFT TO CONTACT LUMPUR DEP AT 135 DECIMAL 25 MHZ WHEN ABN. AT FIRST CONTACT WITH LUMPUR GROUND, NOTIFY RCPT OF R",
    "VTBS": "[Arrival ATIS] VTBS ARR ATIS E 2300Z VTBS ARR ATIS E 2315Z EXP ILS Z APCH ARR RWY 19 OR RNP APCH RWY 20R , ,PILOT SHALL ADZ BKK APCH ON INITIAL CTC IF UNA TO CONDUCT RNP APCH DUE TO OPERATIONAL CONSTRAINT 2300Z WIND 360/2KT VIS 10KM CLD FEW 2000FT T27 DP27 QNH 1010HPA TREND NOSIG ADZ BKK APCH ON INITIAL CONTACT THAT YOU HAVE INFO E\n[Departure ATIS] VTBS DEP ATIS A 1930Z VTBS DEP ATIS A 1931Z DEP RWY 20L RWY 20R CLSD DUE TO WIP , ,AFT AIRBORNE ALL DEPARTING ACFT SHALL CTC 119.25 1930Z WIND 210/4KT VIS 10KM CLD FEW 2000FT T30 DP24 QNH 1010HPA TREND NOSIG ADZ GND WHEN INITIAL CONTACT YOU HAVE INFO A",
    "VTBU": "[Arrival ATIS] VTBU ARR ATIS W 1400Z VTBU ARR ATIS W 1402Z RNP RWY 18 TRL FL130 1400Z WIND 250/3KT VIS 10KM CLD FEW 2000FT T29 DP27 QNH 1007HPA TREND NOSIG ADZ CONTROLLER WHEN INITIAL CONTACT YOU HAVE INFO W\n[Departure ATIS] VTBU DEP ATIS D VTBU ARR/DEP DATIS RPT VTBU ARR ATIS D 0330Z ILS \"Z\" APCH RWY 18 TRL FL130 0330Z WIND 110/4KT VRB BTN 350/ AND 120/ VIS 6KM CLD FEW 2000FT T31 DP27 QNH 1014HPA TREND NOSIG ADZ CONTROLLER WHEN INITIAL CONTACT YOU HAVE INFO D",
    "ROAH": "[Arrival ATIS] ROAH ARR ATIS P 1404Z M1400 (APCH)RNP RWY18R USING RWY 18R DEP FREQ 126.5 258.3 RWY 18L/36R CLSD M 021400Z AUTO 19005KT 9999 NCD 27/26 Q1015/A2998= Q/TWO NINE NINE EIGHT STP\n[Departure ATIS] ROAH DEP ATIS Z 0534Z M0530 (APCH)RNP RWY18R LDG RWY 18R DEP RWY 18L DEP FREQ 126.5 258.3 M 010530Z 20011KT 40KM FEW010CU 30/27 Q1012/A2988= Q/TWO NINE EIGHT EIGHT STP",
    "VVDN": "[Arrival ATIS] VVDN ARR ATIS C 2302Z VVDN INFO C 2302Z. ILS VICTOR APPROACH 35L.. DPTG RWY 35R.. 2302Z. WIND 230/01KT VIS 5KM CLD NSC T27 DP25 QNH 1008HPA TREND NOSIG. ADZ ON INITIAL CTC YOU HAVE INFO. C.\n[Departure ATIS] VVDN DEP ATIS S 0604Z VVDN INFO S 0604Z. ILS VICTOR APPROACH 35L.. DPTG RWY 35R.. 0604Z. WIND VRB/09KT CAVOK T37 DP24 QNH 1006HPA TREND NOSIG. ADZ ON INITIAL CTC YOU HAVE INFO. S.",
    "RCKH": "[Arrival ATIS] RCKH ARR ATIS D 0030Z EXPECT ILS APPROACH RWY 09 ARR/DEP TAXIWAY BRAVO, TAXIWAY DELTA AND TAXIWAY ECHO CLOSED DUE MAINTENANCE. RUNWAY 0 9 ARRIVALS PLAN VACATE VIA CHARLIE OR FOXTROT AND EXPEDITE VACATE. WIND 170/09KT VARYING BTN 140 AND 210 VIS 10 KM OR MORE CLD FEW 1400FT SCT 12000FT T 30 DP 25 QNH 1011HPA NOSIG CAUTION BIRD ACTIVITY IN VICINITY OF THE AERODROME. INFORM KAO-HSIUN APCH OR KAO-HSIUN TOWER ON INITIAL CONTACT YOU HAVE INFORMATION D\n[Departure ATIS] RCKH DEP ATIS F 1000Z EXPECT ILS APPROACH RWY 09 ARR/DEP TAXIWAY JULIETT, TAXIWAY BRAVO, TAXIWAY DELTA AND TAXIWAY ECHO CLOSED DUE MAINTENANCE. RUNWAY 0 9 ARRIVALS PLAN VACATE VIA CHARLIE OR FO",
    "KLAX": "[Arrival ATIS] KLAX ARR ATIS I 2353Z LAX ATIS INFO I 2353Z. 25011KT 10SM FEW015 SCT016 21/14 A2991 (TWO NINER NINER ONE) RMK AO2 SLP128 FU FEW015 T02060139 10217 20194 58008. INST APCHS AND RNAV RNP APCHS ILS RY 24R, ILS RY 25L, AND SIMUL APCHS IN PROG BTWN LAX AND HHR, SIMUL INSTR DEPARTURES IN PROG RWYS 24 AND 25. CTC L A GC ON 121.75 FOR PUSH OR TAXI ON A. TWY C CLSD BTN TWY, C8 AND TWY C9 , , TWY B CLSD BTN TWY, F AND TWY B1, TWY B1 CLSD. ILS RY 25R OTS, RY 25R SFL OTS, RY 24L ALSF-2 OTS. LAX VOR UNMONITORED. IF ASSIGNED RUNWAY 25R FOR DEPARTURE, EXPECT DEPARTURE FROM INTERSECTION FOXTROT. TAXILANE CHARLIE EIGHT RESTRICTED TO AIRCRAFT WITH A WINGSPAN LESS THAN ONE HUNDRED EIGHTEEN FEET. USE CAUTION FOR INCREASED DRONE ACTIVIY IN THE VICINITY OF SOFI STADIUM AT OR BELOW 200FT AGL DURING THE WORLD CUP FROM 06/12/26 THROUGH 07/10/2026. HAZD WX INFO FOR LAX AREA AVBL FM FSS. BIRD ACTIVITY VICINITY ARPT. INCLUDE YOUR CALL SIGN IN ALL READBACKS. USE CAUTION WHEN EXITING RY24R AT TWY V, W, AND Y, TO HOLD SHORT OF RY24L. MULTIPLE RUNWAY INCURSIONS HAVE OCCURRED. ...ADVS YOU HAVE INFO I.\n[Departure ATIS] KLAX DEP ATIS K 0953Z LAX ATIS INFO K 0953Z. 23004KT 9SM OVC006 17/15 A2992 (TWO NINER NINER TWO) RMK AO2 SLP128 T01670150. INST APCHS AND RNAV RNP APCHS ILS RY 24L, ILS RY 25L, AND SIMUL APCHS IN PROG BTWN LAX AND HHR, SIMUL INSTR DEPARTURES IN PROG 24L, 25R. CTC L A GC ON 121.75 FOR PUSH OR TAXI ON A. RWY 2 4 RIGHT SIX LEFT CLSD. TWY C CLSD BTN TWY, C8 AND TWY C9 , , TWY B CLSD BTN TWY, F AND TWY B1, TWY B1 CLSD. ILS RY 25R OTS, RY 25R SFL OTS, RY 24L ALSF-2 OTS. LAX VOR UNMONITORED. IF ASSIGNED RUNWAY 25R FOR DEPARTURE, EXPECT DEPARTURE FROM INTERSECTION FOXTROT. TAXILANE CHARLIE EIGHT RESTRICTED TO AIRCRAFT WITH A WINGSPAN LESS THAN ONE HUNDRED EIGHTEEN FEET. USE CAUTION FOR INCREASED DRONE ACTIVIY IN THE VICINITY OF SOFI STADIUM AT OR BELOW 200FT AGL DURING THE WORLD CUP FROM 06/12/26 THROUGH 07/10/2026. HAZD WX INFO FOR LAX AREA AVBL FM FSS. BIRD ACTIVITY VICINITY ARPT. TWR FREQ FOR ALL RWYS IS 120.95. CD AND GC FREQ IS 121.75. INCLUDE YOUR CALL SIGN IN ALL READBACKS. USE CAUTION WHEN EXITING RY24R AT TWY V, W, AND Y, TO HOLD SHORT OF RY24L. MULTIPLE RUNWAY INCURSIONS HAVE OCCURRED. ...ADVS YOU HAVE INFO K.",
    "KONT": "[Arrival ATIS] KONT ARR ATIS L 1453Z ONT ATIS INFO L 1453Z. 00000KT 5SM HZ OVC013 17/13 A2997 (TWO NINER NINER SEVEN). ILS APR IN USE. RY26L & RY26R. LNDG AND DEPG RY 26L AND RY 26R. NOTAMS... TAXIWAY SIERRA FIVE CLOSED. TAXIWAY SIERRA CLOSED BETWEEN TAXIWAY SIERRA 8 AND TAXIWAY WHISKEY. RY 26L IM OTS, RY 26R ALS OTS. 75 FT UNLIGHTED CRANE AT GUARDIAN JET CENTER. USE CAUTION FOR NUMEROUS BIRDS OBSERVED IN VICINITY OF ONT. PILOTS READBACK RWY ASSIGNMENTS AND HOLD SHORT INSTRUCTIONS. ...ADVS YOU HAVE INFO L.\n[Departure ATIS] KONT DEP ATIS N 0553Z - KONT ATIS INFO N 0553Z. 24004KT 10SM BKN250 22/15 A2988 (TWO NINER EIGHT EIGHT) RMK AO2 SLP100. ILS AND VIS APR IN USE, RY26L & RY26R. LNDG AND DEPG RY 26L AND RY 26R. NOTAMS... TAXIWAY SIERRA CLSD BETWEEN SIERRA 8 AND W TAXIWAY Q SOUTH OF RWY 26L CLSD TAXIWAY T CLSD TAXIWAY SIERRA 5 CLSD. RY 26L IM OTS, RY 26R ALS OTS. USE CAUTION FOR NUMEROUS BIRDS OBSERVED IN VICINITY OF ONT. HAZD WX INFO FOR SOUTHERN CA AVBL ON FSS FREQUENCIES. PILOTS READBACK RWY ASSIGNMENTS AND HOLD SHORT INSTRUCTIONS. ...ADVS YOU HAVE INFO N.",
    "KSFO": "[Arrival ATIS] KSFO ARR ATIS I 1356Z - KSFO ATIS INFO I 1356Z. 17005KT 10SM FEW006 SCT200 14/10 A2992 (TWO NINER NINER TWO) RMK AO2 SLP133 T01390100. SIMUL CLSLY SPCD DPNDNT ILS RY 28R AND ILS RY 28L APP IN USE. DEPG RWYS 28L, 28R. DEPG ACFT SHOULD BE PREPARED FOR A SHORT NOTICE RY CHANGE. RY 1L, 1R CLSD. NUMEROUS TWY CLOSURES FOR CONSTRUCTION ON THE FIELD, PILOTS CHECK NOTAMS. DEPG ACFT WAITING ON FINAL NUMBERS ADVISE GROUND PRIOR TO ENTERING TWY F. ...ADVS YOU HAVE INFO I.\n[Departure ATIS] KSFO DEP ATIS H 1256Z SFO ATIS INFO H 1256Z. 18007KT 10SM FEW014 SCT200 14/10 A2991 (TWO NINER NINER ONE). SIMUL CLSLY SPCD DPNDNT ILS RY 28R AND ILS RY 28L APP IN USE. DEPG RWYS 28L, 28R. DEPG",
    "KOAK": "[Arrival ATIS] KOAK ARR ATIS S 1453Z OAK ATIS INFO S 1453Z. 18008KT 10SM FEW013 BKN017 BKN200 16/11 A2994 (TWO NINER NINER FOUR). RNAV, AND VA, RWY 30. ILS, AND VA, RWY 28R, RNAV Z RUNWAY 30, ILS RUNWAY 28R. FLOW TO LAX, SAN, SEA. ILS RWY 30, OTS, RWY 28R RAIL, OTS. UNN LIT CLOSE-IN OBSTACLES FOR RWY 30 DEPARTURES. RWY 30 DEPARTURES ARE ADVISED TO AVOID TURNING LEFT PRIOR TO DEPARTURE END OF RUNWAY. CTN, CRANE 1 POINT 6 NAUTICAL MILES, , AT 140 FEET AGL. CAUTION, BIRDS NEAR AIRPORT. ...ADVS YOU HAVE INFO S.\n[Departure ATIS] KOAK DEP ATIS O 1953Z OAK ATIS INFO O 1953Z. 28014KT 10SM FEW005 22/14 A2988 (TWO NINER EIGHT EIGHT). RNAV Z/VA RWY 30 ILS/VA RWY 28R. FLOW TO LAX, LAS, SAN. ILS RWY 30, OTS. UNN LIT CLOSE-IN OBSTACLES FOR RWY 30 DEPARTURES. RWY 30 DEPARTURES ARE ADVISED TO AVOID TURNING LEFT PRIOR TO DEPARTURE END OF RUNWAY. SIGNATURE UNI-COM OUT OF SERVICE. CAUTION, BIRDS NEAR AIRPORT. ...ADVS YOU HAVE INFO O.",
    "KDFW": "[Arrival ATIS] KDFW ARR ATIS L 1353Z DFW ARR INFO L 1353Z. 21009KT 10SM FEW200 BKN250 29/20 A3001 (THREE ZERO ZERO ONE). SIMUL VISUAL APCH TO RWYS, 13R, 18R, 17C, 17L. LDG RWY 17C EXP LAHSO TWY B 10460 FT AVAIL, LDG RWY 18R EXP LAHSO TWY B 10100 FT AVL. NOTICE TO AIRMEN. WARNING, RWY 18L HAS BEEN SHORTENED, 9273 FT AVAILABLE. RWY 18L ILS OTS, CL OTS. BIRD ACTIVITY VCNTY ARPT. ...ADVS YOU HAVE INFO L.\n[Departure ATIS] KDFW DEP ATIS W 1553Z - KDFW DEP INFO W 1553Z. 21022G32KT 10SM FEW025 FEW180 SCT250 31/21 A2994 (TWO NINER NINER FOUR) RMK AO2 PK WND 20032/1547 SLP128 T03110206. SIMUL PARL TRAFFIC DEPG RWYS 17R, 18L. NOTICE TO AIRMEN. WARNING, RWY 18L HAS BEEN SHORTENED, 9273 FT AVAILABLE. RWY 18L CL OTS. BIRD ACTIVITY VCNTY ARPT. ...ADVS YOU HAVE INFO W.",
    "KIAH": "[Arrival ATIS] KIAH ARR ATIS Q 1053Z IAH ATIS INFO Q 1053Z. 00000KT 10SM FEW020 FEW250 24/24 A3000 (THREE ZERO ZERO ZERO). ARRIVALS EXPECT ILS OR RNAV Y RY 26R, ILS OR RNAV Y RY 26L, ILS OR RNAV Y RY 27. SIMUL APPROACHES IN USE. DEPG RY 15L, RY 15R. NOTICE TO AIRMEN. UNITED RAMP CONTROL IN EFFECT. RY 15R, 33L CLSD. HAZD WX INFO FOR IAH AREA AVBL FM FSS. BIRD ACTIVITY VICINITY ARPT. CRANES ARE DOWN. TWY SA CLSD BTN TWY, SF AND TWY SK , TWY SB CLSD BTN TWY, SF AND TWY SK , , TWY WB CLSD BTN TWY, WG AND TWY WH . TWY EA CLSD. NOTAM ATIS IN USE ON FREQUENCY 126.225. ...ADVS YOU HAVE INFO Q.\n[Departure ATIS] KIAH DEP ATIS A 2053Z IAH ATIS INFO A 2053Z. 19008G16KT 10SM SCT035 BKN250 33/24 A2993 (TWO NINER NINER THREE) RMK AO2 LTG DSNT E TSB02E23 SLP135 CB DSNT NE-E AND SW MOV NE 60000 T03280239 57019. ARRIVALS EXPECT ILS OR RNAV Y RY 26R, ILS OR RNAV Y RY 26L, ILS OR RNAV Y RY 27. SIMUL APPROACHES IN USE. DEPG RY 15L, RY 15R. NOTICE TO AIRMEN. UNITED RAMP CONTROL IN EFFECT. ALL RWY COND CODES, , 5 , , 5 , , 5 , AT 1730Z. HAZD WX INFO FOR IAH AREA AVBL FM FSS. BIRD ACTIVITY VICINITY ARPT. TWY SA CLSD BTN TWY, SG AND TWY SK , TWY SB CLSD BTN TWY, SG AND TWY SK , , TWY SG CLSD, TWY EA CLSD. NOTAM ATIS IN USE ON FREQUENCY 126.225. ...ADVS YOU HAVE INFO A.",
    "KORD": "[Arrival ATIS] KORD ARR ATIS Z 1351Z ORD ATIS INFO Z 1351Z. 05008KT 10SM BKN034 BKN065 BKN250 26/19 A3005 (THREE ZERO ZERO FIVE) RMK AO2 SLP170 T02610189. ARR EXP VECTORS ILS RWY 9L APCH, ILS Y RWY 10R APCH. CTN RWY 10R LOC IS OFFSET 2.5 DEGREES. SIMUL APCHS IN USE. DEPS EXP RWYS 9C FROM F F 9200 FT AVL, 10L FROM DD. 10,093 FT AVBL. ATTN PILOTS. SIMUL PARL DEPS IN USE. EXP TO INITIALLY FLY RWY. HDG ON DEP. PILOTS MUST READ BACK DRCTN OF TURNS BY ATC. RWY 4L, 22R CLSD, RWY 10C, 28C CLSD. RWY 22R LOC OTS, RWY 9L IM OTS, RWY 9C IM OTS, RWY 10L IM OTS, RWY 10R IM OTS, RWY 27R IM OTS, RWY 28L IM OTS, RWY 28R IM OTS, RWY 9L PAPI OTS, RWY 27R PAPI OTS. PILOTS USE CTN FOR BIRD ACTIVITY IN THE VICINITY OF THE ARPT. USE CTN FOR PERSONNEL AND EQUIP AT NUMEROUS SITES ON THE FIELD. MODERATE TURB VC OF ORD. READBACK ALL RWY HOLD SHORT INSTRUCTIONS. WHEN READY TO TAXI CONTACT GND METERING ON FREQ 121.67. ...ADVS YOU HAVE INFO Z.\n[Departure ATIS] KORD DEP ATIS X 1251Z - KORD ATIS INFO X 1251Z. 34006KT 10SM SCT021 BKN030 BKN060 27/23 A3005 (THREE ZERO ZERO FIVE) RMK AO2 SLP170 T02720228. ARR EXP VECTORS ILS RWY 9L APCH, ILS PRM RWY 10C APCH, ILS PRM Y RY 10R APCH. CTN RY 10R LOC IS OFFSET 2.5 DEGREES. SIMUL APCHS IN USE. DEPS EXP RWYS 9C FROM F F 9200 FT AVL, 10L FROM DD. 10,093 FT AVBL. ATTN PILOTS. SIMUL PARL DEPS IN USE. EXP TO INITIALLY FLY RWY. HDG ON DEP. PILOTS MUST READ BACK DRCTN OF TURNS BY ATC. RWY 4L, 22R CLSD. RWY 22R LOC OTS, RWY 9L IM OTS, RWY 9C IM OTS, RWY 10L IM OTS, RWY 10R IM OTS, RWY 27R IM OTS, RWY 28L IM OTS, RWY 28R IM OTS, RWY 9L PAPI OTS, RWY 27R PAPI OTS. PILOTS USE CTN FOR BIRD ACTIVITY IN THE VICINITY OF THE ARPT. USE CTN FOR PERSONNEL AND EQUIP AT NUMEROUS SITES ON THE FIELD. MODERATE TURB VC OF ORD. READBACK ALL RWY HOLD SHORT INSTRUCTIONS. WHEN READY TO TAXI CONTACT GND METERING ON FREQ 121.67. ...ADVS YOU HAVE INFO X.",
    "KJFK": "[Arrival ATIS] KJFK ARR ATIS D 1451Z - KJFK ATIS INFO D 1451Z. 36006KT 10SM CLR 37/19 A2998 (TWO NINER NINER EIGHT). APPROACH IN USE ILS RY 31R, VISUAL APCH RY 31L. DEPG RY 31L. RWY 4L, 22R CLSD. CRI OTS. RWY 22L/4R\n[Departure ATIS] KJFK DEP ATIS D 1451Z JFK ATIS INFO D 1451Z. 36006KT 10SM CLR 37/19 A2998 (TWO NINER NINER EIGHT). APPROACH IN USE ILS RY 31R, VISUAL APCH RY 31L. DEPG RY 31L. RWY 4L, 22R CLSD. CRI OTS. RWY 22L/4R INNER MARKER OTS. NUM CRANES OPERATING AT JFK. BIRD ACTIVITY VICINITY ARPT. READBACK ALL RWY ASSIGNMENTS AND HOLD SHORT INSTRUCTIONS. ...ADVS YOU HAVE INFO D.",
    "KIND": "[Arrival ATIS] KIND ATIS Q 1254Z IND ATIS INFO Q 1254Z. 24006KT 9SM CLR 27/24 A3014 (THREE ZERO ONE FOUR). PARL ILS RWY 23R AND 23L APPROACHES IN USE. CROSS RUNWAY OPERATIONS MAY BE IN EFFECT. NOTICE TO AIRMEN . RWY 32 GS OTS. TWY, P BTN TWY, H AND TWY B CLSD. P PAD CLSD. ILS RUNWAY 5R AND RUNWAY 5L INNER MARKER UNSERVICEABLE. RUNWAY 32 PAPI OTS. RUNWAY 32 TOUCHDOWN RVR OTS. RUNWAY 14 ROLLOUT RVR OTS. ...ADVS YOU HAVE INFO Q.\n[Departure ATIS] KIND DEP ATIS H 1854Z IND ATIS INFO H 1854Z. 26009G19KT 10SM SCT036 BKN041 BKN170 23/16 A2981 (TWO NINER EIGHT ONE) RMK AO2 SLP088 T02280156. PARL ILS RWY 23R AND 23L APPROACHES IN USE. CROSS RU",
    "KDTW": "[Arrival ATIS] KDTW ARR ATIS H 1353Z DTW ARR INFO H 1353Z. 27010KT 10SM FEW025 FEW250 30/24 A3007 (THREE ZERO ZERO SEVEN). SIMUL VISUAL RY 21L, RY 22R USE Z LOC FREQ 111.95 APCH IN USE. NOTICE TO AIRMEN. RWY 21R, 3L CLSD, RWY 27L, 9R CLSD, RWY 27R, 9L CLSD. RY 22L ALS OTS, RY 22R PAPI LGTS OTS. PILOTS USE CTN FOR BIRD ACTIVITY. DEPARTURE ATIS 118.125. ...ADVS YOU HAVE INFO H.\n[Departure ATIS] KDTW DEP ATIS Q 2253Z - KDTW DEP INFO Q 2253Z. 21009KT 10SM FEW050 FEW250 33/24 A2991 (TWO NINER NINER ONE). DEPG RWY 21R, RWY 22L ;. NOTICE TO AIRMEN. RWY 27L, 9R CLSD, RWY 27R, 9L CLSD. PILOTS USE CTN FOR BIRD ACTIVITY. ...ADVS YOU HAVE INFO Q.",
    "KMSP": "[Arrival ATIS] KMSP ARR ATIS G 0953Z MSP ARR INFO G 0953Z. 00000KT 10SM CLR 22/21 A2989 (TWO NINER EIGHT NINER) RMK AO2 SLP116 T02220206. VISUAL RWY 12R APCH IN USE, VISUAL RWY 12L APCH IN USE. NOTICE TO AIRMEN. RWYS 4, 22 CLSD. TWY R7. R8. R9. R10. CLOSED, TWY R BETWEEN R6 AND R10 CLOSED. GS RWY 12L OTS, RWYS 12R, 12L, INNER MARKER OTS.. HAZD WX INFO FOR MSP AREA AVBL FM FSS. CTN, BIRDS NEAR MSP. READ BACK HS AND ALT. ALL ACFT TAXI WITH TRANSPONDER AND ALTITUDE ENCODING ON. ...ADVS YOU HAVE INFO G.\n[Departure ATIS] KMSP DEP ATIS V 0153Z MSP DEP INFO V 0153Z. 33003KT 10SM FEW120 SCT140 SCT250 27/20 A2984 (TWO NINER EIGHT FOUR) RMK AO2 SLP101 T02670200. DEPARTING RWY 30L, RWY 30R, RWY 17. NOTICE TO AIRMEN. RWYS 4, 22 CLSD. TWY R7. R8. R9. R10. CLOSED, TWY R BETWEEN R6 AND R10 CLOSED. SWAP IN EFCT, INCLUDING CDR. ALL ACFT CTC METERING ON ONE THREE THREE POINT FIVE SEVEN WHEN READY TO PUSHBACK OR TAXI. HAZD WX INFO FOR MSP AREA AVBL FM FSS. CTN, BIRDS NEAR MSP. READ BACK HS AND ALT. ALL ACFT TAXI WITH TRANSPONDER AND ALTITUDE ENCODING ON. ...ADVS YOU HAVE INFO V.",
    "CYEG": "[Arrival ATIS] CYEG ARR ATIS S 1400Z CYEG ARR ATIS S 1400Z 28004KT 20SM FEW074 FEW250 14/12 A2986 APCH RNAV Z OR Y RWY 02, INFORM ARRL OF REQ APCH ON INITIAL CTC. LDG AND DEP RWY 02. SIMUL APPROACHES MAY BE IN EFCT. INFORM CYEG ATC INFO S\n[Departure ATIS] CYEG DEP ATIS S 1400Z CYEG ARR ATIS S 1400Z 28004KT 20SM FEW074 FEW250 14/12 A2986 APCH RNAV Z OR Y RWY 02, INFORM ARRL OF REQ APCH ON INITIAL CTC. LDG AND DEP RWY 02. SIMUL APPROACHES MAY BE IN EFCT. INFORM CYEG ATC INFO S",
    "EHAM": "[Arrival ATIS] EHAM ARR ATIS C 0024Z EHAM ARRIVAL INFO C. DEMAND. MAIN LANDING RWY 18 R. TRANSITION LEVEL 040. WIND 180 DEG, 5 KT. CAVOK. T 17. DP 14. QNH 1018 HPA. NOSIG. OPERATIONAL REPORT. EXP RNP APCH. CONTACT APCH WITH CALLSIGN ONLY. END OF INFO C\n[Departure ATIS] EHAM DEP ATIS O 0833Z EHAM DEPARTURE INFO O. DEMAND. MAIN DEPARTURE RWY 24. MAIN LANDING RWY 18 R. RWY 24 RCR AT TIME 0806. RWYCC: 5/5/5 WET/WET/WET COVERAGE(%): 100/100/100. WIND 240 DEG, 15 KT, 26 KT MAX, 11 KT MNM. VIS 10 KM OR MORE. WX -RADZ. CLD FEW 700 FT SCT 1000 FT BKN 1600 FT. T 18. DP 16. QNH 1017 HPA. OPERATIONAL REPORT. CONVERGING DEPARTURES AND APPROACHES IN PROGRESS. INFORM SCHIPHOL DEL BY VOICE IF UNABLE TO COMPLY WITH NADP 2. END OF INFO O",
    "EBBR": "[Arrival ATIS] EBBR ARR ATIS K 0029Z EBBR NAT, EXP VECT FOR ILS APP ARR RWY25L RSCD AT 2124 RWY25R RSCD AT 2132 RWY25L DRY. RWY25R DRY. DEP RWY25R RWY19 TRL 055 ILS RWY 25R U/S. RNP RWY 25R AVBL AT ATC DISCRETION. RWY STOPBARS U/S. XNG RWY OPS INPR 180/1KT VRB BTN 170 AND 230 VIS ABV 10KM FEW4200FT T18 DP16 QNH 1019HPA NOSIG CFM ARR K\n[Departure ATIS] EBBR DEP ATIS K 1550Z EBBR NAT, DEP RWY25R RSCD AT 1536 RWY25R DRY. ARR RWY25L TRL 055 TWY OUT6, B3 CLSD. OUT7, E6, B1 MAX CAT C 250/9KT MNM6 MAX14 VIS ABV 10KM FEW3800FT T26 DP17 QNH 1019HPA NOSIG CFM DEP K",
    "EDDF": "[Arrival ATIS] EDDF ARR ATIS D 0020Z ARR-ATIS EDDF D METAR 180020 EXPECT RNP X APCH RWY 25L TRL 60 36005KT CAVOK T18 DP16 QNH1020 TREND NOSIG END OF ATIS D\n[Departure ATIS] EDDF DEP ATIS N 1220Z DEP-ATIS EDDF N METAR 021220 RWY 25C 18 TRL 60 AD WRNG UNTIL 1800 , SFC WIND 270 DEG 15 KT MAX 30 KT , FCST NC 25013KT 210V280 RWY18 VRB08KT CAVOK T28 DP12 QNH1019 TREND TEMPO 26015G25KT",
    "EDDL": "[Arrival ATIS] EDDL ARR ATIS E 1020Z -ATIS EDDL E METAR 021020 -EXPECT VECTORS ILS APPROACH -RWY 23L -TWY L8 CLOSED BETWEEN TWY M AND RWY 23L -TRL 60 - -24018KT -9999 - -FEW047 -T25 DP12 -QNH1019 - -TREND NOSIG\n[Departure ATIS] EDDL DEP ATIS R EDDL ARR/DEP DATIS RPT -ATIS EDDL R METAR 020550 -EXPECT VECTORS ILS APPROACH -RWY 23L -TWY L8 CLOSED BETWEEN TWY M AND RWY 23L -TRL 60 - -23010KT -CAVOK - - -T19 DP13 -QNH1020 - -TREND NOSIG",
    "EDDK": "[Arrival ATIS] EDDK ATIS K 1020Z -ATIS EDDK K METAR 021020 -EXPECT ILS APCH RWY 24 -RWY 24 -RWY COND RWY 24 AT TIME 0000 RWYCC 6 DEPOSIT TOTAL RWY DRY -TRL 60 -RWY 13R AND RWY 31L CLOSED FOR DEPARTURE AND LANDING: TAXIING BTN THR RWY 13R AND INTERSECTION RWY 24 POSSIBLE : -23012KT -CAVOK - - -T25 DP12 -QNH1020 - -TREND NOSIG\n[Departure ATIS] EDDK DEP ATIS Q EDDK ARR/DEP DATIS RPT -ATIS EDDK Q METAR 291920 -EXPECT ILS APCH -RWY 31R 06 -RWY COND RWY 31R AT TIME 1830 RWYCC 6 DEPOSIT TOTAL RWY DRY RWY 06 AT TIME 1830 RWYCC 6 DEPOSIT TOTAL RWY DRY -TRL 60 -RWY 13R AND RWY 31L CLOSED FOR DEPARTURE AND LANDING: TAXIING BTN THR RWY 13R AND INTERSECTION RWY 24 POSSIBLE : -04003KT -CAVOK - - -T24 DP13 -QNH1024 - -TREND NOSIG",
    "EBLG": "[Arrival ATIS] EBLG ATIS R 1443Z EBLG INFO, EXP RNAV TO ILS APP ARR RWY22L DEP RWY22L RWY 22L DRY, RWYCC 666. TRL 055 TWY A4 DISPLACED. ADZ ON GND FREQ IF UNABLE S4 240/15KT VIS ABV 10KM BKN1500FT T19 DP16 QNH 1023HPA TEMPO VIS4500M FBL RADZ BKN1300FT CFM ATIS R",
    "LSZH": "[Arrival ATIS] LSZH ARR ATIS K 1050Z ARRIVALS, EXP ILS APCH, RWY 14. TRL 70. DEP RWY 28. WIND VRB, 3 KT. VIS 10 KM OR MORE, TDZ 10 KM OR MORE. CLD FEW 5500 FT. T 25. DP 9. QNH 1023. NOSIG.\n[Departure ATIS] LSZH DEP ATIS X 1050Z DEP RWY 28. TRL 70. ARRIVALS, EXP ILS APCH, RWY 14. TMA S 1 IS NOT ACT. TMA S 2 AND S 3 ARE NOT ACT. WIND VRB, 2 KT. VIS 10 KM OR MORE. CLD FEW 5500 FT. T 25. DP 9. QNH 1023. NOSIG.",
    "LIMC": "[Arrival ATIS] LIMC ARR ATIS C 0020Z LIMC ARR C 0020Z I.L.S. ZULU RWY IN USE 35R TL 70 RWY 35L CLSD TAXIWAY ECHO WHISKY CLOSED... WIND TDZ VRB2KT VRB BTN 350/AND 080/ CAVOK T21 DP18 QNH 1020HPA QFE 0994HPA\n[Departure ATIS] LIMC DEP ATIS A 1450Z LIMC DEP A 1450Z RWY IN USE 35L TL 70 INTERSECTION ECHO WHISKY CLOSED.. WIND END VRB8KT CAVOK T31 DP16 QNH 1018HPA QFE 0993HPA DATALINK CLEARANCE AVAILABLE.... CONTACT 1 3 1 8 8 0 TO BE RELEASED BY THE AIRPORT OPERATOR ...",
    "LIRF": "[Arrival ATIS] LIRF ARR ATIS L 1420Z LIRF ARR L 1420Z RWY 16L ILS W RWY 16R ILS Z RWY IN USE 16L 16R TL 75 DEPENDENT PARL ILS APCH INPR RWY IN USE 16R OR 16L ASSIGNED BY ROME RADAR WIND RWY 16L TDZ 300/8KT RWY 16R TDZ 290/8KT VIS RWY 16L 10KM RWY 16R 10KM CLD RWY 16L SCT 5500FT RWY 16R SCT 5500FT T29 DP18 QNH 1011HPA\n[Departure ATIS] LIRF DEP ATIS B 1020Z LIRF DEP B 1020Z RWY IN USE 34L TL 75 RWYS IN USE FOR ARR 34R AND 34L WIND END 130/13KT VRB BTN 090/AND 160/ VIS 10KM CLD NSC T29 DP18 QNH 1011HPA REA IS SENT AUTOMATICALLY ONCE RLSD BY RAMP WHEN READY CONTACT FIUME RAMP 121.725",
    "EINN": "[Arrival ATIS] EINN ARR ATIS G 0025Z EXPECT I L S CATEGORY 1 LDG RWY24 RSCD wet TKOF RWY24 RSCD wet TRL FL065 16009KT 6000 -RA FEW012 BKN027 BKN035 15/13 QNH Q1013 TREND NOSIG RUNWAY 24 SURFACE CONDITION CODE 5 5 5 ISSUED AT 0025. ALL PARTS. WET. 100 PERCENT ADVISE AT FIRST CONTACT YOU HAVE ATIS INFO G",
    "EGLL": "[Arrival ATIS] EGLL ARR ATIS W 1050Z RUNWAY 27R REDUCED DECLARED DISTANCES WITH TAKE OFF RUN AVAILABLE 3362METRES AND LANDING DISTANCE AVAILABLE 3362METRES LANDING RWY 27R TRANSITION-LEVEL: FL 70 IF STAND GUIDANCE IS OFF OR FAILS, REMAIN ON THE TAXIWAY CENTRELINE AND ADVISE ATC AUTO 30010G20KT 9999 NCD 24/11 Q1021 TURBULENCE POSSIBLE ON THE LAST MILE OF THE APPROACH FOR RUNWAY 27R ACKNOWLEDGE RECEIPT OF INFORMATION W\n[Departure ATIS] EGLL DEP ATIS J 1050Z DEPARTURE RWY 27L PILOTS THAT ARE IN RECEIPT OF DATALINK CLEARANCES ARE REMINDED THEY MUST CONTACT DELIVERY ON 121.980 WHEN READY FOR START AUTO 29018KT 9999 NCD 24/11 Q1021 ACKNOWLEDGE RECEIPT OF INFORMATION J AND REPORT AIRCRAFT TYPE AND CURRENT QNH ON FIRST CONTACT WITH HEATHROW",
    "EPWA": "[Arrival ATIS] EPWA ARR ATIS D 1301Z EPWA ARR D. TIME 1300. EXP U ARR ILS Z APCH FOR RWY 33. TRANSITION LEVEL 80. WIND 310 DEG, 9 KT, VRB BTN 280 AND 020 DEG. CAVOK. T 26. DP 11. QNH 1015. NOSIG. CAUTION. BIRD ACT. END OF EPWA ARR D\n[Departure ATIS] EPWA DEP ATIS Y 1437Z EPWA DEP Y. TIME 1435. DEP RWY 29. ARR RWY 33, EXP U ARR ILS Z. REPORT READY FOR STARTUP ON DELIVERY 121 DECIMAL 605. TRANSITION LEVEL 80. WIND 360 DEG, 8 KT, VRB BTN 330 AND 120 DEG. CAVOK. T 31. DP 16. QNH 1019. NOSIG. CAUTION. BIRD ACT. END OF EPWA DEP Y",
    "EFHK": "[Arrival ATIS] EFHK ARR ATIS U 0020Z EXPECT ILS APCH ARR RWY 22L RUNWAY 22L CONDITION REPORT AT 2009 UTC RUNWAY CONDITION CODES 6 , 6 , 6 CONTAMINANTS ALL PARTS 25 PERCENT SLIPPERY WET TRL 65 OBSERVE TAILWIND ON FINAL RWY22L WIND 290 DEG 8 KT CAVOK T 12 DP 9 QNH 1006 NOSIG ACK INFO U\n[Departure ATIS] EFHK DEP ATIS U 1550Z DEP RWYS 22R AND 22L RUNWAY 22R CONDITION REPORT AT 1252 UTC RUNWAY CONDITION CODES 6 , 6 , 6 CONTAMINANTS ALL PARTS DRY RUNWAY 22L CONDITION REPORT AT 1307 UTC RUNWAY CONDITION CODES 6 , 6 , 6 CONTAMINANTS ALL PARTS DRY WIND 110 DEG 8 KT CAVOK T 22 DP 10 QNH 1016 NOSIG ACK INFO U",
    "LTAC": "[Arrival ATIS] LTAC ARR ATIS P 1120Z EXP ILS V APCH 03C DEP RWY 03L RWY 03C WIND 040 DEG 10 KT VRB BTN 010 DEG AND 070 DEG RWY 03L WIND 050 DEG 09 KT GUST 20 KT VRB BTN 360 DEG AND 090 DEG TRL 110 VIS 9999 SCT04000 FT T 29 DP 05 QNH 1015 NOSIG FOR DELIVERY CTC 121.9. FOR DELIVERY FIRST USE DIGITAL DEP CLR. CTN BIRD HAZARD OVR AERODROME. APCH FREQUENCY 129.050. TAXIWAY ECHO 1 IS CLOSED. FLIGHT CHECK FOR RWY 03L INPR. END OF ATIS P",
    "UBBB": "[Arrival ATIS] UBBB ARR ATIS F 1430Z ATIS F EXP ILS/ LDG 16 17 DEP 16 17 IN USE RWY 16 CLEAR DRY 70 RWY 17 CLEAR DRY 70 TLVL 110 WIND WIND RWY 16 200 8 KT SPD MAX 12 MIN 6 WIND RWY 17 180 14 KT SPD MAX 16 MIN 12 VIS CAVOK T 29 / DP 17 QNH 1008 HPA TREND TREND NOSIG MODERATE BIRDS ACT IN VICINITY OF AP END OF ATIS F\n[Departure ATIS] UBBB DEP ATIS Z 2300Z ATIS Z EXP ILS/ LDG 16 17 DEP 16 17 IN USE RWY 16 CLEAR DRY 70 RWY 17 CLEAR DRY 70 TLVL 110 WIND WIND RWY 16 220 6 KT SPD MAX 10 MIN 4 WIND RWY 17 220 2 KT SPD MAX 4 MIN 0 VIS CAVOK T 24 / DP 13 QNH 1011 HPA TREND TREND NOSIG MODERATE BIRDS ACT IN VICINITY OF AP END OF ATIS Z",
    "ZWWW": "[Arrival ATIS] ZWWW ARR ATIS H 0000Z EXP ILSDME Z APCH LDG RWY 26R TA 3000 WIND 230/2MPS VRB BTN 190/ AND 250/ CAVOK T 27 /DP 10 QNH 1012 HPA ADZ YOU HAVE INFO H.\n[Departure ATIS] ZWWW DEP ATIS G 1300Z DEP RWY 26L TA 3000 WIND 300/2MPS CAVOK T 29 /DP 11 QNH 1011 HPA ADZ YOU HAVE INFO G.",
    "ZLXY": "[Arrival ATIS] ZLXY ARR ATIS P 0000Z EXP ILS APCH LDG RWY 05L & 06R WIND 150/2MPS VIS 9999M CLD SCT 1200M /OVC 2100M T 21 /DP 19 QNH 1009 HPA VISUAL APPROACH IN PROGRESS ADZ YOU HAVE INFO P.\n[Departure ATIS] ZLXY DEP ATIS P 0900Z DEP RWY 05L & 06L WIND 080/4MPS VRB BTN 030/ AND 120/ VIS 9999M CLD FEW 1500M /FEW TCU 1500M T 34 /DP 17 QNH 1005 HPA VISUAL APPROACH IN PROGRESS ADZ YOU HAVE INFO P.",
    "ZBAA": "[Arrival ATIS] ZBAA ARR ATIS Q 2330Z EXP ILS APCH DEPENDENT PARL INSTR APCH LDG RWY 36L & 36R & 01 WIND 120 DEG 2 MPS 080V160 DEG VIS 2800 BR NSC T 24 /DP 22 QNH 1008 HPA ADZ YOU HAVE INFO Q.\n[Departure ATIS] ZBAA DEP ATIS S 0030Z DEP RWY 36L & 36R & 01 WIND VRB DEG 1 MPS VIS 3200 BR NSC T 26 /DP 23 QNH 1008 HPA RWY INDEPENDENT PARALLEL DEP ADZ YOU HAVE INFO S.",
    "ZBHH": "[Arrival ATIS] ZBHH ARR ATIS L 0000Z EXP ILSDME APCH LDG RWY 26 TA 3000 /TRL 3600 WIND 070/2MPS VRB BTN 030/ AND 120/ VIS 9999M CLD FEW 1200M T 24 /DP 16 QNH 1010 HPA ADZ YOU HAVE INFO L.\n[Departure ATIS] ZBHH DEP ATIS K 2300Z DEP RWY 26 TA 3000 /TRL 3600 WIND 060/3MPS VRB BTN 010/ AND 080/ CAVOK T 21 /DP 15 QNH 1010 HPA ADZ YOU HAVE INFO K.",
    "ZSQD": "[Arrival ATIS] ZSQD ARR ATIS J 0000Z EXP ILSDME APCH LDG RWY 17 TA 3000 /TRL 3600 WIND 170/4MPS VIS 9999M CLD FEW 300M T 25 /DP 21 QNH 1009 HPA SEGREGATED OPERATION VISUAL APPROACH OPERATION IN PROGRESS. RUNWAY 17,IF MISSED APPROACH,EXPECT FOLLOW THE STANDARD MISSED APPROACH PROCEDURE,CLIMB TO 900M ON QNH OR BY ATC CAUTION MAYBE THERE IS A FLOCK OF BIRDS IN THE VICINITY OF AIRPORT ADZ YOU HAVE INFO J.\n[Departure ATIS] ZSQD DEP ATIS F 2200Z DEP RWY 16 TA 3000 /TRL 3600 WIND 160/4MPS VIS 9999M CLD SCT 270M T 23 /DP 22 QNH 1009 HPA VISUAL APPROACH OPERATION IN PROGRESS. RUNWAY 16,IF MISSED APPROACH,EXPECT FOLLOW THE STANDARD MISSED APPROACH PROCEDURE,CLIMB TO 600M ON QNH OR BY ATC CAUTION MAYBE THERE IS A FLOCK OF BIRDS IN THE VICINITY OF AIRPORT ADZ YOU HAVE INFO F."
  },
  "windtemp_alaska": "\n000\nFBAK31 KWNO 021359\nFD1AK1\nDATA BASED ON 021200Z    \nVALID 021800Z   FOR USE 1400-2100Z. TEMPS NEG ABV 24000\n\nFT  3000    6000    9000   12000   18000   24000  30000  34000  39000\nADK 0113 3614+06 3513+03 3217-02 3124-14 3029-28 292944 292752 283855\nADQ 0905 1506+01 1906-04 1905-10 2207-22 2209-32 241845 252247 261943\nAKN 0708 1007+00 1206-04 9900-10 1006-22 0509-32 070746 280548 271242\nANC 9900 0805+01 0906-04 1307-10 1207-22 3308-34 311548 301050 280942\nANN 9900 2806+00 2711-04 2718-09 2733-21 2744-32 285246 284445 282941\nBET 9900 0307+00 0207-04 0510-09 0207-20 3609-33 310948 301050 281244\nBRW 9900 2216-02 2214-06 2317-12 2322-23 2324-35 241448 990044 070942\nBTI 1405 9900+03 9900-04 9900-11 1912-22 1824-34 185447 183550 181943\nBTT 9900 9900+02 2305-05 9900-10 9900-23 9900-35 210749 180849 150743\nCDB 2816 2917-01 3118-06 3120-10 3224-20 3324-32 312344 302844 282642\nCZF 9900 9900-01 9900-05 2809-09 2712-20 2717-32 282849 282451 281344\nEHM 9900 9900-01 0305-06 0210-09 0115-20 0116-32 011547 321149 291643\nFAI 1305 0805+04 0609-04 0508-10 0506-23 0806-36 030849 990049 990042\nFYU 0805 0207+03 0209-04 3608-10 0406-22 1511-34 163249 151850 151243\nGAL 9900 1505+01 1708-06 2008-11 9900-22 9900-34 241250 241050 990043\nGKN 9900 0207+01 0408-05 0307-10 3509-23 3614-36 340947 320647 990041\nHOM 1406 1109+00 1111-04 1308-09 1107-22 9900-33 270747 271349 271343\nJNU 2007 2408-02 3011-07 3215-12 0125-25 0146-37 352443 321840 281239\nLUR 0617 1309-03 1614-07 1819-12 1825-23 1934-36 160746 071544 061342\nMCG 0607 0811+02 1012-04 1109-11 9900-21 3307-33 300649 290551 280543\nMDO 9900 9900+01 9900-04 0805-10 9900-22 3011-33 291947 282249 281642\nOME 1606 1718-01 1915-06 1916-11 2118-21 2123-34 222650 231748 260642\nORT      3509+02 3306-04 9900-10 1508-22 1423-34 132149 130947 990042\nOTZ 1408 1713-01 1715-07 1716-11 1919-22 1918-34 202250 191248 990042\nSNP 3321 3430+02 3530-01 3427-06 3330-18 3333-31 334347 334353 312747\nTKA 9900 9900+02 0807-04 1007-10 1107-23 3608-34 341348 331050 290742\nUNK 1508 1609+00 1709-07 1708-10 9900-21 9900-33 330750 260950 260643\nYAK 2707 3009-02 3207-04 3607-09 1707-22 1111-36 340748 311445 291140\nIKO 3123 3130+03 3234-01 3237-05 3339-19 3337-31 323746 313947 293945\nAFM 9900 9900+00 9900-06 1308-10 1706-23 9900-35 300651 990048 990043\n5AB 9900 9900+04 9900+02 2106-02 2417-14 2422-27 252544 253254 253257\n5AC 3110 3014+04 2921+00 2928-04 2942-17 2954-28 308042 297949 296148\n5AD 2924 2928+02 2835-01 2834-06 2745-18 2764-28 277143 277249 275648\n5AE 2620 2520+00 2521-04 2317-10 2530-19 2634-30 254644 254845 263943\n5AF 2908 2708-01 2811-05 3017-10 3128-22 3043-33 295646 295146 293241\n5AG 9900 9900-02 2808-04 2805-09 3105-22 3021-33 293146 293348 292342\n",
  "vaac_tokyo": [
    {
      "id": "20260702_30027000_0216",
      "year": "2026",
      "volcano": "Sheveluch",
      "psn": "N5639 E16122",
      "issued": "20260702",
      "text": "FVFE01 RJTD 021500\nVA ADVISORY\nDTG: 20260702/1500Z\nVAAC: TOKYO\nVOLCANO: SHEVELUCH 300270\nPSN: N5639 E16122\nAREA: RUSSIA\nSOURCE ELEV: 3283M AMSL\nADVISORY NR: 2026/216\nINFO SOURCE: HIMAWARI-9\nERUPTION DETAILS: VA CONTINUOUSLY OBS IN SATELLITE IMAGERY\nOBS VA DTG: 02/1420Z\nOBS VA CLD: SFC/FL350 N5621 E15752 - N5830 E15955 - N5702 E16111 - \nN5640 E15944 - N5600 E15836 MOV W 20KT\nFCST VA CLD +6 HR: 02/2020Z SFC/FL350 N5852 E15900 - N5651 E15823 - \nN5452 E15545 - N5450 E15442\nFCST VA CLD +12 HR: 03/0220Z SFC/FL350 N5905 E15736 - N5538 E15626 - \nN5145 E15321 - N5206 E15138\nFCST VA CLD +18 HR: 03/0820Z SFC/FL340 N5013 E15417 - N4646 E15457 - \nN4949 E15134 - N5253 E15226 - N5816 E15611\nRMK: NIL\nNXT ADVISORY: 20260702/1800Z=",
      "img_url": "https://ds.data.jma.go.jp/svd/vaac/data/VAGFN/2026/Images/20260702_30027000_0216_QH21_01.png",
      "sat_img_url": "https://ds.data.jma.go.jp/svd/vaac/data/Sat/2026/Images/30027000/09-ir/20260702_1420_202607021500_ir.png",
      "text_url": "https://ds.data.jma.go.jp/svd/vaac/data/TextData/2026/20260702_30027000_0216_Text.html"
    },
    {
      "id": "20260702_27303000_0713",
      "year": "2026",
      "volcano": "Mayon",
      "psn": "N1315 E12341",
      "issued": "20260702",
      "text": "FVFE01 RJTD 021148\nVA ADVISORY\nDTG: 20260702/1148Z\nVAAC: TOKYO\nVOLCANO: MAYON 273030\nPSN: N1315 E12341\nAREA: PHILIPPINES\nSOURCE ELEV: 2462M AMSL\nADVISORY NR: 2026/713\nINFO SOURCE: HIMAWARI-9 PHIVOLCS\nERUPTION DETAILS: ERUPTION AT 20260702/1128Z FL090 EXTD WSW REPORTED\nOBS VA DTG: 02/1130Z\nOBS VA CLD: VA NOT IDENTIFIABLE FM SATELLITE DATA WIND FL090 090/11KT\nFCST VA CLD +6 HR: NOT AVBL\nFCST VA CLD +12 HR: NOT AVBL\nFCST VA CLD +18 HR: NOT AVBL\nRMK: WE WILL ISSUE FURTHER ADVISORY IF VA IS DETECTED IN SATELLITE \nIMAGERY.\nNXT ADVISORY: NO FURTHER ADVISORIES=",
      "img_url": "https://ds.data.jma.go.jp/svd/vaac/data/VAGFN/2026/Images/20260702_27303000_0713_QH21_01.png",
      "sat_img_url": null,
      "text_url": "https://ds.data.jma.go.jp/svd/vaac/data/TextData/2026/20260702_27303000_0713_Text.html"
    },
    {
      "id": "20260701_30006000_0001",
      "year": "2026",
      "volcano": "Mutnovsky",
      "psn": "N5227 E15812",
      "issued": "20260701",
      "text": "FVFE01 RJTD 012206\nVA ADVISORY\nDTG: 20260701/2206Z\nVAAC: TOKYO\nVOLCANO: MUTNOVSKY 300060\nPSN: N5227 E15812\nAREA: RUSSIA\nSOURCE ELEV: 2288M AMSL\nADVISORY NR: 2026/1\nINFO SOURCE: KVERT KBGS UHPP HIMAWARI-9\nERUPTION DETAILS: ERUPTION AT 20260701/2016Z FL170 EXTD W REPORTED\nOBS VA DTG: 01/2140Z\nOBS VA CLD: VA NOT IDENTIFIABLE FM SATELLITE DATA WIND FL170 120/8KT\nFCST VA CLD +6 HR: NOT AVBL\nFCST VA CLD +12 HR: NOT AVBL\nFCST VA CLD +18 HR: NOT AVBL\nRMK: WE WILL ISSUE FURTHER ADVISORY IF VA IS DETECTED IN SATELLITE \nIMAGERY.\nNXT ADVISORY: NO FURTHER ADVISORIES=",
      "img_url": "https://ds.data.jma.go.jp/svd/vaac/data/VAGFN/2026/Images/20260701_30006000_0001_QH21_01.png",
      "sat_img_url": null,
      "text_url": "https://ds.data.jma.go.jp/svd/vaac/data/TextData/2026/20260701_30006000_0001_Text.html"
    },
    {
      "id": "20260701_27202000_0225",
      "year": "2026",
      "volcano": "Kanlaon",
      "psn": "N1025 E12308",
      "issued": "20260701",
      "text": "FVFE01 RJTD 012010\nVA ADVISORY\nDTG: 20260701/2010Z\nVAAC: TOKYO\nVOLCANO: KANLAON 272020\nPSN: N1025 E12308\nAREA: PHILIPPINES\nSOURCE ELEV: 2435M AMSL\nADVISORY NR: 2026/225\nINFO SOURCE: HIMAWARI-9 PHIVOLCS\nERUPTION DETAILS: ERUPTION AT 20260701/1954Z FL090 EXTD NNW REPORTED\nOBS VA DTG: 01/1950Z\nOBS VA CLD: VA NOT IDENTIFIABLE FM SATELLITE DATA WIND FL090 120/5KT\nFCST VA CLD +6 HR: NOT AVBL\nFCST VA CLD +12 HR: NOT AVBL\nFCST VA CLD +18 HR: NOT AVBL\nRMK: WE WILL ISSUE FURTHER ADVISORY IF VA IS DETECTED IN SATELLITE \nIMAGERY.\nNXT ADVISORY: NO FURTHER ADVISORIES=",
      "img_url": "https://ds.data.jma.go.jp/svd/vaac/data/VAGFN/2026/Images/20260701_27202000_0225_QH21_01.png",
      "sat_img_url": null,
      "text_url": "https://ds.data.jma.go.jp/svd/vaac/data/TextData/2026/20260701_27202000_0225_Text.html"
    }
  ],
  "vaac_alaska": [
    {
      "text": "\n000\nFVAK21 PAWU 292114\nVAAAK1\nVA ADVISORY\n\nDTG: 20260629/2111Z\n\nVAAC: ANCHORAGE\n\nVOLCANO: SHEVELUCH 300270\n\nPSN: N5639 E16122\n\nAREA: KAMCHATKA PENINSULA\n\nSOURCE ELEV: 10771 FT AMSL\n\nADVISORY NR: 2026/163\n\nRMK: PLEASE SEE FVFE01 RJTD ISSUED BY VAAC TOKYO WHICH DESCRIBES\nCONDITIONS NEAR THE VAAC ANCHORAGE AREA OF RESPONSIBILITY...BS\n\n\n\n",
      "issued": "2026-06-29T21:14:00+00:00",
      "volcano": "Sheveluch",
      "psn": "N5639 E16122"
    }
  ]
}