{
  "updated_utc": "2026-07-12T08:37Z",
  "metar": {
    "RJAA": "METAR RJAA 120700Z 21004KT 180V240 9999 FEW020 SCT080 BKN140 28/23 Q1009 NOSIG",
    "PANC": "METAR PANC 120653Z 29004KT 10SM BKN008 BKN016 OVC060 12/10 A2983 RMK AO2 SLP102 T01170100",
    "PAFA": "METAR PAFA 120653Z 30011KT 10SM FEW070 SCT100 BKN200 19/10 A2962 RMK AO2 SLP034 T01940100 $",
    "PAED": "METAR PAED 120655Z 00000KT 10SM BKN009 OVC017 12/10 A2981 RMK AO2A SLP090 T01200097 $",
    "KSEA": "METAR KSEA 120653Z 21014KT 10SM FEW030 BKN045 BKN080 16/09 A3006 RMK AO2 SLP184 T01610089 $",
    "ZSPD": "METAR ZSPD 120700Z 15014MPS 9999 BKN023 30/25 Q0994 NOSIG",
    "ZSSS": "METAR ZSSS 120700Z 16012G18MPS 9999 SCT026 30/25 Q0993 NOSIG",
    "RJFR": "METAR RJFR 120700Z 09004KT 9999 FEW025 FEW030CB BKN/// 28/26 Q1012",
    "VHHH": "METAR VHHH 120700Z 23014KT 9999 FEW015 34/26 Q0998 NOSIG",
    "RCTP": "METAR RCTP 120700Z 25006KT 210V290 9999 FEW020 BKN180 37/27 Q1000 NOSIG RMK A2954",
    "ZGSZ": "METAR ZGSZ 120700Z 18007MPS 9999 FEW026 32/28 Q0998 NOSIG",
    "WSSS": "METAR WSSS 120700Z 17011KT 8000 -SHRA FEW014 SCT016TCU FEW017CB 29/24 Q1009 NOSIG",
    "WMKK": "METAR WMKK 120700Z VRB05KT 9999 SCT018 32/24 Q1007 NOSIG",
    "WIDD": "METAR WIDD 120700Z 19011KT 9999 SCT014 32/25 Q1009 NOSIG",
    "VTBS": "METAR VTBS 120700Z 26017KT 9999 FEW020 SCT035 31/21 Q1005 NOSIG",
    "VTBU": "METAR VTBU 120700Z 29012KT 9999 FEW020 SCT100 30/26 Q1005 NOSIG",
    "ROAH": "METAR ROAH 120700Z 16022KT 9999 FEW009 BKN011 BKN/// 29/26 Q1009",
    "VVDN": "METAR VVDN 120700Z VRB02KT 9999 FEW020 BKN060 33/23 Q1000 NOSIG",
    "RCKH": "SPECI RCKH 120650Z 16012KT 130V200 6000 -SHRA FEW010TCU SCT012 SCT020 BKN032 31/27 Q1002 TEMPO 5000 SHRA RMK TCU NW A2961",
    "KLAX": "METAR KLAX 120653Z 24006KT 10SM FEW100 SCT220 19/17 A2993 RMK AO2 SLP131 T01940167 $",
    "KONT": "METAR KONT 120653Z 00000KT 10SM FEW250 22/14 A2994 RMK AO2 SLP120 T02220144 $",
    "KSFO": "METAR KSFO 120656Z 29005KT 10SM FEW003 BKN150 14/12 A2992 RMK AO2 SLP131 T01440117 $",
    "KOAK": "METAR KOAK 120653Z 34003KT 10SM FEW010 BKN190 14/12 A2992 RMK AO2 SLP132 T01390122",
    "KMHR": "METAR KMHR 120655Z AUTO 17006KT 10SM CLR 20/08 A2985 RMK AO2 T02010084 $",
    "KDFW": "METAR KDFW 120653Z 18006KT 10SM CLR 27/21 A3004 RMK AO2 SLP163 T02720206 $",
    "KIAH": "METAR KIAH 120653Z 00000KT 10SM SCT130 OVC200 26/25 A3007 RMK AO2 SLP181 T02560250",
    "KORD": "METAR KORD 120651Z 35003KT 10SM CLR 21/17 A3013 RMK AO2 SLP197 T02060172 $",
    "KJFK": "METAR KJFK 120651Z 04005KT 10SM BKN120 BKN250 21/16 A3008 RMK AO2 SLP186 T02060156 $",
    "KRFD": "METAR KRFD 120654Z 00000KT 10SM CLR 17/14 A3017 RMK AO2 SLP212 T01670139 $",
    "KIND": "METAR KIND 120654Z 02006KT 10SM FEW150 BKN250 22/21 A3007 RMK AO2 SLP177 T02170206",
    "KDTW": "METAR KDTW 120653Z 02004KT 10SM FEW200 21/13 A3015 RMK AO2 SLP204 T02060133 $",
    "KMSP": "METAR KMSP 120653Z 23006KT 10SM CLR 26/20 A3013 RMK AO2 SLP197 T02610200 $",
    "CYEG": "METAR CYEG 120700Z 18004KT 20SM SCT097 11/11 A2991 RMK AC4 SLP133 DENSITY ALT 2600FT",
    "EHAM": "METAR EHAM 120655Z 03009KT 360V070 9999 FEW007 20/17 Q1024 NOSIG",
    "EBBR": "METAR EBBR 120650Z 07005KT 040V110 CAVOK 22/16 Q1022 NOSIG",
    "EDDF": "METAR EDDF 120650Z AUTO 05007KT 020V080 CAVOK 24/12 Q1022 NOSIG",
    "EDFH": "METAR EDFH 120650Z 09007KT 040V140 CAVOK 22/10 Q1023",
    "EDDL": "METAR EDDL 120650Z AUTO 04005KT 010V080 CAVOK 24/14 Q1023 NOSIG",
    "EDDK": "METAR EDDK 120650Z AUTO 08005KT 040V150 CAVOK 24/13 Q1023 NOSIG",
    "EBLG": "METAR EBLG 120650Z 07007KT CAVOK 24/12 Q1023 NOSIG",
    "LSZH": "METAR LSZH 120650Z VRB02KT CAVOK 22/11 Q1021 NOSIG",
    "LIMC": "METAR LIMC 120650Z VRB02KT CAVOK 25/18 Q1018 NOSIG",
    "LIRF": "METAR LIRF 120650Z 04005KT 010V070 CAVOK 28/20 Q1015 NOSIG",
    "EINN": "METAR EINN 120700Z 03007KT 9999 FEW007 19/16 Q1024 NOSIG",
    "EGLL": "METAR EGLL 120650Z AUTO 05010KT 010V080 9999 OVC016 18/14 Q1024",
    "EGSS": "METAR EGSS 120650Z AUTO 03009KT 350V060 9999 BKN011 20/15 Q1025",
    "EPWA": "METAR EPWA 120700Z 25007KT 9999 BKN007 15/14 Q1014 TEMPO 4000 DZ BR",
    "UHPP": "METAR UHPP 120700Z 20005MPS 9999 FEW050 28/13 Q1007 R16R/CLRD62 NOSIG RMK MT OBSC QFE752/1003",
    "EFHK": "METAR EFHK 120650Z 01004KT 9999 FEW040TCU 22/19 Q1017 TEMPO SHRA FEW040CB",
    "LBBG": "METAR LBBG 120700Z AUTO 22004KT 170V260 9999 NSC 26/13 Q1015 NOSIG",
    "LTAC": "METAR LTAC 120650Z 03008KT 350V070 CAVOK 24/12 Q1017 NOSIG RMK RWY21C 04009KT 360V060 RWY03L 03007KT 360V070 RWY21R 02009KT 330V040 RWY03R 36008KT 290V060 RWY21L 02008KT 330V080",
    "UBBB": "METAR UBBB 120700Z 34020KT CAVOK 29/21 Q1012 NOSIG",
    "UTAA": "METAR UTAA 120700Z 30018KT 9999 SCT050 BKN100 37/17 Q1008 R88/CLRD70 NOSIG",
    "UACC": "METAR UACC 120700Z 06004MPS 030V120 CAVOK 28/08 Q1012 NOSIG RMK QFE727/0970",
    "UAAA": "METAR UAAA 120700Z 26003MPS 180V310 9999 FEW050TCU SCT200 35/05 Q1004 NOSIG",
    "UZTT": "METAR UZTT 120700Z 28008KT 240V350 CAVOK 37/11 Q1001 NOSIG",
    "ZWWW": "METAR ZWWW 120700Z 33004MPS 300V010 9999 FEW040CB 35/11 Q1003 NOSIG",
    "ZLXY": "METAR ZLXY 120700Z VRB01MPS 9999 FEW050 33/19 Q1006 NOSIG",
    "ZBAA": "METAR ZBAA 120700Z VRB01MPS CAVOK 28/25 Q1004 NOSIG",
    "ZBHH": "METAR ZBHH 120700Z 23004MPS 200V270 9999 SCT040 27/18 Q1009 NOSIG",
    "ZSQD": "METAR ZSQD 120700Z 13007MPS 9999 BKN018 28/25 Q1003 NOSIG",
    "ZMCK": "METAR ZMCK 120700Z 32009MPS 9999 FEW030CB SCT033 15/07 Q1010 NOSIG RMK QFE642.8 59 MOP",
    "UUEE": "METAR UUEE 120700Z 23002MPS 190V300 9999 FEW008 19/17 Q1006 R06R/250145 R06C/250145 NOSIG",
    "UUDD": "SPECI UUDD 120641Z 26004MPS 9000 -SHRA BKN007CB 18/17 Q1007 R13R/290045 NOSIG",
    "ULLI": "METAR ULLI 120700Z 03004MPS 360V070 CAVOK 25/17 Q1014 R88/090065 NOSIG",
    "USSS": "METAR USSS 120700Z 26004MPS 230V290 9999 SCT033CB 26/19 Q1008 R26R/CLRD60 R26L/CLRD60 NOSIG RMK QFE735/0980",
    "UNNT": "METAR UNNT 120700Z 03004MPS CAVOK 23/11 Q1014 R07/CLRD// R34/////// NOSIG RMK QFE750/1001",
    "UNKL": "METAR UNKL 120700Z 36002MPS 290V100 CAVOK 19/09 Q1012 R29/CLRD// NOSIG RMK QFE733",
    "UIBB": "METAR UIBB 120700Z 29004MPS 250V330 9999 SCT040CB 13/10 Q1008 R30/290151 NOSIG RMK QFE713/0951",
    "UEEE": "METAR UEEE 120700Z 11002MPS 060V150 CAVOK 22/12 Q1004 R23/09//66 NOSIG RMK QFE745",
    "UHHH": "METAR UHHH 120700Z 25005MPS 230V290 9999 SCT031CB 30/24 Q1001 R88/090060 NOSIG RMK QFE745/0993",
    "UHSS": "METAR UHSS 120700Z 35003MPS 9999 BKN008 21/19 Q1005 R01/CLRD70 NOSIG RMK MT OBSC QFE752/1003"
  },
  "taf": {
    "RJAA": "TAF RJAA 120505Z 1206/1312 21006KT 9999 FEW020 TEMPO 1210/1221 4000 -SHRA BR FEW001 BKN003 BECMG 1221/1300 28008KT",
    "PANC": "TAF PANC 120557Z 1206/1312 19007KT P6SM BKN015 BKN035 TEMPO 1206/1210 BKN009 FM121300 12005KT 6SM -SHRA OVC009 FM122300 15007KT P6SM -SHRA SCT030 OVC060 FM130100 14007G17KT P6SM -SHRA OVC019",
    "PAFA": "TAF PAFA 120520Z 1206/1312 22007KT P6SM SCT070 BKN130 FM121200 VRB03KT P6SM OVC070",
    "PAED": "TAF PAED 120500Z 1205/1311 VRB06KT 9000 BKN009 OVC020 620208 QNH2981INS BECMG 1211/1212 35006KT 9999 -RA BKN035 OVC060 60357 QNH2982INS TX14/1220Z TN11/1212Z",
    "KSEA": "TAF KSEA 120520Z 1206/1312 22012G20KT P6SM FEW035 BKN060 FM121300 20008KT P6SM BKN025 BKN060 FM121800 27003KT P6SM FEW030 SCT250 FM122100 36010KT P6SM SCT250 FM130500 03006KT P6SM FEW250",
    "ZSPD": "TAF ZSPD 120308Z 1206/1312 14016G23MPS 6000 BKN020 TX31/1206Z TX32/1306Z TN26/1221Z BECMG 1219/1220 16010G16MPS BECMG 1303/1304 16009MPS",
    "ZSSS": "TAF ZSSS 120308Z 1206/1312 15012G17MPS 6000 BKN015 TX31/1206Z TX33/1306Z TN28/1221Z BECMG 1223/1224 17007MPS",
    "RJFR": "TAF RJFR 120505Z 1206/1312 07006KT 9000 FEW011 BKN015 TEMPO 1212/1300 BKN005 BECMG 1306/1309 33010KT",
    "VHHH": "TAF VHHH 120800Z 1209/1315 22010KT 9999 FEW010 TX34/1306Z TN29/1222Z TEMPO 1220/1224 VRB05KT TEMPO 1303/1308 4000 SHRA FEW010CB SCT020 BECMG 1306/1308 16010KT",
    "RCTP": "TAF RCTP 120500Z 1206/1312 18005KT 9999 FEW015 BKN032 TEMPO 1210/1216 26010KT TEMPO 1220/1224 15005KT BECMG 1303/1305 02007KT TEMPO 1306/1312 VRB05KT 5000 SHRA FEW010 FEW012TCU BKN015",
    "ZGSZ": "TAF ZGSZ 120304Z 1206/1312 18004MPS 8000 FEW040 TX34/1206Z TX33/1306Z TN29/1222Z TEMPO 1305/1309 TSRA FEW010 FEW020CB BKN040",
    "WSSS": "TAF WSSS 120500Z 1206/1312 15010KT 9999 FEW015 SCT020",
    "WMKK": "TAF WMKK 120500Z 1206/1312 VRB03KT 9999 FEW018",
    "VTBS": "TAF VTBS 120500Z 1206/1312 24008KT 9999 FEW020 SCT030 TEMPO 1208/1212 VRB15KT 3000 TSRA FEW018CB SCT030 BKN080 TEMPO 1308/1312 VRB15KT 4000 TSRA FEW018CB SCT030 BKN080",
    "VTBU": "TAF VTBU 120500Z 1206/1306 26012KT 9999 FEW020 SCT100 TEMPO 1208/1213 VRB15KT 4000 TSRA FEW018CB SCT030 BKN090",
    "ROAH": "TAF ROAH 120505Z 1206/1312 15023KT 9999 FEW008 BKN012 TEMPO 1206/1210 15025G35KT TEMPO 1215/1300 FEW005 BKN008",
    "VVDN": "TAF VVDN 120500Z 1206/1306 24008KT 9999 FEW020 BKN060 BECMG 1206/1207 10010KT BECMG 1213/1214 24007KT",
    "RCKH": "TAF RCKH 120500Z 1206/1312 18008KT 9999 FEW015 BKN032 TEMPO 1206/1212 10008KT 3000 SHRA FEW010 FEW012TCU BKN022 TEMPO 1216/1222 15005KT 3000 SHRA FEW010 FEW012CB BKN020 TEMPO 1302/1308 17012KT 5000 RA FEW010 BKN020 BECMG 1308/1310 16015KT",
    "KLAX": "TAF KLAX 120550Z 1206/1312 21004KT P6SM FEW015 SCT200 FM121200 VRB03KT 5SM HZ OVC015 FM121700 26007KT P6SM BKN025 FM121900 26012KT P6SM BKN250 FM130400 26008KT P6SM FEW015 BKN250 FM130800 VRB03KT P6SM OVC015",
    "KONT": "TAF KONT 120520Z 1206/1312 25008KT P6SM SCT150 FM120700 VRB04KT P6SM FEW150 FM122000 25010G19KT P6SM SCT150 FM130300 24008KT P6SM SCT200 FM130700 VRB04KT P6SM BKN200",
    "KSFO": "TAF KSFO 120520Z 1206/1312 32015KT P6SM FEW008 BKN200 FM120800 29011KT P6SM SCT100 FM121500 33006KT P6SM SCT015 FM122000 30013KT P6SM SCT200 FM130400 29010KT P6SM SCT200",
    "KOAK": "TAF KOAK 120520Z 1206/1312 28011KT P6SM SCT200 FM121000 31007KT P6SM SCT010 SCT200 FM121800 30012KT P6SM SCT200 FM122100 29014KT P6SM SCT200 FM130500 29010KT P6SM SCT200",
    "KMHR": "TAF KMHR 120520Z 1206/1306 17008KT P6SM BKN250 FM120900 16006KT P6SM VCSH BKN200 FM121600 VRB05KT P6SM VCSH OVC150 FM130000 22008KT P6SM BKN250",
    "KDFW": "TAF KDFW 120525Z 1206/1312 18009KT P6SM FEW250 FM121800 17008KT P6SM VCSH SCT045 FM122100 17007KT P6SM -SHRA SCT060 TEMPO 1221/1301 4SM -TSRA BKN060 OVC250CB FM130300 12007KT P6SM SCT090 BKN200",
    "KIAH": "TAF KIAH 120836Z 1209/1312 13005KT P6SM FEW020 BKN140 OVC200 PROB30 1209/1211 -RA SCT020 BKN140 OVC200 FM121700 16006KT P6SM VCSH SCT035 BKN045 BKN120 TEMPO 1218/1222 VRB20KT 4SM TSRA SCT025 BKN035CB FM130200 16008KT P6SM FEW025 BKN120 FM130900 18003KT P6SM SCT020 SCT120",
    "KORD": "TAF KORD 120520Z 1206/1312 01005KT P6SM SKC FM121600 06009KT P6SM SKC FM130300 VRB04KT P6SM SKC",
    "KJFK": "TAF KJFK 120531Z 1206/1312 04005KT P6SM FEW100 FM121500 10009KT P6SM FEW050 FM121800 17010KT P6SM SCT070 FM130200 18006KT P6SM FEW070 FM131000 22004KT P6SM FEW070",
    "KRFD": "TAF KRFD 120520Z 1206/1306 VRB02KT P6SM SKC FM121500 08008KT P6SM SKC FM130300 VRB02KT P6SM SKC",
    "KIND": "TAF KIND 120520Z 1206/1312 04007KT P6SM SCT100 FM121700 05011G20KT P6SM SCT050 FM130000 05005KT P6SM SKC",
    "KDTW": "TAF KDTW 120830Z 1209/1312 03005KT P6SM FEW200 FM121400 07005KT P6SM SKC FM121800 08008KT P6SM SKC FM130000 09007KT P6SM SKC",
    "KMSP": "TAF KMSP 120530Z 1206/1312 20006KT P6SM SKC FM121500 23012G18KT P6SM SKC",
    "CYEG": "TAF CYEG 120540Z 1206/1306 22003KT P6SM SCT120 SCT250 TEMPO 1206/1210 BKN120 BECMG 1208/1210 10003KT FM121000 12005KT 5SM BR FEW002 TEMPO 1210/1213 1/2SM FG VV002 BECMG 1213/1214 P6SM NSW SKC FM121400 14008KT P6SM SKC BECMG 1217/1219 30010G20KT SCT030 FM121900 30012G22KT P6SM SCT030 TEMPO 1219/1221 BKN030 FM122300 28022G32KT P6SM SKC BECMG 1301/1303 28012KT BECMG 1304/1306 31008KT RMK NXT FCST BY 120900Z",
    "EHAM": "TAF EHAM 120449Z 1206/1312 04010KT CAVOK BECMG 1221/1224 BKN012 PROB30 TEMPO 1304/1307 7000 BKN005 BECMG 1307/1310 CAVOK",
    "EBBR": "TAF EBBR 120512Z 1206/1312 06008KT CAVOK",
    "EDDF": "TAF EDDF 120500Z 1206/1312 04008KT CAVOK TEMPO 1217/1223 03013KT",
    "EDFH": "TAF EDFH 120500Z 1206/1306 09007KT CAVOK",
    "EDDL": "TAF EDDL 120500Z 1206/1312 03004KT CAVOK BECMG 1207/1210 03009KT BECMG 1221/1224 01004KT BECMG 1308/1311 02009KT",
    "EDDK": "TAF EDDK 120500Z 1206/1312 VRB02KT CAVOK BECMG 1208/1210 04006KT BECMG 1220/1223 VRB03KT BECMG 1308/1310 36006KT",
    "EBLG": "TAF EBLG 120512Z 1206/1312 06007KT CAVOK",
    "LSZH": "TAF LSZH 120825Z 1209/1315 06005KT CAVOK TX32/1215Z TN14/1303Z TX32/1315Z BECMG 1209/1211 07011KT BECMG 1218/1220 06005KT BECMG 1220/1223 32004KT",
    "LIMC": "TAF LIMC 120500Z 1206/1312 VRB04KT CAVOK",
    "LIRF": "TAF LIRF 120500Z 1206/1312 VRB05KT CAVOK BECMG 1209/1211 25010KT BECMG 1214/1216 31010KT BECMG 1222/1224 VRB05KT BECMG 1309/1311 25010KT",
    "EINN": "TAF EINN 120500Z 1206/1306 36008KT 9999 FEW030 BECMG 1206/1208 04010KT BECMG 1208/1210 08011KT BECMG 1219/1221 04008KT",
    "EGLL": "TAF EGLL 120453Z 1206/1312 04014KT 9999 BKN016 TEMPO 1206/1208 BKN014 BECMG 1208/1211 CAVOK BECMG 1212/1216 10016KT PROB40 TEMPO 1304/1308 BKN012",
    "EGSS": "TAF EGSS 120456Z 1206/1312 05011KT 9999 BKN012 BECMG 1206/1209 CAVOK PROB30 TEMPO 1206/1207 BKN008 PROB30 TEMPO 1211/1220 07015G25KT PROB40 TEMPO 1302/1307 BKN014",
    "EPWA": "TAF EPWA 120830Z 1209/1309 24006KT 9999 BKN007 BKN010 TEMPO 1209/1211 4000 DZRA BR BKN004 BECMG 1212/1214 BKN015 PROB40 1302/1307 BKN006",
    "UHPP": "TAF UHPP 120735Z 1209/1315 34003G08MPS 9999 NSC TEMPO 1302/1310 18005MPS",
    "EFHK": "TAF AMD EFHK 120543Z 1206/1306 03005KT CAVOK TEMPO 1206/1208 SHRA FEW035CB BECMG 1208/1210 SCT035CB TEMPO 1208/1212 6000 SHRA TEMPO 1212/1218 4000 TSRA PROB30 TEMPO 1212/1216 2500 +TSGR BECMG 1219/1221 SCT035",
    "LBBG": "TAF LBBG 120500Z 1206/1306 VRB04KT 9999 SCT045 BECMG 1208/1210 12014KT PROB30 TEMPO 1218/1224 5000 TSRA FEW030CB BKN040 BECMG 1301/1303 30008KT SCT030 OVC050",
    "LTAC": "TAF LTAC 120440Z 1206/1306 VRB02KT CAVOK TEMPO 1212/1216 03012KT",
    "UBBB": "TAF UBBB 120501Z 1206/1306 33018G28KT 9999 FEW015 TX31/1210Z TN24/1301Z TEMPO 1206/1212 35024G34KT FEW030 BECMG 1212/1214 35012KT TEMPO 1218/1224 33006KT SCT018 BECMG 1300/1302 34014G24KT",
    "UTAA": "TAF UTAA 120445Z 1206/1306 35020KT 6000 SCT050CB SCT050 TX41/1211Z TEMPO 1206/1215 30020G30KT 2500 BLDU BECMG 1216/1218 27018KT",
    "UACC": "TAF UACC 120504Z 1206/1306 09005MPS 9999 SCT040 BKN100 TX32/1209Z TN16/1224Z TEMPO 1206/1215 03008MPS SCT030CB BECMG 1215/1217 VRB01MPS BECMG 1304/1306 22005MPS",
    "UAAA": "TAF UAAA 120502Z 1206/1306 32003G08MPS 9999 FEW050CB SCT100 TX36/1210Z TN20/1301Z TEMPO 1206/1212 24005G10MPS BECMG 1212/1214 24003MPS TEMPO 1212/1218 17003MPS",
    "UZTT": "TAF UZTT 120500Z 1206/1306 20010KT 7000 NSC TX39/1211Z TN25/1300Z TEMPO 1206/1218 28010G20KT FEW060CB PROB40 TEMPO 1206/1218 TS SCT050CB",
    "ZWWW": "TAF ZWWW 120305Z 1206/1312 36004MPS CAVOK TX37/1209Z TX38/1309Z TN26/1223Z BECMG 1214/1215 18004MPS BECMG 1302/1303 36004MPS",
    "ZLXY": "TAF ZLXY 120302Z 1206/1306 23003MPS 5000 HZ NSC TX32/1208Z TN23/1221Z",
    "ZBAA": "TAF ZBAA 120301Z 1206/1312 10004MPS 5000 BR NSC TX31/1207Z TX32/1307Z TN23/1221Z TEMPO 1218/1224 2800 -SHRA BR",
    "ZBHH": "TAF ZBHH 120303Z 1206/1306 24004MPS 6000 FEW040 TX30/1208Z TN15/1222Z",
    "ZSQD": "TAF ZSQD 120302Z 1206/1306 13012G18MPS 6000 BKN020 TX31/1206Z TN26/1220Z BECMG 1208/1209 12007G14MPS BECMG 1301/1302 12012G18MPS",
    "ZMCK": "TAF ZMCK 120440Z 1206/1312 31009MPS 9999 FEW030CB SCT033 TX17/1207Z TN07/1221Z BECMG 1210/1212 VRB02MPS PROB40 TEMPO 1304/1312 VRB08MPS TSRA SCT027CB SCT030 BECMG 1305/1308 33005MPS",
    "UUEE": "TAF UUEE 120756Z 1209/1309 09003G08MPS 9000 FEW007 BKN016 TX21/1309Z TN17/1301Z TEMPO 1209/1221 VRB25MPS 1000 TSRAGR SQ BKN006 BKN020CB BECMG 1221/1223 35005MPS TEMPO 1221/1309 2000 TSRA BKN005 BKN016CB",
    "UUDD": "TAF UUDD 120753Z 1209/1315 29003MPS 6000 -RA FEW006 BKN016 TX23/1312Z TN15/1301Z TEMPO 1209/1218 VRB15MPS 1000 TSRA SQ BKN010CB TEMPO 1218/1304 BKN003 PROB40 TEMPO 1218/1304 0300 FG BECMG 1304/1306 35006MPS TEMPO 1306/1315 35009G16MPS 1000 TSRA BKN016CB",
    "ULLI": "TAF ULLI 120753Z 1209/1309 03006G12MPS 9999 SCT020 TEMPO 1210/1218 4000 -TSRA BKN016CB BECMG 1218/1219 35004G09MPS",
    "USSS": "TAF USSS 120745Z 1209/1309 29003G14MPS 9999 BKN020CB TEMPO 1209/1218 26009G23MPS -TSRAGR FM121800 02003MPS 6000 SCT020 FM130300 07003G14MPS 9999 BKN020CB",
    "UNNT": "TAF UNNT 120800Z 1209/1309 02003G08MPS 8000 SCT040 TX26/1309Z TN11/1222Z TEMPO 1209/1212 06008G13MPS BECMG 1302/1306 21005G10MPS BECMG 1307/1308 27003G08MPS",
    "UNKL": "TAF UNKL 120754Z 1209/1309 02005G10MPS 8000 SCT040 BECMG 1210/1212 24003G08MPS BECMG 1300/1302 17005MPS BECMG 1303/1305 12003G08MPS",
    "UIBB": "TAF UIBB 120800Z 1209/1309 31003G08MPS 9999 -SHRA BKN020CB TEMPO 1209/1215 VRB08MPS -TSRA",
    "UEEE": "TAF UEEE 120800Z 1209/1315 10003MPS CAVOK",
    "UHHH": "TAF UHHH 120759Z 1209/1315 24003MPS 9999 SCT017CB TX28/1305Z TN23/1218Z TEMPO 1212/1224 25008MPS 5000 -SHRA",
    "UHSS": "TAF UHSS 120741Z 1209/1315 36003MPS 4000 BR BKN004 BKN016CB TEMPO 1209/1212 1400 -SHRA BR TEMPO 1212/1224 0550 -SHRA FG BKN002 BKN016CB BECMG 1300/1303 9999 NSW BKN007 BKN017CB"
  },
  "atis": {},
  "windtemp_alaska": "\n000\nFBAK31 KWNO 120801\nFD1AK1\nDATA BASED ON 120600Z    \nVALID 121200Z   FOR USE 0800-1500Z. TEMPS NEG ABV 24000\n\nFT  3000    6000    9000   12000   18000   24000  30000  34000  39000\nADK 2423 2526+07 2628+05 2632+02 2543-09 2446-21 257636 258446 258558\nADQ 2205 2309+03 2110-03 2013-08 2220-18 2033-30 193445 212847 252345\nAKN 1812 1814+00 1822-04 2023-09 2127-21 2224-31 212646 232943 262741\nANC 1411 1718+03 1919-02 1724-07 1832-18 1834-29 183944 174254 192348\nANN 2806 9900+00 9900-04 0806-10 0711-23 0912-35 071849 061645 020742\nBET 1825 2018-01 1920-07 1824-12 1626-22 1633-35 162240 231437 261940\nBRW 1016 1006+05 2705+01 2409-05 2212-18 2119-28 191943 202053 201754\nBTI 1014 2107+10 2514+02 2518-04 2720-16 2518-27 252443 262553 251957\nBTT 2213 2120+04 1825-01 1731-07 1627-16 1733-28 173244 173454 171950\nCDB 2822 2831+02 2841+00 2847-05 2850-16 2982-24 790439 790548 298250\nCZF 1806 9900-01 9900-06 9900-11 0806-21 1115-32 100644 291041 271441\nEHM 2420 2623-03 2625-05 2627-09 2637-22 2752-33 285339 284539 283641\nFAI 2810 2116+04 1825+00 1827-06 1923-17 1730-27 173244 173954 182851\nFYU 2723 2316+10 2211+01 2111-05 1917-15 1925-27 172443 172053 172357\nGAL 2122 2223+00 2221-05 1815-10 1728-19 1733-31 164346 154448 182143\nGKN 1724 1923+04 1921+00 1919-04 1924-17 1828-28 192444 183153 182255\nHOM 1213 1522+02 1617-02 1816-07 1825-18 1830-30 174545 183550 211946\nJNU 9900 2405+02 9900-01 9900-05 0513-18 0526-30 064545 055254 051949\nLUR 1619 1420+05 1323-01 1329-06 1432-17 1621-29 132744 132652 132051\nMCG 2014 2017+00 1919-05 1926-10 1829-19 1734-31 175047 164048 182444\nMDO 1513 1712+04 1820+00 1724-05 1726-16 1826-27 192743 202254 202053\nOME 2024 1819-02 1520-04 1511-07 0808-20 0815-31 081445 081247 990041\nORT      9900+09 1811+02 1812-04 1919-15 1920-28 192443 202153 181260\nOTZ 1617 1719+02 1717-03 1421-07 1125-19 0941-31 085247 093549 111444\nSNP 2923 2823+01 2727-02 2728-07 2849-14 2878-24 780238 780848 287750\nTKA 1813 1920+02 1921-02 1830-07 1835-19 1837-28 173945 174754 192448\nUNK 1918 1826-01 1823-05 1918-10 1613-21 1715-32 141947 151945 191242\nYAK 9900 2809+04 2814+02 2907-04 9900-15 0506-28 111243 090853 990058\nIKO 2723 2731+07 2837+03 2848+01 2856-10 2857-21 275337 274948 286758\nAFM 1718 1521+01 1523-02 1524-07 1231-18 1429-29 134145 144451 162746\n5AB 2620 2618+08 2716+05 2712+01 2312-11 2107-22 990038 091047 990056\n5AC 2605 2506-01 9900-04 3407-09 3321-21 3230-33 334246 333846 332644\n5AD 2023 2018+06 2212+02 2409-03 2711-14 2820-24 282641 285852 296356\n5AE 2518 2620+04 2721-01 2725-06 2745-17 2753-28 288943 287546 275046\n5AF 2105 9900+04 3606-01 0210-06 0319-19 0238-30 034546 034253 362149\n5AG 1511 1809+06 1811+01 1911-04 1509-15 1206-28 230543 160553 330758\n",
  "vaac_active": [
    {
      "volcano": "桜島",
      "volcano_jp": "桜島",
      "advisory_nr": "2026/78",
      "obs_time": "2026-07-12 07:57Z",
      "issued_time": "2026-07-12 08:09Z",
      "text_url": "https://www.data.jma.go.jp/vaac/data/TextData/2026/20260712_28208001_0078_Text.html",
      "lat": 31.6,
      "lon": 130.65,
      "text": "FVFE01 RJTD 120809\nVA ADVISORY\nDTG: 20260712/0809Z\nVAAC: TOKYO\nVOLCANO: SAKURAJIMA (AIRA CALDERA) 282080\nPSN: N3136 E13039\nAREA: JAPAN\nSOURCE ELEV: 1117M AMSL\nADVISORY NR: 2026/78\nINFO SOURCE: JMA HIMAWARI-9\nERUPTION DETAILS: ERUPTED AT 20260712/0757Z FL100 STNR\nOBS VA DTG: 12/0800Z\nOBS VA CLD: VA NOT IDENTIFIABLE FM SATELLITE DATA WIND FL100 190/6KT\nFCST VA CLD +6 HR: NOT AVBL\nFCST VA CLD +12 HR: NOT AVBL\nFCST VA CLD +18 HR: NOT AVBL\nRMK: WE WILL ISSUE FURTHER ADVISORY IF VA IS DETECTED IN SATELLITE \nIMAGERY.\nNXT ADVISORY: NO FURTHER ADVISORIES="
    },
    {
      "volcano": "KRASHENINNIKOV",
      "volcano_jp": "クラシェニンニコフ",
      "advisory_nr": "2026/4",
      "obs_time": "2026-07-12 05:20Z",
      "issued_time": "2026-07-12 05:50Z",
      "text_url": "https://www.data.jma.go.jp/vaac/data/TextData/2026/20260712_30019000_0004_Text.html",
      "lat": 54.6,
      "lon": 160.267,
      "text": "FVFE01 RJTD 120550\nVA ADVISORY\nDTG: 20260712/0550Z\nVAAC: TOKYO\nVOLCANO: KRASHENINNIKOV 300190\nPSN: N5436 E16016\nAREA: RUSSIA\nSOURCE ELEV: 1816M AMSL\nADVISORY NR: 2026/4\nINFO SOURCE: KVERT HIMAWARI-9\nERUPTION DETAILS: VA IS NOT IDENTIFIABLE IN SATELLITE IMAGERY.\nOBS VA DTG: 12/0520Z\nOBS VA CLD: VA NOT IDENTIFIABLE FM SATELLITE DATA WIND FL180 310/21KT\nFCST VA CLD +6 HR: NOT AVBL\nFCST VA CLD +12 HR: NOT AVBL\nFCST VA CLD +18 HR: NOT AVBL\nRMK: VA IS NOT IDENTIFIABLE DUE TO MET CLOUD OR HAS DISSIPATED. WE \nWILL ISSUE FURTHER ADVISORY IF VA DETECTED IN SATELLITE IMAGERY.\nNXT ADVISORY: NO FURTHER ADVISORIES="
    },
    {
      "volcano": "MAYON",
      "volcano_jp": "マヨン",
      "advisory_nr": "2026/724",
      "obs_time": "2026-07-12 02:28Z",
      "issued_time": "2026-07-12 03:46Z",
      "text_url": "https://www.data.jma.go.jp/vaac/data/TextData/2026/20260712_27303000_0724_Text.html",
      "lat": 13.25,
      "lon": 123.683,
      "text": "FVFE01 RJTD 120346\nVA ADVISORY\nDTG: 20260712/0346Z\nVAAC: TOKYO\nVOLCANO: MAYON 273030\nPSN: N1315 E12341\nAREA: PHILIPPINES\nSOURCE ELEV: 2462M AMSL\nADVISORY NR: 2026/724\nINFO SOURCE: HIMAWARI-9 PHIVOLCS\nERUPTION DETAILS: ERUPTION AT 20260712/0228Z FL100 EXTD NE REPORTED\nOBS VA DTG: 12/0330Z\nOBS VA CLD: VA NOT IDENTIFIABLE FM SATELLITE DATA WIND FL100 230/18KT\nFCST VA CLD +6 HR: NOT AVBL\nFCST VA CLD +12 HR: NOT AVBL\nFCST VA CLD +18 HR: NOT AVBL\nRMK: WE WILL ISSUE FURTHER ADVISORY IF VA IS DETECTED IN SATELLITE \nIMAGERY.\nNXT ADVISORY: NO FURTHER ADVISORIES="
    }
  ],
  "vaac_tokyo": [
    {
      "id": "20260712_28208001_0078",
      "year": "2026",
      "volcano": null,
      "psn": "N3136 E13039",
      "issued": "20260712",
      "text": "FVFE01 RJTD 120809\nVA ADVISORY\nDTG: 20260712/0809Z\nVAAC: TOKYO\nVOLCANO: SAKURAJIMA (AIRA CALDERA) 282080\nPSN: N3136 E13039\nAREA: JAPAN\nSOURCE ELEV: 1117M AMSL\nADVISORY NR: 2026/78\nINFO SOURCE: JMA HIMAWARI-9\nERUPTION DETAILS: ERUPTED AT 20260712/0757Z FL100 STNR\nOBS VA DTG: 12/0800Z\nOBS VA CLD: VA NOT IDENTIFIABLE FM SATELLITE DATA WIND FL100 190/6KT\nFCST VA CLD +6 HR: NOT AVBL\nFCST VA CLD +12 HR: NOT AVBL\nFCST VA CLD +18 HR: NOT AVBL\nRMK: WE WILL ISSUE FURTHER ADVISORY IF VA IS DETECTED IN SATELLITE \nIMAGERY.\nNXT ADVISORY: NO FURTHER ADVISORIES=",
      "img_url": "https://ds.data.jma.go.jp/svd/vaac/data/VAGFN/2026/Images/20260712_28208001_0078_QH21_01.png",
      "sat_img_url": null,
      "text_url": "https://ds.data.jma.go.jp/svd/vaac/data/TextData/2026/20260712_28208001_0078_Text.html"
    },
    {
      "id": "20260712_27303000_0724",
      "year": "2026",
      "volcano": "Mayon",
      "psn": "N1315 E12341",
      "issued": "20260712",
      "text": "FVFE01 RJTD 120346\nVA ADVISORY\nDTG: 20260712/0346Z\nVAAC: TOKYO\nVOLCANO: MAYON 273030\nPSN: N1315 E12341\nAREA: PHILIPPINES\nSOURCE ELEV: 2462M AMSL\nADVISORY NR: 2026/724\nINFO SOURCE: HIMAWARI-9 PHIVOLCS\nERUPTION DETAILS: ERUPTION AT 20260712/0228Z FL100 EXTD NE REPORTED\nOBS VA DTG: 12/0330Z\nOBS VA CLD: VA NOT IDENTIFIABLE FM SATELLITE DATA WIND FL100 230/18KT\nFCST VA CLD +6 HR: NOT AVBL\nFCST VA CLD +12 HR: NOT AVBL\nFCST VA CLD +18 HR: NOT AVBL\nRMK: WE WILL ISSUE FURTHER ADVISORY IF VA IS DETECTED IN SATELLITE \nIMAGERY.\nNXT ADVISORY: NO FURTHER ADVISORIES=",
      "img_url": "https://ds.data.jma.go.jp/svd/vaac/data/VAGFN/2026/Images/20260712_27303000_0724_QH21_01.png",
      "sat_img_url": null,
      "text_url": "https://ds.data.jma.go.jp/svd/vaac/data/TextData/2026/20260712_27303000_0724_Text.html"
    },
    {
      "id": "20260712_30019000_0003",
      "year": "2026",
      "volcano": "Krasheninnikov",
      "psn": "N5436 E16016",
      "issued": "20260712",
      "text": "FVFE01 RJTD 120130\nVA ADVISORY\nDTG: 20260712/0130Z\nVAAC: TOKYO\nVOLCANO: KRASHENINNIKOV 300190\nPSN: N5436 E16016\nAREA: RUSSIA\nSOURCE ELEV: 1816M AMSL\nADVISORY NR: 2026/3\nINFO SOURCE: HIMAWARI-9\nERUPTION DETAILS: VA AT 20260712/0100Z FL080 EXTD SE\nOBS VA DTG: 12/0100Z\nOBS VA CLD: SFC/FL080 N5440 E16023 - N5412 E16045 - N5402 E16033 - \nN5434 E16013 MOV SE 20KT\nFCST VA CLD +6 HR: 12/0700Z SFC/FL080 N5310 E16258 - N5251 E16229 - \nN5302 E16111 - N5436 E16016\nFCST VA CLD +12 HR: 12/1300Z SFC/FL090 N5233 E16425 - N5158 E16444 - \nN5210 E16103 - N5446 E16008 - N5251 E16216\nFCST VA CLD +18 HR: 12/1900Z SFC/FL090 N5142 E16614 - N5044 E16548 - \nN5213 E15943 - N5432 E15924 - N5448 E16118 - N5223 E16227\nRMK: NIL\nNXT ADVISORY: 20260712/0600Z=",
      "img_url": "https://ds.data.jma.go.jp/svd/vaac/data/VAGFN/2026/Images/20260712_30019000_0003_QH21_01.png",
      "sat_img_url": "https://ds.data.jma.go.jp/svd/vaac/data/Sat/2026/Images/30019000/09-ir/20260712_0100_202607120130_ir.png",
      "text_url": "https://ds.data.jma.go.jp/svd/vaac/data/TextData/2026/20260712_30019000_0003_Text.html"
    },
    {
      "id": "20260711_30025000_0049",
      "year": "2026",
      "volcano": "Bezymianny",
      "psn": "N5558 E16036",
      "issued": "20260711",
      "text": "FVFE01 RJTD 111800\nVA ADVISORY\nDTG: 20260711/1800Z\nVAAC: TOKYO\nVOLCANO: BEZYMIANNY 300250\nPSN: N5558 E16036\nAREA: RUSSIA\nSOURCE ELEV: 2882M AMSL\nADVISORY NR: 2026/49\nINFO SOURCE: HIMAWARI-9\nERUPTION DETAILS: NO ERUPTION. RE-SUSPENDED VA\nOBS VA DTG: 11/1720Z\nOBS VA CLD: SFC/FL100 N5600 E16036 - N5611 E16048 - N5550 E16122 - \nN5542 E16205 - N5538 E16115 MOV E 20KT\nFCST VA CLD +6 HR: 11/2320Z SFC/FL110 N5452 E16402 - N5457 E16227 - \nN5557 E16037 - N5548 E16151\nFCST VA CLD +12 HR: 12/0520Z SFC/FL110 N5409 E16553 - N5356 E16453 - \nN5424 E16245 - N5558 E16036 - N5519 E16239 - N5434 E16317\nFCST VA CLD +18 HR: NO VA EXP\nRMK: RE-SUSPENDED VA. \nNXT ADVISORY: 20260712/0000Z=",
      "img_url": "https://ds.data.jma.go.jp/svd/vaac/data/VAGFN/2026/Images/20260711_30025000_0049_QH21_01.png",
      "sat_img_url": "https://ds.data.jma.go.jp/svd/vaac/data/Sat/2026/Images/30025000/09-ir/20260711_1720_202607111800_ir.png",
      "text_url": "https://ds.data.jma.go.jp/svd/vaac/data/TextData/2026/20260711_30025000_0049_Text.html"
    }
  ],
  "vaac_alaska": [
    {
      "text": "\n000\nFVAK21 PAWU 111230\nVAAAK1\nVA ADVISORY\n\nDTG: 20260711/1224Z\n\nVAAC: ANCHORAGE\n\nVOLCANO: SHEVELUCH 300270\n\nPSN: N5639 E16122\n\nAREA: KAMCHATKA PENINSULA\n\nSOURCE ELEV: 10771 FT AMSL\n\nADVISORY NR: 2026/193\n\nRMK: PLEASE SEE FVXX2 KNES ISSUED BY VAAC WASHINGTON WHICH DESCRIBES\nCONDITIONS NEAR THE VAAC ANCHORAGE AREA OF RESPONSIBILITY...CC\n\n\n\n",
      "issued": "2026-07-11T12:30:00+00:00",
      "volcano": "Sheveluch",
      "psn": "N5639 E16122"
    }
  ]
}