{
  "updated_utc": "2026-07-19T07:03Z",
  "metar": {
    "RJAA": "METAR RJAA 190530Z 14010KT 9999 FEW025 BKN/// 31/25 Q1007 NOSIG",
    "PANC": "METAR PANC 190553Z 15013G21KT 10SM BKN055 OVC070 12/07 A3008 RMK AO2 PK WND 15029/0511 RAE15 SLP187 P0000 60000 T01220072 10144 20122 58002",
    "PAFA": "METAR PAFA 190553Z 22005KT 10SM FEW070 SCT100 SCT200 17/05 A2996 RMK AO2 SLP148 T01720050 10206 20172 53009 $",
    "PAED": "METAR PAED 190555Z 34005KT 10SM -SHRA BKN065 OVC080 13/08 A3006 RMK AO2A SLP176 PCPN VYR LGT P0000 60000 T01280083 10153 20127 58001 $",
    "KSEA": "METAR KSEA 190553Z 01010KT 10SM SCT250 18/12 A3012 RMK AO2 SLP205 T01830117 10239 20178 50001 $",
    "ZSPD": "METAR ZSPD 190530Z 09005MPS CAVOK 33/27 Q1001 NOSIG",
    "ZSSS": "METAR ZSSS 190530Z 25002MPS 180V330 CAVOK 36/26 Q1001 NOSIG",
    "RJFR": "METAR RJFR 190600Z 08011KT 9999 FEW020 31/27 Q1004",
    "VHHH": "METAR VHHH 190530Z 22009KT 9999 FEW010 SCT025 31/26 Q1004 NOSIG",
    "RCTP": "METAR RCTP 190530Z 25013KT 9999 FEW020 BKN180 33/25 Q1005 NOSIG RMK A2969",
    "ZGSZ": "METAR ZGSZ 190600Z 18004MPS 9999 SCT010 BKN050 29/27 Q1004 NOSIG",
    "WSSS": "METAR WSSS 190530Z 12006KT 080V180 9999 FEW020TCU SCT022 BKN300 31/23 Q1011 NOSIG",
    "WMKK": "METAR WMKK 190530Z COR 34003KT 280V030 2000 +TSRA SCT006 FEW017CB SCT018 26/25 Q1011 NOSIG",
    "WIDD": "METAR WIDD 190530Z 13008KT 090V160 9999 SCT014 32/24 Q1011 NOSIG",
    "VTBS": "METAR VTBS 190530Z VRB05KT 9999 FEW020 SCT050 34/19 Q1009 NOSIG",
    "VTBU": "METAR VTBU 190530Z 24009KT 210V270 9000 FEW020 34/27 Q1009 NOSIG",
    "ROAH": "METAR ROAH 190530Z 27004KT 240V310 9999 SCT032 32/26 Q1006",
    "VVDN": "METAR VVDN 190530Z 23009KT 190V280 9999 FEW020 38/19 Q1004 NOSIG",
    "RCKH": "SPECI RCKH 190510Z 26010KT 9999 FEW009CB FEW014 BKN040 BKN080 29/25 Q1007 NOSIG RMK 25010KT/R09 CB SW A2975",
    "KLAX": "METAR KLAX 190553Z 23007KT 10SM SCT010 21/18 A2997 RMK AO2 SLP148 T02060183 10244 20206 51016 $",
    "KONT": "METAR KONT 190553Z 25006KT 10SM CLR 24/17 A2998 RMK AO2 SLP135 T02440172 10333 20244 51018 $",
    "KSFO": "METAR KSFO 190556Z 29012KT 10SM FEW003 SCT009 14/12 A3001 RMK AO2 SLP162 T01390122 10189 20139 51011 $",
    "KOAK": "METAR KOAK 190553Z 26008KT 10SM FEW003 BKN008 14/12 A3002 RMK AO2 SLP164 T01440122 10183 20144 51010 $",
    "KMHR": "METAR KMHR 190515Z AUTO 21008KT 10SM CLR 23/11 A2991 RMK AO2 T02280115 $",
    "KDFW": "METAR KDFW 190553Z 18008KT 10SM FEW250 29/20 A2998 RMK AO2 SLP140 T02890200 10344 20289 403500261 51011 $",
    "KIAH": "METAR KIAH 190553Z 18005KT 10SM FEW016 FEW250 27/25 A3002 RMK AO2 SLP165 T02720250 10333 20272 403500256 51008 $",
    "KORD": "METAR KORD 190551Z 03013KT 4SM FU SCT110 21/17 A2999 RMK AO2 SLP148 T02110172 10261 20211 403280211 50006 $",
    "KJFK": "METAR KJFK 190551Z 27010KT 10SM FEW017 FEW050 SCT130 BKN210 24/22 A2963 RMK AO2 SLP035 60002 T02440222 10250 20228 58009 $",
    "KRFD": "METAR KRFD 190554Z 07003KT 3SM FU SCT055 SCT250 21/16 A3002 RMK AO2 SLP160 T02110161 10294 20211 403220211 53017 $",
    "KIND": "METAR KIND 190554Z 01005KT 10SM FEW060 FEW130 SCT250 23/22 A2995 RMK AO2 SLP133 60001 T02330217 10267 20233 53008 $",
    "KDTW": "METAR KDTW 190553Z 02009KT 6SM FU BKN030 BKN050 21/15 A2995 RMK AO2 SLP137 FU BKN030 T02060150 10278 20206 53012 $",
    "KMSP": "METAR KMSP 190553Z 15005KT 9SM CLR 23/17 A3002 RMK AO2 SLP160 T02330167 10300 20233 403220222 53008",
    "CYEG": "SPECI CYEG 190517Z 29023G29KT 10SM TSRA OVC097CB 15/13 A2985 RMK CB8 CB OHD MOV NE FRQ LTGICCCCG SLP109 DENSITY ALT 3000FT",
    "EHAM": "METAR EHAM 190525Z 33007KT 9999 VCSH FEW030TCU BKN046 16/10 Q1018 BECMG SCT040",
    "EBBR": "METAR EBBR 190520Z 30006KT 9999 FEW035 SCT048 15/12 Q1020 NOSIG",
    "EDDF": "METAR EDDF 190520Z AUTO 32011KT 9999 FEW026 16/10 Q1017 NOSIG",
    "EDFH": "METAR EDFH 190520Z 31007KT 9999 FEW012 12/10 Q1018",
    "EDDL": "METAR EDDL 190520Z AUTO 27007KT 230V290 CAVOK 15/11 Q1018 NOSIG",
    "EDDK": "METAR EDDK 190520Z AUTO 33005KT 300V360 CAVOK 14/10 Q1018 NOSIG",
    "EBLG": "METAR EBLG 190520Z 28004KT 9999 FEW046 14/11 Q1020 NOSIG",
    "LSZH": "METAR LSZH 190520Z 01005KT 9999 FEW015 FEW040TCU 16/16 Q1017 NOSIG",
    "LIMC": "METAR LIMC 190520Z 07006KT CAVOK 22/17 Q1014 NOSIG",
    "LIRF": "METAR LIRF 190520Z 13005KT 5000 BR FEW004 26/26 Q1011 NOSIG",
    "EINN": "METAR EINN 190530Z 00000KT 9999 FEW017 SCT021 11/09 Q1027 NOSIG",
    "EGLL": "METAR EGLL 190520Z AUTO 01006KT 340V050 9999 NCD 13/09 Q1024",
    "EGSS": "METAR EGSS 190520Z AUTO 33006KT 9999 NCD 11/08 Q1023",
    "EPWA": "METAR EPWA 190530Z VRB02KT CAVOK 20/17 Q1013 NOSIG",
    "UHPP": "METAR UHPP 190530Z 34002MPS 9999 FEW040CB 27/16 Q1015 R34L/CLRD62 NOSIG RMK QFE758/1011",
    "EFHK": "METAR EFHK 190520Z 25009KT 5000 -DZ BKN005 BKN008 15/14 Q1001 TEMPO 8000",
    "LBBG": "METAR LBBG 190530Z 24003KT 190V340 CAVOK 24/20 Q1013 NOSIG",
    "LTAC": "METAR LTAC 190520Z 05005KT 350V080 CAVOK 22/12 Q1017 NOSIG RMK RWY21C 05005KT 010V080 RWY03L 04005KT 340V090 RWY21R 03006KT 350V060 RWY03R 03005KT 360V060 RWY21L 03005KT 350V060",
    "UBBB": "METAR UBBB 190530Z 33018KT CAVOK 29/21 Q1009 NOSIG",
    "UTAA": "METAR UTAA 190600Z 30012KT 260V330 9999 NSC 34/18 Q1009 R88/CLRD70 NOSIG",
    "UACC": "METAR UACC 190530Z 21006MPS CAVOK 29/17 Q1005 NOSIG RMK QFE723/0964",
    "UAAA": "METAR UAAA 190530Z 01004MPS 330V040 9999 BKN100 39/11 Q1006 NOSIG",
    "UZTT": "METAR UZTT 190530Z 18006KT 150V220 CAVOK 39/14 Q1003 NOSIG",
    "ZWWW": "METAR ZWWW 190530Z 03004MPS 350V060 CAVOK 34/12 Q1008 NOSIG",
    "ZLXY": "METAR ZLXY 190600Z VRB02MPS CAVOK 36/16 Q1004 NOSIG",
    "ZBAA": "METAR ZBAA 190530Z 08002MPS 030V180 CAVOK 32/22 Q1002 NOSIG",
    "ZBHH": "METAR ZBHH 190600Z 17002MPS 090V240 CAVOK 29/18 Q1005 NOSIG",
    "ZSQD": "METAR ZSQD 190600Z 17005MPS CAVOK 28/21 Q1003 NOSIG",
    "ZMCK": "METAR ZMCK 190530Z 32006MPS 290V360 9999 FEW030CB SCT033 22/11 Q1004 NOSIG RMK QFE639.1 44 MOP",
    "UUEE": "METAR UUEE 190530Z 22003MPS 180V260 CAVOK 20/12 Q1015 R24L/CLRD62 R24C/CLRD62 NOSIG",
    "UUDD": "METAR UUDD 190530Z 26003MPS 210V300 CAVOK 21/12 Q1016 R31L/CLRD65 NOSIG",
    "ULLI": "METAR ULLI 190530Z 17005MPS 9999 SCT024CB 19/13 Q1004 R88/290050 NOSIG",
    "USSS": "METAR USSS 190530Z 03006MPS 9999 SCT012 BKN027CB 19/19 Q1005 R08R/290350 TEMPO -TSRA RMK QFE734/0978",
    "UNNT": "METAR UNNT 190530Z 02002MPS 320V040 9999 BKN029CB 24/18 Q1006 R25/CLRD// R16/CLRD// NOSIG RMK QFE744/0993",
    "UNKL": "METAR UNKL 190530Z 30004MPS 9999 SCT039 22/16 Q1004 R29/CLRD// NOSIG RMK QFE727",
    "UIBB": "SPECI UIBB 190528Z 31005MPS 240V010 9999 TS SCT030CB 20/14 Q1002 R30/CLRD62 NOSIG RMK QFE709/0946",
    "UEEE": "METAR UEEE 190530Z 27003MPS 5000 -SHRA SCT015 OVC040CB 19/17 Q0999 R23/290160 NOSIG RMK QFE740",
    "UHHH": "METAR UHHH 190530Z 33003MPS 270V030 CAVOK 29/18 Q1004 R88/090060 NOSIG RMK QFE747/0996",
    "UHSS": "METAR UHSS 190530Z 17003MPS 2900 BR BKN006 20/20 Q1005 R19/290060 NOSIG RMK MT OBSC QFE753/1004"
  },
  "taf": {
    "RJAA": "TAF RJAA 190505Z 1906/2012 15008KT 9999 FEW015 SCT030",
    "PANC": "TAF PANC 190520Z 1906/2012 14010G20KT P6SM -RA FEW015 SCT035 OVC070 FM190800 34005KT 6SM -RA OVC060 WS008/12030KT FM200000 VRB05G20KT P6SM VCSH SCT050 OVC070 WS008/12030KT FM201100 VRB04KT 6SM -RA BR SCT015 OVC035",
    "PAFA": "TAF PAFA 190531Z 1906/2012 18005KT P6SM SCT050 BKN100 FM191500 10007KT P6SM SCT100",
    "PAED": "TAF PAED 190500Z 1905/2013 35009KT 9999 -SHRA BKN080 QNH3003INS BECMG 1909/1910 29007KT 9999 -RA BKN040 OVC060 QNH3000INS BECMG 2001/2002 25006KT 9999 -SHRA BKN060 OVC100 QNH3000INS TX15/1923Z TN11/1911Z",
    "KSEA": "TAF KSEA 190525Z 1906/2012 35008KT P6SM FEW050 FEW250 FM191100 02004KT P6SM SCT250 FM191300 02004KT P6SM SCT008 FM191700 35006KT P6SM SCT010 BKN040 FM192200 33010KT P6SM SCT050",
    "ZSPD": "TAF ZSPD 190309Z 1906/2012 16004MPS 8000 SCT030 TX33/1906Z TX33/2006Z TN27/1921Z TEMPO 1906/1910 33008G15MPS TSRA BKN015 FEW030CB TEMPO 1910/1914 33008G15MPS 2000 TSRA BKN015 FEW030CB",
    "ZSSS": "TAF ZSSS 190309Z 1906/2012 18004MPS 8000 SCT030 TX34/1906Z TX33/2006Z TN27/1921Z TEMPO 1906/1910 33008G15MPS TSRA BKN015 FEW030CB TEMPO 1910/1914 33008G15MPS 2000 TSRA BKN015 FEW030CB",
    "RJFR": "TAF RJFR 190505Z 1906/2012 07010KT 8000 -SHRA FEW025 BKN030 TEMPO 1906/1909 4000 -TSRA BR FEW020CB FEW025 BKN030 BECMG 1911/1913 12004KT TEMPO 1913/1918 BKN005 BKN045 TEMPO 2000/2003 BKN005 BECMG 2003/2006 31006KT TEMPO 2006/2009 4000 -TSRA BR FEW015 FEW020CB BKN030",
    "VHHH": "TAF VHHH 190500Z 1906/2012 20010KT 9999 FEW010 SCT025 TX31/1906Z TX31/2006Z TN28/1922Z TEMPO 1906/1909 12010KT TEMPO 1922/2004 24015G25KT 2500 TSRA SHRA FEW008CB SCT015 TEMPO 2004/2006 3000 SHRA FEW010CB SCT020",
    "RCTP": "TAF RCTP 190500Z 1906/2012 23013KT 9999 FEW020 BKN032 BECMG 1910/1912 20005KT BECMG 2000/2002 25012KT BECMG 2007/2009 18005KT",
    "ZGSZ": "TAF ZGSZ 190305Z 1906/2012 18004MPS 8000 BKN040 TX31/1906Z TX31/2006Z TN27/1922Z TEMPO 1906/1908 TSRA FEW012 FEW025CB BKN033 TEMPO 1921/1924 1200 +TSRA SCT012 FEW025CB BKN033 TEMPO 2004/2007 TSRA SCT012 FEW025CB BKN033",
    "WSSS": "TAF WSSS 190500Z 1906/2012 14007KT 9999 FEW015 SCT020",
    "WMKK": "TAF WMKK 190500Z 1906/2012 VRB03KT 9999 FEW018 TEMPO 1907/1911 5000 TSRA FEW017CB SCT020",
    "VTBS": "TAF VTBS 190500Z 1906/2012 23008KT 9999 FEW020",
    "VTBU": "TAF VTBU 190500Z 1906/2006 24008KT 9999 FEW020",
    "ROAH": "TAF ROAH 190505Z 1906/2012 28006KT 9999 FEW015 SCT025 BECMG 1907/1909 21006KT TEMPO 1914/1916 FEW005 BKN008 TEMPO 1916/1921 FEW003 BKN005 TEMPO 1921/2000 FEW005 BKN008",
    "VVDN": "TAF VVDN 190500Z 1906/2006 23010KT 9999 FEW017 BECMG 1906/1907 01010KT BECMG 1912/1913 24007KT",
    "RCKH": "TAF RCKH 190500Z 1906/2012 34005KT 9999 FEW015 BKN032 TEMPO 1906/1912 27010KT 4000 SHRA FEW010 FEW012CB BKN017 BECMG 1909/1910 08005KT TEMPO 1912/1916 14007KT 5000 RA FEW010 BKN022 TEMPO 1916/1922 4000 SHRA FEW010 FEW012CB BKN017 BECMG 2001/2003 20007KT",
    "KLAX": "TAF KLAX 190520Z 1906/2012 25007KT P6SM SCT010 FM191000 VRB03KT P6SM OVC012 FM191700 25006KT P6SM SCT020 FM191900 25012KT P6SM SCT015 FM200300 24006KT P6SM FEW012 SCT200 FM201100 VRB03KT P6SM OVC012",
    "KONT": "TAF KONT 190520Z 1906/2012 25005KT P6SM FEW120 FM190800 VRB04KT P6SM FEW120 FM192000 25010G20KT P6SM FEW120 FM200500 VRB05KT P6SM FEW200",
    "KSFO": "TAF KSFO 190520Z 1906/2012 26010KT P6SM FEW003 BKN007 FM191700 31008KT P6SM SCT012 FM192000 31015G25KT P6SM SKC FM200400 29010KT P6SM BKN010",
    "KOAK": "TAF KOAK 190520Z 1906/2012 29008KT P6SM FEW005 OVC007 FM191800 28005KT P6SM SCT009 FM192000 30015KT P6SM SKC FM200300 29010KT P6SM OVC009",
    "KMHR": "TAF KMHR 190520Z 1906/2006 20010KT P6SM SKC FM191000 VRB05KT P6SM SCT250 FM192000 22007KT P6SM BKN250",
    "KDFW": "TAF KDFW 190525Z 1906/2012 18008KT P6SM FEW250 FM191200 19008KT P6SM FEW035 FM191500 19010KT P6SM FEW250",
    "KIAH": "TAF KIAH 190520Z 1906/2012 17007KT P6SM FEW020 SCT250 FM191000 21003KT 6SM BR FEW010 SCT250 FM191300 20004KT P6SM SCT040 SCT250 FM200900 18004KT P6SM FEW020 SCT250",
    "KORD": "TAF KORD 190520Z 1906/2012 04012KT 4SM FU SCT025 FM191400 08009KT 4SM FU SCT025 FM200900 19004KT 6SM FU SCT025",
    "KJFK": "TAF KJFK 190523Z 1906/2012 27012KT P6SM SCT050 BKN100 FM191100 32013KT P6SM SCT250 FM191400 32014G20KT P6SM SCT250 FM192000 32011KT P6SM SCT250 FM200100 33007KT P6SM FEW250",
    "KRFD": "TAF KRFD 190520Z 1906/2006 06009KT 4SM FU SCT050",
    "KIND": "TAF KIND 190528Z 1906/2012 VRB06KT P6SM FEW040 BKN250 FM191200 03007KT P6SM SCT050 SCT250 FM200000 06005KT P6SM FEW250",
    "KDTW": "TAF KDTW 190520Z 1906/2012 36008KT 6SM FU SCT045 TEMPO 1910/1914 5SM FU SCT045 FM191700 35007KT P6SM SCT060 FM200100 12003KT P6SM SCT250",
    "KMSP": "TAF KMSP 190520Z 1906/2012 14006KT P6SM SKC FM191300 21005KT P6SM FEW250 FM191700 20010KT P6SM FEW070 SCT250 FM200500 18009KT P6SM SCT250 PROB30 2009/2011 4SM -TSRA BKN050CB",
    "CYEG": "TAF CYEG 190540Z 1906/2006 VRB20G35KT 2SM TSRA BR OVC060CB TEMPO 1906/1907 29008KT P6SM -SHRA SCT060 OVC100 FM190700 27006KT P6SM FEW030 BKN100 TEMPO 1907/1910 5SM -SHRA BR BKN030 OVC100 FM191000 27008KT 5SM SHRA BR BKN020 OVC100 TEMPO 1910/1912 P6SM NSW SCT020 BKN100 PROB30 1910/1912 VRB15G25KT 1SM +TSRA BR OVC020CB FM191200 28012KT P6SM BKN040 BECMG 1916/1918 29020G30KT FM191800 29020G30KT P6SM -SHRA BKN025 FM192200 29020G35KT P6SM BKN020 BKN080 TEMPO 1922/2002 P6SM -SHRA VCTS BKN020CB OVC080 FM200200 30015G25KT P6SM SCT012 BKN020 BECMG 2004/2006 30012KT RMK NXT FCST BY 190900Z",
    "EHAM": "TAF EHAM 190454Z 1906/2012 32013KT 9999 SCT030 BECMG 1918/1921 32006KT BECMG 2006/2009 34011KT",
    "EBBR": "TAF EBBR 190500Z 1906/2012 33008KT 9999 SCT045",
    "EDDF": "TAF EDDF 190500Z 1906/2012 31009KT CAVOK BECMG 1922/1924 33004KT",
    "EDFH": "TAF EDFH 190500Z 1906/2006 32007KT 9999 SCT020",
    "EDDL": "TAF EDDL 190500Z 1906/2012 31005KT CAVOK BECMG 1907/1910 30012KT PROB40 TEMPO 1912/1918 30015G25KT BECMG 1919/1922 30004KT BECMG 2010/2012 32009KT",
    "EDDK": "TAF EDDK 190500Z 1906/2012 32006KT CAVOK BECMG 1907/1910 30012KT PROB30 TEMPO 1912/1917 30015G25KT BECMG 1918/1921 32005KT",
    "EBLG": "TAF EBLG 190500Z 1906/2012 33008KT 9999 SCT045",
    "LSZH": "TAF LSZH 190525Z 1906/2012 VRB02KT 9999 FEW060 TX25/1915Z TN18/1906Z TN12/2004Z PROB40 TEMPO 1906/1916 SHRA SCT050TCU BECMG 1910/1913 30010KT PROB30 TEMPO 1912/1915 32015G25KT TSRA FEW050CB BECMG 1916/1919 03005KT BECMG 1920/1922 34004KT BECMG 1920/1922 CAVOK PROB30 2000/2005 8000 NSC BECMG 2006/2009 06006KT",
    "LIMC": "TAF LIMC 190500Z 1906/2012 VRB05KT 9999 SCT040 TEMPO 2000/2006 4000 SHRA",
    "LIRF": "TAF LIRF 190500Z 1906/2012 VRB05KT CAVOK BECMG 1907/1909 17010KT BECMG 1912/1914 23012KT BECMG 1917/1919 VRB05KT TEMPO 2003/2005 4000 BR BECMG 2010/2012 21012KT",
    "EINN": "TAF EINN 190500Z 1906/2006 VRB03KT 9999 FEW023 BECMG 1906/1908 36010KT BECMG 1912/1914 03010KT BECMG 1917/1919 36009KT",
    "EGLL": "TAF EGLL 190453Z 1906/2012 01008KT 9999 FEW040",
    "EGSS": "TAF EGSS 190457Z 1906/2012 34009KT 9999 FEW040",
    "EPWA": "TAF EPWA 190530Z 1906/2006 VRB02KT CAVOK TEMPO 1911/1916 -SHRA SCT050CB TEMPO 1916/1921 VRB20G35KT 2000 TSRA BKN008 BKN020CB BECMG 1918/1921 28010KT TEMPO 1921/2005 BKN009 BKN012",
    "UHPP": "TAF UHPP 190444Z 1906/2012 31003G10MPS 9999 SCT040 TX27/2003Z TN18/1917Z TEMPO 1906/1924 01005G12MPS",
    "EFHK": "TAF EFHK 190538Z 1906/2006 27011KT 9999 BKN006 TEMPO 1906/1908 4000 -DZ BECMG 1906/1908 BKN010 BECMG 1908/1910 BKN015 BECMG 1911/1913 34010KT BECMG 1917/1919 04008KT",
    "LBBG": "TAF LBBG 190500Z 1906/2006 VRB03KT CAVOK BECMG 1907/1909 12014KT BECMG 1921/1923 VRB03KT",
    "LTAC": "TAF LTAC 190440Z 1906/2006 04012KT CAVOK BECMG 1906/1909 VRB02KT FEW040 BECMG 1915/1918 04012KT CAVOK",
    "UBBB": "TAF UBBB 190511Z 1906/2006 33018G28KT CAVOK TX30/1910Z TN23/2001Z TEMPO 1906/1910 FEW020 BECMG 1910/1912 32022G32KT 9999 FEW015 TEMPO 1918/2006 34028G38KT SCT010 FEW050CB PROB40 TEMPO 1918/2006 -TSRA SCT040CB",
    "UTAA": "TAF UTAA 190445Z 1906/2006 34016KT 6000 SCT050 TX40/1910Z TEMPO 1906/1912 29016G26KT 3000 BLDU TEMPO 1918/1924 26014KT",
    "UACC": "TAF UACC 190501Z 1906/2006 24006MPS 9999 SCT040CB BKN100 TX34/1909Z TN18/1923Z TEMPO 1906/1917 28011MPS -TSRA BKN030CB BECMG 1917/1919 VRB01MPS SCT030 BECMG 2003/2005 26006MPS",
    "UAAA": "TAF UAAA 190501Z 1906/2006 04005G10MPS 9999 FEW050 SCT100 TX42/1910Z TN25/2000Z BECMG 1914/1915 19002MPS TEMPO 2002/2006 32005MPS",
    "UZTT": "TAF UZTT 190500Z 1906/2006 22010KT 7000 NSC TX44/1911Z TN26/2000Z TEMPO 1912/1916 32015KT",
    "ZWWW": "TAF ZWWW 190304Z 1906/2012 36004MPS CAVOK TX39/1909Z TX40/2009Z TN29/1923Z BECMG 1913/1914 18004MPS BECMG 2002/2003 36004MPS",
    "ZLXY": "TAF ZLXY 190302Z 1906/2006 16003MPS 6000 NSC TX36/1907Z TN22/1921Z",
    "ZBAA": "TAF ZBAA 190301Z 1906/2012 18004MPS CAVOK TX31/1906Z TX30/2006Z TN22/1921Z",
    "ZBHH": "TAF AMD ZBHH 190447Z 1906/2006 23004G09MPS 9999 SCT040 TX32/1908Z TN15/1922Z BECMG 1909/1910 VRB10G17MPS -TSRA SCT040 SCT040CB TEMPO 1910/1912 +TSRA BECMG 1912/1913 NSW NSC TEMPO 1921/2001 FEW040 FEW040CB",
    "ZSQD": "TAF ZSQD 190301Z 1906/2006 16004MPS 3500 BR NSC TX30/1906Z TN21/1920Z",
    "ZMCK": "TAF ZMCK 190447Z 1906/2012 33006MPS 9999 FEW030CB SCT033 TX25/1907Z TN09/1921Z PROB30 TEMPO 1906/1912 VRB08G13MPS TSRA SCT027CB SCT030 BECMG 1911/1913 VRB02MPS BECMG 2002/2004 32005MPS PROB40 TEMPO 2005/2012 VRB09G15MPS TSRA SCT027CB SCT030",
    "UUEE": "TAF UUEE 190450Z 1906/2006 20003G08MPS CAVOK TX28/1912Z TN16/2001Z",
    "UUDD": "TAF UUDD 190450Z 1906/2012 20003MPS 9999 SCT040 TX28/2012Z TN14/2001Z",
    "ULLI": "TAF ULLI 190454Z 1906/2006 25007G13MPS 6000 BKN016 TEMPO 1906/1918 20009G16MPS 3100 -TSRA BKN010 BKN017CB BECMG 1922/1924 35003MPS",
    "USSS": "TAF USSS 190445Z 1906/2006 04003G14MPS 6000 -SHRA BKN016CB TEMPO 1906/2006 02009G20MPS -TSRA BKN011CB",
    "UNNT": "TAF UNNT 190500Z 1906/2006 32003G08MPS 9999 BKN040 TX26/1912Z TN16/1922Z TEMPO 1906/1918 02006G13MPS -TSRA BKN020CB",
    "UNKL": "TAF UNKL 190448Z 1906/2006 28003G08MPS 6000 SCT040CB TEMPO 1906/1910 32008G18MPS 1000 TSRAGR BECMG 1910/1912 32008G18MPS -TSRAGR BECMG 1913/1915 25003MPS NSW TEMPO 1915/1924 0250 FG BKN002 BKN016CB BECMG 2003/2005 32005MPS -TSRA",
    "UIBB": "TAF AMD UIBB 190525Z 1905/2006 26004G09MPS 9999 -TSRA BKN016CB TEMPO 1905/1914 VRB14MPS 0700 +TSRA VV001 BECMG 1914/1915 NSW",
    "UEEE": "TAF UEEE 190500Z 1906/2012 24003G08MPS 9999 SCT010 BKN023CB OVC070 TEMPO 1906/1915 VRB12MPS 1000 TSRA VV003",
    "UHHH": "TAF UHHH 190446Z 1906/2012 30003MPS 9999 SCT025CB TX30/1906Z TN19/1917Z FM192300 26003MPS 9999 SCT020 TEMPO 1923/2009 29008MPS",
    "UHSS": "TAF UHSS 190455Z 1906/2012 15003MPS 5000 -SHRA BKN007 BKN016CB TEMPO 1906/1922 1500 SHRA BR BKN004 BKN016CB FM200000 32003MPS 9999 SCT030CB"
  },
  "atis": {},
  "windtemp_alaska": "\n000\nFBAK31 KWNO 190159\nFD1AK1\nDATA BASED ON 190000Z    \nVALID 190600Z   FOR USE 0200-0900Z. TEMPS NEG ABV 24000\n\nFT  3000    6000    9000   12000   18000   24000  30000  34000  39000\nADK 2909 2810+04 3015-01 3230-05 3360-14 3370-24 338736 339445 339750\nADQ 1625 1730+04 1831+00 1934-04 1955-15 2066-26 197041 197351 196153\nAKN 1430 1634+02 1632-03 1734-08 1848-20 1865-31 199544 187645 193943\nANC 1417 1616+01 1722-04 2034-07 2150-16 2160-25 216141 216650 215654\nANN 3417 3515+04 3319+05 3415+01 3425-12 3524-24 342740 352950 332955\nBET 1118 1117-01 1124-06 1220-09 1424-23 1426-36 152944 162340 161639\nBRW 0613 0805+00 9900-03 1206-07 1116-20 1026-33 103146 122844 122242\nBTI 2413 2214+05 2112-01 2010-06 1524-18 1439-30 144646 153245 162144\nBTT 1506 1509+02 1714-03 1715-09 1315-22 2120-34 213346 202444 192142\nCDB 2308 2409-01 2511-07 2317-10 2225-22 2230-34 222841 212138 201639\nCZF 0910 0908+00 0610-06 0613-12 0709-23 1008-35 071047 040941 030639\nEHM 1124 0919-01 1018-05 1121-11 1321-22 1621-34 172043 171839 161239\nFAI 1813 2014+03 1911-03 1811-10 2214-18 2239-29 237742 238251 213948\nFYU 2306 2206+04 2210-03 2009-09 2013-20 2226-30 245444 235247 212943\nGAL 1409 1607+01 1508-05 1614-11 1924-21 2032-34 203847 193346 172241\nGKN 1723 1925+01 2116-03 2425-06 2343-14 2243-25 224741 235650 235055\nHOM 1238 1533+02 1831-02 1934-06 1953-16 2065-27 207042 207451 206053\nJNU 2605 3308+05 3509+04 3311+01 3210-12 2910-25 301540 312349 313057\nLUR 0907 1307+01 1109-04 0913-10 0723-23 0738-35 074346 072542 081440\nMCG 1105 1010+01 1212-05 1315-11 1322-20 1832-31 205946 206647 183144\nMDO 1319 1622+03 2028+00 2232-05 2231-14 2140-25 214341 214550 213757\nOME 1310 1310+00 1309-06 1307-11 1105-24 1506-36 171146 120541 080739\nORT      2606+04 1911-03 2118-08 2438-13 2338-25 234441 245050 244155\nOTZ 1415 1514+01 1515-05 1514-11 1416-25 1618-37 162144 141441 121239\nSNP 3518 3520-03 3622-05 3629-10 3536-23 3541-35 354443 354640 353840\nTKA 1710 1717-01 1915-05 2130-09 2139-17 2161-26 217142 217451 215151\nUNK 1416 1514+00 1617-06 1617-11 1825-22 1829-35 183648 182544 161540\nYAK 2805 2914+03 2816+02 2618-01 2319-13 2619-25 262440 262649 252758\nIKO 3326 3332-02 3334-06 3335-11 3339-23 3341-34 334543 335239 334440\nAFM 1508 1511+01 1612-04 1615-11 1719-24 1715-34 161847 161843 151640\n5AB 2914 3121+12 3127+06 3132+02 3234-08 3238-20 315933 306843 307753\n5AC 3318 3323+08 3225+05 3126+01 3121-11 2916-23 291739 291449 301158\n5AD 2124 2225+06 2322+03 2222+00 2328-14 2331-25 213140 222949 212958\n5AE 2027 2033+04 2039+00 2044-04 2057-17 2079-26 209242 208350 195850\n5AF 3015 3215+07 3016+04 2914+00 3013-12 3014-24 291439 281348 261558\n5AG 2007 2610+06 2416+02 2419-02 2220-13 2221-24 212340 203050 212758\n",
  "vaac_active": [
    {
      "volcano": "MAYON",
      "volcano_jp": "マヨン",
      "advisory_nr": "2026/767",
      "obs_time": "2026-07-19 02:07Z",
      "issued_time": "2026-07-19 02:25Z",
      "text_url": "https://www.data.jma.go.jp/vaac/data/TextData/2026/20260719_27303000_0767_Text.html",
      "lat": 13.25,
      "lon": 123.683,
      "text": "FVFE01 RJTD 190225\nVA ADVISORY\nDTG: 20260719/0225Z\nVAAC: TOKYO\nVOLCANO: MAYON 273030\nPSN: N1315 E12341\nAREA: PHILIPPINES\nSOURCE ELEV: 2462M AMSL\nADVISORY NR: 2026/767\nINFO SOURCE: HIMAWARI-9 PHIVOLCS\nERUPTION DETAILS: ERUPTION AT 20260719/0207Z FL090 REPORTED\nOBS VA DTG: 19/0210Z\nOBS VA CLD: VA NOT IDENTIFIABLE FM SATELLITE DATA WIND FL090 350/1KT\nFCST VA CLD +6 HR: NOT AVBL\nFCST VA CLD +12 HR: NOT AVBL\nFCST VA CLD +18 HR: NOT AVBL\nRMK: WE WILL ISSUE FURTHER ADVISORY IF VA IS DETECTED IN SATELLITE \nIMAGERY.\nNXT ADVISORY: NO FURTHER ADVISORIES="
    }
  ],
  "vaac_tokyo": [
    {
      "id": "20260719_27303000_0767",
      "year": "2026",
      "volcano": "Mayon",
      "psn": "N1315 E12341",
      "issued": "20260719",
      "text": "FVFE01 RJTD 190225\nVA ADVISORY\nDTG: 20260719/0225Z\nVAAC: TOKYO\nVOLCANO: MAYON 273030\nPSN: N1315 E12341\nAREA: PHILIPPINES\nSOURCE ELEV: 2462M AMSL\nADVISORY NR: 2026/767\nINFO SOURCE: HIMAWARI-9 PHIVOLCS\nERUPTION DETAILS: ERUPTION AT 20260719/0207Z FL090 REPORTED\nOBS VA DTG: 19/0210Z\nOBS VA CLD: VA NOT IDENTIFIABLE FM SATELLITE DATA WIND FL090 350/1KT\nFCST VA CLD +6 HR: NOT AVBL\nFCST VA CLD +12 HR: NOT AVBL\nFCST VA CLD +18 HR: NOT AVBL\nRMK: WE WILL ISSUE FURTHER ADVISORY IF VA IS DETECTED IN SATELLITE \nIMAGERY.\nNXT ADVISORY: NO FURTHER ADVISORIES=",
      "img_url": "https://ds.data.jma.go.jp/svd/vaac/data/VAGFN/2026/Images/20260719_27303000_0767_QH21_01.png",
      "sat_img_url": null,
      "text_url": "https://ds.data.jma.go.jp/svd/vaac/data/TextData/2026/20260719_27303000_0767_Text.html"
    },
    {
      "id": "20260718_30027000_0268",
      "year": "2026",
      "volcano": "Sheveluch",
      "psn": "N5639 E16122",
      "issued": "20260718",
      "text": "FVFE01 RJTD 180000\nVA ADVISORY\nDTG: 20260718/0000Z\nVAAC: TOKYO\nVOLCANO: SHEVELUCH 300270\nPSN: N5639 E16122\nAREA: RUSSIA\nSOURCE ELEV: 3283M AMSL\nADVISORY NR: 2026/268\nINFO SOURCE: KVERT HIMAWARI-9\nERUPTION DETAILS: VA CONTINUOUSLY OBS IN SATELLITE IMAGERY\nOBS VA DTG: 17/2320Z\nOBS VA CLD: SFC/FL290 N5601 E16322 - N5605 E16357 - N5546 E16401 - \nN5544 E16326 MOV SE 25KT\nFCST VA CLD +6 HR: 18/0520Z SFC/FL300 N5529 E16617 - N5404 E16714 - \nN5357 E16639 - N5527 E16530\nFCST VA CLD +12 HR: 18/1120Z SFC/FL300 N5352 E17006 - N5152 E17037 - \nN5152 E16936 - N5344 E16817\nFCST VA CLD +18 HR: NO VA EXP\nRMK: SOME PART OF VA OBSCURED BY MET CLOUD.\nNXT ADVISORY: 20260718/0600Z=",
      "img_url": "https://ds.data.jma.go.jp/svd/vaac/data/VAGFN/2026/Images/20260718_30027000_0268_QH21_01.png",
      "sat_img_url": "https://ds.data.jma.go.jp/svd/vaac/data/Sat/2026/Images/30027000/09-ir/20260717_2320_202607180000_ir.png",
      "text_url": "https://ds.data.jma.go.jp/svd/vaac/data/TextData/2026/20260718_30027000_0268_Text.html"
    },
    {
      "id": "20260717_27307000_0014",
      "year": "2026",
      "volcano": "Taal",
      "psn": "N1400 E12100",
      "issued": "20260717",
      "text": "FVFE01 RJTD 171113\nVA ADVISORY\nDTG: 20260717/1113Z\nVAAC: TOKYO\nVOLCANO: TAAL 273070\nPSN: N1400 E12100\nAREA: PHILIPPINES\nSOURCE ELEV: 311M AMSL\nADVISORY NR: 2026/14\nINFO SOURCE: HIMAWARI-9 PHIVOLCS\nERUPTION DETAILS: ERUPTION AT 20260717/1051Z FL040 EXTD E REPORTED\nOBS VA DTG: 17/1100Z\nOBS VA CLD: VA NOT IDENTIFIABLE FM SATELLITE DATA WIND FL040 270/8KT\nFCST VA CLD +6 HR: NOT AVBL\nFCST VA CLD +12 HR: NOT AVBL\nFCST VA CLD +18 HR: NOT AVBL\nRMK: WE WILL ISSUE FURTHER ADVISORY IF VA IS DETECTED IN SATELLITE \nIMAGERY.\nNXT ADVISORY: NO FURTHER ADVISORIES=",
      "img_url": "https://ds.data.jma.go.jp/svd/vaac/data/VAGFN/2026/Images/20260717_27307000_0014_QH21_01.png",
      "sat_img_url": null,
      "text_url": "https://ds.data.jma.go.jp/svd/vaac/data/TextData/2026/20260717_27307000_0014_Text.html"
    },
    {
      "id": "20260713_28208001_0083",
      "year": "2026",
      "volcano": null,
      "psn": "N3136 E13039",
      "issued": "20260713",
      "text": "FVFE01 RJTD 130254\nVA ADVISORY\nDTG: 20260713/0254Z\nVAAC: TOKYO\nVOLCANO: SAKURAJIMA (AIRA CALDERA) 282080\nPSN: N3136 E13039\nAREA: JAPAN\nSOURCE ELEV: 1117M AMSL\nADVISORY NR: 2026/83\nINFO SOURCE: JMA HIMAWARI-9\nERUPTION DETAILS: ERUPTED AT 20260713/0152Z FL100 EXTD N\nOBS VA DTG: 13/0230Z\nOBS VA CLD: SFC/FL100 N3136 E13039 - N3142 E13040 - N3141 E13044 - \nN3134 E13042 MOV NE 15KT\nFCST VA CLD +6 HR: 13/0830Z SFC/FL100 N3234 E13121 - N3145 E13155 - \nN3202 E13110 - N3227 E13051\nFCST VA CLD +12 HR: 13/1430Z SFC/FL100 N3318 E13206 - N3142 E13317 - \nN3134 E13226 - N3312 E13118\nFCST VA CLD +18 HR: NO VA EXP\nRMK: NIL\nNXT ADVISORY: 20260713/0600Z=",
      "img_url": "https://ds.data.jma.go.jp/svd/vaac/data/VAGFN/2026/Images/20260713_28208001_0083_QH21_01.png",
      "sat_img_url": "https://ds.data.jma.go.jp/svd/vaac/data/Sat/2026/Images/28208001/09-ir/20260713_0230_202607130254_ir.png",
      "text_url": "https://ds.data.jma.go.jp/svd/vaac/data/TextData/2026/20260713_28208001_0083_Text.html"
    }
  ],
  "vaac_alaska": [
    {
      "text": "\n000\nFVAK21 PAWU 180008\nVAAAK1\nVA ADVISORY\n\nDTG: 20260718/0000Z\n\nVAAC: ANCHORAGE\n\nVOLCANO: SHEVELUCH 300270\n\nPSN: N5639 E16122\n\nAREA: KAMCHATKA PENINSULA\n\nSOURCE ELEV: 10771 FT AMSL\n\nADVISORY NR: 2026/205\n\nRMK: PLEASE SEE FVFE01 RJTD ISSUED BY VAAC TOKYO WHICH DESCRIBES\nCONDITIONS NEAR THE VAAC ANCHORAGE AREA OF RESPONSIBILITY...BS\n\n\n\n",
      "issued": "2026-07-18T00:08:00+00:00",
      "volcano": "Sheveluch",
      "psn": "N5639 E16122"
    }
  ]
}