{
  "updated_utc": "2026-07-18T18:54Z",
  "metar": {
    "RJAA": "METAR RJAA 171800Z AUTO 13003KT 9999 FEW011 SCT070 OVC090 24/23 Q1006 NOSIG",
    "PANC": "METAR PANC 171853Z 03006KT 10SM -RA SCT007 OVC075 11/09 A2987 RMK AO2 SLP117 P0001 T01060089",
    "PAFA": "METAR PAFA 171853Z 15004KT 10SM FEW060 FEW090 SCT140 16/07 A2983 RMK AO2 SLP104 T01610067 $",
    "PAED": "METAR PAED 171855Z 03004KT 10SM -RA SCT008 SCT025 BKN045 OVC070 12/10 A2986 RMK AO2A SLP108 P0003 T01150096 $",
    "KSEA": "METAR KSEA 171853Z 24009KT 10SM FEW028 BKN043 19/08 A3006 RMK AO2 SLP185 T01890083 $",
    "ZSPD": "METAR ZSPD 171800Z 20003MPS CAVOK 31/26 Q0999 NOSIG",
    "ZSSS": "METAR ZSSS 171800Z 21003MPS CAVOK 32/27 Q0999 NOSIG",
    "RJFR": "METAR RJFR 171800Z AUTO 35003KT 9999 BKN011 27/26 Q1002",
    "VHHH": "METAR VHHH 171800Z 19011KT 9999 FEW010 SCT025 30/25 Q1005 NOSIG",
    "RCTP": "METAR RCTP 171800Z 23013KT 9999 FEW015 28/23 Q1005 NOSIG RMK A2968",
    "ZGSZ": "METAR ZGSZ 171800Z 16005MPS 9999 BKN050 28/27 Q1005 NOSIG",
    "WSSS": "METAR WSSS 171800Z 16004KT 110V230 9999 FEW016 BKN300 28/25 Q1011 NOSIG",
    "WMKK": "METAR WMKK 171800Z 01004KT 330V070 9000 FEW017CB SCT030 27/24 Q1011 NOSIG",
    "WIDD": "METAR WIDD 171800Z 00000KT 9999 FEW014 27/26 Q1011 NOSIG",
    "VTBS": "METAR VTBS 171800Z 21004KT 160V230 9999 FEW020 28/24 Q1010 NOSIG",
    "VTBU": "METAR VTBU 171800Z VRB01KT 9000 FEW020 SCT100 28/28 Q1010 NOSIG",
    "ROAH": "METAR ROAH 171800Z AUTO 21009KT 9000 FEW003 OVC005 27/27 Q1005",
    "VVDN": "METAR VVDN 171800Z VRB01KT 9999 FEW020 29/25 Q1006 NOSIG",
    "RCKH": "SPECI RCKH 171757Z VRB01KT 9999 SCT014 SCT040 BKN060 26/24 Q1007 NOSIG RMK A2975",
    "KLAX": "METAR KLAX 171853Z 14009G17KT 10SM FEW110 SCT170 27/17 A2994 RMK AO2 SLP137 ACSL DSNT NE T02720172 $",
    "KONT": "METAR KONT 171853Z 28005KT 10SM FEW110 FEW170 31/15 A2994 RMK AO2 SLP122 T03110150 $",
    "KSFO": "METAR KSFO 171756Z 26015G20KT 10SM FEW004 SCT014 17/11 A2997 RMK AO2 SLP148 T01720111 10172 20133 52010 $",
    "KOAK": "METAR KOAK 171853Z 21007KT 10SM FEW006 BKN014 17/12 A2999 RMK AO2 SLP154 T01670117",
    "KMHR": "METAR KMHR 171815Z AUTO VRB04KT 10SM CLR 25/11 A2988 RMK AO2 T02530106 $",
    "KDFW": "METAR KDFW 171853Z 18013G24KT 10SM SCT044 BKN180 BKN250 32/21 A3009 RMK AO2 SLP181 T03220211 $",
    "KIAH": "METAR KIAH 171853Z 21008KT 10SM SCT045 SCT250 34/23 A3013 RMK AO2 SLP201 T03390228",
    "KORD": "METAR KORD 171851Z 26009KT 8SM SCT045 SCT085 BKN110 32/21 A2999 RMK AO2 LTG DSNT W SLP148 T03220211",
    "KJFK": "METAR KJFK 171851Z 24011KT 10SM FEW180 BKN250 29/13 A3004 RMK AO2 SLP170 T02940133 $",
    "KRFD": "METAR KRFD 171854Z 23008KT 10SM SCT041 SCT250 33/22 A3001 RMK AO2 SLP155 CB DSNT SE DSNT TCU NE-SE T03280222 $",
    "KIND": "METAR KIND 171854Z 26010KT 10SM SCT034TCU SCT160 32/23 A3003 RMK AO2 SLP159 CB DSNT NE-S AND W TCU S AND W T03170233",
    "KDTW": "METAR KDTW 171853Z 20006KT 1 3/4SM FU OVC024 28/19 A3006 RMK AO2 TWR VIS 2 SLP176 FU OVC024 T02830189",
    "KMSP": "METAR KMSP 171853Z 22010G18KT 10SM FEW060 FEW250 34/19 A2991 RMK AO2 SLP120 T03390194",
    "CYEG": "METAR CYEG 171800Z 10006KT 060V140 15SM FEW250 28/20 A2999 RMK CI2 CONTRAILS SLP149 DENSITY ALT 4400FT",
    "EHAM": "METAR EHAM 171825Z 32012KT 9999 FEW022 20/14 Q1014 BECMG BKN018",
    "EBBR": "METAR EBBR 171820Z 34008KT 9999 FEW043 22/14 Q1015 NOSIG",
    "EDDF": "METAR EDDF 171820Z AUTO 19009KT CAVOK 21/18 Q1012 RESHRA TEMPO SHRA BKN040CB",
    "EDFH": "METAR EDFH 171820Z 25006KT 210V280 CAVOK 19/14 Q1015",
    "EDDL": "METAR EDDL 171820Z AUTO 29011KT CAVOK 25/14 Q1013 NOSIG",
    "EDDK": "METAR EDDK 171820Z AUTO 32011KT 300V360 CAVOK 25/13 Q1013 NOSIG",
    "EBLG": "METAR EBLG 171820Z 30010KT CAVOK 23/13 Q1015 NOSIG",
    "LSZH": "METAR LSZH 171820Z 30009KT 9999 FEW060 26/16 Q1015 NOSIG",
    "LIMC": "METAR LIMC 171820Z 25007KT 230V290 CAVOK 30/20 Q1011 NOSIG",
    "LIRF": "METAR LIRF 171820Z 20008KT 9999 FEW010 29/26 Q1012 NOSIG",
    "EINN": "METAR EINN 171800Z 35012KT CAVOK 24/14 Q1020 NOSIG",
    "EGLL": "METAR EGLL 171820Z AUTO 31006KT 280V350 9999 NCD 27/09 Q1015",
    "EGSS": "METAR EGSS 171820Z AUTO 02008KT 9999 NCD 24/11 Q1016",
    "EPWA": "METAR EPWA 171800Z 12008KT CAVOK 29/15 Q1010 NOSIG",
    "UHPP": "METAR UHPP 171800Z 33002MPS 9999 BKN094 16/15 Q1019 R34L/CLRD62 NOSIG RMK MT OBSC QFE760/1014",
    "EFHK": "METAR EFHK 171820Z 14008KT CAVOK 21/14 Q1012 NOSIG",
    "LBBG": "METAR LBBG 171800Z AUTO 09005KT 9999 NCD 24/22 Q1013 NOSIG",
    "LTAC": "METAR LTAC 171820Z 06010KT 9999 SCT040 25/10 Q1014 NOSIG RMK RWY21C 05010KT RWY03L 04010KT RWY21R 03009KT RWY03R 06007KT RWY21L 07011KT",
    "UBBB": "METAR UBBB 171800Z 33010KT CAVOK 26/21 Q1007 NOSIG",
    "UTAA": "METAR UTAA 171800Z 26008KT 9999 NSC 35/19 Q1005 R88/CLRD70 NOSIG",
    "UACC": "METAR UACC 171800Z VRB01MPS 9999 FEW046 22/14 Q1005 NOSIG RMK QFE723/0964",
    "UAAA": "METAR UAAA 171800Z 00000MPS 9999 NSC 27/08 Q1007 NOSIG",
    "UZTT": "METAR UZTT 171800Z 14006KT CAVOK 32/18 Q1001 NOSIG",
    "ZWWW": "METAR ZWWW 171800Z 17003MPS CAVOK 33/07 Q1007 NOSIG",
    "ZLXY": "METAR ZLXY 171800Z 04003MPS CAVOK 25/21 Q1004 NOSIG",
    "ZBAA": "METAR ZBAA 171800Z 18003MPS 130V260 CAVOK 26/21 Q1001 NOSIG",
    "ZBHH": "METAR ZBHH 171800Z VRB01MPS CAVOK 17/16 Q1007 NOSIG",
    "ZSQD": "METAR ZSQD 171800Z 35002MPS 7000 BKN056 22/22 Q1000 NOSIG",
    "ZMCK": "METAR ZMCK 171800Z 06003MPS 9999 FEW030CB FEW033 15/09 Q1008 NOSIG RMK QFE641.8 67 NT",
    "UUEE": "METAR UUEE 171800Z 31003G10MPS CAVOK 19/09 Q1016 R06R/CLRD62 R06C/CLRD62 NOSIG",
    "UUDD": "METAR UUDD 171800Z 35004MPS CAVOK 16/08 Q1016 R31L/CLRD65 NOSIG",
    "ULLI": "METAR ULLI 171800Z 19002MPS CAVOK 22/10 Q1015 R88/090065 NOSIG",
    "USSS": "METAR USSS 171800Z VRB01MPS 9999 SCT040 17/17 Q1001 R26L/CLRD60 NOSIG RMK QFE730/0973",
    "UNNT": "METAR UNNT 171800Z 00000MPS CAVOK 17/16 Q1000 R25/290150 R34/CLRD// NOSIG RMK QFE740/0987",
    "UNKL": "METAR UNKL 171800Z 30001MPS 9000 NSC 17/17 Q0999 R29/290055 NOSIG RMK QFE724",
    "UIBB": "METAR UIBB 171800Z AUTO 16003MPS 120V200 9999 // NSC 16/14 Q0999 RMK QFE707/0943",
    "UEEE": "METAR UEEE 171800Z 01001MPS CAVOK 16/14 Q0993 R23/09//65 NOSIG RMK QFE736",
    "UHHH": "METAR UHHH 171800Z VRB01MPS 8000 NSC 16/16 Q1003 R23L/090060 NOSIG RMK QFE746/0994",
    "UHSS": "METAR UHSS 171800Z 00000MPS 2000 R01/P2000U BR BKN001 19/19 Q1008 R01/CLRD70 NOSIG RMK QBB040 MT OBSC QFE755/1007"
  },
  "taf": {},
  "atis": {},
  "windtemp_alaska": "\n000\nFBAK31 KWNO 181359\nFD1AK1\nDATA BASED ON 181200Z    \nVALID 181800Z   FOR USE 1400-2100Z. TEMPS NEG ABV 24000\n\nFT  3000    6000    9000   12000   18000   24000  30000  34000  39000\nADK 3318 3323+03 3329-02 3233-07 3350-18 3377-26 840936 841845 841349\nADQ 1725 1928+02 2128-03 2239-08 2148-15 2156-27 226741 227149 225254\nAKN 1633 1726+00 1727-05 1620-08 1923-19 2047-30 208244 218649 204146\nANC 1608 1519+00 1520-06 1717-10 2335-17 2353-27 236942 237350 234950\nANN 3213 3110+05 3014+03 2915-01 3018-15 3231-27 335442 334749 302249\nBET 1314 1011-02 0914-07 1113-11 1617-22 1824-34 193246 182643 181641\nBRW 0820 0921+02 0823-03 0818-09 0922-20 1126-31 083148 093148 102141\nBTI 0606 9900+04 2205-01 1909-06 1621-18 1533-29 165342 165750 163347\nBTT 9900 9900+02 9900-04 1705-10 1614-24 1813-35 201946 171843 161740\nCDB 1917 2015-02 2020-05 2025-09 2027-21 2041-32 205240 204040 212640\nCZF 0408 0309+00 0512-06 0516-12 0513-24 0505-36 990047 040542 050839\nEHM 1023 1219-02 1319-04 1421-10 1631-22 1743-34 184745 183341 181940\nFAI 1908 1509+02 1512-04 1411-10 1614-22 2320-31 233746 233546 202342\nFYU 2709 2305+03 9900-03 9900-08 1718-21 1637-34 154046 172944 172242\nGAL 1711 1713+00 1713-06 1713-13 1819-24 1925-34 202847 192044 171440\nGKN 1714 1818+01 1818-05 1916-09 2223-18 2441-26 256143 257050 243348\nHOM 1516 1717-01 1918-05 2122-08 2238-16 2352-27 226941 227050 225653\nJNU 2407 2806+01 2714+02 2616-02 2822-15 3139-27 315441 315551 291948\nLUR 0816 0714+02 0616-03 0621-09 0629-21 0539-32 045346 053948 052041\nMCG 1408 1508-01 1212-06 1314-12 1919-21 2236-33 213848 213445 202341\nMDO 2011 1910-01 2017-03 2326-05 2440-16 2438-26 244341 244850 244655\nOME 1210 1208+01 0705-05 0308-12 0515-24 0520-36 052145 051341 050939\nORT      2808+03 2308-03 2210-08 2217-18 2627-29 276043 285849 242546\nOTZ 1216 1216+00 1018-05 0819-10 0721-24 0627-36 063045 062342 071439\nSNP 3627 0126-03 0128-07 3630-12 3630-23 3529-34 353545 353641 353239\nTKA 9900 1512+00 1615-06 1816-11 1921-20 2240-28 237043 237749 223646\nUNK 1810 1916+00 1913-06 1709-12 1709-25 2019-36 212546 181142 150939\nYAK 2405 2506+01 2609-03 2614-04 2726-15 2939-26 284341 284750 283753\nIKO 3340 3336-02 3341-06 3341-11 3235-22 3229-34 323143 323638 323139\nAFM 1410 1414+00 1416-05 1418-11 1220-25 1220-36 121846 121442 121139\n5AB 2610 3119+09 3225+05 3336+01 3350-11 3356-18 336732 337842 338353\n5AC 3218 3121+07 3121+04 3124+00 3035-12 3037-24 312740 323750 323558\n5AD 2114 2420+05 2524+02 2528-02 2523-13 2428-24 243440 253049 232259\n5AE 1830 2037+04 2039-01 2044-06 2149-14 2155-25 216841 217349 216454\n5AF 3014 3015+05 2916+02 2918-03 3030-13 2929-25 292740 303050 303757\n5AG 2613 2711+02 2616-01 2722-04 2730-14 2736-26 263740 263949 263956\n",
  "vaac_active": [
    {
      "volcano": "MAYON",
      "volcano_jp": "マヨン",
      "advisory_nr": "2026/765",
      "obs_time": "2026-07-18 18:16Z",
      "issued_time": "2026-07-18 18:31Z",
      "text_url": "https://www.data.jma.go.jp/vaac/data/TextData/2026/20260718_27303000_0765_Text.html",
      "lat": 13.25,
      "lon": 123.683,
      "text": "FVFE01 RJTD 181831\nVA ADVISORY\nDTG: 20260718/1831Z\nVAAC: TOKYO\nVOLCANO: MAYON 273030\nPSN: N1315 E12341\nAREA: PHILIPPINES\nSOURCE ELEV: 2462M AMSL\nADVISORY NR: 2026/765\nINFO SOURCE: HIMAWARI-9 PHIVOLCS\nERUPTION DETAILS: ERUPTION AT 20260718/1816Z VA CLD UNKNOWN REPORTED\nOBS VA DTG: 18/1810Z\nOBS VA CLD: VA NOT IDENTIFIABLE FM SATELLITE DATA WIND FL180 030/2KT\nFCST VA CLD +6 HR: NOT AVBL\nFCST VA CLD +12 HR: NOT AVBL\nFCST VA CLD +18 HR: NOT AVBL\nRMK: WE WILL ISSUE FURTHER ADVISORY IF VA IS DETECTED IN SATELLITE \nIMAGERY.\nNXT ADVISORY: NO FURTHER ADVISORIES="
    }
  ],
  "vaac_tokyo": [
    {
      "id": "20260718_30027000_0268",
      "year": "2026",
      "volcano": "Sheveluch",
      "psn": "N5639 E16122",
      "issued": "20260718",
      "text": "FVFE01 RJTD 180000\nVA ADVISORY\nDTG: 20260718/0000Z\nVAAC: TOKYO\nVOLCANO: SHEVELUCH 300270\nPSN: N5639 E16122\nAREA: RUSSIA\nSOURCE ELEV: 3283M AMSL\nADVISORY NR: 2026/268\nINFO SOURCE: KVERT HIMAWARI-9\nERUPTION DETAILS: VA CONTINUOUSLY OBS IN SATELLITE IMAGERY\nOBS VA DTG: 17/2320Z\nOBS VA CLD: SFC/FL290 N5601 E16322 - N5605 E16357 - N5546 E16401 - \nN5544 E16326 MOV SE 25KT\nFCST VA CLD +6 HR: 18/0520Z SFC/FL300 N5529 E16617 - N5404 E16714 - \nN5357 E16639 - N5527 E16530\nFCST VA CLD +12 HR: 18/1120Z SFC/FL300 N5352 E17006 - N5152 E17037 - \nN5152 E16936 - N5344 E16817\nFCST VA CLD +18 HR: NO VA EXP\nRMK: SOME PART OF VA OBSCURED BY MET CLOUD.\nNXT ADVISORY: 20260718/0600Z=",
      "img_url": "https://ds.data.jma.go.jp/svd/vaac/data/VAGFN/2026/Images/20260718_30027000_0268_QH21_01.png",
      "sat_img_url": "https://ds.data.jma.go.jp/svd/vaac/data/Sat/2026/Images/30027000/09-ir/20260717_2320_202607180000_ir.png",
      "text_url": "https://ds.data.jma.go.jp/svd/vaac/data/TextData/2026/20260718_30027000_0268_Text.html"
    },
    {
      "id": "20260717_27303000_0761",
      "year": "2026",
      "volcano": "Mayon",
      "psn": "N1315 E12341",
      "issued": "20260717",
      "text": "FVFE01 RJTD 172222\nVA ADVISORY\nDTG: 20260717/2222Z\nVAAC: TOKYO\nVOLCANO: MAYON 273030\nPSN: N1315 E12341\nAREA: PHILIPPINES\nSOURCE ELEV: 2462M AMSL\nADVISORY NR: 2026/761\nINFO SOURCE: HIMAWARI-9 PHIVOLCS\nERUPTION DETAILS: ERUPTION AT 20260717/2208Z FL100 EXTD SSE REPORTED\nOBS VA DTG: 17/2210Z\nOBS VA CLD: VA NOT IDENTIFIABLE FM SATELLITE DATA WIND FL100 360/6KT\nFCST VA CLD +6 HR: NOT AVBL\nFCST VA CLD +12 HR: NOT AVBL\nFCST VA CLD +18 HR: NOT AVBL\nRMK: WE WILL ISSUE FURTHER ADVISORY IF VA IS DETECTED IN SATELLITE \nIMAGERY.\nNXT ADVISORY: NO FURTHER ADVISORIES=",
      "img_url": "https://ds.data.jma.go.jp/svd/vaac/data/VAGFN/2026/Images/20260717_27303000_0761_QH21_01.png",
      "sat_img_url": null,
      "text_url": "https://ds.data.jma.go.jp/svd/vaac/data/TextData/2026/20260717_27303000_0761_Text.html"
    },
    {
      "id": "20260717_27307000_0014",
      "year": "2026",
      "volcano": "Taal",
      "psn": "N1400 E12100",
      "issued": "20260717",
      "text": "FVFE01 RJTD 171113\nVA ADVISORY\nDTG: 20260717/1113Z\nVAAC: TOKYO\nVOLCANO: TAAL 273070\nPSN: N1400 E12100\nAREA: PHILIPPINES\nSOURCE ELEV: 311M AMSL\nADVISORY NR: 2026/14\nINFO SOURCE: HIMAWARI-9 PHIVOLCS\nERUPTION DETAILS: ERUPTION AT 20260717/1051Z FL040 EXTD E REPORTED\nOBS VA DTG: 17/1100Z\nOBS VA CLD: VA NOT IDENTIFIABLE FM SATELLITE DATA WIND FL040 270/8KT\nFCST VA CLD +6 HR: NOT AVBL\nFCST VA CLD +12 HR: NOT AVBL\nFCST VA CLD +18 HR: NOT AVBL\nRMK: WE WILL ISSUE FURTHER ADVISORY IF VA IS DETECTED IN SATELLITE \nIMAGERY.\nNXT ADVISORY: NO FURTHER ADVISORIES=",
      "img_url": "https://ds.data.jma.go.jp/svd/vaac/data/VAGFN/2026/Images/20260717_27307000_0014_QH21_01.png",
      "sat_img_url": null,
      "text_url": "https://ds.data.jma.go.jp/svd/vaac/data/TextData/2026/20260717_27307000_0014_Text.html"
    },
    {
      "id": "20260713_28208001_0083",
      "year": "2026",
      "volcano": null,
      "psn": "N3136 E13039",
      "issued": "20260713",
      "text": "FVFE01 RJTD 130254\nVA ADVISORY\nDTG: 20260713/0254Z\nVAAC: TOKYO\nVOLCANO: SAKURAJIMA (AIRA CALDERA) 282080\nPSN: N3136 E13039\nAREA: JAPAN\nSOURCE ELEV: 1117M AMSL\nADVISORY NR: 2026/83\nINFO SOURCE: JMA HIMAWARI-9\nERUPTION DETAILS: ERUPTED AT 20260713/0152Z FL100 EXTD N\nOBS VA DTG: 13/0230Z\nOBS VA CLD: SFC/FL100 N3136 E13039 - N3142 E13040 - N3141 E13044 - \nN3134 E13042 MOV NE 15KT\nFCST VA CLD +6 HR: 13/0830Z SFC/FL100 N3234 E13121 - N3145 E13155 - \nN3202 E13110 - N3227 E13051\nFCST VA CLD +12 HR: 13/1430Z SFC/FL100 N3318 E13206 - N3142 E13317 - \nN3134 E13226 - N3312 E13118\nFCST VA CLD +18 HR: NO VA EXP\nRMK: NIL\nNXT ADVISORY: 20260713/0600Z=",
      "img_url": "https://ds.data.jma.go.jp/svd/vaac/data/VAGFN/2026/Images/20260713_28208001_0083_QH21_01.png",
      "sat_img_url": "https://ds.data.jma.go.jp/svd/vaac/data/Sat/2026/Images/28208001/09-ir/20260713_0230_202607130254_ir.png",
      "text_url": "https://ds.data.jma.go.jp/svd/vaac/data/TextData/2026/20260713_28208001_0083_Text.html"
    }
  ],
  "vaac_alaska": [
    {
      "text": "\n000\nFVAK21 PAWU 180008\nVAAAK1\nVA ADVISORY\n\nDTG: 20260718/0000Z\n\nVAAC: ANCHORAGE\n\nVOLCANO: SHEVELUCH 300270\n\nPSN: N5639 E16122\n\nAREA: KAMCHATKA PENINSULA\n\nSOURCE ELEV: 10771 FT AMSL\n\nADVISORY NR: 2026/205\n\nRMK: PLEASE SEE FVFE01 RJTD ISSUED BY VAAC TOKYO WHICH DESCRIBES\nCONDITIONS NEAR THE VAAC ANCHORAGE AREA OF RESPONSIBILITY...BS\n\n\n\n",
      "issued": "2026-07-18T00:08:00+00:00",
      "volcano": "Sheveluch",
      "psn": "N5639 E16122"
    }
  ]
}