{
  "updated_utc": "2026-07-05T04:42Z",
  "metar": {
    "RJAA": "METAR RJAA 050300Z 14010KT 110V180 9999 FEW015 SCT020 BKN100 26/20 Q1011 NOSIG",
    "PANC": "METAR PANC 050253Z 20004KT 10SM FEW040 SCT050 BKN080 OVC130 15/07 A2992 RMK AO2 SLP131 T01500067 57009 $",
    "PAFA": "METAR PAFA 050253Z 05011KT 10SM SCT050CB SCT100 BKN200 20/08 A2985 RMK AO2 TSB0154E29 SLP113 CB N-NE NW MOV NE CB DSNT NE SE-SW T02000078 53007 $",
    "PAED": "METAR PAED 050255Z 00000KT 10SM -RA FEW030 OVC070 16/07 A2989 RMK AO2A RAB50 SLP118 PCP VRY LGT P0000 T01590069 57011 $",
    "KSEA": "METAR KSEA 050253Z 35008KT 10SM FEW060 19/11 A3011 RMK AO2 SLP202 T01940111 56011 $",
    "ZSPD": "METAR ZSPD 050300Z 26005MPS 9999 BKN026 30/25 Q1007 NOSIG",
    "ZSSS": "METAR ZSSS 050300Z 26004MPS 9999 -SHRA BKN016 27/25 Q1007 NOSIG",
    "RJFR": "METAR RJFR 050300Z 25005KT 9999 -SHRA FEW005 SCT020 BKN100 26/23 Q1009",
    "VHHH": "METAR VHHH 050300Z 15011KT 9999 FEW010 SCT025 31/26 Q1009 WS R25L NOSIG",
    "RCTP": "METAR RCTP 050300Z 26014KT 9999 FEW020 SCT030 BKN250 33/26 Q1012 NOSIG RMK A2989",
    "ZGSZ": "METAR ZGSZ 050300Z 17007MPS 9999 BKN020 32/26 Q1009 NOSIG",
    "WSSS": "METAR WSSS 050300Z 11007KT 9999 FEW018 FEW020CB BKN300 31/24 Q1012 NOSIG",
    "WMKK": "METAR WMKK 050300Z VRB06KT 9999 FEW018 32/24 Q1011 NOSIG",
    "WIDD": "METAR WIDD 050300Z 12008KT 9999 SCT014 32/25 Q1012 NOSIG",
    "VTBS": "METAR VTBS 050300Z 22008KT 9999 SCT025 31/23 Q1010 NOSIG",
    "VTBU": "METAR VTBU 050300Z 19008KT 8000 FEW020 BKN100 30/28 Q1010 NOSIG",
    "ROAH": "METAR ROAH 050300Z 22007KT 9999 FEW012 31/27 Q1012",
    "VVDN": "METAR VVDN 050300Z 23012KT 9999 FEW017 SCT070 32/22 Q1007 NOSIG",
    "RCKH": "METAR RCKH 050300Z 19010KT 150V220 9999 FEW020 SCT200 32/23 Q1012 NOSIG RMK A2990",
    "KLAX": "METAR KLAX 050253Z 26013KT 10SM SCT011 SCT100 BKN220 20/17 A2997 RMK AO2 SLP147 T02000167 55003",
    "KONT": "METAR KONT 050253Z 26010KT 10SM SCT120 SCT230 28/13 A2995 RMK AO2 SLP127 T02780133 55002 $",
    "KSFO": "METAR KSFO 050256Z 29017KT 10SM FEW003 FEW150 BKN180 BKN200 14/11 A2999 RMK AO2 SLP155 T01390111 53011 $",
    "KOAK": "METAR KOAK 050253Z 28012KT 10SM SCT007 BKN250 14/12 A2999 RMK AO2 SLP157 T01390117 53008 $",
    "KMHR": "METAR KMHR 050255Z AUTO 22010KT 10SM CLR 30/07 A2988 RMK AO2 T03050074 55003",
    "KDFW": "METAR KDFW 050253Z 17010KT 10SM FEW080 BKN250 33/18 A2993 RMK AO2 SLP123 T03280183 53018 $",
    "KIAH": "METAR KIAH 050253Z 17006KT 10SM FEW040 30/23 A2996 RMK AO2 SLP144 T03000233 53008",
    "KORD": "METAR KORD 050251Z 02012KT 2 1/2SM FU BR BKN004 BKN100 BKN250 20/19 A2994 RMK AO2 SLP133 60000 T02000194 50011 $",
    "KJFK": "METAR KJFK 050251Z 33006KT 10SM FEW060 FEW090 BKN160 OVC250 27/18 A2996 RMK PRESRR SLP146 FRQ LTGICCG DSNT SW CB DSNT SW T02720183 53045 $",
    "KRFD": "METAR KRFD 050254Z 00000KT 5SM FU BKN160 BKN250 22/21 A2997 RMK AO2 SLP144 VIS S-SW 2 T02170211 51005 $",
    "KIND": "METAR KIND 050254Z 16007KT 8SM -RA FEW030 OVC130 22/21 A2992 RMK AO2 TSE32 SLP124 P0007 60044 T02220211 58022 $",
    "KDTW": "SPECI KDTW 050250Z 03006KT 5SM FU SCT008 BKN035 OVC120 26/19 A2995 RMK AO2 FU SCT008 $",
    "KMSP": "METAR KMSP 050253Z 13009KT 5SM -RA BR OVC100 20/18 A3001 RMK AO2 LTG DSNT SE SLP160 P0005 60084 T02000183 51020",
    "CYEG": "SPECI CYEG 050250Z 23009KT 20SM BKN100 BKN240 16/13 A2990 RMK ACC5CI2 SH S-SW SLP130 DENSITY ALT 3100FT",
    "EHAM": "METAR EHAM 050255Z 28005KT 9999 BKN028 18/15 Q1021 NOSIG",
    "EBBR": "METAR EBBR 050250Z 26007KT CAVOK 17/15 Q1023 NOSIG",
    "EDDF": "METAR EDDF 050250Z AUTO 29007KT CAVOK 21/13 Q1022 NOSIG",
    "EDFH": "METAR EDFH 050250Z 27005KT CAVOK 15/12 Q1024",
    "EDDL": "METAR EDDL 050250Z AUTO 26006KT 9999 BKN038 20/15 Q1021 NOSIG",
    "EDDK": "METAR EDDK 050250Z AUTO 25005KT 9999 VCSH SCT032 BKN038 FEW///TCU 19/14 Q1022 TEMPO SHRA BKN030TCU",
    "EBLG": "METAR EBLG 050250Z 26008KT 9999 SCT012 SCT040 17/15 Q1023 TEMPO BKN010",
    "LSZH": "METAR LSZH 050250Z AUTO 14003KT CAVOK 15/09 Q1025 NOSIG",
    "LIMC": "METAR LIMC 050250Z 36006KT CAVOK 20/12 Q1020 NOSIG",
    "LIRF": "METAR LIRF 050250Z 07005KT CAVOK 22/13 Q1018 NOSIG",
    "EINN": "METAR EINN 050300Z 25006KT 5000 -DZ FEW004 BKN005 14/14 Q1027 TEMPO BKN004",
    "EGLL": "METAR EGLL 050250Z AUTO 27008KT 9999 NCD 16/14 Q1025",
    "EGSS": "METAR EGSS 050250Z AUTO 26005KT 240V300 9999 SCT026 17/14 Q1025",
    "EPWA": "METAR EPWA 050300Z 26007KT CAVOK 12/10 Q1014 NOSIG",
    "UHPP": "METAR UHPP 050300Z 17002MPS 120V200 9999 SCT013 SCT019CB BKN023 12/09 Q1017 R16R/CLRD62 NOSIG RMK MT OBSC QFE760/1013",
    "EFHK": "METAR EFHK 050250Z 36007KT 9999 SCT006 14/14 Q1002 TEMPO BKN007 FEW025CB",
    "LBBG": "METAR LBBG 050300Z AUTO 28005KT 260V340 9999 NSC 20/13 Q1015 NOSIG",
    "LTAC": "METAR LTAC 050250Z 05003KT 9999 SCT040 BKN100 17/11 Q1014 NOSIG",
    "UBBB": "METAR UBBB 050300Z 24004KT 9999 FEW060CB 25/21 Q1005 NOSIG",
    "UTAA": "METAR UTAA 050300Z 27006KT 9999 NSC 31/09 Q1004 R88/CLRD70 NOSIG",
    "UACC": "METAR UACC 050300Z 30003MPS 270V340 9999 SCT046 21/15 Q1007 NOSIG RMK QFE724/0965",
    "UAAA": "METAR UAAA 050300Z 01002MPS 330V050 9999 FEW050 21/16 Q1011 NOSIG",
    "UZTT": "METAR UZTT 050300Z 06008KT CAVOK 27/10 Q1008 NOSIG",
    "ZWWW": "METAR ZWWW 050300Z 36004MPS 310V030 CAVOK 28/14 Q1009 NOSIG",
    "ZLXY": "METAR ZLXY 050300Z 03002MPS 330V060 CAVOK 32/20 Q1002 NOSIG",
    "ZBAA": "METAR ZBAA 050300Z 01003MPS 310V060 CAVOK 32/18 Q0998 NOSIG",
    "ZBHH": "METAR ZBHH 050300Z VRB01MPS 9999 FEW040 FEW040TCU 25/15 Q1006 NOSIG",
    "ZSQD": "METAR ZSQD 050300Z 17004MPS 130V210 9999 SCT033 33/22 Q0999 NOSIG",
    "ZMCK": "METAR ZMCK 050300Z 34008MPS 9999 FEW030CB SCT033 20/10 Q1012 NOSIG RMK QFE644.1 51 MOP",
    "UUEE": "METAR UUEE 050300Z 27004MPS CAVOK 17/14 Q1001 R24L/CLRD62 R24C/CLRD62 NOSIG",
    "UUDD": "METAR UUDD 050300Z 30003MPS CAVOK 17/16 Q1002 R31L/CLRD65 NOSIG",
    "ULLI": "METAR ULLI 050300Z 12003MPS 9999 FEW006 SCT021CB BKN036 16/15 Q1000 R10R/090065 NOSIG RMK OBST OBSC",
    "USSS": "METAR USSS 050300Z VRB01MPS CAVOK 22/19 Q1007 R26R/CLRD60 R26L/CLRD60 NOSIG RMK QFE735/0980",
    "UNNT": "METAR UNNT 050300Z 17005MPS CAVOK 26/18 Q1005 R25/CLRD// R34/////// NOSIG RMK QFE744/0992",
    "UNKL": "METAR UNKL 050300Z 34001MPS CAVOK 24/19 Q1007 R29/CLRD// NOSIG RMK QFE730",
    "UIBB": "METAR UIBB 050300Z 12004MPS 070V160 9999 NSC 25/18 Q1011 R12/CLRD62 NOSIG RMK QFE715/0954",
    "UEEE": "METAR UEEE 050300Z 08003MPS CAVOK 24/12 Q1010 R23/09//61 NOSIG RMK QFE749",
    "UHHH": "METAR UHHH 050300Z 03005MPS 9999 BKN007 BKN025CB 19/17 Q1007 R05L/090060 NOSIG RMK QFE749/0999",
    "UHSS": "METAR UHSS 050300Z 21005G10MPS 9999 NSC 26/14 Q1013 R19/CLRD70 NOSIG RMK QFE758/1011"
  },
  "taf": {
    "RJAA": "TAF RJAA 042305Z 0500/0606 12010KT 9999 FEW015 BKN030 BECMG 0515/0518 05006KT TEMPO 0518/0600 FEW001 BKN003",
    "PANC": "TAF PANC 042327Z 0500/0606 05007KT P6SM FEW012 BKN060 OVC090 FM050200 15012G20KT P6SM FEW040 BKN080 FM050700 16010KT P6SM SCT040 BKN070 FM051000 03005KT P6SM VCSH OVC060 FM052100 16012KT P6SM SCT060 BKN090",
    "PAFA": "TAF PAFA 042327Z 0500/0606 19004KT P6SM VCTS FEW025 BKN050CB FM050600 VRB04KT P6SM SCT050 BKN100 FM052200 05004KT P6SM VCTS BKN050CB",
    "PAED": "TAF PAED 042100Z 0421/0603 01006KT 9999 -SHRA SCT009 OVC070 QNH2993INS BECMG 0503/0504 35006KT 9999 VCSH FEW030 BKN050 OVC080 620505 QNH2992INS BECMG 0509/0510 VRB06KT 6000 BR SCT020 BKN030 OVC060 620307 QNH2997INS BECMG 0515/0516 VRB06KT 9999 NSW BKN040 OVC060 620406 QNH2995INS TX16/0500Z TN10/0513Z",
    "KSEA": "TAF KSEA 050250Z 0503/0606 02009G17KT P6SM FEW040 FM051200 02004KT P6SM SCT027 BKN035 FM051900 35008KT P6SM SCT040 FM052300 36010G18KT P6SM FEW250 FM060500 03006KT P6SM FEW250",
    "ZSPD": "TAF ZSPD 050308Z 0506/0612 20004MPS 6000 -SHRA BKN020 TX31/0506Z TX32/0606Z TN25/0521Z TEMPO 0507/0512 33008G14MPS 2500 TSRA BKN011 SCT030CB TEMPO 0606/0610 33008G14MPS 2500 TSRA BKN013 SCT030CB",
    "ZSSS": "TAF ZSSS 050308Z 0506/0612 20004MPS 6000 -SHRA BKN030 TX30/0506Z TX32/0606Z TN26/0521Z TEMPO 0507/0512 33008G13MPS 2500 TSRA BKN013 SCT030CB TEMPO 0606/0610 33008G13MPS 2800 TSRA BKN013 SCT030CB",
    "RJFR": "TAF AMD RJFR 050042Z 0500/0606 14008KT 7000 -SHRA FEW007 BKN015 TEMPO 0500/0505 3000 SHRA BR BKN005 BKN007 BECMG 0506/0508 31004KT BECMG 0510/0512 10006KT TEMPO 0512/0518 4000 -TSRA BR BKN005 BKN009 FEW015CB TEMPO 0518/0521 0900 +TSRA FG BKN005 BKN007 FEW015CB BECMG 0521/0600 33010KT TEMPO 0521/0600 2000 SHRA BR",
    "VHHH": "TAF VHHH 050200Z 0503/0609 16015KT 9999 FEW010 SCT025 TX32/0506Z TX32/0606Z TN28/0522Z TEMPO 0503/0506 16020G30KT 4000 SHRA FEW010CB SCT020 TEMPO 0523/0603 3500 SHRA FEW010CB SCT020",
    "RCTP": "TAF RCTP 042300Z 0500/0606 23008KT 9999 FEW010 BKN032 TEMPO 0504/0510 29013KT FEW010 BKN015 FEW022TCU TEMPO 0518/0524 15005KT TEMPO 0600/0606 29010KT",
    "ZGSZ": "TAF ZGSZ 050310Z 0506/0612 17006MPS 8000 BKN040 TX33/0506Z TX31/0606Z TN27/0522Z TEMPO 0506/0508 TSRA FEW015 FEW020CB BKN030 TEMPO 0516/0519 SHRA FEW015 FEW020CB BKN040 TEMPO 0522/0601 SHRA FEW015 FEW020CB BKN040 TEMPO 0605/0608 TSRA FEW015 FEW020CB BKN030",
    "WSSS": "TAF WSSS 042300Z 0500/0606 13008KT 9999 FEW015 SCT020 TEMPO 0506/0509 3000 TSRA FEW012CB BKN015",
    "WMKK": "TAF WMKK 042300Z 0500/0606 12005KT 9999 FEW030",
    "VTBS": "TAF VTBS 042300Z 0500/0606 20008KT 9999 FEW020 TEMPO 0508/0512 -TSRA FEW018CB SCT030 BKN080",
    "VTBU": "TAF VTBU 042300Z 0500/0524 23008KT 9999 FEW020 SCT100 TEMPO 0507/0512 VRB15KT 4000 TSRA FEW018CB SCT030 BKN090",
    "ROAH": "TAF ROAH 042305Z 0500/0606 25008KT 9999 FEW015 SCT020",
    "VVDN": "TAF VVDN 042300Z 0500/0524 22010KT 9999 FEW015 SCT070",
    "RCKH": "TAF RCKH 042300Z 0500/0606 18008KT 9999 FEW010 BKN032 TEMPO 0500/0503 13005KT TEMPO 0504/0510 23013KT TEMPO 0518/0524 08005KT TEMPO 0603/0606 24013KT",
    "KLAX": "TAF KLAX 050257Z 0503/0606 26012KT P6SM SCT010 SCT100 BKN250 FM050500 26010KT P6SM BKN015 FM051200 VRB03KT P6SM SCT015 FM051800 26006KT P6SM FEW250 FM052100 26012KT P6SM SCT250 FM060400 26010KT P6SM BKN015",
    "KONT": "TAF KONT 042321Z 0500/0606 25011KT P6SM SCT080 BKN150 FM050500 25008KT 5SM FU HZ FEW008 SCT150 FM050700 VRB05KT P6SM SCT150 FM052000 26013KT P6SM FEW150 FM060200 25007KT P6SM SKC",
    "KSFO": "TAF KSFO 050301Z 0503/0606 30016KT P6SM SCT200 FM050500 29010KT P6SM FEW012 FM050800 29008KT P6SM BKN010 FM051000 28007KT P6SM OVC008 FM051800 29010KT P6SM SCT010 FM052100 29016KT P6SM SCT250",
    "KOAK": "TAF KOAK 050410Z 0504/0606 28009KT P6SM BKN006 FM050600 28008KT P6SM OVC008 FM051800 29013KT P6SM SCT250",
    "KMHR": "TAF KMHR 042320Z 0500/0524 22010KT P6SM SKC FM050600 16008KT P6SM SCT250 FM051900 22008KT P6SM SCT250",
    "KDFW": "TAF KDFW 050240Z 0503/0606 18011KT P6SM SCT060 FM051800 19010KT P6SM VCTS SCT060CB TEMPO 0518/0522 36015G35KT 4SM TSRA BR SCT070CB FM060000 19010KT P6SM SCT060",
    "KIAH": "TAF KIAH 050246Z 0503/0606 17006KT P6SM FEW250 FM050600 23004KT P6SM FEW250 TEMPO 0509/0513 6SM BR FM052000 18007KT P6SM FEW060 SCT250 FM060300 21005KT P6SM FEW030",
    "KORD": "TAF KORD 050304Z 0503/0606 04010KT 3SM BR SCT003 BKN008 TEMPO 0503/0507 1 1/2SM BR BKN003 FM050700 36007KT 3SM BR SCT005 BKN010 FM051200 04010KT P6SM SCT008 BKN015 PROB30 0512/0515 3SM -TSRA BR BKN015 OVC035CB FM051800 03012KT P6SM SCT025 BKN035",
    "KJFK": "TAF KJFK 050229Z 0502/0606 36018KT P6SM SCT060 BKN250 TEMPO 0503/0505 27020G35KT 2SM TSRA BKN040CB FM050600 VRB05KT P6SM OVC100 FM051300 17007KT P6SM FEW030 OVC150 TEMPO 0520/0524 2SM TSRA BKN030CB",
    "KRFD": "TAF KRFD 050324Z 0503/0524 06005KT 3SM BR SCT006 BKN010 TEMPO 0503/0507 2SM BR BKN006 FM050700 VRB05KT 5SM BR SCT006 BKN010 FM051300 02010KT P6SM BKN015 FM051800 04012KT P6SM SCT025 BKN035",
    "KIND": "TAF KIND 050411Z 0504/0606 28006KT 6SM BR SCT007 OVC150 FM050900 28006KT 5SM BR SCT006 BKN011 FM051300 29006KT P6SM SCT011 BKN025 FM051600 29006KT P6SM SCT025 BKN040 PROB30 0518/0524 5SM -TSRA BKN035CB",
    "KDTW": "TAF KDTW 050309Z 0503/0606 03005KT P6SM SCT060 BKN200 TEMPO 0503/0506 5SM FU FM051600 06008KT P6SM -SHRA BKN035 OVC050 PROB30 0518/0522 2SM +TSRA BKN025CB OVC040 FM060000 06007KT P6SM SCT060 BKN120",
    "KMSP": "TAF KMSP 050243Z 0503/0606 08008KT P6SM SCT040 SCT250 TEMPO 0503/0505 5SM -RA BR SCT011 BKN025 FM050500 03004KT 6SM BR SCT250 FM050800 08005KT 4SM BR BKN010 FM051500 12006KT P6SM SCT035 SCT100",
    "CYEG": "TAF CYEG 050240Z 0503/0524 32008KT P6SM SCT030 BKN140 TEMPO 0503/0504 P6SM -SHRA BKN030 FM050400 28006KT P6SM SCT050 TEMPO 0504/0510 BKN050 FM051000 28006KT P6SM FEW040 FM051800 30010KT P6SM SCT030 TEMPO 0518/0521 P6SM -SHRA BKN030 FM052100 30010KT P6SM SCT040 TEMPO 0521/0524 VRB20G30KT P6SM -SHRA VCTS BKN040CB RMK NXT FCST BY 050600Z",
    "EHAM": "TAF EHAM 042349Z 0500/0606 26008KT 9999 SCT045 BECMG 0500/0502 30010KT PROB40 TEMPO 0505/0517 BKN018 PROB30 TEMPO 0511/0515 -RADZ BKN014 BECMG 0520/0523 22005KT",
    "EBBR": "TAF EBBR 042300Z 0500/0606 28007KT 9999 SCT045",
    "EDDF": "TAF EDDF 042300Z 0500/0606 27006KT CAVOK BECMG 0508/0510 30012KT TEMPO 0510/0518 30015G25KT SHRA BKN030TCU BECMG 0520/0522 27006KT",
    "EDFH": "TAF EDFH 042300Z 0500/0524 28005KT CAVOK BECMG 0507/0509 29010KT TEMPO 0510/0518 30015G25KT SHRA BKN015TCU BECMG 0520/0522 26005KT",
    "EDDL": "TAF COR EDDL 042356Z 0500/0606 27006KT 9999 SCT020 BECMG 0507/0510 30011KT PROB30 TEMPO 0513/0516 30015G25KT SHRA BKN030TCU BECMG 0518/0521 30006KT BECMG 0522/0601 21007KT",
    "EDDK": "TAF EDDK 042300Z 0500/0606 29006KT 9999 FEW030 BECMG 0507/0510 30011KT PROB40 TEMPO 0511/0516 30015G25KT SHRA BKN030CB BECMG 0519/0522 28006KT BECMG 0600/0603 17004KT",
    "EBLG": "TAF EBLG 042300Z 0500/0606 27007KT 9999 FEW025 SCT045 PROB30 TEMPO 0504/0506 BKN012",
    "LSZH": "TAF LSZH 050225Z 0503/0609 VRB02KT CAVOK TX30/0515Z TN13/0504Z TN16/0604Z BECMG 0509/0512 29010KT PROB40 TEMPO 0512/0516 32015G25KT FEW080TCU BECMG 0516/0519 33004KT",
    "LIMC": "TAF LIMC 042300Z 0500/0606 VRB06KT CAVOK TEMPO 0500/0502 01010KT BECMG 0519/0521 01010KT",
    "LIRF": "TAF LIRF 042300Z 0500/0606 03008KT CAVOK BECMG 0508/0510 25010KT BECMG 0518/0520 VRB05KT PROB30 TEMPO 0600/0605 1200 BCFG",
    "EINN": "TAF EINN 042300Z 0500/0524 26012KT 9999 SCT009 BKN015 TEMPO 0500/0508 BKN009 PROB30 TEMPO 0500/0506 4000 BR BKN005",
    "EGLL": "TAF EGLL 042251Z 0500/0606 28013KT 9999 FEW045 PROB30 TEMPO 0504/0508 BKN013 PROB30 TEMPO 0604/0606 24003KT FEW005 BKN008",
    "EGSS": "TAF EGSS 042254Z 0500/0606 28007KT 9999 FEW040 PROB30 TEMPO 0504/0508 BKN012",
    "EPWA": "TAF EPWA 050230Z 0503/0603 25007KT CAVOK TEMPO 0508/0511 27016G26KT TEMPO 0511/0517 27020G30KT SHRA BKN025CB PROB40 TEMPO 0513/0516 3000 TSRA SCT009 BKN014CB ",
    "UHPP": "TAF UHPP 050133Z 0503/0609 16003G12MPS 9999 BKN025CB TEMPO 0503/0506 4500 -SHRA BR BKN012 OVC020CB TEMPO 0506/0521 1000 BR VV003",
    "EFHK": "TAF AMD EFHK 050411Z 0504/0603 01004KT 9999 FEW005 SCT030 TEMPO 0504/0506 7000 SHRA BKN009 FEW025CB BECMG 0506/0508 SCT025CB TEMPO 0508/0521 5000 TSRA TEMPO 0521/0603 5000 SHRA BKN008",
    "LBBG": "TAF LBBG 042300Z 0500/0524 VRB04KT 9999 SCT045 BECMG 0508/0509 12012KT PROB30 TEMPO 0509/0514 5000 SHRA FEW030CB SCT040 BECMG 0519/0520 VRB04KT",
    "LTAC": "TAF LTAC 042240Z 0500/0524 03005KT CAVOK BECMG 0502/0504 SCT040 BECMG 0504/0506 03015KT PROB30 TEMPO 0512/0516 -TSRA FEW025CB BKN030",
    "UBBB": "TAF UBBB 042259Z 0500/0524 32006KT 9999 FEW060CB TX32/0510Z TN20/0501Z TEMPO 0500/0504 VRB04KT TEMPO 0504/0516 36014KT PROB40 TEMPO 0504/0516 -TSRA SCT040CB BECMG 0516/0518 33006KT CAVOK TEMPO 0518/0524 SCT010",
    "UTAA": "TAF UTAA 042245Z 0500/0524 24014KT 6000 SCT040 SCT050CB TEMPO 0500/0504 18014KT BECMG 0504/0506 04014KT TEMPO 0510/0514 06014G24KT 4000 DRDU BECMG 0514/0516 26014KT 6000 SCT050CB",
    "UACC": "TAF UACC 042300Z 0500/0524 VRB01MPS 9999 SCT030 BKN100 TX25/0512Z TN15/0424Z TEMPO 0500/0502 BKN030CB BECMG 0502/0504 27006MPS SCT030CB BKN100 TEMPO 0504/0516 VRB16MPS 3100 -TSRA SQ BKN020CB BECMG 0518/0520 VRB01MPS SCT030 BKN100",
    "UAAA": "TAF AMD UAAA 050109Z 0501/0524 05005MPS 9999 FEW100 TX30/0510Z TN15/0523Z TEMPO 0508/0515 10005G10MPS BECMG 0515/0516 17002MPS",
    "UZTT": "TAF UZTT 042300Z 0500/0524 09015KT 7000 NSC TX35/0510Z TN22/0501Z TEMPO 0506/0512 34015KT FEW060CB",
    "ZWWW": "TAF ZWWW 050303Z 0506/0612 33004G11MPS CAVOK TX32/0509Z TX34/0609Z TN26/0523Z TEMPO 0518/0522 9999 -SHRA FEW040CB BKN040 BECMG 0602/0603 01004MPS",
    "ZLXY": "TAF ZLXY 050303Z 0506/0606 20003MPS 6000 NSC TX38/0508Z TN24/0521Z",
    "ZBAA": "TAF ZBAA 050302Z 0506/0612 19003MPS CAVOK TX34/0506Z TX34/0606Z TN21/0521Z TEMPO 0511/0514 -TSRA FEW040CB BKN040 BECMG 0610/0611 FEW040CB BKN040",
    "ZBHH": "TAF ZBHH 050305Z 0506/0606 36004MPS 9999 FEW040 TX27/0508Z TN14/0522Z BECMG 0506/0507 VRB08G13MPS -TSRA FEW040CB SCT040 BECMG 0508/0509 36004MPS NSW NSC",
    "ZSQD": "TAF ZSQD 050303Z 0506/0606 21004MPS 5000 BR NSC TX35/0506Z TN24/0520Z TEMPO 0506/0509 -TSRA BKN020 FEW030CB TEMPO 0518/0522 2800 +TSRA BKN020 SCT030CB",
    "ZMCK": "TAF ZMCK 050441Z 0506/0612 34008MPS 9999 FEW030CB SCT033 TX24/0507Z TN10/0521Z BECMG 0511/0513 VRB02MPS BECMG 0602/0604 33005MPS",
    "UUEE": "TAF UUEE 050158Z 0503/0603 27003G08MPS 9000 BKN016 TX20/0512Z TN14/0601Z TEMPO 0509/0518 24010G15MPS -TSRA BKN020CB",
    "UUDD": "TAF UUDD 050152Z 0503/0609 27003MPS 9999 FEW005 BKN016 TX20/0512Z TN15/0601Z PROB40 TEMPO 0508/0515 -TSRA BKN020CB BECMG 0515/0517 20005MPS",
    "ULLI": "TAF ULLI 050152Z 0503/0603 10003MPS 6000 BKN016 TEMPO 0506/0515 16006G13MPS 3100 -TSRA BKN010 BKN016CB TEMPO 0521/0603 1500 BR BKN004",
    "USSS": "TAF USSS 050146Z 0503/0603 25003G10MPS 9999 SCT040 TEMPO 0506/0515 -TSRA BKN016CB FM051600 16003G08MPS 6000 SCT020",
    "UNNT": "TAF UNNT 050200Z 0503/0603 17005MPS 8000 SCT040 TX29/0509Z TN19/0522Z BECMG 0504/0506 26003G08MPS TEMPO 0506/0603 29008G13MPS -TSRA BKN020CB",
    "UNKL": "TAF UNKL 050155Z 0503/0603 31005MPS 8000 SCT040CB TX30/0507Z TN19/0522Z BECMG 0504/0506 01003G08MPS TEMPO 0509/0512 35008G18MPS -TSRAGR BECMG 0512/0514 35008G16MPS -TSRA BECMG 0515/0518 34003G08MPS NSW TEMPO 0518/0521 -TSRA",
    "UIBB": "TAF UIBB 050200Z 0503/0603 12003MPS 9999 SCT050CB TEMPO 0503/0512 VRB08MPS",
    "UEEE": "TAF UEEE 050200Z 0503/0609 32006G12MPS CAVOK TX28/0508Z TN13/0518Z",
    "UHHH": "TAF AMD UHHH 050407Z 0504/0609 04005MPS 9999 SCT011 BKN020CB TX22/0605Z TN15/0517Z TEMPO 0504/0510 VRB10MPS 5000 -TSRA TEMPO 0510/0524 5000 -SHRA BKN003 BKN017CB",
    "UHSS": "TAF UHSS 050145Z 0503/0609 21003MPS 9999 FEW040 TEMPO 0509/0609 -SHRA BKN020CB"
  },
  "atis": {
    "RJAA": "[Arrival ATIS] RJAA ARR ATIS H 2110Z MS2100 (APCH)ILS Y RWY16R/ILS Y RWY16L LDG RWY 16R/16L DEP RWY 16R DEP FREQ 124.2. TWY A1 CLSD. PARL APCHS INPR. LVP IN FORCE. MS 182100Z 19004KT 7KM PRFG BR FEW002ST 19/19 Q1011/A2986 RMK 3000E-SE= Q/TWO NINE EIGHT SIX STP\n[Departure ATIS] RJAA DEP ATIS Z 1224Z M1200 (APCH)ILS Z RWY34R LDG RWY 34R DEP RWY 34L DEP FREQ 124.2. TWY A1 CLSD. OBSERVE GEAR DOWN OPS PROC ON FNL. M 181200Z 04006KT 2400M -SHRA BR BKN002ST 20/19 Q1010/A2983= Q/TWO NINE EIGHT THREE STP",
    "PANC": "[Arrival ATIS] PANC ARR ATIS N 0353Z ANC ATIS INFO N 0353Z. 15009KT 10SM FEW040 SCT060 BKN095 OVC130 13/07 A2991 (TWO NINER NINER ONE) RMK AO2 SLP129 T01330067. ILS RWY 15 APPROACHES IN USE. LANDING RWY 15, DE\n[Departure ATIS] PANC DEP ATIS S 1753Z ANC ATIS INFO S 1753Z. 32003KT 10SM CLR 13/07 A3038 (THREE ZERO THREE EIGHT) RMK AO2 SLP290 T01330072 10133 20072 58001. 7R APPROACHES IN USE. LANDING RWY 7R, DEPARTING RWY 33. NOTICE TO AIRMEN. RWY 7L CLSD. CHECK NOTAMS FOR TAXIWAY CLOSURES. ...ADVS YOU HAVE INFO S.",
    "KSEA": "[Arrival ATIS] KSEA ARR ATIS D 0353Z SEA ATIS INFO D 0353Z. 31009KT 10SM FEW060 17/11 A3011 (THREE ZERO ONE ONE). ILS AND CHARTED VISUAL APPROACH RWYS 34L AND 34R , APCH IN USE. DEPG RWY 34R, DEPG ACFT PLAN AND BRIEF NUMBERS FOR BOTH RWYS 34R AND 34C. SIMUL ARRIVALS TO RWY 34L AND DEPARTURES TO RWY 34R ARE IN USE. SIMUL APCHS IN USE TO PARA RYS. NOTAMS... BIRD ACTIVITY VICINITY ARPT. ...ADVS YOU HAVE INFO D.\n[Departure ATIS] KSEA DEP ATIS B 1553Z SEA ATIS INFO B 1553Z. 35009KT 10SM FEW250 18/09 A3007 (THREE ZERO ZERO SEVEN). ILS AND CHARTED VISUAL APPROACH RWYS 34L AND 34R , APCH IN USE. DEPG RWY 34R. SIMUL ARRIVALS TO RWY 34L AND DEPARTURES TO RWY 34R ARE IN USE. SIMUL APCHS IN USE TO PARA RYS. NOTAMS... ILS RWY 34C OTS. BIRD ACTIVITY VICINITY ARPT. ...ADVS YOU HAVE INFO B.",
    "ZSPD": "[Arrival ATIS] ZSPD ARR ATIS O 0400Z EXP ILS APCH INDEPENDENT PARL INSTR APCH LDG RWY 17R & 16L WIND RWY 17R TDZ 240/6MPS MID 250/7MPS END 240/6MPS RWY 16L TDZ 260/7MPS MID 250/8MPS END 250/8MPS VIS RWY 17R TDZ 10000M MID 10000M END 10000M VIS RWY 16L TDZ 10000M MID 10000M END 10000M FBL SHRA CLD SCT 780M T 29 /DP 25 QNH 1007 HPA CAUTION THE BIRDS NEAR THE RUNWAY RWY 17L/17R/16L/16R RWYCC 5/5/5 ISSUED AT 2025 WET/WET/WET DPT NR/NR/NR COV 100PCT/100PCT/100PCT. ADZ YOU HAVE INFO O.\n[Departure ATIS] ZSPD DEP ATIS M 2030Z DEP RWY 17L WIND RWY 17L TDZ 120/4MPS MID 130/4MPS END 130/4MPS VIS RWY 17L TDZ 700M MID 1800M END 2100M RVR RWY 17L TDZ 800M MID ABV 2000M END ABV 2000M FG CLD BKN 60M T 24 /DP 24 QNH 1005 HPA DELIVERY FREQ 118.4 CAUTION THE BIRDS NEAR THE RUNWAY RWY 17L/17R/16L/16R RWYCC 5/5/5 ISSUED AT 1305 WET/WET/WET DPT NR/NR/NR COV 100PCT/100PCT/100PCT ADZ YOU HAVE INFO M.",
    "ZSSS": "[Arrival ATIS] ZSSS ARR ATIS Z 2030Z EXP ILS APCH LDG RWY 18L WIND RWY 18L TDZ 130/4MPS MID 120/2MPS VRB BTN 080/ AND 160/ END 140/3MPS VIS RWY 18L TDZ 6000M MID 5000M END 6000M BR CLD BKN 180M T 24 /DP 23 QNH 1005 HPA RWY18L RWYCC 5/5/5 ISSUED AT 1148 WET/WET/WET DPT NR/NR/NR COV 100PCT/100PCT/100PCT RWY18R RWYCC 5/5/5 ISSUED AT 1210 WET/WET/WET DPT NR/NR/NR COV 100PCT/100PCT/100PCT QNH OF SHANGHAI TERMINAL CONTROL AREA 1005 HPA ADZ YOU HAVE INFO Z.\n[Departure ATIS] ZSSS DEP ATIS V 1830Z DEP RWY 18R WIND RWY 18R TDZ 080/2MPS MID 090/3MPS END 090/2MPS VIS RWY 18R TDZ 6000M MID 6000M END 6000M CLD BKN 240M T 25 /DP 23 QNH 1005 HPA RWY18L RWYCC 5/5/5 ISSUED AT 1148 WET/WET/WET DPT NR/NR/NR COV 100PCT/100PCT/100PCT RWY18R RWYCC 5/5/5 ISSUED AT 1210 WET/WET/WET DPT NR/NR/NR COV 100PCT/100PCT/100PCT QNH OF SHANGHAI TERMINAL CONTROL AREA 1005 HPA ADZ YOU HAVE INFO V.",
    "VHHH": "[Arrival ATIS] VHHH ARR ATIS G 2105Z ARRIVALS, RWY 25C. EXP ILS APCH, RWY 25C. CAUTION POSSIBLE GP FLUCTUATION RWY 25C. RWY 25R/L CLSD. MOD TURB FCST . WIND 190/17KT MAX27 MNM09 VRB BTN 160/ AND 220/. VIS 10KM. CLD FEW 1000FT SCT 2000FT. T30 DP25. QNH 1008HPA. ACK INFO G ON FIRST CTC WITH APP.\n[Departure ATIS] VHHH DEP ATIS V 1837Z DEPARTURES, RWY 25C. RWY 25R/L CLSD. WIND 200/11KT VRB BTN 140/ AND 230/. VIS 10KM. CLD FEW 800FT SCT 2000FT. T29 DP25. QNH 1007HPA. ACK INFO V ON FIRST CTC WITH DELIVERY .",
    "RCTP": "[Arrival ATIS] RCTP ARR ATIS B 2100Z EXP ILS APCH RWY23L ARR/DEP. RWY23R CLSD BTN 1700Z AND 2230Z FOR INSPECTION. WIND 160/07KT VIS 10 KM OR MORE CLD FEW 1500FT T 26 DP 24 QNH 1009HPA NOSIG DUE TO FLOW CONTROL BY FUKUOKA F-I-R, TRAFFIC CONCERNED MAY BE DELAYED. INFORM TAIPEI APCH OR TAIPEI TOWER ON INITIAL CONTACT YOU HAVE INFORMATION B\n[Departure ATIS] RCTP DEP ATIS U 1730Z EXP ILS APCH RWY23L ARR/DEP. RWY23R CLSD BTN 1700Z AND 2230Z FOR INSPECTION. WIND 160/06KT VIS 10 KM OR MORE CLD FEW 1500FT SCT 18000FT T 27 DP 25 QNH 1010HPA NOSIG INFORM TAIPEI APCH OR TAIPEI TOWER ON INITIAL CONTACT YOU HAVE INFORMATION U",
    "ZGSZ": "[Arrival ATIS] ZGSZ ARR ATIS H 2100Z EXP ILS APCH 15 EXP ILS OR VIS APCH 16L WIND 180/7MPS VIS 9999M -SHRA CLD SCT 1200M T 28 /DP 26 QNH 1007 HPA INDEPENDENT PARALLEL DEPARTURES DEPENDENT PARALLEL APPROACHES MISSED APPROACH ALTITUDE SETTING 1200METERS WHEN AIRBORNE CONTACT ZHUHAI APPROACH EXPECTED RNP ILS DME Z APPROACH RWY 15 16L 16R RWYCC 5/5/5 ISSUED AT 1530UTC WET/WET/WET DPT NR/NR/NR COV 100PCT/100PCT/100PCT ADZ YOU HAVE INFO H.\n[Departure ATIS] ZGSZ DEP ATIS F 2000Z DEP RWY 15 & 16L WIND 170/9MPS VIS 9999M CLD SCT 600M T 28 /DP 27 QNH 1007 HPA DELIVERY FREQ 121.65 INDEPENDENT PARALLEL DEPARTURES DEPENDENT PARALLEL APPROACHES MISSED APPROACH ALTITUDE SETTING 1200METERS WHEN AIRBORNE CONTACT ZHUHAI APPROACH EXPECTED RNP ILS DME Z APPROACH RWY 15 16L 16R RWYCC 5/5/5 ISSUED AT 1530UTC WET/WET/WET DPT NR/NR/NR COV 100PCT/100PCT/100PCT ADZ YOU HAVE INFO F.",
    "WSSS": "[Arrival ATIS] WSSS ARR ATIS T 2100Z METREPORT 2100Z ILS APCHRWY 20R TWY W 9 CLOSED, RWY 02C 20C RAPID EXIT TAXIWAY INDICATOR LIGHTS OFFFOLLOW THE GREENS TRIAL IN PROGRESS. WHEN VACATING THE RWY, PILOTS TO ADHERE TO ATC VERBAL INSTRUCTIONS. WHEN ON TWY, PILOT TO ADHERE TO FOLLOW THE GREENS INSTRUCTIONS. WHEN APPROACHING [A] JUNCTION, KEEP [A] LOOKOUT FOR CONTINUOUS GREENS. [IF] [A] BREAK IN THE GREENS IS OBSERVED, STOP AND CLARIFY WITH ATC. WIND 150/ 06KT VRB BTN120 AND180 VIS 10KM CLD FEW 1600FT T27 DP24 QNH 1010HPA NOSIG ACK ATIS T\n[Departure ATIS] WSSS DEP ATIS K 1800Z METREPORT 1800Z RWY 20C TWY W 9 CLOSED, RWY 02C 20C RAPID EXIT TAXIWAY INDICATOR LIGHTS OFFFOLLOW THE GREENS TRIAL IN PROGRESS. WHEN VACATING THE RWY, PILOTS TO ADHERE TO ATC VERBAL INSTRUCTIONS. WHEN ON TWY, PILOT TO ADHERE TO FOLLOW THE GREENS INSTRUCTIONS. WHEN APPROACHING [A] JUNCTION, KEEP [A] LOOKOUT FOR CONTINUOUS GREENS. [IF] [A] BREAK IN THE GREENS IS OBSERVED, STOP AND CLARIFY WITH ATC. WIND 180/ 06KT VIS 10KM CLD FEW 1400FT T28 DP25 QNH 1010HPA NOSIG DEP,INITIAL CMB 3000FT ACK ATIS K",
    "WMKK": "[Arrival ATIS] WMKK ARR ATIS A 2033Z WMKK ARR INFO A. TIME 2030. INDEPENDENT PARALLEL APPROACHES FOR RWY 14 L AND 15 ARE IN PROGRESS. EXP RNAV / ILS APCH FOR RWY 14 LEFT. EXP RNAV / ILS APCH FOR RWY 15. WIND RWY 14L DIRECTION NOT AVBL SPEED NOT AVBL. WIND RWY 15 DIRECTION NOT AVBL SPEED NOT AVBL. VIS RWY 14L TDZ NOT AVBL. VIS RWY 15 TDZ NOT AVBL. CLD FEW 3000 FT. T 26. DP 24. QNH 1008. NOSIG. AT FIRST CONTACT WITH LUMPUR RADAR, NOTIFY RCPT OF A\n[Departure ATIS] WMKK DEP ATIS Q 1934Z WMKK DEP INFO Q. TIME 1930. INDEPENDENT PARALLEL DEPARTURES FOR RWY 14 R AND 15 ARE IN PROGRESS. RWY 14 RIGHT. RWY 15. WIND RWY 14R DIRECTION NOT AVBL SPEED NOT AVBL. WIND RWY 15 DIRECTION NOT AVBL SPEED NOT AVBL. VIS RWY 14R TDZ NOT AVBL. VIS RWY 15 TDZ NOT AVBL. CLD FEW 3000 FT. T 26. DP 25. QNH 1009. NOSIG. ALL DEP ACFT TO CONTACT LUMPUR DEP AT 135 DECIMAL 25 MHZ WHEN ABN. AT FIRST CONTACT WITH LUMPUR GROUND, NOTIFY RCPT OF Q",
    "VTBS": "[Arrival ATIS] VTBS ARR ATIS R 0400Z VTBS ARR ATIS R 0401Z SIMULTANEOUS INDEPENDENT PARL APCH IN PROGRESS EXP ILS Z APCH ARR RWY 19 OR RNP APCH RWY 20R , ,PILOT SHALL ADZ BKK APCH ON INITIAL CTC IF UNA TO CONDUCT RNP APCH DUE TO OPERATIONAL CONSTRAINT 0400Z WIND 210/9KT VIS 10KM CLD FEW 2000FT SCT 3500FT T32 DP24 QNH 1010HPA TREND NOSIG ADZ BKK APCH ON INITIAL CONTACT THAT YOU HAVE INFO R\n[Departure ATIS] VTBS DEP ATIS W 2000Z VTBS DEP ATIS W 2004Z DEP RWY 20L RWY 19 CLSD DUE TO WIP 06181555 20L 6/6/6 NR/NR/NR NR/NR/NR DRY/DRY/DRY , ,AFT AIRBORNE ALL DEPARTING ACFT SHALL CTC 119.25 2000Z WIND CALM VIS 10KM RVR RWY 20L ABV 2000M CLD FEW 2000FT T27 DP25 QNH 1009HPA TREND NOSIG ADZ GND WHEN INITIAL CONTACT YOU HAVE INFO W",
    "VTBU": "[Arrival ATIS] VTBU ARR ATIS E 1000Z VTBU ARR ATIS E 1005Z RNP RWY 18 TRL FL130 1000Z WIND 170/9KT VIS 10KM CLD FEW CB 1800FT T30 DP28 QNH 1009HPA TS IN APCH TREND BECMG TL1045 NSW ADZ CONTROLLER WHEN INITIAL CONTACT YOU HAVE INFO E\n[Departure ATIS] VTBU DEP ATIS D VTBU ARR/DEP DATIS RPT VTBU ARR ATIS D 0330Z ILS \"Z\" APCH RWY 18 TRL FL130 0330Z WIND 110/4KT VRB BTN 350/ AND 120/ VIS 6KM CLD FEW 2000FT T31 DP27 QNH 1014HPA TREND NOSIG ADZ CONTROLLER WHEN INITIAL CONTACT YOU HAVE INFO D",
    "ROAH": "[Arrival ATIS] ROAH ARR ATIS S 1952Z S1948 (APCH)RNP RWY18R USING RWY 18R DEP FREQ 126.5 258.3 RWY18L/36R CLSD S 181948Z AUTO 20006KT 4500M BR FEW001// SCT003// BKN013// 26/26 Q1013/A2992= Q/TWO NINE NINE TWO STP\n[Departure ATIS] ROAH DEP ATIS D 0104Z M0100 (APCH)RNP RWY18R LDG RWY 18R DEP RWY 18L DEP FREQ 126.5 258.3 M 050100Z 21005KT 60KM FEW015CU 30/27 Q1013/A2993= Q/TWO NINE NINE THREE STP",
    "VVDN": "[Arrival ATIS] VVDN ARR ATIS W 1803Z VVDN INFO W 1803Z. ILS VICTOR APPROACH 35L.. DPTG RWY 35R.. 1803Z. WIND 230/03KT CAVOK T26 DP24 QNH 1008HPA TREND NOSIG. ADZ ON INITIAL CTC YOU HAVE INFO. W.\n[Departure ATIS] VVDN DEP ATIS Q 1502Z VVDN INFO Q 1502Z. ILS VICTOR APPROACH 35L.. DPTG RWY 35R.. 1502Z. WIND 260/02KT CAVOK T28 DP23 QNH 1008HPA TREND NOSIG. ADZ ON INITIAL CTC YOU HAVE INFO. Q.",
    "RCKH": "[Arrival ATIS] RCKH ARR ATIS V 0430Z EXPECT ILS APPROACH RWY 27 ARR/DEP TAXIWAY JULIETT, TAXIWAY BRAVO, TAXIWAY DELTA AND TAXIWAY ECHO CLOSED DUE MAINTENANCE. RUNWAY 27 ARRIVALS PLAN VACATE VIA CHARLIE OR\n[Departure ATIS] RCKH DEP ATIS U 0400Z EXPECT ILS APPROACH RWY 27 ARR/DEP TAXIWAY JULIETT, TAXIWAY BRAVO, TAXIWAY DELTA AND TAXIWAY ECHO CLOSED DUE MAINTENANCE. RUNWAY 27 ARRIVALS PLAN VACATE VIA CHARLIE OR",
    "KLAX": "[Arrival ATIS] KLAX ARR ATIS Q 1953Z LAX ATIS INFO Q 1953Z. 25008KT 10SM FEW010 BKN026 BKN032 20/14 A2999 (TWO NINER NINER NINER) RMK AO2 SLP153 T02000139. INST APCHS AND RNAV RNP APCHS RY 24R AND 25L, OR VCTR FOR VISUAL APCH WILL BE PROVIDED, SIMUL VISUAL APCHS TO ALL RWYS ARE IN PROG. CTC L A GC ON 121.75 FOR PUSH OR TAXI ON A. TWY C CLSD BTN TWY, C8 AND TWY C9 , , TWY B CLSD BTN TWY, F AND TWY B1, TWY B1 CLSD. ILS RY 25R OTS, RY 25R SFL OTS, RY 24L ALSF-2 OTS. LAX VOR UNMONITORED. IF ASSIGNED RUNWAY 25R FOR DEPARTURE, EXPECT DEPARTURE FROM INTERSECTION FOXTROT. TAXILANE CHARLIE EIGHT RESTRICTED TO AIRCRAFT WITH A WINGSPAN LESS THAN ONE HUNDRED EIGHTEEN FEET. USE CAUTION FOR INCREASED DRONE ACTIVIY IN THE VICINITY OF SOFI STADIUM AT OR BELOW 200FT AGL DURING THE WORLD CUP FROM 06/12/26 THROUGH 07/10/2026. HAZD WX INFO FOR LAX AREA AVBL FM FSS. BIRD ACTIVITY VICINITY ARPT. INCLUDE YOUR CALL SIGN IN ALL READBACKS. USE CAUTION WHEN EXITING RY24R AT TWY V, W, AND Y, TO HOLD SHORT OF RY24L. MULTIPLE RUNWAY INCURSIONS HAVE OCCURRED. ...ADVS YOU HAVE INFO Q.\n[Departure ATIS] KLAX DEP ATIS X 2053Z - KLAX ATIS INFO X 2053Z. 25008KT 10SM FEW140 SCT190 BKN240 23/16 A3001 (THREE ZERO ZERO ONE) RMK AO2 SLP162 T02330156 58007. INST APCHS AND RNAV RNP APCHS RY 24R AND 25L, OR VCTR FOR VISUAL APCH WILL BE PROVIDED, SIMUL VISUAL APCHS TO ALL RWYS ARE IN PROG, SIMUL INSTR DEPARTURES IN PROG RWYS 24 AND 25. CTC L A GC ON 121.75 FOR PUSH OR TAXI ON A. TWY B CLSD BTN TWY, C10 AND TWY C7 , , TWY B6 CLSD, TWY B7 CLSD, TWY C CLSD BTN TWY, C1 AND TWY C3, TWY C1 CLSD, TWY C9 CLSD BTN TWY, B AND TWY C, TWY C8 CLSD BTN TWY, B AND TWY C. RY 25R SFL OTS, RY 24L ALSF-2 OTS. LAX VOR UNMONITORED. USE CAUTION FOR INCREASED DRONE ACTIVIY IN THE VICINITY OF SOFI STADIUM AT OR BELOW 200FT AGL DURING THE WORLD CUP FROM JUNE TWELFTH TWENTY TWENTY SIX THROUGH JULY TENTH TWENTY TWENTY SIX. HAZD WX INFO FOR LAX AREA AVBL FM FSS. USE CAUTION FOR HANG GLIDING 1 MILE SOUTH LOS ANGELES VOR. BIRD ACTIVITY VICINITY ARPT. INCLUDE YOUR CALL SIGN IN ALL READBACKS. USE CAUTION WHEN EXITING RY24R AT TWY V, W, AND Y, TO HOLD SHORT OF RY24L. MULTIPLE RUNWAY INCURSIONS HAVE OCCURRED. ...ADVS YOU HAVE INFO X.",
    "KONT": "[Arrival ATIS] KONT ARR ATIS A 0353Z ONT ATIS INFO A 0353Z. 25009KT 10SM SCT120 SCT220 26/14 A2996 (TWO NINER NINER SIX) RMK AO2 SLP129 T02610139. ILS AND VIS APR IN USE, RY26L & RY26R. LNDG AND DEPG RY 26L AND RY 26R. NOTAMS... TAXIWAY SIERRA FIVE CLOSED. TAXIWAY SIERRA CLOSED BETWEEN TAXIWAY SIERRA 8 AND TAXIWAY WHISKEY. RY 26L IM OTS, RY 26R ALS OTS. USE CAUTION FOR NUMEROUS BIRDS OBSERVED IN VICINITY OF ONT. HAZD WX INFO FOR SOUTHERN CA AVBL ON FSS FREQUENCIES. PILOTS READBACK RWY ASSIGNMENTS AND HOLD SHORT INSTRUCTIONS. ...ADVS YOU HAVE INFO A.\n[Departure ATIS] KONT DEP ATIS N 0553Z - KONT ATIS INFO N 0553Z. 24004KT 10SM BKN250 22/15 A2988 (TWO NINER EIGHT EIGHT) RMK AO2 SLP100. ILS AND VIS APR IN USE, RY26L & RY26R. LNDG AND DEPG RY 26L AND RY 26R. NOTAMS... TAXIWAY SIERRA CLSD BETWEEN SIERRA 8 AND W TAXIWAY Q SOUTH OF RWY 26L CLSD TAXIWAY T CLSD TAXIWAY SIERRA 5 CLSD. RY 26L IM OTS, RY 26R ALS OTS. USE CAUTION FOR NUMEROUS BIRDS OBSERVED IN VICINITY OF ONT. HAZD WX INFO FOR SOUTHERN CA AVBL ON FSS FREQUENCIES. PILOTS READBACK RWY ASSIGNMENTS AND HOLD SHORT INSTRUCTIONS. ...ADVS YOU HAVE INFO N.",
    "KSFO": "[Arrival ATIS] KSFO ARR ATIS D 0156Z SFO ATIS INFO D 0156Z. 29019KT 10SM FEW003 SCT180 BKN200 15/11 A2997 (TWO NINER NINER SEVEN). SIMUL CLSLY SPCD DPNDNT ILS RY 28R AND ILS RY 28L APP IN USE. DEPG RWYS 28L, 28R. DEPG ACFT SHOULD BE PREPARED FOR A SHORT NOTICE RY CHANGE. RY 1L, 1R CLSD. NUMEROUS TWY CLOSURES FOR CONSTRUCTION ON THE FIELD, PILOTS CHECK NOTAMS. DEPG ACFT WAITING ON FINAL NUMBERS ADVISE GROUND PRIOR TO ENTERING TWY F. ...ADVS YOU HAVE INFO D.\n[Departure ATIS] KSFO DEP ATIS R 1456Z SFO ATIS INFO R 1456Z. 30006KT 10SM FEW006 OVC011 14/11 A3002 (THREE ZERO ZERO TWO). SIMUL CLSLY SPCD DPNDNT ILS RY 28R AND ILS RY 28L APP IN USE. DEPG RWYS 28L, 28R. GATE",
    "KOAK": "[Arrival ATIS] KOAK ARR ATIS Z 1953Z OAK ATIS INFO Z 1953Z. 27012G18KT 10SM FEW005 FEW010 BKN200 19/13 A3002 (THREE ZERO ZERO TWO). RNAV, AND VA, RWY 30. ILS, AND VA, RWY 28R. FLOW TO LAX, SAN, SEA. ILS RWY 30, OTS, RWY 28R RAIL, OTS. UNN LIT CLOSE-IN OBSTACLES FOR RWY 30 DEPARTURES. RWY 30 DEPARTURES ARE ADVISED TO AVOID TURNING LEFT PRIOR TO DEPARTURE END OF RUNWAY. CTN, CRANE 1 POINT 6 NAUTICAL MILES, , AT 140 FEET AGL. CAUTION, BIRDS NEAR AIRPORT. ...ADVS YOU HAVE INFO Z.\n[Departure ATIS] KOAK DEP ATIS O 1953Z OAK ATIS INFO O 1953Z. 28014KT 10SM FEW005 22/14 A2988 (TWO NINER EIGHT EIGHT). RNAV Z/VA RWY 30 ILS/VA RWY 28R. FLOW TO LAX, LAS, SAN. ILS RWY 30, OTS. UNN LIT CLOSE-IN OBSTACLES FOR RWY 30 DEPARTURES. RWY 30 DEPARTURES ARE ADVISED TO AVOID TURNING LEFT PRIOR TO DEPARTURE END OF RUNWAY. SIGNATURE UNI-COM OUT OF SERVICE. CAUTION, BIRDS NEAR AIRPORT. ...ADVS YOU HAVE INFO O.",
    "KDFW": "[Arrival ATIS] KDFW ARR ATIS Y 0353Z DFW ARR INFO Y 0353Z. 19013KT 10SM BKN250 32/19 A2994 (TWO NINER NINER FOUR). SIMUL VISUAL APCH TO RWYS, 18R, 17C. LDG RWY 17C EXP LAHSO TWY B 10460 FT AVAIL, LDG RWY 18R EXP LAHSO TWY B 10100 FT AVL. NOTICE TO AIRMEN. RWY 13L CLSD. RWY 13R CLSD. RWY 17L CLSD. WARNING, RWY 18L HAS BEEN SHORTENED, 9273 FT AVAILABLE. RWY 18L ILS OTS, CL OTS. BIRD ACTIVITY VCNTY ARPT. ...ADVS YOU HAVE INFO Y.\n[Departure ATIS] KDFW DEP ATIS W 1553Z - KDFW DEP INFO W 1553Z. 21022G32KT 10SM FEW025 FEW180 SCT250 31/21 A2994 (TWO NINER NINER FOUR) RMK AO2 PK WND 20032/1547 SLP128 T03110206. SIMUL PARL TRAFFIC DEPG RWYS 17R, 18L. NOTICE TO AIRMEN. WARNING, RWY 18L HAS BEEN SHORTENED, 9273 FT AVAILABLE. RWY 18L CL OTS. BIRD ACTIVITY VCNTY ARPT. ...ADVS YOU HAVE INFO W.",
    "KIAH": "[Arrival ATIS] KIAH ARR ATIS P 0353Z IAH ATIS INFO P 0353Z. 19006KT 10SM FEW250 29/23 A2998 (TWO NINER NINER EIGHT). ARRIVALS EXPECT ILS OR RNAV Y RY 8R, ILS OR RNAV Y RY 8L. SIMUL APPROACHES IN USE. DEPG RY 15R. NOTICE TO AIRMEN. UAL RAMP PROCEDURES TERMINATED PUSH BACK AT PILOTS DISCRETION. RY 15L, 33R CLSD. BIRD ACTIVITY VICINITY ARPT. CRANES ARE DOWN. TWY SA CLSD BTN TWY, SF AND TWY SK , TWY SB CLSD BTN TWY, SF AND TWY SK , , TWY WB CLSD BTN TWY, WG AND TWY WH . TWY EA CLSD. NOTAM ATIS IN USE ON FREQUENCY 126.225. ...ADVS YOU HAVE INFO P.\n[Departure ATIS] KIAH DEP ATIS D 0453Z IAH ATIS INFO D 0453Z. 19003KT 10SM CLR 25/24 A2963 (TWO NINER SIX THREE). ARRIVALS EXPECT ILS OR RNAV Y RY 26L. DEPG RY 15L. NOTICE TO AIRMEN. UAL RAMP PROCEDURES TERMINATED PUSH BACK AT PILOTS DISCRETION. RY 26R, 8L CLSD. BIRD ACTIVITY VICINITY ARPT. TWY SA CLSD BTN TWY, SG AND TWY SK , TWY SB CLSD BTN TWY, SG AND TWY SK , , TWY SF CLSD BTN TWY, NB AND TWY RB . TWY SG CLSD, TWY EA CLSD. NOTAM ATIS IN USE ON FREQUENCY 126.225. ...ADVS YOU HAVE INFO D.",
    "KORD": "[Arrival ATIS] KORD ARR ATIS Q 0251Z ORD ATIS INFO Q 0251Z. 02012KT 2 1/2SM FU BR BKN004 BKN100 BKN250 20/19 A2994 (TWO NINER NINER FOUR) RMK AO2 SLP133 60000 T02000194 50011. ARR EXP VECTORS ILS RWY 10C APCH. DEPS EXP RWYS 9C FROM F F 9200 FT AVL, 10L FROM DD. 10,093 FT AVBL. ATTN PILOTS. SIMUL PARL DEPS IN USE. EXP TO INITIALLY FLY RWY. HDG ON DEP. PILOTS MUST READ BACK DRCTN OF TURNS BY ATC. RWY 4L, 22R CLSD, RWY 4R, 22L CLSD, RWY 9L, 27R CLSD, RWY 9R, 27L CLSD, RWY 10R, 28L CLSD. RWY 22R LOC OTS, RWY 28L GS OTS, RWY 9L IM OTS, RWY 9C IM OTS, RWY 10L IM OTS, RWY 10R IM OTS, RWY 27R IM OTS, RWY 28L IM OTS, RWY 28R IM OTS, RWY 9L PAPI OTS, RWY 27R PAPI OTS. ALL RWYS, COND CODE, 5, 5, 5 AT 2158Z . PILOTS USE CTN FOR BIRD ACTIVITY IN THE VICINITY OF THE ARPT. HAZD WX INFO FOR ORD AREA AVBL ON FSS. USE CTN FOR PERSONNEL AND EQUIP AT NUMEROUS SITES ON THE FIELD. READBACK ALL RWY HOLD SHORT INSTRUCTIONS. WHEN READY TO TAXI CONTACT GND METERING ON FREQ 121.67. ...ADVS YOU HAVE INFO Q.\n[Departure ATIS] KORD DEP ATIS S 0351Z ORD ATIS INFO S 0351Z. 05009KT 2 1/2SM FU BR OVC004 20/19 A2994 (TWO NINER NINER FOUR) RMK AO2 SLP133 T02000189. ARR EXP VECTORS ILS RWY 10C APCH. DEPS EXP RWYS 9C FROM F F",
    "KJFK": "[Arrival ATIS] KJFK ARR ATIS D 0351Z - KJFK ATIS INFO D 0351Z. 27015G24KT 5SM RA BR FEW036 BKN085 OVC110 24/22 A3000 (THREE ZERO ZERO ZERO). APPROACH IN USE ILS RY 31R. DEPG RY 31L. CRI OTS. RWY 22L/4R INNER\n[Departure ATIS] KJFK DEP ATIS N 1951Z JFK ATIS INFO N 1951Z. 21014KT 10SM SCT070 34/22 A2992 (TWO NINER NINER TWO) RMK AO2 SLP131 T03440217. APPROACH IN USE ILS RY 22L, ILS RY 22R. DEPG RY 22R. CRI OTS. RWY 22L/4R INNER MARKER OTS. HAZD WX INFO FOR NY METRO AREA AVBL ON FSS. SWAP IN EFFECT EXPECT REROUTES. NUM CRANES OPERATING AT JFK. BIRD ACTIVITY VICINITY ARPT. READBACK ALL RWY ASSIGNMENTS AND HOLD SHORT INSTRUCTIONS. ...ADVS YOU HAVE INFO N.",
    "KIND": "[Arrival ATIS] KIND ARR ATIS B 0007Z IND ATIS INFO B 0007Z SPECIAL. 28014G21KT 3SM TSRA BR BKN032CB BKN040 OVC100 23/22 A2996 (TWO NINER NINER SIX). PARL ILS RWY 23R AND 23L APPROACHES IN USE. CROSS RUNWAY OPER\n[Departure ATIS] KIND DEP ATIS H 1854Z IND ATIS INFO H 1854Z. 26009G19KT 10SM SCT036 BKN041 BKN170 23/16 A2981 (TWO NINER EIGHT ONE) RMK AO2 SLP088 T02280156. PARL ILS RWY 23R AND 23L APPROACHES IN USE. CROSS RU",
    "KDTW": "[Arrival ATIS] KDTW ARR ATIS E 1453Z DTW ARR INFO E 1453Z. 25020G29KT 10SM FEW030 SCT035 OVC060 20/13 A2951 (TWO NINER FIVE ONE) RMK AO2 PK WND 26029/1450 SLP989 T02000133 51023. SIMUL ILS Z RY 22R AND RY 21L APCH IN USE. NOTICE TO AIRMEN. RWY 22L, 4R CLSD, RWY 27R, 9L CLSD. PILOTS USE CTN FOR BIRD ACTIVITY. DEPARTURE ATIS 118.125. WARNING, RUNWAY TWO SEVEN LEFT HAS BEEN SHORTENED, SIX THOUSAND SEVEN HUNDRED EIGHTY-SEVEN FEET AVAILABLE. ...ADVS YOU HAVE INFO E.\n[Departure ATIS] KDTW DEP ATIS Q 2253Z - KDTW DEP INFO Q 2253Z. 21009KT 10SM FEW050 FEW250 33/24 A2991 (TWO NINER NINER ONE). DEPG RWY 21R, RWY 22L ;. NOTICE TO AIRMEN. RWY 27L, 9R CLSD, RWY 27R, 9L CLSD. PILOTS USE CTN FOR BIRD ACTIVITY. ...ADVS YOU HAVE INFO Q.",
    "KMSP": "[Arrival ATIS] KMSP ARR ATIS G 0953Z MSP ARR INFO G 0953Z. 14011G18KT 10SM FEW029 BKN050 21/16 A2981 (TWO NINER EIGHT ONE). VISUAL RWY 12R APCH IN USE, VISUAL RWY 12L APCH IN USE. FINAL APCH, OVER NOISE SENSITIVE AREA. NOTICE TO AIRMEN. RWYS 4, 22 CLSD. TWY R7. R8. R9. R10. CLOSED, TWY R BETWEEN R6 AND R10 CLOSED, USE CAUTION, NUMEROUS TAXIWAY CLOSURES. GS RWY 12L OTS, RWYS 12R, 12L, INNER MARKER OTS.. HAZD WX INFO FOR MSP AREA AVBL FM FSS. CTN, BIRDS NEAR MSP. READ BACK HS AND ALT. ALL ACFT TAXI WITH TRANSPONDER AND ALTITUDE ENCODING ON. ...ADVS YOU HAVE INFO G.\n[Departure ATIS] KMSP DEP ATIS O 0143Z MSP DEP INFO O 0143Z SPECIAL. 09016G21KT 2 1/2SM TSRA BR BKN015 BKN025 OVC044CB 21/18 A3000 (THREE ZERO ZERO ZERO) RMK AO2 PK WND 33036/0054 LTG DSNT SE-SW TS SE-SW MOV SE CB SE-SW MOV SE. DEPARTING RWY 12L, RWY 12R. NOTICE TO AIRMEN. RWYS 4, 22 CLSD. TWY R7. R8. R9. R10. CLOSED, TWY R BETWEEN R6 AND R10 CLOSED. SWAP IN EFCT, INCLUDING CDR. ALL ACFT CTC METERING ON ONE THREE THREE POINT FIVE SEVEN WHEN READY TO PUSHBACK OR TAXI. HAZD WX INFO FOR MSP AREA AVBL FM FSS. CTN, BIRDS NEAR MSP. READ BACK HS AND ALT. ALL ACFT TAXI WITH TRANSPONDER AND ALTITUDE ENCODING ON. ...ADVS YOU HAVE INFO O.",
    "CYEG": "[Arrival ATIS] CYEG ARR ATIS Y 0400Z CYEG ARR ATIS Y 0400Z 29006KT 20SM SCT110 CIG BKN140 BKN180 14/11 A2992 APCH RNAV Z OR Y RWY 20, INFORM ARRL OF REQ APCH ON INITIAL CTC. LDG AND DEP RWY 20. SIMUL APPROACHES MAY BE IN EFCT. INFORM CYEG ATC INFO Y\n[Departure ATIS] CYEG DEP ATIS Y 0400Z CYEG ARR ATIS Y 0400Z 29006KT 20SM SCT110 CIG BKN140 BKN180 14/11 A2992 APCH RNAV Z OR Y RWY 20, INFORM ARRL OF REQ APCH ON INITIAL CTC. LDG AND DEP RWY 20. SIMUL APPROACHES MAY BE IN EFCT. INFORM CYEG ATC INFO Y",
    "EHAM": "[Arrival ATIS] EHAM ARR ATIS G 0426Z EHAM ARRIVAL INFO G. DEMAND. MAIN LANDING RWY 36 R. TRANSITION LEVEL 040. WIND 310 DEG, 8 KT, VRB BTN 270 AND 330 DEG, 16 KT MAX, 7 KT MNM. VIS 10 KM OR MORE. CLD FEW 1500 FT SCT 4200 FT. T 18. DP 15. QNH 1021 HPA. NOSIG. OPERATIONAL REPORT. CONTACT APCH WITH CALLSIGN ONLY. END OF INFO G\n[Departure ATIS] EHAM DEP ATIS P 1652Z EHAM DEPARTURE INFO P. DEMAND. MAIN DEPARTURE RWY 24. MAIN LANDING RWY 18 R. WIND 280 DEG, 7 KT, VRB BTN 210 AND 310 DEG. CAVOK. T 26. DP 16. QNH 1016 HPA. OPERATIONAL REPORT. INFORM SCHIPHOL DEL BY VOICE IF UNABLE TO COMPLY WITH NADP 2. END OF INFO P",
    "EBBR": "[Arrival ATIS] EBBR ARR ATIS Y 0420Z EBBR NAT, EXP VECT FOR ILS APP ARR RWY19 RSCD AT 0323 RWY19 DRY. DEP RWY19 TRL 055 RWY 25R CLSD 250/10KT CAVOK T17 DP15 QNH 1023HPA NOSIG CFM ARR Y\n[Departure ATIS] EBBR DEP ATIS Y 1820Z EBBR NAT, DEP RWY25R RSCD AT 1503 RWY25R DRY. ARR RWY25L TRL 055 TWY OUT6, B3 CLSD. OUT7, E6, B1 MAX CAT C 320/5KT VIS ABV 10KM FEW CB 6000FT T28 DP18 QNH 1016HPA TEMPO VRB/18KT MAX30 VIS4500M MOD TSRA BKN CB 5000FT CFM DEP Y",
    "EDDF": "[Arrival ATIS] EDDF ARR ATIS F 0320Z -ARR-ATIS EDDF F METAR 050320 -EXPECT INDEPENDENT PARALLEL ILS Y APCH RWY 25R OR ILS APCH RWY 25L -RWY 25R 25L -GLS APCH ON REQUEST , DO NOT MISTAKE TWY M FOR RWY 25C WHEN PERFORMING VISUAL APPROACH , -TRL 60 - -28007KT -CAVOK - - -T21 DP14 -QNH1022 - -TREND NOSIG\n[Departure ATIS] EDDF DEP ATIS K 1820Z -DEP-ATIS EDDF K METAR 181820 - -RWY 25C 18 -FLOCK OF BIRDS OBSERVED IN THE VCY OF RWYS, -TRL 60 - -VRB02KT RWY18 VRB02KT -CAVOK - - -T32 DP15 -QNH1016 - -TREND NOSIG",
    "EDDL": "[Arrival ATIS] EDDL ARR ATIS F 0920Z ATIS EDDL F METAR 280920 EXPECT VECTORS ILS APPROACH RWY 23R RWY 23L 23R TRL 60 21008KT 180V260 CAVOK T29 DP18 QNH1018 TREND NOSIG\n[Departure ATIS] EDDL DEP ATIS R EDDL ARR/DEP DATIS RPT -ATIS EDDL R METAR 020550 -EXPECT VECTORS ILS APPROACH -RWY 23L -TWY L8 CLOSED BETWEEN TWY M AND RWY 23L -TRL 60 - -23010KT -CAVOK - - -T19 DP13 -QNH1020 - -TREND NOSIG",
    "EDDK": "[Arrival ATIS] EDDK ARR ATIS G 0053Z -ATIS EDDK G SPECI 280053 -EXPECT CDO FOR ILS APCH -RWY 13L 24 -RWY COND RWY 13L AT TIME 0000 RWYCC 6 DEPOSIT TOTAL RWY DRY RWY 24 AT TIME 0000 RWYCC 6 DEPOSIT TOTAL RWY DRY -TRL 60 -RWY 13R AND RWY 31L CLOSED FOR DEPARTURE AND LANDING: TAXIING BTN THR RWY 13R AND INTERSECTION RWY 24 POSSIBLE : -25015G32KT 220V290 -CAVOK - - -T25 DP18 -QNH1015 - -\n[Departure ATIS] EDDK DEP ATIS Q EDDK ARR/DEP DATIS RPT -ATIS EDDK Q METAR 291920 -EXPECT ILS APCH -RWY 31R 06 -RWY COND RWY 31R AT TIME 1830 RWYCC 6 DEPOSIT TOTAL RWY DRY RWY 06 AT TIME 1830 RWYCC 6 DEPOSIT TOTAL RWY DRY -TRL 60 -RWY 13R AND RWY 31L CLOSED FOR DEPARTURE AND LANDING: TAXIING BTN THR RWY 13R AND INTERSECTION RWY 24 POSSIBLE : -04003KT -CAVOK - - -T24 DP13 -QNH1024 - -TREND NOSIG",
    "EBLG": "[Arrival ATIS] EBLG ATIS Y 0420Z EBLG INFO, EXP RNAV TO ILS APP ARR RWY22L DEP RWY22L RWY 22L DRY, RWYCC 666. TRL 055 TWY A4 DISPLACED 260/8KT VIS ABV 10KM BKN1300FT BKN4700FT T17 DP15 QNH 1023HPA TEMPO SCT1000FT BKN4000FT CFM ATIS Y",
    "LSZH": "[Arrival ATIS] LSZH ARR ATIS F 0420Z ARRIVALS, EXP ILS APCH, RWY 34. TRL 70. DEP RWY 32. DEPENDENT OPS ON CONVERGING RWY. WIND 170 DEG, 4 KT. CAVOK. T 14. DP 9. QNH 1025. NOSIG.\n[Departure ATIS] LSZH DEP ATIS X 0434Z SOUTHBOUND AND WESTBOUND DEPARTURES : EXP RWY 28. NORTHBOUND AND EASTBOUND DEPARTURES : EXP RWY 32. TRL 70. ARRIVALS, EXP ILS APCH, RWY 34. TMA S 1 IS ACT. TMA S 2 AND S 3 ARE ACT. WIND 160 DEG, 2 KT. CAVOK. T 14. DP 9. QNH 1025. NOSIG.",
    "LIMC": "[Arrival ATIS] LIMC ARR ATIS R 0420Z LIMC ARR R 0420Z I.L.S. ZULU RWY IN USE 35R TL 70 WIND TDZ VRB2KT VRB BTN 350/AND 080/ CAVOK T18 DP10 QNH 1020HPA QFE 0995HPA\n[Departure ATIS] LIMC DEP ATIS X 0353Z LIMC DEP X 0353Z RWY IN USE 35R TL 70 WIND END 010/3KT CAVOK T25 DP21 QNH 1019HPA QFE 0994HPA DATALINK CLEARANCE AVAILABLE.... CONTACT 1 3 1 8 8 0 TO BE RELEASED BY THE AIRPORT OPERATOR ...",
    "LIRF": "[Arrival ATIS] LIRF ARR ATIS M 2050Z LIRF ARR M 2050Z RWY 16L ILS W RWY 16R ILS Z RWY IN USE 16L 16R TL 70 DEPENDENT PARL ILS APCH INPR RWY IN USE 16R OR 16L ASSIGNED BY ROME RADAR WIND RWY 16L TDZ VRB2KT VRB BTN 100/AND 160/ RWY 16R TDZ VRB2KT VRB BTN 140/AND 200/ CAVOK T25 DP21 QNH 1018HPA\n[Departure ATIS] LIRF DEP ATIS Y 2020Z LIRF DEP Y 2020Z RWY IN USE 25 TL 70 RWYS IN USE FOR ARR 34R AND 34L WIND END 310/7KT CAVOK T25 DP20 QNH 1017HPA REA IS SENT AUTOMATICALLY ONCE RLSD BY RAMP WHEN READY CONTACT FIUME RAMP 121.725",
    "EINN": "[Arrival ATIS] EINN ARR ATIS N 0400Z EXPECT I L S CATEGORY 1 LDG RWY24 TKOF RWY24 TRL FL060 24007KT 5000 -DZ SCT004 BKN006 14/13 QNH Q1027 TREND TEMPO BKN004 ADVISE AT FIRST CONTACT YOU HAVE ATIS INFO N",
    "EGLL": "[Arrival ATIS] EGLL ARR ATIS Y 2050Z LANDING RWY 27L TRANSITION-LEVEL: FL 70 IF STAND GUIDANCE IS OFF OR FAILS, REMAIN ON THE TAXIWAY CENTRELINE AND ADVISE ATC AUTO 19007KT 9999 NCD 21/17 Q1014 ACKNOWLEDGE RECEIPT OF INFORMATION Y\n[Departure ATIS] EGLL DEP ATIS V 2050Z DEPARTURE RWY 27R PILOTS THAT ARE IN RECEIPT OF DATALINK CLEARANCES ARE REMINDED THEY MUST CONTACT DELIVERY ON 121.980 WHEN READY FOR START DET VOR OOS RUNWAY 27R REDUCED DECLARED DISTANCES WITH TAKE OFF RUN AVAILABLE 3362METRES AND LANDING DISTANCE AVAILABLE 3362METRES AUTO 28017KT 9999 NCD 22/15 Q1025 ACKNOWLEDGE RECEIPT OF INFORMATION V AND REPORT AIRCRAFT TYPE AND CURRENT QNH ON FIRST CONTACT WITH HEATHROW",
    "EPWA": "[Arrival ATIS] EPWA ARR ATIS E 0357Z EPWA ARR E. TIME 0356. EXP U ARR ILS Z APCH FOR RWY 33. TRANSITION LEVEL 80. WIND 260 DEG, 4 KT GUSTING FM 2 KT TO 10 KT, VRB BTN 220 AND 290 DEG. CAVOK. T 13. DP 10. QNH 1013. NOSIG. CAUTION. BIRD ACT. END OF EPWA ARR E\n[Departure ATIS] EPWA DEP ATIS U 1801Z EPWA DEP U. TIME 1800. DEP RWY 29. ARR RWY 33, EXP U ARR ILS Z. REPORT READY FOR STARTUP ON DELIVERY 121. 605. TRANSITION LEVEL 80. WIND 290 DEG, 8 KT. CAVOK. T 19. DP 9. QNH 1016. NOSIG. CAUTION. BIRD ACT. END OF EPWA DEP U",
    "EFHK": "[Arrival ATIS] EFHK ARR ATIS V 0220Z EXPECT ILS APCH ARR RWY 04L RUNWAY 04L CONDITION REPORT AT 0200 UTC RUNWAY CONDITION CODES 6 , 6 , 6 CONTAMINANTS ALL PARTS DRY TRL 65 WIND 350 DEG 5 KT VIS 10KM FEW 500 FT. SCT 3200 FT T 14 DP 14 QNH 1002 TEMPO CLD BKN 900 FT. FEW CB 2500 FT. ACK INFO V\n[Departure ATIS] EFHK DEP ATIS H 1620Z DEP RWYS 22R AND 22L RUNWAY 22R CONDITION REPORT AT 1329 UTC RUNWAY CONDITION CODES 6 , 6 , 6 CONTAMINANTS ALL PARTS DRY RUNWAY 22L CONDITION REPORT AT 1330 UTC RUNWAY CONDITION CODES 6 , 6 , 6 CONTAMINANTS ALL PARTS DRY WIND 110 DEG 6 KT VIS 10KM FEW 1400 FT. SCT 1600 FT. FEW TCU 2800 FT T 19 DP 15 QNH 1003 TEMPO CLD FEW CB 3000 FT. ACK INFO H",
    "LTAC": "[Arrival ATIS] LTAC ARR ATIS E 0250Z EXP ILS V APCH 03C DEP RWY 03L RWY 03C WIND 050 DEG 03 KT RWY 03L WIND 040 DEG 02 KT TRL 110 VIS 9999 SCT04000 FT BKN10000 FT T 17 DP 11 QNH 1014 NOSIG FOR DELIVERY CTC 121.9. FOR DELIVERY FIRST USE DIGITAL DEP CLR. CTN BIRD HAZARD OVR AERODROME. APCH FREQUENCY 129. 050. TAXIWAY ECHO 1 IS CLOSED. END OF ATIS E",
    "UBBB": "[Arrival ATIS] UBBB ARR ATIS N 2100Z ATIS N EXP ILS/ LDG 16 17 DEP 16 17 IN USE RWY 16 CLEAR DRY 70 RWY 17 CLEAR DRY 70 TLVL 110 WIND WIND RWY 16 160 4 KT SPD MAX 6 MIN 0 WIND RWY 17 170 8 KT SPD MAX 8 MIN 8 VIS CAVOK T 24 / DP 19 QNH 1012 HPA TREND TREND NOSIG OBS BIRDS AT 2000 FT MODERATE BIRDS ACT IN VICINITY OF AP END OF ATIS N\n[Departure ATIS] UBBB DEP ATIS L 0400Z ATIS L EXP ILS/ LDG 34 35 DEP 34 35 IN USE RWY 34 CLEAR DRY 70 RWY 35 CLEAR DRY 70 TLVL 110 WIND WIND RWY 34 270 4 KT SPD MAX 6 MIN 2 WIND RWY 35 260 6 KT SPD MAX 10 MIN 4 VIS 10 KM FEW CB 6000 FT RWY 34 FEW CB 6000 FT RWY 35 T 26 / DP 19 QNH 1005 HPA TREND TREND NOSIG MODERATE BIRDS ACT IN VICINITY OF AP END OF ATIS L",
    "ZWWW": "[Arrival ATIS] ZWWW ARR ATIS L 0430Z EXP ILSDME Z APCH LDG RWY 26R TA 3000 WIND 360/4MPS VRB BTN 330/ AND 030/ CAVOK T 29 /DP 15 QNH 1009 HPA BIRDS ACTIVITY IN THE VICINITY OF THE AERODROME ADZ YOU HAVE INFO L.\n[Departure ATIS] ZWWW DEP ATIS N 0430Z DEP RWY 26L TA 3000 WIND 010/6MPS VIS 9999M CLD FEW 990M T 28 /DP 14 QNH 1013 HPA ADZ YOU HAVE INFO N.",
    "ZLXY": "[Arrival ATIS] ZLXY ARR ATIS R 1900Z EXP ILS APCH LDG RWY 05L WIND VRB/1MPS VIS 6000M CLD SCT 900M /OVC 1800M T 19 /DP 18 QNH 1006 HPA VISUAL APPROACH IN PROGRESS ADZ YOU HAVE INFO R.\n[Departure ATIS] ZLXY DEP ATIS U 0400Z DEP RWY 05L & 06L WIND VRB/1MPS VIS 9999M CLD FEW 450M /SCT 900M /OVC 1800M T 23 /DP 19 QNH 1008 HPA ADZ YOU HAVE INFO U.",
    "ZBAA": "[Arrival ATIS] ZBAA ARR ATIS J 2100Z EXP ILS APCH LDG RWY 36L RWY 36R IS CLSD WIND VRB DEG 1 MPS VIS 4000 BR NSC T 24 /DP 22 QNH 1003 HPA ADZ YOU HAVE INFO J.\n[Departure ATIS] ZBAA DEP ATIS F 1900Z DEP RWY 36L RWY 36R IS CLSD WIND 040 DEG 1 MPS VIS 5000 BR NSC T 23 /DP 22 QNH 1004 HPA ADZ YOU HAVE INFO F.",
    "ZBHH": "[Arrival ATIS] ZBHH ARR ATIS N 1408Z EXP ILSDME APCH LDG RWY 26 SFC COND & BA NOTICE: RWYCC 26 5/5/5 ISSUED AT 1353Z ALL PARTS WET NR 100PCT TA 3000 /TRL 3600 WIND 220/3MPS VIS 9999M -SHRA CLD SCT 990M /FEW CB 990M T 19 /DP 16 QNH 1011 HPA SUPPLEMENT INFO RETS BETWEEN 0800 AND 1600 UTC, TURBULENCE MAY OCCUR IN LOCAL FIELD. ADZ YOU HAVE INFO N.\n[Departure ATIS] ZBHH DEP ATIS K 2300Z DEP RWY 26 TA 3000 /TRL 3600 WIND 060/3MPS VRB BTN 010/ AND 080/ CAVOK T 21 /DP 15 QNH 1010 HPA ADZ YOU HAVE INFO K.",
    "ZSQD": "[Arrival ATIS] ZSQD ARR ATIS Y 1600Z EXP ILSDME APCH LDG RWY 17 TA 3000 /TRL 3600 WIND 150/5MPS VIS 4000M BR CLD SCT 270M T 24 /DP 24 QNH 1002 HPA VISUAL APPROACH OPERATION IN PROGRESS. WHEN READY CONTACT QINGDAO TOWER ON 118.275 RUNWAY 17,IF MISSED APPROACH,EXPECT FOLLOW THE STANDARD MISSED APPROACH PROCEDURE,CLIMB TO 900M ON QNH OR BY ATC CAUTION MAYBE THERE IS A FLOCK OF BIRDS IN THE VICINITY OF AIRPORT ADZ YOU HAVE INFO Y.\n[Departure ATIS] ZSQD DEP ATIS B 1510Z DEP RWY 17 TA 3000 /TRL 3600 WIND 160/5MPS CAVOK T 22 /DP 20 QNH 1008 HPA VISUAL APPROACH OPERATION IN PROGRESS. WHEN READY CONTACT QINGDAO TOWER ON 118.275 RUNWAY 17,IF MISSED APPROACH,EXPECT FOLLOW THE STANDARD MISSED APPROACH PROCEDURE,CLIMB TO 900M ON QNH OR BY ATC CAUTION MAYBE THERE IS A FLOCK OF BIRDS IN THE VICINITY OF AIRPORT ADZ YOU HAVE INFO B."
  },
  "windtemp_alaska": "\n000\nFBAK31 KWNO 050159\nFD1AK1\nDATA BASED ON 050000Z    \nVALID 050600Z   FOR USE 0200-0900Z. TEMPS NEG ABV 24000\n\nFT  3000    6000    9000   12000   18000   24000  30000  34000  39000\nADK 1130 1311+07 2308+04 2416+00 2640-10 2647-22 255838 256448 257158\nADQ 2008 1805-02 1509-08 1309-14 1308-28 1410-37 241836 252037 251839\nAKN 0212 0315-03 0315-08 0314-13 0620-26 0631-39 021039 320938 290840\nANC 1209 1218+00 1119-05 1217-10 1221-22 1324-36 123650 141644 131042\nANN 9900 9900+02 9900-03 2612-06 3020-20 3233-31 326546 325853 303046\nBET 3607 0510-01 0712-06 0719-11 0617-24 0820-38 071746 041442 030941\nBRW 3013 3014+06 3015+01 3215-04 3518-16 3623-29 353145 353254 352152\nBTI 2822 3016+02 3319-02 3520-07 0123-17 0121-29 362245 352153 361649\nBTT 9900 0406+06 0408-02 0407-08 0518-20 0640-30 064945 065054 072648\nCDB 3408 3513+01 3320-04 3126-08 3040-20 2863-30 289642 288648 294945\nCZF 3507 0212+02 0313-04 0312-10 0417-23 0422-36 053148 053346 052043\nEHM 3612 0111-02 3513-07 3616-12 3619-24 0418-39 332043 321840 311541\nFAI 9900 0605+05 9900-02 1208-07 1007-21 0809-34 061549 072750 081844\nFYU 9900 9900+04 9900-02 3108-08 3511-21 0531-32 066046 064551 062046\nGAL 0508 0515+04 0614-02 0712-08 0921-21 0830-34 077246 076049 082845\nGKN 1716 1813+02 1512-04 1315-09 1222-21 1222-34 151651 141049 140742\nHOM 1017 1128-02 1231-06 1326-11 1233-24 1143-37 132845 161440 210640\nJNU 2105 2308+02 2608-01 2905-07 2912-21 3018-32 303647 303654 272045\nLUR 0413 0407+06 9900+02 9900-02 0312-16 0325-27 033243 033953 032657\nMCG 0407 1111+02 1115-04 1122-10 1018-22 1022-35 113150 083445 091643\nMDO 1422 1420+00 1617-05 1713-10 1918-22 1920-35 202148 212145 221643\nOME 9900 0806+04 1106-03 0808-08 0723-21 0658-31 068144 067552 063647\nORT      9900+05 1407-02 1310-08 9900-21 9900-34 141149 141252 990044\nOTZ 0905 0813+05 0811+00 0715-06 0734-16 0637-29 054444 054653 063451\nSNP 3410 3309+03 3308-03 3205-09 3012-21 2923-32 284145 284247 283444\nTKA 9900 9900+01 0905-05 0914-10 1221-22 1124-34 113051 102247 111342\nUNK 9900 0309+03 0611-03 0714-09 0828-22 0842-35 075747 075247 073044\nYAK 9900 2609+00 2308-03 2010-07 2012-21 2111-32 243348 252852 241745\nIKO 0812 0806+06 9900+02 2810-03 2831-15 2859-24 278739 279948 278955\nAFM 3305 0405+06 1106-01 0708-07 0731-17 0636-29 054344 054353 062950\n5AB 0824 0824+05 0820+01 1016-02 2220-11 2236-24 224740 235750 225656\n5AC 2906 2909+03 2915+01 2921-03 3035-15 3041-26 314943 316451 316457\n5AD 1823 1926+01 2325-01 2426-04 2434-15 2449-26 266840 267351 276355\n5AE 3216 3116-03 2924-05 2837-09 2767-19 2782-30 279741 278245 274744\n5AF 2307 2108+00 2309-01 2510-06 2617-18 2732-28 284845 296954 283551\n5AG 1514 1513+00 1811-03 2014-09 2215-20 2336-32 245047 243949 252746\n",
  "vaac_tokyo": [
    {
      "id": "20260704_30027000_0229",
      "year": "2026",
      "volcano": "Sheveluch",
      "psn": "N5639 E16122",
      "issued": "20260704",
      "text": "FVFE01 RJTD 041200\nVA ADVISORY\nDTG: 20260704/1200Z\nVAAC: TOKYO\nVOLCANO: SHEVELUCH 300270\nPSN: N5639 E16122\nAREA: RUSSIA\nSOURCE ELEV: 3283M AMSL\nADVISORY NR: 2026/229\nINFO SOURCE: HIMAWARI-9\nERUPTION DETAILS: VA CONTINUOUSLY OBS IN SATELLITE IMAGERY\nOBS VA DTG: 04/1120Z\nOBS VA CLD: SFC/FL280 N6110 E15704 - N6158 E15828 - N6031 E16004 - \nN5937 E15840 MOV N 20KT\nFCST VA CLD +6 HR: 04/1720Z SFC/FL280 N6507 E15713 - N6310 E15836 - \nN6112 E15836 - N6133 E15654 - N6416 E15601\nFCST VA CLD +12 HR: 04/2320Z SFC/FL270 N6942 E15728 - N6726 E15904 - \nN6224 E15900 - N6321 E15630\nFCST VA CLD +18 HR: NO VA EXP\nRMK: THE RESPONSIBILITY FOR THIS ASH EVENT IS BEING TRANSFERRED TO \nVAAC ANCHORAGE. THE NEXT ADVISORY WILL BE ISSUED BY VAAC ANCHORAGE \nBY 1800UTC UNDER HEADER FVAK21 PAWU. SOME PART OF VA OBSCURED BY MET \nCLOUD.\nNXT ADVISORY: NO FURTHER ADVISORIES=",
      "img_url": "https://ds.data.jma.go.jp/svd/vaac/data/VAGFN/2026/Images/20260704_30027000_0229_QH21_01.png",
      "sat_img_url": "https://ds.data.jma.go.jp/svd/vaac/data/Sat/2026/Images/30027000/09-ir/20260704_1120_202607041200_ir.png",
      "text_url": "https://ds.data.jma.go.jp/svd/vaac/data/TextData/2026/20260704_30027000_0229_Text.html"
    },
    {
      "id": "20260704_27202000_0228",
      "year": "2026",
      "volcano": "Kanlaon",
      "psn": "N1025 E12308",
      "issued": "20260704",
      "text": "FVFE01 RJTD 040601\nVA ADVISORY\nDTG: 20260704/0601Z\nVAAC: TOKYO\nVOLCANO: KANLAON 272020\nPSN: N1025 E12308\nAREA: PHILIPPINES\nSOURCE ELEV: 2435M AMSL\nADVISORY NR: 2026/228\nINFO SOURCE: HIMAWARI-9 PHIVOLCS\nERUPTION DETAILS: ERUPTION AT 20260704/0539Z FL090 EXTD SW REPORTED\nOBS VA DTG: 04/0540Z\nOBS VA CLD: VA NOT IDENTIFIABLE FM SATELLITE DATA WIND FL090 070/7KT\nFCST VA CLD +6 HR: NOT AVBL\nFCST VA CLD +12 HR: NOT AVBL\nFCST VA CLD +18 HR: NOT AVBL\nRMK: WE WILL ISSUE FURTHER ADVISORY IF VA IS DETECTED IN SATELLITE \nIMAGERY.\nNXT ADVISORY: NO FURTHER ADVISORIES=",
      "img_url": "https://ds.data.jma.go.jp/svd/vaac/data/VAGFN/2026/Images/20260704_27202000_0228_QH21_01.png",
      "sat_img_url": null,
      "text_url": "https://ds.data.jma.go.jp/svd/vaac/data/TextData/2026/20260704_27202000_0228_Text.html"
    },
    {
      "id": "20260702_27303000_0714",
      "year": "2026",
      "volcano": "Mayon",
      "psn": "N1315 E12341",
      "issued": "20260702",
      "text": "FVFE01 RJTD 021550\nVA ADVISORY\nDTG: 20260702/1550Z\nVAAC: TOKYO\nVOLCANO: MAYON 273030\nPSN: N1315 E12341\nAREA: PHILIPPINES\nSOURCE ELEV: 2462M AMSL\nADVISORY NR: 2026/714\nINFO SOURCE: HIMAWARI-9 PHIVOLCS\nERUPTION DETAILS: ERUPTION AT 20260702/1535Z FL090 EXTD WSW REPORTED\nOBS VA DTG: 02/1530Z\nOBS VA CLD: VA NOT IDENTIFIABLE FM SATELLITE DATA WIND FL090 100/11KT\nFCST VA CLD +6 HR: NOT AVBL\nFCST VA CLD +12 HR: NOT AVBL\nFCST VA CLD +18 HR: NOT AVBL\nRMK: WE WILL ISSUE FURTHER ADVISORY IF VA IS DETECTED IN SATELLITE \nIMAGERY.\nNXT ADVISORY: NO FURTHER ADVISORIES=",
      "img_url": "https://ds.data.jma.go.jp/svd/vaac/data/VAGFN/2026/Images/20260702_27303000_0714_QH21_01.png",
      "sat_img_url": null,
      "text_url": "https://ds.data.jma.go.jp/svd/vaac/data/TextData/2026/20260702_27303000_0714_Text.html"
    },
    {
      "id": "20260701_30006000_0001",
      "year": "2026",
      "volcano": "Mutnovsky",
      "psn": "N5227 E15812",
      "issued": "20260701",
      "text": "FVFE01 RJTD 012206\nVA ADVISORY\nDTG: 20260701/2206Z\nVAAC: TOKYO\nVOLCANO: MUTNOVSKY 300060\nPSN: N5227 E15812\nAREA: RUSSIA\nSOURCE ELEV: 2288M AMSL\nADVISORY NR: 2026/1\nINFO SOURCE: KVERT KBGS UHPP HIMAWARI-9\nERUPTION DETAILS: ERUPTION AT 20260701/2016Z FL170 EXTD W REPORTED\nOBS VA DTG: 01/2140Z\nOBS VA CLD: VA NOT IDENTIFIABLE FM SATELLITE DATA WIND FL170 120/8KT\nFCST VA CLD +6 HR: NOT AVBL\nFCST VA CLD +12 HR: NOT AVBL\nFCST VA CLD +18 HR: NOT AVBL\nRMK: WE WILL ISSUE FURTHER ADVISORY IF VA IS DETECTED IN SATELLITE \nIMAGERY.\nNXT ADVISORY: NO FURTHER ADVISORIES=",
      "img_url": "https://ds.data.jma.go.jp/svd/vaac/data/VAGFN/2026/Images/20260701_30006000_0001_QH21_01.png",
      "sat_img_url": null,
      "text_url": "https://ds.data.jma.go.jp/svd/vaac/data/TextData/2026/20260701_30006000_0001_Text.html"
    }
  ],
  "vaac_alaska": [
    {
      "text": "\n000\nFVAK21 PAWU 050006\nVAAAK1\nVA ADVISORY\n\nDTG: 20260704/2352Z\n\nVAAC: ANCHORAGE\n\nVOLCANO: SHEVELUCH 300270\n\nPSN: N5639 E16122\n\nAREA: KAMCHATKA PENINSULA\n\nSOURCE ELEV: 10771 FT AMSL\n\nADVISORY NR: 2026/175\n\nINFO SOURCE: HIMAWARI/GOES\n\nERUPTION DETAILS: REMNANT VA CONTINUOUSLY OBS IN SATELLITE IMAGERY\n\nOBS VA DTG: 04/2352Z\n\nOBS VA CLD: SFC/FL280 N7144 E15730 - N6954 E15754 - N6516 E16022\n- N6110 E16023 - N6124 E15835 - N6502 E15722 - N6854 E15527 -\nN7104 E15348 - N7140 E15719 - N7144 E15730 MOV N 20KT\n\nFCST VA CLD +6HR: 05/0552Z SFC/FL280 N7454 E15426 - N7455 E15822\n- N7307 E16022 - N7022 E16219 - N6908 E16235 - N6653 E16249 -\nN6502 E16241 - N6302 E16212 - N6303 E16020 - N6638 E15936 - N7013\nE15735 - N7348 E15335 - N7458 E15503 - N7454 E15426 - N7454 E15426\n\nFCST VA CLD +12HR: 05/1152Z NO VA EXP\n\nFCST VA CLD +18HR: 05/1752Z NO VA EXP\n\nRMK: VA PARTIALLY OBSC BY MET CLOUD. VA SIGNITURE DISSIPATING ON SATELLITE IMAGERY...CC\n\nNXT ADVISORY: WILL BE ISSUED BY 20260705/0552Z=\n\n",
      "issued": "2026-07-05T00:06:00+00:00",
      "volcano": "Sheveluch",
      "psn": "N5639 E16122"
    }
  ]
}