{
  "updated_utc": "2026-07-16T19:53Z",
  "metar": {
    "RJAA": "METAR RJAA 161800Z AUTO 13005KT 3000 BR OVC001 26/26 Q1002 BECMG FEW001 BKN003",
    "PANC": "METAR PANC 161853Z VRB03KT 10SM FEW025 BKN060 BKN160 12/07 A3006 RMK AO2 SLP179 T01220067",
    "PAFA": "METAR PAFA 161853Z 21005KT 10SM SCT028 SCT045 BKN075 14/08 A2997 RMK AO2 SLP153 T01440078",
    "PAED": "METAR PAED 161755Z 01003KT 10SM FEW030 SCT060 BKN150 13/07 A3005 RMK AO2A SLP172 T01330073 10133 20101 56004 $",
    "KSEA": "SPECI KSEA 161757Z 19007KT 4SM -RA BR SCT010 BKN032CB BKN085 BKN130 13/12 A3000 RMK AO2 RAB54 OCNL LTGICCG VC SW TS SW MOV N P0000 T01330122 $",
    "ZSPD": "METAR ZSPD 161800Z 18003MPS CAVOK 30/26 Q1001 NOSIG",
    "ZSSS": "METAR ZSSS 161800Z 20004MPS CAVOK 32/27 Q1001 NOSIG",
    "RJFR": "METAR RJFR 161800Z AUTO 32005KT 9999 NSC 27/26 Q1002",
    "VHHH": "METAR VHHH 161800Z VRB03KT 9999 -SHRA FEW010 SCT025 28/25 Q1005 TEMPO 4000 SHRA FEW010CB SCT020",
    "RCTP": "METAR RCTP 161800Z 22006KT 9999 FEW015 27/24 Q1006 NOSIG RMK A2972",
    "ZGSZ": "METAR ZGSZ 161800Z 15002MPS 9999 FEW020 27/25 Q1006 NOSIG",
    "WSSS": "METAR WSSS 161800Z 10005KT 9999 SCT016 BKN300 29/26 Q1011 NOSIG",
    "WMKK": "METAR WMKK 161800Z VRB03KT 9999 FEW030 28/25 Q1010 NOSIG",
    "WIDD": "METAR WIDD 161800Z 11003KT 9999 FEW014 28/26 Q1012 NOSIG",
    "VTBS": "METAR VTBS 161800Z 28002KT 9999 FEW020 27/26 Q1010 NOSIG",
    "VTBU": "METAR VTBU 161800Z 23006KT 9000 FEW020 29/28 Q1010 NOSIG",
    "ROAH": "METAR ROAH 161800Z AUTO 23013KT 9999 FEW006 SCT009 BKN010 28/27 Q1007",
    "VVDN": "METAR VVDN 161800Z VRB01KT 9999 FEW017 31/22 Q1006 NOSIG",
    "RCKH": "METAR RCKH 161800Z 20003KT 130V230 9999 FEW014 SCT060 28/25 Q1008 NOSIG RMK A2979",
    "KLAX": "METAR KLAX 161853Z 18004KT 10SM FEW012 FEW050 28/18 A2984 RMK AO2 SLP101 T02780183 $",
    "KONT": "METAR KONT 161853Z 26004KT 10SM FEW110 FEW200 34/14 A2983 RMK AO2 SLP080 T03440139 $",
    "KSFO": "METAR KSFO 161756Z 30016G23KT 10SM FEW018 19/10 A2993 RMK AO2 SLP134 T01890100 10189 20139 55000",
    "KOAK": "METAR KOAK 161853Z 24008KT 10SM FEW014 19/12 A2994 RMK AO2 SLP136 T01940117",
    "KMHR": "METAR KMHR 161755Z AUTO 18007KT 10SM CLR 27/09 A2983 RMK AO2 T02720093 10276 20140 58004 $",
    "KDFW": "METAR KDFW 161853Z 19011G20KT 10SM FEW037 FEW046TCU SCT160 BKN250 33/21 A3006 RMK AO2 SLP170 OCNL LTGIC DSNT NE AND NW CB DSNT NE AND NW MOV NE TCU E-SE AND W-NW T03280206 $",
    "KIAH": "METAR KIAH 161853Z 12012KT 10SM SCT043 BKN250 33/23 A3009 RMK AO2 SLP187 T03280233",
    "KORD": "METAR KORD 161851Z 04008KT 1SM R10L/P6000FT FU BKN024 OVC028 32/21 A3005 RMK AO2 SLP168 T03170206",
    "KJFK": "METAR KJFK 161851Z 23011KT 6SM FU FEW035 SCT050 OVC300 29/18 A2986 RMK AO2 SLP110 FU OVC300 T02890178 $",
    "KRFD": "METAR KRFD 161754Z 22004KT 3SM FU FEW040 SCT250 31/23 A3008 RMK AO2 SFC VIS 4 SLP179 T03110233 10317 20233 58007",
    "KIND": "METAR KIND 161754Z 30008KT 10SM SCT049 BKN060 BKN300 32/21 A3007 RMK AO2 SLP173 T03220206 10333 20250 58005",
    "KDTW": "METAR KDTW 161853Z 36007KT 3/4SM R03R/4500V5500FT FU BKN022 OVC030 29/15 A3005 RMK AO2 TWR VIS 1 SLP170 FU BKN022 T02940150",
    "KMSP": "SPECI KMSP 161815Z VRB03KT 1 1/2SM FU SCT000 BKN022 BKN050 31/22 A3005 RMK AO2 SFC VIS 2 FU SCT000 T03110217",
    "CYEG": "METAR CYEG 161800Z VRB03KT 20SM FEW022 FEW250 22/17 A3002 RMK CU1CI1 CU TR CI TR SLP165 DENSITY ALT 3700FT",
    "EHAM": "METAR EHAM 161755Z 04008KT 350V080 CAVOK 23/10 Q1016 NOSIG",
    "EBBR": "METAR EBBR 161820Z 01008KT CAVOK 26/15 Q1015 NOSIG",
    "EDDF": "METAR EDDF 161820Z AUTO VRB02KT CAVOK 22/18 Q1013 NOSIG",
    "EDFH": "METAR EDFH 161820Z 07004KT 040V130 CAVOK 21/17 Q1016",
    "EDDL": "METAR EDDL 161820Z AUTO 01009KT CAVOK 27/13 Q1014 NOSIG",
    "EDDK": "METAR EDDK 161820Z AUTO 10003KT 060V150 CAVOK 28/13 Q1014 NOSIG",
    "EBLG": "METAR EBLG 161820Z 01005KT 330V050 CAVOK 27/11 Q1015 NOSIG",
    "LSZH": "METAR LSZH 161820Z 14011KT 9999 VCSH FEW030 FEW070CB 21/17 Q1017 NOSIG",
    "LIMC": "METAR LIMC 161820Z 32003KT 290V360 CAVOK 31/16 Q1016 NOSIG",
    "LIRF": "METAR LIRF 161820Z 29006KT CAVOK 29/26 Q1015 NOSIG",
    "EINN": "METAR EINN 161800Z 04004KT 010V070 CAVOK 28/14 Q1019 NOSIG",
    "EGLL": "METAR EGLL 161820Z AUTO 10012KT 9999 NCD 25/11 Q1017",
    "EGSS": "METAR EGSS 161820Z AUTO 05011KT 9999 NCD 25/12 Q1018",
    "EPWA": "METAR EPWA 161800Z 02007KT 340V060 CAVOK 28/13 Q1018 NOSIG",
    "UHPP": "METAR UHPP 161800Z 18003MPS 9999 OVC007 14/13 Q1019 R34L/CLRD62 NOSIG RMK MT OBSC QFE761/1014",
    "EFHK": "METAR EFHK 161820Z 16007KT CAVOK 20/11 Q1021 NOSIG",
    "LBBG": "METAR LBBG 161800Z AUTO 11005KT 9999 NSC 25/20 Q1015 NOSIG",
    "LTAC": "METAR LTAC 161820Z 05015KT CAVOK 24/12 Q1015 NOSIG RMK RWY21C 04012KT RWY03L 05013KT RWY21R 03012KT RWY03R 02012KT RWY21L 03012KT",
    "UBBB": "METAR UBBB 161800Z 33010KT CAVOK 26/19 Q1008 NOSIG",
    "UTAA": "METAR UTAA 161800Z 28012KT 9999 NSC 35/18 Q1005 R88/CLRD70 NOSIG",
    "UACC": "METAR UACC 161800Z 25003MPS CAVOK 23/11 Q1002 NOSIG RMK QFE721/0961",
    "UAAA": "METAR UAAA 161800Z VRB01MPS 9999 NSC 25/08 Q1008 NOSIG",
    "UZTT": "METAR UZTT 161800Z 10006KT 4000 FU NSC 31/15 Q1004 NOSIG",
    "ZWWW": "METAR ZWWW 161800Z 17003MPS CAVOK 30/07 Q1009 NOSIG",
    "ZLXY": "METAR ZLXY 161800Z 28004MPS 250V310 9999 FEW050 26/20 Q1005 NOSIG",
    "ZBAA": "METAR ZBAA 161800Z VRB01MPS CAVOK 25/22 Q1002 NOSIG",
    "ZBHH": "METAR ZBHH 161800Z 14002MPS 9999 SCT033 18/17 Q1010 NOSIG",
    "ZSQD": "METAR ZSQD 161800Z 06001MPS 4000 BR SCT026 23/23 Q1002 BECMG TL1900 2800",
    "ZMCK": "METAR ZMCK 161800Z VRB02MPS 9999 SCT030CB SCT033 16/12 Q1010 NOSIG RMK QFE643.1 78 NT",
    "UUEE": "METAR UUEE 161800Z 35003G11MPS 270V050 9999 SCT047 15/07 Q1016 R06R/CLRD62 R06C/CLRD62 NOSIG",
    "UUDD": "METAR UUDD 161800Z 02005MPS CAVOK 15/07 Q1015 R31L/CLRD65 NOSIG",
    "ULLI": "METAR ULLI 161800Z VRB01MPS CAVOK 18/05 Q1021 R88/090065 NOSIG",
    "USSS": "METAR USSS 161800Z 25003MPS 9999 SCT022CB 17/17 Q0997 R26L/290050 R26R/290340 NOSIG RMK QFE727/0970",
    "UNNT": "METAR UNNT 161800Z 15004MPS 120V200 9999 FEW044CB 22/15 Q0998 R07/CLRD// R34/CLRD// NOSIG RMK QFE739/0985",
    "UNKL": "METAR UNKL 161800Z 00000MPS CAVOK 13/12 Q1004 R29/CLRD// NOSIG RMK QFE728",
    "UIBB": "METAR UIBB 161800Z AUTO 25002MPS 9999 // NCD 14/10 Q1005 RMK QFE711/0949",
    "UEEE": "METAR UEEE 161800Z 09001MPS 9999 SCT050CB 20/17 Q0992 R23/290149 NOSIG RMK QFE735",
    "UHHH": "METAR UHHH 161800Z 17002MPS 140V200 CAVOK 18/17 Q0997 R23L/090060 NOSIG RMK QFE741/0989",
    "UHSS": "METAR UHSS 161800Z 12002MPS 9999 BKN007 17/17 Q1003 R01/CLRD70 NOSIG RMK MT OBSC QFE751/1001"
  },
  "taf": {
    "RJAA": "TAF RJAA 161705Z 1618/1800 15010KT 8000 -SHRA FEW005 BKN015 TEMPO 1618/1621 3000 -SHRA BR FEW001 BKN003 TEMPO 1621/1700 4000 -SHRA BR FEW001 BKN005 TEMPO 1700/1706 4000 -TSRA BR FEW005 BKN012 FEW020CB",
    "PANC": "TAF PANC 161726Z 1618/1724 27004KT P6SM SCT025 BKN060 FM162000 16010KT P6SM VCSH SCT025 OVC060 FM162100 17012KT 5SM -RA SCT015 OVC025 FM170900 34006KT P6SM SCT020 OVC035 WS020/12025KT FM171800 02003KT 6SM -RA OVC040",
    "PAFA": "TAF PAFA 161737Z 1618/1724 23009KT P6SM SCT020 BKN035 FM161900 21010KT P6SM BKN050 FM170100 VRB03KT P6SM BKN100 FM171000 25004KT 6SM -RA BR SCT030 OVC050 FM171500 24007KT P6SM OVC050",
    "PAED": "TAF AMD PAED 161425Z 1614/1719 24005KT 9999 BKN060 620604 QNH3004INS BECMG 1620/1621 33009KT 9000 -RA BKN040 OVC050 650604 QNH2993INS BECMG 1705/1706 33005KT 9999 NSW SCT040 BKN050 QNH2988INS BECMG 1711/1712 36006KT 9999 -SHRA BKN040 620604 QNH2985INS TX15/1700Z TN11/1614Z",
    "KSEA": "TAF KSEA 161904Z 1619/1724 22007KT 6SM -RA VCTS SCT007 BKN025CB BKN070 FM162000 22009KT P6SM -SHRA BKN035 BKN070 FM162100 22010G18KT P6SM BKN040 PROB30 1621/1624 3SM TSRA BR BKN020CB BKN040 FM170000 22007KT P6SM BKN050 FM171200 20004KT P6SM BKN025 FM171800 23007KT P6SM BKN035 FM172100 24007KT P6SM SCT035",
    "ZSPD": "TAF ZSPD 161506Z 1618/1724 18004MPS 8000 SCT030 TX38/1706Z TN30/1621Z TN28/1721Z TEMPO 1706/1710 TSRA BKN015 FEW030CB",
    "ZSSS": "TAF ZSSS 161505Z 1618/1724 20004MPS 8000 SCT030 TX38/1706Z TN30/1621Z TN28/1721Z TEMPO 1706/1710 TSRA BKN015 FEW030CB",
    "RJFR": "TAF RJFR 161705Z 1618/1800 33007KT 9999 FEW014 BKN030 BECMG 1618/1620 10006KT TEMPO 1704/1709 -TSRA FEW007 BKN020 FEW025CB BECMG 1706/1709 06004KT TEMPO 1709/1800 BKN005 BKN050 BECMG 1721/1800 09008KT",
    "VHHH": "TAF VHHH 161700Z 1618/1724 14010KT 9999 FEW010 SCT025 TX30/1706Z TN26/1622Z TN26/1722Z TEMPO 1618/1621 VRB15G25KT 2500 TSRA SHRA FEW010CB SCT015 BECMG 1621/1623 20010KT TEMPO 1623/1705 VRB20G30KT 2000 TSRA +SHRA FEW008CB SCT015 TEMPO 1705/1708 3000 SHRA FEW010CB SCT020 TEMPO 1720/1724 3000 SHRA FEW010CB SCT020",
    "RCTP": "TAF RCTP 161700Z 1618/1724 22007KT 9999 FEW015 TEMPO 1618/1623 15005KT BECMG 1623/1701 24015KT TEMPO 1703/1707 25020KT BECMG 1710/1712 21010KT TEMPO 1718/1723 16005KT",
    "ZGSZ": "TAF ZGSZ 161514Z 1618/1724 18004MPS 8000 BKN040 TX30/1706Z TN25/1622Z TN26/1722Z TEMPO 1621/1624 SHRA SCT012 FEW020CB BKN030 TEMPO 1704/1708 TSRA SCT012 FEW020CB BKN030",
    "WSSS": "TAF WSSS 161700Z 1618/1800 14008KT 9999 FEW015 SCT020 TEMPO 1705/1708 3000 TSRA FEW012CB BKN015",
    "WMKK": "TAF WMKK 161700Z 1618/1800 VRB03KT 9999 FEW030",
    "VTBS": "TAF VTBS 161700Z 1618/1724 22008KT 9999 FEW020 TEMPO 1709/1713 VRB15KT 3000 TSRA FEW018CB SCT030 BKN080",
    "VTBU": "TAF VTBU 161700Z 1618/1718 24006KT 9000 FEW020",
    "ROAH": "TAF ROAH 161707Z 1618/1800 23011KT 9999 FEW005 BKN010 TEMPO 1618/1621 FEW003 BKN005 TEMPO 1621/1703 FEW005 BKN008 TEMPO 1712/1800 FEW004 BKN006",
    "VVDN": "TAF VVDN 161700Z 1618/1718 23007KT 9999 FEW017 SCT060 TEMPO 1709/1712 TS SCT013 FEW015CB SCT060",
    "RCKH": "TAF RCKH 161700Z 1618/1724 22007KT 9999 FEW015 BKN032 TEMPO 1618/1624 09005KT 4000 SHRA FEW012 FEW015CB BKN020 TEMPO 1700/1704 5000 SHRA FEW012 FEW015TCU BKN020 TEMPO 1704/1710 25013KT BECMG 1710/1712 09005KT TEMPO 1718/1724 30005KT 5000 SHRA FEW012 BKN020",
    "KLAX": "TAF KLAX 161728Z 1618/1724 26006KT P6SM SKC FM162000 26012KT P6SM SKC FM170300 26006KT P6SM SCT250 FM170800 11008KT P6SM BKN009 FM171700 14008KT P6SM SCT012 FM172000 24010KT P6SM SCT250",
    "KONT": "TAF KONT 161749Z 1618/1724 VRB04KT P6SM FEW200 FM161900 25012G20KT P6SM SCT150 FM170300 26010KT P6SM FEW150 FM170700 VRB04KT P6SM FEW150 FM171900 25012G20KT P6SM SCT150",
    "KSFO": "TAF KSFO 161720Z 1618/1724 30015KT P6SM SKC FM162000 29021G27KT P6SM SKC FM170600 28013G23KT P6SM SCT009 FM170900 28011KT P6SM BKN009 FM171700 29014KT P6SM SCT009 FM172000 29021G28KT P6SM SKC",
    "KOAK": "TAF KOAK 161720Z 1618/1724 26009KT P6SM SKC FM162000 26015KT P6SM SKC FM170400 26008KT P6SM SKC FM170800 25006KT P6SM BKN007 FM171700 26008KT P6SM SCT007 FM172000 28015KT P6SM SKC",
    "KMHR": "TAF KMHR 161751Z 1618/1718 19006KT P6SM SKC FM162200 23010G18KT P6SM SKC FM170400 16008KT P6SM SKC",
    "KDFW": "TAF KDFW 161720Z 1618/1724 18011KT P6SM VCTS SCT025CB BKN035 BKN120 PROB30 1619/1622 4SM -TSRA BKN025CB FM162200 18010KT P6SM -SHRA VCTS SCT040CB BKN250 FM170100 16010KT P6SM FEW100 BKN250 FM171200 17010KT P6SM BKN020",
    "KIAH": "TAF KIAH 161721Z 1618/1724 14009KT P6SM FEW030 BKN210 OVC250 FM170200 15007KT P6SM FEW020 SCT250 FM170600 VRB03KT P6SM SCT015 SCT025 FM171400 19007KT P6SM SCT250",
    "KORD": "TAF KORD 161738Z 1618/1724 06007KT 1 1/2SM FU BKN020 BKN050 FM162100 07007KT 2SM FU FEW020 SCT050 BKN250 FM170600 VRB03KT 2SM FU SCT050 BKN250 FM171500 24009KT P6SM SCT050 BKN100 PROB30 1718/1724 VRB15G25KT 3SM -TSRA BR BKN040CB",
    "KJFK": "TAF KJFK 161724Z 1618/1724 23014G23KT 5SM FU SCT045 BKN250 PROB30 1620/1624 VRB15G35KT -TSRA BKN050CB FM170000 31012KT 5SM FU BKN250 FM170600 34006KT 5SM FU BKN250 FM171300 34008KT P6SM SCT250 FM171800 21011KT P6SM FEW050 SCT250",
    "KRFD": "TAF KRFD 161742Z 1618/1718 VRB04KT 5SM FU SCT050 BKN250 FM170300 VRB04KT 3SM FU SCT050 BKN250 FM171500 23007KT P6SM SCT050 BKN100",
    "KIND": "TAF KIND 161722Z 1618/1724 29006KT P6SM SCT050 BKN250 FM170400 28003KT P6SM FEW050 SCT250 FM171200 18003KT P6SM SCT050 FM171800 23007KT P6SM SCT050 BKN200 PROB30 1718/1724 5SM -TSRA BKN035CB",
    "KDTW": "TAF KDTW 161730Z 1618/1724 35005KT 3/4SM FU SCT020 OVC030 FM162000 35005KT 2SM FU SCT025 OVC035 FM170100 14003KT 1SM FU OVC025 FM171900 19008KT 5SM HZ SCT035 SCT200",
    "KMSP": "TAF KMSP 161722Z 1618/1724 16003KT 4SM FU SCT022 TEMPO 1618/1621 2SM FU BKN022 FM162100 15006KT 6SM HZ SCT050 FM170200 16004KT P6SM SKC FM171400 21010KT P6SM FEW050",
    "CYEG": "TAF CYEG 161740Z 1618/1718 VRB03KT P6SM FEW020 FM162100 14006KT P6SM FEW040 FM170200 12006KT P6SM SKC FM171000 12006KT P6SM SCT040 PROB30 1710/1715 1SM BR FEW004 RMK NXT FCST BY 162100Z",
    "EHAM": "TAF COR EHAM 161718Z 1618/1724 04010KT CAVOK BECMG 1623/1702 34007KT PROB30 TEMPO 1702/1707 7000 BKN012 BECMG 1710/1713 33015KT PROB30 TEMPO 1712/1714 6000 SHRA SCT030CB BECMG 1718/1721 32008KT",
    "EBBR": "TAF EBBR 161706Z 1618/1724 02008KT 9999 FEW045",
    "EDDF": "TAF EDDF 161700Z 1618/1724 20005KT CAVOK PROB30 TEMPO 1704/1710 TSRA BKN030CB BECMG 1709/1711 26008KT PROB40 TEMPO 1713/1719 26015G30KT TSRA BKN030CB",
    "EDFH": "TAF EDFH 161700Z 1618/1718 14007KT CAVOK PROB30 TEMPO 1618/1620 TSRA SCT040CB BECMG 1621/1623 21005KT PROB30 TEMPO 1704/1709 TSRA BKN020CB BECMG 1706/1709 27008KT PROB40 TEMPO 1712/1716 26015G30KT TSRA BKN020CB",
    "EDDL": "TAF EDDL 161700Z 1618/1724 06007KT CAVOK BECMG 1618/1621 33004KT BECMG 1708/1711 29010KT",
    "EDDK": "TAF EDDK 161700Z 1618/1724 05005KT CAVOK BECMG 1620/1623 VRB03KT PROB30 TEMPO 1706/1711 SHRA BKN040TCU BECMG 1708/1711 29010KT",
    "EBLG": "TAF EBLG 161706Z 1618/1724 02008KT 9999 FEW045",
    "LSZH": "TAF COR LSZH 161746Z 1618/1724 VRB02KT 9999 FEW070 TX26/1714Z TN17/1704Z TEMPO 1618/1619 16012KT FEW070CB PROB40 TEMPO 1620/1624 27015G25KT TSRA FEW050CB BECMG 1700/1702 CAVOK BECMG 1705/1707 9999 FEW050 PROB30 TEMPO 1707/1712 SHRA SCT050TCU PROB40 TEMPO 1712/1718 29015G25KT TSRA FEW050CB PROB30 TEMPO 1718/1724 23015G25KT TSRA FEW050CB",
    "LIMC": "TAF LIMC 161700Z 1618/1724 VRB05KT 9999 FEW040 TEMPO 1623/1708 4000 TSRA BECMG 1700/1702 36010KT BECMG 1709/1711 VRB05KT",
    "LIRF": "TAF LIRF 161700Z 1618/1724 28007KT CAVOK PROB40 TEMPO 1702/1705 2000 BR BECMG 1702/1704 13010KT BECMG 1709/1711 19010KT BECMG 1717/1719 VRB05KT PROB30 TEMPO 1722/1724 4000 BR BKN014",
    "EINN": "TAF EINN 161700Z 1618/1718 03008KT 9999 FEW040 PROB30 TEMPO 1620/1624 33010KT BECMG 1708/1710 33010KT",
    "EGLL": "TAF EGLL 161652Z 1618/1724 10010KT CAVOK BECMG 1622/1701 03005KT PROB30 TEMPO 1703/1708 BKN008 BECMG 1711/1714 33010KT BECMG 1719/1722 04010KT",
    "EGSS": "TAF EGSS 161655Z 1618/1724 05010KT CAVOK TEMPO 1700/1708 8000 BKN008 PROB30 TEMPO 1701/1707 4000 BR BKN004 BECMG 1702/1705 35005KT",
    "EPWA": "TAF EPWA 161730Z 1618/1718 VRB04KT CAVOK BECMG 1707/1710 15010KT TEMPO 1714/1718 SCT050CB",
    "UHPP": "TAF UHPP 161641Z 1618/1724 16003G12MPS 9999 BKN010 TEMPO 1618/1621 0500 FG VV002 BECMG 1621/1623 BKN040CB",
    "EFHK": "TAF EFHK 161724Z 1618/1718 17008KT CAVOK",
    "LBBG": "TAF LBBG 161700Z 1618/1718 VRB04KT 9999 SCT045 BECMG 1707/1709 12012KT PROB40 TEMPO 1710/1715 5000 TSRA FEW030CB BKN040 BECMG 1716/1718 VRB04KT",
    "LTAC": "TAF LTAC 161640Z 1618/1718 03011KT CAVOK BECMG 1706/1708 SCT040 TEMPO 1714/1718 02015G25KT BECMG 1716/1718 CAVOK",
    "UBBB": "TAF UBBB 161715Z 1618/1718 32016G26KT 9999 FEW015 TX31/1710Z TN23/1701Z TEMPO 1618/1706 35020KT SCT010 FEW050CB BECMG 1710/1712 34012KT FEW030",
    "UTAA": "TAF UTAA 161645Z 1618/1718 35014KT 6000 SCT050 TEMPO 1618/1624 29014G24KT TEMPO 1700/1708 30018G28KT 3000 DRDU",
    "UACC": "TAF UACC 161701Z 1618/1718 VRB01MPS 9999 SCT030 BKN050 TX32/1709Z TN17/1623Z TEMPO 1618/1704 26005MPS BECMG 1704/1706 25006MPS TEMPO 1704/1714 27011MPS SCT030CB PROB40 TEMPO 1706/1714 -TSRA BKN030CB",
    "UAAA": "TAF UAAA 161700Z 1618/1718 16003MPS 9999 FEW100 TX41/1710Z TN20/1701Z BECMG 1703/1704 04003G09MPS BECMG 1713/1714 20003MPS",
    "UZTT": "TAF UZTT 161700Z 1618/1718 09010KT 7000 NSC TX43/1711Z TN26/1700Z TEMPO 1618/1624 34015KT",
    "ZWWW": "TAF ZWWW 161503Z 1618/1724 18004MPS CAVOK TX39/1709Z TN28/1623Z TN29/1718Z BECMG 1702/1703 36004MPS BECMG 1714/1715 18004MPS",
    "ZLXY": "TAF ZLXY 161501Z 1618/1718 26004MPS 5000 HZ NSC TX32/1708Z TN23/1621Z",
    "ZBAA": "TAF ZBAA 161501Z 1618/1724 18004MPS CAVOK TX35/1707Z TN24/1621Z TN21/1721Z",
    "ZBHH": "TAF ZBHH 161505Z 1618/1718 24004MPS 9999 SCT040 TX29/1708Z TN16/1622Z BECMG 1708/1709 -TSRA SCT040 FEW040CB TEMPO 1709/1711 33008G14MPS TSRA BECMG 1711/1712 NSW NSC",
    "ZSQD": "TAF ZSQD 161502Z 1618/1718 16004MPS 3500 BR BKN010 TX26/1706Z TN22/1620Z BECMG 1702/1703 03005MPS BKN030 TEMPO 1703/1707 2500 +TSRA BKN020 FEW030CB TEMPO 1707/1711 SHRA",
    "ZMCK": "TAF ZMCK 161639Z 1618/1724 VRB02MPS 9999 FEW030CB SCT033 TN10/1621Z TX24/1707Z TEMPO 1618/1708 VRB08MPS 6000 TSRA FEW023 SCT027CB SCT030 BECMG 1704/1706 29005MPS BECMG 1710/1712 VRB02MPS",
    "UUEE": "TAF UUEE 161656Z 1618/1718 36003G08MPS 9999 SCT040 TX21/1712Z TN10/1701Z TEMPO 1709/1718 33008G14MPS",
    "UUDD": "TAF UUDD 161650Z 1618/1724 36005MPS 9999 SCT030 TX23/1712Z TN09/1702Z TEMPO 1708/1715 36008G15MPS",
    "ULLI": "TAF ULLI 161654Z 1618/1718 05005MPS 6000 SCT020 BECMG 1620/1622 22003MPS TEMPO 1623/1703 1000 BR MIFG",
    "USSS": "TAF USSS 161656Z 1618/1718 26003MPS 6000 SCT016CB TEMPO 1618/1702 0300 -TSRA FG FM170300 28003G14MPS 9999 -SHRA BKN016CB TEMPO 1703/1718 -TSRA",
    "UNNT": "TAF UNNT 161700Z 1618/1718 15003G08MPS 8000 BKN040 TX25/1710Z TN16/1622Z TEMPO 1618/1703 22008G15MPS -TSRA BKN010 BKN020CB BECMG 1703/1705 26007G15MPS TEMPO 1703/1715 -TSRA BKN016CB BECMG 1712/1714 20003G08MPS",
    "UNKL": "TAF UNKL 161649Z 1618/1718 21003G08MPS 8000 SCT040 TEMPO 1706/1712 -TSRA BKN020CB BECMG 1712/1714 4500 -SHRA BKN016CB TEMPO 1714/1718 0300 -TSRA FG BKN006 BKN016CB",
    "UIBB": "TAF UIBB 161700Z 1618/1718 18002G07MPS 9999 FEW001 BKN016CB BECMG 1701/1703 24005G10MPS",
    "UEEE": "TAF UEEE 161700Z 1618/1724 10005G10MPS 9999 SCT010 BKN020CB OVC100 TEMPO 1618/1706 VRB01MPS 2100 -SHRA SCT005 BKN017CB OVC070",
    "UHHH": "TAF UHHH 161647Z 1618/1724 18003MPS 9999 SCT020CB TX26/1706Z TN17/1618Z FM170000 21008G13MPS 9999 FEW006 BKN016CB TEMPO 1700/1712 2000 TSRA",
    "UHSS": "TAF UHSS 161650Z 1618/1724 16003MPS 0550 FG BKN002 FM162300 18006MPS 9999 BKN010 BECMG 1700/1703 SCT030"
  },
  "atis": {
    "RJAA": "[Arrival ATIS] RJAA ARR ATIS W 1446Z M1430 (APCH)ILS RWY34L USING RWY 34L DEP FREQ 124.2. TWY A1 CLSD. RWY 16L/34R CLSD TIL 2030. RWY 16R/34L WILL BE CLSD FM 1510 EXC ACFT WITH PRIOR PERMISSION. OBSERVE GEAR DOWN OPS PROC ON FNL. M 221430Z AUTO 07005KT 020V100 9999 FEW011// SCT037// BKN041// 18/16 Q1006/A2973= Q/TWO NINE SEVEN THREE STP\n[Departure ATIS] RJAA DEP ATIS R 1241Z M1230 (APCH)ILS Z RWY34R LDG RWY 34R DEP RWY 34L DEP FREQ 124.2. TWY A1 CLSD. OBSERVE GEAR DOWN OPS PROC ON FNL. M 221230Z 07007KT 010V090 20KM FEW010ST BKN030SC 19/16 Q1006/A2972= Q/TWO NINE SEVEN TWO STP",
    "PANC": "[Arrival ATIS] PANC ARR ATIS U 1553Z - PANC ATIS INFO U 1553Z. 07003KT 10SM -RA FEW047 SCT090 BKN180 13/11 A3006 (THREE ZERO ZERO SIX). ILS RWY 15 APPROACHES IN USE. LANDING RWY 15, DEPARTING RWY 25L. NOTICE TO AIRMEN. RWY 25R CLSD. CHECK NOTAMS FOR TAXIWAY CLOSURES. CONTACT TOWER 118.3 FOR TAXI. ...ADVS YOU HAVE INFO U.\n[Departure ATIS] PANC DEP ATIS I 0353Z ANC ATIS INFO I 0353Z. 14016G33KT 10SM OVC055 14/08 A3007 (THREE ZERO ZERO SEVEN). ILS RWY 15 APPROACHES IN USE. LANDING RWY 15, DEPARTING RWY 25L. NOTICE TO AIRMEN. TWY Q",
    "KSEA": "[Arrival ATIS] KSEA ARR ATIS M 1932Z SEA ATIS INFO M 1932Z SPECIAL. 00000KT 9SM -TSRA SCT007 BKN044CB OVC100 13/12 A3002 (THREE ZERO ZERO TWO). ILS, RYS 16R AND 16L , APCH IN USE. DEPG RWY 16L, RWY 16C, DEPG ACFT PLAN AND BRIEF NUMBERS FOR BOTH RWYS 16L AND 16C. SIMUL APCHS IN USE, BFI & SEA. TRAFFIC BELOW YOU ON FINAL. SIMUL APCHS IN USE TO PARA RYS. NOTAMS... BIRD ACTIVITY VICINITY ARPT. HAZD WX INFO FOR WESTERN WA CONTACT FLIGHT SERVICE. ...ADVS YOU HAVE INFO M.\n[Departure ATIS] KSEA DEP ATIS M 1932Z SEA ATIS INFO M 1932Z SPECIAL. 00000KT 9SM -TSRA SCT007 BKN044CB OVC100 13/12 A3002 (THREE ZERO ZERO TWO). ILS, RYS 16R AND 16L , APCH IN USE. DEPG RWY 16L, RWY 16C, DEPG ACFT PLAN AND BRIEF NUMBERS FOR BOTH RWYS 16L AND 16C. SIMUL APCHS IN USE, BFI & SEA. TRAFFIC BELOW YOU ON FINAL. SIMUL APCHS IN USE TO PARA RYS. NOTAMS... BIRD ACTIVITY VICINITY ARPT. HAZD WX INFO FOR WESTERN WA CONTACT FLIGHT SERVICE. ...ADVS YOU HAVE INFO M.",
    "ZSPD": "[Arrival ATIS] ZSPD ARR ATIS U 1600Z EXP ILS APCH INDEPENDENT PARL INSTR APCH LDG RWY 35L & 34R WIND RWY 35L TDZ 020/3MPS MID 030/4MPS END 010/3MPS RWY 34R TDZ 360/2MPS MID 020/2MPS END 030/3MPS VIS RWY 35L TDZ 10000M MID 10000M END 10000M VIS RWY 34R TDZ 10000M MID 10000M END 10000M CLD BKN 300M T 24 /DP 23 QNH 1002 HPA CAUTION THE BIRDS NEAR THE RUNWAY RWY 35R/35L/34R/34L RWYCC 5/5/5 ISSUED AT 1750 WET/WET/WET DPT NR/NR/NR COV 100PCT/100PCT/100PCT. ADZ YOU HAVE INFO U.\n[Departure ATIS] ZSPD DEP ATIS V 1630Z DEP RWY 35R WIND RWY 35R TDZ 030/4MPS MID 020/3MPS END 040/2MPS VIS RWY 35R TDZ 10000M MID 10000M END 10000M CLD BKN 300M T 23 /DP 23 QNH 1002 HPA DELIVERY FREQ 118.4 CAUTION THE BIRDS NEAR THE RUNWAY RWY 35R/35L/34R/34L RWYCC 5/5/5 ISSUED AT 1750 WET/WET/WET DPT NR/NR/NR COV 100PCT/100PCT/100PCT. ADZ YOU HAVE INFO V.",
    "ZSSS": "[Arrival ATIS] ZSSS ARR ATIS H 1200Z EXP ILS APCH LDG RWY 18L WIND RWY 18L TDZ 230/3MPS MID 230/3MPS VRB BTN 200/ AND 270/ END 240/2MPS CAVOK T 35 /DP 24 QNH 1002 HPA VISUAL APCH IN USE QNH OF SHANGHAI TERMINAL CONTROL AREA 1002 HPA ADZ YOU HAVE INFO H.\n[Departure ATIS] ZSSS DEP ATIS D 1200Z DEP RWY 36L WIND RWY 36L TDZ 040/3MPS MID 030/4MPS END 040/5MPS VIS RWY 36L TDZ 10000M MID 10000M END 10000M CLD BKN 210M T 22 /DP 21 QNH 1003 HPA RWY36L RWYCC 5/5/5 ISSUED AT 0640 WET/WET/WET DPT NR/NR/NR COV 100PCT/100PCT/100PCT RWY36R RWYCC 5/5/5 ISSUED AT 0640 WET/WET/WET DPT NR/NR/NR COV 100PCT/100PCT/100PCT QNH OF SHANGHAI TERMINAL CONTROL AREA 1002 HPA ADZ YOU HAVE INFO D.",
    "VHHH": "[Arrival ATIS] VHHH ARR ATIS H 1604Z ARRIVALS, RWY 25C. EXP ILS APCH, RWY 25C. RWY 25L MAY BE AVAILABLE FOR RNP AR APPROVED CARGO FLIGHTS UPON REQUEST. WIND 230/08KT. VIS 10KM. CLD FEW 1500FT SCT 2500FT. T30 DP26. QNH 1004HPA. ACK INFO H ON FIRST CTC WITH APP.\n[Departure ATIS] VHHH DEP ATIS W 1606Z DEPARTURES, RWY 25L. WIND 220/05KT. VIS 10KM. CLD FEW 1500FT SCT 2500FT. T30 DP26. QNH 1004HPA. ACK INFO W ON FIRST CTC WITH DELIVERY .",
    "RCTP": "[Arrival ATIS] RCTP ARR ATIS Q 1600Z EXP ILS APCH RWY23R AND RWY23L ARR/DEP. WIND 250/05KT VIS 10 KM OR MORE CLD FEW 1500FT T 28 DP 26 QNH 1004HPA NOSIG INFORM TAIPEI APCH OR TAIPEI TOWER ON INITIAL CONTACT YOU HAVE INFORMATION Q\n[Departure ATIS] RCTP DEP ATIS O 1500Z EXP ILS APCH RWY23R AND RWY23L ARR/DEP. WIND 270/07KT VIS 10 KM OR MORE CLD FEW 1500FT SCT 3000FT T 28 DP 26 QNH 1004HPA NOSIG INFORM TAIPEI APCH OR TAIPEI TOWER ON INITIAL CONTACT YOU HAVE INFORMATION O",
    "ZGSZ": "[Arrival ATIS] ZGSZ ARR ATIS E 1630Z EXP ILS APCH 15 EXP ILS OR VIS APCH 16L WIND 180/5MPS VIS 9999M CLD FEW 600M T 29 /DP 27 QNH 1004 HPA INDEPENDENT PARALLEL APPROACHES INDEPENDENT PARALLEL DEPARTURES V17,V18 AVAILABLE AFTER SULAS FLY HEADING 040 MISSED APPROACH ALTITUDE SETTING 1200METERS WHEN AIRBORNE CONTACT ZHUHAI APPROACH EXPECTED RNP ILS DME Z APPROACH ADZ YOU HAVE INFO E.\n[Departure ATIS] ZGSZ DEP ATIS D 1600Z DEP RWY 15 & 16L WIND 180/6MPS VIS 9999M CLD FEW 600M T 29 /DP 27 QNH 1004 HPA DELIVERY FREQ 121.8 INDEPENDENT PARALLEL APPROACHES INDEPENDENT PARALLEL DEPARTURES V17,V18 AVAILABLE AFTER SULAS FLY HEADING 040 MISSED APPROACH ALTITUDE SETTING 1200METERS WHEN AIRBORNE CONTACT ZHUHAI APPROACH EXPECTED RNP ILS DME Z APPROACH ADZ YOU HAVE INFO D.",
    "WSSS": "[Arrival ATIS] WSSS ARR ATIS C 1537Z METREPORT 1537Z ILS APCHRWY 02L TWY W 9 CLOSED, RWY 02C 20C RAPID EXIT TAXIWAY INDICATOR LIGHTS OFFFOLLOW THE GREENS TRIAL IN PROGRESS. WHEN VACATING THE RWY, PILOTS TO ADHERE TO ATC VERBAL INSTRUCTIONS. WHEN ON TWY, PILOT TO ADHERE TO FOLLOW THE GREENS INSTRUCTIONS. WHEN APPROACHING [A] JUNCTION, KEEP [A] LOOKOUT FOR CONTINUOUS GREENS. [IF] [A] BREAK IN THE GREENS IS OBSERVED, STOP AND CLARIFY WITH ATC. FOLLOW THE GREENS TRIAL IN PROGRESS. WHEN VACATING THE RWY, PILOTS TO ADHERE TO ATC VERBAL INSTRUCTIONS. WHEN ON TWY, PILOT TO ADHERE TO FOLLOW THE GREENS INSTRUCTIONS. WHEN APPROACHING [A] JUNCTION, KEEP [A] LOOKOUT FOR CONTINUOUS GREENS. [IF] [A] BREAK IN THE GREENS IS OBSERVED, STOP AND CLARIFY WITH ATC. WIND 130/ 03KT VRB BTN040 AND160 VIS 10KM CLD FEW 1600FT T28 DP25 QNH 1012HPA NOSIG ACK ATIS C\n[Departure ATIS] WSSS DEP ATIS E 1537Z METREPORT 1537Z RWY 02C TWY W 9 CLOSED, RWY 02C 20C RAPID EXIT TAXIWAY INDICATOR LIGHTS OFFFOLLOW THE GREENS TRIAL IN PROGRESS. WHEN VACATING THE RWY, PILOTS TO ADHERE TO ATC VERBAL INSTRUCTIONS. WHEN ON TWY, PILOT TO ADHERE TO FOLLOW THE GREENS INSTRUCTIONS. WHEN APPROACHING [A] JUNCTION, KEEP [A] LOOKOUT FOR CONTINUOUS GREENS. [IF] [A] BREAK IN THE GREENS IS OBSERVED, STOP AND CLARIFY WITH ATC. WIND VRB BTN060 AND120 02KT VIS 10KM CLD FEW 1600FT T28 DP25 QNH 1012HPA NOSIG DEP,INITIAL CMB 3000FT ACK ATIS E",
    "WMKK": "[Arrival ATIS] WMKK ARR ATIS E 1634Z WMKK ARR INFO E. TIME 1630. INDEPENDENT PARALLEL APPROACHES FOR RWY 32 R AND 33 ARE IN PROGRESS. EXP RNAV APCH FOR RWY 32 LEFT. EXP RNAV / ILS APCH FOR RWY 33. WIND RWY 32L DIRECTION NOT AVBL SPEED NOT AVBL. WIND RWY 33 DIRECTION NOT AVBL SPEED NOT AVBL. VIS RWY 32L TDZ NOT AVBL. VIS RWY 33 TDZ NOT AVBL. CLD FEW 3000 FT. T 28. DP 25. QNH 1011. NOSIG. AT FIRST CONTACT WITH LUMPUR RADAR, NOTIFY RCPT OF E\n[Departure ATIS] WMKK DEP ATIS U 1503Z WMKK DEP INFO U. TIME 1500. INDEPENDENT PARALLEL DEPARTURES FOR RWY 32 L AND 33 ARE IN PROGRESS. RWY 32 LEFT. RWY 33. WIND RWY 32L DIRECTION NOT AVBL SPEED NOT AVBL. WIND RWY 33 DIRECTION NOT AVBL SPEED NOT AVBL. VIS RWY 32L TDZ NOT AVBL. VIS RWY 33 TDZ NOT AVBL. CLD FEW CB 1700 FT. T 28. DP 25. QNH 1011. NOSIG. ALL DEP ACFT TO CONTACT LUMPUR DEP AT 135 DECIMAL 25 MHZ WHEN ABN. AT FIRST CONTACT WITH LUMPUR GROUND, NOTIFY RCPT OF U",
    "VTBS": "[Arrival ATIS] VTBS ARR ATIS W 1530Z VTBS ARR ATIS W 1531Z EXP ILS Z APCH ARR RWY 19 OR RNP APCH RWY 20R ,RETIL RWY 19 U/S ,PILOT SHALL ADZ BKK APCH ON INITIAL CTC IF UNA TO CONDUCT RNP APCH DUE TO OPERATIONAL CONSTRAINT 1530Z WIND 210/6KT VIS 10KM CLD FEW 2000FT T32 DP23 QNH 1009HPA TREND NOSIG ADZ BKK APCH ON INITIAL CONTACT THAT YOU HAVE INFO W\n[Departure ATIS] VTBS DEP ATIS I 1630Z VTBS DEP ATIS I 1630Z DEP RWY 20L ,ALL ACFT WILL BE DLA DUE VIP MOVEMENT ,AFT AIRBORNE ALL DEPARTING ACFT SHALL CTC 119.25 1630Z WIND 250/8KT VIS 10KM CLD FEW 2000FT T31 DP23 QNH 1009HPA TREND NOSIG ADZ GND WHEN INITIAL CONTACT YOU HAVE INFO I",
    "VTBU": "[Arrival ATIS] VTBU ARR ATIS U 0430Z VTBU ARR ATIS U 0430Z RNP RWY 18 TRL FL130 MOBILE ACFT ARST SYSTEM INSTL ATP SIX HUNDRED AND TEN METERS FM THR RWY 36 CABLE HGT 3 INCHES. 0430Z WIND 360/6KT VRB BTN 320/ AND 020/ VIS 10KM CLD FEW 2000FT T34 DP27 QNH 1010HPA TREND NOSIG ADZ CONTROLLER WHEN INITIAL CONTACT YOU HAVE INFO U\n[Departure ATIS] VTBU DEP ATIS D VTBU ARR/DEP DATIS RPT VTBU ARR ATIS D 0330Z ILS \"Z\" APCH RWY 18 TRL FL130 0330Z WIND 110/4KT VRB BTN 350/ AND 120/ VIS 6KM CLD FEW 2000FT T31 DP27 QNH 1014HPA TREND NOSIG ADZ CONTROLLER WHEN INITIAL CONTACT YOU HAVE INFO D",
    "ROAH": "[Arrival ATIS] ROAH ARR ATIS R 1528Z M1500 (APCH)RNP RWY18R USING RWY 18R DEP FREQ 126.5 258.3 RWY18L/36R CLSD M 221500Z AUTO 13008KT 9999 SCT021// BKN024// 28/26 Q1007/A2974= Q/TWO NINE SEVEN FOUR STP\n[Departure ATIS] ROAH DEP ATIS X 0517Z M0500 (APCH)RNP RWY18R LDG RWY 18R DEP RWY 18L DEP FREQ 126.5 258.3 M 220500Z 23007KT 50KM FEW015CU 30/26 Q1007/A2975= Q/TWO NINE SEVEN FIVE STP",
    "VVDN": "[Arrival ATIS] VVDN ARR ATIS E 1402Z VVDN INFO E 1402Z. ILS VICTOR APPROACH 35L.. DPTG RWY 35R.. 1402Z. WIND VRB/01KT CAVOK T31 DP25 QNH 1006HPA TREND NOSIG. ADZ ON INITIAL CTC YOU HAVE INFO. E.\n[Departure ATIS] VVDN DEP ATIS N 0423Z VVDN INFO N 0423Z. ILS VICTOR APPROACH 35L.. DPTG RWY 35R.. 0423Z. WIND 010/02KT CAVOK T36 DP24 QNH 1008HPA TREND NOSIG. WS ALL RWY. ADZ ON INITIAL CTC YOU HAVE INFO. N.",
    "RCKH": "[Arrival ATIS] RCKH ARR ATIS Y 1400Z EXPECT ILS APPROACH RWY 09 ARR/DEP TAXIWAY JULIETT, TAXIWAY BRAVO, TAXIWAY DELTA AND TAXIWAY ECHO CLOSED DUE MAINTENANCE. RUNWAY 0 9 ARRIVALS PLAN VACATE VIA CHARLIE OR FOXTROT AND EXPEDITE VACATE. WIND 280/04KT VARYING BTN 250 AND 320 VIS 10 KM OR MORE CLD FEW 1800FT SCT 3000FT T 28 DP 25 QNH 1006HPA NOSIG CAUTION BIRD ACTIVITY IN VICINITY OF THE AERODROME. INFORM KAO-HSIUN APCH OR KAO-HSIUN TOWER ON INITIAL CONTACT YOU HAVE INFORMATION Y\n[Departure ATIS] RCKH DEP ATIS N 0430Z EXPECT ILS APPROACH RWY 27 ARR/DEP TAXIWAY JULIETT, TAXIWAY BRAVO, TAXIWAY DELTA AND TAXIWAY ECHO CLOSED DUE MAINTENANCE. RUNWAY 2 7 ARRIVALS PLAN VACATE VIA CHARLIE OR",
    "KLAX": "[Arrival ATIS] KLAX ARR ATIS Z 1853Z LAX ATIS INFO Z 1853Z. 17004KT 10SM FEW012 FEW050 28/18 A2984 (TWO NINER EIGHT FOUR) RMK AO2 SLP101 T02780183. INST APCHS AND RNAV RNP APCHS RY 24R AND 25L, OR VCTR FOR VISUAL\n[Departure ATIS] KLAX DEP ATIS Z 1853Z LAX ATIS INFO Z 1853Z. 17004KT 10SM FEW012 FEW050 28/18 A2984 (TWO NINER EIGHT FOUR) RMK AO2 SLP101 T02780183. INST APCHS AND RNAV RNP APCHS RY 24R AND 25L, OR VCTR FOR VISUAL",
    "KONT": "[Arrival ATIS] KONT ARR ATIS M 1653Z ONT ATIS INFO M 1653Z. 00000KT 10SM FEW050 FEW200 29/15 A2985 (TWO NINER EIGHT FIVE). ILS AND VIS APR IN USE, RY26L & RY26R. LNDG AND DEPG RY 26L AND RY 26R. NOTAMS... TAXIWAY SIERRA FIVE CLOSED. TAXIWAY SIERRA CLOSED BETWEEN TAXIWAY SIERRA 8 AND TAXIWAY WHISKEY. RY 26L IM OTS, RY 26R ALS OTS. USE CAUTION FOR NUMEROUS BIRDS OBSERVED IN VICINITY OF ONT. HAZD WX INFO FOR SOUTHERN CA AVBL ON FSS FREQUENCIES. PILOTS READBACK RWY ASSIGNMENTS AND HOLD SHORT INSTRUCTIONS. ...ADVS YOU HAVE INFO M.\n[Departure ATIS] KONT DEP ATIS N 0553Z - KONT ATIS INFO N 0553Z. 24004KT 10SM BKN250 22/15 A2988 (TWO NINER EIGHT EIGHT) RMK AO2 SLP100. ILS AND VIS APR IN USE, RY26L & RY26R. LNDG AND DEPG RY 26L AND RY 26R. NOTAMS... TAXIWAY SIERRA CLSD BETWEEN SIERRA 8 AND W TAXIWAY Q SOUTH OF RWY 26L CLSD TAXIWAY T CLSD TAXIWAY SIERRA 5 CLSD. RY 26L IM OTS, RY 26R ALS OTS. USE CAUTION FOR NUMEROUS BIRDS OBSERVED IN VICINITY OF ONT. HAZD WX INFO FOR SOUTHERN CA AVBL ON FSS FREQUENCIES. PILOTS READBACK RWY ASSIGNMENTS AND HOLD SHORT INSTRUCTIONS. ...ADVS YOU HAVE INFO N.",
    "KSFO": "[Arrival ATIS] KSFO ARR ATIS Z 1556Z SFO ATIS INFO Z 1556Z. 24005KT 10SM FEW005 OVC009 14/12 A2995 (TWO NINER NINER FIVE). SIMUL CLSLY SPCD DPNDNT ILS RY 28R AND ILS RY 28L APP IN USE. DEPG RWYS 28L, 28R. DEPG ACFT SHOULD BE PREPARED FOR A SHORT NOTICE RY CHANGE. RY 1L, 1R CLSD. NUMEROUS TWY CLOSURES FOR CONSTRUCTION ON THE FIELD, PILOTS CHECK NOTAMS. MULTIPLE CRANES VCY OF SFO CHECK NOTAMS. DEPG ACFT WAITING ON FINAL NUMBERS ADVISE GROUND PRIOR TO ENTERING TWY F. ...ADVS YOU HAVE INFO Z.\n[Departure ATIS] KSFO DEP ATIS T 1456Z SFO ATIS INFO T 1456Z. 00000KT 10SM SCT140 BKN200 18/13 A2991 (TWO NINER NINER ONE) RMK AO2 SLP128 T01780133 53008. SIMUL CLSLY SPCD DPNDNT ILS RY 28R AND ILS RY 28L APP IN USE. DEPG RWYS 28L, 28R. RY 1L, 1R CLSD. NUMEROUS TWY CLOSURES FOR CONSTRUCTION ON THE FIELD, PILOTS CHECK NOTAMS. DEPG ACFT WAITING ON FINAL NUMBERS ADVISE GROUND PRIOR TO ENTERING TWY F. ...ADVS YOU HAVE INFO T.",
    "KOAK": "[Arrival ATIS] KOAK ARR ATIS T 2053Z - KOAK ATIS INFO T 2053Z. 25015KT 10SM FEW008 20/13 A2994 (TWO NINER NINER FOUR). RNAV, AND VA, RWY 30. ILS, AND VA, RWY 28R. FLOW TO LAX, LAS, SAN, SEA. RWY 28L CLSD. TAXIWAYS GOLF, HOTEL, PAPA, JULIET BETWEEN RUNWAYS 28 RIGHT AND 28 LEFT CLOSED. ILS RWY 30, OTS, RWY 28R RAIL, OTS. UNN LIT CLOSE-IN OBSTACLES FOR RWY 30 DEPARTURES. RWY 30 DEPARTURES ARE ADVISED TO AVOID TURNING LEFT PRIOR TO DEPARTURE END OF RUNWAY. CTN, CRANE 1 POINT 6 NAUTICAL MILES, , AT 140 FEET AGL. CAUTION, BIRDS NEAR AIRPORT. ...ADVS YOU HAVE INFO T.\n[Departure ATIS] KOAK DEP ATIS O 1953Z OAK ATIS INFO O 1953Z. 28014KT 10SM FEW005 22/14 A2988 (TWO NINER EIGHT EIGHT). RNAV Z/VA RWY 30 ILS/VA RWY 28R. FLOW TO LAX, LAS, SAN. ILS RWY 30, OTS. UNN LIT CLOSE-IN OBSTACLES FOR RWY 30 DEPARTURES. RWY 30 DEPARTURES ARE ADVISED TO AVOID TURNING LEFT PRIOR TO DEPARTURE END OF RUNWAY. SIGNATURE UNI-COM OUT OF SERVICE. CAUTION, BIRDS NEAR AIRPORT. ...ADVS YOU HAVE INFO O.",
    "KDFW": "[Arrival ATIS] KDFW ARR ATIS V 1853Z DFW ARR INFO V 1853Z. 20011G20KT 10SM FEW037 FEW046TCU SCT160 BKN250 33/21 A3006 (THREE ZERO ZERO SIX). SIMUL APCH IN USE. EXPECT ILS TO RWYS, 13R, 18R, 17C, 17L. LDG RWY 17C EXP LAHSO TWY B 10460 FT AVAIL, LDG RWY 18R EXP LAHSO TWY B 10100 FT AVL. NOTICE TO AIRMEN. WARNING, RWY 18L HAS BEEN SHORTENED, 9273 FT AVAILABLE. HAZD WX FOR DFW AVBL ON FSS. BIRD ACTIVITY VCNTY ARPT. ...ADVS YOU HAVE INFO V.\n[Departure ATIS] KDFW DEP ATIS F 1453Z DFW DEP INFO F 1453Z. 11005KT 10SM SCT020 BKN030 BKN055 BKN250 27/22 A3008 (THREE ZERO ZERO EIGHT) RMK AO2 SLP178 T02720217 51013. SIMUL PARL TRAFFIC DEPG RWYS 17R, 18L. NOTICE TO AIRMEN. WARNING, RWY 18L HAS BEEN SHORTENED, 9273 FT AVAILABLE. HAZD WX FOR DFW AVBL ON FSS. BIRD ACTIVITY VCNTY ARPT. ...ADVS YOU HAVE INFO F.",
    "KIAH": "[Arrival ATIS] KIAH ARR ATIS P 0853Z - KIAH ATIS INFO P 0853Z. 10004KT 7SM FEW019 SCT200 BKN250 25/24 A3005 (THREE ZERO ZERO FIVE) RMK AO2 SLP177 T02500244 55009. ARRIVALS EXPECT ILS OR RNAV Y RY 26L, ILS OR RNAV Y RY 8L. SIMUL APPROACHES IN USE. DEPG RY 15L. NOTICE TO AIRMEN. UAL RAMP PROCEDURES TERMINATED PUSH BACK AT PILOTS DISCRETION. BIRD ACTIVITY VICINITY ARPT. CRANES ARE DOWN. TWY SA CLSD BTN TWY, SF AND TWY SK , TWY SB CLSD BTN TWY, SF AND TWY SK , , TWY EA CLSD. NOTAM ATIS IN USE ON FREQUENCY 126.225. ...ADVS YOU HAVE INFO P.\n[Departure ATIS] KIAH DEP ATIS T 0353Z IAH ATIS INFO T 0353Z. 15007KT 10SM FEW035 FEW180 BKN250 27/23 A2996 (TWO NINER NINER SIX). ARRIVALS EXPECT ILS OR RNAV Y RY 8R, ILS OR RNAV Y RY 8L. DEPG RY 15R. NOTICE TO AIRMEN. UNITED RAMP CONTROL IN EFFECT. RY 15L, 33R CLSD. HAZD WX INFO FOR IAH AREA AVBL FM FSS. BIRD ACTIVITY VICINITY ARPT. CRANES ARE DOWN. TWY SA CLSD BTN TWY, SF AND TWY SK , TWY SB CLSD BTN TWY, SF AND TWY SK , , TWY WB CLSD BTN TWY, WG AND TWY WH . TWY EA CLSD. NOTAM ATIS IN USE ON FREQUENCY 126.225. ...ADVS YOU HAVE INFO T.",
    "KORD": "[Arrival ATIS] KORD ARR ATIS Z 1751Z ORD ATIS INFO Z 1751Z. VRB03KT 1 3/4SM FU OVC023 32/21 A3006 (THREE ZERO ZERO SIX) RMK AO2 SLP172 T03220206 10322 20244 58008. ARR EXP VECTORS ILS RWY 9L APCH, ILS PRM RWY 10C APCH, ILS PRM Y RY 10R APCH. CTN RY 10R LOC IS OFFSET 2.5 DEGREES. SIMUL APCHS IN USE. DEPS EXP RWYS 9C FROM F F 9200 FT AVL, 10L FROM DD. 10,093 FT AVBL. ATTN PILOTS. SIMUL PARL DEPS IN USE. EXP TO INITIALLY FLY RWY. RWY 4L, 22R CLSD. RWY 22R LOC OTS, RWY 28L GS OTS, RWY 9L IM OTS, RWY 9C IM OTS, RWY 10L IM OTS, RWY 10R IM OTS, RWY 27R IM OTS, RWY 28L IM OTS, RWY 28R IM OTS, RWY 9L PAPI OTS, RWY 27R PAPI OTS. PILOTS USE CTN FOR BIRD ACTIVITY IN THE VICINITY OF THE ARPT. USE CTN FOR PERSONNEL AND EQUIP AT NUMEROUS SITES ON THE FIELD. AUTHORIZED DRONE ACTIVITY, OVER TERMINAL, , 100 FEET. READBACK ALL RWY HOLD SHORT INSTRUCTIONS. WHEN READY TO TAXI CONTACT GND METERING ON FREQ 121.67. ...ADVS YOU HAVE INFO Z.\n[Departure ATIS] KORD DEP ATIS J 2051Z ORD ATIS INFO J 2051Z. 28004KT 10SM FEW050 BKN300 34/20 A3003 (THREE ZERO ZERO THREE) RMK AO2 SLP162 T03440200 58013. ARR EXP VECTORS ILS RWY 10C APCH, VISUAL APCH RWY 9L, V",
    "KJFK": "[Arrival ATIS] KJFK ARR ATIS A 1551Z JFK ATIS INFO A 1551Z. 11008KT 10SM BKN070 OVC150 22/17 A3000 (THREE ZERO ZERO ZERO). APPROACH IN USE ILS RY 22L, ILS RY 22R. DEPG RY 22R. RY 22L PAPI OTS, RWY 22L/4R INNER MARKER OTS.RWY 13L FLASHERS OTS. NUM CRANES OPERATING AT JFK. BIRD ACTIVITY VICINITY ARPT. READBACK ALL RWY ASSIGNMENTS AND HOLD SHORT INSTRUCTIONS. ...ADVS YOU HAVE INFO A.\n[Departure ATIS] KJFK DEP ATIS K 1551Z - KJFK ATIS INFO K 1551Z. 27010KT 7SM BKN046 OVC300 28/16 A2991 (TWO NINER NINER ONE) RMK AO2 SLP128 FU OVC300 T02830161. APPROACH IN USE ILS RY 31R, ILS RY 31L. DEPG RY 31L. RWY 4R, 22L CLSD. RY 13L SFL OTS, RWY 22L/4R INNER MARKER OTS. NUM CRANES OPERATING AT JFK. BIRD ACTIVITY VICINITY ARPT. READBACK ALL RWY ASSIGNMENTS AND HOLD SHORT INSTRUCTIONS. ...ADVS YOU HAVE INFO K.",
    "KIND": "[Arrival ATIS] KIND ARR ATIS V 1754Z - KIND ATIS INFO V 1754Z. 30008KT 10SM SCT049 BKN060 BKN300 32/21 A3007 (THREE ZERO ZERO SEVEN). PARL ILS RWY 23R AND 23L APPROACHES IN USE. CROSS RUNWAY OPERATIONS MAY BE IN EFFECT. NOTICE TO AIRMEN. LOC RWY 5R OTS. TWY, P BTN TWY, H AND TWY B CLSD, TWY, P BTN TWY, H AND TWY J CLSD, TWY, H BTN TWY, R AND TWY N CLSD. P PAD CLSD. ILS RUNWAY 5R AND RUNWAY 5L INNER MARKER UNSERVICEABLE. ...ADVS YOU HAVE INFO V.\n[Departure ATIS] KIND DEP ATIS H 1854Z IND ATIS INFO H 1854Z. 26009G19KT 10SM SCT036 BKN041 BKN170 23/16 A2981 (TWO NINER EIGHT ONE) RMK AO2 SLP088 T02280156. PARL ILS RWY 23R AND 23L APPROACHES IN USE. CROSS RU",
    "KDTW": "[Arrival ATIS] KDTW ARR ATIS B 1017Z DTW ARR INFO B 1017Z SPECIAL. 00000KT 1SM R03R/P6000FT FU SCT000 OVC031 22/16 A3004 (THREE ZERO ZERO FOUR) RMK AO2 TWR VIS 2 FU SCT000 T02170156. SIMUL ILS Z RY 4L AND RY 3R APCH IN USE. NOTICE TO AIRMEN. RWY 21R, 3L CLSD, RWY 27L, 9R CLSD, RWY 27R, 9L CLSD. TWYS Y1 CLSD ;. PILOTS USE CTN FOR BIRD ACTIVITY. DEPARTURE ATIS 118.125. ...ADVS YOU HAVE INFO B.\n[Departure ATIS] KDTW DEP ATIS N 0953Z DTW DEP INFO N 0953Z. 35003KT 1SM R03R/P6000FT FU SCT000 OVC027 22/16 A3004 (THREE ZERO ZERO FOUR) RMK AO2 TWR VIS 2 SLP167 FU SCT000 T02170161. DEPG RWY 4R. . RWY 4R DEPARTURE POINT IS Y 2, DISTANCE REMAINING IS 11, THOUSAND, 450, FT, FULL LENGTH AVAIL UPON REQ ;. NOTICE TO AIRMEN. RWY 21R, 3L CLSD, RWY 27L, 9R CLSD, RWY 27R, 9L CLSD. TWYS Y1 CLSD ;. PILOTS USE CTN FOR BIRD ACTIVITY. TWR AND GC COMB ON FREQ 135.0. ...ADVS YOU HAVE INFO N.",
    "KMSP": "[Arrival ATIS] KMSP ARR ATIS M 1839Z MSP ARR INFO M 1839Z SPECIAL. 00000KT 3SM FU SCT026 SCT032 BKN042 31/21 A3004 (THREE ZERO ZERO FOUR) RMK AO2 T03110211. SIMULTANEOUS DEPENDENT, ILS RWY 12R APCH IN USE, LOCA\n[Departure ATIS] KMSP DEP ATIS W 1653Z - KMSP DEP INFO W 1653Z. VRB03KT 1 1/2SM FU BKN000 OVC022 30/21 A3007 (THREE ZERO ZERO SEVEN) RMK SFC VIS 1 3/4 FU BKN000. DEPARTING RWY 12L, RWY 12R, RWY 17. NOTICE TO AIRMEN. RWYS 4, 22 CLSD. TWY R7. R8. R9. R10. CLOSED. TWY R BTWN R6 AND R10 CLSD, USE CAUTION, NUMEROUS TAXIWAY CLOSURES, TWY A7 CLSD, TWY A CLSD BTN TWY, A7 AND TWY D, TWY M CLSD BTN TWY, P AND TWY M6, TWY Q CLSD BTN TWY, C AND TWY M. ALL ACFT CTC METERING ON ONE THREE THREE POINT FIVE SEVEN WHEN READY TO PUSHBACK OR TAXI. CTN, BIRDS NEAR MSP. READ BACK HS AND ALT. ALL ACFT TAXI WITH TRANSPONDER AND ALTITUDE ENCODING ON. ...ADVS YOU HAVE INFO W.",
    "CYEG": "[Arrival ATIS] CYEG ARR ATIS K 1900Z 27004KT 210V280 20SM FEW027 23/16 A3001 APCH RNAV Z OR Y RWY 20, INFORM ARRL OF REQ APCH ON INITIAL CTC. LDG AND DEP RWY 20. SIMUL APPROACHES MAY BE IN EFCT. PAPI RWY 20 UNSERVICEABLE. INFORM CYEG ATC INFO K\n[Departure ATIS] CYEG DEP ATIS J 1800Z CYEG ARR ATIS J 1800Z VRB03KT 20SM FEW022 FEW250 22/17 A3002 APCH RNAV Z OR Y RWY 20, INFORM ARRL OF REQ APCH ON INITIAL CTC. LDG AND DEP RWY 20. SIMUL APPROACHES MAY BE IN EFCT. PAPI RWY 20 UNSERVICEABLE. INFORM CYEG ATC INFO J",
    "EHAM": "[Arrival ATIS] EHAM ARR ATIS B 1920Z EHAM ARRIVAL INFO B. DEMAND. MAIN LANDING RWY 06. TRANSITION LEVEL 040. WIND 020 DEG, 7 KT, VRB BTN 350 AND 050 DEG. CAVOK. T 21. DP 15. QNH 1016 HPA. NOSIG. OPERATIONAL REPORT. CONTACT APCH WITH CALLSIGN ONLY. END OF INFO B\n[Departure ATIS] EHAM DEP ATIS S 1850Z EHAM DEPARTURE INFO S. DEMAND. MAIN DEPARTURE RWY 36 L. SECONDARY DEPARTURE RWY 36 C. MAIN LANDING RWY 06. WIND 020 DEG, 8 KT, VRB BTN 290 AND 070 DEG, 16 KT MAX, 6 KT MNM. WIND SECONDARY RUNWAY 020 DEG, 8 KT. CAVOK. T 22. DP 14. QNH 1016 HPA. OPERATIONAL REPORT. INDEPENDENT PARALLEL DEPARTURES IN PROGRESS CHECK CORRECT SID IN FMS. INFORM SCHIPHOL DEL BY VOICE IF UNABLE TO COMPLY WITH NADP 2. END OF INFO S",
    "EBBR": "[Arrival ATIS] EBBR ARR ATIS T 1820Z EBBR NAT, EXP VECT FOR ILS APP ARR RWY25L RSCD AT 1458 RWY25L DRY. DEP RWY25R TRL 055 TAIL OPS. RNP RWY 25R AVBL AT ATC DISCRETION TAIL REP AT 1805, ALT 1000FT, 020 DEG/10 KT 010/8KT CAVOK T26 DP15 QNH 1015HPA NOSIG CFM ARR T\n[Departure ATIS] EBBR DEP ATIS E 0850Z EBBR NAT, DEP RWY07R RSCD AT 0637 RWY07L RSCD AT 0648 RWY07R DRY. RWY07L DRY. ARR RWY01 TRL 055 XNG RWY OPS INPR 010/7KT VRB BTN 340 AND 090 CAVOK T24 DP15 QNH 1019HPA NOSIG CFM DEP E",
    "EDDF": "[Arrival ATIS] EDDF ARR ATIS S 1920Z ARR-ATIS EDDF S METAR 161920 EXPECT DEPENDENT PARALLEL ILS Z APCH RWY 25R OR ILS APCH RWY 25L RWY 25R 25L DO NOT MISTAKE TWY M FOR RWY 25C WHEN PERFORMING VISUAL APPROACH , RWY COND AT TIME 1700 : ALL RWYS WET , RWYCC 5 , ATTN , RWY 25R , RWYCODE FIRST PART 5 , MIDPOINT 5 STOPEND 3 TRL 70 CAUTION : HIGH BIRD ACTIVITY IN THE VCY OF THE AD , 36005KT 330V030 CAVOK T21 DP17 QNH1013 TREND NOSIG END OF ATIS S\n[Departure ATIS] EDDF DEP ATIS I 1920Z -DEP-ATIS EDDF I METAR 161920 - -RWY 25C 18 -ALL DEPARTING ACFT VIA OBOKA , MARUN AND TOBAK EXPECT SID WITH DESIGNATOR F OR G , RWY COND AT TIME 1700 : ALL RWYS WET , R",
    "EDDL": "[Arrival ATIS] EDDL ARR ATIS K 1750Z -ATIS EDDL K METAR 161750 -EXPECT VECTORS ILS APPROACH -RWY 05R -ATTENTION, RISK OF TWY INCURSION WHEN TAXIING TO RWY05R, CHECK HOT SPOTS T1 AND L9 ON TAXI CHART -TRL 60 -EXPECT INTENSE BIRD ACTIVITY IN THE VICINITY OF RWY SYSTEM -01010KT -CAVOK - - -T27 DP13 -QNH1014 - -TREND NOSIG\n[Departure ATIS] EDDL DEP ATIS R EDDL ARR/DEP DATIS RPT -ATIS EDDL R METAR 020550 -EXPECT VECTORS ILS APPROACH -RWY 23L -TWY L8 CLOSED BETWEEN TWY M AND RWY 23L -TRL 60 - -23010KT -CAVOK - - -T19 DP13 -QNH1020 - -TREND NOSIG",
    "EDDK": "[Arrival ATIS] EDDK ARR ATIS I 1750Z -ATIS EDDK I METAR 161750 -EXPECT ILS OR RNP APCH -RWY 13L 06 -RWY COND RWY 13L AT TIME 1315 RWYCC 6 DEPOSIT TOTAL RWY DRY RWY 06 AT TIME 1315 RWYCC 6 DEPOSIT TOTAL RWY DRY -TRL 60 -RWY 13R AND RWY 31L CLOSED FOR DEPARTURE AND LANDING: TAXIING BTN THR RWY 13R AND INTERSECTION RWY 24 POSSIBLE : -08003KT 050V110 -CAVOK - - -T28 DP14 -QNH1014 - -TREND NOSIG\n[Departure ATIS] EDDK DEP ATIS E 2050Z -ATIS EDDK E METAR 142050 -EXPECT CDO FOR ILS APCH RWY 31R -RWY 31R 06 -RWY COND RWY 31R AT TIME 1837 RWYCC 6 DEPOSIT TOTAL RWY DRY RWY 06 AT TIME 1837 RWYCC 6 DEPOSIT TOTAL RWY DRY -TRL 60 -RWY 13R AND RWY 31L CLOSED FOR DEPARTURE AND LANDING: TAXIING BTN THR RWY 13R AND INTERSECTION RWY 24 POSSIBLE : -02006KT 350V050 -CAVOK - - -T23 DP14 -QNH1018 - -TREND NOSIG",
    "EBLG": "[Arrival ATIS] EBLG ATIS U 1853Z EBLG INFO, EXP RNAV TO ILS APP ARR RWY04R DEP RWY04R RWY 04R DRY, RWYCC 666. TRL 055 ADZ ON GND FREQ IF UNABLE S2 160/9KT VRB BTN 110 AND 180 MNM6 MAX14 CAVOK T24 DP14 QNH 1014HPA NOSIG CFM ATIS U",
    "LSZH": "[Arrival ATIS] LSZH ARR ATIS I 1928Z ARRIVALS, EXP ILS APCH, RWY 14. TRL 70. DEP RWY 32. WIND 160 DEG, 8 KT. VIS 10 KM OR MORE, TDZ 10 KM OR MORE. CLD FEW 7000 FT. T 21. DP 17. QNH 1017. TREND TEMPO MOD TSRA.\n[Departure ATIS] LSZH DEP ATIS Q 1050Z DEP RWY 28. RWY COND REPORT. RWY 28. RWY COND CODE 6, 6, 6. COVERAGE NR, NR, NR. DEPTH NR, NR, NR. DRY AND DRY AND DRY. RWY 16. RWY COND CODE 6, 6, 6. COVERAGE NR, NR, NR. DEPTH NR, NR, NR. DRY AND DRY AND DRY. RWY REPORT END. TRL 70. ARRIVALS, EXP ILS APCH, RWY 14. TMA S 1 IS NOT ACT. TMA S 2 AND S 3 ARE NOT ACT. WIND VRB, 3 KT. CAVOK. T 28. DP 17. QNH 1019. NOSIG.",
    "LIMC": "[Arrival ATIS] LIMC ARR ATIS C 1050Z LIMC ARR C 1050Z I.L.S. ZULU RWY IN USE 35L TL 70 WIND TDZ VRB4KT CAVOK T31 DP17 QNH 1018HPA QFE 0993HPA\n[Departure ATIS] LIMC DEP ATIS V 0920Z LIMC DEP V 0920Z RWY IN USE 35R TL 70 WIND END VRB2KT CAVOK T29 DP17 QNH 1018HPA QFE 0993HPA DATALINK CLEARANCE AVAILABLE.... CONTACT 1 3 1 8 8 0 TO BE RELEASED BY THE AIRPORT OPERATOR ...",
    "LIRF": "[Arrival ATIS] LIRF ARR ATIS E 1620Z LIRF ARR E 1620Z RWY 16L ILS W RWY 16R ILS Z RWY IN USE 16L 16R TL 70 DEPENDENT PARL ILS APCH INPR RWY IN USE 16R OR 16L ASSIGNED BY ROME RADAR WIND RWY 16L TDZ 330/5KT VRB BTN 320/AND 030/ RWY 16R TDZ 320/5KT VRB BTN 300/AND 050/ VIS RWY 16L 10KM RWY 16R 10KM FBL RA CLD RWY 16L NSC RWY 16R FEW 3500FT T27 DP17 QNH 1017HPA RRSM\n[Departure ATIS] LIRF DEP ATIS L 1120Z LIRF DEP L 1120Z RWY IN USE 25 TL 70 RWYS IN USE FOR ARR 16L AND 16R WIND END 260/8KT VRB BTN 230/AND 320/ CAVOK T31 DP23 QNH 1017HPA REA IS SENT AUTOMATICALLY ONCE RLSD BY RAMP WHEN READY CONTACT FIUME RAMP 121.725 RRSM",
    "EINN": "[Arrival ATIS] EINN ARR ATIS U 1900Z EXPECT I L S CATEGORY 1 LDG RWY06 TKOF RWY06 TRL FL060 03004KT 350V060 CAVOK 27/14 QNH Q1019 TREND NOSIG ADVISE AT FIRST CONTACT YOU HAVE ATIS INFO U",
    "EGLL": "[Arrival ATIS] EGLL ARR ATIS L 1920Z LANDING RWY 09L TRANSITION-LEVEL: FL 70 RUNWAY 09L REDUCED DECLARED DISTANCES IF STAND GUIDANCE IS OFF OR FAILS, REMAIN ON THE TAXIWAY CENTRELINE AND ADVISE ATC AUTO 10013KT 9999 NCD 24/11 Q1017 ACKNOWLEDGE RECEIPT OF INFORMATION L\n[Departure ATIS] EGLL DEP ATIS O 1620Z DEPARTURE RWY 09R PILOTS THAT ARE IN RECEIPT OF DATALINK CLEARANCES ARE REMINDED THEY MUST CONTACT DELIVERY ON 121.980 WHEN READY FOR START DATALINK CLEARANCES NOT AVAILABLE FOR CPT DEPARTURES DET VOR OOS AUTO 09014KT 9999 NCD 27/17 Q1024 ACKNOWLEDGE RECEIPT OF INFORMATION O AND REPORT AIRCRAFT TYPE AND CURRENT QNH ON FIRST CONTACT WITH HEATHROW",
    "EPWA": "[Arrival ATIS] EPWA ARR ATIS I 1931Z EPWA ARR I. TIME 1930. EXP N ARR ILS Z APCH FOR RWY 11. TRANSITION LEVEL 80. WIND 060 DEG, 6 KT. CAVOK. T 26. DP 13. QNH 1018. NOSIG. CAUTION. BIRD ACT. END OF EPWA ARR I\n[Departure ATIS] EPWA DEP ATIS X 1501Z EPWA DEP X. TIME 1500. DEP RWY 29. ARR RWY 33, EXP U ARR ILS Z. REPORT READY FOR STARTUP ON DELIVERY 121 DECIMAL 605. TRANSITION LEVEL 80. WIND VRB, 1 KT. CAVOK. T 29. DP 11. QNH 1019. NOSIG. CAUTION. BIRD ACT. END OF EPWA DEP X",
    "EFHK": "[Arrival ATIS] EFHK ARR ATIS T 1620Z EXPECT ILS APCH ARR RWY 22L RUNWAY 22L CONDITION REPORT AT 1256 UTC RUNWAY CONDITION CODES 6 , 6 , 6 CONTAMINANTS ALL PARTS DRY TRL 60 WIND 320 DEG 10 KT VRB BTN 280 AND 350 DEG CAVOK T 21 DP 4 QNH 1019 NOSIG ACK INFO T\n[Departure ATIS] EFHK DEP ATIS B 1059Z DEP RWY 22R RUNWAY 22R CONDITION REPORT AT 0751 UTC RUNWAY CONDITION CODES 6 , 6 , 6 CONTAMINANTS ALL PARTS DRY WIND 300 DEG 7 KT VRB BTN 250 AND 330 DEG CAVOK T 21 DP 8 QNH 1020 NOSIG ACK INFO B",
    "LTAC": "[Arrival ATIS] LTAC ARR ATIS D 1020Z EXP ILS V APCH 03C DEP RWY 03L RWY 03C WIND 070 DEG 08 KT VRB BTN 010 DEG AND 150 DEG RWY 03L WIND VRB 06 KT TRL 110 VIS 9999 SCT04000 FT T 28 DP 09 QNH 1017 NOSIG FOR DELIVERY CTC 121.9. FOR DELIVERY FIRST USE DIGITAL DEP CLR. CTN BIRD HAZARD OVR AERODROME. APCH FREQUENCY 129.050. END OF ATIS D",
    "UBBB": "[Arrival ATIS] UBBB ARR ATIS M 1600Z ATIS M EXP ILS/ LDG 34 35 DEP 34 35 IN USE RWY 34 CLEAR DRY 70 RWY 35 CLEAR DRY 70 TLVL 110 WIND WIND RWY 34 330 12 KT SPD MAX 16 MIN 10 WIND RWY 35 330 14 KT SPD MAX 18 MIN 12 VIS CAVOK T 23 / DP 16 QNH 1015 HPA TREND TREND NOSIG MODERATE BIRDS ACT IN VICINITY OF AP END OF ATIS M\n[Departure ATIS] UBBB DEP ATIS S 0620Z ATIS S EXP ILS/ LDG 34 35 DEP 34 35 IN USE RWY 34 CLEAR DRY 70 RWY 35 CLEAR DRY 70 TLVL 110 WIND WIND RWY 34 340 22 KT SPD MAX 28 MIN 16 WIND RWY 35 330 24 KT SPD MAX 30 MIN 16 VIS CAVOK T 30 / DP 19 QNH 1010 HPA TREND TREND NOSIG MODERATE BIRDS ACT IN VICINITY OF AP END OF ATIS S",
    "ZWWW": "[Arrival ATIS] ZWWW ARR ATIS N 1630Z EXP ILSDME Z APCH LDG RWY 26R TA 3000 WIND 160/3MPS CAVOK T 28 /DP 08 QNH 1006 HPA ADZ YOU HAVE INFO N.\n[Departure ATIS] ZWWW DEP ATIS B 1200Z DEP RWY 26L TA 3000 WIND 260/3MPS VRB BTN 230/ AND 290/ CAVOK T 30 /DP 07 QNH 1006 HPA ADZ YOU HAVE INFO B.",
    "ZLXY": "[Arrival ATIS] ZLXY ARR ATIS F 1500Z EXP ILS APCH LDG RWY 23R & 24L WIND 260/5MPS VIS 9999M -RA CLD FEW 1500M /BKN 2100M T 25 /DP 21 QNH 1005 HPA VISUAL APPROACH IN PROGRESS ADZ YOU HAVE INFO F.\n[Departure ATIS] ZLXY DEP ATIS Z 1100Z DEP RWY 05L & 06L WIND 040/3MPS VRB BTN 010/ AND 070/ VIS 4500M -RA BR CLD SCT 240M /SCT 600M /OVC 1200M T 19 /DP 18 QNH 1011 HPA RUNWAY 05L SURFACE CONDITION CODE 555 RUNWAY 06L SURFACE CONDITION CODE 555 RUNWAY 06R SURFACE CONDITION CODE 555 ADZ YOU HAVE INFO Z.",
    "ZBAA": "[Arrival ATIS] ZBAA ARR ATIS V 1630Z EXP ILS APCH DEPENDENT PARL INSTR APCH LDG RWY 36L & 36R WIND 350 DEG 7 MPS CAVOK T 20 /DP 17 QNH 1006 HPA VISUAL APPROACH IS IN PROGRESS. RWY 36L RWYCC 5/5/5 ISSUED AT 1144 ALL PARTS WET NR 100PCT RWY 36R RWYCC 5/5/5 ISSUED AT 1144 ALL PARTS WET NR 100PCT RWY 01 RWYCC 5/5/5 ISSUED AT 1143 ALL PARTS WET NR 100PCT ADZ YOU HAVE INFO V.\n[Departure ATIS] ZBAA DEP ATIS T 1618Z DEP RWY 18R & 18L WIND 150 DEG 6 MPS 110V170 DEG VIS 9999 -SHRA NSC T 20 /DP 17 QNH 1005 HPA RWY INDEPENDENT PARALLEL DEP VISUAL APPROACH IS IN PROGRESS. RWY 18R RWYCC 5/5/5 ISSUED AT 1144 ALL PARTS WET NR 100PCT RWY 18L RWYCC 5/5/5 ISSUED AT 1144 ALL PARTS WET NR 100PCT RWY 19 RWYCC 5/5/5 ISSUED AT 1144 ALL PARTS WET NR 100PCT ADZ YOU HAVE INFO T.",
    "ZBHH": "[Arrival ATIS] ZBHH ARR ATIS A 1600Z EXP ILSDME APCH LDG RWY 08 TA 3000 /TRL 3600 WIND 040/3MPS CAVOK T 15 /DP 11 QNH 1008 HPA ADZ YOU HAVE INFO A.\n[Departure ATIS] ZBHH DEP ATIS Q 1500Z DEP RWY 08 TA 3000 /TRL 3600 WIND 140/2MPS VIS 5000M BR NSC T 19 /DP 19 QNH 1007 HPA ADZ YOU HAVE INFO Q.",
    "ZSQD": "[Arrival ATIS] ZSQD ARR ATIS E 1400Z EXP ILSDME APCH DEPENDENT PARL INSTR APCH LDG RWY 17 & 16 TA 3000 /TRL 3600 WIND 150/2MPS CAVOK T 22 /DP 20 QNH 1009 HPA VISUAL APPROACH OPERATION IN PROGRESS. WHEN READY CONTACT QINGDAO TOWER ON 118.7 RUNWAY 17,IF MISSED APPROACH,EXPECT FOLLOW THE STANDARD MISSED APPROACH PROCEDURE,CLIMB TO 900M ON QNH OR BY ATC RUNWAY 16,IF MISSED APPROACH,EXPECT FOLLOW THE STANDARD MISSED APPROACH PROCEDURE,CLIMB TO 600M ON QNH OR BY ATC CAUTION MAYBE THERE IS A FLOCK OF BIRDS IN THE VICINITY OF AIRPORT ADZ YOU HAVE INFO E.\n[Departure ATIS] ZSQD DEP ATIS Y 2112Z DEP RWY 16 TA 3000 /TRL 3600 WIND 140/2MPS VIS 4000M BR CLD FEW 450M T 22 /DP 21 QNH 1009 HPA VISUAL APPROACH OPERATION IN PROGRESS. WHEN READY CONTACT QINGDAO TOWER ON 118.7 RUNWAY 16,IF MISSED APPROACH,EXPECT FOLLOW THE STANDARD MISSED APPROACH PROCEDURE,CLIMB TO 600M ON QNH OR BY ATC CAUTION MAYBE THERE IS A FLOCK OF BIRDS IN THE VICINITY OF AIRPORT ADZ YOU HAVE INFO Y."
  },
  "windtemp_alaska": "\n000\nFBAK31 KWNO 161358\nFD1AK1\nDATA BASED ON 161200Z    \nVALID 161800Z   FOR USE 1400-2100Z. TEMPS NEG ABV 24000\n\nFT  3000    6000    9000   12000   18000   24000  30000  34000  39000\nADK 3209 3207+01 3215-02 3225-07 3446-16 3463-27 358941 850349 348653\nADQ 1818 2017+02 2131+01 2337-02 2241-14 2249-25 235340 235349 225257\nAKN 1414 1713-02 2014-04 2021-07 2147-16 2061-27 217342 218449 224949\nANC 1408 1415+01 1611-04 1812-07 2326-16 2547-27 256543 257551 254751\nANN 3505 3007+10 2909+07 2809+02 2711-12 2515-23 241640 241350 300959\nBET 9900 0505-02 1107-08 1408-12 1612-22 1915-35 193644 202944 201841\nBRW 1005 9900+01 2107-04 2112-08 1916-20 1820-33 182848 162051 161543\nBTI 3611 0313+03 0315-02 0513-07 0412-18 0417-30 072746 073254 150842\nBTT 2809 9900+04 9900-03 0505-08 1406-20 1413-32 141749 131252 181143\nCDB 3124 3022+00 2822-04 2728-08 2737-22 2544-32 245840 235742 234644\nCZF 1608 1608-02 1609-08 9900-12 9900-23 1907-36 270546 310842 290741\nEHM 0210 0310-03 0309-07 0305-12 2405-22 2011-35 203543 213042 212442\nFAI 2516 2613+02 2712-04 9900-07 2306-20 1607-32 220748 251948 242044\nFYU 3016 3212+04 3215-01 3317-07 3212-19 3510-31 042049 030651 210642\nGAL 2606 9900+00 1508-04 1608-09 1518-21 1522-34 162248 192347 201743\nGKN 1613 1912+01 9900-04 2706-08 2719-19 2748-28 277243 277950 264247\nHOM 1515 1416-01 1320-05 2025-05 2344-14 2343-26 235642 246850 245855\nJNU 9900 9900+04 2709+02 2618-02 2738-12 2642-24 264740 275050 274358\nLUR 0613 1009+00 1413-06 1611-10 1813-22 1818-34 182047 171349 090542\nMCG 9900 1608-01 1618-05 1617-10 1618-21 2032-31 226345 235849 223045\nMDO 1413 1510+01 1908-02 2215-05 2637-14 2636-25 265040 266049 265457\nOME 9900 1506-01 1408-06 1407-12 1510-23 1318-35 121949 130844 990041\nORT      2610+02 2811-04 2712-09 2816-20 2923-33 285145 284846 272844\nOTZ 2611 2110+01 1908-04 1708-10 1615-21 1415-34 142249 141649 140742\nSNP 3119 3326-01 3331-04 3231-09 3332-23 3440-34 345346 344445 333143\nTKA 1908 1812+00 1611-05 1710-08 2316-19 2435-29 256943 257550 254249\nUNK 9900 9900-02 1108-06 1307-11 1413-23 1516-35 161947 191945 201342\nYAK 9900 3205+01 2708+00 2614-04 2738-15 2753-25 275941 276650 275655\nIKO 3223 3226-01 3224-03 3122-07 2824-20 2724-33 262147 272946 282745\nAFM 9900 1605+02 1709-03 1515-09 1620-21 1623-33 162249 151550 161243\n5AB 2516 2916+07 3022+01 3229-01 3229-10 3331-22 323336 323346 343358\n5AC 3418 3415+10 3413+06 3308+02 3408-11 3412-23 321241 321151 341159\n5AD 2208 2412+08 2518+05 2623+01 2626-12 2627-24 263239 263449 263160\n5AE 2131 2340+08 2339+03 2241-01 2351-14 2358-25 236440 235849 225057\n5AF 3211 3014+07 2920+05 2822+01 2721-13 2721-24 272139 282348 292060\n5AG 9900 2707+03 2616+01 2728-02 2730-13 2634-25 264039 274748 274759\n",
  "vaac_tokyo": [
    {
      "id": "20260716_27303000_0755",
      "year": "2026",
      "volcano": "Mayon",
      "psn": "N1315 E12341",
      "issued": "20260716",
      "text": "FVFE01 RJTD 161900\nVA ADVISORY\nDTG: 20260716/1900Z\nVAAC: TOKYO\nVOLCANO: MAYON 273030\nPSN: N1315 E12341\nAREA: PHILIPPINES\nSOURCE ELEV: 2462M AMSL\nADVISORY NR: 2026/755\nINFO SOURCE: HIMAWARI-9 PHIVOLCS\nERUPTION DETAILS: ERUPTION AT 20260716/1623Z FL120 EXTD SSE REPORTED\nOBS VA DTG: 16/1840Z\nOBS VA CLD: VA NOT IDENTIFIABLE FM SATELLITE DATA WIND FL120 360/7KT\nFCST VA CLD +6 HR: NOT AVBL\nFCST VA CLD +12 HR: NOT AVBL\nFCST VA CLD +18 HR: NOT AVBL\nRMK: WE WILL ISSUE FURTHER ADVISORY IF VA IS DETECTED IN SATELLITE \nIMAGERY.\nNXT ADVISORY: NO FURTHER ADVISORIES=",
      "img_url": "https://ds.data.jma.go.jp/svd/vaac/data/VAGFN/2026/Images/20260716_27303000_0755_QH21_01.png",
      "sat_img_url": null,
      "text_url": "https://ds.data.jma.go.jp/svd/vaac/data/TextData/2026/20260716_27303000_0755_Text.html"
    },
    {
      "id": "20260716_30027000_0266",
      "year": "2026",
      "volcano": "Sheveluch",
      "psn": "N5639 E16122",
      "issued": "20260716",
      "text": "FVFE01 RJTD 161200\nVA ADVISORY\nDTG: 20260716/1200Z\nVAAC: TOKYO\nVOLCANO: SHEVELUCH 300270\nPSN: N5639 E16122\nAREA: RUSSIA\nSOURCE ELEV: 3283M AMSL\nADVISORY NR: 2026/266\nINFO SOURCE: HIMAWARI-9\nERUPTION DETAILS: VA CONTINUOUSLY OBS IN SATELLITE IMAGERY\nOBS VA DTG: 16/1120Z\nOBS VA CLD: SFC/FL230 N5556 E16558 - N5544 E16655 - N5425 E16745 - \nN5359 E17000 - N5312 E16918 - N5403 E16711 MOV SE 35KT\nFCST VA CLD +6 HR: 16/1720Z SFC/FL240 N5329 E17049 - N5230 E17321 - \nN5147 E17227 - N5314 E16939 - N5525 E16945 - N5436 E17056\nFCST VA CLD +12 HR: 16/2320Z SFC/FL250 N5118 E17628 - N5008 E17537 - \nN5210 E17232 - N5303 E17348 - N5459 E17402\nFCST VA CLD +18 HR: NO VA EXP\nRMK: THE RESPONSIBILITY FOR THIS ASH EVENT IS BEING TRANSFERRED TO \nVAAC ANCHORAGE. THE NEXT ADVISORY WILL BE ISSUED BY VAAC ANCHORAGE \nBY 1800UTC UNDER HEADER FVAK21 PAWU. WESTERN PART OF VA OBSCURED BY \nMET CLOUD.\nNXT ADVISORY: NO FURTHER ADVISORIES=",
      "img_url": "https://ds.data.jma.go.jp/svd/vaac/data/VAGFN/2026/Images/20260716_30027000_0266_QH21_01.png",
      "sat_img_url": "https://ds.data.jma.go.jp/svd/vaac/data/Sat/2026/Images/30027000/09-ir/20260716_1120_202607161200_ir.png",
      "text_url": "https://ds.data.jma.go.jp/svd/vaac/data/TextData/2026/20260716_30027000_0266_Text.html"
    },
    {
      "id": "20260715_27307000_0013",
      "year": "2026",
      "volcano": "Taal",
      "psn": "N1400 E12100",
      "issued": "20260715",
      "text": "FVFE01 RJTD 152348\nVA ADVISORY\nDTG: 20260715/2348Z\nVAAC: TOKYO\nVOLCANO: TAAL 273070\nPSN: N1400 E12100\nAREA: PHILIPPINES\nSOURCE ELEV: 311M AMSL\nADVISORY NR: 2026/13\nINFO SOURCE: HIMAWARI-9 PHIVOLCS\nERUPTION DETAILS: ERUPTION AT 20260715/2330Z FL030 EXTD ENE REPORTED\nOBS VA DTG: 15/2340Z\nOBS VA CLD: VA NOT IDENTIFIABLE FM SATELLITE DATA WIND FL030 170/2KT\nFCST VA CLD +6 HR: NOT AVBL\nFCST VA CLD +12 HR: NOT AVBL\nFCST VA CLD +18 HR: NOT AVBL\nRMK: WE WILL ISSUE FURTHER ADVISORY IF VA IS DETECTED IN SATELLITE \nIMAGERY.\nNXT ADVISORY: NO FURTHER ADVISORIES=",
      "img_url": "https://ds.data.jma.go.jp/svd/vaac/data/VAGFN/2026/Images/20260715_27307000_0013_QH21_01.png",
      "sat_img_url": null,
      "text_url": "https://ds.data.jma.go.jp/svd/vaac/data/TextData/2026/20260715_27307000_0013_Text.html"
    },
    {
      "id": "20260713_28208001_0083",
      "year": "2026",
      "volcano": null,
      "psn": "N3136 E13039",
      "issued": "20260713",
      "text": "FVFE01 RJTD 130254\nVA ADVISORY\nDTG: 20260713/0254Z\nVAAC: TOKYO\nVOLCANO: SAKURAJIMA (AIRA CALDERA) 282080\nPSN: N3136 E13039\nAREA: JAPAN\nSOURCE ELEV: 1117M AMSL\nADVISORY NR: 2026/83\nINFO SOURCE: JMA HIMAWARI-9\nERUPTION DETAILS: ERUPTED AT 20260713/0152Z FL100 EXTD N\nOBS VA DTG: 13/0230Z\nOBS VA CLD: SFC/FL100 N3136 E13039 - N3142 E13040 - N3141 E13044 - \nN3134 E13042 MOV NE 15KT\nFCST VA CLD +6 HR: 13/0830Z SFC/FL100 N3234 E13121 - N3145 E13155 - \nN3202 E13110 - N3227 E13051\nFCST VA CLD +12 HR: 13/1430Z SFC/FL100 N3318 E13206 - N3142 E13317 - \nN3134 E13226 - N3312 E13118\nFCST VA CLD +18 HR: NO VA EXP\nRMK: NIL\nNXT ADVISORY: 20260713/0600Z=",
      "img_url": "https://ds.data.jma.go.jp/svd/vaac/data/VAGFN/2026/Images/20260713_28208001_0083_QH21_01.png",
      "sat_img_url": "https://ds.data.jma.go.jp/svd/vaac/data/Sat/2026/Images/28208001/09-ir/20260713_0230_202607130254_ir.png",
      "text_url": "https://ds.data.jma.go.jp/svd/vaac/data/TextData/2026/20260713_28208001_0083_Text.html"
    }
  ],
  "vaac_alaska": [
    {
      "text": "\n000\nFVAK21 PAWU 161602\nVAAAK1\nVA ADVISORY\n\nDTG: 20260716/1600Z\n\nVAAC: ANCHORAGE\n\nVOLCANO: SHEVELUCH 300270\n\nPSN: N5639 E16122\n\nAREA: KAMCHATKA PENINSULA\n\nSOURCE ELEV: 10771 FT AMSL\n\nADVISORY NR: 2026/203\n\nINFO SOURCE: HIMAWARI\n\nERUPTION DETAILS: RESIDUAL VA VISIBLE IN SATELLITE IMAGERY.\n\nOBS VA DTG: 16/1600Z\n\nOBS VA CLD: SFC/FL230 N5304 E17158 - N5220 E17342 - N5144 E17242\n- N5226 E17109 - N5304 E17158 MOV SE 35KT\n\nFCST VA CLD +6HR: 16/2200Z SFC/FL230 N5203 E17446 - N5022 E17716\n- N4941 E17535 - N5125 E17317 - N5203 E17446 - N5203 E17446\n\nFCST VA CLD +12HR: 17/0400Z NO VA EXP\n\nFCST VA CLD +18HR: 17/1000Z NO VA EXP\n\nRMK: VAAC TOKYO HAS TRANSFERRED RESPONSIBILITY OF THIS EVENT\nTO VAAC ANCHORAGE. THIS ADVISORY UPDATES MESSAGE FVFE01 RJTD.\nVA PARTIALLY OBSCURED BY MET CLOUD. VA ALSO FADING QUICKLY...SC\n\nNXT ADVISORY: WILL BE ISSUED BY 20260716/2200Z=\n\n",
      "issued": "2026-07-16T16:02:00+00:00",
      "volcano": "Sheveluch",
      "psn": "N5639 E16122"
    }
  ]
}