{
  "updated_utc": "2026-07-20T15:26Z",
  "metar": {
    "RJAA": "METAR RJAA 201330Z 22003KT CAVOK 27/24 Q1008 NOSIG",
    "PANC": "SPECI PANC 201334Z VRB03KT 7SM RA BKN006 BKN019 OVC070 12/11 A3001 RMK AO2 P0006 T01170111",
    "PAFA": "METAR PAFA 201353Z 02005KT 10SM BKN075 BKN100 BKN150 18/09 A2989 RMK AO2 SLP125 T01780094 $",
    "PAED": "METAR PAED 201355Z COR 02006KT 8SM -RA FEW008 BKN041 OVC070 12/11 A3000 RMK AO2A SLP155 FEW008 E ALNG MTNS P0002 T01210108 $ COR 1407",
    "KSEA": "METAR KSEA 201353Z 03008KT 10SM SCT250 BKN300 17/11 A2999 RMK AO2 SLP161 T01670111 $",
    "ZSPD": "METAR ZSPD 201330Z 18005MPS CAVOK 31/26 Q1004 NOSIG",
    "ZSSS": "METAR ZSSS 201330Z 35002MPS 9999 -SHRA NSC 28/27 Q1003 RETSRA NOSIG",
    "RJFR": "METAR RJFR 201400Z 00000KT 9999 FEW020 SCT035 BKN050 29/24 Q1009",
    "VHHH": "METAR VHHH 201330Z 17007KT 120V200 9999 FEW010 30/25 Q1006 NOSIG",
    "RCTP": "METAR RCTP 201330Z 11005KT 080V140 9999 FEW015 SCT025 29/24 Q1008 NOSIG RMK A2979",
    "ZGSZ": "METAR ZGSZ 201400Z 16004MPS 9999 FEW020 29/27 Q1007 NOSIG",
    "WSSS": "METAR WSSS 201330Z VRB02KT 9999 FEW018 BKN300 28/23 Q1011 NOSIG",
    "WMKK": "METAR WMKK 201330Z 00000KT 8000 FEW010 27/26 Q1011 NOSIG",
    "WIDD": "METAR WIDD 201330Z 11003KT 070V140 9999 FEW014 27/24 Q1011 NOSIG",
    "VTBS": "METAR VTBS 201330Z 21007KT 9999 FEW020 31/21 Q1008 NOSIG",
    "VTBU": "METAR VTBU 201330Z 17006KT 9999 FEW020 29/27 Q1009 NOSIG",
    "ROAH": "METAR ROAH 201330Z 20007KT 9999 FEW010 28/27 Q1010",
    "VVDN": "METAR VVDN 201330Z VRB02KT 9999 FEW020 31/23 Q1007 NOSIG",
    "RCKH": "METAR RCKH 201330Z VRB04KT 9999 FEW014 SCT120 BKN160 29/24 Q1009 NOSIG RMK A2980",
    "KLAX": "METAR KLAX 201353Z 14003KT 6SM BR OVC009 21/18 A2994 RMK AO2 SLP137 T02060183 $",
    "KONT": "METAR KONT 201353Z 25003KT 10SM BKN190 BKN250 23/16 A2995 RMK AO2 SLP124 T02330161 $",
    "KSFO": "METAR KSFO 201356Z 30007KT 10SM FEW003 SCT100 BKN170 16/13 A2995 RMK AO2 SLP142 T01560133 $",
    "KOAK": "METAR KOAK 201353Z 29005KT 10SM BKN008 BKN180 16/14 A2996 RMK AO2 SLP147 T01560139",
    "KMHR": "METAR KMHR 201335Z AUTO 17006KT 10SM CLR 19/12 A2989 RMK AO2 T01910122 $",
    "KDFW": "METAR KDFW 201353Z 19007KT 10SM CLR 29/22 A2996 RMK AO2 SLP134 T02890217 $",
    "KIAH": "METAR KIAH 201353Z 26008KT 7SM BKN012 OVC250 28/25 A3000 RMK AO2 SLP156 T02780250",
    "KORD": "METAR KORD 201351Z 22008KT 6SM HZ FEW140 BKN250 23/16 A2992 RMK AO2 SLP126 T02330161",
    "KJFK": "METAR KJFK 201351Z 08008KT 10SM SCT250 23/10 A3001 RMK AO2 SLP163 T02330100 $",
    "KRFD": "METAR KRFD 201354Z 20004KT 5SM FU OVC250 21/18 A2996 RMK AO2 SLP141 T02110178",
    "KIND": "METAR KIND 201354Z 13006KT 6SM HZ BKN038 24/18 A2996 RMK AO2 SLP139 T02390178 $",
    "KDTW": "METAR KDTW 201353Z 20007KT 5SM HZ SCT250 23/14 A2999 RMK AO2 SLP152 T02330144",
    "KMSP": "METAR KMSP 201353Z 20009KT 10SM SCT170 SCT250 24/21 A2976 RMK AO2 SLP071 TCU DSNT S T02440206",
    "CYEG": "SPECI CYEG 201327Z 32004KT 2 1/4SM SHRA BR SCT009 OVC056 15/15 A3009 RMK ST4SC4 CVCTV CLD EMBD SLP194 DENSITY ALT 2800FT",
    "EHAM": "METAR EHAM 201355Z 34009KT 280V040 9999 FEW041 SCT049 20/09 Q1025 NOSIG",
    "EBBR": "METAR EBBR 201350Z 34011KT 310V010 CAVOK 21/08 Q1024 NOSIG",
    "EDDF": "METAR EDDF 201350Z AUTO 32011KT 250V350 CAVOK 21/08 Q1022 NOSIG",
    "EDFH": "METAR EDFH 201350Z 34006KT 250V040 CAVOK 17/05 Q1024",
    "EDDL": "METAR EDDL 201350Z AUTO 05007KT 010V090 9999 SCT046 20/09 Q1023 NOSIG",
    "EDDK": "METAR EDDK 201350Z AUTO 34008KT CAVOK 17/10 Q1024 NOSIG",
    "EBLG": "METAR EBLG 201350Z 36006KT 280V040 9999 FEW045 20/07 Q1024 NOSIG",
    "LSZH": "METAR LSZH 201350Z 14005KT 090V200 9999 FEW060 24/09 Q1020 NOSIG",
    "LIMC": "METAR LIMC 201350Z 18004KT 130V250 CAVOK 30/15 Q1015 NOSIG",
    "LIRF": "METAR LIRF 201350Z 23011KT CAVOK 33/23 Q1013 NOSIG",
    "EINN": "METAR EINN 201330Z 33012KT 300V020 9999 FEW025 SCT030 22/13 Q1030 NOSIG",
    "EGLL": "METAR EGLL 201350Z AUTO 07009KT 9999 NCD 24/05 Q1026",
    "EGSS": "METAR EGSS 201350Z AUTO 02009KT 350V050 9999 NCD 24/07 Q1026",
    "EPWA": "METAR EPWA 201330Z 26017KT 9999 FEW040TCU 19/10 Q1015 TEMPO TS",
    "UHPP": "METAR UHPP 201400Z 16003MPS 9999 -SHRA SCT040CB BKN074 18/16 Q1008 R34L/CLRD62 NOSIG RMK QFE752/1003",
    "EFHK": "METAR EFHK 201350Z 04012KT 020V080 CAVOK 20/08 Q1015 NOSIG",
    "LBBG": "METAR LBBG 201330Z 12015KT CAVOK 28/21 Q1014 NOSIG",
    "LTAC": "METAR LTAC 201350Z 33008KT 250V010 9999 SCT040 33/08 Q1014 NOSIG RMK RWY21C 25007KT 180V270 RWY03L VRB07KT RWY21R VRB06KT RWY03R 30007KT 250V340 RWY21L VRB07KT",
    "UBBB": "METAR UBBB 201330Z 36020KT CAVOK 26/18 Q1012 NOSIG",
    "UTAA": "METAR UTAA 201400Z 29016KT 9999 FEW050 BKN100 36/17 Q1006 R88/CLRD70 TEMPO 30020G30KT",
    "UACC": "METAR UACC 201330Z 25006MPS CAVOK 28/08 Q0999 NOSIG RMK QFE719/0959",
    "UAAA": "METAR UAAA 201330Z 12002MPS 9999 SCT050CB BKN200 36/15 Q1001 NOSIG",
    "UZTT": "METAR UZTT 201330Z 34012KT 310V010 CAVOK 41/07 Q0999 NOSIG",
    "ZWWW": "METAR ZWWW 201330Z 03002MPS 350V070 CAVOK 37/10 Q1002 NOSIG",
    "ZLXY": "METAR ZLXY 201400Z 05004MPS CAVOK 29/22 Q1003 NOSIG",
    "ZBAA": "METAR ZBAA 201330Z VRB01MPS 9999 FEW050CB 24/23 Q1004 BECMG AT1410 TS",
    "ZBHH": "METAR ZBHH 201400Z VRB02MPS 9999 FEW040 18/16 Q1008 NOSIG",
    "ZSQD": "METAR ZSQD 201400Z 14003MPS CAVOK 23/23 Q1004 NOSIG",
    "ZMCK": "METAR ZMCK 201330Z VRB02MPS 9999 FEW033 18/10 Q1007 NOSIG RMK QFE641.0 60 NT",
    "UUEE": "METAR UUEE 201330Z 19004MPS CAVOK 27/11 Q1013 R24L/CLRD62 R24C/CLRD62 NOSIG",
    "UUDD": "METAR UUDD 201330Z 22004MPS 190V250 CAVOK 26/13 Q1013 R13R/CLRD65 NOSIG",
    "ULLI": "METAR ULLI 201330Z 05005MPS 020V080 9999 OVC032 18/10 Q1015 R88/090065 NOSIG",
    "USSS": "METAR USSS 201330Z 01004MPS 9999 -TSRA SCT027CB 18/18 Q1007 R08R/290550 NOSIG RMK QFE735/0981",
    "UNNT": "METAR UNNT 201330Z 04003MPS 9999 FEW040CB 24/15 Q1002 R07/CLRD// R16/CLRD// NOSIG RMK QFE742/0989",
    "UNKL": "METAR UNKL 201330Z 00000MPS CAVOK 19/16 Q1004 R29/CLRD// NOSIG RMK QFE727",
    "UIBB": "METAR UIBB 201330Z AUTO 08002MPS 9999 // NCD 14/13 Q1004 RMK QFE711/0948",
    "UEEE": "METAR UEEE 201330Z 32003MPS CAVOK 19/18 Q1006 R23/190063 NOSIG RMK QFE746",
    "UHHH": "METAR UHHH 201330Z 27002MPS CAVOK 23/18 Q1005 R23L/090060 NOSIG RMK QFE748/0997",
    "UHSS": "METAR UHSS 201330Z 33002MPS 9999 NSC 19/19 Q1005 R01/CLRD70 NOSIG RMK QFE752/1003"
  },
  "taf": {
    "RJAA": "TAF RJAA 201105Z 2012/2118 21005KT 9999 FEW030 BECMG 2021/2023 31004KT BECMG 2100/2103 14010KT BECMG 2109/2112 04004KT",
    "PANC": "TAF PANC 201405Z 2014/2118 VRB03KT 6SM -RA OVC020 TEMPO 2014/2018 RA BKN005 FM202000 24006KT 5SM -RA BKN006 OVC015 FM210600 18008KT P6SM -RA SCT006 OVC015",
    "PAFA": "TAF PAFA 201139Z 2012/2118 14005KT P6SM SCT060 BKN150 FM210600 24006KT P6SM VCSH BKN050 FM211200 22006KT 6SM -SHRA BR BKN030 OVC050",
    "PAED": "TAF AMD PAED 201445Z 2014/2119 01003KT 8000 -RA SCT006 OVC040 530008 QNH2998INS BECMG 2020/2021 26005KT 6000 RA BKN020 OVC040 520005 QNH3003INS BECMG 2106/2107 21004KT 8000 -RA SCT015 BKN030 BKN050 QNH3007INS TX13/2021Z TN10/2108Z",
    "KSEA": "TAF KSEA 201506Z 2015/2118 02010KT P6SM BKN250 FM201800 34007KT P6SM BKN250 FM202200 32007KT P6SM BKN250 FM210600 36005KT P6SM SCT250",
    "ZSPD": "TAF ZSPD 200904Z 2012/2118 20004MPS 6000 SCT030 TX29/2012Z TX33/2106Z TN25/2021Z TEMPO 2106/2110 TSRA BKN015 FEW030CB",
    "ZSSS": "TAF AMD ZSSS 201233Z 2012/2118 20004MPS 6000 SCT030 TX29/2012Z TX33/2106Z TN26/2021Z TEMPO 2012/2014 TSRA BKN015 FEW030CB TEMPO 2106/2110 TSRA BKN015 FEW030CB",
    "RJFR": "TAF RJFR 201105Z 2012/2118 31006KT 9999 FEW025 BKN040",
    "VHHH": "TAF VHHH 201400Z 2015/2121 20010KT 9999 FEW010 SCT025 TX31/2106Z TN27/2022Z TEMPO 2021/2024 3500 SHRA FEW010CB SCT020 TEMPO 2100/2106 24015G25KT 2500 TSRA SHRA FEW008CB SCT015",
    "RCTP": "TAF RCTP 201100Z 2012/2118 21010KT 9999 FEW015 BKN032 BECMG 2101/2103 24015KT TEMPO 2107/2111 5000 SHRA FEW010 FEW015TCU BKN020 BKN050 BECMG 2111/2113 21010KT",
    "ZGSZ": "TAF ZGSZ 200911Z 2012/2118 18004MPS 8000 BKN040 TX29/2012Z TX31/2106Z TN28/2022Z TEMPO 2021/2101 2500 +TSRA SCT020 FEW025CB BKN030 TEMPO 2103/2107 TSRA SCT020 FEW025CB BKN030",
    "WSSS": "TAF WSSS 201100Z 2012/2118 18008KT 9999 FEW015 SCT020",
    "WMKK": "TAF WMKK 201100Z 2012/2118 VRB03KT 9999 FEW030",
    "VTBS": "TAF VTBS 201100Z 2012/2118 21008KT 9999 FEW020 BECMG 2018/2020 27008KT TEMPO 2108/2112 VRB15KT 4000 TSRA FEW018CB SCT030 BKN100 BECMG 2112/2114 21008KT",
    "VTBU": "TAF VTBU 201100Z 2012/2112 21008KT 9999 FEW020",
    "ROAH": "TAF ROAH 201105Z 2012/2118 21006KT 9999 FEW008 BKN015 TEMPO 2014/2021 FEW005 BKN008 TEMPO 2103/2109 4000 SHRA BR FEW005 BKN008 FEW015CB BECMG 2106/2109 30006KT BECMG 2112/2115 20006KT",
    "VVDN": "TAF VVDN 201100Z 2012/2112 14010KT 9999 FEW020 BECMG 2012/2013 22006KT BECMG 2105/2106 10010KT",
    "RCKH": "TAF RCKH 201100Z 2012/2118 17005KT 9999 FEW015 BKN032 TEMPO 2019/2101 09005KT 5000 SHRA FEW010 FEW015TCU BKN020 BKN050 BECMG 2101/2103 24010KT TEMPO 2107/2111 FEW012 FEW015TCU BKN022 BKN050 BECMG 2111/2113 17005KT",
    "KLAX": "TAF KLAX 201501Z 2015/2118 13004KT P6SM SCT010 BKN015 BKN120 FM201600 20005KT P6SM SCT020 FM201800 26012KT P6SM SCT200 FM210400 26006KT P6SM SCT200 FM210800 VRB03KT P6SM SCT250 FM211600 26006KT P6SM SCT250",
    "KONT": "TAF KONT 201120Z 2012/2118 VRB05KT P6SM SKC FM202000 25011G20KT P6SM FEW120 FM210400 25009KT P6SM SKC FM210530 VRB05KT P6SM SKC",
    "KSFO": "TAF KSFO 201459Z 2015/2118 34007KT P6SM FEW004 SCT014 BKN100 FM201600 28010KT P6SM BKN150 FM211000 28008KT P6SM BKN007 OVC150 FM211700 28006KT P6SM SCT010 BKN150",
    "KOAK": "TAF KOAK 201120Z 2012/2118 27005KT P6SM SCT007 BKN200 TEMPO 2012/2016 BKN007 FM201600 28010KT P6SM BKN150 FM210900 26004KT P6SM BKN007 OVC150 FM211700 27006KT P6SM SCT010 BKN150",
    "KMHR": "TAF KMHR 201124Z 2012/2112 17005KT P6SM SCT150 OVC250 FM201600 20006KT P6SM BKN250 FM201800 23008KT P6SM SCT250 FM202300 24010KT P6SM OVC250",
    "KDFW": "TAF KDFW 201436Z 2015/2118 19009KT P6SM FEW060",
    "KIAH": "TAF KIAH 201501Z 2015/2118 25007KT P6SM SCT025 TEMPO 2015/2016 BKN025 FM210000 21006KT P6SM FEW050 FEW250 FM210600 25006KT P6SM FEW020 SCT250",
    "KORD": "TAF KORD 201504Z 2015/2118 22008KT 5SM HZ BKN250 FM201600 23010KT 6SM HZ FEW040 SCT100 OVC220 FM202100 21013G22KT P6SM FEW050 SCT120 PROB30 2103/2109 34020G30KT 2SM TSRA BR SCT015 OVC040CB FM210900 27011KT P6SM FEW020 SCT050 FM211500 30012G22KT P6SM FEW050",
    "KJFK": "TAF KJFK 201430Z 2014/2118 09008KT P6SM SKC FM201700 16010KT P6SM SCT250 FM210100 16008KT P6SM SCT250 FM211300 15013G20KT P6SM VCSH SCT025 BKN050 PROB30 2113/2118 4SM -TSRA BKN025CB",
    "KRFD": "TAF KRFD 201513Z 2015/2112 20011KT 5SM FU FEW040 SCT120 OVC250 TEMPO 2016/2018 -SHRA BKN050 FM201900 21012G20KT P6SM FEW050 SCT120 TEMPO 2101/2105 34020G30KT 2SM TSRA BR SCT015 OVC040CB FM210700 27011KT P6SM FEW020 SCT050",
    "KIND": "TAF KIND 201120Z 2012/2118 13006KT P6SM FEW050 SCT250 FM201900 22008KT P6SM SCT050 BKN250 FM210800 22008KT P6SM SCT220 FM211000 23010KT P6SM -SHRA BKN050 FM211300 22010KT P6SM -SHRA BKN040",
    "KDTW": "TAF KDTW 201407Z 2014/2118 20008KT 5SM FU SKC FM201600 20010KT P6SM SCT050 SCT250 FM210100 19007KT P6SM SCT100 BKN200 FM210700 22012KT P6SM BKN080 OVC120 PROB30 2107/2111 4SM TSRA BKN040CB OVC060 FM211100 24014G25KT P6SM BKN040",
    "KMSP": "TAF KMSP 201517Z 2015/2118 24012G18KT P6SM SCT040 TEMPO 2015/2017 BKN020 FM202000 28016G28KT P6SM SKC FM210300 31012G21KT P6SM SKC",
    "CYEG": "TAF CYEG 201443Z 2015/2112 31008KT 3SM -SHRA BR OVC005 TEMPO 2015/2017 6SM -RA BR SCT005 OVC012 FM201700 34010KT P6SM FEW005 BKN012 OVC030 TEMPO 2017/2020 SCT012 BKN030 FM202000 34010KT P6SM SCT040 TEMPO 2020/2104 5SM FU FM210400 VRB03KT 4SM FU SCT100 PROB30 2111/2112 3/4SM FU BR RMK NXT FCST BY 201800Z",
    "EHAM": "TAF EHAM 201103Z 2012/2118 34013KT 9999 SCT040 BECMG 2019/2022 36006KT BECMG 2109/2112 33013KT",
    "EBBR": "TAF EBBR 201102Z 2012/2118 34010KT 9999 FEW045",
    "EDDF": "TAF EDDF 201100Z 2012/2118 33008KT CAVOK BECMG 2020/2022 03007KT",
    "EDFH": "TAF EDFH 201100Z 2012/2112 35008KT 9999 SCT040",
    "EDDL": "TAF EDDL 201100Z 2012/2118 34008KT 9999 SCT040 BECMG 2022/2101 VRB03KT BECMG 2107/2110 33008KT",
    "EDDK": "TAF EDDK 201100Z 2012/2118 34008KT 9999 SCT040 BECMG 2019/2022 VRB03KT BECMG 2107/2110 34007KT",
    "EBLG": "TAF EBLG 201102Z 2012/2118 34008KT 9999 SCT045",
    "LSZH": "TAF LSZH 201425Z 2015/2121 07005KT 9999 FEW060 TX25/2015Z TN12/2104Z TX25/2115Z PROB30 TEMPO 2015/2018 32008KT BECMG 2017/2020 CAVOK PROB30 TEMPO 2018/2022 04010KT BECMG 2022/2024 VRB02KT BECMG 2107/2109 06009KT 9999 FEW070 BECMG 2119/2121 05004KT CAVOK",
    "LIMC": "TAF LIMC 201100Z 2012/2118 12010KT 9999 FEW050 BECMG 2015/2017 VRB05KT TEMPO 2103/2110 4000 TSRA TEMPO 2115/2118 4000 SHRA",
    "LIRF": "TAF LIRF 201100Z 2012/2118 25012KT CAVOK BECMG 2017/2019 VRB05KT PROB30 TEMPO 2101/2105 3000 BR BECMG 2106/2108 16010KT BECMG 2112/2114 22012KT",
    "EINN": "TAF EINN 201100Z 2012/2112 35008KT 9999 FEW035",
    "EGLL": "TAF EGLL 201108Z 2012/2118 02006KT CAVOK BECMG 2018/2021 10010KT TEMPO 2100/2113 BKN030 BECMG 2101/2104 02005KT",
    "EGSS": "TAF EGSS 201054Z 2012/2118 01008KT 9999 FEW045 PROB30 2017/2021 11010KT PROB30 TEMPO 2100/2109 BKN014",
    "EPWA": "TAF EPWA 201430Z 2015/2115 25012KT CAVOK TEMPO 2015/2018 -SHRA SCT040CB PROB30 TEMPO 2015/2018 27020G32KT 2000 TSRA PROB40 TEMPO 2018/2024 19005KT -SHRA BKN020CB TEMPO 2100/2110 26015G25KT 4000 SHRA BKN008 BKN015CB TEMPO 2110/2115 28020G32KT -SHRA BKN012 BKN020CB",
    "UHPP": "TAF UHPP 201338Z 2015/2121 18003G12MPS 9999 -SHRA BKN010 OVC020CB TEMPO 2016/2023 1000 SHRA BR VV002 BECMG 2106/2108 NSW SCT015 BKN030CB TEMPO 2108/2118 1000 BR VV002",
    "EFHK": "TAF EFHK 201423Z 2015/2115 05013KT CAVOK PROB30 TEMPO 2101/2110 04015G25KT",
    "LBBG": "TAF LBBG 201100Z 2012/2112 12014KT 9999 SCT045 PROB30 TEMPO 2013/2016 VRB16G26KT 4000 TSRA FEW030CB BKN040 BECMG 2020/2022 VRB03KT TEMPO 2101/2104 2000 BR TEMPO 2104/2107 5000 SHRA FEW030CB BKN045 BECMG 2108/2110 12012KT",
    "LTAC": "TAF LTAC 201040Z 2012/2112 VRB02KT 9999 SCT040 BECMG 2015/2018 CAVOK TEMPO 2016/2020 02013KT BECMG 2107/2110 FEW040",
    "UBBB": "TAF UBBB 201052Z 2012/2112 35018G28KT 9999 SCT020 TX28/2012Z TN24/2101Z TEMPO 2012/2016 FEW050CB BECMG 2018/2020 36012KT PROB40 TEMPO 2020/2024 -TSRA SCT018 SCT050CB TEMPO 2102/2108 03012KT BECMG 2108/2110 18006KT",
    "UTAA": "TAF UTAA 201049Z 2012/2112 33018KT 6000 SCT050CB SCT050 TEMPO 2012/2017 32022G32KT 2500 BLDU TEMPO 2101/2104 30020G30KT 3000 BLDU PROB30 TEMPO 2104/2108 VRB20G30KT 4000 -TSRA",
    "UACC": "TAF UACC 201104Z 2012/2112 28006MPS 9999 SCT040 BKN100 TX29/2012Z TN16/2024Z TEMPO 2012/2016 24010MPS SCT030CB BECMG 2018/2020 18005MPS BECMG 2021/2023 SCT030CB BKN070 TEMPO 2021/2103 3100 -TSRA BKN030CB TEMPO 2103/2112 VRB16MPS 3100 -TSRA SQ BKN020CB",
    "UAAA": "TAF UAAA 201105Z 2012/2112 19003MPS 9999 SCT050CB BKN100 TX39/2110Z TN24/2100Z TEMPO 2012/2015 06003MPS BECMG 2102/2103 30003G09MPS TEMPO 2108/2112 24006G12MPS 5000 -TSRA BLDU",
    "UZTT": "TAF UZTT 201100Z 2012/2112 34012KT 7000 NSC TX35/2111Z TN25/2100Z TEMPO 2012/2024 30015G25KT 3000 -DS",
    "ZWWW": "TAF ZWWW 200902Z 2012/2118 36004MPS CAVOK TX42/2109Z TN30/2023Z TN30/2118Z BECMG 2014/2015 18004G09MPS BECMG 2102/2103 36004MPS BECMG 2114/2115 20004MPS",
    "ZLXY": "TAF ZLXY 200905Z 2012/2112 06003MPS 6000 NSC TX37/2107Z TN24/2021Z TEMPO 2108/2111 -SHRA FEW040CB OVC050",
    "ZBAA": "TAF ZBAA 200901Z 2012/2118 16004MPS 6000 NSC TX31/2106Z TN21/2021Z TN24/2118Z TEMPO 2012/2016 TSRA FEW040CB BKN040",
    "ZBHH": "TAF ZBHH 200920Z 2012/2112 36004MPS 9999 SCT040 TX30/2107Z TN16/2019Z BECMG 2109/2110 -TSRA FEW040CB SCT040 TEMPO 2110/2112 +TSRA",
    "ZSQD": "TAF ZSQD 200901Z 2012/2112 16004MPS 5000 BR NSC TX31/2106Z TN20/2020Z",
    "ZMCK": "TAF ZMCK 201040Z 2012/2118 VRB02MPS 9999 FEW030CB SCT033 TN10/2021Z TX25/2107Z PROB40 TEMPO 2105/2115 VRB08G13MPS TSRA SCT027CB SCT030",
    "UUEE": "TAF UUEE 201352Z 2015/2115 18003G08MPS 9999 SCT040 TX27/2015Z TN18/2101Z PROB40 TEMPO 2100/2115 -TSRA BKN020CB",
    "UUDD": "TAF UUDD 201353Z 2015/2121 20003MPS 9999 BKN020 TX25/2015Z TN18/2101Z PROB40 TEMPO 2021/2103 -TSRA BKN016CB BECMG 2103/2105 26005MPS TEMPO 2107/2116 26008G13MPS -TSRA BKN016CB BECMG 2116/2118 19003MPS",
    "ULLI": "TAF ULLI 201352Z 2015/2115 05006G12MPS 6000 BKN016 TEMPO 2021/2101 2100 -SHRA BKN010 BKN017CB BECMG 2101/2102 BKN010 TEMPO 2102/2110 1000 SHRA BR BKN004 BKN017CB PROB40 TEMPO 2102/2110 1500 TSRA BKN017CB TEMPO 2110/2115 3100 -SHRA BKN005 BKN017CB",
    "USSS": "TAF USSS 201357Z 2015/2115 02003G14MPS 9999 BKN020CB TEMPO 2015/2021 01008G21MPS -TSRA BKN016CB TEMPO 2109/2115 -TSRA BKN016CB",
    "UNNT": "TAF UNNT 201400Z 2015/2115 04003G08MPS 9999 BKN040 TX28/2109Z TN16/2022Z TEMPO 2015/2018 -TSRA BKN020CB",
    "UNKL": "TAF UNKL 201346Z 2015/2115 VRB01MPS 8000 SCT040 TEMPO 2020/2023 0300 FG BKN002 TEMPO 2106/2112 -TSRA BKN020CB",
    "UIBB": "TAF UIBB 201400Z 2015/2115 10002MPS 0300 FG BKN001 BKN016CB TEMPO 2015/2101 4000 BR FEW003 SCT016CB BECMG 2101/2103 9999 NSW BKN016CB BECMG 2103/2105 25005G10MPS",
    "UEEE": "TAF UEEE 201400Z 2015/2121 30003G08MPS 9999 SCT030CB BKN100 TEMPO 2015/2023 VRB01MPS 0500 FG VV003",
    "UHHH": "TAF UHHH 201346Z 2015/2121 25003MPS 9999 SCT030 TX30/2106Z TN19/2019Z BECMG 2016/2017 5000 BR TEMPO 2017/2022 0400 FG BECMG 2022/2023 9999 NSW",
    "UHSS": "TAF UHSS 201355Z 2015/2121 VRB01MPS 9999 BKN040CB BECMG 2016/2018 BKN004 BKN017CB BECMG 2018/2020 0550 FG BKN002 BKN020CB FM202300 27003MPS 9999 BKN040CB"
  },
  "atis": {},
  "windtemp_alaska": "\n000\nFBAK31 KWNO 201358\nFD1AK1\nDATA BASED ON 201200Z    \nVALID 201800Z   FOR USE 1400-2100Z. TEMPS NEG ABV 24000\n\nFT  3000    6000    9000   12000   18000   24000  30000  34000  39000\nADK 3120 3022+11 3126+06 3126+00 2927-13 3025-23 303638 304147 304558\nADQ 2112 2012-02 1916-06 1921-11 1731-23 1643-35 155943 165042 173442\nAKN 1716 1712-02 1709-08 1713-13 1724-25 1629-36 162842 172240 171540\nANC 1414 1624+03 1638-01 1649-05 1657-16 1657-28 156742 156851 165452\nANN 3608 9900+13 3406+09 9900+02 9900-12 2007-25 191340 191549 201558\nBET 1613 1714-01 1714-07 1611-14 1706-25 3005-36 990042 200740 180640\nBRW 1011 1308+04 1510-02 1413-07 1827-17 2040-29 217045 205652 152447\nBTI 1405 1706+07 2314+01 2418-02 2418-14 2432-27 254343 244553 242654\nBTT 1224 1524+08 1529+02 1638-04 1846-16 1749-27 185843 186052 173451\nCDB 2117 2217+00 2418-05 2621-09 2931-19 3157-28 318344 317252 313746\nCZF 1612 1609-02 1410-07 1410-13 2405-24 2712-35 292144 281040 990039\nEHM 1908 1809-03 1809-07 2307-12 3018-23 3137-34 315344 303042 291141\nFAI 1716 1720+09 1826+02 1827-03 1626-16 1536-27 153942 153652 172355\nFYU 1609 1512+11 1616+04 1620-02 1721-15 1817-26 161942 172153 172357\nGAL 2206 1712+01 1616-03 1523-08 1643-20 1682-29 660343 169350 165346\nGKN 1520 1729+07 1822+02 1622-02 1627-16 1636-27 153242 142851 163155\nHOM 1614 1618+00 1623-04 1631-09 1557-20 1682-30 149443 159749 165145\nJNU 9900 9900+11 2207+07 2208+01 1910-13 1816-25 192141 192550 192257\nLUR 0912 1017+02 1219-04 1320-10 1427-22 1437-34 153748 133343 112540\nMCG 9900 1906+00 1614-04 1521-10 1650-20 1681-30 650243 169549 164945\nMDO 1630 1633+06 1529+00 1632-04 1639-17 1743-27 164942 154851 164854\nOME 1412 1314+00 1218-06 1319-12 1325-25 1329-36 142844 142840 141838\nORT      1708+10 1515+05 1513+00 1517-15 1622-27 173043 173352 172654\nOTZ 0813 0713+01 0814-04 1017-09 1231-22 1347-34 167046 154843 142940\nSNP 1626 1816+02 2718+01 2729-03 2938-15 2842-27 284543 294250 294347\nTKA 1716 1720+03 1733-01 1647-05 1656-17 1659-29 156541 156852 175253\nUNK 1511 1411+00 1514-06 1524-12 1434-23 1550-34 157444 155242 153141\nYAK 2805 2610+05 2010+04 1716+00 1719-15 1726-27 163743 164451 173153\nIKO 2429 2630+07 2628+03 2633-02 2838-13 2938-25 294142 315351 313951\nAFM 1225 1525+03 1418-02 1329-07 1542-18 1769-29 179744 179051 174846\n5AB 2831 2725+12 2723+07 2826+01 2931-14 2931-22 304337 304546 304855\n5AC 3520 3515+12 3412+08 3510+01 2407-14 2012-26 192440 192649 192257\n5AD 2610 2217+05 2127+00 2033-05 1848-17 1857-28 186244 186451 195850\n5AE 2421 2317+00 2419-06 2522-12 2623-24 2623-37 272244 261941 241641\n5AF 2908 2309+09 2316+06 2319+00 2115-15 2020-26 183442 184250 193554\n5AG 1815 2012+04 1815+03 1819-02 1826-15 1826-27 192842 192550 183254\n",
  "vaac_active": [
    {
      "volcano": "SHEVELUCH",
      "volcano_jp": "シベルチ",
      "advisory_nr": "2026/272",
      "obs_time": "2026-07-20 14:20Z",
      "issued_time": "2026-07-20 15:00Z",
      "text_url": "https://www.data.jma.go.jp/vaac/data/TextData/2026/20260720_30027000_0272_Text.html",
      "lat": 56.65,
      "lon": 161.367,
      "text": "FVFE01 RJTD 201500\nVA ADVISORY\nDTG: 20260720/1500Z\nVAAC: TOKYO\nVOLCANO: SHEVELUCH 300270\nPSN: N5639 E16122\nAREA: RUSSIA\nSOURCE ELEV: 3283M AMSL\nADVISORY NR: 2026/272\nINFO SOURCE: HIMAWARI-9\nERUPTION DETAILS: VA CONTINUOUSLY OBS IN SATELLITE IMAGERY\nOBS VA DTG: 20/1420Z\nOBS VA CLD: SFC/FL390 N5626 E16711 - N5644 E16801 - N5334 E17100 - \nN5320 E17046 - N5455 E16741 MOV SE 80KT\nFCST VA CLD +6 HR: 20/2020Z SFC/FL400 N5451 E17745 - N5237 E17715 - \nN5013 E17845 - N5030 E17644 - N5236 E17455 - N5459 E17606\nFCST VA CLD +12 HR: 21/0220Z SFC/FL400 N5255 W17530 - N4753 W17642 - \nN4554 W17523 - N4517 W17545 - N4651 W17824 - N5004 W17948\nFCST VA CLD +18 HR: 21/0820Z SFC/FL400 N5101 W17024 - N4432 W17322 - \nN4036 W16942 - N4024 W17143 - N4405 W17542 - N4722 W17530\nRMK: SOME PART OF VA OBSCURED BY MET CLOUD. THE RESPONSIBILITY FOR \nTHIS ASH EVENT IS BEING TRANSFERRED TO VAAC ANCHORAGE. THE NEXT \nADVISORY WILL BE ISSUED BY VAAC ANCHORAGE BY 1800UTC UNDER HEADER \nFVAK21 PAWU.\nNXT ADVISORY: NO FURTHER ADVISORIES="
    },
    {
      "volcano": "SHEVELUCH",
      "volcano_jp": "シベルチ",
      "advisory_nr": "2026/271",
      "obs_time": "2026-07-20 11:20Z",
      "issued_time": "2026-07-20 12:00Z",
      "text_url": "https://www.data.jma.go.jp/vaac/data/TextData/2026/20260720_30027000_0271_Text.html",
      "lat": 56.65,
      "lon": 161.367,
      "text": "FVFE01 RJTD 201200\nVA ADVISORY\nDTG: 20260720/1200Z\nVAAC: TOKYO\nVOLCANO: SHEVELUCH 300270\nPSN: N5639 E16122\nAREA: RUSSIA\nSOURCE ELEV: 3283M AMSL\nADVISORY NR: 2026/271\nINFO SOURCE: HIMAWARI-9\nERUPTION DETAILS: VA CONTINUOUSLY OBS IN SATELLITE IMAGERY\nOBS VA DTG: 20/1120Z\nOBS VA CLD: SFC/FL390 N5642 E16310 - N5647 E16348 - N5620 E16436 - \nN5613 E16535 - N5553 E16604 - N5558 E16410 MOV E 80KT\nFCST VA CLD +6 HR: 20/1720Z SFC/FL400 N5529 E17224 - N5317 E17436 - \nN5255 E17231 - N5520 E17100\nFCST VA CLD +12 HR: 20/2320Z SFC/FL400 N5310 W17936 - N4851 W17857 - \nN4907 E17838 - N5319 E17838\nFCST VA CLD +18 HR: 21/0520Z SFC/FL390 N5048 W17347 - N4722 W17446 - \nN4316 W17332 - N4450 W17606 - N4735 W17716 - N5055 W17537\nRMK: SOME PART OF VA OBSCURED BY MET CLOUD.\nNXT ADVISORY: 20260720/1500Z="
    },
    {
      "volcano": "MAYON",
      "volcano_jp": "マヨン",
      "advisory_nr": "2026/770",
      "obs_time": "2026-07-20 10:20Z",
      "issued_time": "2026-07-20 10:48Z",
      "text_url": "https://www.data.jma.go.jp/vaac/data/TextData/2026/20260720_27303000_0770_Text.html",
      "lat": 13.25,
      "lon": 123.683,
      "text": "FVFE01 RJTD 201048\nVA ADVISORY\nDTG: 20260720/1048Z\nVAAC: TOKYO\nVOLCANO: MAYON 273030\nPSN: N1315 E12341\nAREA: PHILIPPINES\nSOURCE ELEV: 2462M AMSL\nADVISORY NR: 2026/770\nINFO SOURCE: HIMAWARI-9 PHIVOLCS\nERUPTION DETAILS: ERUPTION AT 20260720/1020Z VA CLD UNKNOWN REPORTED\nOBS VA DTG: 20/1030Z\nOBS VA CLD: VA NOT IDENTIFIABLE FM SATELLITE DATA WIND FL180 050/12KT\nFCST VA CLD +6 HR: NOT AVBL\nFCST VA CLD +12 HR: NOT AVBL\nFCST VA CLD +18 HR: NOT AVBL\nRMK: WE WILL ISSUE FURTHER ADVISORY IF VA IS DETECTED IN SATELLITE \nIMAGERY.\nNXT ADVISORY: NO FURTHER ADVISORIES="
    },
    {
      "volcano": "SHEVELUCH",
      "volcano_jp": "シベルチ",
      "advisory_nr": "2026/270",
      "obs_time": "2026-07-20 09:20Z",
      "issued_time": "2026-07-20 10:19Z",
      "text_url": "https://www.data.jma.go.jp/vaac/data/TextData/2026/20260720_30027000_0270_Text.html",
      "lat": 56.65,
      "lon": 161.367,
      "text": "FVFE01 RJTD 201019\nVA ADVISORY\nDTG: 20260720/1019Z\nVAAC: TOKYO\nVOLCANO: SHEVELUCH 300270\nPSN: N5639 E16122\nAREA: RUSSIA\nSOURCE ELEV: 3283M AMSL\nADVISORY NR: 2026/270\nINFO SOURCE: HIMAWARI-9\nERUPTION DETAILS: POSS ERUPTION OBS AT 20260720/0920Z FL390 EXTD E\nOBS VA DTG: 20/0940Z\nOBS VA CLD: SFC/FL390 N5643 E16122 - N5654 E16218 - N5638 E16222 - \nN5638 E16123 MOV E 80KT\nFCST VA CLD +6 HR: 20/1540Z SFC/FL400 N5514 E17124 - N5404 E17107 - \nN5622 E16547 - N5551 E16338 - N5653 E16205 - N5700 E16710\nFCST VA CLD +12 HR: 20/2140Z SFC/FL400 N5358 E17858 - N5036 E17858 - \nN5047 E17722 - N5510 E17322 - N5553 E16402 - N5711 E16352 - N5628 \nE17315\nFCST VA CLD +18 HR: 21/0340Z SFC/FL390 N5545 W17909 - N5152 W17523 - \nN4519 W17540 - N4718 W17806 - N5504 E17835 - N5641 E16536 - N5721 \nE16533\nRMK: SOME PART OF VA OBSCURED BY MET CLOUD.\nNXT ADVISORY: 20260720/1200Z="
    }
  ],
  "vaac_tokyo": [
    {
      "id": "20260720_30027000_0272",
      "year": "2026",
      "volcano": "Sheveluch",
      "psn": "N5639 E16122",
      "issued": "20260720",
      "text": "FVFE01 RJTD 201500\nVA ADVISORY\nDTG: 20260720/1500Z\nVAAC: TOKYO\nVOLCANO: SHEVELUCH 300270\nPSN: N5639 E16122\nAREA: RUSSIA\nSOURCE ELEV: 3283M AMSL\nADVISORY NR: 2026/272\nINFO SOURCE: HIMAWARI-9\nERUPTION DETAILS: VA CONTINUOUSLY OBS IN SATELLITE IMAGERY\nOBS VA DTG: 20/1420Z\nOBS VA CLD: SFC/FL390 N5626 E16711 - N5644 E16801 - N5334 E17100 - \nN5320 E17046 - N5455 E16741 MOV SE 80KT\nFCST VA CLD +6 HR: 20/2020Z SFC/FL400 N5451 E17745 - N5237 E17715 - \nN5013 E17845 - N5030 E17644 - N5236 E17455 - N5459 E17606\nFCST VA CLD +12 HR: 21/0220Z SFC/FL400 N5255 W17530 - N4753 W17642 - \nN4554 W17523 - N4517 W17545 - N4651 W17824 - N5004 W17948\nFCST VA CLD +18 HR: 21/0820Z SFC/FL400 N5101 W17024 - N4432 W17322 - \nN4036 W16942 - N4024 W17143 - N4405 W17542 - N4722 W17530\nRMK: SOME PART OF VA OBSCURED BY MET CLOUD. THE RESPONSIBILITY FOR \nTHIS ASH EVENT IS BEING TRANSFERRED TO VAAC ANCHORAGE. THE NEXT \nADVISORY WILL BE ISSUED BY VAAC ANCHORAGE BY 1800UTC UNDER HEADER \nFVAK21 PAWU.\nNXT ADVISORY: NO FURTHER ADVISORIES=",
      "img_url": "https://ds.data.jma.go.jp/svd/vaac/data/VAGFN/2026/Images/20260720_30027000_0272_QH21_01.png",
      "sat_img_url": "https://ds.data.jma.go.jp/svd/vaac/data/Sat/2026/Images/30027000/09-ir/20260720_1420_202607201500_ir.png",
      "text_url": "https://ds.data.jma.go.jp/svd/vaac/data/TextData/2026/20260720_30027000_0272_Text.html"
    },
    {
      "id": "20260719_27303000_0769",
      "year": "2026",
      "volcano": "Mayon",
      "psn": "N1315 E12341",
      "issued": "20260719",
      "text": "FVFE01 RJTD 192213\nVA ADVISORY\nDTG: 20260719/2213Z\nVAAC: TOKYO\nVOLCANO: MAYON 273030\nPSN: N1315 E12341\nAREA: PHILIPPINES\nSOURCE ELEV: 2462M AMSL\nADVISORY NR: 2026/769\nINFO SOURCE: HIMAWARI-9 PHIVOLCS\nERUPTION DETAILS: ERUPTION AT 20260719/2148Z FL080 EXTD W REPORTED\nOBS VA DTG: 19/2200Z\nOBS VA CLD: VA NOT IDENTIFIABLE FM SATELLITE DATA WIND FL080 010/2KT\nFCST VA CLD +6 HR: NOT AVBL\nFCST VA CLD +12 HR: NOT AVBL\nFCST VA CLD +18 HR: NOT AVBL\nRMK: WE WILL ISSUE FURTHER ADVISORY IF VA IS DETECTED IN SATELLITE \nIMAGERY.\nNXT ADVISORY: NO FURTHER ADVISORIES=",
      "img_url": "https://ds.data.jma.go.jp/svd/vaac/data/VAGFN/2026/Images/20260719_27303000_0769_QH21_01.png",
      "sat_img_url": null,
      "text_url": "https://ds.data.jma.go.jp/svd/vaac/data/TextData/2026/20260719_27303000_0769_Text.html"
    },
    {
      "id": "20260717_27307000_0014",
      "year": "2026",
      "volcano": "Taal",
      "psn": "N1400 E12100",
      "issued": "20260717",
      "text": "FVFE01 RJTD 171113\nVA ADVISORY\nDTG: 20260717/1113Z\nVAAC: TOKYO\nVOLCANO: TAAL 273070\nPSN: N1400 E12100\nAREA: PHILIPPINES\nSOURCE ELEV: 311M AMSL\nADVISORY NR: 2026/14\nINFO SOURCE: HIMAWARI-9 PHIVOLCS\nERUPTION DETAILS: ERUPTION AT 20260717/1051Z FL040 EXTD E REPORTED\nOBS VA DTG: 17/1100Z\nOBS VA CLD: VA NOT IDENTIFIABLE FM SATELLITE DATA WIND FL040 270/8KT\nFCST VA CLD +6 HR: NOT AVBL\nFCST VA CLD +12 HR: NOT AVBL\nFCST VA CLD +18 HR: NOT AVBL\nRMK: WE WILL ISSUE FURTHER ADVISORY IF VA IS DETECTED IN SATELLITE \nIMAGERY.\nNXT ADVISORY: NO FURTHER ADVISORIES=",
      "img_url": "https://ds.data.jma.go.jp/svd/vaac/data/VAGFN/2026/Images/20260717_27307000_0014_QH21_01.png",
      "sat_img_url": null,
      "text_url": "https://ds.data.jma.go.jp/svd/vaac/data/TextData/2026/20260717_27307000_0014_Text.html"
    },
    {
      "id": "20260713_28208001_0083",
      "year": "2026",
      "volcano": null,
      "psn": "N3136 E13039",
      "issued": "20260713",
      "text": "FVFE01 RJTD 130254\nVA ADVISORY\nDTG: 20260713/0254Z\nVAAC: TOKYO\nVOLCANO: SAKURAJIMA (AIRA CALDERA) 282080\nPSN: N3136 E13039\nAREA: JAPAN\nSOURCE ELEV: 1117M AMSL\nADVISORY NR: 2026/83\nINFO SOURCE: JMA HIMAWARI-9\nERUPTION DETAILS: ERUPTED AT 20260713/0152Z FL100 EXTD N\nOBS VA DTG: 13/0230Z\nOBS VA CLD: SFC/FL100 N3136 E13039 - N3142 E13040 - N3141 E13044 - \nN3134 E13042 MOV NE 15KT\nFCST VA CLD +6 HR: 13/0830Z SFC/FL100 N3234 E13121 - N3145 E13155 - \nN3202 E13110 - N3227 E13051\nFCST VA CLD +12 HR: 13/1430Z SFC/FL100 N3318 E13206 - N3142 E13317 - \nN3134 E13226 - N3312 E13118\nFCST VA CLD +18 HR: NO VA EXP\nRMK: NIL\nNXT ADVISORY: 20260713/0600Z=",
      "img_url": "https://ds.data.jma.go.jp/svd/vaac/data/VAGFN/2026/Images/20260713_28208001_0083_QH21_01.png",
      "sat_img_url": "https://ds.data.jma.go.jp/svd/vaac/data/Sat/2026/Images/28208001/09-ir/20260713_0230_202607130254_ir.png",
      "text_url": "https://ds.data.jma.go.jp/svd/vaac/data/TextData/2026/20260713_28208001_0083_Text.html"
    }
  ],
  "vaac_alaska": [
    {
      "text": "\n000\nFVAK21 PAWU 201508\nVAAAK1\nVA ADVISORY\n\nDTG: 20260720/1505Z\n\nVAAC: ANCHORAGE\n\nVOLCANO: SHEVELUCH 300270\n\nPSN: N5639 E16122\n\nAREA: KAMCHATKA PENINSULA\n\nSOURCE ELEV: 10771 FT AMSL\n\nADVISORY NR: 2026/208\n\nRMK: PLEASE SEE FVFE01 RJTD ISSUED BY VAAC TOKYO WHICH DESCRIBES\nCONDITIONS NEAR THE VAAC ANCHORAGE AREA OF RESPONSIBILITY...SC\n\n\n\n",
      "issued": "2026-07-20T15:08:00+00:00",
      "volcano": "Sheveluch",
      "psn": "N5639 E16122"
    }
  ]
}