{
  "updated_utc": "2026-07-15T11:08Z",
  "metar": {
    "RJAA": "METAR RJAA 150930Z 15012KT 8000 FEW015 BKN/// 28/25 Q1001 NOSIG",
    "PANC": "METAR PANC 150953Z 15012G26KT 10SM FEW005 OVC050 12/08 A2984 RMK AO2 PK WND 16029/0938 RAE02 SLP106 P0000 T01170078 $",
    "PAFA": "METAR PAFA 150953Z 04003KT 10SM FEW055 SCT070 BKN085 14/08 A2968 RMK AO2 SLP055 T01390078",
    "PAED": "METAR PAED 150955Z 00000KT 10SM -RA OVC060 11/09 A2983 RMK AO2A SLP098 P0000 T01070093 $",
    "KSEA": "METAR KSEA 150953Z 00000KT 10SM BKN250 16/09 A3008 RMK AO2 SLP190 T01560089 $",
    "ZSPD": "METAR ZSPD 150930Z 17005MPS 9999 SCT026 36/26 Q1002 NOSIG",
    "ZSSS": "METAR ZSSS 150930Z VRB03MPS CAVOK 38/24 Q1002 NOSIG",
    "RJFR": "METAR RJFR 151000Z 23012KT 9999 FEW030 SCT060 BKN/// 31/25 Q1002",
    "VHHH": "SPECI VHHH 150916Z 22011G21KT 2600 +SHRA FEW005 SCT020 26/25 Q1006 TEMPO 28020G30KT 1500 TSRA +SHRA FEW008CB SCT015",
    "RCTP": "METAR RCTP 150930Z 24017KT 9999 FEW015 FEW020TCU SCT060 32/25 Q1007 NOSIG RMK TCU SE A2976",
    "ZGSZ": "METAR ZGSZ 151000Z 15006MPS 8000 -SHRA SCT009 BKN033 26/25 Q1005 RESHRA NOSIG",
    "WSSS": "METAR WSSS 150930Z 11010KT 9999 TS FEW015 FEW017CB FEW018TCU SCT050 31/25 Q1009 BECMG FM1015 TL1030 NSW",
    "WMKK": "METAR WMKK 150930Z VRB05KT 9999 FEW018 33/25 Q1008 NOSIG",
    "WIDD": "METAR WIDD 150930Z 14007KT 9999 FEW014 31/26 Q1009 NOSIG",
    "VTBS": "METAR VTBS 150930Z 18017KT 9999 FEW020 SCT030 32/24 Q1007 NOSIG",
    "VTBU": "METAR VTBU 150930Z 22009KT 9999 FEW020 30/27 Q1009 NOSIG",
    "ROAH": "METAR ROAH 150930Z 21009KT 9999 FEW007 BKN015 BKN/// 28/27 Q1009",
    "VVDN": "METAR VVDN 150930Z 34004KT 9999 FEW020 SCT080 32/24 Q1004 NOSIG",
    "RCKH": "METAR RCKH 150930Z 08006KT 9999 FEW015 SCT040 BKN220 29/25 Q1009 NOSIG RMK A2982",
    "KLAX": "METAR KLAX 150953Z 00000KT 10SM FEW250 20/18 A2989 RMK AO2 SLP118 T02000178 $",
    "KONT": "METAR KONT 150953Z 00000KT 10SM CLR 23/13 A2990 RMK AO2 SLP105 T02330133 $",
    "KSFO": "METAR KSFO 150956Z 30009KT 10SM CLR 16/11 A2993 RMK AO2 SLP136 T01610111",
    "KOAK": "METAR KOAK 150953Z 28006KT 10SM CLR 17/13 A2994 RMK AO2 SLP137 T01670133",
    "KMHR": "METAR KMHR 150915Z AUTO 14004KT 10SM CLR 23/09 A2987 RMK AO2 T02290088 $",
    "KDFW": "METAR KDFW 150953Z 18004KT 10SM BKN023 BKN250 23/19 A3008 RMK AO2 SLP177 T02330189 $",
    "KIAH": "METAR KIAH 150953Z 11006KT 10SM FEW110 OVC150 24/23 A3006 RMK AO2 SLP180 T02390233 $",
    "KORD": "METAR KORD 150951Z 25004KT 10SM FEW250 25/23 A3010 RMK AO2 SLP186 T02500228 $",
    "KJFK": "METAR KJFK 150951Z 23010KT 10SM FEW250 24/21 A2987 RMK AO2 SLP116 T02390211",
    "KRFD": "METAR KRFD 150954Z 00000KT 7SM FEW250 21/21 A3013 RMK AO2 SLP197 T02110206",
    "KIND": "METAR KIND 150954Z 01003KT 10SM FEW045 23/19 A3012 RMK AO2 SLP192 T02330194 $",
    "KDTW": "METAR KDTW 150953Z 26004KT 7SM SCT060 BKN120 OVC230 24/20 A3005 RMK AO2 SLP169 T02390200 $",
    "KMSP": "METAR KMSP 150953Z 23003KT 8SM CLR 25/23 A3013 RMK AO2 SLP196 T02500228",
    "CYEG": "METAR CYEG 151000Z 03009KT 20SM FEW020CB BKN027 17/15 A3014 RMK CB1SC5 CB TR CB N MOV NE FRQ LTNG DIST NE SLP206 DENSITY ALT 3000FT",
    "EHAM": "METAR EHAM 150925Z 05011KT 020V090 CAVOK 24/14 Q1022 NOSIG",
    "EBBR": "METAR EBBR 150920Z 06007KT 020V100 9999 FEW044 26/15 Q1021 NOSIG",
    "EDDF": "METAR EDDF 150920Z AUTO 05010KT 030V090 CAVOK 26/15 Q1019 NOSIG",
    "EDFH": "METAR EDFH 150920Z 07005KT 360V140 CAVOK 22/15 Q1021",
    "EDDL": "METAR EDDL 150920Z AUTO 06013KT CAVOK 26/11 Q1021 NOSIG",
    "EDDK": "METAR EDDK 150920Z AUTO 06009KT 030V090 CAVOK 27/13 Q1020 NOSIG",
    "EBLG": "METAR EBLG 150920Z 04014KT CAVOK 25/14 Q1021 NOSIG",
    "LSZH": "METAR LSZH 150920Z VRB02KT 9999 FEW075 27/18 Q1019 NOSIG",
    "LIMC": "METAR LIMC 150920Z 18003KT 130V240 CAVOK 31/18 Q1017 NOSIG",
    "LIRF": "METAR LIRF 150920Z 18006KT 150V240 9999 FEW010 31/23 Q1017 NOSIG",
    "EINN": "METAR EINN 150930Z 13006KT CAVOK 23/15 Q1023 NOSIG",
    "EGLL": "METAR EGLL 150920Z AUTO 05009KT 360V080 9999 BKN026 23/15 Q1024",
    "EGSS": "METAR EGSS 150920Z AUTO 02011KT 9999 BKN018 BKN022 22/15 Q1025",
    "EPWA": "METAR EPWA 150930Z 09004KT 040V180 9999 FEW038 25/15 Q1020 NOSIG",
    "UHPP": "METAR UHPP 151000Z VRB01MPS CAVOK 21/14 Q1012 R34L/CLRD62 NOSIG RMK QFE756/1008",
    "EFHK": "METAR EFHK 150920Z 33009KT 9999 FEW035 23/14 Q1019 NOSIG",
    "LBBG": "METAR LBBG 150930Z 14007KT 110V190 9999 SCT042 30/18 Q1016 NOSIG",
    "LTAC": "METAR LTAC 150920Z 29005KT 9999 FEW040 25/08 Q1017 NOSIG RMK RWY21C 03007KT 310V120 RWY03L VRB05KT RWY21R 33007KT 280V010 RWY03R 36005KT 280V070 RWY21L 04006G16KT 320V100",
    "UBBB": "METAR UBBB 150930Z 34028KT CAVOK 31/21 Q1007 NOSIG",
    "UTAA": "METAR UTAA 151000Z 08008KT 010V150 9999 NSC 43/05 Q1005 R88/CLRD70 NOSIG",
    "UACC": "METAR UACC 150930Z 27008MPS 250V310 9999 FEW030 33/13 Q1004 NOSIG RMK QFE722/0963",
    "UAAA": "METAR UAAA 150930Z 03004MPS 350V070 9999 FEW050TCU SCT200 36/06 Q1008 NOSIG",
    "UZTT": "METAR UZTT 150930Z 35006KT CAVOK 39/09 Q1006 NOSIG",
    "ZWWW": "METAR ZWWW 150930Z 33004MPS 300V360 CAVOK 31/13 Q1009 NOSIG",
    "ZLXY": "METAR ZLXY 151000Z 02003MPS 9999 FEW050 32/21 Q1003 NOSIG",
    "ZBAA": "METAR ZBAA 150930Z 19006MPS CAVOK 36/22 Q0998 NOSIG",
    "ZBHH": "METAR ZBHH 151000Z 20003MPS 160V240 CAVOK 30/18 Q1007 NOSIG",
    "ZSQD": "METAR ZSQD 151000Z 19002MPS 140V210 9999 BKN050 26/20 Q1002 NOSIG",
    "ZMCK": "METAR ZMCK 150930Z 30006MPS 270V330 9999 FEW030CB FEW033 28/08 Q1007 NOSIG RMK QFE641.0 28 MOP",
    "UUEE": "METAR UUEE 150930Z 32004G10MPS 9999 BKN016 19/15 Q1013 R24L/CLRD62 R24C/CLRD62 NOSIG",
    "UUDD": "METAR UUDD 150930Z 34007MPS 9999 SCT026 22/15 Q1012 R31L/CLRD65 NOSIG",
    "ULLI": "METAR ULLI 150930Z 30005MPS 280V340 CAVOK 22/15 Q1016 R88/090065 NOSIG",
    "USSS": "METAR USSS 150930Z 12006MPS 9999 BKN020CB 21/19 Q1003 R08R/CLRD60 R08L/11//60 TEMPO VRB23MPS -TSRA SQ RMK QFE732/0976",
    "UNNT": "METAR UNNT 150930Z 04002MPS CAVOK 26/10 Q1010 R07/CLRD// R34/CLRD// NOSIG RMK QFE748/0997",
    "UNKL": "METAR UNKL 150930Z 30007MPS CAVOK 23/11 Q1009 R29/150060 NOSIG RMK QFE731",
    "UIBB": "METAR UIBB 150930Z 28006MPS 240V330 9999 SCT040CB 20/11 Q1005 R30/CLRD62 NOSIG RMK QFE711/0948",
    "UEEE": "METAR UEEE 150930Z 10003MPS 9999 SCT025CB 23/19 Q0997 R23/09//65 NOSIG RMK QFE739",
    "UHHH": "METAR UHHH 150930Z 35002MPS 300V030 9999 FEW022CB 24/20 Q0991 R88/090060 NOSIG RMK QFE737/0983",
    "UHSS": "METAR UHSS 150930Z 24003MPS 9000 BKN019CB 21/21 Q0998 R19/290060 NOSIG RMK MT OBSC QFE747/0996"
  },
  "taf": {
    "RJAA": "TAF RJAA 150505Z 1506/1612 17010KT 9999 FEW030 BECMG 1521/1600 28004KT BECMG 1600/1603 12010KT",
    "PANC": "TAF PANC 150527Z 1506/1612 VRB05KT 5SM -RA BR SCT020 OVC060 WS015/13030KT TEMPO 1506/1510 4SM -RA BR SCT020 OVC060 FM151000 18018G28KT P6SM -RA BKN025 BKN040 OVC560 FM152200 18012G20KT P6SM VCSH SCT030 OVC050 FM160100 18012KT P6SM BKN050 OVC070 FM160900 16011KT P6SM BKN080",
    "PAFA": "TAF PAFA 150534Z 1506/1612 30004KT P6SM VCSH SCT070 BKN090 FM151500 17004KT P6SM -SHRA OVC035 FM160000 24008KT P6SM -RA OVC025",
    "PAED": "TAF AMD PAED 150655Z 1506/1611 31009KT 9000 -RA SCT020 BKN040 OVC060 620703 550406 QNH2979INS TEMPO 1507/1512 8000 BR BKN004 BECMG 1518/1519 21012G18KT 9999 -SHRA SCT030 BKN060 620604 510003 QNH2985INS BECMG 1602/1603 22009KT 9999 NSW SCT035 BKN065 620654 QNH2991INS TX15/1603Z TN10/1512Z",
    "KSEA": "TAF KSEA 150850Z 1509/1612 VRB03KT P6SM SCT250 FM151200 20004KT P6SM SCT250 FM151500 29004KT P6SM FEW250 FM152100 32007KT P6SM SKC FM160000 34008KT P6SM SKC",
    "ZSPD": "TAF ZSPD 150907Z 1512/1618 18004MPS 8000 SCT030 TX36/1512Z TX37/1606Z TN28/1521Z TEMPO 1606/1610 TSRA BKN008 SCT030CB",
    "ZSSS": "TAF ZSSS 150907Z 1512/1618 18004MPS 8000 SCT030 TX37/1512Z TX37/1606Z TN29/1521Z TEMPO 1606/1610 TSRA BKN011 SCT030CB",
    "RJFR": "TAF RJFR 150505Z 1506/1612 22014KT 9999 FEW025 BKN040 BECMG 1514/1516 28004KT",
    "VHHH": "TAF VHHH 151100Z 1512/1618 20010KT 9999 FEW010 SCT030 TX31/1606Z TN27/1522Z TEMPO 1512/1515 08010KT TEMPO 1521/1603 24015G25KT 2000 TSRA +SHRA FEW008CB SCT015 TEMPO 1603/1606 3000 SHRA FEW010CB SCT020",
    "RCTP": "TAF RCTP 151100Z 1512/1618 24010KT 9999 FEW010 BKN032 TEMPO 1512/1518 18005KT TEMPO 1518/1524 15005KT TEMPO 1604/1610 28017KT FEW010 BKN020 FEW025TCU",
    "ZGSZ": "TAF ZGSZ 150906Z 1512/1618 18004MPS 8000 BKN040 TX25/1512Z TX31/1606Z TN24/1522Z TEMPO 1518/1521 SHRA FEW025CB BKN033 TEMPO 1521/1601 2000 +SHRA SCT012 FEW025CB BKN033 TEMPO 1603/1606 TSRA SCT012 FEW025CB BKN033",
    "WSSS": "TAF WSSS 150500Z 1506/1612 15007KT 9999 FEW015 SCT020",
    "WMKK": "TAF WMKK 150500Z 1506/1612 12005KT 9999 FEW018",
    "VTBS": "TAF VTBS 150500Z 1506/1612 22010KT 9999 FEW020 TEMPO 1509/1514 VRB15KT 4000 TSRA FEW018CB SCT020 BKN080",
    "VTBU": "TAF VTBU 150500Z 1506/1606 24010KT 9999 FEW020",
    "ROAH": "TAF AMD ROAH 150702Z 1507/1612 22010KT 9999 FEW008 BKN012 TEMPO 1507/1603 FEW004 BKN006",
    "VVDN": "TAF VVDN 150500Z 1506/1606 20010KT 9999 FEW020 BECMG 1506/1507 05010KT BECMG 1512/1513 20006KT",
    "RCKH": "TAF RCKH 151100Z 1512/1618 15005KT 9999 FEW010 BKN032 TEMPO 1512/1518 08005KT TEMPO 1518/1524 05005KT TEMPO 1604/1610 22010KT 4000 SHRA FEW010 BKN020 TEMPO 1612/1618 08005KT",
    "KLAX": "TAF KLAX 151022Z 1510/1612 VRB03KT P6SM SKC FM151600 24006KT P6SM SKC FM152000 26012KT P6SM SKC FM160300 26006KT P6SM SKC FM161000 VRB03KT P6SM SKC",
    "KONT": "TAF KONT 150520Z 1506/1612 VRB04KT P6SM SKC FM152000 25012G22KT P6SM FEW120 FM160500 VRB04KT P6SM SCT120",
    "KSFO": "TAF KSFO 150859Z 1509/1612 28008KT P6SM SKC FM151800 28015G25KT P6SM SKC",
    "KOAK": "TAF KOAK 150520Z 1506/1612 24007KT P6SM SKC FM152100 28013KT P6SM SKC FM160400 28010KT P6SM FEW009 FM161100 27008KT P6SM BKN009",
    "KMHR": "TAF KMHR 150520Z 1506/1606 20006KT P6SM SKC FM152100 24008G15KT P6SM SKC FM160000 23012G20KT P6SM SKC FM160500 17006KT P6SM SKC",
    "KDFW": "TAF KDFW 150932Z 1510/1612 18003KT P6SM FEW025 SCT040 TEMPO 1510/1513 BKN015 FM151800 20007KT P6SM VCSH FEW090 FM160000 18004KT P6SM FEW200",
    "KIAH": "TAF KIAH 150839Z 1509/1612 VRB04KT P6SM SCT015 BKN150 FM151000 VRB03KT P6SM VCSH BKN035 FM151500 13006KT P6SM VCSH SCT030 BKN040 FM151700 14007KT 6SM SHRA SCT030 BKN050 PROB30 1517/1522 4SM TSRA BKN035CB FM152200 13007KT P6SM SCT035 BKN050 FM160200 VRB04KT P6SM OVC150",
    "KORD": "TAF KORD 150859Z 1509/1612 25005KT P6SM SKC FM152000 09006KT P6SM FEW050 FEW250 FM161000 04005KT 5SM FU FEW050 SCT250",
    "KJFK": "TAF KJFK 150830Z 1509/1612 25012KT P6SM SCT250 FM151600 26015G23KT 6SM HZ BKN250 FM152000 27018G27KT 6SM FU BKN250 TEMPO 1520/1524 5SM FU FM160000 32013KT 6SM FU BKN250 TEMPO 1600/1604 5SM FU FM160400 31007KT 6SM HZ BKN250",
    "KRFD": "TAF KRFD 150859Z 1509/1606 26005KT P6SM SKC FM160500 11005KT 6SM FU FEW050 SCT250",
    "KIND": "TAF KIND 150533Z 1506/1612 VRB03KT P6SM FEW250 FM151600 26005KT P6SM FEW050 SCT250",
    "KDTW": "TAF KDTW 150828Z 1508/1612 26006KT P6SM SCT250 FM151600 29008KT P6SM SCT250 FM152200 33006KT 6SM FU FEW060 BKN200 PROB30 1523/1602 4SM -TSRA BKN060CB BKN150 FM160200 05005KT 4SM FU BKN200",
    "KMSP": "TAF KMSP 150857Z 1509/1612 24003KT P6SM SKC FM151300 VRB03KT P6SM SKC FM152200 VRB03KT 5SM FU SCT150 FM160500 09005KT 6SM FU FEW250",
    "CYEG": "TAF CYEG 150840Z 1509/1606 10006KT P6SM SCT030 TEMPO 1509/1510 P6SM VCTS SCT030CB BKN120 FM151200 VRB03KT P6SM SCT025 FM151700 19006KT P6SM FEW030 FM152200 16008G18KT P6SM FEW040 SCT220 PROB30 1601/1605 VRB20G30KT 3SM TSRA OVC050CB FM160500 26008KT P6SM FEW030 SCT100 RMK NXT FCST BY 151200Z",
    "EHAM": "TAF EHAM 150455Z 1506/1612 04009KT CAVOK BECMG 1509/1512 05015KT BECMG 1520/1523 04008KT BECMG 1609/1612 03014KT",
    "EBBR": "TAF EBBR 150509Z 1506/1612 04007KT CAVOK",
    "EDDF": "TAF EDDF 150500Z 1506/1612 04010KT CAVOK PROB30 TEMPO 1513/1517 04015G30KT TSRA SCT045CB BECMG 1518/1521 05005KT",
    "EDFH": "TAF EDFH 150500Z 1506/1606 06008KT CAVOK PROB30 TEMPO 1513/1517 07015G30KT TSRA BKN050CB BECMG 1523/1602 12005KT",
    "EDDL": "TAF EDDL 150500Z 1506/1612 04007KT CAVOK BECMG 1507/1510 04012KT BECMG 1518/1521 03006KT",
    "EDDK": "TAF EDDK 150500Z 1506/1612 VRB03KT CAVOK BECMG 1508/1511 04008KT BECMG 1520/1523 VRB03KT BECMG 1610/1612 05005KT",
    "EBLG": "TAF EBLG 150509Z 1506/1612 04007KT CAVOK",
    "LSZH": "TAF LSZH 150825Z 1509/1615 06005KT CAVOK TX29/1513Z TN17/1604Z TX30/1615Z BECMG 1510/1512 VRB02KT 9999 FEW070 TEMPO 1511/1516 21015G25KT TEMPO 1512/1516 TSRA SCT060CB PROB40 TEMPO 1512/1516 24020G40KT 4000 TSGR PROB40 TEMPO 1516/1522 SHRA FEW060TCU PROB40 TEMPO 1522/1602 TSRA SCT060CB BECMG 1602/1604 CAVOK PROB30 1603/1605 2000 BCFG NSC BECMG 1611/1614 9999 FEW060",
    "LIMC": "TAF LIMC 150500Z 1506/1612 VRB05KT 9999 FEW060 TEMPO 1512/1524 4000 TSRA",
    "LIRF": "TAF LIRF 150500Z 1506/1612 10006KT CAVOK BECMG 1509/1511 22010KT BECMG 1518/1520 VRB05KT TEMPO 1600/1605 4000 BCFG BECMG 1609/1611 24012KT",
    "EINN": "TAF EINN 150500Z 1506/1606 VRB03KT CAVOK BECMG 1509/1511 08010KT BECMG 1516/1518 VRB03KT",
    "EGLL": "TAF AMD EGLL 150854Z 1508/1612 03012KT 9999 SCT025 BECMG 1510/1513 09012KT BECMG 1519/1522 03008KT PROB40 TEMPO 1603/1607 BKN009",
    "EGSS": "TAF EGSS 150455Z 1506/1612 04009KT 9999 BKN006 BECMG 1506/1509 FEW020 PROB30 TEMPO 1509/1511 BKN012 TEMPO 1523/1606 BKN008",
    "EPWA": "TAF EPWA 150830Z 1509/1609 02008KT CAVOK ",
    "UHPP": "TAF UHPP 150730Z 1509/1615 16003G12MPS 9999 BKN040CB",
    "EFHK": "TAF EFHK 150831Z 1509/1609 33009KT CAVOK",
    "LBBG": "TAF LBBG 150500Z 1506/1606 VRB04KT 9999 SCT045 BECMG 1509/1511 13012KT PROB30 TEMPO 1511/1514 5000 TSRA FEW030CB SCT045 BECMG 1517/1519 VRB04KT",
    "LTAC": "TAF LTAC 151040Z 1512/1612 04012KT 9999 SCT040 BECMG 1515/1518 CAVOK BECMG 1518/1520 VRB02KT BECMG 1606/1609 01012KT SCT040",
    "UBBB": "TAF UBBB 151054Z 1512/1612 33022G32KT 9999 SCT015 TX31/1512Z TN23/1601Z TEMPO 1512/1520 35028G38KT TEMPO 1520/1608 SCT010 FEW050CB BECMG 1608/1610 35018G28KT",
    "UTAA": "TAF UTAA 151045Z 1512/1612 15014KT 6000 SCT050 TX42/1611Z TEMPO 1512/1516 09014KT TEMPO 1516/1522 23012KT BECMG 1522/1524 33016KT TEMPO 1600/1608 29014G24KT 3000 DRDU",
    "UACC": "TAF AMD UACC 150810Z 1508/1606 27005MPS 9999 SCT030 BKN100 TX35/1509Z TN22/1523Z TEMPO 1508/1516 30012MPS BKN030CB PROB40 TEMPO 1508/1516 -TSRA BKN020CB BECMG 1516/1518 VRB01MPS TEMPO 1516/1603 18005MPS 3100 -TSRA BKN030CB TEMPO 1603/1606 22007MPS BKN030CB",
    "UAAA": "TAF UAAA 150503Z 1506/1606 34003MPS 9999 FEW050CB SCT100 TX37/1510Z TN20/1601Z TEMPO 1506/1512 04003G08MPS BECMG 1512/1514 16003MPS BECMG 1603/1604 34003MPS",
    "UZTT": "TAF UZTT 151100Z 1512/1612 09010KT 7000 NSC TX41/1511Z TN25/1600Z TEMPO 1512/1518 30010G20KT",
    "ZWWW": "TAF ZWWW 150903Z 1512/1618 34004MPS CAVOK TX38/1609Z TN26/1523Z TN30/1618Z BECMG 1514/1515 20004MPS BECMG 1602/1603 36004MPS BECMG 1614/1615 18004MPS",
    "ZLXY": "TAF ZLXY 150901Z 1512/1612 06003MPS 6000 NSC TX33/1607Z TN26/1521Z TEMPO 1609/1611 33008G15MPS TSRA FEW030CB OVC050 BECMG 1610/1611 33008G15MPS TSRA FEW030CB OVC050",
    "ZBAA": "TAF ZBAA 150902Z 1512/1618 18004MPS CAVOK TX33/1606Z TN24/1521Z TN25/1618Z",
    "ZBHH": "TAF ZBHH 150904Z 1512/1612 04004MPS 9999 FEW040 TX30/1608Z TN16/1522Z TEMPO 1609/1612 -TSRA FEW040CB FEW040",
    "ZSQD": "TAF AMD ZSQD 151025Z 1506/1606 20003MPS 6000 NSC TX32/1606Z TN21/1520Z TEMPO 1510/1511 +SHRA TEMPO 1512/1516 2500 +TSRA BKN020 SCT030CB BECMG 1517/1518 2000 BR BECMG 1600/1601 36005MPS 5000",
    "ZMCK": "TAF ZMCK 151049Z 1512/1618 VRB02MPS 9999 FEW030CB BKN033 TN14/1521Z TX23/1607Z PROB40 TEMPO 1515/1608 VRB08MPS 6000 TSRA SCT027CB BKN030 BECMG 1602/1604 32006MPS BECMG 1610/1612 VRB02MPS",
    "UUEE": "TAF UUEE 150751Z 1509/1609 33005MPS 9999 BKN016 TX24/1512Z TN15/1601Z TEMPO 1509/1517 35008G15MPS TEMPO 1606/1609 35009G15MPS",
    "UUDD": "TAF UUDD 150754Z 1509/1615 33006MPS 9999 BKN016 TX24/1512Z TN15/1601Z TEMPO 1509/1518 35008G15MPS PROB40 TEMPO 1512/1517 -TSRA BKN020CB TEMPO 1605/1615 36010G16MPS",
    "ULLI": "TAF ULLI 150754Z 1509/1609 32005G10MPS 9999 SCT030 BECMG 1520/1522 02003G08MPS",
    "USSS": "TAF USSS 150751Z 1509/1609 15003G14MPS 6000 -SHRA BKN016CB TEMPO 1509/1603 VRB21MPS -TSRAGR SQ FM160300 26003G13MPS 9999 SCT016CB TEMPO 1603/1609 -TSRA",
    "UNNT": "TAF UNNT 150800Z 1509/1609 17003G08MPS 9999 SCT040 TX28/1608Z TN15/1523Z TEMPO 1600/1609 11005G10MPS",
    "UNKL": "TAF UNKL 150753Z 1509/1609 29007G15MPS 9999 SCT040 BECMG 1510/1512 23003G08MPS",
    "UIBB": "TAF UIBB 150800Z 1509/1609 28006G14MPS 9999 -SHRA BKN016CB TEMPO 1509/1515 VRB12MPS 1900 TSRA VV003",
    "UEEE": "TAF UEEE 150800Z 1509/1615 08003MPS 9999 BKN020CB OVC100 TEMPO 1509/1515 VRB10MPS 3200 -TSRA TEMPO 1515/1523 0500 TSRA FG VV003",
    "UHHH": "TAF UHHH 150747Z 1509/1615 01003G08MPS 9999 SCT020CB TX26/1606Z TN19/1515Z TEMPO 1509/1524 0700 -TSRA FG FEW003 SCT016CB FM160000 24005G12MPS 9999 SCT020CB",
    "UHSS": "TAF UHSS 150750Z 1509/1615 23003MPS 6000 -SHRA BKN007 BKN015CB TEMPO 1509/1523 BKN002 BKN012CB BECMG 1523/1601 24005G10MPS FM160600 19003MPS 9999 SCT040"
  },
  "atis": {},
  "windtemp_alaska": "\n000\nFBAK31 KWNO 150800\nFD1AK1\nDATA BASED ON 150600Z    \nVALID 151200Z   FOR USE 0800-1500Z. TEMPS NEG ABV 24000\n\nFT  3000    6000    9000   12000   18000   24000  30000  34000  39000\nADK 2526 2634+10 2637+05 2640+00 2644-12 2648-23 275338 275747 275558\nADQ 2729 2727+01 2530-02 2434-08 2460-18 2473-28 249942 740049 246849\nAKN 2630 2729-02 2730-07 2732-11 2637-24 2550-34 256242 255442 244142\nANC 2016 1922-01 1923-06 2024-10 2126-21 2233-32 235443 234743 223341\nANN 3207 2606+09 2509+04 2808+00 3417-12 3521-25 352639 362749 362957\nBET 2826 2723-02 2723-07 2719-11 2205-22 1115-34 141247 241443 252241\nBRW 2106 2209+00 2109-05 1907-10 1809-22 2018-33 223247 212647 180742\nBTI 0707 9900+04 9900-02 2307-09 2317-19 2322-30 222746 222751 222044\nBTT 1006 1106+03 1506-03 1705-07 1606-20 1714-31 161347 151552 192043\nCDB 2611 2716+00 2620-04 2631-06 2656-17 2674-26 268840 269049 267655\nCZF 3010 9900-02 2305-06 2606-11 9900-23 1311-34 132348 160944 251242\nEHM 2725 2728-02 2628-06 2728-11 2733-23 2740-35 265045 264442 253542\nFAI 2117 1911+03 1713-03 1713-08 1822-19 1722-31 163147 152148 202442\nFYU 0810 9900+05 1707-02 1912-07 1924-18 1928-28 195046 193953 202044\nGAL 1915 1816+01 1712-03 1313-08 1315-20 1309-32 101048 091451 191242\nGKN 1629 1937+02 2129-02 2127-08 2129-21 2235-33 234843 234343 223343\nHOM 2527 2426-01 2426-05 2429-09 2344-20 2365-30 238143 246945 234644\nJNU 2008 2516+05 2723+05 2621+00 2525-13 2625-24 272741 242950 233557\nLUR 9900 1410-01 1507-06 1907-12 2410-23 2515-35 231946 231044 990041\nMCG 1817 1625+00 1626-05 1121-09 0911-19 1012-31 090750 201046 211640\nMDO 2516 2417+02 2424-01 2431-05 2450-17 2469-27 248441 259150 246050\nOME 0216 0210+00 0306-05 0105-10 1509-20 1515-32 161947 171650 230642\nORT      2414+03 2325-01 2327-06 2126-19 2040-31 194645 204645 233543\nOTZ 0408 0709+00 1106-05 9900-09 1912-20 1918-32 192147 191752 210742\nSNP 2512 2612-02 2614-06 2617-09 2520-21 2526-33 265044 265545 264344\nTKA 1820 1923-01 1923-06 1821-11 1714-21 1912-33 211645 222643 212940\nUNK 0505 9900+01 1305-03 1110-07 1408-20 1310-32 121347 111251 210741\nYAK 1616 2217+05 2230+00 2235-03 2450-14 2457-25 256241 266551 254353\nIKO 2318 2427+03 2534+03 2543-02 2647-13 2659-24 266540 266749 266358\nAFM 0908 1312+01 1612-03 1815-08 1915-20 2013-32 161247 151252 191242\n5AB 3020 2934+07 2944+03 2949-01 2852-12 2859-23 296337 296647 295957\n5AC 3215 3318+08 3421+05 3522+01 3519-12 3620-24 352339 352048 361758\n5AD 2725 2629+09 2631+05 2633+01 2631-11 2633-23 263440 263550 263561\n5AE 2616 2620+02 2635+00 2549-03 2560-15 2568-25 256939 257249 257258\n5AF 2716 2714+08 2717+05 2620+00 2721-12 2921-24 302540 302251 263057\n5AG 2523 2324+06 2428+03 2433-02 2447-12 2451-24 255840 266150 255157\n",
  "vaac_active": [],
  "vaac_tokyo": [
    {
      "id": "20260714_27303000_0746",
      "year": "2026",
      "volcano": "Mayon",
      "psn": "N1315 E12341",
      "issued": "20260714",
      "text": "FVFE01 RJTD 142339\nVA ADVISORY\nDTG: 20260714/2339Z\nVAAC: TOKYO\nVOLCANO: MAYON 273030\nPSN: N1315 E12341\nAREA: PHILIPPINES\nSOURCE ELEV: 2462M AMSL\nADVISORY NR: 2026/746\nINFO SOURCE: HIMAWARI-9 PHIVOLCS\nERUPTION DETAILS: ERUPTION AT 20260714/2207Z FL130 EXTD SE REPORTED\nOBS VA DTG: 14/2320Z\nOBS VA CLD: VA NOT IDENTIFIABLE FM SATELLITE DATA WIND FL130 030/3KT\nFCST VA CLD +6 HR: NOT AVBL\nFCST VA CLD +12 HR: NOT AVBL\nFCST VA CLD +18 HR: NOT AVBL\nRMK: VA OF PREVIOUS VAA HAS DISSIPATED IN SATELLITE IMAGERY. NEW \nERUPTION REPORTED. WE WILL ISSUE FURTHER ADVISORY IF VA IS DETECTED \nIN SATELLITE IMAGERY.\nNXT ADVISORY: NO FURTHER ADVISORIES=",
      "img_url": "https://ds.data.jma.go.jp/svd/vaac/data/VAGFN/2026/Images/20260714_27303000_0746_QH21_01.png",
      "sat_img_url": "https://ds.data.jma.go.jp/svd/vaac/data/Sat/2026/Images/27303000/09-ir/20260714_2320_202607142339_ir.png",
      "text_url": "https://ds.data.jma.go.jp/svd/vaac/data/TextData/2026/20260714_27303000_0746_Text.html"
    },
    {
      "id": "20260714_30027000_0263",
      "year": "2026",
      "volcano": "Sheveluch",
      "psn": "N5639 E16122",
      "issued": "20260714",
      "text": "FVFE01 RJTD 141200\nVA ADVISORY\nDTG: 20260714/1200Z\nVAAC: TOKYO\nVOLCANO: SHEVELUCH 300270\nPSN: N5639 E16122\nAREA: RUSSIA\nSOURCE ELEV: 3283M AMSL\nADVISORY NR: 2026/263\nINFO SOURCE: HIMAWARI-9\nERUPTION DETAILS: VA CONTINUOUSLY OBS IN SATELLITE IMAGERY\nOBS VA DTG: 14/1120Z\nOBS VA CLD: SFC/FL390 N5359 E16539 - N5422 E16550 - N5414 E16656 - \nN5349 E16654 MOV SE 40KT\nFCST VA CLD +6 HR: 14/1720Z SFC/FL400 N5233 E17412 - N5141 E17210 - \nN5144 E17002 - N5224 E17116\nFCST VA CLD +12 HR: 14/2320Z SFC/FL400 N5147 W17910 - N5115 W17906 - \nN5025 E17725 - N5008 E17317 - N5113 E17652\nFCST VA CLD +18 HR: 15/0520Z SFC/FL400 N5217 W17056 - N5119 W17200 - \nN4942 W17651 - N4907 E17606 - N5056 W17716\nRMK: THE RESPONSIBILITY FOR THIS ASH EVENT IS BEING TRANSFERRED TO \nVAAC ANCHORAGE. THE NEXT ADVISORY WILL BE ISSUED BY VAAC ANCHORAGE \nBY 1800UTC UNDER HEADER FVAK21 PAWU. SOME PART OF VA OBSCURED BY MET \nCLOUD.\nNXT ADVISORY: NO FURTHER ADVISORIES=",
      "img_url": "https://ds.data.jma.go.jp/svd/vaac/data/VAGFN/2026/Images/20260714_30027000_0263_QH21_01.png",
      "sat_img_url": "https://ds.data.jma.go.jp/svd/vaac/data/Sat/2026/Images/30027000/09-ir/20260714_1120_202607141200_ir.png",
      "text_url": "https://ds.data.jma.go.jp/svd/vaac/data/TextData/2026/20260714_30027000_0263_Text.html"
    },
    {
      "id": "20260713_28208001_0083",
      "year": "2026",
      "volcano": null,
      "psn": "N3136 E13039",
      "issued": "20260713",
      "text": "FVFE01 RJTD 130254\nVA ADVISORY\nDTG: 20260713/0254Z\nVAAC: TOKYO\nVOLCANO: SAKURAJIMA (AIRA CALDERA) 282080\nPSN: N3136 E13039\nAREA: JAPAN\nSOURCE ELEV: 1117M AMSL\nADVISORY NR: 2026/83\nINFO SOURCE: JMA HIMAWARI-9\nERUPTION DETAILS: ERUPTED AT 20260713/0152Z FL100 EXTD N\nOBS VA DTG: 13/0230Z\nOBS VA CLD: SFC/FL100 N3136 E13039 - N3142 E13040 - N3141 E13044 - \nN3134 E13042 MOV NE 15KT\nFCST VA CLD +6 HR: 13/0830Z SFC/FL100 N3234 E13121 - N3145 E13155 - \nN3202 E13110 - N3227 E13051\nFCST VA CLD +12 HR: 13/1430Z SFC/FL100 N3318 E13206 - N3142 E13317 - \nN3134 E13226 - N3312 E13118\nFCST VA CLD +18 HR: NO VA EXP\nRMK: NIL\nNXT ADVISORY: 20260713/0600Z=",
      "img_url": "https://ds.data.jma.go.jp/svd/vaac/data/VAGFN/2026/Images/20260713_28208001_0083_QH21_01.png",
      "sat_img_url": "https://ds.data.jma.go.jp/svd/vaac/data/Sat/2026/Images/28208001/09-ir/20260713_0230_202607130254_ir.png",
      "text_url": "https://ds.data.jma.go.jp/svd/vaac/data/TextData/2026/20260713_28208001_0083_Text.html"
    },
    {
      "id": "20260712_27307000_0012",
      "year": "2026",
      "volcano": "Taal",
      "psn": "N1400 E12100",
      "issued": "20260712",
      "text": "FVFE01 RJTD 121243\nVA ADVISORY\nDTG: 20260712/1243Z\nVAAC: TOKYO\nVOLCANO: TAAL 273070\nPSN: N1400 E12100\nAREA: PHILIPPINES\nSOURCE ELEV: 311M AMSL\nADVISORY NR: 2026/12\nINFO SOURCE: HIMAWARI-9 PHIVOLCS\nERUPTION DETAILS: ERUPTION AT 20260712/1227Z FL050 EXTD NE REPORTED\nOBS VA DTG: 12/1230Z\nOBS VA CLD: VA NOT IDENTIFIABLE FM SATELLITE DATA WIND FL050 230/19KT\nFCST VA CLD +6 HR: NOT AVBL\nFCST VA CLD +12 HR: NOT AVBL\nFCST VA CLD +18 HR: NOT AVBL\nRMK: WE WILL ISSUE FURTHER ADVISORY IF VA IS DETECTED IN SATELLITE \nIMAGERY.\nNXT ADVISORY: NO FURTHER ADVISORIES=",
      "img_url": "https://ds.data.jma.go.jp/svd/vaac/data/VAGFN/2026/Images/20260712_27307000_0012_QH21_01.png",
      "sat_img_url": null,
      "text_url": "https://ds.data.jma.go.jp/svd/vaac/data/TextData/2026/20260712_27307000_0012_Text.html"
    }
  ],
  "vaac_alaska": [
    {
      "text": "\n000\nFVAK21 PAWU 151030\nVAAAK1\nVA ADVISORY\n\nDTG: 20260715/1030Z\n\nVAAC: ANCHORAGE\n\nVOLCANO: SHEVELUCH 300270\n\nPSN: N5639 E16122\n\nAREA: KAMCHATKA PENINSULA\n\nSOURCE ELEV: 10771 FT AMSL\n\nADVISORY NR: 2026/200\n\nINFO SOURCE: HIMAWARI\n\nERUPTION DETAILS: RESIDUAL VA VISIBLE IN SATELLITE IMAGERY.\n\nOBS VA DTG: 15/1030Z\n\nOBS VA CLD: FL100/FL280 N4936 E17508 - N4909 E17830 - N4815\nE17812 - N4851 E17428 - N4936 E17508 MOV SE 30KT\n\nFCST VA CLD +6HR: 15/1630Z FL100/FL280 N4925 E17932 - N4935\nW17706 - N4821 W17725 - N4818 E17849 - N4925 E17932 - N4925 E17932\n\nFCST VA CLD +12HR: 15/2230Z NO VA EXP\n\nFCST VA CLD +18HR: 16/0430Z NO VA EXP\n\nRMK: VA PARTIALLY OBSCURED BY MET CLOUDS...SC\n\nNXT ADVISORY: WILL BE ISSUED BY 20260715/1630Z=\n\n",
      "issued": "2026-07-15T10:30:00+00:00",
      "volcano": "Sheveluch",
      "psn": "N5639 E16122"
    }
  ]
}