{
  "updated_utc": "2026-07-22T17:48Z",
  "metar": {
    "RJAA": "METAR RJAA 221600Z AUTO 22003KT 9000 NCD 28/25 Q1006 NOSIG",
    "PANC": "METAR PANC 221553Z 15011G26KT 10SM FEW033 BKN040 OVC050 11/06 A3006 RMK AO2 PK WND 15029/1539 SLP178 T01060061",
    "PAFA": "METAR PAFA 221553Z 00000KT 10SM BKN085 BKN095 11/09 A2991 RMK AO2 RAE34 SLP132 P0000 T01110089",
    "PAED": "METAR PAED 221555Z 35006KT 10SM FEW022 OVC041 11/08 A3004 RMK AO2A SHRAE1550 SLP169 P0000 T01080077 $",
    "KSEA": "METAR KSEA 221553Z 02007KT 10SM FEW190 FEW250 26/14 A2995 RMK A02 SLP144 T02610139",
    "ZSPD": "METAR ZSPD 221600Z 15003MPS CAVOK 26/24 Q1006 NOSIG",
    "ZSSS": "METAR ZSSS 221600Z 16003MPS CAVOK 27/24 Q1006 NOSIG",
    "RJFR": "METAR RJFR 221600Z AUTO 25004KT 9999 SCT046 BKN050 29/25 Q1009",
    "VHHH": "METAR VHHH 221600Z 15004KT 100V190 9999 -SHRA FEW012 SCT025 29/26 Q1008 NOSIG",
    "RCTP": "METAR RCTP 221600Z 16005KT 130V200 9999 FEW020 29/24 Q1008 NOSIG RMK A2979",
    "ZGSZ": "METAR ZGSZ 221600Z 16005MPS CAVOK 29/26 Q1008 NOSIG",
    "WSSS": "METAR WSSS 221600Z 19003KT 9999 FEW018 BKN300 26/24 Q1012 NOSIG",
    "WMKK": "METAR WMKK 221600Z VRB03KT 9000 FEW030 27/25 Q1011 NOSIG",
    "WIDD": "METAR WIDD 221600Z 00000KT 9000 FEW014 25/25 Q1013 NOSIG",
    "VTBS": "METAR VTBS 221600Z VRB02KT 9999 FEW020 27/24 Q1010 NOSIG",
    "VTBU": "METAR VTBU 221600Z 19006KT 9000 FEW020 29/28 Q1010 NOSIG",
    "ROAH": "METAR ROAH 221600Z AUTO 11005KT 9999 NCD 29/26 Q1009",
    "VVDN": "METAR VVDN 221600Z 31003KT 270V350 9999 FEW020 29/23 Q1007 NOSIG",
    "RCKH": "METAR RCKH 221600Z 26003KT 210V280 9999 FEW014 SCT022 29/25 Q1009 NOSIG RMK A2980",
    "KLAX": "METAR KLAX 221553Z 20004KT 8SM FEW004 OVC007 21/19 A3001 RMK AO2 SLP159 T02110189",
    "KONT": "METAR KONT 221553Z 00000KT 10SM FEW030 24/16 A3002 RMK AO2 SLP149 T02440156 $",
    "KSFO": "METAR KSFO 221556Z 19010G19KT 10SM FEW006 BKN017 20/15 A3007 RMK AO2 SLP182 T02000150",
    "KOAK": "METAR KOAK 221553Z 21020KT 10SM FEW005 SCT018 20/16 A3006 RMK AO2 PK WND 20030/1526 SLP179 T02000156",
    "KMHR": "METAR KMHR 221555Z AUTO 22009KT 10SM CLR 22/16 A3004 RMK AO2 T02240155 $",
    "KDFW": "METAR KDFW 221553Z 02007KT 10SM CLR 37/22 A2991 RMK AO2 SLP115 T03670217 $",
    "KIAH": "METAR KIAH 221553Z 28006KT 10SM FEW250 34/22 A2988 RMK AO2 SLP117 T03390222",
    "KORD": "METAR KORD 221551Z 04011G21KT 10SM FEW039 BKN050 19/11 A3008 RMK AO2 SLP185 T01940111 $",
    "KJFK": "METAR KJFK 221551Z 23012KT 10SM FEW034 28/21 A2975 RMK AO2 SLP073 T02830206 $",
    "KRFD": "METAR KRFD 221554Z 36009G16KT 10SM FEW045 FEW250 21/09 A3013 RMK AO2 SLP199 T02060089 $",
    "KIND": "METAR KIND 221554Z 05014G19KT 10SM SCT070 SCT250 22/09 A3005 RMK AO2 SLP170 T02170094",
    "KDTW": "METAR KDTW 221553Z 34012G17KT 10SM SCT030 SCT200 20/09 A3000 RMK AO2 SLP158 T02000089",
    "KMSP": "METAR KMSP 221553Z 01003KT 10SM BKN042 OVC060 19/08 A3017 RMK AO2 SLP214 T01940083",
    "CYEG": "METAR CYEG 221600Z 21002KT 8SM FEW100 21/19 A3001 RMK ACC1 ACC TR FU SLP162 DENSITY ALT 3600FT",
    "EHAM": "METAR EHAM 221555Z 33016KT 9999 FEW024 BKN045 19/12 Q1023 NOSIG",
    "EBBR": "METAR EBBR 221550Z 33011KT 9999 SCT033 20/12 Q1024 NOSIG",
    "EDDF": "METAR EDDF 221550Z AUTO 31010KT 270V340 CAVOK 22/10 Q1021 NOSIG",
    "EDFH": "METAR EDFH 221550Z 33009KT 290V360 9999 SCT037 BKN044 18/09 Q1022",
    "EDDL": "METAR EDDL 221550Z AUTO 32009KT 290V350 9999 SHRA SCT022 BKN028 FEW///TCU 19/14 Q1021 BECMG NSW",
    "EDDK": "METAR EDDK 221550Z AUTO 30014KT 9999 SCT033 BKN040 BKN049 20/12 Q1021 NOSIG",
    "EBLG": "METAR EBLG 221550Z 32009KT 9999 SCT036 20/11 Q1023 NOSIG",
    "LSZH": "METAR LSZH 221550Z 28007KT 210V360 9999 FEW075 26/04 Q1020 NOSIG",
    "LIMC": "METAR LIMC 221550Z 20006KT 140V290 CAVOK 29/13 Q1016 NOSIG",
    "LIRF": "METAR LIRF 221550Z 28013KT CAVOK 31/21 Q1012 NOSIG",
    "EINN": "METAR EINN 221600Z 04010KT 360V080 9999 FEW035 BKN037 22/12 Q1028 NOSIG",
    "EGLL": "METAR EGLL 221550Z AUTO 27008KT 240V300 9999 NCD 26/10 Q1023",
    "EGSS": "METAR EGSS 221550Z AUTO 36007KT 340V040 9999 SCT049 24/12 Q1025",
    "EPWA": "METAR EPWA 221600Z 26010KT 220V290 CAVOK 22/08 Q1013 NOSIG",
    "UHPP": "METAR UHPP 221600Z VRB01MPS 9999 BKN021 11/10 Q1011 R16R/290248 NOSIG RMK QFE755/1007",
    "EFHK": "METAR EFHK 221550Z 01008KT CAVOK 18/06 Q1006 NOSIG",
    "LBBG": "METAR LBBG 221600Z AUTO 34006KT 310V030 9999 FEW007/// 23/19 Q1011 NOSIG",
    "LTAC": "METAR LTAC 221550Z 25008KT 210V280 CAVOK 31/05 Q1011 NOSIG RMK RWY21C 24010KT RWY03L 24008KT RWY21R 22010KT RWY03R 24008KT 170V270 RWY21L 23008KT",
    "UBBB": "METAR UBBB 221600Z 16006KT CAVOK 28/16 Q1009 NOSIG",
    "UTAA": "METAR UTAA 221600Z 29008KT 9999 FEW050 SCT100 32/13 Q1007 R88/CLRD70 NOSIG",
    "UACC": "METAR UACC 221600Z 34003MPS 9999 SCT046CB 18/14 Q1003 NOSIG RMK QFE721/0962",
    "UAAA": "METAR UAAA 221600Z VRB01MPS 9999 BKN050CB OVC100 23/18 Q1007 NOSIG",
    "UZTT": "METAR UZTT 221600Z 09006KT 9999 FEW066CB 28/11 Q1007 NOSIG",
    "ZWWW": "METAR ZWWW 221600Z 35002MPS 320V040 CAVOK 26/15 Q1008 NOSIG",
    "ZLXY": "METAR ZLXY 221600Z 27002MPS 240V340 9999 TS FEW040CB SCT070 26/17 Q1004 BECMG TL1640 NSW",
    "ZBAA": "METAR ZBAA 221600Z VRB01MPS CAVOK 22/21 Q1004 NOSIG",
    "ZBHH": "METAR ZBHH 221600Z VRB02MPS 9999 -SHRA SCT040 20/15 Q1008 NOSIG",
    "ZSQD": "METAR ZSQD 221600Z 15003MPS CAVOK 25/25 Q1003 NOSIG",
    "ZMCK": "METAR ZMCK 221600Z VRB01MPS CAVOK 16/10 Q1009 NOSIG RMK QFE642.4 69",
    "UUEE": "METAR UUEE 221600Z 25006MPS 9999 FEW048 22/12 Q1006 R24L/CLRD62 R24C/CLRD62 NOSIG",
    "UUDD": "METAR UUDD 221600Z 18003MPS 9999 FEW046 22/12 Q1007 R13R/CLRD65 NOSIG",
    "ULLI": "METAR ULLI 221600Z 31004MPS 9999 FEW026CB OVC036 16/11 Q1005 R88/090065 NOSIG",
    "USSS": "METAR USSS 221600Z 00000MPS 9999 FEW048 24/19 Q1011 R26L/CLRD60 R26R/CLRD60 NOSIG RMK QFE737/0983",
    "UNNT": "METAR UNNT 221600Z 27001MPS 9999 SCT049CB 18/18 Q1000 R25/290160 R16/290160 NOSIG RMK QFE740/0987",
    "UNKL": "METAR UNKL 221600Z 23002MPS 180V260 CAVOK 19/17 Q0998 R29/CLRD// NOSIG RMK QFE723",
    "UIBB": "METAR UIBB 221600Z AUTO 09003MPS 9999 // NSC 20/13 Q0999 RMK QFE707/0943",
    "UEEE": "METAR UEEE 221600Z 34001MPS 9999 SCT050CB 20/16 Q1003 R23/09//60 NOSIG RMK QFE744",
    "UHHH": "METAR UHHH 221600Z 35003MPS CAVOK 21/20 Q1007 R05R/090060 NOSIG RMK QFE749/0999",
    "UHSS": "METAR UHSS 221600Z 01004MPS 9999 BKN010 17/16 Q1009 RMK MT OBSC QFE755/1007"
  },
  "taf": {
    "RJAA": "TAF RJAA 221705Z 2218/2400 02004KT 9999 FEW030 BECMG 2223/2301 08010KT BECMG 2309/2312 04006KT TEMPO 2312/2315 4000 -SHRA BR FEW005 BKN008 TEMPO 2315/2321 2000 BR FEW002 BKN005 BECMG 2321/2400 08006KT TEMPO 2321/2400 4000 BR FEW005 BKN008",
    "PANC": "TAF PANC 221720Z 2218/2324 15012G25KT P6SM VCSH FEW025 BKN035 TEMPO 2220/2224 SCT040 OVC060 FM230000 15010G20KT P6SM -RA SCT025 OVC040 FM230300 16015G25KT 5SM -RA SCT015 OVC025 FM230800 16025G40KT 5SM -RA SCT015 OVC030",
    "PAFA": "TAF PAFA 221720Z 2218/2324 18006KT P6SM BKN070 PROB30 2219/2223 -SHRA FM230500 15006KT P6SM -RA SCT030 OVC050 FM231000 15006KT 5SM -RA BR BKN015 OVC030",
    "KSEA": "TAF KSEA 221726Z 2218/2324 35006KT P6SM SKC FM222100 33009KT P6SM SCT250 FM230600 23010KT P6SM VCSH SCT120 BKN250 FM231200 21010KT P6SM OVC015 FM231600 21012KT P6SM OVC015",
    "ZSPD": "TAF ZSPD 221505Z 2218/2324 16004MPS 6000 SCT030 TX35/2306Z TN27/2221Z TN28/2321Z TEMPO 2307/2312 23010G15MPS TSRA BKN011 SCT030CB",
    "ZSSS": "TAF ZSSS 221505Z 2218/2324 16004MPS 8000 SCT030 TX36/2306Z TN27/2221Z TN28/2321Z TEMPO 2307/2312 27009G15MPS +TSRA BKN013 SCT030CB",
    "RJFR": "TAF RJFR 221705Z 2218/2400 28004KT 9999 FEW050 BECMG 2303/2305 34012KT BECMG 2315/2318 27006KT",
    "VHHH": "TAF VHHH 221700Z 2218/2324 16010KT 9999 FEW015 SCT030 TX34/2306Z TN28/2222Z TN28/2322Z TEMPO 2218/2224 VRB05KT 4000 SHRA FEW010CB SCT020 BECMG 2304/2306 22010KT BECMG 2310/2312 16010KT TEMPO 2315/2324 VRB05KT",
    "RCTP": "TAF RCTP 221700Z 2218/2324 18005KT 9999 FEW018 BECMG 2300/2302 27010KT TEMPO 2306/2309 -SHRA FEW012CB FEW015 BKN032 BECMG 2310/2312 08007KT BECMG 2318/2320 17005KT",
    "ZGSZ": "TAF ZGSZ 221501Z 2218/2324 18004MPS 8000 SCT040 TX33/2306Z TN28/2222Z TN28/2322Z",
    "WSSS": "TAF WSSS 221700Z 2218/2400 18008KT 9999 FEW015 SCT020",
    "WMKK": "TAF WMKK 221700Z 2218/2400 VRB02KT 9000 FEW030 PROB30 TEMPO 2220/2300 5000 TSRA FEW010 FEW017CB",
    "VTBS": "TAF VTBS 221700Z 2218/2324 21008KT 9999 FEW020 TEMPO 2308/2312 VRB15KT 4000 TSRA FEW018CB SCT030 BKN100",
    "VTBU": "TAF VTBU 221700Z 2218/2318 22006KT 9000 FEW020",
    "ROAH": "TAF ROAH 221705Z 2218/2400 10004KT 9999 FEW012 SCT020 TEMPO 2306/2309 4000 SHRA BR FEW008 BKN015 FEW020CB",
    "VVDN": "TAF VVDN 221700Z 2218/2318 24006KT 9999 FEW020 BECMG 2304/2305 02010KT TEMPO 2308/2313 23015G25KT 3500 TSRA BKN013 FEW015CB BKN060 BECMG 2313/2314 23005KT",
    "RCKH": "TAF RCKH 221700Z 2218/2324 28005KT 9999 FEW015 TEMPO 2220/2224 09005KT BECMG 2302/2303 29008KT TEMPO 2306/2309 30013KT FEW012 FEW015TCU TEMPO 2315/2319 VRB05KT BECMG 2320/2322 36007KT",
    "KLAX": "TAF KLAX 221720Z 2218/2324 26006KT P6SM BKN010 FM221830 26008KT P6SM SCT010 FM222000 26015KT P6SM SCT250 FM222300 26015G22KT P6SM SCT250 FM230300 26010KT P6SM SCT250 FM230700 VRB03KT P6SM SCT250 FM231800 26006KT P6SM FEW250 FM232000 26012KT P6SM FEW250",
    "KONT": "TAF KONT 221720Z 2218/2324 VRB05KT P6SM SKC FM222100 25011G19KT P6SM FEW200 FM230600 VRB05KT P6SM SKC FM231800 25008KT P6SM SKC",
    "KSFO": "TAF KSFO 221733Z 2218/2324 21015G23KT P6SM FEW006 BKN018 FM222300 25015KT P6SM FEW020 FM230600 27010KT P6SM BKN010 FM231700 28016G23KT P6SM BKN015",
    "KOAK": "TAF KOAK 221733Z 2218/2324 22014KT P6SM SKC FM222000 27015KT P6SM SKC FM230500 28010KT P6SM BKN008 FM231700 27009KT P6SM BKN015",
    "KMHR": "TAF KMHR 221720Z 2218/2318 24010KT P6SM SKC FM230200 18012KT P6SM SKC FM230800 15011KT P6SM SKC FM231400 18008KT P6SM FEW250",
    "KDFW": "TAF KDFW 221720Z 2218/2324 04010KT P6SM FEW250 FM230000 07008KT P6SM SCT070 SCT250",
    "KIAH": "TAF KIAH 221720Z 2218/2324 VRB05KT P6SM SKC TEMPO 2221/2301 4SM TSRA BKN050CB FM230600 VRB05KT P6SM SKC FM231400 04008KT P6SM SKC",
    "KORD": "TAF KORD 221720Z 2218/2324 03011G18KT P6SM FEW035 SCT050 FM230200 VRB04KT P6SM FEW060 FM231800 03007KT P6SM SCT060",
    "KJFK": "TAF KJFK 221722Z 2218/2324 24014G20KT P6SM SCT030 SCT060 PROB30 2218/2221 5SM -SHRA FM222200 28011G17KT P6SM SCT070 FM230000 34009KT P6SM FEW090 FM230600 36008KT P6SM SKC FM232000 14009KT P6SM FEW040",
    "KRFD": "TAF KRFD 221720Z 2218/2318 36011KT P6SM SCT060 FM230200 VRB04KT P6SM SCT060 FM231600 25007KT P6SM SCT060",
    "KIND": "TAF KIND 221725Z 2218/2324 05014G19KT P6SM BKN050 FM222300 36007KT P6SM FEW050 FM231400 06006KT P6SM FEW050",
    "KDTW": "TAF KDTW 221720Z 2218/2324 33012G20KT P6SM SCT045 FM221900 31012KT P6SM BKN060 FM230100 30007KT P6SM SCT060 FM230600 34004KT P6SM SKC FM231600 30004KT P6SM SCT060",
    "KMSP": "TAF KMSP 221720Z 2218/2324 34005KT P6SM BKN050 FM230300 14005KT P6SM SKC FM231600 22007KT P6SM FEW250",
    "CYEG": "TAF CYEG 221740Z 2218/2318 21005KT P6SM FEW100 FM222100 28005KT P6SM FEW040 FM230300 16005KT P6SM SKC PROB30 2310/2314 1SM BR FM231400 20006KT P6SM SKC RMK NXT FCST BY 222100Z",
    "EHAM": "TAF EHAM 221658Z 2218/2324 33011KT 9999 SCT022 BKN040 BECMG 2319/2322 VRB02KT",
    "EBBR": "TAF EBBR 221703Z 2218/2324 33009KT 9999 SCT030 PROB30 TEMPO 2302/2309 4500 -SHRA BKN014",
    "EDDF": "TAF EDDF 221700Z 2218/2324 32010KT CAVOK BECMG 2219/2222 30005KT BECMG 2307/2311 33010G20KT BECMG 2318/2322 02005KT",
    "EDFH": "TAF EDFH 221700Z 2218/2318 32006KT 9999 SCT040",
    "EDDL": "TAF EDDL 221700Z 2218/2324 31010KT 9999 BKN040 BECMG 2219/2222 30004KT PROB30 TEMPO 2304/2308 BKN010 BECMG 2308/2311 32009KT BECMG 2318/2320 35003KT",
    "EDDK": "TAF EDDK 221700Z 2218/2324 31011KT 9999 BKN030 BECMG 2218/2221 32005KT PROB30 TEMPO 2304/2308 BKN010 BECMG 2309/2312 32010KT BECMG 2318/2320 01003KT",
    "EBLG": "TAF EBLG 221703Z 2218/2324 32008KT 9999 SCT035 PROB30 TEMPO 2303/2309 4500 -SHRA BKN012",
    "LSZH": "TAF LSZH 221725Z 2218/2324 30008KT CAVOK TX27/2315Z TN13/2304Z BECMG 2218/2221 VRB02KT PROB40 TEMPO 2304/2309 02005KT TEMPO 2308/2315 9999 FEW050 PROB40 TEMPO 2315/2320 31008KT",
    "LIMC": "TAF LIMC 221700Z 2218/2324 VRB05KT CAVOK BECMG 2319/2321 02010KT",
    "LIRF": "TAF LIRF 221700Z 2218/2324 32015KT 9999 FEW030 BECMG 2222/2224 04008KT BECMG 2310/2312 25012KT BECMG 2318/2320 VRB05KT",
    "EINN": "TAF EINN 221700Z 2218/2318 03010KT 9999 FEW025 BKN035 BECMG 2220/2222 36008KT PROB30 2303/2307 0500 FG BKN001 PROB30 TEMPO 2307/2309 3000 BR BKN004",
    "EGLL": "TAF EGLL 221658Z 2218/2324 04010KT 9999 FEW045 BECMG 2218/2221 11004KT BECMG 2303/2306 22010KT PROB30 TEMPO 2303/2307 9000",
    "EGSS": "TAF EGSS 221650Z 2218/2324 10006KT 9999 FEW045 PROB40 2302/2307 6000",
    "EPWA": "TAF EPWA 221730Z 2218/2318 26010KT 9999 FEW045 PROB40 TEMPO 2218/2306 27015G25KT SHRA SCT045CB TEMPO 2306/2318 27020G30KT 2500 TSRA BKN010 BKN025CB BECMG 2315/2317 VRB02KT",
    "UHPP": "TAF UHPP 221640Z 2218/2324 12003G10MPS 9999 BKN030CB TEMPO 2218/2221 0700 FG VV002",
    "EFHK": "TAF EFHK 221737Z 2218/2318 30005KT CAVOK PROB30 2300/2307 BKN007 SCT020CB TEMPO 2307/2310 SCT020CB TEMPO 2310/2318 SHRA SCT030CB PROB40 TEMPO 2314/2318 2500 TSRA",
    "LBBG": "TAF LBBG 221700Z 2218/2318 34012KT 9999 SCT010 BKN020 BECMG 2306/2308 SCT030",
    "LTAC": "TAF LTAC 221640Z 2218/2318 VRB02KT CAVOK BECMG 2300/2303 SCT040 SCT100 BECMG 2304/2307 25012KT PROB30 TEMPO 2307/2311 31015G25KT -SHRA FEW025CB BKN030 TEMPO 2311/2315 33015G25KT TEMPO 2315/2318 35015G25KT BECMG 2316/2318 CAVOK",
    "UBBB": "TAF UBBB 221702Z 2218/2318 VRB04KT CAVOK TX32/2310Z TN22/2301Z TEMPO 2218/2221 19006KT SCT040 BECMG 2305/2307 15008KT TEMPO 2307/2315 18012KT",
    "UTAA": "TAF UTAA 221645Z 2218/2318 27016KT 6000 SCT030 SCT050CB TEMPO 2218/2224 33012G22KT TEMPO 2300/2308 34016G26KT 4000 DRDU TEMPO 2308/2315 03014KT",
    "UACC": "TAF UACC 221703Z 2218/2318 36003MPS 9999 SCT030 BKN100 TX25/2309Z TN15/2224Z TEMPO 2218/2303 02005MPS 3100 -SHRA BR SCT005 BKN020CB PROB40 TEMPO 2218/2303 TS BKN020CB BECMG 2303/2305 02006MPS SCT030CB BKN050 TEMPO 2303/2315 VRB15MPS 3100 -TSRA SQ BKN020CB",
    "UAAA": "TAF UAAA 221701Z 2218/2318 22003MPS 9999 SCT050CB BKN100 TX31/2309Z TN18/2300Z TEMPO 2223/2305 28005G10MPS -TSRA BECMG 2305/2307 34005MPS TEMPO 2305/2316 04006G14MPS 5000 -TSRA BLDU",
    "UZTT": "TAF UZTT 221700Z 2218/2318 08010KT 7000 FEW060CB BKN100 TX35/2311Z TN22/2300Z TEMPO 2218/2224 VRB15G25KT 4000 -TSRA -DS BKN050CB",
    "ZWWW": "TAF ZWWW 221507Z 2218/2324 33004G11MPS 8000 BKN040 TX31/2309Z TN24/2223Z TN23/2323Z BECMG 2306/2307 FEW040CB BKN040 BECMG 2313/2314 16004MPS CAVOK",
    "ZLXY": "TAF ZLXY 221504Z 2218/2318 06003MPS 6000 NSC TX36/2307Z TN23/2221Z",
    "ZBAA": "TAF ZBAA 221502Z 2218/2324 14003MPS 6000 NSC TX29/2306Z TN21/2221Z TN20/2321Z TEMPO 2219/2301 -TSRA FEW030CB BKN040 TEMPO 2311/2315 -TSRA FEW040CB BKN040",
    "ZBHH": "TAF ZBHH 221502Z 2218/2318 24004G09MPS 9999 SCT040 TX29/2308Z TN15/2222Z TEMPO 2221/2224 2800 -SHRA SCT040 FEW040CB BECMG 2307/2308 -TSRA SCT040 FEW040CB TEMPO 2308/2311 34010G17MPS TSRA BECMG 2311/2312 NSW NSC",
    "ZSQD": "TAF ZSQD 221502Z 2218/2318 33003MPS 3500 BR SCT010 TX32/2306Z TN22/2220Z BECMG 2301/2302 17005MPS",
    "ZMCK": "TAF ZMCK 221640Z 2218/2324 VRB02MPS 9999 FEW030CB SCT033 TN12/2221Z TX30/2307Z BECMG 2315/2317 09005MPS PROB40 TEMPO 2316/2324 VRB08G13MPS TSRA SCT027CB SCT030",
    "UUEE": "TAF UUEE 221658Z 2218/2318 21003G08MPS 9999 SCT016 TX22/2312Z TN14/2301Z TEMPO 2223/2308 -TSRA BKN010 BKN016CB BECMG 2303/2306 27005MPS PROB40 TEMPO 2308/2312 -TSRA BKN020CB",
    "UUDD": "TAF UUDD 221656Z 2218/2324 21003MPS 9999 SCT016 TX22/2312Z TN13/2324Z PROB40 TEMPO 2218/2221 -TSRA BKN020CB TEMPO 2223/2307 4900 -SHRA BKN012CB BECMG 2304/2306 27006MPS BECMG 2316/2318 VRB01MPS",
    "ULLI": "TAF ULLI 221651Z 2218/2318 30003G08MPS 6000 BKN017 TEMPO 2218/2220 3100 -TSRA BKN016CB TEMPO 2222/2304 0300 FG BKN003 TEMPO 2304/2306 BKN010",
    "USSS": "TAF USSS 221649Z 2218/2318 31003MPS 6000 SCT016CB TEMPO 2218/2303 0300 -TSRA FG VV002 FM230300 12003G10MPS 9999 SCT033CB TEMPO 2305/2318 -TSRAGR",
    "UNNT": "TAF UNNT 221700Z 2218/2318 31003G08MPS 8000 BKN030 TX25/2309Z TN16/2222Z TEMPO 2218/2302 0300 -TSRA FG BKN002 BKN020CB TEMPO 2302/2315 -TSRA BKN020CB",
    "UNKL": "TAF UNKL 221644Z 2218/2318 26003MPS 6000 NSC FM230300 26008G14MPS 9999 SCT016CB BECMG 2304/2307 27003G08MPS -TSRA BECMG 2308/2311 NSW TEMPO 2311/2315 -TSRA",
    "UIBB": "TAF UIBB 221700Z 2218/2318 12003G08MPS 9999 -SHRA FEW001 BKN020CB TEMPO 2218/2219 VRB08MPS BECMG 2219/2221 23005MPS TEMPO 2221/2312 VRB10MPS 1900 TSRA BKN004 BKN020CB",
    "UEEE": "TAF UEEE 221700Z 2218/2324 11003G08MPS 9999 SCT020CB OVC100 TX30/2306Z TN18/2218Z TEMPO 2218/2224 VRB01MPS 0500 TSRA FG VV003 TEMPO 2300/2315 VRB14MPS 2100 -TSRA SCT007 BKN020CB OVC100",
    "UHHH": "TAF UHHH 221648Z 2218/2324 07003MPS 9999 SCT020CB TX30/2305Z TN20/2218Z TEMPO 2218/2222 0500 FG FEW003 SCT015CB",
    "UHSS": "TAF UHSS 221645Z 2218/2324 36003MPS 9999 BKN004 BECMG 2222/2301 SCT040CB"
  },
  "atis": {},
  "windtemp_alaska": "\n000\nFBAK31 KWNO 221359\nFD1AK1\nDATA BASED ON 221200Z    \nVALID 221800Z   FOR USE 1400-2100Z. TEMPS NEG ABV 24000\n\nFT  3000    6000    9000   12000   18000   24000  30000  34000  39000\nADK 2453 2453+13 2450+09 2449+05 2351-05 2451-16 245431 245541 245254\nADQ 2622 2633+07 2735+03 2840-01 2841-09 2836-19 284935 294944 294855\nAKN 2221 2329+05 2446+03 2543-01 2741-09 2751-20 285735 287245 297752\nANC 1911 2115+01 2321-03 2522-05 2637-13 2745-21 288336 298746 286651\nANN 3428 3318+11 3320+08 3220+03 2822-11 2924-25 292543 292553 272850\nBET 1830 1931+03 2138+00 2248-02 2558-10 2567-20 267836 278445 267449\nBRW 2506 9900+06 1211+01 1221-05 1133-16 1037-28 115443 125550 142345\nBTI 2619 1911+07 1722+02 1621-04 1533-16 1539-28 143642 133249 162547\nBTT 2311 2310+02 2209-04 2211-09 1808-21 1422-33 144044 171639 231439\nCDB 2439 2539+09 2738+06 2740+02 2850-06 2944-16 294732 295242 305556\nCZF 1426 1424+01 1827-01 2131-04 2349-13 2477-22 259836 259944 257945\nEHM 2237 2236+06 2244+04 2349+01 2648-08 2760-18 278433 289843 279653\nFAI 2617 2617+00 2313-04 2308-09 2115-21 2315-34 263539 263438 252941\nFYU 2412 1418+02 1623-03 1718-08 1623-19 1536-28 145144 163843 192041\nGAL 2017 2017+00 2015-06 2212-08 2415-19 2744-28 277941 276242 263441\nGKN 1621 2119+01 2310-03 2421-07 2643-15 2554-23 276440 286748 274848\nHOM 2016 2313+03 2523-01 2630-03 2844-10 2851-20 285635 285645 285153\nJNU 2605 3117+06 3230+04 3228+01 3134-14 3044-25 314442 324553 322648\nLUR 9900 2705+01 9900-05 1508-09 1309-19 1117-32 103046 112643 141340\nMCG 2025 2119+00 2014-05 2423-06 2537-15 2753-24 279437 289946 276046\nMDO 2516 2523+05 2533+02 2534-02 2535-13 2740-21 305236 306345 296556\nOME 1209 1012+00 0814-06 1510-08 2113-18 2422-29 245842 245441 243840\nORT      2518+02 2319-03 2326-06 2338-15 2456-25 245841 245449 253347\nOTZ 1111 1011+01 1014-05 1017-10 1312-20 1318-32 201243 231640 221639\nSNP 2440 2449+12 2456+08 2457+03 2576-07 2587-16 259831 259541 258653\nTKA 1923 2022+00 2121-05 2328-07 2646-15 2753-25 289138 289346 275647\nUNK 1912 1615-01 1914-03 2116-06 2424-16 2546-26 258739 268544 265042\nYAK 9900 2522+04 2740+02 2641-02 2741-14 2639-23 293439 304051 303854\nIKO 2440 2442+13 2544+08 2540+04 2630-06 2630-16 263131 283442 293355\nAFM 1508 1412+01 1214-05 1021-10 1316-21 1317-33 151042 200939 211339\n5AB 2317 2425+12 2429+08 2530+03 2341-08 2363-18 237432 238142 238754\n5AC 3634 3627+10 3520+07 3415+03 3112-11 3012-25 301542 272050 252553\n5AD 2621 2717+08 2715+05 2715+00 2715-13 2713-24 352938 364447 016257\n5AE 2435 2222+10 2823+05 2722-01 2822-08 2930-18 325134 325345 336855\n5AF 3122 3226+08 3321+05 3320+00 3020-12 2924-25 292242 311853 312653\n5AG 2627 2629+06 2533+04 2531-01 2637-13 2638-23 284038 324648 325656\n",
  "vaac_active": [
    {
      "volcano": "SHEVELUCH",
      "volcano_jp": "シベルチ",
      "advisory_nr": "2026/216",
      "obs_time": "2026-07-22 12:30Z",
      "issued_time": "2026-07-22 12:30Z",
      "text_url": "https://www.data.jma.go.jp/vaac/data/TextData/2026/20260722_30027000_0216_AN_Text.html",
      "lat": 56.65,
      "lon": 161.367,
      "text": "FVFE01 RJTD 221237\nVAAAK1\nVA ADVISORY\n\nDTG: 20260722/1230Z\n\nVAAC: ANCHORAGE\n\nVOLCANO: SHEVELUCH 300270\n\nPSN: N5639 E16122\n\nAREA: KAMCHATKA PENINSULA\n\nSOURCE ELEV: 10771 FT AMSL\n\nADVISORY NR: 2026/216\n\nINFO SOURCE: HIMAWARI/GOES\n\nERUPTION DETAILS: VA CONTINUOUSLY OBS IN SATELLITE IMAGERY\n\nOBS VA DTG: 22/1230Z\n\nOBS VA CLD: SFC/FL320 N6201 W15427 - N6453 W15735 - N6524 W17007\n- N6309 W17425 - N6201 W15427 MOV E 90KT\n\nFCST VA CLD +6HR: 22/1830Z SFC/FL320 N6700 W16147 - N6245 W14108\n- N6056 W14242 - N6356 W16602 - N6700 W16147\n\nFCST VA CLD +12HR: 23/0030Z SFC/FL320 N6717 W15308 - N6256\nW14010 - N5935 W13457 - N6727 W13449 - N6615 W14056 - N6717\nW15308 - N6717 W15308\n\nFCST VA CLD +18HR: 23/0630Z NO VA EXP\n\nRMK: NIL...BS\n\nNXT ADVISORY: WILL BE ISSUED BY 20260722/1830Z="
    }
  ],
  "vaac_tokyo": [
    {
      "id": "20260722_30027000_0276",
      "year": "2026",
      "volcano": "Sheveluch",
      "psn": "N5639 E16122",
      "issued": "20260722",
      "text": "FVFE01 RJTD 220506\nVA ADVISORY\nDTG: 20260722/0506Z\nVAAC: TOKYO\nVOLCANO: SHEVELUCH 300270\nPSN: N5639 E16122\nAREA: RUSSIA\nSOURCE ELEV: 3283M AMSL\nADVISORY NR: 2026/276\nINFO SOURCE: HIMAWARI-9\nERUPTION DETAILS: VA CONTINUOUSLY OBS IN SATELLITE IMAGERY\nOBS VA DTG: 22/0430Z\nOBS VA CLD: SFC/FL350 N6057 E17954 - N6010 W17949 - N5908 E17504 - \nN5937 E17453 - N6015 E17614 MOV NE 100KT\nFCST VA CLD +6 HR: 22/1030Z SFC/FL370 N6217 W15947 - N6303 W17404 - \nN6354 W17256 - N6401 W16626\nFCST VA CLD +12 HR: 22/1630Z SFC/FL380 N6204 W14422 - N6050 W14304 - \nN6532 W16429 - N6624 W16339\nFCST VA CLD +18 HR: 22/2230Z SFC/FL390 N6338 W13523 - N5921 W13421 - \nN6726 W15737 - N6713 W15453\nRMK: THE RESPONSIBILITY FOR THIS ASH EVENT IS BEING TRANSFERRED TO \nVAAC ANCHORAGE. THE NEXT ADVISORY WILL BE ISSUED BY VAAC ANCHORAGE \nBY 0700UTC UNDER HEADER FVAK21 PAWU. SOUTHERN PART OF VA OBSCURED BY \nMET CLOUD.\nNXT ADVISORY: NO FURTHER ADVISORIES=",
      "img_url": "https://ds.data.jma.go.jp/svd/vaac/data/VAGFN/2026/Images/20260722_30027000_0276_QH21_01.png",
      "sat_img_url": "https://ds.data.jma.go.jp/svd/vaac/data/Sat/2026/Images/30027000/09-ir/20260722_0430_202607220506_ir.png",
      "text_url": "https://ds.data.jma.go.jp/svd/vaac/data/TextData/2026/20260722_30027000_0276_Text.html"
    },
    {
      "id": "20260722_28505000_0001",
      "year": "2026",
      "volcano": "Tokachidake",
      "psn": "N4325 E14241",
      "issued": "20260722",
      "text": "FVFE01 RJTD 220219\nVA ADVISORY\nDTG: 20260722/0219Z\nVAAC: TOKYO\nVOLCANO: TOKACHIDAKE 285050\nPSN: N4325 E14241\nAREA: JAPAN\nSOURCE ELEV: 2077M AMSL\nADVISORY NR: 2026/1\nINFO SOURCE: JMA HIMAWARI-9\nERUPTION DETAILS: ERUPTED AT 20260722/0207Z FL070 STNR\nOBS VA DTG: 22/0200Z\nOBS VA CLD: VA NOT IDENTIFIABLE FM SATELLITE DATA WIND FL070 290/9KT\nFCST VA CLD +6 HR: NOT AVBL\nFCST VA CLD +12 HR: NOT AVBL\nFCST VA CLD +18 HR: NOT AVBL\nRMK: WE WILL ISSUE FURTHER ADVISORY IF VA IS DETECTED IN SATELLITE \nIMAGERY.\nNXT ADVISORY: NO FURTHER ADVISORIES=",
      "img_url": "https://ds.data.jma.go.jp/svd/vaac/data/VAGFN/2026/Images/20260722_28505000_0001_QH21_01.png",
      "sat_img_url": null,
      "text_url": "https://ds.data.jma.go.jp/svd/vaac/data/TextData/2026/20260722_28505000_0001_Text.html"
    },
    {
      "id": "20260721_27307000_0019",
      "year": "2026",
      "volcano": "Taal",
      "psn": "N1400 E12100",
      "issued": "20260721",
      "text": "FVFE01 RJTD 211319\nVA ADVISORY\nDTG: 20260721/1319Z\nVAAC: TOKYO\nVOLCANO: TAAL 273070\nPSN: N1400 E12100\nAREA: PHILIPPINES\nSOURCE ELEV: 311M AMSL\nADVISORY NR: 2026/19\nINFO SOURCE: HIMAWARI-9 PHIVOLCS\nERUPTION DETAILS: ERUPTION AT 20260721/1209Z FL110 REPORTED\nOBS VA DTG: 21/1250Z\nOBS VA CLD: SFC/FL110 N1404 E12056 - N1359 E12050 - N1354 E12057 - \nN1358 E12100 MOV W 15KT\nFCST VA CLD +6 HR: 21/1850Z SFC/FL130 N1329 E12051 - N1306 E12036 - \nN1322 E11953 - N1339 E12003\nFCST VA CLD +12 HR: 22/0050Z SFC/FL140 N1259 E12029 - N1227 E12001 - \nN1251 E11858 - N1320 E11911\nFCST VA CLD +18 HR: NO VA EXP\nRMK: NIL\nNXT ADVISORY: 20260721/1800Z=",
      "img_url": "https://ds.data.jma.go.jp/svd/vaac/data/VAGFN/2026/Images/20260721_27307000_0019_QH21_01.png",
      "sat_img_url": "https://ds.data.jma.go.jp/svd/vaac/data/Sat/2026/Images/27307000/09-ir/20260721_1250_202607211319_ir.png",
      "text_url": "https://ds.data.jma.go.jp/svd/vaac/data/TextData/2026/20260721_27307000_0019_Text.html"
    },
    {
      "id": "20260721_28208001_0086",
      "year": "2026",
      "volcano": null,
      "psn": "N3136 E13039",
      "issued": "20260721",
      "text": "FVFE01 RJTD 210627\nVA ADVISORY\nDTG: 20260721/0627Z\nVAAC: TOKYO\nVOLCANO: SAKURAJIMA (AIRA CALDERA) 282080\nPSN: N3136 E13039\nAREA: JAPAN\nSOURCE ELEV: 1117M AMSL\nADVISORY NR: 2026/86\nINFO SOURCE: JMA HIMAWARI-9\nERUPTION DETAILS: ERUPTED AT 20260721/0514Z FL140 STNR\nOBS VA DTG: 21/0610Z\nOBS VA CLD: SFC/FL140 N3140 E13037 - N3139 E13043 - N3131 E13043 - \nN3131 E13036 MOV S 5KT\nFCST VA CLD +6 HR: 21/1210Z SFC/FL140 N3207 E13054 - N3118 E13054 - \nN3119 E13021 - N3159 E13012\nFCST VA CLD +12 HR: 21/1810Z SFC/FL140 N3224 E13103 - N3138 E13035 - \nN3138 E12953 - N3315 E13009\nFCST VA CLD +18 HR: NO VA EXP\nRMK: NIL\nNXT ADVISORY: 20260721/1200Z=",
      "img_url": "https://ds.data.jma.go.jp/svd/vaac/data/VAGFN/2026/Images/20260721_28208001_0086_QH21_01.png",
      "sat_img_url": "https://ds.data.jma.go.jp/svd/vaac/data/Sat/2026/Images/28208001/09-ir/20260721_0610_202607210627_ir.png",
      "text_url": "https://ds.data.jma.go.jp/svd/vaac/data/TextData/2026/20260721_28208001_0086_Text.html"
    }
  ],
  "vaac_alaska": [
    {
      "text": "\n000\nFVAK21 PAWU 221632\nVAAAK1\nVA ADVISORY\n\nDTG: 20260722/1621Z\n\nVAAC: ANCHORAGE\n\nVOLCANO: SHEVELUCH 300270\n\nPSN: N5639 E16122\n\nAREA: KAMCHATKA PENINSULA\n\nSOURCE ELEV: 10771 FT AMSL\n\nADVISORY NR: 2026/217\n\nINFO SOURCE: GOES\n\nERUPTION DETAILS: VA CONTINUOUSLY OBS ON SATELLITE IMAGERY.\n\nOBS VA DTG: 22/1621Z\n\nOBS VA CLD: FL100/FL360 N6645 W16309 - N6435 W15005 - N6353\nW14516 - N6157 W14606 - N6216 W14844 - N6331 W15507 - N6503\nW15646 - N6619 W16454 - N6658 W16458 - N6645 W16309 MOV E 85KT\n\nFCST VA CLD +6HR: 22/2221Z FL100/FL360 N6629 W15455 - N6630\nW15457 - N6529 W14355 - N6552 W14212 - N6835 W14419 - N6655\nW13529 - N6042 W13703 - N6131 W14110 - N6459 W14854 - N6629 W15455\n\nFCST VA CLD +12HR: 23/0421Z FL100/FL360 N7006 W13042 - N6601\nW12515 - N5554 W12803 - N5828 W13326 - N6652 W13522 - N7015\nW14732 - N7131 W14106 - N7006 W13042 - N7006 W13042\n\nFCST VA CLD +18HR: 23/1021Z NO VA EXP\n\nRMK: NIL...PD\n\nNXT ADVISORY: WILL BE ISSUED BY 20260722/2221Z=\n\n",
      "issued": "2026-07-22T16:32:00+00:00",
      "volcano": "Sheveluch",
      "psn": "N5639 E16122"
    }
  ]
}