{
  "updated_utc": "2026-07-11T10:01Z",
  "metar": {
    "RJAA": "METAR RJAA 110830Z 15010KT 9999 FEW030 BKN/// 28/22 Q1012 NOSIG",
    "PANC": "METAR PANC 110853Z 00000KT 10SM SCT080 SCT220 16/11 A2979 RMK AO2 SLP089 T01560106 402110111 56002",
    "PAFA": "METAR PAFA 110853Z 00000KT 10SM FEW130 SCT220 16/14 A2971 RMK AO2 SLP064 T01610139 402220139 56015",
    "PAED": "METAR PAED 110855Z 28009KT 10SM SCT065 OVC080 17/10 A2977 RMK SLP077 60000 T01660098 402160115 56004 $",
    "KSEA": "METAR KSEA 110853Z 00000KT 10SM BKN120 BKN200 14/11 A2992 RMK AO2 SLP135 T01390106 51004 $",
    "ZSPD": "METAR ZSPD 110830Z 07010MPS 9999 BKN016 29/26 Q1000 NOSIG",
    "ZSSS": "SPECI ZSSS 110808Z 09009G14MPS 9999 BKN026 30/25 Q1000 WS R18L NOSIG",
    "RJFR": "METAR RJFR 110900Z 06010KT 9999 FEW025 28/25 Q1012",
    "VHHH": "METAR VHHH 110830Z 27004KT 9999 FEW020 34/24 Q0996 NOSIG",
    "RCTP": "SPECI RCTP 110808Z 26022G37KT 2500 SHRA SCT005 BKN008 BKN015 26/26 Q0986 WS ALL RWY NOSIG RMK A2912",
    "ZGSZ": "METAR ZGSZ 110900Z 19004MPS CAVOK 33/27 Q0996 NOSIG",
    "WSSS": "METAR WSSS 110830Z 17012KT 9999 FEW020 BKN160 30/24 Q1007 NOSIG",
    "WMKK": "METAR WMKK 110830Z VRB02KT 9000 FEW017CB 29/25 Q1007 NOSIG",
    "WIDD": "METAR WIDD 110830Z 19010KT 9999 SCT014 31/24 Q1007 NOSIG",
    "VTBS": "METAR VTBS 110830Z 22009KT 9999 FEW020 BKN050 33/23 Q1003 NOSIG",
    "VTBU": "METAR VTBU 110830Z 25013KT 220V280 9999 FEW020 34/26 Q1003 NOSIG",
    "ROAH": "METAR ROAH 110830Z 14036G52KT 6000 BKN015 BKN025 28/26 Q0999",
    "VVDN": "METAR VVDN 110830Z 12006KT 9999 SCT020 BKN055 33/23 Q0998 NOSIG",
    "RCKH": "METAR RCKH 110830Z 29011KT 240V330 7000 -RA FEW010TCU SCT016 BKN024 BKN052 30/27 Q0993 TEMPO 5000 RA RMK 28012G22KT/R09 TCU SE A2934",
    "KLAX": "SPECI KLAX 110842Z VRB05KT 8SM FEW006 OVC009 19/17 A2989 RMK AO2 T01890167 $",
    "KONT": "METAR KONT 110853Z 22004KT 10SM FEW250 19/15 A2990 RMK AO2 SLP110 T01890150 51007 $",
    "KSFO": "METAR KSFO 110856Z 30014KT 10SM FEW004 BKN009 12/10 A2992 RMK AO2 SLP131 T01220100 58006 $",
    "KOAK": "METAR KOAK 110853Z 29006KT 10SM FEW004 SCT010 13/11 A2993 RMK AO2 SLP134 T01280106 58004",
    "KMHR": "METAR KMHR 110815Z AUTO 17005KT 9SM CLR 15/09 A2983 RMK AO2 T01530086 $",
    "KDFW": "METAR KDFW 110853Z 19008KT 10SM CLR 27/21 A3000 RMK AO2 SLP149 T02720211 53011 $",
    "KIAH": "METAR KIAH 110853Z 19004KT 10SM FEW250 25/24 A3001 RMK AO2 SLP162 T02500239 55002",
    "KORD": "METAR KORD 110851Z 36006KT 10SM BKN250 19/14 A2998 RMK AO2 SLP146 T01890144 55001 $",
    "KJFK": "METAR KJFK 110851Z 05007KT 10SM BKN110 BKN250 24/21 A2989 RMK AO2 SLP120 T02390206 55001 $",
    "KRFD": "METAR KRFD 110854Z 36004KT 10SM BKN250 18/16 A3001 RMK AO2 SLP159 T01780156 53001",
    "KIND": "METAR KIND 110854Z 00000KT 10SM -RA FEW080 BKN110 OVC150 23/21 A2993 RMK AO2 SLP128 P0001 60001 T02330206 58008",
    "KDTW": "METAR KDTW 110853Z 00000KT 10SM FEW025 SCT045 SCT200 20/17 A2998 RMK AO2 SLP149 T02000172 53001 $",
    "KMSP": "METAR KMSP 110853Z 00000KT 10SM CLR 23/19 A3002 RMK AO2 SLP160 T02280189 53009",
    "CYEG": "SPECI CYEG 110819Z 11016G27KT 090V150 12SM -TSRA FEW026 BKN072CB OVC100 17/14 A2981 RMK SC1CB6ACC1 CB OHD AND ALQDS MOV NE FRQ LTGCGICCC SLP093 DENSITY ALT 3300FT",
    "EHAM": "METAR EHAM 110825Z 06009KT 020V090 9999 FEW009 SCT012 20/17 Q1021 TEMPO BKN014",
    "EBBR": "METAR EBBR 110820Z 06006KT CAVOK 24/17 Q1020 NOSIG",
    "EDDF": "METAR EDDF 110820Z AUTO 06008KT 010V100 CAVOK 26/13 Q1019 NOSIG",
    "EDFH": "METAR EDFH 110820Z 10006KT 030V160 CAVOK 24/11 Q1020",
    "EDDL": "METAR EDDL 110820Z AUTO 03008KT CAVOK 26/15 Q1019 NOSIG",
    "EDDK": "METAR EDDK 110820Z AUTO 09005KT 020V180 CAVOK 26/15 Q1019 NOSIG",
    "EBLG": "METAR EBLG 110820Z 04010KT CAVOK 24/14 Q1020 NOSIG",
    "LSZH": "METAR LSZH 110820Z VRB03KT CAVOK 26/14 Q1018 NOSIG",
    "LIMC": "METAR LIMC 110820Z VRB01KT CAVOK 27/19 Q1016 NOSIG",
    "LIRF": "METAR LIRF 110820Z 16006KT 110V200 9999 FEW020 30/21 Q1016 NOSIG",
    "EINN": "METAR EINN 110830Z 02011KT 9999 FEW010 BKN240 19/13 Q1024 NOSIG",
    "EGLL": "METAR EGLL 110820Z AUTO 07009KT 030V100 9999 NCD 24/16 Q1021",
    "EGSS": "METAR EGSS 110820Z AUTO 06009KT 020V080 9999 NCD 23/16 Q1022",
    "EPWA": "METAR EPWA 110830Z 32009KT 9999 BKN015 17/14 Q1016 NOSIG",
    "UHPP": "METAR UHPP 110900Z 22004MPS CAVOK 21/08 Q1010 R34L/CLRD62 NOSIG RMK QFE754/1005",
    "EFHK": "METAR EFHK 110820Z 04010KT CAVOK 21/14 Q1017 TEMPO FEW050TCU",
    "LBBG": "METAR LBBG 110830Z AUTO 16010KT 9999 NCD 28/13 Q1018 NOSIG",
    "LTAC": "METAR LTAC 110820Z 29004KT 200V350 9999 FEW040 24/08 Q1020 NOSIG RMK RWY21C VRB06KT RWY03L VRB03KT RWY21R VRB04KT RWY03R VRB03KT RWY21L 24005KT 170V300",
    "UBBB": "METAR UBBB 110830Z 36010KT CAVOK 31/14 Q1011 NOSIG",
    "UTAA": "METAR UTAA 110900Z 29016KT 9999 FEW050 38/18 Q1008 R88/CLRD70 NOSIG",
    "UACC": "METAR UACC 110830Z 13004MPS 060V180 9999 FEW030 33/09 Q1013 NOSIG RMK QFE729/0972",
    "UAAA": "METAR UAAA 110830Z 36003MPS 280V070 9999 FEW050 32/11 Q1006 NOSIG",
    "UZTT": "METAR UZTT 110830Z 22006KT 190V260 7000 NSC 36/13 Q1002 NOSIG",
    "ZWWW": "METAR ZWWW 110830Z 35004MPS 320V040 CAVOK 34/08 Q1006 NOSIG",
    "ZLXY": "METAR ZLXY 110900Z 27005MPS CAVOK 32/23 Q1003 NOSIG",
    "ZBAA": "METAR ZBAA 110830Z 09002MPS 050V130 9999 SCT010 OVC033 28/27 Q1001 NOSIG",
    "ZBHH": "METAR ZBHH 110900Z 22002MPS 5000 -RA BR SCT030 20/19 Q1009 BECMG TL1000 2800 RA",
    "ZSQD": "METAR ZSQD 110900Z 15008MPS 9999 SCT015 28/24 Q1006 BECMG TL1030 BKN014",
    "ZMCK": "METAR ZMCK 110830Z 29009MPS 9999 RA FEW020 FEW027CB BKN030 13/12 Q1006 NOSIG RMK QFE640.1 96 NE CM",
    "UUEE": "SPECI UUEE 110817Z 09008G13MPS CAVOK 28/15 Q1013 R06R/CLRD62 R06C/CLRD62 NOSIG",
    "UUDD": "METAR UUDD 110830Z 18005MPS 9999 SCT040 25/17 Q1013 R13R/CLRD65 NOSIG",
    "ULLI": "METAR ULLI 110830Z 07005MPS CAVOK 26/20 Q1016 R88/090065 NOSIG",
    "USSS": "METAR USSS 110830Z 16002MPS 090V220 9999 BKN030 25/22 Q1014 R08R/210060 R08L/290040 NOSIG RMK QFE740/0987",
    "UNNT": "METAR UNNT 110830Z 36006MPS 9999 OVC016 16/13 Q1011 R25/CLRD// R34/////// NOSIG RMK QFE748/0998",
    "UNKL": "METAR UNKL 110830Z 32001MPS CAVOK 16/11 Q1011 R11/CLRD// NOSIG RMK QFE733",
    "UIBB": "METAR UIBB 110830Z 27002MPS 210V340 9999 SCT050CB 17/08 Q1010 R30/CLRD62 NOSIG RMK QFE714/0953",
    "UEEE": "METAR UEEE 110830Z 32004MPS CAVOK 21/09 Q1004 R23/09//66 NOSIG RMK QFE744",
    "UHHH": "METAR UHHH 110830Z 26005MPS 9999 SCT033CB 29/21 Q1002 R88/090060 TEMPO -TSRA RMK QFE745/0994",
    "UHSS": "METAR UHSS 110830Z 21002MPS 5000 BR BKN003 OVC016CB 21/20 Q1008 R19/290060 NOSIG RMK QBB090 MT OBSC QFE755/1006"
  },
  "taf": {
    "RJAA": "TAF RJAA 110505Z 1106/1212 16008KT 9999 FEW030 TEMPO 1206/1212 FEW003 BKN005",
    "PANC": "TAF PANC 110520Z 1106/1212 29005KT P6SM SKC FM110900 16010G20KT P6SM BKN080 FM111700 17010G20KT P6SM OVC060",
    "PAFA": "TAF PAFA 110524Z 1106/1212 09004KT P6SM SCT100 FM112100 22015G28KT P6SM BKN080 FM120400 25008KT P6SM OVC100",
    "PAED": "TAF PAED 110500Z 1105/1211 23008KT 9999 SCT050 QNH2975INS BECMG 1121/1122 24010G15KT 9999 -SHRA SCT030 OVC045 650802 QNH2978INS BECMG 1207/1208 20009KT 9999 -RA SCT020 BKN030 OVC045 650802 QNH2977INS TX20/1105Z TN10/1113Z",
    "KSEA": "TAF KSEA 110859Z 1109/1212 21004KT P6SM BKN060 BKN100 FM111000 21004KT P6SM SCT025 BKN035 BKN060 FM111800 24004KT P6SM SCT035 SCT060 FM120400 22011KT P6SM FEW040 BKN060 FM120900 22006KT P6SM SCT020 BKN030",
    "ZSPD": "TAF ZSPD 110924Z 1112/1218 10015G24MPS 6000 SHRA BKN013 TX28/1112Z TX30/1206Z TN26/1121Z TEMPO 1113/1117 +SHRA BKN011 FEW030CB TEMPO 1120/1202 2800 +SHRA BKN009 FEW030CB BECMG 1202/1204 16017G26MPS -SHRA BKN016 TEMPO 1207/1211 SHRA BKN013 FEW030CB BECMG 1213/1215 16012G21MPS",
    "ZSSS": "TAF ZSSS 110924Z 1112/1218 10011G22MPS 6000 SHRA BKN013 TX29/1112Z TX31/1206Z TN27/1121Z TEMPO 1113/1117 +SHRA BKN011 FEW030CB TEMPO 1120/1202 2800 +SHRA BKN009 FEW030CB BECMG 1202/1204 16015G24MPS -SHRA BKN020 BECMG 1207/1209 16010G18MPS TEMPO 1207/1211 SHRA BKN011",
    "RJFR": "TAF RJFR 110505Z 1106/1212 07016KT 9999 FEW030 BECMG 1111/1113 09012KT BECMG 1121/1200 06012KT",
    "VHHH": "TAF VHHH 110800Z 1109/1215 24010KT 9000 FEW015 TX34/1206Z TN29/1122Z",
    "RCTP": "TAF COR RCTP 110523Z 1106/1212 32020G42KT 6000 FEW010 BKN018 BKN040 TEMPO 1106/1112 27025G45KT 2500 SHRA FEW004 BKN008 FEW010CB BECMG 1112/1114 23020G40KT TEMPO 1114/1120 23025G45KT 4000 SHRA FEW006 BKN012 BKN030 TEMPO 1200/1206 23015G30KT FEW010 BKN032 BECMG 1206/1208 24010KT 9999 FEW015 BKN032",
    "ZGSZ": "TAF ZGSZ 110903Z 1112/1218 22004MPS 8000 SCT040 TX31/1112Z TX34/1206Z TN29/1122Z",
    "WSSS": "TAF WSSS 110500Z 1106/1212 16008KT 9999 FEW015 SCT020",
    "WMKK": "TAF WMKK 110500Z 1106/1212 VRB03KT 9999 FEW018 TEMPO 1106/1110 4000 TSRA FEW016CB",
    "VTBS": "TAF VTBS 110500Z 1106/1212 23008KT 9999 FEW020 TEMPO 1112/1116 -TSRA FEW018CB SCT020 BKN080",
    "VTBU": "TAF VTBU 110500Z 1106/1206 24010KT 9999 FEW020",
    "ROAH": "TAF ROAH 110505Z 1106/1212 16030KT 9999 FEW010 BKN015 TEMPO 1106/1109 15040G55KT 4000 SHRA BR FEW005 BKN008 FEW015CB TEMPO 1109/1118 16035G50KT TEMPO 1118/1200 16025G38KT",
    "VVDN": "TAF VVDN 110500Z 1106/1206 21010KT 9999 FEW020 BECMG 1106/1107 02010KT BECMG 1111/1112 23007KT",
    "RCKH": "TAF RCKH 110500Z 1106/1212 24013G25KT 8000 FEW015 BKN032 TEMPO 1106/1112 26020G38KT 5000 RA FEW010 BKN020 TEMPO 1116/1122 23015G30KT 5000 RA FEW010 BKN020 BECMG 1200/1202 16010KT TEMPO 1200/1206 4000 SHRA FEW006 FEW010CB BKN014",
    "KLAX": "TAF KLAX 110847Z 1109/1212 VRB03KT P6SM OVC009 FM111200 17005KT 4SM BR FEW004 OVC008 FM111700 25008KT P6SM SCT008 BKN014 FM111900 26010KT P6SM FEW008 SCT014 FM120400 25006KT P6SM OVC015",
    "KONT": "TAF KONT 110520Z 1106/1212 VRB04KT P6SM SCT150 BKN200 FM111200 VRB03KT 5SM BR SCT006 SCT200 FM111600 VRB03KT P6SM SCT150 FM112100 25011G18KT P6SM SCT150 FM120100 25010KT P6SM SCT150 FM120400 25005KT P6SM SCT150",
    "KSFO": "TAF KSFO 110929Z 1109/1212 29012KT P6SM FEW004 SCT009 FM111700 30015KT P6SM SKC FM120600 28010KT P6SM FEW007",
    "KOAK": "TAF KOAK 110930Z 1110/1212 29006KT P6SM FEW004 SCT010 FM111800 28011KT P6SM SKC FM121100 27005KT P6SM BKN010",
    "KMHR": "TAF KMHR 110520Z 1106/1206 17008KT P6SM SKC FM111400 VRB05KT P6SM FEW250 FM120000 23010KT P6SM BKN250",
    "KDFW": "TAF KDFW 110840Z 1109/1212 18011KT P6SM FEW250",
    "KIAH": "TAF KIAH 110832Z 1109/1212 15003KT P6SM FEW025 FEW045 PROB30 1110/1112 6SM -SHRA FM111300 VRB05KT P6SM VCSH SCT050 FM111500 17006KT P6SM VCTS SCT025 SCT035CB PROB30 1118/1122 VRB10G18KT 5SM -TSRA SCT035CB BKN120 FM112300 16007KT P6SM FEW035 BKN100 FM120300 17003KT P6SM FEW045",
    "KORD": "TAF KORD 110850Z 1109/1212 36006KT P6SM OVC250 FM111300 05012KT P6SM SCT300 FM120400 02005KT P6SM FEW060",
    "KJFK": "TAF KJFK 110839Z 1109/1212 04005KT P6SM SCT120 BKN250 FM111200 05008KT P6SM FEW080 BKN250 PROB30 1112/1118 5SM -SHRA BKN050 FM111800 10009KT P6SM SCT050 BKN250 FM112100 12009KT P6SM FEW080 BKN250 FM120300 09006KT P6SM FEW080 BKN250 FM120600 06005KT P6SM FEW080",
    "KRFD": "TAF KRFD 110850Z 1109/1206 02003KT P6SM BKN250 FM111300 05010KT P6SM SCT300",
    "KIND": "TAF KIND 110630Z 1106/1212 07003KT P6SM BKN025 FM111200 00000KT P6SM BKN015 FM111500 05004KT P6SM BKN035",
    "KDTW": "TAF KDTW 110906Z 1109/1212 04005KT P6SM SCT030 BKN200 FM111200 03007KT P6SM SCT030 TEMPO 1114/1116 BKN025 FM111800 08007KT P6SM SCT050 FM120000 05008KT P6SM BKN250",
    "KMSP": "TAF KMSP 110926Z 1109/1212 VRB03KT P6SM SKC FM111500 18008KT P6SM FEW050",
    "CYEG": "TAF CYEG 110840Z 1109/1206 10010KT P6SM FEW070CB SCT090 BKN220 TEMPO 1109/1112 VRB20G30KT 5SM TSRA FEW025 BKN050CB OVC090 FM111200 07005KT P6SM VCSH FEW020 SCT050 BKN080 TEMPO 1113/1114 6SM -SHRA BR SCT020 BKN050 OVC070 PROB30 1113/1114 VRB20G30KT 5SM TSRA BKN020 OVC050CB FM111400 01005KT P6SM SCT012 BKN030 TEMPO 1114/1120 P6SM -SHRA FEW006 BKN012 OVC025 BECMG 1120/1122 30010KT FM112200 30012KT P6SM FEW030 BKN080 BECMG 1123/1201 35005KT FEW080 FM120200 02005KT P6SM SKC BECMG 1204/1206 11005KT RMK NXT FCST BY 111200Z",
    "EHAM": "TAF EHAM 110430Z 1106/1212 05008KT CAVOK PROB40 1106/1108 7000 BKN008",
    "EBBR": "TAF EBBR 110526Z 1106/1212 05007KT CAVOK",
    "EDDF": "TAF EDDF 110500Z 1106/1212 04009KT CAVOK TEMPO 1117/1122 03014KT",
    "EDFH": "TAF EDFH 110500Z 1106/1206 08007KT CAVOK",
    "EDDL": "TAF EDDL 110500Z 1106/1212 04005KT CAVOK BECMG 1108/1111 04010KT BECMG 1119/1122 03004KT BECMG 1207/1210 03009KT",
    "EDDK": "TAF EDDK 110500Z 1106/1212 12004KT CAVOK BECMG 1108/1110 04007KT BECMG 1121/1124 10003KT BECMG 1207/1210 04006KT",
    "EBLG": "TAF EBLG 110526Z 1106/1212 05008KT CAVOK",
    "LSZH": "TAF LSZH 110825Z 1109/1215 06005KT CAVOK TX34/1115Z TN16/1203Z TX33/1215Z PROB40 TEMPO 1112/1118 08010KT 9999 FEW060 BECMG 1119/1122 32004KT BECMG 1206/1208 04005KT BECMG 1210/1212 07010KT",
    "LIMC": "TAF LIMC 110500Z 1106/1212 VRB05KT 9999 SCT030 TEMPO 1115/1119 22010KT 4000 TSRA",
    "LIRF": "TAF LIRF 110500Z 1106/1212 VRB05KT 9999 FEW010 BECMG 1106/1108 19011KT BECMG 1117/1119 VRB05KT BECMG 1209/1211 26010KT",
    "EINN": "TAF EINN 110500Z 1106/1206 01008KT 9999 FEW030",
    "EGLL": "TAF EGLL 110500Z 1106/1212 05008KT CAVOK PROB30 TEMPO 1201/1207 BKN008",
    "EGSS": "TAF EGSS 110500Z 1106/1212 04012KT CAVOK PROB30 TEMPO 1106/1108 6000 BKN004 BECMG 1121/1124 BKN012 PROB30 TEMPO 1200/1206 BKN007 BECMG 1206/1208 CAVOK",
    "EPWA": "TAF EPWA 110830Z 1109/1209 32010KT 9999 BKN020 TEMPO 1109/1120 4000 SHRA BKN020CB PROB40 TEMPO 1109/1118 34015G25KT 2500 TSRA BECMG 1123/1202 24010KT BKN010 TEMPO 1203/1209 2500 -DZ BR BKN003 OVC007",
    "UHPP": "TAF UHPP 110734Z 1109/1215 33003G12MPS 9999 NSC TEMPO 1202/1209 18005MPS",
    "EFHK": "TAF EFHK 110836Z 1109/1209 04010KT CAVOK PROB30 TEMPO 1109/1114 FEW050CB TEMPO 1114/1117 SCT035CB BECMG 1119/1121 21012KT 7000 SHRA FEW045CB BECMG 1121/1123 30005KT CAVOK BECMG 1202/1204 02010KT BECMG 1206/1208 7000 SHRA BKN035CB PROB30 1208/1209 4000 TSRA",
    "LBBG": "TAF LBBG 110500Z 1106/1206 23008KT CAVOK BECMG 1110/1112 13012KT BECMG 1119/1120 VRB03KT",
    "LTAC": "TAF LTAC 110440Z 1106/1206 VRB02KT CAVOK BECMG 1106/1108 FEW040 BECMG 1114/1117 CAVOK TEMPO 1117/1121 04012KT",
    "UBBB": "TAF UBBB 110512Z 1106/1206 34010KT CAVOK TX32/1110Z TN21/1201Z TEMPO 1108/1116 01016KT SCT025 TEMPO 1116/1124 32010KT FEW012 BECMG 1200/1202 33018KT TEMPO 1202/1206 34022G32KT SCT010 FEW060CB",
    "UTAA": "TAF AMD UTAA 110906Z 1109/1206 34018KT 6000 SCT050 TX41/1111Z TEMPO 1109/1113 29020G30KT 2000 BLDU TEMPO 1113/1116 30016G26KT 4000 DRDU BECMG 1116/1118 26014KT",
    "UACC": "TAF UACC 110503Z 1106/1206 VRB01MPS 9999 SCT040 BKN100 TX35/1109Z TN18/1201Z TEMPO 1106/1116 03005G10MPS SCT030CB PROB40 TEMPO 1106/1116 -TSRA BKN030CB BECMG 1116/1118 08005MPS",
    "UAAA": "TAF UAAA 110504Z 1106/1206 04005MPS 9999 FEW050CB TX35/1110Z TN19/1201Z TEMPO 1115/1124 19002MPS TEMPO 1202/1206 32003MPS",
    "UZTT": "TAF UZTT 110500Z 1106/1206 09010KT 7000 NSC TX40/1111Z TN25/1200Z TEMPO 1106/1118 32015KT FEW060CB",
    "ZWWW": "TAF ZWWW 110902Z 1112/1218 36004MPS CAVOK TX37/1209Z TN26/1123Z TN28/1218Z BECMG 1114/1115 18004MPS BECMG 1202/1203 36004MPS BECMG 1214/1215 18004MPS",
    "ZLXY": "TAF ZLXY 110915Z 1112/1212 27004G10MPS 5000 HZ NSC TX35/1207Z TN25/1118Z TEMPO 1112/1114 33008G13MPS TSRA SCT040CB OVC050 BECMG 1114/1115 -RA TEMPO 1114/1119 SHRA SCT040CB OVC050 BECMG 1200/1201 BR",
    "ZBAA": "TAF ZBAA 110900Z 1112/1218 12004MPS 3500 BR NSC TX30/1207Z TN24/1121Z TN25/1218Z TEMPO 1112/1118 TSRA SCT030CB BKN040",
    "ZBHH": "TAF ZBHH 110906Z 1112/1212 24004MPS 3500 -RA BKN030 TX24/1208Z TN15/1122Z TEMPO 1112/1116 1600 RA BECMG 1116/1117 2000 BR TEMPO 1118/1121 0800 FG BECMG 1200/1201 6000",
    "ZSQD": "TAF ZSQD 110901Z 1112/1212 16006MPS 3500 BR BKN015 TX32/1204Z TN25/1120Z BECMG 1201/1202 13012G18MPS BECMG 1208/1209 10007MPS",
    "ZMCK": "TAF ZMCK 110445Z 1106/1212 31008MPS 9999 RA FEW020 FEW027CB BKN030 TX17/1107Z TN09/1121Z BECMG 1200/1203 31009MPS NSW FEW030CB SCT033",
    "UUEE": "TAF UUEE 110751Z 1109/1209 10005MPS 9999 BKN020 TX28/1110Z TN17/1201Z TEMPO 1109/1121 VRB19MPS 2100 -TSRA SQ BKN016CB TEMPO 1121/1206 BKN007",
    "UUDD": "TAF UUDD 110756Z 1109/1215 10003MPS 9999 BKN020 TX28/1111Z TN16/1201Z TEMPO 1109/1121 VRB20MPS 1000 TSRA SQ FEW003 BKN016CB TEMPO 1121/1207 3000 -SHRA BKN007 BKN016CB PROB40 TEMPO 1211/1215 02008G15MPS -TSRA BKN016CB",
    "ULLI": "TAF ULLI 110752Z 1109/1209 07005G12MPS 8000 BKN016 TX31/1112Z TN20/1202Z TEMPO 1109/1122 VRB17MPS 1000 TSRA SQ BKN010 BKN017CB BECMG 1122/1123 02003MPS PROB40 TEMPO 1123/1206 0400 FG BKN002 BECMG 1206/1207 05005G12MPS",
    "USSS": "TAF USSS 110755Z 1109/1209 14003G14MPS 9999 BKN020CB TEMPO 1109/1209 -TSRA BECMG 1116/1119 20003G10MPS BECMG 1203/1206 25003G13MPS",
    "UNNT": "TAF UNNT 110800Z 1109/1209 36008G15MPS 8000 BKN016 TX19/1110Z TN13/1122Z TEMPO 1109/1114 -TSRA BKN010 BKN030CB BECMG 1114/1117 02003G08MPS BKN030 TEMPO 1203/1206 05008G14MPS",
    "UNKL": "TAF UNKL 110743Z 1109/1209 01003G08MPS 6000 SCT040",
    "UIBB": "TAF UIBB 110800Z 1109/1209 29002G07MPS 9999 BKN030CB TEMPO 1109/1115 VRB07MPS",
    "UEEE": "TAF UEEE 110800Z 1109/1215 31005G10MPS 9999 SCT030CB BKN100",
    "UHHH": "TAF UHHH 110749Z 1109/1215 22003MPS 9999 FEW010 SCT016CB TX30/1205Z TN21/1118Z TEMPO 1109/1118 VRB08MPS 5000 -TSRA FEW004 BKN016CB FM111800 VRB01MPS 5000 -SHRA BR BKN004 BKN016CB FM120100 24003MPS 9999 SCT020CB TEMPO 1201/1209 26008MPS",
    "UHSS": "TAF UHSS 110750Z 1109/1215 18003MPS 5000 -SHRA BKN005 BKN016CB TEMPO 1109/1206 0700 FG VV002"
  },
  "atis": {
    "RJAA": "[Arrival ATIS] RJAA ARR ATIS Q 2309Z MS2300 (APCH)ILS Y RWY16L LDG RWY 16L DEP RWY 16R DEP FREQ 124.2. TWY A1 CLSD. MS 202300Z 19006KT 20KM BKN007ST 24/23 Q1001/A2957= Q/TWO NINE FIVE SEVEN STP\n[Departure ATIS] RJAA DEP ATIS Q 2302Z MS2300 (APCH)ILS Y RWY16L LDG RWY 16L DEP RWY 16R DEP FREQ 124.2. TWY A1 CLSD. MS 202300Z 19006KT 20KM BKN007ST 24/23 Q1001/A2957= Q/TWO NINE FIVE SEVEN STP",
    "PANC": "[Arrival ATIS] PANC ARR ATIS K 0853Z - PANC ATIS INFO K 0853Z. 00000KT 10SM SCT080 SCT220 16/11 A2979 (TWO NINER SEVEN NINER). 7R, VISUAL APPROACHES IN USE. LNDG AND DEPG RWY 7L, LANDING RWY 7R, 7L, DEPARTING RWY 33. NOTICE TO AIRMEN. TWY Q CLSD. TWY R CLSD BTWN TWY, S AND TWY T . TWY K BTWN A AND D RESTRICTED TO AIRCRAFT WITH WINGSPAN LESS THAN 118 FEET. CONTACT TOWER 118.3 FOR TAXI. ...ADVS YOU HAVE INFO K.\n[Departure ATIS] PANC DEP ATIS X 0953Z ANC ATIS INFO X 0953Z. 12016G27KT 10SM SCT060 BKN085 OVC100 14/07 A2973 (TWO NINER SEVEN THREE). ILS RWY 15 APPROACHES IN USE. LANDING RWY 15, DEPARTING RWY 25L. NOTICE TO",
    "KSEA": "[Arrival ATIS] KSEA ARR ATIS L 2153Z SEA ATIS INFO L 2153Z. 22009KT 10SM FEW050 21/08 A3000 (THREE ZERO ZERO ZERO). ILS, RYS 16R AND 16L , APCH IN USE. DEPG RWY 16L, DEPG ACFT PLAN AND BRIEF NUMBERS FOR BOTH RWYS 16L AND 16C. SIMUL APCHS IN USE, BFI & SEA. TRAFFIC BELOW YOU ON FINAL. SIMUL APCHS IN USE TO PARA RYS. NOTAMS... RUNWAY 16 CENTER GLIDE PATH OUT OF SERVICE. BIRD ACTIVITY VICINITY ARPT. ...ADVS YOU HAVE INFO L.\n[Departure ATIS] KSEA DEP ATIS B 0553Z - KSEA ATIS INFO B 0553Z. 33004KT 10SM SCT055 BKN200 16/10 A2991 (TWO NINER NINER ONE). ILS AND CHARTED VISUAL APPROACH RWYS 34L AND 34R , APCH IN USE. DEPG RWY 34R, RWY 34C. SIMUL ARRIVALS TO RWY 34L AND DEPARTURES TO RWY 34R ARE IN USE. SIMUL APCHS IN USE TO PARA RYS. NOTAMS... BIRD ACTIVITY VICINITY ARPT. ...ADVS YOU HAVE INFO B.",
    "ZSPD": "[Arrival ATIS] ZSPD ARR ATIS S 2300Z EXP ILS APCH LDG RWY 17R & 16L WIND RWY 17R TDZ 100/4MPS MID 080/3MPS END 090/4MPS RWY 16L TDZ 100/5MPS MID 100/4MPS END 100/5MPS VIS RWY 17R TDZ 7000M MID 6000M END 7000M VIS RWY 16L TDZ 10000M MID 4600M END 7000M BR CLD BKN 180M T 25 /DP 25 QNH 1009 HPA CAUTION THE BIRDS NEAR THE RUNWAY RWY 17L/17R/16L/16R RWYCC 5/5/5 ISSUED AT 2202 WET/WET/WET DPT NR/NR/NR COV 100PCT/100PCT/100PCT ADZ YOU HAVE INFO S.\n[Departure ATIS] ZSPD DEP ATIS Q 1000Z DEP RWY 17L WIND RWY 17L TDZ 070/13MPS MID 070/12MPS END 060/11MPS VIS RWY 17L TDZ 9000M MID 10000M END 9000M CLD BKN 480M T 28 /DP 26 QNH 999 HPA CAUTION THE BIRDS NEAR THE RUNWAY WIND SHEAR ON ALL RUNWAY ADZ YOU HAVE INFO Q.",
    "ZSSS": "[Arrival ATIS] ZSSS ARR ATIS J 2230Z EXP ILS APCH LDG RWY 18L WIND RWY 18L TDZ 090/2MPS MID 090/3MPS END 080/3MPS VIS RWY 18L TDZ 5000M MID 4300M END 5000M BR CLD BKN 480M T 26 /DP 24 QNH 1009 HPA QNH OF SHANGHAI TERMINAL CONTROL AREA 1009 HPA ADZ YOU HAVE INFO J.\n[Departure ATIS] ZSSS DEP ATIS P 1245Z DEP RWY 18R WIND RWY 18R TDZ 180/2MPS MID 170/2MPS END 150/2MPS VIS RWY 18R TDZ 10000M MID 10000M END 10000M CLD FEW 990M T 27 /DP 24 QNH 1007 HPA QNH OF SHANGHAI TERMINAL CONTROL AREA 1008 HPA ADZ YOU HAVE INFO P.",
    "VHHH": "[Arrival ATIS] VHHH ARR ATIS M 2304Z ARRIVALS, RWY 25R. EXP RNAV TRANSITION TO ILS APCH, RWY 25R. RNP APCH IS AVBL ON REQ, RWY 25R. EXP RWY 25R/L AFTER 0000Z. WIND 210/06KT. VIS 10KM. CLD FEW 1000FT. T29 DP24. QNH 1010HPA. ACK INFO M ON FIRST CTC WITH APP.\n[Departure ATIS] VHHH DEP ATIS Z 2305Z DEPARTURES, RWY 25C. EXP RWY 25C/L AFTER 0000Z. WIND 240/07KT. VIS 10KM. CLD FEW 1000FT. T29 DP24. QNH 1010HPA. ACK INFO Z ON FIRST CTC WITH DELIVERY .",
    "RCTP": "[Arrival ATIS] RCTP ARR ATIS Y 0815Z EXP ILS APCH RWY SFC RWY 05L SFC COND 5/5/5 ISSUED AT 0330Z. 100/100/100 NR/NR/NR WET/WET/WET RWY 05R SFC COND 5/5/5 ISSUED AT 0430Z. 100/100/100 NR/NR/NR WET/WET/WET RWY05L AND RWY05R ARR/DEP. WIND 260/22KT GUSTING TO 35KT VIS 1500M +SHRA CLD SCT 500FT BKN 800FT BKN 1500FT T 26 DP 26 QNH 0986HPA WS ALL RWY NOSIG LOW LVL WS ADVISORY IN EFFECT. CTN BIRD ACTIVITY IN THE VCY OF THE AD. INFORM TAIPEI APCH OR TAIPEI TOWER ON INITIAL CONTACT YOU HAVE INFORMATION Y\n[Departure ATIS] RCTP DEP ATIS E 0100Z EXP ILS APCH RWY SFC RWY 05L SFC COND 5/5/5 ISSUED AT 2230Z. 100/100/100 NR/NR/NR WET/WET/WET RWY 05R SFC COND 5/5/5 ISSUED AT 2257Z. 100/100/100 NR/NR/NR WET/WET/WET RWY05L AND RWY05R ARR/DEP. WIND 340/19KT GUSTING TO 34KT VIS 3000M SHRA CLD SCT 800FT BKN 1200FT BKN 2000FT T 27 DP 26 QNH 0987HPA WS ALL RWY NOSIG LOW LVL WS ADVISORY IN EFFECT. CTN BIRD ACTIVITY IN THE VCY OF THE AD. INFORM TAIPEI APCH OR TAIPEI TOWER ON INITIAL CONTACT YOU HAVE INFORMATION E",
    "ZGSZ": "[Arrival ATIS] ZGSZ ARR ATIS S 2300Z EXP ILS APCH LDG RWY 15 WIND 170/4MPS VIS 9999M CLD FEW 600M T 29 /DP 27 QNH 1011 HPA INDEPENDENT PARALLEL DEPARTURES MISSED APPROACH ALTITUDE SETTING 1200METERS WHEN AIRBORNE CONTACT ZHUHAI APPROACH EXPECTED RNP ILS DME Z APPROACH ADZ YOU HAVE INFO S.\n[Departure ATIS] ZGSZ DEP ATIS O 2200Z DEP RWY 15 WIND 150/4MPS VIS 9999M CLD SCT 600M /SCT 1200M T 28 /DP 26 QNH 1010 HPA DELIVERY FREQ 121.65 SINGLE RUNWAY OPERATION MISSED APPROACH ALTITUDE SETTING 1200METERS WHEN AIRBORNE CONTACT ZHUHAI APPROACH EXPECTED RNP ILS DME Z APPROACH ADZ YOU HAVE INFO O.",
    "WSSS": "[Arrival ATIS] WSSS ARR ATIS F 2300Z METREPORT 2300Z ILS APCHRWY 20R TWY W 9 CLOSED, RWY 02C 20C RAPID EXIT TAXIWAY INDICATOR LIGHTS OFF WIND VRB BTN340 AND050 02KT VIS 10KM CLD FEW 1500FT FEW TCU 1800FT T26 DP25 QNH 1011HPA NOSIG ACK ATIS F\n[Departure ATIS] WSSS DEP ATIS U 1916Z METREPORT 1916Z RWY 20C TWY W 9 CLOSED, RWY 02C 20C RAPID EXIT TAXIWAY INDICATOR LIGHTS OFFFOLLOW THE GREENS TRIAL IN PROGRESS. WHEN VACATING THE RWY, PILOTS TO ADHERE TO ATC VERBAL INSTRUCTIONS. WHEN ON TWY, PILOT TO ADHERE TO FOLLOW THE GREENS INSTRUCTIONS. WHEN APPROACHING [A] JUNCTION, KEEP [A] LOOKOUT FOR CONTINUOUS GREENS. [IF] [A] BREAK IN THE GREENS IS OBSERVED, STOP AND CLARIFY WITH ATC. WIND 190/ 03KT VRB BTN160 AND220 VIS 10KM CLD FEW 1600FT T27 DP26 QNH 1011HPA NOSIG DEP,INITIAL CMB 3000FT ACK ATIS U",
    "WMKK": "[Arrival ATIS] WMKK ARR ATIS H 2236Z WMKK ARR INFO H. TIME 2230. SINGLE RWY ARR OPS IN PROGRESS. EXP RNAV / ILS APCH FOR RWY 14 LEFT. WIND RWY 14L DIRECTION NOT AVBL SPEED NOT AVBL. VIS RWY 14L TDZ NOT AVBL. CLD FEW 3000 FT. T 26. DP 24. QNH 1010. NOSIG. AT FIRST CONTACT WITH LUMPUR RADAR, NOTIFY RCPT OF H\n[Departure ATIS] WMKK DEP ATIS Y 1504Z WMKK DEP INFO Y. TIME 1500. INDEPENDENT PARALLEL DEPARTURES FOR RWY 14 R AND 15 ARE IN PROGRESS. RWY 14 RIGHT. RWY 15. WIND RWY 14R DIRECTION NOT AVBL SPEED NOT AVBL. WIND RWY 15 DIRECTION NOT AVBL SPEED NOT AVBL. VIS RWY 14R TDZ NOT AVBL. VIS RWY 15 TDZ NOT AVBL. CLD FEW 3000 FT. T 28. DP 25. QNH 1012. NOSIG. ALL DEP ACFT TO CONTACT LUMPUR DEP AT 135 DECIMAL 25 MHZ WHEN ABN. AT FIRST CONTACT WITH LUMPUR GROUND, NOTIFY RCPT OF Y",
    "VTBS": "[Arrival ATIS] VTBS ARR ATIS C 2305Z VTBS ARR ATIS C 2311Z EXP ILS Z APCH ARR RWY 19 AND RWY 20L , ,PILOT SHALL ADZ BKK APCH ON INITIAL CTC IF UNA TO CONDUCT RNP APCH DUE TO OPERATIONAL CONSTRAINT 2305Z WIND 340/2KT VIS 10KM TS CLD FEW CB 2000FT T27 DP27 QNH 1010HPA TREND NOSIG ADZ BKK APCH ON INITIAL CONTACT THAT YOU HAVE INFO C\n[Departure ATIS] VTBS DEP ATIS X 1900Z VTBS DEP ATIS X 1901Z DEP RWY 20L RWY 20R CLSD DUE TO WIP , ,AFT AIRBORNE ALL DEPARTING ACFT SHALL CTC 119.25 1900Z WIND 210/3KT VIS 10KM CLD FEW 2000FT T29 DP25 QNH 1009HPA TREND NOSIG ADZ GND WHEN INITIAL CONTACT YOU HAVE INFO X",
    "VTBU": "[Arrival ATIS] VTBU ARR ATIS U 0430Z VTBU ARR ATIS U 0430Z RNP RWY 18 TRL FL130 MOBILE ACFT ARST SYSTEM INSTL ATP SIX HUNDRED AND TEN METERS FM THR RWY 36 CABLE HGT 3 INCHES. 0430Z WIND 360/6KT VRB BTN 320/ AND 020/ VIS 10KM CLD FEW 2000FT T34 DP27 QNH 1010HPA TREND NOSIG ADZ CONTROLLER WHEN INITIAL CONTACT YOU HAVE INFO U\n[Departure ATIS] VTBU DEP ATIS D VTBU ARR/DEP DATIS RPT VTBU ARR ATIS D 0330Z ILS \"Z\" APCH RWY 18 TRL FL130 0330Z WIND 110/4KT VRB BTN 350/ AND 120/ VIS 6KM CLD FEW 2000FT T31 DP27 QNH 1014HPA TREND NOSIG ADZ CONTROLLER WHEN INITIAL CONTACT YOU HAVE INFO D",
    "ROAH": "[Arrival ATIS] ROAH ARR ATIS G 2028Z M2000 (APCH)RNP RWY18L USING RWY 18L DEP FREQ 126.5 258.3 RWY 18R/36L CLSD M 202000Z AUTO 20007KT 9999 FEW012// OVC014// 26/26 Q1011/A2986= Q/TWO NINE EIGHT SIX STP\n[Departure ATIS] ROAH DEP ATIS F 1204Z M1200 (APCH)RNP RWY18R LDG RWY 18R DEP RWY 18L DEP FREQ 119.175 316.0 M 201200Z 18011KT 40KM FEW006ST 27/26 Q1012/A2989= Q/TWO NINE EIGHT NINE STP",
    "VVDN": "[Arrival ATIS] VVDN ARR ATIS B 2302Z VVDN INFO B 2302Z. ILS VICTOR APPROACH 35L.. DPTG RWY 35R.. 2302Z. WIND 230/03KT CAVOK T27 DP24 QNH 1009HPA TREND NOSIG. ADZ ON INITIAL CTC YOU HAVE INFO. B.\n[Departure ATIS] VVDN DEP ATIS R 0503Z VVDN INFO R 0503Z. ILS VICTOR APPROACH 35L.. DPTG RWY 35R.. 0502Z. WIND 090/05KT VRB BTN 070/ AND 140/ CAVOK T37 DP23 QNH 1007HPA TREND NOSIG. ADZ ON INITIAL CTC YOU HAVE INFO. R.",
    "RCKH": "[Arrival ATIS] RCKH ARR ATIS M 2000Z EXPECT ILS APPROACH RWY 09 ARR/DEP TAXIWAY JULIETT, TAXIWAY BRAVO, TAXIWAY DELTA AND TAXIWAY ECHO CLOSED DUE MAINTENANCE.RUNWAY 0 9 ARRIVALS PLAN VACATE VIA CHARLIE OR F\n[Departure ATIS] RCKH DEP ATIS J 0630Z EXPECT ILS APPROACH RWY 27 ARR/DEP TAXIWAY JULIETT, TAXIWAY BRAVO, TAXIWAY DELTA AND TAXIWAY ECHO CLOSED DUE MAINTENANCE.RUNWAY 2 7 ARRIVALS PLAN VACATE VIA CHARLIE OR A",
    "KLAX": "[Arrival ATIS] KLAX ARR ATIS A 2253Z - KLAX ATIS INFO A 2253Z. 25016G21KT 10SM FEW017 SCT023 20/13 A2996 (TWO NINER NINER SIX) RMK AO2 SLP144 T02000128. INST APCHS AND RNAV RNP APCHS RY 24R AND 25L, OR VCTR FOR VISUAL APCH WILL BE PROVIDED, SIMUL VISUAL APCHS TO ALL RWYS ARE IN PROG, SIMUL INSTR DEPARTURES IN PROG RWYS 24 AND 25. CTC L A GC ON 121.75 FOR PUSH OR TAXI ON A. TWY C CLSD BTN TWY, C8 AND TWY C9 , , TWY B CLSD BTN TWY, F AND TWY B1, TWY B1 CLSD. ILS RY 25R OTS, RY 25R SFL OTS, RY 24L ALSF-2 OTS. LAX VOR UNMONITORED. IF ASSIGNED RUNWAY 25R FOR DEPARTURE, EXPECT DEPARTURE FROM INTERSECTION FOXTROT. TAXILANE CHARLIE EIGHT RESTRICTED TO AIRCRAFT WITH A WINGSPAN LESS THAN ONE HUNDRED EIGHTEEN FEET. USE CAUTION FOR INCREASED DRONE ACTIVIY IN THE VICINITY OF SOFI STADIUM AT OR BELOW 200FT AGL DURING THE WORLD CUP FROM 06/12/26 THROUGH 07/10/2026. HAZD WX INFO FOR LAX AREA AVBL FM FSS. USE CAUTION FOR HANG GLIDING 1 MILE SOUTH LOS ANGELES VOR. BIRD ACTIVITY VICINITY ARPT. INCLUDE YOUR CALL SIGN IN ALL READBACKS. USE CAUTION WHEN EXITING RY24R AT TWY V, W, AND Y, TO HOLD SHORT OF RY24L. MULTIPLE RUNWAY INCURSIONS HAVE OCCURRED. ...ADVS YOU HAVE INFO A.\n[Departure ATIS] KLAX DEP ATIS W 1853Z LAX ATIS INFO W 1853Z. 23010KT 10SM FEW016 SCT022 SCT027 20/13 A3000 (THREE ZERO ZERO ZERO) RMK AO2 SLP158 T02000128. INST APCHS AND RNAV RNP APCHS RY 24R AND 25L, OR VCTR FOR VISUAL APCH WILL BE PROVIDED, SIMUL VISUAL APCHS TO ALL RWYS ARE IN PROG, SIMUL INSTR DEPARTURES IN PROG RWYS 24 AND 25. CTC L A GC ON 121.75 FOR PUSH OR TAXI ON A. TWY C CLSD BTN TWY, C8 AND TWY C9 , , TWY B CLSD BTN TWY, F AND TWY B1, TWY B1 CLSD. ILS RY 25R OTS, RY 25R SFL OTS, RY 24L ALSF-2 OTS. LAX VOR UNMONITORED. IF ASSIGNED RUNWAY 25R FOR DEPARTURE, EXPECT DEPARTURE FROM INTERSECTION FOXTROT. TAXILANE CHARLIE EIGHT RESTRICTED TO AIRCRAFT WITH A WINGSPAN LESS THAN ONE HUNDRED EIGHTEEN FEET. USE CAUTION FOR INCREASED DRONE ACTIVIY IN THE VICINITY OF SOFI STADIUM AT OR BELOW 200FT AGL DURING THE WORLD CUP FROM 06/12/26 THROUGH 07/10/2026. HAZD WX INFO FOR LAX AREA AVBL FM FSS. USE CAUTION FOR HANG GLIDING 1 MILE SOUTH LOS ANGELES VOR. BIRD ACTIVITY VICINITY ARPT. INCLUDE YOUR CALL SIGN IN ALL READBACKS. USE CAUTION WHEN EXITING RY24R AT TWY V, W, AND Y, TO HOLD SHORT OF RY24L. MULTIPLE RUNWAY INCURSIONS HAVE OCCURRED. ...ADVS YOU HAVE INFO W.",
    "KONT": "[Arrival ATIS] KONT ARR ATIS R 2053Z - KONT ATIS INFO R 2053Z. 24008KT 10SM CLR 27/11 A2995 (TWO NINER NINER FIVE). ILS AND VIS APR IN USE, RY26L & RY26R. LNDG AND DEPG RY 26L AND RY 26R. NOTAMS... TAXIWAY SIERRA CLSD BETWEEN SIERRA 8 AND W TAXIWAY Q SOUTH OF RWY 26L CLSD TAXIWAY T CLSD TAXIWAY SIERRA 5 CLSD. RY 26L IM OTS. USE CAUTION FOR NUMEROUS BIRDS OBSERVED IN VICINITY OF ONT. PILOTS READBACK RWY ASSIGNMENTS AND HOLD SHORT INSTRUCTIONS. ...ADVS YOU HAVE INFO R.\n[Departure ATIS] KONT DEP ATIS N 0553Z - KONT ATIS INFO N 0553Z. 24004KT 10SM BKN250 22/15 A2988 (TWO NINER EIGHT EIGHT) RMK AO2 SLP100. ILS AND VIS APR IN USE, RY26L & RY26R. LNDG AND DEPG RY 26L AND RY 26R. NOTAMS... TAXIWAY SIERRA CLSD BETWEEN SIERRA 8 AND W TAXIWAY Q SOUTH OF RWY 26L CLSD TAXIWAY T CLSD TAXIWAY SIERRA 5 CLSD. RY 26L IM OTS, RY 26R ALS OTS. USE CAUTION FOR NUMEROUS BIRDS OBSERVED IN VICINITY OF ONT. HAZD WX INFO FOR SOUTHERN CA AVBL ON FSS FREQUENCIES. PILOTS READBACK RWY ASSIGNMENTS AND HOLD SHORT INSTRUCTIONS. ...ADVS YOU HAVE INFO N.",
    "KSFO": "[Arrival ATIS] KSFO ARR ATIS A 2256Z SFO ATIS INFO A 2256Z. 26016G25KT 10SM FEW025 FEW200 21/11 A2997 (TWO NINER NINER SEVEN) RMK AO2 PK WND 29026/2200 SLP150 T02060111. SIMUL CLSLY SPCD DPNDNT ILS RY 28R AND ILS RY 28L APP IN USE. DEPG RWYS 28L, 28R. RY 1L, 1R CLSD. NUMEROUS TWY CLOSURES FOR CONSTRUCTION ON THE FIELD, PILOTS CHECK NOTAMS. DEPG ACFT WAITING ON FINAL NUMBERS ADVISE GROUND PRIOR TO ENTERING TWY F. ...ADVS YOU HAVE INFO A.\n[Departure ATIS] KSFO DEP ATIS J 0356Z SFO ATIS INFO J 0356Z. 27015KT 10SM FEW005 SCT011 13/11 A2991 (TWO NINER NINER ONE) RMK PK WND 28026/0321. SIMUL CLSLY SPCD DPNDNT ILS RY 28R AND ILS RY 28L APP IN USE. DEPG RWYS 28L, 28R. DEPG ACFT SHOULD BE PREPARED FOR A SHORT NOTICE RY CHANGE. RY 1L, 1R CLSD. NUMEROUS TWY CLOSURES FOR CONSTRUCTION ON THE FIELD, PILOTS CHECK NOTAMS. DEPG ACFT WAITING ON FINAL NUMBERS ADVISE GROUND PRIOR TO ENTERING TWY F. ...ADVS YOU HAVE INFO J.",
    "KOAK": "[Arrival ATIS] KOAK ARR ATIS A 0353Z - KOAK ATIS INFO A 0353Z. 25010KT 10SM FEW003 OVC007 14/12 A3004 (THREE ZERO ZERO FOUR). RNAV, RWY 30. ILS, RWY 28R. FLOW TO LAX, LAS, SAN, SEA. ILS RWY 30, OTS, RWY 28R RAIL, OTS. UNN LIT CLOSE-IN OBSTACLES FOR RWY 30 DEPARTURES. RWY 30 DEPARTURES ARE ADVISED TO AVOID TURNING LEFT PRIOR TO DEPARTURE END OF RUNWAY. CTN, CRANE 1 POINT 6 NAUTICAL MILES, , AT 140 FEET AGL. CAUTION, BIRDS NEAR AIRPORT. ...ADVS YOU HAVE INFO A.\n[Departure ATIS] KOAK DEP ATIS O 1953Z OAK ATIS INFO O 1953Z. 28014KT 10SM FEW005 22/14 A2988 (TWO NINER EIGHT EIGHT). RNAV Z/VA RWY 30 ILS/VA RWY 28R. FLOW TO LAX, LAS, SAN. ILS RWY 30, OTS. UNN LIT CLOSE-IN OBSTACLES FOR RWY 30 DEPARTURES. RWY 30 DEPARTURES ARE ADVISED TO AVOID TURNING LEFT PRIOR TO DEPARTURE END OF RUNWAY. SIGNATURE UNI-COM OUT OF SERVICE. CAUTION, BIRDS NEAR AIRPORT. ...ADVS YOU HAVE INFO O.",
    "KDFW": "[Arrival ATIS] KDFW ARR ATIS P 0353Z DFW ARR INFO P 0353Z. 19016KT 10SM CLR 31/20 A2994 (TWO NINER NINER FOUR) RMK AO2 SLP129 T03110200. SIMUL VISUAL APCH TO RWYS, 18R, 17C. LDG RWY 17C EXP LAHSO TWY B 10460 FT AVAIL, LDG RWY 18R EXP LAHSO TWY B 10100 FT AVL. NOTICE TO AIRMEN. RWY 13L CLSD. RWY 13R CLSD. RWY 17L CLSD. WARNING, RWY 18L HAS BEEN SHORTENED, 9273 FT AVAILABLE. BIRD ACTIVITY VCNTY ARPT. ...ADVS YOU HAVE INFO P.\n[Departure ATIS] KDFW DEP ATIS W 1553Z - KDFW DEP INFO W 1553Z. 21022G32KT 10SM FEW025 FEW180 SCT250 31/21 A2994 (TWO NINER NINER FOUR) RMK AO2 PK WND 20032/1547 SLP128 T03110206. SIMUL PARL TRAFFIC DEPG RWYS 17R, 18L. NOTICE TO AIRMEN. WARNING, RWY 18L HAS BEEN SHORTENED, 9273 FT AVAILABLE. RWY 18L CL OTS. BIRD ACTIVITY VCNTY ARPT. ...ADVS YOU HAVE INFO W.",
    "KIAH": "[Arrival ATIS] KIAH ARR ATIS O 1953Z IAH ATIS INFO O 1953Z. 13007KT 10SM -RA FEW011 SCT024 BKN060 OVC200 27/26 A2992 (TWO NINER NINER TWO). ARRIVALS EXPECT ILS OR RNAV Y RY 8R, ILS OR RNAV Y RY 8L. SIMUL APPROACHES IN USE. DEPG RY 15L, RY 15R. NOTICE TO AIRMEN. UNITED RAMP CONTROL IN EFFECT. CODED DEPARTURE ROUTES IN EFFECT. RWY 15L CONDITION CODES, , 5 , , 5 , , 5 , AT 1720Z, RWY 15R CONDITION CODES, , 5 , , 5 , , 5 , AT 1720Z, RWY 08R CONDITION CODES, , 5 , , 5 , , 5 , AT 1720Z, RWY 08L CONDITION CODES, , 5 , , 5 , , 5 , AT 1720Z, RWY 09 CONDITION CODES, , 5 , , 5 , , 5 , AT 1720Z. HAZD WX INFO FOR IAH AREA AVBL FM FSS. WIND SHEAR ADZYS IN EFCT. BIRD ACTIVITY VICINITY ARPT. TWY SA CLSD BTN TWY, SG AND TWY SK , TWY SB CLSD BTN TWY, SG AND TWY SK , , TWY SG CLSD, TWY EA CLSD. NOTAM ATIS IN USE ON FREQUENCY 126.225. ...ADVS YOU HAVE INFO O.\n[Departure ATIS] KIAH DEP ATIS T 0353Z IAH ATIS INFO T 0353Z. 15007KT 10SM FEW035 FEW180 BKN250 27/23 A2996 (TWO NINER NINER SIX). ARRIVALS EXPECT ILS OR RNAV Y RY 8R, ILS OR RNAV Y RY 8L. DEPG RY 15R. NOTICE TO AIRMEN. UNITED RAMP CONTROL IN EFFECT. RY 15L, 33R CLSD. HAZD WX INFO FOR IAH AREA AVBL FM FSS. BIRD ACTIVITY VICINITY ARPT. CRANES ARE DOWN. TWY SA CLSD BTN TWY, SF AND TWY SK , TWY SB CLSD BTN TWY, SF AND TWY SK , , TWY WB CLSD BTN TWY, WG AND TWY WH . TWY EA CLSD. NOTAM ATIS IN USE ON FREQUENCY 126.225. ...ADVS YOU HAVE INFO T.",
    "KORD": "[Arrival ATIS] KORD ARR ATIS J 1051Z ORD ATIS INFO J 1051Z. 22005KT 10SM FEW040 BKN200 BKN250 23/19 A2988 (TWO NINER EIGHT EIGHT) RMK AO2 SLP111 T02330194. ARR EXP VECTORS ILS RWY 27C APCH, VISUAL APCH RWY 27R, VISUAL APCH RWY 28C. SIMUL APCHS IN USE. LAND AND HOLD SHORT OPERATIONS ARE IN EFFECT. RWY 27C ARR PLAN TO H/S OF TWY V V, 9 THSD 7 HND 25 FT AVBL, RWY 28C ARR PLAN TO H/S OF TWY Z, 9 THSD 6 HND TEN FT AVBL. DEPS EXP RWYS 27L FROM T T 9960 FT AVL. RWY 4L, 22R CLSD, RWY 4R, 22L CLSD, RWY 10R, 28L CLSD. RWY 22R LOC OTS, RWY 28L GS OTS, RWY 9L IM OTS, RWY 9C IM OTS, RWY 10L IM OTS, RWY 10R IM OTS, RWY 27R IM OTS, RWY 28L IM OTS, RWY 28R IM OTS, RWY 9L PAPI OTS, RWY 27R PAPI OTS. PILOTS USE CTN FOR BIRD ACTIVITY IN THE VICINITY OF THE ARPT. USE CTN FOR PERSONNEL AND EQUIP AT NUMEROUS SITES ON THE FIELD. READBACK ALL RWY HOLD SHORT INSTRUCTIONS. FOR CD GND METERING AND GC CONTACT ORD ON FREQ 121.9. ...ADVS YOU HAVE INFO J.\n[Departure ATIS] KORD DEP ATIS A 0751Z ORD ATIS INFO A 0751Z. 36006KT 10SM BKN250 19/15 A2997 (TWO NINER NINER SEVEN) RMK AO2 SLP144 T01940150. ARR EXP VECTORS ILS RWY 10L APCH. DEPS EXP RWYS 10L. RWY 4L, 22R CLSD, RWY 4R, 22L CLSD, RWY 9L, 27R CLSD, RWY 9C, 27C CLSD, RWY 9R, 27L CLSD, RWY 10C, 28C CLSD, RWY 10R, 28L CLSD. RWY 22R LOC OTS, RWY 28L GS OTS, RWY 9L IM OTS, RWY 9C IM OTS, RWY 10L IM OTS, RWY 10R IM OTS, RWY 27R IM OTS, RWY 28L IM OTS, RWY 28R IM OTS, RWY 9L PAPI OTS, RWY 27R PAPI OTS. PILOTS USE CTN FOR BIRD ACTIVITY IN THE VICINITY OF THE ARPT. NOISE ABATEMENT PROCEDURES ARE IN EFFECT. USE CTN FOR PERSONNEL AND EQUIP AT NUMEROUS SITES ON THE FIELD. READBACK ALL RWY HOLD SHORT INSTRUCTIONS. FOR CD GND METERING AND GC CONTACT ORD ON FREQ 121.9. ...ADVS YOU HAVE INFO A.",
    "KJFK": "[Arrival ATIS] KJFK ARR ATIS F 2251Z JFK ATIS INFO F 2251Z. 32014G23KT 10SM SCT080 SCT100 BKN250 28/08 A2976 (TWO NINER SEVEN SIX) RMK AO2 PK WND 32027/2203 SLP077 T02780083. APPROACH IN USE ILS RY 31R, VISUAL APCH RY 31L. DEPG RY 31L. RY 31L PAPI OTS, RWY 22L/4R INNER MARKER OTS. NUM CRANES OPERATING AT JFK. BIRD ACTIVITY VICINITY ARPT. READBACK ALL RWY ASSIGNMENTS AND HOLD SHORT INSTRUCTIONS. ...ADVS YOU HAVE INFO F.\n[Departure ATIS] KJFK DEP ATIS X 1551Z JFK ATIS INFO X 1551Z. 32014G18KT 10SM FEW050 FEW140 BKN250 31/18 A2983 (TWO NINER EIGHT THREE). APPROACH IN USE ILS RY 4R, ILS RY 4L. DEPG RY 4L. RWY 13R, 31L CLSD. RY 31R PAPI OTS, RWY 22L/4R INNER MARKER OTS.RWY 31R PAPI OTS. USE CAUTION FOR A MALFUNCTIONING AMBER FLASHING LIGHT APPROACH END RUNWAY 22L. NUM CRANES OPERATING AT JFK. BIRD ACTIVITY VICINITY ARPT. READBACK ALL RWY ASSIGNMENTS AND HOLD SHORT INSTRUCTIONS. ...ADVS YOU HAVE INFO X.",
    "KIND": "[Arrival ATIS] KIND ARR ATIS H 0154Z - KIND ATIS INFO H 0154Z. 30003KT 10SM FEW180 SCT250 27/18 A2996 (TWO NINER NINER SIX). PARL ILS RWY 5R AND 5L APPROACHES IN USE. DEPG RWYS 5L, 5R. CROSS RUNWAY OPERATIONS MAY BE IN EFFECT. NOTICE TO AIRMEN. TWY, P BTN TWY, H AND TWY B CLSD, TWY, P BTN TWY, H AND TWY J CLSD, TWY, H BTN TWY, R AND TWY N CLSD. P PAD CLSD. ILS RUNWAY 5R AND RUNWAY 5L INNER MARKER UNSERVICEABLE. ARPT ADZY FLOCK OF SMALL BIRDS IN THE VICINITY OF THE AIRPORT, ALT UNKN. ...ADVS YOU HAVE INFO H.\n[Departure ATIS] KIND DEP ATIS H 1854Z IND ATIS INFO H 1854Z. 26009G19KT 10SM SCT036 BKN041 BKN170 23/16 A2981 (TWO NINER EIGHT ONE) RMK AO2 SLP088 T02280156. PARL ILS RWY 23R AND 23L APPROACHES IN USE. CROSS RU",
    "KDTW": "[Arrival ATIS] KDTW ARR ATIS K 0753Z DTW ARR INFO K 0753Z. 35004KT 10SM FEW030 BKN040 21/18 A2997 (TWO NINER NINER SEVEN). ILS Z RY 22R APCH IN USE. NOTICE TO AIRMEN. RWY 22L, 4R CLSD, RWY 21R, 3L CLSD, RWY 21L, 3R CLSD, RWY 27L, 9R CLSD, RWY 27R, 9L CLSD. TWYS Y1 CLSD ;. RWSL OTS. PILOTS USE CTN FOR BIRD ACTIVITY. TWR AND GC COMB ON FREQ 135.0. DEPARTURE ATIS 118.125. ...ADVS YOU HAVE INFO K.\n[Departure ATIS] KDTW DEP ATIS Q 2253Z - KDTW DEP INFO Q 2253Z. 21009KT 10SM FEW050 FEW250 33/24 A2991 (TWO NINER NINER ONE). DEPG RWY 21R, RWY 22L ;. NOTICE TO AIRMEN. RWY 27L, 9R CLSD, RWY 27R, 9L CLSD. PILOTS USE CTN FOR BIRD ACTIVITY. ...ADVS YOU HAVE INFO Q.",
    "KMSP": "[Arrival ATIS] KMSP ARR ATIS G 0353Z MSP ARR INFO G 0353Z. 25003KT 10SM FEW055 FEW250 27/18 A2999 (TWO NINER NINER NINER) RMK AO2 SLP149 T02720178. VISUAL RWY 12R APCH IN USE, VISUAL RWY 12L APCH IN USE. FINAL APCH, OVER NOISE SENSITIVE AREA. NOTICE TO AIRMEN. RWYS 4, 22 CLSD. TWY R7. R8. R9. R10. CLOSED. TWY R BTWN R6 AND R10 CLSD, USE CAUTION, NUMEROUS TAXIWAY CLOSURES, TWY A7 CLSD, TWY A CLSD BTN TWY, A7 AND TWY D. GS RWY 12L OTS, RWYS 12R, 12L, INNER MARKER OTS. HAZD WX INFO FOR MSP AREA AVBL FM FSS. CTN, BIRDS NEAR MSP. UNAUTH LASER ILLUMINATION EVENT AT 0332Z , 5 WEST OF MSP, 020 FEET, GREEN LASER, FROM THE NORTH. READ BACK HS AND ALT. ALL ACFT TAXI WITH TRANSPONDER AND ALTITUDE ENCODING ON. ADVISE TOWER OF GATE ON INITIAL CONTACT. ...ADVS YOU HAVE INFO G.\n[Departure ATIS] KMSP DEP ATIS N 2353Z MSP DEP INFO N 2353Z. 16004KT 10SM FEW060 SCT250 30/16 A2994 (TWO NINER NINER FOUR). DEPARTING RWY 12L, RWY 12R, RWY 17. NOTICE TO AIRMEN. RWYS 4, 22 CLSD. TWY R7. R8. R9. R10. CLOSED. TWY R BTWN R6 AND R10 CLSD, USE CAUTION, NUMEROUS TAXIWAY CLOSURES, TWY A7 CLSD, TWY A CLSD BTN TWY, A7 AND TWY D. ALL ACFT CTC METERING ON ONE THREE THREE POINT FIVE SEVEN WHEN READY TO PUSHBACK OR TAXI. HAZD WX INFO FOR MSP AREA AVBL FM FSS. CTN, BIRDS NEAR MSP. READ BACK HS AND ALT. ALL ACFT TAXI WITH TRANSPONDER AND ALTITUDE ENCODING ON. ...ADVS YOU HAVE INFO N.",
    "CYEG": "[Arrival ATIS] CYEG ARR ATIS S 0819Z CYEG ARR ATIS S 0819Z 10016G27KT 080V140 12SM -TSRA FEW026 CIG BKN072CB OVC100 17/14 A2981 SIGMET H3 IN EFFECT. APCH RNAV Z OR Y RWY 02, INFORM ARRL OF REQ APCH ON INITIAL CTC. LDG AND DEP RWY 02. SIMUL APPROACHES MAY BE IN EFCT. INFORM CYEG ATC INFO S\n[Departure ATIS] CYEG DEP ATIS K 0500Z CYEG ARR ATIS K 0500Z 10009KT 20SM FEW070CB SCT120 CIG BKN200 16/12 A2980 SIGMET O3 IN EFFECT. APCH RNAV Z OR Y RWY 02, INFORM ARRL OF REQ APCH ON INITIAL CTC. LDG AND DEP RWY 02. SIMUL APPROACHES MAY BE IN EFCT. INFORM CYEG ATC INFO K",
    "EHAM": "[Arrival ATIS] EHAM ARR ATIS A 2251Z EHAM ARRIVAL INFO A. DEMAND. MAIN LANDING RWY 06. TRANSITION LEVEL 040. WIND 040 DEG, 7 KT, VRB BTN 360 AND 070 DEG. CAVOK. T 20. DP 17. QNH 1022 HPA. NOSIG. OPERATIONAL REPORT. CONTACT APCH WITH CALLSIGN ONLY. END OF INFO A\n[Departure ATIS] EHAM DEP ATIS O 0921Z EHAM DEPARTURE INFO O. DEMAND. MAIN DEPARTURE RWY 36 L. MAIN LANDING RWY 06. WIND 050 DEG, 5 KT, VRB BTN 270 AND 100 DEG, 13 KT MAX, 4 KT MNM. VIS 10 KM OR MORE. CLD FEW 1300 FT. T 20. DP 17. QNH 1021 HPA. OPERATIONAL REPORT. INFORM SCHIPHOL DEL BY VOICE IF UNABLE TO COMPLY WITH NADP 2. END OF INFO O",
    "EBBR": "[Arrival ATIS] EBBR ARR ATIS N 0450Z EBBR NAT, EXP VECT FOR ILS APP ARR RWY01 RSCD AT 0338 RWY01 DRY. DEP RWY07R TRL 055 XNG RWY OPS INPR 060/8KT CAVOK T17 DP15 QNH 1019HPA NOSIG CFM ARR N\n[Departure ATIS] EBBR DEP ATIS U 0850Z EBBR NAT, DEP RWY07R RSCD AT 0642 RWY07R DRY. ARR RWY01 TRL 055 XNG RWY OPS INPR 050/9KT VRB BTN 040 AND 100 CAVOK T24 DP17 QNH 1020HPA NOSIG CFM DEP U",
    "EDDF": "[Arrival ATIS] EDDF ARR ATIS V 2250Z ARR-ATIS EDDF V METAR 202250 EXPECT RNP X APCH RWY 25C RWY 25C GLS APCH ON REQUEST , FROM 0250 EXPECT ILS OR GLS APCH , TRL 60 VRB02KT CAVOK T24 DP18 QNH1021 TREND NOSIG END OF ATIS V\n[Departure ATIS] EDDF DEP ATIS P 1750Z -DEP-ATIS EDDF P METAR 201750 - -RWY 25C 18 - -TRL 60 -ATTN : BIRDS IN THE VCY OF THE AD -17004KT 110V230 RWY18 20003KT -CAVOK - - -T36 DP15 -QNH1019 - -TREND NOSIG",
    "EDDL": "[Arrival ATIS] EDDL ARR ATIS O 0250Z -ATIS EDDL O METAR 110250 -EXPECT VECTORS ILS APPROACH -RWY 05R 05L -TWY L2 , L4 AND L5 BTN TWY M AND RWY05R CLOSED ILS RWY05R CAT1 ONLY -TRL 60 - -03002KT -CAVOK - - -T16 DP14 -QNH1019 - -TREND NOSIG\n[Departure ATIS] EDDL DEP ATIS R EDDL ARR/DEP DATIS RPT -ATIS EDDL R METAR 020550 -EXPECT VECTORS ILS APPROACH -RWY 23L -TWY L8 CLOSED BETWEEN TWY M AND RWY 23L -TRL 60 - -23010KT -CAVOK - - -T19 DP13 -QNH1020 - -TREND NOSIG",
    "EDDK": "[Arrival ATIS] EDDK ARR ATIS M 0250Z -ATIS EDDK M METAR 110250 -EXPECT CDO FOR ILS APCH RWY 31R -RWY 31R 06 -RWY COND RWY 31R AT TIME 0000 RWYCC 6 DEPOSIT TOTAL RWY DRY RWY 06 AT TIME 0000 RWYCC 6 DEPOSIT TOTAL RWY DRY -TRL 60 -RWY 13R AND RWY 31L CLOSED FOR DEPARTURE AND LANDING: TAXIING BTN THR RWY 13R AND INTERSECTION RWY 24 POSSIBLE : -VRB02KT -CAVOK - - -T14 DP13 -QNH1018 - -TREND NOSIG\n[Departure ATIS] EDDK DEP ATIS Q EDDK ARR/DEP DATIS RPT -ATIS EDDK Q METAR 291920 -EXPECT ILS APCH -RWY 31R 06 -RWY COND RWY 31R AT TIME 1830 RWYCC 6 DEPOSIT TOTAL RWY DRY RWY 06 AT TIME 1830 RWYCC 6 DEPOSIT TOTAL RWY DRY -TRL 60 -RWY 13R AND RWY 31L CLOSED FOR DEPARTURE AND LANDING: TAXIING BTN THR RWY 13R AND INTERSECTION RWY 24 POSSIBLE : -04003KT -CAVOK - - -T24 DP13 -QNH1024 - -TREND NOSIG",
    "EBLG": "[Arrival ATIS] EBLG ATIS M 0950Z EBLG INFO, ARR RWY04R DEP RWY04R RWY 04R DRY, RWYCC 666. TRL 055 ADZ ON GND FREQ IF UNABLE S2 040/11KT VRB BTN 010 AND 090 CAVOK T27 DP14 QNH 1020HPA NOSIG CFM ATIS M",
    "LSZH": "[Arrival ATIS] LSZH ARR ATIS F 0450Z ARRIVALS, EXP ILS APCH, RWY 34. TRL 70. SOUTHBOUND AND WESTBOUND DEPARTURES : EXP RWY 28. NORTHBOUND AND EASTBOUND DEPARTURES : EXP RWY 32. TWY E 4 CLSD. WIND 340 DEG, 4 KT. CAVOK. T 19. DP 14. QNH 1018. WS, WIND AT 3800 FT QNH 100 DEG 3 KT, WIND AT 4600 FT QNH 220 DEG 15 KT. NOSIG.\n[Departure ATIS] LSZH DEP ATIS U 0450Z SOUTHBOUND AND WESTBOUND DEPARTURES : EXP RWY 28. NORTHBOUND AND EASTBOUND DEPARTURES : EXP RWY 32. TRL 70. ARRIVALS, EXP ILS APCH, RWY 34. TMA S 1 IS ACT. TMA S 2 AND S 3 ARE ACT. WIND VRB, 1 KT. CAVOK. T 19. DP 14. QNH 1018. WS, WIND AT 3800 FT QNH 100 DEG 3 KT, WIND AT 4600 FT QNH 220 DEG 15 KT. NOSIG.",
    "LIMC": "[Arrival ATIS] LIMC ARR ATIS T 2250Z LIMC ARR T 2250Z I.L.S. ZULU RWY IN USE 35L TL 70 RWY 35R CLSD WIND TDZ 040/5KT CAVOK T25 DP18 QNH 1023HPA QFE 0997HPA\n[Departure ATIS] LIMC DEP ATIS H 0831Z LIMC DEP H 0831Z RWY IN USE 35L TL 70 WIND END 310/3KT VRB BTN 270/AND 040/ CAVOK T29 DP19 QNH 1016HPA QFE 0990HPA DATALINK CLEARANCE AVAILABLE.... CONTACT 1 3 1 8 8 0 TO BE RELEASED BY THE AIRPORT OPERATOR ...",
    "LIRF": "[Arrival ATIS] LIRF ARR ATIS F 0950Z LIRF ARR F 0950Z RWY 16L ILS W RWY 16R ILS Z RWY IN USE 16L 16R TL 70 DEPENDENT PARL ILS APCH INPR RWY IN USE 16R OR 16L ASSIGNED BY ROME RADAR WIND RWY 16L TDZ 180/9KT VRB BTN 140/AND 200/ RWY 16R TDZ 200/10KT VRB BTN 140/AND 240/ CAVOK T32 DP20 QNH 1016HPA RRSM\n[Departure ATIS] LIRF DEP ATIS Y 0720Z LIRF DEP Y 0720Z RWY IN USE 25 TL 70 RWYS IN USE FOR ARR 16L AND 16R WIND END 150/8KT VRB BTN 130/AND 220/ VIS 10KM CLD FEW 2000FT T29 DP23 QNH 1016HPA REA IS SENT AUTOMATICALLY ONCE RLSD BY RAMP WHEN READY CONTACT FIUME RAMP 121.725 RRSM",
    "EINN": "[Arrival ATIS] EINN ARR ATIS V 0930Z EXPECT I L S CATEGORY 1 LDG RWY06 TKOF RWY06 TRL FL060 01008KT 9999 FEW023 SCT240 20/14 QNH Q1024 TREND NOSIG ADVISE AT FIRST CONTACT YOU HAVE ATIS INFO V",
    "EGLL": "[Arrival ATIS] EGLL ARR ATIS S 0950Z LANDING RWY 09L TRANSITION-LEVEL: FL 70 RUNWAY 09L REDUCED DECLARED DISTANCES IF STAND GUIDANCE IS OFF OR FAILS, REMAIN ON THE TAXIWAY CENTRELINE AND ADVISE ATC AUTO 05012KT 0\n[Departure ATIS] EGLL DEP ATIS V 1150Z DEPARTURE RWY 27R RUNWAY 27R REDUCED DECLARED DISTANCES WITH TAKE OFF RUN AVAILABLE 3362METRES AND LANDING DISTANCE AVAILABLE 3362METRES PILOTS THAT ARE IN RECEIPT OF DATALINK CL",
    "EPWA": "[Arrival ATIS] EPWA ARR ATIS L 0946Z EPWA ARR L. TIME 0946. EXP U ARR ILS Z APCH FOR RWY 33. TRANSITION LEVEL 80. WIND 290 DEG, 8 KT, VRB BTN 270 AND 360 DEG. VIS TDZ 10 KM OR MORE. CLD FEW TCU 2000 FT, CLD SCT 2500 FT. T 18. DP 13. QNH 1016. NOSIG. CAUTION. BIRD ACT. END OF EPWA ARR L\n[Departure ATIS] EPWA DEP ATIS O 0814Z EPWA DEP O. TIME 0812. DEP RWY 29. ARR RWY 33, EXP U ARR ILS Z. REPORT READY FOR STARTUP ON DELIVERY 121 DECIMAL 605. TRANSITION LEVEL 80. WIND 300 DEG, 9 KT. VIS MID 10 KM OR MORE. CLD BKN 1500 FT. T 17. DP 14. QNH 1016. NOSIG. CAUTION. BIRD ACT. END OF EPWA DEP O",
    "EFHK": "[Arrival ATIS] EFHK ARR ATIS Y 0920Z EXPECT ILS APCH ARR RWY 04L RUNWAY 04L CONDITION REPORT AT 0739 UTC RUNWAY CONDITION CODES 6 , 6 , 6 CONTAMINANTS ALL PARTS DRY TRL 60 WIND 040 DEG 9 KT CAVOK T 22 DP 15 QNH 1018 NOSIG ACK INFO Y\n[Departure ATIS] EFHK DEP ATIS X 0120Z DEP RWY 04R RUNWAY 04R CONDITION REPORT AT 2010 UTC RUNWAY CONDITION CODES 6 , 6 , 6 CONTAMINANTS ALL PARTS DRY WIND VRB BTN 310 AND 020 DEG 2 KT VIS 10KM FEW 4500 FT T 16 DP 11 QNH 1018 NOSIG ACK INFO X",
    "LTAC": "[Arrival ATIS] LTAC ARR ATIS R 1150Z EXP ILS Z APCH 21C DEP RWY 21R RWY 21C WIND 260 DEG 11 KT GUST 22 KT VRB BTN 230 DEG AND 290 DEG RWY 21R WIND 220 DEG 11 KT GUST 25 KT VRB BTN 150 DEG AND 270 DEG TRL 115 VIS 9999 SCT04000 FT T 30 DP 05 QNH 1008 NOSIG FOR DELIVERY CTC 121.9. FOR DELIVERY FIRST USE DIGITAL DEP CLR. CTN BIRD HAZARD OVR AERODROME. APCH FREQUENCY 129.050. TAXIWAY ECHO 1 IS CLOSED. END OF ATIS R",
    "UBBB": "[Arrival ATIS] UBBB ARR ATIS C 2300Z ATIS C EXP ILS/ LDG 34 35 DEP 34 35 IN USE RWY 35 CLEAR DRY 70 RWY 34 CLEAR DRY 70 MOD TURB INAPCH BTN 4000 AND 2000 FT TLVL 110 WIND WIND RWY 34 340 16 KT SPD MAX 20 MIN 12 WIND RWY 35 330 16 KT SPD MAX 20 MIN 14 VIS CAVOK T 26 / DP 19 QNH 1011 HPA TREND TREND NOSIG MODERATE BIRDS ACT IN VICINITY OF AP END OF ATIS C\n[Departure ATIS] UBBB DEP ATIS U 0930Z ATIS U EXP ILS/ LDG 34 35 DEP 34 35 IN USE RWY 34 CLEAR DRY 70 RWY 35 CLEAR DRY 70 TLVL 110 WIND WIND RWY 34 360 12 KT SPD MAX 14 MIN 10 WIND RWY 35 350 10 KT SPD MAX 14 MIN 4 VIS CAVOK T 31 / DP 14 QNH 1011 HPA TREND TREND NOSIG MODERATE BIRDS ACT IN VICINITY OF AP END OF ATIS U",
    "ZWWW": "[Arrival ATIS] ZWWW ARR ATIS B 2300Z EXP ILSDME Z APCH LDG RWY 26L TA 3000 WIND 140/2MPS VRB BTN 100/ AND 210/ CAVOK T 29 /DP 08 QNH 1009 HPA ADZ YOU HAVE INFO B.\n[Departure ATIS] ZWWW DEP ATIS W 2200Z DEP RWY 26L TA 3000 WIND 270/2MPS CAVOK T 29 /DP 07 QNH 1009 HPA ADZ YOU HAVE INFO W.",
    "ZLXY": "[Arrival ATIS] ZLXY ARR ATIS G 2219Z EXP ILS APCH LDG RWY 05L & 06L WIND 320/1MPS CAVOK T 19 /DP 18 QNH 1010 HPA VISUAL APPROACH IN PROGRESS ADZ YOU HAVE INFO G.\n[Departure ATIS] ZLXY DEP ATIS G 2219Z DEP RWY 05L & 06L WIND 320/1MPS CAVOK T 19 /DP 18 QNH 1010 HPA VISUAL APPROACH IN PROGRESS ADZ YOU HAVE INFO G.",
    "ZBAA": "[Arrival ATIS] ZBAA ARR ATIS Z 2230Z EXP ILS APCH DEPENDENT PARL INSTR APCH LDG RWY 36L & 36R & 01 WIND VRB DEG 1 MPS CAVOK T 19 /DP 13 QNH 1012 HPA VISUAL APPROACH IS IN PROGRESS. ADZ YOU HAVE INFO Z.\n[Departure ATIS] ZBAA DEP ATIS Z 2230Z DEP RWY 36L & 36R & 01 WIND VRB DEG 1 MPS CAVOK T 19 /DP 13 QNH 1012 HPA RWY INDEPENDENT PARALLEL DEP VISUAL APPROACH IS IN PROGRESS. ADZ YOU HAVE INFO Z.",
    "ZBHH": "[Arrival ATIS] ZBHH ARR ATIS R 2200Z EXP ILSDME APCH LDG RWY 08 TA 3000 /TRL 3600 WIND 040/2MPS CAVOK T 08 /DP 02 QNH 1015 HPA ADZ YOU HAVE INFO R.\n[Departure ATIS] ZBHH DEP ATIS Q 1500Z DEP RWY 08 TA 3000 /TRL 3600 WIND 140/2MPS VIS 5000M BR NSC T 19 /DP 19 QNH 1007 HPA ADZ YOU HAVE INFO Q.",
    "ZSQD": "[Arrival ATIS] ZSQD ARR ATIS Y 2300Z EXP ILSDME APCH LDG RWY 35 TA 3000 /TRL 3600 WIND 330/2MPS CAVOK T 23 /DP 18 QNH 1011 HPA VISUAL APPROACH OPERATION IN PROGRESS. RUNWAY 35,IF MISSED APPROACH,EXPECT FOLLOW THE STANDARD MISSED APPROACH PROCEDURE,CLIMB TO 1200M ON QNH OR BY ATC CAUTION MAYBE THERE IS A FLOCK OF BIRDS IN THE VICINITY OF AIRPORT ADZ YOU HAVE INFO Y.\n[Departure ATIS] ZSQD DEP ATIS Z 0400Z DEP RWY 34 TA 3000 /TRL 3600 WIND 290/4MPS VIS 9999M CLD BKN 1200M T 29 /DP 18 QNH 1003 HPA SEGREGATED OPERATION VISUAL APPROACH OPERATION IN PROGRESS. RUNWAY 35,IF MISSED APPROACH,EXPECT FOLLOW THE STANDARD MISSED APPROACH PROCEDURE,CLIMB TO 1200M ON QNH OR BY ATC CAUTION MAYBE THERE IS A FLOCK OF BIRDS IN THE VICINITY OF AIRPORT ADZ YOU HAVE INFO Z."
  },
  "windtemp_alaska": "\n000\nFBAK31 KWNO 110800\nFD1AK1\nDATA BASED ON 110600Z    \nVALID 111200Z   FOR USE 0800-1500Z. TEMPS NEG ABV 24000\n\nFT  3000    6000    9000   12000   18000   24000  30000  34000  39000\nADK 2522 2525+05 2530+02 2539-01 2455-13 2472-24 239838 732447 249754\nADQ 2017 2119+07 2117+02 2119-03 2421-13 2522-25 222442 182352 263452\nAKN 2327 2231+06 2230+01 2232-04 2232-16 2235-27 233442 213149 253548\nANC 1807 1713+07 1717+01 1716-02 1815-14 1816-27 210842 241052 251057\nANN 9900 9900+00 9900-04 9900-09 0412-22 0414-35 042247 041544 030742\nBET 2024 1918+05 1817+02 1817-04 1626-17 1448-28 145143 182343 232045\nBRW 2512 2413+02 2415-03 2417-08 2224-20 2329-30 243545 253652 252446\nBTI 9900 2407+07 2514+00 2521-06 2421-18 2615-30 301446 301255 271948\nBTT 9900 2107+09 1910+01 1914-05 2217-17 2415-28 302543 292953 272053\nCDB 3026 2930+06 2732+02 2636-02 2643-12 2762-24 760038 773345 279654\nCZF 3307 0107+03 9900+00 1609-04 1519-17 1432-28 135443 153448 221844\nEHM 2742 2744+02 2748+01 2647-04 2644-16 2658-27 267242 266547 253545\nFAI 1510 2010+10 1909+03 1910-03 2117-15 2421-27 242244 261953 251455\nFYU 9900 2009+09 1909+03 2111-03 2315-17 2420-29 232744 243153 262452\nGAL 1616 1517+06 1717+01 1622-05 1826-16 1824-25 172742 182653 201855\nGKN 1619 1814+08 1815+02 1812-02 1713-13 1812-27 201143 211453 240758\nHOM 1820 1819+06 1822+02 1822-03 1727-15 2221-24 211641 201753 242055\nJNU 9900 0308+04 0418+00 0420-06 0326-19 0539-30 054545 054454 022148\nLUR 2009 2114+02 2116-03 2116-09 2119-19 2228-29 224444 224553 222648\nMCG 1814 1821+07 1625+01 1527-04 1821-15 1823-25 172742 172453 181854\nMDO 2007 1706+07 1909+03 1908-02 9900-14 0707-27 020742 360952 321857\nOME 0722 1026+05 1226-01 1326-06 1527-15 1627-26 173443 183453 172351\nORT      1807+09 1808+04 1710-02 2010-14 1907-27 210543 990053 270660\nOTZ 1013 1413+04 1616-02 1718-08 1923-17 2026-26 203643 213553 202251\nSNP 2528 2533+02 2440-03 2343-08 2447-16 2457-27 248343 257847 254943\nTKA 2012 1918+06 1819+01 1717-03 1817-14 1816-26 201142 241253 231257\nUNK 1522 1324+05 1429-01 1529-05 1622-14 1722-26 162843 152652 181852\nYAK 9900 9900+08 9900+02 0605-04 0415-16 0624-28 063345 063554 042656\nIKO 2516 2423+06 2531+02 2539-01 2561-12 2579-23 750437 751446 750054\nAFM 1207 1711+06 1815-01 1920-06 1925-17 2125-26 232943 233053 222454\n5AB 2634 2736+04 2730+01 2728-01 3036-12 3341-25 356939 355947 322750\n5AC 0310 0310+00 0214-04 0220-10 0231-23 0248-34 015945 013944 352042\n5AD 2508 2607+05 2706+03 3006-02 3318-14 3333-25 325839 327049 318654\n5AE 2925 2618+09 2523+05 2630+00 2835-12 2834-25 289538 781146 289554\n5AF 3313 3415+04 3520-01 0123-06 0327-19 0132-30 014044 363953 013149\n5AG 2907 3005+08 9900+01 0708-04 0610-16 0313-28 011445 361753 352852\n",
  "vaac_tokyo": [
    {
      "id": "20260711_30027000_0260",
      "year": "2026",
      "volcano": "Sheveluch",
      "psn": "N5639 E16122",
      "issued": "20260711",
      "text": "FVFE01 RJTD 110000\nVA ADVISORY\nDTG: 20260711/0000Z\nVAAC: TOKYO\nVOLCANO: SHEVELUCH 300270\nPSN: N5639 E16122\nAREA: RUSSIA\nSOURCE ELEV: 3283M AMSL\nADVISORY NR: 2026/260\nINFO SOURCE: HIMAWARI-9\nERUPTION DETAILS: VA CONTINUOUSLY OBS IN SATELLITE IMAGERY\nOBS VA DTG: 10/2320Z\nOBS VA CLD: SFC/FL280 N3856 E16034 - N3914 E16113 - N3732 E16657 - \nN3911 E17113 - N3852 E17223 - N3641 E16925 - N3652 E16532 MOV E 70KT\nFCST VA CLD +6 HR: 11/0520Z SFC/FL290 N4547 E17734 - N3905 E17405 - \nN3624 E16722 - N3636 E16203 - N4037 E17140 - N4547 E17454\nFCST VA CLD +12 HR: 11/1120Z SFC/FL290 N5003 W17906 - N4523 E17948 - \nN3452 E16722 - N3458 E16449 - N4713 E17654 - N4918 E17614\nFCST VA CLD +18 HR: NO VA EXP\nRMK: THE RESPONSIBILITY FOR THIS ASH EVENT IS BEING TRANSFERRED TO \nVAAC WASHINGTON. THE NEXT ADVISORY WILL BE ISSUED BY VAAC WASHINGTON \nBY 0600UTC UNDER HEADER FVXX22 KNES. SOME PART OF VA OBSCURED BY MET \nCLOUD.\nNXT ADVISORY: NO FURTHER ADVISORIES=",
      "img_url": "https://ds.data.jma.go.jp/svd/vaac/data/VAGFN/2026/Images/20260711_30027000_0260_QH21_01.png",
      "sat_img_url": "https://ds.data.jma.go.jp/svd/vaac/data/Sat/2026/Images/30027000/09-ir/20260710_2320_202607110000_ir.png",
      "text_url": "https://ds.data.jma.go.jp/svd/vaac/data/TextData/2026/20260711_30027000_0260_Text.html"
    },
    {
      "id": "20260706_27202000_0232",
      "year": "2026",
      "volcano": "Kanlaon",
      "psn": "N1025 E12308",
      "issued": "20260706",
      "text": "FVFE01 RJTD 061545\nVA ADVISORY\nDTG: 20260706/1545Z\nVAAC: TOKYO\nVOLCANO: KANLAON 272020\nPSN: N1025 E12308\nAREA: PHILIPPINES\nSOURCE ELEV: 2435M AMSL\nADVISORY NR: 2026/232\nINFO SOURCE: HIMAWARI-9 PHIVOLCS\nERUPTION DETAILS: ERUPTION AT 20260706/1520Z FL100 EXTD SW REPORTED\nOBS VA DTG: 06/1530Z\nOBS VA CLD: VA NOT IDENTIFIABLE FM SATELLITE DATA WIND FL100 350/5KT\nFCST VA CLD +6 HR: NOT AVBL\nFCST VA CLD +12 HR: NOT AVBL\nFCST VA CLD +18 HR: NOT AVBL\nRMK: WE WILL ISSUE FURTHER ADVISORY IF VA IS DETECTED IN SATELLITE \nIMAGERY.\nNXT ADVISORY: NO FURTHER ADVISORIES=",
      "img_url": "https://ds.data.jma.go.jp/svd/vaac/data/VAGFN/2026/Images/20260706_27202000_0232_QH21_01.png",
      "sat_img_url": null,
      "text_url": "https://ds.data.jma.go.jp/svd/vaac/data/TextData/2026/20260706_27202000_0232_Text.html"
    },
    {
      "id": "20260705_27303000_0717",
      "year": "2026",
      "volcano": "Mayon",
      "psn": "N1315 E12341",
      "issued": "20260705",
      "text": "FVFE01 RJTD 051936\nVA ADVISORY\nDTG: 20260705/1936Z\nVAAC: TOKYO\nVOLCANO: MAYON 273030\nPSN: N1315 E12341\nAREA: PHILIPPINES\nSOURCE ELEV: 2462M AMSL\nADVISORY NR: 2026/717\nINFO SOURCE: HIMAWARI-9 PHIVOLCS\nERUPTION DETAILS: ERUPTION AT 20260705/1914Z FL090 EXTD WSW REPORTED\nOBS VA DTG: 05/1920Z\nOBS VA CLD: VA NOT IDENTIFIABLE FM SATELLITE DATA WIND FL090 050/8KT\nFCST VA CLD +6 HR: NOT AVBL\nFCST VA CLD +12 HR: NOT AVBL\nFCST VA CLD +18 HR: NOT AVBL\nRMK: WE WILL ISSUE FURTHER ADVISORY IF VA IS DETECTED IN SATELLITE \nIMAGERY.\nNXT ADVISORY: NO FURTHER ADVISORIES=",
      "img_url": "https://ds.data.jma.go.jp/svd/vaac/data/VAGFN/2026/Images/20260705_27303000_0717_QH21_01.png",
      "sat_img_url": null,
      "text_url": "https://ds.data.jma.go.jp/svd/vaac/data/TextData/2026/20260705_27303000_0717_Text.html"
    },
    {
      "id": "20260701_30006000_0001",
      "year": "2026",
      "volcano": "Mutnovsky",
      "psn": "N5227 E15812",
      "issued": "20260701",
      "text": "FVFE01 RJTD 012206\nVA ADVISORY\nDTG: 20260701/2206Z\nVAAC: TOKYO\nVOLCANO: MUTNOVSKY 300060\nPSN: N5227 E15812\nAREA: RUSSIA\nSOURCE ELEV: 2288M AMSL\nADVISORY NR: 2026/1\nINFO SOURCE: KVERT KBGS UHPP HIMAWARI-9\nERUPTION DETAILS: ERUPTION AT 20260701/2016Z FL170 EXTD W REPORTED\nOBS VA DTG: 01/2140Z\nOBS VA CLD: VA NOT IDENTIFIABLE FM SATELLITE DATA WIND FL170 120/8KT\nFCST VA CLD +6 HR: NOT AVBL\nFCST VA CLD +12 HR: NOT AVBL\nFCST VA CLD +18 HR: NOT AVBL\nRMK: WE WILL ISSUE FURTHER ADVISORY IF VA IS DETECTED IN SATELLITE \nIMAGERY.\nNXT ADVISORY: NO FURTHER ADVISORIES=",
      "img_url": "https://ds.data.jma.go.jp/svd/vaac/data/VAGFN/2026/Images/20260701_30006000_0001_QH21_01.png",
      "sat_img_url": null,
      "text_url": "https://ds.data.jma.go.jp/svd/vaac/data/TextData/2026/20260701_30006000_0001_Text.html"
    }
  ],
  "vaac_alaska": [
    {
      "text": "\n000\nFVAK21 PAWU 110618\nVAAAK1\nVA ADVISORY\n\nDTG: 20260711/0614Z\n\nVAAC: ANCHORAGE\n\nVOLCANO: SHEVELUCH 300270\n\nPSN: N5639 E16122\n\nAREA: KAMCHATKA PENINSULA\n\nSOURCE ELEV: 10771 FT AMSL\n\nADVISORY NR: 2026/192\n\nRMK: PLEASE SEE FVXX22 KNES ISSUED BY VAAC WASHINGTON WHICH DESCRIBES\nCONDITIONS NEAR THE VAAC ANCHORAGE AREA OF RESPONSIBILITY...SC\n\n\n\n",
      "issued": "2026-07-11T06:18:00+00:00",
      "volcano": "Sheveluch",
      "psn": "N5639 E16122"
    }
  ]
}