{
  "updated_utc": "2026-07-21T12:20Z",
  "metar": {
    "RJAA": "METAR RJAA 211030Z 24005KT 210V280 9999 FEW030 SCT/// 30/25 Q1008 BECMG 22004KT",
    "PANC": "METAR PANC 211053Z 15003KT 10SM FEW010 BKN039 09/08 A3013 RMK AO2 RAE0957 SLP205 P0000 T00940083",
    "PAFA": "METAR PAFA 211053Z 00000KT 10SM -RA SCT060 BKN080 14/13 A2996 RMK AO2 LTG DSNT NE SLP147 CB DSNT NE MOV NW P0001 T01390128 $",
    "PAED": "METAR PAED 211055Z COR 14004KT 5SM -RA SCT005 OVC032 10/09 A3012 RMK AO2A SHRAE55RAB55 SLP196 P0002 T01030086 $ COR 1104",
    "KSEA": "METAR KSEA 211053Z 03006KT 10SM BKN250 20/14 A2996 RMK AO2 SLP147 T02000139 $",
    "ZSPD": "METAR ZSPD 211030Z 16004MPS 130V190 9999 SCT016 30/28 Q1006 NOSIG",
    "ZSSS": "METAR ZSSS 211030Z 19003MPS 140V230 9999 -SHRA SCT033 28/26 Q1006 NOSIG",
    "RJFR": "METAR RJFR 211100Z 33005KT 9999 FEW035 30/25 Q1008",
    "VHHH": "METAR VHHH 211030Z 09004KT 040V190 9999 FEW012 31/24 Q1006 NOSIG",
    "RCTP": "METAR RCTP 211030Z 15008KT 120V180 9999 -SHRA FEW015 SCT090 BKN200 29/25 Q1009 NOSIG RMK A2980",
    "ZGSZ": "METAR ZGSZ 211100Z 16004MPS 9999 SCT050 29/26 Q1006 NOSIG",
    "WSSS": "METAR WSSS 211030Z 15008KT 120V180 9999 FEW018 BKN300 30/24 Q1010 NOSIG",
    "WMKK": "METAR WMKK 211030Z VRB03KT 9999 FEW017CB 32/24 Q1008 NOSIG",
    "WIDD": "METAR WIDD 211030Z 17005KT 9999 SCT014 30/25 Q1010 NOSIG",
    "VTBS": "METAR VTBS 211030Z 13007KT 110V190 9999 FEW020 SCT040 33/23 Q1007 NOSIG",
    "VTBU": "METAR VTBU 211030Z 22005KT 9000 FEW020 31/27 Q1008 NOSIG",
    "ROAH": "METAR ROAH 211030Z 24004KT 9999 VCSH FEW010 29/27 Q1009",
    "VVDN": "METAR VVDN 211030Z 11007KT 9999 FEW020 33/23 Q1006 NOSIG",
    "RCKH": "METAR RCKH 211030Z 28004KT 240V310 9999 FEW014 SCT040 30/25 Q1009 NOSIG RMK A2980",
    "KLAX": "METAR KLAX 211053Z 25003KT 10SM FEW008 FEW012 SCT200 21/19 A2993 RMK AO2 SLP132 T02110194 $",
    "KONT": "METAR KONT 211053Z 26005KT 10SM FEW130 SCT220 23/13 A2994 RMK AO2 SLP121 T02330128 $",
    "KSFO": "METAR KSFO 211056Z 29004KT 10SM FEW004 BKN150 17/13 A2989 RMK AO2 SLP120 T01670133 $",
    "KOAK": "METAR KOAK 211053Z 29003KT 10SM BKN160 18/14 A2989 RMK AO2 SLP120 T01780139",
    "KMHR": "METAR KMHR 211035Z AUTO 15005KT 10SM CLR 20/11 A2984 RMK AO2 T01980107 $",
    "KDFW": "METAR KDFW 211053Z 00000KT 10SM FEW250 27/19 A2989 RMK AO2 SLP110 T02670194 $",
    "KIAH": "SPECI KIAH 211044Z 26004KT 10SM FEW008 25/24 A2991 RMK AO2 T02500244",
    "KORD": "METAR KORD 211051Z 26004KT 10SM FEW045 BKN070 BKN150 BKN250 23/21 A2968 RMK AO2 TSE02 SLP044 CB DSNT SE-SW MOV E T02330206",
    "KJFK": "METAR KJFK 211051Z 16012KT 10SM SCT050 SCT085 OVC250 23/20 A2990 RMK AO2 SLP124 T02330200 $",
    "KRFD": "METAR KRFD 211054Z 26007KT 10SM FEW070 SCT250 22/20 A2970 RMK AO2 SLP053 T02170200",
    "KIND": "METAR KIND 211054Z 23014KT 9SM FEW065 SCT180 BKN230 25/22 A2974 RMK AO2 SLP063 T02500217",
    "KDTW": "METAR KDTW 211053Z 23008KT 5SM HZ SCT040 BKN065 OVC160 22/19 A2960 RMK AO2 SLP017 CB DSNT S MOV E T02220194",
    "KMSP": "METAR KMSP 211053Z 32012G20KT 10SM BKN050 21/15 A2979 RMK AO2 SLP082 T02060150 $",
    "CYEG": "SPECI CYEG 211027Z 05003KT 350V060 3SM -SHRA FU FEW006 SCT026 BKN039 OVC056 16/16 A3021 RMK SF1SC3SC2SC2 CVCTV CLD EMBD SLP233 DENSITY ALT 2700FT",
    "EHAM": "METAR EHAM 211025Z 33004KT 280V360 9999 FEW031 BKN034 19/10 Q1026 NOSIG",
    "EBBR": "METAR EBBR 211050Z 01005KT 310V040 9999 FEW035 20/10 Q1026 NOSIG",
    "EDDF": "METAR EDDF 211050Z AUTO 01005KT 320V060 CAVOK 21/06 Q1023 NOSIG",
    "EDFH": "METAR EDFH 211050Z 03008KT 340V120 CAVOK 19/07 Q1025",
    "EDDL": "METAR EDDL 211050Z AUTO 33006KT 260V030 CAVOK 21/09 Q1025 NOSIG",
    "EDDK": "METAR EDDK 211050Z AUTO 31007KT 260V010 9999 FEW039 21/09 Q1025 NOSIG",
    "EBLG": "METAR EBLG 211050Z 34006KT 250V020 9999 SCT027 18/08 Q1026 NOSIG",
    "LSZH": "METAR LSZH 211050Z 09009KT 050V140 CAVOK 21/07 Q1022 NOSIG",
    "LIMC": "METAR LIMC 211050Z VRB06KT 9999 SCT050 29/16 Q1016 NOSIG",
    "LIRF": "METAR LIRF 211050Z 20015KT CAVOK 33/26 Q1014 NOSIG",
    "EINN": "METAR EINN 211030Z 36007KT 330V030 9999 BKN018 16/12 Q1032 NOSIG",
    "EGLL": "METAR EGLL 211050Z AUTO 04007KT 340V080 9999 OVC035 21/11 Q1029",
    "EGSS": "METAR EGSS 211050Z AUTO 02008KT 340V060 9999 BKN027 OVC032 20/12 Q1029",
    "EPWA": "METAR EPWA 211030Z 26014KT 9999 -SHRA BKN007 BKN014TCU 16/14 Q1013 TEMPO 3000 DZRA",
    "UHPP": "SPECI UHPP 211052Z VRB01MPS 7000 -SHRA BKN003 OVC026CB 15/15 Q0998 R16R/290252 NOSIG RMK QFE745/0994",
    "EFHK": "METAR EFHK 211050Z 02010KT 9999 BKN028 FEW050CB 13/07 Q1013 BECMG BKN028",
    "LBBG": "METAR LBBG 211030Z 13012KT CAVOK 29/20 Q1014 NOSIG",
    "LTAC": "METAR LTAC 211050Z VRB05KT 9999 FEW040 32/02 Q1014 NOSIG RMK RWY21C 02007KT 330V050 RWY03L VRB06KT RWY21R VRB06KT RWY03R VRB04KT RWY21L 26008KT 230V310",
    "UBBB": "METAR UBBB 211030Z 12006KT 040V200 CAVOK 32/15 Q1011 NOSIG",
    "UTAA": "METAR UTAA 211100Z 30014KT 260V320 9999 FEW033CB BKN033 BKN100 31/19 Q1010 R88/CLRD70 NOSIG",
    "UACC": "METAR UACC 211030Z 24005MPS 190V260 9999 SCT043CB 25/12 Q0995 NOSIG RMK QFE716/0955",
    "UAAA": "METAR UAAA 211030Z 13003MPS 100V170 9999 BKN050CB OVC100 32/13 Q1001 NOSIG",
    "UZTT": "METAR UZTT 211030Z 31010KT 270V340 CAVOK 35/10 Q1005 NOSIG",
    "ZWWW": "METAR ZWWW 211030Z 02006MPS CAVOK 42/07 Q0996 NOSIG",
    "ZLXY": "METAR ZLXY 211100Z 07004MPS 030V110 9999 TS FEW040CB SCT060 30/24 Q1003 BECMG TL1130 NSW",
    "ZBAA": "METAR ZBAA 211030Z 18004MPS 140V200 CAVOK 30/23 Q1003 NOSIG",
    "ZBHH": "METAR ZBHH 211100Z 06006MPS 9999 SCT040 19/13 Q1009 BECMG AT1230 34008G13MPS -TSRA",
    "ZSQD": "METAR ZSQD 211100Z 16005MPS CAVOK 26/20 Q1006 NOSIG",
    "ZMCK": "METAR ZMCK 211030Z 24003MPS 220V290 9999 FEW030CB SCT033 24/09 Q1005 NOSIG RMK QFE639.8 36 MOP",
    "UUEE": "METAR UUEE 211030Z 21004MPS 160V270 9999 BKN028 23/18 Q1010 R24L/220151 R24C/220151 NOSIG",
    "UUDD": "METAR UUDD 211030Z 24006MPS 9999 BKN020CB 23/19 Q1011 R13R/290045 NOSIG",
    "ULLI": "SPECI ULLI 211023Z 07005MPS 7000 -SHRA BKN004 BKN016CB OVC036 14/12 Q1009 R88/290050 NOSIG RMK QBB140 OBST OBSC",
    "USSS": "SPECI USSS 211029Z 36006G11MPS 330V040 CAVOK 28/14 Q1008 R08R/CLRD60 NOSIG RMK QFE736/0982",
    "UNNT": "METAR UNNT 211030Z 01002MPS CAVOK 26/16 Q0998 R07/CLRD// R16/CLRD// NOSIG RMK QFE738/0985",
    "UNKL": "METAR UNKL 211030Z 04002MPS CAVOK 25/15 Q0999 R11/CLRD// NOSIG RMK QFE724",
    "UIBB": "METAR UIBB 211030Z 16002MPS 110V200 9999 NSC 22/13 Q1002 R30/CLRD62 NOSIG RMK QFE709/0946",
    "UEEE": "METAR UEEE 211030Z 11001MPS CAVOK 22/15 Q1007 R23/09//66 NOSIG RMK QFE747",
    "UHHH": "METAR UHHH 211030Z 06002MPS CAVOK 26/21 Q1005 R23L/090060 NOSIG RMK QFE748/0997",
    "UHSS": "METAR UHSS 211030Z 18001MPS 9999 BKN045CB 22/20 Q1006 R01/CLRD70 NOSIG RMK QFE753/1004"
  },
  "taf": {
    "RJAA": "TAF RJAA 211105Z 2112/2218 15004KT 9999 FEW030 TEMPO 2118/2121 FEW003 BKN008 BECMG 2122/2200 31005KT BECMG 2203/2206 13010KT TEMPO 2203/2209 4000 -TSRA BR FEW005 BKN008 FEW020CB",
    "PANC": "TAF PANC 211130Z 2112/2218 16006KT P6SM VCSH FEW005 SCT010 OVC035 FM211600 16006KT P6SM SCT010 OVC040 FM212000 15012G24KT P6SM VCSH SCT040 BKN070 FM220200 15018G32KT 6SM -RA SCT015 OVC030 FM220700 15015G28KT P6SM -SHRA SCT020 OVC040 FM221200 15012G22KT P6SM VCSH BKN040 OVC050",
    "PAFA": "TAF PAFA 211132Z 2112/2218 20005KT P6SM -SHRA SCT060 BKN080 FM212100 15004KT P6SM SCT050 FM221200 20004KT P6SM VCSH BKN050",
    "PAED": "TAF AMD PAED 210700Z 2107/2211 24009KT 9999 SCT005 BKN013 OVC020 620604 QNH3005INS TEMPO 2107/2110 9000 -SHRA BKN003 BECMG 2110/2111 25009KT 8000 BR SCT004 BKN022 OVC065 620654 QNH3010INS BECMG 2114/2115 VRB06KT 6000 BR FEW004 BKN055 BKN075 620753 QNH3007INS BECMG 2120/2121 33015KT 9999 -RA SCT045 OVC060 640703 QNH3003INS BECMG 2201/2202 36012KT 9000 -RA FEW020 SCT045 OVC055 640703 550208 QNH3001INS TX16/2122Z TN10/2113Z",
    "KSEA": "TAF KSEA 211120Z 2112/2218 03006KT P6SM BKN250 FM212000 32007KT P6SM SCT250 FM220600 01006KT P6SM FEW250",
    "ZSPD": "TAF ZSPD 210907Z 2112/2218 19004MPS 6000 SCT030 TX28/2112Z TX32/2206Z TN26/2121Z TEMPO 2112/2114 33007G12MPS TSRA BKN011 FEW030CB",
    "ZSSS": "TAF ZSSS 210907Z 2112/2218 21004MPS 6000 BKN030 TX28/2112Z TX33/2206Z TN26/2121Z TEMPO 2112/2113 33007G12MPS TSRA BKN011 FEW030CB TEMPO 2206/2210 33007G12MPS TSRA BKN011 FEW030CB",
    "RJFR": "TAF RJFR 211105Z 2112/2218 28006KT 9999 FEW040 SCT050 BECMG 2118/2120 24004KT BECMG 2200/2203 04008KT BECMG 2203/2206 30010KT",
    "VHHH": "TAF VHHH 211100Z 2112/2218 20010KT 9999 FEW010 SCT025 TX32/2206Z TN28/2122Z TEMPO 2112/2114 10010KT TEMPO 2122/2204 4000 SHRA FEW010CB SCT020",
    "RCTP": "TAF RCTP 211100Z 2112/2218 23010KT 9999 FEW010 BKN032 TEMPO 2112/2118 16005KT TEMPO 2118/2124 24005KT TEMPO 2200/2206 31011KT TEMPO 2206/2212 30011KT",
    "ZGSZ": "TAF ZGSZ 210905Z 2112/2218 18004MPS 8000 BKN040 TX29/2112Z TX31/2206Z TN28/2122Z TEMPO 2200/2203 SHRA FEW025CB BKN033 TEMPO 2204/2207 -TSRA FEW020CB BKN033",
    "WSSS": "TAF WSSS 211100Z 2112/2218 17008KT 9999 FEW015 SCT020 TEMPO 2206/2209 3000 TSRA FEW012CB BKN015",
    "WMKK": "TAF WMKK 211100Z 2112/2218 VRB03KT 9999 FEW030",
    "VTBS": "TAF VTBS 211100Z 2112/2218 23008KT 9999 FEW020 TEMPO 2114/2118 VRB15KT 4000 TSRA FEW018CB SCT030 BKN100 TEMPO 2210/2214 VRB15KT 4000 TSRA FEW018CB SCT030 BKN100",
    "VTBU": "TAF VTBU 211100Z 2112/2212 23008KT 9999 FEW020",
    "ROAH": "TAF ROAH 211105Z 2112/2218 25006KT 9999 FEW008 SCT015 BECMG 2200/2203 29006KT TEMPO 2203/2209 4000 SHRA BR FEW005 BKN008 FEW015CB BECMG 2215/2218 11004KT",
    "VVDN": "TAF VVDN 211100Z 2112/2212 11010KT 9999 FEW020 BECMG 2112/2113 22006KT BECMG 2206/2207 10010KT TEMPO 2208/2212 TS SCT015 FEW017CB",
    "RCKH": "TAF RCKH 211100Z 2112/2218 22005KT 9999 FEW010 BKN032 TEMPO 2112/2118 15005KT TEMPO 2118/2124 09005KT TEMPO 2200/2206 26010KT TEMPO 2206/2212 25010KT",
    "KLAX": "TAF KLAX 211120Z 2112/2218 VRB03KT P6SM BKN200 FM211700 26006KT P6SM SCT250 FM212100 26012KT P6SM SCT250 FM220300 26008KT P6SM SCT250 FM220800 VRB03KT P6SM SCT250 FM221100 VRB03KT P6SM BKN008 FM221600 26006KT P6SM SCT250",
    "KONT": "TAF KONT 211120Z 2112/2218 VRB05KT P6SM FEW150 FM212200 25011G18KT P6SM FEW150 FM220400 25007KT P6SM SKC FM220800 VRB04KT P6SM SKC",
    "KSFO": "TAF KSFO 211120Z 2112/2218 32004KT P6SM BKN150 FM212100 28011KT P6SM BKN150 FM220600 25006KT P6SM SCT010 BKN150",
    "KOAK": "TAF KOAK 211120Z 2112/2218 28003KT P6SM BKN150 FM212100 28010KT P6SM BKN150 FM220600 28006KT P6SM SCT010 BKN150",
    "KMHR": "TAF KMHR 211123Z 2112/2212 VRB05KT P6SM BKN250 FM212200 23009KT P6SM BKN250 FM220500 19008KT P6SM FEW250 FM220700 16005KT P6SM SKC",
    "KDFW": "TAF KDFW 211120Z 2112/2218 23007KT P6SM FEW250 FM211700 VRB05KT P6SM SCT080 FM220000 18005KT P6SM FEW080 FM221200 03007KT P6SM FEW250",
    "KIAH": "TAF KIAH 211120Z 2112/2218 27005KT P6SM FEW015 FEW250 TEMPO 2112/2113 BKN008 FM211500 27005KT P6SM SKC FM212100 28003KT P6SM FEW060 FM220000 VRB05KT P6SM FEW050 SCT070",
    "KORD": "TAF KORD 211120Z 2112/2218 27011G19KT P6SM SCT060 SCT250 FM211500 30015G23KT P6SM BKN050 FM220200 02012G19KT P6SM SCT025 SCT150 FM220900 35011KT P6SM SCT040",
    "KJFK": "TAF KJFK 211131Z 2112/2218 16007KT P6SM VCSH BKN040 BKN070 FM211400 15013G22KT P6SM VCSH FEW030 BKN050 FM211600 16014G23KT P6SM VCSH SCT025 BKN050 PROB30 2116/2121 3SM -TSRA BKN020CB FM212100 18015G24KT 5SM -SHRA BKN020 OVC050 TEMPO 2121/2201 26020G40KT 2SM TSRA BKN020CB FM220100 20014G23KT P6SM VCSH BKN025 BKN100 TEMPO 2201/2205 3SM SHRA FM220600 22011KT 4SM BR VCSH BKN015 FM221200 24014KT P6SM BKN025 OVC040",
    "KRFD": "TAF KRFD 211120Z 2112/2212 27011G19KT P6SM SCT060 SCT250 FM211400 32015G23KT P6SM BKN050 FM220200 36012G19KT P6SM FEW025 SCT150",
    "KIND": "TAF KIND 211120Z 2112/2218 23009KT P6SM SCT035 OVC200 FM211300 25012G20KT P6SM SCT035 OVC200 PROB30 2114/2118 VRB18G28KT 3SM TSRA OVC020CB FM211800 29013G21KT P6SM SCT040 FM220000 33011KT P6SM FEW050 FM220300 35006KT P6SM FEW050 FM221200 01011KT P6SM FEW050",
    "KDTW": "TAF KDTW 211120Z 2112/2218 21011G19KT P6SM SCT050 BKN070 BKN150 PROB30 2112/2115 5SM -TSRA SCT028 OVC040CB FM211500 26014G24KT P6SM BKN045 BKN080 FM211900 28016G26KT P6SM BKN045 PROB30 2119/2123 5SM -TSRA SCT028 OVC040CB FM220000 33012G22KT P6SM SCT030 BKN045 FM220600 31011KT P6SM BKN040 FM221400 32012G20KT P6SM SCT050",
    "KMSP": "TAF KMSP 211120Z 2112/2218 32014G22KT P6SM OVC035 FM211500 33014G26KT P6SM SKC FM220400 02011KT P6SM FEW250 FM220500 01006KT P6SM FEW250",
    "CYEG": "TAF CYEG 211140Z 2112/2212 VRB03KT 6SM FU BKN040 TEMPO 2112/2115 2SM -SHRA BR FU BKN008 FM211500 VRB03KT P6SM BKN040 TEMPO 2115/2121 3SM -SHRA FU BKN015 FM212100 13008KT P6SM BKN050 TEMPO 2121/2204 4SM -SHRA VCTS FU BKN030CB FM220400 16005KT P6SM SCT012 TEMPO 2204/2209 4SM FU BKN012 FM220900 17005KT 1/2SM FG FU VV002 RMK NXT FCST BY 211500Z",
    "EHAM": "TAF EHAM 211116Z 2112/2218 32012KT 9999 FEW030 PROB30 TEMPO 2120/2203 BKN018 PROB30 TEMPO 2207/2211 5000 DZ -SHRA BKN016 SCT018TCU",
    "EBBR": "TAF EBBR 211116Z 2112/2218 33008KT 9999 SCT040",
    "EDDF": "TAF EDDF 211100Z 2112/2218 01008KT CAVOK BECMG 2119/2121 VRB03KT BECMG 2206/2208 30008KT",
    "EDFH": "TAF EDFH 211100Z 2112/2212 36008KT CAVOK BECMG 2119/2121 30004KT BECMG 2210/2212 31009KT",
    "EDDL": "TAF EDDL 211100Z 2112/2218 34008KT CAVOK BECMG 2119/2122 28004KT BECMG 2206/2209 30010KT",
    "EDDK": "TAF EDDK 211100Z 2112/2218 33009KT CAVOK BECMG 2118/2121 33004KT BECMG 2206/2209 31010KT",
    "EBLG": "TAF EBLG 211116Z 2112/2218 34007KT 9999 SCT035",
    "LSZH": "TAF LSZH 211125Z 2112/2218 06009KT CAVOK TX24/2115Z TN11/2204Z TX26/2215Z TEMPO 2112/2119 9999 FEW060 BECMG 2120/2122 35004KT",
    "LIMC": "TAF LIMC 211100Z 2112/2218 VRB05KT 9999 FEW050 PROB40 TEMPO 2112/2121 4000 SHRA",
    "LIRF": "TAF LIRF 211100Z 2112/2218 16010KT CAVOK BECMG 2114/2116 22012KT BECMG 2121/2123 34008KT BECMG 2203/2205 03012KT BECMG 2209/2211 30012KT",
    "EINN": "TAF EINN 211100Z 2112/2212 36010KT 9999 BKN020",
    "EGLL": "TAF EGLL 211052Z 2112/2218 04008KT CAVOK PROB30 TEMPO 2112/2113 BKN035 BECMG 2118/2121 12010KT BECMG 2203/2206 18003KT BECMG 2211/2214 05010KT",
    "EGSS": "TAF EGSS 211056Z 2112/2218 02010KT 9999 SCT030 BECMG 2118/2121 09005KT PROB30 2202/2206 7000",
    "EPWA": "TAF EPWA 211130Z 2112/2212 27015KT 9999 BKN018 TEMPO 2112/2118 28018G28KT 4000 SHRA BKN012TCU PROB40 TEMPO 2112/2115 2500 DZRA BKN007 BECMG 2117/2120 27005KT BECMG 2205/2208 28015KT TEMPO 2208/2212 29018G28KT",
    "UHPP": "TAF UHPP 211038Z 2112/2218 18003G10MPS 6000 -SHRA BKN004 OVC017CB TEMPO 2112/2123 0600 FG VV001 BECMG 2123/2202 BKN020CB TEMPO 2206/2209 1000 BR VV003 TEMPO 2209/2218 0700 FG VV002",
    "EFHK": "TAF EFHK 211128Z 2112/2212 02010KT 9999 BKN028 TEMPO 2112/2115 FEW050CB PROB40 TEMPO 2200/2204 7000 RA",
    "LBBG": "TAF LBBG 211100Z 2112/2212 12012KT 9999 SCT045 PROB30 TEMPO 2112/2116 VRB16G26KT 4000 TSRA FEW030CB BKN040 BECMG 2119/2121 VRB03KT TEMPO 2202/2207 3000 SHRA BKN005 SCT020CB OVC040 BECMG 2207/2208 12012KT TEMPO 2208/2212 VRB18G30KT 5000 TSRA SCT030CB BKN040",
    "LTAC": "TAF LTAC 211040Z 2112/2212 35012KT 9999 FEW040 BECMG 2113/2115 CAVOK BECMG 2116/2118 VRB02KT",
    "UBBB": "TAF UBBB 211052Z 2112/2212 12006KT CAVOK TX32/2112Z TN21/2201Z TEMPO 2112/2116 09010KT SCT030 TEMPO 2120/2204 VRB04KT BECMG 2207/2209 15008KT TEMPO 2209/2212 18014KT SCT020",
    "UTAA": "TAF COR UTAA 211100Z 2112/2212 31014G24KT 4000 DRDU SHRA SCT030 SCT030CB TEMPO 2112/2118 VRB22G32KT 2000 BLDU -TSRA BKN020 SCT020CB BECMG 2121/2123 33012KT 6000 SCT030CB SCT100",
    "UACC": "TAF UACC 211103Z 2112/2212 24005MPS 9999 SCT030CB BKN050 TX23/2210Z TN15/2123Z TEMPO 2112/2124 24012MPS 3100 -TSRA BKN011 BKN020CB BECMG 2200/2202 32005MPS TEMPO 2200/2212 36013MPS 3100 -TSRA BKN020CB",
    "UAAA": "TAF UAAA 211102Z 2112/2212 22003G08MPS 9999 BKN050CB OVC100 TX27/2210Z TN19/2200Z TEMPO 2112/2122 28010G16MPS 2500 TSRA BLDU SCT015CB TEMPO 2122/2124 15003MPS BECMG 2203/2205 04003MPS SCT050CB BKN100 TEMPO 2205/2212 14005G10MPS",
    "UZTT": "TAF UZTT 211100Z 2112/2212 34012KT 7000 FEW060CB BKN100 TEMPO 212/2118 27018G28KT 4000 -DS SCT060CB TEMPO 2118/2203 -TSRA BKN050CB",
    "ZWWW": "TAF ZWWW 210903Z 2112/2218 36004MPS CAVOK TX40/2112Z TN30/2123Z TN25/2218Z BECMG 2113/2114 20004MPS BECMG 2118/2119 30008G16MPS TEMPO 2119/2122 2500 SA BECMG 2203/2204 30004G09MPS BECMG 2213/2214 16004MPS",
    "ZLXY": "TAF ZLXY 210906Z 2112/2212 06004MPS 6000 NSC TX37/2208Z TN24/2122Z",
    "ZBAA": "TAF ZBAA 210900Z 2112/2218 18004MPS 5000 BR NSC TX30/2206Z TN21/2121Z TN24/2218Z TEMPO 2114/2118 -TSRA FEW030CB BKN040 TEMPO 2207/2211 -TSRA FEW030CB BKN040",
    "ZBHH": "TAF ZBHH 210906Z 2112/2212 36004MPS 9999 TSRA SCT040CB SCT040 TX29/2207Z TN14/2122Z TEMPO 2112/2113 VRB10G18MPS 2800 +TSRA BECMG 2113/2114 NSW NSC BECMG 2208/2209 -TSRA SCT040CB SCT040 TEMPO 2209/2212 VRB10G18MPS 2800 +TSRAGR",
    "ZSQD": "TAF ZSQD 210904Z 2112/2212 16004MPS 3500 BR NSC TX30/2206Z TN20/2120Z",
    "ZMCK": "TAF COR ZMCK 211046Z 2112/2218 VRB02MPS 9999 FEW030CB SCT033 TN13/2121Z TX26/2207Z PROB40 TEMPO 2112/2115 VRB08G13MPS TSRA SCT027CB SCT030 PROB40 TEMPO 2205/2212 VRB08G13MPS TSRA SCT027CB SCT030",
    "UUEE": "TAF UUEE 211050Z 2112/2212 20003MPS 9999 FEW007 BKN016 TX25/2112Z TN15/2202Z TEMPO 2112/2118 27008G15MPS -TSRA BKN016CB PROB40 TEMPO 2121/2204 0300 FG BKN002",
    "UUDD": "TAF UUDD 211053Z 2112/2218 26003MPS 9999 BKN016 TX25/2112Z TN15/2202Z TEMPO 2112/2119 26008G13MPS -TSRA BKN020CB PROB40 TEMPO 2122/2204 0300 FG BKN002 BECMG 2204/2206 20005MPS",
    "ULLI": "TAF ULLI 211054Z 2112/2212 06006G13MPS 6000 BKN010 OVC016 TEMPO 2112/2115 3100 -SHRA BR BKN005 BKN017CB BECMG 2115/2118 03003MPS BKN016 TEMPO 2118/2206 0300 FG BKN002 OVC010 TEMPO 2209/2212 3100 -TSRA BKN016CB",
    "USSS": "TAF USSS 211051Z 2112/2212 36003G13MPS 9999 SCT040 TEMPO 2112/2116 03008G17MPS FM211800 27003G08MPS 6000 SCT016 FM220500 33003G13MPS 9999 -SHRA SCT033CB",
    "UNNT": "TAF UNNT 211100Z 2112/2212 03003G08MPS 8000 BKN040 TX25/2210Z TN17/2122Z TEMPO 2114/2121 -TSRA BKN020CB TEMPO 2203/2212 10006G14MPS -TSRA BKN020CB",
    "UNKL": "TAF UNKL 211045Z 2112/2212 11003G08MPS 9999 SCT040 TEMPO 2112/2114 -TSRA BKN030CB BECMG 2205/2208 -TSRA BKN030CB BECMG 2209/2211 NSW SCT040",
    "UIBB": "TAF UIBB 211100Z 2112/2212 15002G07MPS 9999 SCT016CB PROB40 TEMPO 2112/2115 -TSRA",
    "UEEE": "TAF UEEE 211100Z 2112/2218 11003MPS 9999 SCT040CB TX26/2206Z TN14/2119Z",
    "UHHH": "TAF UHHH 211048Z 2112/2218 VRB01MPS 6000 NSC TX30/2204Z TN18/2118Z TEMPO 2118/2123 0500 FG FEW002 FM220000 06003G08MPS 9999 SCT020",
    "UHSS": "TAF UHSS 211055Z 2112/2218 VRB01MPS 6000 BKN030CB BECMG 2113/2116 0550 FG BKN002 BKN016CB BECMG 2121/2123 6000 NSW BKN020CB FM220000 33003MPS 9999 SCT030CB"
  },
  "atis": {},
  "windtemp_alaska": "\n000\nFBAK31 KWNO 210800\nFD1AK1\nDATA BASED ON 210600Z    \nVALID 211200Z   FOR USE 0800-1500Z. TEMPS NEG ABV 24000\n\nFT  3000    6000    9000   12000   18000   24000  30000  34000  39000\nADK 2825 2823+12 2725+06 2731+00 2837-10 2942-19 315233 325645 327657\nADQ 2028 2027+00 2125-04 2125-07 2632-15 2643-28 265844 275552 262648\nAKN 1737 1931+00 2026-03 2229-05 2342-15 2442-27 265245 266153 253046\nANC 1806 1510+00 1615-05 1820-09 1720-23 1628-34 211645 181842 181842\nANN 3405 1905+14 9900+08 2205+02 2016-14 2022-25 212741 202749 212755\nBET 1432 1328-01 1223-06 1425-09 2228-17 2227-31 202547 233142 231841\nBRW 1219 1210+08 1612+01 1921-04 1524-16 1430-28 144143 134652 132352\nBTI 1024 1109+12 1006+05 1406-01 1613-15 1524-26 143442 133552 161956\nBTT 1208 1517+08 1421+02 1326-03 1233-16 1132-28 133744 144353 143749\nCDB 2537 2543+09 2642+04 2644-01 2644-14 2546-25 254242 263851 283752\nCZF 1220 1225-01 1221-07 1220-11 1315-21 1613-32 202246 221539 241339\nEHM 1527 1926+03 2324+01 2326-04 2538-15 2553-28 257444 266148 263443\nFAI 2423 2021+05 1218+01 1429-05 1437-18 1344-29 135444 135751 163646\nFYU 1511 1215+13 1319+05 1322-02 1429-16 1430-28 162643 151852 153350\nGAL 2208 1105+01 0912-04 1421-09 1242-21 1259-32 128445 136446 132542\nGKN 1820 1820+03 1826-02 1727-07 1433-20 1443-33 146845 145846 173243\nHOM 1710 1813+00 1919-05 2021-09 2424-20 2739-29 287246 273648 232044\nJNU 9900 2209+10 2115+06 2019-01 1928-16 1833-27 183741 183549 193254\nLUR 1614 1317+02 1323-04 1431-09 1453-21 1465-31 138444 138049 133542\nMCG 1708 1411+00 1420-06 1525-12 1433-23 1527-34 171944 162341 181741\nMDO 2411 2413+00 2213-03 2214-08 2117-22 2020-34 272644 241643 191842\nOME 1216 1215-01 1213-07 1215-12 1418-25 1513-36 132044 152140 151439\nORT      3207+09 1611+03 1615-04 1531-17 1541-29 154842 165451 164250\nOTZ 1510 1413+01 1317-05 1427-09 1450-22 1372-32 139246 137046 143441\nSNP 3120 2928+08 2832+05 2838+00 2753-13 2864-25 298139 309846 296449\nTKA 1914 1816+01 1721-05 1625-09 1530-22 1442-33 144646 153342 161942\nUNK 1416 1319+00 1321-06 1428-12 1427-23 1425-34 142145 152441 161740\nYAK 9900 2212+05 2015+00 1826-05 1739-19 1752-29 167142 167049 174347\nIKO 2532 2535+12 2536+06 2634+00 2733-13 2934-23 314737 326847 327057\nAFM 3106 0605+03 1017-02 1327-06 1343-18 1355-30 136444 146551 144145\n5AB 2425 2429+09 2437+06 2546+02 2649-07 2745-17 294432 295043 296855\n5AC 3326 3113+12 2710+07 2412+01 2418-13 2420-25 222641 222550 212756\n5AD 2814 2714+02 2718-01 2725-05 2837-14 2946-27 294944 285154 273550\n5AE 2246 2342+03 2448+01 2450-03 2547-14 2546-25 264443 274352 283055\n5AF 2912 2611+07 2119+02 1929-03 1938-17 1951-29 186842 196748 204149\n5AG 2917 2411+03 2113-02 2115-07 1921-21 1828-34 183043 192743 192543\n",
  "vaac_active": [
    {
      "volcano": "桜島",
      "volcano_jp": "桜島",
      "advisory_nr": "2026/87",
      "obs_time": "2026-07-21 11:20Z",
      "issued_time": "2026-07-21 11:50Z",
      "text_url": "https://www.data.jma.go.jp/vaac/data/TextData/2026/20260721_28208001_0087_Text.html",
      "lat": 31.6,
      "lon": 130.65,
      "text": "FVFE01 RJTD 211150\nVA ADVISORY\nDTG: 20260721/1150Z\nVAAC: TOKYO\nVOLCANO: SAKURAJIMA (AIRA CALDERA) 282080\nPSN: N3136 E13039\nAREA: JAPAN\nSOURCE ELEV: 1117M AMSL\nADVISORY NR: 2026/87\nINFO SOURCE: HIMAWARI-9\nERUPTION DETAILS: VA IS NOT IDENTIFIABLE IN SATELLITE IMAGERY.\nOBS VA DTG: 21/1120Z\nOBS VA CLD: VA NOT IDENTIFIABLE FM SATELLITE DATA WIND FL180 200/3KT\nFCST VA CLD +6 HR: NOT AVBL\nFCST VA CLD +12 HR: NOT AVBL\nFCST VA CLD +18 HR: NOT AVBL\nRMK: VA IS NOT IDENTIFIABLE DUE TO MET CLOUD OR HAS DISSIPATED. WE \nWILL ISSUE FURTHER ADVISORY IF VA DETECTED IN SATELLITE IMAGERY.\nNXT ADVISORY: NO FURTHER ADVISORIES="
    },
    {
      "volcano": "TAAL",
      "volcano_jp": "タール",
      "advisory_nr": "2026/16",
      "obs_time": "2026-07-21 06:29Z",
      "issued_time": "2026-07-21 07:01Z",
      "text_url": "https://www.data.jma.go.jp/vaac/data/TextData/2026/20260721_27307000_0016_Text.html",
      "lat": 14.0,
      "lon": 121.0,
      "text": "FVFE01 RJTD 210701\nVA ADVISORY\nDTG: 20260721/0701Z\nVAAC: TOKYO\nVOLCANO: TAAL 273070\nPSN: N1400 E12100\nAREA: PHILIPPINES\nSOURCE ELEV: 311M AMSL\nADVISORY NR: 2026/16\nINFO SOURCE: HIMAWARI-9 PHIVOLCS\nERUPTION DETAILS: ERUPTION AT 20260721/0629Z FL080 EXTD SE REPORTED\nOBS VA DTG: 21/0650Z\nOBS VA CLD: VA NOT IDENTIFIABLE FM SATELLITE DATA WIND FL080 060/3KT\nFCST VA CLD +6 HR: NOT AVBL\nFCST VA CLD +12 HR: NOT AVBL\nFCST VA CLD +18 HR: NOT AVBL\nRMK: WE WILL ISSUE FURTHER ADVISORY IF VA IS DETECTED IN SATELLITE \nIMAGERY.\nNXT ADVISORY: NO FURTHER ADVISORIES="
    },
    {
      "volcano": "TAAL",
      "volcano_jp": "タール",
      "advisory_nr": "2026/15",
      "obs_time": "2026-07-21 06:29Z",
      "issued_time": "2026-07-21 06:49Z",
      "text_url": "https://www.data.jma.go.jp/vaac/data/TextData/2026/20260721_27307000_0015_Text.html",
      "lat": 14.0,
      "lon": 121.0,
      "text": "FVFE01 RJTD 210649\nVA ADVISORY\nDTG: 20260721/0649Z\nVAAC: TOKYO\nVOLCANO: TAAL 273070\nPSN: N1400 E12100\nAREA: PHILIPPINES\nSOURCE ELEV: 311M AMSL\nADVISORY NR: 2026/15\nINFO SOURCE: HIMAWARI-9 PHIVOLCS\nERUPTION DETAILS: ERUPTION AT 20260721/0629Z FL050 REPORTED\nOBS VA DTG: 21/0630Z\nOBS VA CLD: VA NOT IDENTIFIABLE FM SATELLITE DATA WIND FL050 010/1KT\nFCST VA CLD +6 HR: NOT AVBL\nFCST VA CLD +12 HR: NOT AVBL\nFCST VA CLD +18 HR: NOT AVBL\nRMK: WE WILL ISSUE FURTHER ADVISORY IF VA IS DETECTED IN SATELLITE \nIMAGERY.\nNXT ADVISORY: NO FURTHER ADVISORIES="
    },
    {
      "volcano": "桜島",
      "volcano_jp": "桜島",
      "advisory_nr": "2026/86",
      "obs_time": "2026-07-21 05:14Z",
      "issued_time": "2026-07-21 06:27Z",
      "text_url": "https://www.data.jma.go.jp/vaac/data/TextData/2026/20260721_28208001_0086_Text.html",
      "lat": 31.6,
      "lon": 130.65,
      "text": "FVFE01 RJTD 210627\nVA ADVISORY\nDTG: 20260721/0627Z\nVAAC: TOKYO\nVOLCANO: SAKURAJIMA (AIRA CALDERA) 282080\nPSN: N3136 E13039\nAREA: JAPAN\nSOURCE ELEV: 1117M AMSL\nADVISORY NR: 2026/86\nINFO SOURCE: JMA HIMAWARI-9\nERUPTION DETAILS: ERUPTED AT 20260721/0514Z FL140 STNR\nOBS VA DTG: 21/0610Z\nOBS VA CLD: SFC/FL140 N3140 E13037 - N3139 E13043 - N3131 E13043 - \nN3131 E13036 MOV S 5KT\nFCST VA CLD +6 HR: 21/1210Z SFC/FL140 N3207 E13054 - N3118 E13054 - \nN3119 E13021 - N3159 E13012\nFCST VA CLD +12 HR: 21/1810Z SFC/FL140 N3224 E13103 - N3138 E13035 - \nN3138 E12953 - N3315 E13009\nFCST VA CLD +18 HR: NO VA EXP\nRMK: NIL\nNXT ADVISORY: 20260721/1200Z="
    },
    {
      "volcano": "SHEVELUCH",
      "volcano_jp": "シベルチ",
      "advisory_nr": "2026/209",
      "obs_time": "2026-07-20 18:00Z",
      "issued_time": "2026-07-20 18:00Z",
      "text_url": "https://www.data.jma.go.jp/vaac/data/TextData/2026/20260720_30027000_0209_AN_Text.html",
      "lat": 56.65,
      "lon": 161.367,
      "text": "FVFE01 RJTD 201800\nVAAAK1\nVA ADVISORY\n\nDTG: 20260720/1800Z\n\nVAAC: ANCHORAGE\n\nVOLCANO: SHEVELUCH 300270\n\nPSN: N5639 E16122\n\nAREA: KAMCHATKA PENINSULA\n\nSOURCE ELEV: 10771 FT AMSL\n\nADVISORY NR: 2026/209\n\nINFO SOURCE: HIMAWARI\n\nERUPTION DETAILS: SOME PART OF VA OBSCURED BY MET CLOUDS.\n\nOBS VA DTG: 20/1800Z\n\nOBS VA CLD: SFC/FL400 N5214 E17533 - N4903 E17910 - N4837 E17630\n- N5202 E17358 - N5214 E17533 MOV SE 80KT\n\nFCST VA CLD +6HR: 21/0000Z SFC/FL400 N4926 E17911 - N4929 E17942\n- N4622 E17958 - N4624 E17905 - N4926 E17911 - N4926 E17911\n\nFCST VA CLD +12HR: 21/0600Z NO VA EXP\n\nFCST VA CLD +18HR: 21/1200Z NO VA EXP\n\nRMK: VAAC TOKYO HAS TRANSFERRED RESPONSIBILITY OF THIS EVENT\nTO VAAC ANCHORAGE. THIS ADVISORY UPDATES MESSAGE FVFE01 RJTD....TS\n\nNXT ADVISORY: WILL BE ISSUED BY 20260721/2100Z="
    }
  ],
  "vaac_tokyo": [
    {
      "id": "20260721_27307000_0016",
      "year": "2026",
      "volcano": "Taal",
      "psn": "N1400 E12100",
      "issued": "20260721",
      "text": "FVFE01 RJTD 210701\nVA ADVISORY\nDTG: 20260721/0701Z\nVAAC: TOKYO\nVOLCANO: TAAL 273070\nPSN: N1400 E12100\nAREA: PHILIPPINES\nSOURCE ELEV: 311M AMSL\nADVISORY NR: 2026/16\nINFO SOURCE: HIMAWARI-9 PHIVOLCS\nERUPTION DETAILS: ERUPTION AT 20260721/0629Z FL080 EXTD SE REPORTED\nOBS VA DTG: 21/0650Z\nOBS VA CLD: VA NOT IDENTIFIABLE FM SATELLITE DATA WIND FL080 060/3KT\nFCST VA CLD +6 HR: NOT AVBL\nFCST VA CLD +12 HR: NOT AVBL\nFCST VA CLD +18 HR: NOT AVBL\nRMK: WE WILL ISSUE FURTHER ADVISORY IF VA IS DETECTED IN SATELLITE \nIMAGERY.\nNXT ADVISORY: NO FURTHER ADVISORIES=",
      "img_url": "https://ds.data.jma.go.jp/svd/vaac/data/VAGFN/2026/Images/20260721_27307000_0016_QH21_01.png",
      "sat_img_url": null,
      "text_url": "https://ds.data.jma.go.jp/svd/vaac/data/TextData/2026/20260721_27307000_0016_Text.html"
    },
    {
      "id": "20260721_28208001_0086",
      "year": "2026",
      "volcano": null,
      "psn": "N3136 E13039",
      "issued": "20260721",
      "text": "FVFE01 RJTD 210627\nVA ADVISORY\nDTG: 20260721/0627Z\nVAAC: TOKYO\nVOLCANO: SAKURAJIMA (AIRA CALDERA) 282080\nPSN: N3136 E13039\nAREA: JAPAN\nSOURCE ELEV: 1117M AMSL\nADVISORY NR: 2026/86\nINFO SOURCE: JMA HIMAWARI-9\nERUPTION DETAILS: ERUPTED AT 20260721/0514Z FL140 STNR\nOBS VA DTG: 21/0610Z\nOBS VA CLD: SFC/FL140 N3140 E13037 - N3139 E13043 - N3131 E13043 - \nN3131 E13036 MOV S 5KT\nFCST VA CLD +6 HR: 21/1210Z SFC/FL140 N3207 E13054 - N3118 E13054 - \nN3119 E13021 - N3159 E13012\nFCST VA CLD +12 HR: 21/1810Z SFC/FL140 N3224 E13103 - N3138 E13035 - \nN3138 E12953 - N3315 E13009\nFCST VA CLD +18 HR: NO VA EXP\nRMK: NIL\nNXT ADVISORY: 20260721/1200Z=",
      "img_url": "https://ds.data.jma.go.jp/svd/vaac/data/VAGFN/2026/Images/20260721_28208001_0086_QH21_01.png",
      "sat_img_url": "https://ds.data.jma.go.jp/svd/vaac/data/Sat/2026/Images/28208001/09-ir/20260721_0610_202607210627_ir.png",
      "text_url": "https://ds.data.jma.go.jp/svd/vaac/data/TextData/2026/20260721_28208001_0086_Text.html"
    },
    {
      "id": "20260720_30027000_0272",
      "year": "2026",
      "volcano": "Sheveluch",
      "psn": "N5639 E16122",
      "issued": "20260720",
      "text": "FVFE01 RJTD 201500\nVA ADVISORY\nDTG: 20260720/1500Z\nVAAC: TOKYO\nVOLCANO: SHEVELUCH 300270\nPSN: N5639 E16122\nAREA: RUSSIA\nSOURCE ELEV: 3283M AMSL\nADVISORY NR: 2026/272\nINFO SOURCE: HIMAWARI-9\nERUPTION DETAILS: VA CONTINUOUSLY OBS IN SATELLITE IMAGERY\nOBS VA DTG: 20/1420Z\nOBS VA CLD: SFC/FL390 N5626 E16711 - N5644 E16801 - N5334 E17100 - \nN5320 E17046 - N5455 E16741 MOV SE 80KT\nFCST VA CLD +6 HR: 20/2020Z SFC/FL400 N5451 E17745 - N5237 E17715 - \nN5013 E17845 - N5030 E17644 - N5236 E17455 - N5459 E17606\nFCST VA CLD +12 HR: 21/0220Z SFC/FL400 N5255 W17530 - N4753 W17642 - \nN4554 W17523 - N4517 W17545 - N4651 W17824 - N5004 W17948\nFCST VA CLD +18 HR: 21/0820Z SFC/FL400 N5101 W17024 - N4432 W17322 - \nN4036 W16942 - N4024 W17143 - N4405 W17542 - N4722 W17530\nRMK: SOME PART OF VA OBSCURED BY MET CLOUD. THE RESPONSIBILITY FOR \nTHIS ASH EVENT IS BEING TRANSFERRED TO VAAC ANCHORAGE. THE NEXT \nADVISORY WILL BE ISSUED BY VAAC ANCHORAGE BY 1800UTC UNDER HEADER \nFVAK21 PAWU.\nNXT ADVISORY: NO FURTHER ADVISORIES=",
      "img_url": "https://ds.data.jma.go.jp/svd/vaac/data/VAGFN/2026/Images/20260720_30027000_0272_QH21_01.png",
      "sat_img_url": "https://ds.data.jma.go.jp/svd/vaac/data/Sat/2026/Images/30027000/09-ir/20260720_1420_202607201500_ir.png",
      "text_url": "https://ds.data.jma.go.jp/svd/vaac/data/TextData/2026/20260720_30027000_0272_Text.html"
    },
    {
      "id": "20260719_27303000_0769",
      "year": "2026",
      "volcano": "Mayon",
      "psn": "N1315 E12341",
      "issued": "20260719",
      "text": "FVFE01 RJTD 192213\nVA ADVISORY\nDTG: 20260719/2213Z\nVAAC: TOKYO\nVOLCANO: MAYON 273030\nPSN: N1315 E12341\nAREA: PHILIPPINES\nSOURCE ELEV: 2462M AMSL\nADVISORY NR: 2026/769\nINFO SOURCE: HIMAWARI-9 PHIVOLCS\nERUPTION DETAILS: ERUPTION AT 20260719/2148Z FL080 EXTD W REPORTED\nOBS VA DTG: 19/2200Z\nOBS VA CLD: VA NOT IDENTIFIABLE FM SATELLITE DATA WIND FL080 010/2KT\nFCST VA CLD +6 HR: NOT AVBL\nFCST VA CLD +12 HR: NOT AVBL\nFCST VA CLD +18 HR: NOT AVBL\nRMK: WE WILL ISSUE FURTHER ADVISORY IF VA IS DETECTED IN SATELLITE \nIMAGERY.\nNXT ADVISORY: NO FURTHER ADVISORIES=",
      "img_url": "https://ds.data.jma.go.jp/svd/vaac/data/VAGFN/2026/Images/20260719_27303000_0769_QH21_01.png",
      "sat_img_url": null,
      "text_url": "https://ds.data.jma.go.jp/svd/vaac/data/TextData/2026/20260719_27303000_0769_Text.html"
    }
  ],
  "vaac_alaska": [
    {
      "text": "\n000\nFVAK21 PAWU 210244\nVAAAK1\nVA ADVISORY\n\nDTG: 20260721/0242Z\n\nVAAC: ANCHORAGE\n\nVOLCANO: SHEVELUCH 300270\n\nPSN: N5639 E16122\n\nAREA: KAMCHATKA PENINSULA\n\nSOURCE ELEV: 10771 FT AMSL\n\nADVISORY NR: 2026/212\n\nINFO SOURCE: HIMAWARI\n\nERUPTION DETAILS: NIL\n\nOBS VA DTG: 21/0242Z\n\nOBS VA CLD: VA NOT IDENTIFIABLE FROM SATELLITE DATA\n\nFCST VA CLD +6HR: NO VA EXP\n\nFCST VA CLD +12HR: NO VA EXP\n\nFCST VA CLD +18HR: NO VA EXP\n\nRMK: NIL...BH\n\nNXT ADVISORY: NO FURTHER ADVISORIES=\n\n",
      "issued": "2026-07-21T02:44:00+00:00",
      "volcano": "Sheveluch",
      "psn": "N5639 E16122"
    }
  ]
}