{
  "updated_utc": "2026-07-15T19:01Z",
  "metar": {
    "RJAA": "METAR RJAA 151100Z 15009KT 9999 FEW010 BKN/// 27/25 Q1002 NOSIG",
    "PANC": "METAR PANC 151053Z 16015G23KT 10SM OVC048 11/08 A2985 RMK AO2 PK WND 15030/1001 SLP107 T01110083 $",
    "PAFA": "METAR PAFA 151053Z 00000KT 10SM SCT065 BKN080 OVCV095 13/08 A2969",
    "PAED": "METAR PAED 151055Z 01007KT 10SM -RA OVC050 11/09 A2983 RMK AO2A SLP098 P0000 T01130092 $",
    "KSEA": "METAR KSEA 151053Z 00000KT 10SM BKN250 16/10 A3010 RMK AO2 SLP196 T01560100 $",
    "ZSPD": "METAR ZSPD 151100Z 16004MPS 9999 SCT026 34/26 Q1002 NOSIG",
    "ZSSS": "METAR ZSSS 151100Z VRB03MPS CAVOK 37/24 Q1002 NOSIG",
    "RJFR": "METAR RJFR 151100Z 23013KT 9999 FEW030 SCT060 30/25 Q1002",
    "VHHH": "METAR VHHH 151100Z 07009KT 9999 FEW010 SCT025 27/24 Q1005 NOSIG",
    "RCTP": "METAR RCTP 151100Z 24011KT 9999 FEW020 SCT050 29/25 Q1008 NOSIG RMK A2978",
    "ZGSZ": "METAR ZGSZ 151100Z 12004MPS 9999 -SHRA SCT009 BKN033 26/25 Q1005 NOSIG",
    "WSSS": "METAR WSSS 151100Z 17005KT 130V200 9999 FEW018 FEW020TCU BKN300 29/25 Q1010 NOSIG",
    "WMKK": "METAR WMKK 151100Z VRB03KT 9999 FEW018 31/25 Q1008 NOSIG",
    "WIDD": "METAR WIDD 151100Z 14005KT 9999 FEW014 29/25 Q1010 NOSIG",
    "VTBS": "METAR VTBS 151100Z 20016KT 9999 FEW020CB 30/24 Q1008 TEMPO FM1130 TL1230 4000 TSRA",
    "VTBU": "METAR VTBU 151100Z 22008KT 9999 FEW020 29/27 Q1009 NOSIG",
    "ROAH": "METAR ROAH 151100Z 21010KT 9999 FEW005 BKN008 BKN/// 28/27 Q1009",
    "VVDN": "METAR VVDN 151100Z VRB01KT 9999 FEW020 SCT080 32/23 Q1005 NOSIG",
    "RCKH": "METAR RCKH 151100Z 07003KT 040V100 9999 FEW015 SCT040 29/25 Q1009 NOSIG RMK A2982",
    "KLAX": "METAR KLAX 151053Z 22004KT 10SM FEW250 20/18 A2988 RMK AO2 SLP116 T02000178 $",
    "KONT": "METAR KONT 151053Z 00000KT 10SM CLR 24/13 A2990 RMK AO2 SLP102 T02390133 $",
    "KSFO": "METAR KSFO 151056Z 29010KT 10SM CLR 15/12 A2993 RMK AO2 SLP136 T01500117 $",
    "KOAK": "METAR KOAK 151053Z 28007KT 10SM CLR 17/13 A2994 RMK AO2 SLP136 T01670128",
    "KMHR": "METAR KMHR 151055Z AUTO 14007KT 10SM CLR 20/09 A2987 RMK AO2 T01990094 $",
    "KDFW": "METAR KDFW 151053Z 20006KT 10SM BKN020 OVC250 24/19 A3008 RMK AO2 SLP178 T02390194 $",
    "KIAH": "METAR KIAH 151053Z 04005KT 10SM FEW020 BKN120 OVC170 24/24 A3005 RMK AO2 SLP175 T02440239 $",
    "KORD": "METAR KORD 151051Z 25003KT 9SM FEW250 24/22 A3010 RMK AO2 SLP187 T02440222 $",
    "KJFK": "METAR KJFK 151051Z 23011KT 10SM FEW250 26/22 A2988 RMK AO2 SLP119 T02560217",
    "KRFD": "METAR KRFD 151054Z 00000KT 6SM BR SCT250 21/21 A3013 RMK AO2 SLP197 T02060206",
    "KIND": "METAR KIND 151054Z 00000KT 10SM FEW045 SCT250 23/19 A3013 RMK AO2 SLP193 T02280194 $",
    "KDTW": "METAR KDTW 151053Z 31007KT 8SM SCT060 BKN120 OVC230 24/19 A3005 RMK AO2 SLP170 T02440194 $",
    "KMSP": "METAR KMSP 151053Z 00000KT 7SM FEW250 24/22 A3014 RMK AO2 SLP198 T02440222",
    "CYEG": "METAR CYEG 151100Z 08009KT 20SM FEW020CB SCT150 17/15 A3012 RMK CB1AC3 CB TR CB NE MOV NE SLP198 DENSITY ALT 2900FT",
    "EHAM": "METAR EHAM 151055Z 07013KT 040V110 9999 FEW040 26/13 Q1022 NOSIG",
    "EBBR": "METAR EBBR 151050Z 05008KT 350V080 9999 FEW048 28/14 Q1021 NOSIG",
    "EDDF": "METAR EDDF 151050Z AUTO 02009KT 320V060 CAVOK 28/14 Q1019 NOSIG",
    "EDFH": "METAR EDFH 151050Z VRB04KT CAVOK 25/14 Q1021",
    "EDDL": "METAR EDDL 151050Z AUTO 05012KT 360V100 CAVOK 28/11 Q1020 NOSIG",
    "EDDK": "METAR EDDK 151050Z AUTO VRB06KT CAVOK 28/13 Q1020 NOSIG",
    "EBLG": "METAR EBLG 151050Z 05013KT CAVOK 28/13 Q1020 NOSIG",
    "LSZH": "METAR LSZH 151050Z VRB03KT 9999 VCSH FEW050 28/17 Q1018 TEMPO TSRA",
    "LIMC": "METAR LIMC 151050Z 23008KT 160V280 CAVOK 32/18 Q1016 NOSIG",
    "LIRF": "METAR LIRF 151050Z 21007KT 170V270 9999 FEW010 31/24 Q1016 NOSIG",
    "EINN": "METAR EINN 151100Z 13007KT 9999 FEW023 27/16 Q1023 NOSIG",
    "EGLL": "METAR EGLL 151050Z AUTO 05009KT 020V080 9999 BKN034 24/15 Q1023",
    "EGSS": "METAR EGSS 151050Z AUTO 05011KT 360V070 9999 FEW029 24/15 Q1024",
    "EPWA": "METAR EPWA 151100Z 09005KT 050V160 9999 FEW043 26/15 Q1020 NOSIG",
    "UHPP": "METAR UHPP 151100Z 18003MPS CAVOK 18/14 Q1013 R34L/CLRD62 NOSIG RMK QFE756/1008",
    "EFHK": "METAR EFHK 151050Z 34010KT 310V010 9999 FEW045 24/12 Q1019 NOSIG",
    "LBBG": "METAR LBBG 151100Z 13012KT 9999 FEW043 29/20 Q1016 NOSIG",
    "LTAC": "METAR LTAC 151050Z VRB06KT 9999 SCT040 27/08 Q1017 NOSIG RMK RWY21C 09012KT 030V120 RWY03L VRB06KT RWY21R 06011KT RWY03R 01012KT RWY21L 08010KT 340V120",
    "UBBB": "METAR UBBB 151100Z 34026G36KT CAVOK 30/22 Q1007 NOSIG",
    "UTAA": "METAR UTAA 151100Z 36006KT 310V040 9999 NSC 43/05 Q1004 R88/CLRD70 NOSIG",
    "UACC": "METAR UACC 151100Z 28008MPS 250V310 9999 FEW033 32/14 Q1004 NOSIG RMK QFE722/0963",
    "UAAA": "METAR UAAA 151100Z 04003MPS 320V130 9999 FEW050TCU SCT200 36/06 Q1007 NOSIG",
    "UZTT": "METAR UZTT 151100Z 30008KT 240V020 CAVOK 40/09 Q1005 NOSIG",
    "ZWWW": "METAR ZWWW 151100Z 28003MPS 9999 -SHRA BKN040 28/13 Q1010 NOSIG",
    "ZLXY": "METAR ZLXY 151100Z 06004MPS 9999 FEW050 31/21 Q1003 NOSIG",
    "ZBAA": "METAR ZBAA 151100Z 19005MPS CAVOK 34/21 Q0998 BECMG TL1240 28004MPS",
    "ZBHH": "METAR ZBHH 151100Z 21002MPS 9999 FEW040 27/18 Q1007 NOSIG",
    "ZSQD": "METAR ZSQD 151100Z 31002MPS 210V020 9999 -SHRA FEW016 BKN033 24/22 Q1002 RESHRA BECMG TL1230 SHRA",
    "ZMCK": "METAR ZMCK 151100Z 35004MPS 9999 FEW030CB FEW033 27/10 Q1007 NOSIG RMK QFE641.3 33 MOP",
    "UUEE": "METAR UUEE 151100Z 31005G10MPS 250V340 9999 BKN023 21/16 Q1013 R24L/CLRD62 R24C/CLRD62 NOSIG",
    "UUDD": "METAR UUDD 151100Z 33006MPS 310V020 9999 SCT031 22/15 Q1012 R31L/CLRD65 NOSIG",
    "ULLI": "METAR ULLI 151100Z 30006MPS 9999 FEW043 24/16 Q1016 R88/090065 NOSIG",
    "USSS": "METAR USSS 151100Z 15003MPS 120V240 6000 -TSRA OVC015CB 19/19 Q1003 R08R/CLRD60 R08L/CLRD60 TEMPO VRB25MPS 0900 +TSRA SQ RMK QFE732/0976",
    "UNNT": "METAR UNNT 151100Z 21002MPS CAVOK 26/11 Q1009 R07/CLRD// R34/CLRD// NOSIG RMK QFE747/0996",
    "UNKL": "METAR UNKL 151100Z 32005MPS CAVOK 23/12 Q1009 R29/150060 NOSIG RMK QFE731",
    "UIBB": "METAR UIBB 151100Z 27006MPS 230V040 9999 SCT036CB 20/11 Q1006 RETS R30/CLRD62 NOSIG RMK QFE712/0949",
    "UEEE": "METAR UEEE 151100Z 05002MPS 9999 SCT040CB 21/19 Q0997 R23/09//65 NOSIG RMK QFE739",
    "UHHH": "METAR UHHH 151100Z 30002MPS 9999 FEW029 23/21 Q0991 R05R/090060 NOSIG RMK QFE737/0983",
    "UHSS": "METAR UHSS 151100Z 22003MPS 7000 SCT003 BKN014CB 20/20 Q0997 R19/290060 NOSIG RMK QBB090 MT OBSC QFE747/0996"
  },
  "taf": {},
  "atis": {},
  "windtemp_alaska": "\n000\nFBAK31 KWNO 151358\nFD1AK1\nDATA BASED ON 151200Z    \nVALID 151800Z   FOR USE 1400-2100Z. TEMPS NEG ABV 24000\n\nFT  3000    6000    9000   12000   18000   24000  30000  34000  39000\nADK 2815 2732+08 2741+03 2744-01 2650-13 2663-24 266439 266848 266757\nADQ 2822 2823+01 2726-04 2632-08 2658-20 2583-29 750540 750348 266046\nAKN 2721 2723-01 2723-06 2829-10 2833-22 2748-34 266143 265543 254443\nANC 2113 2116+00 2016-05 1915-11 2017-25 1914-35 222241 233239 233040\nANN 3207 9900+09 3206+06 3411+01 3312-13 3415-24 341940 321549 311457\nBET 2620 2717-02 2617-05 2618-10 2414-22 1811-35 201047 252144 252342\nBRW 9900 2205+00 2005-06 2306-11 2112-22 2222-33 223947 212349 171342\nBTI 0714 0607+04 0905-03 1206-09 2010-19 2019-30 213245 213253 201945\nBTT 0605 1006+01 0806-03 9900-08 9900-20 9900-32 131948 131652 181342\nCDB 1909 2213+00 2318-02 2527-04 2550-15 2567-26 268441 268651 267054\nCZF 2606 2805-03 2507-06 2508-12 2108-23 1612-35 142147 190844 241142\nEHM 2720 2722-02 2622-05 2625-10 2626-21 2633-34 254545 264944 264143\nFAI 2316 2411+02 2211-03 2212-08 2012-20 1511-32 081749 151345 191641\nFYU 0505 0610+03 0809-02 1008-07 1509-19 1715-31 142748 142850 181942\nGAL 1609 1614+02 1413-03 1213-08 1109-20 1108-33 990049 090550 191042\nGKN 1621 1930+02 2025-04 2016-10 2025-22 2228-33 223545 233842 223140\nHOM 2525 2524-01 2626-07 2626-11 2627-26 2538-34 255638 255340 243642\nJNU 1711 2321+06 2419+01 2425+00 2527-11 2534-23 253640 263450 263360\nLUR 0708 1410-01 1708-06 2006-11 2213-23 2222-34 223348 221746 990041\nMCG 1909 2213+00 2108-05 2105-09 1306-20 0910-32 071049 990046 231441\nMDO 2319 2218+01 2320-02 2327-09 2351-18 2474-29 740341 740148 245346\nOME 0209 0106+00 0106-06 9900-10 1715-21 1515-33 141547 161151 990043\nORT      2419+04 2419-02 2216-09 2131-21 2232-33 224145 223643 223142\nOTZ 3606 0506+00 0506-04 9900-09 2014-20 1815-32 180948 201052 200642\nSNP 2307 2607-02 2608-06 2611-09 2619-21 2531-33 247144 256346 254244\nTKA 1922 2015+00 2018-06 1917-11 1811-23 1211-34 140746 221841 222340\nUNK 9900 9900+01 9900-04 0906-08 1212-20 1312-33 110848 090650 230842\nYAK 1814 2112+03 2223+00 2334-04 2351-14 2462-24 246640 247150 245754\nIKO 2320 2328+04 2342+04 2448-01 2446-13 2551-24 266239 266848 266658\nAFM 1206 1506+02 1509-03 1611-08 1808-20 1608-33 171048 151052 181043\n5AB 3615 3221+04 3133+01 3050-02 2957-14 2961-24 296939 307248 306354\n5AC 3518 3517+08 3517+06 3515+01 3516-12 3518-24 351740 351549 331158\n5AD 2821 2727+08 2729+06 2627+01 2631-11 2533-23 253840 253950 253460\n5AE 2813 2620+02 2630+00 2642-03 2655-14 2661-24 256640 256749 266358\n5AF 2313 2318+08 2519+05 2620+01 2622-11 2624-23 262440 262250 271960\n5AG 2517 2519+04 2427+02 2436-03 2449-13 2551-24 245940 246150 245958\n",
  "vaac_active": [
    {
      "volcano": "MAYON",
      "volcano_jp": "マヨン",
      "advisory_nr": "2026/750",
      "obs_time": "2026-07-15 17:31Z",
      "issued_time": "2026-07-15 18:01Z",
      "text_url": "https://www.data.jma.go.jp/vaac/data/TextData/2026/20260715_27303000_0750_Text.html",
      "lat": 13.25,
      "lon": 123.683,
      "text": "FVFE01 RJTD 151801\nVA ADVISORY\nDTG: 20260715/1801Z\nVAAC: TOKYO\nVOLCANO: MAYON 273030\nPSN: N1315 E12341\nAREA: PHILIPPINES\nSOURCE ELEV: 2462M AMSL\nADVISORY NR: 2026/750\nINFO SOURCE: HIMAWARI-9 PHIVOLCS\nERUPTION DETAILS: ERUPTION AT 20260715/1731Z FL110 EXTD SSW REPORTED\nOBS VA DTG: 15/1750Z\nOBS VA CLD: VA NOT IDENTIFIABLE FM SATELLITE DATA WIND FL110 320/2KT\nFCST VA CLD +6 HR: NOT AVBL\nFCST VA CLD +12 HR: NOT AVBL\nFCST VA CLD +18 HR: NOT AVBL\nRMK: WE WILL ISSUE FURTHER ADVISORY IF VA IS DETECTED IN SATELLITE \nIMAGERY.\nNXT ADVISORY: NO FURTHER ADVISORIES="
    },
    {
      "volcano": "MAYON",
      "volcano_jp": "マヨン",
      "advisory_nr": "2026/749",
      "obs_time": "2026-07-15 16:37Z",
      "issued_time": "2026-07-15 17:06Z",
      "text_url": "https://www.data.jma.go.jp/vaac/data/TextData/2026/20260715_27303000_0749_Text.html",
      "lat": 13.25,
      "lon": 123.683,
      "text": "FVFE01 RJTD 151706\nVA ADVISORY\nDTG: 20260715/1706Z\nVAAC: TOKYO\nVOLCANO: MAYON 273030\nPSN: N1315 E12341\nAREA: PHILIPPINES\nSOURCE ELEV: 2462M AMSL\nADVISORY NR: 2026/749\nINFO SOURCE: HIMAWARI-9 PHIVOLCS\nERUPTION DETAILS: ERUPTION AT 20260715/1637Z VA CLD UNKNOWN REPORTED\nOBS VA DTG: 15/1650Z\nOBS VA CLD: VA NOT IDENTIFIABLE FM SATELLITE DATA WIND FL180 010/6KT\nFCST VA CLD +6 HR: NOT AVBL\nFCST VA CLD +12 HR: NOT AVBL\nFCST VA CLD +18 HR: NOT AVBL\nRMK: WE WILL ISSUE FURTHER ADVISORY IF VA IS DETECTED IN SATELLITE \nIMAGERY.\nNXT ADVISORY: NO FURTHER ADVISORIES="
    },
    {
      "volcano": "MAYON",
      "volcano_jp": "マヨン",
      "advisory_nr": "2026/748",
      "obs_time": "2026-07-15 11:42Z",
      "issued_time": "2026-07-15 12:11Z",
      "text_url": "https://www.data.jma.go.jp/vaac/data/TextData/2026/20260715_27303000_0748_Text.html",
      "lat": 13.25,
      "lon": 123.683,
      "text": "FVFE01 RJTD 151211\nVA ADVISORY\nDTG: 20260715/1211Z\nVAAC: TOKYO\nVOLCANO: MAYON 273030\nPSN: N1315 E12341\nAREA: PHILIPPINES\nSOURCE ELEV: 2462M AMSL\nADVISORY NR: 2026/748\nINFO SOURCE: HIMAWARI-9 PHIVOLCS\nERUPTION DETAILS: ERUPTION AT 20260715/1142Z VA CLD UNKNOWN REPORTED\nOBS VA DTG: 15/1150Z\nOBS VA CLD: VA NOT IDENTIFIABLE FM SATELLITE DATA WIND FL180 010/8KT\nFCST VA CLD +6 HR: NOT AVBL\nFCST VA CLD +12 HR: NOT AVBL\nFCST VA CLD +18 HR: NOT AVBL\nRMK: WE WILL ISSUE FURTHER ADVISORY IF VA IS DETECTED IN SATELLITE \nIMAGERY.\nNXT ADVISORY: NO FURTHER ADVISORIES="
    }
  ],
  "vaac_tokyo": [
    {
      "id": "20260715_27303000_0750",
      "year": "2026",
      "volcano": "Mayon",
      "psn": "N1315 E12341",
      "issued": "20260715",
      "text": "FVFE01 RJTD 151801\nVA ADVISORY\nDTG: 20260715/1801Z\nVAAC: TOKYO\nVOLCANO: MAYON 273030\nPSN: N1315 E12341\nAREA: PHILIPPINES\nSOURCE ELEV: 2462M AMSL\nADVISORY NR: 2026/750\nINFO SOURCE: HIMAWARI-9 PHIVOLCS\nERUPTION DETAILS: ERUPTION AT 20260715/1731Z FL110 EXTD SSW REPORTED\nOBS VA DTG: 15/1750Z\nOBS VA CLD: VA NOT IDENTIFIABLE FM SATELLITE DATA WIND FL110 320/2KT\nFCST VA CLD +6 HR: NOT AVBL\nFCST VA CLD +12 HR: NOT AVBL\nFCST VA CLD +18 HR: NOT AVBL\nRMK: WE WILL ISSUE FURTHER ADVISORY IF VA IS DETECTED IN SATELLITE \nIMAGERY.\nNXT ADVISORY: NO FURTHER ADVISORIES=",
      "img_url": "https://ds.data.jma.go.jp/svd/vaac/data/VAGFN/2026/Images/20260715_27303000_0750_QH21_01.png",
      "sat_img_url": null,
      "text_url": "https://ds.data.jma.go.jp/svd/vaac/data/TextData/2026/20260715_27303000_0750_Text.html"
    },
    {
      "id": "20260714_30027000_0263",
      "year": "2026",
      "volcano": "Sheveluch",
      "psn": "N5639 E16122",
      "issued": "20260714",
      "text": "FVFE01 RJTD 141200\nVA ADVISORY\nDTG: 20260714/1200Z\nVAAC: TOKYO\nVOLCANO: SHEVELUCH 300270\nPSN: N5639 E16122\nAREA: RUSSIA\nSOURCE ELEV: 3283M AMSL\nADVISORY NR: 2026/263\nINFO SOURCE: HIMAWARI-9\nERUPTION DETAILS: VA CONTINUOUSLY OBS IN SATELLITE IMAGERY\nOBS VA DTG: 14/1120Z\nOBS VA CLD: SFC/FL390 N5359 E16539 - N5422 E16550 - N5414 E16656 - \nN5349 E16654 MOV SE 40KT\nFCST VA CLD +6 HR: 14/1720Z SFC/FL400 N5233 E17412 - N5141 E17210 - \nN5144 E17002 - N5224 E17116\nFCST VA CLD +12 HR: 14/2320Z SFC/FL400 N5147 W17910 - N5115 W17906 - \nN5025 E17725 - N5008 E17317 - N5113 E17652\nFCST VA CLD +18 HR: 15/0520Z SFC/FL400 N5217 W17056 - N5119 W17200 - \nN4942 W17651 - N4907 E17606 - N5056 W17716\nRMK: THE RESPONSIBILITY FOR THIS ASH EVENT IS BEING TRANSFERRED TO \nVAAC ANCHORAGE. THE NEXT ADVISORY WILL BE ISSUED BY VAAC ANCHORAGE \nBY 1800UTC UNDER HEADER FVAK21 PAWU. SOME PART OF VA OBSCURED BY MET \nCLOUD.\nNXT ADVISORY: NO FURTHER ADVISORIES=",
      "img_url": "https://ds.data.jma.go.jp/svd/vaac/data/VAGFN/2026/Images/20260714_30027000_0263_QH21_01.png",
      "sat_img_url": "https://ds.data.jma.go.jp/svd/vaac/data/Sat/2026/Images/30027000/09-ir/20260714_1120_202607141200_ir.png",
      "text_url": "https://ds.data.jma.go.jp/svd/vaac/data/TextData/2026/20260714_30027000_0263_Text.html"
    },
    {
      "id": "20260713_28208001_0083",
      "year": "2026",
      "volcano": null,
      "psn": "N3136 E13039",
      "issued": "20260713",
      "text": "FVFE01 RJTD 130254\nVA ADVISORY\nDTG: 20260713/0254Z\nVAAC: TOKYO\nVOLCANO: SAKURAJIMA (AIRA CALDERA) 282080\nPSN: N3136 E13039\nAREA: JAPAN\nSOURCE ELEV: 1117M AMSL\nADVISORY NR: 2026/83\nINFO SOURCE: JMA HIMAWARI-9\nERUPTION DETAILS: ERUPTED AT 20260713/0152Z FL100 EXTD N\nOBS VA DTG: 13/0230Z\nOBS VA CLD: SFC/FL100 N3136 E13039 - N3142 E13040 - N3141 E13044 - \nN3134 E13042 MOV NE 15KT\nFCST VA CLD +6 HR: 13/0830Z SFC/FL100 N3234 E13121 - N3145 E13155 - \nN3202 E13110 - N3227 E13051\nFCST VA CLD +12 HR: 13/1430Z SFC/FL100 N3318 E13206 - N3142 E13317 - \nN3134 E13226 - N3312 E13118\nFCST VA CLD +18 HR: NO VA EXP\nRMK: NIL\nNXT ADVISORY: 20260713/0600Z=",
      "img_url": "https://ds.data.jma.go.jp/svd/vaac/data/VAGFN/2026/Images/20260713_28208001_0083_QH21_01.png",
      "sat_img_url": "https://ds.data.jma.go.jp/svd/vaac/data/Sat/2026/Images/28208001/09-ir/20260713_0230_202607130254_ir.png",
      "text_url": "https://ds.data.jma.go.jp/svd/vaac/data/TextData/2026/20260713_28208001_0083_Text.html"
    },
    {
      "id": "20260712_27307000_0012",
      "year": "2026",
      "volcano": "Taal",
      "psn": "N1400 E12100",
      "issued": "20260712",
      "text": "FVFE01 RJTD 121243\nVA ADVISORY\nDTG: 20260712/1243Z\nVAAC: TOKYO\nVOLCANO: TAAL 273070\nPSN: N1400 E12100\nAREA: PHILIPPINES\nSOURCE ELEV: 311M AMSL\nADVISORY NR: 2026/12\nINFO SOURCE: HIMAWARI-9 PHIVOLCS\nERUPTION DETAILS: ERUPTION AT 20260712/1227Z FL050 EXTD NE REPORTED\nOBS VA DTG: 12/1230Z\nOBS VA CLD: VA NOT IDENTIFIABLE FM SATELLITE DATA WIND FL050 230/19KT\nFCST VA CLD +6 HR: NOT AVBL\nFCST VA CLD +12 HR: NOT AVBL\nFCST VA CLD +18 HR: NOT AVBL\nRMK: WE WILL ISSUE FURTHER ADVISORY IF VA IS DETECTED IN SATELLITE \nIMAGERY.\nNXT ADVISORY: NO FURTHER ADVISORIES=",
      "img_url": "https://ds.data.jma.go.jp/svd/vaac/data/VAGFN/2026/Images/20260712_27307000_0012_QH21_01.png",
      "sat_img_url": null,
      "text_url": "https://ds.data.jma.go.jp/svd/vaac/data/TextData/2026/20260712_27307000_0012_Text.html"
    }
  ],
  "vaac_alaska": [
    {
      "text": "\n000\nFVAK21 PAWU 151258\nVAAAK1\nVA ADVISORY\n\nDTG: 20260715/1254Z\n\nVAAC: ANCHORAGE\n\nVOLCANO: SHEVELUCH 300270\n\nPSN: N5639 E16122\n\nAREA: KAMCHATKA PENINSULA\n\nSOURCE ELEV: 10771 FT AMSL\n\nADVISORY NR: 2026/201\n\nINFO SOURCE: HIMAWARI\n\nERUPTION DETAILS: VA NOT IDENTIFIABLE FM SATELLITE DATA.\n\nOBS VA DTG: 15/1254Z\n\nOBS VA CLD: VA NOT IDENTIFIABLE FM SATELLITE DATA.\n\nFCST VA CLD +6HR: NOT AVBL\n\nFCST VA CLD +12HR: NOT AVBL\n\nFCST VA CLD +18HR: NOT AVBL\n\nRMK: A NEW ADVISORY WILL BE ISSUED IF VA IS DETECTED IN SATELLITE IMAGERY....SC\n\nNXT ADVISORY: NO FURTHER ADVISORIES=\n\n",
      "issued": "2026-07-15T12:58:00+00:00",
      "volcano": "Sheveluch",
      "psn": "N5639 E16122"
    }
  ]
}