{
  "updated_utc": "2026-07-18T00:52Z",
  "metar": {
    "RJAA": "METAR RJAA 172300Z 14009KT 9999 FEW005 BKN010 BKN090 26/24 Q1007 BECMG FEW010 BKN020",
    "PANC": "METAR PANC 172253Z 02004KT 10SM SCT011 BKN075 OVC085 12/09 A2989 RMK AO2 RAE26 SLP123 P0000 T01170094",
    "PAFA": "METAR PAFA 172253Z 22006KT 10SM SCT075 BKN140 19/06 A2980 RMK AO2 SLP096 T01940056 $",
    "PAED": "METAR PAED 172255Z COR 03004KT 10SM -RA FEW010 BKN025 OVC070 13/10 A2987 RMK AO2A SLP111 PCPN VRY LGT P0001 T01320096 $ COR 2316",
    "KSEA": "METAR KSEA 172253Z COR 250/09KT 10SM SCT040 20/09 A3005 RMK AO2 SLP182 T02000094 $",
    "ZSPD": "METAR ZSPD 172300Z 25004MPS CAVOK 33/26 Q1000 NOSIG",
    "ZSSS": "METAR ZSSS 172300Z 26003MPS 190V310 CAVOK 33/26 Q1000 NOSIG",
    "RJFR": "METAR RJFR 172300Z 07006KT 9999 FEW005 SCT010 29/27 Q1002",
    "VHHH": "METAR VHHH 172300Z 17004KT 100V230 9999 -SHRA FEW008 SCT022 29/25 Q1005 TEMPO 4000 SHRA FEW010CB SCT020",
    "RCTP": "METAR RCTP 172300Z 24018KT 9999 FEW015 BKN200 30/24 Q1005 NOSIG RMK A2968",
    "ZGSZ": "METAR ZGSZ 172300Z 16003MPS 9000 SHRA FEW010 FEW020CB BKN040 27/26 Q1005 BECMG AT2330 NSW FEW015 BKN030",
    "WSSS": "METAR WSSS 172300Z 11004KT 9999 FEW018 FEW020TCU SCT150 BKN300 28/25 Q1011 NOSIG",
    "WMKK": "METAR WMKK 172300Z 09006KT 060V140 9000 FEW017CB SCT030 26/24 Q1010 RETS NOSIG",
    "WIDD": "METAR WIDD 172300Z 00000KT 9999 FEW014 26/25 Q1011 NOSIG",
    "VTBS": "METAR VTBS 172300Z 26003KT 9999 FEW020 28/23 Q1009 NOSIG",
    "VTBU": "METAR VTBU 172300Z 03001KT 9000 FEW020 27/27 Q1009 NOSIG",
    "ROAH": "METAR ROAH 172300Z 21007KT 9999 FEW006 BKN011 29/27 Q1006",
    "VVDN": "METAR VVDN 172300Z 26002KT 9999 FEW020 29/23 Q1006 NOSIG",
    "RCKH": "METAR RCKH 172300Z 09003KT 9999 FEW014 SCT060 26/24 Q1007 NOSIG RMK A2975",
    "KLAX": "METAR KLAX 172253Z 27012KT 10SM FEW012 SCT100 SCT160 26/18 A2993 RMK AO2 SLP133 T02560183 $",
    "KONT": "METAR KONT 172253Z 23015G23KT 10SM FEW120 FEW180 32/16 A2992 RMK AO2 SLP112 T03220161",
    "KSFO": "METAR KSFO 172256Z 27021G30KT 10SM FEW009 19/12 A2996 RMK AO2 PK WND 27030/2256 SLP145 T01890117 $",
    "KOAK": "METAR KOAK 172253Z 25014KT 10SM FEW007 20/12 A2996 RMK AO2 SLP145 T02000117",
    "KMHR": "METAR KMHR 172255Z AUTO 22007KT 10SM CLR 34/06 A2985 RMK AO2 T03420057 $",
    "KDFW": "METAR KDFW 172253Z 18013G26KT 10SM FEW060 BKN250 34/19 A3003 RMK AO2 PK WND 17026/2249 SLP158 T03390189 $",
    "KIAH": "METAR KIAH 172253Z 16009KT 10SM SCT045 SCT250 33/23 A3008 RMK AO2 SLP183 T03330233",
    "KORD": "METAR KORD 172351Z 27010KT 10SM FEW045 SCT150 SCT250 32/22 A2991 RMK AO2 SLP122 CB DSNT E MOV E T03220217 10333 20300 56014 $",
    "KJFK": "METAR KJFK 172351Z 18006KT 10SM BKN250 24/19 A3002 RMK AO2 SLP165 T02440189 10300 20244 55000 $",
    "KRFD": "METAR KRFD 172254Z 25011KT 10SM FEW042 FEW250 32/22 A2995 RMK AO2 SLP134 T03220217 $",
    "KIND": "METAR KIND 172254Z 30004KT 10SM SCT033 SCT065 BKN100 BKN250 30/24 A3001 RMK AO2 SLP153 CB DSNT N-E AND SE MOV E T03000239",
    "KDTW": "METAR KDTW 172253Z 16007KT 1 3/4SM FU OVC025 27/18 A2998 RMK AO2 TWR VIS 2 SLP149 FU OVC025 T02670178",
    "KMSP": "METAR KMSP 172253Z 25011G22KT 10SM FEW060 FEW250 34/21 A2985 RMK AO2 SLP101 T03440206",
    "CYEG": "METAR CYEG 172300Z 12014G20KT 15SM FEW050 FEW190 BKN230 29/16 A2996 RMK CU1AC1CI4 CU TR SLP142 DENSITY ALT 4500FT",
    "EHAM": "METAR EHAM 172255Z 31006KT 9999 FEW018 SCT020 17/14 Q1016 BECMG BKN018",
    "EBBR": "METAR EBBR 180020Z 30007KT 9999 BKN019 17/14 Q1017 NOSIG",
    "EDDF": "METAR EDDF 172320Z AUTO 20004KT CAVOK 19/18 Q1014 NOSIG",
    "EDFH": "METAR EDFH 172320Z 27004KT CAVOK 16/14 Q1016",
    "EDDL": "METAR EDDL 172320Z AUTO 31008KT 9999 FEW022 SCT043 19/15 Q1015 NOSIG",
    "EDDK": "METAR EDDK 172320Z AUTO 31009KT 280V340 9999 BKN032 BKN039 20/15 Q1015 NOSIG",
    "EBLG": "METAR EBLG 172320Z 30005KT CAVOK 16/14 Q1017 NOSIG",
    "LSZH": "METAR LSZH 172320Z AUTO 03002KT 9999 SCT057 SCT079 19/15 Q1017 NOSIG",
    "LIMC": "METAR LIMC 172320Z VRB02KT CAVOK 23/20 Q1012 NOSIG",
    "LIRF": "METAR LIRF 172320Z 12004KT 9999 FEW010 27/26 Q1012 NOSIG",
    "EINN": "METAR EINN 172300Z 33005KT CAVOK 14/11 Q1023 NOSIG",
    "EGLL": "METAR EGLL 172320Z AUTO 07006KT 9999 NCD 19/15 Q1018",
    "EGSS": "METAR EGSS 172320Z AUTO 02007KT 9999 BKN014 BKN019 16/13 Q1019",
    "EPWA": "METAR EPWA 172300Z 17006KT 130V220 CAVOK 24/14 Q1009 TEMPO 4000 TSRA",
    "UHPP": "METAR UHPP 172300Z 34007G13MPS 290V010 9999 FEW050 SCT110 27/17 Q1018 R34L/CLRD62 NOSIG RMK MT OBSC QFE760/1013",
    "EFHK": "METAR EFHK 172320Z 13005KT CAVOK 15/14 Q1010 NOSIG",
    "LBBG": "METAR LBBG 172300Z AUTO 33002KT 8000 NCD 22/21 Q1013 NOSIG",
    "LTAC": "METAR LTAC 172320Z 04007KT CAVOK 19/10 Q1015 NOSIG RMK RWY21C 04007KT RWY03L 03007KT RWY21R 03007KT RWY03R 03007KT RWY21L 03006KT",
    "UBBB": "METAR UBBB 172300Z 33008KT 9999 FEW060CB 25/23 Q1008 NOSIG RMK OBS TS SE 30KM MOV NE 30KMH WKN",
    "UTAA": "METAR UTAA 172300Z 28008KT 9999 NSC 31/18 Q1006 R88/CLRD70 NOSIG",
    "UACC": "METAR UACC 172300Z 19003MPS CAVOK 17/12 Q1006 NOSIG RMK QFE723/0964",
    "UAAA": "METAR UAAA 172300Z 13002MPS 9999 NSC 21/10 Q1007 NOSIG",
    "UZTT": "METAR UZTT 172300Z 09006KT CAVOK 28/12 Q1001 NOSIG",
    "ZWWW": "METAR ZWWW 172300Z 18002MPS 150V220 CAVOK 28/07 Q1008 NOSIG",
    "ZLXY": "METAR ZLXY 172300Z 25003MPS CAVOK 26/20 Q1006 NOSIG",
    "ZBAA": "METAR ZBAA 172300Z 12002MPS CAVOK 25/22 Q1001 NOSIG",
    "ZBHH": "METAR ZBHH 172300Z 34003MPS 310V010 CAVOK 20/14 Q1009 NOSIG",
    "ZSQD": "METAR ZSQD 172300Z 02003MPS CAVOK 23/21 Q1002 NOSIG",
    "ZMCK": "METAR ZMCK 172300Z 07003MPS 9999 BKN250 17/11 Q1007 NOSIG RMK QFE641.0 69 MOP",
    "UUEE": "METAR UUEE 172300Z 32002MPS CAVOK 14/09 Q1017 R06R/CLRD62 R06C/CLRD62 NOSIG",
    "UUDD": "METAR UUDD 172300Z 14001MPS CAVOK 12/08 Q1016 R31L/CLRD65 NOSIG",
    "ULLI": "METAR ULLI 172300Z 18004MPS CAVOK 16/10 Q1014 R88/090065 NOSIG",
    "USSS": "SPECI USSS 172257Z 00000MPS 0800 0600E PRFG NSC 14/14 Q1001 R26L/CLRD60 TEMPO 0300 FG VV002 RMK QFE731/0974",
    "UNNT": "METAR UNNT 172300Z 29001MPS CAVOK 17/17 Q1000 R25/150060 R34/CLRD// NOSIG RMK QFE740/0987",
    "UNKL": "METAR UNKL 172300Z 00000MPS 5000 -SHRA BR SCT011CB 17/17 Q1000 R29/290055 NOSIG RMK QFE725",
    "UIBB": "METAR UIBB 172300Z VRB01MPS 9999 -SHRA SCT003 BKN020CB 15/14 Q0999 R12/290160 NOSIG RMK QBB100 MT OBSC QFE707/0943",
    "UEEE": "METAR UEEE 172300Z 13002MPS CAVOK 22/16 Q0995 R23/09//64 NOSIG RMK QFE737",
    "UHHH": "METAR UHHH 172300Z 15003MPS 120V190 CAVOK 23/20 Q1004 R88/090060 NOSIG RMK QFE747/0996",
    "UHSS": "METAR UHSS 172300Z 17001MPS 9000 NSC 27/22 Q1009 R19/CLRD70 NOSIG RMK QFE755/1007"
  },
  "taf": {
    "RJAA": "TAF RJAA 172305Z 1800/1906 13010KT 9999 FEW020 SCT030",
    "PANC": "TAF PANC 172335Z 1800/1906 03007KT P6SM -SHRA SCT007 OVC060 FM180500 16007KT P6SM VCSH SCT035 BKN060 FM181800 19004KT P6SM VCSH OVC050 FM182000 16008KT 6SM -RA OVC040 FM190000 14012G24KT P6SM VCSH SCT040 OVC070 FM190500 34005KT 6SM -RA OVC060 WS008/12025KT",
    "PAFA": "TAF PAFA 172320Z 1800/1906 24006KT P6SM VCSH SCT050 PROB30 1800/1804 P6SM -TSRA BKN050CB FM180600 VRB04KT P6SM SCT050",
    "PAED": "TAF PAED 172100Z 1721/1903 27006KT 9000 -RA SCT007 BKN025 OVC040 620604 QNH2982INS TEMPO 1723/1802 BKN015 OVC020 BECMG 1808/1809 20007KT 9999 VCSH SCT010 BKN040 OVC055 620604 QNH2991INS BECMG 1816/1817 VRB06KT 9000 -RA SCT009 BKN020 OVC040 620604 QNH2999INS BECMG 1821/1822 VRB06KT 9999 VCSH BKN050 OVC065 620604 QNH3000INS TX13/1800Z TN10/1811Z",
    "KSEA": "TAF KSEA 172321Z 1800/1906 24007KT P6SM SCT035 BKN050 FM180300 31006KT P6SM FEW050 FM180600 35004KT P6SM FEW050 FM181000 20004KT P6SM SCT025 BKN035 FM181700 23004KT P6SM BKN045 FM182100 29005KT P6SM FEW050 FM190200 35008KT P6SM FEW250",
    "ZSPD": "TAF ZSPD 172102Z 1800/1906 21004MPS 8000 SCT030 TX34/1806Z TX31/1906Z TN28/1821Z TEMPO 1804/1808 TSRA BKN008 FEW030CB BECMG 1809/1810 03004MPS",
    "ZSSS": "TAF ZSSS 172104Z 1800/1906 21004MPS 8000 SCT030 TX35/1806Z TX32/1906Z TN27/1821Z TEMPO 1804/1808 TSRA BKN011 FEW030CB BECMG 1811/1812 03004MPS",
    "RJFR": "TAF RJFR 172305Z 1800/1906 06004KT 9999 FEW015 BKN040 BECMG 1801/1803 09010KT BECMG 1805/1807 07006KT TEMPO 1806/1809 -TSRA FEW025 FEW025CB BKN030 BECMG 1815/1818 09004KT BECMG 1903/1906 07010KT",
    "VHHH": "TAF VHHH 172300Z 1800/1906 20010KT 9999 FEW010 SCT025 TX31/1806Z TX30/1906Z TN27/1822Z TEMPO 1800/1803 24015G25KT 2500 TSRA SHRA FEW008CB SCT015 TEMPO 1803/1805 24020G30KT 2000 TSRA +SHRA FEW008CB SCT015 TEMPO 1821/1903 24015G25KT 2500 TSRA SHRA FEW008CB SCT015",
    "RCTP": "TAF RCTP 172300Z 1800/1906 23013KT 9999 FEW015 TEMPO 1802/1808 25018KT BECMG 1810/1812 22008KT TEMPO 1816/1822 18005KT TEMPO 1902/1906 24013KT",
    "ZGSZ": "TAF ZGSZ 172109Z 1800/1906 18004MPS 8000 BKN030 TX31/1806Z TX32/1906Z TN28/1822Z TEMPO 1800/1802 SHRA FEW025CB BKN030 TEMPO 1805/1808 TSRA SCT010 FEW025CB BKN030 TEMPO 1823/1902 TSRA SCT010 FEW025CB BKN030",
    "WSSS": "TAF WSSS 172300Z 1800/1906 13007KT 9999 FEW015 SCT020",
    "WMKK": "TAF WMKK 172300Z 1800/1906 04005KT 9999 FEW018 PROB40 TEMPO 1806/1810 5000 TSRA FEW017CB",
    "VTBS": "TAF VTBS 172300Z 1800/1906 23008KT 9999 FEW020 TEMPO 1809/1813 VRB15KT 4000 TSRA FEW018CB SCT030 BKN080",
    "VTBU": "TAF VTBU 172300Z 1800/1824 24008KT 9000 FEW020 BECMG 1816/1818 01004KT",
    "ROAH": "TAF ROAH 172305Z 1800/1906 22008KT 9999 FEW008 SCT012 TEMPO 1800/1802 FEW005 BKN008 TEMPO 1812/1815 FEW005 BKN008 TEMPO 1815/1821 FEW003 BKN005 TEMPO 1821/1903 FEW005 BKN008",
    "VVDN": "TAF VVDN 172300Z 1800/1824 22008KT 9999 FEW020 BECMG 1804/1805 36010KT BECMG 1809/1810 12008KT",
    "RCKH": "TAF RCKH 172300Z 1800/1906 26005KT 9999 FEW015 BKN032 TEMPO 1800/1804 21005KT 4000 SHRA SCT008 FEW012CB BKN016 TEMPO 1804/1810 25010KT FEW010 FEW015CB BKN017 BECMG 1810/1812 07005KT TEMPO 1810/1814 5000 SHRA FEW008 FEW015TCU BKN017 TEMPO 1818/1822 3500 SHRA SCT006 FEW010CB BKN014 TEMPO 1900/1904 24010KT 2500 SHRA SCT005 SCT008CB BKN011",
    "KLAX": "TAF KLAX 172340Z 1800/1906 27010KT P6SM FEW012 SCT150 FM180300 24006KT P6SM FEW012 FM180700 11007KT P6SM OVC012 FM181600 16005KT P6SM SCT015 FM181900 26012KT P6SM FEW025 FM190300 24006KT P6SM FEW015 SCT150",
    "KONT": "TAF KONT 172331Z 1800/1906 25012G25KT P6SM FEW120 SCT180 FM180600 VRB05KT P6SM SCT200 FM182000 26010G21KT P6SM SCT200",
    "KSFO": "TAF KSFO 172329Z 1800/1906 27015G25KT P6SM SKC TEMPO 1804/1806 P6SM BKN008 FM180600 28010KT P6SM FEW005 OVC008 FM181900 28015G20KT P6SM SKC FM190300 29015KT P6SM SCT015",
    "KOAK": "TAF KOAK 172329Z 1800/1906 26015KT P6SM SKC FM180400 27010KT P6SM FEW005 OVC008 FM181800 28010KT P6SM FEW005 SCT010 FM182000 30015KT P6SM SKC FM190300 29012KT P6SM SCT015",
    "KMHR": "TAF KMHR 172331Z 1800/1824 22012KT P6SM SKC FM180600 17008KT P6SM SKC FM181500 VRB05KT P6SM SKC",
    "KDFW": "TAF KDFW 172320Z 1800/1906 18011KT P6SM SCT050 TEMPO 1812/1815 BKN022 FM181700 18017KT P6SM SCT060 FM190200 18007KT P6SM FEW250",
    "KIAH": "TAF KIAH 172321Z 1800/1906 16008KT P6SM SCT040 BKN250 FM180300 17006KT P6SM FEW020 SCT250 FM181500 20007KT P6SM SCT020 BKN035 FM181900 18008KT P6SM SCT045 SCT250",
    "KORD": "TAF KORD 172320Z 1800/1906 25009KT P6SM VCSH SCT050 FM180200 24007KT P6SM SCT060 FM181400 27013G22KT P6SM SCT050 BKN250 TEMPO 1818/1820 01020G30KT 1SM TSRA BR BKN020 OVC050CB FM182000 06011G17KT P6SM FEW015 SCT035 FM190100 03012G18KT 5SM FU SCT015",
    "KJFK": "TAF KJFK 172338Z 1800/1906 19008KT 6SM FU BKN250 FM181300 20010KT 6SM FU OVC150 FM181500 19012KT 6SM FU VCSH SCT015 OVC070 TEMPO 1815/1818 3SM SHRA BKN015 OVC070 FM181800 19014KT P6SM VCSH SCT015 OVC070 TEMPO 1819/1823 2SM TSRA BR BKN015 OVC050CB FM182300 20014G22KT 6SM -SHRA BKN015 OVC050 TEMPO 1823/1903 2SM TSRA BR BKN009 OVC050CB FM190300 24012KT 4SM SHRA BKN025 OVC050",
    "KRFD": "TAF KRFD 172320Z 1800/1824 24007KT P6SM SCT050 FM181400 28013G22KT P6SM SCT050 BKN250 PROB30 1817/1819 2SM TSRA BR SCT020 BKN050CB FM181900 33011KT P6SM SCT035 FM182200 01011KT P6SM SCT040",
    "KIND": "TAF KIND 172340Z 1800/1906 32006KT P6SM VCSH SCT050 BKN100 PROB30 1800/1802 VRB15G25KT 6SM -TSRA BKN035CB FM180200 22007KT P6SM FEW050 BKN250 FM181500 27013KT P6SM SCT050 PROB30 1822/1903 VRB15G25KT 5SM -TSRA BKN030CB FM190300 32008KT P6SM VCSH BKN100",
    "KDTW": "TAF KDTW 172320Z 1800/1906 17005KT 2SM FU SCT022 BKN045 BKN080 TEMPO 1800/1803 2SM TSRA FU BKN022 OVC045CB FM180300 23008KT 6SM HZ SCT035 BKN120 FM181500 26016G23KT P6SM SCT030 BKN050 OVC120 TEMPO 1817/1820 2SM TSRA OVC030CB FM182100 32014G22KT P6SM SCT045 BKN060 FM190200 02012KT P6SM BKN200",
    "KMSP": "TAF KMSP 172320Z 1800/1906 23010G18KT P6SM FEW060 FM180200 25007KT P6SM SCT080 PROB30 1802/1804 3SM -TSRA BKN050CB FM180500 33008KT 6SM FU SCT080 FM181500 35010KT 6SM FU FEW200",
    "CYEG": "TAF CYEG 172341Z 1800/1824 09012KT P6SM FEW050 FEW250 FM180300 12010KT P6SM FEW040 TEMPO 1803/1805 VRB25G35KT P6SM VCTS BKN040CB FM180500 12008KT P6SM BKN080 TEMPO 1805/1808 P6SM -SHRA PROB30 1805/1808 VRB25G35KT 3SM TSRA BKN080CB FM180800 12005KT P6SM SCT040 TEMPO 1808/1810 VRB20G30KT P6SM -SHRA VCTS SCT020 BKN040CB FM181000 10005KT P6SM SCT012 TEMPO 1810/1815 BKN012 PROB30 1810/1815 3/4SM BR SCT004 FM181500 13005KT P6SM SCT025 BECMG 1816/1818 27008KT FM181800 27008KT P6SM SCT080 RMK NXT FCST BY 180300Z",
    "EHAM": "TAF EHAM 172305Z 1800/1906 31010KT 9999 SCT020 TEMPO 1800/1808 BKN018",
    "EBBR": "TAF EBBR 172301Z 1800/1906 32006KT 9999 FEW035",
    "EDDF": "TAF EDDF 172300Z 1800/1906 26005KT CAVOK BECMG 1810/1812 28010KT BECMG 1819/1821 35005KT PROB30 TEMPO 1900/1904 SHRA BKN045CB",
    "EDFH": "TAF EDFH 172300Z 1800/1824 28006KT CAVOK PROB30 TEMPO 1814/1818 30015G25KT 4500 TSRA BKN050CB",
    "EDDL": "TAF EDDL 172300Z 1800/1906 30005KT 9999 BKN040 PROB30 TEMPO 1803/1807 BKN014 BECMG 1809/1811 28011KT BECMG 1820/1822 31005KT",
    "EDDK": "TAF EDDK 172300Z 1800/1906 30006KT CAVOK PROB30 TEMPO 1804/1807 BKN014 BECMG 1810/1812 30011KT BECMG 1820/1822 32006KT",
    "EBLG": "TAF EBLG 172301Z 1800/1906 32008KT 9999 FEW030 PROB30 TEMPO 1803/1806 BKN014",
    "LSZH": "TAF LSZH 172325Z 1800/1906 VRB02KT CAVOK TX25/1814Z TN16/1804Z TN15/1904Z BECMG 1807/1810 26010KT 9999 FEW060TCU PROB30 TEMPO 1812/1817 30015G25KT TSRA FEW060CB BECMG 1818/1820 VRB02KT SCT060 BECMG 1820/1822 CAVOK",
    "LIMC": "TAF LIMC 172300Z 1800/1906 VRB05KT 9999 FEW040 BECMG 1812/1814 22010KT PROB30 TEMPO 1812/1817 4000 TSRA BECMG 1817/1819 VRB05KT",
    "LIRF": "TAF LIRF 172300Z 1800/1906 VRB05KT 8000 FEW010 TEMPO 1802/1806 1000 BCFG BKN004 BECMG 1809/1811 28012KT BECMG 1818/1820 VRB05KT",
    "EINN": "TAF EINN 172300Z 1800/1824 36010KT 9999 FEW040 PROB30 TEMPO 1804/1806 3000 BR",
    "EGLL": "TAF EGLL 172254Z 1800/1906 06010KT 9999 FEW048 PROB30 TEMPO 1801/1807 BKN012 PROB40 TEMPO 1900/1906 34006KT",
    "EGSS": "TAF EGSS 172254Z 1800/1906 05010KT 9999 FEW045 PROB30 TEMPO 1800/1808 7000 BKN011 BECMG 1822/1901 35006KT",
    "EPWA": "TAF EPWA 172330Z 1800/1824 VRB04KT CAVOK TEMPO 1800/1820 -SHRA SCT040CB PROB40 TEMPO 1800/1803 VRB15G25KT 2000 TSRA BKN010 BKN025CB BECMG 1803/1806 25010KT PROB40 1810/1820 27015G30KT 2000 TSRA SCT040CB ",
    "UHPP": "TAF UHPP 172234Z 1800/1906 30003G12MPS 9999 SCT040CB TX29/1803Z TN18/1816Z",
    "EFHK": "TAF EFHK 172326Z 1800/1824 13006KT CAVOK PROB40 1806/1812 SCT050CB TEMPO 1812/1817 5000 SHRA SCT040CB PROB30 TEMPO 1815/1817 21012G25KT 4000 TSRA BKN009 TEMPO 1817/1824 21012G25KT 3000 TSRA BKN006 BKN030CB",
    "LBBG": "TAF LBBG 172300Z 1800/1824 VRB03KT 9999 SCT045 TEMPO 1800/1805 3000 BR BKN008 PROB40 1801/1804 0600 BCFG BKN003 BECMG 1807/1809 12012KT BECMG 1818/1820 VRB03KT",
    "LTAC": "TAF LTAC 172240Z 1800/1824 04009KT CAVOK BECMG 1806/1809 SCT040 BECMG 1818/1820 CAVOK",
    "UBBB": "TAF UBBB 172303Z 1800/1824 32010KT CAVOK TX32/1810Z TN23/1801Z TEMPO 1800/1804 35008KT SCT015 FEW050CB TEMPO 1804/1814 36014G24KT SCT025 TEMPO 1814/1824 34016KT",
    "UTAA": "TAF UTAA 172245Z 1800/1824 34018KT 6000 SCT050 TX41/1811Z TEMPO 1800/1808 30016G26KT 4000 DRDU BECMG 1818/1820 24014KT",
    "UACC": "TAF UACC 172302Z 1800/1824 20004MPS 9999 SCT030 BKN100 TX35/1809Z TN16/1800Z BECMG 1804/1806 24006MPS SCT040CB BKN100 TEMPO 1804/1816 28008G13MPS -TSRA BKN030CB BECMG 1816/1818 08005MPS TEMPO 1816/1824 12006MPS -TSRA BKN020CB",
    "UAAA": "TAF UAAA 172301Z 1800/1824 04003G08MPS 9999 FEW100 TX41/1810Z TN21/1800Z TEMPO 1800/1803 17003MPS BECMG 1813/1814 18003MPS",
    "UZTT": "TAF UZTT 172300Z 1800/1824 07010KT CAVOK TX44/1811Z TN26/1800Z TEMPO 1806/1818 32015KT",
    "ZWWW": "TAF ZWWW 172104Z 1800/1906 18004MPS CAVOK TX41/1809Z TX38/1906Z TN29/1823Z BECMG 1802/1803 36004MPS BECMG 1813/1814 18004MPS BECMG 1902/1903 36004MPS",
    "ZLXY": "TAF ZLXY 172109Z 1800/1824 28004MPS 6000 NSC TX33/1808Z TN21/1821Z",
    "ZBAA": "TAF ZBAA 172113Z 1800/1906 18004MPS CAVOK TX31/1806Z TX33/1906Z TN21/1821Z TEMPO 1808/1812 -TSRA FEW040CB BKN040",
    "ZBHH": "TAF AMD ZBHH 172221Z 1718/1818 04004MPS 9999 SCT040 TX29/1808Z TN16/1722Z BECMG 1721/1722 33007G12MPS BECMG 1812/1813 03003MPS",
    "ZSQD": "TAF ZSQD 172104Z 1800/1824 36004MPS 5000 BR NSC TX30/1806Z TN21/1820Z",
    "ZMCK": "TAF ZMCK 172241Z 1800/1906 VRB02MPS 9999 FEW030CB SCT033 TX24/1807Z TN12/1821Z PROB40 TEMPO 1805/1816 VRB08G13MPS TSRA SCT027CB SCT030 BECMG 1902/1904 32005MPS",
    "UUEE": "TAF UUEE 172250Z 1800/1824 36003MPS 9999 SCT040 TX25/1813Z TN11/1802Z",
    "UUDD": "TAF UUDD 172253Z 1800/1906 36003MPS 8000 SCT040 TX26/1812Z TN08/1801Z PROB40 TEMPO 1800/1804 0300 FG",
    "ULLI": "TAF ULLI 172254Z 1800/1824 16003MPS 9999 SCT020 BECMG 1804/1806 18006G12MPS",
    "USSS": "TAF AMD USSS 180036Z 1801/1824 36003MPS 0300 FG BKN002 BKN011 FM180400 06003G14MPS 8000 -SHRA BKN016CB TEMPO 1804/1824 -TSRA",
    "UNNT": "TAF UNNT 172300Z 1800/1824 27003G08MPS 8000 SCT040 TX25/1809Z TN16/1822Z TEMPO 1800/1820 -TSRA BKN020CB",
    "UNKL": "TAF UNKL 172251Z 1800/1824 27003MPS 6000 -SHRA BKN016CB TEMPO 1800/1803 1000 -TSRA BR BKN005 BKN016CB TEMPO 1803/1815 -TSRA BECMG 1806/1808 27008G16MPS BECMG 1809/1811 27003MPS TEMPO 1815/1824 0250 -TSRA FG BKN002 BKN016CB",
    "UIBB": "TAF UIBB 172300Z 1800/1824 20003G08MPS 9999 -SHRA BKN004 BKN016CB TEMPO 1800/1803 0300 +TSRA FG VV001 BECMG 1803/1804 BKN016CB BECMG 1804/1805 27005MPS TEMPO 1805/1815 -TSRA",
    "UEEE": "TAF UEEE 172300Z 1800/1906 13003G08MPS 9999 SCT020CB OVC070 TEMPO 1800/1815 VRB16MPS 4000 -TSRA SCT007 BKN020CB OVC070",
    "UHHH": "TAF UHHH 172245Z 1800/1906 20003MPS 9999 SCT025CB TX29/1805Z TN19/1818Z TEMPO 1800/1809 24008MPS",
    "UHSS": "TAF AMD UHSS 180010Z 1800/1906 18003MPS 9999 BKN030CB TX30/1801Z TN17/1821Z"
  },
  "atis": {},
  "windtemp_alaska": "\n000\nFBAK31 KWNO 172000\nFD1AK1\nDATA BASED ON 171800Z    \nVALID 180000Z   FOR USE 2000-0300Z. TEMPS NEG ABV 24000\n\nFT  3000    6000    9000   12000   18000   24000  30000  34000  39000\nADK 3327 3331+08 3233+05 3136-01 3045-15 3066-25 318537 318147 316449\nADQ 2611 2213-02 2419-04 2523-09 2529-19 2741-29 289042 298351 264046\nAKN 2314 2411-03 2513-05 2416-10 2426-20 2541-30 269142 279451 253244\nANC 1606 1613+00 1712-05 1810-11 2120-23 2224-35 233144 213042 202641\nANN 3212 2808+12 2409+08 2312+02 2311-13 2209-24 210539 200549 240657\nBET 2007 1507-02 1206-07 9900-12 2409-23 2421-33 253546 242844 241440\nBRW 0713 0815+04 0715-01 0716-06 0818-18 0917-30 102147 101953 111245\nBTI 0706 1005+02 1308-02 1409-06 1609-18 1809-30 221645 181549 161544\nBTT 1005 1507+02 1509-03 1310-08 1118-22 1223-34 132947 142844 152041\nCDB 2040 2134-01 2239-03 2448-05 2466-14 2471-24 246840 247650 255552\nCZF 0406 0505-02 0808-07 0811-13 0608-24 0507-35 990047 990042 330539\nEHM 1718 1619-03 1616-07 1613-12 2221-19 2342-30 238942 248348 252743\nFAI 9900 2409+01 2114-05 2015-10 1721-21 1736-34 177046 184544 172741\nFYU 9900 1707+03 1611-03 1708-08 1721-19 1837-29 196645 195950 173144\nGAL 1807 1816+00 1613-05 1618-11 1219-24 1120-37 112346 121641 141139\nGKN 1512 1815+01 1915-04 1815-10 1924-21 1848-31 187544 186346 193943\nHOM 2708 2508-01 2509-06 2313-11 2421-21 2632-32 264446 263845 232442\nJNU 2406 2513+07 2419+04 2322-01 2125-13 2027-24 202940 203049 202856\nLUR 0628 0623+04 0623-01 0625-07 0822-21 0926-31 112546 092752 071443\nMCG 1809 1916-02 1918-07 1723-12 1520-25 1712-37 211245 211241 191439\nMDO 2209 1806-01 2011-02 2217-07 2225-20 2426-32 213045 203445 213242\nOME 3508 3606+00 3506-05 9900-10 1112-24 0620-36 062748 061643 061239\nORT      3105+01 2210-02 1924-07 1836-16 1848-28 196542 197650 194848\nOTZ 9900 9900+01 0905-03 0710-09 0621-21 0730-34 085949 083747 081740\nSNP 0537 0529-03 0325-05 0212-08 3610-20 0106-33 291341 291838 292039\nTKA 9900 1814+00 1713-06 1716-12 1921-24 2021-36 192844 202941 202440\nUNK 9900 9900+00 0506-05 0708-11 0512-24 0613-38 081245 100841 110740\nYAK 1606 1913+02 2027+01 2026-05 2041-15 1952-26 196040 195949 205052\nIKO 2537 2542+05 2551+01 2551-03 2651-15 2572-26 238940 248648 264847\nAFM 9900 1206+02 1209-03 1116-08 1122-22 0929-33 086148 094147 121541\n5AB 3417 3421+09 3330+06 3240+01 3248-10 3350-21 346134 347544 358655\n5AC 3224 3224+11 3223+06 3119+02 3018-13 2916-25 271340 281349 291858\n5AD 2821 2726+04 2631+01 2637-03 2645-16 2749-28 276045 286149 264348\n5AE 2320 2423+00 2427-03 2530-06 2653-14 2659-25 275741 277050 266556\n5AF 2614 2515+08 2321+04 2325+00 2232-14 2137-25 203740 213449 213356\n5AG 2515 2416+02 2320-02 2127-06 2026-19 1950-29 188040 188147 204547\n",
  "vaac_active": [
    {
      "volcano": "SHEVELUCH",
      "volcano_jp": "シベルチ",
      "advisory_nr": "2026/268",
      "obs_time": "2026-07-17 23:20Z",
      "issued_time": "2026-07-18 00:00Z",
      "text_url": "https://www.data.jma.go.jp/vaac/data/TextData/2026/20260718_30027000_0268_Text.html",
      "lat": 56.65,
      "lon": 161.367,
      "text": "FVFE01 RJTD 180000\nVA ADVISORY\nDTG: 20260718/0000Z\nVAAC: TOKYO\nVOLCANO: SHEVELUCH 300270\nPSN: N5639 E16122\nAREA: RUSSIA\nSOURCE ELEV: 3283M AMSL\nADVISORY NR: 2026/268\nINFO SOURCE: KVERT HIMAWARI-9\nERUPTION DETAILS: VA CONTINUOUSLY OBS IN SATELLITE IMAGERY\nOBS VA DTG: 17/2320Z\nOBS VA CLD: SFC/FL290 N5601 E16322 - N5605 E16357 - N5546 E16401 - \nN5544 E16326 MOV SE 25KT\nFCST VA CLD +6 HR: 18/0520Z SFC/FL300 N5529 E16617 - N5404 E16714 - \nN5357 E16639 - N5527 E16530\nFCST VA CLD +12 HR: 18/1120Z SFC/FL300 N5352 E17006 - N5152 E17037 - \nN5152 E16936 - N5344 E16817\nFCST VA CLD +18 HR: NO VA EXP\nRMK: SOME PART OF VA OBSCURED BY MET CLOUD.\nNXT ADVISORY: 20260718/0600Z="
    },
    {
      "volcano": "MAYON",
      "volcano_jp": "マヨン",
      "advisory_nr": "2026/761",
      "obs_time": "2026-07-17 22:08Z",
      "issued_time": "2026-07-17 22:22Z",
      "text_url": "https://www.data.jma.go.jp/vaac/data/TextData/2026/20260717_27303000_0761_Text.html",
      "lat": 13.25,
      "lon": 123.683,
      "text": "FVFE01 RJTD 172222\nVA ADVISORY\nDTG: 20260717/2222Z\nVAAC: TOKYO\nVOLCANO: MAYON 273030\nPSN: N1315 E12341\nAREA: PHILIPPINES\nSOURCE ELEV: 2462M AMSL\nADVISORY NR: 2026/761\nINFO SOURCE: HIMAWARI-9 PHIVOLCS\nERUPTION DETAILS: ERUPTION AT 20260717/2208Z FL100 EXTD SSE REPORTED\nOBS VA DTG: 17/2210Z\nOBS VA CLD: VA NOT IDENTIFIABLE FM SATELLITE DATA WIND FL100 360/6KT\nFCST VA CLD +6 HR: NOT AVBL\nFCST VA CLD +12 HR: NOT AVBL\nFCST VA CLD +18 HR: NOT AVBL\nRMK: WE WILL ISSUE FURTHER ADVISORY IF VA IS DETECTED IN SATELLITE \nIMAGERY.\nNXT ADVISORY: NO FURTHER ADVISORIES="
    },
    {
      "volcano": "SHEVELUCH",
      "volcano_jp": "シベルチ",
      "advisory_nr": "2026/267",
      "obs_time": "2026-07-17 19:40Z",
      "issued_time": "2026-07-17 20:55Z",
      "text_url": "https://www.data.jma.go.jp/vaac/data/TextData/2026/20260717_30027000_0267_Text.html",
      "lat": 56.65,
      "lon": 161.367,
      "text": "FVFE01 RJTD 172055\nVA ADVISORY\nDTG: 20260717/2055Z\nVAAC: TOKYO\nVOLCANO: SHEVELUCH 300270\nPSN: N5639 E16122\nAREA: RUSSIA\nSOURCE ELEV: 3283M AMSL\nADVISORY NR: 2026/267\nINFO SOURCE: HIMAWARI-9\nERUPTION DETAILS: POSS ERUPTION OBS AT 20260717/1940Z FL350 EXTD SE\nOBS VA DTG: 17/2010Z\nOBS VA CLD: SFC/FL350 N5639 E16136 - N5652 E16203 - N5641 E16208 - \nN5629 E16141 MOV SE 25KT\nFCST VA CLD +6 HR: 18/0210Z SFC/FL360 N5445 E16558 - N5547 E16342 - \nN5655 E16207 - N5734 E16352\nFCST VA CLD +12 HR: 18/0810Z SFC/FL360 N5754 E16735 - N5212 E16923 - \nN5249 E16756 - N5613 E16548 - N5734 E16351\nFCST VA CLD +18 HR: 18/1410Z SFC/FL360 N5728 E17045 - N5343 E17223 - \nN4910 E17223 - N4916 E17115 - N5521 E16839 - N5708 E16717\nRMK: NIL\nNXT ADVISORY: 20260718/0000Z="
    }
  ],
  "vaac_tokyo": [
    {
      "id": "20260718_30027000_0268",
      "year": "2026",
      "volcano": "Sheveluch",
      "psn": "N5639 E16122",
      "issued": "20260718",
      "text": "FVFE01 RJTD 180000\nVA ADVISORY\nDTG: 20260718/0000Z\nVAAC: TOKYO\nVOLCANO: SHEVELUCH 300270\nPSN: N5639 E16122\nAREA: RUSSIA\nSOURCE ELEV: 3283M AMSL\nADVISORY NR: 2026/268\nINFO SOURCE: KVERT HIMAWARI-9\nERUPTION DETAILS: VA CONTINUOUSLY OBS IN SATELLITE IMAGERY\nOBS VA DTG: 17/2320Z\nOBS VA CLD: SFC/FL290 N5601 E16322 - N5605 E16357 - N5546 E16401 - \nN5544 E16326 MOV SE 25KT\nFCST VA CLD +6 HR: 18/0520Z SFC/FL300 N5529 E16617 - N5404 E16714 - \nN5357 E16639 - N5527 E16530\nFCST VA CLD +12 HR: 18/1120Z SFC/FL300 N5352 E17006 - N5152 E17037 - \nN5152 E16936 - N5344 E16817\nFCST VA CLD +18 HR: NO VA EXP\nRMK: SOME PART OF VA OBSCURED BY MET CLOUD.\nNXT ADVISORY: 20260718/0600Z=",
      "img_url": "https://ds.data.jma.go.jp/svd/vaac/data/VAGFN/2026/Images/20260718_30027000_0268_QH21_01.png",
      "sat_img_url": "https://ds.data.jma.go.jp/svd/vaac/data/Sat/2026/Images/30027000/09-ir/20260717_2320_202607180000_ir.png",
      "text_url": "https://ds.data.jma.go.jp/svd/vaac/data/TextData/2026/20260718_30027000_0268_Text.html"
    },
    {
      "id": "20260717_27303000_0761",
      "year": "2026",
      "volcano": "Mayon",
      "psn": "N1315 E12341",
      "issued": "20260717",
      "text": "FVFE01 RJTD 172222\nVA ADVISORY\nDTG: 20260717/2222Z\nVAAC: TOKYO\nVOLCANO: MAYON 273030\nPSN: N1315 E12341\nAREA: PHILIPPINES\nSOURCE ELEV: 2462M AMSL\nADVISORY NR: 2026/761\nINFO SOURCE: HIMAWARI-9 PHIVOLCS\nERUPTION DETAILS: ERUPTION AT 20260717/2208Z FL100 EXTD SSE REPORTED\nOBS VA DTG: 17/2210Z\nOBS VA CLD: VA NOT IDENTIFIABLE FM SATELLITE DATA WIND FL100 360/6KT\nFCST VA CLD +6 HR: NOT AVBL\nFCST VA CLD +12 HR: NOT AVBL\nFCST VA CLD +18 HR: NOT AVBL\nRMK: WE WILL ISSUE FURTHER ADVISORY IF VA IS DETECTED IN SATELLITE \nIMAGERY.\nNXT ADVISORY: NO FURTHER ADVISORIES=",
      "img_url": "https://ds.data.jma.go.jp/svd/vaac/data/VAGFN/2026/Images/20260717_27303000_0761_QH21_01.png",
      "sat_img_url": null,
      "text_url": "https://ds.data.jma.go.jp/svd/vaac/data/TextData/2026/20260717_27303000_0761_Text.html"
    },
    {
      "id": "20260717_27307000_0014",
      "year": "2026",
      "volcano": "Taal",
      "psn": "N1400 E12100",
      "issued": "20260717",
      "text": "FVFE01 RJTD 171113\nVA ADVISORY\nDTG: 20260717/1113Z\nVAAC: TOKYO\nVOLCANO: TAAL 273070\nPSN: N1400 E12100\nAREA: PHILIPPINES\nSOURCE ELEV: 311M AMSL\nADVISORY NR: 2026/14\nINFO SOURCE: HIMAWARI-9 PHIVOLCS\nERUPTION DETAILS: ERUPTION AT 20260717/1051Z FL040 EXTD E REPORTED\nOBS VA DTG: 17/1100Z\nOBS VA CLD: VA NOT IDENTIFIABLE FM SATELLITE DATA WIND FL040 270/8KT\nFCST VA CLD +6 HR: NOT AVBL\nFCST VA CLD +12 HR: NOT AVBL\nFCST VA CLD +18 HR: NOT AVBL\nRMK: WE WILL ISSUE FURTHER ADVISORY IF VA IS DETECTED IN SATELLITE \nIMAGERY.\nNXT ADVISORY: NO FURTHER ADVISORIES=",
      "img_url": "https://ds.data.jma.go.jp/svd/vaac/data/VAGFN/2026/Images/20260717_27307000_0014_QH21_01.png",
      "sat_img_url": null,
      "text_url": "https://ds.data.jma.go.jp/svd/vaac/data/TextData/2026/20260717_27307000_0014_Text.html"
    },
    {
      "id": "20260713_28208001_0083",
      "year": "2026",
      "volcano": null,
      "psn": "N3136 E13039",
      "issued": "20260713",
      "text": "FVFE01 RJTD 130254\nVA ADVISORY\nDTG: 20260713/0254Z\nVAAC: TOKYO\nVOLCANO: SAKURAJIMA (AIRA CALDERA) 282080\nPSN: N3136 E13039\nAREA: JAPAN\nSOURCE ELEV: 1117M AMSL\nADVISORY NR: 2026/83\nINFO SOURCE: JMA HIMAWARI-9\nERUPTION DETAILS: ERUPTED AT 20260713/0152Z FL100 EXTD N\nOBS VA DTG: 13/0230Z\nOBS VA CLD: SFC/FL100 N3136 E13039 - N3142 E13040 - N3141 E13044 - \nN3134 E13042 MOV NE 15KT\nFCST VA CLD +6 HR: 13/0830Z SFC/FL100 N3234 E13121 - N3145 E13155 - \nN3202 E13110 - N3227 E13051\nFCST VA CLD +12 HR: 13/1430Z SFC/FL100 N3318 E13206 - N3142 E13317 - \nN3134 E13226 - N3312 E13118\nFCST VA CLD +18 HR: NO VA EXP\nRMK: NIL\nNXT ADVISORY: 20260713/0600Z=",
      "img_url": "https://ds.data.jma.go.jp/svd/vaac/data/VAGFN/2026/Images/20260713_28208001_0083_QH21_01.png",
      "sat_img_url": "https://ds.data.jma.go.jp/svd/vaac/data/Sat/2026/Images/28208001/09-ir/20260713_0230_202607130254_ir.png",
      "text_url": "https://ds.data.jma.go.jp/svd/vaac/data/TextData/2026/20260713_28208001_0083_Text.html"
    }
  ],
  "vaac_alaska": [
    {
      "text": "\n000\nFVAK21 PAWU 180008\nVAAAK1\nVA ADVISORY\n\nDTG: 20260718/0000Z\n\nVAAC: ANCHORAGE\n\nVOLCANO: SHEVELUCH 300270\n\nPSN: N5639 E16122\n\nAREA: KAMCHATKA PENINSULA\n\nSOURCE ELEV: 10771 FT AMSL\n\nADVISORY NR: 2026/205\n\nRMK: PLEASE SEE FVFE01 RJTD ISSUED BY VAAC TOKYO WHICH DESCRIBES\nCONDITIONS NEAR THE VAAC ANCHORAGE AREA OF RESPONSIBILITY...BS\n\n\n\n",
      "issued": "2026-07-18T00:08:00+00:00",
      "volcano": "Sheveluch",
      "psn": "N5639 E16122"
    }
  ]
}