{
  "updated_utc": "2026-07-12T22:35Z",
  "metar": {
    "RJAA": "METAR RJAA 122100Z 04004KT 360V070 7000 -SHRA FEW020 BKN090 BKN120 24/23 Q1006 BECMG 23005KT",
    "PANC": "METAR PANC 122053Z 05007KT 7SM -RA FEW006 OVC065 12/11 A2985 RMK AO2 SLP107 P0008 60025 T01170111 53003 $",
    "PAFA": "METAR PAFA 122053Z 18004KT 10SM FEW038 BKN100 BKN150 19/10 A2975 RMK AO2 SLP078 T01890100 58008 $",
    "PAED": "METAR PAED 122055Z 05005KT 10SM -RA FEW007 OVC060 12/10 A2983 RMK AO2A SLP098 P0003 60019 T01200104 52005 $",
    "KSEA": "METAR KSEA 122053Z VRB05KT 10SM FEW030 FEW070 20/08 A3015 RMK AO2 SLP214 T02000078 56010 $",
    "ZSPD": "METAR ZSPD 122100Z 17010MPS CAVOK 28/25 Q1000 NOSIG",
    "ZSSS": "METAR ZSSS 122100Z 17008MPS 140V200 CAVOK 29/25 Q0999 NOSIG",
    "RJFR": "METAR RJFR 122100Z 12003KT 8000 FEW002 SCT003 BKN004 26/25 Q1012",
    "VHHH": "METAR VHHH 122100Z VRB02KT 9999 FEW012 30/26 Q1002 NOSIG",
    "RCTP": "METAR RCTP 122100Z VRB02KT 9999 FEW010 BKN020 BKN032 28/27 Q1005 NOSIG RMK A2968",
    "ZGSZ": "METAR ZGSZ 122100Z 16003MPS 9999 FEW020 29/27 Q1002 NOSIG",
    "WSSS": "METAR WSSS 122100Z 14005KT 9999 FEW016 BKN300 28/25 Q1008 NOSIG",
    "WMKK": "METAR WMKK 122100Z VRB03KT 8000 FEW030 27/25 Q1007 NOSIG",
    "WIDD": "METAR WIDD 122100Z COR 14004KT 9999 FEW014 28/25 Q1008 NOSIG",
    "VTBS": "METAR VTBS 122100Z 23007KT 9999 FEW020 28/24 Q1004 NOSIG",
    "VTBU": "METAR VTBU 122100Z 25009KT 6000 -RA FEW018 SCT100 26/26 Q1004 NOSIG",
    "ROAH": "METAR ROAH 122100Z 16015KT 9999 SCT008 BKN010 27/26 Q1010",
    "VVDN": "METAR VVDN 122100Z 21003KT 9999 FEW017 BKN070 29/23 Q1001 NOSIG",
    "RCKH": "METAR RCKH 122100Z 14013KT 110V170 9999 FEW012 SCT026 29/25 Q1005 NOSIG RMK A2968",
    "KLAX": "METAR KLAX 122053Z 25010KT 10SM FEW025 SCT120 BKN180 OVC250 21/17 A2995 RMK AO2 SLP140 T02110172 55007 $",
    "KONT": "METAR KONT 122053Z 27007KT 10SM BKN100 BKN150 BKN250 28/14 A2995 RMK AO2 SLP125 T02830144 55003 $",
    "KSFO": "METAR KSFO 122056Z 31012KT 10SM FEW170 BKN200 22/13 A2994 RMK AO2 SLP139 T02170133 58005 $",
    "KOAK": "METAR KOAK 122053Z 29010KT 10SM SCT180 BKN220 24/14 A2994 RMK AO2 SLP138 T02440139 58008",
    "KMHR": "METAR KMHR 122055Z AUTO 10003KT 10SM CLR 30/13 A2992 RMK AO2 T03010125 50002 $",
    "KDFW": "METAR KDFW 122053Z 00000KT 10SM BKN065 BKN250 34/19 A3001 RMK AO2 SLP150 TCU DSNT ALQDS T03440189 56022 $",
    "KIAH": "METAR KIAH 122053Z 18008G18KT 10SM FEW025 FEW040 SCT160 BKN250 31/23 A3007 RMK AO2 TSE16 SLP181 SHRA DSNT SW-W OCNL LTGICCG DSNT SW-W CB DSNT NE AND SW-W MOV NE T03060228 55007 $",
    "KORD": "METAR KORD 122051Z 05010KT 10SM FEW060 29/14 A3018 RMK AO2 SLP213 T02940144 56009 $",
    "KJFK": "METAR KJFK 122051Z 18012KT 10SM FEW060 FEW250 26/12 A3018 RMK AO2 SLP220 T02610122 55003 $",
    "KRFD": "METAR KRFD 122054Z VRB04KT 10SM FEW060 30/16 A3020 RMK AO2 SLP222 T03000161 56008 $",
    "KIND": "METAR KIND 122054Z 03013G20KT 10SM SCT050 29/18 A3011 RMK AO2 SLP189 T02940178 58007",
    "KDTW": "METAR KDTW 122053Z 08008KT 10SM FEW065 SCT250 29/13 A3017 RMK AO2 SLP211 T02890128 58013 $",
    "KMSP": "METAR KMSP 122053Z 22013G19KT 10SM FEW045 32/21 A3016 RMK AO2 SLP207 T03170206 58005 $",
    "CYEG": "METAR CYEG 122100Z 32005KT 20SM FEW047 FEW250 22/13 A2983 RMK CU1CI1 CU TR CI TR SLP105 DENSITY ALT 3900FT",
    "EHAM": "METAR EHAM 122055Z 02011KT 350V050 9999 FEW016 17/14 Q1024 BECMG BKN016",
    "EBBR": "METAR EBBR 122050Z 03008KT CAVOK 23/12 Q1022 NOSIG",
    "EDDF": "METAR EDDF 122050Z AUTO 02011KT CAVOK 28/13 Q1020 NOSIG",
    "EDFH": "METAR EDFH 122050Z 07004KT 030V110 CAVOK 24/11 Q1022",
    "EDDL": "METAR EDDL 122050Z AUTO 01009KT CAVOK 25/12 Q1021 NOSIG",
    "EDDK": "METAR EDDK 122050Z AUTO 05004KT CAVOK 24/14 Q1021 NOSIG",
    "EBLG": "METAR EBLG 122050Z 03012KT CAVOK 25/14 Q1022 NOSIG",
    "LSZH": "METAR LSZH 122050Z 05006KT CAVOK 24/09 Q1020 NOSIG",
    "LIMC": "METAR LIMC 122050Z 12004KT CAVOK 28/17 Q1017 NOSIG",
    "LIRF": "METAR LIRF 122050Z 27005KT CAVOK 27/23 Q1015 NOSIG",
    "EINN": "METAR EINN 122100Z 03007KT CAVOK 23/15 Q1023 NOSIG",
    "EGLL": "METAR EGLL 122050Z AUTO 06012KT 9999 NCD 23/07 Q1024",
    "EGSS": "METAR EGSS 122050Z AUTO 05012KT 9999 NCD 19/10 Q1026",
    "EPWA": "METAR EPWA 122100Z 26003KT CAVOK 15/14 Q1018 NOSIG",
    "UHPP": "METAR UHPP 122100Z VRB01MPS 9999 FEW074 19/12 Q1012 R34L/CLRD62 NOSIG RMK MT OBSC QFE756/1008",
    "EFHK": "METAR EFHK 122050Z 32009KT CAVOK 20/18 Q1018 NOSIG",
    "LBBG": "METAR LBBG 122100Z AUTO 08006KT 9999 NSC 22/17 Q1014 TEMPO 5000 SHRA FEW030TCU",
    "LTAC": "METAR LTAC 122050Z 03012KT CAVOK 22/12 Q1015 NOSIG RMK RWY21C 05010KT RWY03L 03011KT RWY21R 02010KT RWY03R 03011KT RWY21L 04007KT 010V070",
    "UBBB": "METAR UBBB 122100Z 31008KT CAVOK 25/23 Q1010 NOSIG",
    "UTAA": "METAR UTAA 122100Z 28014KT 9999 NSC 32/16 Q1007 R88/CLRD70 NOSIG",
    "UACC": "METAR UACC 122100Z 15003MPS CAVOK 16/12 Q1009 NOSIG RMK QFE726/0968",
    "UAAA": "METAR UAAA 122100Z 22002MPS 9999 FEW100 21/11 Q1005 NOSIG",
    "UZTT": "METAR UZTT 122100Z 05010KT CAVOK 29/11 Q1002 NOSIG",
    "ZWWW": "METAR ZWWW 122100Z 20003MPS CAVOK 26/06 Q1004 NOSIG",
    "ZLXY": "METAR ZLXY 122100Z VRB01MPS CAVOK 24/20 Q1003 NOSIG",
    "ZBAA": "METAR ZBAA 122100Z 36001MPS 9999 OVC033 25/24 Q1003 NOSIG",
    "ZBHH": "METAR ZBHH 122100Z VRB01MPS CAVOK 15/12 Q1010 NOSIG",
    "ZSQD": "METAR ZSQD 122100Z 13006MPS 5000 -DZ BKN008 26/26 Q0999 NOSIG",
    "ZMCK": "METAR ZMCK 122100Z 04003MPS 9999 FEW030CB FEW033 09/07 Q1012 NOSIG RMK QFE644.0 89 MOP",
    "UUEE": "METAR UUEE 122100Z 02005MPS 9999 SCT005 17/16 Q1002 R06R/290145 R06C/290145 NOSIG",
    "UUDD": "METAR UUDD 122100Z 01005MPS 9999 BKN005 17/16 Q1001 R13R/CLRD65 NOSIG",
    "ULLI": "METAR ULLI 122100Z 32002MPS 300V010 CAVOK 23/16 Q1013 R88/090065 NOSIG",
    "USSS": "METAR USSS 122100Z 02003MPS 9999 SCT007 BKN022CB 20/20 Q1009 R26L/CLRD60 R26R/290340 TEMPO BKN006 SCT016CB RMK QFE736/0982",
    "UNNT": "METAR UNNT 122100Z 30001MPS CAVOK 10/10 Q1010 R25/CLRD// R34/////// NOSIG RMK QFE747/0997",
    "UNKL": "METAR UNKL 122100Z 00000MPS CAVOK 07/07 Q1013 R11/CLRD// NOSIG RMK QFE734",
    "UIBB": "METAR UIBB 122100Z 30003MPS 9999 -SHRA SCT033CB 09/09 Q1011 R30/CLRD62 NOSIG RMK QFE715/0954",
    "UEEE": "METAR UEEE 122100Z 33002MPS 280V360 9999 SCT040CB 16/14 Q1002 R23/290158 NOSIG RMK QFE743",
    "UHHH": "METAR UHHH 122100Z 15003MPS 9999 SCT040 23/23 Q1001 R88/090060 NOSIG RMK QFE745/0993",
    "UHSS": "METAR UHSS 122100Z 36002MPS 3600 BR BKN011 17/16 Q1006 R01/290060 NOSIG RMK MT OBSC QFE753/1005"
  },
  "taf": {
    "RJAA": "TAF RJAA 121705Z 1218/1400 22004KT 8000 -RA FEW003 BKN012 TEMPO 1218/1222 4000 -RA BR BECMG 1221/1223 25008KT BECMG 1318/1321 18004KT",
    "PANC": "TAF PANC 122028Z 1220/1324 05004KT 6SM -SHRA SCT008 SCT025 OVC060 FM122200 16009KT P6SM -SHRA FEW009 SCT020 OVC050 FM130300 16010G22KT P6SM -SHRA SCT030 OVC060 FM131800 17008G18KT 6SM -SHRA BR SCT008 BKN025 OVC050",
    "PAFA": "TAF PAFA 121720Z 1218/1324 20003KT P6SM FEW070 BKN100 FM130500 21004KT P6SM -SHRA OVC050 FM130900 22008KT P6SM -SHRA OVC060",
    "PAED": "TAF PAED 122100Z 1221/1403 33003KT 8000 -SHRA FEW008 OVC060 620608 QNH2983INS TEMPO 1221/1301 6000 RA BKN006 OVC015 BECMG 1312/1313 22006KT 6000 -RA BKN006 OVC015 620608 QNH2995INS BECMG 1317/1318 20006KT 8000 -SHRA SCT006 OVC018 620608 QNH3001INS TX12/1320Z TN11/1313Z",
    "KSEA": "TAF KSEA 122034Z 1221/1324 27003KT P6SM SCT020 BKN060 FM122200 33008KT P6SM SCT060 SCT250 FM130500 03006KT P6SM FEW250 FM131700 36006KT P6SM FEW250",
    "ZSPD": "TAF ZSPD 122111Z 1300/1406 16010G15MPS 8000 BKN020 TX32/1306Z TX34/1406Z TN28/1321Z BECMG 1309/1310 18007MPS",
    "ZSSS": "TAF ZSSS 122109Z 1300/1406 16009G14MPS 8000 BKN020 TX34/1306Z TX36/1406Z TN28/1321Z BECMG 1306/1307 17005MPS",
    "RJFR": "TAF AMD RJFR 122127Z 1221/1400 12004KT 6000 FEW003 BKN012 TEMPO 1221/1300 0500 FG BKN003 BECMG 1300/1302 02008KT BECMG 1312/1315 25004KT BECMG 1321/1400 06006KT",
    "VHHH": "TAF VHHH 122000Z 1221/1403 16010KT 9999 FEW010 TX33/1306Z TN29/1222Z TN27/1322Z TEMPO 1221/1301 VRB05KT TEMPO 1301/1308 22010KT TEMPO 1304/1309 4000 SHRA FEW010CB SCT020 TEMPO 1317/1321 16015G25KT 3500 SHRA FEW010CB SCT020 TEMPO 1321/1403 VRB20G30KT 2000 TSRA SHRA FEW008CB SCT015",
    "RCTP": "TAF AMD RCTP 122217Z 1222/1324 33005KT 9999 FEW015 BKN032 TEMPO 1222/1224 24010KT 5000 SHRA FEW008 BKN012 FEW015TCU TEMPO 1303/1307 24010KT TEMPO 1307/1311 15010KT 5000 SHRA SCT008 FEW015CB BKN020 BKN050 BECMG 1311/1313 17005KT",
    "ZGSZ": "TAF ZGSZ 122111Z 1300/1406 18004MPS 8000 SCT030 TX33/1306Z TX30/1406Z TN29/1322Z TEMPO 1307/1311 TSRA FEW020CB BKN030 BECMG 1316/1318 SHRA FEW015 FEW025CB BKN030 TEMPO 1323/1403 1500 +TSRA",
    "WSSS": "TAF WSSS 121700Z 1218/1400 13007KT 9999 FEW015 SCT020",
    "WMKK": "TAF WMKK 121700Z 1218/1400 13005KT 8000 FEW030",
    "VTBS": "TAF VTBS 121700Z 1218/1324 23008KT 9999 FEW020 TEMPO 1308/1312 VRB15KT 4000 TSRA FEW018CB SCT030 BKN080",
    "VTBU": "TAF VTBU 121700Z 1218/1318 24006KT 9999 FEW020 TEMPO 1222/1303 VRB15KT 4000 TSRA FEW018CB SCT030 BKN090",
    "ROAH": "TAF ROAH 121705Z 1218/1400 17018KT 9999 FEW008 BKN012 TEMPO 1218/1300 FEW005 BKN008 TEMPO 1315/1400 FEW005 BKN008",
    "VVDN": "TAF VVDN 121700Z 1218/1318 24008KT 8000 SCT017 SCT060 TEMPO 1220/1224 4000 RA PROB40 TEMPO 1309/1313 24015G25KT 4500 TSRA BKN013 FEW015CB BKN050",
    "RCKH": "TAF RCKH 121700Z 1218/1324 15005KT 9999 FEW012 BKN032 TEMPO 1218/1224 14015G25KT BECMG 1300/1302 19010KT TEMPO 1306/1310 5000 SHRA FEW010 FEW015CB BKN020 BKN050 BECMG 1310/1312 17005KT TEMPO 1318/1324 5000 SHRA FEW010 FEW015CB BKN020 BKN050",
    "KLAX": "TAF KLAX 122101Z 1221/1324 26011KT P6SM BKN150 OVC250 FM130500 27005KT P6SM BKN250 FM130800 26004KT P6SM OVC015 FM131700 26007KT P6SM BKN120 FM132100 26011KT P6SM BKN250",
    "KONT": "TAF KONT 121729Z 1218/1324 VRB04KT P6SM OVC150 FM122000 25010G19KT P6SM BKN150 FM130300 24008KT P6SM SCT150 FM130700 VRB04KT P6SM BKN150 FM131900 25010G18KT P6SM BKN150",
    "KSFO": "TAF KSFO 122109Z 1221/1324 29015KT P6SM BKN200 FM130300 28010KT P6SM BKN200 FM130600 31007KT P6SM BKN200 FM132000 29012KT P6SM BKN200",
    "KOAK": "TAF KOAK 121745Z 1218/1324 29009KT P6SM BKN200 FM130900 27005KT P6SM BKN150",
    "KMHR": "TAF KMHR 121735Z 1218/1318 20008KT P6SM VCSH OVC150 FM131200 VRB05KT P6SM BKN250",
    "KDFW": "TAF KDFW 122214Z 1222/1324 17007KT P6SM VCSH BKN070 BKN110 FM122300 18008KT P6SM VCTS SCT060CB TEMPO 1223/1303 35025G35KT 4SM -TSRA BKN050CB FM130400 12007KT P6SM SCT090 BKN200 FM131000 11004KT P6SM VCTS BKN025CB FM131600 08005KT P6SM BKN040",
    "KIAH": "TAF KIAH 122052Z 1221/1324 16006KT P6SM VCTS FEW025CB SCT150 BKN250 TEMPO 1221/1222 VRB10G25KT 4SM TSRA SCT025 BKN035CB FM122300 13009KT P6SM VCSH FEW025 SCT150 FM130200 16005KT P6SM SCT020 BKN120 FM131400 VRB03KT P6SM VCSH BKN035 BKN120 FM131700 VRB05KT 4SM SHRA VCTS SCT025CB OVC100",
    "KORD": "TAF KORD 122059Z 1221/1324 06009KT P6SM FEW060 FM130300 VRB03KT P6SM SKC FM131300 29005KT P6SM FEW250 FM131900 11007KT P6SM FEW050",
    "KJFK": "TAF KJFK 122005Z 1220/1324 18010KT P6SM SCT060 FM130200 18006KT P6SM FEW070 FM131000 22004KT P6SM FEW070 FM131500 21008KT P6SM FEW070 FM131800 19014KT P6SM FEW070",
    "KRFD": "TAF KRFD 122103Z 1221/1318 08006KT P6SM FEW060 FM130100 VRB02KT P6SM SKC FM131400 29005KT P6SM FEW250",
    "KIND": "TAF KIND 122025Z 1220/1324 05011G20KT P6SM SCT050 FM130000 05005KT P6SM SKC",
    "KDTW": "TAF KDTW 122102Z 1221/1324 08007KT P6SM SCT060 FM130100 VRB03KT P6SM BKN250 FM131400 22005KT P6SM SCT250",
    "KMSP": "TAF KMSP 122108Z 1221/1324 22010KT P6SM FEW045 FM130200 21005KT P6SM SKC FM131500 23010KT P6SM SKC",
    "CYEG": "TAF CYEG 122040Z 1221/1318 34010KT P6SM FEW040 BECMG 1221/1223 27015G25KT FM130000 27015G25KT P6SM SKC BECMG 1301/1303 32008KT BECMG 1308/1310 VRB03KT FM131600 22005KT P6SM SKC RMK NXT FCST BY 130000Z",
    "EHAM": "TAF EHAM 121655Z 1218/1324 04014KT CAVOK BECMG 1221/1223 02008KT BKN012 PROB30 TEMPO 1303/1306 BKN008 BECMG 1306/1308 05011KT CAVOK",
    "EBBR": "TAF EBBR 121705Z 1218/1324 04012KT CAVOK",
    "EDDF": "TAF EDDF 121700Z 1218/1324 05008KT CAVOK",
    "EDFH": "TAF EDFH 121700Z 1218/1318 08007KT CAVOK",
    "EDDL": "TAF EDDL 121700Z 1218/1324 03009KT CAVOK BECMG 1221/1224 01004KT BECMG 1307/1310 02009KT",
    "EDDK": "TAF EDDK 121700Z 1218/1324 04007KT CAVOK BECMG 1220/1223 VRB03KT BECMG 1308/1311 02007KT BECMG 1319/1322 08004KT",
    "EBLG": "TAF EBLG 121705Z 1218/1324 04012KT CAVOK",
    "LSZH": "TAF LSZH 122025Z 1221/1403 08004KT CAVOK TX32/1315Z TN14/1303Z TEMPO 1321/1403 9999 FEW070TCU PROB30 TEMPO 1321/1403 28012KT TSRA FEW070CB",
    "LIMC": "TAF LIMC 121700Z 1218/1324 VRB05KT CAVOK TEMPO 1315/1320 TSRA",
    "LIRF": "TAF AMD LIRF 121734Z 1218/1324 28012KT CAVOK BECMG 1222/1224 05006KT BECMG 1308/1310 21010KT BECMG 1314/1316 27012KT BECMG 1320/1322 VRB05KT",
    "EINN": "TAF EINN 121700Z 1218/1318 07012KT 9999 FEW036 BECMG 1220/1222 04007KT BECMG 1306/1308 07010KT",
    "EGLL": "TAF EGLL 121652Z 1218/1324 06014KT CAVOK PROB40 TEMPO 1303/1308 BKN014 PROB30 TEMPO 1323/1324 BKN012",
    "EGSS": "TAF EGSS 121659Z 1218/1324 05012KT CAVOK TEMPO 1218/1220 07015G25KT TEMPO 1223/1311 BKN014 PROB30 TEMPO 1302/1309 6000 -DZ BKN008 PROB40 TEMPO 1308/1320 07015G25KT PROB30 TEMPO 1322/1324 BKN008",
    "EPWA": "TAF EPWA 122030Z 1221/1321 31005KT 9999 BKN030 TEMPO 1302/1309 BKN004 BKN012 PROB30 TEMPO 1303/1309 -SHRA BKN020CB TEMPO 1310/1321 -SHRA SCT020CB PROB30 TEMPO 1316/1320 3000 TSRA BKN014CB ",
    "UHPP": "TAF UHPP 121932Z 1221/1403 34003G08MPS 9999 SCT050 TEMPO 1302/1308 18005MPS",
    "EFHK": "TAF EFHK 122025Z 1221/1321 34008KT CAVOK PROB30 TEMPO 1221/1224 FEW060CB PROB30 1312/1316 FEW030TCU",
    "LBBG": "TAF LBBG 121700Z 1218/1318 12012KT 9999 SCT045 BECMG 1219/1220 VRB04KT PROB40 TEMPO 1301/1307 5000 TSRA SCT030CB BKN050 TEMPO 1310/1317 VRB15G25KT 4000 TSRA SCT030CB BKN050",
    "LTAC": "TAF LTAC 121640Z 1218/1318 VRB02KT CAVOK TEMPO 1220/1224 03012KT BECMG 1309/1311 FEW040 BECMG 1316/1318 CAVOK",
    "UBBB": "TAF UBBB 121713Z 1218/1318 32012KT CAVOK TX31/1310Z TN22/1301Z TEMPO 1218/1304 34016KT SCT010 FEW060CB TEMPO 1304/1312 34016KT FEW030",
    "UTAA": "TAF UTAA 121645Z 1218/1318 33016KT 6000 SCT050 TX40/1311Z TEMPO 1218/1224 27012G22KT TEMPO 1302/1310 30016G26KT 3000 BLDU BECMG 1316/1318 25014KT",
    "UACC": "TAF UACC 121700Z 1218/1318 VRB01MPS 9999 SCT040 BKN100 TX35/1309Z TN16/1224Z TEMPO 1305/1316 25005MPS SCT030CB PROB40 TEMPO 1308/1316 -TSRA BKN030CB",
    "UAAA": "TAF UAAA 121703Z 1218/1318 19002MPS 9999 SCT050CB BKN100 TX32/1310Z TN21/1301Z BECMG 1302/1304 32005MPS TEMPO 1308/1312 27006G12MPS 5000 -TSRA BLDU BECMG 1314/1316 17002MPS",
    "UZTT": "TAF UZTT 121700Z 1218/1318 09010KT 7000 NSC TX39/1311Z TN25/1300Z TEMPO 1218/1224 32015KT",
    "ZWWW": "TAF ZWWW 122105Z 1300/1406 18004MPS CAVOK TX38/1309Z TX37/1406Z TN27/1323Z BECMG 1302/1303 36004MPS BECMG 1313/1314 18004MPS BECMG 1402/1403 36004MPS",
    "ZLXY": "TAF ZLXY 122101Z 1300/1324 06004MPS 6000 NSC TX35/1308Z TN26/1321Z",
    "ZBAA": "TAF ZBAA 122103Z 1300/1406 36004MPS CAVOK TX33/1306Z TX31/1406Z TN23/1321Z",
    "ZBHH": "TAF ZBHH 122102Z 1300/1324 10004MPS 9999 FEW040 TX31/1308Z TN17/1322Z",
    "ZSQD": "TAF AMD ZSQD 122147Z 1300/1324 13005G12MPS 5000 -RA BR BKN008 TX28/1306Z TN25/1320Z BECMG 1300/1301 13008G17MPS TEMPO 1310/1314 RA BECMG 1312/1313 12005G12MPS TEMPO 1314/1318 2500 +RA",
    "ZMCK": "TAF COR ZMCK 121649Z 1218/1324 VRB02MPS 9999 FEW030CB SCT033 TN07/1221Z TX23/1307Z PROB40 TEMPO 1218/1222 VRB08MPS TSRA SCT027CB SCT030 PROB40 TEMPO 1303/1312 VRB09G14MPS TSRA SCT027CB SCT030 BECMG 1305/1308 33007MPS BECMG 1310/1312 VRB02MPS",
    "UUEE": "TAF UUEE 121957Z 1221/1321 36003G08MPS 9000 BKN004 TX22/1312Z TN16/1301Z TEMPO 1221/1305 0300 FG OVC002 BECMG 1305/1307 BKN016 TEMPO 1307/1318 01012G18MPS 2000 TSRA BKN016CB",
    "UUDD": "TAF UUDD 121951Z 1221/1403 01003MPS 3000 BR BKN005 TX23/1313Z TN15/1301Z TEMPO 1221/1304 0300 FG BKN002 BECMG 1304/1306 9999 NSW BKN016 TEMPO 1308/1320 01008G15MPS -TSRA BKN016CB",
    "ULLI": "TAF ULLI 121954Z 1221/1321 35003MPS 6000 SCT016 TEMPO 1300/1303 1500 BR PROB40 TEMPO 1307/1315 01005G10MPS -TSRA BKN016CB",
    "USSS": "TAF USSS 121955Z 1221/1321 36003G08MPS 6000 SCT011 TEMPO 1221/1303 0300 -TSRA FG VV003 FM130300 05003G14MPS 9999 BKN020CB TEMPO 1303/1321 -TSRAGR BKN016CB",
    "UNNT": "TAF UNNT 122000Z 1221/1321 02003G08MPS 8000 SCT040 TX27/1309Z TN11/1221Z BECMG 1302/1306 23005G10MPS BECMG 1307/1311 30003G08MPS TEMPO 1312/1321 -TSRA BKN020CB",
    "UNKL": "TAF UNKL 121945Z 1221/1321 12003G08MPS 8000 NSC",
    "UIBB": "TAF UIBB 122000Z 1221/1321 30003MPS 0300 RA FG BKN001 TEMPO 1221/1302 4000 -RA BR FEW003 BKN011 BECMG 1302/1303 9999 -SHRA BKN016CB TEMPO 1303/1313 VRB08MPS",
    "UEEE": "TAF UEEE 122000Z 1221/1403 05003G10MPS 9999 SCT025CB OVC100 TX27/1306Z TN16/1221Z TEMPO 1221/1309 VRB12MPS 3200 -TSRA SCT010 BKN020CB OVC100 TEMPO 1309/1321 VRB17MPS 2100 -TSRA SQ SCT007 BKN017CB OVC100",
    "UHHH": "TAF UHHH 121959Z 1221/1403 18003MPS 5000 -SHRA BR FEW010 SCT017CB TX29/1305Z TN22/1318Z TEMPO 1221/1309 VRB09MPS 1000 TSRA SCT004 BKN016CB",
    "UHSS": "TAF AMD UHSS 122123Z 1221/1403 36003MPS 9999 BKN005 BKN017CB TEMPO 1221/1223 BKN003 BKN016CB BECMG 1223/1301 BKN020CB BECMG 1302/1304 16003MPS"
  },
  "atis": {
    "RJAA": "[Arrival ATIS] RJAA ARR ATIS S 1006Z M1000 (APCH)ILS Z RWY34R LDG RWY 34R DEP RWY 34L DEP FREQ 124.2. TWY A1 CLSD. OBSERVE GEAR DOWN OPS PROC ON FNL. M 211000Z 04007KT 010V070 25KM FEW012CU SCT060AC BKN/// 22/19 Q0999/A2950= Q/TWO NINE FIVE ZERO STP\n[Departure ATIS] RJAA DEP ATIS S 1014Z M1000 (APCH)ILS Z RWY34R LDG RWY 34R DEP RWY 34L DEP FREQ 124.2. TWY A1 CLSD. OBSERVE GEAR DOWN OPS PROC ON FNL. M 211000Z 04007KT 010V070 25KM FEW012CU SCT060AC BKN/// 22/19 Q0999/A2950= Q/TWO NINE FIVE ZERO STP",
    "PANC": "[Arrival ATIS] PANC ARR ATIS N 0953Z ANC ATIS INFO N 0953Z. 20006KT 10SM FEW030 FEW060 SCT130 11/07 A3019 (THREE ZERO ONE NINER) RMK AO2 SLP225 T01060072. 7R APPROACHES IN USE. LANDING RWY 7R, DEPARTING RWY 33. NOTICE TO AIRMEN. RWY 7L CLSD. CHECK NOTAMS FOR TAXIWAY CLOSURES. CAUTION FOR BIRD ACTIVITY IN THE ARPT AREA. CONTACT TOWER 118.3 FOR TAXI. ...ADVS YOU HAVE INFO N.\n[Departure ATIS] PANC DEP ATIS L 0753Z ANC ATIS INFO L 0753Z. 22006KT 10SM FEW050 FEW130 SCT200 11/08 A3018 (THREE ZERO ONE EIGHT) RMK AO2 SLP222 T01110078. 7R APPROACHES IN USE. LANDING RWY 7R, DEPARTING RWY 33. NOTICE TO AIRMEN. RWY 7L CLSD. CHECK NOTAMS FOR TAXIWAY CLOSURES. CAUTION FOR BIRD ACTIVITY IN THE ARPT AREA. CONTACT TOWER 118.3 FOR TAXI. ...ADVS YOU HAVE INFO L.",
    "KSEA": "[Arrival ATIS] KSEA ARR ATIS M 0853Z SEA ATIS INFO M 0853Z. 17004KT 10SM CLR 12/09 A3007 (THREE ZERO ZERO SEVEN). ILS AND CHARTED VISUAL APPROACH RWY 16C , APCH IN USE. DEPG RWY 16L. SIMUL APCHS IN USE, BFI & SEA. TRAFFIC BELOW YOU ON FINAL. NOTAMS... RWYS 16R CLSD. BIRD ACTIVITY VICINITY ARPT. APCH AND DEP PATHS ARE OVER NOISE SENSITIVE AREAS. ...ADVS YOU HAVE INFO M.\n[Departure ATIS] KSEA DEP ATIS D 1953Z SEA ATIS INFO D 1953Z. 25006KT 10SM FEW030 FEW070 BKN120 19/07 A3015 (THREE ZERO ONE FIVE). ILS AND CHARTED VISUAL APPROACH RWYS 34L AND 34R , APCH IN USE. DEPG RWY 34R. SIMUL ARRIVALS TO RWY 34L AND DEPARTURES TO RWY 34R ARE IN USE. SIMUL APCHS IN USE TO PARA RYS. NOTAMS... BIRD ACTIVITY VICINITY ARPT. ...ADVS YOU HAVE INFO D.",
    "ZSPD": "[Arrival ATIS] ZSPD ARR ATIS R 1000Z EXP ILS APCH INDEPENDENT PARL INSTR APCH LDG RWY 17R & 16L WIND RWY 17R TDZ 130/4MPS MID 120/3MPS VRB BTN 090/ AND 160/ END 130/3MPS RWY 16L TDZ 140/4MPS MID 120/4MPS END 130/5MPS VIS RWY 17R TDZ 7000M MID 7000M END 9000M VIS RWY 16L TDZ 10000M MID 10000M END 10000M CLD FEW 390M T 25 /DP 23 QNH 1008 HPA CAUTION THE BIRDS NEAR THE RUNWAY ADZ YOU HAVE INFO R.\n[Departure ATIS] ZSPD DEP ATIS P 0900Z DEP RWY 17L & 16R WIND RWY 17L TDZ 130/4MPS MID 130/4MPS END 110/4MPS RWY 16R TDZ 140/4MPS MID 130/5MPS END 140/5MPS VIS RWY 17L TDZ 10000M MID 10000M END 10000M VIS RWY 16R TDZ 10000M MID 10000M END 10000M CLD FEW 390M T 26 /DP 22 QNH 1008 HPA CAUTION THE BIRDS NEAR THE RUNWAY ADZ YOU HAVE INFO P.",
    "ZSSS": "[Arrival ATIS] ZSSS ARR ATIS L 1000Z EXP ILS APCH LDG RWY 18L WIND RWY 18L TDZ 140/3MPS MID 130/4MPS END 120/4MPS VIS RWY 18L TDZ 10000M MID 10000M END 10000M CLD SCT 600M T 26 /DP 23 QNH 1008 HPA QNH OF SHANGHAI TERMINAL CONTROL AREA 1008 HPA ADZ YOU HAVE INFO L.\n[Departure ATIS] ZSSS DEP ATIS L 1000Z DEP RWY 18R WIND RWY 18R TDZ 130/4MPS MID 130/4MPS END 130/3MPS VIS RWY 18R TDZ 9000M MID 9000M END 8000M CLD SCT 600M T 26 /DP 23 QNH 1008 HPA QNH OF SHANGHAI TERMINAL CONTROL AREA 1008 HPA ADZ YOU HAVE INFO L.",
    "VHHH": "[Arrival ATIS] VHHH ARR ATIS M 0933Z ARRIVALS, RWY 25R. EXP RNAV TRANSITION TO ILS APCH, RWY 25R. RNP APCH IS AVBL ON REQ, RWY 25R. WIND 200/11KT. VIS 10KM. CLD FEW 1200FT. T31 DP24. QNH 1007HPA. ACK INFO M ON FIRST CTC WITH APP.\n[Departure ATIS] VHHH DEP ATIS N 0934Z DEPARTURES, RWY 25L. WIND 180/07KT. VIS 10KM. CLD FEW 1200FT. T31 DP24. QNH 1007HPA. ACK INFO N ON FIRST CTC WITH DELIVERY .",
    "RCTP": "[Arrival ATIS] RCTP ARR ATIS G 1000Z EXP ILS APCH RWY23R FOR ARR. RWY23L FOR DEP. WIND 250/08KT VARYING BTN 220 AND 280 VIS 10 KM OR MORE CLD FEW 2000FT T 32 DP 24 QNH 1008HPA NOSIG CTN BIRD ACTIVITY IN THE VCY OF THE AD. DUE TO FLOW CONTROL BY HONGKONG F-I-R, TRAFFIC CONCERNED MAY BE DELAYED. INFORM TAIPEI APCH OR TAIPEI TOWER ON INITIAL CONTACT YOU HAVE INFORMATION G\n[Departure ATIS] RCTP DEP ATIS C 0800Z EXP ILS APCH RWY23R FOR ARR. RWY23L FOR DEP. WIND 250/14KT VIS 10 KM OR MORE CLD FEW 2000FT T 34 DP 23 QNH 1007HPA NOSIG CTN BIRD ACTIVITY IN THE VCY OF THE AD. DUE TO FLOW CONTROL BY FUKUOKA F-I-R, TRAFFIC CONCERNED MAY BE DELAYED. INFORM TAIPEI APCH OR TAIPEI TOWER ON INITIAL CONTACT YOU HAVE INFORMATION C",
    "ZGSZ": "[Arrival ATIS] ZGSZ ARR ATIS V 1000Z EXP ILS APCH 15 EXP ILS OR VIS APCH 16R WIND 170/7MPS VIS 9999M CLD FEW 600M T 30 /DP 27 QNH 1007 HPA INDEPENDENT PARALLEL DEPARTURES DEPENDENT PARALLEL APPROACHES V17,V18 AVAILABLE AFTER SULAS FLY HEADING 040 MISSED APPROACH ALTITUDE SETTING 1200METERS WHEN AIRBORNE CONTACT ZHUHAI APPROACH EXPECTED RNP ILS DME Z APPROACH ADZ YOU HAVE INFO V.\n[Departure ATIS] ZGSZ DEP ATIS U 0930Z DEP RWY 15 & 16L WIND 170/7MPS VIS 9999M CLD FEW 600M T 30 /DP 27 QNH 1007 HPA INDEPENDENT PARALLEL DEPARTURES DEPENDENT PARALLEL APPROACHES V17,V18 AVAILABLE AFTER SULAS FLY HEADING 040 MISSED APPROACH ALTITUDE SETTING 1200METERS WHEN AIRBORNE CONTACT ZHUHAI APPROACH EXPECTED RNP ILS DME Z APPROACH ADZ YOU HAVE INFO U.",
    "WSSS": "[Arrival ATIS] WSSS ARR ATIS P 1030Z METREPORT 1030Z ILS APCHRWY 02L SIMUL INDEPENDENT ILS AND VISUAL APPROACHES ARE BEING CONDUCTED ON RWY 02. TWY W 9 CLOSED, RWY 02C 20C RAPID EXIT TAXIWAY INDICATOR LIGHTS OFF WIND VRB/ 07KT VIS 10KM CLD FEW 1500FT FEW TCU 1800FT T29 DP25 QNH 1010HPA CHANGI AD 6 VALID 1015/ 1045 TS N APCH MOV NW 5KT OBS NC NOSIG ACK ATIS P\n[Departure ATIS] WSSS DEP ATIS M 0930Z METREPORT 0930Z RWY 20C SIMUL INDEPENDENT ILS AND VISUAL APPROACHES ARE CONDUCTED ON RWY 20. TWY W 9 CLOSED, RWY 02C 20C RAPID EXIT TAXIWAY INDICATOR LIGHTS OFF WIND 180/ 08KT VIS 10KM CLD FEW 1500FT FEW CB 1800FT FEW TCU 2000FT SCT 4000FT T30 DP24 QNH 1009HPA CHANGI AD 4 VALID 0900/ 0945 TS N APCH MOV NW 5KT OBS NC BECMG FM1000 TL1015 NSW DEP,INITIAL CMB 3000FT ACK ATIS M",
    "WMKK": "[Arrival ATIS] WMKK ARR ATIS G 2205Z WMKK ARR INFO G. TIME 2200. INDEPENDENT PARALLEL APPROACHES FOR RWY 14 L AND 15 ARE IN PROGRESS. EXP RNAV / ILS APCH FOR RWY 14 LEFT. EXP RNAV / ILS APCH FOR RWY 15. WIND RWY 14L 110 DEG, 4 KT, VRB BTN 060 AND 170 DEG. WIND RWY 15 090 DEG, 3 KT. VIS RWY 14L TDZ 9 KM. VIS RWY 15 TDZ 8 KM. CLD FEW 3000 FT. T 27. DP 25. QNH 1007. NOSIG. AT FIRST CONTACT WITH LUMPUR RADAR, NOTIFY RCPT OF G\n[Departure ATIS] WMKK DEP ATIS X 0735Z WMKK DEP INFO X. TIME 0730. INDEPENDENT PARALLEL DEPARTURES FOR RWY 14 R AND 15 ARE IN PROGRESS. RWY 14 RIGHT. RWY 15. WIND RWY 14R DIRECTION NOT AVBL SPEED NOT AVBL. WIND RWY 15 DIRECTION NOT AVBL SPEED NOT AVBL. VIS RWY 14R TDZ NOT AVBL. VIS RWY 15 TDZ NOT AVBL. WX VCSH. CLD FEW CB 1700 FT, CLD SCT 1800 FT. T 33. DP 25. QNH 1008. NOSIG. ALL DEP ACFT TO CONTACT LUMPUR DEP AT 135 DECIMAL 25 MHZ WHEN ABN. AT FIRST CONTACT WITH LUMPUR GROUND, NOTIFY RCPT OF X",
    "VTBS": "[Arrival ATIS] VTBS ARR ATIS B 1000Z VTBS ARR ATIS B 1001Z SIMULTANEOUS INDEPENDENT PARL APCH IN PROGRESS EXP ILS Z APCH ARR RWY 19 OR RNP APCH RWY 20R , ,PILOT SHALL ADZ BKK APCH ON INITIAL CTC IF UNA TO CONDUCT RNP APCH DUE TO OPERATIONAL CONSTRAINT 1000Z WIND 170/12KT VIS 10KM CLD FEW 2000FT T32 DP22 QNH 1008HPA CB IN APCH TREND NOSIG ADZ BKK APCH ON INITIAL CONTACT THAT YOU HAVE INFO B\n[Departure ATIS] VTBS DEP ATIS K 1000Z VTBS DEP ATIS K 1001Z DEP RWY 20L , ,AFT AIRBORNE ALL DEPARTING ACFT SHALL CTC 119.25 1000Z WIND 190/11KT VIS 10KM CLD FEW 2000FT T32 DP22 QNH 1008HPA CB IN APCH TREND NOSIG ADZ GND WHEN INITIAL CONTACT YOU HAVE INFO K",
    "VTBU": "[Arrival ATIS] VTBU ARR ATIS U 0430Z VTBU ARR ATIS U 0430Z RNP RWY 18 TRL FL130 MOBILE ACFT ARST SYSTEM INSTL ATP SIX HUNDRED AND TEN METERS FM THR RWY 36 CABLE HGT 3 INCHES. 0430Z WIND 360/6KT VRB BTN 320/ AND 020/ VIS 10KM CLD FEW 2000FT T34 DP27 QNH 1010HPA TREND NOSIG ADZ CONTROLLER WHEN INITIAL CONTACT YOU HAVE INFO U\n[Departure ATIS] VTBU DEP ATIS D VTBU ARR/DEP DATIS RPT VTBU ARR ATIS D 0330Z ILS \"Z\" APCH RWY 18 TRL FL130 0330Z WIND 110/4KT VRB BTN 350/ AND 120/ VIS 6KM CLD FEW 2000FT T31 DP27 QNH 1014HPA TREND NOSIG ADZ CONTROLLER WHEN INITIAL CONTACT YOU HAVE INFO D",
    "ROAH": "[Arrival ATIS] ROAH ARR ATIS L 1018Z M1000 (APCH)RNP RWY18R LDG RWY 18R DEP RWY 18L DEP FREQ 126.5 258.3 M 211000Z 21006KT 50KM FEW010CU 27/26 Q1010/A2984= Q/TWO NINE EIGHT FOUR STP\n[Departure ATIS] ROAH DEP ATIS I 0557Z M0530 (APCH)ILS RWY18R LDG RWY 18R DEP RWY 18L DEP FREQ 126.5 258.3 M 120530Z 17022KT 15KM FEW010CU SCT012CU BKN/// 29/26 Q1009/A2980= Q/TWO NINE EIGHT ZERO STP",
    "VVDN": "[Arrival ATIS] VVDN ARR ATIS X 0902Z VVDN INFO X 0902Z. ILS VICTOR APPROACH 35L.. DPTG RWY 35R.. 0902Z. WIND 110/10KT CAVOK T33 DP27 QNH 1006HPA TREND NOSIG. ADZ ON INITIAL CTC YOU HAVE INFO. X.\n[Departure ATIS] VVDN DEP ATIS N 0423Z VVDN INFO N 0423Z. ILS VICTOR APPROACH 35L.. DPTG RWY 35R.. 0423Z. WIND 010/02KT CAVOK T36 DP24 QNH 1008HPA TREND NOSIG. WS ALL RWY. ADZ ON INITIAL CTC YOU HAVE INFO. N.",
    "RCKH": "[Arrival ATIS] RCKH ARR ATIS W 0930Z EXPECT ILS APPROACH RWY 27 ARR/DEP TAXIWAY JULIETT, TAXIWAY BRAVO, TAXIWAY DELTA AND TAXIWAY ECHO CLOSED DUE MAINTENANCE. RUNWAY 2 7 ARRIVALS PLAN VACATE VIA CHARLIE OR ALPHA AND EXPEDITE VACATE. WIND 310/08KT VARYING BTN 260 AND 350 VIS 10 KM OR MORE CLD FEW 2400FT T 31 DP 24 QNH 1008HPA NOSIG CAUTION BIRD ACTIVITY IN VICINITY OF THE AERODROME. INFORM KAO-HSIUN APCH OR KAO-HSIUN TOWER ON INITIAL CONTACT YOU HAVE INFORMATION W\n[Departure ATIS] RCKH DEP ATIS L 1300Z EXPECT ILS APPROACH RWY 09 ARR/DEP RWY SFC RWY 09 SFC COND 5/5/5 ISSUED AT 0930Z. 50/50/50 NR/NR/NR WET/WET/WET TAXIWAY JULIETT, TAXIWAY BRAVO, TAXIWAY DELTA AND TAXIWAY",
    "KLAX": "[Arrival ATIS] KLAX ARR ATIS O 0953Z LAX ATIS INFO O 0953Z. 24007KT 10SM CLR 16/14 A2990 (TWO NINER NINER ZERO) RMK AO2 SLP121 T01610139. INST APCHS AND RNAV RNP APCHS 6R, SIMUL INSTR DEPARTURES IN PROG 25R. CTC L A GC ON 121.75 FOR PUSH OR TAXI ON A. TWY C CLSD BTN TWY, C8 AND TWY C9 , , TWY B CLSD BTN TWY, F AND TWY B1, TWY B1 CLSD. ILS RY 25R OTS, RY 25R SFL OTS, RY 24L ALSF-2 OTS. LAX VOR UNMONITORED. IF ASSIGNED RUNWAY 25R FOR DEPARTURE, EXPECT DEPARTURE FROM INTERSECTION FOXTROT. TAXILANE CHARLIE EIGHT RESTRICTED TO AIRCRAFT WITH A WINGSPAN LESS THAN ONE HUNDRED EIGHTEEN FEET. USE CAUTION FOR INCREASED DRONE ACTIVIY IN THE VICINITY OF SOFI STADIUM AT OR BELOW 200FT AGL DURING THE WORLD CUP FROM 06/12/26 THROUGH 07/10/2026. HAZD WX INFO FOR LAX AREA AVBL FM FSS. BIRD ACTIVITY VICINITY ARPT. TWR FREQ FOR ALL RWYS IS 120.95. CD AND GC FREQ IS 121.75. INCLUDE YOUR CALL SIGN IN ALL READBACKS. USE CAUTION WHEN EXITING RY24R AT TWY V, W, AND Y, TO HOLD SHORT OF RY24L. MULTIPLE RUNWAY INCURSIONS HAVE OCCURRED. ...ADVS YOU HAVE INFO O.\n[Departure ATIS] KLAX DEP ATIS O 0953Z LAX ATIS INFO O 0953Z. 24007KT 10SM CLR 16/14 A2990 (TWO NINER NINER ZERO) RMK AO2 SLP121 T01610139. INST APCHS AND RNAV RNP APCHS 6R, SIMUL INSTR DEPARTURES IN PROG 25R. CTC L A GC ON 121.75 FOR PUSH OR TAXI ON A. TWY C CLSD BTN TWY, C8 AND TWY C9 , , TWY B CLSD BTN TWY, F AND TWY B1, TWY B1 CLSD. ILS RY 25R OTS, RY 25R SFL OTS, RY 24L ALSF-2 OTS. LAX VOR UNMONITORED. IF ASSIGNED RUNWAY 25R FOR DEPARTURE, EXPECT DEPARTURE FROM INTERSECTION FOXTROT. TAXILANE CHARLIE EIGHT RESTRICTED TO AIRCRAFT WITH A WINGSPAN LESS THAN ONE HUNDRED EIGHTEEN FEET. USE CAUTION FOR INCREASED DRONE ACTIVIY IN THE VICINITY OF SOFI STADIUM AT OR BELOW 200FT AGL DURING THE WORLD CUP FROM 06/12/26 THROUGH 07/10/2026. HAZD WX INFO FOR LAX AREA AVBL FM FSS. BIRD ACTIVITY VICINITY ARPT. TWR FREQ FOR ALL RWYS IS 120.95. CD AND GC FREQ IS 121.75. INCLUDE YOUR CALL SIGN IN ALL READBACKS. USE CAUTION WHEN EXITING RY24R AT TWY V, W, AND Y, TO HOLD SHORT OF RY24L. MULTIPLE RUNWAY INCURSIONS HAVE OCCURRED. ...ADVS YOU HAVE INFO O.",
    "KONT": "[Arrival ATIS] KONT ARR ATIS F 0853Z ONT ATIS INFO F 0853Z. 28003KT 6SM HZ CLR 16/11 A2991 (TWO NINER NINER ONE). ILS AND VIS APR IN USE, RY26L & RY26R. LNDG AND DEPG RY 26L AND RY 26R. NOTAMS... TAXIWAY SIERRA CLSD BETWEEN SIERRA 8 AND W TAXIWAY Q SOUTH OF RWY 26L CLSD TAXIWAY T CLSD TAXIWAY SIERRA 5 CLSD. RY 26L IM OTS. PILOTS READBACK RWY ASSIGNMENTS AND HOLD SHORT INSTRUCTIONS. ...ADVS YOU HAVE INFO F.\n[Departure ATIS] KONT DEP ATIS N 0553Z - KONT ATIS INFO N 0553Z. 24004KT 10SM BKN250 22/15 A2988 (TWO NINER EIGHT EIGHT) RMK AO2 SLP100. ILS AND VIS APR IN USE, RY26L & RY26R. LNDG AND DEPG RY 26L AND RY 26R. NOTAMS... TAXIWAY SIERRA CLSD BETWEEN SIERRA 8 AND W TAXIWAY Q SOUTH OF RWY 26L CLSD TAXIWAY T CLSD TAXIWAY SIERRA 5 CLSD. RY 26L IM OTS, RY 26R ALS OTS. USE CAUTION FOR NUMEROUS BIRDS OBSERVED IN VICINITY OF ONT. HAZD WX INFO FOR SOUTHERN CA AVBL ON FSS FREQUENCIES. PILOTS READBACK RWY ASSIGNMENTS AND HOLD SHORT INSTRUCTIONS. ...ADVS YOU HAVE INFO N.",
    "KSFO": "[Arrival ATIS] KSFO ARR ATIS B 2056Z SFO ATIS INFO B 2056Z. 30012KT 10SM FEW170 BKN200 22/13 A2994 (TWO NINER NINER FOUR). SIMUL CLSLY SPCD DPNDNT ILS RY 28R AND ILS RY 28L APP IN USE. DEPG RWYS 28L, 28R. RY 1L, 1R CLSD. NUMEROUS TWY CLOSURES FOR CONSTRUCTION ON THE FIELD, PILOTS CHECK NOTAMS. ORACLE PARK TFR IN EFFECT. DEPG ACFT WAITING ON FINAL NUMBERS ADVISE GROUND PRIOR TO ENTERING TWY F. ...ADVS YOU HAVE INFO B.\n[Departure ATIS] KSFO DEP ATIS U 1456Z SFO ATIS INFO U 1456Z. 31008KT 10SM FEW006 SCT150 BKN170 16/12 A2992 (TWO NINER NINER TWO). SIMUL CLSLY SPCD DPNDNT ILS RY 28R AND ILS RY 28L APP IN USE. DEPG RWYS 28L, 28R. RY 1L, 1R CLSD. NUMEROUS TWY CLOSURES FOR CONSTRUCTION ON THE FIELD, PILOTS CHECK NOTAMS. DEPG ACFT WAITING ON FINAL NUMBERS ADVISE GROUND PRIOR TO ENTERING TWY F. ...ADVS YOU HAVE INFO U.",
    "KOAK": "[Arrival ATIS] KOAK ARR ATIS T 2053Z - KOAK ATIS INFO T 2053Z. 25015KT 10SM FEW008 20/13 A2994 (TWO NINER NINER FOUR). RNAV, AND VA, RWY 30. ILS, AND VA, RWY 28R. FLOW TO LAX, LAS, SAN, SEA. RWY 28L CLSD. TAXIWAYS GOLF, HOTEL, PAPA, JULIET BETWEEN RUNWAYS 28 RIGHT AND 28 LEFT CLOSED. ILS RWY 30, OTS, RWY 28R RAIL, OTS. UNN LIT CLOSE-IN OBSTACLES FOR RWY 30 DEPARTURES. RWY 30 DEPARTURES ARE ADVISED TO AVOID TURNING LEFT PRIOR TO DEPARTURE END OF RUNWAY. CTN, CRANE 1 POINT 6 NAUTICAL MILES, , AT 140 FEET AGL. CAUTION, BIRDS NEAR AIRPORT. ...ADVS YOU HAVE INFO T.\n[Departure ATIS] KOAK DEP ATIS O 1953Z OAK ATIS INFO O 1953Z. 28014KT 10SM FEW005 22/14 A2988 (TWO NINER EIGHT EIGHT). RNAV Z/VA RWY 30 ILS/VA RWY 28R. FLOW TO LAX, LAS, SAN. ILS RWY 30, OTS. UNN LIT CLOSE-IN OBSTACLES FOR RWY 30 DEPARTURES. RWY 30 DEPARTURES ARE ADVISED TO AVOID TURNING LEFT PRIOR TO DEPARTURE END OF RUNWAY. SIGNATURE UNI-COM OUT OF SERVICE. CAUTION, BIRDS NEAR AIRPORT. ...ADVS YOU HAVE INFO O.",
    "KDFW": "[Arrival ATIS] KDFW ARR ATIS V 0953Z DFW ARR INFO V 0953Z. 20010KT 10SM FEW038 FEW250 24/21 A2981 (TWO NINER EIGHT ONE) RMK AO2 SLP085 T02440211. SIMUL VISUAL APCH TO RWYS, 18R, 17C. LDG RWY 17C EXP LAHSO TWY B 10460 FT AVAIL, LDG RWY 18R EXP LAHSO TWY B 10100 FT AVL. NOTICE TO AIRMEN. RWY 13L CLSD. RWY 13R CLSD. RWY 17L CLSD. WARNING, RWY 18L HAS BEEN SHORTENED, 9273 FT AVAILABLE. RWY 18L ILS OTS, CL OTS. BIRD ACTIVITY VCNTY ARPT. ...ADVS YOU HAVE INFO V.\n[Departure ATIS] KDFW DEP ATIS W 1553Z - KDFW DEP INFO W 1553Z. 21022G32KT 10SM FEW025 FEW180 SCT250 31/21 A2994 (TWO NINER NINER FOUR) RMK AO2 PK WND 20032/1547 SLP128 T03110206. SIMUL PARL TRAFFIC DEPG RWYS 17R, 18L. NOTICE TO AIRMEN. WARNING, RWY 18L HAS BEEN SHORTENED, 9273 FT AVAILABLE. RWY 18L CL OTS. BIRD ACTIVITY VCNTY ARPT. ...ADVS YOU HAVE INFO W.",
    "KIAH": "[Arrival ATIS] KIAH ARR ATIS U 0353Z - KIAH ATIS INFO U 0353Z. 18006KT 10SM SCT250 29/23 A2999 (TWO NINER NINER NINER). ARRIVALS EXPECT ILS OR RNAV Y RY 26L, ILS OR RNAV Y RY 8L. SIMUL APPROACHES IN USE. DEPG RY 15L. NOTICE TO AIRMEN. UAL RAMP PROCEDURES TERMINATED PUSH BACK AT PILOTS DISCRETION. RY 9, 27 CLSD. HAZD WX INFO FOR IAH AREA AVBL FM FSS. BIRD ACTIVITY VICINITY ARPT. CRANES ARE DOWN. TWY SA CLSD BTN TWY, SF AND TWY SK , TWY SB CLSD BTN TWY, SF AND TWY SK , , TWY WB CLSD BTN TWY, WG AND TWY WH . TWY SF CLSD BTN TWY, NB AND TWY RA . TWY EA CLSD. NOTAM ATIS IN USE ON FREQUENCY 126.225. ...ADVS YOU HAVE INFO U.\n[Departure ATIS] KIAH DEP ATIS T 0353Z IAH ATIS INFO T 0353Z. 15007KT 10SM FEW035 FEW180 BKN250 27/23 A2996 (TWO NINER NINER SIX). ARRIVALS EXPECT ILS OR RNAV Y RY 8R, ILS OR RNAV Y RY 8L. DEPG RY 15R. NOTICE TO AIRMEN. UNITED RAMP CONTROL IN EFFECT. RY 15L, 33R CLSD. HAZD WX INFO FOR IAH AREA AVBL FM FSS. BIRD ACTIVITY VICINITY ARPT. CRANES ARE DOWN. TWY SA CLSD BTN TWY, SF AND TWY SK , TWY SB CLSD BTN TWY, SF AND TWY SK , , TWY WB CLSD BTN TWY, WG AND TWY WH . TWY EA CLSD. NOTAM ATIS IN USE ON FREQUENCY 126.225. ...ADVS YOU HAVE INFO T.",
    "KORD": "[Arrival ATIS] KORD ARR ATIS M 2151Z ORD ATIS INFO M 2151Z. 04010KT 10SM FEW060 29/14 A3016 (THREE ZERO ONE SIX) RMK AO2 SLP209 T02940139. ARR EXP VECTORS ILS RWY 9L APCH, ILS RWY 10C APCH, VISUAL APCH RWY 10R. PILOTS EXP 2 INTCP THE ILS Y RY 10R FNA CRS. SIMUL APCHS IN USE. DEPS EXP RWYS 9C FROM F F 9200 FT AVL, 10L FROM DD. 10,093 FT AVBL. ATTN PILOTS. SIMUL PARL DEPS IN USE. EXP TO INITIALLY FLY RWY. HDG ON DEP. PILOTS MUST READ BACK DRCTN OF TURNS BY ATC. RWY 4L, 22R CLSD. RWY 22R LOC OTS, RWY 28L GS OTS, RWY 9L IM OTS, RWY 9C IM OTS, RWY 10L IM OTS, RWY 10R IM OTS, RWY 27R IM OTS, RWY 28L IM OTS, RWY 28R IM OTS, RWY 9L PAPI OTS, RWY 27R PAPI OTS. PILOTS USE CTN FOR BIRD ACTIVITY IN THE VICINITY OF THE ARPT. USE CTN FOR PERSONNEL AND EQUIP AT NUMEROUS SITES ON THE FIELD. READBACK ALL RWY HOLD SHORT INSTRUCTIONS. WHEN READY TO TAXI CONTACT GND METERING ON FREQ 121.67. ...ADVS YOU HAVE INFO M.\n[Departure ATIS] KORD DEP ATIS M 2151Z ORD ATIS INFO M 2151Z. 04010KT 10SM FEW060 29/14 A3016 (THREE ZERO ONE SIX) RMK AO2 SLP209 T02940139. ARR EXP VECTORS ILS RWY 9L APCH, ILS RWY 10C APCH, VISUAL APCH RWY 10R. PI",
    "KJFK": "[Arrival ATIS] KJFK ARR ATIS F 2151Z JFK ATIS INFO F 2151Z. 19010KT 10SM FEW060 FEW250 26/14 A3019 (THREE ZERO ONE NINER). APPROACH IN USE ILS RY 22L, ILS RY 22R. DEPG RY 22R, ACFT FILED OVER RBV OR DIXIE EXPECT RY 31L KE FOR DEP. RY 4R PAPI OTS. SWAP IN EFFECT EXPECT REROUTES. NUM CRANES OPERATING AT JFK. BIRD ACTIVITY VICINITY ARPT. READBACK ALL RWY ASSIGNMENTS AND HOLD SHORT INSTRUCTIONS. ...ADVS YOU HAVE INFO F.\n[Departure ATIS] KJFK DEP ATIS E 2051Z JFK ATIS INFO E 2051Z. 19012KT 10SM FEW060 FEW250 26/12 A3018 (THREE ZERO ONE EIGHT). APPROACH IN USE ILS RY 22L, ILS RY 22R. DEPG RY 22R, ACFT FILED OVER RBV OR DIXIE EXPECT RY 31L KE FOR DEP. RY 4R PAPI OTS. SWAP IN EFFECT EXPECT REROUTES. NUM CRANES OPERATING AT JFK. BIRD ACTIVITY VICINITY ARPT. READBACK ALL RWY ASSIGNMENTS AND HOLD SHORT INSTRUCTIONS. ...ADVS YOU HAVE INFO E.",
    "KIND": "[Arrival ATIS] KIND ARR ATIS O 0154Z - KIND ATIS INFO O 0154Z. 21004KT 10SM SCT035 SCT130 BKN180 OVC250 26/21 A2988 (TWO NINER EIGHT EIGHT). PARL ILS RWY 23R AND 23L APPROACHES IN USE. CROSS RUNWAY OPERATIONS MAY BE IN EFFECT. NOTICE TO AIRMEN. TWY, P BTN TWY, H AND TWY B CLSD, TWY, P BTN TWY, H AND TWY J CLSD, TWY, H BTN TWY, R AND TWY N CLSD. P PAD CLSD. ILS RUNWAY 5R AND RUNWAY 5L INNER MARKER UNSERVICEABLE. HIWAS. ARPT ADZY FLOCK OF LARGE BIRDS IN THE VICINITY OF THE AIRPORT, ALT UNKN. ...ADVS YOU HAVE INFO O.\n[Departure ATIS] KIND DEP ATIS H 1854Z IND ATIS INFO H 1854Z. 26009G19KT 10SM SCT036 BKN041 BKN170 23/16 A2981 (TWO NINER EIGHT ONE) RMK AO2 SLP088 T02280156. PARL ILS RWY 23R AND 23L APPROACHES IN USE. CROSS RU",
    "KDTW": "[Arrival ATIS] KDTW ARR ATIS G 0953Z DTW ARR INFO G 0953Z. 33003KT 9SM BKN250 13/11 A2996 (TWO NINER NINER SIX) RMK AO2 SLP143 T01330111. SIMUL VISUAL RY 21L, RY 22R USE Z LOC FREQ 111.95 APCH IN USE. NOTICE TO AIRMEN. RWY 22L, 4R CLSD, RWY 27L, 9R CLSD, RWY 27R, 9L CLSD. PILOTS USE CTN FOR BIRD ACTIVITY. DEPARTURE ATIS 118.125. ...ADVS YOU HAVE INFO G.\n[Departure ATIS] KDTW DEP ATIS Q 2253Z - KDTW DEP INFO Q 2253Z. 21009KT 10SM FEW050 FEW250 33/24 A2991 (TWO NINER NINER ONE). DEPG RWY 21R, RWY 22L ;. NOTICE TO AIRMEN. RWY 27L, 9R CLSD, RWY 27R, 9L CLSD. PILOTS USE CTN FOR BIRD ACTIVITY. ...ADVS YOU HAVE INFO Q.",
    "KMSP": "[Arrival ATIS] KMSP ARR ATIS L 2153Z MSP ARR INFO L 2153Z. 23009G16KT 10SM FEW045 32/21 A3015 (THREE ZERO ONE FIVE). VISUAL RWY 30R APCH IN USE. NOTICE TO AIRMEN. RWYS 12R, 30L CLSD, RWYS 4, 22 CLSD. TWY R7. R8. R9. R10. CLOSED. TWY R BTWN R6 AND R10 CLSD, TWY A7 CLSD, TWY A CLSD BTN TWY, A7 AND TWY D. ILS RWY 30L OTS, GS RWY 12L OTS, RWYS 12R, 12L, INNER MARKER OTS. CTN, BIRDS NEAR MSP. READ BACK HS AND ALT. ALL ACFT TAXI WITH TRANSPONDER AND ALTITUDE ENCODING ON. ...ADVS YOU HAVE INFO L.\n[Departure ATIS] KMSP DEP ATIS W 2053Z - KMSP DEP INFO W 2053Z. 22013G19KT 10SM FEW045 32/21 A3016 (THREE ZERO ONE SIX). DEPARTING RWY 30R, RWY 17. NOTICE TO AIRMEN. TEMPO FLT RESTRICTIONS IN EFCT 3 MILE RADIUS MSP 339 RDL 5.4 DME FIX. RWYS 12R, 30L CLSD. TWY R7. R8. R9. R10. CLOSED. TWY R BTWN R6 AND R10 CLSD, TWY A7 CLSD, TWY A CLSD BTN TWY, A7 AND TWY D. ALL ACFT CTC METERING ON ONE THREE THREE POINT FIVE SEVEN WHEN READY TO PUSHBACK OR TAXI. CTN, BIRDS NEAR MSP. READ BACK HS AND ALT. ALL ACFT TAXI WITH TRANSPONDER AND ALTITUDE ENCODING ON. ...ADVS YOU HAVE INFO W.",
    "CYEG": "[Arrival ATIS] CYEG ARR ATIS G 2200Z CYEG ARR ATIS G 2200Z 34006KT 300V010 20SM FEW047 FEW250 22/11 A2984 APCH RNAV Z OR Y RWY 02, INFORM ARRL OF REQ APCH ON INITIAL CTC. LDG AND DEP RWY 02. SIMUL APPROACHES MAY BE IN EFCT. INFORM CYEG ATC INFO G\n[Departure ATIS] CYEG DEP ATIS E 2000Z CYEG ARR ATIS E 2000Z 35010KT 20SM FEW033 FEW250 22/15 A2982 APCH RNAV Z OR Y RWY 02, INFORM ARRL OF REQ APCH ON INITIAL CTC. LDG AND DEP RWY 02. SIMUL APPROACHES MAY BE IN EFCT. INFORM CYEG ATC INFO E",
    "EHAM": "[Arrival ATIS] EHAM ARR ATIS M 1726Z EHAM ARRIVAL INFO M. DEMAND. MAIN LANDING RWY 06. SECONDARY LANDING RWY 36 R. TRANSITION LEVEL 040. WIND 020 DEG, 15 KT, VRB BTN 350 AND 050 DEG, 21 KT MAX, 9 KT MNM. WIND S\n[Departure ATIS] EHAM DEP ATIS Y 2022Z EHAM DEPARTURE INFO Y. DEMAND. MAIN DEPARTURE RWY 36 L. MAIN LANDING RWY 06. WIND 010 DEG, 13 KT. VIS 10 KM OR MORE. CLD FEW 1600 FT. T 18. DP 14. QNH 1024 HPA. OPERATIONAL REPORT. INFORM SCHIPHOL DEL BY VOICE IF UNABLE TO COMPLY WITH NADP 2. END OF INFO Y",
    "EBBR": "[Arrival ATIS] EBBR ARR ATIS X 1720Z EBBR NAT, EXP VECT FOR ILS APP ARR RWY01 RSCD AT 1445 RWY01 DRY. DEP RWY07R TRL 055 XNG RWY OPS INPR 040/16KT CAVOK T30 DP15 QNH 1021HPA NOSIG CFM ARR X\n[Departure ATIS] EBBR DEP ATIS X 0754Z EBBR NAT, DEP RWY25R RSCD AT 0531 RWY25R WET, RWYCC 555. ARR RWY25L TRL 055 TAIL REP AT 0745, ALT 1000FT, 120 DEG/08 KT 040/4KT VRB BTN 360 AND 060 CAVOK T23 DP20 QNH 1024HPA NOSIG CFM DEP X",
    "EDDF": "[Arrival ATIS] EDDF ARR ATIS E 1020Z -ARR-ATIS EDDF E METAR 211020 -EXPECT INDEPENDENT PARALLEL ILS Z APCH RWY 07L OR ILS APCH RWY 07R -RWY 07L 07R -GLS APCH ON REQUEST , RWY COND AT TIME 0550 : ALL RWYS DRY , RWYCC 6 , -TRL 60 - -VRB07KT -CAVOK - - -T32 DP17 -QNH1024 - -TREND NOSIG\n[Departure ATIS] EDDF DEP ATIS A 1820Z -DEP-ATIS EDDF A METAR 121820 - -RWY 07C 18 -ACFT DEPARTING RWY18 : EXPECT POSSIBLE DEPARTURE FROM INTERSECTION M , TORA 3454 METERS. IF UNABLE , ADVISE TWR ON INITIAL CONTACT , -TRL 60 -CAUTION : BIRD ACTIVITY IN THE VICINITY OF THE AD -03011KT 360V060 RWY18 06007KT -CAVOK - - -T31 DP12 -QNH1019 - -TREND NOSIG",
    "EDDL": "[Arrival ATIS] EDDL ARR ATIS A 1620Z ATIS EDDL A METAR 121620 EXPECT VECTORS ILS APPROACH RWY05L RWY 05R 05L TWY L2 , L4 AND L5 BTN TWY M AND RWY05R CLOSED ATTENTION, RISK OF TWY INCURSION WHEN TAXIING TO RW\n[Departure ATIS] EDDL DEP ATIS R EDDL ARR/DEP DATIS RPT -ATIS EDDL R METAR 020550 -EXPECT VECTORS ILS APPROACH -RWY 23L -TWY L8 CLOSED BETWEEN TWY M AND RWY 23L -TRL 60 - -23010KT -CAVOK - - -T19 DP13 -QNH1020 - -TREND NOSIG",
    "EDDK": "[Arrival ATIS] EDDK ARR ATIS B 1450Z -ATIS EDDK B METAR 121450 -EXPECT ILS APCH RWY 13L OR RNP APCH RWY 06 -RWY 13L 06 -RWY COND RWY 13L AT TIME 1351 RWYCC 6 DEPOSIT TOTAL RWY DRY RWY 06 AT TIME 1351 RWYCC 6 DEPOSIT TOTAL RWY DRY -TRL 60 -RWY 13R AND RWY 31L CLOSED FOR DEPARTURE AND LANDING: TAXIING BTN THR RWY 13R AND INTERSECTION RWY 24 POSSIBLE : -VRB07G21KT -CAVOK - - -T32 DP13 -QNH1021 - -TREND NOSIG\n[Departure ATIS] EDDK DEP ATIS Q EDDK ARR/DEP DATIS RPT -ATIS EDDK Q METAR 291920 -EXPECT ILS APCH -RWY 31R 06 -RWY COND RWY 31R AT TIME 1830 RWYCC 6 DEPOSIT TOTAL RWY DRY RWY 06 AT TIME 1830 RWYCC 6 DEPOSIT TOTAL RWY DRY -TRL 60 -RWY 13R AND RWY 31L CLOSED FOR DEPARTURE AND LANDING: TAXIING BTN THR RWY 13R AND INTERSECTION RWY 24 POSSIBLE : -04003KT -CAVOK - - -T24 DP13 -QNH1024 - -TREND NOSIG",
    "EBLG": "[Arrival ATIS] EBLG ATIS U 1950Z EBLG INFO, ARR RWY04R DEP RWY04R RWY 04R DRY, RWYCC 666. TRL 055 ADZ ON GND FREQ IF UNABLE S2 020/12KT MNM8 MAX19 CAVOK T25 DP15 QNH 1021HPA NOSIG CFM ATIS U",
    "LSZH": "[Arrival ATIS] LSZH ARR ATIS J 2220Z ARRIVALS, EXP ILS APCH, RWY 14. TRL 70. DEP RWY 32. RWY 28 AND 16 ARE CLSD DUE TO WIP. WIND 060 DEG, 7 KT, VRB BTN 030 AND 150 DEG. CAVOK. T 24. DP 9. QNH 1020. WS, WIND AT 2850 FT QNH 040 DEG 15 KT, WIND AT 3400 FT QNH 080 DEG 25 KT. NOSIG.\n[Departure ATIS] LSZH DEP ATIS X 1736Z DEP RWY 32. TRL 70. ARRIVALS, EXP ILS APCH, RWY 14. TMA S 1 IS ACT. TMA S 2 AND S 3 ARE ACT. WIND 070 DEG, 7 KT, VRB BTN 040 AND 100 DEG. CAVOK. T 30. DP 9. QNH 1019. NOSIG.",
    "LIMC": "[Arrival ATIS] LIMC ARR ATIS Q 0950Z LIMC ARR Q 0950Z I.L.S. ZULU RWY IN USE 35R TL 70 WIND TDZ VRB5KT CAVOK T31 DP17 QNH 1024HPA QFE 0999HPA\n[Departure ATIS] LIMC DEP ATIS C 1550Z LIMC DEP C 1550Z RWY IN USE 35L TL 70 WIND END 290/5KT VRB BTN 190/AND 340/ CAVOK T33 DP12 QNH 1015HPA QFE 0990HPA DATALINK CLEARANCE AVAILABLE.... CONTACT 1 3 1 8 8 0 TO BE RELEASED BY THE AIRPORT OPERATOR ...",
    "LIRF": "[Arrival ATIS] LIRF ARR ATIS I 2150Z LIRF ARR I 2150Z RWY 16L ILS W RWY 16R ILS Z RWY IN USE 16L 16R TL 70 DEPENDENT PARL ILS APCH INPR RWY IN USE 16R OR 16L ASSIGNED BY ROME RADAR WIND RWY 16L TDZ VRB2KT VRB BTN 260/AND 350/ RWY 16R TDZ 300/5KT CAVOK T26 DP24 QNH 1015HPA\n[Departure ATIS] LIRF DEP ATIS E 1750Z LIRF DEP E 1750Z RWY IN USE 25 TL 70 RWY IN USE FOR ARR 16L WIND END 290/8KT CAVOK T29 DP22 QNH 1014HPA REA IS SENT AUTOMATICALLY ONCE RLSD BY RAMP WHEN READY CONTACT FIUME RAMP 121.725 RRSM",
    "EINN": "[Arrival ATIS] EINN ARR ATIS Z 1730Z EXPECT I L S CATEGORY 1 LDG RWY06 TKOF RWY06 TRL FL060 05014KT 9999 FEW048 29/16 QNH Q1022 TREND NOSIG ADVISE AT FIRST CONTACT YOU HAVE ATIS INFO Z",
    "EGLL": "[Arrival ATIS] EGLL ARR ATIS F 1020Z LANDING RWY 09L TRANSITION-LEVEL: FL 70 IF STAND GUIDANCE IS OFF OR FAILS, REMAIN ON THE TAXIWAY CENTRELINE AND ADVISE ATC AUTO 26004KT 220V360 9999 FEW041 26/16 Q1025 ACKNOWLEDGE RECEIPT OF INFORMATION F\n[Departure ATIS] EGLL DEP ATIS L 2020Z DEPARTURE RWY 09R PILOTS THAT ARE IN RECEIPT OF DATALINK CLEARANCES ARE REMINDED THEY MUST CONTACT DELIVERY ON 121.980 WHEN READY FOR START DATALINK CLEARANCES NOT AVAILABLE FOR CPT DEPARTURES AUTO 06019KT 9999 NCD 24/07 Q1024 TURBULENCE MAY BE EXPERIENCED ON DEPARTURE ACKNOWLEDGE RECEIPT OF INFORMATION L AND REPORT AIRCRAFT TYPE AND CURRENT QNH ON FIRST CONTACT WITH HEATHROW",
    "EPWA": "[Arrival ATIS] EPWA ARR ATIS J 0431Z EPWA ARR J. TIME 0430. EXP U ARR ILS Z APCH FOR RWY 33. TRANSITION LEVEL 80. WIND 290 DEG, 6 KT, VRB BTN 260 AND 320 DEG. CAVOK. T 14. DP 10. QNH 1011. NOSIG. CAUTION. BIRD ACT. END OF EPWA ARR J\n[Departure ATIS] EPWA DEP ATIS P 1501Z EPWA DEP P. TIME 1500. DEP RWY 29. ARR RWY 33, EXP U ARR ILS Z. REPORT READY FOR STARTUP ON DELIVERY 121 DECIMAL 605. RWY 29 RCC 5, 5, 5. 1ST PART, WET. 2ND PART, WET. 3RD PART, WET. RWY REPORT END. TRANSITION LEVEL 80. WIND 030 DEG, 7 KT, VRB BTN 350 AND 060 DEG. VIS MID 10 KM OR MORE. CLD BKN 1400 FT, CLD BKN 2400 FT. T 18. DP 15. QNH 1016. NOSIG. CAUTION. BIRD ACT. END OF EPWA DEP P",
    "EFHK": "[Arrival ATIS] EFHK ARR ATIS W 0951Z EXPECT ILS APCH ARR RWY 22L RUNWAY 22L CONDITION REPORT AT 0543 UTC RUNWAY CONDITION CODES 6 , 6 , 6 CONTAMINANTS ALL PARTS DRY TRL 60 WIND 260 DEG 7 KT VRB BTN 240 AND 300 DEG VIS 10KM SCT 3800 FT T 25 DP 17 QNH 1017 NOSIG ACK INFO W\n[Departure ATIS] EFHK DEP ATIS N 0850Z DEP RWYS 22R AND 22L RUNWAY 22R CONDITION REPORT AT 0550 UTC RUNWAY CONDITION CODES 6 , 6 , 6 C ONTAMINANTS ALL PARTS DRY RUNWAY 22L CONDITION REPORT AT 0543 UTC RUNWAY CONDITION CODES 6 , 6 , 6 C ONTAMINANTS ALL PARTS DRY WIND 260 DEG 11 KT VIS 10KM FEW 3000 FT T 25 DP 17 QNH 1017 NOSIG ACK INFO N",
    "LTAC": "[Arrival ATIS] LTAC ARR ATIS P 0950Z EXP ILS V APCH 03C DEP RWY 03L RWY 03C WIND 070 DEG 08 KT RWY 03L WIND 070 DEG 07 KT VRB BTN 340 DEG AND 150 DEG TRL 110 VIS 9999 FEW04000 FT T 22 DP 07 QNH 1022 NOSIG FOR DELIVERY CTC 121.9. FOR DELIVERY FIRST USE DIGITAL DEP CLR. CTN BIRD HAZARD OVR AERODROME. APCH FREQUENCY 129.050. TAXIWAY ECHO 1 IS CLOSED. END OF ATIS P",
    "UBBB": "[Arrival ATIS] UBBB ARR ATIS K 2200Z ATIS K EXP ILS/ LDG 34 35 DEP 34 35 IN USE RWY 34 CLEAR DRY 70 RWY 35 CLEAR DRY 70 TLVL 110 WIND WIND RWY 34 310 10 KT SPD MAX 14 MIN 8 WIND RWY 35 310 10 KT SPD MAX 14 MIN 8 VIS CAVOK T 25 / DP 20 QNH 1009 HPA TREND TREND NOSIG MODERATE BIRDS ACT IN VICINITY OF AP END OF ATIS K\n[Departure ATIS] UBBB DEP ATIS V 1430Z ATIS V EXP ILS/ LDG 34 35 DEP 34 35 IN USE RWY 34 CLEAR DRY 70 RWY 35 CLEAR DRY 70 TLVL 110 WIND WIND RWY 34 350 14 KT SPD MAX 16 MIN 10 WIND RWY 35 340 14 KT SPD MAX 18 MIN 10 VIS CAVOK T 29 / DP 20 QNH 1009 HPA TREND TREND NOSIG MODERATE BIRDS ACT IN VICINITY OF AP END OF ATIS V",
    "ZWWW": "[Arrival ATIS] ZWWW ARR ATIS Z 1000Z EXP ILSDME Z APCH LDG RWY 26R TA 3000 WIND 300/4MPS VRB BTN 250/ AND 340/ VIS 9999M CLD FEW 1380M T 35 /DP 09 QNH 1006 HPA ADZ YOU HAVE INFO Z.\n[Departure ATIS] ZWWW DEP ATIS O 0600Z DEP RWY 26L TA 3000 WIND 340/4MPS VRB BTN 300/ AND 010/ CAVOK T 34 /DP 10 QNH 1008 HPA ADZ YOU HAVE INFO O.",
    "ZLXY": "[Arrival ATIS] ZLXY ARR ATIS X 0918Z EXP ILS APCH LDG RWY 05L & 06R WIND 040/4MPS VIS 4500M -RA BR CLD SCT 240M /SCT 600M /OVC 1200M T 20 /DP 19 QNH 1011 HPA RUNWAY 05L SURFACE CONDITION CODE 555 RUNWAY 06L SURFACE CONDITION CODE 555 RUNWAY 06R SURFACE CONDITION CODE 555 ADZ YOU HAVE INFO X.\n[Departure ATIS] ZLXY DEP ATIS X 0918Z DEP RWY 05L & 06L WIND 040/4MPS VIS 4500M -RA BR CLD SCT 240M /SCT 600M /OVC 1200M T 20 /DP 19 QNH 1011 HPA RUNWAY 05L SURFACE CONDITION CODE 555 RUNWAY 06L SURFACE CONDITION CODE 555 RUNWAY 06R SURFACE CONDITION CODE 555 ADZ YOU HAVE INFO X.",
    "ZBAA": "[Arrival ATIS] ZBAA ARR ATIS Q 2100Z EXP ILS APCH DEPENDENT PARL INSTR APCH LDG RWY 36L & 36R WIND 360 DEG 1 MPS VIS 9999 CLD OVC 990M T 25 /DP 24 QNH 1003 HPA VISUAL APPROACH IS IN PROGRESS. ADZ YOU HAVE INFO Q.\n[Departure ATIS] ZBAA DEP ATIS X 1000Z DEP RWY 18R & 18L & 19 WIND 180 DEG 5 MPS CAVOK T 29 /DP 10 QNH 1009 HPA RWY INDEPENDENT PARALLEL DEP VISUAL APPROACH IS IN PROGRESS. ADZ YOU HAVE INFO X.",
    "ZBHH": "[Arrival ATIS] ZBHH ARR ATIS E 1000Z EXP ILSDME APCH LDG RWY 26 TA 3000 /TRL 3600 WIND 220/4MPS CAVOK T 26 /DP 05 QNH 1008 HPA ADZ YOU HAVE INFO E.\n[Departure ATIS] ZBHH DEP ATIS Q 1500Z DEP RWY 08 TA 3000 /TRL 3600 WIND 140/2MPS VIS 5000M BR NSC T 19 /DP 19 QNH 1007 HPA ADZ YOU HAVE INFO Q.",
    "ZSQD": "[Arrival ATIS] ZSQD ARR ATIS I 0800Z EXP ILSDME APCH LDG RWY 35 TA 3000 /TRL 3600 WIND 020/3MPS CAVOK T 28 /DP 13 QNH 1010 HPA SEGREGATED OPERATION VISUAL APPROACH OPERATION IN PROGRESS. RUNWAY 35,IF MISSED APPROACH,EXPECT FOLLOW THE STANDARD MISSED APPROACH PROCEDURE,CLIMB TO 1200M ON QNH OR BY ATC CAUTION MAYBE THERE IS A FLOCK OF BIRDS IN THE VICINITY OF AIRPORT ADZ YOU HAVE INFO I.\n[Departure ATIS] ZSQD DEP ATIS I 0800Z DEP RWY 34 TA 3000 /TRL 3600 WIND 020/3MPS CAVOK T 28 /DP 13 QNH 1010 HPA SEGREGATED OPERATION VISUAL APPROACH OPERATION IN PROGRESS. RUNWAY 35,IF MISSED APPROACH,EXPECT FOLLOW THE STANDARD MISSED APPROACH PROCEDURE,CLIMB TO 1200M ON QNH OR BY ATC CAUTION MAYBE THERE IS A FLOCK OF BIRDS IN THE VICINITY OF AIRPORT ADZ YOU HAVE INFO I."
  },
  "windtemp_alaska": "\n000\nFBAK31 KWNO 121959\nFD1AK1\nDATA BASED ON 121800Z    \nVALID 130000Z   FOR USE 2000-0300Z. TEMPS NEG ABV 24000\n\nFT  3000    6000    9000   12000   18000   24000  30000  34000  39000\nADK 2217 2317+09 2322+06 2327+01 2339-09 2348-21 237836 228447 741158\nADQ 2613 2509+01 2411-03 2416-08 2727-18 2841-30 298841 297445 284645\nAKN 2518 2715-02 2616-05 2520-09 2732-19 2854-30 790140 288845 274945\nANC 1311 1429+00 1522-04 1719-08 1633-18 1741-29 175846 174851 211845\nANN 2306 2206+02 9900-03 9900-09 0508-20 0815-34 102750 071747 990043\nBET 2321 2421-01 2626-06 2626-11 2731-21 2741-32 275241 274840 263242\nBRW 1118 1316+04 1517-01 1518-06 1514-18 1719-29 182745 183155 181450\nBTI 2717 2510+07 2416+02 2216-04 2217-17 2121-28 222244 222553 212457\nBTT 9900 2607+03 2115-02 1715-07 1825-18 1731-30 174544 186055 183048\nCDB 2312 2521+02 2638-01 2753-01 2754-12 2761-23 277638 289447 289555\nCZF 2215 2315+00 2413-03 2411-09 2608-21 2606-32 251145 272742 262541\nEHM 2522 2422-01 2519-04 2624-10 2746-18 2776-27 771339 772247 275946\nFAI 1405 1206+05 1409-01 1613-06 1731-18 1836-30 184543 164354 173049\nFYU 2610 2314+06 2019+00 2019-05 1923-17 1933-28 192443 193053 182756\nGAL 1613 1721+00 1724-04 1726-10 1632-22 1636-32 164247 153146 181842\nGKN 1817 1724+03 1625-01 1728-05 1733-17 1839-28 173644 183653 172151\nHOM 1306 1316+01 1606-04 2008-08 1919-20 1828-32 173745 212143 252343\nJNU 2105 2312+01 2409-01 9900-05 0708-17 0616-29 052545 053155 051550\nLUR 1729 1518+01 1222-03 1224-07 1221-19 1124-31 102648 102349 121245\nMCG 1708 1825+00 1728-05 1730-10 1628-22 1637-33 164746 172643 211942\nMDO 1528 1626+03 1723-01 1720-06 1736-17 1737-28 174444 174353 221448\nOME 1520 1624-02 1526-04 1418-09 1310-21 1708-33 181147 190844 210941\nORT      9900+09 1713+03 1717-04 1817-16 1718-28 192544 182653 181456\nOTZ 1620 1727-01 1724-05 1822-09 1518-21 1424-32 143148 142246 171442\nSNP 2514 2509+00 2516-03 2527-06 2758-14 2678-24 259239 750148 268851\nTKA 9900 1913+00 1518-03 1622-09 1636-18 1646-30 175946 165151 192245\nUNK 1416 1619-01 1523-05 1529-11 1424-21 1517-34 132246 161043 201542\nYAK 9900 2106+01 2511+00 2409-05 1408-16 1409-28 111044 080954 990055\nIKO 2521 2534+08 2544+05 2545+01 2751-10 2557-20 268036 269546 267957\nAFM 1515 1818+00 1921-05 1828-09 1636-20 1635-31 154647 153850 161944\n5AB 2912 2815+08 2815+05 2713+00 2711-12 2509-23 351137 351248 210956\n5AC 1808 1608+01 1306-03 0105-08 3312-20 3421-33 325045 324248 312445\n5AD 9900 2708+03 2811-01 2914-03 2615-16 1813-28 302542 315447 314648\n5AE 2613 2823+04 2829+01 2835-05 2957-12 2970-23 298038 298447 297456\n5AF 2210 2305+02 1705-01 9900-06 0712-19 0427-30 053546 054354 041048\n5AG 1715 1914+04 1820+00 1719-06 1717-16 1719-28 161944 152053 990053\n",
  "vaac_tokyo": [
    {
      "id": "20260712_27303000_0728",
      "year": "2026",
      "volcano": "Mayon",
      "psn": "N1315 E12341",
      "issued": "20260712",
      "text": "FVFE01 RJTD 122134\nVA ADVISORY\nDTG: 20260712/2134Z\nVAAC: TOKYO\nVOLCANO: MAYON 273030\nPSN: N1315 E12341\nAREA: PHILIPPINES\nSOURCE ELEV: 2462M AMSL\nADVISORY NR: 2026/728\nINFO SOURCE: HIMAWARI-9 PHIVOLCS\nERUPTION DETAILS: ERUPTION AT 20260712/1753Z FL090 EXTD NE REPORTED\nOBS VA DTG: 12/2120Z\nOBS VA CLD: VA NOT IDENTIFIABLE FM SATELLITE DATA WIND FL090 210/8KT\nFCST VA CLD +6 HR: NOT AVBL\nFCST VA CLD +12 HR: NOT AVBL\nFCST VA CLD +18 HR: NOT AVBL\nRMK: WE WILL ISSUE FURTHER ADVISORY IF VA IS DETECTED IN SATELLITE \nIMAGERY.\nNXT ADVISORY: NO FURTHER ADVISORIES=",
      "img_url": "https://ds.data.jma.go.jp/svd/vaac/data/VAGFN/2026/Images/20260712_27303000_0728_QH21_01.png",
      "sat_img_url": null,
      "text_url": "https://ds.data.jma.go.jp/svd/vaac/data/TextData/2026/20260712_27303000_0728_Text.html"
    },
    {
      "id": "20260712_28208001_0081",
      "year": "2026",
      "volcano": null,
      "psn": "N3136 E13039",
      "issued": "20260712",
      "text": "FVFE01 RJTD 121806\nVA ADVISORY\nDTG: 20260712/1806Z\nVAAC: TOKYO\nVOLCANO: SAKURAJIMA (AIRA CALDERA) 282080\nPSN: N3136 E13039\nAREA: JAPAN\nSOURCE ELEV: 1117M AMSL\nADVISORY NR: 2026/81\nINFO SOURCE: JMA HIMAWARI-9\nERUPTION DETAILS: ERUPTED AT 20260712/1744Z FL070 EXTD NE\nOBS VA DTG: 12/1750Z\nOBS VA CLD: VA NOT IDENTIFIABLE FM SATELLITE DATA WIND FL070 230/5KT\nFCST VA CLD +6 HR: NOT AVBL\nFCST VA CLD +12 HR: NOT AVBL\nFCST VA CLD +18 HR: NOT AVBL\nRMK: WE WILL ISSUE FURTHER ADVISORY IF VA IS DETECTED IN SATELLITE \nIMAGERY.\nNXT ADVISORY: NO FURTHER ADVISORIES=",
      "img_url": "https://ds.data.jma.go.jp/svd/vaac/data/VAGFN/2026/Images/20260712_28208001_0081_QH21_01.png",
      "sat_img_url": null,
      "text_url": "https://ds.data.jma.go.jp/svd/vaac/data/TextData/2026/20260712_28208001_0081_Text.html"
    },
    {
      "id": "20260712_27307000_0012",
      "year": "2026",
      "volcano": "Taal",
      "psn": "N1400 E12100",
      "issued": "20260712",
      "text": "FVFE01 RJTD 121243\nVA ADVISORY\nDTG: 20260712/1243Z\nVAAC: TOKYO\nVOLCANO: TAAL 273070\nPSN: N1400 E12100\nAREA: PHILIPPINES\nSOURCE ELEV: 311M AMSL\nADVISORY NR: 2026/12\nINFO SOURCE: HIMAWARI-9 PHIVOLCS\nERUPTION DETAILS: ERUPTION AT 20260712/1227Z FL050 EXTD NE REPORTED\nOBS VA DTG: 12/1230Z\nOBS VA CLD: VA NOT IDENTIFIABLE FM SATELLITE DATA WIND FL050 230/19KT\nFCST VA CLD +6 HR: NOT AVBL\nFCST VA CLD +12 HR: NOT AVBL\nFCST VA CLD +18 HR: NOT AVBL\nRMK: WE WILL ISSUE FURTHER ADVISORY IF VA IS DETECTED IN SATELLITE \nIMAGERY.\nNXT ADVISORY: NO FURTHER ADVISORIES=",
      "img_url": "https://ds.data.jma.go.jp/svd/vaac/data/VAGFN/2026/Images/20260712_27307000_0012_QH21_01.png",
      "sat_img_url": null,
      "text_url": "https://ds.data.jma.go.jp/svd/vaac/data/TextData/2026/20260712_27307000_0012_Text.html"
    },
    {
      "id": "20260712_30019000_0003",
      "year": "2026",
      "volcano": "Krasheninnikov",
      "psn": "N5436 E16016",
      "issued": "20260712",
      "text": "FVFE01 RJTD 120130\nVA ADVISORY\nDTG: 20260712/0130Z\nVAAC: TOKYO\nVOLCANO: KRASHENINNIKOV 300190\nPSN: N5436 E16016\nAREA: RUSSIA\nSOURCE ELEV: 1816M AMSL\nADVISORY NR: 2026/3\nINFO SOURCE: HIMAWARI-9\nERUPTION DETAILS: VA AT 20260712/0100Z FL080 EXTD SE\nOBS VA DTG: 12/0100Z\nOBS VA CLD: SFC/FL080 N5440 E16023 - N5412 E16045 - N5402 E16033 - \nN5434 E16013 MOV SE 20KT\nFCST VA CLD +6 HR: 12/0700Z SFC/FL080 N5310 E16258 - N5251 E16229 - \nN5302 E16111 - N5436 E16016\nFCST VA CLD +12 HR: 12/1300Z SFC/FL090 N5233 E16425 - N5158 E16444 - \nN5210 E16103 - N5446 E16008 - N5251 E16216\nFCST VA CLD +18 HR: 12/1900Z SFC/FL090 N5142 E16614 - N5044 E16548 - \nN5213 E15943 - N5432 E15924 - N5448 E16118 - N5223 E16227\nRMK: NIL\nNXT ADVISORY: 20260712/0600Z=",
      "img_url": "https://ds.data.jma.go.jp/svd/vaac/data/VAGFN/2026/Images/20260712_30019000_0003_QH21_01.png",
      "sat_img_url": "https://ds.data.jma.go.jp/svd/vaac/data/Sat/2026/Images/30019000/09-ir/20260712_0100_202607120130_ir.png",
      "text_url": "https://ds.data.jma.go.jp/svd/vaac/data/TextData/2026/20260712_30019000_0003_Text.html"
    }
  ],
  "vaac_alaska": [
    {
      "text": "\n000\nFVAK21 PAWU 111230\nVAAAK1\nVA ADVISORY\n\nDTG: 20260711/1224Z\n\nVAAC: ANCHORAGE\n\nVOLCANO: SHEVELUCH 300270\n\nPSN: N5639 E16122\n\nAREA: KAMCHATKA PENINSULA\n\nSOURCE ELEV: 10771 FT AMSL\n\nADVISORY NR: 2026/193\n\nRMK: PLEASE SEE FVXX2 KNES ISSUED BY VAAC WASHINGTON WHICH DESCRIBES\nCONDITIONS NEAR THE VAAC ANCHORAGE AREA OF RESPONSIBILITY...CC\n\n\n\n",
      "issued": "2026-07-11T12:30:00+00:00",
      "volcano": "Sheveluch",
      "psn": "N5639 E16122"
    }
  ]
}