{
  "updated_utc": "2026-07-09T20:23Z",
  "metar": {
    "RJAA": "METAR RJAA 091830Z AUTO 17003KT 9999 NCD 21/21 Q1015 NOSIG",
    "PANC": "METAR PANC 091853Z 18004KT 10SM -RA BKN060 OVC070 12/09 A2992 RMK AO2 SLP134 P0003 T01170094",
    "PAFA": "METAR PAFA 091853Z 25005KT 6SM BR OVC008 13/12 A2984 RMK AO2 SLP108 T01330117 $",
    "PAED": "METAR PAED 091855Z 23005KT 9SM -RA FEW015 SCT020 OVC045 12/09 A2991 RMK AO2A SLP125 P0000 T01200090 $",
    "KSEA": "METAR KSEA 091853Z VRB04KT 10SM FEW020 FEW070 SCT250 19/12 A3015 RMK AO2 SLP215 T01890117 $",
    "ZSPD": "METAR ZSPD 091830Z 14001MPS CAVOK 25/25 Q1006 NOSIG",
    "ZSSS": "METAR ZSSS 091830Z 15004MPS CAVOK 26/24 Q1006 NOSIG",
    "RJFR": "METAR RJFR 091900Z AUTO 06011KT 9999 BKN031 25/24 Q1012",
    "VHHH": "METAR VHHH 091830Z VRB03KT 9999 FEW010 29/25 Q1003 NOSIG",
    "RCTP": "METAR RCTP 091830Z 05008KT 9999 FEW020 28/25 Q1003 NOSIG RMK A2963",
    "ZGSZ": "METAR ZGSZ 091900Z 20001MPS 9999 FEW011 28/27 Q1003 NOSIG",
    "WSSS": "METAR WSSS 091830Z VRB02KT 9999 FEW018 BKN300 27/23 Q1011 NOSIG",
    "WMKK": "METAR WMKK 091830Z 12003KT 030V190 9999 FEW017CB 28/25 Q1010 TEMPO 7000 -TSRA",
    "WIDD": "METAR WIDD 091830Z 20002KT 9999 FEW014 24/24 Q1011 NOSIG",
    "VTBS": "METAR VTBS 091830Z 25005KT 9999 FEW020 30/20 Q1008 NOSIG",
    "VTBU": "METAR VTBU 091830Z 26006KT 9000 FEW020 29/26 Q1009 NOSIG",
    "ROAH": "METAR ROAH 091830Z AUTO 08018KT 9999 FEW019 SCT022 BKN027 30/26 Q1001",
    "VVDN": "METAR VVDN 091830Z 00000KT 9999 FEW020 BKN070 28/22 Q1004 NOSIG",
    "RCKH": "METAR RCKH 091900Z 31008KT 290V350 9999 FEW013 SCT018 BKN032 28/26 Q1001 NOSIG RMK QFF 1001.7HPA A2958",
    "KLAX": "METAR KLAX 091853Z 27008KT 8SM FEW009 SCT013 22/17 A2991 RMK AO2 SLP125 T02220167 $",
    "KONT": "METAR KONT 091853Z 27008G15KT 10SM CLR 32/14 A2989 RMK AO2 SLP102 T03170144 $",
    "KSFO": "METAR KSFO 091856Z 03007KT 10SM FEW006 17/13 A2997 RMK AO2 SLP147 T01720128 $",
    "KOAK": "METAR KOAK 091853Z 29004KT 10SM FEW008 18/12 A2997 RMK AO2 SLP149 T01780122",
    "KMHR": "METAR KMHR 091835Z AUTO 28005KT 10SM CLR 28/13 A2991 RMK AO2 T02800126 $",
    "KDFW": "METAR KDFW 091853Z 18013G19KT 10SM SCT065 37/19 A2995 RMK AO2 SLP133 T03670194 $",
    "KIAH": "METAR KIAH 091853Z 16004KT 10SM SCT050 SCT250 35/21 A3004 RMK AO2 LTG DSNT SE SLP171 CB DSNT SE S T03500211",
    "KORD": "METAR KORD 091851Z 27006KT 10SM FEW033 SCT080 BKN100 BKN150 BKN250 28/21 A2987 RMK AO2 SLP108 T02830206 $",
    "KJFK": "METAR KJFK 091851Z 19015KT 10SM -RA SCT029CB SCT070 BKN110 BKN140 BKN250 23/21 A2989 RMK AO2 RAB34 SLP121 CB SW MOV E P0000 T02330211",
    "KRFD": "METAR KRFD 091854Z VRB05KT 10SM FEW028 FEW080 SCT110 BKN200 28/21 A2989 RMK AO2 SLP117 T02780211",
    "KIND": "METAR KIND 091854Z 26012KT 10SM SCT034 SCT050 BKN250 30/22 A2993 RMK AO2 SLP128 T03000217",
    "KDTW": "SPECI KDTW 091837Z 19013KT 10SM TS FEW045 BKN060CB BKN220 28/20 A2986 RMK AO2 TSB37 OCNL LTGIC W-NW TS W-NW MOV E T02830200",
    "KMSP": "METAR KMSP 091853Z VRB06KT 10SM SCT250 28/12 A2990 RMK AO2 SLP120 T02780122",
    "CYEG": "METAR CYEG 091900Z 04009G16KT 350V060 20SM FEW045 BKN250 16/10 A2991 RMK SC1CI5 SC TR SLP137 DENSITY ALT 3100FT",
    "EHAM": "METAR EHAM 091825Z 06007KT 030V110 CAVOK 22/16 Q1018 NOSIG",
    "EBBR": "METAR EBBR 091850Z 05005KT CAVOK 24/15 Q1017 NOSIG",
    "EDDF": "METAR EDDF 091850Z AUTO 02015KT CAVOK 27/14 Q1015 NOSIG",
    "EDFH": "METAR EDFH 091850Z 02008KT CAVOK 22/12 Q1018",
    "EDDL": "METAR EDDL 091850Z AUTO 04005KT CAVOK 24/14 Q1017 NOSIG",
    "EDDK": "METAR EDDK 091850Z AUTO 01006KT CAVOK 22/14 Q1017 NOSIG",
    "EBLG": "METAR EBLG 091850Z 02007KT CAVOK 24/14 Q1017 NOSIG",
    "LSZH": "METAR LSZH 091850Z 09005KT CAVOK 27/13 Q1015 NOSIG",
    "LIMC": "METAR LIMC 091850Z 20005KT CAVOK 31/14 Q1010 NOSIG",
    "LIRF": "METAR LIRF 091850Z 29003KT CAVOK 27/23 Q1010 NOSIG",
    "EINN": "METAR EINN 091830Z 34005KT 300V010 9999 FEW025 23/16 Q1018 NOSIG",
    "EGLL": "METAR EGLL 091850Z AUTO 22011KT 9999 NCD 31/16 Q1015",
    "EGSS": "METAR EGSS 091850Z AUTO 11012KT 9999 NCD 26/16 Q1016",
    "EPWA": "METAR EPWA 091830Z 29010KT 9999 FEW043 16/11 Q1011 NOSIG",
    "UHPP": "METAR UHPP 091830Z 36003MPS 9999 BKN110 14/11 Q1012 R34L/CLRD62 NOSIG RMK QFE756/1008",
    "EFHK": "METAR EFHK 091850Z 34004KT CAVOK 16/15 Q1010 NOSIG",
    "LBBG": "METAR LBBG 091830Z AUTO 35018KT 9999 -RA VCTS SCT018 OVC025 //////CB 17/14 Q1011 RETSRA TEMPO 5000 TSRA FEW030CB",
    "LTAC": "METAR LTAC 091850Z 02004KT 330V110 9999 SCT040 BKN080 24/09 Q1010 NOSIG RMK RWY21C VRB03KT RWY03L VRB02KT RWY21R 00000KT RWY03R 32003KT 270V350 RWY21L 34004KT 300V040",
    "UBBB": "METAR UBBB 091830Z 30008KT CAVOK 23/21 Q1009 NOSIG",
    "UTAA": "METAR UTAA 091900Z 24004KT 210V280 9999 NSC 34/08 Q1005 R88/CLRD70 NOSIG",
    "UACC": "METAR UACC 091830Z 07004MPS CAVOK 17/10 Q1019 NOSIG RMK QFE733/0977",
    "UAAA": "METAR UAAA 091830Z VRB01MPS 9999 SCT100 23/12 Q1012 NOSIG",
    "UZTT": "METAR UZTT 091830Z 08006KT CAVOK 28/14 Q1005 NOSIG",
    "ZWWW": "METAR ZWWW 091830Z 19004MPS CAVOK 23/14 Q1009 NOSIG",
    "ZLXY": "METAR ZLXY 091900Z 03003MPS CAVOK 29/24 Q0998 NOSIG",
    "ZBAA": "METAR ZBAA 091830Z 18002MPS 150V310 9999 SCT030 25/23 Q1001 NOSIG",
    "ZBHH": "METAR ZBHH 091900Z 06004MPS 9999 SCT040 19/16 Q1004 NOSIG",
    "ZSQD": "METAR ZSQD 091900Z 15006MPS CAVOK 25/25 Q1002 NOSIG",
    "ZMCK": "METAR ZMCK 091830Z VRB02MPS 9999 FEW033 13/09 Q1007 NOSIG RMK QFE640.7 77 NT",
    "UUEE": "METAR UUEE 091830Z 07002MPS 040V130 CAVOK 19/16 Q1012 R06R/CLRD62 R06C/CLRD62 NOSIG",
    "UUDD": "METAR UUDD 091830Z 09002MPS 9999 FEW040 20/16 Q1012 R13R/CLRD65 NOSIG",
    "ULLI": "METAR ULLI 091830Z 17003MPS 9999 FEW041 17/11 Q1011 R88/090065 NOSIG",
    "USSS": "METAR USSS 091830Z 07003MPS 9999 FEW040 21/21 Q1017 R08R/CLRD60 R08L/CLRD60 NOSIG RMK QFE743/0990",
    "UNNT": "METAR UNNT 091830Z 32002MPS CAVOK 12/10 Q1019 R07/CLRD// R34/////// NOSIG RMK QFE754/1005",
    "UNKL": "METAR UNKL 091830Z 29002MPS CAVOK 10/08 Q1017 R29/CLRD// NOSIG RMK QFE737",
    "UIBB": "METAR UIBB 091830Z AUTO 02002MPS 350V050 9999 // ///085/// 11/09 Q1011 RMK QFE715/0954",
    "UEEE": "METAR UEEE 091830Z 00000MPS CAVOK 22/19 Q0997 R23/09//63 NOSIG RMK QFE739",
    "UHHH": "METAR UHHH 091830Z 13002MPS 9999 FEW048 20/20 Q1004 R88/090060 NOSIG RMK QFE747/0996",
    "UHSS": "METAR UHSS 091900Z 00000MPS 7000 NSC 17/17 Q1012 R19/CLRD70 NOSIG RMK QFE758/1010"
  },
  "taf": {
    "RJAA": "TAF RJAA 091705Z 0918/1100 14006KT 9999 FEW030 TEMPO 1015/1021 4000 BR FEW003 BKN008",
    "PANC": "TAF PANC 092007Z 0920/1024 VRB04KT P6SM -RA BKN050 OVC060 FM100300 30005KT P6SM SCT025 OVC050 FM100800 23004KT P6SM FEW015 OVC070",
    "PAFA": "TAF PAFA 091738Z 0918/1024 25005KT 5SM BR VCSH OVC010 FM092300 20005KT P6SM BKN050 FM101000 16003KT P6SM BKN250",
    "PAED": "TAF AMD PAED 091338Z 0913/1019 19010KT 9999 -RA SCT040 OVC060 650606 QNH2991INS BECMG 0917/0918 21008KT 9000 -RA SCT025 OVC040 620606 QNH2989INS BECMG 0922/0923 24004KT 9000 -RA SCT007 OVC025 620606 QNH2987INS BECMG 1001/1002 28005KT 9999 NSW SCT010 BKN035 QNH2987INS BECMG 1005/1006 24005KT 9999 FEW010 SCT035 BKN050 QNH2989INS BECMG 1009/1010 24005KT 9999 OVC025 QNH2989INS TX16/1002Z TN10/1012Z",
    "KSEA": "TAF KSEA 091720Z 0918/1024 24005KT P6SM BKN030 FM091900 24005KT P6SM SCT025 BKN120 FM100300 30006KT P6SM FEW250 FM101000 22005KT P6SM SCT020 BKN060 FM101200 22005KT P6SM SCT009 BKN015 FM101700 21007KT P6SM OVC020",
    "ZSPD": "TAF ZSPD 091505Z 0918/1024 14004MPS 8000 BKN030 TX32/1006Z TN25/0921Z TN26/1021Z",
    "ZSSS": "TAF ZSSS 091505Z 0918/1024 14004MPS 8000 BKN030 TX33/1006Z TN25/0921Z TN26/1021Z",
    "RJFR": "TAF RJFR 091705Z 0918/1100 10014KT 9999 FEW007 BKN020 BECMG 1001/1003 07014KT TEMPO 1006/1009 -TSRA BKN020 FEW025CB BECMG 1009/1012 10012KT",
    "VHHH": "TAF VHHH 092000Z 0921/1103 VRB05KT 9999 FEW015 TX33/1006Z TN28/0922Z TN29/1022Z BECMG 1001/1003 26010KT BECMG 1009/1011 18010KT TEMPO 1016/1022 VRB05KT BECMG 1022/1024 28010KT",
    "RCTP": "TAF RCTP 091700Z 0918/1024 06010KT 9999 FEW015 BKN032 TEMPO 1002/1008 05013G28KT 5000 RA FEW010 BKN020 BKN040 BECMG 1008/1010 04015G25KT 6000 FEW010 BKN020 BKN040 TEMPO 1010/1016 03020G30KT 4000 SHRA FEW010 FEW015CB BKN016 BKN030 BECMG 1016/1018 02022G38KT TEMPO 1016/1020 3000 SHRA SCT010 FEW012CB BKN014 TEMPO 1020/1024 36030G48KT 2000 SHRA SCT008 FEW010CB BKN012",
    "ZGSZ": "TAF ZGSZ 091502Z 0918/1024 08003MPS 8000 SCT020 TX33/1006Z TN28/0922Z TN29/1022Z BECMG 1001/1003 20004MPS BECMG 1018/1020 30004MPS",
    "WSSS": "TAF WSSS 091700Z 0918/1100 17008KT 9999 FEW015 SCT020",
    "WMKK": "TAF WMKK 091700Z 0918/1100 VRB03KT 9999 FEW030 PROB30 TEMPO 0919/0922 5000 TSRA FEW010 FEW017CB",
    "VTBS": "TAF VTBS 091700Z 0918/1024 24008KT 9999 FEW020",
    "VTBU": "TAF VTBU 091700Z 0918/1018 26006KT 9000 FEW020",
    "ROAH": "TAF ROAH 091712Z 0918/1100 08022KT 9999 FEW010 BKN015 TEMPO 0918/0923 08028G38KT BECMG 0923/1001 10028KT TEMPO 0923/1006 10030G45KT TEMPO 1006/1012 10035G50KT 4000 SHRA BR FEW005 BKN008 FEW015CB TEMPO 1012/1100 10035G50KT",
    "VVDN": "TAF VVDN 091700Z 0918/1018 21007KT 9999 FEW017 SCT060",
    "RCKH": "TAF RCKH 091700Z 0918/1024 33010KT 9999 FEW015 BKN032 TEMPO 1004/1008 31015G25KT 5000 RA FEW010 BKN020 TEMPO 1008/1012 32012G22KT 5000 SHRA FEW010 FEW015CB BKN020 TEMPO 1012/1018 33018G28KT TEMPO 1018/1024 31025G40KT 3000 SHRA SCT008 FEW010CB BKN012",
    "KLAX": "TAF KLAX 091730Z 0918/1024 25010KT P6SM FEW009 SCT015 TEMPO 0918/0920 FEW009 BKN010 FM100700 25005KT P6SM BKN008 FM101100 10005KT P6SM OVC008 FM101600 25008KT P6SM SCT008",
    "KONT": "TAF KONT 091733Z 0918/1024 VRB05KT P6SM SKC FM092000 26013G20KT P6SM SKC FM100600 VRB05KT P6SM SKC TEMPO 1012/1015 6SM HZ FEW008 FM102000 26011KT P6SM FEW250",
    "KSFO": "TAF KSFO 091742Z 0918/1024 32007KT P6SM FEW004 SCT014 FM091900 31012KT P6SM FEW007 FM092100 29019G24KT P6SM SKC FM100300 28014KT P6SM OVC010 FM100800 27011KT P6SM OVC008 FM101700 31010KT P6SM FEW008 SCT014",
    "KOAK": "TAF KOAK 091742Z 0918/1024 21006KT P6SM BKN006 OVC010 FM091830 27008KT P6SM FEW010 FM092000 28015KT P6SM SKC FM100400 28010KT P6SM BKN010 FM100800 26009KT P6SM OVC007 FM101800 25008KT P6SM SCT007 BKN014",
    "KMHR": "TAF KMHR 091720Z 0918/1018 VRB05KT P6SM SKC FM100200 19010KT P6SM SKC",
    "KDFW": "TAF KDFW 091730Z 0918/1024 20015KT P6SM SKC",
    "KIAH": "TAF KIAH 091720Z 0918/1024 22008KT P6SM SCT040 FM091900 18009KT P6SM SCT045 SCT060 PROB30 0920/0923 VRB15G25KT 5SM -TSRA SCT035CB SCT050 FM100200 18005KT P6SM FEW020 SCT250 FM101500 18008KT P6SM SCT020 SCT035 SCT250 FM101800 16010KT P6SM SCT045 BKN060 BKN250 PROB30 1019/1023 VRB15G25KT 5SM -TSRA SCT035CB SCT050",
    "KORD": "TAF KORD 091721Z 0918/1024 24011KT P6SM VCSH FEW050 BKN090 OVC150 PROB30 0918/0922 6SM -SHRA BKN050 FM092200 25011KT P6SM VCTS SCT050CB OVC080 PROB30 0922/1002 1 1/2SM TSRA OVC035CB FM100200 02009KT P6SM VCSH SCT020 BKN035 FM100600 02005KT 6SM BR SCT009 OVC015 TEMPO 1009/1013 3SM BR BKN009 FM101300 03008KT P6SM SCT015 BKN025 FM101800 03011KT P6SM SCT040 BKN250",
    "KJFK": "TAF KJFK 092017Z 0920/1024 19014KT P6SM SCT040 SCT250 TEMPO 0920/0924 4SM TSRA BR BKN006CB BKN020 FM100000 19010KT 6SM BR VCSH BKN050 FM100300 22008KT P6SM SCT120 FM101500 30009KT P6SM BKN250 FM102100 25010KT P6SM SCT030 BKN100 PROB30 1021/1024 4SM TSRA BKN030CB",
    "KRFD": "TAF KRFD 091721Z 0918/1018 25008KT P6SM VCSH SCT050 BKN090 OVC200 PROB30 0921/1001 1 1/2SM TSRA OVC035CB FM100100 36007KT P6SM SCT020 BKN035 FM100900 03005KT 6SM BR SCT012 OVC020 TEMPO 1010/1013 2SM BR BKN010",
    "KIND": "TAF KIND 092023Z 0920/1024 25009G20KT P6SM SCT030 SCT090 PROB30 1001/1005 4SM -TSRA BKN040CB FM100500 VRB03KT P6SM -SHRA BKN035 FM100700 21003KT 6SM BR VCSH SCT006 BKN025 FM101400 24007KT P6SM FEW025 SCT060 FM101800 28005KT P6SM BKN060 PROB30 1018/1024 4SM -TSRA OVC025CB",
    "KDTW": "TAF KDTW 091933Z 0920/1024 23010KT P6SM SCT040 BKN070 TEMPO 0921/0922 2SM -TSRA BKN050CB FM092200 26010G20KT P6SM BKN100 PROB30 0922/1001 2SM -TSRA BKN050CB FM100800 25003KT 5SM BR BKN030 FM101300 02005KT P6SM OVC025",
    "KMSP": "TAF KMSP 091725Z 0918/1024 02007KT P6SM SCT250 FM100200 VRB03KT P6SM FEW250 FM101200 17005KT P6SM SCT200",
    "CYEG": "TAF CYEG 091741Z 0918/1018 01012KT P6SM BKN060 TEMPO 0918/0922 P6SM -SHRA VCTS BKN030CB FM092200 03010KT P6SM SCT060 FM100000 VRB03KT P6SM FEW060 SCT250 BECMG 1002/1004 15008KT FM100900 16008KT P6SM SCT050 BKN100 TEMPO 1009/1016 P6SM -SHRA VCTS BKN050CB FM101600 36008KT P6SM BKN060 RMK NXT FCST BY 092100Z",
    "EHAM": "TAF EHAM 091659Z 0918/1024 05010KT CAVOK BECMG 0920/0923 08007KT BECMG 1014/1017 04013KT BECMG 1020/1023 06008KT",
    "EBBR": "TAF EBBR 091700Z 0918/1024 06005KT CAVOK",
    "EDDF": "TAF AMD EDDF 091844Z 0918/1024 03007KT CAVOK TEMPO 0918/0924 03015KT",
    "EDFH": "TAF EDFH 091700Z 0918/1018 02008KT CAVOK BECMG 0921/0924 08006KT",
    "EDDL": "TAF EDDL 091700Z 0918/1024 02007KT CAVOK BECMG 0920/0922 VRB03KT BECMG 1007/1009 03009KT BECMG 1022/1024 03004KT",
    "EDDK": "TAF EDDK 091700Z 0918/1024 35007KT CAVOK BECMG 0919/0922 VRB03KT BECMG 1009/1011 02007KT BECMG 1021/1023 VRB03KT",
    "EBLG": "TAF EBLG 091700Z 0918/1024 06005KT CAVOK",
    "LSZH": "TAF LSZH 091725Z 0918/1024 05008KT CAVOK TX33/1015Z TN15/1004Z PROB40 TEMPO 0918/0919 10010KT BECMG 0919/0921 34003KT BECMG 1008/1010 05009KT BECMG 1019/1021 34003KT",
    "LIMC": "TAF LIMC 091700Z 0918/1024 VRB06KT CAVOK PROB40 TEMPO 1015/1020 4000 TSRA",
    "LIRF": "TAF LIRF 091700Z 0918/1024 VRB05KT CAVOK PROB40 TEMPO 0923/1003 4000 BR BECMG 1008/1010 22010KT BECMG 1016/1018 VRB05KT",
    "EINN": "TAF EINN 091700Z 0918/1018 35007KT 9999 SCT020 PROB30 TEMPO 1000/1006 4000 BR",
    "EGLL": "TAF EGLL 091702Z 0918/1024 18007KT CAVOK BECMG 1000/1003 10010KT",
    "EGSS": "TAF EGSS 091649Z 0918/1024 12010KT CAVOK",
    "EPWA": "TAF EPWA 091730Z 0918/1018 29010KT 9999 SCT040 TEMPO 0918/1018 31016G28KT -SHRA BKN020CB PROB40 1004/1008 4000 RA BKN009 BKN015 PROB40 1010/1018 3000 TSRA",
    "UHPP": "TAF UHPP 091944Z 0921/1103 17005G12MPS 9999 SCT040 TX25/1004Z TN12/1016Z BECMG 1009/1012 36003G10MPS TEMPO 1021/1103 30005G12MPS",
    "EFHK": "TAF EFHK 091731Z 0918/1018 36006KT 9999 FEW015 TEMPO 0918/0922 FEW020TCU BECMG 0922/0924 0500 FG VV002 TEMPO 1000/1004 2000 BR BECMG 1004/1006 9999 NSW FEW010 TEMPO 1009/1015 FEW035TCU",
    "LBBG": "TAF LBBG 091700Z 0918/1018 VRB04KT 9999 SCT040 TEMPO 0918/0922 5000 TSRA SCT030CB BKN050 TEMPO 1000/1005 3000 BR BECMG 1008/1010 13010KT PROB40 TEMPO 1010/1013 5000 TSRA SCT030CB BKN050",
    "LTAC": "TAF LTAC 091640Z 0918/1018 VRB02KT 9999 FEW040 SCT100 BECMG 0919/0921 CAVOK BECMG 1006/1008 25012KT SCT040 BECMG 1013/1015 34012KT",
    "UBBB": "TAF UBBB 091702Z 0918/1018 33008KT CAVOK TX31/1010Z TN21/1001Z TEMPO 0918/1006 29005KT SCT012 BECMG 1006/1008 06005KT TEMPO 1009/1016 10010KT SCT020",
    "UTAA": "TAF UTAA 091645Z 0918/1018 30012KT 6000 SCT050 TX41/1012Z TEMPO 0918/0924 24012KT TEMPO 1000/1011 30012G22KT 4000 DRDU",
    "UACC": "TAF UACC 091701Z 0918/1018 VRB01MPS 9999 SCT040 BKN100 TX33/1009Z TN15/0923Z TEMPO 0918/1004 07005MPS BECMG 1004/1006 07007MPS TEMPO 1004/1016 SCT040CB",
    "UAAA": "TAF UAAA 091703Z 0918/1018 18003MPS 9999 FEW050CB SCT100 TX34/1010Z TN19/1002Z BECMG 1003/1004 01003G09MPS BECMG 1014/1015 16003MPS",
    "UZTT": "TAF COR UZTT 091700Z 0918/1018 07010KT CAVOK TX39/1011Z TN25/1000Z TEMPO 0918/0924 VRB04KT 4000 FU TEMPO 1006/1018 24015KT",
    "ZWWW": "TAF ZWWW 091504Z 0918/1024 18004MPS CAVOK TX33/1009Z TN23/0923Z TN25/1023Z BECMG 1002/1003 36004MPS BECMG 1014/1015 18004MPS",
    "ZLXY": "TAF ZLXY 091502Z 0918/1018 06003MPS 6000 NSC TX39/1007Z TN29/0921Z TEMPO 1010/1015 -TSRA FEW040CB OVC060",
    "ZBAA": "TAF ZBAA 091502Z 0918/1024 16004MPS 4000 BR NSC TX30/1006Z TN23/0921Z TN22/1021Z TEMPO 0923/1001 2800 -SHRA FEW040CB BKN040 TEMPO 1007/1012 TSRA FEW040CB BKN040 TEMPO 1012/1016 TSRA FEW040CB BKN040 BECMG 1015/1016 2800 -SHRA BR",
    "ZBHH": "TAF ZBHH 091511Z 0918/1018 06004MPS 9999 SCT030 TX26/1008Z TN18/0922Z BECMG 0922/0924 2800 -RA TEMPO 1002/1006 1400 +TSRA FEW030CB SCT030 TEMPO 1006/1010 RA BECMG 1010/1011 BR",
    "ZSQD": "TAF ZSQD 091501Z 0918/1018 17004MPS 5000 BR NSC TX32/1006Z TN25/0920Z BECMG 0919/0920 2500 BKN010 BECMG 0922/0923 3500 SCT010",
    "ZMCK": "TAF ZMCK 091640Z 0918/1024 09005MPS 9999 FEW030CB SCT033 TN11/0921Z TX25/1007Z BECMG 1001/1003 13007MPS FEW030CB BKN033 TEMPO 1003/1018 VRB10G15MPS 6000 TSRA SCT027CB BKN030 BECMG 1011/1013 VRB02MPS BECMG 1016/1018 6000 RA FEW020 FEW027CB BKN030",
    "UUEE": "TAF UUEE 091955Z 0921/1021 02003MPS 6000 BKN016 TX28/1012Z TN16/1001Z PROB40 TEMPO 0921/1003 -TSRA BKN016CB TEMPO 0921/1005 BKN006 BECMG 1005/1008 08005MPS TEMPO 1011/1020 13011G18MPS 2100 -TSRA BKN016CB",
    "UUDD": "TAF UUDD 091954Z 0921/1103 03003MPS 8000 FEW007 BKN016 TX29/1012Z TN15/1001Z PROB40 TEMPO 0921/1003 -TSRA BKN016CB BECMG 1004/1006 09005MPS TEMPO 1010/1020 12010G17MPS -TSRA BKN016CB",
    "ULLI": "TAF ULLI 091953Z 0921/1021 16003MPS 6000 BKN016 TEMPO 0921/1003 0300 FG BKN003 BECMG 1015/1017 07005G10MPS",
    "USSS": "TAF USSS 091950Z 0921/1021 10003G08MPS 6000 -SHRA BKN016CB TEMPO 0921/1003 0300 -TSRA FG VV002 TEMPO 1003/1018 -TSRAGR BECMG 1006/1008 18003G14MPS",
    "UNNT": "TAF UNNT 092000Z 0921/1021 36003G08MPS 8000 BKN040 TX25/1010Z TN09/0922Z BECMG 1009/1010 25005G10MPS BECMG 1011/1012 19003G08MPS TEMPO 1015/1021 -TSRA BKN020CB",
    "UNKL": "TAF UNKL 091949Z 0921/1021 28003MPS 6000 SCT040 BECMG 1002/1004 33005G12MPS BECMG 1005/1007 28003G08MPS TEMPO 1007/1012 33005G10MPS",
    "UIBB": "TAF UIBB 092000Z 0921/1021 32003G08MPS 9999 -SHRA FEW001 BKN016CB TEMPO 1002/1015 VRB08MPS",
    "UEEE": "TAF UEEE 092000Z 0921/1103 22003G08MPS 9999 SCT030CB BKN100 TX31/1003Z TN15/1019Z TEMPO 1000/1015 VRB17MPS 2400 -TSRAGR SQ",
    "UHHH": "TAF UHHH 091951Z 0921/1103 18003G08MPS 9999 SCT025CB TX28/1006Z TN21/1019Z TEMPO 1000/1015 3000 -TSRA FEW010 BKN016CB",
    "UHSS": "TAF UHSS 091955Z 0921/1103 16003MPS 9999 SCT030"
  },
  "atis": {
    "RJAA": "[Arrival ATIS] RJAA ARR ATIS K 1000Z S0943 (APCH)ILS Y RWY16L LDG RWY 16L DEP RWY 16R DEP FREQ 124.2. TWY A1 CLSD. S 200943Z 15010KT 10KM -RA SCT007ST OVC120AS 21/20 Q1011/A2987 RMK MOD TURB OBS AT 0924Z 25NM SE NARITA BTN 9000FT AND 13000FT IN CMB B788= Q/TWO NINE EIGHT SEVEN STP\n[Departure ATIS] RJAA DEP ATIS H 0906Z MS0900 (APCH)ILS Y RWY16L LDG RWY 16L DEP RWY 16R DEP FREQ 124.2. TWY A1 CLSD. MS 200900Z 14011KT 10KM -RA BKN007ST 21/20 Q1011/A2987= Q/TWO NINE EIGHT SEVEN STP",
    "PANC": "[Arrival ATIS] PANC ARR ATIS P 1953Z ANC ATIS INFO P 1953Z. 17003KT 10SM -RA SCT010 BKN050 OVC065 12/10 A2992 (TWO NINER NINER TWO). 7R APPROACHES IN USE. LNDG AND DEPG RWY 7L, LANDING RWY 7R, DEPARTING RWY 33. NO\n[Departure ATIS] PANC DEP ATIS X 0953Z ANC ATIS INFO X 0953Z. 12016G27KT 10SM SCT060 BKN085 OVC100 14/07 A2973 (TWO NINER SEVEN THREE). ILS RWY 15 APPROACHES IN USE. LANDING RWY 15, DEPARTING RWY 25L. NOTICE TO",
    "KSEA": "[Arrival ATIS] KSEA ARR ATIS C 1853Z SEA ATIS INFO C 1853Z. VRB04KT 10SM FEW020 FEW070 SCT250 19/12 A3015 (THREE ZERO ONE FIVE). ILS AND CHARTED VISUAL APPROACH RWYS 16R AND 16L , APCH IN USE. DEPG RWY 16L, DEPG ACFT PLAN AND BRIEF NUMBERS FOR BOTH RWYS 16L AND 16C. SIMUL APCHS IN USE, BFI & SEA. TRAFFIC BELOW YOU ON FINAL. SIMUL APCHS IN USE TO PARA RYS. NOTAMS... BIRD ACTIVITY VICINITY ARPT. ...ADVS YOU HAVE INFO C.\n[Departure ATIS] KSEA DEP ATIS D 1953Z SEA ATIS INFO D 1953Z. VRB03KT 10SM FEW030 FEW080 SCT250 21/12 A3013 (THREE ZERO ONE THREE). ILS AND CHARTED VISUAL APPROACH RWYS 16R AND 16L , APCH IN USE. DEPG RWY 16L, DEPG ACFT PLAN AND BRIEF NUMBERS FOR BOTH RWYS 16L AND 16C. SIMUL APCHS IN USE, BFI & SEA. TRAFFIC BELOW YOU ON FINAL. SIMUL APCHS IN USE TO PARA RYS. NOTAMS... BIRD ACTIVITY VICINITY ARPT. ...ADVS YOU HAVE INFO D.",
    "ZSPD": "[Arrival ATIS] ZSPD ARR ATIS E 0930Z EXP ILS APCH INDEPENDENT PARL INSTR APCH LDG RWY 35L & 34R WIND RWY 35L TDZ 090/4MPS MID 100/3MPS END 080/3MPS RWY 34R TDZ 110/4MPS MID 100/3MPS VRB BTN 080/ AND 160/ END 100/3MPS VIS RWY 35L TDZ 9000M MID 6000M END 9000M VIS RWY 34R TDZ 10000M MID 10000M END 10000M BR CLD SCT 240M T 25 /DP 25 QNH 1006 HPA CAUTION THE BIRDS NEAR THE RUNWAY RWY 35R/35L/34R/34L RWYCC 5/5/5 ISSUED AT 0430 WET/WET/WET DPT NR/NR/NR COV 100PCT/100PCT/100PCT. ADZ YOU HAVE INFO E.\n[Departure ATIS] ZSPD DEP ATIS Y 0630Z DEP RWY 35R & 34L WIND RWY 35R TDZ 260/2MPS MID VRB BTN 340/ AND 070/1MPS END 070/2MPS VRB BTN 030/ AND 160/ RWY 34L TDZ 040/3MPS MID 020/2MPS END 010/2MPS VIS RWY 35R TDZ 10000M MID 8000M END 5000M VIS RWY 34L TDZ 3700M MID 4000M END 4500M FBL SHRA CLD FEW 480M T 27 /DP 25 QNH 1006 HPA CAUTION THE BIRDS NEAR THE RUNWAY RWY 35R/35L/34R/34L RWYCC 5/5/5 ISSUED AT 0430 WET/WET/WET DPT NR/NR/NR COV 100PCT/100PCT/100PCT. ADZ YOU HAVE INFO Y.",
    "ZSSS": "[Arrival ATIS] ZSSS ARR ATIS H 0900Z EXP ILS APCH LDG RWY 36R WIND RWY 36R TDZ 250/3MPS VRB BTN 220/ AND 280/ MID 200/2MPS END 260/2MPS CAVOK T 28 /DP 24 QNH 1006 HPA QNH OF SHANGHAI TERMINAL CONTROL AREA 1006 HPA ADZ YOU HAVE INFO H.\n[Departure ATIS] ZSSS DEP ATIS J 1000Z DEP RWY 36L WIND RWY 36L TDZ 250/2MPS MID 210/2MPS END VRB/1MPS CAVOK T 28 /DP 24 QNH 1006 HPA QNH OF SHANGHAI TERMINAL CONTROL AREA 1007 HPA ADZ YOU HAVE INFO J.",
    "VHHH": "[Arrival ATIS] VHHH ARR ATIS E 0904Z ARRIVALS, RWY 25R. EXP RNAV TRANSITION TO ILS APCH, RWY 25R. RNP APCH IS AVBL ON REQ, RWY 25R. WIND 200/11KT MAX22 MNM08. VIS 10KM. CLD FEW 1000FT SCT 2500FT. T31 DP24. QNH 1008HPA. ACK INFO E ON FIRST CTC WITH APP.\n[Departure ATIS] VHHH DEP ATIS W 1906Z DEPARTURES, RWY 07C. WIND VRB05KT. VIS 10KM. CLD FEW 1200FT. T29 DP25. QNH 1003HPA. ACK INFO W ON FIRST CTC WITH DELIVERY .",
    "RCTP": "[Arrival ATIS] RCTP ARR ATIS K 1000Z EXP ILS APCH RWY23R FOR ARR. RWY23L FOR DEP. WIND 240/12KT VIS 10 KM OR MORE CLD FEW 2000FT BKN 20000FT T 31 DP 22 QNH 1009HPA NOSIG CTN BIRD ACTIVITY IN THE VCY OF THE AD. LOW LVL WS ADVISORY IN EFFECT. INFORM TAIPEI APCH OR TAIPEI TOWER ON INITIAL CONTACT YOU HAVE INFORMATION K\n[Departure ATIS] RCTP DEP ATIS I 0900Z EXP ILS APCH RWY23R FOR ARR. RWY23L FOR DEP. WIND 220/13KT VIS 10 KM OR MORE CLD FEW 2000FT BKN 20000FT T 32 DP 23 QNH 1009HPA NOSIG CTN BIRD ACTIVITY IN THE VCY OF THE AD. INFORM TAIPEI APCH OR TAIPEI TOWER ON INITIAL CONTACT YOU HAVE INFORMATION I",
    "ZGSZ": "[Arrival ATIS] ZGSZ ARR ATIS D 0952Z EXP ILS APCH 15 EXP ILS OR VIS APCH 16R WIND 170/7MPS VIS 9999M CLD FEW 990M T 30 /DP 27 QNH 1009 HPA INDEPENDENT PARALLEL DEPARTURES DEPENDENT PARALLEL APPROACHES V17,V18 AVAILABLE AFTER SULAS FLY HEADING 040 MISSED APPROACH ALTITUDE SETTING 1200METERS WHEN AIRBORNE CONTACT ZHUHAI APPROACH EXPECTED RNP ILS DME Z APPROACH ADZ YOU HAVE INFO D.\n[Departure ATIS] ZGSZ DEP ATIS X 1830Z DEP RWY 15 WIND 210/2MPS VRB BTN 180/ AND 240/ CAVOK T 28 /DP 26 QNH 1003 HPA DELIVERY FREQ 124.375 INDEPENDENT PARALLEL APPROACHES MISSED APPROACH ALTITUDE SETTING 1200M",
    "WSSS": "[Arrival ATIS] WSSS ARR ATIS V 0930Z METREPORT 0930Z ILS APCHRWY 20R SIMUL INDEPENDENT ILS AND VISUAL APPROACHES ARE CONDUCTED ON RWY 20. TWY W 9 CLOSED, RWY 02C 20C RAPID EXIT TAXIWAY INDICATOR LIGHTS OFF WIND 210/ 05KT VIS 10KM CLD FEW 2000FT T30 DP24 QNH 1009HPA NOSIG ACK ATIS V\n[Departure ATIS] WSSS DEP ATIS Q 0630Z METREPORT 0630Z RWY 20C SIMUL INDEPENDENT ILS AND VISUAL APPROACHES ARE CONDUCTED ON RWY 20. TWY W 9 CLOSED, RWY 02C 20C RAPID EXIT TAXIWAY INDICATOR LIGHTS OFF WIND 220/ 08KT VRB BTN190 AND250 VIS 10KM CLD FEW 1800FT FEW TCU 2000FT T30 DP25 QNH 1010HPA NOSIG DEP,INITIAL CMB 3000FT ACK ATIS Q",
    "WMKK": "[Arrival ATIS] WMKK ARR ATIS F 0905Z WMKK ARR INFO F. TIME 0900. INDEPENDENT PARALLEL APPROACHES FOR RWY 14 L AND 15 ARE IN PROGRESS. EXP RNAV / ILS APCH FOR RWY 14 LEFT. EXP RNAV / ILS APCH FOR RWY 15. WIND RWY 14L DIRECTION NOT AVBL SPEED NOT AVBL. WIND RWY 15 DIRECTION NOT AVBL SPEED NOT AVBL. VIS RWY 14L TDZ NOT AVBL. VIS RWY 15 TDZ NOT AVBL. CLD FEW CB 1700 FT. T 31. DP 24. QNH 1008. NOSIG. AT FIRST CONTACT WITH LUMPUR RADAR, NOTIFY RCPT OF F\n[Departure ATIS] WMKK DEP ATIS W 0733Z WMKK DEP INFO W. TIME 0730. INDEPENDENT PARALLEL DEPARTURES FOR RWY 14 R AND 15 ARE IN PROGRESS. RWY 14 RIGHT. RWY 15. WIND RWY 14R 180 DEG, 7 KT. WIND RWY 15 210 DEG, 8 KT. VIS RWY 14R TDZ 10 KM OR MORE. VIS RWY 15 TDZ 10 KM OR MORE. CLD FEW CB 1700 FT. T 32. DP 25. QNH 1008. NOSIG. ALL DEP ACFT TO CONTACT LUMPUR DEP AT 135 DECIMAL 25 MHZ WHEN ABN. AT FIRST CONTACT WITH LUMPUR GROUND, NOTIFY RCPT OF W",
    "VTBS": "[Arrival ATIS] VTBS ARR ATIS S 1000Z VTBS ARR ATIS S 1001Z SIMULTANEOUS INDEPENDENT PARL APCH IN PROGRESS EXP ILS Z APCH ARR RWY 19 OR RNP APCH RWY 20R , ,PILOT SHALL ADZ BKK APCH ON INITIAL CTC IF UNA TO CONDUCT RNP APCH DUE TO OPERATIONAL CONSTRAINT 1000Z WIND 180/9KT VIS 10KM CLD FEW 2000FT T31 DP23 QNH 1008HPA TREND NOSIG ADZ BKK APCH ON INITIAL CONTACT THAT YOU HAVE INFO S\n[Departure ATIS] VTBS DEP ATIS X 0830Z VTBS DEP ATIS X 0831Z DEP RWY 20L ,AFT AIRBORNE ALL DEPARTING ACFT SHALL CTC 119.25 0830Z WIND 220/6KT VRB BTN 190/ AND 300/ VIS 10KM CLD FEW 2000FT T33 DP21 QNH 1008HPA TREND NOSIG ADZ GND WHEN INITIAL CONTACT YOU HAVE INFO X",
    "VTBU": "[Arrival ATIS] VTBU ARR ATIS U 0430Z VTBU ARR ATIS U 0430Z RNP RWY 18 TRL FL130 MOBILE ACFT ARST SYSTEM INSTL ATP SIX HUNDRED AND TEN METERS FM THR RWY 36 CABLE HGT 3 INCHES. 0430Z WIND 360/6KT VRB BTN 320/ AND 020/ VIS 10KM CLD FEW 2000FT T34 DP27 QNH 1010HPA TREND NOSIG ADZ CONTROLLER WHEN INITIAL CONTACT YOU HAVE INFO U\n[Departure ATIS] VTBU DEP ATIS D VTBU ARR/DEP DATIS RPT VTBU ARR ATIS D 0330Z ILS \"Z\" APCH RWY 18 TRL FL130 0330Z WIND 110/4KT VRB BTN 350/ AND 120/ VIS 6KM CLD FEW 2000FT T31 DP27 QNH 1014HPA TREND NOSIG ADZ CONTROLLER WHEN INITIAL CONTACT YOU HAVE INFO D",
    "ROAH": "[Arrival ATIS] ROAH ARR ATIS A 0945Z M0930 (APCH)RNP RWY18R LDG RWY 18R DEP RWY 18L DEP FREQ 119.175 316.0 M 200930Z 19010KT 40KM FEW006ST 28/26 Q1011/A2987= Q/TWO NINE EIGHT SEVEN STP\n[Departure ATIS] ROAH DEP ATIS S 0636Z M0630 (APCH)RNP RWY18R LDG RWY 18R DEP RWY 18L DEP FREQ 126.5 258.3 FLIGHT CHECK IN PROGRESS AT ROTM M 200630Z 19009KT 40KM FEW009CU 29/27 Q1012/A2988= Q/TWO NINE EIGHT EIGHT STP",
    "VVDN": "[Arrival ATIS] VVDN ARR ATIS N 1832Z VVDN INFO N 1832Z. ILS VICTOR APPROACH 35L.. DPTG RWY 35R.. 1832Z. WIND 240/01KT CAVOK T28 DP22 QNH 1004HPA TREND NOSIG. ADZ ON INITIAL CTC YOU HAVE INFO. N.\n[Departure ATIS] VVDN DEP ATIS R 0503Z VVDN INFO R 0503Z. ILS VICTOR APPROACH 35L.. DPTG RWY 35R.. 0502Z. WIND 090/05KT VRB BTN 070/ AND 140/ CAVOK T37 DP23 QNH 1007HPA TREND NOSIG. ADZ ON INITIAL CTC YOU HAVE INFO. R.",
    "RCKH": "[Arrival ATIS] RCKH ARR ATIS E 0930Z EXPECT ILS APPROACH RWY 27 ARR/DEP TAXIWAY JULIETT, TAXIWAY BRAVO, TAXIWAY DELTA AND TAXIWAY ECHO CLOSED DUE MAINTENANCE. RUNWAY 2 7 ARRIVALS PLAN VACATE VIA CHARLIE OR ALPHA AND EXPEDITE VACATE. WIND 280/09KT VARYING BTN 240 AND 300 VIS 10 KM OR MORE CLD FEW 2000FT SCT 20000FT T 31 DP 24 QNH 1009HPA NOSIG CAUTION BIRD ACTIVITY IN VICINITY OF THE AERODROME. INFORM KAO-HSIUN APCH OR KAO-HSIUN TOWER ON INITIAL CONTACT YOU HAVE INFORMATION E\n[Departure ATIS] RCKH DEP ATIS Q 0600Z EXPECT ILS APPROACH RWY 27 ARR/DEP TAXIWAY JULIETT, TAXIWAY BRAVO, TAXIWAY DELTA AND TAXIWAY ECHO CLOSED DUE MAINTENANCE. RUNWAY 2 7 ARRIVALS PLAN VACATE VIA CHARLIE OR A",
    "KLAX": "[Arrival ATIS] KLAX ARR ATIS R 1853Z LAX ATIS INFO R 1853Z. 26008KT 8SM FEW009 SCT013 22/17 A2991 (TWO NINER NINER ONE) RMK AO2 SLP125 T02220167. INST APCHS AND RNAV RNP APCHS RY 24R AND 25L, OR VCTR FOR VISUAL APCH WILL BE PROVIDED, SIMUL INSTR DEPARTURES IN PROG RWYS 24 AND 25. CTC L A GC ON 121.75 FOR PUSH OR TAXI ON A. TWY B CLSD BTN TWY, C10 AND TWY C7 , , TWY B6 CLSD, TWY B7 CLSD, TWY C CLSD BTN TWY, C1 AND TWY C3, TWY C1 CLSD, TWY C9 CLSD BTN TWY, B AND TWY C, TWY C8 CLSD BTN TWY, B AND TWY C. RY 25R SFL OTS, RY 24L ALSF-2 OTS. LAX VOR UNMONITORED. USE CAUTION FOR INCREASED DRONE ACTIVIY IN THE VICINITY OF SOFI STADIUM AT OR BELOW 200FT AGL DURING THE WORLD CUP FROM JUNE TWELFTH TWENTY TWENTY SIX THROUGH JULY TENTH TWENTY TWENTY SIX. HAZD WX INFO FOR LAX AREA AVBL FM FSS. BIRD ACTIVITY VICINITY ARPT. INCLUDE YOUR CALL SIGN IN ALL READBACKS. USE CAUTION WHEN EXITING RY24R AT TWY V, W, AND Y, TO HOLD SHORT OF RY24L. MULTIPLE RUNWAY INCURSIONS HAVE OCCURRED. ...ADVS YOU HAVE INFO R.\n[Departure ATIS] KLAX DEP ATIS S 1953Z - KLAX ATIS INFO S 1953Z. 26007KT 8SM FEW009 SCT015 22/17 A2990 (TWO NINER NINER ZERO) RMK AO2 SLP122 T02220167. INST APCHS AND RNAV RNP APCHS RY 24R AND 25L, OR VCTR FOR VISUAL APCH WILL BE PROVIDED, SIMUL INSTR DEPARTURES IN PROG RWYS 24 AND 25. CTC L A GC ON 121.75 FOR PUSH OR TAXI ON A. TWY B CLSD BTN TWY, C10 AND TWY C7 , , TWY B6 CLSD, TWY B7 CLSD, TWY C CLSD BTN TWY, C1 AND TWY C3, TWY C1 CLSD, TWY C9 CLSD BTN TWY, B AND TWY C, TWY C8 CLSD BTN TWY, B AND TWY C. RY 25R SFL OTS, RY 24L ALSF-2 OTS. LAX VOR UNMONITORED. USE CAUTION FOR INCREASED DRONE ACTIVIY IN THE VICINITY OF SOFI STADIUM AT OR BELOW 200FT AGL DURING THE WORLD CUP FROM JUNE TWELFTH TWENTY TWENTY SIX THROUGH JULY TENTH TWENTY TWENTY SIX. HAZD WX INFO FOR LAX AREA AVBL FM FSS. BIRD ACTIVITY VICINITY ARPT. INCLUDE YOUR CALL SIGN IN ALL READBACKS. USE CAUTION WHEN EXITING RY24R AT TWY V, W, AND Y, TO HOLD SHORT OF RY24L. MULTIPLE RUNWAY INCURSIONS HAVE OCCURRED. ...ADVS YOU HAVE INFO S.",
    "KONT": "[Arrival ATIS] KONT ARR ATIS J 1353Z - KONT ATIS INFO J 1353Z. 00000KT 10SM CLR 20/13 A2997 (TWO NINER NINER SEVEN). ILS RUNWAY 2 6 LEFT APPROACH IN USE. VISUAL APCH RY 26L, RY 26R IN USE, RNAV/GPS APCH RY 26L, 26R IN USE. LNDG AND DEPG RY 26L AND RY 26R. NOTAMS... TAXIWAY SIERRA FIVE CLOSED. TAXIWAY SIERRA CLOSED BETWEEN TAXIWAY SIERRA 8 AND TAXIWAY WHISKEY. ILS RY 26R OTS, RY 26L IM OTS, RY 26R ALS OTS. USE CAUTION FOR NUMEROUS BIRDS OBSERVED IN VICINITY OF ONT. PILOTS READBACK RWY ASSIGNMENTS AND HOLD SHORT INSTRUCTIONS. ...ADVS YOU HAVE INFO J.\n[Departure ATIS] KONT DEP ATIS N 0553Z - KONT ATIS INFO N 0553Z. 24004KT 10SM BKN250 22/15 A2988 (TWO NINER EIGHT EIGHT) RMK AO2 SLP100. ILS AND VIS APR IN USE, RY26L & RY26R. LNDG AND DEPG RY 26L AND RY 26R. NOTAMS... TAXIWAY SIERRA CLSD BETWEEN SIERRA 8 AND W TAXIWAY Q SOUTH OF RWY 26L CLSD TAXIWAY T CLSD TAXIWAY SIERRA 5 CLSD. RY 26L IM OTS, RY 26R ALS OTS. USE CAUTION FOR NUMEROUS BIRDS OBSERVED IN VICINITY OF ONT. HAZD WX INFO FOR SOUTHERN CA AVBL ON FSS FREQUENCIES. PILOTS READBACK RWY ASSIGNMENTS AND HOLD SHORT INSTRUCTIONS. ...ADVS YOU HAVE INFO N.",
    "KSFO": "[Arrival ATIS] KSFO ARR ATIS G 0956Z SFO ATIS INFO G 0956Z. 22012KT 10SM FEW014 BKN028 17/10 A2998 (TWO NINER NINER EIGHT). SIMUL CLSLY SPCD DPNDNT ILS RY 28R AND ILS RY 28L APP IN USE. DEPG RWYS 28L, 28R. RY 1L, 1R CLSD. NUMEROUS TWY CLOSURES FOR CONSTRUCTION ON THE FIELD, PILOTS CHECK NOTAMS. DEPG ACFT WAITING ON FINAL NUMBERS ADVISE GROUND PRIOR TO ENTERING TWY F. ...ADVS YOU HAVE INFO G.\n[Departure ATIS] KSFO DEP ATIS J 1356Z SFO ATIS INFO J 1356Z. 24006KT 10SM FEW004 OVC006 13/11 A3000 (THREE ZERO ZERO ZERO) RMK AO2 SLP158 T01280111. SIMUL CLSLY SPCD DPNDNT ILS RY 28R AND ILS RY 28L APP IN USE. DEPG RWYS 28L, 28R. DEPG ACFT SHOULD BE PREPARED FOR A SHORT NOTICE RY CHANGE. RY 1L, 1R CLSD. NUMEROUS TWY CLOSURES FOR CONSTRUCTION ON THE FIELD, PILOTS CHECK NOTAMS. DEPG ACFT WAITING ON FINAL NUMBERS ADVISE GROUND PRIOR TO ENTERING TWY F. ...ADVS YOU HAVE INFO J.",
    "KOAK": "[Arrival ATIS] KOAK ARR ATIS L 0853Z - KOAK ATIS INFO L 0853Z. 23008KT 10SM FEW012 OVC030 17/12 A2999 (TWO NINER NINER NINER). RNAV, RWY 30. ILS, RWY 28R, RNAV VA 30, ILS VA 28R. ILS RWY 30, OTS. UNN LIT CLOSE-IN OBSTACLES FOR RWY 30 DEPARTURES. RWY 30 DEPARTURES ARE ADVISED TO AVOID TURNING LEFT PRIOR TO DEPARTURE END OF RUNWAY. SIGNATURE UNI-COM OUT OF SERVICE. CTN, CRANE 1 POINT 6 NAUTICAL MILES, , AT 140 FEET AGL. HAZD WX INFO FOR CA ON FLT SRVC FREQ. CAUTION, BIRDS NEAR AIRPORT. ...ADVS YOU HAVE INFO L.\n[Departure ATIS] KOAK DEP ATIS O 1953Z OAK ATIS INFO O 1953Z. 28014KT 10SM FEW005 22/14 A2988 (TWO NINER EIGHT EIGHT). RNAV Z/VA RWY 30 ILS/VA RWY 28R. FLOW TO LAX, LAS, SAN. ILS RWY 30, OTS. UNN LIT CLOSE-IN OBSTACLES FOR RWY 30 DEPARTURES. RWY 30 DEPARTURES ARE ADVISED TO AVOID TURNING LEFT PRIOR TO DEPARTURE END OF RUNWAY. SIGNATURE UNI-COM OUT OF SERVICE. CAUTION, BIRDS NEAR AIRPORT. ...ADVS YOU HAVE INFO O.",
    "KDFW": "[Arrival ATIS] KDFW ARR ATIS C 1653Z DFW ARR INFO C 1653Z. 23010KT 10SM FEW250 34/20 A3000 (THREE ZERO ZERO ZERO) RMK AO2 SLP147 T03440200. SIMUL VISUAL APCH TO RWYS, 13R, 18R, 17C, 17L. LDG RWY 17C EXP LAHSO TWY B 10460 FT AVAIL, LDG RWY 18R EXP LAHSO TWY B 10100 FT AVL. NOTICE TO AIRMEN. WARNING, RWY 18L HAS BEEN SHORTENED, 9273 FT AVAILABLE. BIRD ACTIVITY VCNTY ARPT. ...ADVS YOU HAVE INFO C.\n[Departure ATIS] KDFW DEP ATIS W 1553Z - KDFW DEP INFO W 1553Z. 21022G32KT 10SM FEW025 FEW180 SCT250 31/21 A2994 (TWO NINER NINER FOUR) RMK AO2 PK WND 20032/1547 SLP128 T03110206. SIMUL PARL TRAFFIC DEPG RWYS 17R, 18L. NOTICE TO AIRMEN. WARNING, RWY 18L HAS BEEN SHORTENED, 9273 FT AVAILABLE. RWY 18L CL OTS. BIRD ACTIVITY VCNTY ARPT. ...ADVS YOU HAVE INFO W.",
    "KIAH": "[Arrival ATIS] KIAH ARR ATIS G 1753Z IAH ATIS INFO G 1753Z. 17004KT 10SM SCT045 33/22 A3006 (THREE ZERO ZERO SIX). ARRIVALS EXPECT ILS OR RNAV Y RY 26R, ILS OR RNAV Y RY 26L, ILS OR RNAV Y RY 27. SIMUL APPROACHES IN USE. DEPG RY 15L, RY 15R. NOTICE TO AIRMEN. UNITED RAMP CONTROL IN EFFECT. BIRD ACTIVITY VICINITY ARPT. CRANES ARE DOWN. TWY SA CLSD BTN TWY, SF AND TWY SK , TWY SB CLSD BTN TWY, SF AND TWY SK , , TWY WB CLSD BTN TWY, WG AND TWY WH . TWY EA CLSD. NOTAM ATIS IN USE ON FREQUENCY 126.225. ...ADVS YOU HAVE INFO G.\n[Departure ATIS] KIAH DEP ATIS T 0353Z IAH ATIS INFO T 0353Z. 15007KT 10SM FEW035 FEW180 BKN250 27/23 A2996 (TWO NINER NINER SIX). ARRIVALS EXPECT ILS OR RNAV Y RY 8R, ILS OR RNAV Y RY 8L. DEPG RY 15R. NOTICE TO AIRMEN. UNITED RAMP CONTROL IN EFFECT. RY 15L, 33R CLSD. HAZD WX INFO FOR IAH AREA AVBL FM FSS. BIRD ACTIVITY VICINITY ARPT. CRANES ARE DOWN. TWY SA CLSD BTN TWY, SF AND TWY SK , TWY SB CLSD BTN TWY, SF AND TWY SK , , TWY WB CLSD BTN TWY, WG AND TWY WH . TWY EA CLSD. NOTAM ATIS IN USE ON FREQUENCY 126.225. ...ADVS YOU HAVE INFO T.",
    "KORD": "[Arrival ATIS] KORD ARR ATIS C 1951Z ORD ATIS INFO C 1951Z. 25005KT 10SM FEW035 SCT130 BKN250 29/20 A2985 (TWO NINER EIGHT FIVE) RMK AO2 SLP102 T02890200. ARR EXP VECTORS ILS RWY 27C APCH, VISUAL APCH RWY 27R, VI\n[Departure ATIS] KORD DEP ATIS N 1351Z ORD ATIS INFO N 1351Z. 26006KT 10SM FEW070 BKN140 BKN250 26/21 A2990 (TWO NINER NINER ZERO) RMK AO2 SLP118 T02610206. ARR EXP VECTORS ILS RWY 27C APCH, VISUAL APCH RWY 27R, VI",
    "KJFK": "[Arrival ATIS] KJFK ARR ATIS Z 2011Z - KJFK ATIS INFO Z 2011Z SPECIAL. 22011KT 6SM -RA BR BKN006 BKN019 OVC049 23/22 A2988 (TWO NINER EIGHT EIGHT) RMK AO2 TSE11 P0002 T02280217. APPROACH IN USE ILS RY 22L, ILS RY 22R. DEPG RY 22R. RY 31R PAPI OTS, RWY 22L/4R INNER MARKER OTS.RWY 31R PAPI OTS. LOW LEVEL WIND SHEAR ADZYS IN EFFECT. HAZD WX INFO FOR NY METRO AREA AVBL ON FSS. SWAP IN EFFECT EXPECT REROUTES. NUM CRANES OPERATING AT JFK. BIRD ACTIVITY VICINITY ARPT. READBACK ALL RWY ASSIGNMENTS AND HOLD SHORT INSTRUCTIONS. ...ADVS YOU HAVE INFO Z.\n[Departure ATIS] KJFK DEP ATIS V 1851Z JFK ATIS INFO V 1851Z. 20015KT 10SM -RA SCT029CB SCT070 BKN110 BKN140 BKN250 23/21 A2989 (TWO NINER EIGHT NINER) RMK AO2 RAB34 SLP121 CB SW MOV E P0000 T02330211. APPROACH IN USE ILS RY 22L, ILS RY 22R. DEPG RY 22R. RY 31R PAPI OTS, RWY 22L/4R INNER MARKER OTS.RWY 31R PAPI OTS. HAZD WX INFO FOR NY METRO AREA AVBL ON FSS. SWAP IN EFFECT EXPECT REROUTES. NUM CRANES OPERATING AT JFK. BIRD ACTIVITY VICINITY ARPT. READBACK ALL RWY ASSIGNMENTS AND HOLD SHORT INSTRUCTIONS. ...ADVS YOU HAVE INFO V.",
    "KIND": "[Arrival ATIS] KIND ARR ATIS H 1854Z IND ATIS INFO H 1854Z. 26012KT 10SM SCT034 SCT050 BKN250 30/22 A2993 (TWO NINER NINER THREE). PARL ILS RWY 23R AND 23L APPROACHES IN USE. CROSS RUNWAY OPERATIONS MAY BE IN EFFECT. NOTICE TO AIRMEN. TWY, P BTN TWY, H AND TWY B CLSD, TWY, P BTN TWY, H AND TWY J CLSD, TWY, H BTN TWY, R AND TWY N CLSD. P PAD CLSD. ILS RUNWAY 5R AND RUNWAY 5L INNER MARKER UNSERVICEABLE. ARPT ADZY FLOCK OF LARGE BIRDS IN THE VICINITY OF THE AIRPORT, ALT UNKN. ...ADVS YOU HAVE INFO H.\n[Departure ATIS] KIND DEP ATIS H 1854Z IND ATIS INFO H 1854Z. 26009G19KT 10SM SCT036 BKN041 BKN170 23/16 A2981 (TWO NINER EIGHT ONE) RMK AO2 SLP088 T02280156. PARL ILS RWY 23R AND 23L APPROACHES IN USE. CROSS RU",
    "KDTW": "[Arrival ATIS] KDTW ARR ATIS L 1953Z DTW ARR INFO L 1953Z. 15004KT 10SM FEW025 SCT050 BKN220 26/21 A2987 (TWO NINER EIGHT SEVEN) RMK AO2 WSHFT 1847 RAE17 TSE26 SLP111 TS MOV E CB DSNT SE MOV E P0025 T02560211. SIMUL ILS Z RY 22R AND RY 21L APCH IN USE. NOTICE TO AIRMEN. RWY 21R, 3L CLSD, RWY 27L, 9R CLSD, RWY 27R, 9L CLSD. TWYS Y1 CLSD ;. HAZD WX INFO . CNVTV SIG 13 E, FOR MI , AND, LM . CNVTV SIG 11 E, FOR MI , AND, LM . CNVTV SIG 20 E, FOR MI , AND LM AVBL ON FLIGHT SERVICE FREQS. PILOTS USE CTN FOR BIRD ACTIVITY. DEPARTURE ATIS 118.125. ...ADVS YOU HAVE INFO L.\n[Departure ATIS] KDTW DEP ATIS Q 2253Z - KDTW DEP INFO Q 2253Z. 21009KT 10SM FEW050 FEW250 33/24 A2991 (TWO NINER NINER ONE). DEPG RWY 21R, RWY 22L ;. NOTICE TO AIRMEN. RWY 27L, 9R CLSD, RWY 27R, 9L CLSD. PILOTS USE CTN FOR BIRD ACTIVITY. ...ADVS YOU HAVE INFO Q.",
    "KMSP": "[Arrival ATIS] KMSP ARR ATIS C 1953Z MSP ARR INFO C 1953Z. 36007KT 10SM FEW065 SCT250 28/13 A2989 (TWO NINER EIGHT NINER) RMK AO2 SLP116 T02830128. VISUAL RWY 12R APCH IN USE, VISUAL RWY 12L APCH IN USE. FINAL\n[Departure ATIS] KMSP DEP ATIS Q 1053Z - KMSP DEP INFO Q 1053Z. 34005KT 10SM SCT022 BKN065 21/17 A2989 (TWO NINER EIGHT NINER) RMK AO2 SLP118 T02060172. DEPARTING RWY 30L, RWY 30R, RWY 17. NOTICE TO AIRMEN. RWYS 4, 22 CLSD. TWY R7. R8. R9. R10. CLOSED. TWY R BTWN R6 AND R10 CLSD, TWY A7 CLSD, TWY A CLSD BTN TWY, A7 AND TWY D. ALL ACFT CTC METERING ON ONE THREE THREE POINT FIVE SEVEN WHEN READY TO PUSHBACK OR TAXI. HAZD WX INFO FOR MSP AREA AVBL FM FSS. CTN, BIRDS NEAR MSP. READ BACK HS AND ALT. ALL ACFT TAXI WITH TRANSPONDER AND ALTITUDE ENCODING ON. ...ADVS YOU HAVE INFO Q.",
    "CYEG": "[Arrival ATIS] CYEG ARR ATIS L 2000Z CYEG ARR ATIS L 2000Z 06006KT 350V090 20SM FEW028 FEW250 18/11 A2989 APCH RNAV Z OR Y RWY 02, INFORM ARRL OF REQ APCH ON INITIAL CTC. LDG AND DEP RWY 02. SIMUL APPROACHES MAY BE IN EFCT. INFORM CYEG ATC INFO L\n[Departure ATIS] CYEG DEP ATIS L 2000Z CYEG ARR ATIS L 2000Z 06006KT 350V090 20SM FEW028 FEW250 18/11 A2989 APCH RNAV Z OR Y RWY 02, INFORM ARRL OF REQ APCH ON INITIAL CTC. LDG AND DEP RWY 02. SIMUL APPROACHES MAY BE IN EFCT. INFORM CYEG ATC INFO L",
    "EHAM": "[Arrival ATIS] EHAM ARR ATIS J 1950Z EHAM ARRIVAL INFO J. DEMAND. MAIN LANDING RWY 06. TRANSITION LEVEL 040. WIND 060 DEG, 8 KT, VRB BTN 030 AND 100 DEG. CAVOK. T 20. DP 16. QNH 1018 HPA. NOSIG. OPERATIONAL REPORT. CONTACT APCH WITH CALLSIGN ONLY. END OF INFO J\n[Departure ATIS] EHAM DEP ATIS N 0801Z EHAM DEPARTURE INFO N. DEMAND. MAIN DEPARTURE RWY 24. SECONDARY DEPARTURE RWY 18 L. MAIN LANDING RWY 18 R. RWY 18 L RCR AT TIME 0709. RWYCC: 5/5/5 WET/WET/WET COVERAGE(%): 100/100/100. WIND 270 DEG, 10 KT, VRB BTN 200 AND 300 DEG, 13 KT MAX, 5 KT MNM. WIND SECONDARY RUNWAY 260 DEG, 7 KT, VRB BTN 200 AND 270 DEG. CAVOK. T 24. DP 17. QNH 1017 HPA. OPERATIONAL REPORT. INFORM SCHIPHOL DEL BY VOICE IF UNABLE TO COMPLY WITH NADP 2. END OF INFO N",
    "EBBR": "[Arrival ATIS] EBBR ARR ATIS J 1632Z EBBR NAT, EXP VECT FOR ILS APP ARR RWY01 RSCD AT 1429 RWY01 DRY. DEP RWY07R TRL 055 XNG RWY OPS INPR 030/7KT VRB BTN 360 AND 100 CAVOK T28 DP16 QNH 1017HPA NOSIG CFM ARR J\n[Departure ATIS] EBBR DEP ATIS F 1250Z EBBR NAT, DEP RWY07R RSCD AT 1041 RWY07R DRY. ARR RWY01 TRL 055 XNG RWY OPS INPR. EXP NO DEP AND ARR BTN 1410 AND 1445 Z DUE TO MILITARY FLY BY 050/5KT VRB BTN 340 AND 080 MNM1 MAX13 VIS ABV 10KM FEW3800FT T25 DP15 QNH 1019HPA NOSIG CFM DEP F",
    "EDDF": "[Arrival ATIS] EDDF ARR ATIS Q 0950Z -ARR-ATIS EDDF Q METAR 200950 -EXPECT INDEPENDENT PARALLEL ILS Z APCH RWY 25R OR ILS APCH RWY 25L -RWY 25R 25L -GLS APCH ON REQUEST , DO NOT MISTAKE TWY M FOR RWY 25C WHEN PERFORMING VISUAL APPROACH , -TRL 60 -ATTN : BIRDS IN THE VCY OF THE AD -17009KT 130V210 -CAVOK - - -T31 DP16 -QNH1020 - -TREND NOSIG\n[Departure ATIS] EDDF DEP ATIS D 1950Z DEP-ATIS EDDF D METAR 091950 RWY 07C 18 ACFT DEPARTING RWY18 : EXPECT POSSIBLE DEPARTURE FROM INTERSECTION M , TORA 3454 METERS. IF UNABLE , ADVISE TWR ON INITIAL CONTACT , TAILWIND COMPONENT RWY 18 MORE THAN 10 KTS , PILOTS UNABLE TO ACCEPT SHALL ADVISE DELIVERY BEFORE START UP REQUEST , TRL 60 03012KT RWY18 04008KT CAVOK T24 DP14 QNH1016 TREND NOSIG",
    "EDDL": "[Arrival ATIS] EDDL ARR ATIS I 1620Z -ATIS EDDL I METAR 091620 -EXPECT VECTORS ILS APPROACH RWY05L -RWY 05R 05L -TWY L2 , L4 AND L5 BTN TWY M AND RWY05R CLOSED -TRL 60 - -02006KT 340V060 -CAVOK - - -T25 DP14 -QNH1018 - -TREND NOSIG\n[Departure ATIS] EDDL DEP ATIS R EDDL ARR/DEP DATIS RPT -ATIS EDDL R METAR 020550 -EXPECT VECTORS ILS APPROACH -RWY 23L -TWY L8 CLOSED BETWEEN TWY M AND RWY 23L -TRL 60 - -23010KT -CAVOK - - -T19 DP13 -QNH1020 - -TREND NOSIG",
    "EDDK": "[Arrival ATIS] EDDK ARR ATIS F 0950Z -ATIS EDDK F METAR 090950 -EXPECT ILS APCH RWY 31R -RWY 31R 06 -RWY COND RWY 31R AT TIME 0655 RWYCC 6 DEPOSIT TOTAL RWY DRY RWY 06 AT TIME 0655 RWYCC 6 DEPOSIT TOTAL RWY DRY RWY 06/24 ONLY AVAILABLE FOR DEPARTURES -TRL 60 -RWY 13R AND RWY 31L CLOSED FOR DEPARTURE AND LANDING: TAXIING BTN THR RWY 13R AND INTERSECTION RWY 24 POSSIBLE : -33008KT 290V010 -9999 - -BKN028 -T21 DP14 -QNH1019 - -TREND NOSIG\n[Departure ATIS] EDDK DEP ATIS Q EDDK ARR/DEP DATIS RPT -ATIS EDDK Q METAR 291920 -EXPECT ILS APCH -RWY 31R 06 -RWY COND RWY 31R AT TIME 1830 RWYCC 6 DEPOSIT TOTAL RWY DRY RWY 06 AT TIME 1830 RWYCC 6 DEPOSIT TOTAL RWY DRY -TRL 60 -RWY 13R AND RWY 31L CLOSED FOR DEPARTURE AND LANDING: TAXIING BTN THR RWY 13R AND INTERSECTION RWY 24 POSSIBLE : -04003KT -CAVOK - - -T24 DP13 -QNH1024 - -TREND NOSIG",
    "EBLG": "[Arrival ATIS] EBLG ATIS R 1720Z EBLG INFO, ARR RWY04R DEP RWY04R RWY 04R RSCD NOT AVBL. TRL 055 ADZ ON GND FREQ IF UNABLE S2 020/9KT MNM5 MAX14 CAVOK T25 DP14 QNH 1018HPA NOSIG CFM ATIS R",
    "LSZH": "[Arrival ATIS] LSZH ARR ATIS L 1650Z ARRIVALS, EXP ILS APCH, RWY 14. TRL 70. DEP RWY 28. WIND 070 DEG, 5 KT. CAVOK. T 29. DP 12. QNH 1015. NOSIG.\n[Departure ATIS] LSZH DEP ATIS Z 1650Z DEP RWY 28. TRL 70. ARRIVALS, EXP ILS APCH, RWY 14. TMA S 1 IS NOT ACT. TMA S 2 AND S 3 ARE NOT ACT. WIND 070 DEG, 7 KT. CAVOK. T 29. DP 12. QNH 1015. NOSIG.",
    "LIMC": "[Arrival ATIS] LIMC ARR ATIS T 0950Z LIMC ARR T 0950Z I.L.S. ZULU RWY IN USE 35L TL 70 WIND TDZ VRB2KT VRB BTN 060/AND 150/ CAVOK T31 DP18 QNH 1022HPA QFE 0996HPA\n[Departure ATIS] LIMC DEP ATIS H 0920Z LIMC DEP H 0920Z RWY IN USE 35R TL 70 WIND END VRB2KT CAVOK T31 DP20 QNH 1022HPA QFE 0996HPA DATALINK CLEARANCE AVAILABLE.... CONTACT 1 3 1 8 8 0 TO BE RELEASED BY THE AIRPORT OPERATOR ...",
    "LIRF": "[Arrival ATIS] LIRF ARR ATIS G 0950Z LIRF ARR G 0950Z RWY 16L ILS W RWY 16R ILS Z RWY IN USE 16L 16R TL 70 DEPENDENT PARL ILS APCH INPR RWY IN USE 16R OR 16L ASSIGNED BY ROME RADAR WIND RWY 16L TDZ 210/10KT VRB BTN 170/AND 240/ RWY 16R TDZ 210/8KT VRB BTN 170/AND 230/ CAVOK T32 DP16 QNH 1020HPA RRSM\n[Departure ATIS] LIRF DEP ATIS A 0820Z LIRF DEP A 0820Z RWY IN USE 25 TL 70 RWYS IN USE FOR ARR 16L AND 16R WIND END 210/7KT VRB BTN 150/AND 240/ CAVOK T32 DP18 QNH 1019HPA REA IS SENT AUTOMATICALLY ONCE RLSD BY RAMP WHEN READY CONTACT FIUME RAMP 121.725",
    "EINN": "[Arrival ATIS] EINN ARR ATIS F 0930Z EXPECT I L S CATEGORY 1 LDG RWY24 TKOF RWY24 TRL FL060 22007KT 190V260 9999 FEW021 BKN038 16/09 QNH Q1019 TREND NOSIG ADVISE AT FIRST CONTACT YOU HAVE ATIS INFO F",
    "EGLL": "[Arrival ATIS] EGLL ARR ATIS X 0950Z LANDING RWY 27R TRANSITION-LEVEL: FL 70 IF STAND GUIDANCE IS OFF OR FAILS, REMAIN ON THE TAXIWAY CENTRELINE AND ADVISE ATC AUTO 23009KT 170V260 9999 BKN022 22/17 Q1019 ACKNOWLEDGE RECEIPT OF INFORMATION X\n[Departure ATIS] EGLL DEP ATIS O 2020Z DEPARTURE RWY 27L RUNWAY 27R REDUCED DECLARED DISTANCES WITH TAKE OFF RUN AVAILABLE 3362METRES AND LANDING DISTANCE AVAILABLE 3362METRES PILOTS THAT ARE IN RECEIPT OF DATALINK CLEARANCES ARE REMINDED THEY MUST CONTACT DELIVERY ON 121.980 WHEN READY FOR START AUTO 16007KT 120V210 9999 NCD 28/16 Q1016 ACKNOWLEDGE RECEIPT OF INFORMATION O AND REPORT AIRCRAFT TYPE AND CURRENT QNH ON FIRST CONTACT WITH HEATHROW",
    "EPWA": "[Arrival ATIS] EPWA ARR ATIS E 1618Z EPWA ARR E. TIME 1618. EXP U ARR ILS Z APCH FOR RWY 33. RWY 33 RCC 5, 5, 5. 1ST PART, WET. 2ND PART, WET. 3RD PART, WET. RWY REPORT END. TRANSITION LEVEL 80. WIND 280 DEG, 7 KT, VRB BTN 260 AND 330 DEG. VIS TDZ 10 KM OR MORE. WX FBL SHRA. CLD SCT CB 4000 FT. T 17. DP 10. QNH 1011. NOSIG. CAUTION. BIRD ACT. END OF EPWA ARR E\n[Departure ATIS] EPWA DEP ATIS T 1431Z EPWA DEP T. TIME 1430. DEP RWY 29. ARR RWY 33, EXP U ARR ILS Z. REPORT READY FOR STARTUP ON DELIVERY 121. 605 DATALINK DEP CLR UNAVAILABLE. RWY 29 RCC 6, 6, 6. 1ST PART, DRY. 2ND PART, DRY. 3RD PART, DRY. RWY REPORT END. TRANSITION LEVEL 80. WIND 290 DEG, 10 KT. VIS MID 10 KM OR MORE. CLD FEW 4000 FT. T 17. DP 11. QNH 1010. NOSIG. CAUTION. BIRD ACT. END OF EPWA DEP T",
    "EFHK": "[Arrival ATIS] EFHK ARR ATIS Q 0950Z EXPECT ILS APCH ARR RWY 22L RUNWAY 22L CONDITION REPORT AT 0750 UTC RUNWAY CONDITION CODES 6 , 6 , 6 CONTAMINANTS ALL PARTS DRY TRL 60 WIND 190 DEG 9 KT VRB BTN 160 AND 240 DEG CAVOK T 22 DP 13 QNH 1019 NOSIG ACK INFO Q\n[Departure ATIS] EFHK DEP ATIS H 1620Z DEP RWYS 22R AND 22L RUNWAY 22R CONDITION REPORT AT 1329 UTC RUNWAY CONDITION CODES 6 , 6 , 6 CONTAMINANTS ALL PARTS DRY RUNWAY 22L CONDITION REPORT AT 1330 UTC RUNWAY CONDITION CODES 6 , 6 , 6 CONTAMINANTS ALL PARTS DRY WIND 110 DEG 6 KT VIS 10KM FEW 1400 FT. SCT 1600 FT. FEW TCU 2800 FT T 19 DP 15 QNH 1003 TEMPO CLD FEW CB 3000 FT. ACK INFO H",
    "LTAC": "[Arrival ATIS] LTAC ARR ATIS L 1920Z EXP ILS V APCH 03C DEP RWY 03L RWY 03C WIND 300 DEG 04 KT VRB BTN 270 DEG AND 360 DEG RWY 03L WIND 290 DEG 05 KT VRB BTN 270 DEG AND 330 DEG TRL 115 VIS 9999 SCT04000 FT BKN10000 FT T 23 DP 09 QNH 1010 NOSIG FOR DELIVERY CTC 121.9. FOR DELIVERY FIRST USE DIGITAL DEP CLR. CTN BIRD HAZARD OVR AERODROME. APCH FREQUENCY 129.050. END OF ATIS L",
    "UBBB": "[Arrival ATIS] UBBB ARR ATIS V 2000Z ATIS V EXP ILS/ LDG 34 35 DEP 34 35 IN USE RWY 34 CLEAR DRY 70 RWY 35 CLEAR DRY 70 TLVL 110 WIND WIND RWY 34 310 8 KT SPD MAX 10 MIN 6 WIND RWY 35 310 8 KT SPD MAX 10 MIN 6 VIS CAVOK T 23 / DP 21 QNH 1009 HPA TREND TREND NOSIG MODERATE BIRDS ACT IN VICINITY OF AP END OF ATIS V\n[Departure ATIS] UBBB DEP ATIS X 0900Z ATIS X EXP ILS/ LDG 35 DEP 35 IN USE RWY 35 CLEAR DRY 70 TLVL 110 WIND WIND RWY 34 360 12 KT SPD MAX 16 MIN 8 WIND RWY 35 010 12 KT SPD MAX 16 MIN 8 VIS CAVOK T 30 / DP 19 QNH 1012 HPA TREND TREND NOSIG MODERATE BIRDS ACT IN VICINITY OF AP RWY 34 DUE TO MAINTENANCE NOT IS USE END OF ATIS X",
    "ZWWW": "[Arrival ATIS] ZWWW ARR ATIS A 1930Z EXP ILSDME Z APCH LDG RWY 26L TA 3000 WIND 200/2MPS VRB BTN 170/ AND 240/ CAVOK T 23 /DP 14 QNH 1009 HPA ADZ YOU HAVE INFO A.\n[Departure ATIS] ZWWW DEP ATIS T 1000Z DEP RWY 26L TA 3000 WIND 180/3MPS VRB BTN 130/ AND 210/ VIS 9999M CLD FEW CB 1200M T 29 /DP 12 QNH 1007 HPA ADZ YOU HAVE INFO T.",
    "ZLXY": "[Arrival ATIS] ZLXY ARR ATIS R 1000Z EXP ILS APCH LDG RWY 23R WIND 250/5MPS VIS 9999M CLD SCT 1500M T 21 /DP 19 QNH 1011 HPA VISUAL APPROACH IN PROGRESS ADZ YOU HAVE INFO R.\n[Departure ATIS] ZLXY DEP ATIS L 0538Z DEP RWY 24R WIND 320/2MPS VIS 9999M CLD FEW CB 1200M /SCT 1500M /BKN 2100M T 26 /DP 20 QNH 1011 HPA VISUAL APPROACH IN PROGRESS ADZ YOU HAVE INFO L.",
    "ZBAA": "[Arrival ATIS] ZBAA ARR ATIS W 2000Z EXP ILS APCH LDG RWY 36L RWY 36R IS CLSD WIND 360 DEG 2 MPS 340V060 DEG VIS 9999 CLD FEW 780M T 25 /DP 24 QNH 1001 HPA RWY 36L RWYCC 5/5/5 ISSUED AT 1452 ALL PARTS WET NR 100PCT RWY 01 RWYCC 5/5/5 ISSUED AT 1452 ALL PARTS WET NR 100PCT ADZ YOU HAVE INFO W.\n[Departure ATIS] ZBAA DEP ATIS Y 0930Z DEP RWY 36L & 36R & 01 WIND 290 DEG 7G14 MPS 260V330 DEG CAVOK T 29 /DP 08 QNH 1006 HPA RWY INDEPENDENT PARALLEL DEP VISUAL APPROACH IS IN PROGRESS. ADZ YOU HAVE INFO Y.",
    "ZBHH": "[Arrival ATIS] ZBHH ARR ATIS X 0300Z EXP ILSDME APCH LDG RWY 26 TA 3000 /TRL 3600 WIND 340/5MPS CAVOK T 16 /DP 01 QNH 1016 HPA ADZ YOU HAVE INFO X.\n[Departure ATIS] ZBHH DEP ATIS T 2300Z DEP RWY 26 TA 3000 /TRL 3600 WIND 330/5MPS VRB BTN 280/ AND 360/ CAVOK T 10 /DP M01 QNH 1015 HPA ADZ YOU HAVE INFO T.",
    "ZSQD": "[Arrival ATIS] ZSQD ARR ATIS F 0800Z EXP ILSDME APCH LDG RWY 35 TA 3000 /TRL 3600 WIND 330/7MPS CAVOK T 32 /DP 16 QNH 1004 HPA SEGREGATED OPERATION VISUAL APPROACH OPERATION IN PROGRESS. RUNWAY 35,IF MISSED APPROACH,EXPECT FOLLOW THE STANDARD MISSED APPROACH PROCEDURE,CLIMB TO 1200M ON QNH OR BY ATC CAUTION MAYBE THERE IS A FLOCK OF BIRDS IN THE VICINITY OF AIRPORT ADZ YOU HAVE INFO F.\n[Departure ATIS] ZSQD DEP ATIS Z 0400Z DEP RWY 34 TA 3000 /TRL 3600 WIND 290/4MPS VIS 9999M CLD BKN 1200M T 29 /DP 18 QNH 1003 HPA SEGREGATED OPERATION VISUAL APPROACH OPERATION IN PROGRESS. RUNWAY 35,IF MISSED APPROACH,EXPECT FOLLOW THE STANDARD MISSED APPROACH PROCEDURE,CLIMB TO 1200M ON QNH OR BY ATC CAUTION MAYBE THERE IS A FLOCK OF BIRDS IN THE VICINITY OF AIRPORT ADZ YOU HAVE INFO Z."
  },
  "windtemp_alaska": "\n000\nFBAK31 KWNO 092002\nFD1AK1\nDATA BASED ON 091800Z    \nVALID 100000Z   FOR USE 2000-0300Z. TEMPS NEG ABV 24000\n\nFT  3000    6000    9000   12000   18000   24000  30000  34000  39000\nADK 0921 2017+10 2225+07 2229+01 2241-10 2254-22 216537 227246 227858\nADQ 3116 3220+03 3224-01 3328-07 3231-19 3228-30 363547 333052 323245\nAKN 3013 3421+04 3216-01 3217-06 3219-18 3109-30 990047 312251 303347\nANC 0105 0311+03 0415-01 0517-06 0631-20 0750-33 085647 073647 051645\nANN 1806 1810-01 1717-06 1822-11 1727-22 1834-35 203942 223240 232841\nBET 3012 2911+03 2709-01 2707-05 2912-19 3017-32 292346 292450 282447\nBRW 2515 2320+05 2321-01 2424-06 2335-19 2246-31 225547 224753 222748\nBTI 9900 9900+09 9900+02 9900-04 2411-16 2318-28 233344 234954 232956\nBTT 2805 3105+11 9900+03 2005-04 9900-17 1812-28 192445 183455 182253\nCDB 2607 2713+05 2715+02 2718-02 2935-14 2953-25 298040 299749 299459\nCZF 2517 2617+04 2714-03 2313-05 2513-18 2616-31 262347 272452 262247\nEHM 3216 3110+03 2912+00 2914-04 3018-17 3027-30 296244 297251 294750\nFAI 9900 0807+08 0614+03 0614-04 0812-16 1121-28 122445 144254 142153\nFYU 0106 0513+11 0417+03 0513-03 1411-15 1415-27 161443 172754 172457\nGAL 3111 3310+07 9900+01 9900-05 9900-17 2011-29 181947 152656 210849\nGKN 3605 0212+04 0513+00 0617-06 0725-19 0944-30 116246 116151 111947\nHOM 3309 3515+03 3618-02 3621-07 3527-18 3435-31 345247 353449 351644\nJNU 1506 9900+01 0905-04 0909-10 1012-21 1022-33 105545 113346 101242\nLUR 2113 2013+05 2121-01 2124-06 2123-20 2125-32 212748 212551 221646\nMCG 3419 0118+06 0416+00 0821-05 9900-18 3610-29 081047 091856 990048\nMDO 3010 3107+02 9900-03 9900-08 0407-21 3613-34 031247 061644 051143\nOME 2313 2214+03 2016-01 2019-05 2016-18 2115-32 211347 221652 241447\nORT      3305+05 0510+00 0718-05 0828-17 0941-28 104744 115453 103051\nOTZ 2516 2315+05 2116+00 2018-06 2028-19 1934-31 193748 202754 221647\nSNP 1913 1915+04 1915+01 1914-03 2319-15 2436-25 256941 258850 267556\nTKA 2905 0413+04 0518+01 0522-05 0523-18 0632-30 084547 094453 071247\nUNK 2817 2608+05 2307+00 2205-05 1710-19 1620-31 172848 171953 240948\nYAK 9900 0808+04 0713-02 0613-09 0915-21 1036-34 115645 103847 101743\nIKO 1626 2028+09 2126+05 2232+00 2336-10 2343-21 235236 246747 267559\nAFM 2714 9900+07 9900+01 2406-04 2117-17 2021-30 182748 183456 211350\n5AB 0406 9900+02 9900-01 2007-06 2030-17 2043-28 216042 216447 214448\n5AC 2725 2826-01 2827-06 2837-09 2750-21 2763-33 266341 255841 255142\n5AD 3522 3523+00 3425-04 3327-09 3234-20 3247-32 325947 314345 313342\n5AE 3124 3026+02 3132+00 3133-04 3138-17 3052-29 319043 319250 316851\n5AF 1108 0708-01 0410-05 0411-09 0612-23 0721-35 071944 990040 300540\n5AG 3215 3311+01 3610-03 0214-09 0116-22 0312-35 041347 051244 010742\n",
  "vaac_tokyo": [
    {
      "id": "20260708_30027000_0250",
      "year": "2026",
      "volcano": "Sheveluch",
      "psn": "N5639 E16122",
      "issued": "20260708",
      "text": "FVFE01 RJTD 081200\nVA ADVISORY\nDTG: 20260708/1200Z\nVAAC: TOKYO\nVOLCANO: SHEVELUCH 300270\nPSN: N5639 E16122\nAREA: RUSSIA\nSOURCE ELEV: 3283M AMSL\nADVISORY NR: 2026/250\nINFO SOURCE: HIMAWARI-9\nERUPTION DETAILS: VA CONTINUOUSLY OBS IN SATELLITE IMAGERY\nOBS VA DTG: 08/1120Z\nOBS VA CLD: SFC/FL280 N4932 E16000 - N5148 E16308 - N5423 E16933 - \nN5505 E17221 - N5306 E16745 - N5124 E16330 - N4901 E16026 MOV S 15KT \nSFC/FL230 N5012 E15831 - N5147 E16001 - N5139 E16025 - N4958 E15846 \nMOV S 35KT\nFCST VA CLD +6 HR: 08/1720Z SFC/FL280 N5555 E17556 - N5122 E16443 - \nN4646 E16257 - N4644 E16020 - N5129 E16251 - N5527 E17145 SFC/FL230 \nN5039 E16039 - N4856 E16039 - N4702 E15922 - N4719 E15818 - N4901 \nE15944 - N5038 E15950\nFCST VA CLD +12 HR: 08/2320Z SFC/FL280 N5645 W17953 - N5244 E16736 - \nN4651 E16724 - N4426 E16156 - N5133 E16228 - N5635 E17408 SFC/FL220 \nN4702 E16223 - N4456 E16046 - N4502 E15939 - N4745 E16119 - N4914 \nE16026 - N4946 E16119\nFCST VA CLD +18 HR: NO VA EXP\nRMK: THE RESPONSIBILITY FOR VA(FL280) IS BEING TRANSFERRED TO VAAC \nANCHORAGE. THE NEXT ADVISORY FOR THIS VA WILL BE ISSUED BY VAAC \nANCHORAGE BY 1800UTC UNDER HEADER FVAK21 PAWU. NORTHERN PART OF \nVA(FL230) OBSCURED BY MET CLOUD.\nNXT ADVISORY: 20260708/1800Z=",
      "img_url": "https://ds.data.jma.go.jp/svd/vaac/data/VAGFN/2026/Images/20260708_30027000_0250_QH21_01.png",
      "sat_img_url": "https://ds.data.jma.go.jp/svd/vaac/data/Sat/2026/Images/30027000/09-ir/20260708_1120_202607081200_ir.png",
      "text_url": "https://ds.data.jma.go.jp/svd/vaac/data/TextData/2026/20260708_30027000_0250_Text.html"
    },
    {
      "id": "20260706_27202000_0232",
      "year": "2026",
      "volcano": "Kanlaon",
      "psn": "N1025 E12308",
      "issued": "20260706",
      "text": "FVFE01 RJTD 061545\nVA ADVISORY\nDTG: 20260706/1545Z\nVAAC: TOKYO\nVOLCANO: KANLAON 272020\nPSN: N1025 E12308\nAREA: PHILIPPINES\nSOURCE ELEV: 2435M AMSL\nADVISORY NR: 2026/232\nINFO SOURCE: HIMAWARI-9 PHIVOLCS\nERUPTION DETAILS: ERUPTION AT 20260706/1520Z FL100 EXTD SW REPORTED\nOBS VA DTG: 06/1530Z\nOBS VA CLD: VA NOT IDENTIFIABLE FM SATELLITE DATA WIND FL100 350/5KT\nFCST VA CLD +6 HR: NOT AVBL\nFCST VA CLD +12 HR: NOT AVBL\nFCST VA CLD +18 HR: NOT AVBL\nRMK: WE WILL ISSUE FURTHER ADVISORY IF VA IS DETECTED IN SATELLITE \nIMAGERY.\nNXT ADVISORY: NO FURTHER ADVISORIES=",
      "img_url": "https://ds.data.jma.go.jp/svd/vaac/data/VAGFN/2026/Images/20260706_27202000_0232_QH21_01.png",
      "sat_img_url": null,
      "text_url": "https://ds.data.jma.go.jp/svd/vaac/data/TextData/2026/20260706_27202000_0232_Text.html"
    },
    {
      "id": "20260705_27303000_0717",
      "year": "2026",
      "volcano": "Mayon",
      "psn": "N1315 E12341",
      "issued": "20260705",
      "text": "FVFE01 RJTD 051936\nVA ADVISORY\nDTG: 20260705/1936Z\nVAAC: TOKYO\nVOLCANO: MAYON 273030\nPSN: N1315 E12341\nAREA: PHILIPPINES\nSOURCE ELEV: 2462M AMSL\nADVISORY NR: 2026/717\nINFO SOURCE: HIMAWARI-9 PHIVOLCS\nERUPTION DETAILS: ERUPTION AT 20260705/1914Z FL090 EXTD WSW REPORTED\nOBS VA DTG: 05/1920Z\nOBS VA CLD: VA NOT IDENTIFIABLE FM SATELLITE DATA WIND FL090 050/8KT\nFCST VA CLD +6 HR: NOT AVBL\nFCST VA CLD +12 HR: NOT AVBL\nFCST VA CLD +18 HR: NOT AVBL\nRMK: WE WILL ISSUE FURTHER ADVISORY IF VA IS DETECTED IN SATELLITE \nIMAGERY.\nNXT ADVISORY: NO FURTHER ADVISORIES=",
      "img_url": "https://ds.data.jma.go.jp/svd/vaac/data/VAGFN/2026/Images/20260705_27303000_0717_QH21_01.png",
      "sat_img_url": null,
      "text_url": "https://ds.data.jma.go.jp/svd/vaac/data/TextData/2026/20260705_27303000_0717_Text.html"
    },
    {
      "id": "20260701_30006000_0001",
      "year": "2026",
      "volcano": "Mutnovsky",
      "psn": "N5227 E15812",
      "issued": "20260701",
      "text": "FVFE01 RJTD 012206\nVA ADVISORY\nDTG: 20260701/2206Z\nVAAC: TOKYO\nVOLCANO: MUTNOVSKY 300060\nPSN: N5227 E15812\nAREA: RUSSIA\nSOURCE ELEV: 2288M AMSL\nADVISORY NR: 2026/1\nINFO SOURCE: KVERT KBGS UHPP HIMAWARI-9\nERUPTION DETAILS: ERUPTION AT 20260701/2016Z FL170 EXTD W REPORTED\nOBS VA DTG: 01/2140Z\nOBS VA CLD: VA NOT IDENTIFIABLE FM SATELLITE DATA WIND FL170 120/8KT\nFCST VA CLD +6 HR: NOT AVBL\nFCST VA CLD +12 HR: NOT AVBL\nFCST VA CLD +18 HR: NOT AVBL\nRMK: WE WILL ISSUE FURTHER ADVISORY IF VA IS DETECTED IN SATELLITE \nIMAGERY.\nNXT ADVISORY: NO FURTHER ADVISORIES=",
      "img_url": "https://ds.data.jma.go.jp/svd/vaac/data/VAGFN/2026/Images/20260701_30006000_0001_QH21_01.png",
      "sat_img_url": null,
      "text_url": "https://ds.data.jma.go.jp/svd/vaac/data/TextData/2026/20260701_30006000_0001_Text.html"
    }
  ],
  "vaac_alaska": [
    {
      "text": "\n000\nFVAK21 PAWU 091128\nVAAAK1\nVA ADVISORY\n\nDTG: 20260709/1125Z\n\nVAAC: ANCHORAGE\n\nVOLCANO: SHEVELUCH 300270\n\nPSN: N5639 E16122\n\nAREA: KAMCHATKA PENINSULA\n\nSOURCE ELEV: 10771 FT AMSL\n\nADVISORY NR: 2026/189\n\nINFO SOURCE: HIMAWARI\n\nERUPTION DETAILS: VA NOT IDENTIFIABLE FM SATELLITE DATA.\n\nOBS VA DTG: 09/1125Z\n\nOBS VA CLD: VA NOT IDENTIFIABLE FM SATELLITE DATA\n\nFCST VA CLD +6HR: NOT AVBL\n\nFCST VA CLD +12HR: NOT AVBL\n\nFCST VA CLD +18HR: NOT AVBL\n\nRMK: A NEW ADVISORY WILL BE ISSUED IF VA IS DETECTED IN SATELLITE IMAGERY....TS\n\nNXT ADVISORY: NO FURTHER ADVISORIES=\n\n",
      "issued": "2026-07-09T11:28:00+00:00",
      "volcano": "Sheveluch",
      "psn": "N5639 E16122"
    }
  ]
}