{
  "updated_utc": "2026-07-01T10:38Z",
  "metar": {
    "RJAA": "METAR RJAA 010900Z 14005KT 9999 FEW010 BKN025 BKN/// 23/21 Q1011 NOSIG",
    "PANC": "METAR PANC 010853Z 17004KT 9SM FEW060 07/06 A2999 RMK AO2 SLP157 T00720056 401500072 58002",
    "PAFA": "METAR PAFA 010853Z 29003KT 10SM FEW060 FEW200 11/07 A2997 RMK AO2 SLP153 T01060067 401780089 53002 $",
    "PAED": "METAR PAED 010855Z 06003KT 10SM FEW060 09/06 A2997 RMK AO2A SLP145 T00940061 401560081 58000 $",
    "KSEA": "SPECI KSEA 010846Z 18004KT 10SM BKN020 12/08 A3006 RMK AO2 T01170083 $",
    "ZSPD": "METAR ZSPD 010900Z 23002MPS 200V270 9999 OVC033 26/24 Q1007 NOSIG",
    "ZSSS": "METAR ZSSS 010900Z 24002MPS 170V320 9999 SCT013 26/24 Q1007 BECMG TL0940 BKN013",
    "RJFR": "METAR RJFR 010900Z 22014KT 9999 -SHRA FEW005 BKN025 OVC/// 26/24 Q1004",
    "VHHH": "METAR VHHH 010900Z 12008KT 100V160 9999 FEW020 33/25 Q1006 NOSIG",
    "RCTP": "METAR RCTP 010900Z 31005KT 9999 FEW010 SCT018 BKN025 30/26 Q1009 NOSIG RMK A2980",
    "ZGSZ": "METAR ZGSZ 010900Z 20004MPS 9999 FEW030 31/27 Q1006 NOSIG",
    "WSSS": "METAR WSSS 010900Z 18006KT 9999 FEW016TCU FEW018CB SCT150 30/25 Q1008 NOSIG",
    "WMKK": "METAR WMKK 010900Z VRB03KT 9999 FEW017CB 32/25 Q1006 NOSIG",
    "WIDD": "METAR WIDD 010900Z 18004KT 8000 SCT014 28/26 Q1008 NOSIG",
    "VTBS": "METAR VTBS 010900Z 20010KT 160V220 9999 FEW020 32/23 Q1003 NOSIG",
    "VTBU": "METAR VTBU 010900Z 24007KT 9999 FEW020 31/28 Q1004 NOSIG",
    "ROAH": "METAR ROAH 010900Z 18010KT 9999 FEW011 BKN/// 29/27 Q1011",
    "VVDN": "METAR VVDN 010900Z VRB04KT 9999 VCSH FEW017 SCT020CB SCT060 31/26 Q1004 TEMPO 25015G25KT 3500 TSRA",
    "RCKH": "METAR RCKH 010900Z 27012KT 9999 FEW020 SCT038 BKN200 32/25 Q1007 NOSIG RMK 27012KT/R09 A2975",
    "KLAX": "METAR KLAX 010853Z 28004KT 10SM BKN017 OVC037 18/14 A2990 RMK AO2 SLP124 T01780139 58010 $",
    "KONT": "METAR KONT 010853Z 26004KT 10SM SCT040 17/13 A2990 RMK AO2 SLP116 T01670133 58009 $",
    "KSFO": "METAR KSFO 010856Z 28005KT 10SM FEW008 13/10 A2986 RMK AO2 SLP111 T01330100 57006 $",
    "KOAK": "METAR KOAK 010853Z 22007KT 10SM FEW008 FEW015 14/11 A2986 RMK AO2 SLP111 T01440111 58006",
    "KMHR": "METAR KMHR 010855Z AUTO 14005KT 10SM CLR 13/10 A2978 RMK AO2 T01330100 56004 $",
    "KDFW": "METAR KDFW 010853Z 17011KT 10SM CLR 27/22 A2998 RMK AO2 SLP140 T02720217 58001 $",
    "KIAH": "METAR KIAH 010853Z 17004KT 10SM FEW020 26/25 A3000 RMK AO2 SLP157 T02610250 56003",
    "KORD": "METAR KORD 010851Z 22008KT 10SM CLR 27/23 A2994 RMK AO2 SLP131 T02720228 50003 $",
    "KJFK": "METAR KJFK 010851Z 21008KT 10SM SCT050 BKN075 BKN110 BKN250 23/18 A3001 RMK SLP161 T02280178 58007",
    "KRFD": "METAR KRFD 010854Z 18005KT 10SM CLR 25/22 A2994 RMK AO2 SLP131 T02500222 $",
    "KIND": "METAR KIND 010854Z 23004KT 9SM CLR 24/23 A3006 RMK AO2 SLP169 T02390233 53007",
    "KDTW": "METAR KDTW 010853Z 23009KT 9SM CLR 27/23 A2997 RMK AO2 SLP141 T02670233 53001",
    "KMSP": "METAR KMSP 010853Z 13004KT 10SM CLR 23/19 A2979 RMK AO2 SLP081 T02280194 58014",
    "CYEG": "METAR CYEG 010900Z 22004KT 20SM BKN120 14/13 A2976 RMK AC7 SLP082 DENSITY ALT 3000FT",
    "EHAM": "METAR EHAM 010855Z VRB03KT 9999 FEW025 21/12 Q1021 NOSIG",
    "EBBR": "METAR EBBR 010850Z 27004KT 190V330 9999 SCT024 20/14 Q1023 NOSIG",
    "EDDF": "METAR EDDF 010850Z AUTO 33005G16KT 210V010 9999 FEW034 23/13 Q1020 NOSIG",
    "EDFH": "METAR EDFH 010850Z 32005KT 270V040 9999 FEW022 SCT029 20/12 Q1022",
    "EDDL": "METAR EDDL 010850Z AUTO 28009KT 250V350 CAVOK 22/11 Q1021 NOSIG",
    "EDDK": "METAR EDDK 010850Z AUTO 33009KT 290V360 9999 FEW034 23/14 Q1021 NOSIG",
    "EBLG": "METAR EBLG 010850Z 25007KT 210V290 9999 R22R///// FEW030 19/11 Q1023 NOSIG",
    "LSZH": "METAR LSZH 010850Z 23005KT 9999 VCSH FEW012 SCT025 FEW035CB BKN075 20/17 Q1022 TEMPO 29015G30KT 4000 TSRA",
    "LIMC": "METAR LIMC 010850Z 28005KT 260V340 CAVOK 29/19 Q1013 NOSIG",
    "LIRF": "METAR LIRF 010850Z 26005KT 230V320 CAVOK 31/18 Q1013 NOSIG",
    "EINN": "METAR EINN 010900Z 23009KT 9999 FEW017 BKN023 BKN080 15/11 Q1025 NOSIG",
    "EGLL": "METAR EGLL 010850Z AUTO 32008KT 270V020 9999 BKN028 20/12 Q1024",
    "EGSS": "METAR EGSS 010850Z AUTO 30006KT 250V350 9999 BKN030 21/13 Q1023",
    "EPWA": "METAR EPWA 010900Z 09008KT 050V130 CAVOK 27/17 Q1013 NOSIG",
    "UHPP": "METAR UHPP 010900Z 17004MPS 9999 FEW013 SCT016 10/05 Q1015 R34L/CLRD62 NOSIG RMK MT OBSC QFE758/1010",
    "EFHK": "METAR EFHK 010850Z 13008KT 090V170 9999 FEW040 23/12 Q1019 TEMPO FEW050TCU",
    "LBBG": "METAR LBBG 010900Z 14010KT 9999 FEW044 31/19 Q1012 NOSIG",
    "LTAC": "METAR LTAC 010850Z 08010KT 050V120 CAVOK 28/08 Q1015 NOSIG RMK RWY21C 11014KT RWY03L 08011KT 040V110 RWY21R 10014KT RWY03R 06011KT 020V090 RWY21L 07010KT 030V100",
    "UBBB": "METAR UBBB 010900Z 32016KT CAVOK 29/13 Q1012 NOSIG",
    "UTAA": "METAR UTAA 010900Z 28006KT 9999 FEW050CB SCT050 31/07 Q1008 R88/CLRD70 NOSIG",
    "UACC": "METAR UACC 010900Z 21009MPS 9999 BKN046 27/07 Q1003 NOSIG RMK QFE722/0962",
    "UAAA": "METAR UAAA 010900Z 04005MPS 9999 BKN050CB OVC100 26/15 Q1007 NOSIG",
    "UZTT": "METAR UZTT 010900Z 18008KT 150V210 CAVOK 32/14 Q1007 NOSIG",
    "ZWWW": "METAR ZWWW 010900Z 36005MPS CAVOK 40/10 Q1003 NOSIG",
    "ZLXY": "METAR ZLXY 010900Z VRB02MPS CAVOK 33/19 Q1006 NOSIG",
    "ZBAA": "METAR ZBAA 010900Z 15002MPS 100V230 9999 FEW040 30/21 Q1004 NOSIG",
    "ZBHH": "METAR ZBHH 010900Z 17002MPS 140V210 9999 -SHRA SCT040 FEW040CB 25/19 Q1010 BECMG TL0920 -TSRA",
    "ZSQD": "METAR ZSQD 010900Z 16003MPS 130V190 CAVOK 28/18 Q1005 NOSIG",
    "ZMCK": "METAR ZMCK 010900Z VRB02MPS 9999 FEW030CB SCT033 29/09 Q1011 NOSIG RMK QFE643.6 26 MOP",
    "UUEE": "METAR UUEE 010900Z 34005MPS 290V020 9999 SCT043 27/14 Q1016 R24L/CLRD62 R24C/CLRD62 NOSIG",
    "UUDD": "METAR UUDD 010900Z 35005MPS 300V030 9999 SCT046 28/15 Q1016 R13R/CLRD65 NOSIG",
    "ULLI": "METAR ULLI 010900Z 36003MPS 280V070 9999 SCT040 24/13 Q1018 R10L/090065 NOSIG",
    "USSS": "METAR USSS 010900Z 28003MPS 9999 SCT046CB 24/12 Q1004 R26L/CLRD60 R26R/CLRD60 NOSIG RMK QFE733/0977",
    "UNNT": "METAR UNNT 010900Z 01003MPS 340V060 CAVOK 29/13 Q1009 R25/CLRD// R34/////// NOSIG RMK QFE747/0996",
    "UNKL": "METAR UNKL 010900Z 22004MPS CAVOK 22/18 Q1008 R11/CLRD// NOSIG RMK QFE731",
    "UIBB": "METAR UIBB 010900Z 02002MPS 9999 SCT033CB 21/19 Q1006 R30/250160 NOSIG RMK QFE712/0949",
    "UEEE": "METAR UEEE 010900Z 12002MPS CAVOK 30/07 Q1003 R23/09//61 NOSIG RMK QFE744",
    "UHHH": "METAR UHHH 010900Z 03004MPS CAVOK 24/07 Q1010 R05L/090060 NOSIG RMK QFE752/1002",
    "UHSS": "METAR UHSS 010900Z 20002MPS 9999 SCT040 14/10 Q1014 R19/CLRD70 NOSIG RMK QFE759/1012"
  },
  "taf": {
    "RJAA": "TAF RJAA 010505Z 0106/0212 14008KT 8000 FEW010 SCT020 TEMPO 0110/0113 4000 BR TEMPO 0113/0116 4000 BR FEW003 BKN005 TEMPO 0116/0118 3000 -RA BR FEW001 SCT002 BKN003 TEMPO 0118/0121 2000 SHRA BR FEW001 SCT002 BKN003 TEMPO 0121/0203 1500 +SHRA BR FEW001 SCT002 BKN003 BECMG 0200/0203 01014KT TEMPO 0203/0206 FEW003 BKN008",
    "PANC": "TAF PANC 010522Z 0106/0212 26007KT P6SM FEW050 FM010700 17005KT P6SM FEW035 FM011000 18003KT P6SM FEW003 FEW035 SCT120 FM012000 27007KT P6SM SCT040 BKN080 FM020600 18005KT P6SM FEW045 SCT100",
    "PAFA": "TAF PAFA 010530Z 0106/0212 27008KT P6SM FEW040 SCT070 FM011200 VRB02KT P6SM SCT050 FM012000 05006KT P6SM SKC",
    "PAED": "TAF PAED 010500Z 0105/0211 24009KT 9999 SCT050 BKN100 QNH2983INS BECMG 0121/0122 24010G18KT 9999 VCSH SCT060 BKN120 QNH2977INS BECMG 0207/0208 20009KT 9999 NSW SCT070 QNH2979INS TX19/0203Z TN07/0113Z",
    "KSEA": "TAF KSEA 010901Z 0109/0212 19007KT P6SM BKN020 FM011500 20008KT P6SM SCT008 OVC015 FM012100 23008KT P6SM SCT025 BKN035 FM020300 26005KT P6SM BKN040 FM021100 21006KT P6SM SCT025 BKN040",
    "ZSPD": "TAF ZSPD 010903Z 0112/0218 19004MPS 6000 BKN015 TX24/0112Z TX28/0206Z TN23/0121Z",
    "ZSSS": "TAF ZSSS 010903Z 0112/0218 19004MPS 6000 BKN020 TX25/0112Z TX29/0206Z TN23/0121Z",
    "RJFR": "TAF RJFR 010505Z 0106/0212 17010KT 8000 -SHRA FEW006 SCT008 BKN015 TEMPO 0106/0109 4000 TSRA BR FEW008 SCT010 FEW012CB BKN015 BECMG 0109/0111 28010KT TEMPO 0109/0112 2000 +TSRA BR BKN005 BKN008 FEW012CB TEMPO 0112/0114 4000 -SHRA BR BKN005 BKN008 TEMPO 0114/0200 BKN008 BKN015",
    "VHHH": "TAF VHHH 010800Z 0109/0215 12010KT 9999 FEW015 SCT030 TX34/0206Z TN29/0122Z TEMPO 0109/0110 27010KT TEMPO 0121/0203 3000 SHRA FEW010CB SCT020",
    "RCTP": "TAF RCTP 010500Z 0106/0212 01005KT 9999 FEW015 BKN032 TEMPO 0106/0110 32008KT FEW010 FEW015TCU BKN017 BECMG 0112/0114 16005KT TEMPO 0118/0124 10005KT BECMG 0200/0202 01005KT TEMPO 0203/0209 32008KT",
    "ZGSZ": "TAF ZGSZ 010904Z 0112/0218 10004MPS 8000 FEW040 TX30/0112Z TX32/0206Z TN28/0122Z BECMG 0204/0205 16004MPS",
    "WSSS": "TAF WSSS 010500Z 0106/0212 20008KT 9999 FEW015 SCT020",
    "WMKK": "TAF WMKK 010500Z 0106/0212 VRB03KT 9999 FEW018 PROB30 TEMPO 0110/0112 5000 TSRA FEW017CB",
    "VTBS": "TAF VTBS 010500Z 0106/0212 22008KT 9999 FEW020 TEMPO 0110/0114 VRB15KT 4000 TSRA FEW018CB SCT030 BKN100",
    "VTBU": "TAF VTBU 010500Z 0106/0206 25012KT 9999 FEW020 SCT100 BECMG 0118/0120 35004KT BECMG 0201/0203 25010KT",
    "ROAH": "TAF ROAH 010505Z 0106/0212 19010KT 9999 FEW010 SCT015 TEMPO 0115/0121 FEW005 BKN008",
    "VVDN": "TAF VVDN 010500Z 0106/0206 08010KT 9999 FEW020 TEMPO 0106/0108 TS SCT013 FEW015CB SCT050 TEMPO 0108/0111 26017G28KT 2500 +TSRA BKN010 SCT015CB BKN050 TEMPO 0111/0113 26015G25KT 4000 TSRA BKN013 FEW015CB BKN050 BECMG 0113/0114 20006KT",
    "RCKH": "TAF AMD RCKH 010810Z 0108/0212 16005KT 9999 FEW015 BKN032 TEMPO 0108/0112 31010KT TEMPO 0118/0124 09005KT BECMG 0201/0203 18010KT",
    "KLAX": "TAF KLAX 010837Z 0109/0212 28006KT P6SM BKN015 BKN035 FM011100 26005KT P6SM OVC015 FM011700 25012KT P6SM BKN025 FM012100 25012G20KT P6SM SCT035 FM020300 26010KT P6SM SKC FM020900 26005KT P6SM OVC015",
    "KONT": "TAF KONT 011001Z 0110/0212 VRB04KT P6SM OVC025 FM011700 VRB04KT P6SM SCT025 FM012100 25011KT P6SM SKC FM020600 VRB05KT P6SM FEW020 FM021100 VRB04KT P6SM BKN015",
    "KSFO": "TAF KSFO 010901Z 0109/0212 26010KT P6SM FEW010 FM011000 24004KT P6SM SCT010 FM011600 25009KT P6SM FEW010 FM012000 25016KT P6SM SKC FM020500 27004KT P6SM SCT010",
    "KOAK": "TAF KOAK 010520Z 0106/0212 25007KT P6SM FEW010 FM010900 24010KT P6SM SCT010 FM011800 25011KT P6SM FEW010 FM020400 26006KT P6SM FEW010 FM020900 24009KT P6SM SCT010",
    "KMHR": "TAF KMHR 010520Z 0106/0206 22007KT P6SM SKC FM010700 16007KT P6SM SKC FM011700 22006KT P6SM SKC",
    "KDFW": "TAF KDFW 010902Z 0109/0212 17011KT P6SM FEW022 TEMPO 0112/0115 BKN022 FM011500 18015KT P6SM SCT250",
    "KIAH": "TAF KIAH 010849Z 0109/0212 VRB02KT P6SM FEW020 FM011000 VRB03KT P6SM SCT015 SCT025 FM011400 16007KT P6SM SCT020 BKN035 FM011800 14010KT P6SM SCT035 BKN050 BKN120 FM020500 15004KT P6SM FEW120 BKN200",
    "KORD": "TAF KORD 010900Z 0109/0212 23009KT P6SM SKC FM011200 25013G22KT P6SM FEW015 FEW300 FM011500 23011G19KT P6SM SCT030 SCT300 FM012000 21016G27KT P6SM FEW040 FEW300 FM020200 22010KT P6SM FEW050 SCT300",
    "KJFK": "TAF KJFK 010829Z 0108/0212 22010KT P6SM SCT060 SCT100 BKN250 FM011500 19013KT P6SM FEW070 SCT250 FM011900 18017G23KT P6SM SCT070 SCT250 FM020100 21012KT P6SM FEW070",
    "KRFD": "TAF KRFD 010522Z 0106/0206 20008KT P6SM SKC FM011200 25013G22KT 6SM HZ FEW015 FEW300 FM011500 23011G19KT P6SM SCT030 SCT300 FM012000 21016G27KT P6SM FEW040 FEW300 FM020100 22011G17KT P6SM FEW050 SCT300",
    "KIND": "TAF KIND 010520Z 0106/0212 19008KT P6SM SKC FM011800 22010KT P6SM SKC",
    "KDTW": "TAF KDTW 010854Z 0109/0212 24007KT P6SM SKC FM011600 24013G21KT P6SM SCT060 FM020100 23008KT P6SM SKC",
    "KMSP": "TAF KMSP 010853Z 0109/0212 14005KT P6SM BKN250 FM011100 19008KT P6SM -SHRA BKN080 TEMPO 0112/0114 2SM -TSRA OVC040CB FM011700 20010G18KT P6SM SCT050 BKN200 FM012200 21010G20KT P6SM BKN050 PROB30 0123/0203 4SM -TSRA OVC050CB FM020300 20006KT P6SM BKN070",
    "CYEG": "TAF CYEG 010840Z 0109/0206 VRB03KT P6SM BKN100 TEMPO 0109/0114 3SM BR BKN008 PROB30 0109/0114 1/2SM FG VV002 FM011400 30005KT P6SM SCT006 BKN020 FM011800 VRB03KT P6SM BKN030 TEMPO 0118/0124 P6SM -SHRA BKN020 PROB30 0118/0124 VRB25G35KT 3SM TSRA OVC030CB FM020000 VRB03KT P6SM SCT030 TEMPO 0200/0204 BKN030 FM020400 24005KT P6SM SCT025 TEMPO 0204/0206 P6SM -SHRA VCTS BKN025CB RMK NXT FCST BY 011200Z",
    "EHAM": "TAF EHAM 010435Z 0106/0212 VRB02KT CAVOK BECMG 0107/0110 31011KT BECMG 0118/0121 23005KT BECMG 0203/0206 22013KT BECMG 0207/0210 25017G27KT TEMPO 0209/0212 7000 -RA BKN015 OVC025",
    "EBBR": "TAF EBBR 010510Z 0106/0212 26005KT 9999 FEW035 BECMG 0111/0113 32010KT BECMG 0119/0121 25006KT PROB30 TEMPO 0210/0212 BKN013",
    "EDDF": "TAF EDDF 010500Z 0106/0212 33008KT 9999 SCT030 BECMG 0122/0124 VRB03KT BECMG 0206/0208 24008KT",
    "EDFH": "TAF EDFH 010500Z 0106/0206 32006KT CAVOK BECMG 0121/0123 VRB03KT",
    "EDDL": "TAF EDDL 010500Z 0106/0212 VRB03KT CAVOK BECMG 0107/0110 30009KT BECMG 0119/0121 VRB03KT BECMG 0203/0206 19006KT BECMG 0207/0210 24012KT TEMPO 0210/0212 26015G25KT",
    "EDDK": "TAF EDDK 010500Z 0106/0212 VRB03KT CAVOK BECMG 0107/0110 31009KT BECMG 0119/0121 VRB03KT BECMG 0206/0209 25011KT",
    "EBLG": "TAF EBLG 010510Z 0106/0212 26005KT 9999 FEW035 BECMG 0111/0113 32010KT BECMG 0120/0122 25006KT PROB30 TEMPO 0211/0212 BKN012",
    "LSZH": "TAF LSZH 010825Z 0109/0215 27015G30KT 6000 TSRA FEW015 FEW030CB BKN050 TX24/0114Z TN14/0204Z TX26/0214Z BECMG 0109/0111 23005KT 9999 NSW FEW025 PROB40 TEMPO 0111/0118 SHRA SCT030TCU PROB30 TEMPO 0113/0117 32015KT TSRA FEW030CB BECMG 0121/0123 VRB01KT CAVOK BECMG 0123/0202 3000 MIFG NSC PROB40 0202/0206 1500 BCFG PROB30 TEMPO 0204/0206 0400 FG VV002 BECMG 0206/0208 9999 FEW025",
    "LIMC": "TAF LIMC 010500Z 0106/0212 VRB05KT 9999 SCT050 BECMG 0110/0112 36012KT TEMPO 0110/0114 35020G30KT 4000 TSRAGR BKN010 BECMG 0118/0120 VRB05KT",
    "LIRF": "TAF LIRF 010500Z 0106/0212 VRB05KT CAVOK BECMG 0109/0111 27011KT BECMG 0118/0120 VRB05KT BECMG 0202/0204 13012KT TEMPO 0205/0212 4000 TSRA BKN014",
    "EINN": "TAF EINN 010500Z 0106/0206 26010KT 9999 FEW013 BKN022 BECMG 0107/0109 22010KT BECMG 0110/0112 19010KT BECMG 0113/0115 22015KT BKN013 BECMG 0115/0117 24018G31KT BECMG 0117/0119 BKN007 TEMPO 0119/0122 3000 -RADZ BKN004 BECMG 0121/0123 27017G29KT BKN010 BECMG 0200/0202 29011KT BKN023",
    "EGLL": "TAF EGLL 010504Z 0106/0212 29009KT 9999 SCT030 PROB30 TEMPO 0106/0107 BKN012 TEMPO 0203/0210 BKN012 PROB30 TEMPO 0205/0210 8000 -RA SHRA",
    "EGSS": "TAF EGSS 010502Z 0106/0212 28008KT 9999 SCT030 PROB30 TEMPO 0106/0107 8000 BKN010 TEMPO 0203/0206 BKN011 PROB30 TEMPO 0204/0209 8000 -RA -SHRA",
    "EPWA": "TAF EPWA 010830Z 0109/0209 10010KT CAVOK BECMG 0109/0110 VRB02KT BECMG 0110/0113 34010KT PROB40 TEMPO 0113/0124 4000 TSRA BKN050CB PROB30 TEMPO 0114/0121 VRB30G40KT 1000 +TSRAGR BKN030CB TEMPO 0122/0206 BKN004 BKN008",
    "UHPP": "TAF UHPP 010731Z 0109/0215 34003G08MPS 9999 SCT040 TEMPO 0112/0122 0700 FG VV002 BECMG 0200/0202 17005G10MPS",
    "EFHK": "TAF AMD EFHK 010910Z 0109/0209 12009KT CAVOK TEMPO 0109/0111 FEW050TCU PROB40 TEMPO 0111/0118 FEW050CB BECMG 0203/0205 6000 SHRA BKN009 SCT030CB TEMPO 0205/0209 9000 -RA SCT010 BKN040",
    "LBBG": "TAF LBBG 010500Z 0106/0206 VRB03KT CAVOK BECMG 0108/0110 11014KT BECMG 0118/0120 VRB03KT",
    "LTAC": "TAF LTAC 010440Z 0106/0206 06008KT CAVOK BECMG 0108/0110 FEW040 BECMG 0113/0115 CAVOK",
    "UBBB": "TAF UBBB 010502Z 0106/0206 32010KT CAVOK TX30/0111Z TN22/0201Z TEMPO 0106/0114 34016KT SCT025 FEW060CB TEMPO 0114/0116 28005KT SCT015 BECMG 0116/0118 25006KT SCT020 TEMPO 0120/0202 23012KT FEW012",
    "UTAA": "TAF UTAA 010445Z 0106/0206 34016KT 6000 SCT050CB SCT050 TEMPO 0106/0110 29014G24KT 4000 DRDU TEMPO 0110/0116 03014KT",
    "UACC": "TAF UACC 010501Z 0106/0206 22006MPS 9999 SCT040 BKN060 TX29/0109Z TN15/0123Z TEMPO 0106/0116 24009G14MPS SCT030CB BECMG 0116/0118 01005MPS TEMPO 0118/0203 07005MPS TEMPO 0203/0206 11006MPS -SHRA SCT030CB",
    "UAAA": "TAF UAAA 010505Z 0106/0206 04003G08MPS 9999 BKN040CB OVC100 TX27/0110Z TN19/0201Z TEMPO 0106/0114 10005G10MPS 2500 TSRA BKN015CB BECMG 0114/0115 20003G08MPS TEMPO 0202/0206 04003G08MPS 5000 -TSRA",
    "UZTT": "TAF UZTT 010500Z 0106/0206 23010KT 7000 NSC TEMPO 0106/0112 32012G22KT FEW060CB PROB40 TEMPO 0108/0116 VRB15G25KT -TSRA SCT060CB",
    "ZWWW": "TAF ZWWW 010901Z 0112/0218 36004MPS CAVOK TX38/0209Z TN29/0123Z TN30/0218Z BECMG 0114/0115 18004MPS BECMG 0202/0203 36004MPS BECMG 0213/0214 18004MPS",
    "ZLXY": "TAF ZLXY 010903Z 0112/0212 03003MPS 6000 NSC TX32/0207Z TN23/0121Z TEMPO 0207/0210 TSRA FEW040CB OVC050",
    "ZBAA": "TAF ZBAA 010900Z 0112/0218 15004MPS 5000 BR NSC TX34/0207Z TN21/0121Z TN25/0218Z",
    "ZBHH": "TAF ZBHH 010914Z 0112/0212 23004MPS 9999 FEW040 TX31/0207Z TN14/0122Z TEMPO 0206/0209 -TSRA FEW040CB FEW040",
    "ZSQD": "TAF ZSQD 010900Z 0112/0212 17004MPS 5000 BR NSC TX30/0206Z TN21/0120Z",
    "ZMCK": "TAF ZMCK 010444Z 0106/0212 VRB02MPS 9999 FEW030CB SCT033 TX29/0107Z TN14/0121Z PROB30 TEMPO 0108/0120 VRB08G13MPS TSRA SCT027CB SCT030 BECMG 0203/0205 33005MPS PROB40 TEMPO 0204/0212 VRB08G13MPS TSRA SCT027CB SCT030",
    "UUEE": "TAF UUEE 010756Z 0109/0209 34005MPS 9999 SCT040 TX28/0113Z TN17/0201Z TEMPO 0109/0116 36008G13MPS BECMG 0116/0118 04003MPS",
    "UUDD": "TAF UUDD 010754Z 0109/0215 35003MPS 9999 SCT040 TX30/0212Z TN18/0201Z TEMPO 0109/0116 35008G13MPS TEMPO 0208/0215 18008MPS",
    "ULLI": "TAF ULLI 010755Z 0109/0209 06003MPS 9999 BKN025 TEMPO 0203/0209 10005MPS 3100 -SHRA BKN016CB",
    "USSS": "TAF AMD USSS 010900Z 0109/0209 31003G13MPS 9999 BKN033CB TEMPO 0109/0119 -TSRA FM011900 03003G11MPS 6000 -SHRA BKN016CB",
    "UNNT": "TAF UNNT 010800Z 0109/0209 26003G08MPS 9999 SCT040 TX30/0109Z TN16/0122Z TEMPO 0203/0209 -TSRA BKN020CB",
    "UNKL": "TAF UNKL 010741Z 0109/0209 26003G08MPS 8000 SCT040CB TEMPO 0109/0110 28008G18MPS -TSRAGR BECMG 0110/0112 28008G18MPS -TSRAGR BECMG 0113/0115 26003MPS NSW FM011800 25003G08MPS CAVOK",
    "UIBB": "TAF UIBB 010800Z 0109/0209 31006G15MPS 9999 -TSRA BKN016CB TEMPO 0109/0115 VRB11MPS 0700 +TSRA VV006 BECMG 0115/0116 25003MPS NSW TEMPO 0116/0201 0300 FG VV001",
    "UEEE": "TAF UEEE 010800Z 0109/0215 14003G10MPS 9999 SCT030CB TX31/0207Z TN15/0118Z",
    "UHHH": "TAF UHHH 010749Z 0109/0215 12008MPS 9999 SCT030 TX28/0206Z TN15/0118Z TEMPO 0120/0201 FEW008 SCT030",
    "UHSS": "TAF UHSS 010750Z 0109/0215 20003MPS 9999 BKN030CB"
  },
  "atis": {
    "RJAA": "[Arrival ATIS] RJAA ARR ATIS M 0742Z M0730 (APCH)ILS Y RWY16L LDG RWY 16L DEP RWY 16R DEP FREQ 124.2. M 010730Z 17007KT 10KM FEW010CU BKN/// 24/21 Q1011/A2986= Q/TWO NINE EIGHT SIX STP\n[Departure ATIS] RJAA DEP ATIS I 1101Z M1100 (APCH)ILS Y RWY16L LDG RWY 16L DEP RWY 16R DEP FREQ 124.2. TWY A1 CLSD. M 171100Z 16006KT 20KM FEW020CU BKN/// 20/18 Q1016/A3003= Q/THREE ZERO ZERO THREE STP",
    "PANC": "[Arrival ATIS] PANC ARR ATIS N 1253Z ANC ATIS INFO N 1253Z. 20007KT 10SM SCT080 SCT130 10/06 A3021 (THREE ZERO TWO ONE). 7R APPROACHES IN USE. LANDING RWY 7R, DEPARTING RWY 33. NOTICE TO AIRMEN. RWY 7L CLSD. CHECK NOTAMS FOR TAXIWAY CLOSURES. CONTACT TOWER 118.3 FOR TAXI. ...ADVS YOU HAVE INFO N.\n[Departure ATIS] PANC DEP ATIS V 2053Z ANC ATIS INFO V 2053Z. 00000KT 10SM BKN017 BKN026 BKN060 10/07 A3004 (THREE ZERO ZERO FOUR). 7R, 7L APPROACHES IN USE. LNDG AND DEPG RWY 7L, LANDING RWY 7R, DEPARTING RWY 33. NOTICE TO AIRMEN. TWY Q CLSD. TWY R CLSD BTWN TWY, S AND TWY U . TWY E CLSD BTWN TWY, L AND TWY M . TWY K BTWN A AND D RESTRICTED TO AIRCRAFT WITH WINGSPAN LESS THAN 118 FEET. CONTACT TOWER 118.3 FOR TAXI. RWY 7R 5 5 5 0907Z, RWY 7L 5 5 5 0907Z, RWY 33 5 5 5 0907Z. ...ADVS YOU HAVE INFO V.",
    "KSEA": "[Arrival ATIS] KSEA ARR ATIS H 1253Z SEA ATIS INFO H 1253Z. 21003KT 10SM SCT055 12/09 A3012 (THREE ZERO ONE TWO). ILS AND CHARTED VISUAL APPROACH RWYS 16R AND 16L , APCH IN USE. DEPG DEPG ACFT PLAN AND BRIEF NUMBERS FOR BOTH RWYS 16L AND 16C. SIMUL APCHS IN USE, BFI & SEA. TRAFFIC BELOW YOU ON FINAL. SIMUL APCHS IN USE TO PARA RYS. NOTAMS... LOC RWY 16C OTS, RWY 16C GS OTS. BIRD ACTIVITY VICINITY ARPT. ...ADVS YOU HAVE INFO H.\n[Departure ATIS] KSEA DEP ATIS E 2253Z SEA ATIS INFO E 2253Z. 18008KT 10SM FEW026 BKN032 16/08 A3007 (THREE ZERO ZERO SEVEN). ILS, RYS 16R AND 16L , APCH IN USE. DEPG RWY 16L, DEPG ACFT PLAN AND BRIEF NUMBERS FOR BOTH RWYS 16L AND 16C. SIMUL APCHS IN USE, BFI & SEA. TRAFFIC BELOW YOU ON FINAL. SIMUL APCHS IN USE TO PARA RYS. NOTAMS... BIRD ACTIVITY VICINITY ARPT. ...ADVS YOU HAVE INFO E.",
    "ZSPD": "[Arrival ATIS] ZSPD ARR ATIS J 1000Z EXP ILS APCH INDEPENDENT PARL INSTR APCH LDG RWY 17R & 16L WIND RWY 17R TDZ 240/2MPS VRB BTN 180/ AND 260/ MID 250/3MPS END 250/2MPS RWY 16L TDZ 280/3MPS MID 250/2MPS END 250/3MPS CAVOK T 26 /DP 23 QNH 1007 HPA CAUTION THE BIRDS NEAR THE RUNWAY ADZ YOU HAVE INFO J.\n[Departure ATIS] ZSPD DEP ATIS F 0918Z DEP RWY 17L & 16R WIND RWY 17L TDZ 250/2MPS MID 230/2MPS END 230/2MPS RWY 16R TDZ VRB BTN 150/ AND 280/1MPS MID 300/1MPS END 250/2MPS VRB BTN 210/ AND 290/ VIS RWY 17L TDZ 10000M MID 10000M END 10000M VIS RWY 16R TDZ 10000M MID 10000M END 10000M CLD OVC 990M T 26 /DP 24 QNH 1007 HPA CAUTION THE BIRDS NEAR THE RUNWAY RWY 35R/35L/34R/34L RWYCC 5/5/5 ISSUED AT 0702 WET/WET/WET DPT NR/NR/NR COV 100PCT/100PCT/100PCT. ADZ YOU HAVE INFO F.",
    "ZSSS": "[Arrival ATIS] ZSSS ARR ATIS W 0312Z EXP ILS APCH LDG RWY 18L WIND RWY 18L TDZ 280/3MPS MID 270/3MPS VRB BTN 250/ AND 340/ END 270/4MPS VIS RWY 18L TDZ 6000M MID 8000M END 10000M FBL SHRA CLD BKN 180M /OVC 1200M T 23 /DP 23 QNH 1007 HPA SUPPLEMENT INFO RESHRA RWY18R RWYCC 5/5/5 ISSUED AT 0246 WET/WET/WET DPT NR/NR/NR COV 100PCT/100PCT/100PCT RWY18L RWYCC 5/5/5 ISSUED AT 0136 WET/WET/WET DPT NR/NR/NR COV 100PCT/100PCT/100PCT QNH OF SHANGHAI TERMINAL CONTROL AREA 1007 HPA ADZ YOU HAVE INFO W.\n[Departure ATIS] ZSSS DEP ATIS H 1300Z DEP RWY 18R WIND RWY 18R TDZ 100/3MPS MID 100/2MPS VRB BTN 060/ AND 120/ END 120/3MPS VIS RWY 18R TDZ 5000M MID 7000M END 6000M BR NSC T 27 /DP 23 QNH 1008 HPA VISUAL APCH IN USE QNH OF SHANGHAI TERMINAL CONTROL AREA 1008 HPA ADZ YOU HAVE INFO H.",
    "VHHH": "[Arrival ATIS] VHHH ARR ATIS I 0935Z ARRIVALS, RWY 07L. EXP ILS APCH, RWY 07L. WIND 110/11KT. VIS 10KM. CLD FEW 2000FT. T33 DP25. QNH 1006HPA. ACK INFO I ON FIRST CTC WITH APP.\n[Departure ATIS] VHHH DEP ATIS W 1338Z DEPARTURES, RWY 25L. WIND 170/07KT. VIS 10KM. CLD FEW 1000FT SCT 2500FT. T27 DP24. QNH 1009HPA. ACK INFO W ON FIRST CTC WITH DELIVERY .",
    "RCTP": "[Arrival ATIS] RCTP ARR ATIS L 1330Z EXP ILS APCH RWY23R AND RWY23L ARR/DEP. WIND VRB/02KT VIS 10 KM OR MORE CLD FEW 1200FT BKN 2000FT BKN 2500FT T 28 DP 25 QNH 1012HPA NOSIG INFORM TAIPEI APCH OR TAIPEI TOWER ON INITIAL CONTACT YOU HAVE INFORMATION L\n[Departure ATIS] RCTP DEP ATIS K 0530Z EXP ILS APCH RWY05L FOR ARR. RWY05R FOR DEP. WIND 340/07KT VARYING BTN 300 AND 020 VIS 10 KM OR MORE CLD FEW 1500FT BKN 2000FT BKN 3500FT T 32 DP 26 QNH 101",
    "ZGSZ": "[Arrival ATIS] ZGSZ ARR ATIS R 1000Z EXP ILS APCH 15 EXP ILS OR VIS APCH 16R WIND 180/4MPS VIS 9999M CLD FEW 600M T 31 /DP 27 QNH 1006 HPA INDEPENDENT PARALLEL DEPARTURES DEPENDENT PARALLEL APPROACHES MISSED APPROACH ALTITUDE SETTING 1200METERS WHEN AIRBORNE CONTACT ZHUHAI APPROACH EXPECTED RNP ILS DME Z APPROACH ADZ YOU HAVE INFO R.\n[Departure ATIS] ZGSZ DEP ATIS M 1030Z DEP RWY 15 & 16L WIND 180/8MPS VIS 9999M CLD SCT 330M /OVC 1200M T 27 /DP 25 QNH 1008 HPA DEPENDENT PARALLEL APPROACHES INDEPENDENT PARALLEL DEPARTURES V17,V18 AVAILABLE AFTER SULAS FLY HEADING 040 MISSED APPROACH ALTITUDE SETTING 1200METERS WHEN AIRBORNE CONTACT ZHUHAI APPROACH EXPECTED RNP ILS DME Z APPROACH ADZ YOU HAVE INFO M.",
    "WSSS": "[Arrival ATIS] WSSS ARR ATIS V 1300Z METREPORT 1300Z ILS APCHRWY 20R SIMUL INDEPENDENT ILS AND VISUAL APPROACHES ARE CONDUCTED ON RWY 20. TWY W 9 CLOSED, RWY 02C 20C RAPID EXIT TAXIWAY INDICATOR LIGHTS OFFFOLLOW THE GREENS TRIAL IN PROGRESS. WHEN VACATING THE RWY, PILOTS TO ADHERE TO ATC VERBAL INSTRUCTIONS. WHEN ON TWY, PILOT TO ADHERE TO FOLLOW THE GREENS INSTRUCTIONS. WHEN APPROACHING [A] JUNCTION, KEEP [A] LOOKOUT FOR CONTINUOUS GREENS. [IF] [A] BREAK IN THE GREENS IS OBSERVED, STOP AND CLARIFY WITH ATC. WIND CALM. VIS 10KM CLD FEW 1800FT T25 DP24 QNH 1012HPA NOSIG ACK ATIS V\n[Departure ATIS] WSSS DEP ATIS X 1330Z METREPORT 1330Z RWY 20C SIMUL INDEPENDENT ILS AND VISUAL APPROACHES ARE CONDUCTED ON RWY 20. TWY W 9 CLOSED, RWY 02C 20C RAPID EXIT TAXIWAY INDICATOR LIGHTS OFFFOLLOW THE GREENS TRIAL IN PROGRESS. WHEN VACATING THE RWY, PILOTS TO ADHERE TO ATC VERBAL INSTRUCTIONS. WHEN ON TWY, PILOT TO ADHERE TO FOLLOW THE GREENS INSTRUCTIONS. WHEN APPROACHING [A] JUNCTION, KEEP [A] LOOKOUT FOR CONTINUOUS GREENS. [IF] [A] BREAK IN THE GREENS IS OBSERVED, STOP AND CLARIFY WITH ATC. WIND VRB BTN110 AND190 01KT VIS 10KM CLD FEW 1800FT T26 DP24 QNH 1012HPA NOSIG DEP,INITIAL CMB 3000FT ACK ATIS X",
    "WMKK": "[Arrival ATIS] WMKK ARR ATIS K 1334Z WMKK ARR INFO K. TIME 1330. INDEPENDENT PARALLEL APPROACHES FOR RWY 14 L AND 15 ARE IN PROGRESS. EXP RNAV / ILS APCH FOR RWY 14 LEFT. EXP RNAV / ILS APCH FOR RWY 15. WIND RWY 14L DIRECTION NOT AVBL SPEED NOT AVBL. WIND RWY 15 DIRECTION NOT AVBL SPEED NOT AVBL. VIS RWY 14L TDZ NOT AVBL. VIS RWY 15 TDZ NOT AVBL. CLD FEW 3000 FT. T 27. DP 25. QNH 1011. NOSIG. AT FIRST CONTACT WITH LUMPUR RADAR, NOTIFY RCPT OF K\n[Departure ATIS] WMKK DEP ATIS Q 1135Z WMKK DEP INFO Q. TIME 1130. INDEPENDENT PARALLEL DEPARTURES FOR RWY 14 R AND 15 ARE IN PROGRESS. RWY 14 RIGHT. RWY 15. WIND RWY 14R DIRECTION NOT AVBL SPEED NOT AVBL. WIND RWY 15 DIRECTION NOT AVBL SPEED NOT AVBL. VIS RWY 14R TDZ NOT AVBL. VIS RWY 15 TDZ NOT AVBL. CLD FEW 3000 FT. T 27. DP 25. QNH 1010. NOSIG. ALL DEP ACFT TO CONTACT LUMPUR DEP AT 135 DECIMAL 25 MHZ WHEN ABN. AT FIRST CONTACT WITH LUMPUR GROUND, NOTIFY RCPT OF Q",
    "VTBS": "[Arrival ATIS] VTBS ARR ATIS C 1330Z VTBS ARR ATIS C 1331Z EXP ILS Z APCH ARR RWY 19 OR RNP APCH RWY 20R ,RETIL RWY 19 U/S ,PILOT SHALL ADZ BKK APCH ON INITIAL CTC IF UNA TO CONDUCT RNP APCH DUE TO OPERATIONAL CONSTRAINT 1330Z WIND 210/6KT VIS 10KM CLD FEW 2000FT T30 DP23 QNH 1009HPA TREND NOSIG ADZ BKK APCH ON INITIAL CONTACT THAT YOU HAVE INFO C\n[Departure ATIS] VTBS DEP ATIS G 1200Z VTBS DEP ATIS G 1201Z SIMULTANEOUS INDEPENDENT PARL DEP IN PROGRESS DEP RWY 20L OR DEP RWY 19 , ,AFT AIRBORNE ALL DEPARTING ACFT SHALL CTC 119.25 1200Z WIND 220/12KT VIS 10KM CLD FEW 2000FT T31 DP23 QNH 1008HPA TREND NOSIG ADZ GND WHEN INITIAL CONTACT YOU HAVE INFO G",
    "VTBU": "[Arrival ATIS] VTBU ARR ATIS K 1200Z VTBU ARR ATIS K 1200Z RNP RWY 18 TRL FL130 1200Z WIND 200/7KT VIS 10KM CLD FEW 2000FT T29 DP28 QNH 1009HPA TREND NOSIG ADZ CONTROLLER WHEN INITIAL CONTACT YOU HAVE INFO K\n[Departure ATIS] VTBU DEP ATIS D VTBU ARR/DEP DATIS RPT VTBU ARR ATIS D 0330Z ILS \"Z\" APCH RWY 18 TRL FL130 0330Z WIND 110/4KT VRB BTN 350/ AND 120/ VIS 6KM CLD FEW 2000FT T31 DP27 QNH 1014HPA TREND NOSIG ADZ CONTROLLER WHEN INITIAL CONTACT YOU HAVE INFO D",
    "ROAH": "[Arrival ATIS] ROAH ARR ATIS H 0933Z M0930 (APCH)RNP RWY18R LDG RWY 18R DEP RWY 18L DEP FREQ 126.5 258.3 M 010930Z 19008KT 35KM FEW010CU BKN/// 28/27 Q1011/A2987= Q/TWO NINE EIGHT SEVEN STP\n[Departure ATIS] ROAH DEP ATIS Z 0534Z M0530 (APCH)RNP RWY18R LDG RWY 18R DEP RWY 18L DEP FREQ 126.5 258.3 M 010530Z 20011KT 40KM FEW010CU 30/27 Q1012/A2988= Q/TWO NINE EIGHT EIGHT STP",
    "VVDN": "[Arrival ATIS] VVDN ARR ATIS I 1332Z VVDN INFO I 1332Z. ILS VICTOR APPROACH 35L.. DPTG RWY 35R.. 1332Z. WIND 220/03KT CAVOK T27 DP24 QNH 1008HPA TREND NOSIG. ADZ ON INITIAL CTC YOU HAVE INFO. I.\n[Departure ATIS] VVDN DEP ATIS S 0604Z VVDN INFO S 0604Z. ILS VICTOR APPROACH 35L.. DPTG RWY 35R.. 0604Z. WIND VRB/09KT CAVOK T37 DP24 QNH 1006HPA TREND NOSIG. ADZ ON INITIAL CTC YOU HAVE INFO. S.",
    "RCKH": "[Arrival ATIS] RCKH ARR ATIS O 1000Z EXPECT ILS APPROACH RWY 27 ARR/DEP TAXIWAY JULIETT, TAXIWAY BRAVO, TAXIWAY DELTA AND TAXIWAY ECHO CLOSED DUE MAINTENANCE. RUNWAY 2 7 ARRIVALS PLAN VACATE VIA CHARLIE OR A\n[Departure ATIS] RCKH DEP ATIS J 0800Z EXPECT ILS APPROACH RWY 09 ARR/DEP TAXIWAY JULIETT, TAXIWAY BRAVO, TAXIWAY DELTA AND TAXIWAY ECHO CLOSED DUE MAINTENANCE. RUNWAY 0 9 ARRIVALS PLAN VACATE VIA CHARLIE OR FO",
    "KLAX": "[Arrival ATIS] KLAX ARR ATIS O 0953Z - KLAX ATIS INFO O 0953Z. 23004KT 10SM BKN016 OVC037 18/14 A2990 (TWO NINER NINER ZERO) RMK AO2 SLP123 T01780139. INST APCHS AND RNAV RNP APCHS ILS RY 24L, ILS RY 25L, AND SIMUL APCHS IN PROG BTWN LAX AND HHR, SIMUL INSTR DEPARTURES IN PROG 24L, 25L. CTC L A GC ON 121.75 FOR PUSH OR TAXI ON A. RWY 2 4 RIGHT SIX LEFT CLSD, RWY 2 5 RIGHT 7 LEFT CLSD. TWY C10 CLSD BTN TWY, B AND TWY C, TWY C CLSD BTN TWY, C1 AND TWY C3, TWY B CLSD BTN TWY, K AND TWY C6, TWY J CLSD BTN TWY, C AND TWY H, TWY C7 CLSD BTN TWY, B AND TWY C, TWY C8 CLSD BTN TWY, B AND TWY C. RY 25R SFL OTS, RY 24L ALSF-2 OTS. LAX VOR UNMONITORED. USE CAUTION FOR INCREASED DRONE ACTIVIY IN THE VICINITY OF SOFI STADIUM AT OR BELOW 200FT AGL DURING THE WORLD CUP FROM JUNE TWELFTH TWENTY TWENTY SIX THROUGH JULY TENTH TWENTY TWENTY SIX. HAZD WX INFO FOR LAX AREA AVBL FM FSS. BIRD ACTIVITY VICINITY ARPT. TWR FREQ FOR ALL RWYS IS 120.95. CD AND GC FREQ IS 121.75. INCLUDE YOUR CALL SIGN IN ALL READBACKS. USE CAUTION WHEN EXITING RY24R AT TWY V, W, AND Y, TO HOLD SHORT OF RY24L. MULTIPLE RUNWAY INCURSIONS HAVE OCCURRED. ...ADVS YOU HAVE INFO O.\n[Departure ATIS] KLAX DEP ATIS K 0953Z LAX ATIS INFO K 0953Z. 23004KT 9SM OVC006 17/15 A2992 (TWO NINER NINER TWO) RMK AO2 SLP128 T01670150. INST APCHS AND RNAV RNP APCHS ILS RY 24L, ILS RY 25L, AND SIMUL APCHS IN PROG BTWN LAX AND HHR, SIMUL INSTR DEPARTURES IN PROG 24L, 25R. CTC L A GC ON 121.75 FOR PUSH OR TAXI ON A. RWY 2 4 RIGHT SIX LEFT CLSD. TWY C CLSD BTN TWY, C8 AND TWY C9 , , TWY B CLSD BTN TWY, F AND TWY B1, TWY B1 CLSD. ILS RY 25R OTS, RY 25R SFL OTS, RY 24L ALSF-2 OTS. LAX VOR UNMONITORED. IF ASSIGNED RUNWAY 25R FOR DEPARTURE, EXPECT DEPARTURE FROM INTERSECTION FOXTROT. TAXILANE CHARLIE EIGHT RESTRICTED TO AIRCRAFT WITH A WINGSPAN LESS THAN ONE HUNDRED EIGHTEEN FEET. USE CAUTION FOR INCREASED DRONE ACTIVIY IN THE VICINITY OF SOFI STADIUM AT OR BELOW 200FT AGL DURING THE WORLD CUP FROM 06/12/26 THROUGH 07/10/2026. HAZD WX INFO FOR LAX AREA AVBL FM FSS. BIRD ACTIVITY VICINITY ARPT. TWR FREQ FOR ALL RWYS IS 120.95. CD AND GC FREQ IS 121.75. INCLUDE YOUR CALL SIGN IN ALL READBACKS. USE CAUTION WHEN EXITING RY24R AT TWY V, W, AND Y, TO HOLD SHORT OF RY24L. MULTIPLE RUNWAY INCURSIONS HAVE OCCURRED. ...ADVS YOU HAVE INFO K.",
    "KONT": "[Arrival ATIS] KONT ARR ATIS W 1253Z ONT ATIS INFO W 1253Z. 25003KT 4SM BR FEW009 15/14 A2993 (TWO NINER NINER THREE). ILS APR IN USE. RY26L & RY26R. LNDG AND DEPG RY 26L AND RY 26R. NOTAMS... TAXIWAY SIERRA CLSD BETWEEN SIERRA 8 AND W TAXIWAY Q SOUTH OF RWY 26L CLSD TAXIWAY T CLSD TAXIWAY SIERRA 5 CLSD. RY 26L IM OTS, RY 26R ALS OTS. PILOTS READBACK RWY ASSIGNMENTS AND HOLD SHORT INSTRUCTIONS. ...ADVS YOU HAVE INFO W.\n[Departure ATIS] KONT DEP ATIS N 0553Z - KONT ATIS INFO N 0553Z. 24004KT 10SM BKN250 22/15 A2988 (TWO NINER EIGHT EIGHT) RMK AO2 SLP100. ILS AND VIS APR IN USE, RY26L & RY26R. LNDG AND DEPG RY 26L AND RY 26R. NOTAMS... TAXIWAY SIERRA CLSD BETWEEN SIERRA 8 AND W TAXIWAY Q SOUTH OF RWY 26L CLSD TAXIWAY T CLSD TAXIWAY SIERRA 5 CLSD. RY 26L IM OTS, RY 26R ALS OTS. USE CAUTION FOR NUMEROUS BIRDS OBSERVED IN VICINITY OF ONT. HAZD WX INFO FOR SOUTHERN CA AVBL ON FSS FREQUENCIES. PILOTS READBACK RWY ASSIGNMENTS AND HOLD SHORT INSTRUCTIONS. ...ADVS YOU HAVE INFO N.",
    "KSFO": "[Arrival ATIS] KSFO ARR ATIS Z 1256Z SFO ATIS INFO Z 1256Z. 00000KT 10SM FEW006 BKN012 OVC017 16/13 A2990 (TWO NINER NINER ZERO) RMK AO2 SLP125 T01560128. ILS RY 28R APP IN USE. DEPG RWYS 28L, 28R. RY 1L, 1R CLSD. NUMEROUS TWY CLOSURES FOR CONSTRUCTION ON THE FIELD, PILOTS CHECK NOTAMS. DEPG ACFT WAITING ON FINAL NUMBERS ADVISE GROUND PRIOR TO ENTERING TWY F. ...ADVS YOU HAVE INFO Z.\n[Departure ATIS] KSFO DEP ATIS V 0456Z SFO ATIS INFO V 0456Z. 25011KT 10SM FEW009 14/10 A2988 (TWO NINER EIGHT EIGHT). SIMUL CLSLY SPCD DPNDNT ILS RY 28R AND ILS RY 28L APP IN USE. DEPG RWYS 28L, 28R. DEPG ACFT S",
    "KOAK": "[Arrival ATIS] KOAK ARR ATIS P 2053Z - KOAK ATIS INFO P 2053Z. 29010KT 10SM FEW007 FEW012 22/13 A2991 (TWO NINER NINER ONE). RNAV AND VA RWY 30, RWY 2 8 LEFT IN USE. FLOW TO LAX, SAN, SEA, SFO. RWY 28R CLSD. TWY C1 CLSD. TWY E CLSD. ILS RWY 30, OTS, RWY 28R RAIL, OTS. UNN LIT CLOSE-IN OBSTACLES FOR RWY 30 DEPARTURES. RWY 30 DEPARTURES ARE ADVISED TO AVOID TURNING LEFT PRIOR TO DEPARTURE END OF RUNWAY. CTN, CRANE 1 POINT 6 NAUTICAL MILES, , AT 140 FEET AGL. CAUTION, BIRDS NEAR AIRPORT. ...ADVS YOU HAVE INFO P.\n[Departure ATIS] KOAK DEP ATIS O 1953Z OAK ATIS INFO O 1953Z. 28014KT 10SM FEW005 22/14 A2988 (TWO NINER EIGHT EIGHT). RNAV Z/VA RWY 30 ILS/VA RWY 28R. FLOW TO LAX, LAS, SAN. ILS RWY 30, OTS. UNN LIT CLOSE-IN OBSTACLES FOR RWY 30 DEPARTURES. RWY 30 DEPARTURES ARE ADVISED TO AVOID TURNING LEFT PRIOR TO DEPARTURE END OF RUNWAY. SIGNATURE UNI-COM OUT OF SERVICE. CAUTION, BIRDS NEAR AIRPORT. ...ADVS YOU HAVE INFO O.",
    "KDFW": "[Arrival ATIS] KDFW ARR ATIS X 1335Z - KDFW ARR INFO X 1335Z SPECIAL. 20020G25KT 10SM SCT012 26/22 A2972 (TWO NINER SEVEN TWO). SIMUL VISUAL APCH TO RWYS, 13R, 18R, 17C, 17L. LDG RWY 17C EXP LAHSO TWY B 10460 FT AVAIL, LDG RWY 18R EXP LAHSO TWY B 10100 FT AVL. NOTICE TO AIRMEN. WARNING, RWY 18L HAS BEEN SHORTENED, 9273 FT AVAILABLE. RWY 18L ILS OTS. BIRD ACTIVITY VCNTY ARPT. ...ADVS YOU HAVE INFO X.\n[Departure ATIS] KDFW DEP ATIS W 1553Z - KDFW DEP INFO W 1553Z. 21022G32KT 10SM FEW025 FEW180 SCT250 31/21 A2994 (TWO NINER NINER FOUR) RMK AO2 PK WND 20032/1547 SLP128 T03110206. SIMUL PARL TRAFFIC DEPG RWYS 17R, 18L. NOTICE TO AIRMEN. WARNING, RWY 18L HAS BEEN SHORTENED, 9273 FT AVAILABLE. RWY 18L CL OTS. BIRD ACTIVITY VCNTY ARPT. ...ADVS YOU HAVE INFO W.",
    "KIAH": "[Arrival ATIS] KIAH ARR ATIS G 0353Z IAH ATIS INFO G 0353Z. 16006KT 10SM FEW033 28/24 A3002 (THREE ZERO ZERO TWO). ARRIVALS EXPECT ILS OR RNAV Y RY 27, ILS OR RNAV Y RY 8R. DEPG RY 15L. NOTICE TO AIRMEN. UAL RAMP PROCEDURES TERMINATED PUSH BACK AT PILOTS DISCRETION. RY 15R, 33L CLSD. HAZD WX INFO FOR IAH AREA AVBL FM FSS. BIRD ACTIVITY VICINITY ARPT. CRANES ARE DOWN. TWY SA CLSD BTN TWY, SF AND TWY SK , TWY SB CLSD BTN TWY, SF AND TWY SK , , TWY WB CLSD BTN TWY, WG AND TWY WH . TWY EA CLSD. NOTAM ATIS IN USE ON FREQUENCY 126.225. ...ADVS YOU HAVE INFO G.\n[Departure ATIS] KIAH DEP ATIS A 2053Z IAH ATIS INFO A 2053Z. 19008G16KT 10SM SCT035 BKN250 33/24 A2993 (TWO NINER NINER THREE) RMK AO2 LTG DSNT E TSB02E23 SLP135 CB DSNT NE-E AND SW MOV NE 60000 T03280239 57019. ARRIVALS EXPECT ILS OR RNAV Y RY 26R, ILS OR RNAV Y RY 26L, ILS OR RNAV Y RY 27. SIMUL APPROACHES IN USE. DEPG RY 15L, RY 15R. NOTICE TO AIRMEN. UNITED RAMP CONTROL IN EFFECT. ALL RWY COND CODES, , 5 , , 5 , , 5 , AT 1730Z. HAZD WX INFO FOR IAH AREA AVBL FM FSS. BIRD ACTIVITY VICINITY ARPT. TWY SA CLSD BTN TWY, SG AND TWY SK , TWY SB CLSD BTN TWY, SG AND TWY SK , , TWY SG CLSD, TWY EA CLSD. NOTAM ATIS IN USE ON FREQUENCY 126.225. ...ADVS YOU HAVE INFO A.",
    "KORD": "[Arrival ATIS] KORD ARR ATIS Q 0951Z ORD ATIS INFO Q 0951Z. 22010KT 10SM CLR 27/23 A2993 (TWO NINER NINER THREE) RMK AO2 SLP128 T02670228. ARR EXP VECTORS ILS RWY 28C APCH. LAND AND HOLD SHORT OPERATIONS ARE IN EFFECT. RWY 28C ARR PLAN TO H/S OF TWY Z, 9 THSD 6 HND TEN FT AVBL. DEPS EXP RWYS 22L, 27L. RWY 4L, 22R CLSD, RWY 9L, 27R CLSD, RWY 9C, 27C CLSD, RWY 10L, 28R CLSD, RWY 10R, 28L CLSD. RWY 22R LOC OTS, RWY 9L IM OTS, RWY 9C IM OTS, RWY 10L IM OTS, RWY 10R IM OTS, RWY 27R IM OTS, RWY 28L IM OTS, RWY 28R IM OTS, RWY 9L PAPI OTS, RWY 27R PAPI OTS. PILOTS USE CTN FOR BIRD ACTIVITY IN THE VICINITY OF THE ARPT. NOISE ABATEMENT PROCEDURES ARE IN EFFECT. USE CTN FOR PERSONNEL AND EQUIP AT NUMEROUS SITES ON THE FIELD. READBACK ALL RWY HOLD SHORT INSTRUCTIONS. FOR CD GND METERING AND GC CONTACT ORD ON FREQ 121.9. ...ADVS YOU HAVE INFO Q.\n[Departure ATIS] KORD DEP ATIS H 1051Z ORD ATIS INFO H 1051Z. 26006KT 8SM FEW070 SCT160 BKN250 17/17 A2990 (TWO NINER NINER ZERO) RMK AO2 SLP123 T01720167. ARR EXP VECTORS ILS RWY 27C APCH, ILS RWY 27R APCH, ILS RWY 28C APCH. SIMUL APCHS IN USE. LAND AND HOLD SHORT OPERATIONS ARE IN EFFECT. RWY 27C ARR PLAN TO H/S OF TWY V V, 9 THSD 7 HND 25 FT AVBL, RWY 28C ARR PLAN TO H/S OF TWY Z, 9 THSD 6 HND TEN FT AVBL. DEPS EXP RWYS 22L 27L FROM T T 9960 FT AVL. RWY 4L, 22R CLSD. RWY 22R LOC OTS, RWY 9L IM OTS, RWY 9C IM OTS, RWY 10L IM OTS, RWY 10R IM OTS, RWY 27R IM OTS, RWY 28L IM OTS, RWY 28R IM OTS, RWY 9L PAPI OTS, RWY 27R PAPI OTS. PILOTS USE CTN FOR BIRD ACTIVITY IN THE VICINITY OF THE ARPT. HAZD WX INFO FOR ORD AREA AVBL ON FSS. USE CTN FOR PERSONNEL AND EQUIP AT NUMEROUS SITES ON THE FIELD. READBACK ALL RWY HOLD SHORT INSTRUCTIONS. WHEN READY TO TAXI CONTACT GND METERING ON FREQ 121.67. ...ADVS YOU HAVE INFO H.",
    "KJFK": "[Arrival ATIS] KJFK ARR ATIS U 0951Z - KJFK ATIS INFO U 0951Z. 21007KT 10SM FEW055 BKN100 BKN250 23/17 A3001 (THREE ZERO ZERO ONE). APPROACH IN USE ILS RY 22L, ILS RY 22R. DEPG RY 22R. CRI OTS. RWY 22L/4R INNER MARKER OTS. NUM CRANES OPERATING AT JFK. BIRD ACTIVITY VICINITY ARPT. READBACK ALL RWY ASSIGNMENTS AND HOLD SHORT INSTRUCTIONS. ...ADVS YOU HAVE INFO U.\n[Departure ATIS] KJFK DEP ATIS F 2151Z JFK ATIS INFO F 2151Z. 20016KT 10SM FEW060 BKN250 27/17 A3003 (THREE ZERO ZERO THREE). APPROACH IN USE RNAV GPS Z RY 13L, RNAV GPS X RY 22L. DEPG RY 13R. CONVERGING RY OPERATIONS IN USE. CRI OTS. RWY 22L/4R INNER MARKER OTS. NUM CRANES OPERATING AT JFK. BIRD ACTIVITY VICINITY ARPT. READBACK ALL RWY ASSIGNMENTS AND HOLD SHORT INSTRUCTIONS. ...ADVS YOU HAVE INFO F.",
    "KIND": "[Arrival ATIS] KIND ARR ATIS Z 0054Z - KIND ATIS INFO Z 0054Z. 21008KT 10SM FEW250 29/24 A3001 (THREE ZERO ZERO ONE). PARL ILS RWY 23R AND 23L APPROACHES IN USE. CROSS RUNWAY OPERATIONS MAY BE IN EFFECT. NOTICE TO AIRMEN. RWY 32 GS OTS. TWY, P BTN TWY, H AND TWY B CLSD. P PAD CLSD. ILS RUNWAY 5R AND RUNWAY 5L INNER MARKER UNSERVICEABLE. RUNWAY 32 PAPI OTS. RUNWAY 32 TOUCHDOWN RVR OTS. RUNWAY 14 ROLLOUT RVR OTS. ...ADVS YOU HAVE INFO Z.\n[Departure ATIS] KIND DEP ATIS H 1854Z IND ATIS INFO H 1854Z. 26009G19KT 10SM SCT036 BKN041 BKN170 23/16 A2981 (TWO NINER EIGHT ONE) RMK AO2 SLP088 T02280156. PARL ILS RWY 23R AND 23L APPROACHES IN USE. CROSS RU",
    "KDTW": "[Arrival ATIS] KDTW ARR ATIS L 1253Z DTW ARR INFO L 1253Z. 22008KT 10SM FEW070 SCT150 BKN230 19/13 A2963 (TWO NINER SIX THREE). SIMUL VISUAL RY 21L, RY 22R USE Z LOC FREQ 111.95 APCH IN USE. NOTICE TO AIRMEN. RWY 22L, 4R CLSD, RWY 27L, 9R CLSD, RWY 27R, 9L CLSD. PILOTS USE CTN FOR BIRD ACTIVITY. DEPARTURE ATIS 118.125. ...ADVS YOU HAVE INFO L.\n[Departure ATIS] KDTW DEP ATIS Q 2253Z - KDTW DEP INFO Q 2253Z. 21009KT 10SM FEW050 FEW250 33/24 A2991 (TWO NINER NINER ONE). DEPG RWY 21R, RWY 22L ;. NOTICE TO AIRMEN. RWY 27L, 9R CLSD, RWY 27R, 9L CLSD. PILOTS USE CTN FOR BIRD ACTIVITY. ...ADVS YOU HAVE INFO Q.",
    "KMSP": "[Arrival ATIS] KMSP ARR ATIS L 1153Z MSP ARR INFO L 1153Z. 14014G21KT 10SM FEW007 SCT043 OVC050 14/12 A2936 (TWO NINER THREE SIX). SIMULTANEOUS DEPENDENT, ILS RWY 12R APCH IN USE, LOCALIZER RWY 12L APCH IN USE. FINAL APCH, OVER NOISE SENSITIVE AREA. NOTICE TO AIRMEN. RWYS 4, 22 CLSD. TWY R7. R8. R9. R10. CLOSED, TWY R BETWEEN R6 AND R10 CLOSED. GS RWY 12L OTS, RWYS 12R, 12L, INNER MARKER OTS.. RWY 12R CONDITION CODES, 5 5 5 AT 0910Z, RWY 12L CONDITION CODES, 5 5 5 AT 0911Z, RWY 17 CONDITION CODES, 5 5 5 AT 0911Z. HAZD WX INFO FOR MSP AREA AVBL FM FSS. CTN, BIRDS NEAR MSP. READ BACK HS AND ALT. ALL ACFT TAXI WITH TRANSPONDER AND ALTITUDE ENCODING ON. ...ADVS YOU HAVE INFO L.\n[Departure ATIS] KMSP DEP ATIS X 0953Z - KMSP DEP INFO X 0953Z. 00000KT 10SM CLR 23/19 A2981 (TWO NINER EIGHT ONE). DEPARTING RWY 12L, RWY 12R, RWY 17. NOTICE TO AIRMEN. RWYS 4, 22 CLSD. TWY R7. R8. R9. R10. CLOSED, TWY R BETWEEN R6 AND R10 CLOSED. MSP TDWR OTS. ALL ACFT CTC METERING ON ONE THREE THREE POINT FIVE SEVEN WHEN READY TO PUSHBACK OR TAXI. HAZD WX INFO FOR MSP AREA AVBL FM FSS. CTN, BIRDS NEAR MSP. READ BACK HS AND ALT. ALL ACFT TAXI WITH TRANSPONDER AND ALTITUDE ENCODING ON. ...ADVS YOU HAVE INFO X.",
    "CYEG": "[Arrival ATIS] CYEG ARR ATIS W 0600Z CYEG ARR ATIS W 0600Z 22006KT 20SM SCT100 CIG BKN120 13/13 A2977 APCH RNAV Z OR Y OR ILS RWY 02, INFORM ARRL OF REQ APCH ON INITIAL CTC. LDG AND DEP RWY 02. SIMUL APPROACHES MAY BE IN EFCT. INFORM CYEG ATC INFO W\n[Departure ATIS] CYEG DEP ATIS V 0500Z CYEG ARR ATIS V 0500Z VRB02KT 20SM FEW096 FEW120 15/13 A2977 APCH RNAV Z OR Y OR ILS RWY 02, INFORM ARRL OF REQ APCH ON INITIAL CTC. LDG AND DEP RWY 02. SIMUL APPROACHES MAY BE IN EFCT. INFORM CYEG ATC INFO V",
    "EHAM": "[Arrival ATIS] EHAM ARR ATIS B 1334Z EHAM ARRIVAL INFO B. DEMAND. MAIN LANDING RWY 18 R. SECONDARY LANDING RWY 27. TRANSITION LEVEL 040. WIND 240 DEG, 16 KT, VRB BTN 200 AND 280 DEG, 24 KT MAX, 9 KT MNM. WIND SECONDARY RUNWAY 220 DEG, 16 KT, VRB BTN 200 AND 260 DEG, 22 KT MAX, 10 KT MNM. VIS 10 KM OR MORE. WX -RADZ. CLD FEW 1700 FT SCT 2000 FT BKN 2400 FT. T 21. DP 16. QNH 1018 HPA. NOSIG. OPERATIONAL REPORT. CONVERGING APPROACHES IN PROGRESS. CONTACT APCH WITH CALLSIGN ONLY. END OF INFO B\n[Departure ATIS] EHAM DEP ATIS V 0352Z EHAM DEPARTURE INFO V. DEMAND. MAIN DEPARTURE RWY 24. MAIN LANDING RWY 18 R. WIND 240 DEG, 2 KT. VIS 10 KM OR MORE. WX MIFG. NSC. T 14. DP 13. QNH 1020 HPA. OPERATIONAL REPORT. INFORM SCHIPHOL DEL BY VOICE IF UNABLE TO COMPLY WITH NADP 2. END OF INFO V",
    "EBBR": "[Arrival ATIS] EBBR ARR ATIS N 1020Z EBBR NAT, EXP VECT FOR ILS APP ARR RWY25L RSCD AT 0555 RWY25L DRY. DEP RWY25R TRL 055 TWY C6 CLSD. ILS 25R U/S. RNP 25R ATC DISCRETION. RWY 19 CLSD 330/8KT VRB BTN 260 AND 350 VIS ABV 10KM SCT3000FT T22 DP14 QNH 1023HPA NOSIG CFM ARR N\n[Departure ATIS] EBBR DEP ATIS D 0850Z EBBR NAT, DEP RWY25R RSCD AT 0612 RWY25R DRY. ARR RWY25L TRL 055 TWY B3 CLSD. RWY 19 CLSD. RWY STOPBARS U/S 280/1KT VRB BTN 240 AND 360 MNM1 MAX9 VIS ABV 10KM SCT2400FT T20 DP14 QNH 1023HPA NOSIG CFM DEP D",
    "EDDF": "[Arrival ATIS] EDDF ARR ATIS S 1020Z -ARR-ATIS EDDF S METAR 011020 -EXPECT INDEPENDENT PARALLEL ILS Z APCH RWY 25R OR ILS APCH RWY 25L -RWY 25R 25L -GLS APCH ON REQUEST , DO NOT MISTAKE TWY M FOR RWY 25C WHEN PERFORMING VISUAL APPROACH , RWY COND AT TIME 0700 : ALL RWYS DRY , RWYCC 6 , -TRL 60 - -VRB08KT -CAVOK - - -T25 DP11 -QNH1020 - -TREND NOSIG\n[Departure ATIS] EDDF DEP ATIS F 0950Z DEP-ATIS EDDF F METAR 010950 RWY 25C 18 RWY COND AT TIME 0700 : ALL RWYS DRY , RWYCC 6 , TRL 60 29006KT 230V350 RWY18 02005KT 9999 FEW044 T24 DP12 QNH1020 TREND NOSIG END OF ATIS F",
    "EDDL": "[Arrival ATIS] EDDL ARR ATIS M 0650Z -ATIS EDDL M METAR 010650 -EXPECT VECTORS ILS APPROACH -RWY 23L -L8 CLOSED -TRL 60 -EXPECT INTENSE BIRD ACTIVITY IN THE VICINITY OF RWY SYSTEM -33008KT -CAVOK - - -T20 DP14 -QNH1021 - -TREND NOSIG\n[Departure ATIS] EDDL DEP ATIS J 1250Z -ATIS EDDL J METAR 301250 -EXPECT VECTORS ILS APPROACH -RWY 23L -L8 CLOSED TRY TO VACATE LATEST L7 L1 CLOSED CALCULATE TAKEOFF DISTANCE VIA L2 -TRL 60 -EXPECT INTENSE BIRD ACTIVITY IN THE VICINITY OF RWY SYSTEM -33008KT 290V010 -CAVOK - - -T27 DP15 -QNH1021 - -TREND NOSIG",
    "EDDK": "[Arrival ATIS] EDDK ARR ATIS Y 0820Z ATIS EDDK Y METAR 010820 EXPECT ILS APCH RWY 24 RWY COND RWY 24 AT TIME 0630 RWYCC 6 DEPOSIT TOTAL RWY DRY TRL 60 RWY 13R AND RWY 31L CLOSED FOR DEPARTURE AND LANDING: TAXIING BTN THR RWY 13R AND INTERSECTION RWY 24 POSSIBLE : 29009KT 250V330 9999 SCT029 SCT038 T22 DP14 QNH1021 TREND NOSIG\n[Departure ATIS] EDDK DEP ATIS Q EDDK ARR/DEP DATIS RPT -ATIS EDDK Q METAR 291920 -EXPECT ILS APCH -RWY 31R 06 -RWY COND RWY 31R AT TIME 1830 RWYCC 6 DEPOSIT TOTAL RWY DRY RWY 06 AT TIME 1830 RWYCC 6 DEPOSIT TOTAL RWY DRY -TRL 60 -RWY 13R AND RWY 31L CLOSED FOR DEPARTURE AND LANDING: TAXIING BTN THR RWY 13R AND INTERSECTION RWY 24 POSSIBLE : -04003KT -CAVOK - - -T24 DP13 -QNH1024 - -TREND NOSIG",
    "EBLG": "[Arrival ATIS] EBLG ATIS E 0820Z EBLG INFO, EXP RNAV TO ILS APP ARR RWY22L DEP RWY22L RWY 22L DRY, RWYCC 666. TRL 055 TWY A4 CLSD 260/4KT VRB BTN 230 AND 290 MNM3 MAX10 VIS ABV 10KM FEW3000FT T19 DP11 QNH 1023HPA NOSIG CFM ATIS E",
    "LSZH": "[Arrival ATIS] LSZH ARR ATIS J 0902Z ARRIVALS, EXP RNP APCH, RWY 28. RWY COND REPORT. RWY COND CODE 5, 5, 5. COVERAGE 100 PER CENT, 100 PER CENT, 100 PER CENT. DEPTH NR, NR, NR. WET AND WET AND WET. RWY REPORT END. TRL 70. DEP RWY 32. INCREASED BIRD ACT. WIND 280 DEG, 6 KT, VRB BTN 230 AND 300 DEG. VIS 10 KM OR MORE, MNM VIS 4900 M TO NW, TDZ 10 KM OR MORE. MOD TSRA. CLD SCT 1300 FT, BKN 1400 FT, FEW CB. T 20. DP 18. QNH 1022. FREQUENT TS WITH HAIL, OBSERVED, TOP FLT LEVEL 380.\n[Departure ATIS] LSZH DEP ATIS U 0902Z DEP RWY 32. RWY COND REPORT. RWY 32. RWY COND CODE 5, 5, 5. COVERAGE 100 PER CENT, 100 PER CENT, 100 PER CENT. DEPTH NR, NR, NR. WET AND WET AND WET. RWY 34. RWY COND CODE 5, 5, 5. COVERAGE 100 PER CENT, 100 PER CENT, 100 PER CENT. DEPTH NR, NR, NR. WET AND WET AND WET. RWY REPORT END. TRL 70. ARRIVALS, EXP RNP APCH, RWY 28. INCREASED BIRD ACT. TMA S 1 IS NOT ACT. TMA S 2 AND S 3 ARE NOT ACT. WIND 230 DEG, 5 KT. VIS 10 KM OR MORE, MNM VIS 4900 M TO NW. MOD TSRA. CLD FEW 1200 FT, SCT 2500 FT, FEW CB 3500 FT, BKN 7500 FT. T 20. DP 18. QNH 1022. FREQUENT TS WITH HAIL, OBSERVED, TOP FLT LEVEL 380.",
    "LIMC": "[Arrival ATIS] LIMC ARR ATIS G 0950Z LIMC ARR G 0950Z I.L.S. ZULU RWY IN USE 35R TL 70 WIND TDZ 280/4KT VRB BTN 160/AND 300/ CAVOK T30 DP17 QNH 1013HPA QFE 0988HPA\n[Departure ATIS] LIMC DEP ATIS P 1443Z LIMC DEP P 1443Z RWY IN USE 35L TL 70 WIND END VRB3KT VIS 10KM CLD FEW TCU 6000FT SCT 6600FT T34 DP15 QNH 1017HPA QFE 0991HPA DATALINK CLEARANCE AVAILABLE.... CONTACT 1 3 1 8 8 0 TO BE RELEASED BY THE AIRPORT OPERATOR ...",
    "LIRF": "[Arrival ATIS] LIRF ARR ATIS O 1020Z LIRF ARR O 1020Z RWY 16L ILS W RWY 16R ILS Z RWY IN USE 16L 16R TL 75 DEPENDENT PARL ILS APCH INPR RWY IN USE 16R OR 16L ASSIGNED BY ROME RADAR WIND RWY 16L TDZ 240/8KT VRB BTN 220/AND 290/ RWY 16R TDZ 250/8KT CAVOK T31 DP20 QNH 1012HPA RRSM\n[Departure ATIS] LIRF DEP ATIS B 0835Z LIRF DEP B 0835Z RWY IN USE 25 TL 75 RWYS IN USE FOR ARR 16L AND 16R WIND END 250/6KT VRB BTN 220/AND 280/ CAVOK T31 DP19 QNH 1013HPA REA IS SENT AUTOMATICALLY ONCE RLSD BY RAMP WHEN READY CONTACT FIUME RAMP 121.725 RRSM",
    "EINN": "[Arrival ATIS] EINN ARR ATIS J 1000Z EXPECT I L S CATEGORY 1 LDG RWY24 TKOF RWY24 TRL FL060 18010KT 9999 FEW021 BKN050 16/11 QNH Q1025 TREND NOSIG ADVISE AT FIRST CONTACT YOU HAVE ATIS INFO J",
    "EGLL": "[Arrival ATIS] EGLL ARR ATIS E 1020Z RUNWAY 27R REDUCED DECLARED DISTANCES WITH TAKE OFF RUN AVAILABLE 3362METRES AND LANDING DISTANCE AVAILABLE 3362METRES LANDING RWY 27R TRANSITION-LEVEL: FL 70 IF STAND GUIDANCE IS OFF OR FAILS, REMAIN ON THE TAXIWAY CENTRELINE AND ADVISE ATC AUTHORISED DRONE OPERATING 2 NM TO THE NORTH EAST OF AIRFIELD 150 FEET AUTO 30010KT 280V350 9999 FEW035 BKN047 22/12 Q1024 ACKNOWLEDGE RECEIPT OF INFORMATION E\n[Departure ATIS] EGLL DEP ATIS L 0820Z DEPARTURE RWY 27L PILOTS THAT ARE IN RECEIPT OF DATALINK CLEARANCES ARE REMINDED THEY MUST CONTACT DELIVERY ON 121.980 WHEN READY FOR START AUTO 27009KT 250V330 9999 SCT023 BKN027 20/13 Q1024 ACKNOWLEDGE RECEIPT OF INFORMATION L AND REPORT AIRCRAFT TYPE AND CURRENT QNH ON FIRST CONTACT WITH HEATHROW",
    "EPWA": "[Arrival ATIS] EPWA ARR ATIS L 0801Z EPWA ARR L. TIME 0800. EXP U ARR ILS Z APCH FOR RWY 33. TRANSITION LEVEL 80. WIND 080 DEG, 11 KT, VRB BTN 030 AND 090 DEG. CAVOK. T 25. DP 16. QNH 1014. NOSIG. CAUTION. BIRD ACT. END OF EPWA ARR L\n[Departure ATIS] EPWA DEP ATIS Y 1437Z EPWA DEP Y. TIME 1435. DEP RWY 29. ARR RWY 33, EXP U ARR ILS Z. REPORT READY FOR STARTUP ON DELIVERY 121 DECIMAL 605. TRANSITION LEVEL 80. WIND 360 DEG, 8 KT, VRB BTN 330 AND 120 DEG. CAVOK. T 31. DP 16. QNH 1019. NOSIG. CAUTION. BIRD ACT. END OF EPWA DEP Y",
    "EFHK": "[Arrival ATIS] EFHK ARR ATIS U 0950Z EXPECT ILS APCH ARR RWY 15 RUNWAY 15 CONDITION REPORT AT 0742 UTC RUNWAY CONDITION CODES 6 , 6 , 6 CONTAMINANTS ALL PARTS DRY TRL 60 WIND 140 DEG 8 KT VRB BTN 110 AND 170 DEG VIS 10KM FEW 4200 FT T 24 DP 12 QNH 1018 TEMPO CLD FEW TCU 5000 FT. ACK INFO U\n[Departure ATIS] EFHK DEP ATIS G 1220Z DEP RWY 22R RUNWAY 22R CONDITION REPORT AT 0920 UTC RUNWAY CONDITION CODES 5 , 5 , 5 CONTAMINANTS ALL PARTS 100 PERCENT WET WIND 300 DEG 11 KT VRB BTN 270 AND 350 DEG VIS 8KM FBL SHRA FEW 1000 FT. BKN 1400 FT. BKN 3300 FT. FEW CB 4000 FT T 15 DP 14 QNH 1001 TEMPO VIS 7KM MOD SHRA WIND SHEAR AIRSPEED LOSS 05 TO 10KT ON FINAL RWY 33 REP BY ACFT/M AT 1111 ACK INFO G",
    "LTAC": "[Arrival ATIS] LTAC ARR ATIS X 1320Z EXP ILS V APCH 03C DEP RWY 03L RWY 03C WIND 300 DEG 04 KT TRL 110 VIS 9999 SCT04000 FT T 28 DP 07 QNH 1017 NOSIG FOR DELIVERY CTC 121.9. FOR DELIVERY FIRST USE DIGITAL DEP CLR. CTN BIRD HAZARD OVR AERODROME. APCH FREQUENCY 129.050. TAXIWAY ECHO 1 IS CLOSED. END OF ATIS X",
    "UBBB": "[Arrival ATIS] UBBB ARR ATIS D 1330Z ATIS D EXP ILS/ LDG 17 DEP 17 IN USE RWY 17 CLEAR DRY 70 TLVL 110 WIND WIND RWY 16 160 12 KT SPD MAX 16 MIN 8 WIND RWY 17 160 12 KT SPD MAX 16 MIN 8 VIS CAVOK T 27 / DP 17 QNH 1015 HPA TREND TREND NOSIG RWY 16 CLSD ONMAINT MODERATE BIRDS ACT IN VICINITY OF AP END OF ATIS D\n[Departure ATIS] UBBB DEP ATIS X 1030Z ATIS X EXP ILS/ LDG 34 35 DEP 34 35 IN USE RWY 34 CLEAR DRY 70 RWY 35 CLEAR DRY 70 TLVL 110 WIND WIND RWY 34 340 16 KT SPD MAX 22 MIN 12 WIND RWY 35 320 16 KT SPD MAX 22 MIN 10 VIS CAVOK T 29 / DP 12 QNH 1011 HPA TREND TREND NOSIG MODERATE BIRDS ACT IN VICINITY OF AP END OF ATIS X",
    "ZWWW": "[Arrival ATIS] ZWWW ARR ATIS J 1300Z EXP ILSDME Z APCH LDG RWY 26R TA 3000 WIND 300/2MPS CAVOK T 29 /DP 11 QNH 1011 HPA ADZ YOU HAVE INFO J.\n[Departure ATIS] ZWWW DEP ATIS G 1300Z DEP RWY 26L TA 3000 WIND 300/2MPS CAVOK T 29 /DP 11 QNH 1011 HPA ADZ YOU HAVE INFO G.",
    "ZLXY": "[Arrival ATIS] ZLXY ARR ATIS Y 1300Z EXP ILS APCH LDG RWY 05L & 06R WIND 360/1MPS VIS 9999M CLD SCT 1800M T 23 /DP 22 QNH 1008 HPA VISUAL APPROACH IN PROGRESS ADZ YOU HAVE INFO Y.\n[Departure ATIS] ZLXY DEP ATIS P 0900Z DEP RWY 05L & 06L WIND 080/4MPS VRB BTN 030/ AND 120/ VIS 9999M CLD FEW 1500M /FEW TCU 1500M T 34 /DP 17 QNH 1005 HPA VISUAL APPROACH IN PROGRESS ADZ YOU HAVE INFO P.",
    "ZBAA": "[Arrival ATIS] ZBAA ARR ATIS L 0930Z EXP ILS APCH INDEPENDENT PARL INSTR APCH LDG RWY 36L & 01 WIND 170 DEG 3 MPS 120V220 DEG VIS 9999 CLD FEW 1200M T 31 /DP 21 QNH 1004 HPA ADZ YOU HAVE INFO L.\n[Departure ATIS] ZBAA DEP ATIS S 1300Z DEP RWY 36L & 36R & 01 WIND 170 DEG 2 MPS 140V210 DEG CAVOK T 25 /DP 20 QNH 1007 HPA RWY INDEPENDENT PARALLEL DEP VISUAL APPROACH IS IN PROGRESS. ADZ YOU HAVE INFO S.",
    "ZBHH": "[Arrival ATIS] ZBHH ARR ATIS A 1300Z EXP ILSDME APCH LDG RWY 26 TA 3000 /TRL 3600 WIND 120/2MPS VRB BTN 090/ AND 160/ CAVOK T 24 /DP 13 QNH 1009 HPA ADZ YOU HAVE INFO A.\n[Departure ATIS] ZBHH DEP ATIS K 0100Z DEP RWY 26 TA 3000 /TRL 3600 WIND VRB/2MPS CAVOK T 23 /DP 08 QNH 1010 HPA ADZ YOU HAVE INFO K.",
    "ZSQD": "[Arrival ATIS] ZSQD ARR ATIS T 1300Z EXP ILSDME APCH LDG RWY 17 TA 3000 /TRL 3600 WIND 160/4MPS CAVOK T 23 /DP 21 QNH 1009 HPA SEGREGATED OPERATION VISUAL APPROACH OPERATION IN PROGRESS. WHEN READY CONTACT QINGDAO TOWER ON 118.7 RUNWAY 17,IF MISSED APPROACH,EXPECT FOLLOW THE STANDARD MISSED APPROACH PROCEDURE,CLIMB TO 900M ON QNH OR BY ATC CAUTION MAYBE THERE IS A FLOCK OF BIRDS IN THE VICINITY OF AIRPORT ADZ YOU HAVE INFO T.\n[Departure ATIS] ZSQD DEP ATIS F 0002Z DEP RWY 16 TA 3000 /TRL 3600 WIND 160/5MPS VIS 9999M CLD FEW 900M T 24 /DP 20 QNH 1009 HPA SEGREGATED OPERATION VISUAL APPROACH OPERATION IN PROGRESS. RUNWAY 17,IF MISSED APPROACH,EXPECT FOLLOW THE STANDARD MISSED APPROACH PROCEDURE,CLIMB TO 900M ON QNH OR BY ATC CAUTION MAYBE THERE IS A FLOCK OF BIRDS IN THE VICINITY OF AIRPORT ADZ YOU HAVE INFO F."
  },
  "windtemp_alaska": "\n000\nFBAK31 KWNO 010800\nFD1AK1\nDATA BASED ON 010600Z    \nVALID 011200Z   FOR USE 0800-1500Z. TEMPS NEG ABV 24000\n\nFT  3000    6000    9000   12000   18000   24000  30000  34000  39000\nADK 2434 2433+00 2442-02 2448-05 2456-17 2363-29 236743 245846 234943\nADQ 1206 1606+02 2306-02 2613-06 2736-16 2747-29 276442 278246 277844\nAKN 1308 1514+01 1909-03 2413-07 2622-18 2530-30 253344 265346 266142\nANC 9900 9900+01 9900-04 9900-10 9900-24 3107-36 304045 303845 293142\nANN 3105 2907+01 2810-04 2815-09 2923-20 2930-30 303944 303648 302945\nBET 1612 1613+00 1811-04 1909-08 2110-19 2411-32 231347 241748 253142\nBRW 2506 2421-04 2427-07 2532-12 2432-24 2435-35 244049 242847 251442\nBTI 2209 2414-01 2321-06 2321-12 2419-23 2317-33 231748 222052 231743\nBTT 2610 2410+00 2310-06 2311-11 2211-23 9900-34 990048 250752 251044\nCDB 2618 2319+03 2431+01 2438-04 2546-15 2459-28 249241 740044 248944\nCZF 1406 1511-03 1307-04 1208-08 1407-20 1608-32 240847 230950 262243\nEHM 1318 1518+01 1912-01 2116-06 2216-19 2220-31 243145 244245 254642\nFAI 2905 9900+00 1406-05 9900-10 2012-23 2019-37 140749 990048 270842\nFYU 2908 9900+01 2707-05 2710-10 2312-23 1922-35 183050 181050 210843\nGAL 2107 2009+00 2109-07 9900-10 3005-22 3009-33 260949 271251 281844\nGKN 3414 0114+01 0217-05 0219-10 0411-23 0619-36 050648 290944 291641\nHOM 9900 9900+00 1505-04 1606-09 3018-20 2934-31 285345 285747 285043\nJNU 2206 1910-03 1816-07 2017-11 2121-23 2228-34 212543 212143 261541\nLUR 0706 2610-01 2518-06 2423-12 2430-24 2427-37 222849 232045 271241\nMCG 9900 2106+00 1914-06 1910-10 9900-22 3312-33 301148 292250 282543\nMDO 3507 0208+00 0109-04 0111-10 0209-24 3228-34 306843 306044 294342\nOME 2110 1605+01 9900-05 2407-10 2414-22 2417-34 242248 242349 261944\nORT      0529+02 0619-03 0615-09 0614-22 0414-36 122048 141146 240742\nOTZ 2119 2317+01 2312-05 2411-10 2418-24 2522-35 242649 242349 261743\nSNP 2318 2207-02 2011-02 1810-06 2309-18 2526-29 253945 243546 243242\nTKA 9900 9900+01 9900-05 1505-11 9900-24 1605-37 311846 302345 292442\nUNK 1807 1810-01 1611-06 1005-09 9900-21 2906-34 271048 261150 272044\nYAK 9900 3006-02 3107-08 3607-14 0712-27 0818-38 290540 291439 292040\nIKO 2430 2441+04 2448+00 2452-03 2463-15 2459-28 246443 247845 237745\nAFM 2114 2008-02 2206-05 9900-10 2510-24 2418-35 222248 241751 261445\n5AB 3011 3110+00 3109-02 3412-06 3215-17 3118-29 322144 312147 272343\n5AC 2910 2826+05 2938+01 3043-04 2940-16 3057-27 306943 317752 315951\n5AD 3009 2829+06 2939+02 2840-03 2954-13 2963-25 308239 309847 309150\n5AE 2622 2418+06 2629+04 2637-01 2659-14 2670-25 269139 770745 279748\n5AF 3010 3109-02 2719-05 2725-09 2741-20 2952-30 296643 296247 304244\n5AG 2914 2912-02 3014-08 3117-14 3129-25 3063-31 307941 306242 304541\n",
  "vaac_tokyo": [
    {
      "id": "20260701_27202000_0223",
      "year": "2026",
      "volcano": "Kanlaon",
      "psn": "N1025 E12308",
      "issued": "20260701",
      "text": "FVFE01 RJTD 010700\nVA ADVISORY\nDTG: 20260701/0700Z\nVAAC: TOKYO\nVOLCANO: KANLAON 272020\nPSN: N1025 E12308\nAREA: PHILIPPINES\nSOURCE ELEV: 2435M AMSL\nADVISORY NR: 2026/223\nINFO SOURCE: HIMAWARI-9 PHIVOLCS\nERUPTION DETAILS: ERUPTION AT 20260701/0541Z FL110 EXTD NNW REPORTED\nOBS VA DTG: 01/0640Z\nOBS VA CLD: VA NOT IDENTIFIABLE FM SATELLITE DATA WIND FL110 140/6KT\nFCST VA CLD +6 HR: NOT AVBL\nFCST VA CLD +12 HR: NOT AVBL\nFCST VA CLD +18 HR: NOT AVBL\nRMK: WE WILL ISSUE FURTHER ADVISORY IF VA IS DETECTED IN SATELLITE \nIMAGERY.\nNXT ADVISORY: NO FURTHER ADVISORIES=",
      "img_url": "https://ds.data.jma.go.jp/svd/vaac/data/VAGFN/2026/Images/20260701_27202000_0223_QH21_01.png",
      "sat_img_url": null,
      "text_url": "https://ds.data.jma.go.jp/svd/vaac/data/TextData/2026/20260701_27202000_0223_Text.html"
    },
    {
      "id": "20260630_27307000_0011",
      "year": "2026",
      "volcano": "Taal",
      "psn": "N1400 E12100",
      "issued": "20260630",
      "text": "FVFE01 RJTD 300656\nVA ADVISORY\nDTG: 20260630/0656Z\nVAAC: TOKYO\nVOLCANO: TAAL 273070\nPSN: N1400 E12100\nAREA: PHILIPPINES\nSOURCE ELEV: 311M AMSL\nADVISORY NR: 2026/11\nINFO SOURCE: HIMAWARI-9 PHIVOLCS\nERUPTION DETAILS: ERUPTION AT 20260630/0634Z FL050 EXTD SW REPORTED\nOBS VA DTG: 30/0640Z\nOBS VA CLD: VA NOT IDENTIFIABLE FM SATELLITE DATA WIND FL050 100/15KT\nFCST VA CLD +6 HR: NOT AVBL\nFCST VA CLD +12 HR: NOT AVBL\nFCST VA CLD +18 HR: NOT AVBL\nRMK: WE WILL ISSUE FURTHER ADVISORY IF VA IS DETECTED IN SATELLITE \nIMAGERY.\nNXT ADVISORY: NO FURTHER ADVISORIES=",
      "img_url": "https://ds.data.jma.go.jp/svd/vaac/data/VAGFN/2026/Images/20260630_27307000_0011_QH21_01.png",
      "sat_img_url": null,
      "text_url": "https://ds.data.jma.go.jp/svd/vaac/data/TextData/2026/20260630_27307000_0011_Text.html"
    },
    {
      "id": "20260629_30027000_0212",
      "year": "2026",
      "volcano": "Sheveluch",
      "psn": "N5639 E16122",
      "issued": "20260629",
      "text": "FVFE01 RJTD 292100\nVA ADVISORY\nDTG: 20260629/2100Z\nVAAC: TOKYO\nVOLCANO: SHEVELUCH 300270\nPSN: N5639 E16122\nAREA: RUSSIA\nSOURCE ELEV: 3283M AMSL\nADVISORY NR: 2026/212\nINFO SOURCE: HIMAWARI-9\nERUPTION DETAILS: POSS VA CONTINUOUSLY OBS IN SATELLITE IMAGERY.\nOBS VA DTG: 29/2020Z\nOBS VA CLD: SFC/FL330 N5821 E15839 - N5824 E15903 - N5810 E15901 - \nN5804 E15841 MOV NW 25KT\nFCST VA CLD +6 HR: 30/0220Z SFC/FL340 N6002 E15936 - N5922 E15845 - \nN5929 E15725 - N6012 E15855\nFCST VA CLD +12 HR: 30/0820Z SFC/FL330 N6015 E16127 - N6000 E16154 - \nN5926 E15906 - N5938 E15730 - N6000 E15744 - N5955 E15929\nFCST VA CLD +18 HR: 30/1420Z SFC/FL330 N5901 E16353 - N5834 E16359 - \nN5820 E15852 - N5900 E15721 - N5921 E15817 - N5846 E16027\nRMK: VA OBSCURED BY MET CLOUD. HOWEVER VA IS STILL EXPECTED IN THE \nAREA.\nNXT ADVISORY: 20260630/0000Z=",
      "img_url": "https://ds.data.jma.go.jp/svd/vaac/data/VAGFN/2026/Images/20260629_30027000_0212_QH21_01.png",
      "sat_img_url": "https://ds.data.jma.go.jp/svd/vaac/data/Sat/2026/Images/30027000/09-ir/20260629_2020_202606292100_ir.png",
      "text_url": "https://ds.data.jma.go.jp/svd/vaac/data/TextData/2026/20260629_30027000_0212_Text.html"
    },
    {
      "id": "20260628_27303000_0707",
      "year": "2026",
      "volcano": "Mayon",
      "psn": "N1315 E12341",
      "issued": "20260628",
      "text": "FVFE01 RJTD 281019\nVA ADVISORY\nDTG: 20260628/1019Z\nVAAC: TOKYO\nVOLCANO: MAYON 273030\nPSN: N1315 E12341\nAREA: PHILIPPINES\nSOURCE ELEV: 2462M AMSL\nADVISORY NR: 2026/707\nINFO SOURCE: HIMAWARI-9 PHIVOLCS\nERUPTION DETAILS: ERUPTION AT 20260628/0950Z FL120 EXTD WSW REPORTED\nOBS VA DTG: 28/1000Z\nOBS VA CLD: VA NOT IDENTIFIABLE FM SATELLITE DATA WIND FL120 050/10KT\nFCST VA CLD +6 HR: NOT AVBL\nFCST VA CLD +12 HR: NOT AVBL\nFCST VA CLD +18 HR: NOT AVBL\nRMK: WE WILL ISSUE FURTHER ADVISORY IF VA IS DETECTED IN SATELLITE \nIMAGERY.\nNXT ADVISORY: NO FURTHER ADVISORIES=",
      "img_url": "https://ds.data.jma.go.jp/svd/vaac/data/VAGFN/2026/Images/20260628_27303000_0707_QH21_01.png",
      "sat_img_url": null,
      "text_url": "https://ds.data.jma.go.jp/svd/vaac/data/TextData/2026/20260628_27303000_0707_Text.html"
    }
  ],
  "vaac_alaska": [
    {
      "text": "\n000\nFVAK21 PAWU 292114\nVAAAK1\nVA ADVISORY\n\nDTG: 20260629/2111Z\n\nVAAC: ANCHORAGE\n\nVOLCANO: SHEVELUCH 300270\n\nPSN: N5639 E16122\n\nAREA: KAMCHATKA PENINSULA\n\nSOURCE ELEV: 10771 FT AMSL\n\nADVISORY NR: 2026/163\n\nRMK: PLEASE SEE FVFE01 RJTD ISSUED BY VAAC TOKYO WHICH DESCRIBES\nCONDITIONS NEAR THE VAAC ANCHORAGE AREA OF RESPONSIBILITY...BS\n\n\n\n",
      "issued": "2026-06-29T21:14:00+00:00",
      "volcano": "Sheveluch",
      "psn": "N5639 E16122"
    }
  ]
}