{
  "updated_utc": "2026-07-06T20:07Z",
  "metar": {
    "RJAA": "METAR RJAA 061830Z AUTO 02008KT 9999 NSC 21/19 Q1012 NOSIG",
    "PANC": "METAR PANC 061853Z 23006KT 10SM SCT070 BKN100 16/07 A2987 RMK AO2 SLP116 T01560072",
    "PAFA": "METAR PAFA 061853Z 00000KT 10SM FEW090 FEW140 20/09 A2988 RMK AO2 SLP122 T02000094 $",
    "PAED": "METAR PAED 061855Z 26006KT 10SM FEW065 SCT090 BKN120 16/09 A2985 RMK AO2A SLP104 T01590093 $",
    "KSEA": "METAR KSEA 061853Z 02007KT 10SM FEW250 24/09 A2998 RMK AO2 SLP158 T02390089 $",
    "ZSPD": "METAR ZSPD 061830Z 17003MPS CAVOK 27/27 Q1004 NOSIG",
    "ZSSS": "METAR ZSSS 061830Z 15002MPS CAVOK 29/26 Q1004 NOSIG",
    "RJFR": "METAR RJFR 061900Z AUTO VRB01KT 9999 BKN002 OVC036 24/24 Q1009",
    "VHHH": "METAR VHHH 061830Z 18009KT 9999 FEW012 SCT025 29/25 Q1006 NOSIG",
    "RCTP": "METAR RCTP 061830Z 23007KT 9999 SCT015 BKN035 29/26 Q1009 NOSIG RMK A2982",
    "ZGSZ": "METAR ZGSZ 061900Z VRB02MPS 9999 TSRA FEW023 FEW030CB BKN040 27/25 Q1006 BECMG AT2030 -SHRA",
    "WSSS": "METAR WSSS 061830Z 17004KT 9999 FEW016 BKN300 27/25 Q1011 NOSIG",
    "WMKK": "METAR WMKK 061830Z VRB03KT 9999 FEW030 28/25 Q1010 NOSIG",
    "WIDD": "METAR WIDD 061830Z 19003KT 9999 FEW014 27/25 Q1011 NOSIG",
    "VTBS": "METAR VTBS 061830Z 20010KT 9999 FEW020 30/27 Q1009 NOSIG",
    "VTBU": "METAR VTBU 061830Z 21006KT 9000 FEW020 29/29 Q1009 NOSIG",
    "ROAH": "METAR ROAH 061830Z AUTO VRB01KT 9999 NCD 27/25 Q1011",
    "VVDN": "METAR VVDN 061830Z 24004KT 9999 FEW020 BKN100 29/22 Q1006 NOSIG",
    "RCKH": "METAR RCKH 061900Z 19006KT 160V230 9999 FEW014 SCT026 29/24 Q1010 NOSIG RMK A2983",
    "KLAX": "METAR KLAX 061853Z 25010G18KT 10SM CLR 23/16 A2995 RMK AO2 SLP141 T02330161",
    "KONT": "METAR KONT 061853Z 24005KT 10SM CLR 30/13 A2994 RMK AO2 SLP123 T03000128",
    "KSFO": "SPECI KSFO 061836Z 26010KT 10SM FEW006 SCT022 18/12 A3000 RMK AO2 T01830122 $",
    "KOAK": "METAR KOAK 061853Z 27008KT 10SM FEW007 BKN018 18/12 A3001 RMK AO2 SLP161 T01780122",
    "KMHR": "METAR KMHR 061815Z AUTO 23008KT 10SM CLR 23/11 A2994 RMK AO2 T02340110 $",
    "KDFW": "METAR KDFW 061853Z COR 15003KT 10SM FEW055 SCT180 SCT250 36/19 A2996 RMK AO2 SLP135 T03560194",
    "KIAH": "METAR KIAH 061853Z 00000KT 10SM SCT045 34/22 A3000 RMK AO2 SLP156 T03440222",
    "KORD": "METAR KORD 061851Z 03015G23KT 10SM FEW250 26/15 A3006 RMK AO2 SLP175 T02610150 $",
    "KJFK": "METAR KJFK 061851Z 05013KT 10SM -RA BKN008 OVC012 21/19 A3004 RMK SLP173 P0002 T02060194",
    "KRFD": "METAR KRFD 061854Z 04008KT 010V070 10SM FEW045 27/17 A3009 RMK AO2 SLP184 T02720167",
    "KIND": "METAR KIND 061854Z 36008KT 10SM SCT033 SCT043TCU BKN050 29/21 A2998 RMK AO2 SLP145 TCU OHD T02890211",
    "KDTW": "METAR KDTW 061853Z 02009KT 10SM FEW030 BKN055 BKN075 26/17 A3003 RMK AO2 SLP164 T02610172",
    "KMSP": "METAR KMSP 061853Z 16011KT 10SM SCT043 SCT250 30/20 A3006 RMK AO2 SLP171 T03000200",
    "CYEG": "METAR CYEG 061900Z 18008KT 20SM FEW052 SCT250 22/09 A3013 RMK CU1CI3 CONTRAILS SLP211 DENSITY ALT 3500FT",
    "EHAM": "METAR EHAM 061825Z 26015KT 230V290 CAVOK 23/15 Q1014 NOSIG",
    "EBBR": "METAR EBBR 061820Z 26013KT CAVOK 27/10 Q1016 NOSIG",
    "EDDF": "METAR EDDF 061820Z AUTO 28011KT CAVOK 29/10 Q1016 NOSIG",
    "EDFH": "METAR EDFH 061820Z 30010KT 250V330 CAVOK 26/09 Q1018",
    "EDDL": "METAR EDDL 061820Z AUTO 31006KT 280V340 CAVOK 28/12 Q1015 NOSIG",
    "EDDK": "METAR EDDK 061820Z AUTO 28010KT 250V310 CAVOK 28/13 Q1015 BECMG 27005KT",
    "EBLG": "METAR EBLG 061820Z 27010KT CAVOK 27/12 Q1017 NOSIG",
    "LSZH": "METAR LSZH 061820Z 31004KT CAVOK 25/12 Q1020 NOSIG",
    "LIMC": "METAR LIMC 061820Z 25006KT CAVOK 31/14 Q1016 NOSIG",
    "LIRF": "METAR LIRF 061820Z 24004KT CAVOK 27/19 Q1016 NOSIG",
    "EINN": "METAR EINN 061830Z 27008KT 9999 BKN012 BKN200 17/14 Q1017 NOSIG",
    "EGLL": "METAR EGLL 061820Z AUTO 28014KT 9999 NCD 29/05 Q1016",
    "EGSS": "METAR EGSS 061820Z AUTO 25009KT 9999 NCD 28/07 Q1016",
    "EPWA": "METAR EPWA 061830Z 27010KT CAVOK 19/07 Q1011 NOSIG",
    "UHPP": "METAR UHPP 061830Z VRB01MPS 2600 BR VV002 08/08 Q1017 R34L/CLRD62 NOSIG RMK MT OBSC QFE759/1013",
    "EFHK": "METAR EFHK 061820Z 26012KT 9999 SCT030 12/06 Q0997 NOSIG",
    "LBBG": "METAR LBBG 061830Z AUTO 14003KT 9000 NCD 23/17 Q1014 NOSIG",
    "LTAC": "METAR LTAC 061820Z 02008KT 9999 FEW040 SCT080 21/09 Q1016 NOSIG RMK RWY21C 03010KT RWY03L 02009KT RWY21R 01009KT RWY03R 02006KT RWY21L 02007KT",
    "UBBB": "METAR UBBB 061830Z 34012KT CAVOK 24/21 Q1010 NOSIG",
    "UTAA": "METAR UTAA 061900Z 26006KT 9999 FEW050 BKN100 32/10 Q1007 R88/CLRD70 NOSIG",
    "UACC": "METAR UACC 061830Z 06003MPS CAVOK 20/17 Q1011 NOSIG RMK QFE727/0970",
    "UAAA": "METAR UAAA 061830Z 18002MPS 9999 SCT050CB BKN100 21/15 Q1010 NOSIG",
    "UZTT": "METAR UZTT 061830Z 05008KT CAVOK 29/10 Q1007 NOSIG",
    "ZWWW": "METAR ZWWW 061830Z 24002MPS 210V280 CAVOK 28/13 Q1009 NOSIG",
    "ZLXY": "METAR ZLXY 061900Z 32004MPS 250V340 9999 TS FEW040CB 21/19 Q1002 RESHRA BECMG TL1940 NSW",
    "ZBAA": "METAR ZBAA 061830Z 36002MPS CAVOK 22/21 Q0999 NOSIG",
    "ZBHH": "METAR ZBHH 061900Z 13002MPS 9999 FEW040 14/13 Q1006 NOSIG",
    "ZSQD": "METAR ZSQD 061900Z 13003MPS 9999 -TSRA FEW030CB SCT040 23/22 Q1000 BECMG TL1930 -SHRA",
    "ZMCK": "METAR ZMCK 061830Z 07006MPS CAVOK 17/12 Q1010 NOSIG RMK QFE643.1 74",
    "UUEE": "METAR UUEE 061830Z 19002MPS 160V220 CAVOK 17/10 Q1004 R24L/CLRD62 R24C/CLRD62 NOSIG",
    "UUDD": "METAR UUDD 061830Z 18004MPS CAVOK 15/12 Q1006 R13R/CLRD65 NOSIG",
    "ULLI": "METAR ULLI 061830Z 27004G09MPS 240V300 9999 FEW019CB BKN038 13/09 Q0998 R88/190055 NOSIG",
    "USSS": "METAR USSS 061830Z 10002MPS CAVOK 23/19 Q1012 R08L/CLRD60 R08R/CLRD60 NOSIG RMK QFE739/0986",
    "UNNT": "METAR UNNT 061830Z 16001MPS CAVOK 19/18 Q1011 R25/290250 R34/////// NOSIG RMK QFE748/0997",
    "UNKL": "METAR UNKL 061830Z 28002MPS 9000 -SHRA SCT046CB 19/19 Q1005 R29/290350 NOSIG RMK QFE729",
    "UIBB": "METAR UIBB 061830Z AUTO 33001MPS 9000 // ///000/// 19/19 Q1003 RMK QBB010 QFE710/0947",
    "UEEE": "METAR UEEE 061830Z 32001MPS CAVOK 13/07 Q1006 R23/09//65 NOSIG RMK QFE746",
    "UHHH": "METAR UHHH 061830Z 03002MPS 9999 BKN022 17/17 Q1012 R05L/090060 R05R/190050 NOSIG RMK QFE753/1004",
    "UHSS": "METAR UHSS 061900Z 36001MPS 9000 -SHRA BKN038CB 14/13 Q1015 R01/CLRD70 NOSIG RMK QFE760/1013"
  },
  "taf": {
    "RJAA": "TAF RJAA 061705Z 0618/0800 01006KT 9999 FEW015 BKN030 BECMG 0703/0705 09008KT BECMG 0709/0712 02004KT BECMG 0721/0800 09006KT",
    "PANC": "TAF PANC 061735Z 0618/0724 17004KT P6SM SCT060 BKN100 FM062000 26006KT P6SM FEW050 BKN100 FM070000 28008KT P6SM VCSH SCT050 BKN100 FM070800 18005KT P6SM FEW040 BKN120 FM072200 15015G25KT P6SM FEW050 BKN090",
    "PAFA": "TAF PAFA 061735Z 0618/0724 09005KT P6SM FEW060 SCT120 FM062300 06006KT P6SM VCSH BKN050 BKN100 PROB30 0623/0704 VRB10G20KT 6SM -TSRA BKN050CB FM070600 02005KT P6SM VCSH SCT060 BKN100 FM071000 02003KT P6SM BKN080",
    "PAED": "TAF PAED 061300Z 0613/0719 VRB06KT 9999 BKN120 QNH2987INS BECMG 0623/0624 24009KT 9999 VCSH SCT050 BKN090 QNH2983INS BECMG 0707/0708 21006KT 9999 NSW SCT080 BKN110 QNH2979INS TX18/0700Z TN11/0614Z",
    "KSEA": "TAF KSEA 061734Z 0618/0724 33009KT P6SM FEW250 FM070500 33005KT P6SM FEW250 FM070900 25005KT P6SM FEW250 FM071200 22005KT P6SM SCT015 FM071700 22005KT P6SM FEW250",
    "ZSPD": "TAF ZSPD 061502Z 0618/0724 15004MPS 6000 BKN020 TX35/0706Z TN26/0621Z TN26/0721Z",
    "ZSSS": "TAF ZSSS 061502Z 0618/0724 15004MPS 6000 BKN030 TX35/0706Z TN26/0621Z TN26/0721Z",
    "RJFR": "TAF RJFR 061705Z 0618/0800 10006KT 6000 FEW005 BKN012 TEMPO 0619/0621 BKN002 BKN009 TEMPO 0621/0703 1500 BR BKN002 BKN011 TEMPO 0703/0709 BKN005 BECMG 0706/0709 05006KT BECMG 0715/0718 09006KT",
    "VHHH": "TAF VHHH 062000Z 0621/0803 19015KT 9999 FEW010 SCT025 TX31/0706Z TN26/0622Z TN27/0722Z TEMPO 0621/0703 20020G30KT 1500 TSRA +SHRA FEW008CB SCT015 TEMPO 0703/0706 20015G25KT 2000 TSRA SHRA FEW008CB SCT020 TEMPO 0715/0718 3000 SHRA FEW008CB SCT020 TEMPO 0718/0724 20015G25KT 2000 TSRA SHRA FEW008CB SCT020 TEMPO 0800/0803 3000 SHRA FEW008CB SCT020",
    "RCTP": "TAF RCTP 061700Z 0618/0724 22005KT 9999 FEW012 BECMG 0700/0702 24012KT TEMPO 0706/0710 30015KT SCT010 FEW012CB BKN020 BKN040 BECMG 0711/0713 22005KT",
    "ZGSZ": "TAF AMD ZGSZ 061851Z 0618/0724 18007G12MPS 8000 BKN030 TX30/0706Z TN25/0622Z TN26/0722Z TEMPO 0618/0622 2000 +TSRA FEW010 FEW020CB BKN030 TEMPO 0622/0702 2500 TSRA SCT012 FEW020CB BKN030 TEMPO 0702/0706 SHRA FEW020CB BKN030",
    "WSSS": "TAF WSSS 061700Z 0618/0800 18006KT 9999 FEW015 SCT020",
    "WMKK": "TAF WMKK 061700Z 0618/0800 VRB03KT 9999 FEW030 PROB30 TEMPO 0621/0700 6000 -TSRA FEW010 FEW017CB",
    "VTBS": "TAF VTBS 061700Z 0618/0724 20008KT 9999 FEW020 TEMPO 0712/0716 VRB15KT 4000 TSRA FEW018CB SCT030 BKN100",
    "VTBU": "TAF VTBU 061700Z 0618/0718 19008KT 9000 FEW020",
    "ROAH": "TAF ROAH 061705Z 0618/0800 22004KT 9999 FEW015 BECMG 0700/0702 28006KT",
    "VVDN": "TAF VVDN 061700Z 0618/0718 22007KT 9999 FEW020 BKN100",
    "RCKH": "TAF RCKH 061700Z 0618/0724 19008KT 9999 FEW012 TEMPO 0618/0624 06005KT TEMPO 0705/0711 22013KT TEMPO 0718/0724 06005KT",
    "KLAX": "TAF KLAX 061944Z 0620/0724 26010G18KT P6SM FEW015 FM070300 25008KT P6SM FEW010 FEW250 FM070900 VRB03KT P6SM SCT010 FM071700 25012KT P6SM FEW250",
    "KONT": "TAF KONT 061720Z 0618/0724 VRB04KT P6SM BKN250 FM062000 25012G20KT P6SM FEW250 FM070400 25007KT P6SM SKC FM070700 VRB04KT P6SM FEW010 FM072000 25012G20KT P6SM SKC",
    "KSFO": "TAF KSFO 061740Z 0618/0724 24006KT P6SM SCT015 TEMPO 0618/0619 OVC020 FM062000 26015KT P6SM SKC FM070200 26010KT P6SM BKN015 FM071900 28015KT P6SM SCT015",
    "KOAK": "TAF KOAK 061740Z 0618/0724 28006KT P6SM BKN015 FM061900 27010KT P6SM SCT015 FM062100 28015KT P6SM SKC FM070200 27012KT P6SM OVC012 FM071100 26009KT P6SM BKN008 OVC012 FM071900 26013KT P6SM SCT015",
    "KMHR": "TAF KMHR 061720Z 0618/0718 19008KT P6SM SKC FM070100 22011KT P6SM SKC FM070700 17009KT P6SM SKC",
    "KDFW": "TAF KDFW 061727Z 0618/0724 21005KT P6SM FEW050 SCT250 FM062200 20005KT P6SM VCTS SCT060CB FM070100 15005KT P6SM FEW060 FM072000 24006KT P6SM VCTS SCT060CB",
    "KIAH": "TAF KIAH 061720Z 0618/0724 17008KT P6SM SCT035 SCT050 FM070100 18004KT P6SM FEW030 SCT250 TEMPO 0710/0714 VRB02KT FEW015 SCT025 FM071500 23008KT P6SM SCT030 FM071800 18006KT P6SM SCT035 SCT050",
    "KORD": "TAF KORD 061720Z 0618/0724 04012KT P6SM FEW040 FEW250 FM070500 35004KT P6SM FEW040 FEW250 FM071500 08008KT P6SM FEW050 FEW250",
    "KJFK": "TAF KJFK 061954Z 0620/0724 05013G19KT 6SM BR VCSH OVC008 FM070300 06011KT 3SM BR VCSH OVC004 FM071000 03010KT 5SM BR OVC008 FM071600 02010KT P6SM SCT008 BKN012",
    "KRFD": "TAF KRFD 061720Z 0618/0718 05010KT P6SM SCT040 FM070100 VRB04KT P6SM SKC FM071500 34005KT P6SM FEW050 FEW250",
    "KIND": "TAF KIND 061720Z 0618/0724 35005KT P6SM SCT025 BKN040 FM062100 36009KT P6SM VCSH BKN050 FM070200 02006KT P6SM FEW040 BKN080 FM070900 03007KT P6SM SCT015 BKN025 FM071500 04008KT P6SM SCT025 BKN040",
    "KDTW": "TAF KDTW 061734Z 0618/0724 03010KT P6SM SCT040 BKN100 FM070000 03005KT P6SM SKC FM070800 01004KT 4SM BR BKN020 FM071400 02008KT P6SM BKN028 FM071800 08005KT P6SM SCT030 BKN050",
    "KMSP": "TAF KMSP 061720Z 0618/0724 18008KT P6SM SCT035 SCT250 FM070400 19006KT P6SM BKN150 PROB30 0705/0708 6SM -SHRA BKN050 FM071200 24007KT P6SM SCT040 SCT250",
    "CYEG": "TAF CYEG 061740Z 0618/0718 17005KT P6SM FEW050 SCT250 BECMG 0618/0619 14010KT FM061900 15010KT P6SM SCT050 BKN240 TEMPO 0621/0701 15015KT FM070300 11006KT P6SM SCT240 BECMG 0708/0710 14010KT BECMG 0716/0718 14012G22KT RMK NXT FCST BY 062100Z",
    "EHAM": "TAF EHAM 061706Z 0618/0724 26007KT CAVOK BECMG 0707/0710 30016KT BECMG 0715/0718 31011KT BECMG 0718/0721 32006KT",
    "EBBR": "TAF EBBR 061701Z 0618/0724 26010KT CAVOK",
    "EDDF": "TAF EDDF 061700Z 0618/0724 27011KT CAVOK BECMG 0620/0622 23006KT BECMG 0706/0708 24011KT BECMG 0710/0712 26015G25KT PROB30 TEMPO 0713/0716 26020G30KT BECMG 0716/0718 29012KT",
    "EDFH": "TAF EDFH 061700Z 0618/0718 27010KT CAVOK BECMG 0710/0712 27015G25KT PROB40 TEMPO 0712/0718 27020G30KT",
    "EDDL": "TAF EDDL 061700Z 0618/0724 25008KT CAVOK BECMG 0708/0710 27015G25KT TEMPO 0712/0717 29020G30KT BECMG 0718/0720 30009KT",
    "EDDK": "TAF EDDK 061700Z 0618/0724 27011KT CAVOK BECMG 0618/0621 27005KT BECMG 0707/0709 27015G25KT TEMPO 0713/0717 30020G30KT BECMG 0719/0722 31010KT",
    "EBLG": "TAF EBLG 061701Z 0618/0724 26010KT CAVOK",
    "LSZH": "TAF LSZH 061725Z 0618/0724 29009KT CAVOK TX33/0715Z TN14/0704Z BECMG 0618/0619 14003KT BECMG 0707/0709 24010KT BECMG 0709/0712 28012KT TEMPO 0712/0717 29015G25KT BECMG 0718/0720 27005KT",
    "LIMC": "TAF LIMC 061700Z 0618/0724 VRB05KT CAVOK TEMPO 0712/0716 22010KT",
    "LIRF": "TAF LIRF 061700Z 0618/0724 VRB05KT CAVOK BECMG 0709/0711 26010KT BECMG 0716/0718 VRB05KT",
    "EINN": "TAF AMD EINN 061804Z 0618/0718 27010KT 9999 SCT010 TEMPO 0618/0709 BKN010",
    "EGLL": "TAF EGLL 061657Z 0618/0724 26015G25KT CAVOK BECMG 0618/0621 26009KT BECMG 0710/0713 32010KT",
    "EGSS": "TAF EGSS 061649Z 0618/0724 26010KT CAVOK BECMG 0714/0717 32010KT",
    "EPWA": "TAF EPWA 061730Z 0618/0718 25012KT CAVOK TEMPO 0623/0706 27015G25KT 3000 RA BKN008 BKN013 TEMPO 0706/0718 27017G27KT 3000 SHRA BKN018CB",
    "UHPP": "TAF UHPP 061639Z 0618/0724 36003G10MPS 4000 BR BKN005 OVC013 TEMPO 0618/0621 0500 FG VV002 BECMG 0621/0623 9999 NSW BKN030CB TEMPO 0623/0709 17005G12MPS TEMPO 0712/0721 1000 BR VV003",
    "EFHK": "TAF EFHK 061737Z 0618/0718 27013KT 9999 SCT030 PROB30 TEMPO 0618/0621 FEW030CB BECMG 0619/0621 21009KT TEMPO 0621/0702 SHRA SCT030CB BECMG 0702/0704 7000 RA BKN008 FEW025CB BECMG 0704/0706 27010KT 9999 NSW BKN015 TEMPO 0706/0711 BKN013 FEW025TCU TEMPO 0711/0718 SHRA FEW030CB BECMG 0716/0718 21003KT",
    "LBBG": "TAF LBBG 061700Z 0618/0718 13010KT CAVOK BECMG 0618/0620 VRB04KT BECMG 0710/0712 13012KT PROB30 TEMPO 0712/0716 VRB16G26KT 3000 TSRA FEW030CB BKN050 BECMG 0618/0620 VRB04KT",
    "LTAC": "TAF LTAC 061640Z 0618/0718 03012KT 9999 SCT040 SCT100 BECMG 0620/0623 CAVOK BECMG 0706/0709 SCT040",
    "UBBB": "TAF UBBB 061704Z 0618/0718 33012KT CAVOK TX28/0709Z TN22/0701Z TEMPO 0621/0704 36016KT FEW050CB BECMG 0704/0706 33018KT TEMPO 0706/0716 35020G30KT SCT017 FEW050CB",
    "UTAA": "TAF UTAA 061645Z 0618/0718 29016KT 6000 SCT050CB SCT050 TX40/0710Z TEMPO 0618/0703 23012KT TEMPO 0703/0710 33014G24KT 4000 DRDU",
    "UACC": "TAF UACC 061706Z 0618/0718 VRB01MPS 9999 SCT030 BKN100 TX27/0710Z TN15/0623Z TEMPO 0618/0704 -SHRA SCT030CB BECMG 0704/0706 02005MPS TEMPO 0704/0716 06008MPS 3100 -TSRA BKN030CB",
    "UAAA": "TAF UAAA 061701Z 0618/0718 20003G08MPS 9999 SCT050CB BKN100 TX32/0710Z TN18/0700Z PROB40 TEMPO 0700/0703 TS BECMG 0703/0704 34005MPS TEMPO 0708/0713 04005G10MPS TS BECMG 0713/0715 20003MPS",
    "UZTT": "TAF UZTT 061700Z 0618/0718 04010KT CAVOK TX37/0710Z TN21/0700Z TEMPO 0700/0706 35010G20KT",
    "ZWWW": "TAF ZWWW 061503Z 0618/0724 18004MPS CAVOK TX34/0709Z TN24/0623Z TN27/0723Z BECMG 0702/0703 36004MPS BECMG 0713/0714 18004MPS",
    "ZLXY": "TAF AMD ZLXY 061742Z 0618/0718 06003MPS 5000 -TSRA FEW040CB OVC050 TX38/0708Z TN24/0621Z TEMPO 0618/0620 33015G20MPS 2400 +TSRAGR BECMG 0620/0621 HZ NSC",
    "ZBAA": "TAF ZBAA 061502Z 0618/0724 15004MPS CAVOK TX31/0706Z TN22/0621Z TN21/0721Z TEMPO 0707/0713 -TSRA FEW040CB BKN040",
    "ZBHH": "TAF ZBHH 061501Z 0618/0718 36004MPS 9999 FEW040 TX29/0708Z TN14/0622Z TEMPO 0705/0708 VRB08G13MPS -TSRA FEW040CB FEW040",
    "ZSQD": "TAF AMD ZSQD 061855Z 0618/0718 18004MPS 5000 BR SCT040 TX27/0706Z TN23/0621Z TEMPO 0618/0621 TSRA BKN030 SCT040CB TEMPO 0621/0624 TSRA BKN030 SCT040CB TEMPO 0708/0711 TSRA BKN030 SCT040CB",
    "ZMCK": "TAF ZMCK 061643Z 0618/0724 09005MPS 9999 FEW030CB SCT033 TN13/0621Z TX25/0707Z BECMG 0623/0701 VRB02MPS TEMPO 0713/0724 VRB08MPS TSRA SCT027CB SCT030",
    "UUEE": "TAF UUEE 061657Z 0618/0718 18003G08MPS 9999 BKN016 TX19/0712Z TN13/0701Z TEMPO 0621/0705 BKN007 BECMG 0705/0707 24006MPS TEMPO 0707/0716 26009G15MPS PROB40 TEMPO 0708/0716 -TSRA BKN016CB",
    "UUDD": "TAF UUDD 061656Z 0618/0724 19003MPS 8000 FEW007 BKN016 TX20/0711Z TN13/0701Z BECMG 0705/0707 25005MPS TEMPO 0707/0716 25009G14MPS BECMG 0716/0718 18003MPS",
    "ULLI": "TAF ULLI 061652Z 0618/0718 25006G13MPS 6000 BKN016 PROB40 TEMPO 0622/0702 1500 BR BECMG 0700/0703 19006G12MPS TEMPO 0709/0716 23008G15MPS 4000 -TSRA BKN017CB",
    "USSS": "TAF USSS 061655Z 0618/0718 18003G14MPS 9999 BKN033CB TEMPO 0618/0718 -TSRAGR",
    "UNNT": "TAF UNNT 061700Z 0618/0718 02003G08MPS 8000 SCT040 TX28/0709Z TN17/0622Z TEMPO 0618/0701 0150 FG BKN002 TEMPO 0704/0718 -TSRA BKN020CB",
    "UNKL": "TAF UNKL 061647Z 0618/0718 29003G08MPS 6000 -SHRA BKN016CB FM070500 35005G10MPS CAVOK BECMG 0707/0710 30003G08MPS",
    "UIBB": "TAF UIBB 061700Z 0618/0718 28002MPS 0300 +SHRA FG BKN001 BKN013CB TEMPO 0618/0703 VRB08MPS 4000 -TSRA FEW001 BKN013CB FM070300 30007G12MPS 9999 -SHRA BKN017CB TEMPO 0703/0715 VRB16MPS 0900 +TSRA VV004",
    "UEEE": "TAF UEEE 061700Z 0618/0724 20003G08MPS CAVOK TX30/0706Z TN13/0618Z",
    "UHHH": "TAF UHHH 061649Z 0618/0724 04003MPS 5000 BR FEW005 BKN015CB TX27/0706Z TN16/0618Z TEMPO 0618/0621 0400 FG BKN002 SCT020CB BECMG 0621/0624 9999 NSW FEW010 SCT020CB",
    "UHSS": "TAF UHSS 061645Z 0618/0724 18003MPS 6000 -SHRA BKN020CB BECMG 0702/0704 9999 NSW"
  },
  "atis": {
    "RJAA": "[Arrival ATIS] RJAA ARR ATIS K 0839Z M0830 (APCH)ILS Y RWY16L LDG RWY 16L DEP RWY 16R DEP FREQ 124.2. TWY A1 CLSD. M 190830Z 14009KT 100V180 25KM BKN020CU BKN/// 24/20 Q1010/A2985= Q/TWO NINE EIGHT FIVE STP\n[Departure ATIS] RJAA DEP ATIS J 0828Z M0800 (APCH)ILS Y RWY16L LDG RWY 16L DEP RWY 16R DEP FREQ 124.2. TWY A1 CLSD. M 190800Z 14009KT 25KM FEW020CU BKN/// 24/19 Q1011/A2985= Q/TWO NINE EIGHT FIVE STP",
    "PANC": "[Arrival ATIS] PANC ARR ATIS H 1853Z ANC ATIS INFO H 1853Z. 21006KT 10SM SCT070 BKN100 16/07 A2987 (TWO NINER EIGHT SEVEN). VISUAL APPROACHES IN USE. LANDING RWY 7R, 7L, DEPARTING RWY 7L, 33. NOTICE TO AIRMEN. TWY Q CLSD. TWY R CLSD BTWN TWY, S AND TWY U . TWY E CLSD BTWN TWY, L AND TWY M . TWY K CLSD BTWN TWY, B AND TWY C . RWY 15 PAPI OTS. TWY K BTWN A AND D RESTRICTED TO AIRCRAFT WITH WINGSPAN LESS THAN 118 FEET. ANC CLASS C VFR TRANSITIONS ARE NOT AVAILABLE. CONTACT TOWER 118.3 FOR TAXI. ...ADVS YOU HAVE INFO H.\n[Departure ATIS] PANC DEP ATIS H 1953Z ANC ATIS INFO H 1953Z. VRB03KT 10SM FEW080 SCT110 14/07 A2994 (TWO NINER NINER FOUR). 7R, 7L APPROACHES IN USE. LANDING RWY 7R, 7L, DEPARTING RWY 33. NOTICE TO AIRMEN. TWY Q CLSD. TWY R CLSD BTWN TWY, S AND TWY U . TWY E CLSD BTWN TWY, L AND TWY M . RWY 15 PAPI OTS. TWY K BTWN A AND D RESTRICTED TO AIRCRAFT WITH WINGSPAN LESS THAN 118 FEET. HAZD WX INFO FOR ANC AREA AVBL FM FSS. CONTACT TOWER 118.3 FOR TAXI. ...ADVS YOU HAVE INFO H.",
    "KSEA": "[Arrival ATIS] KSEA ARR ATIS I 1853Z SEA ATIS INFO I 1853Z. 36007KT 10SM FEW250 24/09 A2998 (TWO NINER NINER EIGHT). ILS AND CHARTED VISUAL APPROACH RWYS 34L AND 34R , APCH IN USE. DEPG RWY 34R, DEPG ACFT PLAN AND BRIEF NUMBERS FOR BOTH RWYS 34R AND 34C. SIMUL ARRIVALS TO RWY 34L AND DEPARTURES TO RWY 34R ARE IN USE. SIMUL APCHS IN USE TO PARA RYS. NOTAMS... BIRD ACTIVITY VICINITY ARPT. ...ADVS YOU HAVE INFO I.\n[Departure ATIS] KSEA DEP ATIS J 1953Z SEA ATIS INFO J 1953Z. 33008KT 10SM FEW250 26/09 A2997 (TWO NINER NINER SEVEN). ILS AND CHARTED VISUAL APPROACH RWYS 34L AND 34R , APCH IN USE. DEPG RWY 34R, DEPG ACFT PLAN AND BRIEF NUMBERS FOR BOTH RWYS 34R AND 34C. SIMUL ARRIVALS TO RWY 34L AND DEPARTURES TO RWY 34R ARE IN USE. SIMUL APCHS IN USE TO PARA RYS. NOTAMS... BIRD ACTIVITY VICINITY ARPT. ...ADVS YOU HAVE INFO J.",
    "ZSPD": "[Arrival ATIS] ZSPD ARR ATIS R 0830Z EXP ILS APCH INDEPENDENT PARL INSTR APCH LDG RWY 17R & 16L WIND RWY 17R TDZ 220/6MPS MID 210/5MPS END 220/6MPS RWY 16L TDZ 220/7MPS MID 220/6MPS END 210/5MPS VIS RWY 17R TDZ 10000M MID 10000M END 10000M VIS RWY 16L TDZ 10000M MID 10000M END 10000M FBL SHRA NSC T 28 /DP 25 QNH 1001 HPA CAUTION THE BIRDS NEAR THE RUNWAY RWY 17L/17R/16L/16R RWYCC 5/5/5 ISSUED AT 0710 WET/WET/WET DPT NR/NR/NR COV 100PCT/100PCT/100PCT. ADZ YOU HAVE INFO R.\n[Departure ATIS] ZSPD DEP ATIS F 1800Z DEP RWY 17L WIND RWY 17L TDZ 170/4MPS MID 170/3MPS END 170/3MPS VIS RWY 17L TDZ 10000M MID 10000M END 9000M NSC T 27 /DP 27 QNH 1004 HPA DELIVERY FREQ 118.8 CAUTION THE B",
    "ZSSS": "[Arrival ATIS] ZSSS ARR ATIS C 0830Z EXP ILS APCH LDG RWY 18L WIND RWY 18L TDZ 200/6MPS MID 200/5MPS END 200/4MPS VIS RWY 18L TDZ 10000M MID 8000M END 8000M FBL RA NSC T 27 /DP 25 QNH 1001 HPA WINDSHEAR ON SHORT FINAL RWY18L RWYCC 5/5/5 ISSUED AT 0730 WET/WET/WET DPT NR/NR/NR COV 100PCT/100PCT/100PCT RWY18R RWYCC 5/5/5 ISSUED AT 0730 WET/WET/WET DPT NR/NR/NR COV 100PCT/100PCT/100PCT QNH OF SHANGHAI TERMINAL CONTROL AREA 1001 HPA ADZ YOU HAVE INFO C.\n[Departure ATIS] ZSSS DEP ATIS K 0130Z DEP RWY 18R WIND RWY 18R TDZ 180/5MPS MID 190/4MPS END 190/5MPS VIS RWY 18R TDZ 5000M MID 6000M END 5000M FBL RA BR CLD BKN 300M T 27 /DP 24 QNH 1004 HPA RWY18L RWYCC 5/5/5 ISSUED AT 0520 WET/WET/WET DPT NR/NR/NR COV 100PCT/100PCT/100PCT RWY18R RWYCC 5/5/5 ISSUED AT 0520 WET/WET/WET DPT NR/NR/NR COV 50PCT/50PCT/50PCT QNH OF SHANGHAI TERMINAL CONTROL AREA 1004 HPA ADZ YOU HAVE INFO K.",
    "VHHH": "[Arrival ATIS] VHHH ARR ATIS A 1940Z ARRIVALS, RWY 25C. EXP ILS APCH, RWY 25C. RWY 25 RUNWAY CONDITION REPORT AT 1130Z. RWY 25C RUNWAY CONDITION CODES 5 , 5 , 5 . RWY SFC ALL PARTS WET. SIG WS FCST RWY 25C.\n[Departure ATIS] VHHH DEP ATIS X 0805Z DEPARTURES, RWY 25L. WIND 170/13KT. VIS 10KM. CLD FEW 1000FT SCT 2500FT. T32 DP24. QNH 1007HPA. ACK INFO X ON FIRST CTC WITH DELIVERY .",
    "RCTP": "[Arrival ATIS] RCTP ARR ATIS F 0851Z EXP ILS APCH RWY23R FOR ARR. RWY23L FOR DEP. WIND 240/17KT VIS 10 KM OR MORE CLD FEW 2000FT SCT 20000FT T 31 DP 24 QNH 1009HPA WS R23R NOSIG CTN BIRD ACTIVITY IN THE VCY OF THE AD. LOW LVL WS ADVISORY IN EFFECT. INFORM TAIPEI APCH OR TAIPEI TOWER ON INITIAL CONTACT YOU HAVE INFORMATION F\n[Departure ATIS] RCTP DEP ATIS O 1300Z EXP ILS APCH RWY23R AND RWY23L ARR/DEP. WIND 150/05KT VARYING BTN 110 AND 200 VIS 10 KM OR MORE CLD FEW 2000FT BKN 8500FT T 29 DP 25 QNH 1010HPA NOSIG INFORM",
    "ZGSZ": "[Arrival ATIS] ZGSZ ARR ATIS E 0830Z EXP ILS APCH 15 EXP ILS OR VIS APCH 16R WIND 160/7MPS VIS 9999M CLD FEW 900M T 30 /DP 27 QNH 1007 HPA INDEPENDENT PARALLEL DEPARTURES INDEPENDENT PARALLEL APPROACHES MISSED APPROACH ALTITUDE SETTING 1200METERS WHEN AIRBORNE CONTACT ZHUHAI APPROACH EXPECTED RNP ILS DME Z APPROACH ADZ YOU HAVE INFO E.\n[Departure ATIS] ZGSZ DEP ATIS U 0500Z DEP RWY 15 & 16L WIND 170/8MPS VIS 9999M CLD SCT 780M T 30 /DP 28 QNH 1008 HPA INDEPENDENT PARALLEL DEPARTURES DEPENDENT PARALLEL APPROACHES V17,V18 AVAILABLE AFTER SULAS FLY HEADING 040 MISSED APPROACH ALTITUDE SETTING 1200METERS WHEN AIRBORNE CONTACT ZHUHAI APPROACH EXPECTED RNP ILS DME Z APPROACH ADZ YOU HAVE INFO U.",
    "WSSS": "[Arrival ATIS] WSSS ARR ATIS U 0830Z METREPORT 0830Z ILS APCHRWY 20R SIMUL INDEPENDENT ILS AND VISUAL APPROACHES ARE CONDUCTED ON RWY 20. TWY W 9 CLOSED, RWY 02C 20C RAPID EXIT TAXIWAY INDICATOR LIGHTS OFF WIND 120/ 11KT VIS 10KM CLD FEW TCU 1800FT FEW CB 2000FT T30 DP25 QNH 1009HPA NOSIG ACK ATIS U\n[Departure ATIS] WSSS DEP ATIS U 0800Z METREPORT 0800Z RWY 20C SIMUL INDEPENDENT ILS AND VISUAL APPROACHES ARE CONDUCTED ON RWY 20. TWY W 9 CLOSED, RWY 02C 20C RAPID EXIT TAXIWAY INDICATOR LIGHTS OFF WIND 130/ 10KT VRB BTN110 AND170 VIS 10KM CLD FEW TCU 1800FT FEW CB 2000FT T31 DP23 QNH 1008HPA NOSIG DEP,INITIAL CMB 3000FT ACK ATIS U",
    "WMKK": "[Arrival ATIS] WMKK ARR ATIS G 0840Z WMKK ARR INFO G. TIME 0830. INDEPENDENT PARALLEL APPROACHES FOR RWY 14 L AND 15 ARE IN PROGRESS. EXP RNAV / ILS APCH FOR RWY 14 LEFT. EXP RNAV / ILS APCH FOR RWY 15. WIND RWY 14L 100 DEG, 3 KT. WIND RWY 15 130 DEG, 4 KT. VIS RWY 14L TDZ 10 KM OR MORE. VIS RWY 15 TDZ 10 KM OR MORE. WX TS, VCSH. CLD FEW CB 1700 FT. T 29. DP 25. QNH 1008. NOSIG. AT FIRST CONTACT WITH LUMPUR RADAR, NOTIFY RCPT OF G\n[Departure ATIS] WMKK DEP ATIS U 0717Z WMKK DEP INFO U. TIME 0700. INDEPENDENT PARALLEL DEPARTURES FOR RWY 14 R AND 15 ARE IN PROGRESS. RWY 14 RIGHT. RWY 15. WIND RWY 14R 150 DEG, 8 KT. WIND RWY 15 140 DEG, 8 KT. VIS RWY 14R TDZ 10 KM OR MORE. VIS RWY 15 TDZ 10 KM OR MORE. WX TS, VCSH. CLD FEW CB 1700 FT, CLD SCT 1800 FT. T 30. DP 24. QNH 1008. NOSIG. ALL DEP ACFT TO CONTACT LUMPUR DEP AT 135 DECIMAL 25 MHZ WHEN ABN. AT FIRST CONTACT WITH LUMPUR GROUND, NOTIFY RCPT OF U",
    "VTBS": "[Arrival ATIS] VTBS ARR ATIS Q 0830Z VTBS ARR ATIS Q 0831Z SIMULTANEOUS INDEPENDENT PARL APCH IN PROGRESS EXP ILS Z APCH ARR RWY 19 OR RNP APCH RWY 20R , ,PILOT SHALL ADZ BKK APCH ON INITIAL CTC IF UNA TO CONDUCT RNP APCH DUE TO OPERATIONAL CONSTRAINT 0830Z WIND 300/11KT VRB BTN 270/ AND 330/ VIS 10KM CLD FEW 2000FT T34 DP22 QNH 1007HPA TREND NOSIG ADZ BKK APCH ON INITIAL CONTACT THAT YOU HAVE INFO Q\n[Departure ATIS] VTBS DEP ATIS A 0800Z VTBS DEP ATIS A 0801Z DEP RWY 20L , ,AFT AIRBORNE ALL DEPARTING ACFT SHALL CTC 119.25 0800Z WIND 320/12KT VRB BTN 270/ AND 330/ VIS 10KM CLD FEW 2000FT T34 DP22 QNH 1007HPA TREND NOSIG ADZ GND WHEN INITIAL CONTACT YOU HAVE INFO A",
    "VTBU": "[Arrival ATIS] VTBU ARR ATIS U 0430Z VTBU ARR ATIS U 0430Z RNP RWY 18 TRL FL130 MOBILE ACFT ARST SYSTEM INSTL ATP SIX HUNDRED AND TEN METERS FM THR RWY 36 CABLE HGT 3 INCHES. 0430Z WIND 360/6KT VRB BTN 320/ AND 020/ VIS 10KM CLD FEW 2000FT T34 DP27 QNH 1010HPA TREND NOSIG ADZ CONTROLLER WHEN INITIAL CONTACT YOU HAVE INFO U\n[Departure ATIS] VTBU DEP ATIS D VTBU ARR/DEP DATIS RPT VTBU ARR ATIS D 0330Z ILS \"Z\" APCH RWY 18 TRL FL130 0330Z WIND 110/4KT VRB BTN 350/ AND 120/ VIS 6KM CLD FEW 2000FT T31 DP27 QNH 1014HPA TREND NOSIG ADZ CONTROLLER WHEN INITIAL CONTACT YOU HAVE INFO D",
    "ROAH": "[Arrival ATIS] ROAH ARR ATIS S 0829Z M0800 (APCH)RNP RWY18R LDG RWY 18R DEP RWY 18L DEP FREQ 126.5 258.3 M 190800Z 19010KT 40KM FEW007ST SCT/// 29/26 Q1012/A2988= Q/TWO NINE EIGHT EIGHT STP\n[Departure ATIS] ROAH DEP ATIS P 0641Z M0630 (APCH)RNP RWY18R LDG RWY 18R DEP RWY 18L DEP FREQ 126.5 258.3 M 190630Z 20010KT 40KM FEW005ST SCT/// 29/27 Q1012/A2989= Q/TWO NINE EIGHT NINE STP",
    "VVDN": "[Arrival ATIS] VVDN ARR ATIS A 0802Z VVDN INFO A 0802Z. ILS VICTOR APPROACH 35L.. DPTG RWY 35R.. 0802Z. WIND 130/09KT CAVOK T33 DP25 QNH 1006HPA TREND NOSIG. ADZ ON INITIAL CTC YOU HAVE INFO. A.\n[Departure ATIS] VVDN DEP ATIS X 0632Z VVDN INFO X 0632Z. ILS VICTOR APPROACH 35L.. DPTG RWY 35R.. 0632Z. WIND 130/0KT CAVOK T34 DP26 QNH 1006HPA TREND NOSIG. ADZ ON INITIAL CTC YOU HAVE INFO. X.",
    "RCKH": "[Arrival ATIS] RCKH ARR ATIS K 0800Z EXPECT ILS APPROACH RWY 09 ARR/DEP TAXIWAY BRAVO, TAXIWAY DELTA AND TAXIWAY ECHO CLOSED DUE MAINTENANCE. RUNWAY 0 9 ARRIVALS PLAN VACATE VIA CHARLIE OR FOXTROT AND EXPEDITE VACATE. WIND 230/10KT VARYING BTN 190 AND 260 VIS 10 KM OR MORE CLD FEW 2200FT SCT 22000FT T 32 DP 25 QNH 1010HPA NOSIG CAUTION BIRD ACTIVITY IN VICINITY OF THE AERODROME. INFORM KAO-HSIUN APCH OR KAO-HSIUN TOWER ON INITIAL CONTACT YOU HAVE INFORMATION K\n[Departure ATIS] RCKH DEP ATIS Q 0630Z EXPECT ILS APPROACH RWY 09 ARR/DEP TAXIWAY JULIETT, TAXIWAY BRAVO, TAXIWAY DELTA AND TAXIWAY ECHO CLOSED DUE MAINTENANCE. RUNWAY 0 9 ARRIVALS PLAN VACATE VIA CHARLIE OR",
    "KLAX": "[Arrival ATIS] KLAX ARR ATIS F 0753Z LAX ATIS INFO F 0753Z. 30009G15KT 10SM FEW012 BKN018 17/14 A2998 (TWO NINER NINER EIGHT) RMK AO2 SLP148 T01720139 402110172. INST APCHS AND RNAV RNP APCHS RY 24R AND 25L, OR VCTR FOR VISUAL APCH WILL BE PROVIDED, SIMUL VISUAL APCHS TO ALL RWYS ARE IN PROG. CTC L A GC ON 121.75 FOR PUSH OR TAXI ON A. TWY C CLSD BTN TWY, C8 AND TWY C9 , , TWY B CLSD BTN TWY, F AND TWY B1, TWY B1 CLSD. ILS RY 25R OTS, RY 25R SFL OTS, RY 24L ALSF-2 OTS. LAX VOR UNMONITORED. IF ASSIGNED RUNWAY 25R FOR DEPARTURE, EXPECT DEPARTURE FROM INTERSECTION FOXTROT. TAXILANE CHARLIE EIGHT RESTRICTED TO AIRCRAFT WITH A WINGSPAN LESS THAN ONE HUNDRED EIGHTEEN FEET. USE CAUTION FOR INCREASED DRONE ACTIVIY IN THE VICINITY OF SOFI STADIUM AT OR BELOW 200FT AGL DURING THE WORLD CUP FROM 06/12/26 THROUGH 07/10/2026. HAZD WX INFO FOR LAX AREA AVBL FM FSS. BIRD ACTIVITY VICINITY ARPT. TWR FREQ FOR ALL RWYS IS 120.95. CD AND GC FREQ IS 121.75. INCLUDE YOUR CALL SIGN IN ALL READBACKS. USE CAUTION WHEN EXITING RY24R AT TWY V, W, AND Y, TO HOLD SHORT OF RY24L. MULTIPLE RUNWAY INCURSIONS HAVE OCCURRED. ...ADVS YOU HAVE INFO F.\n[Departure ATIS] KLAX DEP ATIS D 0653Z LAX ATIS INFO D 0653Z. 28011KT 10SM FEW012 BKN018 17/14 A2998 (TWO NINER NINER EIGHT) RMK AO2 SLP151 T01720144. INST APCHS AND RNAV RNP APCHS RY 24R AND 25L, OR VCTR FOR VISUAL APCH WILL BE PROVIDED, SIMUL VISUAL APCHS TO ALL RWYS ARE IN PROG. CTC L A GC ON 121.75 FOR PUSH OR TAXI ON A. TWY C CLSD BTN TWY, C8 AND TWY C9 , , TWY B CLSD BTN TWY, F AND TWY B1, TWY B1 CLSD. ILS RY 25R OTS, RY 25R SFL OTS, RY 24L ALSF-2 OTS. LAX VOR UNMONITORED. IF ASSIGNED RUNWAY 25R FOR DEPARTURE, EXPECT DEPARTURE FROM INTERSECTION FOXTROT. TAXILANE CHARLIE EIGHT RESTRICTED TO AIRCRAFT WITH A WINGSPAN LESS THAN ONE HUNDRED EIGHTEEN FEET. USE CAUTION FOR INCREASED DRONE ACTIVIY IN THE VICINITY OF SOFI STADIUM AT OR BELOW 200FT AGL DURING THE WORLD CUP FROM 06/12/26 THROUGH 07/10/2026. HAZD WX INFO FOR LAX AREA AVBL FM FSS. BIRD ACTIVITY VICINITY ARPT. TWR FREQ FOR ALL RWYS IS 120.95. INCLUDE YOUR CALL SIGN IN ALL READBACKS. USE CAUTION WHEN EXITING RY24R AT TWY V, W, AND Y, TO HOLD SHORT OF RY24L. MULTIPLE RUNWAY INCURSIONS HAVE OCCURRED. ...ADVS YOU HAVE INFO D.",
    "KONT": "[Arrival ATIS] KONT ARR ATIS B 0653Z ONT ATIS INFO B 0653Z. 24004KT 9SM BKN015 17/13 A2998 (TWO NINER NINER EIGHT). ILS APR IN USE. RY26L & RY26R. LNDG AND DEPG RY 26L AND RY 26R. NOTAMS... TAXIWAY SIERRA CLSD BETWEEN SIERRA 8 AND W TAXIWAY Q SOUTH OF RWY 26L CLSD TAXIWAY T CLSD TAXIWAY SIERRA 5 CLSD. RY 26L IM OTS. HAZD WX INFO FOR SOUTHERN CA AVBL ON FSS FREQUENCIES. UAS IN THE VICINITY ONTARIO AIRPORT AT OR BELOW TWO HUNDRED. PILOTS READBACK RWY ASSIGNMENTS AND HOLD SHORT INSTRUCTIONS. ...ADVS YOU HAVE INFO B.\n[Departure ATIS] KONT DEP ATIS N 0553Z - KONT ATIS INFO N 0553Z. 24004KT 10SM BKN250 22/15 A2988 (TWO NINER EIGHT EIGHT) RMK AO2 SLP100. ILS AND VIS APR IN USE, RY26L & RY26R. LNDG AND DEPG RY 26L AND RY 26R. NOTAMS... TAXIWAY SIERRA CLSD BETWEEN SIERRA 8 AND W TAXIWAY Q SOUTH OF RWY 26L CLSD TAXIWAY T CLSD TAXIWAY SIERRA 5 CLSD. RY 26L IM OTS, RY 26R ALS OTS. USE CAUTION FOR NUMEROUS BIRDS OBSERVED IN VICINITY OF ONT. HAZD WX INFO FOR SOUTHERN CA AVBL ON FSS FREQUENCIES. PILOTS READBACK RWY ASSIGNMENTS AND HOLD SHORT INSTRUCTIONS. ...ADVS YOU HAVE INFO N.",
    "KSFO": "[Arrival ATIS] KSFO ARR ATIS B 1756Z SFO ATIS INFO B 1756Z. 25005KT 10SM FEW006 BKN020 17/12 A2999 (TWO NINER NINER NINER) RMK AO2 SLP156 T01720117 10178 20144 50000. SIMUL CLSLY SPCD DPNDNT ILS RY 28R AND ILS RY 28L APP IN USE. DEPG RWYS 28L, 28R. DEPG ACFT SHOULD BE PREPARED FOR A SHORT NOTICE RY CHANGE. RY 1L, 1R CLSD. NUMEROUS TWY CLOSURES FOR CONSTRUCTION ON THE FIELD, PILOTS CHECK NOTAMS. PAEW ADJ RIGHT SIDE RY 28R. DEPG ACFT WAITING ON FINAL NUMBERS ADVISE GROUND PRIOR TO ENTERING TWY F. ...ADVS YOU HAVE INFO B.\n[Departure ATIS] KSFO DEP ATIS R 1456Z SFO ATIS INFO R 1456Z. 30006KT 10SM FEW006 OVC011 14/11 A3002 (THREE ZERO ZERO TWO). SIMUL CLSLY SPCD DPNDNT ILS RY 28R AND ILS RY 28L APP IN USE. DEPG RWYS 28L, 28R. GATE",
    "KOAK": "[Arrival ATIS] KOAK ARR ATIS I 0753Z - KOAK ATIS INFO I 0753Z. 19015KT 10SM SCT015 17/13 A2995 (TWO NINER NINER FIVE). RNAV 30, ILS 28R. ILS RWY 30, OTS. UNN LIT CLOSE-IN OBSTACLES FOR RWY 30 DEPARTURES. RWY 30 DEPARTURES ARE ADVISED TO AVOID TURNING LEFT PRIOR TO DEPARTURE END OF RUNWAY. SIGNATURE UNI-COM OUT OF SERVICE. HAZD WX INFO FOR CA ON FLT SRVC FREQ. CAUTION, BIRDS NEAR AIRPORT. ...ADVS YOU HAVE INFO I.\n[Departure ATIS] KOAK DEP ATIS O 1953Z OAK ATIS INFO O 1953Z. 28014KT 10SM FEW005 22/14 A2988 (TWO NINER EIGHT EIGHT). RNAV Z/VA RWY 30 ILS/VA RWY 28R. FLOW TO LAX, LAS, SAN. ILS RWY 30, OTS. UNN LIT CLOSE-IN OBSTACLES FOR RWY 30 DEPARTURES. RWY 30 DEPARTURES ARE ADVISED TO AVOID TURNING LEFT PRIOR TO DEPARTURE END OF RUNWAY. SIGNATURE UNI-COM OUT OF SERVICE. CAUTION, BIRDS NEAR AIRPORT. ...ADVS YOU HAVE INFO O.",
    "KDFW": "[Arrival ATIS] KDFW ARR ATIS S 1753Z - KDFW ARR INFO S 1753Z. VRB03KT 10SM FEW055 FEW180 FEW250 34/20 A2998 (TWO NINER NINER EIGHT). SIMUL VISUAL APCH TO RWYS, 13R, 18R, 17C, 17L. LDG RWY 17C EXP LAHSO TWY B\n[Departure ATIS] KDFW DEP ATIS W 1553Z - KDFW DEP INFO W 1553Z. 21022G32KT 10SM FEW025 FEW180 SCT250 31/21 A2994 (TWO NINER NINER FOUR) RMK AO2 PK WND 20032/1547 SLP128 T03110206. SIMUL PARL TRAFFIC DEPG RWYS 17R, 18L. NOTICE TO AIRMEN. WARNING, RWY 18L HAS BEEN SHORTENED, 9273 FT AVAILABLE. RWY 18L CL OTS. BIRD ACTIVITY VCNTY ARPT. ...ADVS YOU HAVE INFO W.",
    "KIAH": "[Arrival ATIS] KIAH ARR ATIS V 0553Z IAH ATIS INFO V 0553Z. 20004KT 10SM FEW180 SCT250 27/24 A2996 (TWO NINER NINER SIX). ARRIVALS EXPECT ILS OR RNAV Y RY 8R, ILS OR RNAV Y RY 8L. DEPG RY 15R. NOTICE TO AIRMEN. UAL RAMP PROCEDURES TERMINATED PUSH BACK AT PILOTS DISCRETION. RY 15L, 33R CLSD. HAZD WX INFO FOR IAH AREA AVBL FM FSS. BIRD ACTIVITY VICINITY ARPT. CRANES ARE DOWN. TWY SA CLSD BTN TWY, SF AND TWY SK , TWY SB CLSD BTN TWY, SF AND TWY SK , , TWY WB CLSD BTN TWY, WG AND TWY WH . TWY EA CLSD. NOTAM ATIS IN USE ON FREQUENCY 126.225. ...ADVS YOU HAVE INFO V.\n[Departure ATIS] KIAH DEP ATIS T 0353Z IAH ATIS INFO T 0353Z. 15007KT 10SM FEW035 FEW180 BKN250 27/23 A2996 (TWO NINER NINER SIX). ARRIVALS EXPECT ILS OR RNAV Y RY 8R, ILS OR RNAV Y RY 8L. DEPG RY 15R. NOTICE TO AIRMEN. UNITED RAMP CONTROL IN EFFECT. RY 15L, 33R CLSD. HAZD WX INFO FOR IAH AREA AVBL FM FSS. BIRD ACTIVITY VICINITY ARPT. CRANES ARE DOWN. TWY SA CLSD BTN TWY, SF AND TWY SK , TWY SB CLSD BTN TWY, SF AND TWY SK , , TWY WB CLSD BTN TWY, WG AND TWY WH . TWY EA CLSD. NOTAM ATIS IN USE ON FREQUENCY 126.225. ...ADVS YOU HAVE INFO T.",
    "KORD": "[Arrival ATIS] KORD ARR ATIS V 1751Z ORD ATIS INFO V 1751Z. 02014KT 10SM CLR 26/16 A3006 (THREE ZERO ZERO SIX) RMK AO2 SLP173 T02560161 10256 20206 56001. ARR EXP VECTORS ILS PRM RWY 10C APCH, VISUAL APCH RWY 9L, VISUAL APCH RWY 10R. PILOTS EXP 2 INTCP THE ILS Y RY 10R FNA CRS. SIMUL APCHS IN USE. DEPS EXP RWYS 9C FROM F F 9200 FT AVL, 10L FROM DD. 10,093 FT AVBL. ATTN PILOTS. SIMUL PARL DEPS IN USE. EXP TO INITIALLY FLY RWY. HDG ON DEP. PILOTS MUST READ BACK DRCTN OF TURNS BY ATC. RWY 4L, 22R CLSD. RWY 22L ILS OTS, RWY 22R LOC OTS, RWY 28L GS OTS, RWY 9L IM OTS, RWY 9C IM OTS, RWY 10L IM OTS, RWY 10R IM OTS, RWY 27R IM OTS, RWY 28L IM OTS, RWY 28R IM OTS, RWY 9L PAPI OTS, RWY 27R PAPI OTS. PILOTS USE CTN FOR BIRD ACTIVITY IN THE VICINITY OF THE ARPT. USE CTN FOR PERSONNEL AND EQUIP AT NUMEROUS SITES ON THE FIELD. READBACK ALL RWY HOLD SHORT INSTRUCTIONS. WHEN READY TO TAXI CONTACT GND METERING ON FREQ 121.67. ...ADVS YOU HAVE INFO V.\n[Departure ATIS] KORD DEP ATIS S 1451Z ORD ATIS INFO S 1451Z. 04010KT 10SM FEW250 23/17 A3006 (THREE ZERO ZERO SIX) RMK AO2 SLP175 T02330167 51008. ARR EXP VECTORS ILS PRM RWY 10C APCH, VISUAL APCH RWY 9L, VISUAL APCH RWY 10R. PILOTS EXP 2 INTCP THE ILS Y RY 10R FNA CRS. SIMUL APCHS IN USE. DEPS EXP RWYS 9C FROM F F 9200 FT AVL, 10L FROM DD. 10,093 FT AVBL. ATTN PILOTS. SIMUL PARL DEPS IN USE. EXP TO INITIALLY FLY RWY. HDG ON DEP. PILOTS MUST READ BACK DRCTN OF TURNS BY ATC. RWY 4L, 22R CLSD. RWY 22L ILS OTS, RWY 22R LOC OTS, RWY 28L GS OTS, RWY 9L IM OTS, RWY 9C IM OTS, RWY 10L IM OTS, RWY 10R IM OTS, RWY 27R IM OTS, RWY 28L IM OTS, RWY 28R IM OTS, RWY 9L PAPI OTS, RWY 27R PAPI OTS. PILOTS USE CTN FOR BIRD ACTIVITY IN THE VICINITY OF THE ARPT. USE CTN FOR PERSONNEL AND EQUIP AT NUMEROUS SITES ON THE FIELD. READBACK ALL RWY HOLD SHORT INSTRUCTIONS. WHEN READY TO TAXI CONTACT GND METERING ON FREQ 121.67. ...ADVS YOU HAVE INFO S.",
    "KJFK": "[Arrival ATIS] KJFK ARR ATIS G 1951Z JFK ATIS INFO G 1951Z. 05012KT 10SM FEW008 OVC013 21/19 A3005 (THREE ZERO ZERO FIVE). APPROACH IN USE ILS RY 4R, ILS RY 4L. DEPG RY 4L. CRI OTS. RWY 22L/4R INNER MARKER OTS. HAZD WX INFO FOR NY METRO AREA AVBL ON FSS. SWAP IN EFFECT EXPECT REROUTES. NUM CRANES OPERATING AT JFK. BIRD ACTIVITY VICINITY ARPT. READBACK ALL RWY ASSIGNMENTS AND HOLD SHORT INSTRUCTIONS. ...ADVS YOU HAVE INFO G.\n[Departure ATIS] KJFK DEP ATIS B 1551Z - KJFK ATIS INFO B 1551Z. 08013KT 3SM RA BR BKN008 BKN033 OVC050 21/19 A3007 (THREE ZERO ZERO SEVEN). APPROACH IN USE ILS RY 4R, ILS RY 4L. DEPG RY 4L. CRI OTS. RWY 22L/4R INNER MARKER OTS. HAZD WX INFO FOR NY METRO AREA AVBL ON FSS. SWAP IN EFFECT EXPECT REROUTES. NUM CRANES OPERATING AT JFK. BIRD ACTIVITY VICINITY ARPT. READBACK ALL RWY ASSIGNMENTS AND HOLD SHORT INSTRUCTIONS. ...ADVS YOU HAVE INFO B.",
    "KIND": "[Arrival ATIS] KIND ARR ATIS P 1554Z IND ATIS INFO P 1554Z. 35005KT 10SM SCT024 BKN034 26/21 A3001 (THREE ZERO ZERO ONE). ILS RWY 5R APCH IN USE. CROSS RUNWAY OPERATIONS MAY BE IN EFFECT. NOTICE TO AIRMEN. RWY 32 GS OTS. RWYS 23R AND 5L CLSD. TWY, P BTN TWY, H AND TWY B CLSD. P PAD CLSD. ILS RUNWAY 5R AND RUNWAY 5L INNER MARKER UNSERVICEABLE. RUNWAY 32 PAPI OTS. RUNWAY 32 TOUCHDOWN RVR OTS. RUNWAY 14 ROLLOUT RVR OTS. ...ADVS YOU HAVE INFO P.\n[Departure ATIS] KIND DEP ATIS H 1854Z IND ATIS INFO H 1854Z. 26009G19KT 10SM SCT036 BKN041 BKN170 23/16 A2981 (TWO NINER EIGHT ONE) RMK AO2 SLP088 T02280156. PARL ILS RWY 23R AND 23L APPROACHES IN USE. CROSS RU",
    "KDTW": "[Arrival ATIS] KDTW ARR ATIS H 1653Z DTW ARR INFO H 1653Z. 03008KT 10SM SCT022 BKN030 OVC075 22/17 A3005 (THREE ZERO ZERO FIVE) RMK AO2 SLP171 T02170167. SIMUL ILS Z RY 4L AND RY 3R APCH IN USE. NOTICE TO AIRMEN. RWY 21R, 3L CLSD, RWY 27L, 9R CLSD, RWY 27R, 9L CLSD. TWYS Y1 CLSD ;. HAZD WX INFO . CNVTV SIG 97 E, FOR MI , AND, OH . CNVTV SIG 21 E, FOR MI , AND, LE . CNVTV SIG 12 E, FOR OH , AND MI AVBL ON FLIGHT SERVICE FREQS. PILOTS USE CTN FOR BIRD ACTIVITY. DEPARTURE ATIS 118.125. ...ADVS YOU HAVE INFO H.\n[Departure ATIS] KDTW DEP ATIS Q 2253Z - KDTW DEP INFO Q 2253Z. 21009KT 10SM FEW050 FEW250 33/24 A2991 (TWO NINER NINER ONE). DEPG RWY 21R, RWY 22L ;. NOTICE TO AIRMEN. RWY 27L, 9R CLSD, RWY 27R, 9L CLSD. PILOTS USE CTN FOR BIRD ACTIVITY. ...ADVS YOU HAVE INFO Q.",
    "KMSP": "[Arrival ATIS] KMSP ARR ATIS C 1953Z MSP ARR INFO C 1953Z. 15009G16KT 10SM FEW046 SCT055 SCT250 31/19 A3005 (THREE ZERO ZERO FIVE) RMK AO2 SLP168 T03060194. SIMULTANEOUS DEPENDENT, ILS RWY 12R APCH IN USE, LOCALIZER RWY 12L APCH IN USE. FINAL APCH, OVER NOISE SENSITIVE AREA. NOTICE TO AIRMEN. RWYS 4, 22 CLSD. TWY R7. R8. R9. R10. CLOSED, TWY R BETWEEN R6 AND R10 CLOSED. GS RWY 12L OTS, RWYS 12R, 12L, INNER MARKER OTS.. CTN, BIRDS NEAR MSP. READ BACK HS AND ALT. ALL ACFT TAXI WITH TRANSPONDER AND ALTITUDE ENCODING ON. ...ADVS YOU HAVE INFO C.\n[Departure ATIS] KMSP DEP ATIS Q 1153Z - KMSP DEP INFO Q 1153Z. 13005KT 10SM BKN250 23/19 A3009 (THREE ZERO ZERO NINER) RMK AO2 SLP183 T02280194 10244 20222 52009. DEPARTING RWY 12L, RWY 12R, RWY 17. NOTICE TO AIRMEN. RWYS 4, 22 CLSD. TWY R7. R8. R9. R10. CLOSED, TWY R BETWEEN R6 AND R10 CLOSED. ALL ACFT CTC METERING ON ONE THREE THREE POINT FIVE SEVEN WHEN READY TO PUSHBACK OR TAXI. HAZD WX INFO FOR MSP AREA AVBL FM FSS. CTN, BIRDS NEAR MSP. READ BACK HS AND ALT. ALL ACFT TAXI WITH TRANSPONDER AND ALTITUDE ENCODING ON. ...ADVS YOU HAVE INFO Q.",
    "CYEG": "[Arrival ATIS] CYEG ARR ATIS D 1900Z 17008KT 20SM FEW052 SCT250 22/09 A3013 APCH RNAV Z OR Y RWY 20, INFORM ARRL OF REQ APCH ON INITIAL CTC. LDG AND DEP RWY 20. SIMUL APPROACHES MAY BE IN EFCT. INFORM CYEG ATC INFO D\n[Departure ATIS] CYEG DEP ATIS E 2000Z CYEG ARR ATIS E 2000Z 16005KT 20SM FEW055 SCT250 22/09 A3012 APCH RNAV Z OR Y RWY 20, INFORM ARRL OF REQ APCH ON INITIAL CTC. LDG AND DEP RWY 20. SIMUL APPROACHES MAY BE IN EFCT. INFORM CYEG ATC INFO E",
    "EHAM": "[Arrival ATIS] EHAM ARR ATIS D 0823Z EHAM ARRIVAL INFO D. DEMAND. MAIN LANDING RWY 18 R. SECONDARY LANDING RWY 27. TRANSITION LEVEL 040. WIND 150 DEG, 11 KT, VRB BTN 100 AND 180 DEG, 16 KT MAX, 6 KT MNM. WIND SECONDARY RUNWAY 160 DEG, 10 KT, VRB BTN 110 AND 190 DEG. CAVOK. T 26. DP 18. QNH 1014 HPA. NOSIG. OPERATIONAL REPORT. CONVERGING APPROACHES IN PROGRESS. CONTACT APCH WITH CALLSIGN ONLY. END OF INFO D\n[Departure ATIS] EHAM DEP ATIS Y 0829Z EHAM DEPARTURE INFO Y. DEMAND. MAIN DEPARTURE RWY 24. MAIN LANDING RWY 18 R. WIND 150 DEG, 8 KT, VRB BTN 110 AND 200 DEG, 13 KT MAX, 4 KT MNM. CAVOK. T 26. DP 18. QNH 1014 HPA. OPERATIONAL REPORT. INFORM SCHIPHOL DEL BY VOICE IF UNABLE TO COMPLY WITH NADP 2. END OF INFO Y",
    "EBBR": "[Arrival ATIS] EBBR ARR ATIS G 1820Z EBBR NAT, EXP VECT FOR ILS APP ARR RWY25L RSCD AT 1535 RWY25L DRY. DEP RWY25R TRL 055 TWY C6 CLSD. ILS RWY 25R U/S. RNP RWY 25R AT ATC DISCRETION 260/14KT CAVOK T27 DP10 QNH 1016HPA NOSIG CFM ARR G\n[Departure ATIS] EBBR DEP ATIS A 0820Z EBBR NAT, DEP RWY25R RSCD AT 0627 RWY25R DRY. ARR RWY25L TRL 055 RWY STOPBARS U/S. TWY B3 OUT6 CLSD 200/10KT VRB BTN 170 AND 230 CAVOK T27 DP19 QNH 1015HPA NOSIG CFM DEP A",
    "EDDF": "[Arrival ATIS] EDDF ARR ATIS V 0850Z -ARR-ATIS EDDF V METAR 190850 -EXPECT INDEPENDENT PARALLEL ILS Z APCH RWY 25R OR ILS APCH RWY 25L -RWY 25R 25L -GLS APCH ON REQUEST , DO NOT MISTAKE TWY M FOR RWY 25C WHEN PERFORMING VISUAL APPROACH , -TRL 60 - -VRB02KT -CAVOK - - -T31 DP17 -QNH1017 - -TREND BECMG 21005KT\n[Departure ATIS] EDDF DEP ATIS Y 1920Z -DEP-ATIS EDDF Y METAR 061920 - -RWY 25C 18 - -TRL 60 -ATTN : BIRDS REPORTED CLOSE TO THE RWYS , -29003KT 260V330 RWY18 VRB01KT -CAVOK - - -T25 DP12 -QNH1015 - -TREND NOSIG",
    "EDDL": "[Arrival ATIS] EDDL ARR ATIS T 1920Z ATIS EDDL T METAR 061920 EXPECT VECTORS ILS APPROACH RWY 23L TWY L8 CLOSED BETWEEN TWY M AND RWY 23L TRL 60 27004KT CAVOK T26 DP12 QNH1014 TREND NOSIG\n[Departure ATIS] EDDL DEP ATIS R EDDL ARR/DEP DATIS RPT -ATIS EDDL R METAR 020550 -EXPECT VECTORS ILS APPROACH -RWY 23L -TWY L8 CLOSED BETWEEN TWY M AND RWY 23L -TRL 60 - -23010KT -CAVOK - - -T19 DP13 -QNH1020 - -TREND NOSIG",
    "EDDK": "[Arrival ATIS] EDDK ARR ATIS H 1256Z ATIS EDDK H SPECI 061256 EXPECT ILS APCH RWY 31R 24 RWY COND RWY 31R AT TIME 0650 RWYCC 6 DEPOSIT TOTAL RWY DRY RWY 24 AT TIME 0650 RWYCC 6 DEPOSIT TOTAL RWY DRY TRL 60 RWY 13R AND RWY 31L CLOSED FOR DEPARTURE AND LANDING: TAXIING BTN THR RWY 13R AND INTERSECTION RWY 24 POSSIBLE : 29016G26KT CAVOK T28 DP12 QNH1017\n[Departure ATIS] EDDK DEP ATIS Q EDDK ARR/DEP DATIS RPT -ATIS EDDK Q METAR 291920 -EXPECT ILS APCH -RWY 31R 06 -RWY COND RWY 31R AT TIME 1830 RWYCC 6 DEPOSIT TOTAL RWY DRY RWY 06 AT TIME 1830 RWYCC 6 DEPOSIT TOTAL RWY DRY -TRL 60 -RWY 13R AND RWY 31L CLOSED FOR DEPARTURE AND LANDING: TAXIING BTN THR RWY 13R AND INTERSECTION RWY 24 POSSIBLE : -04003KT -CAVOK - - -T24 DP13 -QNH1024 - -TREND NOSIG",
    "EBLG": "[Arrival ATIS] EBLG ATIS Z 0750Z EBLG INFO, EXP RNAV TO ILS APP ARR RWY22L DEP RWY22L RWY 22L DRY, RWYCC 666. TRL 055 TWY A4 CLSD 180/10KT MNM6 MAX17 CAVOK T27 DP17 QNH 1016HPA NOSIG CFM ATIS Z",
    "LSZH": "[Arrival ATIS] LSZH ARR ATIS L 1950Z ARRIVALS, EXP RNP APCH, RWY 28. TRL 70. DEP RWY 32. WIND 070 DEG, 3 KT. CAVOK. T 22. DP 13. QNH 1020. NOSIG.\n[Departure ATIS] LSZH DEP ATIS S 1950Z DEP RWY 32. TRL 70. ARRIVALS, EXP RNP APCH, RWY 28. TMA S 1 IS ACT. TMA S 2 AND S 3 ARE ACT. WIND VRB, 1 KT. CAVOK. T 22. DP 13. QNH 1020. NOSIG.",
    "LIMC": "[Arrival ATIS] LIMC ARR ATIS G 0850Z LIMC ARR G 0850Z I.L.S. ZULU RWY IN USE 35R TL 70 TAXIWAY ECHO WHISKY CLOSED... WIND TDZ VRB1KT CAVOK T29 DP18 QNH 1020HPA QFE 0995HPA\n[Departure ATIS] LIMC DEP ATIS G 0850Z LIMC DEP G 0850Z RWY IN USE 35L TL 70 INTERSECTION ECHO WHISKY CLOSED.. WIND END 080/4KT VRB BTN 030/AND 200/ CAVOK T29 DP18 QNH 1020HPA QFE 0995HPA DATALINK CLEARANCE AVAILABLE.... CONTACT 1 3 1 8 8 0 TO BE RELEASED BY THE AIRPORT OPERATOR ...",
    "LIRF": "[Arrival ATIS] LIRF ARR ATIS C 1650Z LIRF ARR C 1650Z RWY 16L ILS W RWY 16R ILS Z RWY IN USE 16L 16R TL 70 RWYS IN USE FOR ARR 16L AND 16R WIND RWY 16L TDZ 220/7KT VRB BTN 200/AND 260/ RWY 16R TDZ 240/5KT VRB BTN 190/AND 270/ CAVOK T29 DP19 QNH 1015HPA RRSM\n[Departure ATIS] LIRF DEP ATIS G 1750Z LIRF DEP G 1750Z RWY IN USE 25 TL 70 RWYS IN USE FOR ARR 16L AND 16R WIND END 250/4KT VRB BTN 200/AND 290/ CAVOK T28 DP18 QNH 1016HPA REA IS SENT AUTOMATICALLY ONCE RLSD BY RAMP WHEN READY CONTACT FIUME RAMP 121.725 RRSM",
    "EINN": "[Arrival ATIS] EINN ARR ATIS L 1930Z EXPECT I L S CATEGORY 1 LDG RWY24 TKOF RWY24 TRL FL060 30009KT 9999 BKN014 17/14 QNH Q1018 TREND NOSIG ADVISE AT FIRST CONTACT YOU HAVE ATIS INFO L",
    "EGLL": "[Arrival ATIS] EGLL ARR ATIS G 0850Z LANDING RWY 27R TRANSITION-LEVEL: FL 75 IF STAND GUIDANCE IS OFF OR FAILS, REMAIN ON THE TAXIWAY CENTRELINE AND ADVISE ATC 20005KT 160V250 CAVOK 24/15 Q1012 ACKNOWLEDGE RECEIPT OF INFORMATION G\n[Departure ATIS] EGLL DEP ATIS M 1620Z DEPARTURE RWY 27L RUNWAY 27R REDUCED DECLARED DISTANCES WITH TAKE OFF RUN AVAILABLE 3362METRES AND LANDING DISTANCE AVAILABLE 3362METRES PILOTS THAT ARE IN RECEIPT OF DATALINK CLEARANCES ARE REMINDED THEY MUST CONTACT DELIVERY ON 121.980 WHEN READY FOR START DET VOR OOS AUTO 27021KT 230V290 9999 NCD 31/04 Q1017 ACKNOWLEDGE RECEIPT OF INFORMATION M AND REPORT AIRCRAFT TYPE AND CURRENT QNH ON FIRST CONTACT WITH HEATHROW",
    "EPWA": "[Arrival ATIS] EPWA ARR ATIS I 1950Z EPWA ARR I. TIME 1948. EXP U ARR ILS Z APCH FOR RWY 33. TRANSITION LEVEL 80. WIND 230 DEG, 3 KT, VRB BTN 200 AND 270 DEG. VIS TDZ 10 KM OR MORE. CLD SCT 4500 FT. T 18. DP 9. QNH 1010. NOSIG. CAUTION. BIRD ACT. END OF EPWA ARR I\n[Departure ATIS] EPWA DEP ATIS Q 1501Z EPWA DEP Q. TIME 1500. DEP RWY 29. ARR RWY 33, EXP U ARR ILS Z. REPORT READY FOR STARTUP ON DELIVERY 121. 605. TRANSITION LEVEL 80. WIND 250 DEG, 17 KT, VRB BTN 220 AND 280 DEG. CAVOK. T 22. DP 3. QNH 1011. TREND TEMPO WIND 260 DEG, 17 KT, GUSTING TO 27 KT. CAUTION. BIRD ACT. END OF EPWA DEP Q",
    "EFHK": "[Arrival ATIS] EFHK ARR ATIS C 0850Z EXPECT ILS APCH ARR RWY 22L RUNWAY 22L CONDITION REPORT AT 0802 UTC RUNWAY CONDITION CODES 6 , 6 , 6 CONTAMINANTS ALL PARTS DRY TRL 60 WIND 280 DEG 6 KT VRB BTN 230 AND 320 DEG CAVOK T 20 DP 6 QNH 1014 NOSIG ACK INFO C\n[Departure ATIS] EFHK DEP ATIS H 1620Z DEP RWYS 22R AND 22L RUNWAY 22R CONDITION REPORT AT 1329 UTC RUNWAY CONDITION CODES 6 , 6 , 6 CONTAMINANTS ALL PARTS DRY RUNWAY 22L CONDITION REPORT AT 1330 UTC RUNWAY CONDITION CODES 6 , 6 , 6 CONTAMINANTS ALL PARTS DRY WIND 110 DEG 6 KT VIS 10KM FEW 1400 FT. SCT 1600 FT. FEW TCU 2800 FT T 19 DP 15 QNH 1003 TEMPO CLD FEW CB 3000 FT. ACK INFO H",
    "LTAC": "[Arrival ATIS] LTAC ARR ATIS E 0850Z EXP ILS V APCH 03C DEP RWY 03R RWY 03C WIND 050 DEG 09 KT VRB BTN 010 DEG AND 080 DEG COND REP AT 0715 RWYCC 5,5,5 FIRST PART 100 PCT WET SECOND PART 100 PCT WET THIRD PART 100 PCT WET RWY 03R WIND 040 DEG 10 KT VRB BTN 010 DEG AND 070 DEG COND REP AT 0705 RWYCC 5,5,5 FIRST PART 100 PCT WET SECOND PART 100 PCT WET THIRD PART 100 PCT WET TRL 110 VIS 9999 SCT02600 FT BKN09000 FT T 18 DP 12 QNH 1016 NOSIG FOR DELIVERY CTC 121.9. FOR DELIVERY FIRST USE DIGITAL DEP CLR. CTN BIRD HAZARD OVR AERODROME. APCH FREQUENCY 129.050. TAXIWAY ECHO 1 IS CLOSED. RWY WET. END OF ATIS E",
    "UBBB": "[Arrival ATIS] UBBB ARR ATIS S 1938Z ATIS S EXP ILS/ LDG 34 35 DEP 34 35 IN USE RWY 34 CLEAR DRY 70 RWY 35 CLEAR DRY 70 TLVL 110 WIND WIND RWY 34 330 16 KT SPD MAX 20 MIN 12 WIND RWY 35 330 16 KT SPD MAX 20 MIN 12 VIS CAVOK T 24 / DP 22 QNH 1010 HPA TREND TREND NOSIG MODERATE BIRDS ACT IN VICINITY OF AP END OF ATIS S\n[Departure ATIS] UBBB DEP ATIS O 1800Z ATIS O EXP ILS/ LDG 34 35 DEP 34 35 IN USE RWY 34 CLEAR DRY 70 RWY 35 CLEAR DRY 70 TLVL 110 WIND WIND RWY 34 340 10 KT SPD MAX 16 MIN 8 WIND RWY 35 330 12 KT SPD MAX 18 MIN 8 VIS CAVOK T 24 / DP 21 QNH 1010 HPA TREND TREND NOSIG MODERATE BIRDS ACT IN VICINITY OF AP END OF ATIS O",
    "ZWWW": "[Arrival ATIS] ZWWW ARR ATIS O 1830Z EXP ILSDME Z APCH LDG RWY 26R TA 3000 WIND 240/2MPS VRB BTN 210/ AND 280/ CAVOK T 28 /DP 13 QNH 1009 HPA ADZ YOU HAVE INFO O.\n[Departure ATIS] ZWWW DEP ATIS N 0430Z DEP RWY 26L TA 3000 WIND 010/6MPS VIS 9999M CLD FEW 990M T 28 /DP 14 QNH 1013 HPA ADZ YOU HAVE INFO N.",
    "ZLXY": "[Arrival ATIS] ZLXY ARR ATIS J 0800Z EXP ILS APCH LDG RWY 05L & 06R WIND VRB/2MPS VIS 9999M CLD SCT 1500M T 29 /DP 18 QNH 1004 HPA VISUAL APPROACH IN PROGRESS ADZ YOU HAVE INFO J.\n[Departure ATIS] ZLXY DEP ATIS G 0600Z DEP RWY 05L & 06L WIND VRB/1MPS VIS 9999M CLD SCT 1500M T 29 /DP 19 QNH 1005 HPA VISUAL APPROACH IN PROGRESS ADZ YOU HAVE INFO G.",
    "ZBAA": "[Arrival ATIS] ZBAA ARR ATIS M 0830Z EXP ILS APCH DEPENDENT PARL INSTR APCH LDG RWY 36L & 36R & 01 WIND 050 DEG 2 MPS 360V080 DEG VIS 8000 -TSRA CLD FEW 450M /FEW CB 1500M T 22 /DP 21 QNH 1002 HPA RWY 36L RWYCC 5/5/5 ISSUED AT 0700 ALL PARTS WET NR 100PCT RWY 36R RWYCC 5/5/5 ISSUED AT 0700 ALL PARTS WET NR 100PCT RWY 01 RWYCC 5/5/5 ISSUED AT 0700 ALL PARTS WET NR 100PCT ADZ YOU HAVE INFO M.\n[Departure ATIS] ZBAA DEP ATIS J 0736Z DEP RWY 36L & 36R & 01 WIND 300 DEG 6 MPS VIS 3500 -TSRA BR CLD FEW 270M /SCT CB 990M T 24 /DP 22 QNH 1003 HPA RWY INDEPENDENT PARALLEL DEP RWY 36L RWYCC 5/5/5 ISSUED AT 0700 ALL PARTS WET NR 100PCT RWY 36R RWYCC 5/5/5 ISSUED AT 0700 ALL PARTS WET NR 100PCT RWY 01 RWYCC 5/5/5 ISSUED AT 0700 ALL PARTS WET NR 100PCT ADZ YOU HAVE INFO J.",
    "ZBHH": "[Arrival ATIS] ZBHH ARR ATIS N 0800Z EXP ILSDME APCH LDG RWY 26 TA 3000 /TRL 3600 WIND 230/3MPS VRB BTN 200/ AND 260/ VIS 9999M CLD SCT 1200M /FEW CB 1200M T 24 /DP 15 QNH 1006 HPA BEFORE 1300 UTC, TURBULENCE MAY OCCUR IN LOCAL FIELD. BEFORE 1100 UTC, WINDSHEAR MAY OCCUR IN LOCAL FIELD. ADZ YOU HAVE INFO N.\n[Departure ATIS] ZBHH DEP ATIS K 0600Z DEP RWY 26 TA 3000 /TRL 3600 WIND 240/4MPS VIS 9999M CLD SCT 900M /FEW TCU 900M T 23 /DP 16 QNH 1006 HPA BEFORE 1300 UTC, TURBULENCE MAY OCCUR IN LOCAL FIELD. ADZ YOU HAVE INFO K.",
    "ZSQD": "[Arrival ATIS] ZSQD ARR ATIS V 0800Z EXP ILSDME APCH LDG RWY 17 TA 3000 /TRL 3600 WIND 160/4MPS VIS 9999M CLD BKN 630M T 25 /DP 19 QNH 1003 HPA SEGREGATED OPERATION VISUAL APPROACH OPERATION IN PROGRESS. RUNWAY 17,IF MISSED APPROACH,EXPECT FOLLOW THE STANDARD MISSED APPROACH PROCEDURE,CLIMB TO 900M ON QNH OR BY ATC CAUTION MAYBE THERE IS A FLOCK OF BIRDS IN THE VICINITY OF AIRPORT ADZ YOU HAVE INFO V.\n[Departure ATIS] ZSQD DEP ATIS Q 0300Z DEP RWY 16 TA 3000 /TRL 3600 WIND 130/3MPS VRB BTN 100/ AND 160/ VIS 9999M CLD SCT 450M T 24 /DP 21 QNH 1005 HPA SEGREGATED OPERATION VISUAL APPROACH OPERATION IN PROGRESS. RUNWAY 17,IF MISSED APPROACH,EXPECT FOLLOW THE STANDARD MISSED APPROACH PROCEDURE,CLIMB TO 900M ON QNH OR BY ATC CAUTION MAYBE THERE IS A FLOCK OF BIRDS IN THE VICINITY OF AIRPORT ADZ YOU HAVE INFO Q."
  },
  "windtemp_alaska": "\n000\nFBAK31 KWNO 061359\nFD1AK1\nDATA BASED ON 061200Z    \nVALID 061800Z   FOR USE 1400-2100Z. TEMPS NEG ABV 24000\n\nFT  3000    6000    9000   12000   18000   24000  30000  34000  39000\nADK 2613 2421+08 2424+04 2333-01 2360-12 2373-24 238539 249449 249157\nADQ 3621 0321+02 0418-03 0220-08 3523-22 3518-35 341448 312746 312443\nAKN 3413 3312+03 3410-03 3309-08 3111-22 3015-35 302748 302946 292344\nANC 3509 0317+04 0418-02 0516-09 0418-21 0623-33 082748 092550 091143\nANN 1536 1831+04 1935+01 2039-03 2138-16 2035-27 214543 215053 224153\nBET 3312 3408+03 0706-03 9900-09 9900-22 0805-35 990049 270646 271044\nBRW 2515 2622+06 2421+02 2416-04 2214-16 1813-28 161645 152054 151255\nBTI 9900 2608+07 2608+02 9900-03 9900-16 1312-28 132445 123054 121953\nBTT 9900 0805+06 0810-01 0813-06 0918-19 1022-31 101846 112254 112049\nCDB 1508 1510+04 1808+00 2108-05 2734-15 2753-27 277941 288951 276654\nCZF 9900 9900+03 1407-03 1308-08 1312-22 1117-34 112149 121148 990044\nEHM 9900 9900+03 9900-03 9900-08 2309-22 2722-34 286046 275049 283046\nFAI 0707 0709+06 0911-01 1112-08 1012-21 1022-32 103447 112952 112146\nFYU 0810 0507+06 0811+00 0916-05 1123-18 1128-31 112146 112054 112049\nGAL 0207 9900+05 9900-02 0406-07 0808-20 0915-33 092748 103252 101546\nGKN 0313 0723+05 0820-02 0820-08 0926-20 0928-32 103947 103451 111944\nHOM 3611 3516+04 3616-03 3614-09 0313-22 0216-34 061649 040948 350943\nJNU 1314 1324+00 1329-04 1431-08 1532-16 1738-28 174845 185254 162248\nLUR 2118 2015+07 1914+03 1810-04 1613-17 1313-30 111947 102254 131450\nMCG 0205 0511+05 0612-02 0512-08 0616-22 0719-34 082349 091950 101044\nMDO 0511 0522+01 0621-04 0520-10 0622-22 0627-34 073249 082145 091241\nOME 2305 2110+04 2008-01 2006-07 2109-21 1510-33 092547 092952 101246\nORT      0920+05 0926-02 0927-08 1030-20 1128-31 112945 113153 122446\nOTZ 1807 2012+04 2008-02 1407-08 1019-18 1118-30 111347 111453 121549\nSNP 1112 1213+02 1311-02 1510-08 2423-19 2551-30 258243 257748 253646\nTKA 0210 0515+05 0716-02 0716-09 0718-21 0818-33 102448 102551 101644\nUNK 9900 9900+05 9900-02 9900-07 0807-21 0914-33 091649 101852 110845\nYAK 0815 0927+00 1033-04 1134-10 1131-19 1240-31 156347 154649 142243\nIKO 1420 2113+09 2419+05 2423+00 2544-11 2555-24 257139 267948 267958\nAFM 2405 1806+05 1410-01 1315-06 1218-18 1119-31 131946 122154 121649\n5AB 9900 9900+01 9900+00 1806-06 1919-19 2024-32 214743 224343 223444\n5AC 2323 2336+06 2239+02 2243-04 2248-14 2355-26 246441 246651 245255\n5AD 3027 3126-02 3324-07 3428-14 3438-28 3340-37 313836 303636 303139\n5AE 3614 0119+02 3623-01 3522-06 3230-20 3167-29 800042 800451 305949\n5AF 1711 1617+00 1618-03 1719-07 1742-20 1759-32 176345 185145 203043\n5AG 1131 1024+00 0921-04 0925-10 1027-22 1132-36 123645 122342 121340\n",
  "vaac_tokyo": [
    {
      "id": "20260706_30027000_0239",
      "year": "2026",
      "volcano": "Sheveluch",
      "psn": "N5639 E16122",
      "issued": "20260706",
      "text": "FVFE01 RJTD 061800\nVA ADVISORY\nDTG: 20260706/1800Z\nVAAC: TOKYO\nVOLCANO: SHEVELUCH 300270\nPSN: N5639 E16122\nAREA: RUSSIA\nSOURCE ELEV: 3283M AMSL\nADVISORY NR: 2026/239\nINFO SOURCE: HIMAWARI-9\nERUPTION DETAILS: VA CONTINUOUSLY OBS IN SATELLITE IMAGERY\nOBS VA DTG: 06/1720Z\nOBS VA CLD: SFC/FL230 N4615 E16224 - N4521 E16440 - N4700 E16656 - \nN4507 E16557 - N4432 E16446 - N4505 E16305 MOV NE 50KT\nFCST VA CLD +6 HR: 06/2320Z SFC/FL250 N4639 E17021 - N4423 E16725 - \nN4342 E16422 - N4430 E16356 - N4444 E16618 - N4714 E16953\nFCST VA CLD +12 HR: 07/0520Z SFC/FL250 N4438 E17106 - N4258 E16725 - \nN4326 E16424 - N4351 E16717 - N4836 E17512\nFCST VA CLD +18 HR: NO VA EXP\nRMK: THE RESPONSIBILITY FOR THIS ASH EVENT IS BEING TRANSFERRED TO \nVAAC ANCHORAGE. THE NEXT ADVISORY WILL BE ISSUED BY VAAC ANCHORAGE \nBY 0000UTC UNDER HEADER FVAK21 PAWU.\nNXT ADVISORY: NO FURTHER ADVISORIES=",
      "img_url": "https://ds.data.jma.go.jp/svd/vaac/data/VAGFN/2026/Images/20260706_30027000_0239_QH21_01.png",
      "sat_img_url": "https://ds.data.jma.go.jp/svd/vaac/data/Sat/2026/Images/30027000/09-ir/20260706_1720_202607061800_ir.png",
      "text_url": "https://ds.data.jma.go.jp/svd/vaac/data/TextData/2026/20260706_30027000_0239_Text.html"
    },
    {
      "id": "20260706_27202000_0232",
      "year": "2026",
      "volcano": "Kanlaon",
      "psn": "N1025 E12308",
      "issued": "20260706",
      "text": "FVFE01 RJTD 061545\nVA ADVISORY\nDTG: 20260706/1545Z\nVAAC: TOKYO\nVOLCANO: KANLAON 272020\nPSN: N1025 E12308\nAREA: PHILIPPINES\nSOURCE ELEV: 2435M AMSL\nADVISORY NR: 2026/232\nINFO SOURCE: HIMAWARI-9 PHIVOLCS\nERUPTION DETAILS: ERUPTION AT 20260706/1520Z FL100 EXTD SW REPORTED\nOBS VA DTG: 06/1530Z\nOBS VA CLD: VA NOT IDENTIFIABLE FM SATELLITE DATA WIND FL100 350/5KT\nFCST VA CLD +6 HR: NOT AVBL\nFCST VA CLD +12 HR: NOT AVBL\nFCST VA CLD +18 HR: NOT AVBL\nRMK: WE WILL ISSUE FURTHER ADVISORY IF VA IS DETECTED IN SATELLITE \nIMAGERY.\nNXT ADVISORY: NO FURTHER ADVISORIES=",
      "img_url": "https://ds.data.jma.go.jp/svd/vaac/data/VAGFN/2026/Images/20260706_27202000_0232_QH21_01.png",
      "sat_img_url": null,
      "text_url": "https://ds.data.jma.go.jp/svd/vaac/data/TextData/2026/20260706_27202000_0232_Text.html"
    },
    {
      "id": "20260705_27303000_0717",
      "year": "2026",
      "volcano": "Mayon",
      "psn": "N1315 E12341",
      "issued": "20260705",
      "text": "FVFE01 RJTD 051936\nVA ADVISORY\nDTG: 20260705/1936Z\nVAAC: TOKYO\nVOLCANO: MAYON 273030\nPSN: N1315 E12341\nAREA: PHILIPPINES\nSOURCE ELEV: 2462M AMSL\nADVISORY NR: 2026/717\nINFO SOURCE: HIMAWARI-9 PHIVOLCS\nERUPTION DETAILS: ERUPTION AT 20260705/1914Z FL090 EXTD WSW REPORTED\nOBS VA DTG: 05/1920Z\nOBS VA CLD: VA NOT IDENTIFIABLE FM SATELLITE DATA WIND FL090 050/8KT\nFCST VA CLD +6 HR: NOT AVBL\nFCST VA CLD +12 HR: NOT AVBL\nFCST VA CLD +18 HR: NOT AVBL\nRMK: WE WILL ISSUE FURTHER ADVISORY IF VA IS DETECTED IN SATELLITE \nIMAGERY.\nNXT ADVISORY: NO FURTHER ADVISORIES=",
      "img_url": "https://ds.data.jma.go.jp/svd/vaac/data/VAGFN/2026/Images/20260705_27303000_0717_QH21_01.png",
      "sat_img_url": null,
      "text_url": "https://ds.data.jma.go.jp/svd/vaac/data/TextData/2026/20260705_27303000_0717_Text.html"
    },
    {
      "id": "20260701_30006000_0001",
      "year": "2026",
      "volcano": "Mutnovsky",
      "psn": "N5227 E15812",
      "issued": "20260701",
      "text": "FVFE01 RJTD 012206\nVA ADVISORY\nDTG: 20260701/2206Z\nVAAC: TOKYO\nVOLCANO: MUTNOVSKY 300060\nPSN: N5227 E15812\nAREA: RUSSIA\nSOURCE ELEV: 2288M AMSL\nADVISORY NR: 2026/1\nINFO SOURCE: KVERT KBGS UHPP HIMAWARI-9\nERUPTION DETAILS: ERUPTION AT 20260701/2016Z FL170 EXTD W REPORTED\nOBS VA DTG: 01/2140Z\nOBS VA CLD: VA NOT IDENTIFIABLE FM SATELLITE DATA WIND FL170 120/8KT\nFCST VA CLD +6 HR: NOT AVBL\nFCST VA CLD +12 HR: NOT AVBL\nFCST VA CLD +18 HR: NOT AVBL\nRMK: WE WILL ISSUE FURTHER ADVISORY IF VA IS DETECTED IN SATELLITE \nIMAGERY.\nNXT ADVISORY: NO FURTHER ADVISORIES=",
      "img_url": "https://ds.data.jma.go.jp/svd/vaac/data/VAGFN/2026/Images/20260701_30006000_0001_QH21_01.png",
      "sat_img_url": null,
      "text_url": "https://ds.data.jma.go.jp/svd/vaac/data/TextData/2026/20260701_30006000_0001_Text.html"
    }
  ],
  "vaac_alaska": [
    {
      "text": "\n000\nFVAK21 PAWU 061826\nVAAAK1\nVA ADVISORY\n\nDTG: 20260706/1815Z\n\nVAAC: ANCHORAGE\n\nVOLCANO: SHEVELUCH 300270\n\nPSN: N5639 E16122\n\nAREA: KAMCHATKA PENINSULA\n\nSOURCE ELEV: 10771 FT AMSL\n\nADVISORY NR: 2026/178\n\nINFO SOURCE: HIMAWARI/GOES\n\nERUPTION DETAILS: VA CONTINUOUSLY OBS IN SATELLITE IMAGERY\n\nOBS VA DTG: 06/1815Z\n\nOBS VA CLD: SFC/FL280 N4934 E17424 - N4315 E16642 - N4449 E16327\n- N4734 E16328 - N4954 E17156 - N4934 E17424 MOV E 50KT\n\nFCST VA CLD +6HR: 07/0015Z SFC/FL280 N5232 W17931 - N4330 E16821\n- N4415 E16447 - N4630 E16415 - N5221 E17730 - N5232 W17931 -\nN5232 W17931\n\nFCST VA CLD +12HR: 07/0615Z NO VA EXP\n\nFCST VA CLD +18HR: 07/1215Z NO VA EXP\n\nRMK: THIS ADVISORY TAKES OVER RESPONSIBILITY FROM VAAC TOKYO PER FVFE01 RJTD...BS\n\nNXT ADVISORY: WILL BE ISSUED BY 20260707/0015Z=\n\n",
      "issued": "2026-07-06T18:26:00+00:00",
      "volcano": "Sheveluch",
      "psn": "N5639 E16122"
    }
  ]
}