{
  "updated_utc": "2026-07-08T14:57Z",
  "metar": {
    "RJAA": "METAR RJAA 081300Z 18001KT 9999 FEW030 SCT080 21/21 Q1015 NOSIG",
    "PANC": "METAR PANC 081353Z 14014G26KT 10SM BKN060 BKN080 14/07 A2974 RMK AO2 PK WND 15028/1341 SLP070 T01390067",
    "PAFA": "METAR PAFA 081353Z 07003KT 10SM SCT110 BKN170 BKN250 14/11 A2962 RMK AO2 SLP031 T01440106 $",
    "PAED": "METAR PAED 081355Z 34005KT 10SM BKN060 14/07 A2972 RMK AO2A SLP060 T01350073 $",
    "KSEA": "SPECI KSEA 081339Z 24003KT 10SM FEW010 SCT022 BKN055 BKN250 14/13 A3018 RMK AO2 SCT022 V BKN T01390128 $",
    "ZSPD": "METAR ZSPD 081300Z 16003MPS CAVOK 30/26 Q1005 NOSIG",
    "ZSSS": "METAR ZSSS 081300Z 20004MPS CAVOK 32/25 Q1005 NOSIG",
    "RJFR": "METAR RJFR 081300Z 08007KT 050V110 9999 FEW020 27/24 Q1011",
    "VHHH": "METAR VHHH 081300Z 14011KT 110V170 9999 FEW012 SCT025 30/25 Q1005 NOSIG",
    "RCTP": "METAR RCTP 081300Z 03004KT 9999 FEW015 29/25 Q1007 NOSIG RMK A2976",
    "ZGSZ": "METAR ZGSZ 081300Z 11004MPS CAVOK 29/26 Q1005 NOSIG",
    "WSSS": "METAR WSSS 081300Z 04006KT 010V080 5000 -TSRA FEW010 FEW015CB SCT016TCU 26/25 Q1012 RESHRA BECMG FM1315 TL1330 NSW",
    "WMKK": "METAR WMKK 081300Z 00000KT 9999 FEW030 28/24 Q1010 NOSIG",
    "WIDD": "METAR WIDD 081300Z VRB02KT 8000 SCT014 26/26 Q1012 NOSIG",
    "VTBS": "METAR VTBS 081300Z 19012KT 9999 -RA FEW020CB BKN070 31/25 Q1007 TEMPO TL1420 30015G25KT 4000 TSRA",
    "VTBU": "METAR VTBU 081300Z 22008KT 9999 FEW020 31/29 Q1008 NOSIG",
    "ROAH": "METAR ROAH 081300Z 05016KT 9999 FEW020 29/24 Q1007",
    "VVDN": "METAR VVDN 081300Z 26003KT 9999 FEW020 SCT070 32/23 Q1005 NOSIG",
    "RCKH": "METAR RCKH 081300Z 31006KT 260V340 9999 FEW016 BKN060 30/24 Q1007 NOSIG RMK A2975",
    "KLAX": "METAR KLAX 081353Z 00000KT 10SM CLR 19/16 A2996 RMK AO2 SLP145 T01890156 $",
    "KONT": "METAR KONT 081353Z 00000KT 10SM CLR 20/13 A2997 RMK AO2 SLP131 T02000133 $",
    "KSFO": "METAR KSFO 081356Z 26013KT 10SM FEW005 OVC008 13/11 A3009 RMK AO2 SLP190 T01280106",
    "KOAK": "SPECI KOAK 081336Z 26007KT 10SM FEW005 BKN008 OVC013 13/11 A3009 RMK AO2 T01280111",
    "KMHR": "METAR KMHR 081315Z AUTO 18007KT 4SM BR OVC009 13/12 A3002 RMK AO2 T01340116 $",
    "KDFW": "METAR KDFW 081353Z 24012KT 10SM FEW250 29/21 A3005 RMK AO2 SLP166 T02940211",
    "KIAH": "METAR KIAH 081353Z 25006KT 10SM SCT020 SCT250 29/25 A3012 RMK AO2 SLP198 T02890250",
    "KORD": "METAR KORD 081351Z 26007KT 10SM FEW060 FEW250 27/18 A3006 RMK AO2 SLP175 T02670178",
    "KJFK": "METAR KJFK 081351Z VRB05KT 10SM FEW033 FEW250 24/16 A3004 RMK SLP173 T02440161 $",
    "KRFD": "METAR KRFD 081354Z 17004KT 10SM FEW250 25/20 A3008 RMK AO2 SLP180 T02500200",
    "KIND": "METAR KIND 081354Z 00000KT 10SM FEW150 BKN250 27/17 A3009 RMK AO2 SLP182 T02670172",
    "KDTW": "METAR KDTW 081353Z 24007KT 10SM FEW040 SCT090 SCT220 27/17 A3006 RMK AO2 SLP175 T02670172",
    "KMSP": "METAR KMSP 081353Z 18010G16KT 10SM FEW040 FEW110 BKN150 OVC250 23/20 A2997 RMK AO2 LTG DSNT S RAE29 PRESFR SLP142 CB DSNT S MOV E P0000 T02280200",
    "CYEG": "METAR CYEG 081300Z 14011KT 20SM FEW120 SCT160 BKN250 16/14 A2985 RMK ACC1AC3CI2 SLP106 DENSITY ALT 3100FT",
    "EHAM": "METAR EHAM 081325Z 29009KT 9999 SCT020 BKN028 20/15 Q1019 NOSIG",
    "EBBR": "METAR EBBR 081320Z 31009KT 9999 SCT038 25/16 Q1020 NOSIG",
    "EDDF": "METAR EDDF 081320Z AUTO 31008KT 270V350 9999 BKN043 24/15 Q1018 NOSIG",
    "EDFH": "METAR EDFH 081320Z 33010G21KT 290V010 9999 SCT037 23/13 Q1019",
    "EDDL": "METAR EDDL 081320Z AUTO 31007KT 270V350 9999 FEW025 BKN032 OVC040 22/15 Q1019 NOSIG",
    "EDDK": "METAR EDDK 081320Z AUTO 33008KT 290V010 9999 FEW027 OVC041 22/15 Q1019 NOSIG",
    "EBLG": "METAR EBLG 081320Z 34007KT 310V020 9999 FEW035 24/15 Q1020 NOSIG",
    "LSZH": "METAR LSZH 081320Z VRB01KT 9999 FEW075 28/10 Q1018 NOSIG",
    "LIMC": "METAR LIMC 081320Z 24008KT 210V270 CAVOK 35/10 Q1011 NOSIG",
    "LIRF": "METAR LIRF 081320Z 23010KT CAVOK 30/21 Q1013 NOSIG",
    "EINN": "METAR EINN 081300Z 27009KT 240V300 9999 FEW012 BKN020 BKN024 19/16 Q1020 NOSIG",
    "EGLL": "METAR EGLL 081320Z AUTO VRB05KT 9999 NCD 31/13 Q1019",
    "EGSS": "METAR EGSS 081320Z AUTO 35005KT 280V090 9999 NCD 31/16 Q1019",
    "EPWA": "METAR EPWA 081300Z 28018KT 9999 FEW017 SCT044CB 18/10 Q1006 NOSIG",
    "UHPP": "METAR UHPP 081300Z VRB01MPS CAVOK 10/06 Q1011 R34L/CLRD62 NOSIG RMK QFE755/1007",
    "EFHK": "METAR EFHK 081320Z 07007KT 040V110 9999 VCSH FEW040CB 18/11 Q0999 TEMPO FEW040",
    "LBBG": "METAR LBBG 081300Z AUTO 13013KT 9999 NSC 29/16 Q1007 NOSIG",
    "LTAC": "METAR LTAC 081320Z VRB06KT 9999 SCT040 29/06 Q1011 NOSIG RMK RWY21C 26008KT 220V280 RWY03L 29006KT 240V010 RWY21R 23008KT RWY03R VRB02KT RWY21L 27010KT 220V300",
    "UBBB": "METAR UBBB 081300Z 35020KT 9999 SCT018 26/20 Q1007 NOSIG",
    "UTAA": "METAR UTAA 081300Z 28004KT 9999 NSC 40/06 Q1004 R88/CLRD70 NOSIG",
    "UACC": "METAR UACC 081300Z 05008MPS 9999 FEW043CB SCT046 30/15 Q1012 NOSIG RMK QFE728/0971",
    "UAAA": "METAR UAAA 081300Z 17002MPS 9999 SCT050CB BKN100 29/12 Q1007 NOSIG",
    "UZTT": "METAR UZTT 081300Z 01010KT 340V040 CAVOK 37/08 Q1004 NOSIG",
    "ZWWW": "METAR ZWWW 081300Z 04002MPS CAVOK 30/12 Q1005 NOSIG",
    "ZLXY": "METAR ZLXY 081300Z 04003MPS CAVOK 31/21 Q0998 NOSIG",
    "ZBAA": "METAR ZBAA 081300Z 13002MPS CAVOK 29/24 Q1000 NOSIG",
    "ZBHH": "METAR ZBHH 081300Z 03004MPS 280V050 9999 -TSRA SCT040 SCT040CB 19/16 Q1005 BECMG TL1330 NSW",
    "ZSQD": "METAR ZSQD 081300Z 16005MPS 4500 BR NSC 25/25 Q1003 NOSIG",
    "ZMCK": "METAR ZMCK 081300Z 34005MPS 310V010 9999 FEW030CB SCT033 17/13 Q1006 NOSIG RMK QFE640.5 76 MOP",
    "UUEE": "METAR UUEE 081300Z 17007MPS 140V210 9999 SCT038 23/14 Q1002 R24L/CLRD62 R24C/CLRD62 NOSIG",
    "UUDD": "METAR UUDD 081300Z 17009MPS 9999 SCT026CB 20/17 Q1004 R13R/190050 NOSIG",
    "ULLI": "METAR ULLI 081300Z 10006MPS 9999 SCT035 20/11 Q0998 R88/090065 NOSIG",
    "USSS": "METAR USSS 081300Z 28002MPS 9000 VCTS -SHRA SCT029CB 21/21 Q1015 R26L/290050 R26R/290037 TEMPO -TSRA RMK QFE740/0987",
    "UNNT": "METAR UNNT 081300Z 35004MPS CAVOK 23/09 Q1012 R07/CLRD// R34/////// NOSIG RMK QFE749/0999",
    "UNKL": "METAR UNKL 081300Z 33003MPS 290V360 CAVOK 21/08 Q1009 R29/CLRD// NOSIG RMK QFE731",
    "UIBB": "METAR UIBB 081300Z AUTO 08001MPS 9999 // ///056/// 21/13 Q1004 RMK QFE710/0947",
    "UEEE": "METAR UEEE 081300Z 17002MPS 9999 FEW050CB 26/18 Q0998 R23/09//62 NOSIG RMK QFE740",
    "UHHH": "METAR UHHH 081300Z 06002MPS 9999 FEW040CB 20/20 Q1007 R88/290045 NOSIG RMK QFE749/0999",
    "UHSS": "METAR UHSS 081300Z 25001MPS 8000 NSC 16/16 Q1014 R19/CLRD70 NOSIG RMK QFE759/1012"
  },
  "taf": {
    "RJAA": "TAF RJAA 081105Z 0812/0918 14004KT 9999 FEW030",
    "PANC": "TAF PANC 081128Z 0812/0918 15015G28KT P6SM VCSH BKN060 FM081500 16010G18KT P6SM VCSH BKN050 TEMPO 0815/0819 16010KT FM082100 16010G22KT P6SM VCSH BKN070 FM090600 18008KT P6SM SCT070 BKN100",
    "PAFA": "TAF PAFA 081120Z 0812/0918 VRB03KT P6SM SCT080 SCT150 FM081900 27010KT P6SM SCT080 BKN150 PROB30 0903/0906 P6SM -SHRA SCT050 BKN100 FM090600 27010KT P6SM -RA OVC050 FM091200 26010KT 6SM -RA BR BKN035 OVC050 FM091500 25008KT P6SM BKN050",
    "PAED": "TAF AMD PAED 081313Z 0813/0919 VRB06KT 9999 VCSH BKN060 QNH2970INS BECMG 0821/0822 21009KT 9999 VCSH BKN070 QNH2975INS BECMG 0904/0905 24009KT 9999 -RA SCT040 BKN055 QNH2982INS BECMG 0909/0910 VRB05KT 9999 NSW SCT060 BKN100 QNH2988INS TX17/0902Z TN11/0912Z",
    "KSEA": "TAF KSEA 081159Z 0812/0918 20004KT P6SM SCT015 BKN025 OVC050 FM081300 20004KT P6SM SCT008 OVC015 FM081900 30006KT P6SM SCT015 BKN025 FM082100 30006KT P6SM SCT025 BKN050 FM090300 02006KT P6SM SCT050 BKN250 FM091200 22006KT P6SM SCT030 BKN100",
    "ZSPD": "TAF ZSPD 080908Z 0812/0918 17004MPS 8000 SCT030 TX35/0906Z TN28/0821Z TN27/0918Z",
    "ZSSS": "TAF ZSSS 080907Z 0812/0918 18004MPS 8000 SCT030 TX35/0906Z TN28/0821Z TN28/0918Z TEMPO 0818/0822 TSRA BKN013 SCT030CB",
    "RJFR": "TAF RJFR 081105Z 0812/0918 06012KT 9999 FEW030 BKN040 BECMG 0812/0814 10006KT BECMG 0903/0906 06014KT BECMG 0909/0912 09014KT",
    "VHHH": "TAF VHHH 081400Z 0815/0921 18010KT 9999 FEW010 SCT025 TX32/0906Z TN27/0822Z TEMPO 0820/0823 3000 SHRA FEW008CB SCT020 TEMPO 0823/0903 20015G25KT 2000 TSRA SHRA FEW008CB SCT015",
    "RCTP": "TAF RCTP 081100Z 0812/0918 22005KT 9999 FEW015 BECMG 0900/0902 02010KT BECMG 0906/0908 03015KT TEMPO 0910/0916 04020KT",
    "ZGSZ": "TAF ZGSZ 080902Z 0812/0918 12004MPS 8000 SCT040 TX27/0812Z TX32/0906Z TN26/0822Z TEMPO 0820/0824 SHRA FEW025CB BKN033 BECMG 0902/0903 21004MPS TEMPO 0906/0909 TSRA SCT012 FEW025CB BKN033",
    "WSSS": "TAF AMD WSSS 081210Z 0812/0918 13008KT 9999 FEW015 SCT020 TEMPO 0812/0814 3000 TSRA FEW012CB BKN015 TEMPO 0902/0905 3000 TSRA FEW012CB BKN015",
    "WMKK": "TAF WMKK 081100Z 0812/0918 VRB03KT 9999 FEW030",
    "VTBS": "TAF VTBS 081100Z 0812/0918 21008KT 9999 FEW020 TEMPO 0812/0816 VRB15KT 4000 TSRA FEW018CB SCT030 BKN100 BECMG 0816/0818 27008KT",
    "VTBU": "TAF VTBU 081100Z 0812/0912 21006KT 9999 FEW020",
    "ROAH": "TAF ROAH 081105Z 0812/0918 06014KT 9999 FEW015 SCT025 TEMPO 0909/0918 08022G32KT",
    "VVDN": "TAF VVDN 081100Z 0812/0912 25006KT 9999 FEW020 BECMG 0904/0905 35011KT BECMG 0906/0907 12011KT",
    "RCKH": "TAF RCKH 081100Z 0812/0918 30008KT 9999 FEW015 BECMG 0814/0816 05005KT BECMG 0901/0903 30010KT TEMPO 0906/0912 28015KT",
    "KLAX": "TAF KLAX 081456Z 0815/0918 VRB03KT P6SM SKC FM081700 25012KT P6SM SKC FM090300 25006KT P6SM SKC FM090900 VRB03KT P6SM SKC FM091700 25012KT P6SM SKC",
    "KONT": "TAF KONT 081120Z 0812/0918 VRB05KT P6SM SKC FM082000 25010KT P6SM SKC FM090400 VRB04KT P6SM SKC",
    "KSFO": "TAF KSFO 081456Z 0815/0918 26011KT P6SM FEW006 OVC008 FM081900 28020KT P6SM SCT010 FM090400 29020KT P6SM BKN015 FM090600 28015KT P6SM BKN015 FM090900 28011KT P6SM OVC007 FM091200 28011KT P6SM BKN015",
    "KOAK": "TAF KOAK 081120Z 0812/0918 23013G18KT P6SM FEW006 BKN011 OVC015 FM082000 28015KT P6SM FEW015 FM090400 28011KT P6SM BKN015 FM090800 26008KT P6SM OVC008",
    "KMHR": "TAF KMHR 081228Z 0812/0912 14005KT P6SM SCT010 TEMPO 0812/0815 6SM BR OVC009 FM081500 17008KT P6SM FEW012 FM081800 22008KT P6SM SKC",
    "KDFW": "TAF KDFW 081452Z 0815/0918 21008KT P6SM FEW100 FM082100 17014KT P6SM SCT060",
    "KIAH": "TAF KIAH 081138Z 0812/0918 VRB04KT P6SM FEW050 BKN250 FM081800 18009KT P6SM VCSH SCT050 SCT250 PROB30 0819/0901 4SM -TSRA BKN035CB FM090200 18006KT P6SM FEW050 BKN250",
    "KORD": "TAF KORD 081450Z 0815/0918 23011KT P6SM SCT050 FM090500 22008KT P6SM SCT040 BKN200 FM091400 24011KT P6SM VCSH SCT035 BKN080",
    "KJFK": "TAF KJFK 081439Z 0815/0918 36007KT P6SM FEW025 FM081800 19009KT P6SM FEW045 FM090400 22008KT P6SM FEW060 FM091200 22008KT P6SM SCT250 FM091700 20012KT P6SM FEW250",
    "KRFD": "TAF KRFD 081450Z 0815/0912 23010KT P6SM SCT050 FM090600 22008KT P6SM SCT035 BKN080 PROB30 0907/0912 34012G22KT 6SM -SHRA BKN035",
    "KIND": "TAF KIND 081120Z 0812/0918 36003KT P6SM SCT250 FM081500 25005KT P6SM FEW050 FM090000 22003KT P6SM SCT250",
    "KDTW": "TAF KDTW 081120Z 0812/0918 24006KT P6SM SCT250 FM090000 23004KT P6SM SCT250 FM091500 25010KT P6SM SCT120 BKN250",
    "KMSP": "TAF KMSP 081437Z 0815/0918 VRB05KT P6SM SCT020 OVC035 TEMPO 0815/0818 6SM -SHRA BKN025 FM082000 31006KT P6SM BKN030 FM090200 35004KT P6SM FEW015 FM091500 01006KT P6SM FEW250",
    "CYEG": "TAF CYEG 081440Z 0815/0912 18008KT P6SM FEW012 SCT020 TEMPO 0815/0816 BKN020 FM081600 22006KT P6SM SCT080 TEMPO 0816/0823 BKN080 BECMG 0818/0820 32015KT FM082300 32015KT P6SM FEW050 SCT240 TEMPO 0823/0903 VRB20G30KT P6SM -SHRA VCTS BKN050CB FM090400 33008KT P6SM SCT080 BECMG 0904/0906 VRB03KT RMK NXT FCST BY 081800Z",
    "EHAM": "TAF EHAM 081117Z 0812/0918 31009KT 9999 SCT025 PROB40 TEMPO 0903/0906 BKN010 BECMG 0906/0909 04007KT",
    "EBBR": "TAF EBBR 081100Z 0812/0918 34008KT 9999 SCT035 ",
    "EDDF": "TAF AMD EDDF 081243Z 0812/0918 33010KT 9999 SCT045 TEMPO 0812/0816 BKN040 BECMG 0820/0822 01004KT BECMG 0912/0914 02009KT",
    "EDFH": "TAF EDFH 081100Z 0812/0912 32009KT 9999 SCT035 BECMG 0819/0821 02004KT",
    "EDDL": "TAF EDDL 081100Z 0812/0918 32008KT 9999 BKN030 BECMG 0819/0822 VRB02KT PROB30 TEMPO 0904/0907 BKN014 BECMG 0906/0909 36007KT",
    "EDDK": "TAF EDDK 081100Z 0812/0918 32008KT 9999 BKN030 BECMG 0819/0822 03003KT BECMG 0907/0910 35008KT",
    "EBLG": "TAF EBLG 081100Z 0812/0918 33008KT 9999 BKN035 ",
    "LSZH": "TAF LSZH 081425Z 0815/0921 03006KT 9999 SCT070 TX28/0815Z TN17/0904Z TX31/0914Z BECMG 0818/0820 VRB02KT CAVOK BECMG 0907/0909 05008KT BECMG 0919/0921 VRB02KT",
    "LIMC": "TAF LIMC 081100Z 0812/0918 VRB05KT CAVOK TEMPO 0815/0817 01012KT PROB30 TEMPO 0818/0822 01015G25KT BECMG 0900/0902 VRB05KT",
    "LIRF": "TAF LIRF 081100Z 0812/0918 25012KT 9999 FEW015 BECMG 0818/0820 VRB05KT TEMPO 0823/0904 BKN010 BECMG 0909/0911 22012KT",
    "EINN": "TAF AMD EINN 081209Z 0812/0912 25007KT 9999 SCT012 BKN018 TEMPO 0812/0814 BKN012 TEMPO 0822/0907 3000 BR BKN006 PROB30 TEMPO 0900/0906 1200 BR BKN003",
    "EGLL": "TAF EGLL 081054Z 0812/0918 VRB04KT CAVOK BECMG 0816/0819 23010KT",
    "EGSS": "TAF EGSS 081059Z 0812/0918 35005KT CAVOK BECMG 0815/0818 11010KT BECMG 0823/0902 22005KT BECMG 0915/0918 11010KT",
    "EPWA": "TAF EPWA 081430Z 0815/0915 28018KT 9999 SCT045 TEMPO 0815/0818 29025G37KT 3000 SHRA BKN030CB BECMG 0818/0821 27008KT PROB40 TEMPO 0818/0908 4000 SHRA BKN030CB PROB40 TEMPO 0908/0915 31016G27KT -SHRA SCT025TCU",
    "UHPP": "TAF UHPP 081332Z 0815/0921 02003G10MPS 9999 SCT040 TEMPO 0815/0821 0700 FG VV002 BECMG 0822/0824 17005G12MPS BECMG 0909/0912 34003G10MPS",
    "EFHK": "TAF EFHK 081429Z 0815/0915 03005KT 9999 FEW040 PROB30 TEMPO 0815/0818 FEW040CB TEMPO 0904/0909 01015G25KT 4000 RA SCT030CB TEMPO 0909/0915 02015G25KT 6000 SHRA SCT030CB",
    "LBBG": "TAF LBBG 081100Z 0812/0912 13012KT 9999 SCT040 PROB40 TEMPO 0813/0819 5000 TSRA FEW030CB BKN040 BECMG 0818/0820 VRB04KT TEMPO 0820/0824 5000 TSRA FEW030CB BKN040 BECMG 0902/0904 29010KT",
    "LTAC": "TAF LTAC 081040Z 0812/0912 VRB02KT 9999 SCT040 TEMPO 0812/0816 28012KT BECMG 0816/0818 CAVOK BECMG 0906/0908 SCT040",
    "UBBB": "TAF UBBB 081044Z 0812/0912 33016G26KT 9999 SCT030 TX27/0812Z TN22/0801Z TEMPO 0812/0814 35022G32KT SCT020 BECMG 0814/0816 34016KT TEMPO 0818/0906 SCT012 FEW040CB TEMPO 0906/0912 35016G26KT",
    "UTAA": "TAF UTAA 081045Z 0812/0912 33016KT 6000 SCT050 TX41/0911Z TEMPO 0812/0816 26012G22KT BECMG 0816/0818 22014KT BECMG 0904/0906 03016KT TEMPO 0906/0912 34014G24KT 4000 DRDU",
    "UACC": "TAF AMD UACC 081441Z 0815/0912 08005MPS 9999 SCT030 BKN100 TX33/0910Z TN17/0823Z TEMPO 0815/0818 03006MPS FEW030CB TEMPO 0818/0905 03005MPS TEMPO 0905/0912 03007MPS SCT040CB PROB40 TEMPO 0908/0912 TS BKN030CB",
    "UAAA": "TAF UAAA 080507Z 0806/0906 26003G08MPS 9999 SCT050CB BKN100 TX31/0810Z TN19/0902Z TEMPO 0806/0812 31006G15MPS 5000 -TSRA BLDU TEMPO 0812/0816 20005MPS TS BECMG 0816/0817 18003MPS BECMG 0903/0904 02003G08MPS",
    "UZTT": "TAF UZTT 081100Z 0812/0912 07010KT CAVOK TX38/0910Z TN23/0900Z TEMPO 0812/0818 36015KT",
    "ZWWW": "TAF ZWWW 080903Z 0812/0918 36004MPS CAVOK TX32/0909Z TN25/0823Z TN25/0918Z BECMG 0814/0815 24004MPS BECMG 0905/0906 32006G11MPS 9999 -SHRA FEW040CB BKN040 BECMG 0914/0915 18004MPS CAVOK",
    "ZLXY": "TAF ZLXY 080903Z 0812/0912 06003MPS 6000 NSC TX39/0908Z TN26/0822Z",
    "ZBAA": "TAF AMD ZBAA 080923Z 0812/0918 18004MPS CAVOK TX33/0907Z TN22/0821Z TN24/0918Z TEMPO 0818/0821 -TSRA FEW040CB BKN040 TEMPO 0911/0914 -TSRA FEW040CB BKN040",
    "ZBHH": "TAF AMD ZBHH 081204Z 0812/0912 04004MPS 9999 FEW040 TX31/0908Z TN16/0822Z TEMPO 0812/0814 -TSRA FEW040 FEW040CB",
    "ZSQD": "TAF ZSQD 080901Z 0812/0912 16005MPS 6000 NSC TX31/0906Z TN23/0820Z BECMG 0817/0818 2800 BR BECMG 0823/0824 6000",
    "ZMCK": "TAF ZMCK 081055Z 0812/0918 32009MPS 9999 FEW030CB SCT033 TN11/0821Z TX24/0907Z BECMG 0813/0815 VRB02MPS BECMG 0818/0820 5000 BR BECMG 0900/0902 32007MPS 9999 NSW PROB30 TEMPO 0900/0908 VRB09G14MPS TSRA SCT027CB SCT030 BECMG 0911/0913 VRB02MPS",
    "UUEE": "TAF UUEE 081356Z 0815/0915 15006G11MPS 9999 BKN016 TX22/0815Z TN16/0905Z TEMPO 0815/0818 18010G16MPS PROB40 TEMPO 0815/0824 -TSRA BKN020CB TEMPO 0900/0906 4900 -SHRA BKN006 BKN020CB PROB40 TEMPO 0900/0906 -TSRA BKN020CB TEMPO 0909/0915 24010G16MPS 2000 TSRA BKN020CB",
    "UUDD": "TAF UUDD 081352Z 0815/0921 16005MPS 9999 BKN020 TX21/0815Z TN15/0901Z TEMPO 0815/0822 18009G16MPS -TSRA BKN020CB TEMPO 0822/0915 20010G18MPS 3000 -TSRA FEW005 BKN016CB",
    "ULLI": "TAF ULLI 081353Z 0815/0915 08005G10MPS 6000 BKN016 BECMG 0819/0820 BKN010 TEMPO 0820/0903 15003MPS 1500 SHRA BKN005 BKN017CB PROB40 TEMPO 0820/0903 1000 TSRA BKN017CB TEMPO 0903/0906 15003MPS 3100 -SHRA BR BKN004 BKN017CB BECMG 0906/0907 14003G08MPS BKN016",
    "USSS": "TAF USSS 081352Z 0815/0915 24003G10MPS 6000 -SHRA BKN016CB TEMPO 0815/0903 0300 -TSRA FG VV002 FM090300 30003G14MPS 9999 BKN030CB TEMPO 0903/0915 VRB20MPS -TSRAGR SQ BKN016CB",
    "UNNT": "TAF UNNT 081400Z 0815/0915 36003G08MPS 8000 BKN040 TX23/0909Z TN14/0822Z TEMPO 0903/0912 36008G14MPS",
    "UNKL": "TAF UNKL 081352Z 0815/0915 33003G08MPS 6000 SCT030 TEMPO 0905/0912 02005G12MPS",
    "UIBB": "TAF UIBB 081400Z 0815/0915 36002MPS 9999 FEW001 BKN016CB TEMPO 0815/0824 VRB07MPS",
    "UEEE": "TAF UEEE 081400Z 0815/0921 17003G08MPS 9999 SCT030CB BKN100 TX35/0907Z TN17/0818Z TEMPO 0815/0903 VRB16MPS 3200 -TSRA",
    "UHHH": "TAF UHHH 081349Z 0815/0921 10003MPS 5000 -SHRA BR FEW010 SCT030CB TX28/0906Z TN20/0818Z BECMG 0816/0818 BKN005 BKN016CB TEMPO 0818/0910 15008MPS 1500 TSRA BR FEW002 BKN016CB",
    "UHSS": "TAF UHSS 081350Z 0815/0921 VRB01MPS 0550 FG BKN002 BKN025CB FM082300 18003MPS 9999 SCT030CB"
  },
  "atis": {
    "RJAA": "[Arrival ATIS] RJAA ARR ATIS K 0021Z M0000 (APCH)ILS Y RWY16L LDG RWY 16L DEP RWY 16R DEP FREQ 124.2. TWY A1 CLSD. M 200000Z 08005KT 7KM BKN007ST BKN018CU 21/20 Q1013/A2992= Q/TWO NINE NINE TWO STP\n[Departure ATIS] RJAA DEP ATIS K 0016Z M0000 (APCH)ILS Y RWY16L LDG RWY 16L DEP RWY 16R DEP FREQ 124.2. TWY A1 CLSD. M 200000Z 08005KT 7KM BKN007ST BKN018CU 21/20 Q1013/A2992= Q/TWO NINE NINE TWO STP",
    "PANC": "[Arrival ATIS] PANC ARR ATIS A 2353Z ANC ATIS INFO A 2353Z. 31006KT 10SM FEW050 BKN200 19/11 A3019 (THREE ZERO ONE NINER). 7R APPROACHES IN USE. LANDING RWY 7R, DEPARTING RWY 33. NOTICE TO AIRMEN. RWY 7L CLSD. CHECK NOTAMS FOR TAXIWAY CLOSURES. NO VFR CLASS C TRANSITIONS DUE TO STAFFING. ...ADVS YOU HAVE INFO A.\n[Departure ATIS] PANC DEP ATIS X 0953Z ANC ATIS INFO X 0953Z. 12016G27KT 10SM SCT060 BKN085 OVC100 14/07 A2973 (TWO NINER SEVEN THREE). ILS RWY 15 APPROACHES IN USE. LANDING RWY 15, DEPARTING RWY 25L. NOTICE TO",
    "KSEA": "[Arrival ATIS] KSEA ARR ATIS F 1153Z SEA ATIS INFO F 1153Z. 25004KT 10SM BKN027 OVC055 14/13 A3017 (THREE ZERO ONE SEVEN). ILS AND CHARTED VISUAL APPROACH RWYS 16R AND 16L , APCH IN USE. DEPG RWY 16L, DEPG ACFT PLAN AND BRIEF NUMBERS FOR BOTH RWYS 16L AND 16C. SIMUL APCHS IN USE, BFI & SEA. TRAFFIC BELOW YOU ON FINAL. SIMUL APCHS IN USE TO PARA RYS. NOTAMS... BIRD ACTIVITY VICINITY ARPT. ...ADVS YOU HAVE INFO F.\n[Departure ATIS] KSEA DEP ATIS I 1353Z SEA ATIS INFO I 1353Z. 20005KT 10SM FEW010 SCT022 BKN055 BKN250 14/13 A3019 (THREE ZERO ONE NINER). ILS AND CHARTED VISUAL APPROACH RWYS 16R AND 16L , APCH IN USE. DEPG RWY 16L, DEPG ACFT PLAN AND BRIEF NUMBERS FOR BOTH RWYS 16L AND 16C. SIMUL APCHS IN USE, BFI & SEA. TRAFFIC BELOW YOU ON FINAL. SIMUL APCHS IN USE TO PARA RYS. NOTAMS... BIRD ACTIVITY VICINITY ARPT. ...ADVS YOU HAVE INFO I.",
    "ZSPD": "[Arrival ATIS] ZSPD ARR ATIS F 0000Z EXP ILS APCH LDG RWY 35L & 34R WIND RWY 35L TDZ 260/3MPS MID 270/3MPS END 280/2MPS RWY 34R TDZ 280/3MPS MID 280/3MPS END 290/3MPS VIS RWY 35L TDZ 10000M MID 10000M END 10000M VIS RWY 34R TDZ 10000M MID 10000M END 10000M CLD SCT 300M T 26 /DP 26 QNH 1004 HPA CAUTION THE BIRDS NEAR THE RUNWAY RWY 35R/35L/34R/34L RWYCC 5/5/5 ISSUED AT 2212 WET/WET/WET DPT NR/NR/NR COV 100PCT/100PCT/100PCT. ADZ YOU HAVE INFO F.\n[Departure ATIS] ZSPD DEP ATIS E 2330Z DEP RWY 35R & 34L WIND RWY 35R TDZ 270/3MPS VRB BTN 230/ AND 290/ MID 290/3MPS END 290/2MPS RWY 34L TDZ 290/3MPS VRB BTN 260/ AND 330/ MID 270/3MPS VRB BTN 240/ AND 310/ END 280/3MPS VIS RWY 35R TDZ 10000M MID 10000M END 10000M VIS RWY 34L TDZ 10000M MID 9000M END 10000M FBL SHRA CLD BKN 300M T 26 /DP 26 QNH 1004 HPA CAUTION THE BIRDS NEAR THE RUNWAY RWY 35R/35L/34R/34L RWYCC 5/5/5 ISSUED AT 2212 WET/WET/WET DPT NR/NR/NR COV 100PCT/100PCT/100PCT. ADZ YOU HAVE INFO E.",
    "ZSSS": "[Arrival ATIS] ZSSS ARR ATIS Y 1830Z EXP ILS APCH LDG RWY 18L WIND RWY 18L TDZ 290/4MPS MID 290/4MPS END 290/4MPS VIS RWY 18L TDZ 5000M MID 4600M END 7000M FBL SHRA CLD BKN 450M /FEW CB 900M T 25 /DP 23 QNH 1003 HPA SUPPLEMENT INFO RESHRA RWY18R RWYCC 5/5/5 ISSUED AT 1050 WET/WET/WET DPT NR/NR/NR COV 100PCT/100PCT/100PCT RWY18L RWYCC 5/5/5 ISSUED AT 1050 WET/WET/WET DPT NR/NR/NR COV 100PCT/100PCT/100PCT QNH OF SHANGHAI TERMINAL CONTROL AREA 1002 HPA ADZ YOU HAVE INFO Y.\n[Departure ATIS] ZSSS DEP ATIS N 0000Z DEP RWY 36L WIND RWY 36L TDZ 240/2MPS MID 240/3MPS END VRB/3MPS MAX8 MNM0 VIS RWY 36L TDZ 8000M MID 10000M END 10000M CLD BKN 240M T 26 /DP 25 QNH 1005 HPA RWY36L RWYCC 5/5/5 ISSUED AT 2130 WET/WET/WET DPT NR/NR/NR COV 100PCT/100PCT/100PCT RWY36R RWYCC 5/5/5 ISSUED AT 2130 WET/WET/WET DPT NR/NR/NR COV 100PCT/100PCT/100PCT QNH OF SHANGHAI TERMINAL CONTROL AREA 1004 HPA ADZ YOU HAVE INFO N.",
    "VHHH": "[Arrival ATIS] VHHH ARR ATIS C 1404Z ARRIVALS, RWY 07L. EXP ILS APCH, RWY 07L. EXP RWY 07C AFTER 1500Z. WIND 150/09KT VRB BTN 120/ AND 180/. VIS 10KM. CLD FEW 1200FT SCT 2500FT. T30 DP25. QNH 1006HPA. EXP SIG TAILWIND ON BASELEG. ACK INFO C ON FIRST CTC WITH APP.\n[Departure ATIS] VHHH DEP ATIS T 2324Z DEPARTURES, RWY 25L. EXP RWY 25C/L AFTER 0000Z. WIND 210/10KT. VIS 10KM. CLD FEW 1000FT SCT 2000FT. T29 DP25. QNH 1009HPA. ACK INFO T ON FIRST CTC WITH DELIVERY .",
    "RCTP": "[Arrival ATIS] RCTP ARR ATIS L 0000Z EXP ILS APCH RWY23R AND RWY23L ARR/DEP. WIND 220/12KT VIS 10 KM OR MORE CLD FEW 2000FT T 30 DP 24 QNH 1011HPA NOSIG CTN BIRD ACTIVITY IN THE VCY OF THE AD. DUE TO FLOW CONTROL BY HONGKONG F-I-R, TRAFFIC CONCERNED MAY BE DELAYED. INFORM TAIPEI APCH OR TAIPEI TOWER ON INITIAL CONTACT YOU HAVE INFORMATION L\n[Departure ATIS] RCTP DEP ATIS K 2330Z EXP ILS APCH RWY23R AND RWY23L ARR/DEP. WIND 220/08KT VARYING BTN 190 AND 250 VIS 10 KM OR MORE CLD FEW 2000FT T 30 DP 24 QNH 1010HPA NOSIG CTN BIRD ACTIVITY IN THE VCY OF THE AD. INFORM TAIPEI APCH OR TAIPEI TOWER ON INITIAL CONTACT YOU HAVE INFORMATION K",
    "ZGSZ": "[Arrival ATIS] ZGSZ ARR ATIS D 1430Z EXP ILS APCH 15 EXP ILS OR VIS APCH 16R WIND 110/4MPS CAVOK T 28 /DP 26 QNH 1006 HPA INDEPENDENT PARALLEL DEPARTURES DEPENDENT PARALLEL APPROACHES V17,V18 AVAILABLE AFTER SULAS FLY HEADING 040 MISSED APPROACH ALTITUDE SETTING 1200METERS WHEN AIRBORNE CONTACT ZHUHAI APPROACH EXPECTED RNP ILS DME Z APPROACH ADZ YOU HAVE INFO D.\n[Departure ATIS] ZGSZ DEP ATIS Y 2201Z DEP RWY 15 & 16L WIND 160/6MPS VIS 9999M CLD SCT 600M /SCT 1290M T 28 /DP 27 QNH 1009 HPA INDEPENDENT PARALLEL DEPARTURES V17,V18 AVAILABLE AFTER SULAS FLY HEADING 040 MISSED APPROACH ALTITUDE SETTING 1200METERS WHEN AIRBORNE CONTACT ZHUHAI APPROACH EXPECTED RNP ILS DME Z APPROACH ADZ YOU HAVE INFO Y.",
    "WSSS": "[Arrival ATIS] WSSS ARR ATIS H 0000Z METREPORT 0000Z ILS APCHRWY 02L TWY W 9 CLOSED, RWY 02C 20C RAPID EXIT TAXIWAY INDICATOR LIGHTS OFF WIND 350/ 03KT VRB BTN270 AND010 VIS 08KM CLD FEW 1600FT FEW TCU 1800FT FEW CB 2000FT T27 DP25 QNH 1012HPA NOSIG ACK ATIS H\n[Departure ATIS] WSSS DEP ATIS F 2330Z METREPORT 2330Z RWY 02C TWY W 9 CLOSED, RWY 02C 20C RAPID EXIT TAXIWAY INDICATOR LIGHTS OFF WIND VRB BTN270 AND030 02KT VIS 10KM CLD FEW 1600FT FEW TCU 1800FT FEW CB 2000FT T27 DP25 QNH 1011HPA NOSIG DEP,INITIAL CMB 3000FT ACK ATIS F",
    "WMKK": "[Arrival ATIS] WMKK ARR ATIS A 1304Z WMKK ARR INFO A. TIME 1300. INDEPENDENT PARALLEL APPROACHES FOR RWY 14 R AND 14 L ARE IN PROGRESS. EXP RNAV / ILS APCH FOR RWY 14 LEFT. EXP RNAV / ILS APCH FOR RWY 15. WIND RWY 14L DIRECTION NOT AVBL SPEED NOT AVBL. WIND RWY 15 DIRECTION NOT AVBL SPEED NOT AVBL. VIS RWY 14L TDZ NOT AVBL. VIS RWY 15 TDZ NOT AVBL. CLD FEW 3000 FT. T 28. DP 24. QNH 1010. NOSIG. AT FIRST CONTACT WITH LUMPUR RADAR, NOTIFY RCPT OF A\n[Departure ATIS] WMKK DEP ATIS O 1804Z WMKK DEP INFO O. TIME 1800. INDEPENDENT PARALLEL DEPARTURES FOR RWY 14 L AND 15 ARE IN PROGRESS. RWY 14 LEFT. RWY 15. WIND RWY 14L DIRECTION NOT AVBL SPEED NOT AVBL. WIND RWY 15 DIRECTION NOT AVBL SPEED NOT AVBL. VIS RWY 14L TDZ NOT AVBL. VIS RWY 15 TDZ NOT AVBL. CLD FEW CB 1700 FT. T 27. DP 24. QNH 1010. NOSIG. ALL DEP ACFT TO CONTACT LUMPUR DEP AT 135 DECIMAL 25 MHZ WHEN ABN. AT FIRST CONTACT WITH LUMPUR GROUND, NOTIFY RCPT OF O",
    "VTBS": "[Arrival ATIS] VTBS ARR ATIS U 0000Z VTBS ARR ATIS U 0004Z EXP ILS Z APCH ARR RWY 19 OR RNP APCH RWY 20R 06191020 19 5/5/5 100/100/100 NR/NR/NR WET/WET/WET ,RETIL RWY 19 U/S , 0000Z WIND 070/3KT VIS 9KM CLD FEW 1000FT T27 DP27 QNH 1010HPA TREND NOSIG ADZ BKK APCH ON INITIAL CONTACT THAT YOU HAVE INFO U\n[Departure ATIS] VTBS DEP ATIS D 2330Z VTBS DEP ATIS D 2330Z SIMULTANEOUS INDEPENDENT PARL DEP IN PROGRESS DEP RWY 20L OR DEP RWY 19 06191020 19 5/5/5 100/100/100 NR/NR/NR WET/WET/WET 06191029 20L 5/5/5 100/100/100 NR/NR/NR WET/WET/WET ,AFT AIRBORNE ALL DEPARTING ACFT SHALL CTC 119.25 2330Z WIND 140/3KT VIS 10KM CLD FEW 2000FT T27 DP27 QNH 1009HPA TREND NOSIG ADZ GND WHEN INITIAL CONTACT YOU HAVE INFO D",
    "VTBU": "[Arrival ATIS] VTBU ARR ATIS U 0430Z VTBU ARR ATIS U 0430Z RNP RWY 18 TRL FL130 MOBILE ACFT ARST SYSTEM INSTL ATP SIX HUNDRED AND TEN METERS FM THR RWY 36 CABLE HGT 3 INCHES. 0430Z WIND 360/6KT VRB BTN 320/ AND 020/ VIS 10KM CLD FEW 2000FT T34 DP27 QNH 1010HPA TREND NOSIG ADZ CONTROLLER WHEN INITIAL CONTACT YOU HAVE INFO U\n[Departure ATIS] VTBU DEP ATIS D VTBU ARR/DEP DATIS RPT VTBU ARR ATIS D 0330Z ILS \"Z\" APCH RWY 18 TRL FL130 0330Z WIND 110/4KT VRB BTN 350/ AND 120/ VIS 6KM CLD FEW 2000FT T31 DP27 QNH 1014HPA TREND NOSIG ADZ CONTROLLER WHEN INITIAL CONTACT YOU HAVE INFO D",
    "ROAH": "[Arrival ATIS] ROAH ARR ATIS W 2002Z M2000 (APCH)RNP RWY18R USING RWY 18R DEP FREQ 126.5 258.3 RWY 18L/36R CLSD M 192000Z AUTO 18008KT 9999 NCD 26/25 Q1011/A2988= Q/TWO NINE EIGHT EIGHT STP\n[Departure ATIS] ROAH DEP ATIS Q 1044Z M1030 (APCH)ILS Z RWY36L LDG RWY 36L DEP RWY 36R DEP FREQ 119.1 335.8 M 071030Z 15008KT 60KM FEW025CU 30/25 Q1009/A2980= Q/TWO NINE EIGHT ZERO STP",
    "VVDN": "[Arrival ATIS] VVDN ARR ATIS H 0002Z VVDN INFO H 0002Z. ILS VICTOR APPROACH 35L.. DPTG RWY 35R.. 0002Z. WIND VRB/02KT CAVOK T30 DP24 QNH 1009HPA TREND NOSIG. ADZ ON INITIAL CTC YOU HAVE INFO. H.\n[Departure ATIS] VVDN DEP ATIS X 0632Z VVDN INFO X 0632Z. ILS VICTOR APPROACH 35L.. DPTG RWY 35R.. 0632Z. WIND 130/0KT CAVOK T34 DP26 QNH 1006HPA TREND NOSIG. ADZ ON INITIAL CTC YOU HAVE INFO. X.",
    "RCKH": "[Arrival ATIS] RCKH ARR ATIS K 0000Z EXPECT ILS APPROACH RWY 09 ARR/DEP TAXIWAY JULIETT, TAXIWAY BRAVO, TAXIWAY DELTA AND TAXIWAY ECHO CLOSED DUE MAINTENANCE. RUNWAY 0 9 ARRIVALS PLAN VACATE VIA CHARLIE OR FOXTROT AND EXPEDITE VACATE. WIND 070/03KT VARYING BTN 360 AND 120 VIS 10 KM OR MORE CLD FEW 1600FT BKN 22000FT T 30 DP 23 QNH 1011HPA NOSIG CAUTION BIRD ACTIVITY IN VICINITY OF THE AERODROME. INFORM KAO-HSIUN APCH OR KAO-HSIUN TOWER ON INITIAL CONTACT YOU HAVE INFORMATION K\n[Departure ATIS] RCKH DEP ATIS D 0830Z EXPECT ILS APPROACH RWY 27 ARR/DEP TAXIWAY JULIETT, TAXIWAY BRAVO, TAXIWAY DELTA AND TAXIWAY ECHO CLOSED DUE MAINTENANCE. RUNWAY 2 7 ARRIVALS PLAN VACATE VIA CHARLIE OR",
    "KLAX": "[Arrival ATIS] KLAX ARR ATIS M 1853Z LAX ATIS INFO M 1853Z. 26010KT 10SM FEW025 22/16 A2997 (TWO NINER NINER SEVEN) RMK AO2 SLP145 T02220156. INST APCHS AND RNAV RNP APCHS RY 24R AND 25L, OR VCTR FOR VISUAL APCH WILL BE PROVIDED, SIMUL VISUAL APCHS TO ALL RWYS ARE IN PROG, SIMUL INSTR DEPARTURES IN PROG RWYS 24 AND 25. CTC L A GC ON 121.75 FOR PUSH OR TAXI ON A. TWY B CLSD BTN TWY, C10 AND TWY C7 , , TWY B6 CLSD, TWY B7 CLSD, TWY C CLSD BTN TWY, C1 AND TWY C3, TWY C1 CLSD, TWY C9 CLSD BTN TWY, B AND TWY C, TWY C8 CLSD BTN TWY, B AND TWY C. RY 25R SFL OTS, RY 24L ALSF-2 OTS. LAX VOR UNMONITORED. USE CAUTION FOR INCREASED DRONE ACTIVIY IN THE VICINITY OF SOFI STADIUM AT OR BELOW 200FT AGL DURING THE WORLD CUP FROM JUNE TWELFTH TWENTY TWENTY SIX THROUGH JULY TENTH TWENTY TWENTY SIX. HAZD WX INFO FOR LAX AREA AVBL FM FSS. BIRD ACTIVITY VICINITY ARPT. INCLUDE YOUR CALL SIGN IN ALL READBACKS. USE CAUTION WHEN EXITING RY24R AT TWY V, W, AND Y, TO HOLD SHORT OF RY24L. MULTIPLE RUNWAY INCURSIONS HAVE OCCURRED. ...ADVS YOU HAVE INFO M.\n[Departure ATIS] KLAX DEP ATIS D 0653Z LAX ATIS INFO D 0653Z. 28011KT 10SM FEW012 BKN018 17/14 A2998 (TWO NINER NINER EIGHT) RMK AO2 SLP151 T01720144. INST APCHS AND RNAV RNP APCHS RY 24R AND 25L, OR VCTR FOR VISUAL APCH WILL BE PROVIDED, SIMUL VISUAL APCHS TO ALL RWYS ARE IN PROG. CTC L A GC ON 121.75 FOR PUSH OR TAXI ON A. TWY C CLSD BTN TWY, C8 AND TWY C9 , , TWY B CLSD BTN TWY, F AND TWY B1, TWY B1 CLSD. ILS RY 25R OTS, RY 25R SFL OTS, RY 24L ALSF-2 OTS. LAX VOR UNMONITORED. IF ASSIGNED RUNWAY 25R FOR DEPARTURE, EXPECT DEPARTURE FROM INTERSECTION FOXTROT. TAXILANE CHARLIE EIGHT RESTRICTED TO AIRCRAFT WITH A WINGSPAN LESS THAN ONE HUNDRED EIGHTEEN FEET. USE CAUTION FOR INCREASED DRONE ACTIVIY IN THE VICINITY OF SOFI STADIUM AT OR BELOW 200FT AGL DURING THE WORLD CUP FROM 06/12/26 THROUGH 07/10/2026. HAZD WX INFO FOR LAX AREA AVBL FM FSS. BIRD ACTIVITY VICINITY ARPT. TWR FREQ FOR ALL RWYS IS 120.95. INCLUDE YOUR CALL SIGN IN ALL READBACKS. USE CAUTION WHEN EXITING RY24R AT TWY V, W, AND Y, TO HOLD SHORT OF RY24L. MULTIPLE RUNWAY INCURSIONS HAVE OCCURRED. ...ADVS YOU HAVE INFO D.",
    "KONT": "[Arrival ATIS] KONT ARR ATIS V 2253Z ONT ATIS INFO V 2253Z. 25010G17KT 10SM CLR 26/12 A2996 (TWO NINER NINER SIX) RMK AO2 SLP134 T02560117. ILS AND VIS APR IN USE, RY26L & RY26R. LNDG AND DEPG RY 26L AND RY 26R. NOTAMS... TAXIWAY SIERRA CLSD BETWEEN SIERRA 8 AND W TAXIWAY Q SOUTH OF RWY 26L CLSD TAXIWAY T CLSD TAXIWAY SIERRA 5 CLSD. RY 26L IM OTS. USE CAUTION FOR NUMEROUS BIRDS OBSERVED IN VICINITY OF ONT. HAZD WX INFO FOR SOUTHERN CA AVBL ON FSS FREQUENCIES. PILOTS READBACK RWY ASSIGNMENTS AND HOLD SHORT INSTRUCTIONS. ...ADVS YOU HAVE INFO V.\n[Departure ATIS] KONT DEP ATIS N 0553Z - KONT ATIS INFO N 0553Z. 24004KT 10SM BKN250 22/15 A2988 (TWO NINER EIGHT EIGHT) RMK AO2 SLP100. ILS AND VIS APR IN USE, RY26L & RY26R. LNDG AND DEPG RY 26L AND RY 26R. NOTAMS... TAXIWAY SIERRA CLSD BETWEEN SIERRA 8 AND W TAXIWAY Q SOUTH OF RWY 26L CLSD TAXIWAY T CLSD TAXIWAY SIERRA 5 CLSD. RY 26L IM OTS, RY 26R ALS OTS. USE CAUTION FOR NUMEROUS BIRDS OBSERVED IN VICINITY OF ONT. HAZD WX INFO FOR SOUTHERN CA AVBL ON FSS FREQUENCIES. PILOTS READBACK RWY ASSIGNMENTS AND HOLD SHORT INSTRUCTIONS. ...ADVS YOU HAVE INFO N.",
    "KSFO": "[Arrival ATIS] KSFO ARR ATIS C 1156Z SFO ATIS INFO C 1156Z. 26014KT 10SM FEW006 OVC011 13/10 A3008 (THREE ZERO ZERO EIGHT) RMK AO2 SLP185 T01280100 10139 20128 58002. ILS RY 28R APP IN USE. DEPG RWYS 28L, 28R. DEPG ACFT SHOULD BE PREPARED FOR A SHORT NOTICE RY CHANGE. RY 1L, 1R CLSD. TWY F CLSD BTN RWY 1L AND, TAXIWAY L, NUMEROUS TWY CLOSURES FOR CONSTRUCTION ON THE FIELD, PILOTS CHECK NOTAMS. RY 28R PAPI OTS. DEPG ACFT WAITING ON FINAL NUMBERS ADVISE GROUND PRIOR TO ENTERING TWY F. ...ADVS YOU HAVE INFO C.\n[Departure ATIS] KSFO DEP ATIS S 0256Z SFO ATIS INFO S 0256Z. 27016G24KT 10SM FEW007 BKN014 14/11 A3006 (THREE ZERO ZERO SIX). SIMUL CLSLY SPCD DPNDNT ILS RY 28R AND ILS RY 28L APP IN USE. DEPG RWYS 28L, 28R. DEPG ACFT SHOULD BE PREPARED FOR A SHORT NOTICE RY CHANGE. RY 1L, 1R CLSD. NUMEROUS TWY CLOSURES FOR CONSTRUCTION ON THE FIELD, PILOTS CHECK NOTAMS. RY 28R PAPI OTS. MOWING BTN RWY 28L AND RWY 28R AT TWY R. DEPG ACFT WAITING ON FINAL NUMBERS ADVISE GROUND PRIOR TO ENTERING TWY F. ...ADVS YOU HAVE INFO S.",
    "KOAK": "[Arrival ATIS] KOAK ARR ATIS W KOAK ARR/DEP DATIS RPT OAK ATIS INFO W 0553Z. 24015KT 10SM FEW003 BKN007 OVC011 14/12 A3002 (THREE ZERO ZERO TWO). RNAV, RWY 30. ILS, RWY 28R. TWY S CLSD BETWEEN B AND GATE 1. ILS RWY 30, OTS, RWY 28R RAIL, OTS. UNN LIT CLOSE-IN OBSTACLES FOR RWY 30 DEPARTURES. RWY 30 DEPARTURES ARE ADVISED TO AVOID TURNING LEFT PRIOR TO DEPARTURE END OF RUNWAY. CTN, CRANE 1 POINT 6 NAUTICAL MILES, , AT 140 FEET AGL. CAUTION, BIRDS NEAR AIRPORT. ...ADVS YOU HAVE INFO W.\n[Departure ATIS] KOAK DEP ATIS O 1953Z OAK ATIS INFO O 1953Z. 28014KT 10SM FEW005 22/14 A2988 (TWO NINER EIGHT EIGHT). RNAV Z/VA RWY 30 ILS/VA RWY 28R. FLOW TO LAX, LAS, SAN. ILS RWY 30, OTS. UNN LIT CLOSE-IN OBSTACLES FOR RWY 30 DEPARTURES. RWY 30 DEPARTURES ARE ADVISED TO AVOID TURNING LEFT PRIOR TO DEPARTURE END OF RUNWAY. SIGNATURE UNI-COM OUT OF SERVICE. CAUTION, BIRDS NEAR AIRPORT. ...ADVS YOU HAVE INFO O.",
    "KDFW": "[Arrival ATIS] KDFW ARR ATIS C 2353Z DFW ARR INFO C 2353Z. 18004KT 10SM FEW025 BKN180 BKN250 26/19 A2988 (TWO NINER EIGHT EIGHT) RMK AO2 SLP109 60011 T02560194 10261 20228 56004. SIMUL VISUAL APCH TO RWYS, 13R, 18R, 17C, 17L. LDG RWY 17C EXP LAHSO TWY B 10460 FT AVAIL, LDG RWY 18R EXP LAHSO TWY B 10100 FT AVL. NOTICE TO AIRMEN. RWY 18L ILS OTS, CL OTS. HAZD WX FOR DFW AVBL ON FSS. BIRD ACTIVITY VCNTY ARPT. ...ADVS YOU HAVE INFO C.\n[Departure ATIS] KDFW DEP ATIS W 1553Z - KDFW DEP INFO W 1553Z. 21022G32KT 10SM FEW025 FEW180 SCT250 31/21 A2994 (TWO NINER NINER FOUR) RMK AO2 PK WND 20032/1547 SLP128 T03110206. SIMUL PARL TRAFFIC DEPG RWYS 17R, 18L. NOTICE TO AIRMEN. WARNING, RWY 18L HAS BEEN SHORTENED, 9273 FT AVAILABLE. RWY 18L CL OTS. BIRD ACTIVITY VCNTY ARPT. ...ADVS YOU HAVE INFO W.",
    "KIAH": "[Arrival ATIS] KIAH ARR ATIS X 1153Z IAH ATIS INFO X 1153Z. 20003KT 10SM FEW015 FEW250 23/23 A3009 (THREE ZERO ZERO NINER) RMK AO2 SLP187 70002 T02330228 10239 20228 53007. ARRIVALS EXPECT ILS OR RNAV Y RY 26R, ILS OR RNAV Y RY 26L, ILS OR RNAV Y RY 27. SIMUL APPROACHES IN USE. DEPG RY 15L, RY 15R. NOTICE TO AIRMEN. UNITED RAMP CONTROL IN EFFECT. HAZD WX INFO FOR IAH AREA AVBL FM FSS. BIRD ACTIVITY VICINITY ARPT. LAHSO RY26L. CRANES ARE DOWN. TWY SA CLSD BTN TWY, SF AND TWY SK , TWY SB CLSD BTN TWY, SF AND TWY SK , , TWY WB CLSD BTN TWY, WG AND TWY WH . TWY EA CLSD. NOTAM ATIS IN USE ON FREQUENCY 126.225. ...ADVS YOU HAVE INFO X.\n[Departure ATIS] KIAH DEP ATIS T 0353Z IAH ATIS INFO T 0353Z. 15007KT 10SM FEW035 FEW180 BKN250 27/23 A2996 (TWO NINER NINER SIX). ARRIVALS EXPECT ILS OR RNAV Y RY 8R, ILS OR RNAV Y RY 8L. DEPG RY 15R. NOTICE TO AIRMEN. UNITED RAMP CONTROL IN EFFECT. RY 15L, 33R CLSD. HAZD WX INFO FOR IAH AREA AVBL FM FSS. BIRD ACTIVITY VICINITY ARPT. CRANES ARE DOWN. TWY SA CLSD BTN TWY, SF AND TWY SK , TWY SB CLSD BTN TWY, SF AND TWY SK , , TWY WB CLSD BTN TWY, WG AND TWY WH . TWY EA CLSD. NOTAM ATIS IN USE ON FREQUENCY 126.225. ...ADVS YOU HAVE INFO T.",
    "KORD": "[Arrival ATIS] KORD ARR ATIS Q 1851Z - KORD ATIS INFO Q 1851Z. 01004KT 10SM FEW055 FEW250 29/16 A3008 (THREE ZERO ZERO EIGHT) RMK AO2 SLP181 T02890156. ARR EXP VECTORS ILS RWY 10C APCH, VISUAL APCH RWY 9L, VISUAL APCH RWY 10R. PILOTS EXP 2 INTCP THE ILS Y RY 10R FNA CRS. SIMUL APCHS IN USE. DEPS EXP RWYS 9C FROM F F 9200 FT AVL, 10L FROM DD. 10,093 FT AVBL. ATTN PILOTS. SIMUL PARL DEPS IN USE. EXP TO INITIALLY FLY RWY. HDG ON DEP. PILOTS MUST READ BACK DRCTN OF TURNS BY ATC. RWY 4L, 22R CLSD. RWY 22L ILS OTS, RWY 22R LOC OTS, RWY 28L GS OTS, RWY 9L IM OTS, RWY 9C IM OTS, RWY 10L IM OTS, RWY 10R IM OTS, RWY 27R IM OTS, RWY 28L IM OTS, RWY 28R IM OTS, RWY 9L PAPI OTS, RWY 27R PAPI OTS. PILOTS USE CTN FOR BIRD ACTIVITY IN THE VICINITY OF THE ARPT. USE CTN FOR PERSONNEL AND EQUIP AT NUMEROUS SITES ON THE FIELD. READBACK ALL RWY HOLD SHORT INSTRUCTIONS. WHEN READY TO TAXI CONTACT GND METERING ON FREQ 121.67. ...ADVS YOU HAVE INFO Q.\n[Departure ATIS] KORD DEP ATIS V 1251Z ORD ATIS INFO V 1251Z. 27004KT 10SM FEW060 FEW250 25/18 A3007 (THREE ZERO ZERO SEVEN) RMK AO2 SLP175 T02500178. ARR EXP VECTORS ILS RWY 28C APCH, VISUAL APCH RWY 27C, VISUAL APCH RWY 27R. SIMUL APCHS IN USE. LAND AND HOLD SHORT OPERATIONS ARE IN EFFECT. RWY 27C ARR PLAN TO H/S OF TWY V V, 9 THSD 7 HND 25 FT AVBL, RWY 28C ARR PLAN TO H/S OF TWY Z, 9 THSD 6 HND TEN FT AVBL. DEPS EXP RWYS 22L 27L FROM T T 9960 FT AVL. RWY 4R, 22L CLSD. RWY 22R LOC OTS, RWY 28L GS OTS, RWY 9L IM OTS, RWY 9C IM OTS, RWY 10L IM OTS, RWY 10R IM OTS, RWY 27R IM OTS, RWY 28L IM OTS, RWY 28R IM OTS, RWY 9L PAPI OTS, RWY 27R PAPI OTS. PILOTS USE CTN FOR BIRD ACTIVITY IN THE VICINITY OF THE ARPT. USE CTN FOR PERSONNEL AND EQUIP AT NUMEROUS SITES ON THE FIELD. READBACK ALL RWY HOLD SHORT INSTRUCTIONS. WHEN READY TO TAXI CONTACT GND METERING ON FREQ 121.67. ...ADVS YOU HAVE INFO V.",
    "KJFK": "[Arrival ATIS] KJFK ARR ATIS H 1851Z - KJFK ATIS INFO H 1851Z. 35014KT 10SM OVC017 22/18 A3002 (THREE ZERO ZERO TWO). APPROACH IN USE ILS RY 4R, ILS RY 4L. DEPG RY 4L. CRI OTS. RWY 22L/4R INNER MARKER OTS. HAZD WX INFO FOR NY METRO AREA AVBL ON FSS. NUM CRANES OPERATING AT JFK. BIRD ACTIVITY VICINITY ARPT. READBACK ALL RWY ASSIGNMENTS AND HOLD SHORT INSTRUCTIONS. ...ADVS YOU HAVE INFO H.\n[Departure ATIS] KJFK DEP ATIS T 1751Z JFK ATIS INFO T 1751Z. 28013G22KT 10SM FEW060 FEW140 BKN250 27/12 A2967 (TWO NINER SIX SEVEN). APPROACH IN USE ILS RY 31R, VISUAL APCH RY 31L. DEPG RY 31L. RWY 22L/4R INNER MARKER OTS. NUM CRANES OPERATING AT JFK. BIRD ACTIVITY VICINITY ARPT. READBACK ALL RWY ASSIGNMENTS AND HOLD SHORT INSTRUCTIONS. ...ADVS YOU HAVE INFO T.",
    "KIND": "[Arrival ATIS] KIND ARR ATIS P 1354Z - KIND ATIS INFO P 1354Z. 03006KT 10SM FEW022 BKN300 25/20 A3009 (THREE ZERO ZERO NINER) RMK AO2 SLP181 T02500200. PARL ILS RWY 5R AND 5L APPROACHES IN USE. CROSS RUNWAY OPERATIONS MAY BE IN EFFECT. NOTICE TO AIRMEN. RWY 32 GS OTS. TWY, P BTN TWY, H AND TWY B CLSD, TWY, P BTN TWY, B AND TWY J CLSD, TWY, H BTN TWY, R AND TWY N CLSD. P PAD CLSD. ILS RUNWAY 5R AND RUNWAY 5L INNER MARKER UNSERVICEABLE. RUNWAY 32 TOUCHDOWN RVR OTS. RUNWAY 14 ROLLOUT RVR OTS. ...ADVS YOU HAVE INFO P.\n[Departure ATIS] KIND DEP ATIS H 1854Z IND ATIS INFO H 1854Z. 26009G19KT 10SM SCT036 BKN041 BKN170 23/16 A2981 (TWO NINER EIGHT ONE) RMK AO2 SLP088 T02280156. PARL ILS RWY 23R AND 23L APPROACHES IN USE. CROSS RU",
    "KDTW": "[Arrival ATIS] KDTW ARR ATIS K DTW ARR INFO K 1753Z. 02009KT 10SM BKN045 BKN070 29/19 A3006 (THREE ZERO ZERO SIX). SIMUL ILS Z RY 4L AND RY 3R APCH IN USE. NOTICE TO AIRMEN. RWY 21R, 3L CLSD, RWY 27L, 9R CLSD, RWY 27R, 9L CLSD. TWYS Y1 CLSD ;. PILOTS USE CTN FOR BIRD ACTIVITY. DEPARTURE ATIS 118.125. ...ADVS YOU HAVE INFO K.\n[Departure ATIS] KDTW DEP ATIS Q 2253Z - KDTW DEP INFO Q 2253Z. 21009KT 10SM FEW050 FEW250 33/24 A2991 (TWO NINER NINER ONE). DEPG RWY 21R, RWY 22L ;. NOTICE TO AIRMEN. RWY 27L, 9R CLSD, RWY 27R, 9L CLSD. PILOTS USE CTN FOR BIRD ACTIVITY. ...ADVS YOU HAVE INFO Q.",
    "KMSP": "[Arrival ATIS] KMSP ARR ATIS L 1153Z MSP ARR INFO L 1153Z. 00000KT 6SM -RA BR SCT006 SCT060 SCT080 OVC200 23/22 A3000 (THREE ZERO ZERO ZERO) RMK AO2 RAB42 SLP152 P0000 60021 70021 T02280217 10261 20228 55001. SIMULTANEOUS DEPENDENT, ILS RWY 30L APCH IN USE, ILS RWY 30R APCH IN USE. NOTICE TO AIRMEN. RWYS 4, 22 CLSD. TWY R7. R8. R9. R10. CLOSED. TWY R BTWN R6 AND R10 CLSD, TWY A7 CLSD, TWY A CLSD BTN TWY, A7 AND TWY D. GS RWY 12L OTS, RWYS 12R, 12L, INNER MARKER OTS.. RWY 30L CONDITION CODES, 5 5 5 AT 1100Z, RWY 30R CONDITION CODES, 5 5 5 AT 0651Z, RWY 17 CONDITION CODES, 5 5 5 AT 0651Z. HAZD WX INFO FOR MSP AREA AVBL FM FSS. CTN, BIRDS NEAR MSP. READ BACK HS AND ALT. ALL ACFT TAXI WITH TRANSPONDER AND ALTITUDE ENCODING ON. ADVISE TOWER OF GATE ON INITIAL CONTACT. ...ADVS YOU HAVE INFO L.\n[Departure ATIS] KMSP DEP ATIS V 1100Z - KMSP DEP INFO V 1100Z SPECIAL. 00000KT 7SM FEW006 BKN011 BKN085 OVC200 23/22 A2999 (TWO NINER NINER NINER) RMK AO2 LTG DSNT W T02330222. DEPARTING RWY 30L, RWY 30R, RWY 17. NOTICE TO AIRMEN. RWYS 4, 22 CLSD. TWY R7. R8. R9. R10. CLOSED. TWY R BTWN R6 AND R10 CLSD, TWY A7 CLSD, TWY A CLSD BTN TWY, A7 AND TWY D. ALL ACFT CTC METERING ON ONE THREE THREE POINT FIVE SEVEN WHEN READY TO PUSHBACK OR TAXI. RWY 30L CONDITION CODES, 5 5 5 AT 1100Z, RWY 30R CONDITION CODES, 5 5 5 AT 0651Z, RWY 17 CONDITION CODES, 5 5 5 AT 0651Z. HAZD WX INFO FOR MSP AREA AVBL FM FSS. CTN, BIRDS NEAR MSP. READ BACK HS AND ALT. ALL ACFT TAXI WITH TRANSPONDER AND ALTITUDE ENCODING ON. ...ADVS YOU HAVE INFO V.",
    "CYEG": "[Arrival ATIS] CYEG ARR ATIS E 1407Z CYEG ARR ATIS E 1407Z 17010KT 20SM CIG BKN012 BKN020 17/15 A2987 APCH RNAV Z OR Y RWY 20, INFORM ARRL OF REQ APCH ON INITIAL CTC. LDG AND DEP RWY 20. SIMUL APPROACHES MAY BE IN EFCT. BIRD ACT INVOF ARPT. INFORM CYEG ATC INFO E\n[Departure ATIS] CYEG DEP ATIS G 1413Z CYEG ARR ATIS G 1413Z 16007KT 20SM SCT012 CIG BKN020 BKN160 17/15 A2986 APCH RNAV Z OR Y RWY 20, INFORM ARRL OF REQ APCH ON INITIAL CTC. LDG AND DEP RWY 20. SIMUL APPROACHES MAY BE IN EFCT. BIRD ACT INVOF ARPT. INFORM CYEG ATC INFO G",
    "EHAM": "[Arrival ATIS] EHAM ARR ATIS H 0023Z EHAM ARRIVAL INFO H. DEMAND. MAIN LANDING RWY 18 R. TRANSITION LEVEL 040. RWY 18 R RCR AT TIME 1947. RWYCC: 5/5/5 WET/WET/WET COVERAGE(%): 100/100/100. WIND 140 DEG, 6 KT. CAVOK. T 21. DP 18. QNH 1015 HPA. NOSIG. OPERATIONAL REPORT. EXP RNP APCH. CONTACT APCH WITH CALLSIGN ONLY. END OF INFO H\n[Departure ATIS] EHAM DEP ATIS O 1220Z EHAM DEPARTURE INFO O. DEMAND. MAIN DEPARTURE RWY 36 L. SECONDARY DEPARTURE RWY 36 C. MAIN LANDING RWY 36 R. WIND 290 DEG, 8 KT, VRB BTN 240 AND 340 DEG. WIND SECONDARY RUNWAY 280 DEG, 9 KT, VRB BTN 240 AND 320 DEG, 12 KT MAX, 4 KT MNM. VIS 10 KM OR MORE. CLD FEW 1700 FT SCT 1900 FT BKN 2700 FT. T 20. DP 15. QNH 1019 HPA. OPERATIONAL REPORT. INDEPENDENT PARALLEL DEPARTURES IN PROGRESS CHECK CORRECT SID IN FMS. INFORM SCHIPHOL DEL BY VOICE IF UNABLE TO COMPLY WITH NADP 2. END OF INFO O",
    "EBBR": "[Arrival ATIS] EBBR ARR ATIS R 1454Z EBBR NAT, EXP VECT FOR ILS APP ARR RWY25L RSCD AT 1438 RWY25L DRY. DEP RWY25R TRL 055 TWY C6 CLSD. ILS RWY 25R U/S. RNP RWY 25R AT ATC DISCRETION 350/7KT VRB BTN 320 AND 050 VIS ABV 10KM SCT3900FT T25 DP16 QNH 1019HPA NOSIG CFM ARR R\n[Departure ATIS] EBBR DEP ATIS G 0920Z EBBR NAT, DEP RWY25R RSCD AT 0551 RWY25R DRY. ARR RWY25L TRL 055 B3 CLSD 340/4KT VRB BTN 270 AND 010 MNM1 MAX10 VIS ABV 10KM BKN3200FT T22 DP16 QNH 1020HPA NOSIG CFM DEP G",
    "EDDF": "[Arrival ATIS] EDDF ARR ATIS J 1150Z -ARR-ATIS EDDF J METAR 081150 -EXPECT INDEPENDENT PARALLEL ILS Z APCH RWY 25R OR ILS APCH RWY 25L -RWY 25R 25L -DO NOT MISTAKE TWY M FOR RWY 25C WHEN PERFORMING VISUAL APPROACH , GLS APCH ON REQUEST , -TRL 60 - -32007KT 250V010 -9999 - -BKN040 OVC049 -T24 DP14 -QNH1018 - -TREND NOSIG\n[Departure ATIS] EDDF DEP ATIS G 1450Z DEP-ATIS EDDF G METAR 081450 RWY 25C 18 TRL 60 31010KT 270V350 RWY18 VRB08KT CAVOK T26 DP15 QNH1017 TREND NOSIG END OF ATIS G",
    "EDDL": "[Arrival ATIS] EDDL ARR ATIS K 1150Z ATIS EDDL K METAR 081150 EXPECT VECTORS ILS APPROACH RWY 23L TWY L2 , L4 AND L5 BTN TWY M AND RWY 23L CLOSED TRL 60 32007KT 290V350 9999 BKN025 OVC034 T21 DP15 QNH1019 TREND NOSIG\n[Departure ATIS] EDDL DEP ATIS R EDDL ARR/DEP DATIS RPT -ATIS EDDL R METAR 020550 -EXPECT VECTORS ILS APPROACH -RWY 23L -TWY L8 CLOSED BETWEEN TWY M AND RWY 23L -TRL 60 - -23010KT -CAVOK - - -T19 DP13 -QNH1020 - -TREND NOSIG",
    "EDDK": "[Arrival ATIS] EDDK ARR ATIS U 0920Z -ATIS EDDK U METAR 080920 -EXPECT ILS APCH -RWY 31R -RWY COND RWY 31R AT TIME 0720 RWYCC 6 DEPOSIT TOTAL RWY DRY RWY 24 AVBL FOR DEP -TRL 60 -RWY 13R AND RWY 31L CLOSED FOR DEPARTURE AND LANDING: TAXIING BTN THR RWY 13R AND INTERSECTION RWY 24 POSSIBLE : -35006KT 310V010 -9999 - -BKN024 -T20 DP14 -QNH1019 - -TREND NOSIG\n[Departure ATIS] EDDK DEP ATIS Q EDDK ARR/DEP DATIS RPT -ATIS EDDK Q METAR 291920 -EXPECT ILS APCH -RWY 31R 06 -RWY COND RWY 31R AT TIME 1830 RWYCC 6 DEPOSIT TOTAL RWY DRY RWY 06 AT TIME 1830 RWYCC 6 DEPOSIT TOTAL RWY DRY -TRL 60 -RWY 13R AND RWY 31L CLOSED FOR DEPARTURE AND LANDING: TAXIING BTN THR RWY 13R AND INTERSECTION RWY 24 POSSIBLE : -04003KT -CAVOK - - -T24 DP13 -QNH1024 - -TREND NOSIG",
    "EBLG": "[Arrival ATIS] EBLG ATIS S 1437Z EBLG INFO, EXP RNAV TO ILS APP ARR RWY04R DEP RWY04R RWY 04R DRY, RWYCC 666. TRL 055 ADZ ON GND FREQ IF UNABLE S2 350/7KT VRB BTN 280 AND 010 VIS ABV 10KM FEW3900FT T25 DP15 QNH 1019HPA NOSIG CFM ATIS S",
    "LSZH": "[Arrival ATIS] LSZH ARR ATIS H 1150Z ARRIVALS, EXP ILS APCH, RWY 14. TRL 70. DEP RWY 28. WIND 080 DEG, 4 KT, VRB BTN 040 AND 110 DEG. CAVOK. T 27. DP 10. QNH 1018. NOSIG.\n[Departure ATIS] LSZH DEP ATIS T 1150Z DEP RWY 28. TRL 70. ARRIVALS, EXP ILS APCH, RWY 14. TMA S 1 IS NOT ACT. TMA S 2 AND S 3 ARE NOT ACT. WIND 070 DEG, 3 KT, VRB BTN 040 AND 110 DEG. CAVOK. T 27. DP 10. QNH 1018. NOSIG.",
    "LIMC": "[Arrival ATIS] LIMC ARR ATIS F 0022Z LIMC ARR F 0022Z I.L.S. ZULU RWY IN USE 35R RCR AT 2200Z 5/5/5 WET WET WET TL 70 TAXIWAY ECHO WHISKY CLOSED... WIND TDZ VRB2KT VRB BTN 320/AND 060/ CAVOK T22 DP20 QNH 1020HPA QFE 0994HPA RWY 35L CLSD\n[Departure ATIS] LIMC DEP ATIS P 1550Z LIMC DEP P 1550Z RWY IN USE 35R TL 70 WIND END 220/10KT CAVOK T32 DP09 QNH 1015HPA QFE 0990HPA DATALINK CLEARANCE AVAILABLE.... CONTACT 1 3 1 8 8 0 TO BE RELEASED BY THE AIRPORT OPERATOR ...",
    "LIRF": "[Arrival ATIS] LIRF ARR ATIS G 1450Z LIRF ARR G 1450Z RWY 16L ILS W RWY 16R ILS Z RWY IN USE 16L 16R TL 75 DEPENDENT PARL ILS APCH INPR RWY IN USE 16R OR 16L ASSIGNED BY ROME RADAR WIND RWY 16L TDZ 220/8KT RWY 16R TDZ 240/8KT VRB BTN 200/AND 270/ CAVOK T29 DP20 QNH 1012HPA RRSM\n[Departure ATIS] LIRF DEP ATIS J 0750Z LIRF DEP J 0750Z RWY IN USE 25 TL 70 RWYS IN USE FOR ARR 16L AND 16R WIND END 230/5KT VRB BTN 200/AND 290/ VIS 10KM CLD FEW 1500FT T27 DP23 QNH 1014HPA REA IS SENT AUTOMATICALLY ONCE RLSD BY RAMP WHEN READY CONTACT FIUME RAMP 121.725",
    "EINN": "[Arrival ATIS] EINN ARR ATIS O 0000Z EXPECT I L S CATEGORY 1 LDG RWY24 TKOF RWY24 TRL FL065 23005KT 210V280 9999 FEW014 13/11 QNH Q1012 TREND NOSIG ADVISE AT FIRST CONTACT YOU HAVE ATIS INFO O",
    "EGLL": "[Arrival ATIS] EGLL ARR ATIS D 1150Z LANDING RWY 27L TRANSITION-LEVEL: FL 70 RUNWAY 27R REDUCED DECLARED DISTANCES WITH TAKE OFF RUN AVAILABLE 3362METRES AND LANDING DISTANCE AVAILABLE 3362METRES IF STAND GUIDANCE IS OFF OR FAILS, REMAIN ON THE TAXIWAY CENTRELINE AND ADVISE ATC AUTO VRB03KT 9999 NCD 29/13 Q1020 ACKNOWLEDGE RECEIPT OF INFORMATION D\n[Departure ATIS] EGLL DEP ATIS R 1220Z DEPARTURE RWY 27R RUNWAY 27R REDUCED DECLARED DISTANCES WITH TAKE OFF RUN AVAILABLE 3362METRES AND LANDING DISTANCE AVAILABLE 3362METRES PILOTS THAT ARE IN RECEIPT OF DATALINK CLEARANCES ARE REMINDED THEY MUST CONTACT DELIVERY ON 121.980 WHEN READY FOR START AUTO 20006KT 150V260 9999 NCD 29/13 Q1019 ACKNOWLEDGE RECEIPT OF INFORMATION R AND REPORT AIRCRAFT TYPE AND CURRENT QNH ON FIRST CONTACT WITH HEATHROW",
    "EPWA": "[Arrival ATIS] EPWA ARR ATIS H 0001Z EPWA ARR H. TIME 0000. EXP N ARR ILS Z APCH FOR RWY 11. TRANSITION LEVEL 80. WIND 130 DEG, 4 KT. CAVOK. T 18. DP 14. QNH 1021. NOSIG. CAUTION. BIRD ACT. END OF EPWA ARR H\n[Departure ATIS] EPWA DEP ATIS Y 1439Z EPWA DEP Y. TIME 1439. DEP RWY 29. ARR RWY 33, EXP U ARR ILS Z. REPORT READY FOR STARTUP ON DELIVERY 121. 605. RWY 29 RCC 5, 5, 5. 1ST PART, WET. 2ND PART, WET. 3RD PART, WET. RWY REPORT END. TRANSITION LEVEL 80. WIND 280 DEG, 15 KT. VIS MID 10 KM OR MORE. CLD FEW 1500 FT, CLD SCT CB 3800 FT. T 16. DP 11. QNH 1006. RESHRA. TREND TEMPO WIND 300 DEG, 22 KT, GUSTING TO 35 KT. CAUTION. BIRD ACT. END OF EPWA DEP Y",
    "EFHK": "[Arrival ATIS] EFHK ARR ATIS Q 2350Z EXPECT ILS APCH ARR RWY 15 RUNWAY 15 CONDITION REPORT AT 2040 UTC RUNWAY CONDITION CODES 6 , 6 , 6 CONTAMINANTS ALL PARTS DRY TRL 60 OBSERVE TAILWIND ON FINAL RWY15 WIND 220 DEG 3 KT CAVOK T 12 DP 10 QNH 1018 NOSIG ACK INFO Q\n[Departure ATIS] EFHK DEP ATIS H 1620Z DEP RWYS 22R AND 22L RUNWAY 22R CONDITION REPORT AT 1329 UTC RUNWAY CONDITION CODES 6 , 6 , 6 CONTAMINANTS ALL PARTS DRY RUNWAY 22L CONDITION REPORT AT 1330 UTC RUNWAY CONDITION CODES 6 , 6 , 6 CONTAMINANTS ALL PARTS DRY WIND 110 DEG 6 KT VIS 10KM FEW 1400 FT. SCT 1600 FT. FEW TCU 2800 FT T 19 DP 15 QNH 1003 TEMPO CLD FEW CB 3000 FT. ACK INFO H",
    "LTAC": "[Arrival ATIS] LTAC ARR ATIS S 2320Z EXP ILS V APCH 03C DEP RWY 03L RWY 03C WIND 040 DEG 07 KT RWY 03L WIND 030 DEG 06 KT TRL 110 VIS 9999 SCT04000 FT SCT10000 FT T 15 DP 11 QNH 1018 NOSIG FOR DELIVERY CTC 121.9. FOR DELIVERY FIRST USE DIGITAL DEP CLR. CTN BIRD HAZARD OVR AERODROME. APCH FREQUENCY 129.050. TAXIWAY ECHO 1 IS CLOSED. END OF ATIS S",
    "UBBB": "[Arrival ATIS] UBBB ARR ATIS I 1430Z ATIS I EXP ILS/ LDG 34 35 DEP 34 35 IN USE RWY 34 CLEAR DRY 70 RWY 35 CLEAR DRY 70 TLVL 110 WIND WIND RWY 34 350 20 KT SPD MAX 26 MIN 14 WIND RWY 35 330 20 KT SPD MAX 24 MIN 10 VIS 10 KM BKN 1300 FT RWY 34 BKN 1300 FT RWY 35 T 24 / DP 21 QNH 1007 HPA TREND TREND NOSIG MODERATE BIRDS ACT IN VICINITY OF AP END OF ATIS I\n[Departure ATIS] UBBB DEP ATIS G 1009Z ATIS G EXP ILS/ LDG 34 35 DEP 34 35 IN USE RWY 34 CLEAR DRY 70 RWY 35 CLEAR DRY 70 TLVL 110 WIND WIND RWY 34 340 26 KT SPD MAX 32 MIN 16 WIND RWY 35 330 22 KT SPD MAX 30 MIN 16 VIS 10 KM SCT HEIGHT OF CLD BASE NOT AVBL RWY 34 SCT 2500 FT RWY 35 T 27 / DP 20 QNH 1007 HPA TREND TREND NOSIG MODERATE BIRDS ACT IN VICINITY OF AP END OF ATIS G",
    "ZWWW": "[Arrival ATIS] ZWWW ARR ATIS E 0000Z EXP ILSDME Z APCH LDG RWY 26R TA 3000 WIND 180/4MPS VRB BTN 160/ AND 220/ CAVOK T 28 /DP 08 QNH 1010 HPA ADZ YOU HAVE INFO E.\n[Departure ATIS] ZWWW DEP ATIS Y 2300Z DEP RWY 26L TA 3000 WIND 170/3MPS VRB BTN 150/ AND 230/ CAVOK T 27 /DP 07 QNH 1010 HPA ADZ YOU HAVE INFO Y.",
    "ZLXY": "[Arrival ATIS] ZLXY ARR ATIS B 2300Z EXP ILS APCH LDG RWY 23R WIND 090/2MPS CAVOK T 24 /DP 19 QNH 1008 HPA VISUAL APPROACH IN PROGRESS ADZ YOU HAVE INFO B.\n[Departure ATIS] ZLXY DEP ATIS G 0600Z DEP RWY 05L & 06L WIND VRB/1MPS VIS 9999M CLD SCT 1500M T 29 /DP 19 QNH 1005 HPA VISUAL APPROACH IN PROGRESS ADZ YOU HAVE INFO G.",
    "ZBAA": "[Arrival ATIS] ZBAA ARR ATIS D 1430Z EXP ILS APCH DEPENDENT PARL INSTR APCH LDG RWY 36L & 36R & 01 WIND 000 DEG 0 MPS CAVOK T 27 /DP 24 QNH 1000 HPA VISUAL APPROACH IS IN PROGRESS. ADZ YOU HAVE INFO D.\n[Departure ATIS] ZBAA DEP ATIS A 1300Z DEP RWY 36L & 36R & 01 WIND 130 DEG 2 MPS CAVOK T 29 /DP 24 QNH 1000 HPA RWY INDEPENDENT PARALLEL DEP VISUAL APPROACH IS IN PROGRESS. ADZ YOU HAVE INFO A.",
    "ZBHH": "[Arrival ATIS] ZBHH ARR ATIS T 2300Z EXP ILSDME APCH LDG RWY 26 TA 3000 /TRL 3600 WIND 330/5MPS VRB BTN 280/ AND 360/ CAVOK T 10 /DP M01 QNH 1015 HPA ADZ YOU HAVE INFO T.\n[Departure ATIS] ZBHH DEP ATIS T 2300Z DEP RWY 26 TA 3000 /TRL 3600 WIND 330/5MPS VRB BTN 280/ AND 360/ CAVOK T 10 /DP M01 QNH 1015 HPA ADZ YOU HAVE INFO T.",
    "ZSQD": "[Arrival ATIS] ZSQD ARR ATIS T 2300Z EXP ILSDME APCH LDG RWY 35 TA 3000 /TRL 3600 WIND 300/3MPS CAVOK T 24 /DP 18 QNH 1003 HPA VISUAL APPROACH OPERATION IN PROGRESS. RUNWAY 35,IF MISSED APPROACH,EXPECT FOLLOW THE STANDARD MISSED APPROACH PROCEDURE,CLIMB TO 1200M ON QNH OR BY ATC CAUTION MAYBE THERE IS A FLOCK OF BIRDS IN THE VICINITY OF AIRPORT ADZ YOU HAVE INFO T.\n[Departure ATIS] ZSQD DEP ATIS W 0900Z DEP RWY 16 TA 3000 /TRL 3600 WIND 140/2MPS VRB BTN 100/ AND 170/ VIS 9999M CLD BKN 900M T 25 /DP 19 QNH 1002 HPA SEGREGATED OPERATION VISUAL APPROACH OPERATION IN PROGRESS. RUNWAY 17,IF MISSED APPROACH,EXPECT FOLLOW THE STANDARD MISSED APPROACH PROCEDURE,CLIMB TO 900M ON QNH OR BY ATC CAUTION MAYBE THERE IS A FLOCK OF BIRDS IN THE VICINITY OF AIRPORT ADZ YOU HAVE INFO W."
  },
  "windtemp_alaska": "\n000\nFBAK31 KWNO 081400\nFD1AK1\nDATA BASED ON 081200Z    \nVALID 081800Z   FOR USE 1400-2100Z. TEMPS NEG ABV 24000\n\nFT  3000    6000    9000   12000   18000   24000  30000  34000  39000\nADK 9900 9900+03 2105+02 2310-01 2419-15 2532-26 264542 265052 255158\nADQ 1309 1505+02 9900-02 1605-08 1410-20 1219-33 132246 201344 251542\nAKN 2905 2905+00 2605-05 1205-10 0923-21 1033-33 113346 111244 230642\nANC 1512 1720+02 1913-03 1506-09 0709-20 0313-32 011248 990049 990043\nANN 2116 2216-01 2520-06 2629-11 2855-22 2877-30 287844 287247 283943\nBET 9900 3510+01 0411-03 0615-07 0612-20 0716-32 093247 092150 990044\nBRW 9900 2410+06 2312-01 2212-06 2017-18 2025-30 204747 204454 201747\nBTI 3409 3110+10 3009+02 2805-04 1809-16 1807-28 200645 200954 201651\nBTT 0507 0709+09 0809+01 0607-06 1305-17 1711-29 162846 154255 141751\nCDB 3031 3137+00 3042-03 3045-07 2958-20 2972-32 288044 286646 284643\nCZF 3515 0310+03 0512-02 0417-08 0708-19 1107-31 121947 131652 990045\nEHM 3213 3514+00 3618-04 0119-09 0421-22 0630-33 062846 041344 301142\nFAI 2117 1308+05 0914+01 1015-04 1113-17 1028-30 114946 114656 131648\nFYU 1205 1006+09 0807+01 0706-05 1010-16 1019-28 142845 143755 121949\nGAL 3107 0805+07 0908+00 0906-06 1114-18 1217-30 112747 112755 121248\nGKN 1716 2013+01 2109-02 1806-07 1316-21 1135-32 116349 113348 121144\nHOM 1215 1317+01 1225-04 1124-09 1013-19 1012-31 101447 121150 230743\nJNU 1610 1908-02 2506-05 9900-10 0915-23 0625-36 060543 301141 241042\nLUR 1907 1910+05 1808-01 1810-07 1913-20 1715-32 161149 171752 171345\nMCG 2721 3313+04 0215-01 0515-06 0716-18 0813-31 072248 082053 111046\nMDO 1312 1315+00 1315-04 1117-08 0911-21 3416-32 292447 281549 270643\nOME 0405 9900+04 9900-02 1706-07 1510-19 1615-32 162346 172154 170946\nORT      2708+05 9900+00 9900-06 0813-19 0930-30 106147 115552 122146\nOTZ 9900 9900+04 9900-01 2009-07 2113-19 2013-32 211947 202353 171446\nSNP 2921 2916-01 3015-03 3020-07 3030-19 2937-31 294547 284153 282946\nTKA 1816 2113+00 2106-03 9900-08 0810-20 0407-33 051448 101749 090844\nUNK 2505 9900+05 1305+00 1007-06 1214-19 1013-31 111846 131655 131147\nYAK 2407 2712-01 2807-04 1805-09 1222-22 1030-36 092646 990043 220642\nIKO 3314 3117+03 2923+01 2832-02 2844-15 2850-29 286643 278250 277555\nAFM 9900 1605+08 1410+00 1512-06 1816-18 1823-30 174146 173455 161948\n5AB 2609 2505+02 2411+01 2415-04 2325-17 2336-27 234642 235352 244657\n5AC 2029 2132+01 2635+02 2637-03 2857-14 2863-25 287540 299147 288956\n5AD 2821 2729+05 2732+02 2734-03 2845-17 2751-29 286543 277347 277047\n5AE 2923 2815-02 2728-02 2737-06 2650-20 2757-33 277644 276143 264942\n5AF 1706 1908+00 2205-04 2707-10 2841-19 2855-30 285545 285948 283844\n5AG 1516 1413-01 1413-05 1213-10 3606-20 2927-31 283246 282648 281742\n",
  "vaac_tokyo": [
    {
      "id": "20260708_30027000_0250",
      "year": "2026",
      "volcano": "Sheveluch",
      "psn": "N5639 E16122",
      "issued": "20260708",
      "text": "FVFE01 RJTD 081200\nVA ADVISORY\nDTG: 20260708/1200Z\nVAAC: TOKYO\nVOLCANO: SHEVELUCH 300270\nPSN: N5639 E16122\nAREA: RUSSIA\nSOURCE ELEV: 3283M AMSL\nADVISORY NR: 2026/250\nINFO SOURCE: HIMAWARI-9\nERUPTION DETAILS: VA CONTINUOUSLY OBS IN SATELLITE IMAGERY\nOBS VA DTG: 08/1120Z\nOBS VA CLD: SFC/FL280 N4932 E16000 - N5148 E16308 - N5423 E16933 - \nN5505 E17221 - N5306 E16745 - N5124 E16330 - N4901 E16026 MOV S 15KT \nSFC/FL230 N5012 E15831 - N5147 E16001 - N5139 E16025 - N4958 E15846 \nMOV S 35KT\nFCST VA CLD +6 HR: 08/1720Z SFC/FL280 N5555 E17556 - N5122 E16443 - \nN4646 E16257 - N4644 E16020 - N5129 E16251 - N5527 E17145 SFC/FL230 \nN5039 E16039 - N4856 E16039 - N4702 E15922 - N4719 E15818 - N4901 \nE15944 - N5038 E15950\nFCST VA CLD +12 HR: 08/2320Z SFC/FL280 N5645 W17953 - N5244 E16736 - \nN4651 E16724 - N4426 E16156 - N5133 E16228 - N5635 E17408 SFC/FL220 \nN4702 E16223 - N4456 E16046 - N4502 E15939 - N4745 E16119 - N4914 \nE16026 - N4946 E16119\nFCST VA CLD +18 HR: NO VA EXP\nRMK: THE RESPONSIBILITY FOR VA(FL280) IS BEING TRANSFERRED TO VAAC \nANCHORAGE. THE NEXT ADVISORY FOR THIS VA WILL BE ISSUED BY VAAC \nANCHORAGE BY 1800UTC UNDER HEADER FVAK21 PAWU. NORTHERN PART OF \nVA(FL230) OBSCURED BY MET CLOUD.\nNXT ADVISORY: 20260708/1800Z=",
      "img_url": "https://ds.data.jma.go.jp/svd/vaac/data/VAGFN/2026/Images/20260708_30027000_0250_QH21_01.png",
      "sat_img_url": "https://ds.data.jma.go.jp/svd/vaac/data/Sat/2026/Images/30027000/09-ir/20260708_1120_202607081200_ir.png",
      "text_url": "https://ds.data.jma.go.jp/svd/vaac/data/TextData/2026/20260708_30027000_0250_Text.html"
    },
    {
      "id": "20260706_27202000_0232",
      "year": "2026",
      "volcano": "Kanlaon",
      "psn": "N1025 E12308",
      "issued": "20260706",
      "text": "FVFE01 RJTD 061545\nVA ADVISORY\nDTG: 20260706/1545Z\nVAAC: TOKYO\nVOLCANO: KANLAON 272020\nPSN: N1025 E12308\nAREA: PHILIPPINES\nSOURCE ELEV: 2435M AMSL\nADVISORY NR: 2026/232\nINFO SOURCE: HIMAWARI-9 PHIVOLCS\nERUPTION DETAILS: ERUPTION AT 20260706/1520Z FL100 EXTD SW REPORTED\nOBS VA DTG: 06/1530Z\nOBS VA CLD: VA NOT IDENTIFIABLE FM SATELLITE DATA WIND FL100 350/5KT\nFCST VA CLD +6 HR: NOT AVBL\nFCST VA CLD +12 HR: NOT AVBL\nFCST VA CLD +18 HR: NOT AVBL\nRMK: WE WILL ISSUE FURTHER ADVISORY IF VA IS DETECTED IN SATELLITE \nIMAGERY.\nNXT ADVISORY: NO FURTHER ADVISORIES=",
      "img_url": "https://ds.data.jma.go.jp/svd/vaac/data/VAGFN/2026/Images/20260706_27202000_0232_QH21_01.png",
      "sat_img_url": null,
      "text_url": "https://ds.data.jma.go.jp/svd/vaac/data/TextData/2026/20260706_27202000_0232_Text.html"
    },
    {
      "id": "20260705_27303000_0717",
      "year": "2026",
      "volcano": "Mayon",
      "psn": "N1315 E12341",
      "issued": "20260705",
      "text": "FVFE01 RJTD 051936\nVA ADVISORY\nDTG: 20260705/1936Z\nVAAC: TOKYO\nVOLCANO: MAYON 273030\nPSN: N1315 E12341\nAREA: PHILIPPINES\nSOURCE ELEV: 2462M AMSL\nADVISORY NR: 2026/717\nINFO SOURCE: HIMAWARI-9 PHIVOLCS\nERUPTION DETAILS: ERUPTION AT 20260705/1914Z FL090 EXTD WSW REPORTED\nOBS VA DTG: 05/1920Z\nOBS VA CLD: VA NOT IDENTIFIABLE FM SATELLITE DATA WIND FL090 050/8KT\nFCST VA CLD +6 HR: NOT AVBL\nFCST VA CLD +12 HR: NOT AVBL\nFCST VA CLD +18 HR: NOT AVBL\nRMK: WE WILL ISSUE FURTHER ADVISORY IF VA IS DETECTED IN SATELLITE \nIMAGERY.\nNXT ADVISORY: NO FURTHER ADVISORIES=",
      "img_url": "https://ds.data.jma.go.jp/svd/vaac/data/VAGFN/2026/Images/20260705_27303000_0717_QH21_01.png",
      "sat_img_url": null,
      "text_url": "https://ds.data.jma.go.jp/svd/vaac/data/TextData/2026/20260705_27303000_0717_Text.html"
    },
    {
      "id": "20260701_30006000_0001",
      "year": "2026",
      "volcano": "Mutnovsky",
      "psn": "N5227 E15812",
      "issued": "20260701",
      "text": "FVFE01 RJTD 012206\nVA ADVISORY\nDTG: 20260701/2206Z\nVAAC: TOKYO\nVOLCANO: MUTNOVSKY 300060\nPSN: N5227 E15812\nAREA: RUSSIA\nSOURCE ELEV: 2288M AMSL\nADVISORY NR: 2026/1\nINFO SOURCE: KVERT KBGS UHPP HIMAWARI-9\nERUPTION DETAILS: ERUPTION AT 20260701/2016Z FL170 EXTD W REPORTED\nOBS VA DTG: 01/2140Z\nOBS VA CLD: VA NOT IDENTIFIABLE FM SATELLITE DATA WIND FL170 120/8KT\nFCST VA CLD +6 HR: NOT AVBL\nFCST VA CLD +12 HR: NOT AVBL\nFCST VA CLD +18 HR: NOT AVBL\nRMK: WE WILL ISSUE FURTHER ADVISORY IF VA IS DETECTED IN SATELLITE \nIMAGERY.\nNXT ADVISORY: NO FURTHER ADVISORIES=",
      "img_url": "https://ds.data.jma.go.jp/svd/vaac/data/VAGFN/2026/Images/20260701_30006000_0001_QH21_01.png",
      "sat_img_url": null,
      "text_url": "https://ds.data.jma.go.jp/svd/vaac/data/TextData/2026/20260701_30006000_0001_Text.html"
    }
  ],
  "vaac_alaska": [
    {
      "text": "\n000\nFVAK21 PAWU 081218\nVAAAK1\nVA ADVISORY\n\nDTG: 20260708/1215Z\n\nVAAC: ANCHORAGE\n\nVOLCANO: SHEVELUCH 300270\n\nPSN: N5639 E16122\n\nAREA: KAMCHATKA PENINSULA\n\nSOURCE ELEV: 10771 FT AMSL\n\nADVISORY NR: 2026/185\n\nRMK: PLEASE SEE FVFE01 RJTD ISSUED BY VAAC TOKYO WHICH DESCRIBES\nCONDITIONS NEAR THE VAAC ANCHORAGE AREA OF RESPONSIBILITY...TS\n\n\n\n",
      "issued": "2026-07-08T12:18:00+00:00",
      "volcano": "Sheveluch",
      "psn": "N5639 E16122"
    }
  ]
}