{
  "updated_utc": "2026-07-09T23:48Z",
  "metar": {
    "RJAA": "METAR RJAA 092200Z 18006KT 150V220 9999 FEW030 25/22 Q1016 NOSIG",
    "PANC": "METAR PANC 092153Z 24003KT 10SM BKN012 OVC060 12/09 A2993 RMK AO2 SLP134 T01220094",
    "PAFA": "METAR PAFA 092153Z 23006KT 7SM BKN008 OVC011 14/12 A2986 RMK AO2 SLP116 T01440122 $",
    "PAED": "METAR PAED 092155Z 29004KT 10SM -SHRA OVC016 13/09 A2991 RMK AO2A SLP124 PCPN VRY LGT P0000 T01310090 $",
    "KSEA": "METAR KSEA 092153Z 28007KT 10SM FEW050 FEW100 SCT230 23/11 A3009 RMK AO2 SLP192 T02330106 $",
    "ZSPD": "METAR ZSPD 092200Z 15003MPS CAVOK 26/26 Q1006 NOSIG",
    "ZSSS": "METAR ZSSS 092200Z 16004MPS 9999 SCT013 27/25 Q1006 NOSIG",
    "RJFR": "METAR RJFR 092200Z 07010KT 9999 FEW005 SCT040 26/24 Q1013",
    "VHHH": "METAR VHHH 092200Z 07003KT 9999 VCSH FEW012 SCT025 28/26 Q1004 TEMPO 4000 SHRA FEW010CB SCT020",
    "RCTP": "METAR RCTP 092200Z 05012KT 9999 VCSH SCT012 BKN025 29/26 Q1003 NOSIG RMK QFF 1003.4HPA A2963",
    "ZGSZ": "METAR ZGSZ 092200Z 14002MPS 9999 FEW040 28/27 Q1004 NOSIG",
    "WSSS": "METAR WSSS 092200Z 11004KT 9999 FEW016 BKN300 28/25 Q1011 NOSIG",
    "WMKK": "METAR WMKK 092200Z VRB02KT 9999 FEW017CB 27/25 Q1010 NOSIG",
    "WIDD": "METAR WIDD 092200Z 13002KT 9999 FEW014 26/26 Q1011 NOSIG",
    "VTBS": "METAR VTBS 092200Z 22008KT 9999 FEW020 29/21 Q1007 NOSIG",
    "VTBU": "METAR VTBU 092200Z 26007KT 9000 FEW020 29/25 Q1008 NOSIG",
    "ROAH": "METAR ROAH 092200Z 08024KT 9999 FEW019 SCT030 BKN040 30/26 Q1000",
    "VVDN": "METAR VVDN 092200Z 24001KT 9999 FEW020 BKN070 28/23 Q1003 NOSIG",
    "RCKH": "METAR RCKH 092200Z 33007KT 290V350 9999 FEW015 SCT030 BKN200 29/25 Q1001 NOSIG RMK QFF 1001.4HPA A2957",
    "KLAX": "METAR KLAX 092153Z 24008KT 9SM FEW008 SCT011 23/17 A2988 RMK AO2 SLP115 T02280167 $",
    "KONT": "METAR KONT 092153Z 25011G18KT 10SM CLR 34/14 A2985 RMK AO2 SLP088 T03440144 $",
    "KSFO": "METAR KSFO 092156Z 29020KT 10SM FEW005 18/11 A2993 RMK AO2 PK WND 30027/2119 SLP135 T01780111",
    "KOAK": "METAR KOAK 092153Z 27014KT 10SM FEW007 FEW200 19/12 A2993 RMK AO2 SLP135 T01940122",
    "KMHR": "METAR KMHR 092155Z AUTO 32006KT 10SM CLR 36/09 A2984 RMK AO2 T03570085 $",
    "KDFW": "METAR KDFW 092153Z 19013G18KT 10SM FEW080 38/17 A2990 RMK AO2 SLP113 T03830172 $",
    "KIAH": "METAR KIAH 092153Z 17006KT 10SM SCT047 SCT100 SCT250 34/23 A3000 RMK AO2 RAB07E20 TSE03 SLP158 P0000 T03390228",
    "KORD": "METAR KORD 092151Z 24006KT 10SM SCT040 OVC250 30/21 A2983 RMK AO2 SLP095 CB DSNT N MOV E T03000211 $",
    "KJFK": "METAR KJFK 092151Z 20010KT 10SM -RA SCT025 BKN085 BKN110 OVC140 23/22 A2984 RMK SLP105 P0002 T02280217",
    "KRFD": "METAR KRFD 092154Z 26007KT 10SM FEW039 OVC250 29/21 A2985 RMK AO2 SLP103 T02890211",
    "KIND": "METAR KIND 092154Z 23010KT 10SM SCT040 SCT130 BKN250 30/21 A2990 RMK AO2 SLP116 CB DSNT S MOV E T03000211",
    "KDTW": "METAR KDTW 092153Z 22008KT 10SM FEW060 SCT095 BKN230 28/22 A2985 RMK AO2 SLP102 T02830222",
    "KMSP": "METAR KMSP 092153Z 04007KT 10SM FEW065 SCT250 28/13 A2988 RMK AO2 SLP113 T02830133",
    "CYEG": "METAR CYEG 092200Z VRB02KT 20SM SCT030 BKN250 20/13 A2987 RMK CU4CI3 SLP120 DENSITY ALT 3600FT",
    "EHAM": "METAR EHAM 092155Z 08005KT CAVOK 18/16 Q1018 NOSIG",
    "EBBR": "METAR EBBR 092150Z 07002KT CAVOK 20/14 Q1017 NOSIG",
    "EDDF": "METAR EDDF 092150Z AUTO 02012KT CAVOK 21/13 Q1017 NOSIG",
    "EDFH": "METAR EDFH 092150Z 02008KT CAVOK 18/13 Q1018",
    "EDDL": "METAR EDDL 092150Z AUTO 01003KT CAVOK 18/14 Q1018 NOSIG",
    "EDDK": "METAR EDDK 092150Z AUTO 06005KT CAVOK 16/13 Q1018 NOSIG",
    "EBLG": "METAR EBLG 092150Z 07005KT CAVOK 21/14 Q1018 NOSIG",
    "LSZH": "METAR LSZH 092150Z AUTO 01005KT CAVOK 24/12 Q1016 NOSIG",
    "LIMC": "METAR LIMC 092150Z 03004KT CAVOK 25/17 Q1012 NOSIG",
    "LIRF": "METAR LIRF 092150Z VRB02KT CAVOK 24/23 Q1011 NOSIG",
    "EINN": "METAR EINN 092200Z 34003KT CAVOK 18/15 Q1018 NOSIG",
    "EGLL": "METAR EGLL 092150Z AUTO 17006KT 140V200 9999 NCD 26/16 Q1016",
    "EGSS": "METAR EGSS 092150Z AUTO 12010KT 090V180 9999 NCD 22/16 Q1017",
    "EPWA": "METAR EPWA 092200Z 27006KT 9999 -RA NSC 14/13 Q1011 NOSIG",
    "UHPP": "METAR UHPP 092200Z 34003MPS 310V010 9999 BKN090 17/11 Q1013 R34L/CLRD62 NOSIG RMK MT OBSC QFE756/1008",
    "EFHK": "METAR EFHK 092150Z 34002KT 9999 SCT002 14/14 Q1012 BECMG 1400 BR OVC002",
    "LBBG": "METAR LBBG 092200Z AUTO 26003KT 230V310 9999 NSC 16/13 Q1011 NOSIG",
    "LTAC": "METAR LTAC 092150Z 29004KT 240V020 CAVOK 20/10 Q1011 NOSIG RMK RWY21C 32002KT RWY03L 25004KT 230V300 RWY21R VRB02KT RWY03R 19003KT RWY21L 29003KT",
    "UBBB": "METAR UBBB 092200Z 31004KT CAVOK 23/20 Q1008 NOSIG",
    "UTAA": "METAR UTAA 092200Z 29020KT 9999 NSC 32/15 Q1006 R88/CLRD70 NOSIG",
    "UACC": "METAR UACC 092200Z 07003MPS CAVOK 14/09 Q1019 NOSIG RMK QFE733/0977",
    "UAAA": "METAR UAAA 092200Z 00000MPS 9999 SCT100 19/14 Q1012 NOSIG",
    "UZTT": "METAR UZTT 092200Z 07006KT CAVOK 24/13 Q1005 NOSIG",
    "ZWWW": "METAR ZWWW 092200Z 18003MPS CAVOK 23/12 Q1010 NOSIG",
    "ZLXY": "METAR ZLXY 092200Z 03003MPS CAVOK 27/23 Q0998 NOSIG",
    "ZBAA": "METAR ZBAA 092200Z VRB01MPS 9999 SCT026 25/23 Q1001 NOSIG",
    "ZBHH": "METAR ZBHH 092200Z VRB01MPS 8000 -SHRA SCT040 18/17 Q1007 NOSIG",
    "ZSQD": "METAR ZSQD 092200Z 15004MPS 3500 BR SCT006 25/25 Q1005 NOSIG",
    "ZMCK": "METAR ZMCK 092200Z 09005MPS CAVOK 13/10 Q1007 NOSIG RMK QFE640.9 79",
    "UUEE": "METAR UUEE 092200Z 07003MPS 9999 -RA NSC 17/16 Q1013 R06R/CLRD62 R06C/CLRD62 NOSIG",
    "UUDD": "METAR UUDD 092200Z 28002MPS 190V320 CAVOK 18/17 Q1013 R13R/290045 NOSIG",
    "ULLI": "METAR ULLI 092200Z 00000MPS CAVOK 12/09 Q1013 R88/090065 NOSIG",
    "USSS": "METAR USSS 092200Z 09003MPS 9999 SCT040CB 21/21 Q1016 R08R/CLRD60 R08L/CLRD60 TEMPO VRB23MPS -TSRA SQ RMK QFE742/0990",
    "UNNT": "METAR UNNT 092200Z 31003MPS CAVOK 09/09 Q1019 R25/CLRD// R34/////// NOSIG RMK QFE754/1005",
    "UNKL": "METAR UNKL 092200Z 28001MPS CAVOK 08/08 Q1017 R29/CLRD// NOSIG RMK QFE737",
    "UIBB": "METAR UIBB 092200Z 31003MPS 9999 NSC 10/08 Q1011 R12/210160 NOSIG RMK QFE716/0954",
    "UEEE": "METAR UEEE 092200Z 32002MPS CAVOK 26/19 Q0998 R23/09//63 NOSIG RMK QFE740",
    "UHHH": "METAR UHHH 092200Z 12002MPS 9999 FEW040CB 23/22 Q1005 R88/090060 NOSIG RMK QFE748/0997",
    "UHSS": "METAR UHSS 092200Z 24002MPS 210V280 9999 BKN032 20/19 Q1012 R19/290060 NOSIG RMK MT OBSC QFE757/1010"
  },
  "taf": {
    "RJAA": "TAF RJAA 092305Z 1000/1106 15012KT 9999 FEW030 TEMPO 1015/1021 4000 BR FEW003 BKN008",
    "PANC": "TAF PANC 092322Z 1000/1106 22003KT P6SM BKN015 BKN025 OVC060 FM100300 30005KT P6SM SCT025 OVC050 FM100800 23004KT P6SM FEW015 OVC070",
    "PAFA": "TAF PAFA 092320Z 1000/1106 21005KT P6SM OVC010 FM100600 16003KT P6SM OVC050",
    "PAED": "TAF PAED 092100Z 0921/1103 20007KT 9999 -SHRA SCT010 BKN017 OVC025 620179 QNH2989INS BECMG 1000/1001 20005KT 9999 VCSH SCT015 OVC025 620258 QNH2990INS BECMG 1003/1004 24006KT 9999 NSW FEW015 SCT100 BKN200 QNH2990INS BECMG 1010/1011 19004KT 4800 BR SCT007 BKN020 QNH2992INS BECMG 1019/1020 21005KT 9999 NSW FEW015 QNH2983INS TX14/1001Z TN11/1013Z",
    "KSEA": "TAF KSEA 092320Z 1000/1106 28009KT P6SM FEW030 BKN120 FM100300 30006KT P6SM FEW250 FM101000 22005KT P6SM SCT020 BKN060 FM101200 22005KT P6SM SCT009 BKN015 FM101700 21007KT P6SM OVC020 FM102100 23008KT P6SM OVC035",
    "ZSPD": "TAF ZSPD 092108Z 1000/1106 13004MPS 8000 BKN030 TX32/1006Z TX31/1106Z TN26/1021Z BECMG 1016/1017 07004MPS BECMG 1023/1024 08009G15MPS",
    "ZSSS": "TAF ZSSS 092108Z 1000/1106 13004MPS 8000 BKN030 TX33/1006Z TX32/1106Z TN26/1021Z BECMG 1015/1016 08004MPS BECMG 1102/1103 08008G13MPS",
    "RJFR": "TAF RJFR 092305Z 1000/1106 09014KT 9999 FEW020 BECMG 1002/1004 06014KT TEMPO 1006/1009 4000 -TSRA BR BKN015 FEW030CB BECMG 1012/1015 10017KT",
    "VHHH": "TAF VHHH 092300Z 1000/1106 09010KT 9999 FEW015 TX33/1006Z TX34/1106Z TN28/1022Z TEMPO 1000/1002 VRB15G25KT 3000 TSRA SHRA FEW010CB SCT020 BECMG 1002/1004 26010KT BECMG 1009/1011 18010KT TEMPO 1016/1022 VRB05KT BECMG 1022/1024 28010KT",
    "RCTP": "TAF COR RCTP 092300Z 1000/1106 06010KT 9999 FEW015 BKN032 TEMPO 1002/1008 05013G28KT 5000 SHRA FEW010 BKN020 BECMG 1008/1010 04015G25KT 6000 FEW010 BKN022 BKN040 TEMPO 1010/1016 02020G30KT 4000 SHRA SCT006 FEW010CB BKN012 BECMG 1016/1018 01025G35KT 5000 RA SCT006 BKN011 TEMPO 1018/1024 34030G42KT 2800 +SHRA SCT004 BKN007 FEW010CB TEMPO 1100/1106 33038G52KT 2200 +SHRA SCT003 BKN006 FEW010CB",
    "ZGSZ": "TAF AMD ZGSZ 092327Z 1000/1106 19004MPS 8000 SCT030 TX33/1006Z TX34/1106Z TN29/1022Z TEMPO 1000/1002 +SHRA FEW015 FEW020CB BKN030 BECMG 1019/1020 29004MPS",
    "WSSS": "TAF WSSS 092300Z 1000/1106 18008KT 9999 FEW015 SCT020",
    "WMKK": "TAF WMKK 092300Z 1000/1106 VRB03KT 9999 FEW018",
    "VTBS": "TAF VTBS 092300Z 1000/1106 24008KT 9999 FEW020",
    "VTBU": "TAF VTBU 092300Z 1000/1024 24008KT 9999 FEW020",
    "ROAH": "TAF ROAH 092310Z 1000/1106 10030KT 8000 -SHRA FEW008 BKN012 TEMPO 1000/1003 10030G45KT TEMPO 1003/1015 10035G50KT 4000 SHRA BR FEW005 BKN008 FEW015CB TEMPO 1015/1106 13040G55KT",
    "VVDN": "TAF VVDN 092300Z 1000/1024 21008KT 9999 FEW020 BKN070",
    "RCKH": "TAF RCKH 092300Z 1000/1106 33010KT 9999 FEW015 BKN032 TEMPO 1004/1010 30015G25KT 5000 SHRA FEW010 BKN020 BECMG 1010/1012 34015G25KT TEMPO 1018/1024 30022G35KT 4000 SHRA FEW010 FEW015CB BKN017 TEMPO 1100/1106 28025G40KT 3200 SHRA FEW010 FEW012CB BKN014",
    "KLAX": "TAF KLAX 092325Z 1000/1106 27008KT P6SM FEW008 SCT015 FM100300 26005KT P6SM BKN008 FM100800 19005KT P6SM SCT004 OVC008 FM101200 13004KT P6SM SCT008 BKN012 FM101600 25008KT P6SM FEW012 FM102100 26008KT P6SM SKC",
    "KONT": "TAF KONT 092320Z 1000/1106 25010G18KT P6SM SKC FM100500 VRB05KT P6SM SKC FM102000 26011G19KT P6SM SKC FM110500 VRB04KT P6SM SKC",
    "KSFO": "TAF KSFO 092320Z 1000/1106 29020KT P6SM FEW005 FM100600 29012KT P6SM SCT005 FM100900 28010KT P6SM OVC008 FM101600 29018KT P6SM FEW007",
    "KOAK": "TAF KOAK 092320Z 1000/1106 27012KT P6SM FEW007 FM100700 26008KT P6SM OVC007 FM101800 27014KT P6SM SKC",
    "KMHR": "TAF KMHR 092323Z 1000/1024 23008KT P6SM SKC FM100500 17008KT P6SM SKC FM101800 20009G17KT P6SM SKC",
    "KDFW": "TAF KDFW 092320Z 1000/1106 18015KT P6SM FEW080",
    "KIAH": "TAF KIAH 092320Z 1000/1106 18009KT P6SM SCT045 SCT100 SCT250 FM100300 18004KT P6SM FEW025 SCT250 FM101500 17008KT P6SM VCSH FEW025 FEW250 PROB30 1020/1024 17011G20KT 5SM -TSRA SCT035CB SCT050 FM110100 16007KT P6SM SCT045 SCT250",
    "KORD": "TAF KORD 092330Z 1000/1106 26008KT P6SM SCT035 BKN120 PROB30 1000/1002 2SM TSRA BR BKN035CB FM100200 02009KT P6SM VCSH SCT020 BKN035 PROB30 1002/1005 1 1/2SM TSRA BR SCT015 BKN035CB FM100700 02005KT 6SM BR SCT009 OVC015 TEMPO 1008/1012 3SM BR BKN009 FM101300 03008KT P6SM SCT015 BKN025 FM101800 03011KT P6SM SCT040 BKN250",
    "KJFK": "TAF KJFK 092340Z 1000/1106 20010KT P6SM BKN050 FM100300 22008KT P6SM SCT020 TEMPO 1003/1007 BKN020 FM101200 30009KT P6SM BKN250 FM101800 25010KT P6SM SCT030 BKN100 PROB30 1021/1024 4SM TSRA BKN030CB FM110000 31006KT P6SM BKN150 PROB30 1100/1106 4SM TSRA BKN030CB",
    "KRFD": "TAF KRFD 092330Z 1000/1024 27007KT P6SM VCSH SCT035 BKN080 PROB30 1000/1002 2SM TSRA BR BKN035CB FM100200 04006KT P6SM VCSH SCT020 BKN035 FM100700 03005KT 5SM BR SCT009 OVC015 TEMPO 1009/1013 2SM BR BKN009 FM101400 03008KT P6SM SCT015 BKN025 FM101800 03009KT P6SM SCT040 BKN250",
    "KIND": "TAF KIND 092342Z 1000/1106 23009KT P6SM VCSH SCT040 SCT120 TEMPO 1001/1005 23010G20KT 4SM -TSRA BKN040CB FM100500 VRB03KT P6SM -SHRA BKN035 FM100700 21003KT P6SM VCSH SCT020 BKN025 FM101300 24007KT P6SM -SHRA FEW025 SCT060 FM101800 28005KT P6SM BKN060 PROB30 1018/1024 4SM -TSRA OVC025CB",
    "KDTW": "TAF KDTW 092331Z 1000/1106 26010KT P6SM SCT050 BKN100 PROB30 1000/1001 6SM -SHRA BKN050 FM100800 25003KT 5SM BR BKN030 FM101300 02005KT P6SM OVC020 FM101900 35007KT P6SM BKN035",
    "KMSP": "TAF KMSP 092320Z 1000/1106 09005KT P6SM FEW070 FM100600 12002KT P6SM FEW250 FM101500 16006KT P6SM SCT070",
    "CYEG": "TAF CYEG 092340Z 1000/1024 VRB03KT P6SM FEW060 SCT250 BECMG 1002/1004 15008KT FM101000 16008KT P6SM SCT050 BKN100 TEMPO 1010/1016 P6SM -SHRA VCTS BKN050CB FM101600 36008KT P6SM BKN060 FM102100 01006KT P6SM FEW080 RMK NXT FCST BY 100300Z",
    "EHAM": "TAF EHAM 092245Z 1000/1106 08007KT CAVOK BECMG 1014/1017 04013KT BECMG 1020/1023 06008KT",
    "EBBR": "TAF EBBR 092310Z 1000/1106 06006KT CAVOK",
    "EDDF": "TAF EDDF 092300Z 1000/1106 04008KT CAVOK TEMPO 1018/1022 02013KT",
    "EDFH": "TAF EDFH 092300Z 1000/1024 08006KT CAVOK",
    "EDDL": "TAF EDDL 092300Z 1000/1106 VRB03KT CAVOK BECMG 1007/1009 03009KT BECMG 1022/1024 03004KT",
    "EDDK": "TAF EDDK 092300Z 1000/1106 VRB03KT CAVOK BECMG 1009/1011 02007KT BECMG 1021/1023 VRB03KT",
    "EBLG": "TAF EBLG 092310Z 1000/1106 05007KT CAVOK",
    "LSZH": "TAF LSZH 092325Z 1000/1106 04004KT CAVOK TX33/1015Z TN16/1004Z TN18/1104Z BECMG 1008/1010 06009KT BECMG 1019/1021 01004KT",
    "LIMC": "TAF LIMC 092300Z 1000/1106 VRB05KT CAVOK PROB30 TEMPO 1015/1020 4000 TSRA",
    "LIRF": "TAF LIRF 092300Z 1000/1106 VRB05KT CAVOK PROB40 TEMPO 1000/1003 4000 BR BECMG 1008/1010 22012KT BECMG 1016/1018 VRB05KT",
    "EINN": "TAF EINN 092300Z 1000/1024 35008KT 9999 FEW020 PROB30 TEMPO 1000/1004 4000 BR",
    "EGLL": "TAF EGLL 092302Z 1000/1106 17007KT CAVOK BECMG 1000/1003 10010KT PROB30 TEMPO 1103/1106 BKN009",
    "EGSS": "TAF EGSS 092259Z 1000/1106 12009KT CAVOK",
    "EPWA": "TAF EPWA 092330Z 1000/1024 29010KT 9999 SCT040 TEMPO 1000/1021 -SHRA BKN020CB PROB40 1004/1008 4000 RA BKN010 PROB40 TEMPO 1010/1019 33015G25KT 3000 TSRA",
    "UHPP": "TAF UHPP 092253Z 1000/1106 17005G12MPS 9999 SCT040CB TX25/1004Z TN12/1016Z BECMG 1009/1012 36003G10MPS TEMPO 1100/1106 30005G12MPS",
    "EFHK": "TAF EFHK 092325Z 1000/1024 03003KT 0200 FG VV001 TEMPO 1000/1004 1000 BR BKN003 BECMG 1004/1006 9999 NSW FEW010 BECMG 1006/1008 13010KT TEMPO 1009/1015 FEW035TCU",
    "LBBG": "TAF LBBG 092300Z 1000/1024 VRB04KT 9999 SCT040 PROB30 TEMPO 1000/1005 4000 BR BECMG 1008/1010 13010KT PROB40 TEMPO 1010/1013 5000 TSRA SCT030CB BKN050 BECMG 1019/1021 VRB03KT",
    "LTAC": "TAF LTAC 092240Z 1000/1024 VRB02KT 9999 SCT040 SCT100 BECMG 1006/1008 25012KT TEMPO 1013/1017 32012KT BECMG 1017/1019 VRB02KT CAVOK",
    "UBBB": "TAF UBBB 092252Z 1000/1024 33008KT CAVOK TX31/1010Z TN21/1001Z TEMPO 1000/1006 29005KT SCT015 BECMG 1006/1008 06005KT TEMPO 1009/1016 10012KT SCT020 BECMG 1018/1020 30005KT",
    "UTAA": "TAF UTAA 092245Z 1000/1024 35018KT 6000 SCT050 TX40/1011Z TEMPO 1000/1004 29020G30KT 1100 BLDU TEMPO 1004/1010 30016G26KT 2000 BLDU BECMG 1016/1018 26014KT",
    "UACC": "TAF UACC 092303Z 1000/1024 VRB01MPS 9999 SCT040 BKN100 TX33/1009Z TN13/1000Z TEMPO 1000/1004 07005MPS BECMG 1004/1006 07006MPS TEMPO 1004/1016 03008MPS SCT040CB TEMPO 1016/1024 VRB01MPS",
    "UAAA": "TAF UAAA 092302Z 1000/1024 01003G09MPS 9999 SCT100 TX34/1010Z TN18/1002Z TEMPO 1000/1009 18003MPS BECMG 1014/1015 16003MPS",
    "UZTT": "TAF UZTT 092300Z 1000/1024 07010KT CAVOK TX39/1011Z TN25/1000Z TEMPO 1006/1018 24015KT",
    "ZWWW": "TAF ZWWW 092105Z 1000/1106 18004MPS CAVOK TX33/1009Z TX34/1106Z TN25/1023Z BECMG 1002/1003 36004MPS BECMG 1014/1015 18004MPS BECMG 1102/1103 36004MPS",
    "ZLXY": "TAF ZLXY 092128Z 1000/1024 06004MPS 6000 NSC TX38/1007Z TN27/1021Z",
    "ZBAA": "TAF AMD ZBAA 092341Z 1000/1106 16004MPS 4000 -TSRA BR FEW030CB BKN040 TX31/1006Z TX30/1106Z TN22/1021Z BECMG 1000/1001 -SHRA NSC TEMPO 1007/1012 TSRA FEW040CB BKN040 TEMPO 1012/1016 TSRA FEW040CB BKN040 BECMG 1015/1016 2800 -SHRA BR",
    "ZBHH": "TAF ZBHH 092113Z 1000/1024 23004MPS 2800 -RA SCT030 TX26/1008Z TN18/1022Z TEMPO 1002/1006 1400 +TSRA FEW030CB SCT030 TEMPO 1006/1010 RA BECMG 1010/1011 4000 BR",
    "ZSQD": "TAF ZSQD 092104Z 1000/1024 17004MPS 5000 BR BKN020 TX31/1006Z TN25/1020Z",
    "ZMCK": "TAF COR ZMCK 092239Z 1000/1106 09005MPS 9999 FEW030CB SCT033 TX25/1007Z TN12/1021Z BECMG 1001/1003 13007MPS FEW030CB BKN033 TEMPO 1003/1018 VRB10G15MPS 6000 TSRA SCT027CB BKN030 BECMG 1011/1013 VRB02MPS BECMG 1016/1018 6000 RA FEW020 FEW027CB BKN030 BECMG 1100/1102 30007MPS",
    "UUEE": "TAF UUEE 092254Z 1000/1024 02003MPS 6000 BKN016 TX28/1012Z TN16/1001Z PROB40 TEMPO 1000/1005 -TSRA BKN016CB TEMPO 1000/1005 BKN006 BECMG 1005/1008 08005MPS TEMPO 1011/1020 13011G18MPS 2100 -TSRA BKN016CB",
    "UUDD": "TAF UUDD 092255Z 1000/1106 09003MPS 8000 FEW007 BKN016 TX29/1012Z TN15/1001Z PROB40 TEMPO 1000/1004 -TSRA BKN016CB BECMG 1006/1008 09008MPS TEMPO 1010/1020 12010G17MPS -TSRA BKN016CB BECMG 1020/1022 09003MPS",
    "ULLI": "TAF ULLI 092254Z 1000/1024 12003MPS 6000 BKN016 TEMPO 1000/1003 0300 FG BKN003 BECMG 1017/1019 06005G10MPS TEMPO 1021/1024 3100 -SHRA BKN017CB",
    "USSS": "TAF USSS 092253Z 1000/1024 10003G08MPS 6000 -SHRA BKN016CB TEMPO 1000/1003 0300 -TSRA FG VV002 TEMPO 1003/1018 -TSRAGR BECMG 1006/1008 14003G14MPS",
    "UNNT": "TAF UNNT 092300Z 1000/1024 33003G08MPS 8000 BKN040 TX25/1010Z TN10/1022Z BECMG 1009/1010 25005G10MPS BECMG 1011/1012 19003G08MPS TEMPO 1015/1021 -TSRA BKN020CB",
    "UNKL": "TAF UNKL 092243Z 1000/1024 28003MPS 8000 SCT040 BECMG 1002/1004 33005G12MPS BECMG 1005/1007 25003G08MPS TEMPO 1007/1012 33005G10MPS",
    "UIBB": "TAF UIBB 092300Z 1000/1024 30003G08MPS 9999 BKN016CB TEMPO 1002/1015 VRB08MPS",
    "UEEE": "TAF UEEE 092300Z 1000/1106 30003G08MPS 9999 SCT030CB BKN100 TX31/1003Z TN15/1019Z TEMPO 1000/1015 VRB17MPS 2400 -TSRAGR SQ",
    "UHHH": "TAF UHHH 092248Z 1000/1106 18003MPS 9999 SCT025CB TX28/1006Z TN21/1018Z TEMPO 1000/1018 VRB09MPS 3000 -TSRA FEW010 BKN016CB",
    "UHSS": "TAF UHSS 092250Z 1000/1106 18003MPS 9999 BKN016CB"
  },
  "atis": {
    "RJAA": "[Arrival ATIS] RJAA ARR ATIS M 1037Z MS1030 (APCH)ILS Y RWY16L LDG RWY 16L DEP RWY 16R DEP FREQ 124.2. TWY A1 CLSD. MS 201030Z 14009KT 5000M RA BR BKN008ST 21/20 Q1011/A2986= Q/TWO NINE EIGHT SIX STP\n[Departure ATIS] RJAA DEP ATIS N 1102Z MS1100 (APCH)ILS Y RWY16L LDG RWY 16L DEP RWY 16R DEP FREQ 124.2. TWY A1 CLSD. MS 201100Z 15009KT 5000M -RA BR BKN008ST 21/20 Q1011/A2987= Q/TWO NINE EIGHT SEVEN STP",
    "PANC": "[Arrival ATIS] PANC ARR ATIS M 1053Z - PANC ATIS INFO M 1053Z. 17005KT 10SM FEW060 FEW180 11/08 A3020 (THREE ZERO TWO ZERO). 7R APPROACHES IN USE. LANDING RWY 7R, DEPARTING RWY 33. NOTICE TO AIRMEN. RWY 7L CLSD. CHECK NOTAMS FOR TAXIWAY CLOSURES. NO VFR CLASS C TRANSITIONS DUE TO STAFFING. CONTACT TOWER 118.3 FOR TAXI. ...ADVS YOU HAVE INFO M.\n[Departure ATIS] PANC DEP ATIS X 0953Z ANC ATIS INFO X 0953Z. 12016G27KT 10SM SCT060 BKN085 OVC100 14/07 A2973 (TWO NINER SEVEN THREE). ILS RWY 15 APPROACHES IN USE. LANDING RWY 15, DEPARTING RWY 25L. NOTICE TO",
    "KSEA": "[Arrival ATIS] KSEA ARR ATIS F 2153Z SEA ATIS INFO F 2153Z. 26007KT 10SM FEW050 FEW100 SCT230 23/11 A3009 (THREE ZERO ZERO NINER) RMK AO2 SLP192 T02330106. ILS AND CHARTED VISUAL APPROACH RWYS 16R AND 16L , APCH IN USE. DEPG RWY 16L, DEPG ACFT PLAN AND BRIEF NUMBERS FOR BOTH RWYS 16L AND 16C. SIMUL APCHS IN USE, BFI & SEA. TRAFFIC BELOW YOU ON FINAL. SIMUL APCHS IN USE TO PARA RYS. NOTAMS... BIRD ACTIVITY VICINITY ARPT. ...ADVS YOU HAVE INFO F.\n[Departure ATIS] KSEA DEP ATIS G 2253Z SEA ATIS INFO G 2253Z. 22009G15KT 10SM FEW050 FEW100 SCT230 25/08 A3006 (THREE ZERO ZERO SIX). ILS AND CHARTED VISUAL APPROACH RWYS 16R AND 16L , APCH IN USE. DEPG RWY 16L,",
    "ZSPD": "[Arrival ATIS] ZSPD ARR ATIS P 2330Z EXP ILS APCH LDG RWY 17R & 16L WIND RWY 17R TDZ 160/5MPS MID 150/5MPS END 160/4MPS RWY 16L TDZ 170/5MPS MID 170/4MPS END 160/4MPS VIS RWY 17R TDZ 10000M MID 10000M END 10000M VIS RWY 16L TDZ 10000M MID 10000M END 10000M CLD FEW 390M T 29 /DP 27 QNH 1007 HPA CAUTION THE BIRDS NEAR THE RUNWAY ADZ YOU HAVE INFO P.\n[Departure ATIS] ZSPD DEP ATIS G 1030Z DEP RWY 35R & 34L WIND RWY 35R TDZ 110/3MPS MID 110/4MPS END 110/3MPS RWY 34L TDZ 120/3MPS MID 130/4MPS END 130/3MPS VIS RWY 35R TDZ 10000M MID 10000M END 10000M VIS RWY 34L TDZ 10000M MID 10000M END 10000M CLD BKN 240M T 25 /DP 25 QNH 1007 HPA CAUTION THE BIRDS NEAR THE RUNWAY RWY 35R/35L/34R/34L RWYCC 5/5/5 ISSUED AT 0430 WET/WET/WET DPT NR/NR/NR COV 100PCT/100PCT/100PCT. ADZ YOU HAVE INFO G.",
    "ZSSS": "[Arrival ATIS] ZSSS ARR ATIS J 1000Z EXP ILS APCH LDG RWY 36R WIND RWY 36R TDZ 240/2MPS VRB BTN 220/ AND 290/ MID 220/2MPS END 260/1MPS CAVOK T 28 /DP 24 QNH 1006 HPA QNH OF SHANGHAI TERMINAL CONTROL AREA 1007 HPA ADZ YOU HAVE INFO J.\n[Departure ATIS] ZSSS DEP ATIS K 1030Z DEP RWY 36L WIND RWY 36L TDZ 230/2MPS MID 200/2MPS END 240/1MPS CAVOK T 28 /DP 24 QNH 1006 HPA QNH OF SHANGHAI TERMINAL CONTROL AREA 1007 HPA ADZ YOU HAVE INFO K.",
    "VHHH": "[Arrival ATIS] VHHH ARR ATIS G 1104Z ARRIVALS, RWY 25R. EXP RNAV TRANSITION TO ILS APCH, RWY 25R. RNP APCH IS AVBL ON REQ, RWY 25R. WIND 170/07KT. VIS 10KM. CLD FEW 1000FT SCT 2500FT. T30 DP25. QNH 1009HPA. ACK INFO G ON FIRST CTC WITH APP.\n[Departure ATIS] VHHH DEP ATIS U 1005Z DEPARTURES, RWY 25L. WIND 190/09KT. VIS 10KM. CLD FEW 1000FT SCT 2500FT. T31 DP25. QNH 1009HPA. ACK INFO U ON FIRST CTC WITH DELIVERY .",
    "RCTP": "[Arrival ATIS] RCTP ARR ATIS M 1100Z EXP ILS APCH RWY23R AND RWY23L ARR/DEP. WIND 240/06KT VIS 10 KM OR MORE CLD FEW 2000FT BKN 20000FT T 29 DP 23 QNH 1010HPA NOSIG LOW LVL WS ADVISORY IN EFFECT. INFORM TAIPEI APCH OR TAIPEI TOWER ON INITIAL CONTACT YOU HAVE INFORMATION M\n[Departure ATIS] RCTP DEP ATIS I 0900Z EXP ILS APCH RWY23R FOR ARR. RWY23L FOR DEP. WIND 220/13KT VIS 10 KM OR MORE CLD FEW 2000FT BKN 20000FT T 32 DP 23 QNH 1009HPA NOSIG CTN BIRD ACTIVITY IN THE VCY OF THE AD. INFORM TAIPEI APCH OR TAIPEI TOWER ON INITIAL CONTACT YOU HAVE INFORMATION I",
    "ZGSZ": "[Arrival ATIS] ZGSZ ARR ATIS G 1100Z EXP ILS APCH 15 EXP ILS OR VIS APCH 16R WIND 160/6MPS VIS 9999M CLD FEW 990M T 29 /DP 27 QNH 1009 HPA INDEPENDENT PARALLEL DEPARTURES DEPENDENT PARALLEL APPROACHES V17,V18 AVAILABLE AFTER SULAS FLY HEADING 040 MISSED APPROACH ALTITUDE SETTING 1200METERS WHEN AIRBORNE CONTACT ZHUHAI APPROACH EXPECTED RNP ILS DME Z APPROACH ADZ YOU HAVE INFO G.\n[Departure ATIS] ZGSZ DEP ATIS E 1000Z DEP RWY 15 & 16L WIND 170/6MPS VIS 9999M CLD FEW 990M T 30 /DP 27 QNH 1009 HPA INDEPENDENT PARALLEL DEPARTURES DEPENDENT PARALLEL APPROACHES V17,V18 AVAILABLE AFTER SULAS FLY HEADING 040 MISSED APPROACH ALTITUDE SETTING 1200METERS WHEN AIRBORNE CONTACT ZHUHAI APPROACH EXPECTED RNP ILS DME Z APPROACH ADZ YOU HAVE INFO E.",
    "WSSS": "[Arrival ATIS] WSSS ARR ATIS Y 1100Z METREPORT 1100Z ILS APCHRWY 20R SIMUL INDEPENDENT ILS AND VISUAL APPROACHES ARE CONDUCTED ON RWY 20. TWY W 9 CLOSED, RWY 02C 20C RAPID EXIT TAXIWAY INDICATOR LIGHTS OFF WIND 160/ 05KT VRB BTN090 AND210 VIS 10KM CLD FEW 2000FT T29 DP25 QNH 1009HPA NOSIG ACK ATIS Y\n[Departure ATIS] WSSS DEP ATIS X 1000Z METREPORT 1000Z RWY 20C SIMUL INDEPENDENT ILS AND VISUAL APPROACHES ARE CONDUCTED ON RWY 20. TWY W 9 CLOSED, RWY 02C 20C RAPID EXIT TAXIWAY INDICATOR LIGHTS OFF WIND 220/ 05KT VRB BTN170 AND280 VIS 10KM CLD FEW 2000FT T30 DP24 QNH 1009HPA NOSIG DEP,INITIAL CMB 3000FT ACK ATIS X",
    "WMKK": "[Arrival ATIS] WMKK ARR ATIS H 1004Z WMKK ARR INFO H. TIME 1000. INDEPENDENT PARALLEL APPROACHES FOR RWY 14 L AND 15 ARE IN PROGRESS. EXP RNAV / ILS APCH FOR RWY 14 LEFT. EXP RNAV / ILS APCH FOR RWY 15. WIND RWY 14L DIRECTION NOT AVBL SPEED NOT AVBL. WIND RWY 15 DIRECTION NOT AVBL SPEED NOT AVBL. VIS RWY 14L TDZ NOT AVBL. VIS RWY 15 TDZ NOT AVBL. CLD FEW CB 1700 FT. T 31. DP 24. QNH 1008. NOSIG. AT FIRST CONTACT WITH LUMPUR RADAR, NOTIFY RCPT OF H\n[Departure ATIS] WMKK DEP ATIS Q 1104Z WMKK DEP INFO Q. TIME 1100. INDEPENDENT PARALLEL DEPARTURES FOR RWY 14 R AND 15 ARE IN PROGRESS. RWY 14 RIGHT. RWY 15. WIND RWY 14R DIRECTION NOT AVBL SPEED NOT AVBL. WIND RWY 15 DIRECTION NOT AVBL SPEED NOT AVBL. VIS RWY 14R TDZ NOT AVBL. VIS RWY 15 TDZ NOT AVBL. CLD FEW CB 1700 FT. T 29. DP 25. QNH 1008. NOSIG. ALL DEP ACFT TO CONTACT LUMPUR DEP AT 135 DECIMAL 25 MHZ WHEN ABN. AT FIRST CONTACT WITH LUMPUR GROUND, NOTIFY RCPT OF Q",
    "VTBS": "[Arrival ATIS] VTBS ARR ATIS A 2230Z VTBS ARR ATIS A 2231Z EXP ILS Z APCH ARR RWY 20L RWY 19 CLSD DUE TO WIP ,RETIL RWY 20L U/S , 2230Z WIND 230/8KT VIS 10KM CLD FEW 2000FT T29 DP20 QNH 1008HPA TREND NOSIG ADZ BKK APCH ON INITIAL CONTACT THAT YOU HAVE INFO A\n[Departure ATIS] VTBS DEP ATIS X 0830Z VTBS DEP ATIS X 0831Z DEP RWY 20L ,AFT AIRBORNE ALL DEPARTING ACFT SHALL CTC 119.25 0830Z WIND 220/6KT VRB BTN 190/ AND 300/ VIS 10KM CLD FEW 2000FT T33 DP21 QNH 1008HPA TREND NOSIG ADZ GND WHEN INITIAL CONTACT YOU HAVE INFO X",
    "VTBU": "[Arrival ATIS] VTBU ARR ATIS U 0430Z VTBU ARR ATIS U 0430Z RNP RWY 18 TRL FL130 MOBILE ACFT ARST SYSTEM INSTL ATP SIX HUNDRED AND TEN METERS FM THR RWY 36 CABLE HGT 3 INCHES. 0430Z WIND 360/6KT VRB BTN 320/ AND 020/ VIS 10KM CLD FEW 2000FT T34 DP27 QNH 1010HPA TREND NOSIG ADZ CONTROLLER WHEN INITIAL CONTACT YOU HAVE INFO U\n[Departure ATIS] VTBU DEP ATIS D VTBU ARR/DEP DATIS RPT VTBU ARR ATIS D 0330Z ILS \"Z\" APCH RWY 18 TRL FL130 0330Z WIND 110/4KT VRB BTN 350/ AND 120/ VIS 6KM CLD FEW 2000FT T31 DP27 QNH 1014HPA TREND NOSIG ADZ CONTROLLER WHEN INITIAL CONTACT YOU HAVE INFO D",
    "ROAH": "[Arrival ATIS] ROAH ARR ATIS B 1017Z M1000 (APCH)RNP RWY18R LDG RWY 18R DEP RWY 18L DEP FREQ 119.175 316.0 M 201000Z 18008KT 40KM FEW006ST 27/26 Q1011/A2987= Q/TWO NINE EIGHT SEVEN STP\n[Departure ATIS] ROAH DEP ATIS S 0636Z M0630 (APCH)RNP RWY18R LDG RWY 18R DEP RWY 18L DEP FREQ 126.5 258.3 FLIGHT CHECK IN PROGRESS AT ROTM M 200630Z 19009KT 40KM FEW009CU 29/27 Q1012/A2988= Q/TWO NINE EIGHT EIGHT STP",
    "VVDN": "[Arrival ATIS] VVDN ARR ATIS N 1832Z VVDN INFO N 1832Z. ILS VICTOR APPROACH 35L.. DPTG RWY 35R.. 1832Z. WIND 240/01KT CAVOK T28 DP22 QNH 1004HPA TREND NOSIG. ADZ ON INITIAL CTC YOU HAVE INFO. N.\n[Departure ATIS] VVDN DEP ATIS R 0503Z VVDN INFO R 0503Z. ILS VICTOR APPROACH 35L.. DPTG RWY 35R.. 0502Z. WIND 090/05KT VRB BTN 070/ AND 140/ CAVOK T37 DP23 QNH 1007HPA TREND NOSIG. ADZ ON INITIAL CTC YOU HAVE INFO. R.",
    "RCKH": "[Arrival ATIS] RCKH ARR ATIS I 1100Z EXPECT ILS APPROACH RWY 09 ARR/DEP TAXIWAY JULIETT, TAXIWAY BRAVO, TAXIWAY DELTA AND TAXIWAY ECHO CLOSED DUE MAINTENANCE. RUNWAY 0 9 ARRIVALS PLAN VACATE VIA CHARLIE OR FOXTROT AND EXPEDITE VACATE. WIND 290/08KT VIS 10 KM OR MORE CLD FEW 3000FT SCT 22000FT T 29 DP 23 QNH 1010HPA NOSIG CAUTION BIRD ACTIVITY IN VICINITY OF THE AERODROME. INFORM KAO-HSIUN APCH OR KAO-HSIUN TOWER ON INITIAL CONTACT YOU HAVE INFORMATION I\n[Departure ATIS] RCKH DEP ATIS Q 0600Z EXPECT ILS APPROACH RWY 27 ARR/DEP TAXIWAY JULIETT, TAXIWAY BRAVO, TAXIWAY DELTA AND TAXIWAY ECHO CLOSED DUE MAINTENANCE. RUNWAY 2 7 ARRIVALS PLAN VACATE VIA CHARLIE OR A",
    "KLAX": "[Arrival ATIS] KLAX ARR ATIS J 1053Z LAX ATIS INFO J 1053Z. 07004KT 10SM FEW012 15/13 A2995 (TWO NINER NINER FIVE) RMK AO2 SLP141 FU FEW012 T01500133. INST APCHS AND RNAV RNP APCHS 6R, OR VCTR FOR VISUAL APCH WILL BE PROVIDED, OPP DIRECTION TFC DEPG RY 25, SIMUL INSTR DEPARTURES IN PROG 25L. CTC L A GC ON 121.75 FOR PUSH OR TAXI ON A. RWY 2 5 RIGHT 7 LEFT CLSD. TWY C CLSD BTN TWY, C8 AND TWY C9 , , TWY B CLSD BTN TWY, F AND TWY C3, TWY C CLSD BTN TWY, C1 AND TWY C3, TWY B CLSD BTN TWY, F AND TWY B1, TWY B1 CLSD, TWY J CLSD BTN TWY, B AND TWY H, TWY F CLSD BTN RWY, 25L AND TWY B. ILS RY 25R OTS, RY 25R SFL OTS, RY 24L ALSF-2 OTS. LAX VOR UNMONITORED. IF ASSIGNED RUNWAY 25R FOR DEPARTURE, EXPECT DEPARTURE FROM INTERSECTION FOXTROT. TAXILANE CHARLIE EIGHT RESTRICTED TO AIRCRAFT WITH A WINGSPAN LESS THAN ONE HUNDRED EIGHTEEN FEET. USE CAUTION FOR INCREASED DRONE ACTIVIY IN THE VICINITY OF SOFI STADIUM AT OR BELOW 200FT AGL DURING THE WORLD CUP FROM 06/12/26 THROUGH 07/10/2026. HAZD WX INFO FOR LAX AREA AVBL FM FSS. BIRD ACTIVITY VICINITY ARPT. LAX ARVLS EXPECT RWY 6 LEFT OR RWY 6 RIGHT AFTER MIDNIGHT LOCAL. TWR FREQ FOR ALL RWYS IS 120.95. CD AND GC FREQ IS 121.75. INCLUDE YOUR CALL SIGN IN ALL READBACKS. USE CAUTION WHEN EXITING RY24R AT TWY V, W, AND Y, TO HOLD SHORT OF RY24L. MULTIPLE RUNWAY INCURSIONS HAVE OCCURRED. ...ADVS YOU HAVE INFO J.\n[Departure ATIS] KLAX DEP ATIS T 2053Z - KLAX ATIS INFO T 2053Z. 26008KT 9SM FEW009 SCT016 23/17 A2989 (TWO NINER EIGHT NINER) RMK AO2 SLP120 T02330167 58006. INST APCHS AND RNAV RNP APCHS RY 24R AND 25L, OR VCTR FOR VISUAL APCH WILL BE PROVIDED, SIMUL INSTR DEPARTURES IN PROG RWYS 24 AND 25. CTC L A GC ON 121.75 FOR PUSH OR TAXI ON A. TWY B CLSD BTN TWY, C10 AND TWY C7 , , TWY B6 CLSD, TWY B7 CLSD, TWY C CLSD BTN TWY, C1 AND TWY C3, TWY C1 CLSD, TWY C9 CLSD BTN TWY, B AND TWY C, TWY C8 CLSD BTN TWY, B AND TWY C. RY 25R SFL OTS, RY 24L ALSF-2 OTS. LAX VOR UNMONITORED. USE CAUTION FOR INCREASED DRONE ACTIVIY IN THE VICINITY OF SOFI STADIUM AT OR BELOW 200FT AGL DURING THE WORLD CUP FROM JUNE TWELFTH TWENTY TWENTY SIX THROUGH JULY TENTH TWENTY TWENTY SIX. HAZD WX INFO FOR LAX AREA AVBL FM FSS. BIRD ACTIVITY VICINITY ARPT. INCLUDE YOUR CALL SIGN IN ALL READBACKS. USE CAUTION WHEN EXITING RY24R AT TWY V, W, AND Y, TO HOLD SHORT OF RY24L. MULTIPLE RUNWAY INCURSIONS HAVE OCCURRED. ...ADVS YOU HAVE INFO T.",
    "KONT": "[Arrival ATIS] KONT ARR ATIS J 1353Z - KONT ATIS INFO J 1353Z. 00000KT 10SM CLR 20/13 A2997 (TWO NINER NINER SEVEN). ILS RUNWAY 2 6 LEFT APPROACH IN USE. VISUAL APCH RY 26L, RY 26R IN USE, RNAV/GPS APCH RY 26L, 26R IN USE. LNDG AND DEPG RY 26L AND RY 26R. NOTAMS... TAXIWAY SIERRA FIVE CLOSED. TAXIWAY SIERRA CLOSED BETWEEN TAXIWAY SIERRA 8 AND TAXIWAY WHISKEY. ILS RY 26R OTS, RY 26L IM OTS, RY 26R ALS OTS. USE CAUTION FOR NUMEROUS BIRDS OBSERVED IN VICINITY OF ONT. PILOTS READBACK RWY ASSIGNMENTS AND HOLD SHORT INSTRUCTIONS. ...ADVS YOU HAVE INFO J.\n[Departure ATIS] KONT DEP ATIS N 0553Z - KONT ATIS INFO N 0553Z. 24004KT 10SM BKN250 22/15 A2988 (TWO NINER EIGHT EIGHT) RMK AO2 SLP100. ILS AND VIS APR IN USE, RY26L & RY26R. LNDG AND DEPG RY 26L AND RY 26R. NOTAMS... TAXIWAY SIERRA CLSD BETWEEN SIERRA 8 AND W TAXIWAY Q SOUTH OF RWY 26L CLSD TAXIWAY T CLSD TAXIWAY SIERRA 5 CLSD. RY 26L IM OTS, RY 26R ALS OTS. USE CAUTION FOR NUMEROUS BIRDS OBSERVED IN VICINITY OF ONT. HAZD WX INFO FOR SOUTHERN CA AVBL ON FSS FREQUENCIES. PILOTS READBACK RWY ASSIGNMENTS AND HOLD SHORT INSTRUCTIONS. ...ADVS YOU HAVE INFO N.",
    "KSFO": "[Arrival ATIS] KSFO ARR ATIS G 0956Z SFO ATIS INFO G 0956Z. 22012KT 10SM FEW014 BKN028 17/10 A2998 (TWO NINER NINER EIGHT). SIMUL CLSLY SPCD DPNDNT ILS RY 28R AND ILS RY 28L APP IN USE. DEPG RWYS 28L, 28R. RY 1L, 1R CLSD. NUMEROUS TWY CLOSURES FOR CONSTRUCTION ON THE FIELD, PILOTS CHECK NOTAMS. DEPG ACFT WAITING ON FINAL NUMBERS ADVISE GROUND PRIOR TO ENTERING TWY F. ...ADVS YOU HAVE INFO G.\n[Departure ATIS] KSFO DEP ATIS J 1356Z SFO ATIS INFO J 1356Z. 24006KT 10SM FEW004 OVC006 13/11 A3000 (THREE ZERO ZERO ZERO) RMK AO2 SLP158 T01280111. SIMUL CLSLY SPCD DPNDNT ILS RY 28R AND ILS RY 28L APP IN USE. DEPG RWYS 28L, 28R. DEPG ACFT SHOULD BE PREPARED FOR A SHORT NOTICE RY CHANGE. RY 1L, 1R CLSD. NUMEROUS TWY CLOSURES FOR CONSTRUCTION ON THE FIELD, PILOTS CHECK NOTAMS. DEPG ACFT WAITING ON FINAL NUMBERS ADVISE GROUND PRIOR TO ENTERING TWY F. ...ADVS YOU HAVE INFO J.",
    "KOAK": "[Arrival ATIS] KOAK ARR ATIS L 0853Z - KOAK ATIS INFO L 0853Z. 23008KT 10SM FEW012 OVC030 17/12 A2999 (TWO NINER NINER NINER). RNAV, RWY 30. ILS, RWY 28R, RNAV VA 30, ILS VA 28R. ILS RWY 30, OTS. UNN LIT CLOSE-IN OBSTACLES FOR RWY 30 DEPARTURES. RWY 30 DEPARTURES ARE ADVISED TO AVOID TURNING LEFT PRIOR TO DEPARTURE END OF RUNWAY. SIGNATURE UNI-COM OUT OF SERVICE. CTN, CRANE 1 POINT 6 NAUTICAL MILES, , AT 140 FEET AGL. HAZD WX INFO FOR CA ON FLT SRVC FREQ. CAUTION, BIRDS NEAR AIRPORT. ...ADVS YOU HAVE INFO L.\n[Departure ATIS] KOAK DEP ATIS O 1953Z OAK ATIS INFO O 1953Z. 28014KT 10SM FEW005 22/14 A2988 (TWO NINER EIGHT EIGHT). RNAV Z/VA RWY 30 ILS/VA RWY 28R. FLOW TO LAX, LAS, SAN. ILS RWY 30, OTS. UNN LIT CLOSE-IN OBSTACLES FOR RWY 30 DEPARTURES. RWY 30 DEPARTURES ARE ADVISED TO AVOID TURNING LEFT PRIOR TO DEPARTURE END OF RUNWAY. SIGNATURE UNI-COM OUT OF SERVICE. CAUTION, BIRDS NEAR AIRPORT. ...ADVS YOU HAVE INFO O.",
    "KDFW": "[Arrival ATIS] KDFW ARR ATIS K 2253Z DFW ARR INFO K 2253Z. 21011G21KT 10SM FEW080 38/16 A2989 (TWO NINER EIGHT NINER) RMK AO2 SLP109 T03780161. SIMUL VISUAL APCH TO RWYS, 13R, 18R, 17C, 17L. LDG RWY 17C EXP LAHSO TWY B 10460 FT AVAIL, LDG RWY 18R EXP LAHSO TWY B 10100 FT AVL. NOTICE TO AIRMEN. WARNING, RWY 18L HAS BEEN SHORTENED, 9273 FT AVAILABLE. HAZD WX FOR DFW AVBL ON FSS. BIRD ACTIVITY VCNTY ARPT. ...ADVS YOU HAVE INFO K.\n[Departure ATIS] KDFW DEP ATIS W 1553Z - KDFW DEP INFO W 1553Z. 21022G32KT 10SM FEW025 FEW180 SCT250 31/21 A2994 (TWO NINER NINER FOUR) RMK AO2 PK WND 20032/1547 SLP128 T03110206. SIMUL PARL TRAFFIC DEPG RWYS 17R, 18L. NOTICE TO AIRMEN. WARNING, RWY 18L HAS BEEN SHORTENED, 9273 FT AVAILABLE. RWY 18L CL OTS. BIRD ACTIVITY VCNTY ARPT. ...ADVS YOU HAVE INFO W.",
    "KIAH": "[Arrival ATIS] KIAH ARR ATIS G 1753Z IAH ATIS INFO G 1753Z. 17004KT 10SM SCT045 33/22 A3006 (THREE ZERO ZERO SIX). ARRIVALS EXPECT ILS OR RNAV Y RY 26R, ILS OR RNAV Y RY 26L, ILS OR RNAV Y RY 27. SIMUL APPROACHES IN USE. DEPG RY 15L, RY 15R. NOTICE TO AIRMEN. UNITED RAMP CONTROL IN EFFECT. BIRD ACTIVITY VICINITY ARPT. CRANES ARE DOWN. TWY SA CLSD BTN TWY, SF AND TWY SK , TWY SB CLSD BTN TWY, SF AND TWY SK , , TWY WB CLSD BTN TWY, WG AND TWY WH . TWY EA CLSD. NOTAM ATIS IN USE ON FREQUENCY 126.225. ...ADVS YOU HAVE INFO G.\n[Departure ATIS] KIAH DEP ATIS T 0353Z IAH ATIS INFO T 0353Z. 15007KT 10SM FEW035 FEW180 BKN250 27/23 A2996 (TWO NINER NINER SIX). ARRIVALS EXPECT ILS OR RNAV Y RY 8R, ILS OR RNAV Y RY 8L. DEPG RY 15R. NOTICE TO AIRMEN. UNITED RAMP CONTROL IN EFFECT. RY 15L, 33R CLSD. HAZD WX INFO FOR IAH AREA AVBL FM FSS. BIRD ACTIVITY VICINITY ARPT. CRANES ARE DOWN. TWY SA CLSD BTN TWY, SF AND TWY SK , TWY SB CLSD BTN TWY, SF AND TWY SK , , TWY WB CLSD BTN TWY, WG AND TWY WH . TWY EA CLSD. NOTAM ATIS IN USE ON FREQUENCY 126.225. ...ADVS YOU HAVE INFO T.",
    "KORD": "[Arrival ATIS] KORD ARR ATIS Z 1451Z ORD ATIS INFO Z 1451Z. 23009KT 10SM FEW060 FEW250 28/17 A3005 (THREE ZERO ZERO FIVE) RMK AO2 SLP170 T02780167 58002. ARR EXP VECTORS ILS RWY 28C APCH, VISUAL APCH RWY 27C, VISUAL APCH RWY 27R. SIMUL APCHS IN USE. LAND AND HOLD SHORT OPERATIONS ARE IN EFFECT. RWY 27C ARR PLAN TO H/S OF TWY V V, 9 THSD 7 HND 25 FT AVBL, RWY 28C ARR PLAN TO H/S OF TWY Z, 9 THSD 6 HND TEN FT AVBL. DEPS EXP RWYS 22L 27L FROM T T 9960 FT AVL. RWY 4R, 22L CLSD. RWY 22R LOC OTS, RWY 28L GS OTS, RWY 9L IM OTS, RWY 9C IM OTS, RWY 10L IM OTS, RWY 10R IM OTS, RWY 27R IM OTS, RWY 28L IM OTS, RWY 28R IM OTS, RWY 9L PAPI OTS, RWY 27R PAPI OTS. PILOTS USE CTN FOR BIRD ACTIVITY IN THE VICINITY OF THE ARPT. USE CTN FOR PERSONNEL AND EQUIP AT NUMEROUS SITES ON THE FIELD. READBACK ALL RWY HOLD SHORT INSTRUCTIONS. WHEN READY TO TAXI CONTACT GND METERING ON FREQ 121.67. ...ADVS YOU HAVE INFO Z.\n[Departure ATIS] KORD DEP ATIS G 2251Z ORD ATIS INFO G 2251Z. 26005KT 10SM SCT042 BKN250 30/21 A2983 (TWO NINER EIGHT THREE) RMK AO2 SLP095 CB DSNT N MOV SE T03000211. ARR EXP VECTORS ILS RWY 27C APCH, ILS RWY 28C APCH, VISUAL APCH RWY 27R. SIMUL APCHS IN USE. LAND AND HOLD SHORT OPERATIONS ARE IN EFFECT. RWY 27C ARR PLAN TO H/S OF TWY V V, 9 THSD 7 HND 25 FT AVBL, RWY 28C ARR PLAN TO H/S OF TWY Z, 9 THSD 6 HND TEN FT AVBL. DEPS EXP RWYS 22L 27L FROM T T 9960 FT AVL. RWY 4L, 22R CLSD. RWY 22R LOC OTS, RWY 28L GS OTS, RWY 9L IM OTS, RWY 9C IM OTS, RWY 10L IM OTS, RWY 10R IM OTS, RWY 27R IM OTS, RWY 28L IM OTS, RWY 28R IM OTS, RWY 9L PAPI OTS, RWY 27R PAPI OTS. HELIPAD CLSD. PILOTS USE CTN FOR BIRD ACTIVITY IN THE VICINITY OF THE ARPT. HAZD WX INFO FOR ORD AREA AVBL ON FSS. USE CTN FOR PERSONNEL AND EQUIP AT NUMEROUS SITES ON THE FIELD. READBACK ALL RWY HOLD SHORT INSTRUCTIONS. WHEN READY TO TAXI CONTACT GND METERING ON FREQ 121.67. ...ADVS YOU HAVE INFO G.",
    "KJFK": "[Arrival ATIS] KJFK ARR ATIS B 2151Z - KJFK ATIS INFO B 2151Z. 21010KT 10SM -RA SCT025 BKN085 BKN110 OVC140 23/22 A2984 (TWO NINER EIGHT FOUR). APPROACH IN USE ILS RY 22L, ILS RY 22R. DEPG RY 22R. RY 31R PAPI OTS, RWY 22L/4R INNER MARKER OTS.RWY 31R PAPI OTS. LOW LEVEL WIND SHEAR ADZYS IN EFFECT. HAZD WX INFO FOR NY METRO AREA AVBL ON FSS. SWAP IN EFFECT EXPECT REROUTES. NUM CRANES OPERATING AT JFK. BIRD ACTIVITY VICINITY ARPT. READBACK ALL RWY ASSIGNMENTS AND HOLD SHORT INSTRUCTIONS. ...ADVS YOU HAVE INFO B.\n[Departure ATIS] KJFK DEP ATIS V 1851Z JFK ATIS INFO V 1851Z. 20015KT 10SM -RA SCT029CB SCT070 BKN110 BKN140 BKN250 23/21 A2989 (TWO NINER EIGHT NINER) RMK AO2 RAB34 SLP121 CB SW MOV E P0000 T02330211. APPROACH IN USE ILS RY 22L, ILS RY 22R. DEPG RY 22R. RY 31R PAPI OTS, RWY 22L/4R INNER MARKER OTS.RWY 31R PAPI OTS. HAZD WX INFO FOR NY METRO AREA AVBL ON FSS. SWAP IN EFFECT EXPECT REROUTES. NUM CRANES OPERATING AT JFK. BIRD ACTIVITY VICINITY ARPT. READBACK ALL RWY ASSIGNMENTS AND HOLD SHORT INSTRUCTIONS. ...ADVS YOU HAVE INFO V.",
    "KIND": "[Arrival ATIS] KIND ARR ATIS J 2054Z IND ATIS INFO J 2054Z. 24011G22KT 10SM SCT042 SCT110 BKN250 30/21 A2990 (TWO NINER NINER ZERO). PARL ILS RWY 23R AND 23L APPROACHES IN USE. CROSS RUNWAY OPERATIONS MAY BE IN EFFECT. NOTICE TO AIRMEN. TWY, P BTN TWY, H AND TWY B CLSD, TWY, P BTN TWY, H AND TWY J CLSD, TWY, H BTN TWY, R AND TWY N CLSD. P PAD CLSD. ILS RUNWAY 5R AND RUNWAY 5L INNER MARKER UNSERVICEABLE. ARPT ADZY FLOCK OF LARGE BIRDS IN THE VICINITY OF THE AIRPORT, ALT UNKN. ...ADVS YOU HAVE INFO J.\n[Departure ATIS] KIND DEP ATIS H 1854Z IND ATIS INFO H 1854Z. 26009G19KT 10SM SCT036 BKN041 BKN170 23/16 A2981 (TWO NINER EIGHT ONE) RMK AO2 SLP088 T02280156. PARL ILS RWY 23R AND 23L APPROACHES IN USE. CROSS RU",
    "KDTW": "[Arrival ATIS] KDTW ARR ATIS L 1953Z DTW ARR INFO L 1953Z. 15004KT 10SM FEW025 SCT050 BKN220 26/21 A2987 (TWO NINER EIGHT SEVEN) RMK AO2 WSHFT 1847 RAE17 TSE26 SLP111 TS MOV E CB DSNT SE MOV E P0025 T02560211. SIMUL ILS Z RY 22R AND RY 21L APCH IN USE. NOTICE TO AIRMEN. RWY 21R, 3L CLSD, RWY 27L, 9R CLSD, RWY 27R, 9L CLSD. TWYS Y1 CLSD ;. HAZD WX INFO . CNVTV SIG 13 E, FOR MI , AND, LM . CNVTV SIG 11 E, FOR MI , AND, LM . CNVTV SIG 20 E, FOR MI , AND LM AVBL ON FLIGHT SERVICE FREQS. PILOTS USE CTN FOR BIRD ACTIVITY. DEPARTURE ATIS 118.125. ...ADVS YOU HAVE INFO L.\n[Departure ATIS] KDTW DEP ATIS Q 2253Z - KDTW DEP INFO Q 2253Z. 21009KT 10SM FEW050 FEW250 33/24 A2991 (TWO NINER NINER ONE). DEPG RWY 21R, RWY 22L ;. NOTICE TO AIRMEN. RWY 27L, 9R CLSD, RWY 27R, 9L CLSD. PILOTS USE CTN FOR BIRD ACTIVITY. ...ADVS YOU HAVE INFO Q.",
    "KMSP": "[Arrival ATIS] KMSP ARR ATIS D 1553Z MSP ARR INFO D 1553Z. VRB04KT 10SM FEW080 BKN140 OVC250 23/20 A2999 (TWO NINER NINER NINER) RMK AO2 RAE30 SLP152 P0001 T02280200. SIMULTANEOUS DEPENDENT, ILS RWY 30L APCH IN USE, ILS RWY 30R APCH IN USE. NOTICE TO AIRMEN. RWYS 4, 22 CLSD. TWY R7. R8. R9. R10. CLOSED. TWY R BTWN R6 AND R10 CLSD, TWY A7 CLSD, TWY A CLSD BTN TWY, A7 AND TWY D. GS RWY 12L OTS, RWYS 12R, 12L, INNER MARKER OTS.. RWY 30L CONDITION CODES, 5 5 5 AT 1311Z, RWY 30R CONDITION CODES, 5 5 5 AT 1338Z. HAZD WX INFO FOR MSP AREA AVBL FM FSS. CTN, BIRDS NEAR MSP. READ BACK HS AND ALT. ALL ACFT TAXI WITH TRANSPONDER AND ALTITUDE ENCODING ON. ADVISE TOWER OF GATE ON INITIAL CONTACT. ...ADVS YOU HAVE INFO D.\n[Departure ATIS] KMSP DEP ATIS R 2153Z - KMSP DEP INFO R 2153Z. 04007KT 10SM FEW065 SCT250 28/13 A2988 (TWO NINER EIGHT EIGHT) RMK AO2 SLP113 T02830133. DEPARTING RWY 12L, RWY 12R, RWY 17. NOTICE TO AIRMEN. RWYS 4, 22 CLSD. TWY R7. R8. R9. R10. CLOSED. TWY R BTWN R6 AND R10 CLSD, TWY A7 CLSD, TWY A CLSD BTN TWY, A7 AND TWY D, TWY L CLSD BTN TWY, L7 AND TWY L10, TWY K CLSD BTN TWY, K1 AND TWY K3. ALL ACFT CTC METERING ON ONE THREE THREE POINT FIVE SEVEN WHEN READY TO PUSHBACK OR TAXI. CTN, BIRDS NEAR MSP. READ BACK HS AND ALT. ALL ACFT TAXI WITH TRANSPONDER AND ALTITUDE ENCODING ON. ...ADVS YOU HAVE INFO R.",
    "CYEG": "[Arrival ATIS] CYEG ARR ATIS P 2300Z CYEG ARR ATIS P 2300Z VRB02KT 20SM FEW040 CIG BKN250 21/10 A2985 APCH RNAV Z OR Y RWY 02, INFORM ARRL OF REQ APCH ON INITIAL CTC. LDG AND DEP RWY 02. SIMUL APPROACHES MAY BE IN EFCT. INFORM CYEG ATC INFO P\n[Departure ATIS] CYEG DEP ATIS P 2300Z CYEG ARR ATIS P 2300Z VRB02KT 20SM FEW040 CIG BKN250 21/10 A2985 APCH RNAV Z OR Y RWY 02, INFORM ARRL OF REQ APCH ON INITIAL CTC. LDG AND DEP RWY 02. SIMUL APPROACHES MAY BE IN EFCT. INFORM CYEG ATC INFO P",
    "EHAM": "[Arrival ATIS] EHAM ARR ATIS C 1050Z EHAM ARRIVAL INFO C. DEMAND. MAIN LANDING RWY 18 R. SECONDARY LANDING RWY 27. TRANSITION LEVEL 040. WIND 230 DEG, 7 KT, VRB BTN 190 AND 290 DEG, 13 KT MAX, 5 KT MNM. WIND SECONDARY RUNWAY 250 DEG, 9 KT, VRB BTN 220 AND 300 DEG, 14 KT MAX, 5 KT MNM. CAVOK. T 25. DP 18. QNH 1018 HPA. NOSIG. OPERATIONAL REPORT. CONVERGING APPROACHES IN PROGRESS. CONTACT APCH WITH CALLSIGN ONLY. END OF INFO C\n[Departure ATIS] EHAM DEP ATIS N 0801Z EHAM DEPARTURE INFO N. DEMAND. MAIN DEPARTURE RWY 24. SECONDARY DEPARTURE RWY 18 L. MAIN LANDING RWY 18 R. RWY 18 L RCR AT TIME 0709. RWYCC: 5/5/5 WET/WET/WET COVERAGE(%): 100/100/100. WIND 270 DEG, 10 KT, VRB BTN 200 AND 300 DEG, 13 KT MAX, 5 KT MNM. WIND SECONDARY RUNWAY 260 DEG, 7 KT, VRB BTN 200 AND 270 DEG. CAVOK. T 24. DP 17. QNH 1017 HPA. OPERATIONAL REPORT. INFORM SCHIPHOL DEL BY VOICE IF UNABLE TO COMPLY WITH NADP 2. END OF INFO N",
    "EBBR": "[Arrival ATIS] EBBR ARR ATIS C 1550Z EBBR NAT, EXP VECT FOR ILS APP ARR RWY25L RSCD AT 1438 RWY25L DRY. DEP RWY25R TRL 055 TWY C6 CLSD. ILS RWY 25R U/S. RNP RWY 25R AT ATC DISCRETION. TAIL OPS 350/8KT VRB BTN 310 AND 010 VIS ABV 10KM SCT3900FT T26 DP16 QNH 1019HPA NOSIG CFM ARR C\n[Departure ATIS] EBBR DEP ATIS F 1450Z EBBR NAT, DEP RWY25R RSCD AT 1448 RWY25R DRY. ARR RWY25R TRL 055 B3 CLSD 350/7KT VRB BTN 320 AND 050 VIS ABV 10KM SCT3900FT T25 DP16 QNH 1019HPA NOSIG CFM DEP F",
    "EDDF": "[Arrival ATIS] EDDF ARR ATIS S 1550Z ARR-ATIS EDDF S METAR 081550 EXPECT DEPENDENT PARALLEL ILS Z APCH RWY 25R OR ILS APCH RWY 25L RWY 25R 25L DO NOT MISTAKE TWY M FOR RWY 25C WHEN PERFORMING VISUAL APPROACH , GLS APCH ON REQUEST , TRL 60 31015G26KT 270V340 9999 FEW046 T26 DP14 QNH1017 TREND NOSIG END OF ATIS S\n[Departure ATIS] EDDF DEP ATIS Y 1020Z DEP-ATIS EDDF Y METAR 201020 RWY 25C 18 TRL 60 ATTN : BIRDS IN THE VCY OF THE AD 17007KT 120V200 RWY18 17010KT CAVOK T32 DP16 QNH1020 TREND NOSIG END OF ATIS Y",
    "EDDL": "[Arrival ATIS] EDDL ARR ATIS P 1850Z ATIS EDDL P METAR 091850 EXPECT VECTORS ILS APPROACH RWY05L RWY 05R 05L TWY L2 , L4 AND L5 BTN TWY M AND RWY05R CLOSED TRL 60 04005KT CAVOK T24 DP14 QNH1017 TREND NOSIG\n[Departure ATIS] EDDL DEP ATIS R EDDL ARR/DEP DATIS RPT -ATIS EDDL R METAR 020550 -EXPECT VECTORS ILS APPROACH -RWY 23L -TWY L8 CLOSED BETWEEN TWY M AND RWY 23L -TRL 60 - -23010KT -CAVOK - - -T19 DP13 -QNH1020 - -TREND NOSIG",
    "EDDK": "[Arrival ATIS] EDDK ATIS N 2320Z -ATIS EDDK N METAR 092320 -EXPECT CDO FOR ILS APCH RWY 31R -RWY 31R 06 -RWY COND RWY 31R AT TIME 2340 RWYCC 6 DEPOSIT TOTAL RWY DRY RWY 06 AT TIME 2340 RWYCC 6 DEPOSIT TOTAL RWY DRY -TRL 60 -RWY 13R AND RWY 31L CLOSED FOR DEPARTURE AND LANDING: TAXIING BTN THR RWY 13R AND INTERSECTION RWY 24 POSSIBLE : -VRB01KT -CAVOK - - -T14 DP13 -QNH1018 - -TREND NOSIG\n[Departure ATIS] EDDK DEP ATIS Q EDDK ARR/DEP DATIS RPT -ATIS EDDK Q METAR 291920 -EXPECT ILS APCH -RWY 31R 06 -RWY COND RWY 31R AT TIME 1830 RWYCC 6 DEPOSIT TOTAL RWY DRY RWY 06 AT TIME 1830 RWYCC 6 DEPOSIT TOTAL RWY DRY -TRL 60 -RWY 13R AND RWY 31L CLOSED FOR DEPARTURE AND LANDING: TAXIING BTN THR RWY 13R AND INTERSECTION RWY 24 POSSIBLE : -04003KT -CAVOK - - -T24 DP13 -QNH1024 - -TREND NOSIG",
    "EBLG": "[Arrival ATIS] EBLG ATIS G 2320Z EBLG INFO, ARR RWY04R DEP RWY04R RWY 04R DRY, RWYCC 666. TRL 055 ADZ ON GND FREQ IF UNABLE S2 060/5KT VRB BTN 030 AND 120 MNM3 MAX13 CAVOK T19 DP13 QNH 1018HPA NOSIG CFM ATIS G",
    "LSZH": "[Arrival ATIS] LSZH ARR ATIS E 1850Z ARRIVALS, EXP ILS APCH, RWY 34. TRL 70. DEP RWY 32. DEPENDENT OPS ON CONVERGING RWY. WIND 110 DEG, 7 KT. CAVOK. T 27. DP 13. QNH 1015. NOSIG.\n[Departure ATIS] LSZH DEP ATIS T 1850Z DEP RWY 32. DEPENDENT OPS ON CONVERGING RWY. TRL 70. ARRIVALS, EXP ILS APCH, RWY 34. TMA S 1 IS ACT. TMA S 2 AND S 3 ARE ACT. WIND 090 DEG, 5 KT. CAVOK. T 27. DP 13. QNH 1015. NOSIG.",
    "LIMC": "[Arrival ATIS] LIMC ARR ATIS Y 1050Z LIMC ARR Y 1050Z I.L.S. ZULU RWY IN USE 35L TL 70 WIND TDZ 280/4KT VRB BTN 180/AND 310/ CAVOK T31 DP19 QNH 1021HPA QFE 0996HPA\n[Departure ATIS] LIMC DEP ATIS K 2020Z LIMC DEP K 2020Z RWY IN USE 35R TL 75 TAXIWAY GOLF ECHO AND GOLF HOTEL CLOSED WIND END 070/3KT CAVOK T27 DP16 QNH 1011HPA QFE 0986HPA DATALINK CLEARANCE AVAILABLE.... CONTACT 1 3 1 8 8 0 TO BE RELEASED BY THE AIRPORT OPERATOR ...",
    "LIRF": "[Arrival ATIS] LIRF ARR ATIS I 1550Z LIRF ARR I 1550Z RWY 16L ILS W RWY 16R ILS Z RWY IN USE 16L 16R TL 75 DEPENDENT PARL ILS APCH INPR RWY IN USE 16R OR 16L ASSIGNED BY ROME RADAR WIND RWY 16L TDZ 220/8KT VRB BTN 210/AND 300/ RWY 16R TDZ 250/5KT VRB BTN 220/AND 280/ CAVOK T29 DP21 QNH 1012HPA RRSM\n[Departure ATIS] LIRF DEP ATIS D 1450Z LIRF DEP D 1450Z RWY IN USE 25 TL 75 RWYS IN USE FOR ARR 16L AND 16R WIND END 270/6KT VRB BTN 200/AND 290/ CAVOK T29 DP20 QNH 1012HPA REA IS SENT AUTOMATICALLY ONCE RLSD BY RAMP WHEN READY CONTACT FIUME RAMP 121.725 RRSM",
    "EINN": "[Arrival ATIS] EINN ARR ATIS G 1000Z EXPECT I L S CATEGORY 1 LDG RWY24 TKOF RWY24 TRL FL060 23006KT 9999 FEW021 BKN035 16/09 QNH Q1019 TREND NOSIG ADVISE AT FIRST CONTACT YOU HAVE ATIS INFO G",
    "EGLL": "[Arrival ATIS] EGLL ARR ATIS K 2320Z LANDING RWY 27L TRANSITION-LEVEL: FL 70 RUNWAY 27R REDUCED DECLARED DISTANCES WITH TAKE OFF RUN AVAILABLE 3362METRES AND LANDING DISTANCE AVAILABLE 3362METRES IF STAND GUIDANCE IS OFF OR FAILS, REMAIN ON THE TAXIWAY CENTRELINE AND ADVISE ATC 27L SINGLE RUNWAY OPERATIONS IN FORCE AUTO 16005KT 9999 NCD 25/16 Q1017 ACKNOWLEDGE RECEIPT OF INFORMATION K\n[Departure ATIS] EGLL DEP ATIS O 2020Z DEPARTURE RWY 27L RUNWAY 27R REDUCED DECLARED DISTANCES WITH TAKE OFF RUN AVAILABLE 3362METRES AND LANDING DISTANCE AVAILABLE 3362METRES PILOTS THAT ARE IN RECEIPT OF DATALINK CLEARANCES ARE REMINDED THEY MUST CONTACT DELIVERY ON 121.980 WHEN READY FOR START AUTO 16007KT 120V210 9999 NCD 28/16 Q1016 ACKNOWLEDGE RECEIPT OF INFORMATION O AND REPORT AIRCRAFT TYPE AND CURRENT QNH ON FIRST CONTACT WITH HEATHROW",
    "EPWA": "[Arrival ATIS] EPWA ARR ATIS E 1618Z EPWA ARR E. TIME 1618. EXP U ARR ILS Z APCH FOR RWY 33. RWY 33 RCC 5, 5, 5. 1ST PART, WET. 2ND PART, WET. 3RD PART, WET. RWY REPORT END. TRANSITION LEVEL 80. WIND 280 DEG, 7 KT, VRB BTN 260 AND 330 DEG. VIS TDZ 10 KM OR MORE. WX FBL SHRA. CLD SCT CB 4000 FT. T 17. DP 10. QNH 1011. NOSIG. CAUTION. BIRD ACT. END OF EPWA ARR E\n[Departure ATIS] EPWA DEP ATIS T 1431Z EPWA DEP T. TIME 1430. DEP RWY 29. ARR RWY 33, EXP U ARR ILS Z. REPORT READY FOR STARTUP ON DELIVERY 121. 605 DATALINK DEP CLR UNAVAILABLE. RWY 29 RCC 6, 6, 6. 1ST PART, DRY. 2ND PART, DRY. 3RD PART, DRY. RWY REPORT END. TRANSITION LEVEL 80. WIND 290 DEG, 10 KT. VIS MID 10 KM OR MORE. CLD FEW 4000 FT. T 17. DP 11. QNH 1010. NOSIG. CAUTION. BIRD ACT. END OF EPWA DEP T",
    "EFHK": "[Arrival ATIS] EFHK ARR ATIS P 2250Z EXPECT ILS APCH ARR RWY 04L RUNWAY 04L CONDITION REPORT AT 2012 UTC RUNWAY CONDITION CODES 6 , 6 , 6 CONTAMINANTS ALL PARTS DRY TRL 65 LOW VISIBILITY PROCEDURES IN OPERATION WIND 350 DEG 4 KT VIS 200M RVR VALUES AVBL ON ATC FREQ FG OBSC. VER VIS 100 FT T 14 DP 14 QNH 1012 NOSIG ACK INFO P\n[Departure ATIS] EFHK DEP ATIS H 1620Z DEP RWYS 22R AND 22L RUNWAY 22R CONDITION REPORT AT 1329 UTC RUNWAY CONDITION CODES 6 , 6 , 6 CONTAMINANTS ALL PARTS DRY RUNWAY 22L CONDITION REPORT AT 1330 UTC RUNWAY CONDITION CODES 6 , 6 , 6 CONTAMINANTS ALL PARTS DRY WIND 110 DEG 6 KT VIS 10KM FEW 1400 FT. SCT 1600 FT. FEW TCU 2800 FT T 19 DP 15 QNH 1003 TEMPO CLD FEW CB 3000 FT. ACK INFO H",
    "LTAC": "[Arrival ATIS] LTAC ARR ATIS S 2250Z EXP ILS V APCH 03C DEP RWY 03L RWY 03C WIND VRB 02 KT RWY 03L WIND VRB 01 KT TRL 115 CAVOK T 19 DP 11 QNH 1011 NOSIG FOR DELIVERY CTC 121.9. FOR DELIVERY FIRST USE DIGITAL DEP CLR. CTN BIRD HAZARD OVR AERODROME. APCH FREQUENCY 129.050. END OF ATIS S",
    "UBBB": "[Arrival ATIS] UBBB ARR ATIS C 2330Z ATIS C EXP ILS/ LDG 34 35 DEP 34 35 IN USE RWY 34 CLEAR DRY 70 RWY 35 CLEAR DRY 70 TLVL 110 WIND WIND RWY 34 270 4 KT SPD MAX 4 MIN 4 WIND RWY 35 300 4 KT SPD MAX 8 MIN 2 VIS CAVOK T 23 / DP 20 QNH 1008 HPA TREND TREND NOSIG MODERATE BIRDS ACT IN VICINITY OF AP END OF ATIS C\n[Departure ATIS] UBBB DEP ATIS X 0900Z ATIS X EXP ILS/ LDG 35 DEP 35 IN USE RWY 35 CLEAR DRY 70 TLVL 110 WIND WIND RWY 34 360 12 KT SPD MAX 16 MIN 8 WIND RWY 35 010 12 KT SPD MAX 16 MIN 8 VIS CAVOK T 30 / DP 19 QNH 1012 HPA TREND TREND NOSIG MODERATE BIRDS ACT IN VICINITY OF AP RWY 34 DUE TO MAINTENANCE NOT IS USE END OF ATIS X",
    "ZWWW": "[Arrival ATIS] ZWWW ARR ATIS G 2230Z EXP ILSDME Z APCH LDG RWY 26L TA 3000 WIND 180/3MPS CAVOK T 23 /DP 11 QNH 1010 HPA ADZ YOU HAVE INFO G.\n[Departure ATIS] ZWWW DEP ATIS W 1000Z DEP RWY 08R TA 3000 WIND 010/6MPS VIS 9999M CLD FEW CB 1380M T 36 /DP 07 QNH 1007 HPA ADZ YOU HAVE INFO W.",
    "ZLXY": "[Arrival ATIS] ZLXY ARR ATIS R 1000Z EXP ILS APCH LDG RWY 23R WIND 250/5MPS VIS 9999M CLD SCT 1500M T 21 /DP 19 QNH 1011 HPA VISUAL APPROACH IN PROGRESS ADZ YOU HAVE INFO R.\n[Departure ATIS] ZLXY DEP ATIS L 0538Z DEP RWY 24R WIND 320/2MPS VIS 9999M CLD FEW CB 1200M /SCT 1500M /BKN 2100M T 26 /DP 20 QNH 1011 HPA VISUAL APPROACH IN PROGRESS ADZ YOU HAVE INFO L.",
    "ZBAA": "[Arrival ATIS] ZBAA ARR ATIS B 1100Z EXP ILS APCH DEPENDENT PARL INSTR APCH LDG RWY 36L & 36R & 01 WIND 290 DEG 7 MPS CAVOK T 28 /DP 05 QNH 1006 HPA VISUAL APPROACH IS IN PROGRESS. ADZ YOU HAVE INFO B.\n[Departure ATIS] ZBAA DEP ATIS A 1030Z DEP RWY 36L & 36R & 01 WIND 300 DEG 7 MPS CAVOK T 29 /DP 06 QNH 1006 HPA RWY INDEPENDENT PARALLEL DEP VISUAL APPROACH IS IN PROGRESS. ADZ YOU HAVE INFO A.",
    "ZBHH": "[Arrival ATIS] ZBHH ARR ATIS X 0300Z EXP ILSDME APCH LDG RWY 26 TA 3000 /TRL 3600 WIND 340/5MPS CAVOK T 16 /DP 01 QNH 1016 HPA ADZ YOU HAVE INFO X.\n[Departure ATIS] ZBHH DEP ATIS T 2300Z DEP RWY 26 TA 3000 /TRL 3600 WIND 330/5MPS VRB BTN 280/ AND 360/ CAVOK T 10 /DP M01 QNH 1015 HPA ADZ YOU HAVE INFO T.",
    "ZSQD": "[Arrival ATIS] ZSQD ARR ATIS F 0800Z EXP ILSDME APCH LDG RWY 35 TA 3000 /TRL 3600 WIND 330/7MPS CAVOK T 32 /DP 16 QNH 1004 HPA SEGREGATED OPERATION VISUAL APPROACH OPERATION IN PROGRESS. RUNWAY 35,IF MISSED APPROACH,EXPECT FOLLOW THE STANDARD MISSED APPROACH PROCEDURE,CLIMB TO 1200M ON QNH OR BY ATC CAUTION MAYBE THERE IS A FLOCK OF BIRDS IN THE VICINITY OF AIRPORT ADZ YOU HAVE INFO F.\n[Departure ATIS] ZSQD DEP ATIS Z 0400Z DEP RWY 34 TA 3000 /TRL 3600 WIND 290/4MPS VIS 9999M CLD BKN 1200M T 29 /DP 18 QNH 1003 HPA SEGREGATED OPERATION VISUAL APPROACH OPERATION IN PROGRESS. RUNWAY 35,IF MISSED APPROACH,EXPECT FOLLOW THE STANDARD MISSED APPROACH PROCEDURE,CLIMB TO 1200M ON QNH OR BY ATC CAUTION MAYBE THERE IS A FLOCK OF BIRDS IN THE VICINITY OF AIRPORT ADZ YOU HAVE INFO Z."
  },
  "windtemp_alaska": "\n000\nFBAK31 KWNO 092002\nFD1AK1\nDATA BASED ON 091800Z    \nVALID 100000Z   FOR USE 2000-0300Z. TEMPS NEG ABV 24000\n\nFT  3000    6000    9000   12000   18000   24000  30000  34000  39000\nADK 0921 2017+10 2225+07 2229+01 2241-10 2254-22 216537 227246 227858\nADQ 3116 3220+03 3224-01 3328-07 3231-19 3228-30 363547 333052 323245\nAKN 3013 3421+04 3216-01 3217-06 3219-18 3109-30 990047 312251 303347\nANC 0105 0311+03 0415-01 0517-06 0631-20 0750-33 085647 073647 051645\nANN 1806 1810-01 1717-06 1822-11 1727-22 1834-35 203942 223240 232841\nBET 3012 2911+03 2709-01 2707-05 2912-19 3017-32 292346 292450 282447\nBRW 2515 2320+05 2321-01 2424-06 2335-19 2246-31 225547 224753 222748\nBTI 9900 9900+09 9900+02 9900-04 2411-16 2318-28 233344 234954 232956\nBTT 2805 3105+11 9900+03 2005-04 9900-17 1812-28 192445 183455 182253\nCDB 2607 2713+05 2715+02 2718-02 2935-14 2953-25 298040 299749 299459\nCZF 2517 2617+04 2714-03 2313-05 2513-18 2616-31 262347 272452 262247\nEHM 3216 3110+03 2912+00 2914-04 3018-17 3027-30 296244 297251 294750\nFAI 9900 0807+08 0614+03 0614-04 0812-16 1121-28 122445 144254 142153\nFYU 0106 0513+11 0417+03 0513-03 1411-15 1415-27 161443 172754 172457\nGAL 3111 3310+07 9900+01 9900-05 9900-17 2011-29 181947 152656 210849\nGKN 3605 0212+04 0513+00 0617-06 0725-19 0944-30 116246 116151 111947\nHOM 3309 3515+03 3618-02 3621-07 3527-18 3435-31 345247 353449 351644\nJNU 1506 9900+01 0905-04 0909-10 1012-21 1022-33 105545 113346 101242\nLUR 2113 2013+05 2121-01 2124-06 2123-20 2125-32 212748 212551 221646\nMCG 3419 0118+06 0416+00 0821-05 9900-18 3610-29 081047 091856 990048\nMDO 3010 3107+02 9900-03 9900-08 0407-21 3613-34 031247 061644 051143\nOME 2313 2214+03 2016-01 2019-05 2016-18 2115-32 211347 221652 241447\nORT      3305+05 0510+00 0718-05 0828-17 0941-28 104744 115453 103051\nOTZ 2516 2315+05 2116+00 2018-06 2028-19 1934-31 193748 202754 221647\nSNP 1913 1915+04 1915+01 1914-03 2319-15 2436-25 256941 258850 267556\nTKA 2905 0413+04 0518+01 0522-05 0523-18 0632-30 084547 094453 071247\nUNK 2817 2608+05 2307+00 2205-05 1710-19 1620-31 172848 171953 240948\nYAK 9900 0808+04 0713-02 0613-09 0915-21 1036-34 115645 103847 101743\nIKO 1626 2028+09 2126+05 2232+00 2336-10 2343-21 235236 246747 267559\nAFM 2714 9900+07 9900+01 2406-04 2117-17 2021-30 182748 183456 211350\n5AB 0406 9900+02 9900-01 2007-06 2030-17 2043-28 216042 216447 214448\n5AC 2725 2826-01 2827-06 2837-09 2750-21 2763-33 266341 255841 255142\n5AD 3522 3523+00 3425-04 3327-09 3234-20 3247-32 325947 314345 313342\n5AE 3124 3026+02 3132+00 3133-04 3138-17 3052-29 319043 319250 316851\n5AF 1108 0708-01 0410-05 0411-09 0612-23 0721-35 071944 990040 300540\n5AG 3215 3311+01 3610-03 0214-09 0116-22 0312-35 041347 051244 010742\n",
  "vaac_tokyo": [
    {
      "id": "20260709_30027000_0253",
      "year": "2026",
      "volcano": "Sheveluch",
      "psn": "N5639 E16122",
      "issued": "20260709",
      "text": "FVFE01 RJTD 092226\nVA ADVISORY\nDTG: 20260709/2226Z\nVAAC: TOKYO\nVOLCANO: SHEVELUCH 300270\nPSN: N5639 E16122\nAREA: RUSSIA\nSOURCE ELEV: 3283M AMSL\nADVISORY NR: 2026/253\nINFO SOURCE: KVERT KBGS HIMAWARI-9\nERUPTION DETAILS: ERUPTION AT 20260709/2141Z FL400 EXTD E REPORTED\nOBS VA DTG: 09/2200Z\nOBS VA CLD: SFC/FL400 N5641 E16117 - N5653 E16136 - N5643 E16139 - \nN5636 E16125 MOV S 60KT\nFCST VA CLD +6 HR: 10/0400Z SFC/FL410 N5650 E16434 - N4942 E15810 - \nN5029 E15603 - N5644 E16238\nFCST VA CLD +12 HR: 10/1000Z SFC/FL400 N5655 E16725 - N4330 E15625 - \nN4608 E15336 - N5641 E16448\nFCST VA CLD +18 HR: 10/1600Z SFC/FL390 N5642 E17123 - N3636 E16126 - \nN4303 E15104 - N5637 E16706\nRMK: NIL\nNXT ADVISORY: 20260710/0000Z=",
      "img_url": "https://ds.data.jma.go.jp/svd/vaac/data/VAGFN/2026/Images/20260709_30027000_0253_QH21_01.png",
      "sat_img_url": "https://ds.data.jma.go.jp/svd/vaac/data/Sat/2026/Images/30027000/09-ir/20260709_2200_202607092226_ir.png",
      "text_url": "https://ds.data.jma.go.jp/svd/vaac/data/TextData/2026/20260709_30027000_0253_Text.html"
    },
    {
      "id": "20260706_27202000_0232",
      "year": "2026",
      "volcano": "Kanlaon",
      "psn": "N1025 E12308",
      "issued": "20260706",
      "text": "FVFE01 RJTD 061545\nVA ADVISORY\nDTG: 20260706/1545Z\nVAAC: TOKYO\nVOLCANO: KANLAON 272020\nPSN: N1025 E12308\nAREA: PHILIPPINES\nSOURCE ELEV: 2435M AMSL\nADVISORY NR: 2026/232\nINFO SOURCE: HIMAWARI-9 PHIVOLCS\nERUPTION DETAILS: ERUPTION AT 20260706/1520Z FL100 EXTD SW REPORTED\nOBS VA DTG: 06/1530Z\nOBS VA CLD: VA NOT IDENTIFIABLE FM SATELLITE DATA WIND FL100 350/5KT\nFCST VA CLD +6 HR: NOT AVBL\nFCST VA CLD +12 HR: NOT AVBL\nFCST VA CLD +18 HR: NOT AVBL\nRMK: WE WILL ISSUE FURTHER ADVISORY IF VA IS DETECTED IN SATELLITE \nIMAGERY.\nNXT ADVISORY: NO FURTHER ADVISORIES=",
      "img_url": "https://ds.data.jma.go.jp/svd/vaac/data/VAGFN/2026/Images/20260706_27202000_0232_QH21_01.png",
      "sat_img_url": null,
      "text_url": "https://ds.data.jma.go.jp/svd/vaac/data/TextData/2026/20260706_27202000_0232_Text.html"
    },
    {
      "id": "20260705_27303000_0717",
      "year": "2026",
      "volcano": "Mayon",
      "psn": "N1315 E12341",
      "issued": "20260705",
      "text": "FVFE01 RJTD 051936\nVA ADVISORY\nDTG: 20260705/1936Z\nVAAC: TOKYO\nVOLCANO: MAYON 273030\nPSN: N1315 E12341\nAREA: PHILIPPINES\nSOURCE ELEV: 2462M AMSL\nADVISORY NR: 2026/717\nINFO SOURCE: HIMAWARI-9 PHIVOLCS\nERUPTION DETAILS: ERUPTION AT 20260705/1914Z FL090 EXTD WSW REPORTED\nOBS VA DTG: 05/1920Z\nOBS VA CLD: VA NOT IDENTIFIABLE FM SATELLITE DATA WIND FL090 050/8KT\nFCST VA CLD +6 HR: NOT AVBL\nFCST VA CLD +12 HR: NOT AVBL\nFCST VA CLD +18 HR: NOT AVBL\nRMK: WE WILL ISSUE FURTHER ADVISORY IF VA IS DETECTED IN SATELLITE \nIMAGERY.\nNXT ADVISORY: NO FURTHER ADVISORIES=",
      "img_url": "https://ds.data.jma.go.jp/svd/vaac/data/VAGFN/2026/Images/20260705_27303000_0717_QH21_01.png",
      "sat_img_url": null,
      "text_url": "https://ds.data.jma.go.jp/svd/vaac/data/TextData/2026/20260705_27303000_0717_Text.html"
    },
    {
      "id": "20260701_30006000_0001",
      "year": "2026",
      "volcano": "Mutnovsky",
      "psn": "N5227 E15812",
      "issued": "20260701",
      "text": "FVFE01 RJTD 012206\nVA ADVISORY\nDTG: 20260701/2206Z\nVAAC: TOKYO\nVOLCANO: MUTNOVSKY 300060\nPSN: N5227 E15812\nAREA: RUSSIA\nSOURCE ELEV: 2288M AMSL\nADVISORY NR: 2026/1\nINFO SOURCE: KVERT KBGS UHPP HIMAWARI-9\nERUPTION DETAILS: ERUPTION AT 20260701/2016Z FL170 EXTD W REPORTED\nOBS VA DTG: 01/2140Z\nOBS VA CLD: VA NOT IDENTIFIABLE FM SATELLITE DATA WIND FL170 120/8KT\nFCST VA CLD +6 HR: NOT AVBL\nFCST VA CLD +12 HR: NOT AVBL\nFCST VA CLD +18 HR: NOT AVBL\nRMK: WE WILL ISSUE FURTHER ADVISORY IF VA IS DETECTED IN SATELLITE \nIMAGERY.\nNXT ADVISORY: NO FURTHER ADVISORIES=",
      "img_url": "https://ds.data.jma.go.jp/svd/vaac/data/VAGFN/2026/Images/20260701_30006000_0001_QH21_01.png",
      "sat_img_url": null,
      "text_url": "https://ds.data.jma.go.jp/svd/vaac/data/TextData/2026/20260701_30006000_0001_Text.html"
    }
  ],
  "vaac_alaska": [
    {
      "text": "\n000\nFVAK21 PAWU 092242\nVAAAK1\nVA ADVISORY\n\nDTG: 20260709/2240Z\n\nVAAC: ANCHORAGE\n\nVOLCANO: SHEVELUCH 300270\n\nPSN: N5639 E16122\n\nAREA: KAMCHATKA PENINSULA\n\nSOURCE ELEV: 10771 FT AMSL\n\nADVISORY NR: 2026/189\n\nRMK: PLEASE SEE FVFE01 RJTD ISSUED BY VAAC TOKYO WHICH DESCRIBES\nCONDITIONS NEAR THE VAAC ANCHORAGE AREA OF RESPONSIBILITY...SC\n\n\n\n",
      "issued": "2026-07-09T22:42:00+00:00",
      "volcano": "Sheveluch",
      "psn": "N5639 E16122"
    }
  ]
}