{
  "updated_utc": "2026-07-19T20:06Z",
  "metar": {
    "RJAA": "METAR RJAA 191830Z AUTO 18003KT 9999 NCD 24/23 Q1008 NOSIG",
    "PANC": "METAR PANC 191853Z 35005KT 8SM -RA FEW020 OVC065 11/10 A3010 RMK AO2 SLP193 P0007 T01060100",
    "PAFA": "METAR PAFA 191853Z 09009KT 10SM FEW060 SCT130 BKN220 18/06 A3000 RMK AO2 SLP164 ACSL S T01780056 $",
    "PAED": "METAR PAED 191855Z 36010KT 10SM RA BKN050 OVC080 11/09 A3008 RMK AO2A SLP182 P0008 T01070093 $",
    "KSEA": "METAR KSEA 191853Z 29008KT 10SM FEW010 21/12 A3013 RMK AO2 SLP206 T02060122 $",
    "ZSPD": "METAR ZSPD 191830Z 16002MPS 7000 NSC 27/27 Q1002 NOSIG",
    "ZSSS": "METAR ZSSS 191830Z VRB01MPS CAVOK 28/26 Q1002 NOSIG",
    "RJFR": "METAR RJFR 191900Z AUTO 02003KT 9999 FEW033 BKN060 //////TCU 28/26 Q1007",
    "VHHH": "METAR VHHH 191830Z 20011KT 170V230 9999 FEW012 30/25 Q1005 NOSIG",
    "RCTP": "METAR RCTP 191830Z 23014KT 9999 FEW015 27/24 Q1007 NOSIG RMK A2975",
    "ZGSZ": "METAR ZGSZ 191900Z 17005MPS 9999 -SHRA SCT015 FEW025CB BKN050 29/27 Q1005 BECMG AT1940 SCT030 BKN040",
    "WSSS": "METAR WSSS 191830Z 10006KT 9999 FEW018 BKN300 28/24 Q1011 NOSIG",
    "WMKK": "METAR WMKK 191830Z VRB01KT 9000 FEW030 27/25 Q1010 NOSIG",
    "WIDD": "METAR WIDD 191830Z 10003KT 9999 FEW014 27/25 Q1011 NOSIG",
    "VTBS": "METAR VTBS 191830Z 23005KT 9999 FEW020 29/25 Q1009 NOSIG",
    "VTBU": "METAR VTBU 191830Z 24003KT 9999 FEW020 29/29 Q1009 NOSIG",
    "ROAH": "METAR ROAH 191830Z AUTO 21008KT 9999 NCD 28/27 Q1007",
    "VVDN": "METAR VVDN 191830Z 30001KT 9999 FEW020 30/22 Q1006 NOSIG",
    "RCKH": "METAR RCKH 191900Z 06005KT 9999 FEW008CB FEW010 SCT032 BKN120 27/24 Q1008 TEMPO 5000 SHRA RMK CB W A2978",
    "KLAX": "METAR KLAX 191853Z 24010KT 10SM FEW011 FEW120 25/18 A2995 RMK AO2 SLP140 T02500178 $",
    "KONT": "METAR KONT 191853Z 23005KT 10SM FEW080 FEW120 32/14 A2994 RMK AO2 SLP118 T03170144 $",
    "KSFO": "METAR KSFO 191856Z 32012KT 10SM FEW008 BKN180 18/12 A2997 RMK AO2 SLP148 T01830122 $",
    "KOAK": "SPECI KOAK 191833Z 29007KT 10SM FEW005 SCT009 BKN150 17/13 A3000 RMK AO2 T01670128 $",
    "KMHR": "METAR KMHR 191815Z AUTO 29004KT 10SM CLR 25/11 A2992 RMK AO2 T02540111 $",
    "KDFW": "METAR KDFW 191853Z VRB04KT 10SM FEW055 35/21 A2995 RMK AO2 SLP130 T03500211 $",
    "KIAH": "METAR KIAH 191853Z 23005KT 10SM FEW039 FEW250 33/23 A2999 RMK AO2 SLP155 T03330228 $",
    "KORD": "METAR KORD 191851Z 04008KT 8SM FEW033 FEW250 26/15 A3004 RMK AO2 SLP167 T02560150 $",
    "KJFK": "METAR KJFK 191851Z 35015G20KT 10SM FEW060 FEW150 BKN250 BKN300 27/12 A2984 RMK AO2 PK WND 31026/1838 SLP103 FU BKN300 T02720117 $",
    "KRFD": "METAR KRFD 191854Z 16004KT 7SM FEW045 FEW220 27/14 A3004 RMK AO2 SLP169 T02670144 $",
    "KIND": "METAR KIND 191854Z 08006KT 6SM HZ SCT048 29/17 A2998 RMK AO2 SLP144 T02890172 $",
    "KDTW": "METAR KDTW 191853Z 15003KT 4SM HZ BKN065 BKN200 26/11 A3002 RMK AO2 SLP161 T02560106 $",
    "KMSP": "METAR KMSP 191853Z 25004KT 6SM FU FEW055 SCT250 31/16 A2998 RMK AO2 SLP145 T03060161",
    "CYEG": "METAR CYEG 191900Z 28010G19KT 12SM FEW028 FEW096 BKN220 19/15 A2985 RMK SC2AC1CS5 AC TR HZ SLP113 DENSITY ALT 3500FT",
    "EHAM": "METAR EHAM 191825Z 33014KT 290V360 9999 FEW036 17/08 Q1022 NOSIG",
    "EBBR": "METAR EBBR 191820Z 33012KT CAVOK 18/07 Q1022 NOSIG",
    "EDDF": "METAR EDDF 191820Z AUTO 33009KT CAVOK 21/05 Q1019 NOSIG",
    "EDFH": "METAR EDFH 191820Z 32004KT 290V360 CAVOK 18/06 Q1020",
    "EDDL": "METAR EDDL 191820Z AUTO 34011KT 300V360 CAVOK 20/06 Q1020 NOSIG",
    "EDDK": "METAR EDDK 191820Z AUTO 34007KT CAVOK 20/07 Q1020 NOSIG",
    "EBLG": "METAR EBLG 191820Z 33010KT CAVOK 19/07 Q1022 NOSIG",
    "LSZH": "METAR LSZH 191820Z 01008KT 9999 SCT070 23/08 Q1018 NOSIG",
    "LIMC": "METAR LIMC 191820Z 24005KT 210V270 CAVOK 30/15 Q1011 NOSIG",
    "LIRF": "METAR LIRF 191820Z 25004KT CAVOK 29/24 Q1012 NOSIG",
    "EINN": "METAR EINN 191830Z 36008KT 330V030 CAVOK 24/09 Q1026 NOSIG",
    "EGLL": "METAR EGLL 191820Z AUTO 04007KT 320V080 9999 NCD 21/05 Q1024",
    "EGSS": "METAR EGSS 191820Z AUTO 01009KT 9999 NCD 19/07 Q1025",
    "EPWA": "METAR EPWA 191830Z 29012KT 9999 -SHRA FEW007 BKN052CB 16/15 Q1012 TEMPO BKN007",
    "UHPP": "METAR UHPP 191830Z 29003MPS 9999 SCT110 19/15 Q1015 R16R/CLRD62 NOSIG RMK QFE758/1010",
    "EFHK": "METAR EFHK 191820Z 03007KT 9999 FEW023 16/11 Q1012 NOSIG",
    "LBBG": "METAR LBBG 191830Z AUTO 12008KT 9999 NCD 25/19 Q1014 NOSIG",
    "LTAC": "METAR LTAC 191820Z VRB01KT CAVOK 26/08 Q1015 NOSIG RMK RWY21C 15004KT RWY03L VRB02KT RWY21R 11003KT 040V190 RWY03R VRB02KT RWY21L VRB02KT",
    "UBBB": "METAR UBBB 191830Z 33018KT CAVOK 26/20 Q1010 NOSIG",
    "UTAA": "METAR UTAA 191900Z 29006KT 9999 BKN100 34/18 Q1006 R88/CLRD70 NOSIG",
    "UACC": "METAR UACC 191830Z 30003MPS CAVOK 24/08 Q1002 NOSIG RMK QFE721/0961",
    "UAAA": "METAR UAAA 191830Z VRB01MPS 9999 FEW100 26/09 Q1004 NOSIG",
    "UZTT": "METAR UZTT 191830Z 04010KT CAVOK 36/09 Q1001 NOSIG",
    "ZWWW": "METAR ZWWW 191830Z 18002MPS CAVOK 31/11 Q1006 NOSIG",
    "ZLXY": "METAR ZLXY 191900Z 09005MPS CAVOK 27/20 Q1004 NOSIG",
    "ZBAA": "METAR ZBAA 191830Z VRB01MPS 9999 FEW050CB 27/23 Q1002 NOSIG",
    "ZBHH": "METAR ZBHH 191900Z 08003MPS 9999 SCT040 17/15 Q1006 NOSIG",
    "ZSQD": "METAR ZSQD 191900Z 30001MPS 6000 NSC 22/22 Q1004 NOSIG",
    "ZMCK": "METAR ZMCK 191830Z VRB01MPS 9999 SCT100 11/09 Q1006 NOSIG RMK QFE640.4 88 NT",
    "UUEE": "METAR UUEE 191830Z 31002MPS 250V340 CAVOK 23/13 Q1014 R24L/CLRD62 R24C/CLRD62 NOSIG",
    "UUDD": "METAR UUDD 191830Z 21002MPS 200V280 CAVOK 21/12 Q1014 R31L/CLRD65 NOSIG",
    "ULLI": "METAR ULLI 191830Z 28004MPS 9999 SCT021 18/14 Q1011 R88/090065 NOSIG",
    "USSS": "SPECI USSS 191827Z 01004MPS 9999 OVC007 19/19 Q1006 R08R/290050 NOSIG RMK QFE734/0979",
    "UNNT": "METAR UNNT 191830Z VRB01MPS CAVOK 18/18 Q1006 R07/CLRD// R16/CLRD// NOSIG RMK QFE744/0993",
    "UNKL": "METAR UNKL 191830Z 00000MPS 7000 NSC 13/13 Q1005 R29/150060 NOSIG RMK QFE728",
    "UIBB": "METAR UIBB 191830Z AUTO VRB01MPS 9000 4300W // NSC 15/14 Q1003 RMK QFE710/0947",
    "UEEE": "METAR UEEE 191830Z 32002MPS 9999 SCT050CB 16/16 Q1002 R23/290153 NOSIG RMK QFE743",
    "UHHH": "METAR UHHH 191830Z 22003MPS CAVOK 20/19 Q1005 R23L/090060 NOSIG RMK QFE747/0996",
    "UHSS": "METAR UHSS 191900Z 02005MPS 9999 BKN020 17/16 Q1004 R19/CLRD70 NOSIG RMK MT OBSC QFE752/1002"
  },
  "taf": {
    "RJAA": "TAF RJAA 191705Z 1918/2100 20004KT 9999 FEW020",
    "PANC": "TAF PANC 191722Z 1918/2024 35006KT P6SM -RA SCT040 OVC070 WS020/11040KT FM192200 VRB05KT P6SM VCSH SCT050 OVC070 WS020/12030KT FM200600 15010G20KT P6SM SCT040 OVC060 FM201100 16008KT P6SM -RA SCT015 OVC035 FM201400 VRB04KT 5SM -RA BR SCT015 OVC025",
    "PAFA": "TAF PAFA 191726Z 1918/2024 VRB06KT P6SM FEW060 BKN150",
    "PAED": "TAF PAED 191319Z 1913/2019 32008KT 8000 -SHRA SCT025 BKN060 OVC070 640802 530009 QNH3002INS BECMG 2002/2003 28006KT 9999 VCSH SCT030 BKN060 OVC080 530009 QNH3000INS BECMG 2007/2008 28006KT 8000 -SHRA SCT020 BKN050 OVC065 530009 QNH3000INS TX12/1923Z TN10/1913Z",
    "KSEA": "TAF KSEA 191720Z 1918/2024 35007KT P6SM FEW015 FM192100 33009KT P6SM SKC FM200400 01008KT P6SM SKC FM201000 01006KT P6SM SCT250",
    "ZSPD": "TAF ZSPD 191503Z 1918/2024 18004MPS 6000 SCT030 TX32/2006Z TN24/1921Z TN25/2021Z TEMPO 2006/2010 33008G13MPS TSRA BKN015 FEW030CB",
    "ZSSS": "TAF ZSSS 191502Z 1918/2024 18004MPS 6000 SCT030 TX33/2006Z TN24/1921Z TN26/2021Z TEMPO 2005/2009 33008G13MPS TSRA BKN015 FEW030CB",
    "RJFR": "TAF RJFR 191705Z 1918/2100 01004KT 9999 FEW015 SCT045 BECMG 1923/2001 11010KT BECMG 2006/2009 33008KT BECMG 2015/2018 24004KT",
    "VHHH": "TAF VHHH 192000Z 1921/2103 20010KT 9999 FEW010 SCT025 TX31/2006Z TN27/1922Z TN27/2022Z TEMPO 1921/2003 24015G25KT 2500 TSRA SHRA FEW008CB SCT015 TEMPO 2003/2006 3000 SHRA FEW010CB SCT020 TEMPO 2021/2024 3000 SHRA FEW010CB SCT020 PROB30 TEMPO 2100/2103 24015G25KT 2500 TSRA SHRA FEW008CB SCT015",
    "RCTP": "TAF RCTP 191700Z 1918/2024 25012KT 9999 FEW020 BKN032 TEMPO 1918/1924 22005KT TEMPO 2006/2010 18005KT 5000 SHRA FEW010 FEW012CB BKN017 BECMG 2010/2012 20005KT",
    "ZGSZ": "TAF ZGSZ 191504Z 1918/2024 18004MPS 8000 BKN040 TX31/2006Z TN27/1922Z TN28/2022Z TEMPO 1922/2001 2000 +TSRA SCT011 FEW020CB BKN030 TEMPO 2004/2007 TSRA FEW011 FEW020CB BKN033",
    "WSSS": "TAF WSSS 191700Z 1918/2100 16007KT 9999 FEW015 SCT020",
    "WMKK": "TAF WMKK 191700Z 1918/2100 VRB03KT 9999 FEW030 PROB40 TEMPO 1922/2002 5000 TSRA FEW017CB",
    "VTBS": "TAF VTBS 191700Z 1918/2024 23008KT 9999 FEW020",
    "VTBU": "TAF VTBU 191700Z 1918/2018 21006KT 9999 FEW020",
    "ROAH": "TAF ROAH 191705Z 1918/2100 21006KT 9999 FEW008 BKN012 TEMPO 1918/1921 FEW003 BKN005 TEMPO 1921/2000 FEW005 BKN008 TEMPO 2012/2015 FEW005 BKN008 TEMPO 2015/2021 FEW003 BKN005 TEMPO 2021/2100 FEW005 BKN008",
    "VVDN": "TAF VVDN 191700Z 1918/2018 24006KT 9999 FEW017 BECMG 2005/2006 01010KT BECMG 2012/2013 22007KT",
    "RCKH": "TAF RCKH 191700Z 1918/2024 09005KT 9999 FEW012 BKN032 TEMPO 1918/1924 8000 -RA FEW010 BKN025 TEMPO 2000/2004 18005KT 4000 SHRA FEW010 FEW012CB BKN020 BECMG 2004/2006 23008KT TEMPO 2012/2018 18005KT BECMG 2018/2020 12005KT",
    "KLAX": "TAF KLAX 191733Z 1918/2024 26006KT P6SM SCT020 BKN200 FM191900 26012KT P6SM SCT020 BKN200 FM200400 26006KT P6SM FEW012 SCT200 FM200600 VRB03KT P6SM OVC008 FM201100 VRB03KT P6SM OVC015 FM201700 26006KT P6SM SCT020 FM202000 26012KT P6SM BKN200",
    "KONT": "TAF KONT 191738Z 1918/2024 VRB04KT P6SM SKC FM192000 25010G20KT P6SM FEW120 FM200500 VRB05KT P6SM SKC FM202000 25010G20KT P6SM FEW120",
    "KSFO": "TAF KSFO 191739Z 1918/2024 28011KT P6SM BKN150 FM200700 27008KT P6SM SCT007 BKN015 TEMPO 2011/2015 BKN007 FM201600 29008KT P6SM SCT015 SCT150",
    "KOAK": "TAF KOAK 191739Z 1918/2024 26010KT P6SM SCT009 TEMPO 1918/1919 BKN009 FM191900 30015KT P6SM BKN150 FM200400 27006KT P6SM OVC007 FM201700 28006KT P6SM SCT007 BKN015 FM201800 28006KT P6SM FEW015 SCT150",
    "KMHR": "TAF KMHR 191720Z 1918/2018 VRB05KT P6SM SCT250 FM192300 21011KT P6SM BKN150 FM200600 17009KT P6SM BKN150 FM201500 VRB05KT P6SM FEW250",
    "KDFW": "TAF KDFW 191720Z 1918/2024 19011KT P6SM FEW250 FM200500 20007KT P6SM FEW250",
    "KIAH": "TAF KIAH 191726Z 1918/2024 20008KT P6SM FEW030 SCT250 FM192200 17007KT P6SM FEW250 FM200600 21005KT P6SM FEW020 SCT250 FM201400 25007KT P6SM FEW025 FEW250",
    "KORD": "TAF KORD 191720Z 1918/2024 05012KT 6SM FU SCT025 FM200000 14006KT P6SM FEW200 FM200900 19005KT P6SM FEW300 FM202100 21012G21KT P6SM FEW035 BKN250",
    "KJFK": "TAF KJFK 191943Z 1920/2024 33013KT P6SM FEW250 FM200100 33007KT P6SM FEW250 FM200900 VRB05KT P6SM SKC FM201300 04006KT P6SM SKC FM201800 16008KT P6SM SCT250",
    "KRFD": "TAF KRFD 191720Z 1918/2018 08007KT 6SM FU SCT025 FM192300 14004KT P6SM FEW200 FM200900 18005KT P6SM FEW300",
    "KIND": "TAF KIND 191720Z 1918/2024 02008KT 5SM HZ SCT050 FM200000 06005KT P6SM FEW250 FM201300 13006KT 6SM HZ FEW050",
    "KDTW": "TAF KDTW 191952Z 1920/2024 15006KT 6SM HZ BKN060 TEMPO 1920/1922 4SM HZ FM200100 14003KT 6SM HZ SCT250 FM201000 20003KT P6SM SCT250 FM201400 21008KT P6SM SCT250",
    "KMSP": "TAF KMSP 191720Z 1918/2024 19007KT 6SM FU FEW250 FM192000 19010KT P6SM FEW250 FM200700 19010KT 6SM -SHRA BKN100 TEMPO 2008/2011 VRB15G30KT 2SM TSRA BKN050CB FM201200 22012G20KT P6SM BKN200 FM201800 27015G25KT P6SM FEW200",
    "CYEG": "TAF CYEG 191746Z 1918/2018 27012G22KT P6SM FEW030 BKN080 TEMPO 1918/1922 BKN030 OVC080 FM192200 30015G25KT P6SM BKN030 BKN080 TEMPO 1922/2001 5SM -SHRA VCTS BR BKN020 OVC080CB FM200100 30015G25KT P6SM SCT012 BKN020 BECMG 2004/2006 30008KT FM200600 30008KT P6SM SCT012 BKN030 TEMPO 2006/2010 5SM -SHRA BR BKN012 OVC030 FM201000 30006KT P6SM SCT008 BKN030 TEMPO 2010/2018 5SM -SHRA BR BKN008 OVC030 RMK NXT FCST BY 192100Z",
    "EHAM": "TAF EHAM 191714Z 1918/2024 33010KT 9999 SCT030 BECMG 2019/2022 36005KT",
    "EBBR": "TAF EBBR 191701Z 1918/2024 33007KT 9999 FEW030 SCT045",
    "EDDF": "TAF EDDF 191700Z 1918/2024 33012KT CAVOK BECMG 1919/1921 34007KT",
    "EDFH": "TAF EDFH 191700Z 1918/2018 35006KT CAVOK",
    "EDDL": "TAF EDDL 191700Z 1918/2024 32012KT CAVOK BECMG 1919/1922 30004KT BECMG 2008/2011 33009KT BECMG 2019/2022 35004KT",
    "EDDK": "TAF EDDK 191700Z 1918/2024 32011KT CAVOK BECMG 1918/1921 32004KT BECMG 2008/2011 34009KT BECMG 2018/2021 36004KT",
    "EBLG": "TAF EBLG 191701Z 1918/2024 34007KT 9999 FEW030 SCT045",
    "LSZH": "TAF LSZH 191725Z 1918/2024 33007KT 9999 FEW060 TX26/2015Z TN12/2004Z BECMG 1918/1919 03007KT BECMG 1920/1922 VRB02KT CAVOK BECMG 2006/2009 06006KT TEMPO 2009/2018 9999 FEW050 PROB30 TEMPO 2015/2018 31008KT PROB40 TEMPO 2018/2022 06011KT BECMG 2022/2024 VRB02KT",
    "LIMC": "TAF LIMC 191700Z 1918/2024 VRB05KT 9999 FEW050 TEMPO 2000/2008 4000 TSRA BECMG 2008/2010 11010KT BECMG 2013/2015 VRB05KT",
    "LIRF": "TAF LIRF 191700Z 1918/2024 23010KT CAVOK BECMG 1918/1920 VRB05KT TEMPO 2001/2005 3000 BR BECMG 2010/2012 21012KT BECMG 2017/2019 VRB05KT",
    "EINN": "TAF EINN 191700Z 1918/2018 36008KT 9999 FEW020 PROB40 TEMPO 2005/2009 BKN012",
    "EGLL": "TAF EGLL 191655Z 1918/2024 01010KT 9999 SCT040 BECMG 2018/2021 07005KT",
    "EGSS": "TAF EGSS 191653Z 1918/2024 35007KT 9999 FEW040",
    "EPWA": "TAF AMD EPWA 191833Z 1918/2018 28010KT 9999 SCT030 TEMPO 1918/2006 BKN005 BKN010 PROB40 TEMPO 1918/2006 BKN004 PROB30 TEMPO 1918/1924 -SHRA BKN030CB TEMPO 2009/2018 29020G30KT 2500 TSRA SCT025CB ",
    "UHPP": "TAF UHPP 191642Z 1918/2024 36003G10MPS 9999 SCT040CB TX29/2003Z TN14/2017Z TEMPO 1922/2009 30005G12MPS TEMPO 2015/2024 12005G14MPS 2000 -SHRA BR BKN005 OVC020CB",
    "EFHK": "TAF EFHK 191729Z 1918/2018 02009KT 9999 SCT025 PROB30 TEMPO 1920/1924 FEW060TCU",
    "LBBG": "TAF LBBG 191700Z 1918/2018 12013KT 9999 SCT045 BECMG 1921/1923 VRB03KT BECMG 2008/2010 13015KT PROB40 TEMPO 2012/2016 VRB17G27KT 4000 TSRA SCT030CB BKN040",
    "LTAC": "TAF LTAC 191640Z 1918/2018 VRB02KT CAVOK TEMPO 1918/1920 04012KT BECMG 2006/2009 SCT040",
    "UBBB": "TAF UBBB 191701Z 1918/2018 33022G32KT 9999 FEW015 TX28/2010Z TN24/2001Z TEMPO 1918/2009 34028G38KT SCT010 FEW050CB PROB40 TEMPO 1920/2009 -TSRA SCT040CB BECMG 2012/2014 35016G26KT",
    "UTAA": "TAF UTAA 191645Z 1918/2018 01016KT 6000 SCT050 TEMPO 1918/1922 27012G22KT 3000 BLDU TEMPO 1922/2007 31016G26KT 1500 BLDU VV010",
    "UACC": "TAF UACC 191700Z 1918/2018 30004MPS 9999 SCT040 BKN100 TX29/2009Z TN18/1923Z BECMG 2004/2006 24008MPS TEMPO 2004/2014 28008G13MPS BKN030CB PROB40 TEMPO 2006/2014 TS BKN030CB BECMG 2014/2016 24003MPS TEMPO 2014/2018 VRB01MPS SCT030CB",
    "UAAA": "TAF UAAA 191701Z 1918/2018 19002MPS 9999 FEW050 SCT100 TX41/2010Z TN25/2000Z TEMPO 2000/2006 29005MPS BECMG 2006/2007 31003G08MPS SCT050CB BKN100 TEMPO 2006/2011 05005MPS TEMPO 2011/2015 12005MPS TEMPO 2015/2018 22005MPS",
    "UZTT": "TAF UZTT 191700Z 1918/2018 22010KT 7000 NSC TX42/2011Z TN26/2000Z TEMPO 1918/1924 32015KT",
    "ZWWW": "TAF ZWWW 191503Z 1918/2024 18004MPS CAVOK TX39/2009Z TN28/1923Z TN29/2023Z BECMG 2002/2003 36004MPS BECMG 2013/2014 18004MPS",
    "ZLXY": "TAF ZLXY 191505Z 1918/2018 06004MPS 6000 NSC TX37/2008Z TN22/1922Z",
    "ZBAA": "TAF AMD ZBAA 191931Z 1918/2024 16004MPS CAVOK TX30/2006Z TN23/1921Z TN22/2021Z TEMPO 1918/1920 34007MPS TSRA FEW040CB BKN040 TEMPO 2009/2012 TSRA FEW040CB BKN040",
    "ZBHH": "TAF ZBHH 191507Z 1918/2018 06004G09MPS 9999 SCT040 TX30/2008Z TN15/1922Z TEMPO 1918/1924 2800 -SHRA SCT040 FEW040CB TEMPO 2006/2009 -TSRA SCT040 FEW040CB",
    "ZSQD": "TAF ZSQD 191501Z 1918/2018 09004MPS 3500 BR NSC TX30/2006Z TN20/1920Z",
    "ZMCK": "TAF ZMCK 191636Z 1918/2024 VRB02MPS 9999 FEW030CB SCT033 TN10/1921Z TX24/2007Z BECMG 2002/2004 32005MPS PROB40 TEMPO 2005/2013 VRB08G13MPS TSRA SCT027CB SCT030 BECMG 2010/2012 VRB02MPS",
    "UUEE": "TAF UUEE 191651Z 1918/2018 22003MPS 9999 SCT040 TX27/2012Z TN15/2001Z",
    "UUDD": "TAF UUDD 191656Z 1918/2024 20003MPS 9999 SCT040 TX28/2012Z TN13/2001Z",
    "ULLI": "TAF ULLI 191651Z 1918/2018 30006G13MPS 6000 BKN016 PROB40 TEMPO 1918/1920 3100 -TSRA BKN017CB BECMG 1920/1921 35003MPS PROB40 TEMPO 1920/2005 0500 FG OVC003 BECMG 2005/2006 04006G13MPS",
    "USSS": "TAF USSS 191655Z 1918/2018 02003G13MPS 6000 -SHRA BKN016CB TEMPO 1918/2003 -TSRA BKN006 BKN011CB TEMPO 2003/2018 VRB21MPS -TSRAGR SQ",
    "UNNT": "TAF UNNT 191700Z 1918/2018 03003G08MPS 8000 SCT040 TX27/2009Z TN16/1922Z TEMPO 1919/2001 0300 FG BKN002 TEMPO 2004/2014 09006G13MPS",
    "UNKL": "TAF UNKL 191649Z 1918/2018 29003MPS 6000 SCT040 TEMPO 1918/1920 0400 FG BECMG 1920/1922 0400 FG VV002 BECMG 1923/2001 6000 NSW BKN016CB TEMPO 2001/2015 34005MPS -TSRA",
    "UIBB": "TAF UIBB 191700Z 1918/2018 28002MPS 0300 FG BKN001 BKN020CB TEMPO 1918/2001 4000 BR FEW003 BKN015CB BECMG 2001/2003 9999 NSW BKN016CB TEMPO 2003/2012 VRB08MPS -TSRA",
    "UEEE": "TAF UEEE 191700Z 1918/2024 33003MPS 9999 BKN023CB OVC070 TEMPO 1918/1923 0500 SHRA FG VV003",
    "UHHH": "TAF AMD UHHH 191932Z 1919/2024 22003MPS 9999 FEW010 TX30/2003Z TN20/2019Z FM192300 26003MPS 9999 SCT020CB TEMPO 2000/2009 29008MPS",
    "UHSS": "TAF AMD UHSS 191925Z 1919/2024 36003MPS 9999 BKN016CB"
  },
  "atis": {},
  "windtemp_alaska": "\n000\nFBAK31 KWNO 191359\nFD1AK1\nDATA BASED ON 191200Z    \nVALID 191800Z   FOR USE 1400-2100Z. TEMPS NEG ABV 24000\n\nFT  3000    6000    9000   12000   18000   24000  30000  34000  39000\nADK 2315 2714+07 3122+03 3224-02 3235-12 3244-24 324938 315046 314955\nADQ 1618 1727+03 1834-01 1846-05 1864-17 1977-28 188442 188451 186851\nAKN 1630 1617-02 1726-06 1737-09 1746-21 1858-33 186644 175943 184142\nANC 1322 1738+05 1843+01 1947-04 1853-16 1957-27 196142 186151 195154\nANN 3416 3515+07 3512+06 3412+02 3307-12 3308-24 351540 352048 341557\nBET 1614 1017-01 1017-06 1120-12 1520-23 1526-35 152745 162341 151639\nBRW 2606 2509+03 2412-02 2107-08 1112-20 1017-32 102345 112045 111742\nBTI 2509 2512+04 2412-02 2311-08 2319-20 2430-31 243745 243345 222044\nBTT 1315 1421+03 1422-04 1320-09 1724-18 1938-28 207342 207651 204449\nCDB 2909 3110-02 3214-07 3221-13 3117-25 3012-36 270941 260839 260739\nCZF 0609 0610-02 0907-06 0909-11 0612-23 0619-36 051146 060640 100539\nEHM 1709 1606-02 1306-07 1310-11 1513-24 1619-35 162044 151540 161039\nFAI 1510 1615+04 1930-01 2044-05 2157-16 2052-26 205542 205451 204255\nFYU 1411 1613+04 1812-02 2118-06 2236-15 2343-26 225442 225752 223453\nGAL 1216 1215+01 1217-04 1417-09 1727-20 1739-33 186245 186246 164544\nGKN 1520 1837+07 1937+02 1931-04 2128-16 2033-27 193742 204051 202856\nHOM 1419 1724+04 1739-01 1750-05 1868-16 1973-28 188242 187951 196453\nJNU 9900 3606+07 3406+05 2805+00 2606-13 2707-25 261140 241349 211758\nLUR 1511 1413+01 1415-05 1415-11 1319-24 1425-36 142744 112341 101940\nMCG 1613 1810+01 1512-03 1616-08 1630-20 1747-32 189543 189448 174145\nMDO 1831 1828+06 1826+01 1925-03 2033-16 2034-27 193642 193752 194256\nOME 1217 1217-01 1218-06 1222-12 1118-22 1220-35 132349 141742 131339\nORT      1812+07 2213+03 2218-02 2026-15 2129-26 202942 213351 212457\nOTZ 1413 1315+00 1315-05 1315-12 1420-22 1526-34 163049 142243 131740\nSNP 3011 3212+00 3216-05 3219-09 3435-21 3454-32 336745 336645 344542\nTKA 1408 1826+02 1833-02 1849-05 1959-17 1967-28 197042 196751 195053\nUNK 1020 1125+00 1120-05 1224-11 1532-22 1535-34 163947 163243 162241\nYAK 9900 2915+06 2712+03 2510-02 2214-14 2219-25 222041 222250 222258\nIKO 3019 3224+00 3225-05 3125-09 3338-21 3359-31 338742 339446 336044\nAFM 1311 1412+01 1514-05 1518-11 1424-21 1729-32 173747 173946 162342\n5AB 3111 3117+11 3122+06 3128+01 3133-11 3041-23 305338 305947 305754\n5AC 3420 3420+08 3321+05 3320+01 3217-13 3011-25 281640 281749 271258\n5AD 2031 2029+06 2031+03 2029-01 2028-15 2035-27 193543 193952 193955\n5AE 2016 2024+00 1932-03 1938-08 1953-19 1877-30 690044 198648 195345\n5AF 3212 3314+08 3311+04 3113+00 2810-13 2510-25 230940 210950 201058\n5AG 2014 2114+06 2212+01 2114-01 2219-14 2125-26 202741 203250 203058\n",
  "vaac_active": [],
  "vaac_tokyo": [
    {
      "id": "20260719_27303000_0767",
      "year": "2026",
      "volcano": "Mayon",
      "psn": "N1315 E12341",
      "issued": "20260719",
      "text": "FVFE01 RJTD 190225\nVA ADVISORY\nDTG: 20260719/0225Z\nVAAC: TOKYO\nVOLCANO: MAYON 273030\nPSN: N1315 E12341\nAREA: PHILIPPINES\nSOURCE ELEV: 2462M AMSL\nADVISORY NR: 2026/767\nINFO SOURCE: HIMAWARI-9 PHIVOLCS\nERUPTION DETAILS: ERUPTION AT 20260719/0207Z FL090 REPORTED\nOBS VA DTG: 19/0210Z\nOBS VA CLD: VA NOT IDENTIFIABLE FM SATELLITE DATA WIND FL090 350/1KT\nFCST VA CLD +6 HR: NOT AVBL\nFCST VA CLD +12 HR: NOT AVBL\nFCST VA CLD +18 HR: NOT AVBL\nRMK: WE WILL ISSUE FURTHER ADVISORY IF VA IS DETECTED IN SATELLITE \nIMAGERY.\nNXT ADVISORY: NO FURTHER ADVISORIES=",
      "img_url": "https://ds.data.jma.go.jp/svd/vaac/data/VAGFN/2026/Images/20260719_27303000_0767_QH21_01.png",
      "sat_img_url": null,
      "text_url": "https://ds.data.jma.go.jp/svd/vaac/data/TextData/2026/20260719_27303000_0767_Text.html"
    },
    {
      "id": "20260718_30027000_0268",
      "year": "2026",
      "volcano": "Sheveluch",
      "psn": "N5639 E16122",
      "issued": "20260718",
      "text": "FVFE01 RJTD 180000\nVA ADVISORY\nDTG: 20260718/0000Z\nVAAC: TOKYO\nVOLCANO: SHEVELUCH 300270\nPSN: N5639 E16122\nAREA: RUSSIA\nSOURCE ELEV: 3283M AMSL\nADVISORY NR: 2026/268\nINFO SOURCE: KVERT HIMAWARI-9\nERUPTION DETAILS: VA CONTINUOUSLY OBS IN SATELLITE IMAGERY\nOBS VA DTG: 17/2320Z\nOBS VA CLD: SFC/FL290 N5601 E16322 - N5605 E16357 - N5546 E16401 - \nN5544 E16326 MOV SE 25KT\nFCST VA CLD +6 HR: 18/0520Z SFC/FL300 N5529 E16617 - N5404 E16714 - \nN5357 E16639 - N5527 E16530\nFCST VA CLD +12 HR: 18/1120Z SFC/FL300 N5352 E17006 - N5152 E17037 - \nN5152 E16936 - N5344 E16817\nFCST VA CLD +18 HR: NO VA EXP\nRMK: SOME PART OF VA OBSCURED BY MET CLOUD.\nNXT ADVISORY: 20260718/0600Z=",
      "img_url": "https://ds.data.jma.go.jp/svd/vaac/data/VAGFN/2026/Images/20260718_30027000_0268_QH21_01.png",
      "sat_img_url": "https://ds.data.jma.go.jp/svd/vaac/data/Sat/2026/Images/30027000/09-ir/20260717_2320_202607180000_ir.png",
      "text_url": "https://ds.data.jma.go.jp/svd/vaac/data/TextData/2026/20260718_30027000_0268_Text.html"
    },
    {
      "id": "20260717_27307000_0014",
      "year": "2026",
      "volcano": "Taal",
      "psn": "N1400 E12100",
      "issued": "20260717",
      "text": "FVFE01 RJTD 171113\nVA ADVISORY\nDTG: 20260717/1113Z\nVAAC: TOKYO\nVOLCANO: TAAL 273070\nPSN: N1400 E12100\nAREA: PHILIPPINES\nSOURCE ELEV: 311M AMSL\nADVISORY NR: 2026/14\nINFO SOURCE: HIMAWARI-9 PHIVOLCS\nERUPTION DETAILS: ERUPTION AT 20260717/1051Z FL040 EXTD E REPORTED\nOBS VA DTG: 17/1100Z\nOBS VA CLD: VA NOT IDENTIFIABLE FM SATELLITE DATA WIND FL040 270/8KT\nFCST VA CLD +6 HR: NOT AVBL\nFCST VA CLD +12 HR: NOT AVBL\nFCST VA CLD +18 HR: NOT AVBL\nRMK: WE WILL ISSUE FURTHER ADVISORY IF VA IS DETECTED IN SATELLITE \nIMAGERY.\nNXT ADVISORY: NO FURTHER ADVISORIES=",
      "img_url": "https://ds.data.jma.go.jp/svd/vaac/data/VAGFN/2026/Images/20260717_27307000_0014_QH21_01.png",
      "sat_img_url": null,
      "text_url": "https://ds.data.jma.go.jp/svd/vaac/data/TextData/2026/20260717_27307000_0014_Text.html"
    },
    {
      "id": "20260713_28208001_0083",
      "year": "2026",
      "volcano": null,
      "psn": "N3136 E13039",
      "issued": "20260713",
      "text": "FVFE01 RJTD 130254\nVA ADVISORY\nDTG: 20260713/0254Z\nVAAC: TOKYO\nVOLCANO: SAKURAJIMA (AIRA CALDERA) 282080\nPSN: N3136 E13039\nAREA: JAPAN\nSOURCE ELEV: 1117M AMSL\nADVISORY NR: 2026/83\nINFO SOURCE: JMA HIMAWARI-9\nERUPTION DETAILS: ERUPTED AT 20260713/0152Z FL100 EXTD N\nOBS VA DTG: 13/0230Z\nOBS VA CLD: SFC/FL100 N3136 E13039 - N3142 E13040 - N3141 E13044 - \nN3134 E13042 MOV NE 15KT\nFCST VA CLD +6 HR: 13/0830Z SFC/FL100 N3234 E13121 - N3145 E13155 - \nN3202 E13110 - N3227 E13051\nFCST VA CLD +12 HR: 13/1430Z SFC/FL100 N3318 E13206 - N3142 E13317 - \nN3134 E13226 - N3312 E13118\nFCST VA CLD +18 HR: NO VA EXP\nRMK: NIL\nNXT ADVISORY: 20260713/0600Z=",
      "img_url": "https://ds.data.jma.go.jp/svd/vaac/data/VAGFN/2026/Images/20260713_28208001_0083_QH21_01.png",
      "sat_img_url": "https://ds.data.jma.go.jp/svd/vaac/data/Sat/2026/Images/28208001/09-ir/20260713_0230_202607130254_ir.png",
      "text_url": "https://ds.data.jma.go.jp/svd/vaac/data/TextData/2026/20260713_28208001_0083_Text.html"
    }
  ],
  "vaac_alaska": [
    {
      "text": "\n000\nFVAK21 PAWU 180008\nVAAAK1\nVA ADVISORY\n\nDTG: 20260718/0000Z\n\nVAAC: ANCHORAGE\n\nVOLCANO: SHEVELUCH 300270\n\nPSN: N5639 E16122\n\nAREA: KAMCHATKA PENINSULA\n\nSOURCE ELEV: 10771 FT AMSL\n\nADVISORY NR: 2026/205\n\nRMK: PLEASE SEE FVFE01 RJTD ISSUED BY VAAC TOKYO WHICH DESCRIBES\nCONDITIONS NEAR THE VAAC ANCHORAGE AREA OF RESPONSIBILITY...BS\n\n\n\n",
      "issued": "2026-07-18T00:08:00+00:00",
      "volcano": "Sheveluch",
      "psn": "N5639 E16122"
    }
  ]
}