{
  "updated_utc": "2026-07-13T01:01Z",
  "metar": {
    "RJAA": "METAR RJAA 122330Z 19004KT 6000 -SHRA FEW020 SCT080 BKN120 25/24 Q1006 BECMG 26006KT",
    "PANC": "SPECI PANC 122308Z 04005KT 4SM -RA BR FEW006 BKN035 OVC060 12/11 A2987 RMK AO2 P0002 T01220111 $",
    "PAFA": "METAR PAFA 122353Z 30003KT 10SM FEW040 BKN095 BKN150 20/09 A2973 RMK AO2 SLP072 T02000094 10200 20139 58007 $",
    "PAED": "SPECI PAED 122325Z AUTO 02004KT 8SM -RA FEW007 OVC029 13/11 A2985 RMK AO2 SLP104 $",
    "KSEA": "METAR KSEA 122353Z 29009KT 10SM FEW030 22/07 A3011 RMK AO2 SLP199 T02220067 10222 20172 58014 $",
    "ZSPD": "METAR ZSPD 122330Z 16012MPS CAVOK 30/26 Q1000 NOSIG",
    "ZSSS": "METAR ZSSS 122330Z 17011MPS CAVOK 31/25 Q0999 NOSIG",
    "RJFR": "METAR RJFR 130000Z 06004KT 5000 R18/1300VP2000D BR FEW001 BKN002 BKN003 27/25 Q1012",
    "VHHH": "METAR VHHH 122330Z 06004KT 9999 FEW015 30/25 Q1003 NOSIG",
    "RCTP": "METAR RCTP 122330Z 25005KT 220V290 9999 FEW010 SCT016 BKN020 29/28 Q1006 NOSIG RMK A2971",
    "ZGSZ": "METAR ZGSZ 130000Z 18003MPS 9999 FEW020 30/26 Q1003 NOSIG",
    "WSSS": "METAR WSSS 122330Z 15004KT 9999 FEW016 SCT030 BKN300 27/25 Q1009 NOSIG",
    "WMKK": "METAR WMKK 122330Z 12005KT 050V170 9000 FEW030 27/25 Q1008 NOSIG",
    "WIDD": "METAR WIDD 122330Z 14006KT 9999 FEW014 29/25 Q1009 NOSIG",
    "VTBS": "METAR VTBS 122330Z 23006KT 9999 FEW020 28/22 Q1005 NOSIG",
    "VTBU": "METAR VTBU 122330Z 25004KT 220V280 9999 FEW020 27/27 Q1005 NOSIG",
    "ROAH": "METAR ROAH 122330Z 17015KT 9999 SCT010 BKN013 28/26 Q1011",
    "VVDN": "METAR VVDN 122330Z 25004KT 220V290 9999 FEW017 30/23 Q1002 NOSIG",
    "RCKH": "METAR RCKH 122330Z 17013G23KT 140V200 9999 FEW008CB FEW016 SCT200 31/25 Q1006 NOSIG RMK CB SW A2971",
    "KLAX": "METAR KLAX 122353Z 27010KT 10SM FEW011 FEW090 BKN110 BKN180 22/18 A2990 RMK AO2 SLP124 T02170178 10239 20211 58016 $",
    "KONT": "METAR KONT 122353Z 24008KT 10SM SCT130 BKN180 BKN250 31/14 A2989 RMK AO2 SLP104 T03060144 10311 20244 56020 $",
    "KSFO": "METAR KSFO 122356Z 31012KT 10SM BKN180 BKN200 22/13 A2990 RMK AO2 SLP126 T02220128 10244 20183 56013 $",
    "KOAK": "METAR KOAK 122353Z 29013KT 10SM FEW070 BKN150 BKN300 22/13 A2991 RMK AO2 SLP129 T02220133 10256 20189 56008",
    "KMHR": "METAR KMHR 122315Z AUTO 15004KT 10SM CLR 33/08 A2989 RMK AO2 T03260082 $",
    "KDFW": "METAR KDFW 122353Z 03017G24KT 10SM SCT070TCU BKN100 BKN250 29/19 A3001 RMK AO2 PK WND 01039/2315 SLP151 OCNL LTGIC DSNT NE-SE-SW-W CB DSNT NE-SE-SW-W MOV SE TCU OHD T02890194 10361 20289 55000 $",
    "KIAH": "METAR KIAH 122353Z 17005KT 10SM FEW030 BKN150 BKN250 29/23 A3004 RMK AO2 LTG DSNT E SLP172 CB DSNT NE-E MOV NE 60000 T02890233 10350 20272 56009 $",
    "KORD": "METAR KORD 122351Z 05010KT 10SM CLR 28/13 A3017 RMK AO2 SLP210 T02830133 10306 20283 55002 $",
    "KJFK": "METAR KJFK 122351Z 19009KT 10SM FEW250 23/19 A3019 RMK AO2 SLP223 T02330189 10278 20233 51003 $",
    "KRFD": "METAR KRFD 122354Z 20003KT 10SM FEW060 29/18 A3018 RMK AO2 SLP215 T02890178 10306 20289 55005 $",
    "KIND": "METAR KIND 122354Z 05012KT 10SM FEW055 29/16 A3010 RMK AO2 SLP185 T02890156 10311 20283 55003",
    "KDTW": "METAR KDTW 122353Z 18008KT 9SM FEW065 SCT250 26/16 A3016 RMK AO2 SLP210 T02610156 10294 20261 55002 $",
    "KMSP": "METAR KMSP 122353Z 23011KT 10SM CLR 32/22 A3013 RMK AO2 SLP195 T03170217 10322 20306 56012 $",
    "CYEG": "METAR CYEG 130000Z 28003KT 220V320 20SM FEW054TCU FEW130 23/12 A2985 RMK TCU1AC1 SLP111 DENSITY ALT 4000FT",
    "EHAM": "METAR EHAM 122325Z 03007KT 360V060 CAVOK 16/14 Q1024 NOSIG",
    "EBBR": "METAR EBBR 122320Z 02007KT CAVOK 19/13 Q1022 NOSIG",
    "EDDF": "METAR EDDF 122320Z AUTO 02011KT CAVOK 25/13 Q1020 NOSIG",
    "EDFH": "METAR EDFH 122320Z 08005KT 030V130 CAVOK 21/12 Q1022",
    "EDDL": "METAR EDDL 122320Z AUTO 01007KT CAVOK 21/12 Q1022 NOSIG",
    "EDDK": "METAR EDDK 122320Z AUTO 05005KT CAVOK 22/13 Q1021 NOSIG",
    "EBLG": "METAR EBLG 122320Z 04009KT CAVOK 21/10 Q1022 NOSIG",
    "LSZH": "METAR LSZH 122320Z AUTO 07009KT 030V100 CAVOK 24/09 Q1020 NOSIG",
    "LIMC": "METAR LIMC 122320Z 05004KT CAVOK 23/18 Q1018 NOSIG",
    "LIRF": "METAR LIRF 122320Z 07003KT CAVOK 25/22 Q1015 NOSIG",
    "EINN": "METAR EINN 122330Z 02002KT CAVOK 20/14 Q1024 NOSIG",
    "EGLL": "METAR EGLL 122320Z AUTO 05013KT 9999 NCD 19/09 Q1024",
    "EGSS": "METAR EGSS 122320Z AUTO 04013KT 9999 NCD 15/12 Q1026",
    "EPWA": "METAR EPWA 122330Z 30004KT 9999 SCT045 15/14 Q1017 NOSIG",
    "UHPP": "METAR UHPP 122330Z 16006MPS 9999 FEW050 22/13 Q1013 R16R/CLRD62 NOSIG RMK MT OBSC QFE756/1008",
    "EFHK": "METAR EFHK 122320Z 35009KT 9999 -SHRA FEW060CB 20/17 Q1017 BECMG CAVOK",
    "LBBG": "METAR LBBG 122330Z AUTO 04005KT 9000 NSC 22/18 Q1014 NOSIG",
    "LTAC": "METAR LTAC 122320Z 05011KT CAVOK 20/11 Q1015 NOSIG RMK RWY21C 05004KT 020V080 RWY03L 04010KT RWY21R 03007KT RWY03R 03012KT RWY21L 04009KT",
    "UBBB": "METAR UBBB 122330Z 32008KT CAVOK 25/21 Q1009 NOSIG",
    "UTAA": "METAR UTAA 130000Z 29008KT 9999 NSC 29/16 Q1007 R88/CLRD70 NOSIG",
    "UACC": "METAR UACC 122330Z VRB01MPS CAVOK 17/08 Q1009 NOSIG RMK QFE725/0967",
    "UAAA": "METAR UAAA 122330Z 15003MPS 9999 FEW050CB SCT100 BKN200 21/12 Q1005 NOSIG",
    "UZTT": "METAR UZTT 122330Z 07008KT CAVOK 27/11 Q1003 NOSIG",
    "ZWWW": "METAR ZWWW 122330Z 17003MPS CAVOK 27/07 Q1004 NOSIG",
    "ZLXY": "METAR ZLXY 130000Z VRB01MPS CAVOK 28/20 Q1004 NOSIG",
    "ZBAA": "METAR ZBAA 122330Z 01003MPS CAVOK 28/24 Q1003 NOSIG",
    "ZBHH": "METAR ZBHH 130000Z 04002MPS 360V090 CAVOK 21/13 Q1011 NOSIG",
    "ZSQD": "METAR ZSQD 130000Z 13007MPS 6000 BKN010 26/26 Q0999 NOSIG",
    "ZMCK": "METAR ZMCK 122330Z VRB02MPS 9999 FEW033 12/08 Q1012 NOSIG RMK QFE644.5 75 MOP",
    "UUEE": "METAR UUEE 122330Z 03005MPS 9999 FEW009 BKN030 17/16 Q1003 R06R/290145 R06C/290145 NOSIG",
    "UUDD": "METAR UUDD 122330Z 04005MPS 9999 -SHRA FEW004 BKN036CB 17/16 Q1001 R13R/CLRD65 NOSIG",
    "ULLI": "METAR ULLI 122330Z 26002MPS CAVOK 20/16 Q1012 R88/090065 NOSIG",
    "USSS": "METAR USSS 122330Z 04003MPS 010V070 5000 BR BKN005 OVC025 19/19 Q1009 R26L/290350 R26R/290340 TEMPO 0300 FG VV002 RMK QFE736/0982",
    "UNNT": "METAR UNNT 122330Z 28001MPS CAVOK 10/10 Q1009 R25/CLRD// R34/////// NOSIG RMK QFE747/0996",
    "UNKL": "METAR UNKL 122330Z 00000MPS CAVOK 10/09 Q1012 R11/CLRD// NOSIG RMK QFE734",
    "UIBB": "METAR UIBB 122330Z 30003MPS 9999 SCT033CB 11/10 Q1011 R30/290151 NOSIG RMK QFE716/0954",
    "UEEE": "METAR UEEE 122330Z 03004MPS 9999 SCT040CB 19/16 Q1002 R23/290158 NOSIG RMK QFE742",
    "UHHH": "METAR UHHH 122330Z 17004MPS 9999 -SHRA SCT037CB 23/23 Q1001 R88/290045 NOSIG RMK QFE744/0993",
    "UHSS": "METAR UHSS 122330Z 01001MPS 9999 BKN013 19/18 Q1006 R01/290060 NOSIG RMK MT OBSC QFE753/1005"
  },
  "taf": {
    "RJAA": "TAF RJAA 122305Z 1300/1406 28012KT 9999 FEW020 BKN040 BECMG 1308/1310 36006KT BECMG 1315/1318 14010KT",
    "PANC": "TAF PANC 122338Z 1300/1406 03006KT 6SM -RA SCT007 BKN035 OVC060 TEMPO 1300/1302 4SM -RA BR BKN025 FM130300 16010G22KT P6SM -SHRA SCT030 OVC060 FM131800 17008G18KT 6SM -SHRA BR SCT008 BKN025 OVC050",
    "PAFA": "TAF PAFA 122320Z 1300/1406 16004KT P6SM FEW070 BKN100 FM130600 21004KT P6SM -SHRA OVC050 FM130900 22008KT P6SM VCSH BKN050 BKN100 FM140000 21006KT P6SM -SHRA BKN050",
    "PAED": "TAF PAED 122100Z 1221/1403 33003KT 8000 -SHRA FEW008 OVC060 620608 QNH2983INS TEMPO 1221/1301 6000 RA BKN006 OVC015 BECMG 1312/1313 22006KT 6000 -RA BKN006 OVC015 620608 QNH2995INS BECMG 1317/1318 20006KT 8000 -SHRA SCT006 OVC018 620608 QNH3001INS TX12/1320Z TN11/1313Z",
    "KSEA": "TAF KSEA 122324Z 1300/1406 30010KT P6SM SCT060 SCT250 FM130500 03006KT P6SM FEW250 FM131700 35006KT P6SM FEW250 FM132100 31007KT P6SM FEW250",
    "ZSPD": "TAF ZSPD 122111Z 1300/1406 16010G15MPS 8000 BKN020 TX32/1306Z TX34/1406Z TN28/1321Z BECMG 1309/1310 18007MPS",
    "ZSSS": "TAF ZSSS 122109Z 1300/1406 16009G14MPS 8000 BKN020 TX34/1306Z TX36/1406Z TN28/1321Z BECMG 1306/1307 17005MPS",
    "RJFR": "TAF AMD RJFR 130007Z 1300/1406 05004KT 9999 FEW025 TEMPO 1300/1302 3000 BR BKN003 BECMG 1304/1306 33012KT BECMG 1312/1315 25004KT BECMG 1321/1400 04006KT",
    "VHHH": "TAF VHHH 122300Z 1300/1406 12010KT 9999 FEW020 TX33/1306Z TX29/1406Z TN26/1322Z TEMPO 1301/1306 22010KT TEMPO 1304/1308 4000 SHRA FEW010CB SCT020 TEMPO 1317/1321 16015G25KT 3500 SHRA FEW010CB SCT020 TEMPO 1321/1406 VRB20G30KT 2000 TSRA SHRA FEW008CB SCT015",
    "RCTP": "TAF RCTP 122300Z 1300/1406 22007KT 9999 FEW012 BKN032 BECMG 1303/1305 02008KT TEMPO 1303/1309 5000 SHRA SCT008 FEW010CB BKN012 TEMPO 1314/1318 18005KT 4000 SHRA SCT006 FEW010CB BKN012 TEMPO 1318/1322 13005KT BECMG 1322/1400 34007KT",
    "ZGSZ": "TAF ZGSZ 122111Z 1300/1406 18004MPS 8000 SCT030 TX33/1306Z TX30/1406Z TN29/1322Z TEMPO 1307/1311 TSRA FEW020CB BKN030 BECMG 1316/1318 SHRA FEW015 FEW025CB BKN030 TEMPO 1323/1403 1500 +TSRA",
    "WSSS": "TAF WSSS 122300Z 1300/1406 15008KT 9999 FEW015 SCT020",
    "WMKK": "TAF WMKK 122300Z 1300/1406 14007KT 9999 FEW018",
    "VTBS": "TAF VTBS 122300Z 1300/1406 24008KT 9999 FEW020 TEMPO 1308/1312 VRB15KT 4000 TSRA FEW018CB SCT030 BKN080",
    "VTBU": "TAF VTBU 122300Z 1300/1324 25008KT 9999 FEW020 SCT100 TEMPO 1308/1313 VRB15KT 4000 TSRA FEW018CB SCT030 BKN090",
    "ROAH": "TAF ROAH 122305Z 1300/1406 17018KT 9999 FEW010 SCT020 TEMPO 1315/1400 FEW005 BKN008",
    "VVDN": "TAF VVDN 122300Z 1300/1324 22008KT 9999 FEW017 SCT060 PROB40 TEMPO 1309/1313 24015G25KT 4500 TSRA BKN013 FEW015CB BKN050",
    "RCKH": "TAF RCKH 122300Z 1300/1406 15013KT 9999 FEW015 BKN032 TEMPO 1303/1309 16018G28KT 5000 SHRA FEW010 FEW012CB BKN020 TEMPO 1310/1316 5000 SHRA FEW010 FEW012CB BKN020 BECMG 1314/1316 16018KT TEMPO 1316/1320 5000 SHRA FEW010 FEW012CB BKN020",
    "KLAX": "TAF KLAX 122331Z 1300/1406 28008KT P6SM BKN150 FM130800 VRB03KT P6SM SCT015 FM131700 26006KT P6SM BKN120 FM132100 26012KT P6SM BKN250",
    "KONT": "TAF KONT 122329Z 1300/1406 25010G19KT P6SM BKN150 FM130300 24008KT P6SM SCT150 FM130700 VRB04KT P6SM BKN150 FM131900 25010G18KT P6SM BKN150 FM140400 VRB04KT P6SM SCT150",
    "KSFO": "TAF KSFO 122321Z 1300/1406 30015KT P6SM BKN200 FM130300 28010KT P6SM BKN200 FM130600 31007KT P6SM BKN200 FM132000 29014KT P6SM BKN200 FM140400 29010KT P6SM BKN200",
    "KOAK": "TAF KOAK 122321Z 1300/1406 29009KT P6SM BKN200 FM130900 27005KT P6SM BKN150 FM132100 29010KT P6SM BKN200 FM140400 29005KT P6SM BKN200",
    "KMHR": "TAF KMHR 122327Z 1300/1324 20008KT P6SM VCSH OVC200 FM130400 16006KT P6SM BKN250 FM131200 VRB03KT P6SM OVC150 FM132200 23008KT P6SM BKN200",
    "KDFW": "TAF KDFW 122320Z 1300/1406 01010KT P6SM VCTS SCT070CB BKN110 TEMPO 1300/1303 35025G35KT 4SM -TSRA BKN050CB FM130400 12005KT P6SM FEW070 BKN170 FM131000 10006KT P6SM VCTS BKN025CB FM131400 13006KT P6SM BKN060",
    "KIAH": "TAF KIAH 122328Z 1300/1406 VRB04KT P6SM VCSH FEW025 BKN150 BKN250 FM130200 15005KT P6SM SCT020 BKN120 FM131400 VRB03KT P6SM BKN035 BKN100 FM131700 17007KT 5SM SHRA VCTS SCT025CB OVC100 PROB30 1317/1322 4SM TSRA BKN025CB FM132300 15008KT 6SM SHRA BR SCT025 BKN035 PROB30 1323/1402 4SM TSRA BKN035CB",
    "KORD": "TAF KORD 122320Z 1300/1406 07008KT P6SM SKC FM130300 VRB03KT P6SM SKC FM131300 29006KT P6SM FEW250 FM132200 11007KT P6SM FEW050",
    "KJFK": "TAF KJFK 122335Z 1300/1406 18010KT P6SM SCT060 FM130200 19006KT P6SM FEW070 FM131200 21007KT P6SM FEW070 FM131500 20010KT P6SM FEW070 FM131800 18015KT P6SM SCT070 FM140300 21009KT P6SM FEW250",
    "KRFD": "TAF KRFD 122320Z 1300/1324 VRB03KT P6SM SKC FM131400 29006KT P6SM FEW250",
    "KIND": "TAF KIND 122328Z 1300/1406 04011G20KT P6SM FEW050 FM130100 05005KT P6SM SKC FM131600 04011KT P6SM FEW050",
    "KDTW": "TAF KDTW 122335Z 1300/1406 09007KT P6SM SCT060 FM130100 VRB03KT P6SM BKN250 FM131400 24005KT P6SM SCT250 FM131800 24008KT P6SM FEW045 SCT250",
    "KMSP": "TAF KMSP 122320Z 1300/1406 22008KT P6SM SKC",
    "CYEG": "TAF AMD CYEG 130027Z 1300/1324 VRB03KT P6SM SCT050 TEMPO 1300/1302 P6SM -SHRA VCTS BKN050CB BECMG 1300/1302 33015G25KT FM130200 33015G25KT P6SM SKC BECMG 1305/1307 VRB03KT FM131600 22005KT P6SM SKC FM132000 12008KT P6SM FEW080 RMK NXT FCST BY 130300Z",
    "EHAM": "TAF EHAM 122304Z 1300/1406 03008KT 9999 FEW015 BECMG 1300/1303 BKN012 PROB30 TEMPO 1303/1306 BKN008 BECMG 1307/1310 CAVOK",
    "EBBR": "TAF EBBR 122301Z 1300/1406 03008KT CAVOK",
    "EDDF": "TAF EDDF 122300Z 1300/1406 04008KT CAVOK",
    "EDFH": "TAF EDFH 122300Z 1300/1324 08007KT CAVOK",
    "EDDL": "TAF EDDL 122300Z 1300/1406 02008KT CAVOK",
    "EDDK": "TAF EDDK 122300Z 1300/1406 VRB03KT CAVOK BECMG 1311/1314 04008KT BECMG 1319/1322 09003KT",
    "EBLG": "TAF EBLG 122301Z 1300/1406 03008KT CAVOK",
    "LSZH": "TAF LSZH 122325Z 1300/1406 07006KT CAVOK TX32/1315Z TN14/1304Z TN18/1404Z BECMG 1300/1303 VRB02KT TEMPO 1315/1319 06006KT TEMPO 1321/1406 9999 FEW080TCU PROB40 TEMPO 1321/1406 SHRA PROB30 TEMPO 1321/1324 32015G30KT TSRA SCT070CB",
    "LIMC": "TAF LIMC 122300Z 1300/1406 VRB05KT CAVOK",
    "LIRF": "TAF LIRF 122300Z 1300/1406 05005KT CAVOK BECMG 1308/1310 21010KT BECMG 1314/1316 27010KT BECMG 1400/1402 05005KT PROB40 TEMPO 1400/1405 4000 BR",
    "EINN": "TAF EINN 122300Z 1300/1324 03007KT 9999 FEW035 BECMG 1306/1308 07012KT BECMG 1319/1321 04010KT BECMG 1322/1324 VRB03KT",
    "EGLL": "TAF EGLL 122255Z 1300/1406 06014KT CAVOK PROB30 TEMPO 1302/1308 BKN014 PROB30 TEMPO 1323/1402 BKN012 PROB40 1402/1406 SCT009 BKN010",
    "EGSS": "TAF EGSS 122254Z 1300/1406 05012KT 9999 FEW014 TEMPO 1300/1311 BKN014 PROB40 TEMPO 1308/1320 07015G25KT PROB30 TEMPO 1322/1401 BKN008 PROB40 1401/1406 BKN007 PROB30 TEMPO 1402/1406 8000 -DZ",
    "EPWA": "TAF EPWA 122330Z 1300/1324 VRB04KT 9999 BKN030 TEMPO 1302/1309 BKN004 BKN012 PROB30 TEMPO 1303/1309 -SHRA BKN020CB BECMG 1306/1309 32010KT TEMPO 1310/1321 -SHRA SCT020CB PROB30 TEMPO 1316/1320 3000 TSRA BKN014CB",
    "UHPP": "TAF UHPP 122238Z 1300/1406 17005G12MPS 9999 SCT050 BECMG 1309/1312 02003G08MPS",
    "EFHK": "TAF EFHK 122322Z 1300/1324 35009KT 9999 -SHRA FEW060CB BECMG 1300/1301 CAVOK PROB30 1312/1316 FEW030TCU",
    "LBBG": "TAF LBBG 122300Z 1300/1324 30006KT 9999 BKN045 TEMPO 1300/1305 5000 SHRA FEW030CB BKN040 BECMG 1309/1310 12010KT TEMPO 1310/1316 VRB16G26KT 3000 TSRA SCT030CB BKN040 BECMG 1318/1320 30010KT",
    "LTAC": "TAF LTAC 122240Z 1300/1324 VRB02KT CAVOK BECMG 1309/1311 FEW040 BECMG 1316/1318 CAVOK TEMPO 1320/1324 03012KT",
    "UBBB": "TAF UBBB 122305Z 1300/1324 32012KT CAVOK TX31/1310Z TN22/1301Z TEMPO 1300/1304 FEW010 FEW060CB TEMPO 1304/1315 34016G26KT FEW030",
    "UTAA": "TAF UTAA 122245Z 1300/1324 34016KT 6000 SCT050 TX40/1311Z TEMPO 1300/1303 29012G22KT TEMPO 1303/1312 30016G26KT 3000 BLDU BECMG 1316/1318 25014KT",
    "UACC": "TAF UACC 122304Z 1300/1324 VRB01MPS 9999 SCT040 BKN100 TX35/1309Z TN17/1300Z TEMPO 1305/1317 25005MPS SCT030CB PROB40 TEMPO 1308/1317 -TSRA BKN030CB",
    "UAAA": "TAF UAAA 122301Z 1300/1324 19002MPS 9999 SCT050CB BKN100 TX32/1310Z TN20/1301Z BECMG 1302/1304 32005MPS TEMPO 1308/1312 27006G12MPS 5000 -TSRA BLDU BECMG 1314/1316 17002MPS",
    "UZTT": "TAF UZTT 122300Z 1300/1324 08010KT 7000 NSC TX39/1311Z TN26/1300Z TEMPO 1306/1316 32015KT FEW060CB",
    "ZWWW": "TAF ZWWW 122105Z 1300/1406 18004MPS CAVOK TX38/1309Z TX37/1406Z TN27/1323Z BECMG 1302/1303 36004MPS BECMG 1313/1314 18004MPS BECMG 1402/1403 36004MPS",
    "ZLXY": "TAF ZLXY 122101Z 1300/1324 06004MPS 6000 NSC TX35/1308Z TN26/1321Z",
    "ZBAA": "TAF ZBAA 122103Z 1300/1406 36004MPS CAVOK TX33/1306Z TX31/1406Z TN23/1321Z",
    "ZBHH": "TAF ZBHH 122102Z 1300/1324 10004MPS 9999 FEW040 TX31/1308Z TN17/1322Z",
    "ZSQD": "TAF AMD ZSQD 122147Z 1300/1324 13005G12MPS 5000 -RA BR BKN008 TX28/1306Z TN25/1320Z BECMG 1300/1301 13008G17MPS TEMPO 1310/1314 RA BECMG 1312/1313 12005G12MPS TEMPO 1314/1318 2500 +RA",
    "ZMCK": "TAF ZMCK 122235Z 1300/1406 VRB02MPS 9999 FEW030CB SCT033 TX23/1307Z TN08/1321Z PROB40 TEMPO 1303/1312 VRB09G14MPS TSRA SCT027CB SCT030 BECMG 1305/1308 33007MPS BECMG 1310/1312 VRB02MPS BECMG 1403/1405 28006MPS",
    "UUEE": "TAF UUEE 122251Z 1300/1324 36003G08MPS 9000 FEW005 BKN016 TX22/1312Z TN16/1301Z TEMPO 1300/1305 0300 FG OVC003 TEMPO 1307/1318 01012G18MPS 2000 TSRA BKN016CB",
    "UUDD": "TAF UUDD 122254Z 1300/1406 01003MPS 6000 FEW007 BKN016 TX23/1313Z TN15/1303Z TEMPO 1300/1304 BKN005 TEMPO 1308/1320 01008G15MPS -TSRA BKN016CB",
    "ULLI": "TAF ULLI 122253Z 1300/1324 35003MPS 6000 SCT016 TEMPO 1300/1303 1500 BR PROB40 TEMPO 1307/1315 01005G10MPS -TSRA BKN016CB",
    "USSS": "TAF USSS 122250Z 1300/1324 36003G08MPS 6000 -SHRA BKN006 SCT016CB TEMPO 1300/1303 0300 FG VV002 FM130400 05003G14MPS 9999 BKN016CB TEMPO 1305/1321 -TSRAGR",
    "UNNT": "TAF UNNT 122300Z 1300/1324 24003G08MPS 8000 BKN040 TX27/1309Z TN11/1300Z BECMG 1312/1315 36005G10MPS TEMPO 1312/1324 -TSRA BKN020CB",
    "UNKL": "TAF UNKL 122244Z 1300/1324 13003G08MPS CAVOK",
    "UIBB": "TAF UIBB 122300Z 1300/1324 29003MPS 9999 -SHRA BKN004 BKN016CB BECMG 1303/1304 SCT016CB TEMPO 1304/1313 VRB08MPS",
    "UEEE": "TAF UEEE 122300Z 1300/1406 05005G10MPS 9999 SCT025CB OVC100 TX27/1306Z TN16/1318Z TEMPO 1300/1309 VRB12MPS 3200 -TSRA SCT010 BKN020CB OVC100 TEMPO 1309/1321 VRB17MPS 2100 -TSRA SQ SCT007 BKN017CB OVC100",
    "UHHH": "TAF UHHH 122253Z 1300/1406 18003MPS 9999 -SHRA FEW005 SCT017CB TX29/1305Z TN22/1318Z TEMPO 1300/1309 23003G08MPS 1500 TSRA",
    "UHSS": "TAF UHSS 122245Z 1300/1406 19003MPS 9999 BKN005 OVC012 TEMPO 1300/1406 BKN003 BKN016CB"
  },
  "atis": {},
  "windtemp_alaska": "\n000\nFBAK31 KWNO 121959\nFD1AK1\nDATA BASED ON 121800Z    \nVALID 130000Z   FOR USE 2000-0300Z. TEMPS NEG ABV 24000\n\nFT  3000    6000    9000   12000   18000   24000  30000  34000  39000\nADK 2217 2317+09 2322+06 2327+01 2339-09 2348-21 237836 228447 741158\nADQ 2613 2509+01 2411-03 2416-08 2727-18 2841-30 298841 297445 284645\nAKN 2518 2715-02 2616-05 2520-09 2732-19 2854-30 790140 288845 274945\nANC 1311 1429+00 1522-04 1719-08 1633-18 1741-29 175846 174851 211845\nANN 2306 2206+02 9900-03 9900-09 0508-20 0815-34 102750 071747 990043\nBET 2321 2421-01 2626-06 2626-11 2731-21 2741-32 275241 274840 263242\nBRW 1118 1316+04 1517-01 1518-06 1514-18 1719-29 182745 183155 181450\nBTI 2717 2510+07 2416+02 2216-04 2217-17 2121-28 222244 222553 212457\nBTT 9900 2607+03 2115-02 1715-07 1825-18 1731-30 174544 186055 183048\nCDB 2312 2521+02 2638-01 2753-01 2754-12 2761-23 277638 289447 289555\nCZF 2215 2315+00 2413-03 2411-09 2608-21 2606-32 251145 272742 262541\nEHM 2522 2422-01 2519-04 2624-10 2746-18 2776-27 771339 772247 275946\nFAI 1405 1206+05 1409-01 1613-06 1731-18 1836-30 184543 164354 173049\nFYU 2610 2314+06 2019+00 2019-05 1923-17 1933-28 192443 193053 182756\nGAL 1613 1721+00 1724-04 1726-10 1632-22 1636-32 164247 153146 181842\nGKN 1817 1724+03 1625-01 1728-05 1733-17 1839-28 173644 183653 172151\nHOM 1306 1316+01 1606-04 2008-08 1919-20 1828-32 173745 212143 252343\nJNU 2105 2312+01 2409-01 9900-05 0708-17 0616-29 052545 053155 051550\nLUR 1729 1518+01 1222-03 1224-07 1221-19 1124-31 102648 102349 121245\nMCG 1708 1825+00 1728-05 1730-10 1628-22 1637-33 164746 172643 211942\nMDO 1528 1626+03 1723-01 1720-06 1736-17 1737-28 174444 174353 221448\nOME 1520 1624-02 1526-04 1418-09 1310-21 1708-33 181147 190844 210941\nORT      9900+09 1713+03 1717-04 1817-16 1718-28 192544 182653 181456\nOTZ 1620 1727-01 1724-05 1822-09 1518-21 1424-32 143148 142246 171442\nSNP 2514 2509+00 2516-03 2527-06 2758-14 2678-24 259239 750148 268851\nTKA 9900 1913+00 1518-03 1622-09 1636-18 1646-30 175946 165151 192245\nUNK 1416 1619-01 1523-05 1529-11 1424-21 1517-34 132246 161043 201542\nYAK 9900 2106+01 2511+00 2409-05 1408-16 1409-28 111044 080954 990055\nIKO 2521 2534+08 2544+05 2545+01 2751-10 2557-20 268036 269546 267957\nAFM 1515 1818+00 1921-05 1828-09 1636-20 1635-31 154647 153850 161944\n5AB 2912 2815+08 2815+05 2713+00 2711-12 2509-23 351137 351248 210956\n5AC 1808 1608+01 1306-03 0105-08 3312-20 3421-33 325045 324248 312445\n5AD 9900 2708+03 2811-01 2914-03 2615-16 1813-28 302542 315447 314648\n5AE 2613 2823+04 2829+01 2835-05 2957-12 2970-23 298038 298447 297456\n5AF 2210 2305+02 1705-01 9900-06 0712-19 0427-30 053546 054354 041048\n5AG 1715 1914+04 1820+00 1719-06 1717-16 1719-28 161944 152053 990053\n",
  "vaac_active": [
    {
      "volcano": "MAYON",
      "volcano_jp": "マヨン",
      "advisory_nr": "2026/728",
      "obs_time": "2026-07-12 17:53Z",
      "issued_time": "2026-07-12 21:34Z",
      "text_url": "https://www.data.jma.go.jp/vaac/data/TextData/2026/20260712_27303000_0728_Text.html",
      "lat": 13.25,
      "lon": 123.683,
      "text": "FVFE01 RJTD 122134\nVA ADVISORY\nDTG: 20260712/2134Z\nVAAC: TOKYO\nVOLCANO: MAYON 273030\nPSN: N1315 E12341\nAREA: PHILIPPINES\nSOURCE ELEV: 2462M AMSL\nADVISORY NR: 2026/728\nINFO SOURCE: HIMAWARI-9 PHIVOLCS\nERUPTION DETAILS: ERUPTION AT 20260712/1753Z FL090 EXTD NE REPORTED\nOBS VA DTG: 12/2120Z\nOBS VA CLD: VA NOT IDENTIFIABLE FM SATELLITE DATA WIND FL090 210/8KT\nFCST VA CLD +6 HR: NOT AVBL\nFCST VA CLD +12 HR: NOT AVBL\nFCST VA CLD +18 HR: NOT AVBL\nRMK: WE WILL ISSUE FURTHER ADVISORY IF VA IS DETECTED IN SATELLITE \nIMAGERY.\nNXT ADVISORY: NO FURTHER ADVISORIES="
    },
    {
      "volcano": "MAYON",
      "volcano_jp": "マヨン",
      "advisory_nr": "2026/727",
      "obs_time": "2026-07-12 17:53Z",
      "issued_time": "2026-07-12 18:09Z",
      "text_url": "https://www.data.jma.go.jp/vaac/data/TextData/2026/20260712_27303000_0727_Text.html",
      "lat": 13.25,
      "lon": 123.683,
      "text": "FVFE01 RJTD 121809\nVA ADVISORY\nDTG: 20260712/1809Z\nVAAC: TOKYO\nVOLCANO: MAYON 273030\nPSN: N1315 E12341\nAREA: PHILIPPINES\nSOURCE ELEV: 2462M AMSL\nADVISORY NR: 2026/727\nINFO SOURCE: HIMAWARI-9 PHIVOLCS\nERUPTION DETAILS: ERUPTION AT 20260712/1753Z VA CLD UNKNOWN REPORTED\nOBS VA DTG: 12/1750Z\nOBS VA CLD: VA NOT IDENTIFIABLE FM SATELLITE DATA WIND FL180 160/2KT\nFCST VA CLD +6 HR: NOT AVBL\nFCST VA CLD +12 HR: NOT AVBL\nFCST VA CLD +18 HR: NOT AVBL\nRMK: WE WILL ISSUE FURTHER ADVISORY IF VA IS DETECTED IN SATELLITE \nIMAGERY.\nNXT ADVISORY: NO FURTHER ADVISORIES="
    },
    {
      "volcano": "桜島",
      "volcano_jp": "桜島",
      "advisory_nr": "2026/81",
      "obs_time": "2026-07-12 17:44Z",
      "issued_time": "2026-07-12 18:06Z",
      "text_url": "https://www.data.jma.go.jp/vaac/data/TextData/2026/20260712_28208001_0081_Text.html",
      "lat": 31.6,
      "lon": 130.65,
      "text": "FVFE01 RJTD 121806\nVA ADVISORY\nDTG: 20260712/1806Z\nVAAC: TOKYO\nVOLCANO: SAKURAJIMA (AIRA CALDERA) 282080\nPSN: N3136 E13039\nAREA: JAPAN\nSOURCE ELEV: 1117M AMSL\nADVISORY NR: 2026/81\nINFO SOURCE: JMA HIMAWARI-9\nERUPTION DETAILS: ERUPTED AT 20260712/1744Z FL070 EXTD NE\nOBS VA DTG: 12/1750Z\nOBS VA CLD: VA NOT IDENTIFIABLE FM SATELLITE DATA WIND FL070 230/5KT\nFCST VA CLD +6 HR: NOT AVBL\nFCST VA CLD +12 HR: NOT AVBL\nFCST VA CLD +18 HR: NOT AVBL\nRMK: WE WILL ISSUE FURTHER ADVISORY IF VA IS DETECTED IN SATELLITE \nIMAGERY.\nNXT ADVISORY: NO FURTHER ADVISORIES="
    }
  ],
  "vaac_tokyo": [
    {
      "id": "20260712_27303000_0728",
      "year": "2026",
      "volcano": "Mayon",
      "psn": "N1315 E12341",
      "issued": "20260712",
      "text": "FVFE01 RJTD 122134\nVA ADVISORY\nDTG: 20260712/2134Z\nVAAC: TOKYO\nVOLCANO: MAYON 273030\nPSN: N1315 E12341\nAREA: PHILIPPINES\nSOURCE ELEV: 2462M AMSL\nADVISORY NR: 2026/728\nINFO SOURCE: HIMAWARI-9 PHIVOLCS\nERUPTION DETAILS: ERUPTION AT 20260712/1753Z FL090 EXTD NE REPORTED\nOBS VA DTG: 12/2120Z\nOBS VA CLD: VA NOT IDENTIFIABLE FM SATELLITE DATA WIND FL090 210/8KT\nFCST VA CLD +6 HR: NOT AVBL\nFCST VA CLD +12 HR: NOT AVBL\nFCST VA CLD +18 HR: NOT AVBL\nRMK: WE WILL ISSUE FURTHER ADVISORY IF VA IS DETECTED IN SATELLITE \nIMAGERY.\nNXT ADVISORY: NO FURTHER ADVISORIES=",
      "img_url": "https://ds.data.jma.go.jp/svd/vaac/data/VAGFN/2026/Images/20260712_27303000_0728_QH21_01.png",
      "sat_img_url": null,
      "text_url": "https://ds.data.jma.go.jp/svd/vaac/data/TextData/2026/20260712_27303000_0728_Text.html"
    },
    {
      "id": "20260712_28208001_0081",
      "year": "2026",
      "volcano": null,
      "psn": "N3136 E13039",
      "issued": "20260712",
      "text": "FVFE01 RJTD 121806\nVA ADVISORY\nDTG: 20260712/1806Z\nVAAC: TOKYO\nVOLCANO: SAKURAJIMA (AIRA CALDERA) 282080\nPSN: N3136 E13039\nAREA: JAPAN\nSOURCE ELEV: 1117M AMSL\nADVISORY NR: 2026/81\nINFO SOURCE: JMA HIMAWARI-9\nERUPTION DETAILS: ERUPTED AT 20260712/1744Z FL070 EXTD NE\nOBS VA DTG: 12/1750Z\nOBS VA CLD: VA NOT IDENTIFIABLE FM SATELLITE DATA WIND FL070 230/5KT\nFCST VA CLD +6 HR: NOT AVBL\nFCST VA CLD +12 HR: NOT AVBL\nFCST VA CLD +18 HR: NOT AVBL\nRMK: WE WILL ISSUE FURTHER ADVISORY IF VA IS DETECTED IN SATELLITE \nIMAGERY.\nNXT ADVISORY: NO FURTHER ADVISORIES=",
      "img_url": "https://ds.data.jma.go.jp/svd/vaac/data/VAGFN/2026/Images/20260712_28208001_0081_QH21_01.png",
      "sat_img_url": null,
      "text_url": "https://ds.data.jma.go.jp/svd/vaac/data/TextData/2026/20260712_28208001_0081_Text.html"
    },
    {
      "id": "20260712_27307000_0012",
      "year": "2026",
      "volcano": "Taal",
      "psn": "N1400 E12100",
      "issued": "20260712",
      "text": "FVFE01 RJTD 121243\nVA ADVISORY\nDTG: 20260712/1243Z\nVAAC: TOKYO\nVOLCANO: TAAL 273070\nPSN: N1400 E12100\nAREA: PHILIPPINES\nSOURCE ELEV: 311M AMSL\nADVISORY NR: 2026/12\nINFO SOURCE: HIMAWARI-9 PHIVOLCS\nERUPTION DETAILS: ERUPTION AT 20260712/1227Z FL050 EXTD NE REPORTED\nOBS VA DTG: 12/1230Z\nOBS VA CLD: VA NOT IDENTIFIABLE FM SATELLITE DATA WIND FL050 230/19KT\nFCST VA CLD +6 HR: NOT AVBL\nFCST VA CLD +12 HR: NOT AVBL\nFCST VA CLD +18 HR: NOT AVBL\nRMK: WE WILL ISSUE FURTHER ADVISORY IF VA IS DETECTED IN SATELLITE \nIMAGERY.\nNXT ADVISORY: NO FURTHER ADVISORIES=",
      "img_url": "https://ds.data.jma.go.jp/svd/vaac/data/VAGFN/2026/Images/20260712_27307000_0012_QH21_01.png",
      "sat_img_url": null,
      "text_url": "https://ds.data.jma.go.jp/svd/vaac/data/TextData/2026/20260712_27307000_0012_Text.html"
    },
    {
      "id": "20260712_30019000_0003",
      "year": "2026",
      "volcano": "Krasheninnikov",
      "psn": "N5436 E16016",
      "issued": "20260712",
      "text": "FVFE01 RJTD 120130\nVA ADVISORY\nDTG: 20260712/0130Z\nVAAC: TOKYO\nVOLCANO: KRASHENINNIKOV 300190\nPSN: N5436 E16016\nAREA: RUSSIA\nSOURCE ELEV: 1816M AMSL\nADVISORY NR: 2026/3\nINFO SOURCE: HIMAWARI-9\nERUPTION DETAILS: VA AT 20260712/0100Z FL080 EXTD SE\nOBS VA DTG: 12/0100Z\nOBS VA CLD: SFC/FL080 N5440 E16023 - N5412 E16045 - N5402 E16033 - \nN5434 E16013 MOV SE 20KT\nFCST VA CLD +6 HR: 12/0700Z SFC/FL080 N5310 E16258 - N5251 E16229 - \nN5302 E16111 - N5436 E16016\nFCST VA CLD +12 HR: 12/1300Z SFC/FL090 N5233 E16425 - N5158 E16444 - \nN5210 E16103 - N5446 E16008 - N5251 E16216\nFCST VA CLD +18 HR: 12/1900Z SFC/FL090 N5142 E16614 - N5044 E16548 - \nN5213 E15943 - N5432 E15924 - N5448 E16118 - N5223 E16227\nRMK: NIL\nNXT ADVISORY: 20260712/0600Z=",
      "img_url": "https://ds.data.jma.go.jp/svd/vaac/data/VAGFN/2026/Images/20260712_30019000_0003_QH21_01.png",
      "sat_img_url": "https://ds.data.jma.go.jp/svd/vaac/data/Sat/2026/Images/30019000/09-ir/20260712_0100_202607120130_ir.png",
      "text_url": "https://ds.data.jma.go.jp/svd/vaac/data/TextData/2026/20260712_30019000_0003_Text.html"
    }
  ],
  "vaac_alaska": [
    {
      "text": "\n000\nFVAK21 PAWU 111230\nVAAAK1\nVA ADVISORY\n\nDTG: 20260711/1224Z\n\nVAAC: ANCHORAGE\n\nVOLCANO: SHEVELUCH 300270\n\nPSN: N5639 E16122\n\nAREA: KAMCHATKA PENINSULA\n\nSOURCE ELEV: 10771 FT AMSL\n\nADVISORY NR: 2026/193\n\nRMK: PLEASE SEE FVXX2 KNES ISSUED BY VAAC WASHINGTON WHICH DESCRIBES\nCONDITIONS NEAR THE VAAC ANCHORAGE AREA OF RESPONSIBILITY...CC\n\n\n\n",
      "issued": "2026-07-11T12:30:00+00:00",
      "volcano": "Sheveluch",
      "psn": "N5639 E16122"
    }
  ]
}